"zip","city","state","name","address","postalCode","lat","lon"
"84003","American Fork","UT","Vasa Fitness","634 E State Rd","84003",40.37222866081249,-111.78209067356765
"84003","American Fork","UT","Pleasant Grove Community Center","547 S Locust Ave","84062",40.358210654493575,-111.72744261524929
"84003","American Fork","UT","Suncrest Fitness Room","not_available","84020",40.48034953741295,-111.83608709922369
"84003","American Fork","UT","Orangetheory Fitness","1536 E 3100 N","84043",40.4310335,-111.825327
"84003","American Fork","UT","Curves","not_available","84062",40.356227000000004,-111.73776000000001
"84003","American Fork","UT","Crossfit Timpanogos","not_available","84043",40.38708,-111.829706
"84003","American Fork","UT","Orangetheory Fitness","499 S 500 E","84003",40.36711883544922,-111.7847900390625
"84003","American Fork","UT","Anytime Fitness","11117 North Alpine Hwy","84003",40.433869,-111.78536299999999
"84003","American Fork","UT","Karve Studio","not_available","not_available",40.347613,-111.727572
"84003","American Fork","UT","Crossfit XD","346 E State Rd","84062",40.35444522059043,-111.73545176120139
"84003","American Fork","UT","Core Fit Studio","305 S 850 E, Unit 101B","84043",40.3848266,-111.8349038
"84003","American Fork","UT","Kaitlyn's Workout Room","not_available","84092",40.555799,-111.819292
"84003","American Fork","UT","Alpine Fitness","75 W Main Street Ct","84004",40.44899139767402,-111.77930653095244
"84003","American Fork","UT","Emilee's Training/Fitness","not_available","84003",40.382667918849414,-111.80615529235423
"84003","American Fork","UT","Newport Sports Club","11117 N Alpine Hwy","84003",40.43327753676721,-111.78515422588227
"84003","American Fork","UT","Colossal Crossfit","870 N 100 E","84043",40.3876021,-111.843118
"84003","American Fork","UT","Alta Canyon Sports Center","1894 E 9400 S","84092",40.57779098558691,-111.83355503621614
"84003","American Fork","UT","F45 Training Lindon","259 N 290 W","84042",40.342309,-111.723215
"84010","Bountiful","UT","South Davis Recreation Center","550 N 200 W","84010",40.89568179202962,-111.88321741248342
"84010","Bountiful","UT","Vasa Fitness","250 W 1500 S","84010",40.874881579362345,-111.88649112594506
"84010","Bountiful","UT","Ferocity Crossfit","544 W 750 S","84010",40.88224792480469,-111.89368438720703
"84010","Bountiful","UT","GPP Fitness","40 E Pages Ln","84014",40.90630340576172,-111.8783187866211
"84010","Bountiful","UT","EōS Fitness","2399 S Main St","84010",40.8631737,-111.893655
"84010","Bountiful","UT","F45 Training Bountiful","245 W 500 S","84010",40.8840168,-111.886459
"84010","Bountiful","UT","Anytime Fitness","533 W 750 S","84010",40.88184,-111.89345
"84010","Bountiful","UT","Orangetheory Fitness","85 W 500 S","84010",40.883644,-111.882645
"84010","Bountiful","UT","4 Pillars Fitness","395 N 200 W","84010",40.893585205078125,-111.88613891601562
"84014","Centerville","UT","Personal Zumba","not_available","84014",40.91970869054999,-111.87085229575324
"84014","Centerville","UT","Total Health and Fitness","1222 W Legacy Crossing Blvd","84014",40.92046,-111.89632
"84014","Centerville","UT","TRAIN STRENGTH BARBELL","2204 N 640 W","84087",40.91339874267578,-111.89662170410156
"84015","Clearfield","UT","Snap Fitness","2107 W 1700 S","84075",41.08880697999879,-112.0666374609845
"84015","Clearfield","UT","Hill AFB family gym","Hill AFB","84040",41.114832980707675,-112.00390533404082
"84015","Clearfield","UT","My Gym","1978 N 1200 W","84041",41.087910772438725,-111.98748140023744
"84015","Clearfield","UT","O & M's Hap Kwon Do Martial Arts Institute","2437 N Main St #A","84015",41.121069,-112.049146
"84015","Clearfield","UT","Clinton City Recreation Center","not_available","84015",41.146377,-112.057526
"84015","Clearfield","UT","Hidden Cove Gym","2075 N Main St","84041",41.090652,-112.004261
"84015","Clearfield","UT","French Kiss Fitness","not_available","84075",41.08857727050781,-112.06660461425781
"84015","Clearfield","UT","Anytime Fitness","1803 W 1800 N Ste E4","84015",41.139032,-112.060355
"84015","Clearfield","UT","Kilted Fitness","1959 N 350 W","84015",41.1421012878418,-112.0331802368164
"84015","Clearfield","UT","Gym At My House","1124 E 1100 S","84015",41.09751892089844,-112.00486755371094
"84015","Clearfield","UT","EōS Fitness","1792 S 1000 W","84075",41.0879376,-112.0467042
"84020","Draper","UT","Total Health and Fitness","767 E 12300 S","84020",40.52722,-111.86958
"84020","Draper","UT","1800 Contacts","66 E Wadsworth Park Dr","84020",40.501434326171875,-111.88985443115234
"84020","Draper","UT","VASA Fitness","12101 S Factory Outlet Dr","84020",40.53116543596711,-111.88786816128719
"84020","Draper","UT","Ute Crossfit","1006 E Draper Pkwy","84020",40.526635,-111.862948
"84020","Draper","UT","Ozone Fit","Draper Spectrum","not_available",40.532066345214844,-111.88794708251953
"84020","Draper","UT","Crossfit Draper","146 E 13065 S Ste C","84020",40.514088,-111.88708600000001
"84020","Draper","UT","Crossfit The Point","not_available","84065",40.48939,-111.91841
"84020","Draper","UT","Ultimate Combat Training Center","1134 East Draper Parkway, (12300 South)","84020",40.52753820321567,-111.85852152513121
"84020","Draper","UT","JAMstudios","556 12300 S","84020",40.5273853,-111.90651880000001
"84020","Draper","UT","Orangetheory Fitness","111 13800 S","84020",40.500946,-111.8875799
"84020","Draper","UT","eBay Gym (B5)","173 W Election Rd","84020",40.536360915574434,-111.89560209514954
"84020","Draper","UT","F45 Training Draper","278 E 12300 S","84020",40.526386,-111.883071
"84020","Draper","UT","Snap Fitness","129 E 13800 S #A7","84020",40.502662658691406,-111.88726806640625
"84020","Draper","UT","Treehouse Athletic Club","1101 E Draper Pkwy","84020",40.52898799279533,-111.85912192127495
"84020","Draper","UT","Bootcamp with Jess","392 E 12300 S","84020",40.525703,-111.879645
"84020","Draper","UT","Fitness Republic","14953 S Heritagecrest Way Ste C","84065",40.47963333129883,-111.91092681884766
"84022","Dugway","UT","At The Gym","Valdez Circle","84022",40.224686682523576,-112.74543266697667
"84025","Farmington","UT","FIT Gym","828 Shepard Ln","84025",41.001190185546875,-111.90557098388672
"84025","Farmington","UT","BODYWORX HEALTH CLUB","1335 N 1075 W","84025",41.0024528503418,-111.91004180908203
"84025","Farmington","UT","Frequency Intensity Training","not_available","84025",41.001330054955055,-111.90639102061996
"84025","Farmington","UT","The GYM At Station park","320 North Station Park","801-589-0374",40.99708121912058,-111.9079182059079
"84029","Grantsville","UT","Anytime Fitness","225 E. Main St","84029",40.60089,-112.45638
"84032","Heber City","UT","St Regis Athletic Club","2300 Deer Valley Dr E","84060",40.638096999999995,-111.477071
"84032","Heber City","UT","Lodges at Deer Valley","2900 Deer Valley Dr E Suite 201,","84060",40.644244,-111.47635
"84032","Heber City","UT","Dance Trance Park City (Heber Valley)","not_available","84032",40.49736785888672,-111.38301086425781
"84032","Heber City","UT","High Performance Strength and Conditioning","209 S 100 E","84036",40.6396093,-111.278302
"84032","Heber City","UT","Ruthless Performance, Inc.","544 Airport Rd Unit B10","84032",40.483023,-111.422483
"84032","Heber City","UT","South Summit Aquatic & Fitness Center","350 E 200 S","84036",40.63998435400783,-111.27284634366758
"84037","Kaysville","UT","Vasa Fitness - Kaysville","170 W 200 N","84037",41.038643295268976,-111.94071626853122
"84037","Kaysville","UT","Fuel Crossfit","334 N Main St","84037",41.04153823852539,-111.9426498413086
"84037","Kaysville","UT","Gold's Gym","1188 Sport Plex Dr","84037",41.044253000000005,-111.961771
"84037","Kaysville","UT","Wasatch CrossFit","283 E Gentile St","84041",41.060447692871094,-111.96051788330078
"84037","Kaysville","UT","Lifelong fitness","288 W 200 N","84037",41.038360595703125,-111.94379425048828
"84037","Kaysville","UT","Orangetheory Fitness","349 N Flint St","84037",41.040455,-111.965377
"84037","Kaysville","UT","Golds Gym","18 N Fort Ln","84041",41.06047754094965,-111.95742457004019
"84037","Kaysville","UT","Lifelong Fitness Personal Training Gym","590 N Kays Dr Ste 101","84037",41.0450757,-111.9580532
"84037","Kaysville","UT","Crossroads Fitness","70 S Fairfield Rd","84041",41.06070929727072,-111.94603402010469
"84037","Kaysville","UT","E?S Fitness","1188 Sportsplex Dr","84037",41.0441036,-111.9621234
"84040","Layton","UT","My Gym","610 W 1425 N","84041",41.080888,-111.97750500000001
"84040","Layton","UT","Anytime Fitness","1330 E Hwy 193 Ste C2","84040",41.100093,-111.941658
"84040","Layton","UT","Basic Therapy - Moisturized Breathing","472 W 1425 N","84041",41.080973,-111.974877
"84040","Layton","UT","lifelong fitness","not_available","84041",41.08562469087616,-111.97278071147953
"84040","Layton","UT","Epix Fit Club","2490 church street","84040",41.095899,-111.940582
"84040","Layton","UT","Kinetic Fitness Cycle","2940 N Church St Ste 204","84040",41.10249710083008,-111.93785858154297
"84040","Layton","UT","Hill Warrior Fitness Center","5713 E Ave","84056",41.10635116566205,-111.97754809483801
"84040","Layton","UT","Snap Fitness 24-7","781 E Gordon Ave","84041",41.075562,-111.952095
"84040","Layton","UT","HAFB Gym","not_available","84056",41.116839,-111.97832336666667
"84040","Layton","UT","Retro Fitness","475 W. 1425 North","84041",41.080193,-111.976127
"84040","Layton","UT","Snap Fitness","1123 N Fairfield Rd","84041",41.0753481767954,-111.95182119776678
"84042","Lindon","UT","EXL Fitness & Performance","1623 N State St","84057",40.327463,-111.710473
"84042","Lindon","UT","Hansen Mountaineering","1799 N State St","84057",40.329895,-111.711312
"84043","Lehi","UT","Vasa Fitness","not_available","84045",40.38984670950168,-111.91782434137727
"84043","Lehi","UT","Brick Canvas Fitness","2455 W Executive Pkwy #104","84043",40.4256598,-111.8886712
"84043","Lehi","UT","CYCLEBAR","24 Pioneer Crossing, Suite 100","84045",40.37320530043681,-111.91720049140167
"84043","Lehi","UT","Bikram Yoga at Brick Canvas","2455 Executive Pkwy","84043",40.425592469797245,-111.88862269331088
"84043","Lehi","UT","Anytime Fitness","328 E SR 73","84045",40.3878,-111.90898
"84043","Lehi","UT","Aces Athletics","3500 N 1200 W","84043",40.4303176529086,-111.86848847115002
"84043","Lehi","UT","Gymcats","3300 W Pilgrims Loop","84043",40.438846999999996,-111.901271
"84043","Lehi","UT","Hampton Inn Gym","3576 W Maple Loop Dr","84043",40.43228207202944,-111.89547442277029
"84043","Lehi","UT","Adobe Gym","3900 N Adobe Way","84043",40.43486069825444,-111.89180096866883
"84044","Magna","UT","alicias gym","not_available","84044",40.696773529052734,-112.09458923339844
"84045","Saratoga Springs","UT","SSOA Clubhouse","650 South Saratoga Drive","84045",40.345031,-111.914686
"84045","Saratoga Springs","UT","ZuTroy's Gym","400 west","not_available",40.361980348481545,-111.92853927612305
"84047","Midvale","UT","Vasa Fitness","7990 S 1300 E","84094",40.60667223715383,-111.85433954456484
"84047","Midvale","UT","Gym @ Talavera","1004 W Tuscany View Rd","84047",40.61542892456055,-111.91832733154297
"84047","Midvale","UT","Trainer Zone Fitness","201 W Cottage Ave","84070",40.591865000000006,-111.89757900000001
"84047","Midvale","UT","Warrior Fitness","7355 S 900 E","84047",40.616920471191406,-111.86559295654297
"84047","Midvale","UT","Bootcamp with Jess","6751 South 900 East","84047",40.628543853759766,-111.8654556274414
"84047","Midvale","UT","YogaSix","1086 E Fort Union Blvd Ste 19","84047",40.622019,-111.861054
"84047","Midvale","UT","UFC Gym Sandy","7653 S 700 E","84047",40.61141054860634,-111.87134136275888
"84047","Midvale","UT","Orangetheory Fitness","6953 S 1300 E","84047",40.624245,-111.853804
"84047","Midvale","UT","Remington Fitness Center","not_available","84047",40.617325,-111.893078
"84047","Midvale","UT","Big Mountain Barbell","741 W Smelter St","84047",40.6122,-111.911
"84047","Midvale","UT","Extreme Ripped Fitness","8700 S Sandy Pkwy","84070",40.59362,-111.905598
"84047","Midvale","UT","A.W.A.Y Athletics","8531 S 700 W Ste D","84070",40.5962513,-111.9092444
"84047","Midvale","UT","The Little Gym","8010 South 1300 East","not_available",40.6061897277832,-111.85448455810547
"84047","Midvale","UT","John Madsen Performance","223","84070",40.591928,-111.898675
"84047","Midvale","UT","Amplified Fitness","8385 S Allen St","84070",40.59885025024414,-111.90637969970703
"84047","Midvale","UT","James Pointe Fitness Center","not_available","84107",40.631495,-111.873892
"84047","Midvale","UT","Fitness Room","not_available","84070",40.59057144,-111.89244843
"84047","Midvale","UT","Anytime Fitness","785 E Fort Union Blvd","84047",40.622215999999995,-111.87086699999999
"84049","Midway","UT","The Chateaux","7815 Royal Street East","84060",40.6232146,-111.489424
"84050","Morgan","UT","Achieve Fitness","not_available","84050",41.04087220751175,-111.674954545047
"84050","Morgan","UT","Crossroads Fitness","1394 East","84403",41.151092275498044,-111.81599496937059
"84054","North Salt Lake","UT","Elite Athlete Zone","670 N Redwood Rd","84054",40.853788,-111.92949
"84054","North Salt Lake","UT","Foxboro Club House","not_available","84054",40.861287904399525,-111.93388679475558
"84057","Orem","UT","Timpanogos Fitness","not_available","84058",40.29489576816559,-111.70545995235443
"84057","Orem","UT","Orem Fitness Center","580 W 165 S","84058",40.29483586127549,-111.70943568633257
"84057","Orem","UT","Anytime Fitness","111 N Geneva Rd","84057",40.298093,-111.73481299999999
"84058","Orem","UT","Orangetheory Fitness","1345 S State St","84097",40.27260060661393,-111.68281494744885
"84058","Orem","UT","F45 Training South Orem","1409 S State St","84097",40.271009,-111.683001
"84058","Orem","UT","L A Boxing","1620 S State St","84097",40.267356872558594,-111.68273162841797
"84058","Orem","UT","Alaina Wood Fitness","1640 S State St","84097",40.267066955566406,-111.68273162841797
"84058","Orem","UT","Put it Up Crossfit","1774 Sandhill Rd","84058",40.264825,-111.709158
"84058","Orem","UT","Burn Boot Camp","545 E University Pkwy","84097",40.27421,-111.68368
"84060","Park City","UT","Marriott's Summit Watch Fitness Center","780 Main St","84060",40.64749968818421,-111.49734883427341
"84060","Park City","UT","Fitness","not_available","84098",40.68576,-111.556134
"84060","Park City","UT","Gym & Hot Tubs","1310 Lowell Ave","84060",40.65132522583008,-111.50569915771484
"84060","Park City","UT","MTN CrossFit","1890 Bonanza Dr #107","84060",40.661441802978516,-111.50007629394531
"84060","Park City","UT","Hotel Park City Fitness Center","2001 Park Ave","84060",40.66232681274414,-111.51326751708984
"84060","Park City","UT","Marriott's Mountainside Gym","not_available","84060",40.6566980642317,-111.51152625064682
"84060","Park City","UT","Hyatt Escala - Fitness Center","3551 Escala Ct","84098",40.68220770639067,-111.55659134363009
"84060","Park City","UT","Marriott Park City Fitness Center","Sidewinder","84060",40.6710962613988,-111.495031542042
"84065","Riverton","UT","Jazzersize","12600 South","84065",40.52276751940835,-111.95520383932872
"84065","Riverton","UT","9RoundFitness","12664 South Redwood Road","84065",40.52095667,-111.93927333
"84065","Riverton","UT","Crossfit South Valley","3305 W 12600 S","84065",40.52180007862557,-111.97078991805633
"84065","Riverton","UT","Legends Boxing - Riverton","12544 S Pasture Rd","84096",40.52380926600261,-111.98671102523804
"84065","Riverton","UT","Herriman Fitness Center","not_available","84096",40.51674,-111.978286
"84065","Riverton","UT","Riverton Fit Body Boot Camp","1728 W 12600 S","84065",40.52396149916008,-111.94011569023132
"84065","Riverton","UT","Anytime Fitness","12600 S. 2722 W.","84065",40.52262,-111.95812
"84066","Roosevelt","UT","Kody's Fitness Center","1307 W Highway 40","84066",40.280555725097656,-110.01554870605469
"84067","Roy","UT","Roy Crossfit","5348 S 1900 W","84067",41.16747759214779,-112.02468446768383
"84067","Roy","UT","Work out","not_available","84067",41.184974670410156,-112.04781341552734
"84067","Roy","UT","EōS Fitness","1985 W 5700 S","84067",41.15891999999999,-112.027784
"84067","Roy","UT","Power Promotions","5385 S 1950 W","84067",41.165459000000006,-112.02764199999999
"84067","Roy","UT","Thrive Fitness","5585 S 3500 W","84067",41.162410600333075,-112.06514084925138
"84067","Roy","UT","Team Crazy Fit","3341 W 4375 S","84401",41.183535,-112.06039299999999
"84067","Roy","UT","Gold's Gym","1935 W 5700 S","84067",41.158951773991184,-112.02768101913743
"84070","Sandy","UT","Life Time Fitness","10996 S River Front Pkwy","84095",40.5518119,-111.91876336
"84070","Sandy","UT","San Marino Gym","800 West Shields Lane","not_available",40.57315058822702,-111.9139016225316
"84070","Sandy","UT","Pure Barre","10489 S State St","84070",40.56061354700119,-111.88961758602825
"84070","Sandy","UT","Legends Boxing","80 N 850 E","84043",40.57838623822665,-111.91478554373302
"84070","Sandy","UT","Venafi GYM","126 W Sego Lily Dr #126","84070",40.56999206542969,-111.89439392089844
"84070","Sandy","UT","Four Seasons Fitness Center","420 W Cadbury Dr","84095",40.549768,-111.902774
"84070","Sandy","UT","Crossroads Fitness","9425 S 700 E","84070",40.58010184410594,-111.8711841626557
"84070","Sandy","UT","J&M Expressions (Pole Expresson)","9854 S 700 E","84070",40.57211860180193,-111.87286678569797
"84070","Sandy","UT","Zumba With Dale","9251 S 700 E","84070",40.58348083496094,-111.8708267211914
"84070","Sandy","UT","Willowdale Fitness","not_available","84095",40.54678104171166,-111.90772429906461
"84070","Sandy","UT","The Falls Clubhouse Gym","11251 S State St","84070",40.54756546020508,-111.8902587890625
"84070","Sandy","UT","Square1Fitness of Sandy","9860 S 700 E","84070",40.57149880821218,-111.8732743413575
"84070","Sandy","UT","Neuroworx","10376 S Jordan Gtwy","84070",40.562774,-111.903754
"84070","Sandy","UT","Gold's Gym","9272 S 700 E","84070",40.583746193004224,-111.8733286857605
"84070","Sandy","UT","high voltage performance","10382 S Jordan Gtwy #200","84095",40.56270980834961,-111.90377044677734
"84070","Sandy","UT","Orangetheory Fitness","10261 State St","84070",40.564695,-111.890443
"84071","Stockton","UT","Tooele Army Depot Fitness Center","not_available","84074",40.49818060860785,-112.33539550653624
"84074","Tooele","UT","Dow Jones","401 Jason St","84074",40.53936319849872,-112.30912740806687
"84074","Tooele","UT","Get fit with Ty","336 N Main St, Tooele, UT 84074","84074",40.53728563391852,-112.29806737553712
"84074","Tooele","UT","Vasa Fitness","250 N Main St","84074",40.535582,-112.297482
"84074","Tooele","UT","Curves","61 E 1280 N","84074",40.56355306086643,-112.3113543509024
"84074","Tooele","UT","Anytime Fitness","500 E. Village Blvd. Ste. 103","84074",40.62969,-112.29229
"84074","Tooele","UT","Anytime Fitness","227 N Main St","84074",40.534908,-112.29964199999999
"84078","Vernal","UT","Anytime Fitness","2003 W Hwy 40 Ste K10","84078",40.437744140625,-109.56633758544922
"84081","West Jordan","UT","bc Fitness Center","5517 W 7800 S, West Jordan, UT 84081","84081",40.60935974121094,-112.02232360839844
"84084","West Jordan","UT","F45 Training Jordan Landing","3812 W 7800 S","84088",40.609844,-111.982424
"84084","West Jordan","UT","The Trainer","6972 S Fargo Rd","84084",40.624609,-111.951851
"84084","West Jordan","UT","Curves","3078 W 7800 S Ste 5","84088",40.60956330918795,-111.96526294413124
"84084","West Jordan","UT","Snap Fitness","7759 S 4800 W","84084",40.61017786781642,-112.00470895605929
"84084","West Jordan","UT","My Workout Zone","not_available","84084",40.62647422164061,-111.93328356469975
"84084","West Jordan","UT","Crossroad Fitness","7000 Redwood Road","84084",40.62348180921925,-111.93957142345982
"84088","West Jordan","UT","Gold's Gym","7836 S Redwood Rd","84088",40.608630508031425,-111.93989973139453
"84088","West Jordan","UT","Health Quest Fitness Center - Fairchild Semiconductor","3333 W 9000 S","84088",40.586038,-111.96972
"84088","West Jordan","UT","Fusion Cheer & Dance","3547 W Norris View Ln","84088",40.59312438964844,-111.97551727294922
"84088","West Jordan","UT","Crossfit Fanatics","not_available","84088",40.595233517724644,-111.96210302026648
"84088","West Jordan","UT","Jeremy Horne's Elite Performance Fitness","7918 S 1530 W","84088",40.607561,-111.935171
"84088","West Jordan","UT","Fullmer Brother Boxing","7897 S 1300 W","84088",40.60690689086914,-111.92880249023438
"84092","Sandy","UT","CKH Fitness","not_available","84093",40.59269730674196,-111.83108769296629
"84092","Sandy","UT","Fit by Keri","8679 S Highland Dr","84093",40.59287,-111.83123300000001
"84092","Sandy","UT","F45 Training Sandy","2101 East 9400 South","84093",40.581906,-111.830983
"84092","Sandy","UT","Legends Boxing - Sandy","1345 E 10600 S","84092",40.559246,-111.85279399999999
"84092","Sandy","UT","Koko FitClub Gym","1824 E 9400 S","84092",40.579243,-111.838274
"84092","Sandy","UT","Koko Fit Club","1842 E 9400 S","84093",40.57981333,-111.83844333
"84092","Sandy","UT","Personal Mastery Martial Arts","8665 Highland Dr.","84093",40.593244244778475,-111.83083146625903
"84093","Sandy","UT","Little Gym","7813 S Highland Dr","84121",40.608982,-111.83196299999999
"84093","Sandy","UT","TITLE Boxing Club","7817 Highland Drive","84121",40.608982,-111.83196299999999
"84093","Sandy","UT","Snap Fitness","3418 E Bengal Blvd","84121",40.608474,-111.797926
"84094","Sandy","UT","Anytime Fitness","9211 S. Vlg. Shop Dr.","84094",40.58413661,-111.8626435
"84094","Sandy","UT","Life Centre Athletic Club","9844 S 1300 E","84094",40.572337267800116,-111.85424960470941
"84095","South Jordan","UT","Gold's Gym Express","3709 W South Jordan Pkwy","84009",40.56034005873375,-111.97884222805025
"84095","South Jordan","UT","CYCLEBAR","3561 W 11400 S","84095",40.5436933,-111.9757784
"84095","South Jordan","UT","Crossing at Daybreak Gym","4830 W Daybreak View Pkwy","84095",40.544832687789174,-112.00777114576363
"84095","South Jordan","UT","Crossfit Multiply","10118 South Redwood Road Suitr C","84095",40.56715774536133,-111.9395523071289
"84095","South Jordan","UT","F45 Training SoDa Row","11277 Kestrel Rise Road","84009",40.54658443699198,-112.00188452435304
"84095","South Jordan","UT","KUBEX Fitness - South Jordan","10467 S Redwood Rd","84095",40.56121636,-111.93664826
"84095","South Jordan","UT","iLoveKickboxing - South Jordan, UT","1645 Towne Center Drive","84095",40.5582029,-111.9375128
"84095","South Jordan","UT","Shape-up Outlet","10557 S Redwood Rd","84095",40.559447,-111.93662900000001
"84096","Herriman","UT","Borders Gym","14278 S Friendship Dr","84096",40.491833,-112.02929499999999
"84097","Orem","UT","VASA Fitness","1259 S 800 E","84097",40.27458083844711,-111.67399401322729
"84097","Orem","UT","Crossfit Orem","1799 N","84604",40.280223,-111.656481
"84097","Orem","UT","The Gym","4800 N. University Ave.","84604",40.30094285801998,-111.65751069317199
"84097","Orem","UT","Riverside Country Club Athletic Club","not_available","84604",40.268831,-111.658763
"84098","Park City","UT","Pure Barre","1708 Uinta Way Unit F2","84098",40.7232268,-111.5420325
"84098","Park City","UT","Canyon Creek Club Gym","900 Bitner Rd","84098",40.72357940673828,-111.5277099609375
"84098","Park City","UT","Orangetheory Fitness","1678 Redstone Center Dr","84098",40.7204475402832,-111.54168701171875
"84101","Salt Lake City","UT","Marriott Fitness Center","not_available","84101",40.76723414656532,-111.89300342346255
"84101","Salt Lake City","UT","Mcycle Studios","355 West 400 South","84101",40.754750672523265,-111.8996250629425
"84101","Salt Lake City","UT","5 Triad Center Gym","5 Triad Ctr","84180",40.76961135864258,-111.89997100830078
"84101","Salt Lake City","UT","Northgate Apartments Fitness Center","55 S 500 W","84101",40.7688102722168,-111.90482330322266
"84101","Salt Lake City","UT","SLC Crossfit","619 S 600 W","84101",40.756258723328536,-111.90790059000106
"84101","Salt Lake City","UT","AT Gym And Fitness","48 W Broadway Fl 2","84101",40.7638053894043,-111.89254760742188
"84101","Salt Lake City","UT","Sheraton SLC Gym","150 W 500 S","84101",40.75883102416992,-111.89600372314453
"84101","Salt Lake City","UT","Metro Fitness","42 S Rio Grande St","84101",40.76815692898283,-111.90467854878679
"84101","Salt Lake City","UT","American Towers Gym","44 W Broadway","84101",40.763465881347656,-111.89238739013672
"84101","Salt Lake City","UT","Little America Fitness Center","500 S Main St","84101",40.75738525390625,-111.89250946044922
"84101","Salt Lake City","UT","Pure Barre","877 S 200 W # C-106","84101",40.75024024454231,-111.89634777664554
"84101","Salt Lake City","UT","DoubleTree Fitness Center","110 W 600 S","not_available",40.756927490234375,-111.89447021484375
"84101","Salt Lake City","UT","Evolve Fitness","569 W 600 S","84101",40.75572967529297,-111.90795135498047
"84102","Salt Lake City","UT","Orangetheory Fitness","602 E 500 S","84102",40.757434978624715,-111.87341118558373
"84102","Salt Lake City","UT","corepower YOGA","602 S 600 E","84102",40.75759414,-111.87353025
"84102","Salt Lake City","UT","Squashworks","225 S 500 E","84102",40.76409158514693,-111.87633100761929
"84102","Salt Lake City","UT","TGM Athletic Club","343 S 500 E","84102",40.76188659667969,-111.87564849853516
"84102","Salt Lake City","UT","Plank","705 E 900 S","84105",40.75007629394531,-111.87061309814453
"84102","Salt Lake City","UT","Bulldog Fitness","not_available","84102",40.76130446198636,-111.86729491392721
"84102","Salt Lake City","UT","Incline Terrace's Gym","1032 E 400 S","84102",40.760241174490716,-111.86135041214762
"84102","Salt Lake City","UT","Sunset Towers Gym","40 S 900 E","84102",40.76859462248372,-111.86590922271391
"84102","Salt Lake City","UT","HK Tower Gym","515 E 100 S, Salt Lake City, UT 84102","84102",40.767669677734375,-111.87606811523438
"84102","Salt Lake City","UT","F45 Training 400 South","645 E 400 S","84102",40.761676,-111.872421
"84103","Salt Lake City","UT","The GYM at City Creek","51 S Main St Ste 308","84111",40.7679089,-111.889752
"84103","Salt Lake City","UT","LD Gym","avenues hospital","84111",40.769359,-111.890553
"84103","Salt Lake City","UT","Terrace Falls Gym","171 E 3rd Ave","84103",40.773298,-111.88469099999999
"84103","Salt Lake City","UT","Park Capitol Gym","not_available","84103",40.77472909764591,-111.89171910636159
"84103","Salt Lake City","UT","Providence Fitness","309 E 100 S","84111",40.767578125,-111.8819580078125
"84104","Salt Lake City","UT","Bigger Faster Stronger","2930 W Directors Row","84104",40.747351,-111.962851
"84104","Salt Lake City","UT","Ninja Warehouse","780 W Layton Ave","84104",40.73064422607422,-111.91349029541016
"84104","Salt Lake City","UT","Salt Mine","734 W 1355 S","84104",40.740644,-111.91222
"84104","Salt Lake City","UT","CR England weight room","not_available","84120",40.72840516518143,-112.01106057489436
"84104","Salt Lake City","UT","Iva","not_available","84104",40.730817371692744,-111.95651963358361
"84105","Salt Lake City","UT","Square One Fitness","717 E 2100 S","84105",40.725818,-111.87017900000001
"84105","Salt Lake City","UT","Ute Crossfit Sugarhouse","543 E 2100 S","84106",40.72562327203039,-111.87552144569756
"84105","Salt Lake City","UT","Custom Fit","2000 S","84106",40.72674446696952,-111.85893418253072
"84105","Salt Lake City","UT","Boxing is for Girls","1983 S 1100 E","84106",40.726976,-111.859251
"84105","Salt Lake City","UT","Ultimate Combat Training Center","555 East 2100 South","84106",40.72545,-111.87501
"84105","Salt Lake City","UT","Centered City Yoga","926 E 900 S","84105",40.749515533447266,-111.86450958251953
"84105","Salt Lake City","UT","Lifestyles 2000 Fitness Center","1033 E 2100 S","84106",40.72599411010742,-111.86163330078125
"84105","Salt Lake City","UT","F45 Training Sugarhouse","1511 E 2100 S","84105",40.72609932,-111.847823
"84106","Salt Lake City","UT","Orangetheory Fitness","1202 E Wilmington Ave","84106",40.722782135009766,-111.85641479492188
"84106","Salt Lake City","UT","CrossFit EMC","2261 E 3300 S","84106",40.7131293091289,-111.83534822562319
"84106","Salt Lake City","UT","iRock Fitness","2682 S Highland Dr","84106",40.713645,-111.855956
"84106","Salt Lake City","UT","Home Gym","2588 S 900 E","84106",40.7147216796875,-111.86710357666016
"84106","Salt Lake City","UT","Universal Swell","910 E 3300 S","84106",40.69965792033883,-111.86463997577573
"84106","Salt Lake City","UT","Laucomer Fitness Center","1156 E 3300 S","84106",40.69969177246094,-111.85860443115234
"84106","Salt Lake City","UT","YogaSix","2165 S Highland Dr","84106",40.7239081,-111.8591932
"84106","Salt Lake City","UT","Aerial Arts Of Utah","not_available","84106",40.703158,-111.854342
"84106","Salt Lake City","UT","CorePower Yoga","3142 S Highland Dr, Suite A6","84106",40.702428,-111.85247
"84106","Salt Lake City","UT","VASA Fitness Brickyard","1172 E Brickyard Rd","84106",40.70314025878906,-111.8582534790039
"84106","Salt Lake City","UT","Team Fit Crew","2146 S Highland Dr","84106",40.7238883972168,-111.85961151123047
"84106","Salt Lake City","UT","Fitness on 7th","2226 S 700 E","84106",40.72267240015146,-111.87171589029863
"84106","Salt Lake City","UT","Groundworks Gym","650 E Wilmington Ave","84106",40.723328,-111.872583
"84107","Salt Lake City","UT","The Academy","124 W Fireclay Ave","84107",40.678159,-111.894726
"84107","Salt Lake City","UT","Allsop Athletics","5942 S 350 W","84107",40.64150619506836,-111.89985656738281
"84107","Salt Lake City","UT","Chaos Cross Training","4050 S Howick St","84107",40.68329620361328,-111.89744567871094
"84107","Salt Lake City","UT","IMC Fitness Center","not_available","84123",40.655788110254775,-111.90224562801185
"84107","Salt Lake City","UT","Preston Hollow Fitness Center","4150 S 300 E","84107",40.68192672729492,-111.88349914550781
"84107","Salt Lake City","UT","Tekton Crossfit","4731 S Commerce Dr","84107",40.66889953613281,-111.89926147460938
"84107","Salt Lake City","UT","Shape Up Outlet","6212 S State St","84107",40.63564183163007,-111.88946591489234
"84107","Salt Lake City","UT","Meadowbrook Station Gym","3990 S Howick St","84107",40.68476104736328,-111.89849853515625
"84107","Salt Lake City","UT","Sports Mall","5445 S 900 E","84117",40.6522775,-111.8650777
"84107","Salt Lake City","UT","SLC Crossfit East","3955B S Wasatch Blvd","84124",40.68632185799097,-111.8821590454268
"84107","Salt Lake City","UT","Ironground Gym","4894 S Commerce Dr","84107",40.66489,-111.899984
"84107","Salt Lake City","UT","The Park Center","202 E Murray Park Ave","84107",40.658986952603584,-111.88489976509483
"84107","Salt Lake City","UT","Pure Workout","5946 S 300 W","84107",40.64167327508331,-111.89863587253578
"84107","Salt Lake City","UT","EōS Fitness","5550 S 900 E","84117",40.6521978,-111.8659235
"84108","Salt Lake City","UT","Universiry Park Marriott Gym","not_available","84108",40.75915017872099,-111.8307369866335
"84108","Salt Lake City","UT","Workman Multisport Institute","2350 E Parleys Way Ste 5","84109",40.72418975830078,-111.82341003417969
"84108","Salt Lake City","UT","BodyWise Fitness","1400 S Foothill Dr #20","84108",40.73969047348698,-111.8268583416042
"84108","Salt Lake City","UT","CorePower Yoga","1400 S Foothill Dr Ste 228","84108",40.73901554865874,-111.8270867317915
"84108","Salt Lake City","UT","BioFire Diagnostics","515 S Colorow Dr","84108",40.757759,-111.820371
"84108","Salt Lake City","UT","The Gym","460 Komas Dr","not_available",40.756860582918044,-111.83339776517235
"84108","Salt Lake City","UT","Wellness Center","2600 E Sunnyside Ave","84108",40.749908447265625,-111.81324005126953
"84108","Salt Lake City","UT","Anytime Fitness","2332 E 2100 S","84106",40.72533,-111.82319
"84108","Salt Lake City","UT","The Little Gym of Salt Lake City","1400 S Foothill Dr","84108",40.73952,-111.827082
"84109","Salt Lake City","UT","XCEL Fitness","6151 S Highland Dr","84121",40.639262878776265,-111.83386085792579
"84109","Salt Lake City","UT","Serenity Fitness","4707 S Holladay Blvd","84117",40.66704696253923,-111.82203268016806
"84109","Salt Lake City","UT","212 Fitness","2191 East 3300 South","84109",40.70029617,-111.82776953
"84109","Salt Lake City","UT","Sindssyge Gym","not_available","84109",40.69293583903162,-111.81963972129813
"84109","Salt Lake City","UT","Home Gym","Undisclosed","84117",40.669965160405575,-111.8108131296465
"84109","Salt Lake City","UT","Orangetheory Fitness","4655 S 2300 E","84117",40.66944122314453,-111.82431030273438
"84109","Salt Lake City","UT","Curves Millcreek","2191 E 3300 S","84109",40.699997579646876,-111.82778424198882
"84109","Salt Lake City","UT","Pink Iron","3953 S Wasatch Blvd","84124",40.68600845336914,-111.79570770263672
"84109","Salt Lake City","UT","Group Fitness","not_available","84124",40.684438,-111.815779
"84109","Salt Lake City","UT","F45 Training Holladay","4707 Holladay Boulevard east","84117",40.667879,-111.822746
"84111","Salt Lake City","UT","Federal Fitness Center","125 S State St","84138",40.766639709472656,-111.88716125488281
"84111","Salt Lake City","UT","Weekday Workouts","239 S Main St","84111",40.76424026489258,-111.89066314697266
"84115","Salt Lake City","UT","The Front Climbing Club","1450 S 400 W","84115",40.73837190638455,-111.90335465993586
"84115","Salt Lake City","UT","SLC Muay Thai","3361 S 200 E Ste 3","84115",40.6986031640634,-111.88524715396727
"84115","Salt Lake City","UT","Gym Jones","3322 S 300 E","84115",40.69919308135332,-111.88291605945062
"84115","Salt Lake City","UT","Fight For Your Life","1483 S Major St","84115",40.737246999999996,-111.889232
"84115","Salt Lake City","UT","RFT Coaching","3694 S 500 W","not_available",40.69107420591737,-111.9064841754604
"84115","Salt Lake City","UT","Vitality FFP","124-158 W Wentworth Ave","84115",40.72273796467824,-111.89526751097
"84115","Salt Lake City","UT","Brickwall Crossfit","1435 S State St","84115",40.739019,-111.887741
"84115","Salt Lake City","UT","Crossfit NRG","2451 S 600 W","84115",40.71676254272461,-111.90660858154297
"84116","Salt Lake City","UT","Northwest Recreation Center","1300 W 300 N","84116",40.77648152653565,-111.92757204463771
"84116","Salt Lake City","UT","Candlewood Gym","not_available","84116",40.77254,-111.952668
"84116","Salt Lake City","UT","Sportshouse","North Reclamation","84116",40.803068,-111.926983
"84117","Salt Lake City","UT","Vasa Fitness","5580 S Van Winkle Expy","84117",40.65128694984094,-111.85073020171008
"84117","Salt Lake City","UT","Crossfit Spearhead","1875 E Murray Holladay Rd","84117",40.66630172729492,-111.83811950683594
"84117","Salt Lake City","UT","Crossfit Posse","5508 S Van Winkle Expy","84117",40.65153884887695,-111.85124969482422
"84117","Salt Lake City","UT","NPC","not_available","84121",40.648696,-111.854102
"84117","Salt Lake City","UT","John Madsen Performance","4894 S Highland Dr","not_available",40.662591581663065,-111.83776446667623
"84117","Salt Lake City","UT","Wolff Hollow Fitness","not_available","84117",40.660458565612565,-111.8551754951477
"84118","Salt Lake City","UT","VASA Fitness","5345 S 4015 W","84129",40.65409303573441,-111.98560522134362
"84118","Salt Lake City","UT","Cassady Gym","downstairs","84118",40.64829461666667,-111.95326688333333
"84118","Salt Lake City","UT","Jordan Valley Fitness Center","not_available","84118",40.65344832507379,-111.97811148250432
"84118","Salt Lake City","UT","Intermountain Lake Park Fitness Center","4646 Lake Park Blvd","84118",40.651693725,-112.020032075
"84118","Salt Lake City","UT","Amex Fitness Center","4315 S 2700 W","84184",40.675564287858144,-111.95524366933815
"84119","West Valley City","UT","Vasa Fitness","3491 W 3500 S","84119",40.69562808499287,-111.97434524930503
"84119","West Valley City","UT","Gym @ Fairstone","4341 S Riverboat Rd","84123",40.67734146118164,-111.91290283203125
"84120","West Valley City","UT","WVC Fitness Center","not_available","84128",40.70177905407601,-112.02531278344942
"84120","West Valley City","UT","VZW Employee Fitness Center","2777 S Corporate Park Dr","84120",40.709718710995546,-112.00524730690965
"84120","West Valley City","UT","West Valley Fitness Center","5415 W 3100 S","84120",40.70302503851227,-112.019473345557
"84120","West Valley City","UT","Vasa Fitness","3420 S 5600 W","84120",40.69807848736173,-112.02643320225096
"84120","West Valley City","UT","KickIt Fitness and Nutrition","4062 S 4000 W #2","84120",40.68297576904297,-111.9872055053711
"84120","West Valley City","UT","Discover Fitness Center","2500 S Lake Park Blvd","84120",40.714595,-111.991078
"84121","Salt Lake City","UT","Silicon Valley Bank Employee Fitness Center","2750 E Cottonwood Pkwy","84121",40.632372527077074,-111.81325793266296
"84121","Salt Lake City","UT","Maximum Fitness","6582 S Big Cottonwood Canyon Rd","84121",40.631935119628906,-111.80632781982422
"84302","Brigham City","UT","K&H Fitness","671 S Main St","84302",41.496590000000005,-112.015344
"84302","Brigham City","UT","Physiques Health Club","770 S 200 E","84302",41.49473571777344,-112.01350402832031
"84307","Corinne","UT","Results Gym & Fitness","131 W 100 S","84337",41.71022415161133,-112.16817474365234
"84307","Corinne","UT","Grolls Family Fitness","11 W","not_available",41.71189498901367,-112.16697692871094
"84310","Eden","UT","VASA","1150 South Washington","not_available",41.24504173921152,-111.96878677001655
"84310","Eden","UT","North Ogden Elite Fitness (crossfit)","not_available","84404",41.29310686418978,-111.96860046358873
"84310","Eden","UT","High Altitude Fitness","not_available","84310",41.304535,-111.827444
"84310","Eden","UT","Snap Fitness","400 e 2600 n","84414",41.30609470889116,-111.96592429553576
"84315","Hooper","UT","Dance Image Studios","5495 S 5900 W,","84315",41.1641691,-112.1230114
"84321","Logan","UT","Planet Fitness","981 S Main St, Ste 130","84321",41.713778,-111.836247
"84321","Logan","UT","CrossFit IoTA","125 W 560 S #1","84335",41.8244047692412,-111.83749437332153
"84321","Logan","UT","Crossfit Cache Valley","800 North 50 West","84321",41.75945104433491,-111.82779091521493
"84321","Logan","UT","Spring Creek Fitness","1352 Legrand","84321",41.708651,-111.841163
"84321","Logan","UT","Gold's Gym","981 S Main St Ste 130","84321",41.71469169148051,-111.83474853188919
"84321","Logan","UT","Workout Zone","not_available","84341",41.76256347406926,-111.82586432338437
"84321","Logan","UT","Sports Academy & Racquet Club","1655 N 200 E","84341",41.76231492206086,-111.83003202771769
"84321","Logan","UT","Crossfit Southtown","517 W 100 N","84332",41.710811614990234,-111.83084106445312
"84321","Logan","UT","HansenAthletics","not_available","84321",41.72338,-111.859455
"84321","Logan","UT","KUBEX","920 N 200 W","84321",41.74867,-111.838912
"84321","Logan","UT","Summit Creek Fitness","435 S Main St","84335",41.82637475384538,-111.8325314442007
"84401","Ogden","UT","Planet Fitness","3945 S Washington Blvd","84403",41.191418,-111.972326
"84401","Ogden","UT","E?S Fitness","2261 Kiesel Ave #200","84401",41.225335,-111.9718435
"84401","Ogden","UT","Fitness Center - Hilton Garden Inn","2271 Washington Blvd","84401",41.225195,-111.970933
"84401","Ogden","UT","Sports Therapy Clinic","not_available","84401",41.225278863317946,-111.97182589210502
"84401","Ogden","UT","KUBEX Fitness - Ogden","1186 E 4600 S","84403",41.1799899,-111.94963423
"84401","Ogden","UT","The Front Climbing Club","201-249 20th St","84401",41.23095226027734,-111.97527745288384
"84401","Ogden","UT","Ogden crossfit","20th And Lincoln","84404",41.23091580376841,-111.97545595083011
"84401","Ogden","UT","Gold's Gym","2261 Kiesel Ave Ste 200","84401",41.22537271222822,-111.97172313690781
"84401","Ogden","UT","The Gym","2805 S 2025 W","84401",41.21384811401367,-112.02963256835938
"84401","Ogden","UT","Competitive Edge","2909 Washington Blvd","84401",41.211971999999996,-111.97181200000001
"84401","Ogden","UT","Mt Ogden Crossfit","203 W Oak St","84401",41.22794,-111.981606
"84401","Ogden","UT","The Shop","1805 W 2900 S","84401",41.21194839477539,-112.02362823486328
"84401","Ogden","UT","zumba","12th St, Ogden, UT","84404",41.244083404541016,-112.00221252441406
"84401","Ogden","UT","Riverdale Community Center","4360 Parker Dr","84405",41.18415832519531,-112.00981140136719
"84401","Ogden","UT","Dance Arts","3701 Washington Blvd","84403",41.1956909,-111.971526
"84401","Ogden","UT","MP USA, Inc.","1710 Wall Ave","84404",41.2365118,-111.9782837
"84403","Ogden","UT","Orangetheory Fitness","5755 Harrison Blvd","84403",41.1579639,-111.94018
"84403","Ogden","UT","Ogden Athletic Club","1221 E 5800 S","84405",41.15699005126953,-111.94559478759766
"84403","Ogden","UT","Crossroads Fitness","1394 E 6000 S","84405",41.15446228870527,-111.94357701892031
"84404","Ogden","UT","Elevated Fitness","2935-3339 N 2000 W St","84404",41.32504208775736,-112.03297447998047
"84404","Ogden","UT","BDO Gym","650 w","not_available",41.26082380189987,-111.99286096160634
"84404","Ogden","UT","Farr West Recreation Center","1896 N 1800 W","84404",41.29176712036133,-112.02456665039062
"84404","Ogden","UT","Lady Fitness","1142 W 2700 N","84404",41.30781064344457,-112.00854940174324
"84404","Ogden","UT","Crossfit Ogden","225 20th St","84401",41.230916,-111.975645
"84405","Ogden","UT","Angry Warrior Fitness Center","not_available","84405",41.1620004059374,-112.0125975812062
"84501","Price","UT","Wellness Center","not_available","84526",39.60375004409093,-110.83307106193988
"84532","Moab","UT","South Town Gym","104?","84532",38.557218969128684,-109.54163908209715
"84532","Moab","UT","Moab Recreation And Aquatic Center","374 Park Ave","84532",38.57883063061659,-109.5540340884228
"84532","Moab","UT","Fitness Room Aarchway In","1551 N Highway 191","84532",38.59650421142578,-109.5724105834961
"84532","Moab","UT","Center St. Gym","217 E Center St","84532",38.57376,-109.546323
"84532","Moab","UT","CrossFit Moab","702 S Main St #8","84532",38.562053,-109.549307
"84532","Moab","UT","Red Cliffs Lodge Gym","not_available","84532",38.681302,-109.448358
"84601","Provo","UT","Lowes Xtreme Airsports","1111 W 100 S","84601",40.2322988279903,-111.67832570189037
"84601","Provo","UT","ProvoCrossfit","148 Draper Ln","84601",40.23564529418945,-111.68415069580078
"84601","Provo","UT","Nu Skin Fitness Center","75 W Center St","84601",40.23334636732581,-111.66056222943344
"84601","Provo","UT","SFH Athlete Weight Room","147 SFH","84602",40.247830473614826,-111.65386005931451
"84601","Provo","UT","Revere Health Wellness Institute- Provo","1055 N 500 W","84604",40.24847524,-111.66828622
"84606","Provo","UT","Vasa Fitness","460 N 900 E","84606",40.240349129173985,-111.64218471491293
"84606","Provo","UT","Canyon Meadow Gym","Canyon Meadow","84606",40.218668,-111.629034
"84606","Provo","UT","Progressive Power Tumbling","2329 Mountain Vista Ln","84606",40.202324,-111.624321
"84651","Payson","UT","ZUwire Fitness","132 Volunteer Dr","84653",40.063139,-111.6675696
"84651","Payson","UT","Revere Health Wellness Institute- Salem","555 W State Rd 164","84653",40.0843473,-111.6847973
"84651","Payson","UT","Anytime Fitness","143 West SR 198","84653",40.05513,-111.67617
"84651","Payson","UT","Anytime Fitness","742 Highway 198","84651",40.032245,-111.735753
"84660","Spanish Fork","UT","Vasa Fitness","795 E 800 N","84660",40.120639934820254,-111.64092272274583
"84660","Spanish Fork","UT","elevated crossfit","not_available","84663",40.16314697265625,-111.6107406616211
"84660","Spanish Fork","UT","Hermes Crossfit","281 W 2050 N","84660",40.1358642578125,-111.659423828125
"84660","Spanish Fork","UT","Limitless Athletics","205 N Main St","84660",40.112728118896484,-111.65522766113281
"84660","Spanish Fork","UT","Curves","28 E 100 N","84660",40.11093377322551,-111.65431022644043
"84660","Spanish Fork","UT","Anytime Fitness","665 E 400 S","84663",40.16136,-111.59832
"84660","Spanish Fork","UT","Bike Riding","740 S 100 E","84663",40.156250916666664,-111.60876443333333
"84660","Spanish Fork","UT","Elevate","not_available","84660",40.118572,-111.63918
"84660","Spanish Fork","UT","Utah County SAR","3075 N","84660",40.15086591757756,-111.65991067886353
"84701","Richfield","UT","Impact Health And Fitness","26 East 1000 North","84701",38.78173065185547,-112.08431243896484
"84720","Cedar City","UT","Spirit Wellness Club","1615 N Main St","84721",37.706615329588075,-113.06323680066505
"84720","Cedar City","UT","octane fitness","not_available","84720",37.65850082629413,-113.07306166033679
"84720","Cedar City","UT","Iron Moxie Fit","115-245 W 200 N","84720",37.67991253333334,-113.06288806666667
"84720","Cedar City","UT","Gold's Gym - Cedar City","1605 W Regency Rd","84720",37.658358702259875,-113.08263911424342
"84720","Cedar City","UT","Retro Fitness","929 S Main St","84720",37.659661,-113.069824
"84720","Cedar City","UT","Body Semester","770 West 560 North","84721",37.6874373022524,-113.07342946529387
"84720","Cedar City","UT","Cedar Crossing Fitness Center","1177 Northfield Rd","84721",37.69807052612305,-113.06924438476562
"84737","Hurricane","UT","Real Life Fitness and Health","not_available","84780",37.163531327042726,-113.44707955677045
"84737","Hurricane","UT","Hurricane Athletic Club","545 W State St","84737",37.175662,-113.299008
"84737","Hurricane","UT","Anytime Fitness","390 W State St","84737",37.177036,-113.295212
"84737","Hurricane","UT","Performance Fitness PF247","24 South 2170 East","84737",37.17591073895256,-113.32801401615143
"84738","Ivins","UT","Movara Fitness Resort","290 Fitness Way","84738",37.15396637680749,-113.68609892910186
"84738","Ivins","UT","Shivwits Recreation Center","not_available","84733",37.187242,-113.732885
"84741","Kanab","UT","Holiday Inn Express fitness center","not_available","84741",37.044233,-112.525546
"84759","Panguitch","UT","fitness","not_available","84726",37.673982,-112.157838
"84770","Saint George","UT","Rezults Fitness Center","1091 N Bluff St Ste 1501","84770",37.12820216758628,-113.60294734199194
"84770","Saint George","UT","Real Life Health & Fitness","not_available","84770",37.09164612599673,-113.62481470932667
"84770","Saint George","UT","Summit Athletic Club","1973 W Sunset Blvd","84770",37.122654404470914,-113.626134403953
"84770","Saint George","UT","F45 Training St. George East","446 South Mall Drive","84790",37.09996466,-113.53895609
"84770","Saint George","UT","KUBEX Fitness - St. George","963 S Bluff St","84770",37.09144428,-113.58496516
"84770","Saint George","UT","red rock ridge gym","not_available","84790",37.11408996582031,-113.54688262939453
"84770","Saint George","UT","Southern Utah Health & Wellness Directory","321 N Mall Drive","84790",37.113735,-113.543961
"84770","Saint George","UT","Red Rock Martial Arts","1028 E Tabernacle St","84770",37.107613,-113.5617
"84770","Saint George","UT","Be Hot Yoga and Be University","558 E Riverside Dr","84790",37.086264802152655,-113.571620741413
"84770","Saint George","UT","Crossfit Dixie","1100-1198 S 150 E","84770",37.08815395832062,-113.5813949
"84770","Saint George","UT","Curves","157 E Riverside Dr Ste 2C","84790",37.08165740966797,-113.57990264892578
"84770","Saint George","UT","Orangetheory Fitness","599 S Mall Dr","84790",37.09872055053711,-113.53319549560547
"84770","Saint George","UT","Desert Palms Health Club","491 N Bluff St","84770",37.11646949142071,-113.59731368171774
"84770","Saint George","UT","International Martial Arts and Fitness Center","935 N 1300 W #5","84770",37.124229431152344,-113.61237335205078
"84770","Saint George","UT","ImpaKt Fitness","415 S Dixie Dr","84770",37.102046966552734,-113.62300109863281
"84773","Teasdale","UT","Hondoo Rivers & Trails","90 E Main St","84775",38.2988951,-111.4191916
"84780","Washington","UT","The Kiel's Zumba Class","470 E 370 N","84780",37.13540564074205,-113.50122072776756
"84780","Washington","UT","Grip Ninja Fitness","1502 E Washington Dam Rd","84780",37.111778,-113.48324099999999
"84780","Washington","UT","Coral Peak Gymnastics","White Sage Industrial Park, 1231 S Hillcrest Dr","84780",37.1138138,-113.4825082
"84790","Saint George","UT","F45 Training St George South","922 E Brigham Rd","84790",37.053147,-113.565307
