"zip","city","state","name","address","postalCode","lat","lon"
"80002","Arvada","CO","FAST, Fitness and Sports Training","5450 Wadsworth Byp Unit B","80002",39.794917,-105.077339
"80002","Arvada","CO","Panorama Gym","not_available","80002",39.79957008823791,-105.1106871815242
"80002","Arvada","CO","Anytime Fitness","5111 Kipling St Unit 530","80033",39.78989,-105.11158
"80002","Arvada","CO","MHF Crossfit","7995 W 48th Ave","80033",39.78425216674805,-105.08599853515625
"80002","Arvada","CO","Damselfly Yoga Spa","12500 W. 58th Ave.","80002",39.80147171020508,-105.13947296142578
"80002","Arvada","CO","Title Boxing Club","5220 Wadsworth Byp Unit A","80002",39.79198,-105.07934399999999
"80002","Arvada","CO","Work","8800 W 58th Ave","80002",39.801691,-105.09585200000001
"80002","Arvada","CO","Simpsons Fitness Supply","6701 w. 58th Pl","80003",39.803341,-105.070424
"80002","Arvada","CO","Alpine CrossFit","12090 W 50th Pl","80033",39.788322694231454,-105.13575280646609
"80002","Arvada","CO","Core Progression","5790 Yukon Street","80002",39.8017061,-105.0821827
"80002","Arvada","CO","Water Tower Village Gym","7783 W 55th Ave","80002",39.797179,-105.08346399999999
"80002","Arvada","CO","Foothills Crossfit","4975 Miller St","80033",39.78697204589844,-105.11541748046875
"80002","Arvada","CO","Sloans Lake CrossFit","5545 W 56th Ave","80002",39.79975128173828,-105.05634307861328
"80002","Arvada","CO","Peak Power Fitness","5161 Ward Rd Unit 4","80033",39.790063,-105.13973999999999
"80002","Arvada","CO","Easton Martial Arts Academy","12421 W. 49th Avenue #4","80033",39.787783,-105.13891799999999
"80002","Arvada","CO","F.A.S.T.","not_available","not_available",39.795252,-105.076842
"80003","Arvada","CO","Orangetheory Fitness","8031 Wadsworth Blvd","80003",39.84242755029639,-105.08371979741874
"80003","Arvada","CO","Chuze Fitness","8601 Sheridan Blvd","80003",39.853455582483946,-105.05420365442943
"80003","Arvada","CO","Commit 2 Fitness Arvada","6510 Wadsworth Byp Unit 150","80003",39.8148307800293,-105.08110046386719
"80003","Arvada","CO","Curves","7833 Wadsworth Blvd","80003",39.83972930908203,-105.08441925048828
"80003","Arvada","CO","The Health Zone","4955 W 72nd Ave Unit E","80030",39.827286,-105.0488528
"80003","Arvada","CO","Better Bodies Fitness","8601 Sheridan Blvd","80031",39.853747213039966,-105.05451101152889
"80003","Arvada","CO","Matts Body Shack","7458 W 84th Way","not_available",39.85284423828125,-105.0799789428711
"80003","Arvada","CO","Aspire Fitness","6550 Wadsworth Byp","80003",39.81592559814453,-105.07974243164062
"80004","Arvada","CO","Racquetball And Fitness Center","12120 W 64th Ave","80004",39.811892437844264,-105.13460254475315
"80004","Arvada","CO","Rock Hard Fitness","14700 W 66th Pl","80004",39.816246032714844,-105.16390991210938
"80004","Arvada","CO","Rock Hard Fitness","14600 W. 66th Place","80004",39.81635,-105.163865
"80004","Arvada","CO","Sound Body, Sound Mind Fitness","not_available","80007",39.814405850074415,-105.1637282507439
"80004","Arvada","CO","MBS CrossFit II","6945 Indiana Ct #100","80007",39.82253572574371,-105.1666109562575
"80004","Arvada","CO","Bubba's Gym","13556 W 68th Ave","80004",39.82157516479492,-105.15131378173828
"80004","Arvada","CO","Front Range Fitness for Women","6439 Miller Street","80004",39.8137321,-105.1146216
"80004","Arvada","CO","F45 Training West Arvada","14455 W 64th Ave","80004",39.81387,-105.161366
"80004","Arvada","CO","Curves","12355 W 64th Ave","80004",39.813392643733984,-105.1363544141103
"80005","Arvada","CO","Self-Quarantine Gym And Fitness","not_available","80021",39.88028,-105.103165
"80005","Arvada","CO","Planet Fitness","7635 W 88th Ave","80005",39.858878000000004,-105.083381
"80005","Arvada","CO","We Rock The Spectrum","8330 w 10th ave unit 1","80005",39.84039,-105.0901
"80005","Arvada","CO","ProFound Fitness","7721 W 92nd Ave","80021",39.864307000000004,-105.083358
"80005","Arvada","CO","Board30 Arvada","13825 W 85th Dr Ste 120","80005",39.8491096496582,-105.15608215332031
"80005","Arvada","CO","Anytime Fitness","9910 Wadsworth Pkwy","80021",39.87639,-105.09357
"80005","Arvada","CO","Josh's Fitness Center","9113 W 95th Ave","80021",39.866951,-105.103073
"80005","Arvada","CO","Simms Street Center","not_available","80005",39.84522740831739,-105.13076089317384
"80007","Arvada","CO","Gym at Stonegate","11815 Ridge Pkwy","80021",39.910255432128906,-105.15438079833984
"80007","Arvada","CO","Anytime Fitness Arvada","18148 W 92nd Ln Unit 200","80007",39.863568982490236,-105.20415544509888
"80007","Arvada","CO","Prestige Fitness - Arvada","15530 W 64th Ave Unit F","80007",39.8105464,-105.1733213
"80007","Arvada","CO","Core Progression","16255 W 64th Ave, Unit #3","80007",39.81372,-105.18237
"80007","Arvada","CO","My Mini Gym","Mi casa","not_available",39.820586,-105.187802
"80010","Aurora","CO","Hustle Denver","2005 Dallas St","80010",39.747859954833984,-104.8766098022461
"80010","Aurora","CO","Moorhead Rec Center","2390 Havana St","80010",39.751940999999995,-104.865526
"80010","Aurora","CO","Lowry CrossFit","990 Dayton St","80010",39.730757754102,-104.87511549514562
"80010","Aurora","CO","Endorphin - Stanley","2501 Dallas St Ste 144","80010",39.7530479,-104.8773876
"80010","Aurora","CO","Endorphin - Eastbridge","10155 E 29th Dr Ste 130","80238",39.75971984863281,-104.86901092529297
"80010","Aurora","CO","24 Hours  Fitness","Alameda","80010",39.71025286279841,-104.86872424184492
"80010","Aurora","CO","Denver Sheriff County Jail Gym","10500 Smith Rd","80239",39.767527,-104.86416499999999
"80010","Aurora","CO","Bison Gym","not_available","80010",39.718879,-104.872528
"80010","Aurora","CO","Ideal Form Fitness","not_available","80012",39.711749374328505,-104.85569167609943
"80010","Aurora","CO","21 Fitzsimons Gym","2101 N Ursula St","80045",39.748687744140625,-104.83838653564453
"80010","Aurora","CO","Fitness Center","not_available","80220",39.7614376405419,-104.86432862363324
"80010","Aurora","CO","BodyBFit.com","8601 East Martin Luther King Boulevard","80238",39.75997491008816,-104.88538026809692
"80011","Aurora","CO","Planet Fitness","1730 S Buckley Rd","80017",39.684845,-104.789605
"80011","Aurora","CO","Buckley Air Force Base Fitness Center","not_available","80011",39.72258569667268,-104.78039647750384
"80011","Aurora","CO","Lady Fitness","15600 E 6th Ave","80011",39.723859999999995,-104.806009
"80011","Aurora","CO","iLoveKickboxing - Aurora, CO","1180 S Buckley Road","80017",39.69561,-104.78933
"80011","Aurora","CO","Prestige Fitness - Aurora","13801 E Exposition Ave","80012",39.7050535,-104.827076
"80011","Aurora","CO","LDT Fitness","650 S Victor Way","80012",39.701634999999996,-104.834799
"80011","Aurora","CO","Home Offices of Just Determination","not_available","80249",39.77230453491211,-104.74230194091797
"80011","Aurora","CO","jims gym","E Carolina Pl","80017",39.69033013034499,-104.77955102920532
"80011","Aurora","CO","greensview fitness center","not_available","80017",39.71191484087948,-104.79493290671007
"80011","Aurora","CO","gym of jam","E Arkansas Ave","80017",39.691997805678504,-104.78332757949829
"80011","Aurora","CO","A1 Boxing Fitness","700 S Buckley Rd","80017",39.703711,-104.7898
"80011","Aurora","CO","S76 Raytheon Fitness Center","16430 E Hughes Dr","80011",39.716138980817206,-104.79795862301862
"80011","Aurora","CO","Crunch Fitness - Aurora CO","15141 East Mississippi Avenue","80012",39.69787975468724,-104.81184482574463
"80011","Aurora","CO","Marriott Gateway Health Club","not_available","80239",39.77060617832906,-104.79562813640386
"80011","Aurora","CO","Buckley Crossfit","261 Airport Blvd Ste B","80011",39.71997119482097,-104.7916256482008
"80011","Aurora","CO","Buckley Family Gym","17300 buckley blvd","not_available",39.71559565572833,-104.78555330726667
"80011","Aurora","CO","Buckley AFB Gym","Aspen St.","80011",39.72167422191794,-104.77976399411372
"80011","Aurora","CO","country inn & suites by carlson gym","4343 Airport Way","80239",39.77412796020508,-104.79658508300781
"80012","Aurora","CO","Body renew fitness","not_available","80014",39.67831039428711,-104.84910583496094
"80012","Aurora","CO","Colorado Pro Gym","1961 S Havana St","80014",39.68089693690128,-104.86705221445713
"80012","Aurora","CO","City Of Aurora Employees Only Gym","15151 E Alameda Pkwy","80012",39.709861755371094,-104.81211853027344
"80012","Aurora","CO","Metroflex Denver","14190 E Jewell Ave #9","80012",39.6808967590332,-104.82469177246094
"80013","Aurora","CO","Orangetheory Fitness","4211 S Buckley Rd","80013",39.6403106,-104.792351
"80013","Aurora","CO","Home Gym","Quincy Highlands","80018",39.642981977330265,-104.72765848886796
"80013","Aurora","CO","LDS Church - Gym","3101 S Flanders St.","80013",39.660371161913275,-104.75869417190552
"80013","Aurora","CO","H. Gym","not_available","80018",39.64452362237403,-104.73296983391191
"80013","Aurora","CO","CorePower Yoga","18884 E Hampden Ave","80013",39.651931502764455,-104.76842254400253
"80013","Aurora","CO","The Gym","not_available","80013",39.676836,-104.785767
"80014","Aurora","CO","Homestead Studio Suites Denver - Aurora","13941 E Harvard Ave","80014",39.672351,-104.826413
"80014","Aurora","CO","The Gym at Waterpark I","2550 S Parker Rd","80014",39.67030715942383,-104.86324310302734
"80014","Aurora","CO","Doing the gd Video","666 Stupid Basement Ave.","80231",39.664112470051165,-104.87080521921531
"80014","Aurora","CO","Gym @ Woodstream Village","not_available","80231",39.67066319005704,-104.87061657483042
"80014","Aurora","CO","Axis Gym","3257 S Parker Rd","80014",39.65825271606445,-104.8494873046875
"80014","Aurora","CO","Jazzercise - Aurora On Havana","2740 S Havana St","80014",39.66676287578624,-104.86439548217209
"80014","Aurora","CO","Lugano","9601 E Iliff Ave","80231",39.676362932347665,-104.87443131651368
"80014","Aurora","CO","Powerhouse Gym Fitness Center","15270 E Hampden Ave","80014",39.652483851980286,-104.81054035683943
"80014","Aurora","CO","Bondy's World","9400 E Iliff Ave","80231",39.6740957359588,-104.87924649423172
"80014","Aurora","CO","One Beat CrossFit","4174 S Parker Rd","80014",39.6403777,-104.8270676
"80014","Aurora","CO","Better Bodies","15280 E Iliff Ave","80014",39.67352444041003,-104.8113659269834
"80015","Aurora","CO","The Trails Recreation Center","not_available","80015",39.62199433650308,-104.7489759359064
"80015","Aurora","CO","MedWell","not_available","80247",39.63655104716062,-104.82741825163784
"80015","Aurora","CO","Zara Rhythmic gymnastics Academy","19078 E Ida Dr","80015",39.6094352,-104.7658358
"80015","Aurora","CO","Trivida","4510 S Reservoir Rd #A","80015",39.634796142578125,-104.76025390625
"80015","Aurora","CO","The Hamster Wheel","5690 S Netherland St","80015",39.6132926940918,-104.73897552490234
"80015","Aurora","CO","Row House","5616 S Gibraltar Way Unit G","80015",39.6142794,-104.7560844
"80015","Aurora","CO","F45 Training Centennial East","6232 South Parker Road","80016",39.6041326,-104.8065421
"80015","Aurora","CO","Day's Gym","not_available","80016",39.607439355440555,-104.76963483617372
"80015","Aurora","CO","Colorado Martial Arts Academy","20981 E Smoky Hill Rd Ste C","80015",39.6085205078125,-104.7425537109375
"80015","Aurora","CO","Emerge Fitness","15468 Orchard st.","not_available",39.610067,-104.808264
"80015","Aurora","CO","Gym Time!","4932 elkhart pl","80015",39.62779305694574,-104.81638387671416
"80016","Aurora","CO","Colorado Athletic Club - Inverness","374 Inverness Parkway","80112",39.5621386,-104.8643844
"80016","Aurora","CO","Six Zero Strength & Fitness","7101 S Fulton St Ste G","80112",39.586739,-104.87240700000001
"80016","Aurora","CO","Planet Fitness","6432 S Parker Rd","80016",39.600134999999995,-104.802785
"80016","Aurora","CO","CycleBar Southlands","6300 S Main St Ste N-103","80016",39.6018892,-104.7093917
"80016","Aurora","CO","Crest At Lone Tree Gym","not_available","80124",39.552622,-104.872558
"80016","Aurora","CO","Orangetheory Fitness","6554 South Parker Road","80016",39.597774,-104.803116
"80016","Aurora","CO","Gym at Watermark at Southlands (Gym at Waterford at Southlands)","24577 E Applewood Dr","80016",39.605104298025005,-104.70165460840205
"80016","Aurora","CO","ATO Fitness","304 Inverness Way South, TL 15","80112",39.56484,-104.86519
"80016","Aurora","CO","Broadstone Southlands Gym","24750 E Applewood Cir","80016",39.603947999999995,-104.700748
"80016","Aurora","CO","Anytime Fitness","7420 S Gartrell Rd Ste C","80016",39.581182,-104.721651
"80016","Aurora","CO","PLAYTIME","13310 James E Casey Ave","80112",39.561331190270685,-104.83496493432287
"80016","Aurora","CO","Pure Barre","24300 E Smoky Hill Rd #110","80016",39.59537887573242,-104.70494079589844
"80016","Aurora","CO","Lone Tree Athletic Club","9995 Park Meadows Dr","80124",39.5538287217861,-104.87551450411755
"80016","Aurora","CO","The Inverness Gym","not_available","80112",39.57851791381836,-104.86663055419922
"80016","Aurora","CO","Norditrack","not_available","80111",39.614253,-104.865607
"80019","Aurora","CO","The Dungeon","not_available","80019",39.799598693847656,-104.75679779052734
"80020","Broomfield","CO","Life Time Fitness","397 W 148th Ave","80020",39.9650082,-105.0248934
"80020","Broomfield","CO","Paul Derda Recreation Center","13201 Lowell Blvd","80020",39.934435007941154,-105.03618393877329
"80020","Broomfield","CO","AMLI Arista","8200 Arista Pl","80021",39.90542074239401,-105.08746311117007
"80020","Broomfield","CO","CorePower Yoga","3700 W 144th Ave, Suite C100","80020",39.9565428,-105.0369683
"80020","Broomfield","CO","CorePower Yoga","549 Flatiron Blvd","80021",39.92767754108447,-105.13216629624367
"80020","Broomfield","CO","Westin Westminster Workout","10600 Westminster Blvd","80020",39.89045343332369,-105.06626083679268
"80020","Broomfield","CO","Cheer Central","not_available","80020",39.927347,-105.09823899999999
"80020","Broomfield","CO","Off The Wall Fitness","2400 Industrial Ln #2000D","80020",39.920385,-105.098968
"80020","Broomfield","CO","Orangetheory Fitness","1285 E 1st Ave","80020",39.91527988629703,-105.0550052959911
"80020","Broomfield","CO","8 Hands Martial Arts Center for Interdisciplinary Martial Arts (IMA) Instruction","6650 W 120th Ave Ste A1-3","80020",39.9130002,-105.0708713
"80020","Broomfield","CO","Fitness Center @ Omni Interlocken","500 Interlocken Blvd","80021",39.927669525146484,-105.11988830566406
"80020","Broomfield","CO","SPENGA","8181 Arista Pl #115","80021",39.9060225,-105.0884854
"80020","Broomfield","CO","Apex School of Movement Louisville","1772 Prairie Way Unit G","80027",39.970123228036115,-105.11629700660706
"80020","Broomfield","CO","Amli Gym","9800 Westcliff Pkwy","80021",39.87615127012247,-105.06478741717079
"80020","Broomfield","CO","McK Gym","11000 Westmoor Cir","80021",39.89710998535156,-105.12171173095703
"80020","Broomfield","CO","Float Paddleboard Yoga & Fitness","1713 Whistlepig Ln","80020",39.952264,-105.068271
"80020","Broomfield","CO","Core Progression Elite Personal Training","11864 Bradburn Blvd","80031",39.91207504272461,-105.04138946533203
"80020","Broomfield","CO","Broadstone At The Ranch Gym","2861-2929 W 116th Pl","80234",39.90829153333333,-105.0234734
"80020","Broomfield","CO","Impact Sports Medicine","11025 Dover St #400","80021",39.895542999999996,-105.09476699999999
"80021","Broomfield","CO","Life Time Athletic Flatirons","300 Summit Blvd","80021",39.92586743424982,-105.14204857246226
"80021","Broomfield","CO","Village Creek Fitness Center","9052 Vance St","80021",39.861525,-105.076877
"80021","Broomfield","CO","Vance Gym","9100 Vance St","80021",39.86177444458008,-105.07820892333984
"80021","Broomfield","CO","Club Level 3","1025 Eldorado Blvd","80021",39.92164061557594,-105.14453981312987
"80021","Broomfield","CO","Streetlight Studios","9001 Harlan St","80031",39.85927832824231,-105.06475031375885
"80021","Broomfield","CO","MBS CrossFit","10900 W 120th Ave","80021",39.913706372277716,-105.11964293098707
"80022","Commerce City","CO","Panorama Gym (Belle Creek)","not_available","80640",39.891085,-104.880912
"80022","Commerce City","CO","YogaSix","8216 E Northfield Blvd Unit 1330","80238",39.7849006652832,-104.89102172851562
"80022","Commerce City","CO","Planet Fitness","4876 Chambers Rd","80239",39.7859009355872,-104.80881542463354
"80022","Commerce City","CO","Margaret Carpenter Rec Center","1151 Colorado Blvd","80233",39.896935779878014,-104.94219415723484
"80022","Commerce City","CO","Reunion Recreation Center","17910 Parkside Dr N","80022",39.88991559620163,-104.7813252640741
"80022","Commerce City","CO","Orangetheory Fitness","4243 E 136th Ave","80602",39.94394299156563,-104.93710815743943
"80022","Commerce City","CO","Youfit Health Clubs","3750 E 120th Ave","80233",39.91232028634157,-104.94281977415085
"80022","Commerce City","CO","TITLE Boxing Club Thornton","1741 E 120th Ave","80233",39.91401386064967,-104.96740951818647
"80022","Commerce City","CO","Bodyvisions Gym","not_available","80233",39.90093650199418,-104.91593779982293
"80022","Commerce City","CO","Fitness 19","12840 Holly St","80602",39.92935069106133,-104.92092060476436
"80022","Commerce City","CO","Erin's Zumba Studio","not_available","80241",39.9215202331543,-104.95353698730469
"80022","Commerce City","CO","SOFX: Set Your Soul On Fire","2313 Prairie Center Pkwy","80601",39.9528713,-104.7806728
"80022","Commerce City","CO","Crossfit MOB","2300 E 120th Ave Suite 166","80233",39.913309,-104.95626
"80022","Commerce City","CO","Ninja Brand Parkour Gym","6300 E 88th Ave #7","80640",39.85755920410156,-104.9150161743164
"80022","Commerce City","CO","Crestwood Gym","Claude Ct.","not_available",39.918179,-104.962738
"80022","Commerce City","CO","Adams County YMCA","1500 E 128th Ave","80241",39.926387,-104.96672
"80022","Commerce City","CO","CrossFit Dominion","6440 E 50th Ave","80022",39.787086,-104.913621
"80022","Commerce City","CO","Slava's Training Compound","not_available","80022",39.88232421875,-104.78355407714844
"80022","Commerce City","CO","Stapleton Family Karate","8720 Northfield Blvd, #1450","80238",39.785447,-104.886633
"80022","Commerce City","CO","Fitness 19 - Thornton","12840 Holly St","80602-8288",39.9167042634868,-104.92819395158864
"80022","Commerce City","CO","Anchor Crossfit","12303 E 104th Pl","80022",39.887072,-104.844106
"80023","Broomfield","CO","CycleBar Orchard Place","14215 Orchard Pkwy Ste 400","80023",39.95477049553743,-104.99413904662697
"80023","Broomfield","CO","Koko Fitclub","2255 W 136th Ave","80023",39.944472,-105.012854
"80023","Broomfield","CO","Anthem Community Center","16151 Lowell Blvd","80023",39.99507442200826,-105.03529373375684
"80023","Broomfield","CO","Parkside Community Center","not_available","80516",39.995014907439725,-105.03520285022731
"80023","Broomfield","CO","Weight Station","399 148th","80023",39.965529,-105.006329
"80023","Broomfield","CO","F45 Training North Thornton","14340 Lincoln St","80023",39.955592773500065,-104.98302340507506
"80025","Eldorado Springs","CO","South Boulder Recreation Center (SBRC)","1360 Gillaspie Dr","80305",39.974693221512176,-105.24882707348831
"80026","Lafayette","CO","Fitness 1440 Erie","651 Mitchell Way","80516",40.0342829,-105.0529343
"80026","Lafayette","CO","YMCA","2800 Dagny Way","80026",40.01250714115835,-105.13429333052832
"80026","Lafayette","CO","Bob L Burger Rec Center","111 W Baseline Rd","80026",40.00092135369896,-105.09095970154814
"80026","Lafayette","CO","CorePower Yoga","1817 Hwy 42","80027",39.988310724084506,-105.12854531407356
"80026","Lafayette","CO","Anytime Fitness","325 Waneka Pkwy","80026",39.98823,-105.09486
"80026","Lafayette","CO","Orangetheory Fitness","1455 Coal Creek Dr","80026",39.985552,-105.097502
"80026","Lafayette","CO","Streets Fitness","480 W Dahlia St","80027",39.963798956304544,-105.1586111338433
"80026","Lafayette","CO","The Fitness Edge","not_available","80026",39.97893023695956,-105.0692610285625
"80026","Lafayette","CO","Club Fitness","1075 E South Boulder Rd #125","80027",39.987648,-105.129824
"80026","Lafayette","CO","Gaiam","833 W South Boulder Rd","80027",39.98835383124347,-105.15766498299608
"80026","Lafayette","CO","No Excuses Fit Club","489 N US Highway 287 Ste 180","80026",40.0021858215332,-105.1037368774414
"80026","Lafayette","CO","P90X @ AF","1525 Harvest Dr","80026",40.006461,-105.109397
"80027","Louisville","CO","McCaslin Plaza Fitness Center","357 McCaslin Blvd","80027",39.96632385253906,-105.16539764404297
"80027","Louisville","CO","Ghx_Gym","1315 W Century Dr","80027",39.972237,-105.170226
"80027","Louisville","CO","Colorado Athletic Club - Flatirons","505 Thunderbird Drive","80303",39.996377,-105.2328641
"80027","Louisville","CO","Terracina Villas Gym","13598 Via Varra","80020",39.94488749833709,-105.12155558270298
"80027","Louisville","CO","Anytime Fitness","4800 Baseline Rd","80303",39.99833,-105.23277
"80027","Louisville","CO","Fit@Oracle","500 Eldorado Blvd","80021",39.919222153237705,-105.12705973650948
"80027","Louisville","CO","BCOR Superior Indoors","S Tyler Dr","80027",39.93212,-105.14343559741974
"80027","Louisville","CO","Snap Fitness","165 McCaslin Blvd","80027",39.9698077985878,-105.16524442432116
"80027","Louisville","CO","The Gym at Horizons","2200 S Tyler Dr","80027",39.931820141194684,-105.14296758127287
"80027","Louisville","CO","Venture Martial Arts","51 W Flatiron Crossing Dr #5110","80021",39.930999755859375,-105.13190460205078
"80027","Louisville","CO","CycleBar Superior","459 S McCaslin Blvd Unit 6","80027",39.964895,-105.164143
"80027","Louisville","CO","AMLI at Flatirons Gym","210 Summit Blvd","80021",39.926490783691406,-105.14535522460938
"80031","Westminster","CO","Gym In Home","9251 King Way","80031",39.864402,-105.03416499999999
"80031","Westminster","CO","Boxing Avenue Gym","8860 Federal Blvd #70E","80260",39.85749053955078,-105.02377319335938
"80031","Westminster","CO","The Gym At The Enviorns","3323 W 96th Cir","80031",39.87221145629883,-105.03108215332031
"80031","Westminster","CO","Renegade Iron Barbell Club","8879 Harlan St","80031",39.858032,-105.065223
"80031","Westminster","CO","Fitness 19","11225 Decatur Street","80234",39.90023,-105.02378341
"80031","Westminster","CO","Koko FitClub","3003 W 104th Ave Unit 500","80031",39.88575744628906,-105.02577209472656
"80031","Westminster","CO","Rockstar Pole Fitness","8841 Harlan St","80031",39.858032,-105.065223
"80031","Westminster","CO","InForm Fitness Boulder Valley","5760 W 120th Ave #160","80020",39.913764,-105.059753
"80031","Westminster","CO","local@biztraffic.com","2700 W 103rd Ave","80260",39.88230895996094,-105.02027893066406
"80031","Westminster","CO","Code Pink Boot Camp","4201 W 94th Ave","80031",39.868655,-105.04109199999999
"80031","Westminster","CO","The Vintage at Hyland Hills Gym","4901 W 93rd Ave","80031",39.86642074584961,-105.04618072509766
"80031","Westminster","CO","Big Horn CrossFit","8868 Federal Blvd Ste 14A","80260",39.85747500000001,-105.0244271
"80031","Westminster","CO","Life Force International Independent Distributor","10291 Tennyson Ct","80031",39.8827018737793,-105.04351806640625
"80031","Westminster","CO","Snap Fitness","9250 Sheridan Blvd Ste 100","80031",39.864906311035156,-105.0514907836914
"80031","Westminster","CO","Pure Barre","11961 Bradburn Blvd #500","80031",39.9134185010098,-105.04163345971155
"80033","Wheat Ridge","CO","Orangetheory Fitness","3244 Youngfield St","80033",39.763462193087236,-105.1417052293342
"80033","Wheat Ridge","CO","Armbrust Pro Gym","4240 Kipling St","80033",39.7759588,-105.1090394
"80033","Wheat Ridge","CO","West Metro CrossFit","9491 W 44th Ave","80033",39.77879333496094,-105.1030502319336
"80033","Wheat Ridge","CO","24hour Fitness","not_available","80215",39.76050032711233,-105.07190425106349
"80033","Wheat Ridge","CO","Next Level Sports Training","9135 W 44th Ave","80033",39.778589000000004,-105.099092
"80102","Bennett","CO","Curves","120 E. Colfax","80102",39.739650630632845,-104.42920682345576
"80102","Bennett","CO","Bennett Rec Center","not_available","80102",39.75119118962045,-104.43417764933723
"80104","Castle Rock","CO","Orangetheory Fitness","3990 Limelight Ave","80109",39.403313,-104.88145907
"80104","Castle Rock","CO","The Gym","not_available","80109",39.40922705589463,-104.86614427045171
"80104","Castle Rock","CO","Planet Fitness","100 Founders Pkwy","80104",39.411541,-104.86475
"80104","Castle Rock","CO","Crossfit Castle Rock","4760 Castleton Way","80109",39.40904168457984,-104.86633670859375
"80104","Castle Rock","CO","Crossfit Castle Rock","3196 Industrial Way Ste J","80109",39.40883583722315,-104.87197433002473
"80104","Castle Rock","CO","Universal Training Center","17 S Gilbert St","80104",39.368734,-104.853886
"80104","Castle Rock","CO","Rocky Mountain Self Defense & Fitness","780 Kinner St #1","80109",39.3779383,-104.8630202
"80104","Castle Rock","CO","Curves","190 Wilcox St.","80104",39.37139129638672,-104.85965728759766
"80104","Castle Rock","CO","Studio Fit","4807 N Industrial Way","80109",39.408773,-104.87356399999999
"80104","Castle Rock","CO","Pure Barre","62 Founders Pkwy Ste A","80104",39.4114097,-104.8644913
"80104","Castle Rock","CO","Gold Zen Studios","350 Perry St","80104",39.372727000000005,-104.858352
"80104","Castle Rock","CO","Ninja Intensity","158 Caprice Ct Unit B","80109",39.383087,-104.861664
"80104","Castle Rock","CO","Studio Fit","1263 Park St, Unit B","80109",39.38193130493164,-104.86803436279297
"80104","Castle Rock","CO","Anytime Fitness","794 S Perry St Unit B","80104",39.3631,-104.85979
"80104","Castle Rock","CO","Balance Fitness","809 Park St # B","80109",39.379157977359235,-104.86634540552257
"80106","Elbert","CO","Outpost 7","not_available","80106",38.98283206265835,-104.59322054518302
"80107","Elizabeth","CO","Snap Fitness","240 Elizabeth St","80107",39.36032485961914,-104.61027526855469
"80107","Elizabeth","CO","Stayin Fit And Lovin It","34987 County Road 13","80107",39.37447738647461,-104.607177734375
"80108","Castle Rock","CO","CycleBar Castle Rock","562 Castle Pines Parkway, Units C1 & C2","80108",39.47001331269169,-104.87419009208679
"80108","Castle Rock","CO","Shred415 Castle Rock - Coming Soon","5050 Factory Shops Blvd Ste 1045","80108",39.415703452450565,-104.87366069709776
"80108","Castle Rock","CO","Castle Pines Village Fitness Center","not_available","80108",39.425004323614424,-104.89259156065384
"80108","Castle Rock","CO","Canyon Fitness","880 W Happy Canyon Rd","80108",39.42692594670767,-104.90200240285942
"80110","Englewood","CO","Chūze Fitness","200 W Belleview Ave","80110",39.622955322265625,-104.9902114868164
"80110","Englewood","CO","Anytime Fitness","155 W Hampden Ave","80110",39.65474,-104.98995
"80110","Englewood","CO","CorePower Yoga","2825 W Belleview Ave","80123",39.62521,-105.022546
"80110","Englewood","CO","Brazilian Butt Lift","not_available","80110",39.65547561645508,-105.00200653076172
"80110","Englewood","CO","Inner Strength Fitness","2353 S Broadway","80210",39.673836,-104.987995
"80110","Englewood","CO","Alexan Downtown Littleton Gym","not_available","80120",39.62353002650922,-105.01202684984746
"80110","Englewood","CO","CrossFit Unbroken","1500 W Hampden Ave","80110",39.65455729329533,-105.00543102229499
"80110","Englewood","CO","Balance Athletics","4731 S Santa Fe Cir","80110",39.630316528165665,-105.01224981031137
"80110","Englewood","CO","CrossFit South Denver","2555 S Santa Fe Dr","80223",39.67040252685547,-104.99662017822266
"80110","Englewood","CO","All Out Fitness Gym","3853 S Broadway","80113",39.64666,-104.98809
"80110","Englewood","CO","ProjectMOVE","4925 S Santa Fe Dr Unit 100","80120",39.62658835856671,-105.01216938130766
"80110","Englewood","CO","ProjectMOVE - Group Fitness | Performance | Personal Training","4925 S Santa Fe Dr","80120",39.626769,-105.012973
"80110","Englewood","CO","Rec Room","2778 S Tejon St","80110",39.665931701660156,-105.01071166992188
"80110","Englewood","CO","Mile High Elite","3301 W Hampden Ave Unit H","80110",39.654066504158486,-105.0304996753959
"80110","Englewood","CO","The Treadmill","3030 S Bannock St","80110",39.661464,-104.989729
"80110","Englewood","CO","The Bouldering Cave","W Saratoga Ave","80110",39.62915861,-105.02359695
"80110","Englewood","CO","420 Gym","5219 S Delaware St","80110",39.622911,-104.99338300000001
"80111","Englewood","CO","Greenwood Athletic and Tennis Club","5801 S Quebec St","80111",39.610663,-104.905749
"80111","Englewood","CO","The Den Gym","6950 E Chenango Ave","80237",39.624847412109375,-104.90616607666016
"80111","Englewood","CO","Crunch Fitness - Greenwood Village","8525 East Arapahoe Road","80112",39.5963756,-104.8908915
"80111","Englewood","CO","FIT36 - DTC","8000 E Belleview Ave. Unit B80","80111",39.622787,-104.896927
"80111","Englewood","CO","Colorado Athletic Club - DTC","5555 DTC Parkway","80111",39.61635,-104.89626
"80111","Englewood","CO","Gym @ Cielo","6715 E Union Ave","80237",39.62860870361328,-104.90808868408203
"80111","Englewood","CO","Orangetheory Fitness","6770 E Chenango Ave","80237",39.624814,-104.907521
"80111","Englewood","CO","Peak Performance Training Center","not_available","80237",39.637830257063555,-104.89665651867713
"80111","Englewood","CO","Iron Tribe Fitness Greenwood Village","5996 S Holly St","80111",39.608437,-104.9227519
"80111","Englewood","CO","Row House","7600 Landmark Way # B-201","80111",39.617456,-104.900052
"80111","Englewood","CO","Orchard Falls Gym","7800 E Orchard Rd, Englewood, CO 80111","80111",39.608646392822266,-104.8982162475586
"80111","Englewood","CO","Rise Nation","4930 S Yosemite St","80111",39.62499237060547,-104.88480377197266
"80111","Englewood","CO","Reach Fitness","7604 E Technology Way","80237",39.63124084472656,-104.8992919921875
"80111","Englewood","CO","fitness stuff","5054 S Syracuse St, Denver, CO 80237","80237",39.6246431,-104.8992264
"80111","Englewood","CO","Work","8450 E Crescent Pkwy","80111",39.62284469604492,-104.88743591308594
"80111","Englewood","CO","Fitness Center At The Ridge","4116-4198 S Tamarac Dr","80237",39.637811144847994,-104.8903091698038
"80111","Englewood","CO","Fitness Boot Camp","12073 E Arapahoe Rd","80112",39.59556579589844,-104.8487777709961
"80111","Englewood","CO","Gymnasium","Regency Plaza","80237",39.63130845,-104.89689716
"80111","Englewood","CO","Marriott Fitness Center","4900 S. Syracuse Street","80237",39.6272885,-104.9014983
"80112","Englewood","CO","CycleBar Park Meadows","7824 Park Meadows Dr Ste 150","80124",39.56244745762046,-104.89768082209014
"80112","Englewood","CO","VASA Fitness","8200 S Quebec St","80112",39.567222346421275,-104.90273090628716
"80112","Englewood","CO","Great Play of Highlands Ranch","5690 County Line Pl Unit D","80126",39.56445458905581,-104.92164286259874
"80112","Englewood","CO","Fitness and Wellness Center","9655 Maroon Circle","80111",39.54206742192611,-104.86267530994459
"80112","Englewood","CO","Universal Health Center","8230 Park Meadows Dr","80124",39.56227702613635,-104.89264346147662
"80112","Englewood","CO","The Lodge at Willow Creek Fitness Center","9005 S Yosemite St","80124",39.552686,-104.88653899999998
"80112","Englewood","CO","Curves","Yosemite & Dry Crek","80112",39.58460459,-104.88505629
"80112","Englewood","CO","Amli Gym","10200 Park Meadows Dr","80124",39.54999923706055,-104.87250518798828
"80112","Englewood","CO","iFLY - Denver","9230 Park Meadows Dr","80124",39.554109,-104.882747
"80112","Englewood","CO","Performance Ready Fitness Studio","9064 Forsstrom Dr Unit B5","80124",39.551458,-104.8838962
"80112","Englewood","CO","Commit to Fit Training","6979 S Holly Cir #B1","80112",39.58970260620117,-104.92176055908203
"80113","Englewood","CO","Orangetheory Fitness","5010 E Hampden Ave","80222",39.651832304497425,-104.92898007960846
"80113","Englewood","CO","FIT:30","2950 S Broadway","80113",39.66327667236328,-104.98723602294922
"80113","Englewood","CO","Endorphin Broadway Yoga/Barre","2700 S Broadway #201","80113",39.66743779999999,-104.9875377
"80113","Englewood","CO","Evolve Martial Arts and Fitness - Krav Maga Institute of Denver","2890 S Colorado Blvd Unit 12-M","80222",39.664260803419765,-104.93879972670595
"80113","Englewood","CO","Fierce45","1610 E Girard Pl","80113",39.654781341552734,-104.96893310546875
"80113","Englewood","CO","SPG (Special Prototypes Gym)","123 Awesome St.","80222",39.65342158946899,-104.92551907579904
"80113","Englewood","CO","Eisenhower Work Out!","not_available","80222",39.658135268268055,-104.9258156483004
"80113","Englewood","CO","Craig/Swedish Employee Wellness Center","3425 S Clarkson St","80113",39.6541862487793,-104.97882843017578
"80113","Englewood","CO","CorePower Yoga","5004 E Hampden Ave","80222",39.651480271024276,-104.92872878909111
"80120","Littleton","CO","Carmel Fitness Center","Arapahoe County Purchasing, 5334 S Prince St, Littleton, CO 80120","80120",39.61985778808594,-105.0138168334961
"80120","Littleton","CO","Littleton Jazzercise Center","3615 W Bowles Ave Unit 6","80123",39.610482,-105.03503300000001
"80120","Littleton","CO","Sweating with Tina","not_available","80123",39.61689288583978,-105.03071126669431
"80120","Littleton","CO","YMCA Littleton","11 W Dry Creek Ct","80120",39.57976335931176,-104.98917510612515
"80120","Littleton","CO","Youfit Health Clubs","6905 S Broadway #199","80122",39.590729179314394,-104.99115586280823
"80120","Littleton","CO","Anytime Fitness","1500 W Littleton Blvd Stes 100-100B","80120",39.61278,-105.00617
"80120","Littleton","CO","TITLE Boxing Club Littleton Square","40 W Littleton Blvd","80120",39.6118519,-104.9891779
"80120","Littleton","CO","Whole Health Club","5856 S Lowell Blvd Ste 24","80123",39.609801429723426,-105.03627351760866
"80120","Littleton","CO","The Body School","1500 W Canal Ct","80120",39.59013612217652,-104.98899899289351
"80120","Littleton","CO","CrossFit KADA","8080 Southpark Ln","80120",39.57051086425781,-105.00699615478516
"80120","Littleton","CO","Camp Missfitts","1500 W Littleton Blvd","80120",39.612092,-105.005647
"80120","Littleton","CO","Calibrate Sports Health","5778 S Rapp St","80120",39.612192,-105.01956000000001
"80120","Littleton","CO","THE Fitness Center","5856 S Lowell Blvd #24","80123",39.61015701293945,-105.03668212890625
"80120","Littleton","CO","At the Park Gym","S Federal Cir","80123",39.61801101684135,-105.02895921266119
"80120","Littleton","CO","Live For This: Fitness","8081 S Broadway Ste C","80122",39.568453,-104.9895762
"80120","Littleton","CO","LA Boxing- Littleton","8023 S Broadway","80122",39.57164,-104.99043200000001
"80120","Littleton","CO","LFT Fitness","8081 S Broadway","80122",39.56831413098349,-104.98948244426559
"80121","Littleton","CO","Goodson Recreation Center","6315 S University Blvd","80121",39.602755103899064,-104.96156359941797
"80121","Littleton","CO","Highland Gymnasium","not_available","80121",39.59588554508054,-104.97547649286439
"80121","Littleton","CO","Achieve Fitness","5261 Preserve Pkwy S","80121",39.610602,-104.927204
"80121","Littleton","CO","Prestige Fitness","5150 E Arapahoe Rd Ste D3","80122",39.59470748901367,-104.92724609375
"80122","Littleton","CO","Life Time Fitness","5000 E Dry Creek Rd","80122",39.5792055,-104.928117
"80122","Littleton","CO","StarCycle","8230 S Colorado Blvd Ste B1","80122",39.5682373046875,-104.94131469726562
"80122","Littleton","CO","My Gym - Children's Fitness Center","311 E County Line Rd","80122",39.56720733642578,-104.98503112792969
"80122","Littleton","CO","ATA Family Martial Arts","8130 S University Blvd Ste 160","80122",39.56931570148529,-104.95868728122372
"80122","Littleton","CO","Kompound Training Center","8000 S Lincoln St Ste 3","80122",39.571551309760274,-104.98710513016769
"80122","Littleton","CO","Atlantis Personal Training Inc","999 E Easter Way","80122",39.588654999999996,-104.97668
"80122","Littleton","CO","Gracie Barra Centennial Jiu-Jitsu","4181 E. County Line Rd, Unit C & D","80122",39.56657470217205,-104.9390764563446
"80122","Littleton","CO","Q's Fitness","7561 S Grant St, Littleton, CO 80122","80122",39.578636169433594,-104.98505401611328
"80122","Littleton","CO","Mighty Mick's Gym","6851 S Gaylord St","80122",39.59211730957031,-104.9635238647461
"80122","Littleton","CO","Sterling Point Gym","not_available","80122",39.59400939941406,-104.92333221435547
"80122","Littleton","CO","YogaSix","7547 S University Blvd","80122",39.57960510253906,-104.96194458007812
"80122","Littleton","CO","High Five Fitness","4181 E County Line Rd Unit A","80122",39.566505,-104.938988
"80122","Littleton","CO","Prestige Fitness","5150 E Arapahoe Rd","80122",39.593355,-104.927307
"80122","Littleton","CO","CrossFit Southglenn","7470 S University Blvd Ste D","80122",39.58210754394531,-104.95879364013672
"80122","Littleton","CO","Team Speed","8130 S University Blvd #135","80122",39.569969177246094,-104.95929718017578
"80122","Littleton","CO","FXB Denver South","7500 S University Blvd","80122",39.579803999999996,-104.958712
"80122","Littleton","CO","Sterling's Team Speed","8170 S University Blvd #190","80122",39.568603515625,-104.95913696289062
"80122","Littleton","CO","Mile High Dive Club - Flip School","8000 S Lincoln St Ste 4","80122",39.5713996887207,-104.98680877685547
"80123","Littleton","CO","Lilley Gulch Recreation Center","6147 S Holland Way","80123",39.60315266948832,-105.10379414161976
"80123","Littleton","CO","Bally Total Fitness","6564-6574 S Balsam Ct","80123",39.59834,-105.0891186
"80123","Littleton","CO","Factory X Muay Thai","8250 W Coal Mine Ave","80123",39.59437561035156,-105.08953857421875
"80123","Littleton","CO","CycleBar Southwest Plaza","8501 W Bowles Ave Ste 1100","80123",39.6119332,-105.0955648
"80123","Littleton","CO","Bally Total Fitness","8966 W Bowles Ave","80123",39.608523846465054,-105.09665244560156
"80123","Littleton","CO","Orangetheory Fitness","8555 W. Belleview Ave","80123",39.62531783102228,-105.09216494685447
"80123","Littleton","CO","CycleBar Scottsdale 101","7000 E Mayo Blvd Ste 1018","85054",39.6118421,-105.0942897
"80123","Littleton","CO","Code Pink Women's Fitness Boot Camp","7306 W Bowles Ave","80123",39.60874938964844,-105.07682037353516
"80123","Littleton","CO","Mojo Fitness","not_available","80127",39.64224596265915,-105.08598771223043
"80123","Littleton","CO","Club USA Fitness","5066 S Wadsworth Way","80123",39.625665,-105.088998
"80123","Littleton","CO","High Country Cheer","not_available","80128",39.591195046121975,-105.07083676626029
"80123","Littleton","CO","YogaSix","8055 W Bowles Ave Ste 900","80123",39.611748795927696,-105.0888051
"80123","Littleton","CO","Koko FitClub of Columbine","6750 S Pierce St","80128",39.5943777,-105.0725692
"80123","Littleton","CO","Westlake Greens Fitness Center","8000 W Crestline Ave","80123",39.61537051543699,-105.08715234950795
"80123","Littleton","CO","J-Range Training","9719 W Coal Mine Ave, Unit E","80123",39.596160888671875,-105.10611724853516
"80123","Littleton","CO","The Dakota At Governor's Ranch","9097 W Cross Dr","80123",39.61420822143555,-105.09925842285156
"80124","Lone Tree","CO","Lone Tree Recreation Center","10249 Ridgegate Cir","80124",39.528919487312336,-104.88160947970734
"80124","Lone Tree","CO","hampton inn","10030 Trainstation Cir","80124",39.53566,-104.870194
"80124","Lone Tree","CO","CrossFit Opportunus","9556 Park Meadows Dr","80124",39.552490234375,-104.87834930419922
"80124","Lone Tree","CO","Gym","6700 Palamino Pkwy","80130",39.55867934318918,-104.91427613888466
"80124","Lone Tree","CO","Fit SHAWNA @ Renewal","9777 S Yosemite St","80124",39.53947448730469,-104.88658905029297
"80124","Lone Tree","CO","Element Hotel Fitness Cemter","9985 Park Meadows Dr","80124",39.55447769165039,-104.87628173828125
"80124","Lone Tree","CO","Park Meadows CrossFit","9556 Park Meadows Dr Ste 500","80124",39.552406,-104.878543
"80124","Lone Tree","CO","Gym @ Aurora Bank","10350 Park Meadows Dr","80124",39.54154586791992,-104.87325286865234
"80124","Lone Tree","CO","L.A. Boxing","7824 Park Meadows Dr","80124",39.562648964912,-104.89744133157134
"80124","Lone Tree","CO","Crossfit Modig","7408 East County Line Rd.","80126",39.5587654083145,-104.90627657612646
"80124","Lone Tree","CO","Push Performance","5690 County Line Pl Unit C","80126",39.564411,-104.921611
"80124","Lone Tree","CO","Palomino Health Club","not_available","80126",39.560845198749405,-104.91034289252977
"80124","Lone Tree","CO","Be Fit 40","9632 Lameria Dr","80130",39.541038,-104.908955
"80125","Littleton","CO","Northridge Rec Center","8801 S Broadway","80129",39.556498071969706,-104.98851813422695
"80125","Littleton","CO","Chuze Fitness","9499 S. University Blvd.","80126",39.544574,-104.946863
"80125","Littleton","CO","Westridge Recreation Center","9650 S. Foothills Blvd","80129",39.540749046233344,-105.01349224482018
"80125","Littleton","CO","barre3","1493 Park Central Drive","80129",39.55426354545863,-105.0059380048935
"80125","Littleton","CO","Camden Highlands Ridge Gym","Timber Hawk Cir","not_available",39.54079463673119,-104.9374052211185
"80125","Littleton","CO","CorePower Yoga","1265 Sgt Jon Stiles Dr, Unit K2","80129",39.550251,-105.003472
"80125","Littleton","CO","Orangetheory Fitness","9559 S University Blvd","80126",39.54269184255896,-104.94576973688899
"80125","Littleton","CO","N'tense Fitness","9345 Commerce Center St","80129",39.54585,-105.035328
"80125","Littleton","CO","Jeff's Beat Laboratory","not_available","80130",39.51475800907574,-104.94152337241295
"80125","Littleton","CO","The Rec Room","not_available","80129",39.531686494194595,-105.02986091888506
"80125","Littleton","CO","Barre Forte","36 Springer Dr","80129",39.5593979,-104.9878564
"80125","Littleton","CO","SERR Fitness & Performance","2957 Windridge Cir","80126",39.520393,-104.95337
"80125","Littleton","CO","Home Gym","8413 S Painted Sky St","80126",39.562360999999996,-104.984802
"80125","Littleton","CO","OnTrack Fitness","9507 Painted Canyon Cir","80129",39.544209,-105.026375
"80125","Littleton","CO","Snap Fitness","8351 N Rampart Range Rd #105","80125",39.46795722521497,-105.07389340486542
"80125","Littleton","CO","Elite Body Training","9341 Commerce Center St","80129",39.54585,-105.035328
"80125","Littleton","CO","Xtend Barre Highlands Ranch","3620 E Highlands Ranch Pkwy Unit 103","80126",39.5428467,-104.9469348
"80125","Littleton","CO","Sledge Fitness","12415 Dumont Way","80125",39.542094,-105.040575
"80125","Littleton","CO","Missinglink Fitness","9473 S University Blvd Unit A","80126",39.544063568115234,-104.94686889648438
"80126","Littleton","CO","Eastridge Recreation Center","9568 S University Blvd","80126",39.536111092329506,-104.93161154440529
"80126","Littleton","CO","Pure Barre","9362 S Colorado Blvd Unit D12","80126",39.5442413417029,-104.94177145767213
"80126","Littleton","CO","The L Gym","Apollo Bay Dr.","not_available",39.53614878608775,-104.93170676138541
"80126","Littleton","CO","Mountain Fitness Training Center","2690 E County Line Rd","80126",39.5649528503418,-104.95687866210938
"80126","Littleton","CO","Center 4 Champions","2680 E County Line Rd Unit K","80126",39.564721999999996,-104.957651
"80127","Littleton","CO","Gym","7499 S Quail Cir","80127",39.58259,-105.12447900000001
"80127","Littleton","CO","The Ridge Rec Center -- Littleton","6613 S Ward St","80127",39.59600802622573,-105.13515833614461
"80127","Littleton","CO","Jump Street Fun Center","10081 W Bowles Ave","80127",39.61055607606206,-105.11131724701175
"80127","Littleton","CO","Row House","10278 W Centennial Rd #103","80127",39.56699137569617,-105.11075420674592
"80127","Littleton","CO","CorePower Yoga","8204 S Kipling Pkwy, Ste 150","80127",39.5668269335701,-105.10824836790562
"80127","Littleton","CO","The Gym At The Ridge","13300-13398 W Coal Mine Dr","80127",39.600315883746674,-105.14925547566733
"80127","Littleton","CO","Koko FitClub of Ken Caryl","12482 W Ken Caryl Ave","80127",39.57903,-105.1359996
"80127","Littleton","CO","Katharo Training Center - Jiu-Jitsu and Fitness","10146 W San Juan Way #100","80127",39.563848,-105.11283999999999
"80127","Littleton","CO","The Frank Gym","11744 W Marlowe Pl","80465",39.63166427612305,-105.13050079345703
"80127","Littleton","CO","Anytime Fitness","5935 S Zang St","80127",39.60840764920896,-105.14694392681122
"80127","Littleton","CO","Mojo Fitness","8392 S Continental Divide Rd","80127",39.567692,-105.120166
"80127","Littleton","CO","Elementary, My Dear Gym","6618 S Alkire St","80127",39.597698,-105.14818000000001
"80128","Littleton","CO","Rocky Mountain Self Defense","6707 W Ken Caryl Ave","80128",39.581538973519955,-105.07153339259031
"80128","Littleton","CO","Pure Barre","7403 W Chatfield Ave Unit C","80128",39.5674095,-105.0805491
"80128","Littleton","CO","Anytime Fitness","7580 S Pierce St Units 6 & 7","80128",39.57815409,-105.0719491
"80128","Littleton","CO","Highlands Ranch CrossFit","9337 Commerce Center St Unit C5","80129",39.5465202331543,-105.03515625
"80129","Littleton","CO","Orangetheory Fitness","1493 Park Central Dr","80129",39.55355453491211,-105.00639343261719
"80129","Littleton","CO","D1 Sports Training","1060 Plaza Dr","80129",39.556083,-105.000716
"80129","Littleton","CO","HOTWORX- Highlands Ranch","9325 Dorchester St # 123","80129",39.546535,-104.999356
"80129","Littleton","CO","Backcountry Gym","not_available","80125",39.52119690759844,-104.9938536492017
"80129","Littleton","CO","Vertical Academy Workout","36 Springer Dr Unit C","80129",39.559688568115234,-104.9876937866211
"80129","Littleton","CO","Row House","9358 Dorchester St Ste 104","80129",39.5465845,-104.9985004
"80130","Littleton","CO","Highlands Ranch House of Speed","6161 Business Center Dr","80130",39.5628662109375,-104.9168472290039
"80132","Monument","CO","Colorado Juniors, ACES","16815 Mitchell Ave","80132",39.07572555541992,-104.87239074707031
"80132","Monument","CO","Steam Room","not_available","80921",39.051430025676844,-104.8135399153233
"80132","Monument","CO","Angel Phyre All-Stars","1801 Woodmoor Drive","80132",39.10062157901319,-104.8641803948025
"80132","Monument","CO","country club at woodmoor","18945 Pebble Beach Way","80132",39.106597900390625,-104.84092712402344
"80132","Monument","CO","Tri-lakes Fitness Center","1730 Lake Woodmoor Dr","80132",39.09526443481445,-104.86002349853516
"80132","Monument","CO","Tri-Lakes YMCA","17250 Jackson Creek Pkwy","80132",39.08234230379546,-104.85880527516153
"80132","Monument","CO","Anytime Fitness","1737 Lk Woodmoor Dr","80132",39.0936,-104.85909
"80134","Parker","CO","Life Time Fitness","9250 Crown Crest Blvd","80138",39.5498,-104.76992
"80134","Parker","CO","Tiger Lee's World Class Tae Kwon Do","11153 S Parker Rd M & N","80134",39.511672999999995,-104.765741
"80134","Parker","CO","Parker Recreation Center","17301 Lincoln Ave","80134",39.53547411248872,-104.78468778307615
"80134","Parker","CO","20 Mile Athletic Center","18499 Longs Way Unit 101","80134",39.52449035644531,-104.7753677368164
"80134","Parker","CO","FIT36 - Parker","11153 S Parker Rd H","80134",39.512198957945415,-104.76557224536896
"80134","Parker","CO","Koko FitClub of Parker","18671 E Mainstreet Ste B","80134",39.5192229,-104.771317
"80134","Parker","CO","Super Squad Gym","not_available","80138",39.49583,-104.711193
"80134","Parker","CO","GTL","22130 E Idyllwilde Dr","80138",39.495317,-104.732667
"80134","Parker","CO","Power Mixx Fitness","12311 Pine Bluffs Way # 113","80134",39.492517,-104.757108
"80134","Parker","CO","CorePower Yoga","18551 E Main St, Suite 2F","80134",39.5196060275017,-104.77437973022461
"80134","Parker","CO","LA BOXING of Parker","17002 E Mainstreet","80134",39.51439279832556,-104.7923343706817
"80134","Parker","CO","Pinery Cc Fitness Center","not_available","80134",39.46053493328445,-104.75633543049912
"80134","Parker","CO","24 hr fitness","11798 E Oswego St","80112",39.537907000000004,-104.854412
"80134","Parker","CO","Parker Jazzercise Center","10413 S Parker Rd","80134",39.527756657506856,-104.76731196004113
"80134","Parker","CO","Meridian Corporation Center Fitness Center","9780 pyramid court","80112",39.53863525390625,-104.8651351928711
"80135","Sedalia","CO","Granite Fitness Center","16 Mount Evans Blvd #A","80470",39.466716618280905,-105.39630273461927
"80137","Watkins","CO","WestinWORKOUT @ The Westin Denver International Airport","8300 Pena Blvd","80202",39.847176,-104.673868
"80138","Parker","CO","Orangetheory Fitness","12227 Pine Bluffs Way","80134",39.49245071411133,-104.7565689086914
"80138","Parker","CO","Parker Fieldhouse","18700 Plaza Dr","80134",39.525731694918186,-104.77368510317457
"80138","Parker","CO","Fitness Together - Parker","19027 Plaza Dr","80134",39.5269403,-104.7683611
"80138","Parker","CO","High Altitude Tennis Academy","9735 E Tom Tom Dr","80138",39.52773210132619,-104.70296530555726
"80138","Parker","CO","Planet Fitness","10901 S Parker Rd","80134",39.517314,-104.767384
"80138","Parker","CO","Pure Barre","18901 E Mainstreet Ste E","80134",39.51900948271727,-104.76949963554102
"80138","Parker","CO","24 Hour Fitness","11445 Twenty Mile Rd","80134",39.50825881958008,-104.7673110961914
"80138","Parker","CO","CZ Supplements","24016 E Willowbrook Ave","80138",39.50900737455625,-104.71027806404004
"80138","Parker","CO","Champions MMA & Fitness","18460 Longs Way","80134",39.52375411987305,-104.77527618408203
"80138","Parker","CO","Parker Academy of Martial Arts","18632 Pony Express Dr","80134",39.52131503522902,-104.77240817751864
"80138","Parker","CO","Generation Fitness","10490 S Progress Way","80134",39.52588653564453,-104.7679672241211
"80202","Denver","CO","Orangetheory Fitness","1400 Wewatta St","80202",39.75098128400561,-105.0037155557359
"80202","Denver","CO","Planet Fitness","815 16th St","80202",39.74616195998395,-104.99306109011867
"80202","Denver","CO","Transform Colorado","1840 15th St.","80202",39.752061568293925,-105.00353045913674
"80202","Denver","CO","Colorado Athletic Club - Union Station","1601 Wewatta Street","80202",39.75391,-105.002644
"80202","Denver","CO","SPIRE Gym","891 14th St","80202",39.74478715028281,-104.99563923483991
"80202","Denver","CO","Colorado Athletic Club - 16th Street","1201 16th Street Suite 300","80202",39.7487892,-104.9965776
"80202","Denver","CO","LoHi Athletic Club","2010 W 30th Ave","80211",39.75951085696194,-105.01131441590971
"80202","Denver","CO","Tru Fit Athletic Club","1849 Curtis St","80202",39.7496551372235,-104.99167260627789
"80202","Denver","CO","FIT36 - LODO","2110 Market St","80205",39.75470251431387,-104.99194753400356
"80202","Denver","CO","Gym @ Manhattan","1850 Bassett St","80202",39.7572593139711,-105.00320489290243
"80202","Denver","CO","1144 Gym","1144 15th St","80202",39.74705123901367,-104.99759674072266
"80202","Denver","CO","Four Seasons Denver Gym","1111 14 th street","not_available",39.74643955694004,-104.99837973826845
"80202","Denver","CO","Dakota Gym","1441 Central St","80211",39.757342,-105.01110200000001
"80202","Denver","CO","Magnolia Gym","818 17th St","80202",39.74678421020508,-104.99237060546875
"80202","Denver","CO","Sheraton Fitness","not_available","80202",39.741074777801096,-104.98916922536827
"80202","Denver","CO","CrossFit LoDo","2363 Blake St","80205",39.758161887469775,-104.98975228943303
"80202","Denver","CO","Platform Gym","1650 Wewatta St","80202",39.75358200073242,-105.00160217285156
"80202","Denver","CO","DAC - Weight Room","not_available","80204",39.741979398034466,-104.99371100563138
"80202","Denver","CO","Aggression Session.","not_available","80211",39.76419868058814,-105.00325699185565
"80202","Denver","CO","Cadence Union Station Fitness Center","1920 17th St Fl 13","80202",39.75423812866211,-105.00223541259766
"80202","Denver","CO","City Gate Gym","not_available","80216",39.763955950344766,-104.98628445553902
"80202","Denver","CO","Metro Gym","2121 Delgany St","80202",39.75763702392578,-104.99773406982422
"80202","Denver","CO","Gym @ 2101","2101 Market St","80205",39.75515427385335,-104.99168853513459
"80202","Denver","CO","UCD Lawrence Street Center Gym","1380 Lawrwnce St","not_available",39.745444029897854,-105.00292033359355
"80202","Denver","CO","Denver Barbell Club","601 W 29th Ave","80202",39.75868,-104.99575
"80202","Denver","CO","Form Fitness","1200 17th St Ste 200","80202",39.74916519856656,-104.99437287286439
"80203","Denver","CO","CorePower Yoga","333 E 13th Ave","80203",39.73706957478853,-104.98305715156675
"80203","Denver","CO","The Barrington","909 Logan St","80203",39.73070072165737,-104.98226773005597
"80203","Denver","CO","Warwick Hotel Fitness Center","Grant St.","not_available",39.74442135179235,-104.98317855362323
"80203","Denver","CO","CorePower Yoga","277 Broadway","80203",39.7208055,-104.9877806
"80203","Denver","CO","CITYROW Denver - Uptown","464 East 19th Avenue","80203",39.7458809,-104.9815877
"80203","Denver","CO","Jack Kerouac Gym","1260 Sherman St","80203",39.736194,-104.98446200000001
"80203","Denver","CO","P90x Studio","1665 Logan St","80203",39.742304,-104.982624
"80203","Denver","CO","BodyLab Fitness","800 N Lincoln St","80203",39.72936004989592,-104.9856295402335
"80203","Denver","CO","Cassassination Gym","525 Lincoln St","80203",39.725424,-104.98660600000001
"80203","Denver","CO","Believe Fitness","227 Broadway","80203",39.7199592590332,-104.98798370361328
"80203","Denver","CO","CrossFit Broadway","227 Broadway","80204",39.71994337029519,-104.98760699927892
"80203","Denver","CO","Gym @ Sleek","770 Grant St","80203",39.72835,-104.98324
"80203","Denver","CO","2nd Floor Gym @ 1975 Grant","not_available","80203",39.747118,-104.983565
"80203","Denver","CO","Gym @ Midland Lofts","444 17th St Fl 2","80202",39.74324233930569,-104.9888726105583
"80203","Denver","CO","Anthem BCBS Fitness Center","700 Broadway","80203",39.72789985902434,-104.9867878092164
"80203","Denver","CO","Safari Club Gym","990 Logan St","80203",39.73178791455049,-104.98242042085622
"80203","Denver","CO","Bodies By Perseverance","450 E 17th Ave","80203",39.742869479306435,-104.98150011479257
"80203","Denver","CO","Park Avenue Lofts Gym","1900-1998 S Washington St","80210",39.746716505502256,-104.97845971395253
"80203","Denver","CO","Bonza Bodies Fitness Studio","1800 Glenarm Pl","80202",39.745768711625004,-104.98761902807252
"80203","Denver","CO","The Mezzo gym","901 N Sherman St","80203",39.73002061558604,-104.9858132066628
"80203","Denver","CO","WerqOut Room at TDH","1055 N Logan St","80203",39.73301044819194,-104.9812177961534
"80203","Denver","CO","Baker Tower Gym","330 Acoma St","80223",39.72124678724271,-104.98823929366445
"80203","Denver","CO","BodyLab Treadmill","101 Broadway","80203",39.71853215805553,-104.98783420038161
"80204","Denver","CO","Balance Yoga Barre","1525 Raleigh St.","80204",39.741153717041016,-105.04200744628906
"80204","Denver","CO","CrossFit Broadway","1025 Acoma Street","80204",39.7326105,-104.98919768
"80204","Denver","CO","Barnum Recreation Center","4th & Hooker","80204",39.722381484360696,-105.02828231600371
"80204","Denver","CO","Duality","4635 W Colfax Ave","80204",39.7405585,-105.0470516
"80204","Denver","CO","Fitness in the City","1212 Delaware St","80204",39.73577439271511,-104.99259903609446
"80204","Denver","CO","CROSSFIT JAI","1921 Federal Blvd","80204",39.74744598169935,-105.02810050385598
"80204","Denver","CO","Gusler Body Sculpting Fitness Center","459 Acoma St","80204",39.723831,-104.989709
"80205","Denver","CO","CrossFit Verve","3545 Larimer St","80205",39.76767153722019,-104.973826110363
"80205","Denver","CO","Glenarm Recreation Center","2800 Glenarm Pl","80205",39.75541336573733,-104.97547271811338
"80205","Denver","CO","Tease Studio","3534 Walnut St","80205",39.768167769925014,-104.9745726884056
"80205","Denver","CO","taxi fitness","3457 Ringsby Ct, Denver, CO 80216","80216",39.77244567871094,-104.98262786865234
"80205","Denver","CO","Bodies By Perseverance","2860 Welton St","80205",39.75633239746094,-104.97550964355469
"80205","Denver","CO","TAXI II","3457 Ringsby Ct","80216",39.77199861412641,-104.9827621864288
"80205","Denver","CO","Block 32 Gym","3200 Brighton Blvd","80216",39.76747131347656,-104.98140716552734
"80205","Denver","CO","Atherial Aerial Yoga and Barre Fitness","3905 Fox St","80216",39.770672999999995,-104.995147
"80205","Denver","CO","Benedict Park Place Gym","not_available","80205",39.74995357600319,-104.97980810025568
"80205","Denver","CO","Jazzercise","2800 Cook St","80205",39.757022857666016,-104.94733428955078
"80205","Denver","CO","Solera Mini Gym","1956 Lawrence St","80202",39.75181579589844,-104.99176788330078
"80205","Denver","CO","York Street CrossFit","3758 York St, Denver, CO 80205","80205",39.76917444015839,-104.95949656675785
"80206","Denver","CO","Pure Barre","201 University Blvd Ste 107","80206",39.71989974643553,-104.95988448834322
"80206","Denver","CO","Zone Athletic Clubs","3300 E 1st Ave","80206",39.7174761,-104.9480224
"80206","Denver","CO","Orangetheory Fitness","2780 E 2nd Ave","80206",39.71930694580078,-104.9549789428711
"80206","Denver","CO","CorePower Yoga","2780 E 6th Ave","80206",39.7254025,-104.9548369
"80206","Denver","CO","Kinetic Fitness Studio","2624 E 3rd Ave","80206",39.7206712,-104.9563365
"80206","Denver","CO","Gym at The Seasons","3333 E Bayaud Ave","80209",39.714979641374754,-104.94706756138643
"80206","Denver","CO","Seasons Of CC Fitness Center","not_available","80209",39.71508110878908,-104.94698208283148
"80206","Denver","CO","Half Hour Power","250 Steele St","80206",39.720401763916016,-104.949462890625
"80206","Denver","CO","JW Marriott Gym","150 Clayton Ln","80206",39.71878433227539,-104.95681762695312
"80206","Denver","CO","Cook St. Gym","1311 Cook St","80206",39.737056732177734,-104.94757843017578
"80206","Denver","CO","Basement Level Gym","210 University Blvd, Denver, CO 80206","80206",39.72017288208008,-104.95885467529297
"80206","Denver","CO","Workout Room","The Regina Apartments","80206",39.73603157207237,-104.95605753003028
"80206","Denver","CO","The Pinnacle Weight Room","not_available","80206",39.743425684496906,-104.9534791608178
"80206","Denver","CO","Pura Vida","2955 E 1st Ave Ste 200","80206",39.71839141845703,-104.95258331298828
"80206","Denver","CO","Tough Mudder Bootcamp","3805 E Colfax Ave","80206",39.740502,-104.942621
"80206","Denver","CO","Green Door Fitness","2404 E Colfax Ave","80206",39.740073928250155,-104.95864753318229
"80206","Denver","CO","Endorphin City Park","3170 E Colfax Ave","80206",39.740116482238264,-104.94994823143958
"80206","Denver","CO","Qi Fitness Studio","3121 E Colfax Ave","80206",39.74009224185764,-104.94986154658788
"80206","Denver","CO","Pilates of Cherry Creek","100 Garfield St Ste 200","80206",39.7180480957031,-104.943412780762
"80206","Denver","CO","Pura Vida","2955 East 1st Ave., Suite 200","80206",39.718261605277156,-104.95267777792083
"80206","Denver","CO","Qi Ryders","7555 E Academy Blvd","80230",39.740304457888406,-104.95076539281972
"80206","Denver","CO","AvantgardeFitness","240 St Paul Denver Colorado","80209",39.72022999805891,-104.95079245302306
"80207","Denver","CO","Flex Yoga + Barre","6930 W. 23rd Ave.","80207",39.751042,-104.907863
"80207","Denver","CO","Bladium Sports Club","2400 Central Park Blvd","80238",39.75198858387868,-104.88960568497644
"80207","Denver","CO","CorePower Yoga","7485 E 29th Pl","80238",39.75850373167116,-104.90092568099499
"80207","Denver","CO","The Bars","2250 Kearney St","80207",39.750274658203125,-104.91716766357422
"80207","Denver","CO","Endorphin - Park Hill","2212 Kearney St","80207",39.7497516,-104.9173012
"80207","Denver","CO","Fitness Center Red Lion Hotel","4440 Quebec St","80237",39.77361740420991,-104.90169812444455
"80207","Denver","CO","Pure Barre","7695 E 29th Pl","80238",39.759354520039274,-104.89980682881873
"80207","Denver","CO","Guest Workout Facility","3737 Quebec St","80207",39.768680572509766,-104.90396881103516
"80207","Denver","CO","Skyland","3334 Holly St","80207",39.764278411865234,-104.92208862304688
"80207","Denver","CO","Denver Barbell","6103 Martin Luther King Blvd","80207",39.762149810791016,-104.917236328125
"80207","Denver","CO","Park Hill Biot Camp","not_available","80207",39.752978,-104.920051
"80207","Denver","CO","Mile High Fitness","3835 Elm St","80207",39.769882,-104.929836
"80207","Denver","CO","Lodestone Strength","2245 Kearney St #102","80207",39.75018020828083,-104.91775721311569
"80207","Denver","CO","Curves","7489 E. 29th Place","80238",39.758415,-104.900994
"80207","Denver","CO","Wheeler Gym","2894 Dexter St","80207",39.758171999999995,-104.932506
"80209","Denver","CO","Alexan Broadway Station","1145 S Broadway","80210",39.695936916133995,-104.98747912343502
"80209","Denver","CO","Washington Park Recreation Center","701 S Franklin St","80209",39.70274740321621,-104.97032074622322
"80209","Denver","CO","e3 Fitness","1165 S Broadway, 124","80210",39.6951361,-104.9878271
"80209","Denver","CO","Fierce45","527 E Mississippi Ave","80210",39.696864,-104.981118
"80209","Denver","CO","1000 South Broadway Fitness Studio","1000 S Broadway","80209",39.69866814286992,-104.98672232413864
"80209","Denver","CO","Commit Fitness","2326 E Exposition Ave","80209",39.7037643,-104.959814
"80209","Denver","CO","Windsor Fitness Center","not_available","80223",39.69615927933945,-104.98741879760458
"80209","Denver","CO","Orangetheory Fitness","999 S Logan St #100","80209",39.69844522091815,-104.98306632041931
"80209","Denver","CO","Orangetheory Fitness","381 S Broadway","80209",39.709643,-104.98784
"80209","Denver","CO","West Wash Park Fitness","1221 S Clarkson St","80210",39.69455558610497,-104.97857886877598
"80209","Denver","CO","Supergym","236 S Logan St","80209",39.712231,-104.98235600000001
"80209","Denver","CO","Symmetry Muscle Specialists","Pearl Street","80210",39.694236755371094,-104.98047637939453
"80209","Denver","CO","Snap Fitness","691 S Humboldt St","80209",39.703592,-104.97188
"80209","Denver","CO","CrossFit Wash Park","685 S Broadway","80209",39.70449447631836,-104.98822784423828
"80209","Denver","CO","Cherry Creek Fitness Center","351 S Jackson St","80209",39.71002960205078,-104.9428939819336
"80209","Denver","CO","ALT Fitness","1928 S Gaylord St","80209",39.697755,-104.961645
"80210","Denver","CO","Inward Fitness - Headquarters","3900 E Mexico Ave Ste GL-10","80210",39.68520051704942,-104.94141370503085
"80210","Denver","CO","The Gime","not_available","80210",39.67338676991956,-104.96683921375445
"80210","Denver","CO","My Fitness Room","University Blvd","80206",39.680662492240614,-104.95890405222896
"80210","Denver","CO","Achieve Fitness","1355 S. Colorado Boulveard","80222",39.692,-104.941699
"80210","Denver","CO","Thrillseekers","1912 S Broadway","80210",39.681690633906015,-104.98729549533711
"80210","Denver","CO","CorePower Yoga","1699 S Colorado Blvd, Suite I","80222",39.68598015640816,-104.94108773767948
"80210","Denver","CO","Evolve Yoga Denver","1321 S Broadway","80210",39.69251,-104.98786299999999
"80210","Denver","CO","The GYM","1361 S Broadway","80210",39.69177,-104.98788200000001
"80210","Denver","CO","DU Rec Center","2201 E Asbury Ave","80210",39.680606842041016,-104.96202850341797
"80210","Denver","CO","Schlessman Family YMCA","3901 E Yale Ave,","80210",39.66817138310249,-104.9415256429257
"80211","Denver","CO","CycleBar LoHi","1230 W 38th Ave","80211",39.769104379769615,-105.00154674053192
"80211","Denver","CO","Fitwall Highlands","2795 N Speer Blvd","80211",39.75711703339658,-105.01832437495331
"80211","Denver","CO","Anytime Fitness","3698 W 44th Ave Ste G","80211",39.77577,-105.03558
"80211","Denver","CO","CorePower Yoga","3390 W 32nd Ave","80211",39.761772035075694,-105.03208275139741
"80211","Denver","CO","CorePower Yoga","3041 Zuni St","80211",39.75988727945794,-105.01612991094589
"80211","Denver","CO","Orangetheory Fitness","3300 W 32nd Ave Unit 101","80211",39.762001519245935,-105.03006135832224
"80211","Denver","CO","Stroller Strides Highlands","2700 Osceola St","80212",39.756997,-105.037203
"80211","Denver","CO","CrossFit Train","2031 Bryant St","80211",39.74799346923828,-105.01941680908203
"80211","Denver","CO","Waterside Lofts Gym","1401 Wewatta St","80202",39.751321000000004,-105.00451399999999
"80211","Denver","CO","Pure Barre","3420 W 32nd Ave Unit 103","80211",39.761858409509024,-105.03261068031566
"80211","Denver","CO","CrossFit Vantage","3451 W 38th Ave","80211",39.769763,-105.032762
"80211","Denver","CO","Avalanche Gym At Pepsi Center","1000 Chopper Cir","80204",39.74769725705023,-105.00767355682126
"80211","Denver","CO","Pure Barre (Highlands)","3420 W 32nd Ave","80211",39.76188659667969,-105.03272247314453
"80211","Denver","CO","DaVita Fitness Gym","Chestnut","not_available",39.75366511771997,-105.00374099791571
"80212","Denver","CO","LA Fit Tennyson","not_available","80212",39.773376,-105.045616
"80212","Denver","CO","Row House","5475 W 20th Ave","80214",39.74875462360223,-105.0563862134918
"80212","Denver","CO","High Ride Cycle","1711 Sheridan Blvd Ste A","80214",39.7455132,-105.0541443
"80212","Denver","CO","pearl street fitness","3977 Tennyson St","80212",39.771997999999996,-105.044269
"80212","Denver","CO","Feed Your Soul Fitness","5500 W 44th Ave","80212",39.77639895136698,-105.05693741293123
"80212","Denver","CO","CorePower Yoga","3955 Tennyson St","80212",39.7721132,-105.0441263
"80212","Denver","CO","YogaSix","5471 W 20th Ave","80214",39.74858856201172,-105.05709075927734
"80212","Denver","CO","Scheitler Rec Center","5031 W 46th Ave","80212",39.780957951720616,-105.05139492460762
"80212","Denver","CO","Alchemy 365 Tennyson","4144 Tennyson St","80212",39.77315139770508,-105.04368591308594
"80212","Denver","CO","Fitness Together - Edgewater","5700 W 25th Ave","80214",39.75268030262745,-105.0598825086157
"80212","Denver","CO","P90X @ Team O Station","Osceola Blvd.","32960",39.768843519107385,-105.03790097723873
"80214","Denver","CO","High Road Gym","835 Wadsworth Blvd","80214",39.730728000000006,-105.082132
"80214","Denver","CO","Walk Of Shame","not_available","80214",39.754278,-105.07083
"80215","Denver","CO","Gym At St Moritz","11171 W 17th Ave","80215",39.74455642700195,-105.1211166381836
"80215","Denver","CO","Applewood Crossfit","1921 Youngfield St","80401",39.746067,-105.143901
"80215","Denver","CO","Point Athletic Club","533 Van Gordon Street","80228",39.72413706684633,-105.13623125702107
"80215","Denver","CO","Curves","not_available","80401",39.74660039210934,-105.1440983566057
"80215","Denver","CO","Next Level Performance","2650 Alkire St","80401",39.7550163269043,-105.14672088623047
"80215","Denver","CO","Charles E. Whitloc Recreation Center","1555 Dover St","80215",39.741615827209905,-105.09436982987562
"80215","Denver","CO","The Flex Gym","8790 W Colfax Ave","80215",39.7396265509667,-105.09511347166449
"80215","Denver","CO","Sessions6","6th Ave & Garrison","80232",39.72482335560595,-105.0988945594515
"80216","Denver","CO","Ground Base Training","4601 Quebec St Unit B7","80216",39.781497955322266,-104.90467071533203
"80216","Denver","CO","bboy factory","6401 Broadway","80221",39.813441799900545,-104.9880795384452
"80216","Denver","CO","The Fitness Branch","3195 Blake St Apt 102","80205",39.765647888183594,-104.98030853271484
"80216","Denver","CO","CorePower Yoga","1875 29th St","80216",39.765149,-104.987098
"80216","Denver","CO","Colorado Army National Guard Armory","5275 Franklin St","80216",39.79127458252897,-104.969929039056
"80216","Denver","CO","Weight Room","3200 Steele St","80205",39.761986,-104.950135
"80216","Denver","CO","Blake Street Gym","2632 Blake St","80205",39.75994200990145,-104.98657328274705
"80218","Denver","CO","Colfax Strong","1516 Emerson St.","80218",39.74040249917501,-104.97582739514034
"80218","Denver","CO","Anytime Fitness","1244 E Colfax Ave","80218",39.739781,-104.970895
"80218","Denver","CO","SweetB's Gym","Capitol Hill","80218",39.733636000000004,-104.97666
"80218","Denver","CO","Pump Pump Pump It Up","not_available","80218",39.73230378526788,-104.96701606223104
"80218","Denver","CO","Briargate Fitness Center","837 E 17th Ave","80218",39.743568420410156,-104.97666931152344
"80218","Denver","CO","Downtown Cool-Away","1601 E 19th Ave Ste 3050","80218",39.7466905,-104.9679675
"80218","Denver","CO","Timberly Workout","1255 Ogden St","80218",39.736305,-104.97553799999999
"80218","Denver","CO","Gym At Park Sedona","1245 N Humboldt St","80218",39.73616493662244,-104.96960730450681
"80219","Denver","CO","Topeira Boxing Club","2710 W Alameda Ave","80219",39.71100387707566,-105.02070585374238
"80219","Denver","CO","Harvey Park Recreation Center","2220 S Patton Ct","80219",39.678071115204396,-105.04186892800878
"80219","Denver","CO","Athmar Recreation Center","2680 W Mexico Ave","80219",39.68546309501874,-105.01975357532501
"80220","Denver","CO","Anytime Fitness","6005 E Colfax Ave","80220",39.740384,-104.918087
"80220","Denver","CO","Fierce45","335 Holly St","80220",39.721203,-104.922941
"80220","Denver","CO","Orangetheory Fitness","200 Quebec, Bldg. 700, Unit 101","80230",39.720548949617445,-104.90309755603118
"80220","Denver","CO","S&J Gym","118 Krameria St","80220",39.719084,-104.91516399999999
"80220","Denver","CO","UP GYM Functional Training Center","4801 E Colfax Ave","80220",39.740349,-104.93185700000001
"80220","Denver","CO","Freedom Fitness","1285 Albion St","80220",39.736225,-104.939777
"80220","Denver","CO","iLoveKickboxing - Denver, CO","721 Quebec St","80220",39.727521,-104.903928
"80220","Denver","CO","EdgeBody BootCamp","S Glencoe St, Denver, CO","80220",39.74061191082001,-104.9254846572876
"80220","Denver","CO","Advenir at Stapleton Fitness Center","8008 Montview Blvd","80220",39.74631534086371,-104.89451319026207
"80220","Denver","CO","Curves","938 Jersey St","80220",39.73112090758531,-104.91924221206199
"80220","Denver","CO","Berkshire Gym @ Lowry","not_available","80230",39.7162750414586,-104.89813983065444
"80220","Denver","CO","FIT36 - Lowry","101 Ulster Ct #104","80230",39.722931,-104.89396699999999
"80220","Denver","CO","F45 Training Lowry","7111 E Lowry Blvd","80224",39.717854,-104.90511
"80221","Denver","CO","Savage Sportplex","700 W 84th Ave","80260",39.847377,-104.99534799999999
"80221","Denver","CO","Be Fit & Nutrition","670 W 84th Ave","80260",39.84870529174805,-104.99491882324219
"80221","Denver","CO","Perl Mack Community Center/Hyland Hills Preschool","7125 Mariposa St","80221",39.825748457859426,-105.00367858064938
"80221","Denver","CO","Mountain Strong Denver","5280 Broadway Street","80216",39.7924605951395,-104.98722370961423
"80221","Denver","CO","A.M.P. Gym","not_available","80221",39.8353663,-105.00783212
"80222","Denver","CO","Snap Fitness","1417 S Holly St","80222",39.69028870793124,-104.92310308343447
"80222","Denver","CO","Project Rise Fitness","2115 S Birch St","80222",39.678184,-104.936675
"80222","Denver","CO","Wellshire Arms gym","2499 S Colorado Blvd","80222",39.672453509758725,-104.94041682271154
"80222","Denver","CO","Focus Gym","4155 E Jewell Ave","80222",39.68336387154576,-104.93875701253477
"80222","Denver","CO","Powerhour kettleball","2570 S Colorado Blvd","80222",39.66917037963867,-104.94035339355469
"80222","Denver","CO","Denver Jazzercise Center","2538 S Colorado Blvd","80222",39.67015219807186,-104.93965086160316
"80222","Denver","CO","Colorado Athletic Club - Monaco","2695 South Monaco Parkway","80222",39.66835469999999,-104.9136533
"80222","Denver","CO","Anytime Fitness","1350 S Colorado Blvd Ste 140","80222",39.692057,-104.939783
"80222","Denver","CO","Fitness Center @ The District","6300 E Hampden Ave","80222",39.65225156093377,-104.91693522029463
"80222","Denver","CO","Summit Fitness","2000 S Dahlia St","80222",39.680203,-104.930118
"80223","Denver","CO","Fun Fit Pro","1001 W Arizona Ave","80223",39.695063,-104.999499
"80223","Denver","CO","CrossFit Denver","130 Lipan St","80223",39.718970103030536,-105.00154812889953
"80223","Denver","CO","The Gym 90/50","Bannock","not_available",39.719302,-104.990319
"80223","Denver","CO","urban pump","568 Inca St","80204",39.725485,-104.99727800000001
"80223","Denver","CO","Better Body In 50 Days","Cell Block 50/p90x","80223",39.718994,-104.990519
"80223","Denver","CO","Cross Fit Conquer","1137 S Huron St","80223",39.696244,-104.99708400000002
"80223","Denver","CO","La Familia Recreation Center","65 S Elati St","80223",39.715704540455214,-104.99400199864881
"80223","Denver","CO","FORM Personal Training Denver CO","301 Kalamath St","80223",39.72158087898304,-105.00032623408674
"80224","Denver","CO","Brad's gym","not_available","80224",39.67649841308594,-104.90888214111328
"80224","Denver","CO","Fitness 19","7150 Leetsdale Dr","80224",39.699230334629156,-104.90639244772979
"80226","Denver","CO","Pure Barre","7420 W Alaska Dr Spc 511","80226",39.70898640447927,-105.08015677546314
"80226","Denver","CO","Modevo Fitness","441 Wadsworth Blvd #215","80226",39.7227749,-105.0820914
"80226","Denver","CO","7166 At Belmar Gym","7166 W Custer Ave","80226",39.70586060606871,-105.0758483670857
"80226","Denver","CO","CorePower Yoga","7349 W Alaska Dr","80226",39.709471,-105.079313
"80226","Denver","CO","Orangetheory Fitness","7700 W Virginia Ave Unit A","80226",39.706628136027774,-105.08239633699591
"80226","Denver","CO","One Belmar Place Fitness Center","620 S Vance St","80226",39.70432245152596,-105.07774523189532
"80226","Denver","CO","The Link","not_available","80232",39.69400756808882,-105.07717327570467
"80226","Denver","CO","Lakeview Towers Fitness Center","not_available","80226",39.704853,-105.075338
"80226","Denver","CO","Genesis Health and Fitness","7301 W Ohio Ave","80226",39.70415715167503,-105.07610327913014
"80227","Denver","CO","Vasa Fitness","1955 S Sheridan Blvd","80227",39.681174769966795,-105.05492061133019
"80227","Denver","CO","Carmody Recreation Center","2200 S Kipling St","80227",39.677731828095496,-105.10923916042755
"80227","Denver","CO","Meridian Healthcenter Gym","2750 S. Wadsworth Blvd D 102","80227",39.6666259765625,-105.07975769042969
"80227","Denver","CO","Mccutcheon Basement Gym","6020 W Iliff Dr","80227",39.6771125793457,-105.06282806396484
"80227","Denver","CO","Envision Martial Arts - Lakewood","11078 W Jewell Ave Ste B4","80232",39.6808824,-105.1225189
"80227","Denver","CO","K&S Gym","not_available","80227",39.65676,-105.08155
"80227","Denver","CO","Coach Karen Van Cleve","2255 S Hoyt Ct","80227",39.676189,-105.10473200000001
"80227","Denver","CO","Sanctuary BJJ & Fitness","3355 S Wadsworth Blvd Unit F109","80227",39.65527484481855,-105.08262515410752
"80227","Denver","CO","Welcyon, Fitness After 50 - Lakewood","3140 S Wadsworth Blvd","80227",39.6617326,-105.0810184
"80227","Denver","CO","Best Western Fitness Center","Best Western Denver Southwest","not_available",39.654441833496094,-105.07952117919922
"80227","Denver","CO","Burn Boot Camp","3333 S Wadsworth Blvd","80227",39.65636,-105.08296
"80228","Denver","CO","Absolute Personal Fitness","12364 W Alameda Pkwy #105","80228",39.7031070447744,-105.13652573633769
"80228","Denver","CO","Green Mountain Recreation Center","13198 W Green Mountain Dr","80228",39.69147347189586,-105.14842551851875
"80228","Denver","CO","Get Fit","10815 W Jewell Ave","80232",39.68262,-105.119091
"80228","Denver","CO","RRCC Fitness Center","13300 W 6th Ave","80228",39.72195053100586,-105.15215301513672
"80228","Denver","CO","Casa Del Soule Fitness Room","Van Gordon","not_available",39.70153,-105.137663
"80228","Denver","CO","Crossfit Golden","720 Corporate Cir Ste P","80401",39.7198634877289,-105.19357928603844
"80228","Denver","CO","Denver Functional Health","13131 W Alameda Pkwy Ste 200","80228",39.6973205,-105.1464204
"80228","Denver","CO","CDM Treadmill","Union","80228",39.70560403,-105.13353506
"80228","Denver","CO","Mesa View Personal Gym","our basement","80401",39.717229,-105.187994
"80228","Denver","CO","The Bailey Company Gym","601 Corporate Cir, Golden, CO 80401","80401",39.71925354003906,-105.19058227539062
"80228","Denver","CO","Jac's Gym","Youngfield Ct","not_available",39.706855,-105.144418
"80229","Denver","CO","Planet Fitness","880 E 104th Ave","80233",39.88381773929869,-104.9745020023061
"80229","Denver","CO","The Sauna","Lifetime Fitness","80022",39.811284,-104.92164
"80229","Denver","CO","FIT Industries","7270 Gilpin Way Ste 130","80229",39.8286631,-104.9649712
"80229","Denver","CO","Quail Ridge Gym","not_available","80229",39.88181768926862,-104.98169516507579
"80229","Denver","CO","CrossFit Eminence","864 E 78th Ave","80229",39.837708,-104.975768
"80229","Denver","CO","SCI Recovery Project","866 E 78th Ave","80229",39.83770751953125,-104.97570037841797
"80229","Denver","CO","Pai Lum White Dragon Martial Arts","634 W 84th Ave","80260",39.84813866937145,-104.99471783638
"80230","Denver","CO","AMLI at Lowry Estates: Gym","8155 E Fairmount Dr","80230",39.71186028000307,-104.89194764363214
"80230","Denver","CO","The Eliptical","8600 E Alameda Ave","80247",39.707214,-104.89133100000001
"80231","Denver","CO","Colorado Weightlifting Club","8200 E Pacific Pl Ste 110","80231",39.678599125371925,-104.8926029206632
"80231","Denver","CO","Colorado Kettlebell Club","8200 E. Pacific Place unit 110","80231",39.678855895996094,-104.89324188232422
"80231","Denver","CO","Covington Clubhouse","2172 S Trenton Way","80231",39.6759307521383,-104.89628709238502
"80231","Denver","CO","Viking Fitness Center","1011 S Valentia St","80247",39.699832916259766,-104.89553833007812
"80231","Denver","CO","WOWY SuperGym","My house","not_available",39.682234,-104.89253
"80231","Denver","CO","Fitness Room @ The Parc","7697 E Warren","80231",39.67754087508301,-104.8981341283246
"80231","Denver","CO","The Wave Athletic Club","9099 E Mississippi Ave","80247",39.69905400580406,-104.8834342038053
"80231","Denver","CO","Beachbody SuperGym","Quebec Way","80231",39.68209355612825,-104.89237487984488
"80232","Denver","CO","Prestige Fitness - Lakewood","7777 W Jewell Ave","80232",39.6838224,-105.0836053
"80233","Denver","CO","Northside jazzercise","12301","80241",39.919854928244,-104.98621954292318
"80233","Denver","CO","Adventure Fitness Athletic Club","12301 Grant Dr","80241",39.920797,-104.986074
"80233","Denver","CO","The Regatta Fitness Center","10500 Irma Dr","80233",39.88775634765625,-104.96072387695312
"80233","Denver","CO","Stone Mountain Fitness Center","11625 Community Center Dr","80233",39.90721017923945,-104.98837259606385
"80233","Denver","CO","High Ride Cycle","2145 E 120th Ave Unit H","80233",39.914968,-104.9606769
"80233","Denver","CO","Anytime Fitness","420 E 120th Ave Ste B11","80233",39.91331,-104.98249
"80233","Denver","CO","FIT Thornton | CrossFit Thornton","12061 Pennsylvania St","80241",39.91628,-104.98205
"80233","Denver","CO","Fit Soldiers Fitness Revolution","2100 E 112th Ave #2","80233",39.89909393510281,-104.96333453723558
"80234","Denver","CO","Broomfield Fitness Boot Camp","12910 Zuni St #200","80234",39.93052291870117,-105.01399230957031
"80234","Denver","CO","The Dojo of Karate","1975 W. 120th Ave., #300","80234",39.93031989870665,-105.01406557884357
"80234","Denver","CO","Crossfit Harmonic","12910 Zuni St","80234",39.93056,-105.014403
"80234","Denver","CO","Willow Run Gym","12601 Zuni St","80020",39.92553,-105.01612
"80234","Denver","CO","The Termitarium Gym","not_available","80234",39.932274580386895,-105.01497154064153
"80234","Denver","CO","Nutri-Fit","12005 Pecos St","80234",39.9147223,-105.0062339
"80234","Denver","CO","5280 Fitness Consulting","475 W 115th Ave Unit 5","80234",39.90626525878906,-104.99207305908203
"80234","Denver","CO","Summit Fit Dojo","1975 W. 120th Ave., #400","80234",39.914099,-105.008825
"80234","Denver","CO","TruFit Athletic Club","2861 W. 120th Ave.","80234",39.91640447112025,-105.02174223182195
"80234","Denver","CO","Core Progression","10693 Melody Dr.","80234",39.8905051,-104.993788
"80234","Denver","CO","Camden Pinnacle Fitness Complex","1420 W 116th Ave","80234",39.90572379758396,-105.00325699185565
"80235","Denver","CO","IBC Fitness Center","7201 W Mansfield Ave","80235",39.647791999999995,-105.080247
"80235","Denver","CO","Mile High Elite","not_available","80235",39.652427,-105.11285
"80235","Denver","CO","Courtyard Marriott Fitness Center","7190 W Hampden Ave","80227",39.65226745605469,-105.0755615234375
"80236","Denver","CO","YMCA","5181 W Kenyon Ave","80236",39.651274863675404,-105.0517552988739
"80237","Denver","CO","Turbo Training Fitness Center","4955 S Ulster St #106","80237",39.627000230977586,-104.89505299944953
"80237","Denver","CO","Penterra Gym","8100 E Union Ave","80237",39.629072,-104.89386299999998
"80237","Denver","CO","Hilton gym","7675 E Union Ave","80237",39.628931,-104.900691
"80237","Denver","CO","MileHouse Gym","6750","80237",39.62507766135916,-104.90799240491742
"80237","Denver","CO","Denver Marriott Tech Center Gym","Syracuse Ave","80237",39.62774288333333,-104.90452611666667
"80237","Denver","CO","Stanford Place II","7979 E Tufts Ave","80237",39.63291888072752,-104.89768934722743
"80238","Denver","CO","F45 Training Stapleton","3996 Central Park Blvd","80238",39.773488,-104.882115
"80238","Denver","CO","Anytime Fitness","9165 E Northfield Blvd Ste 155","80238",39.78613,-104.88161
"80239","Denver","CO","Cotton Lifting Club","940 Camberly Dr.","80550",39.77797380643633,-104.80254965294945
"80239","Denver","CO","Lakecrest Apartments Gym","4699 Kittredge St, Denver, CO 80239","80239",39.777984619140625,-104.80429077148438
"80239","Denver","CO","Crowne Plaza Fitness Center","15500 E 40th Ave","80239",39.77177564954374,-104.80742989943309
"80241","Thornton","CO","Promenade at Hunters Glen - Hot Tub","12801 Lafayette St","80241",39.92934353761584,-104.97186939780153
"80246","Denver","CO","Esprit Cherry Creek Apartments","5001 E Mississippi Ave","80246",39.6974045,-104.9298839
"80246","Denver","CO","Life Time Cherry Creek","500 S. Cherry St","80246",39.706748962402344,-104.932373046875
"80246","Denver","CO","Cherry Creek Athletic Club","500 S Cherry St","80246",39.70690370000001,-104.9325586
"80246","Denver","CO","Great Play","760 S Colorado Blvd","80246",39.702686,-104.939451
"80246","Denver","CO","Fitness Center","Cherry Creek","80233",39.7027570153824,-104.9318726920304
"80246","Denver","CO","Glendale Sports Center YMCA","4500 E Kentucky Ave","80246",39.69994317236913,-104.93498770429862
"80246","Denver","CO","CCCC Weight Room","4500 E Cherry Creek South Dr","80246",39.70378112792969,-104.93575286865234
"80246","Denver","CO","BCOR - Denver Boot Camp","350 S Dahlia St","80246",39.71002960205078,-104.93051147460938
"80246","Denver","CO","CCAC - Locker Room","not_available","80246",39.70692414885232,-104.93243854859254
"80246","Denver","CO","AMLI Cherry Creek Fitness Center","801 S Cherry St","80246",39.701499938964844,-104.93438720703125
"80246","Denver","CO","4550 gym","4550 E Cherry Creek South Dr","80246",39.70355224609375,-104.93473815917969
"80246","Denver","CO","Orangetheory Fitness","760 South Colorado Boulevard","80246",39.70253,-104.93951
"80246","Denver","CO","Lancelot Rec Center","4700-4798 E Kentucky Ave","80246",39.7004067,-104.93188325
"80246","Denver","CO","Talavera fitness center","350 S Jackson St","80209",39.70998764038086,-104.94195556640625
"80247","Denver","CO","CrossFit Kali","7808 E Cherry Creek South Dr #104","80231",39.6790771484375,-104.89849090576172
"80249","Denver","CO","Snap Fitness","18240 E 104th Ave","80022",39.885080966632,-104.77481796238357
"80260","Denver","CO","my personal gym","not_available","80260",39.87605285644531,-105.00685119628906
"80301","Boulder","CO","CrossFit Roots","2406 30th St","80301",40.02580923308245,-105.25165095704286
"80301","Boulder","CO","Crunch Fitness - Boulder","1850 30th St","80301",40.0188543,-105.2520329
"80301","Boulder","CO","Easton Training Center - Boulder","2005 32nd St","80301",40.01710056826619,-105.2524478443054
"80301","Boulder","CO","F45 Training Central Boulder","1750 29th Street","80301",40.01811034,-105.2555989
"80301","Boulder","CO","CorePower Yoga","3280 28th St","80301",40.033897,-105.257597
"80301","Boulder","CO","RallySport Health And Fitness Club","2727 29th St","80301",40.02812077121934,-105.25685713653922
"80301","Boulder","CO","Orangetheory Fitness","1850 29th St","80301",40.01876605853212,-105.25584421955598
"80301","Boulder","CO","North Boulder Recreation Center (NBRC)","3170 Broadway St","80304",40.032229640679176,-105.2808877454767
"80301","Boulder","CO","Boulder Jazzercise","1750 38th St","80303",40.014185700136736,-105.22985751458927
"80301","Boulder","CO","The Spot","3240 Prairie Ave","80301",40.0217023923538,-105.25062688236228
"80301","Boulder","CO","Anytime Fitness","6565 Gunpark Dr Ste 160","80301",40.0711,-105.20063
"80301","Boulder","CO","Future Proof Movement","2897 Mapleton Ave Ste 700","80301",40.025904683557116,-105.25644430471573
"80301","Boulder","CO","Iron works fitness","not_available","80304",40.059422,-105.281458
"80301","Boulder","CO","Remington Post Fitness Room","not_available","80301",40.035671789327125,-105.25093334502509
"80301","Boulder","CO","CP+B Gym","6450 Gunpark Dr","80301",40.06957264965784,-105.20286726014766
"80301","Boulder","CO","Ironworks Fitness","4660 Broadway, Boulder, CO 80304","80304",40.05730855158441,-105.280435980247
"80301","Boulder","CO","Define Defense Martial Arts & Private Training","1805 11th St Ste B","80302",40.015995984239005,-105.28088529097211
"80301","Boulder","CO","Revo PT","3550 Frontier Ave","80301",40.0220947265625,-105.24813842773438
"80301","Boulder","CO","Functional Fitness","2401 Broadway St","80304",40.02212695019161,-105.28169343315253
"80301","Boulder","CO","QUICKfit Fitness Studio","2835 Pearl St Ste C","80301",40.022851,-105.257842
"80301","Boulder","CO","Flatirons Crossfit","4847 Pearl St","80301",40.01898658101331,-105.24691213127772
"80301","Boulder","CO","Movement Climbing And Fitness","2845 Valmont Rd","80301",40.02980656011139,-105.25752107330528
"80301","Boulder","CO","Flatirons Performance Center","3640 Walnut St","80301",40.018807,-105.247058
"80301","Boulder","CO","Canterwood Gym","Meredith Way","not_available",40.013190413537735,-105.23336827218036
"80301","Boulder","CO","Boulder Spirals","4700 Sterling Dr Ste C","80301",40.027028217537996,-105.24352445326537
"80302","Boulder","CO","Boulder Creek Apartments","3455 Table Mesa Dr,","80305",39.983798,-105.254028
"80302","Boulder","CO","CorePower Yoga","645 27th Way","80305",39.99926935423256,-105.26054508716697
"80302","Boulder","CO","Rec Center - UCB","Student Recreation Ctr","80309",40.01008880370872,-105.26915124050026
"80302","Boulder","CO","CorePower Yoga","1129 13th St, 2nd Floor","80302",40.0079056,-105.2763792
"80302","Boulder","CO","Mountains' Edge Fitness","555 30th St","80303",39.982692587011286,-105.24913611369685
"80303","Boulder","CO","basement pool","465 S 43rd St","80305",39.98654653495937,-105.24472895014969
"80303","Boulder","CO","Hall Of Pain","1525 Arapahoe Ave","80302",40.014860999999996,-105.274074
"80303","Boulder","CO","One Boulder Fitness","1800 Broadway Ste 190","80302",40.01658899246565,-105.27904221126454
"80303","Boulder","CO","Bicepville","600 30th St","80310",39.999016999999995,-105.25193700000001
"80303","Boulder","CO","The Gym At Em's","not_available","80305",39.99342,-105.258279
"80303","Boulder","CO","Fit Stop","not_available","80303",40.01667,-105.236812
"80304","Boulder","CO","Fierce45","2512 Broadway St","80304",40.023579,-105.281539
"80304","Boulder","CO","Real Fitness","1501 Lee Hill Rd #4","80304",40.0626335144043,-105.27877044677734
"80305","Boulder","CO","SUP Fitness Center","2985 Aurora Ave","80303",40.00421,-105.25408
"80305","Boulder","CO","Workout Room At Kensington","2950 Bixby Ln","80303",40.00225067138672,-105.25494384765625
"80310","Boulder","CO","Carlson Gym","Pleasant street","not_available",40.00938904923962,-105.26859465179538
"80401","Golden","CO","Foothills Clubhouse","1985 Foothills Dr S","80401",39.685705,-105.288409
"80401","Golden","CO","Hoss Gym","13560 W 7th Dr","80401",39.727532000000004,-105.150857
"80401","Golden","CO","Gym","200 Jefferson County Pkwy","80401",39.73057174682617,-105.20069885253906
"80401","Golden","CO","Golden Rec Center","1470 10th St","80401",39.75535202026367,-105.23004913330078
"80401","Golden","CO","DFC (Gym)","2410 Ford St","80401",39.746305,-105.21005900000002
"80401","Golden","CO","Gym","900 Jefferson County Pkwy","80401",39.733575,-105.211394
"80401","Golden","CO","Twice The Results Fitness","1658 Cole Blvd","80401",39.740842,-105.15436299999999
"80401","Golden","CO","Ripple Effect Athletics & Golden Ballet Theater","511 Orchard St","80401",39.740874,-105.15432299999998
"80401","Golden","CO","Nick's Pro Fitness","2932 Evergreen Pkwy # A","80439",39.661427975019414,-105.35161250429917
"80401","Golden","CO","Triyoga Endurance","16948 S Golden Rd","80401",39.736646,-105.19061200000002
"80401","Golden","CO","Camden Fitness Center","1910 Denver West Dr","80401",39.742706,-105.16403799999999
"80403","Golden","CO","Trailhead Crossfit","not_available","80403",39.76430929177203,-105.23383111279318
"80403","Golden","CO","American Mountaineering Center","710 10th St","80401",39.758291058109336,-105.22311989473823
"80422","Black Hawk","CO","Gilpin County Rec Center","250 Norton Dr","80422",39.8364772052918,-105.47836663655261
"80424","Breckenridge","CO","Breckenridge Recreation Center","880 Airport Rd.","80424",39.495952182324444,-106.04760579037949
"80424","Breckenridge","CO","Crystal Peak Lodge Fitness Center","1891 Co Rd 3","80424",39.485284021016305,-106.0671454668045
"80424","Breckenridge","CO","Gym","not_available","80424",39.47398078223208,-106.05185692386621
"80424","Breckenridge","CO","Poundtown","not_available","20852",39.49611111111111,-106.02916666666667
"80424","Breckenridge","CO","Crossfit of Breckenridge","1805 Airport Rd","80424",39.507790684412825,-106.05193630645749
"80424","Breckenridge","CO","Curves","701 Granite St.","80443",39.57572937011719,-106.09339904785156
"80424","Breckenridge","CO","Adam Carrozza","1991 Holden Street","92115",39.48536268464044,-106.04606866836548
"80433","Conifer","CO","Anytime Fitness","10853 US Hwy 285 Suite C","80433",39.5177,-105.30517
"80433","Conifer","CO","Camala Rodriguez","9189 S Turkey Creek Rd","80465",39.54954147338867,-105.23368835449219
"80435","Dillon","CO","Comfort Suites Minigym","not_available","80435",39.632002,-106.057573
"80435","Dillon","CO","Lake Dillon Fire Stn 11 Gym Fitness","22393","80435",39.607929,-105.961147
"80439","Evergreen","CO","Buchanan Park Recreation Center","32003 Ellingwood Trail","80439",39.68485095185086,-105.36370521145608
"80439","Evergreen","CO","Anytime Fitness","3897 - 3901 Evergreen Pkwy","80439",39.64553,-105.33865
"80439","Evergreen","CO","Inspired Fitness","32045 Castle Ct Ste 51","80439",39.6829705,-105.3643519
"80439","Evergreen","CO","Swathcutter Mma","Highway 103","80452",39.7321953,-105.53530346666666
"80439","Evergreen","CO","Dynamic Fitness","1153 Bergen Pkwy","80439",39.693702,-105.357167
"80439","Evergreen","CO","Envision Martial Arts - Evergreen","1002 Swede Gulch Rd","80439",39.7002007,-105.3254144
"80439","Evergreen","CO","Ninja Warrior Academy","30706 Bryant Dr Unit 208","80439",39.65018558170739,-105.34872286504708
"80442","Fraser","CO","zephyr mountain lodge gym","not_available","80482",39.88279342651367,-105.76000213623047
"80442","Fraser","CO","Kiva","1101 County Road, 53","80478",39.991183576236054,-105.92819581141985
"80442","Fraser","CO","Trailhead Lodge Gym","643 Trailhead Circle","80482",39.92115799410001,-105.78529357910156
"80443","Frisco","CO","Peak One fitness","not_available","80443",39.58106875419617,-106.09274446964264
"80443","Frisco","CO","Crossfit LowO2","719 10 Mile Dr Unit D","80443",39.58456039428711,-106.09306335449219
"80443","Frisco","CO","Summit County Jiu Jitsu","842 N Summit Blvd # 29","80443",39.58888580951498,-106.09686604763795
"80446","Granby","CO","The Cabin Treadmill","not_available","80446",40.190956115722656,-105.95013427734375
"80449","Hartsel","CO","Peak Fitness","211 Tabor St","81211",38.829252010195766,-106.12014267510044
"80449","Hartsel","CO","Curves","105 N Railroad","81211",38.84260559082031,-106.1307144165039
"80465","Morrison","CO","Damber Gym","not_available","80465",39.65221405029297,-105.1908187866211
"80465","Morrison","CO","IBJF @ Red Rocks","Red Rocks Amphitheater","not_available",39.667193,-105.20652
"80480","Walden","CO","Steamboat Health And Rec","not_available","80487",40.49653494212567,-106.85605298363075
"80480","Walden","CO","Sheraton Fitness Center","2000 Clubhouse Dr # 774808","80487",40.45815503878439,-106.80478578429808
"80480","Walden","CO","Peak Fitness Center","1103 Lincoln Avenue","80487",40.48798953232499,-106.8382320451369
"80480","Walden","CO","Anytime Fitness","1875 Central Park Dr","80477",40.46146,-106.82176
"80497","Silverthorne","CO","Silverthorne Recreation Center","not_available","80498",39.634254144695895,-106.07163548029948
"80498","Silverthorne","CO","Dobson Ice Arena","321 E Lionshead Cir","81657",39.64384972020562,-106.38414191435456
"80498","Silverthorne","CO","Holiday Inn Fitness Center","not_available","81657",39.629838,-106.419371
"80498","Silverthorne","CO","Vail Vitality Center","352 E Meadow Dr Ste 3","81657",39.6415138244629,-106.371963500977
"80501","Longmont","CO","Longmont Recreation Center","11099 Quail Rd.","80501",40.14628212194687,-105.09723437297778
"80501","Longmont","CO","YMCA","950 Lashley St","80504",40.1749054831768,-105.08693061110453
"80501","Longmont","CO","The Gym at Prospect","1940 Ionosphere St","80504",40.13445445263924,-105.10328844357907
"80501","Longmont","CO","The Gym","not_available","80501",40.20239623225482,-105.12774284636892
"80501","Longmont","CO","Canyon Personal Training and Fitness","2415 Wedgewood Ave","80503",40.191026,-105.13283999999999
"80501","Longmont","CO","Tran's Martial Arts","117 S Sunset St","80501",40.156521999999995,-105.122184
"80501","Longmont","CO","F45 Training Longmont","900 S Hover St","80501",40.152041,-105.130197
"80501","Longmont","CO","Left Hand Yoga Studio","1811 Hover St","80501",40.190547,-105.131404
"80501","Longmont","CO","Curves","1106 Francis St","80501",40.178523,-105.11591100000001
"80501","Longmont","CO","Anytime Fitness","1111 Francis St","80501",40.17801,-105.11685
"80501","Longmont","CO","Courtyard By Marriott Gym","not_available","80503",40.140682,-105.133331
"80501","Longmont","CO","Fitness 19","1834 Main St","80501",40.19162778016014,-105.10120753388921
"80501","Longmont","CO","Longmont Fitness Center","14 Mountain View Ave","80501",40.181356,-105.088339
"80501","Longmont","CO","Zoom Room","2318 17th Ave","80501",40.18884626536822,-105.12991853814599
"80501","Longmont","CO","Warrior Playground","33 S Pratt Pkwy","80501",40.158863000000004,-105.107456
"80501","Longmont","CO","Stonebridge Gym","2424 9th Ave","80503",40.175302,-105.13451200000002
"80501","Longmont","CO","SOL 19 Yoga","1350 Ken Pratt Blvd","80501",40.1527,-105.11486
"80501","Longmont","CO","Longmont Athletic Club West","1375 ken pratt bvld","80501",40.152919,-105.11581699999999
"80503","Longmont","CO","CrossFit St. Vrain","103 Stone Canyon Drive","80540",40.218772888183594,-105.25930786132812
"80503","Longmont","CO","Anola Granola's Lawn","2900 Troxell Ave","80503",40.173770000000005,-105.14154199999999
"80503","Longmont","CO","Boulder Fitness Center (BFC) @ IBM","6300 Diagonal Hwy","80301",40.08663558959961,-105.20219421386719
"80503","Longmont","CO","amgym","4000 Nelson Rd","80503",40.156342,-105.158613
"80503","Longmont","CO","Boulder Lifting","7077 Winchester Cir","80301",40.079509,-105.188998
"80504","Longmont","CO","Snap Fitness","8206 Colorado Blvd","80504",40.121923171988975,-104.94094364634624
"80504","Longmont","CO","Longmont Sports Academy","not_available","80504",40.160047,-105.022599
"80504","Longmont","CO","Anytime Fitness","4445 City Centre Rd Ste 100","80504",40.16,-104.97186
"80504","Longmont","CO","Carbon Valley Gymnatics Center","not_available","80530",40.09755130026283,-104.92990498309679
"80504","Longmont","CO","5280 trainers","1725 Vista View Dr","80504",40.160047,-105.022599
"80504","Longmont","CO","Bodies by Summer","4651 York St","80514",40.0676664,-104.9659218
"80504","Longmont","CO","xtreme MMA","3770 Eureka Way","80516",40.08271,-104.987866
"80513","Berthoud","CO","Snap Fitness","939 Mountain Ave","80513",40.304596999999994,-105.08728300000001
"80513","Berthoud","CO","Beast Mode Gym","not_available","80513",40.30482902196173,-105.15010356903076
"80516","Erie","CO","Vista Ridge","1 Vista Parkway","not_available",40.012517805962396,-105.03715465111475
"80516","Erie","CO","Centripetal Crossfit","3000 Airport Drive, Hangar 301","80516",40.005693,-105.051516
"80516","Erie","CO","Conviction CrossFit","3000 Airport Dr","80516",40.005438,-105.052034
"80516","Erie","CO","Centripetal CrossFit","149 S Briggs St #101","80516",40.00506754401705,-105.052170753479
"80517","Estes Park","CO","Fitness Center at the Comfort Inn","not_available","80517",40.38192367553711,-105.49783325195312
"80517","Estes Park","CO","Rocky Mountain Health Club in Estes Park, CO","1230 Big Thompson Ave","80517",40.38320737819088,-105.50210021537463
"80517","Estes Park","CO","CrossFit Estes Park","1755 State Highway 66","80517",40.36116027832031,-105.55599975585938
"80521","Fort Collins","CO","Zone Health & Fitness","1739 S College Ave","80525",40.564796924236305,-105.07739020560894
"80521","Fort Collins","CO","Prodigy Gym and Fitness","Address: 1739 South College Avenue, Basement level","80525",40.564728,-105.077626
"80521","Fort Collins","CO","Become Fit","1611 S College Ave","80525",40.566149600742825,-105.07848056817744
"80521","Fort Collins","CO","Student Recreation Center","951 Meridian Avenue","80521",40.57524871826172,-105.09008026123047
"80521","Fort Collins","CO","Otter Gym","209 S Meldrum St","80521",40.58491,-105.083137
"80521","Fort Collins","CO","Snap Fitness","1031 S Taft Hill Rd","80521",40.573102842263246,-105.11582115003323
"80524","Fort Collins","CO","Fort Collins Club","1307 E Prospect Rd","80525",40.56703,-105.05357
"80524","Fort Collins","CO","Fort Collins Athlete Factory","301 East Lincoln Avenue","80524",40.58791091,-105.06543901
"80524","Fort Collins","CO","Koko Fitclub Harmony","3027 E Harmony Rd","80528",40.52268390256838,-105.02143299918541
"80524","Fort Collins","CO","foothills activity center","241 E Foothills Pkwy","80525",40.543191,-105.07200700000001
"80524","Fort Collins","CO","Orangetheory Fitness","250 E Harmony Rd","80525",40.524097,-105.07324
"80524","Fort Collins","CO","Zone Athletic Clubs - Fort Collins","2937 Council Tree Ave","80525",40.5255047,-105.021506
"80524","Fort Collins","CO","Anytime Fitness","814 W Drake Rd","80526",40.55405,-105.09192
"80524","Fort Collins","CO","Courtney Park Fitness Center","not_available","80525",40.524817610471096,-105.05676602922934
"80524","Fort Collins","CO","Miramont South","l","80525",40.5306760562812,-105.06225147423
"80524","Fort Collins","CO","CrossFit North Fort Collins","1831 E Mulberry St","80524",40.580051,-105.044576
"80524","Fort Collins","CO","The Other Club","1227 Riverside Ave","80524",40.575231,-105.055852
"80524","Fort Collins","CO","Team Fusion Fitness","412 Smith St","80524",40.58205,-105.06805
"80524","Fort Collins","CO","Anytime Fitness","302 S College Ave Ste 110","80524",40.5837516784668,-105.0765380859375
"80524","Fort Collins","CO","curves","not_available","80526",40.5348604626829,-105.09652683977255
"80524","Fort Collins","CO","Burn Boot Camp","353 W Drake Rd Ste 140","80526",40.552024841308594,-105.08224487304688
"80524","Fort Collins","CO","CrossFit Grenade","3501 S Mason St Ste 2","80525",40.53973388671875,-105.07960510253906
"80524","Fort Collins","CO","Orangetheory Fitness","2261 E Drake Rd","80525",40.55166767079117,-105.03576636314392
"80525","Fort Collins","CO","Miramont Lifestyle Fitness - South","901 Oakridge Dr","80525",40.51938531304034,-105.06160906083117
"80525","Fort Collins","CO","Harvest Gym","not_available","80521",40.51353145040085,-105.02341782452274
"80525","Fort Collins","CO","Gym @ The Argyle","2002 Battlecreek Dr","80528",40.515345,-105.04186599999998
"80525","Fort Collins","CO","Emergent Fitness","1833 E Harmony Rd #4","80528",40.521352,-105.04369799999999
"80525","Fort Collins","CO","RMMiller Gym","not_available","80528",40.46870040893555,-104.9828109741211
"80526","Fort Collins","CO","Red Square T, inc","4631 S Mason St","80525",40.521328999999994,-105.079518
"80526","Fort Collins","CO","Seasons Gym","1020 Wabash St","80526",40.534523010253906,-105.09571838378906
"80526","Fort Collins","CO","Cowboy Ryan's Gym","3307 S College Ave Unit 104","80525",40.54206310000001,-105.0789467
"80526","Fort Collins","CO","CrossFit Evolve","4211 S Mason St","80525",40.530534,-105.080249
"80526","Fort Collins","CO","Koko FitClub Raintree","2519 S Shields St","80526",40.55468200353649,-105.09734097023616
"80526","Fort Collins","CO","Action X Sports Fitness","6760 N Franklin Ave, Loveland, CO 80538","80538",40.461761474609375,-105.08489227294922
"80528","Fort Collins","CO","INSANITYYYY. ","6714 Ridgeline Dr","80547",40.53391,-104.953537
"80528","Fort Collins","CO","Studio 68 Fitness","4650 Signal Tree Dr Bldg B","80547",40.5221288,-104.9763727
"80528","Fort Collins","CO","Pure Barre","2948 Council Tree Ave Ste 119","80525",40.5275454,-105.0217282
"80528","Fort Collins","CO","Horsetooth Cheer","1833 E Harmony Rd","80528",40.52286911010742,-105.04317474365234
"80528","Fort Collins","CO","Eco-Gym","Rock Creek Dr","80528",40.51573239119487,-105.01311168973842
"80530","Frederick","CO","Gymtastic!","525.5 Aspen Cir","80530",40.108517000000006,-104.93400455
"80534","Johnstown","CO","Fitness Avenue","21 S Parish Ave","80534",40.33380599225213,-104.90640842447267
"80534","Johnstown","CO","Anytime Fitness","4872 Thompson Pkwy","80534",40.40538,-104.97928
"80534","Johnstown","CO","Lehnert Fitness& Performance Center","not_available","80543",40.36097,-104.876364
"80534","Johnstown","CO","The Basement","not_available","80537",40.33657445400045,-104.96855536283465
"80537","Loveland","CO","Chilson Rec Center","700 E 4th St","80537",40.39477613694904,-105.06708646313443
"80537","Loveland","CO","Miramont Lifestyle Fitness","3755 Precision Dr","80538",40.430015161704056,-104.9996203221095
"80537","Loveland","CO","Anytime Fitness","324 W 37th St Units 320,324,328","80538",40.42971,-105.07867
"80537","Loveland","CO","Fit Body Boot Camp","5636 McWhinney Blvd","80538",40.409258,-104.996478
"80537","Loveland","CO","Cowboy Ryan's Gym","281 A-2 East 29th street","80538",40.42122327327833,-105.07474422454834
"80537","Loveland","CO","North Elite Athletics","254 Barberry Pl","80537",40.37793731689453,-105.08190155029297
"80537","Loveland","CO","Physical High Intense Training","431 Denver Ave","80537",40.39595413208008,-105.04915618896484
"80537","Loveland","CO","Fitness 19","3121 Garfield Avenue","80538",40.42429354,-105.07928204
"80537","Loveland","CO","FIT Loveland CrossFit 970","1905 West 8th Street","80537",40.40169,-105.10459
"80537","Loveland","CO","Loveland Athletics Club","1000 S Lincoln Ave","80537",40.380836176070446,-105.07289576197863
"80537","Loveland","CO","Cowboy's Gym","220 12th St SW Ste 101","80537",40.37994384765625,-105.07986450195312
"80537","Loveland","CO","Next Level Fitness","2230 W 1st St","80537",40.391877,-105.108333
"80537","Loveland","CO","P90 Gym","550 N Lincoln Ave","80537",40.397008,-105.072529
"80537","Loveland","CO","Anytime Fitness","1107 Eagle Dr","80537",40.381127,-105.098626
"80537","Loveland","CO","MÜV Fitness","910 E Eisenhower Blvd","80537",40.40637298488032,-105.06441090860707
"80537","Loveland","CO","Peak to Peak Martial Arts","1325 Eagle Dr","80537",40.379249,-105.09971499999999
"80537","Loveland","CO","Loveland High School Gym","not_available","80538",40.42004888101503,-105.09137708375523
"80537","Loveland","CO","Northside Barbell","418 8th St SE","80537",40.38447,-105.071611
"80543","Milliken","CO","Anytime Fitness","1750 Broad St","80543",40.328316,-104.84713
"80549","Wellington","CO","Anytime Fitness","6556 Buttercup Dr Unit 7","80549",40.68078,-105.00166
"80550","Windsor","CO","Gym Bar","not_available","80550",40.47915725664617,-104.90077411333718
"80550","Windsor","CO","Official Fitness","1297 Main St #1","80550",40.4785896,-104.9214598
"80550","Windsor","CO","Anytime Fitness","1159 W Main St","80550",40.47857,-104.9173
"80550","Windsor","CO","Brickhouse Functional Fitness","1111 Diamond Valley Dr","80550",40.467778,-104.879998
"80550","Windsor","CO","Poudre Valley Health Club","204 Whitney Bay","80550",40.461463,-104.892094
"80550","Windsor","CO","FusionFIT Windsor","655B Academy Ct","80550",40.471001,-104.8833173
"80550","Windsor","CO","Windsor High School Weight Room","1100 Main St","80550",40.48137283325195,-104.91451263427734
"80601","Brighton","CO","Brighton Recreation Center","555 N 11th Ave","80601",39.997497209866964,-104.8095903712737
"80601","Brighton","CO","Workout Room","414 Stetson Ct","80601",39.99482345581055,-104.76785278320312
"80601","Brighton","CO","Swiss Gear","Dayton Way","80640",39.890781,-104.876899
"80601","Brighton","CO","Total Body Solutions","not_available","80601",39.9709358215332,-104.83448028564453
"80601","Brighton","CO","Anytime Fitness","225 Pavilions Pl","80601",39.982872009277344,-104.82410430908203
"80601","Brighton","CO","Dietrich Getto Gym","1569 Walnut Dr, Brighton, CO 80601","80601",39.98889923095703,-104.8021011352539
"80601","Brighton","CO","Snap Fitness","42nd St","80601",39.98756434042247,-104.76887570424623
"80602","Brighton","CO","The B Gym","not_available","80602",39.949946,-104.941732
"80603","Brighton","CO","Fort Lupton Recreation Department","203 S Harrison Ave","80621",40.07783889770508,-104.80694580078125
"80610","Ault","CO","Strong Fitness Training","319 Carr St, Pierce, CO 80650","80650",40.637351989746094,-104.74885559082031
"80611","Briggsdale","CO","Briggsdale Weight Room","not_available","80611",40.63342977908845,-104.32553989112841
"80615","Eaton","CO","CrossFit Eaton","206 Oak Ave #A","80615",40.52776336669922,-104.7117691040039
"80615","Eaton","CO","Snap Fitness","201 S Elm Ave","80615",40.52243087321812,-104.71173295000048
"80615","Eaton","CO","Reach Fitness Center","33153 Weld County Road 51","80631",40.48156325,-104.58433493333334
"80620","Evans","CO","The Grove","3340 11th Ave","80620",40.38199149573571,-104.69537087869072
"80620","Evans","CO","CrossFit Helix","2986 W 29th St Unit 9","80631",40.39030094704044,-104.72587805379996
"80620","Evans","CO","Legend Flats Gym","not_available","80620",40.383782,-104.737643
"80620","Evans","CO","Airborne Flying Tigers Gymnasium","not_available","80634",40.38944581284343,-104.72825088681486
"80620","Evans","CO","One Stop Fitness & Training","Greeley Mall Location","80631",40.38738505211183,-104.70588854066604
"80620","Evans","CO","Team Tom Fitness","2000 Greeley Mall, Unit D04","80631",40.390215999999995,-104.711662
"80620","Evans","CO","Battle Ready Crossfit","not_available","80631",40.385868,-104.70333
"80620","Evans","CO","Crossfit Battle Ready","3257 35th Ave","80634",40.38422393798828,-104.7354507446289
"80621","Fort Lupton","CO","Mine Gym","11610 County Road 14 1/2","80621",40.09103012084961,-104.83650207519531
"80621","Fort Lupton","CO","Colorado Used Gym Equipment","6670 County Road 21","80621",40.09739303588867,-104.8670654296875
"80631","Greeley","CO","Work Out West","5701 W 20th St","80634",40.408833770313954,-104.77263311693311
"80631","Greeley","CO","Inspire Fitness","2400 W 16th St","80634",40.41311456215403,-104.71782209393693
"80631","Greeley","CO","Keirnes Fitness Duplex","3246 Grand View Dr","80631",40.47348403930664,-104.7371826171875
"80631","Greeley","CO","Anytime Fitness","4855 W 10th St","80634",40.42188,-104.75975
"80631","Greeley","CO","Conditioning Spa Health And Fitness Center","2640 11th Ave","80631",40.394142702042274,-104.69484091891547
"80631","Greeley","CO","UNC: Athletic Weight Room","Univ Of Northern Colorado","80639",40.40220584667686,-104.70277547836304
"80631","Greeley","CO","Gateway Fitness Center","3750 W 24th St","80634",40.3983039855957,-104.73851776123047
"80634","Greeley","CO","Greeley Family Funplex","1501 65th Ave","80634",40.41729033130289,-104.78802917079017
"80634","Greeley","CO","Bombshell Bodyworks","2601-2699 W 10th St","80634",40.423319935798645,-104.72343921661377
"80634","Greeley","CO","iLoveKickboxing - Greeley, CO","3532 West 10th Street","80634",40.4213609,-104.7371717
"80701","Fort Morgan","CO","The Body Firm","721 E Platte Ave","80701",40.25396042992912,-103.79113737026316
"80720","Akron","CO","Quintech","not_available","80759",40.14749516276897,-102.80803299601499
"80734","Holyoke","CO","Simply Fit","not_available","80734",40.58393818745321,-102.29961036335251
"80751","Sterling","CO","Anytime Fitness","1115 W Main St","80751",40.62387,-103.22978
"80751","Sterling","CO","Sterling Rec Center","808 Elm Street","80751",40.63433837890625,-103.21376037597656
"80759","Yuma","CO","Quin","Albany","not_available",40.1302222657483,-102.72182479257508
"80809","Cascade","CO","Gymsies","8 Park Ave","80829",38.859657287597656,-104.91838836669922
"80817","Fountain","CO","Anytime Fitness","6436 S Hwy 85/87 Ste F","80817",38.73838,-104.73404
"80817","Fountain","CO","Fountain Valley YMCA","301 E Iowa Ave","80817",38.684468,-104.697637
"80817","Fountain","CO","PitBull-Fitness.com","not_available","80911",38.72406339136128,-104.68631522520417
"80817","Fountain","CO","Fountain Valley Senior Citizens","5745 Southmoor Dr","80817",38.748629,-104.74277
"80817","Fountain","CO","New You In 52 Workout","9355 Peaceful Valley Rd","80925",38.72217559814453,-104.65288543701172
"80817","Fountain","CO","Curves","141 Fontaine Blvd, Fountain, CO 80911","80911",38.73628104247594,-104.72690353188602
"80817","Fountain","CO","Fort Carson's Gym","not_available","80817",38.697735975014595,-104.69517122406361
"80821","Hugo","CO","24hr Fitness","not_available","80821",39.131221771240234,-103.4604263305664
"80840","Usaf Academy","CO","Orange Theory Fitness - Northgate","13492 Bass Pro Dr","80921",39.02760314941406,-104.82534790039062
"80840","Usaf Academy","CO","CYCLEBAR","13375 Voyager Pkwy Ste 120","80921",39.02605459999999,-104.8145697
"80840","Usaf Academy","CO","John Michael Lynch Field House","not_available","80840",38.96805933589741,-104.84463251369922
"80840","Usaf Academy","CO","US Air Force Academy Sports & Fitness Center","5234 Aspen Dr","80840",38.97894844658683,-104.85981910884391
"80840","Usaf Academy","CO","Grand River Canyon - Workout Room","7755 Burns Point","80920",38.94288562981243,-104.80810439303426
"80840","Usaf Academy","CO","Residence Inn Fitness Center","9805 Federal Dr","80921",38.987076,-104.803337
"80840","Usaf Academy","CO","Ridgepoint Gym","13631 Shepard Hts","80921",39.03031921386719,-104.82825469970703
"80840","Usaf Academy","CO","Gym at Progressive","12710","80921",39.02131749843469,-104.82702496769943
"80840","Usaf Academy","CO","Orangetheory Fitness","13492 Bass Pro Dr.","80921",39.02682,-104.82523
"80840","Usaf Academy","CO","Pure Barre","13395 Voyager Pkwy Ste 150","80921",39.0262469,-104.8146201
"80863","Woodland Park","CO","Snap Fitness","E Us Highway 24, Woodland Park, CO 80863","80863",38.987929898291064,-105.0438494217408
"80902","Colorado Springs","CO","Waller Gym","6946 Magrath Ave Bldg 2357","80913",38.73205,-104.767613
"80902","Colorado Springs","CO","Waller Physical Fitness Center","Titus","not_available",38.732365973326814,-104.76725160786633
"80902","Colorado Springs","CO","McKibben Physical Fitness Center","1160 Barkley Ave","not_available",38.751002489253146,-104.78889251677403
"80902","Colorado Springs","CO","Iron Horse Sports & Fitness Center","1930 Specker Avenue","80913",38.73732430870264,-104.7837947101372
"80902","Colorado Springs","CO","Division Gym","not_available","80913",38.738938,-104.790344
"80902","Colorado Springs","CO","Garcia Gym","Magrath Ave","80913",38.73668300572225,-104.77527970357906
"80902","Colorado Springs","CO","McKibben Gym","Barkeley Ave","80913",38.74255177448162,-104.78547353180507
"80903","Colorado Springs","CO","CrossFit SoCo","2310 W Colorado Ave","80904",38.818859279751855,-104.82838831404655
"80903","Colorado Springs","CO","YMCA","207 N Nevada Ave","80903",38.837225918514164,-104.82084692589011
"80903","Colorado Springs","CO","CorePower Yoga","623 N Nevada Ave","80903",38.84323511000469,-104.8208436369896
"80903","Colorado Springs","CO","The Gym","1917 E Cache La Poudre St","80909",38.844682426277735,-104.79192977795617
"80903","Colorado Springs","CO","County Building","115 E Vermijo Ave","80903",38.829172,-104.823258
"80903","Colorado Springs","CO","Wrestling Room","1 Olympic Plz","80909",38.841651698570374,-104.7955527418127
"80903","Colorado Springs","CO","Physique Etc.","29 W Cimarron St","80903",38.826469324945144,-104.82703685760498
"80903","Colorado Springs","CO","CityRock","21 N Nevada Ave","80903",38.83518074695567,-104.8216094001938
"80903","Colorado Springs","CO","Crossfit SoCo","522 1/2 S Tejon Street","80903",38.82605376298406,-104.82476217926812
"80903","Colorado Springs","CO","Johns","301 E Arvada St","80905",38.813746,-104.820629
"80903","Colorado Springs","CO","Red Rock Crossfit","522 Tejon St","80903",38.82603603194707,-104.82460258836932
"80903","Colorado Springs","CO","Pikes Peak Crossfit","210 W Colorado Ave","80903",38.834236106784246,-104.82971974501142
"80903","Colorado Springs","CO","Underground Gym","not_available","80903",38.83171154936059,-104.82374763989122
"80904","Colorado Springs","CO","Farrell's eXtreme Bodyshaping West (GOG)","4427 Centennial Blvd","80907",38.8955433,-104.8498085
"80904","Colorado Springs","CO","ArtSports","780 Vondelpark Dr","80907",38.884409204963305,-104.8382816667389
"80904","Colorado Springs","CO","Ski Maxx","1045 Garden of the Gods Rd","80907",38.8960625,-104.8418658
"80904","Colorado Springs","CO","CorePower Yoga","1025 Garden of the Gods Rd W, Ste C","80907",38.89612485342006,-104.84085769336798
"80904","Colorado Springs","CO","Driven Strong","not_available","80907",38.89595031738281,-104.84754180908203
"80904","Colorado Springs","CO","Trainers Inc","2410 W Vermijo Ave","80904",38.845273,-104.86283200000001
"80904","Colorado Springs","CO","Infinity Personal Training & Fitness","3270 Centennial Blvd","80907",38.8779411315918,-104.8479995727539
"80905","Colorado Springs","CO","Accolade Fitness South","1785 S 8th St","80905",38.805273610761304,-104.839941411298
"80905","Colorado Springs","CO","Meadows Park Community Center","1939 S El Paso Ave","80905",38.803004,-104.81071
"80905","Colorado Springs","CO","Spectrum Rehabilitation","810 Arcturus Dr","80905",38.80974752754732,-104.8418800959581
"80906","Colorado Springs","CO","Crowne Plaza Fitness Center","not_available","80906",38.79830551147461,-104.79618835449219
"80906","Colorado Springs","CO","Complete Nutrition","1083 E Cheyenne Mountain Road","80906",38.79543227318576,-104.80113879601473
"80906","Colorado Springs","CO","Quail Cove apt gym","Qail Rd","80906",38.78324836666667,-104.8078994
"80906","Colorado Springs","CO","Anytime Fitness","1785 E Cheyenne Mountain Blvd","80906",38.79490981673499,-104.80103552341461
"80906","Colorado Springs","CO","National Strength and Conditioning Association","1885 Bob Johnson Dr","80906",38.785656,-104.791304
"80906","Colorado Springs","CO","Skill Development Center","2844 Janitell Rd","80906",38.7923583984375,-104.79058074951172
"80907","Colorado Springs","CO","Ed's Gym","3121 N El Paso St Ste A","80907",38.87791442871094,-104.81246185302734
"80907","Colorado Springs","CO","Ed's Gym","2833 N El Paso St #120","80907",38.871589490887565,-104.81290764840139
"80907","Colorado Springs","CO","Sport Climbing Center","4650 Northpark Dr","80918",38.8992005700404,-104.82732382903241
"80907","Colorado Springs","CO","FitBody Studio | Fitness + Spa","2402 N Nevada","80907",38.867018,-104.820442
"80907","Colorado Springs","CO","Commit 2 Be Fit 4 CO","4239 N Nevada Ave Ste 110","80907",38.89332580566406,-104.81826782226562
"80907","Colorado Springs","CO","Mobile Fitness Systems","2402 N Nevada Ave","80907",38.86700439453125,-104.82044219970703
"80907","Colorado Springs","CO","titrate health llc","504 E La Salle St","80907",38.869384000000004,-104.814286
"80907","Colorado Springs","CO","The Resort Gym","not_available","80918",38.899600607456144,-104.79444282862259
"80907","Colorado Springs","CO","Kineo Fit Group Training Studio","4663 Centennial Blvd","80919",38.8994164,-104.8500288
"80907","Colorado Springs","CO","iLoveKickboxing - Colorado Springs","750 Garden of the Gods Rd","80907",38.8970719,-104.8401362
"80907","Colorado Springs","CO","Colorado Springs Movement Chiropractic and Rehab","4224 N Nevada Ave","80907",38.893564000000005,-104.82112
"80907","Colorado Springs","CO","Pandora's Box Crossfit","4839 Northpark Dr","80918",38.90156922793251,-104.82592923221053
"80908","Colorado Springs","CO","Briargate YMCA","4025 Family Pl","80920",38.96298408242594,-104.7530458808155
"80908","Colorado Springs","CO","Gold's Gym","7655 N Union Blvd","80920",38.9427029,-104.7732868
"80908","Colorado Springs","CO","Tremble Gym","not_available","80920",38.941933,-104.754864
"80908","Colorado Springs","CO","The Little Gym of Colorado Springs","9625 Prominent Pt","80924",38.971733,-104.74454200000001
"80908","Colorado Springs","CO","Strength for Humans","4666 Amarosa Hts","80920",38.96600639009849,-104.74248499729003
"80908","Colorado Springs","CO","The Exercise Coach® of North Colorado Springs CO","9475 Briar Village Pt Ste 110","80920",38.968129166512114,-104.7831464190491
"80908","Colorado Springs","CO","Amergint","1040 Elkton Dr","80907",38.965492,-104.783138
"80908","Colorado Springs","CO","SFMC Zumba Class CR 5","6001 E Woodmen Rd","80923",38.93828582763672,-104.71678161621094
"80908","Colorado Springs","CO","Life Time Fitness","4410 Royal Pine Dr","80920",38.96940368,-104.74667874
"80908","Colorado Springs","CO","d&g mind & body center","not_available","80908",38.98619403505286,-104.76875577593769
"80909","Colorado Springs","CO","Canyon Ranch Fitness Center","not_available","80917",38.87739181518555,-104.75982666015625
"80909","Colorado Springs","CO","Pine Crest Gym","not_available","80909",38.85774612426758,-104.75932312011719
"80909","Colorado Springs","CO","The Dungeon","680 Citadel Dr E","80909",38.843459,-104.76235799999999
"80909","Colorado Springs","CO","Rapid Fitness Development","3938 Maizeland Rd","80909",38.868553161621094,-104.75411224365234
"80909","Colorado Springs","CO","Gold's Gym","1409 N Academy Blvd","80909",38.853032561624566,-104.75554212926454
"80909","Colorado Springs","CO","Curves","E Pikes Peak Ave, Colorado Springs, CO","80909",38.83305626909959,-104.78853351982973
"80910","Colorado Springs","CO","South East YMCA","2190 Jet Wing Dr","80916",38.80257472837185,-104.7494631938979
"80910","Colorado Springs","CO","Crunch Fitness - Colorado Springs","1801 South Academy Boulevard","80916",38.80717,-104.7552893
"80910","Colorado Springs","CO","Bally Total Fitness","1801 S Academy Blvd","80916",38.807295185309194,-104.75636184472943
"80910","Colorado Springs","CO","Riot House","1779 S Academy Blvd","80916",38.80710891081874,-104.75528240203857
"80910","Colorado Springs","CO","Victory MMA and Hustle Hard Boxing","254 S Academy Blvd","80910",38.8285949,-104.7581877
"80910","Colorado Springs","CO","Fitness Quest","2864 S Circle Dr","80906",38.79730224609375,-104.79368591308594
"80911","Colorado Springs","CO","Gold's Gym Express","302 Main Street","80911",38.7542324,-104.7422925
"80914","Colorado Springs","CO","Peterson AFB Gym","Ent Ave","80914",38.824427540864235,-104.70650037134571
"80915","Colorado Springs","CO","CrossFit Decimate","4715 Town Center Dr Ste F","80916",38.8366584777832,-104.74078369140625
"80915","Colorado Springs","CO","Colorado Springs Sports Center","2450 Canada Dr","80915",38.86693918020428,-104.69969875408412
"80915","Colorado Springs","CO","Altitude and Performance","not_available","80915",38.843148,-104.713444
"80915","Colorado Springs","CO","Results Fitness Rx","6015 Galley Rd","80915",38.84547767333014,-104.71523004834577
"80915","Colorado Springs","CO","Max Fitness","5869 Palmer Park Blvd, Colorado Springs, CO 80915","80915",38.85510256118174,-104.7184508989333
"80915","Colorado Springs","CO","C.S. Premier All-Star Cheer Gym","977 Ford St","80915",38.84577178955078,-104.70999145507812
"80915","Colorado Springs","CO","Curves","5719 Constitution Ave","80915",38.871621660117185,-104.7217802016128
"80916","Colorado Springs","CO","PAFB Gym","not_available","80910",38.82081843096924,-104.7273964674237
"80916","Colorado Springs","CO","Pete Afb Gym","not_available","80916",38.81933898316083,-104.72831
"80917","Colorado Springs","CO","CrossFit 719","2430 D Montebello Square","80918",38.909191879047434,-104.78338228962654
"80917","Colorado Springs","CO","The Springs Health and Fitness","5620 N Academy Blvd","80918",38.912735999999995,-104.789673
"80917","Colorado Springs","CO","Rock Solid Lifestyle","5740 N Carefree Cir","80917",38.8860302,-104.7213145
"80917","Colorado Springs","CO","Jazzercise","5688 N Union Blvd","80918",38.91450500488281,-104.77628326416016
"80917","Colorado Springs","CO","Elite Fitness","5350 N Academy Blvd #201G","80918",38.90617752075195,-104.78129577636719
"80917","Colorado Springs","CO","Planet Fitness","4316 Austin Bluffs Pkwy","80918",38.896001877048846,-104.7513593702211
"80917","Colorado Springs","CO","Trendz Fitness","2360 Montebello Square Dr Ste D","80918",38.90922164916992,-104.78331756591797
"80917","Colorado Springs","CO","Cies Mma","4715 N Carefree Cir","80917",38.88503,-104.739563
"80917","Colorado Springs","CO","Taboo Dance & Fitness Studio","3817 N Academy Blvd","80917",38.88743209838867,-104.75638580322266
"80917","Colorado Springs","CO","Kraken Brazilian Jiu-Jitsu & Fitness","3920 N Academy Blvd","80917",38.88811,-104.7574988
"80917","Colorado Springs","CO","Big House Sports","2660 Vickers Dr","80918",38.915595249064886,-104.77880367094872
"80917","Colorado Springs","CO","My Gym","5773 N Academy Blvd","80918",38.91469686814263,-104.78375457047434
"80917","Colorado Springs","CO","Burn Boot Camp","2456 Montebello Square Dr","80918",38.90877,-104.78227
"80917","Colorado Springs","CO","Crunch - North Colorado Springs","5620 North Academy Boulevard","80918",38.91220273994437,-104.7896967055226
"80917","Colorado Springs","CO","BFS boxing","4335 N Academy Blvd","80918",38.895596999999995,-104.758614
"80918","Colorado Springs","CO","Colorado Barbell Club","6056 Hollow Tree Ct","80918",38.920127868652344,-104.78734588623047
"80918","Colorado Springs","CO","Peaks at Woodmen Apartments","6750 Alpine Currant View","80918",38.93194027064918,-104.77593496033793
"80918","Colorado Springs","CO","Curves","2805 Dublin Blvd","80918",38.9251708984375,-104.77326965332031
"80918","Colorado Springs","CO","Gym @ Lamplight","Twin Oaks Dr","80918",38.922607,-104.79542368333334
"80918","Colorado Springs","CO","Anytime Fitness","6945 Austin Bluffs Pkwy","80923",38.93289,-104.74059
"80918","Colorado Springs","CO","Pure Barre","5262 N Nevada Ave Ste 120","80918",38.90602340744895,-104.81736532147846
"80918","Colorado Springs","CO","Cottonwood Creek Recreation Center","3920 Dublin Blvd","80918",38.92705186702709,-104.75454082971305
"80918","Colorado Springs","CO","F45 Training Colorado Springs Central","5182 N Nevada Ave","80918",38.9038541,-104.819394
"80918","Colorado Springs","CO","Blitz45","6940 N Academy Blvd","80918",38.9316158,-104.7975544
"80919","Colorado Springs","CO","Whispering Hills Apartment Gym","not_available","80919",38.916544,-104.833818
"80919","Colorado Springs","CO","Anytime Fitness","820 Village Center Dr","80919",38.92284,-104.84447
"80919","Colorado Springs","CO","HP fitness center","305 S Rockrimmon Blvd #CX03","80919",38.9166145324707,-104.83391571044922
"80920","Colorado Springs","CO","Orange Theory Fitness- Academy","7469 N Academy Blvd","80920",38.939026050909625,-104.79763924033045
"80920","Colorado Springs","CO","joesboxing","5831 Pioneer Mesa Dr","80923",38.934509999999996,-104.724326
"80922","Colorado Springs","CO","Farrell's eXtreme Bodyshaping","5850 Championship Vw #140","80922",38.8928945,-104.7158173
"80922","Colorado Springs","CO","F45 Training Stetson Hills","5860 Barnes Rd","80922",38.895422,-104.719206
"80922","Colorado Springs","CO","Fitness 19","5980 Stetson Hills Blvd","80923",38.913852085773726,-104.71691155479428
"80922","Colorado Springs","CO","Orangetheory Fitness","5990 Stetson Hills Blvd","80923",38.91177379,-104.71565155
"80922","Colorado Springs","CO","The Little Gym","4005 Tutt Blvd","80922",38.88987350463867,-104.7138900756836
"80922","Colorado Springs","CO","Hubzgym","not_available","80922",38.910006,-104.706152
"80928","Colorado Springs","CO","Schriever AFB Fitness Center","210 Falcon Pkwy","80912",38.810333961294816,-104.52588520392179
"80928","Colorado Springs","CO","schriever batting cages","not_available","80930",38.8144734171798,-104.51498229996972
"81003","Pueblo","CO","Parkview Fitness Center","not_available","81003",38.28132927417755,-104.61430549621582
"81003","Pueblo","CO","Downtown Zumba","311 S Union Ave","81003",38.26328267928005,-104.61529528138992
"81003","Pueblo","CO","quality inn & suites workout room","not_available","81008",38.307090759277344,-104.62580108642578
"81004","Pueblo","CO","Nogare's/Cheer <3","1106 Acero Ave","81004",38.247378999999995,-104.63883
"81004","Pueblo","CO","Muscle Monkey Functional Fitness","3201 S Prairie Ave","81005",38.214792,-104.644181
"81004","Pueblo","CO","Fitness Freaks","not_available","81005",38.224145992152636,-104.64763737938466
"81004","Pueblo","CO","Pueblo athletic club","58 Glen Royal Dr","81005",38.23868369306519,-104.66453044112511
"81004","Pueblo","CO","DeWittys Hamster Wheel","not_available","81004",38.24065017700195,-104.62616729736328
"81005","Pueblo","CO","Snap Fitness","130-196 S Purcell Blvd","81007",38.320616317944705,-104.7035002737423
"81005","Pueblo","CO","Fit Fast Strong Crossfit","91 N Silicon Dr","81007",38.33306121826172,-104.71569061279297
"81005","Pueblo","CO","Pueblo West Total Fitness","347 S Del Norte Ave","81007",38.31972845935947,-104.7416658903302
"81006","Pueblo","CO","Rocky Mountain 24 Hr Gym","1813 Santa Fe Dr","81006",38.246068,-104.576365
"81007","Pueblo","CO","devil dogg crossfit","not_available","81007",38.33798599243164,-104.73165893554688
"81007","Pueblo","CO","Curves","4041 Club Manor Dr","81008",38.309994,-104.62136
"81025","Boone","CO","PCD Gym","not_available","81006",38.27563807730424,-104.34374817426433
"81050","La Junta","CO","Hobbs Memorial Gym","1001 Main St","81063",38.226810455322266,-103.75657653808594
"81050","La Junta","CO","Tysons Den","not_available","81067",38.0501664,-103.7189216
"81082","Trinidad","CO","Fitness Center","Main St","not_available",37.176057683647755,-104.50899847704771
"81082","Trinidad","CO","stayfit","not_available","81082",37.16656716862028,-104.51054560222185
"81082","Trinidad","CO","Snap Fitness","2202 Freedom Rd","81082",37.18817138671875,-104.49752807617188
"81101","Alamosa","CO","Rex Gym","1500 1st Street","81101",37.47322399630438,-105.880821512681
"81101","Alamosa","CO","Alamosa Family Recreation Center","2222 Old Sanford Rd","81101",37.44895569885389,-105.87385912051627
"81101","Alamosa","CO","SLV Sports & Wellness","1561 12th St","81101",37.4610275,-105.8777319
"81101","Alamosa","CO","Anytime Fitness","177 Craft Dr Ste 102","81101",37.47766,-105.89473
"81122","Bayfield","CO","Momentum Fitness","not_available","81122",37.234941,-107.59715
"81147","Pagosa Springs","CO","Pagosa Gym","not_available","81147",37.265987,-107.012971
"81152","San Luis","CO","The MAX Challenge of Berkeley","86 Atlantic City Blvd","08721",37.06012247632316,-105.33249378204346
"81201","Salida","CO","Anytime Fitness","9985 D Hwy 50","81242",38.516205940640525,-106.06311678886414
"81212","Canon City","CO","Elite Family Fitness","not_available","81212",38.441464,-105.233099
"81212","Canon City","CO","Anytime Fitness","304 N 16th St","81212",38.44831,-105.22506
"81224","Crested Butte","CO","Mt. Crested Butte Fitness Center","not_available","81225",38.89983267078482,-106.96698115823186
"81224","Crested Butte","CO","Fitness Center At The Club","not_available","81224",38.856016950232764,-106.94732881838209
"81230","Gunnison","CO","Hooks On fitness","not_available","81230",38.543869432502746,-106.93150554172101
"81230","Gunnison","CO","Main Street Gym","Main Street","81230",38.55265888092381,-106.92696915887053
"81253","Wetmore","CO","Holiday Inn Gym","Silom Rd","81253",38.24096,-105.0811
"81301","Durango","CO","Anytime Fitness","125 Mercado St. Ste. 115","81301",37.23792,-107.82282
"81301","Durango","CO","The Hub Training Center","489 Florida Rd","81301",37.28311538696289,-107.87030792236328
"81301","Durango","CO","Crossfit Durango","846 Main Ave, Durango, CO 81301","81301",37.27281188964844,-107.8804931640625
"81301","Durango","CO","Fitness Solutions 24/7","381 S Camino del Rio","81303",37.250641,-107.876568
"81301","Durango","CO","changing lives wellness center","1145 S Camino del Rio","81303",37.2310791015625,-107.8666000366211
"81321","Cortez","CO","Mesa Verde Fitness","not_available","81321",37.348752,-108.557957
"81401","Montrose","CO","Anytime Fitness","1544 Oxbow Dr Ste 270","81401",38.44655,-107.86456
"81401","Montrose","CO","Crossfit Agoge","475 Water Ave","81401",38.472557067871094,-107.87740325927734
"81401","Montrose","CO","Gold's Gym","1840 E Main St","81401",38.486931,-107.85773600000002
"81416","Delta","CO","Anytime Fitness","300 Stafford Ln","81416",38.75106356,-108.0491947
"81425","Olathe","CO","Jungle Gym","404 N 4th St","81425",38.61181640625,-107.98167419433594
"81432","Ridgway","CO","8750ALT","317 E Colorado Ave","81435",37.93671,-107.80835
"81433","Silverton","CO","Anvilhome","1228 Snowden","81433",37.812962,-107.665775
"81501","Grand Junction","CO","Hampton Inn Fitness Center","205 Main St","81501",39.066837310791016,-108.56925964355469
"81501","Grand Junction","CO","Gold's Gym","700 Maldonado St","81501",39.074383313982004,-108.5763184508238
"81501","Grand Junction","CO","GJPD Gym","627 Ute Ave","81501",39.067213525013564,-108.56256420890921
"81501","Grand Junction","CO","CrossFit Flipside","431 Colorado Ave","81501",39.066061,-108.565155
"81501","Grand Junction","CO","Crossroads Fitness Downtown","225 N. 5th Street, Downstairs","81501",39.068791,-108.56486799999999
"81501","Grand Junction","CO","Planet Fitness","2401 North Ave","81501",39.07621,-108.535398
"81501","Grand Junction","CO","Fairfield Fitness Gym","not_available","81501",39.06705215520251,-108.56894175278755
"81501","Grand Junction","CO","Praxis East","2493 Highway 6 and 50","81505",39.083248138427734,-108.5910415649414
"81501","Grand Junction","CO","Crossfit Junction","2487 Industrial Blvd","81505",39.088644,-108.59215
"81501","Grand Junction","CO","Martial Arts Research Systems of Colorado","560 South Westgate Drive","81505",39.086028999999996,-108.586224
"81503","Grand Junction","CO","Anytime Fitness","2740 Hwy. 50","81503",39.040782,-108.541924
"81504","Grand Junction","CO","Jess Outdoor Zumba Studio","not_available","81504",39.09947009468386,-108.50324692408056
"81505","Grand Junction","CO","Crossroads Fitness","2768 Compass Dr","81506",39.1164792,-108.5388129
"81505","Grand Junction","CO","970Muscle","2490 Patterson Rd","81505",39.0924922,-108.591122
"81505","Grand Junction","CO","Powerhouse","not_available","81505",39.09298324584961,-108.59718322753906
"81505","Grand Junction","CO","Courtyard Fitness","not_available","81506",39.115625,-108.53481
"81505","Grand Junction","CO","Crossfit Red (gym)","832 N Crest Dr","81506",39.124542,-108.536105
"81505","Grand Junction","CO","Pura Vida Crossfit","2472 F Rd #14, Grand Junction, CO 81505","81505",39.09339141845703,-108.59489440917969
"81505","Grand Junction","CO","Doubletree Fitness Center Powered By Precor","743 Horizon Dr","81506",39.11289978027344,-108.54206085205078
"81520","Clifton","CO","Gold's Gym","3229 I-70 Business Loop","81520",39.08979542560438,-108.4536574311927
"81521","Fruita","CO","Fruita Weight Room","not_available","81521",39.1483957833492,-108.71541243327643
"81601","Glenwood Springs","CO","Crossfit Bonedale","826 CO-133","81623",39.40415,-107.219936
"81601","Glenwood Springs","CO","Glenwood Springs Crossfit","3421 Grand Ave","81601",39.515925918748344,-107.31989222539802
"81601","Glenwood Springs","CO","Anytime Fitness","7025 Colorado 82 Building 1 - Unit 3A","81601",39.463908,-107.264633
"81601","Glenwood Springs","CO","High Performance Physiques","0326 Hwy 133","81623",39.4037125,-107.2206609
"81601","Glenwood Springs","CO","Midland Fitness","100 Midland Ave Unit 250","81601",39.55833580473889,-107.3580281376077
"81601","Glenwood Springs","CO","Fotion's Clubhouse Gym","not_available","81623",39.40323,-107.218976
"81601","Glenwood Springs","CO","Glenwood Springs Community Center","100 Wulfson Rd","81601",39.55145307723686,-107.33947006602433
"81601","Glenwood Springs","CO","New Castle Family Fitness","not_available","81647",39.568661099836085,-107.51510945106715
"81611","Aspen","CO","Snowmass Club","0239 Snowmass Club Circle","81615",39.21997348870597,-106.92455562787002
"81611","Aspen","CO","Hotel Jerome Gym","not_available","81611",39.191416,-106.819818
"81611","Aspen","CO","Jean-Robert's/JR's Gym","720 E Hyman Ave","81611",39.18836112103896,-106.81520027900147
"81611","Aspen","CO","Snowmass Village Recreation Center","2835 Brush Creek Road","81615",39.22673137838921,-106.92352074730861
"81611","Aspen","CO","CYCLEBAR","535 E Hyman Avenue","81611",39.18845748901367,-106.81798553466797
"81611","Aspen","CO","Enclave Fitness Center","not_available","81654",39.2096708602248,-106.94758822536078
"81611","Aspen","CO","The Timbers Club Fitness Center","not_available","81615",39.210371,-106.942976
"81611","Aspen","CO","Aspen Recreation Center","861 Maroon Creek Rd","81611",39.18937069047991,-106.85119238871559
"81611","Aspen","CO","Cyndy Reid Fitness","413 Cowenhoven Ct","81611",39.194242,-106.81036069999999
"81620","Avon","CO","Inyodo Martial Arts","0101 Fawcett Road #140, #140","81620",39.627933255161146,-106.50238649818232
"81620","Avon","CO","TurboFire Fitness Club","not_available","81620",39.628999035037616,-106.51370893187435
"81620","Avon","CO","Allegria Spa","100 East Thomas Place","81620",39.60476576674066,-106.51552732124631
"81620","Avon","CO","TurboFire Fitness Club","0018 Deer Boulevard","81620",39.618833043784555,-106.49031606408333
"81620","Avon","CO","Synergy Center for Wellness","160 W Beaver Creek Blvd","81620",39.63647,-106.52473
"81620","Avon","CO","Ritz-Carlton Fitness Center","130 Daybreak Rdg","81620",39.62352,-106.54131
"81620","Avon","CO","Avon Recreation Center","90 Lake Street","not_available",39.636173132091166,-106.52632998734943
"81620","Avon","CO","Crossfit Venture","101 Fawcett Road","81620",39.627986907958984,-106.50224304199219
"81621","Basalt","CO","Roaring Fork Crossfit","402 Park Ave","81621",39.372643689403965,-107.0788918338955
"81621","Basalt","CO","TAC FITness and Wellness Center","1460 E Valley Rd","81621",39.37438997,-107.07753118
"81621","Basalt","CO","High Country Crossfit","not_available","81621",39.374998,-107.082799
"81631","Eagle","CO","Eagle Ranch Fitness Club","717A Sylvan Lake","81631",39.64032468828258,-106.83214559120228
"81631","Eagle","CO","TurboFire","not_available","81632",39.65250574056915,-106.61249206819873
"81631","Eagle","CO","Dogma Athletica","137 Main St Unit G-001","81632",39.64361462639891,-106.59140575464271
"81631","Eagle","CO","Summit Athletic Club","327 settler's loop","81632",39.62727232273954,-106.6895035411972
"81631","Eagle","CO","Barre Rhythm","50 Chambers Avenue, Unit N","81631",39.65762710571289,-106.82720184326172
"81631","Eagle","CO","High Altitude Crossfit","not_available","81637",39.64431065755053,-106.88837605002492
"81631","Eagle","CO","Pure Barre","216 Main St Unit C-103","81632",39.64253141590461,-106.5904844619539
"81631","Eagle","CO","LeBlanc Personal Training","Miller Creek","not_available",39.64145190664313,-106.61064440814513
"81635","Parachute","CO","Grand Vista Hotel Gym","not_available","81635",39.455268,-108.050864
"81637","Gypsum","CO","Gypsum Recreation Center","0052 Lundgren Blvd.","81637",39.63993807454588,-106.94844715276002
"81645","Minturn","CO","TurboFire Fitness Club","342 Main Street","81645",39.586177825927734,-106.42933654785156
"81647","New Castle","CO","P90X Zone","not_available","81650",39.532837525,-107.7926823
"81647","New Castle","CO","CrossFit Generate","303 West Main St","81647",39.57121276855469,-107.53392028808594
"81647","New Castle","CO","CP5'3 treadmill","not_available","81652",39.564509988334336,-107.66737000618137
