"zip","city","state","name","address","postalCode","lat","lon"
"68002","Arlington","NE","AHS Gym","755 N 9th St","68002",41.45741214315073,-96.36015625184372
"68002","Arlington","NE","AHS Weight Room","705 N 9th St","68002",41.4573974609375,-96.35942840576172
"68003","Ashland","NE","Magnum Products Fitness Center","not_available","not_available",41.188281,-96.295002
"68003","Ashland","NE","Anytime Fitness","11863 S 216th St Ste 1","68028",41.13054,-96.25285
"68005","Bellevue","NE","Blue Moon Fitness","1402 Harlan Dr","68005",41.14152292,-95.91129956
"68005","Bellevue","NE","North Gym","not_available","68005",41.14691323596555,-95.90432187356161
"68005","Bellevue","NE","Sr. Master Kasssebaum's ATA","2111 Harvell Dr","68005",41.153776,-95.92211999999999
"68005","Bellevue","NE","The Weight Room !","1401 High School Dr","68005",41.14661903316803,-95.90327500897702
"68005","Bellevue","NE","Lied Activity Center","2700 Arboretum Dr","68005",41.142671922392594,-95.92934750378834
"68005","Bellevue","NE","Holiday Inn Express Gym","10804 S 15th St","68123",41.151694,-95.937299
"68005","Bellevue","NE","Offutt AFB Gym","not_available","68113",41.12850414323882,-95.91442108154295
"68005","Bellevue","NE","Planet Fitness","10622 South 15th St","68123",41.153679,-95.936789
"68007","Bennington","NE","Anytime Fitness","15605 Bennington Rd","68007",41.364336,-96.158773
"68008","Blair","NE","Trevor's Gym","not_available","68008",41.54412821661906,-96.14108778833251
"68008","Blair","NE","Volkert Family Gym and Basement Workout Space","S14th","688",41.5413597664641,-96.1330948554535
"68008","Blair","NE","Anytime Fitness","1844 Washington St","68008",41.54386,-96.14049
"68010","Boys Town","NE","Weight Room","1010 S 144th St","68154",41.25120433145012,-96.14130522719375
"68022","Elkhorn","NE","Anytime Fitness","20231 Manderson St","68022",41.29232,-96.23233
"68022","Elkhorn","NE","Broadmoor Hills Gym","Capitol Ave","68022",41.25983672177833,-96.19923861144603
"68022","Elkhorn","NE","Elkhorn Training Camp","715 N 210th St","68022",41.2656822,-96.2436752
"68022","Elkhorn","NE","Body By Brent","not_available","68022",41.260767513952814,-96.19887069098517
"68022","Elkhorn","NE","Feels Like Buuuuuuuurning","not_available","68135",41.203925,-96.212187
"68022","Elkhorn","NE","Shadow Ridge Fitness Facility","1501 S 188th Plz","68130",41.24576950073242,-96.20979309082031
"68022","Elkhorn","NE","Farrell's eXtreme Bodyshaping","18102 R Plaza #3","68135",41.20406225251905,-96.19853800995716
"68022","Elkhorn","NE","Nebraska Elite","21015 Cumberland Dr","68022",41.265842,-96.24533
"68025","Fremont","NE","Anytime Fitness","2415 E 23rd Ave S Ste 400","68025",41.45079,-96.46653
"68025","Fremont","NE","Curves","1949 E Military Ave","68025",41.43394088745117,-96.47238159179688
"68025","Fremont","NE","Deerfield Clubhouse","1987 Morningside Rd","68025",41.421408714558844,-96.47203826736944
"68025","Fremont","NE","Simply Strong","not_available","68025",41.42331314086914,-96.49961853027344
"68025","Fremont","NE","Planet Fitness","1041 E 23rd St","68025",41.45075988769531,-96.48445129394531
"68028","Gretna","NE","CrossFit Millard","16919 Audrey St Ste 150","68136",41.189160273266474,-96.18012349976374
"68028","Gretna","NE","Engel Gym","not_available","68136",41.187083941590295,-96.18031168938757
"68028","Gretna","NE","Jazzercise","17128 Audrey St","68136",41.190315999999996,-96.18234
"68028","Gretna","NE","Main Gym","not_available","68028",41.1419900707978,-96.23232412744109
"68028","Gretna","NE","Hummel Health & Fitness","20266 Patton St","68028",41.15007781982422,-96.23173522949219
"68028","Gretna","NE","LX Fit Camp","11314 Wickersham Blvd Ste 700","68028",41.144203,-96.163765
"68031","Hooper","NE","Logan View Wrestling Room","not_available","68031",41.65223286566334,-96.50376049824065
"68031","Hooper","NE","II B Fit Fitness","508 Main","68057",41.6665997,-96.66512846946716
"68045","Oakland","NE","Anytime Fitness","235 N. Oakland Ave","68045",41.83494186401367,-96.46662139892578
"68046","Papillion","NE","Genesis Health Clubs - Tara Plaza","845 Tara Plaza","68046",41.167764,-96.041389
"68046","Papillion","NE","Sarpy Community YMCA","1111 E 1st St","68046",41.15609501656235,-96.02446496677446
"68046","Papillion","NE","Kids Body Shop","not_available","68046",41.17410906325975,-96.03992078383507
"68046","Papillion","NE","Fearless Fitness","731 N Frontier Rd","68046",41.165773,-96.0531
"68046","Papillion","NE","Crossfit Papio","12008 Portal Rd","68128",41.173041999999995,-96.101184
"68046","Papillion","NE","Crazy Jack's Sweaty Shoes","not_available","68128",41.17088572461749,-96.06640172939059
"68046","Papillion","NE","MWC Wrestling Academy","302 E Cary St","68046",41.172869,-96.039828
"68046","Papillion","NE","Zumba Class - Genesis Health Club","845 Tara Plz","68046",41.16781234741211,-96.0418701171875
"68046","Papillion","NE","Sheriff's Office Workout Room","8335 Platteview Rd","68046",41.089823790094556,-96.04155484074543
"68046","Papillion","NE","365bfit","565 Fortune Drive","68133",41.160888,-96.026221
"68046","Papillion","NE","Orangetheory Fitness","9820 S 71st Plz","68133",41.162193298339844,-96.02283477783203
"68046","Papillion","NE","Anytime Fitness","11336 South 96th St.","68046",41.14527079822255,-96.06559038162231
"68046","Papillion","NE","Genesis Health Clubs - Shadow Lake","7549 Town Center Pkwy","68046",41.1331606,-96.0277854
"68047","Pender","NE","Anytime Fitness","614 Main St","68047",42.11436,-96.71141
"68048","Plattsmouth","NE","Plattsmouth COMMUNITY CENTER","440-498 S 18th St","68048",41.00782319546697,-95.90298843218007
"68048","Plattsmouth","NE","Anytime Fitness","2380 W 8th Ave Stes 1-2","68048",41.00350806,-95.90667748
"68061","Tekamah","NE","NBS fitness","not_available","68061",41.7745570155967,-96.22144003242289
"68066","Wahoo","NE","Wahoo Civic Center","310 N Linden St, Wahoo, NE 68066","68066",41.208736419677734,-96.61802673339844
"68066","Wahoo","NE","24/7 Fitness","951 N Chestnut St","68066",41.21461868286133,-96.6223373413086
"68102","Omaha","NE","WoodmenLife Wellness center","not_available","68102",41.25820628312898,-95.9398693881375
"68102","Omaha","NE","Old Market Lofts Fitness Room","1020 Jones","68102",41.252934235328404,-95.92984400536392
"68102","Omaha","NE","Beebe+Runyan Fitness Center","105 S 9th St","68102",41.25950381,-95.92702363
"68102","Omaha","NE","Central Gymnasium","124 Capitol Ave","68102",41.26051293549062,-95.9425577632057
"68102","Omaha","NE","Warren Fitness Center","727 S 13th St","68102",41.25288772583008,-95.93267059326172
"68102","Omaha","NE","Fairfield Inn & Suites Gym","1501 Nicholas St","68102",41.269447326660156,-95.93557739257812
"68102","Omaha","NE","DoubleTree Fitness Center","1616 Dodge St","68102",41.26034927368164,-95.93763732910156
"68102","Omaha","NE","The Bank Gym","206 S 19th St","68102",41.258355,-95.941567
"68102","Omaha","NE","Gallup Fitness Center","1001 Gallup Dr","68102",41.26920115673853,-95.92305172046343
"68102","Omaha","NE","Hilton Health Club","1001 Cass St","68102",41.26312927747421,-95.93055744397405
"68102","Omaha","NE","Renata Gym","210 S 16th St","68102",41.258724,-95.937195
"68102","Omaha","NE","Fit2Fight","819 S 7th St","68108",41.251424145079184,-95.9251175528577
"68102","Omaha","NE","Brian's Gym","405 S 16th St","68102",41.25620651245117,-95.93682861328125
"68102","Omaha","NE","Omaha Fitness","1616 Capitol Ave","68102",41.261165618896484,-95.93781280517578
"68102","Omaha","NE","The Wire Fitness Center","100 S 19th St","68102",41.259408,-95.941728
"68102","Omaha","NE","ConAgra Foods Fitness Centre","1 Conagra Dr","68102",41.256431579589844,-95.92679595947266
"68102","Omaha","NE","Regis Building Fitness Center","312 S 16th St","68102",41.257047,-95.93782900000001
"68102","Omaha","NE","ConAgra Fitness Center","6 ConAgra Drive","51501",41.256046295166016,-95.92669677734375
"68102","Omaha","NE","ConAgra Fitness Center","11 Conagra Dr","68102",41.254013,-95.92264899999999
"68102","Omaha","NE","Gym At 15th","not_available","68108",41.25499482,-95.93301788
"68102","Omaha","NE","Anytime Fitness","1027 Jones St","68102",41.25283,-95.93008
"68104","Omaha","NE","Rachel's Treadmill","not_available","68104",41.27408837428594,-95.98601258169417
"68104","Omaha","NE","Off The Wall","Harrison Elementary School, 5304 Hamilton St, Omaha, NE 68132-1354","68132-1354",41.27284240722656,-95.99788665771484
"68104","Omaha","NE","Clarkson Wellness Center-The Nebraska Medical Center","987510 Nebraska Medical Ctr","68198",41.29925545868814,-96.02144265732709
"68105","Omaha","NE","UNMC Gym","not_available","68105",41.25433156074995,-95.97255157557774
"68105","Omaha","NE","UNMC Wellness Center","985530 Nebraska Medical Ctr","68198",41.254532697868136,-95.97990989685059
"68105","Omaha","NE","Southeast Athletic Club","2457 Deer Park blvd","not_available",41.222323179244995,-95.94934
"68105","Omaha","NE","Lied Transplant Center Exercise Room","4200-4324 Emile St","68105",41.25479174,-95.97771981428572
"68105","Omaha","NE","Ballstank Gym","Elm St, Omaha, NE 68108","68108",41.23294346990654,-95.9569876245469
"68106","Omaha","NE","Genesis Health Clubs - Aksarben","2110 S 67th St","68106",41.239931956962096,-96.01581394672394
"68106","Omaha","NE","Spring Acres Gym","not_available","68106",41.233124842086056,-96.02010442113666
"68106","Omaha","NE","Broadmoor @ Aksarben Fitness Center","2211 S 64th Plz","68106",41.23867928444676,-96.0104732036707
"68106","Omaha","NE","TKO FITNESS, LLC","6815 Grover St","68106",41.22656,-96.01855
"68106","Omaha","NE","Zumba","725 S 72nd St","68114",41.25273513793945,-96.02259826660156
"68106","Omaha","NE","Roy Factory","337 NE Thornton Place","68106",41.244741,-95.984408
"68107","Omaha","NE","Old School Gym","not_available","68107",41.21284,-95.93184
"68107","Omaha","NE","Workout!","balls","68117",41.20426824,-95.98313435
"68110","Omaha","NE","Third Degree Volleyball Facility","715 N 21st St","51501",41.26943588256836,-95.87393188476562
"68110","Omaha","NE","salvation army gym","2425 Pratt St","68111",41.29563863446969,-95.94813112157532
"68110","Omaha","NE","Hampton Inn Fitness Center","1212 Cuming St","68102",41.268310546875,-95.9325942993164
"68111","Omaha","NE","Sweaty Gym","40th","68111",41.28633661,-95.97199702
"68114","Omaha","NE","Genesis Health Clubs - Westroads","1212 North 102nd Street","68114",41.27107193171327,-96.07369581989839
"68114","Omaha","NE","Embassy Park Gym","9045 Burt St","68114",41.26599884033203,-96.0552978515625
"68114","Omaha","NE","Regency Lakeside Fitness Center","not_available","68114",41.24940483424191,-96.077049338205
"68114","Omaha","NE","nutrishop","444 N 76th St","68114",41.262899,-96.031253
"68114","Omaha","NE","Crowne Plaza's Gym","not_available","68154",41.26556575298309,-96.08218789100647
"68114","Omaha","NE","Ilovekickboxing","8821 Blondo St","68134",41.27750778198242,-96.05096435546875
"68114","Omaha","NE","Pac Gardens Fitness Center Gym","7616 Pierce St","68124",41.247896000000004,-96.03171
"68114","Omaha","NE","Lionshead Gym","at LionsHead Apartments","68154",41.27254779777949,-96.08267640964355
"68114","Omaha","NE","Apartment Gym","1323 N 108th St","68154",41.27210998535156,-96.08027648925781
"68114","Omaha","NE","Great Vibrations","10858 W Dodge Rd","68154",41.264891594644155,-96.08424643955865
"68114","Omaha","NE","Farrell's eXtreme Bodyshaping","7610 Dodge St","68114",41.26161540475866,-96.03170766579747
"68114","Omaha","NE","Genesis Health Clubs - Cass","7777 Cass Street","68114",41.262882522036556,-96.03495947161649
"68114","Omaha","NE","Bentley Clubhouse/Fitness Center","822 N 94th Ct","68114",41.26789324290271,-96.06034302915845
"68114","Omaha","NE","Kensington Gym","1351-1399 N 107th Plaza","68114",41.27306286,-96.0802298
"68114","Omaha","NE","Ultimate Workout: Built By Todd Smith","414 North 76th Street","68114",41.263021020681684,-96.03109084833287
"68114","Omaha","NE","Underwood Hills Early Learning Center Gymnasium","9030 Western Ave","68114",41.271006,-96.054689
"68114","Omaha","NE","Eden West Gym","9405 Western Plz","68114",41.26974868774414,-96.06045532226562
"68116","Omaha","NE","Perspire","3525 N 147th St","68116",41.290546,-96.1402
"68116","Omaha","NE","Genesis Health Clubs - Sprague","14651 Sprague Street","68116",41.29513946895499,-96.14307403564453
"68116","Omaha","NE","Infinity Wellness","15825 W Maple Rd Ste 102","68116",41.291221618652344,-96.16020965576172
"68116","Omaha","NE","Black Clover Fitness","3821 N 167th Ct","68116",41.29310531748435,-96.17452544828399
"68116","Omaha","NE","The Perfect 10 Workshop","not_available","68116",41.288888888888884,-96.15680555555556
"68116","Omaha","NE","Whispering Ridge Apartments","17551 Pinkney St","68116",41.28952891757213,-96.18910074234009
"68116","Omaha","NE","TITLE Boxing Club Omaha","3525 North 147th Street","68116",41.29048959,-96.14006954
"68116","Omaha","NE","Anytime Fitness","15505 Ruggles St","68116",41.2959,-96.15758
"68116","Omaha","NE","The Weight Room","17112 Burdette St","68116",41.27901180303466,-96.1834668160367
"68116","Omaha","NE","Optimum Fitness","3803 North 153rd #106 Omaha‎ NE‎ 68116-5176","68116",41.29342508482512,-96.15239045055279
"68118","Omaha","NE","CYCLEBAR","17255 Davenport St Ste 135","68118",41.26028823852539,-96.18523406982422
"68118","Omaha","NE","I Love Kickboxing - Omaha","16821 Blondo Sttreet","68116",41.27748481929302,-96.1775853484869
"68118","Omaha","NE","Camden Grove Fitness Center","not_available","68118",41.2743117975781,-96.18841437509899
"68118","Omaha","NE","SuperSlow Zone Pacific Springs","17785 Mason St","68118",41.248992919921875,-96.19210052490234
"68118","Omaha","NE","Farrell's eXtreme Bodyshaping","15791 W Dodge Rd","68118",41.26158967666838,-96.16129830479622
"68122","Omaha","NE","SG Human Performance","10033 Scott Cir","68122",41.32578074201448,-96.06693710873053
"68122","Omaha","NE","Zumba","not_available","68122",41.321701427643376,-96.07257597892988
"68122","Omaha","NE","Dig Deep Fitness","not_available","68142",41.326324462890625,-96.08257293701172
"68122","Omaha","NE","Conagra Foods 7350 Gym","not_available","68144",41.33949197422541,-96.02656336161263
"68123","Bellevue","NE","Vue Gym","2882 Comstock Plz","68123",41.13649368286133,-95.95542907714844
"68123","Bellevue","NE","Farrell's Extreme Bodyshaping","2219 Capehart Rd","68123",41.11796691,-95.94518405
"68123","Bellevue","NE","Snap Fitness","3503 Samson Way #112","68123",41.14109660605207,-95.96606983011915
"68123","Bellevue","NE","Offutt FD Fitness Center","not_available","68123",41.12208673744464,-95.95656147898517
"68123","Bellevue","NE","FitnessFAST","2403 Towne Center Dr","68123",41.11689142417192,-95.94643038289675
"68123","Bellevue","NE","workout room.","11181 Windcrest","68123",41.133483,-95.982461
"68123","Bellevue","NE","Clubhouse Fitness","at The Pavilion At Twin Creek","68123",41.146296859126664,-95.97419142723083
"68123","Bellevue","NE","Summit East Gym","3200 Comstock Ave, Bellevue, NE 68123","68123",41.13709896140731,-95.96053884739192
"68124","Omaha","NE","Centre Ridge Apartments Gym","not_available","68164",41.2315114849082,-96.0546496268575
"68124","Omaha","NE","Oakdale Gym","not_available","68124",41.233308,-96.06468
"68124","Omaha","NE","Wellness Center - CHI Health Bergan Mercy","7500 Mercy Rd","68124",41.239013671875,-96.02995300292969
"68124","Omaha","NE","Crown Park Gym","7900 Elm Plz","68124",41.233003,-96.036002
"68124","Omaha","NE","Pure Barre","2501 S 90th St Ste 118","68124",41.235768,-96.051958
"68124","Omaha","NE","Omaha Tower Gym","2120 S 72nd St Fl 5","68124",41.239261600000006,-96.02473015000001
"68124","Omaha","NE","DoubleTree Gym","3650 S 72nd St","68124",41.225650787353516,-96.02509307861328
"68124","Omaha","NE","Row House","2501 S 90th St Ste 119","68124",41.235605,-96.0518923
"68124","Omaha","NE","Muscle Mansion","3717 Westgate Rd","68124",41.225342,-96.032576
"68124","Omaha","NE","Rockbrook Women's Gym","10820 Prairie Hills Dr","68144",41.232312,-96.082185
"68124","Omaha","NE","Blue Moon Fitness","8430 Center St","68124",41.23300619,-96.04608984
"68124","Omaha","NE","Climate CrossFit","3427 S 84th St","68124",41.22962880833633,-96.04171335697174
"68127","Omaha","NE","Heartland Strength","8944 H St","68127",41.217795,-96.050721
"68127","Omaha","NE","Blue Moon Fitness","5103 S 108th St","68137",41.20635586,-96.08025668
"68127","Omaha","NE","CrossFit Omaha","8938 L St","68127",41.21327402483214,-96.05020022822414
"68127","Omaha","NE","Appletree Fitness Center","6224 S 97th Ct","68127",41.19541931152344,-96.06757354736328
"68127","Omaha","NE","Briarwood Fitness Center","9434 U Ct","68127",41.20008369917902,-96.06171478674563
"68127","Omaha","NE","Monarchs Wrestling Club","7616 Burlington St","68127",41.200128,-96.03057199999999
"68127","Omaha","NE","Genesis Health Clubs – 84th & Q Street","8525 Q St","68127",41.2045143,-96.0450507
"68127","Omaha","NE","Body Masters Inc.","8107 H St","68127",41.21707742175994,-96.0406141806487
"68127","Omaha","NE","Fit Body Boot Camp","7310 Harrison St","68128",41.19194030761719,-96.02458190917969
"68127","Omaha","NE","Endless Possibilities Training Systems","8931 J","not_available",41.21498401028412,-96.05082466787084
"68127","Omaha","NE","Thomasville Gym","6009 S 100th Plz","68127",41.19838153278899,-96.06945652285724
"68127","Omaha","NE","Gym on the Streets","not_available","68127",41.211059448260194,-96.03848595299054
"68127","Omaha","NE","Endless Possibilities Gym","8410 K St Ste 12","68127",41.21491622924805,-96.04423522949219
"68127","Omaha","NE","Agosta Training Center (ATC)","8934 L St","68127",41.213419,-96.04995799999999
"68127","Omaha","NE","BMI","8105 H St, Omaha, NE 68127","68127",41.21710629872286,-96.04087364578808
"68127","Omaha","NE","Total Gym","9919 Weir Plz","68127",41.205914,-96.068348
"68127","Omaha","NE","LivFit","5068 S 107th St","68127",41.206742,-96.079475
"68127","Omaha","NE","Harrisburg Fitness Center","9424 Holmes Plz","68127",41.21104049682617,-96.06044006347656
"68127","Omaha","NE","Youfit Health Clubs","2845 N Scottsdale Rd","85257",41.2150957,-96.0482902
"68127","Omaha","NE","Workout Room","9805 Q St","68127",41.20476150512695,-96.06671142578125
"68127","Omaha","NE","Southwest Athletic Club","9847 M St","68127",41.210875511169434,-96.06727480888367
"68128","La Vista","NE","Edge Body Boot Camp Omaha","10931 Harrison St","68128",41.190120697021484,-96.08673095703125
"68128","La Vista","NE","Living Room Workout Station","8101-8299 Brentwood Plaza","68128",41.17937335,-96.04819934
"68128","La Vista","NE","Farrell's eXtreme Bodyshaping","7428 Eastport Pkwy","68128",41.180792012485306,-96.10579284438641
"68128","La Vista","NE","Harrison Hills Fitness Center","6925 S 115th Street Plz","68128",41.18804969870297,-96.09119536663148
"68128","La Vista","NE","Embassy Suites Fitness Center","12520 Westport Pkwy Fl 1","68128",41.181124,-96.107637
"68128","La Vista","NE","Lower Pointe Gym","8216 Elm Dr, La Vista, NE 68128","68128",41.18449783325195,-96.05215454101562
"68128","La Vista","NE","The Pointe Apartments","8211 S 87th Plz","68128",41.17756676618851,-96.04719762913955
"68128","La Vista","NE","EP Gym","87th St","68128",41.17760144325014,-96.04705362987767
"68128","La Vista","NE","PayPal Gym","12312 Port Grace Blvd","68128",41.1860844422709,-96.10416433105397
"68130","Omaha","NE","Life Time Fitness","17007 Elm Plaza","68130",41.2306605,-96.1802936
"68130","Omaha","NE","Anytime Fitness","1121 S 180th St","68130",41.24786,-96.19567
"68130","Omaha","NE","GREAT VIBRATIONS FITNESS - OMAHA","17931 Pierce Plz","68130",41.2472014,-96.1949372
"68130","Omaha","NE","Kosama - Complete Body Transformation","16920 Wright Plz Ste 126","68130",41.233494352081046,-96.17855847297398
"68130","Omaha","NE","Fairfield Inn & Suites Gym","not_available","68130",41.233032,-96.18506
"68130","Omaha","NE","CrossFit 402","16909 Lakeside Hills Plz","68130",41.23539352416992,-96.17759704589844
"68130","Omaha","NE","Personalized Fitness","15117 Industrial Rd","68144",41.231117,-96.150225
"68130","Omaha","NE","Tradition Club House","1250 S 157th St","68130",41.24524786309246,-96.15965302694029
"68130","Omaha","NE","iThinkFit.com Online Training Headquarters","2424 S 156th Cir","68130",41.23591995239258,-96.15889739990234
"68130","Omaha","NE","Fitness Together","17660 Wright St Ste 8","68130",41.2329631,-96.1910026
"68130","Omaha","NE","CORE10 Pilates","17525 Gold Plaza #101","68130",41.2352087,-96.18900909999999
"68130","Omaha","NE","The Sweatshop","15950 Wright Plz","68130",41.232757568359375,-96.16201782226562
"68131","Omaha","NE","Fit Farm","4383 Nicholas St Ste 211","68131",41.26972388100334,-95.97948020997555
"68131","Omaha","NE","Kiewit Fitness Center","2500 Cass St","68178",41.26449827945273,-95.94914331227203
"68131","Omaha","NE","Zumba In The Park","31st & Farnam","68131",41.257372666155725,-95.95198116703926
"68131","Omaha","NE","Prairie Life Fitness","3100 Farnam St","68131",41.25804021862,-95.9606897028075
"68131","Omaha","NE","Genesis Health Clubs – Midtown Crossing","200 S 31st Ave Farnam Street","68131",41.258334,-95.96039
"68131","Omaha","NE","Power Life Yoga Barre Fitness","3618 Farnam St","68131",41.25805,-95.96711
"68132","Omaha","NE","A. V. Sorensen Community Center","4808 Cass St","68132",41.263357224845635,-95.98624496129842
"68134","Omaha","NE","Planet Fitness","5413 N 90th St","68134",41.3078092,-96.0523985
"68134","Omaha","NE","Anytime Fitness","2215 N 90th St","68134",41.27878,-96.05212
"68134","Omaha","NE","Right Fit","not_available","68134",41.30873819839022,-96.07277248957436
"68134","Omaha","NE","Fletchs Court","85","not_available",41.27845253843972,-96.04321708177535
"68134","Omaha","NE","Comfort Inn Gym","10503 Bedford Ave","68134",41.288318,-96.077202
"68134","Omaha","NE","Life Gym","5421 N 103rd St","68134",41.30910873413086,-96.07280731201172
"68134","Omaha","NE","Zfit72","2672 N 72nd St","68134",41.283512761897846,-96.02434394938068
"68135","Omaha","NE","Foxboro Gym","15551 Adams St","68137",41.194722999999996,-96.157258
"68135","Omaha","NE","Aspen Athletic Club","17725 Welch Plz","68135",41.20563622896677,-96.19219905463798
"68135","Omaha","NE","The Gym","not_available","68137",41.1939126,-96.15446753
"68135","Omaha","NE","Planet Fitness","15370 Weir St","68137",41.2075341,-96.15545469999999
"68137","Omaha","NE","Better Bodies","4117 S 120th St","68137",41.21938183257692,-96.09952641957669
"68137","Omaha","NE","Ultimate Baseball Academy","4225 S 121 Plaza","68137",41.21797572371111,-96.10219909604547
"68137","Omaha","NE","Wai's Grey Gardens","6516 S 116th St","68137",41.193951868979866,-96.09183702335075
"68137","Omaha","NE","CrossFit Artis","13233 B St","68144",41.223163,-96.121305
"68137","Omaha","NE","Omaha ATA Martial Arts - Black Belt Academy","14510 Grover St","68144",41.224835,-96.140731
"68137","Omaha","NE","Kiewit Business Center Fitness Center","12720","68137",41.21638736651134,-96.11156466761265
"68137","Omaha","NE","Adventures Gym","13540 Discovery Dr","68137",41.201969146728516,-96.1235122680664
"68137","Omaha","NE","New Glory Fitness","14505 Grover St","68144",41.2232780456543,-96.14054107666016
"68137","Omaha","NE","MSHS Weight Room","14905 Q St","68137",41.20295333862305,-96.14580535888672
"68137","Omaha","NE","Oak Brook Park Gym","6601 S 108th Ct","68137",41.19176483154297,-96.08246612548828
"68137","Omaha","NE","Genesis Health Club","4007 S 145th Plz","68137",41.221144,-96.140846
"68138","Omaha","NE","Rock Creek Gym","not_available","68138",41.17650881961545,-96.14951853747108
"68138","Omaha","NE","Going Vertical","10700 Sapp Brothers Dr","68138",41.15318658654282,-96.15387862995485
"68138","Omaha","NE","Priority 1 Fitness","14990 Shepard St. Suite 400","68138",41.146392822265625,-96.14665985107422
"68138","Omaha","NE","Nebraska State Soccer","10700 Sapp Brothers Dr Ste B","68138",41.15327453613281,-96.15392303466797
"68138","Omaha","NE","Iron Heaven Gym","13211 Chandler Rd","68138",41.182037380542475,-96.12021625041962
"68138","Omaha","NE","Hammi House of Pilates & Wellness","11660 Westmont Dr","68138",41.14139,-96.12719
"68138","Omaha","NE","Warrior Fitness Center","13239 Portal Dr","68138",41.17176818847656,-96.1214599609375
"68144","Omaha","NE","CKO Kickboxing Omaha","2615 South 144th Street","68144",41.234679,-96.13757199999999
"68144","Omaha","NE","Testify Strength and Conditioning","3605 S.149th St","68144",41.227359771728516,-96.14839172363281
"68144","Omaha","NE","Georgetowne Workout Room","2217 S 143rd Plz","68144",41.238942,-96.136725
"68144","Omaha","NE","2nd Wind Exercise Equipment","3425 Oak View Dr Ste 50","68144",41.22624071155921,-96.13579183642334
"68144","Omaha","NE","Georgetowne Fitness Center/Pool","S 143rd Court","68144",41.23889323,-96.13757644
"68144","Omaha","NE","Genesis Health Clubs – 132nd & Center","2275 S. 132nd Street","68144",41.237538,-96.118053
"68144","Omaha","NE","UBX: Ultimate Body Experience","14713 Industrial Rd","68144",41.228394892874675,-96.14486323449427
"68144","Omaha","NE","Kent Fitness&Spa","Kent Plaza","not_available",41.23760986328125,-96.13448333740234
"68144","Omaha","NE","Boys Town JROTC Drill Hall","Flanagan Blvd","68010",41.247056313372426,-96.12623128825982
"68147","Bellevue","NE","The Libby Gym","not_available","68147",41.18609146829598,-95.96642876166777
"68154","Omaha","NE","Phil Sokolof Health & Fitness Center","333 S 132nd St","68154",41.257174742858034,-96.1161547256494
"68154","Omaha","NE","Cox Communications Gym","11505 W Dodge Rd","68154",41.262359000000004,-96.0939
"68154","Omaha","NE","Gourley Gym","1035 Eldorado Dr","68154",41.269847,-96.142597
"68154","Omaha","NE","Wycliffe Gym","15202 Wycliffe Dr","68154",41.261498186043326,-96.15065064766775
"68154","Omaha","NE","Gym","11525 Decatur Plz","68154",41.272805531507096,-96.08978504926155
"68154","Omaha","NE","McAuley Fitness Center","12809 W Dodge Rd Fl 1","68154",41.26213073730469,-96.1119613647461
"68164","Omaha","NE","Blue Moon Fitness","10930 Emmet St Ste B","68164",41.291047,-96.083569
"68164","Omaha","NE","Champions Run","13800 Eagle Run Dr","68164",41.2871941,-96.1270679
"68164","Omaha","NE","Farrell's eXtreme Bodyshaping","4915 N 120th St","68164",41.30428625782188,-96.09999250453377
"68164","Omaha","NE","Stonegate Park Fitness Center","12102 Stonegate Dr","68164",41.28931427001953,-96.10440063476562
"68164","Omaha","NE","Bryers TotalFitness","11015 Emmet St Ste 107","68164",41.289024353027344,-96.08556365966797
"68164","Omaha","NE","Wellbound Fitness for Boomers & Seniors","3673 N 129th St","68164",41.291221618652344,-96.11414337158203
"68164","Omaha","NE","The Gym","10910-10938 Jaynes Plaza","68164",41.30909765,-96.08245105
"68164","Omaha","NE","Benz Place Gym","13915 Manderson Plz","68164",41.293399810791016,-96.13141632080078
"68164","Omaha","NE","Tranquility Pointe Gym","12610 Ames Plz","68164",41.29804772739076,-96.11089611067048
"68164","Omaha","NE","PE 101 Kids Gym","2920 N 118th St","68164",41.28604786638082,-96.10190278705802
"68164","Omaha","NE","Great Vibrations Fitness","3319 N 109th Plz","68164",41.28871154785156,-96.08216094970703
"68164","Omaha","NE","The Bodysmith","12309 W Maple Rd","68164",41.291599,-96.104673
"68164","Omaha","NE","DynamiX Strength and Fitness","13110 Birch Dr #152","68164",41.2911135,-96.1190909
"68301","Adams","NE","Anytime Fitness","6710 Woodland Blvd","68372",40.63161,-96.63143
"68305","Auburn","NE","Nemaha County Wellness Center","601 J St","68305",40.39869827024016,-95.83841671997645
"68310","Beatrice","NE","Husker Health","not_available","68310",40.290489567233095,-96.74585786759243
"68310","Beatrice","NE","NoXcuseFitness.com","916-1034 N 16th St","68310",40.27688961,-96.733094
"68310","Beatrice","NE","Anytime Fitness","2317 N 6th St #10","68310",40.29079,-96.74861
"68317","Bennet","NE","rock solid fitness","not_available","68317",40.711708364461465,-96.51276973048296
"68318","Blue Springs","NE","Southern High School Gymnasium","not_available","68466",40.121699076762376,-96.66805890969658
"68321","Brownville","NE","cooper nuclear station gym","not_available","68321",40.39073963067537,-95.65757784844432
"68333","Crete","NE","Anytime Fitness","1105 E Hwy 33 Ste 2","68333",40.63353,-96.94905
"68336","Davey","NE","Fallbrook YMCA","700 Penrose Drive","68521",40.8824199,-96.7303288
"68354","Fairmont","NE","Fillmore County Hospital - Fitness Center Section","1325 H St","68361",40.526634216308594,-97.59495544433594
"68354","Fairmont","NE","Fillmore County Wellness Center","not_available","68361",40.52699766592603,-97.59577503792673
"68366","Greenwood","NE","The WAVE","14650 Woodstock Blvd","68462",40.921005529493705,-96.52222929080403
"68366","Greenwood","NE","Snap Fitness","13220 Callum Dr Ste 6","68462",40.90782928466797,-96.54296112060547
"68367","Gresham","NE","Standard Bank GLC Gym","415 Summit Road","68667",41.108097,-97.309578
"68404","Martell","NE","Meyer's Gym","1700 W 3rd St","68438",40.627148,-96.747599
"68405","Milford","NE","Elite Progression","961 Rt 6","not_available",40.770450592041016,-97.05770111083984
"68410","Nebraska City","NE","Timeout","not_available","68410",40.676578521728516,-95.86842346191406
"68410","Nebraska City","NE","Hayward Gym","300 S 14th St, Nebraska City, NE 68410","68410",40.675068035232286,-95.86709458766146
"68410","Nebraska City","NE","Anytime Fitness","1556 S 11th St","68410",40.66179,-95.86018
"68410","Nebraska City","NE","Sweat Shop","1754 N 11th St","68410",40.69360379192715,-95.85756928425805
"68415","Odell","NE","Diller Odell High School","not_available","68415",40.05217742919922,-96.8021469116211
"68430","Roca","NE","Orangetheory Fitness","8601 S 30th St","68516",40.725494,-96.678457
"68434","Seward","NE","Athletic Weight Room","525 E Hillcrest Dr.","68434",40.91515129846357,-97.08730698806903
"68434","Seward","NE","Snap Fitness","1-99 U.S. 34","68434",40.906769977291866,-97.0926852458459
"68446","Syracuse","NE","Bartner's Gym","Main St.& H St.","68454",40.690016,-96.264443
"68467","York","NE","York General Wellness Center","2114 N Lincoln Ave","68467",40.88144550056556,-97.59219888728533
"68467","York","NE","York Parks and Recreation","211 East 7th Street","68467",40.868316650390625,-97.59121704101562
"68502","Lincoln","NE","Old Cheney Place Gym","5501 Warwick Ct","68516",40.758309000000004,-96.682126
"68502","Lincoln","NE","PowerCycle","5511 South 16th Street","68512",40.75687789916992,-96.70039367675781
"68502","Lincoln","NE","The Olympic Body Shop","1627 S 2nd St","68502",40.797000885009766,-96.719482421875
"68502","Lincoln","NE","Nebraska Cheer Center","3010 S 7th St","68502",40.781814000000004,-96.712436
"68502","Lincoln","NE","Body OverHALL","4001 S 8th St Ste 105","68502",40.77266875663962,-96.71069290527758
"68502","Lincoln","NE","John's Gym","2821 Tierra Dr","68516",40.761375,-96.679804
"68502","Lincoln","NE","South Side Boxing Gym","1425 South St","68502",40.791525,-96.70078199999999
"68502","Lincoln","NE","ACE Studio","3220 S 13th St","68502",40.780304,-96.702511
"68502","Lincoln","NE","CFL Health & Fitness","733 Hill St Ste D","68502",40.78490137046762,-96.71142424879386
"68502","Lincoln","NE","GoodLife Fitness","not_available","68502",40.78549324670374,-96.71858385238903
"68502","Lincoln","NE","Fit4Lincoln","1359 S 33rd St","68510",40.799695,-96.673247
"68502","Lincoln","NE","Total Body Infusion","1335 High St","68502",40.78052854394771,-96.70257181420183
"68502","Lincoln","NE","Snap Fitness","5633 S 16th St","68512",40.75610769910248,-96.70119560332462
"68503","Lincoln","NE","PKP Ripped Warriors Training Room","532 N 24th St","68503",40.818271542223286,-96.68655331001308
"68503","Lincoln","NE","Blue Moon Fitness","1241 N 48th St","68504",40.8260652022015,-96.65421509035363
"68503","Lincoln","NE","Unrivaled Sports Performance","2521 Kimco Ct Ste 2","68521",40.83668993427855,-96.68377515545589
"68504","Lincoln","NE","Snap Fitness","4010 N 27th St","68521",40.85243655382487,-96.68214259463775
"68504","Lincoln","NE","Argosy Gym","5310 R St","68504",40.817817,-96.648134
"68504","Lincoln","NE","CKO Kickboxing Lincoln","400 North 48th Street Suite C7","68504",40.8183374,-96.6524007
"68504","Lincoln","NE","Northbrook Gym","not_available","68521",40.8743389121567,-96.67764970046258
"68504","Lincoln","NE","Pinebrook Gym","not_available","68504",40.873929,-96.673859
"68504","Lincoln","NE","The Gym","3930 Adams St","68504",40.843024,-96.666364
"68504","Lincoln","NE","COMBAT Arena","3133","68504",40.863103346110265,-96.67512813415463
"68504","Lincoln","NE","Lionsgate Gym","5100 Vine Street","68504",40.81982303827043,-96.64998389026327
"68504","Lincoln","NE","Superior Point Jazzercise","4640 Bair Ave","68504",40.857987363645066,-96.67307416764248
"68505","Lincoln","NE","Genesis Health Club","6140 O St.","68505",40.8185184302712,-96.63515091312101
"68505","Lincoln","NE","The Gym","not_available","68505",40.82387030124664,-96.6373997926712
"68505","Lincoln","NE","Body Beating Acadamy","7741 Holdrege St","68505",40.82766342163086,-96.61430358886719
"68505","Lincoln","NE","Body Innovations","451 N 66th St","68505",40.818752,-96.63202
"68505","Lincoln","NE","Chateau Trailview Gym","1025 N 63rd St","68505",40.82338654405367,-96.63613356601006
"68505","Lincoln","NE","Snap Fitness","1777 N 86th St","68505",40.830713613037254,-96.60497042373272
"68505","Lincoln","NE","L.R. Fitness Center","8600 Lexington Ave","68505",40.831879,-96.60247700000001
"68506","Lincoln","NE","Planet Fitness","2600 S 48th St","68506",40.78553266185124,-96.65183227672946
"68506","Lincoln","NE","Rockledge Oaks Apartment Gym","8320 Rockledge Rd","68506",40.782981872558594,-96.60735321044922
"68506","Lincoln","NE","Tiger Coaching & Personal Training","4747 Pioneers Blvd Ste 900 # 900","68506",40.769242,-96.654616
"68506","Lincoln","NE","Hart Dance  Academy","4747 Pioneers Blvd","68506",40.769242,-96.654616
"68506","Lincoln","NE","Orangetheory Fitness","7811 Pioneers Blvd, Lincoln","68506",40.76919,-96.61384
"68506","Lincoln","NE","Anytime Fitness","4131 Pioneer Woods Dr Ste 106","68506",40.77079,-96.6227
"68506","Lincoln","NE","Madona","not_available","68506",40.7902107,-96.6558493
"68506","Lincoln","NE","Capital City Fitness and Performance","6891 A St Ste 110","68510",40.79765,-96.62617
"68506","Lincoln","NE","Prasch Gym","2930 S 37th St","68506",40.78252029418945,-96.66586303710938
"68507","Lincoln","NE","Northeast YMCA","2601 N 70th St","68507",40.83824622139238,-96.62538366200965
"68507","Lincoln","NE","Goodyear Fitness Center","6224 Logan Ave","68507",40.853743187109934,-96.63523653831584
"68507","Lincoln","NE","Pure Fitness","6036 Havelock Ave","68507",40.857383728027344,-96.63751983642578
"68508","Lincoln","NE","Campus Recreation Center","UNL City Campus","68508",40.821683799540786,-96.70202591341676
"68508","Lincoln","NE","Downtown YMCA","1039 P St","68508",40.814461,-96.706061
"68508","Lincoln","NE","Spirit Gym","1776 N 10th St","68508",40.83013153076172,-96.70684051513672
"68508","Lincoln","NE","Ameritas Fitness Center","1320 P St","68508",40.815067291259766,-96.70195770263672
"68508","Lincoln","NE","The Muscle Farm","1548 S Street","not_available",40.81822322,-96.6987
"68508","Lincoln","NE","Embassy Suites Fitness Center","1040 P St","68508",40.81502157887124,-96.7059724071134
"68508","Lincoln","NE","Cornhusker Fitness","not_available","68508",40.810718,-96.70277
"68508","Lincoln","NE","The Sauna","841","68588",40.82157598335179,-96.70251957915114
"68508","Lincoln","NE","Claremont Park Workout Room","Claremont Park Apts","68508",40.82792470207564,-96.7092112338597
"68508","Lincoln","NE","Lincoln Gym","2545 Randolph St","68510",40.805999755859375,-96.68437194824219
"68510","Lincoln","NE","Prairie Life","6940 A St","68510",40.80039220166804,-96.62586141186752
"68510","Lincoln","NE","Genesis Health Clubs – East Lincoln","1305 S 70th St","68510",40.8003898,-96.6255931
"68510","Lincoln","NE","Pyrite's Gym","not_available","68510",40.80868148803711,-96.66917419433594
"68512","Lincoln","NE","Bryan Lifepointe - Fitness","7501 S 27th St","68512",40.73426910538574,-96.68430589188539
"68512","Lincoln","NE","Genesis Health Clubs","1801 Pine Lake Rd","68512",40.738094,-96.695364
"68512","Lincoln","NE","Domination Sports Training","not_available","68512",40.72703390746577,-96.69743731126367
"68512","Lincoln","NE","Cooper YMCA","6767 South 14th Street","68512",40.74154851,-96.70217093
"68512","Lincoln","NE","Goddard Training Room","2134 Wesley Dr","68512",40.736332,-96.691241
"68512","Lincoln","NE","Skyline Gym","1430 Old Farm Rd","68512",40.75038146972656,-96.7012710571289
"68516","Lincoln","NE","Madonna ProActive Health & Fitness","7111 Stephanie Ln","68516",40.74030132954307,-96.64795114867894
"68516","Lincoln","NE","Lincoln Christian Gym - Weight Room","not_available","68516",40.753887830680874,-96.60672928941294
"68516","Lincoln","NE","Pure Barre","2900 Pine Lake Rd Ste E","68516",40.7415885925293,-96.67977142333984
"68516","Lincoln","NE","Williamsburg Park Fitness Center","6201 S 34th St","68516",40.750083588082,-96.67111903629889
"68516","Lincoln","NE","Genesis Health Clubs - Racquet Club","5300 Old Cheney Rd","68516",40.75604938481637,-96.64786616908
"68516","Lincoln","NE","Snap Fitness","8901 Andermatt Dr Ste 107","68526",40.73345947265625,-96.599609375
"68516","Lincoln","NE","Snap Fitness","4910 Old Cheney Rd","68516",40.75535303679311,-96.6513208984545
"68516","Lincoln","NE","Snap Fitness","5900 S 85th St","68526",40.75210442361507,-96.6041234551585
"68516","Lincoln","NE","Crete High Gym","not_available","68333",40.761032,-96.641132
"68516","Lincoln","NE","Anytime Fitness","7301 S 27th St Ste 100","68512",40.73886,-96.6786
"68516","Lincoln","NE","RPV/PLH Clubhouse Fitness Center","7015 S 38th St","68516",40.739688873291016,-96.66744232177734
"68521","Lincoln","NE","Duncan Aviation Gym","not_available","68528",40.85114881535825,-96.74699736610786
"68521","Lincoln","NE","Deer Park Workout Room","in Deer Park Apartments.","68521",40.85357642766243,-96.71090907095584
"68521","Lincoln","NE","Snap Fitness","5633 NW 1st St","68521",40.86754391953714,-96.7239575657323
"68521","Lincoln","NE","Anytime Fitness","4900 N 26th St #106","68521",40.86053,-96.6831
"68521","Lincoln","NE","Fountain Glen Gym","NW 2nd","68521",40.8716222,-96.72504723333333
"68521","Lincoln","NE","The Links Gym","375 Fletcher Ave","68521",40.869596675659196,-96.71720388670079
"68521","Lincoln","NE","Air National Guard Gym","not_available","68524",40.84191795942947,-96.75621863383884
"68522","Lincoln","NE","Gym @ Mystic Pines","not_available","68522",40.79341884348288,-96.75803482532501
"68523","Lincoln","NE","Mo's Gym","not_available","68523",40.75541441082013,-96.76270149065662
"68528","Lincoln","NE","Crete Carrier/Shaffer Trucking","400 NW 56th St","68528",40.81610813720187,-96.79513122278195
"68528","Lincoln","NE","Lakeview Clubhouse Gym","510 Surfside Dr","68528",40.81794261932373,-96.74248337745667
"68528","Lincoln","NE","Gym","1500-1598 W S St","68528",40.8178064358399,-96.7459885430084
"68528","Lincoln","NE","Prairie Life","330 W P St","68528",40.81514371217308,-96.72747801731435
"68601","Columbus","NE","Snap Fitness","825 23rd St","68601",41.43807601928711,-97.33615112304688
"68601","Columbus","NE","YMCA","2200 28th Ave","68601",41.43807296997205,-97.36311846699401
"68601","Columbus","NE","Columbus YMCA","3912 38th St","68601",41.45341873168945,-97.37467193603516
"68601","Columbus","NE","b fit","2363 18th Ave","68601",41.43906784057617,-97.34842681884766
"68636","Elgin","NE","Gym / Fitness Center  719 Fitness Center","406 M St","68756",42.128841400146484,-98.03030395507812
"68640","Genoa","NE","Work Out","not_available","68660",41.57383913976374,-97.8624749839823
"68644","Lindsay","NE","Gym - Holy Family School","301 Pine St","68644",41.70185852050781,-97.69403839111328
"68661","Schuyler","NE","Anytime Fitness","690 W 16th St","68661",41.45282,-97.06682
"68701","Norfolk","NE","Anytime Fitness","2118 Market Ln Ste 2","68701",42.02374,-97.43939
"68701","Norfolk","NE","Norfolk Jazzercise","1106 Benjamin Ave, Norfolk, NE 68701","68701",42.04768753051758,-97.42363739013672
"68701","Norfolk","NE","Select Fitness","not_available","68701",42.03346004166831,-97.4131605254638
"68701","Norfolk","NE","Norfolk YMCA","301 W Benjamin Ave","68701",42.04618198090131,-97.41074245984261
"68701","Norfolk","NE","Evolve Fitness","1712 Square Turn Blvd","68701",42.05311409999999,-97.4243407
"68701","Norfolk","NE","Set The Bar Fitness","715 Country Club Rd","68701",42.04818,-97.41628
"68701","Norfolk","NE","The Max Fitness Center","300 W Braasch Ave","68701",42.034324645996094,-97.41044616699219
"68701","Norfolk","NE","Go Figure Women's 24 Hour Fitness & Tanning","2612 W Norfolk Ave","68701",42.03315185108945,-97.44992774479331
"68731","Dakota City","NE","Anytime Fitness","2601 Cornhusker Dr","68776",42.46471,-96.42902
"68763","Oneill","NE","Fitness First","not_available","68735",42.45764973584896,-98.64718133325127
"68763","Oneill","NE","Anytime Fitness","409 E. Douglas St.","68763",42.45754,-98.64728
"68776","South Sioux City","NE","Fitness Center","not_available","51103",42.489744421386014,-96.42264150516318
"68776","South Sioux City","NE","Curves For Women","1101 Dakota Ave","68776",42.47898281682988,-96.41340861247114
"68779","Stanton","NE","Mustang Fitness","not_available","68779",41.94977683069923,-97.2236715819091
"68788","West Point","NE","Anytime Fitness","104 N Main St","68788",41.84045,-96.71191
"68801","Grand Island","NE","JJ's Custom Fitness","404 1/2 W 3rd St","68801",40.924287034174405,-98.34367173690136
"68801","Grand Island","NE","Twisters","not_available","68801",40.89577917345116,-98.3413823698882
"68801","Grand Island","NE","Pier Park","South Oak Street","68803",40.915202599155506,-98.32881885210708
"68801","Grand Island","NE","Snap Fitness","217 Stolley Park Rd","not_available",40.901519775390625,-98.33763885498047
"68801","Grand Island","NE","Feel Fit","1002 N Webb Rd","68803",40.92800099999999,-98.3785833
"68803","Grand Island","NE","LOA Fitness For Women","not_available","68803",40.944049445493086,-98.38465154900386
"68803","Grand Island","NE","Anytime Fitness","3721 W 13th St Ste B","68803",40.93121,-98.38884
"68803","Grand Island","NE","Planet Fitness","3535 W 13th St","68803",40.9304695,-98.3858784
"68803","Grand Island","NE","Crossfit Heartland","2710 N Diers Ave Ste B","68803",40.949947357177734,-98.38522338867188
"68818","Aurora","NE","Penner Athletic Courts","1465-1477 U.S. Highway 34","68818",40.873027,-98.022951
"68818","Aurora","NE","jazzercise","not_available","68818",40.86435954286829,-97.99767963539905
"68836","Elm Creek","NE","Basement","not_available","68949",40.614883,-99.379906
"68845","Kearney","NE","Complete Nutrition","4116 2nd Ave","68847",40.71599197387695,-99.08443450927734
"68845","Kearney","NE","KPT Fitness","3210 10th Ave","68845",40.70823669433594,-99.0956039428711
"68845","Kearney","NE","Gold's Gym","Nester Hall S, 904 W 26th St","68845",40.701351165771484,-99.09310913085938
"68845","Kearney","NE","Kearney Crossfit","not_available","68845",40.699124,-99.119403
"68845","Kearney","NE","Holiday Inn workout room","not_available","68847",40.672017,-99.086906
"68847","Kearney","NE","Anytime Fitness","810 E 56th St Ste 2","68847",40.72889491,-99.07116908
"68847","Kearney","NE","Fitness 101","20 W 21st St","68847",40.69623947143555,-99.08267974853516
"68847","Kearney","NE","Ironside Gym","2020 Central Ave","68847",40.69611358642578,-99.08206176757812
"68847","Kearney","NE","Curves","527 E 25th St","68847",40.699913024902344,-99.07341766357422
"68850","Lexington","NE","Anytime Fitness","210 Frontier St","68850",40.74659,-99.7428
"68850","Lexington","NE","The Y (YMCA)","103 E 10th St","68850",40.78324890136719,-99.7410888671875
"68850","Lexington","NE","Orthman Community YMCA","1207 N. Grant St.","68850",40.78536694597152,-99.74032402038574
"68869","Ravenna","NE","Bnsf Swell Shop","Complex Ave.","not_available",41.02240734831463,-98.91152681851977
"68901","Hastings","NE","Anytime Fitness","1211 E South St","68901",40.58280563354492,-98.36573028564453
"68901","Hastings","NE","SRW Mind Body Performance","714 W 5th St Ste 201","68901",40.58842086791992,-98.39048767089844
"68901","Hastings","NE","First Presbyterian Church Gym","621 S Lincoln Ave, Hastings, NE 68901","68901",40.5782470703125,-98.39115142822266
"68901","Hastings","NE","fit 4 u","505 N Hastings Ave","68901",40.58817860042053,-98.39031457901001
"68901","Hastings","NE","Calisthenic Time","201 E J St","68901",40.568363189697266,-98.37957763671875
"68941","Glenvil","NE","the gym","champions","68901",40.4691008,-98.26056885
"68949","Holdrege","NE","YMCA of The Prairie","Broadway St","68949",40.449605811427745,-99.38805596125867
"69001","Mc Cook","NE","Anytime Fitness","204 Norris St","69001",40.198862,-100.626069
"69040","Palisade","NE","Palisade Gym","W County Ave","69040",40.350657,-101.109689
"69040","Palisade","NE","palisade nebraska","not_available","69040",40.34980359789812,-101.10384093771987
"69101","North Platte","NE","Health Seekers Technology","1300-1398 S Walnut St","69101",41.12223,-100.760005
"69101","North Platte","NE","Cain Athletics","not_available","69101",41.133290692338825,-100.77763034984974
"69101","North Platte","NE","Fire House Gym","908 E 7th St","69101",41.139521,-100.751544
"69101","North Platte","NE","Fitness Room","2901 S Jeffers St","69101",41.107103,-100.762761
"69101","North Platte","NE","Basic Fitness","220 W Leota St","69101",41.120304,-100.765676
"69101","North Platte","NE","Nebraska Athletic Club","1701 E 4th St","69101",41.133923455444005,-100.74347847242042
"69101","North Platte","NE","Never 2 Late Fitness","66-82 S Sheridan Ave","69101",41.134080990762946,-100.78525472112005
"69101","North Platte","NE","Anytime Fitness","310 E 5th St","69101",41.13699,-100.75998
"69101","North Platte","NE","Curves - North Platte","521 North Dewey Street","69101",41.1380074,-100.7613558
"69120","Arnold","NE","arnold fitness center","not_available","69120",41.42210388183594,-100.19339752197266
"69130","Cozad","NE","Gothenburg wellness center","20th street","69138",40.95536,-100.07159
"69140","Grant","NE","Image Total Fitness","238 Central Ave","69140",40.8417854309082,-101.72570037841797
"69153","Ogallala","NE","Just 4 You Fitness","not_available","69153",41.12471491735083,-101.7164177834122
"69201","Valentine","NE","Valentine Health and Fitness","Merritt Dam Rd, Valentine, NE 69201","69201",42.87545581386513,-100.53922226802503
"69201","Valentine","NE","Valentine Health and Fitness","573 S Merritt Dam Rd","69201",42.860931396484375,-100.55535888671875
"69341","Gering","NE","24/7 Fitness","615 S Beltline Hwy E","69361",41.852970123291016,-103.65483093261719
"69341","Gering","NE","The Warehouse","not_available","69361",41.85293722499788,-103.66597966570244
"69341","Gering","NE","YMCA","22 S Beltline Hwy W","69361",41.85207310078882,-103.66074367747558
"69361","Scottsbluff","NE","Anytime Fitness","1700 Broadway","69361",41.86341589,-103.66294
