"zip","city","state","name","address","postalCode","lat","lon"
"99501","Anchorage","AK","Elmendorf Fitness Center","9497 20th St.","99506",61.24566434536626,-149.8045716858983
"99501","Anchorage","AK","Hilton Hotel Fitness","500 West","99501",61.219273,-149.892474
"99501","Anchorage","AK","Planet Fitness","3101 Penland Pkwy","99508",61.216751140853866,-149.81932349531215
"99501","Anchorage","AK","Powerhouse Gym","202 E Northern Lights Blvd","99503",61.21424150845989,-149.87165277421548
"99501","Anchorage","AK","The Alaska Club Downtown","701 W 8th Ave Ste 100","99501",61.21481132082395,-149.89780366365676
"99501","Anchorage","AK","Muscles In Motion","802 Gambell St","99501",61.214385986328125,-149.87203979492188
"99501","Anchorage","AK","Sheraton Fitness Center","401 E 6th Ave","99501",61.21698117048121,-149.87645995289546
"99501","Anchorage","AK","Hangar 5 Crossfit","Base","not_available",61.239117932473334,-149.8339680669434
"99501","Anchorage","AK","Susitna Ridge Gym","1601 Medfra St, Anchorage, AK 99501","99501",61.205543518066406,-149.85646057128906
"99501","Anchorage","AK","Anytime Fitness","3074 Mountain View Dr","99501",61.220535999999996,-149.815374
"99501","Anchorage","AK","Marriott Gym","820 W 7th Ace","99501-3407",61.212327436943326,-149.8907827289383
"99501","Anchorage","AK","Mountain View Boys And Girls Club","315 Price St","99508",61.226259,-149.811206
"99501","Anchorage","AK","Captain Cook Athletic Club","939 W 5th Ave","99501",61.21812813143321,-149.89850160866686
"99501","Anchorage","AK","Anchorage Marriott Downtown Fitness Center","not_available","99501",61.215423,-149.898275
"99502","Anchorage","AK","Curves","1921 W Dimond Blvd","99515",61.139111,-149.915619
"99502","Anchorage","AK","The Alaska Club - Club For Women","1450 W Northern Lights Blvd","99503",61.194749623537426,-149.91110432586632
"99502","Anchorage","AK","Dietary Insights & Exercise Teachings","3360 Orbit Dr","99517",61.18998,-149.964843
"99502","Anchorage","AK","BR","not_available","99502",61.158341,-149.951923
"99502","Anchorage","AK","Katie Fi's Zumba Studio","not_available","not_available",61.15085244,-149.9291516
"99502","Anchorage","AK","The Alaska Club Express Jewel Lake","3841 W Dimond Blvd","99502",61.1377601013301,-149.9513581207193
"99502","Anchorage","AK","The Alaska Club West","1400 W Northern Lights Blvd","99503",61.194618958455244,-149.91035224290854
"99502","Anchorage","AK","Boys & Girls Club - Woodland Park","2300 W 36th Ave","99517",61.18715286254883,-149.92604064941406
"99503","Anchorage","AK","Alaska Athletics","not_available","99503",61.182998,-149.867339
"99503","Anchorage","AK","Fat Gym","611 W 32nd Ave Apt 106","99503",61.19173049926758,-149.89498901367188
"99503","Anchorage","AK","BP Fitness Center","not_available","99508",61.19222158109379,-149.86499657083579
"99503","Anchorage","AK","Rock Hard Fitness","549 W Intl Airport Rd Ste A6","99518",61.17461899999999,-149.893932
"99503","Anchorage","AK","Stroller Strides Anchorage","40th Ave. and B St. Anchorage","99503",61.184983469053236,-149.8867106437683
"99503","Anchorage","AK","Pure Barre","3700 Old Seward Hwy Ste 5","99503",61.186919152292425,-149.869524989412
"99503","Anchorage","AK","F45 Training Midtown Anchorage","4307 Arctic Boulevard","99503",61.181201,-149.896999
"99503","Anchorage","AK","Gym","Grand Duchess","99518",61.17349624633789,-149.88980102539062
"99503","Anchorage","AK","Alaska Fitness","2700 A St","99503",61.1956491,-149.884367
"99503","Anchorage","AK","Denali Cheer","4140 Ingra street","99502",61.182951,-149.867196
"99504","Anchorage","AK","Body Renew Alaska","7710 Grass Creek Rd","99504",61.208778381347656,-149.738525390625
"99504","Anchorage","AK","The Alaska Club Express","7731 E Northern Lights Blvd","99504",61.195644,-149.734517
"99504","Anchorage","AK","Elmendorf Gym","Muldoon Rd","99504",61.185199033475755,-149.7533746888546
"99505","Jber","AK","Barraks Common Room","not_available","99505",61.260056,-149.684128
"99505","Jber","AK","Arctic Warrior Combatives Academy","802 Warehouse St.","99505",61.267313720075634,-149.70715284347534
"99505","Jber","AK","Buckner Physical Fitness Center","690 Richardson Dr","99505",61.25791059697858,-149.6819058726985
"99505","Jber","AK","CMC Personal Training Studio","10901 Mausel St","99577",61.319339752197266,-149.57937622070312
"99507","Anchorage","AK","Anchorage Community YMCA","5353 Lake Otis Pkwy","99507",61.17218941058678,-149.83697623213888
"99507","Anchorage","AK","Redox CrossFit","1530 E 59th Ave","99507",61.167292,-149.853939
"99507","Anchorage","AK","The Alaska Club Summit","11001 Omalley Centre Dr Ste 102","99515",61.12103351767519,-149.86075854224714
"99507","Anchorage","AK","The Alaska Club South","10931 Omalley Centre Dr","99515",61.12173828523424,-149.859919878558
"99507","Anchorage","AK","AlaskaFit","6251 Tuttle Pl","99507",61.16410477,-149.83867163
"99507","Anchorage","AK","Rusty and the Big Guy Gym","1322 Huffman Rd","99515",61.1086,-149.857881
"99507","Anchorage","AK","Anytime Fitness","8936 Lake Otis Pkwy","99507",61.139055,-149.834201
"99507","Anchorage","AK","Southside Strength & Fitness","11901 Industry Way","99515",61.112788,-149.86101599999998
"99515","Anchorage","AK","Aurora Kids","1120 Huffman Rd","99515",61.10808649776083,-149.86208503806057
"99515","Anchorage","AK","Orangetheory Fitness","345 W 104th Ave","99515",61.12707,-149.88486
"99515","Anchorage","AK","Body Renew Alaska","10325 Old Seward Hwy","99515",61.11848200719652,-149.86546206777777
"99515","Anchorage","AK","Elite Sports Performance","801 E 82nd Ave","99518",61.1463802896381,-149.86738936378572
"99515","Anchorage","AK","Dry Land Training","not_available","99515",61.112303,-149.861766
"99515","Anchorage","AK","Bouncin' Bears","901 E Dimond Blvd","99515",61.145756000000006,-149.86592
"99515","Anchorage","AK","Dimond Athletic Club","800 E Dimond Blvd","99515",61.142368387410905,-149.8670912651064
"99518","Anchorage","AK","Turnagain Crossfit","not_available","99518",61.152517,-149.862179
"99559","Bethel","AK","Nunap Rec Center","not_available","99641",60.8963895060772,-162.45902877417933
"99577","Eagle River","AK","The Alaska Club Eagle River","12001 Business Blvd","99577",61.329020644323435,-149.5710606820503
"99577","Eagle River","AK","Body Renew Alaska","12400 Old Glenn Hwy","99577",61.332982,-149.567342
"99587","Girdwood","AK","Fitness Center @ Hotel Alyeska","Alyeska Resort","not_available",60.97050038284071,-149.0988718705699
"99603","Homer","AK","Bay Club","Kachamack Drive","not_available",59.640190000000004,-151.47806
"99610","Kasilof","AK","Peninsula Athletic Club","44045 Kalifornsky Beach Rd","99669",60.48453903198242,-151.1515350341797
"99610","Kasilof","AK","AK-49 Martial Arts","44332 Sterling Hwy","99669",60.484715,-151.068851
"99610","Kasilof","AK","Curves","not_available","99669",60.486277,-151.058532
"99611","Kenai","AK","Anytime Fitness","42115 Kalifornsky Beach Rd Ste A3","99669",60.50729,-151.16708
"99611","Kenai","AK","TFP Crossfit","35514 Kenai Spur Hwy","99669",60.495378,-151.068571
"99645","Palmer","AK","Body In Balance","not_available","99645",61.60156349516096,-149.11562713966674
"99645","Palmer","AK","Excel Gymnastcs","not_available","99654",61.58839514522811,-149.35887717466022
"99645","Palmer","AK","The Alaska Club Palmer Express","535 W Evergreen Ave","99645",61.600249,-149.126009
"99654","Wasilla","AK","The Alaska Club Wasilla","1720 E Parks Hwy","99654",61.57447993388267,-149.40766669058706
"99654","Wasilla","AK","Body Renew Alaska","1325 E Palmer Wasilla Hwy","99654",61.574676,-149.418011
"99676","Talkeetna","AK","Talkeetna fitness center","not_available","99676",62.308837,-150.09355
"99701","Fairbanks","AK","The Alaska Club","747 Old Richardson Hwy","99701",64.81839895461435,-147.69115812140782
"99701","Fairbanks","AK","Incorporate Fitness","3549 College Rd","99709",64.85579681396484,-147.80946350097656
"99701","Fairbanks","AK","Alaska Club Express","575 Riverstone Way Unit 3","99709",64.84687192015905,-147.8645507771196
"99701","Fairbanks","AK","Zumba With Phoebe at Artisan's Courtyard","not_available","99709",64.860684,-147.785733
"99701","Fairbanks","AK","Ft. Wainwright PFC","not_available","99703",64.82542400993563,-147.6408107568044
"99701","Fairbanks","AK","Curves","1550 S Cushman St","99701",64.833248,-147.717264
"99701","Fairbanks","AK","The Alaska Club Fairbanks North","150 Eagle Ave","99701",64.84527292156557,-147.70078289877097
"99701","Fairbanks","AK","Fairbanks Fit Body Bootcamp","3411 Lathrop St","99701",64.81417900000001,-147.742638
"99705","North Pole","AK","Gould's Gym","not_available","99705",64.73137830239487,-147.29072137107002
"99705","North Pole","AK","Gym","not_available","99701",64.80091924058875,-147.397080344911
"99705","North Pole","AK","North Pole Wellness Center","167","not_available",64.75384160996872,-147.35391948785113
"99705","North Pole","AK","Ivy Street Gym","2400 Dawson Rd","99705",64.75981903076172,-147.30752563476562
"99723","Barrow","AK","Piuraagvik Recreation Center","not_available","99723",71.289994,-156.756896
"99737","Delta Junction","AK","S.A.D. Fitness","5779 Willow Road","99737",64.030366,-145.506974
"99737","Delta Junction","AK","S.A.D. Fitness","31488 First St.","99731",63.972284,-145.722312
"99801","Juneau","AK","The Alaska Club Downtown","641 W Willoughby Ave Ste 210","99801",58.29982917267918,-134.4218812229447
"99801","Juneau","AK","Tongass Fitness","not_available","99801",58.287452,-134.386221
"99801","Juneau","AK","The Alaska Club","2841 Riverside Dr","99801",58.373712213691974,-134.59041417609163
"99835","Sitka","AK","Hames Gym","sj campus","99835",57.05254277369523,-135.32259204131802
"99901","Ketchikan","AK","Gateway Recreation Center","601 Schoenbar Rd","99901",55.34721589198233,-131.64108904370983
"99901","Ketchikan","AK","GET FIT STAY FIT GYM","2531 Tongass Ave","99901",55.349031000000004,-131.67678999999998
