"zip","city","state","name","address","postalCode","lat","lon"
"20105","Aldie","VA","Onelife Fitness - Brambleton","42365 Soave Drive","20148",38.9828577,-77.5370317
"20105","Aldie","VA","Kirkpatrick Farms Clubhouse/Pool","25520 Summerall Dr","20105",38.91172690810807,-77.55851905422585
"20105","Aldie","VA","Kirkpatrick Farms","Prairie Fire Sq","20105",38.918690241907484,-77.55570191685581
"20105","Aldie","VA","Willowsford Grove Community Gym","41025 Willowsford Ln","20105",38.924930572509766,-77.58479309082031
"20105","Aldie","VA","GloboGym (The Basement)","Laughter Drive","not_available",38.908493,-77.56181
"20105","Aldie","VA","K Gym","not_available","not_available",39.012508,-77.557442
"20105","Aldie","VA","Russell Fitness","not_available","20148",39.013233732680995,-77.55146590166059
"20105","Aldie","VA","HOA Gym - Martins Chase","41794 Bristow Manor Dr","20148",39.01156626732801,-77.55547713605934
"20105","Aldie","VA","Burn Boot Camp","24820 Community Corner Plz","20152",38.93092,-77.53939
"20109","Manassas","VA","The Shop Gym","9311 Wellington Rd","20110",38.75360992672192,-77.4947310614695
"20109","Manassas","VA","Retro Fitness","11714 Sudley Manor Dr","20109",38.78460032820304,-77.51829399751233
"20109","Manassas","VA","Cut The Crap Fitness","Granary Place","20136",38.745316,-77.556865
"20109","Manassas","VA","Bull Run Crossfit","9046 Hornbaker Rd Ste 101","20109",38.75970458984375,-77.533935546875
"20109","Manassas","VA","Cross Fit E Strength","7214 Nathan Ct","20109",38.800105,-77.522966
"20109","Manassas","VA","Elements Fitness","8379 Sudley Rd","20109",38.77471742981682,-77.50037938422437
"20109","Manassas","VA","Vertical Rock","10225 Nokesville Rd","20110",38.74653472492333,-77.50487451039855
"20109","Manassas","VA","Shannon's Mini [Pole] Studio","not_available","20109",38.789537,-77.520359
"20109","Manassas","VA","Crossfit Manassas","9412 Center Point Ln","20110",38.751553,-77.489313
"20109","Manassas","VA","Boys & Girls Club Carteret Branch","9501 Dean Park Ln","20110",38.742922,-77.49152099999999
"20109","Manassas","VA","Hetrick Gym","Barbados Ln","20109",38.79619815947039,-77.5069537718432
"20109","Manassas","VA","RAB Tower Of Power","10101 Roslyn Ct","20109",38.79438,-77.498367
"20109","Manassas","VA","manassas iron works","10523 Croatia Way, Manassas, VA 20109","20109",38.77878952026367,-77.5100326538086
"20109","Manassas","VA","Rosemary Ridge Gym","Rosemary","20109",38.79151930699856,-77.51538721710529
"20109","Manassas","VA","Curves","8647 Sudley Rd","20110",38.769371032714844,-77.48597717285156
"20109","Manassas","VA","All Day Fitness","8805 Sudley Rd","20110",38.765211202979245,-77.48135282620517
"20109","Manassas","VA","Alliance BJJ Academy","10884 Sudley Manor Dr","20109",38.787010192871094,-77.516357421875
"20109","Manassas","VA","Iron Lion Tribe","9430 Forestwood Ln","20110",38.766462,-77.478073
"20109","Manassas","VA","Raise The Bar","9046 Hornbaker Rd","20109",38.760262,-77.53426400000001
"20109","Manassas","VA","Brickhouse Cardio Club Manassas","9402 Center Point Ln","20110",38.751553,-77.489313
"20110","Manassas","VA","Fitness 19","10104 Dumfries Rd","20110",38.73725796592535,-77.47468338133885
"20110","Manassas","VA","LA Fitness","9946 Liberia Ave","20110",38.742171673432786,-77.45227508456475
"20110","Manassas","VA","CrossFitXTC","9705 Liberia Ave","20110",38.74589920043945,-77.44852447509766
"20110","Manassas","VA","LA Fitness","9946 Liberia Ave","not_available",38.72216527311875,-77.49008501167319
"20110","Manassas","VA","FCA Wrestling","10659 Gateway Blvd","20110",38.736259999999994,-77.518647
"20110","Manassas","VA","Gold's Gym","9705 Liberia Ave Ste 110","20110",38.74571100338574,-77.44894310277596
"20111","Manassas","VA","Anytime Fitness","8224 Spruce St","20111",38.7594836,-77.43583629999999
"20111","Manassas","VA","Unleash’d Strength","not_available","20111",38.759368,-77.435891
"20111","Manassas","VA","Ed Wins Fitness Studio LLC","8240 Rugby Rd","20111",38.790776,-77.449108
"20111","Manassas","VA","City Center Fitness Center","125 Market St","20111",38.766297555140845,-77.44418196141417
"20111","Manassas","VA","My gym","Haverhill Apartments","20111",38.76573271341498,-77.44413695724201
"20112","Manassas","VA","Anytime Fitness","5255 Waterway Dr","22025",38.60840668,-77.3591171
"20112","Manassas","VA","Insane Asylum","not_available","20112",38.67682448918936,-77.4164729635659
"20112","Manassas","VA","Snap Fitness 24/7","not_available","22193",38.673272439868434,-77.39512487161485
"20112","Manassas","VA","LA Boxing- Woodbridge","12619 Galveston Ct","20112",38.680054,-77.36495
"20112","Manassas","VA","fitness centre santika premiere dyandra hotel","Jl. Kapten maulana lubis no. 7 Medan Sumatra Utara 20112","20112",38.6518497,-77.4357739
"20115","Marshall","VA","CrossFit Warrenton","522 Fletcher Dr","20186",38.727077,-77.795705
"20115","Marshall","VA","Gold's Gym","627 Frost Ave","20186",38.71773960192719,-77.81378735205551
"20115","Marshall","VA","Tornado Hen's Gym","Jalan Serbaguna","20115",38.8360389,-77.9053182
"20115","Marshall","VA","CrossFit Bellicose","365 W Shirley Ave","20186",38.71586608886719,-77.80772399902344
"20115","Marshall","VA","Anytime Fitness","251 W Lee Hwy","20186",38.730886810110206,-77.8001868724823
"20115","Marshall","VA","Fauquier Health Wellness Center","419 Holiday Ct Ste 200","20186",38.72296933940935,-77.78273754840181
"20115","Marshall","VA","Old Town Athletic Club","361 Walker Dr","20186",38.71457648927564,-77.78237368457128
"20117","Middleburg","VA","Mold Me Fitness","7 W. Washington St","20117",38.96859,-77.735623
"20119","Catlett","VA","J&R beach body training center","not_available","20181",38.70727595061698,-77.56671359478378
"20120","Centreville","VA","Gold's Gym Chantilly VA","13621 Lee Jackson Memorial Hwy","20151",38.887389561093514,-77.41965231779102
"20120","Centreville","VA","Planet Fitness","6365 Multiplex Dr","20121",38.8271868,-77.4401057
"20120","Centreville","VA","Life Time Athletic","5900 Trinity Pkwy","20120",38.84103,-77.44079
"20120","Centreville","VA","Bent Tree Gym","Front lobby","20121",38.836854115893225,-77.4212737255572
"20120","Centreville","VA","Cub Run RECenter","4630 Stonecroft Blvd","20151",38.89031195985866,-77.46825806908397
"20120","Centreville","VA","The Women's Club","14175 Sullyfield Cir Ste 100","20151",38.8898675,-77.4366976
"20120","Centreville","VA","Planet Fitness","5053 Westfields Blvd","20120",38.868840366958935,-77.44659718332827
"20120","Centreville","VA","Brandon's Gym","not_available","22033",38.87602233886719,-77.40337371826172
"20120","Centreville","VA","The Athlete Farm Performance Co.","4425 Brookfield Corporate Dr","20151",38.8881795,-77.4384081
"20120","Centreville","VA","Primitive Fitness","14740 Flint Lee Rd Ste D","20151",38.89466094970703,-77.45478057861328
"20120","Centreville","VA","Holiday Inn Fitness Center","4335 Chantilly Shopping Center Dr","20151",38.886924164502304,-77.4431848526001
"20120","Centreville","VA","Fitness Aspects","14130 Sullyfield Cir Ste F","20151",38.894561767578125,-77.43941497802734
"20120","Centreville","VA","The nZone","14550 Lee Rd","20151",38.89087677001953,-77.4515380859375
"20120","Centreville","VA","The Perfect Workout Centreville","6101 Redwood Square Centre #308","20121",38.8306548,-77.4332141
"20120","Centreville","VA","Post Corners Fitness Center","Post Corners Trail","20120",38.840135,-77.43498265743256
"20120","Centreville","VA","Orangetheory Fitness","13063 Lee Jackson Memorial Hwy","22033",38.88003117290385,-77.39948978256885
"20120","Centreville","VA","Westfield Village","5115 Woodmere Dr","20120",38.86621721123457,-77.44335388906515
"20120","Centreville","VA","Insanity","5443 Middlebourne Ln","20120",38.847221999999995,-77.423734
"20120","Centreville","VA","Gym @ Regency Park","not_available","20121",38.837279978883274,-77.44645104588973
"20120","Centreville","VA","Fitness Together","14014 Sullyfield Cir Ste E","20151",38.89365005493164,-77.43376159667969
"20120","Centreville","VA","[gYm TiMe}","Post Corner","20120",38.84156129526325,-77.43395553471379
"20120","Centreville","VA","Avalon Fair Lakes Fitness Center","Avalon Fair Lakes Fitness Center","22033",38.860063769404725,-77.3989951674861
"20120","Centreville","VA","Luke's Gym","13000 Prince Way","20120",38.835374,-77.463834
"20120","Centreville","VA","Fairfax Co. CPAT Facility","14725-E Flint Lee Road","20151",38.89347068284642,-77.4546928571482
"20120","Centreville","VA","Fairfax County Fire Department WelFit Center","14725-E Flint Lee Rd","not_available",38.89310073852539,-77.45442962646484
"20120","Centreville","VA","CACI Fitness Center","not_available","20151",38.87727,-77.446614
"20120","Centreville","VA","Fitness Aspects","14641 Lee Hwy Unit D-205","20121",38.83364486694336,-77.45419311523438
"20121","Centreville","VA","The Torture Dungeon ( Aka. Our Hone Gym)","not_available","20124",38.81179554690704,-77.42146427124148
"20121","Centreville","VA","Garage Gym","Rockland","20124",38.81589875485807,-77.4266817380163
"20121","Centreville","VA","Anytime Fitness","5941 Centerville Crst Ln","20121",38.83794,-77.43459
"20124","Clifton","VA","Mott Community Center - Zumba","not_available","22030",38.82903859921391,-77.36697221527822
"20132","Purcellville","VA","Anytime Fitness","120 N Maple Ave","20132",39.137491,-77.704786
"20132","Purcellville","VA","Gym At The Deuce House","500 N Maple Ave","20132",39.143524169921875,-77.69763946533203
"20132","Purcellville","VA","Hardy's gym","P90X & Team LOV2wine HQ","20180",39.28469646666667,-77.6665996
"20132","Purcellville","VA","Mix Fitness","860 E Main St","20132",39.136016,-77.70116800000001
"20132","Purcellville","VA","The Iron Room","not_available","20132",39.14167470946879,-77.696962602852
"20132","Purcellville","VA","Olympus Gym","201 N Maple Ave Unit 204","20132",39.138427,-77.706036
"20135","Bluemont","VA","Anytime Fitness","19 1st St Ste 201","22611",39.14916,-77.97464
"20136","Bristow","VA","Anytime Fitness","10350 Bristow Ctr Dr","20136",38.73328,-77.55157
"20136","Bristow","VA","Orangetheory Fitness","10295 Bristow Center Dr","20136",38.732919,-77.547678
"20136","Bristow","VA","Work Out Room","not_available","20136",38.75539779663086,-77.58724975585938
"20147","Ashburn","VA","Ashburn Village Sports Pavilion","20585 Ashburn Village Blvd","20147",39.04673327400644,-77.4724243539767
"20147","Ashburn","VA","Gold's Gym","21625 Red Rum Dr","20147",39.01561,-77.48247
"20147","Ashburn","VA","Life Time Athletic","44610 Prentice Dr","20166",39.0035429,-77.4581861
"20147","Ashburn","VA","LA Fitness","43150 BROADLANDS CENTER PLAZA Ste 138","20148",39.026077,-77.50928
"20147","Ashburn","VA","Nufit Studio","44710 Cape Ct #210","20147",39.018803999999996,-77.453304
"20147","Ashburn","VA","Studio Pinkfit","not_available","20147",39.0161361848322,-77.4556591308289
"20147","Ashburn","VA","Potomac Green Fitness Center","Casablanca Drive & Oakmont Manor Square","20147",39.0451526815703,-77.46301174163818
"20147","Ashburn","VA","Performance Edge","19277 Citrine Dr","20176",39.08267250800946,-77.49547719955444
"20147","Ashburn","VA","The Little Gym - Ashburn","43330 Junction Plz Ste 180","20147",39.0359911144958,-77.50090281592495
"20147","Ashburn","VA","Clubjump Fitness","21000 Sycolin Rd","20147",39.042598724365234,-77.5227279663086
"20147","Ashburn","VA","Voltage Fitness","not_available","20164",39.003761,-77.431673
"20147","Ashburn","VA","Phenom Sports Conditioning","21690 Red Rum Dr","20147",39.01665521303896,-77.47776618726466
"20147","Ashburn","VA","Orbital Fitness Center","21839 Atlantic blvd","20166",39.01233485647245,-77.4315459303051
"20147","Ashburn","VA","Full Out Fitness","21690 Red Rum Dr #107","20147",39.01700210571289,-77.4772720336914
"20147","Ashburn","VA","Crossfit Impavidus","21660 Red Rum Dr Ste 133","20147",39.016732920319996,-77.4797956378053
"20147","Ashburn","VA","Stank's Gym","21124 Dray Ter","20147",39.03127,-77.500516
"20147","Ashburn","VA","Black Bench Fit","21720 Red Rum Dr","20147",39.01662,-77.476362
"20147","Ashburn","VA","Verizon Gym","22001 Loudoun County Pkwy","20147",39.011207580566406,-77.47119903564453
"20147","Ashburn","VA","AOL Gym","22000 Aol Way","20166",39.0052392058534,-77.44546758362024
"20147","Ashburn","VA","Empire Fitness","43150 Broadlands Center Plz Ste 156","20148",39.02603523011653,-77.51073360443115
"20148","Ashburn","VA","Spivey's Gymanstics","23714 Overland Dr Ste 100-110","20166",38.96098709106445,-77.50170135498047
"20148","Ashburn","VA","Power Train","42680 Trade W Dr","20166",38.95443179,-77.52706927
"20148","Ashburn","VA","Southland's Gym","not_available","20166",38.985804683227606,-77.47255275299868
"20148","Ashburn","VA","Ashburn CrossFit","20937 Ashburn Rd Ste 145","20147",39.039283752441406,-77.48695373535156
"20148","Ashburn","VA","Fitness Club","Dodge Terrace","20147",39.02831,-77.487201
"20148","Ashburn","VA","Ashburn Crossfit","43150 Broadlands Center Plz Ste 168","20148",39.0276185,-77.5095413
"20148","Ashburn","VA","Fitness First","43490 Yukon Dr","20147",39.009560123345615,-77.49297169524196
"20148","Ashburn","VA","Underground Athlete","22923 Quicksilver Dr #115","20166",38.98369216918945,-77.4780502319336
"20148","Ashburn","VA","Capital MMA & Elite Fitness","23520 Overland Drive #164","20166",38.962633209755964,-77.49643569288057
"20151","Chantilly","VA","Gold's Gym","2445 Centreville Rd","20171",38.9507127,-77.4108154
"20151","Chantilly","VA","Westin Fitness Center","not_available","20171",38.95559759147679,-77.42786175816539
"20151","Chantilly","VA","Hilton Fitness Center","13869 Park Center Rd","20171",38.93242207020466,-77.42755783078712
"20151","Chantilly","VA","The Gym @ 2551-2553 Dulles View","2553 Dulles View Dr","20171",38.9493522644043,-77.42784118652344
"20151","Chantilly","VA","Fitness Center","not_available","20170",38.950866929604494,-77.42231051444564
"20151","Chantilly","VA","Anytime Fitness","14511 Lee Jackson Memorial Hwy","20151",38.9005,-77.449629
"20151","Chantilly","VA","Fitness Together - Chantilly","3914 Centreville Rd","20151",38.8960697,-77.4307978
"20151","Chantilly","VA","Gym At Hilton Dulles","Commercial Vehicle Dr","20166",38.95348575,-77.44609453333334
"20151","Chantilly","VA","UFC Gym","4090 Airline Pkwy Ste K","20151",38.901518119830996,-77.45032269776348
"20151","Chantilly","VA","COX Gym - NoVA","3080 Centreville Rd","20171",38.921443939208984,-77.41954803466797
"20151","Chantilly","VA","Residence Inn Gym","Residence Inn","20151",38.89832141851761,-77.445134318352
"20151","Chantilly","VA","Gym at Ashton Dulles Corner","Mansarde Avenue","not_available",38.95329333897337,-77.42760079469475
"20151","Chantilly","VA","Nova Dome","Murdock St","20151",38.91289338571751,-77.45868188307361
"20151","Chantilly","VA","Avion Health Club","Avion Pkwy, Chantilly, VA 20151","20151",38.90611999649865,-77.45672100282025
"20152","Chantilly","VA","Gym at Dulles Marriott","45020 Aviation Dr","20166",38.9593077,-77.4490956
"20152","Chantilly","VA","Basement Gym","25810 Commons Sq","20152",38.903465270996094,-77.51653289794922
"20152","Chantilly","VA","Pure Barre","24570 Dulles Landing Dr Unit 190","20166",38.937728634055325,-77.51980741034038
"20152","Chantilly","VA","The Little Gym Of Dulles Landing","24570 Dulles Landing Dr","20166",38.9380989074707,-77.52008056640625
"20152","Chantilly","VA","Gym","not_available","20152",38.905444511341734,-77.52960954226593
"20152","Chantilly","VA","Team TPR Spinning","Hyland Hills","20152",38.89711408816902,-77.50200877262627
"20152","Chantilly","VA","Hoop Magic","3801 Glorus Rd","20151",38.912789000000004,-77.45918499999999
"20152","Chantilly","VA","1st Time Fitness","43000 Peachock Market Plaza","20152",38.914911805884394,-77.51772880554199
"20152","Chantilly","VA","CrossFit Chantilly","4200 Lafayette Center Dr Ste N","20151",38.90424645613104,-77.47310636503543
"20155","Gainesville","VA","Life Time Athletic Gainesville","7801 Limestone Drive","20155",38.78840413560086,-77.59751602231789
"20155","Gainesville","VA","Summerset Crossing Gym","not_available","20155",38.805848370678746,-77.63766468908726
"20155","Gainesville","VA","Snap Fitness Gainesville","7641 Somerset Crossing Dr","20155",38.79325,-77.630413
"20155","Gainesville","VA","Pure Barre","13950 Promenade Commons Street, Unit B-1B","20155",38.788980237663075,-77.60742420343115
"20155","Gainesville","VA","Somerset Pointe Apartments","14701 Deming Dr","20155",38.7949667,-77.6281383
"20155","Gainesville","VA","Orangetheory Fitness","14062 Promenade Commons St","20155",38.787724,-77.606764
"20155","Gainesville","VA","Designer Fitness and Wellness Center","7937 Heritage Village Plz","20155",38.803897,-77.602673
"20155","Gainesville","VA","The Little Gym of Gainesville","7364 Atlas Walk Way","20155",38.79608491017433,-77.60917936895952
"20155","Gainesville","VA","Fitness Together","7949 Stonewall Shops Sq","20155",38.785686,-77.648831
"20155","Gainesville","VA","Next Level Fitness & Performance","6614 James Madison Hwy","20169",38.813795937512644,-77.64296394595434
"20155","Gainesville","VA","Treadclimber :D","8209 Tall Timber Dr","20155",38.77742385864258,-77.60420227050781
"20155","Gainesville","VA","Amberley Loop Gym","6701 Amberley loop","not_available",38.811005,-77.620828
"20155","Gainesville","VA","Onelife Fitness - Gainesville","7201 Heritage Village Plaza","20155",38.80230979057531,-77.6042166352272
"20155","Gainesville","VA","Dominion Valley Sports Pavillion","5350 Tournament Dr","20169",38.841746,-77.640526
"20155","Gainesville","VA","Onelife Fitness - Gainesville Express Gym","7500 Limestone Dr","20155",38.79444344,-77.6002114
"20164","Sterling","VA","Planet Fitness","22585 Fitness Ct","20166",38.991131,-77.43335309999999
"20164","Sterling","VA","Sportrock Climbing Center (SR3)","45935 Maries Rd","20166",39.0194682,-77.41224249999999
"20164","Sterling","VA","LA Fitness","21074 Dulles Town Cir","20166",39.03241859251309,-77.42236960858875
"20164","Sterling","VA","Claude Moore Recreation Center","46105 Loudoun Park Ln","20164",39.012832687382364,-77.40444281660997
"20164","Sterling","VA","Cascades Overlook Fitness Center","Trillum Square","20165",39.04130355292483,-77.3993084246472
"20164","Sterling","VA","Planet Fitness","21800 Towncenter Plaza","20164",39.0134152,-77.3730757
"20164","Sterling","VA","Gold's Gym","46262 Cranston St Ste 115B","20165",39.0344549,-77.39948
"20164","Sterling","VA","A Gyme","700-798 W Jasper Rd","20164",39.00558865,-77.41730618333334
"20164","Sterling","VA","MASE Training LLC","21592 Atlantic Blvd","20166",39.018966607611524,-77.42365608434639
"20164","Sterling","VA","Pure Barre","21435 Epicerie Plz Ste 120","20164",39.023250579833984,-77.39447784423828
"20164","Sterling","VA","Virginia Volleyball Center","45685 Oakbrook Ct","20166",39.00933573241428,-77.41810051852467
"20164","Sterling","VA","Orangetheory Fitness","20806 Edds Ln","20165",39.039869,-77.412157
"20164","Sterling","VA","Disciple MMA Academy","21620 Ridgetop Cir Ste 100","20166",39.02050057625646,-77.41135107809265
"20164","Sterling","VA","Diamond Sports Training","45685 Oakbrook Ct #110","20166",39.00918561918517,-77.4182982405205
"20164","Sterling","VA","House Of Speed","201 Davis Dr","20164",38.99357986450195,-77.41926574707031
"20164","Sterling","VA","Crossfit Sterling","45945 Center Oak Plz","20166",39.02839660644531,-77.41034698486328
"20164","Sterling","VA","Custom Fitness Concepts (CFC) - Sterling Indoors Studio boot camp","21598 Atlantic Blvd #130","20166",39.01762390136719,-77.4230728149414
"20165","Sterling","VA","Reserve at Town Center - Fitness Center","20723 Reserve Falls Ter","20165",39.04553985595703,-77.42049407958984
"20165","Sterling","VA","Custom Fitness Concepts Bootcamp- Cascades","20550 Chapin Ct","20165",39.0468864440918,-77.37251281738281
"20165","Sterling","VA","Amaiza Fitness","47276 Ox Bow Cir","20165",39.049156188964844,-77.36174011230469
"20165","Sterling","VA","Beef's House of Iron","46382 Newfield Pl","20165",39.04710388183594,-77.39448547363281
"20165","Sterling","VA","SVFD Gym","not_available","20165",39.046540788789414,-77.38153637796651
"20165","Sterling","VA","Gym @ Village at Potomac Falls","Idle Brook Terrace","not_available",39.044956,-77.423395
"20165","Sterling","VA","Washington Sports Club - Sterling","21800 Towncenter Plz","20164",39.02722869348723,-77.40309197795779
"20165","Sterling","VA","Spunk Fitness","21620 Ridgetop Circle","20164",39.02785034741658,-77.40756481894279
"20165","Sterling","VA","Fields At Cascades Gym","21100 Huntington Sq","20166",39.029246,-77.404252
"20165","Sterling","VA","UFC Gym Sterling","20921 Davenport Dr, Regal Center, Sterling, VA 20165","20165",39.036379853814125,-77.41068390927256
"20165","Sterling","VA","MAC Physical Therapy Group LLC","14 Pidgeon Hill Dr Ste 400","20165",39.03851239999999,-77.4140661
"20166","Sterling","VA","Dulles Greene Fitness Complex","2162 Astoria Cir","20170",38.968245,-77.413496
"20170","Herndon","VA","Worldgate Sport&Health","13037 Worldgate Drive","20170",38.95732309853643,-77.4011492729187
"20170","Herndon","VA","Kamp Pendleton","10780 Parkridge Blvd","20191",38.96727452499128,-77.35387370887263
"20170","Herndon","VA","YMCA of Reston","12196 Sunset Hills Rd","20190",38.95586268222919,-77.36798595850293
"20170","Herndon","VA","LA Fitness","494 ELDEN STREET","20170",38.9693407,-77.3771231
"20170","Herndon","VA","One To One Fitness","11911 Freedom Dr","20190",38.9591064453125,-77.3561782836914
"20170","Herndon","VA","Jazzercise Herndon Va","297 Sunset Park Dr","20170",38.957417,-77.37424
"20170","Herndon","VA","Plaza America Fitness Center","11730 Plaza America Dr","20190",38.953731536865234,-77.35076141357422
"20170","Herndon","VA","Deltek","2291 Wood Oak Dr","20171",38.95350188998499,-77.3986974392381
"20170","Herndon","VA","South of Market Fitness Center","1875 Explorer St","20190",38.958351135253906,-77.35987854003906
"20170","Herndon","VA","L3 Gym","11955 Freedom Dr","20190",38.95909881591797,-77.3598861694336
"20170","Herndon","VA","TITLE Boxing Club Herndon","404 Elden St","20170",38.969052000000005,-77.374211
"20170","Herndon","VA","Crossfit Reston","370 Victory Drive","20170",38.95831494472986,-77.37875451141441
"20170","Herndon","VA","Hampton Inn Fitness Center & Pool","435 Herndon Pkwy","20170",38.96006353121931,-77.37242762122614
"20170","Herndon","VA","The Gym","11937 Market St","20190",38.958303,-77.35781899999999
"20170","Herndon","VA","The Ave 24 Hour Gym","2323 Dulles Station Blvd","20171",38.957618713378906,-77.41624450683594
"20170","Herndon","VA","Freedom Gym","not_available","20190",38.9587931347436,-77.35603259689839
"20171","Herndon","VA","Pure Barre","12975 Highland Crossing Dr Ste 190","20171",38.949401,-77.395891
"20171","Herndon","VA","Beloved Yoga","12001 Sunrise Valley Dr, Reston, VA 20191","20191",38.9462834969131,-77.36083173369818
"20171","Herndon","VA","Home Gym","West Ox Rd","20171",38.92363627589509,-77.39850869981782
"20171","Herndon","VA","Sprint Reston Fitness Center","not_available","20191",38.95070544260855,-77.38099427724667
"20175","Leesburg","VA","Super Kicks Karate Leesburg","510 E. Market St., Suite G","20176",39.1107539,-77.55164220000002
"20175","Leesburg","VA","LA Fitness","1490 Classic Path Way SE","20175",39.0915650317235,-77.52630093400548
"20175","Leesburg","VA","Gold's Gym","Edwards Ferry Rd.","20176",39.11101573415533,-77.53347873687744
"20175","Leesburg","VA","LoCo CrossFit","314 South St SE","20175",39.07497223123448,-77.55220189787758
"20175","Leesburg","VA","Orangetheory Fitness","545 E Market St","20176",39.10758590698242,-77.5517807006836
"20175","Leesburg","VA","InForm Fitness Leesburg","15 N King St #103","20176",39.115893,-77.56460899999999
"20175","Leesburg","VA","Anytime Fitness","536 Fort Evans Rd NE","20176",39.10782,-77.52662
"20175","Leesburg","VA","Pure Barre","1089 Edwards Ferry Rd NE","20176",39.113475958370216,-77.53264525521689
"20175","Leesburg","VA","Potomac Station Gym","Fort Evans Road NE","20176",39.102002,-77.523986
"20175","Leesburg","VA","Douglas Community Center Gym","not_available","20175",39.10958135276301,-77.54349419206213
"20175","Leesburg","VA","CycleLuv","13 Fairfax St SE","20176",39.1081999,-77.56637
"20175","Leesburg","VA","Plumbline Training","751 Miller Dr SE","20175",39.082765,-77.556658
"20175","Leesburg","VA","My Gym","not_available","20176",39.12733302477266,-77.55174579702188
"20175","Leesburg","VA","Fitness Center","1500 E Market St","20176",39.09275436401367,-77.52405548095703
"20175","Leesburg","VA","110% FIT","700 Fieldstone Dr NE","20176",39.125762939453125,-77.5460205078125
"20176","Leesburg","VA","River Creek Fitness Center","43800 Olympic Blvd","20176",39.105411529541016,-77.48467254638672
"20176","Leesburg","VA","Fitness First Health Clubs","532 E Market St","20176",39.109346,-77.550364
"20176","Leesburg","VA","Svetness Fitness","47 Catoctin Cir SE","20175",39.106269,-77.563593
"20176","Leesburg","VA","Cycleluv","13 Fairfax St SE","20175",39.10839510667941,-77.56550918416038
"20180","Lovettsville","VA","Anytime Fitness","18 Town Sq","20180",39.27542917411935,-77.63946622610092
"20187","Warrenton","VA","Chestnut Forks Athletic Club","6379 Airlie Rd","20187",38.740239,-77.767969
"20187","Warrenton","VA","PETN 1.66 Crossfit","6649 Garland Dr #8","20187",38.75832748413086,-77.73078918457031
"20190","Reston","VA","Onelife Fitness - Reston","11445 Isaac Newton Sq S","20190",38.95215851391052,-77.33881025436858
"20190","Reston","VA","Gold's Gym","11674 Plaza America Drive","20190",38.9522877,-77.3491636
"20190","Reston","VA","Freddie RE1 Gym","1771 Business Center Dr","20190",38.947975158691406,-77.32549285888672
"20190","Reston","VA","Fitness Center","11111 Sunset Hills Rd","20190",38.9464111328125,-77.33113098144531
"20190","Reston","VA","Mercer Fitness Center","Sunrise Valley Drive","not_available",38.949751,-77.352557
"20190","Reston","VA","Active Duty Fitness Bootcamp","not_available","20194",38.9735174115338,-77.34043723467732
"20190","Reston","VA","F45 Training Reston Station","11201 Reston Station Boulevard","20190",38.949445,-77.339058
"20190","Reston","VA","Gym A La Colvin","Becontree Lake Drive","20190",38.965366,-77.325357
"20190","Reston","VA","Life Time Athletic","1757 Business Center Dr","20190",38.9531109,-77.3286734
"20190","Reston","VA","QMF Fitness","10780 Parkridge Blvd #25","20191",38.94546890258789,-77.31655883789062
"20190","Reston","VA","Marquis Fitness Center","not_available","22182",38.97481265,-77.31355692
"20191","Reston","VA","Fit For Success","11186 Harbor Court","20191",38.93765,-77.331603
"20191","Reston","VA","Fitness Center","1800 Alexander Bell Dr","20191",38.943172454833984,-77.3209228515625
"20191","Reston","VA","LA Boxing","2262-2298 Woodland Crossing","20171",38.95150765952406,-77.38425706476201
"20191","Reston","VA","CFC Bootcamp - Reston","10740 Parkridge Blvd","20191",38.942807992612614,-77.3223620149212
"20191","Reston","VA","Fitness Center","11190 Sunrise Valley Dr","20191",38.94277572631836,-77.33223724365234
"20191","Reston","VA","Koko FitClub of Herndon","2537 John Milton Dr","20171",38.926790999999994,-77.37513100000001
"20191","Reston","VA","Lady of America","2254M Hunters Woods Plz","20191",38.936421056274305,-77.36152768135071
"20194","Reston","VA","Basement Sports Reston","1386 Old Quincu Lane","20194",38.97626495361328,-77.3321304321289
"20194","Reston","VA","Koko FitClub","1424 Northpoint Village Ctr","20194",38.9799238,-77.34919049999999
"22003","Annandale","VA","Gold's Gym","6940-A Bradlick Shopping Center","22003",38.8134626493264,-77.18400835990911
"22003","Annandale","VA","GDIT Fitness Center","not_available","22042",38.860326,-77.214448
"22003","Annandale","VA","The Locker Room","not_available","22003",38.812939,-77.184384
"22003","Annandale","VA","Avant Gym","Heritage Drive","22003",38.82431233577636,-77.21638539360514
"22003","Annandale","VA","CrossFit Annandale","7861 Heritage Dr","22003",38.825023467858365,-77.21457062755408
"22003","Annandale","VA","Fairview Fitness Center","3120 Fairview Park Dr","22042",38.861488342285156,-77.21849822998047
"22003","Annandale","VA","Bootcamp","not_available","22151",38.810922,-77.183367
"22015","Burke","VA","Anytime Fitness","9529 Braddock Rd","22032",38.817127,-77.275856
"22015","Burke","VA","Onelife Fitness - Burke Gym","9250 Old Keene Mill Rd","22015",38.77778380518048,-77.26356714965277
"22015","Burke","VA","Olympus Fitness Center","10400 Premier Ct","22015",38.79797871694824,-77.30393963308238
"22015","Burke","VA","Basement Gym","5229 Capon Hill Pl","22015",38.80927826666667,-77.26532446666667
"22015","Burke","VA","Fupa-b-gone Kettlebell Studio","not_available","22015",38.78508758544922,-77.28900146484375
"22015","Burke","VA","Meatheads Delight","4889-4880 Wheatstone Dr","22032",38.815947,-77.297287
"22015","Burke","VA","YogaSix","5765 Burke Centre Pkwy Ste U","22015",38.79975509643555,-77.31854248046875
"22015","Burke","VA","Curves","6003 Burke Centre Pkwy","22015",38.78706359863281,-77.29676055908203
"22015","Burke","VA","Zumba (Steps Above)","9230 Old Keene Mill Rd","22015",38.777537,-77.26366800000001
"22015","Burke","VA","Origin Fitness, Home of CrossFit Burke","5589 Guinea Rd","22032",38.7988674,-77.2912149
"22015","Burke","VA","Fitness Together - Fairfax","5597 Guinea Rd","22032",38.79884632813594,-77.29157552763004
"22015","Burke","VA","My Gym Burke","9566 Burke Rd","22015",38.795513,-77.271851
"22025","Dumfries","VA","17 Swoll Room","not_available","22026",38.625792,-77.347865
"22026","Dumfries","VA","My Gym","not_available","22172",38.53661173941533,-77.32356654420113
"22026","Dumfries","VA","Anytime Fitness","16705 River Rdg Blvd","22191",38.58803,-77.30296
"22030","Fairfax","VA","Life Time Fitness","9602 Main St","22031",38.84484581171699,-77.27289504050586
"22030","Fairfax","VA","Planet Fitness","11001 Lee Hwy","22030",38.85210366337795,-77.32391372284266
"22030","Fairfax","VA","Xsport Fitness","11220 James Swart Cir","22030",38.85588022273172,-77.33534127473831
"22030","Fairfax","VA","Oak Marr Recreation Center","3200 Jermantown Rd","22124",38.87509632517728,-77.31436669910366
"22030","Fairfax","VA","Camden Fair Lakes Apartments","12565 Summit Manor Dr","22033",38.867558456114736,-77.38019871573226
"22030","Fairfax","VA","The RAC","4400 University Dr Stop 1G6","22030",38.83035955393124,-77.31218457024096
"22030","Fairfax","VA","Everybody Fitness Center","3903 Fair Ridge Dr Ste 203","22033",38.87593081690304,-77.37040097482698
"22030","Fairfax","VA","Ellipse Fitness Center","11842 Federalist Way","22030",38.85001754760742,-77.35462951660156
"22030","Fairfax","VA","LA Boxing","4475 Market Commons Dr","22033",38.8583860348636,-77.37680633799255
"22030","Fairfax","VA","CorePower Yoga","4211 Fairfax Corner East Avenue, Suite 210","22030",38.858699,-77.356114
"22030","Fairfax","VA","Archstone at Monument Park Gym","Oakdale Crescent CT.","22030",38.85088806779901,-77.35102223294506
"22030","Fairfax","VA","Orangetheory Fitness","10621 Braddock Rd","22032",38.82530975341797,-77.31401062011719
"22030","Fairfax","VA","World Gym","10201 Main St","22030",38.84424661561577,-77.2998239030804
"22030","Fairfax","VA","The Four Winds at Oakton Spa & Fitness Center","10308 Appalachian Circle","22124",38.87089704557585,-77.301521042228
"22030","Fairfax","VA","Stones Gym","cerromar pl","22030",38.84690523147583,-77.38090932369232
"22030","Fairfax","VA","Elms At Oakton Apartments Gym","3223 Arrowhead Cir","22030",38.871322,-77.313601
"22030","Fairfax","VA","Fairfax Square Gym","9860 Fairfax Sq","22031",38.845069885253906,-77.28608703613281
"22030","Fairfax","VA","4209 Gym","4209 Ridge Top Rd","22030",38.85231461211029,-77.34127565769393
"22030","Fairfax","VA","Magni CrossFit","3775 Pickett Rd Ste E","22031",38.848679,-77.27239
"22030","Fairfax","VA","Underground Athlete Fairfax","3150 Spring St","22031",38.867176,-77.278777
"22030","Fairfax","VA","Avalon Fair Oaks Fitness Center","12105 Polo Dr","22033",38.86225509643555,-77.36824798583984
"22031","Fairfax","VA","Gold's Gym","2982 Gallows Road","22043",38.8692457,-77.2292796
"22031","Fairfax","VA","XSport Fitness","8190 Strawberry Ln","22042",38.8726514,-77.2276631
"22031","Fairfax","VA","Halstead Gym","not_available","22031",38.87922130789293,-77.22989222892905
"22031","Fairfax","VA","Regents Park Gym","9333 Clocktower Pl","22031",38.87270888030324,-77.26834454707755
"22031","Fairfax","VA","AvMo Gym","2987 District Ave","22031",38.869763483266695,-77.23004012715884
"22031","Fairfax","VA","CorePower Yoga","8302 Hilltop Rd","22031",38.87466775004915,-77.2330230474472
"22031","Fairfax","VA","Avenir Place Gym","2679 Avenir Pl","22180",38.881417,-77.228178
"22031","Fairfax","VA","F45 Training Mosaic District","2980 District Ave","22031",38.87003,-77.231185
"22031","Fairfax","VA","2985 District Ave Gym","2985 District Ave","22031",38.86940002441406,-77.23086547851562
"22031","Fairfax","VA","Alliance Physical Therapy","8501 Arlington Blvd #110","22031",38.86671125817746,-77.23260351464971
"22031","Fairfax","VA","Bo's Basement Gym","Main St","22031",38.84304026666667,-77.28006456666667
"22031","Fairfax","VA","Kinetic Fitness Solutions","9693 Main St Ste B","22031",38.84189224243164,-77.28026580810547
"22031","Fairfax","VA","Four Seasons Racquet Club","3010 Williams Dr","22031",38.8696429398304,-77.23329052589986
"22031","Fairfax","VA","Crossfit Fairfax","2799 Merrilee Dr.","22031",38.875605153180466,-77.23370934207692
"22031","Fairfax","VA","Pex 24hr Fitness","not_available","22180",38.88234433695159,-77.23427628511398
"22031","Fairfax","VA","Student-Athlete & Adult Performance Training","3931 Pickett Rd","not_available",38.847947999999995,-77.272211
"22031","Fairfax","VA","Empower Fitness","9693 Main St","22031",38.84189224243164,-77.28026580810547
"22031","Fairfax","VA","F45 Training Fairfax Circle","9424 Fairfax Boulevard","22031",38.865385,-77.272268
"22032","Fairfax","VA","Home Gym","4890 Wheatstone Dr","22032",38.820825,-77.297997
"22033","Fairfax","VA","Pure Barre Fairfax","4201 Ridge Top Rd","22030",38.85286453658395,-77.34107732270184
"22033","Fairfax","VA","Fairfax Ridge Gym","Fairfax Ridge Road","22030",38.86228766758713,-77.3381378494997
"22033","Fairfax","VA","GD-AIS Gym","12450 Fair Lakes Cir","22033",38.86033630371094,-77.37998962402344
"22033","Fairfax","VA","Datatel Gym","4375 Fair Lakes Ct","22033",38.86235427856445,-77.376708984375
"22033","Fairfax","VA","Centerpoint Gym","4050 Legato Rd","22033",38.86601091819493,-77.3649593131579
"22033","Fairfax","VA","Penderbrook GYM","3704 Golf Trail Ln","22033",38.87354278564453,-77.35992431640625
"22033","Fairfax","VA","fitness center at the Gates of fairlakes","4511 Fair Knoll Dr","22033",38.862983,-77.387241
"22033","Fairfax","VA","CGI Federal Gym","12601 Fair Lakes Cir","22033",38.85724661585997,-77.38252477149483
"22033","Fairfax","VA","F45 Training Fairfax Farms","11881 Grand Commons Ave","22030",38.858294,-77.354688
"22033","Fairfax","VA","Pottery Barn Kids Gym","Fair Oaks Mall","22033",38.86381149286906,-77.35839891640035
"22033","Fairfax","VA","Row House","4463 Market Commons Dr","22033",38.8583279,-77.3764279
"22033","Fairfax","VA","The Basement Gym","Random Hills Rd","22030",38.855069444444446,-77.33930555555555
"22035","Fairfax","VA","The Little Gym of Fairfax","4211 Fairfax Corner Ave E","22030",38.85850747425094,-77.35636453969987
"22039","Fairfax Station","VA","Pure Barre","8921 Ox Rd Ste 20","22079",38.715513553266646,-77.26334562727152
"22039","Fairfax Station","VA","Orangetheory Fitness","9027 Silverbrook Rd","22039",38.72772164650744,-77.25791993851423
"22039","Fairfax Station","VA","Golds","not_available","22079",38.729544,-77.281696
"22039","Fairfax Station","VA","Gold's Gym","5620-A Ox Road","22039",38.8009806,-77.327415
"22041","Falls Church","VA","Gold's Gym","3505 Carlin Springs Road","22041",38.84913337860975,-77.12315708398819
"22041","Falls Church","VA","OneLife Fitness - Skyline","5115 Leesburg Pike","22041",38.8443026,-77.1187764
"22041","Falls Church","VA","Orangetheory Fitness","6341 Columbia Pike","22041",38.8359,-77.155363
"22041","Falls Church","VA","CPK Gym","5600 Columbia Pike","22041",38.85400390625,-77.12294006347656
"22041","Falls Church","VA","Wildwood Park Gym","not_available","22204",38.85253296953335,-77.11819849799684
"22041","Falls Church","VA","VA Fitness","not_available","22302",38.847171828050975,-77.11302911725214
"22041","Falls Church","VA","Michael Fit Life Gym","5617 5th Rd S","22204",38.861778,-77.12502099999999
"22041","Falls Church","VA","1800 N Beauregard St. Gym","1800 N Beauregard St","22311",38.83377456665039,-77.12255859375
"22041","Falls Church","VA","Skyline House Gym","3709 S George Mason Dr","22041",38.842262268066406,-77.11610412597656
"22041","Falls Church","VA","Skyline Towers Fitness Center","not_available","22041",38.84560647608019,-77.12178827679216
"22041","Falls Church","VA","The Body Shop","3729A Madison Ln","22041",38.8430290222168,-77.1386947631836
"22041","Falls Church","VA","Lakeside Plaza Gym","3800 Powell Ln","22041",38.84204178064475,-77.14380049479003
"22042","Falls Church","VA","Providence Recreation Center","7525 Marc Dr","22042",38.86203861932415,-77.2105190305107
"22042","Falls Church","VA","DHHQ Fitness Center","7700 Arlington Blvd","22042",38.867250538479176,-77.20920022955512
"22042","Falls Church","VA","High Pointe Gym","8063 Genea Way","22042",38.868652000000004,-77.22263199999999
"22042","Falls Church","VA","Brickhouse Cardio Club","2826 Fallfax Dr","22042",38.876007,-77.20881899999999
"22042","Falls Church","VA","CSC-Gym","3110 Fairview Park Dr","22042",38.862556,-77.217831
"22042","Falls Church","VA","FCPS Employee Fitness Center","8115 Gatehouse Rd","22042",38.868435999999996,-77.22403299999999
"22042","Falls Church","VA","6565 Gym","6565 Arlington Blvd","22042",38.87068434136444,-77.16875111498398
"22043","Falls Church","VA","Title Boxing Club Falls Church","450 North Washington Street","22046",38.8851,-77.16507
"22043","Falls Church","VA","Pure Barre","2121 N Westmoreland St","22213",38.88632369953912,-77.16210352645874
"22043","Falls Church","VA","Functional Fitness","510 W Annandale Rd","22046",38.88119586443108,-77.1738067651424
"22043","Falls Church","VA","CYCLEBAR","301 W Broad St","22046",38.8840045,-77.1742063
"22043","Falls Church","VA","Orangetheory Fitness","510 S Washington St","22046",38.87957491053072,-77.17781019768508
"22043","Falls Church","VA","CorePower Yoga","444 W Broad St, Suite L","22046",38.8860097,-77.1766989
"22043","Falls Church","VA","Towers Crescent Fitness Center","8000 Towers Crescent Dr","22182",38.91465903352766,-77.21967614712112
"22043","Falls Church","VA","Thamer's Gym","1800 Old Meadow Rd","22102",38.91749954223633,-77.21499633789062
"22043","Falls Church","VA","Longfellow Gym","not_available","22043",38.90952091250005,-77.17404163692558
"22043","Falls Church","VA","Gym Source","7501 Leesburg Pike","22043",38.90282440185547,-77.20455169677734
"22043","Falls Church","VA","1800 Tysons Fitness Center","1800 Tysons Blvd","22102",38.92247772216797,-77.22277069091797
"22043","Falls Church","VA","Jazzercise Falls Church Center","not_available","22046",38.886402000000004,-77.178765
"22043","Falls Church","VA","Olympia Boxing","1134 W Broad St","22046",38.89337921142578,-77.18701171875
"22043","Falls Church","VA","Devonshire Square Gym","Paul Edwin Terrace","22043",38.907237,-77.213649
"22043","Falls Church","VA","Crossfit Falls Church","130 W Jefferson St","22046",38.88707781614017,-77.16537574011451
"22043","Falls Church","VA","Vantage Fitness","402 W Broad St Fl 2","22046",38.885960791898015,-77.17599967770406
"22044","Falls Church","VA","Gold's Gym","6270 Arlington Blvd","22044",38.87155563450902,-77.15232565999713
"22044","Falls Church","VA","iLoveKickboxing - Falls Church, VA","6138-B Arlington Blvd","22044",38.8690814,-77.14586489999999
"22044","Falls Church","VA","woodlake towers gym","not_available","22044",38.864393042107515,-77.13644464928325
"22044","Falls Church","VA","The Jefferson Fitness Center","6166 Leesburg Pike","22044",38.864097595214844,-77.14744567871094
"22044","Falls Church","VA","Gym at Roosevelt Towers","500 Roosevelt Blvd","22044",38.876434326171875,-77.15241241455078
"22044","Falls Church","VA","Target Zone Fitness","6231 Leesburg Pike","22044",38.867655,-77.153237
"22060","Fort Belvoir","VA","LA Fitness","7867 Heneska Loop","22315",38.74289338044887,-77.16383607014578
"22060","Fort Belvoir","VA","Planet Fitness","8796 Sacramento Dr","22309",38.720733793230444,-77.12789802831117
"22060","Fort Belvoir","VA","Crossfit Lorton","7402 Lockport Pl","22079",38.71702655888878,-77.19239702226426
"22060","Fort Belvoir","VA","NVESD Fitness Center","5905 Putnam Rd","22060",38.68194580078125,-77.13934326171875
"22060","Fort Belvoir","VA","The Body Shop","1023 12th St.","22060",38.698134032588015,-77.14189565619222
"22060","Fort Belvoir","VA","Woodlawn Village Gym","8404 Boxwood Ct S","22060",38.72941970825195,-77.13066864013672
"22060","Fort Belvoir","VA","NB Gym","not_available","22060",38.72078528286652,-77.15869173471279
"22060","Fort Belvoir","VA","Graves Fitness Center","6075 Abbot Rd","22060",38.71576637113098,-77.14965215522547
"22060","Fort Belvoir","VA","Wells Field House","1810 Goethals Rd","22060",38.71471512069058,-77.14513778686523
"22060","Fort Belvoir","VA","Specker Field House","12th St., Bldg. 1182","22060",38.69742372411001,-77.14138491654738
"22066","Great Falls","VA","Gym At The Compound","not_available","22066",38.98699741934852,-77.27761408712182
"22066","Great Falls","VA","School Of Theatrical Dance","760 Walker Rd, Village Centre","22066",38.996227,-77.288394
"22066","Great Falls","VA","Great Falls Sunlighten Sauna Dealer","10135 Colvin Run Rd","22066",38.973765,-77.29777
"22066","Great Falls","VA","College Board Gym","11955 Democracy Dr","20190",38.958259830902044,-77.35994092331349
"22079","Lorton","VA","Starfit","7592 Telegraph Roas","22315",38.752945311077056,-77.1400756717056
"22079","Lorton","VA","Thompson Center Gym","6090 Kingstowne Village Pkwy","22315",38.755370055638686,-77.14973297408453
"22079","Lorton","VA","Anytime Fitness","7009 Manchester Blvd Ste E","22310",38.76553,-77.15289
"22079","Lorton","VA","KINGSTOWNE GYM","not_available","22315",38.75582994275687,-77.15006953473275
"22079","Lorton","VA","Onelife Fitness - Woodbridge","2401 Rock Bridge Court","22191",38.6282729,-77.2862381
"22079","Lorton","VA","Potomac Club Clubhouse","2180 Potomac Club Pkwy","22191",38.626570665556414,-77.28418552866712
"22079","Lorton","VA","Springhill Fitness Center","8940 Yellow Daisy Pl","22079",38.714754,-77.237105
"22079","Lorton","VA","LEC Fitness, LLC","6514 Brookleigh Way","22315",38.757165,-77.169384
"22079","Lorton","VA","Wrigleyville Gym","not_available","22152",38.762438,-77.224794
"22079","Lorton","VA","Apartment Gym","Burdon Ct, Franconia, VA 22315","22315",38.76326680765232,-77.13996363487006
"22079","Lorton","VA","Gold's Gym","7901 Gunston Woods Pl","22079",38.69468,-77.218327
"22079","Lorton","VA","LA Fitness","13060 Worth Ave","22192",38.65011855145971,-77.29602432051385
"22079","Lorton","VA","Courtyard Hotel Fitness Center","not_available","22192",38.65488704394777,-77.28489721995342
"22079","Lorton","VA","PS Business Parks Gym","7410 Alban Station","22150",38.73337268829346,-77.19814896583557
"22079","Lorton","VA","Potomac Pointe Fitness Center","not_available","22191",38.61088701613302,-77.25717064616848
"22079","Lorton","VA","Little Gym At Saratoga","not_available","22153",38.74021504304409,-77.21253728504178
"22079","Lorton","VA","Crossfit West Springfield","7608 Fullerton Rd","22153",38.743370056152344,-77.2033462524414
"22079","Lorton","VA","Virginia Baseball Club","13195 Gordon Blvd","22191",38.665436,-77.248398
"22101","Mc Lean","VA","Orangetheory Fitness","6623 Old Dominion Dr","22101",38.93097488883498,-77.17321233985317
"22101","Mc Lean","VA","mclean weight room","not_available","22101",38.924077942875876,-77.18576194360651
"22101","Mc Lean","VA","Pure Barre McLean","6825 Redmond Dr Ste E","22101",38.93375056825672,-77.18038826008416
"22101","Mc Lean","VA","Baby Bean's Body Bootcamp","6624 Old Chesterbrook Rd","22101",38.92601042324959,-77.17144005245004
"22101","Mc Lean","VA","Next Step Fitness","1300 Vincent Pl","22101",38.937258,-77.179292
"22101","Mc Lean","VA","True Fitness And Nutrition","1491 Chain Bridge Rd Ste 102","22101",38.92939758300781,-77.18151092529297
"22101","Mc Lean","VA","The Gym","not_available","22207",38.927816,-77.122424
"22102","Mc Lean","VA","Equinox Tysons Corner","8065 Leesburg Pike","22182",38.912601,-77.224865
"22102","Mc Lean","VA","F45 Training Tysons","1640 Boro Place","22102",38.92466395,-77.23271433
"22102","Mc Lean","VA","Tysons Sport&Health","8250 Greensboro Dr","22102",38.92328633177138,-77.2301691770553
"22102","Mc Lean","VA","Be Well Health Club at Valo Park","7950 Jones Branch Dr","22102",38.93227935505968,-77.21823851318742
"22102","Mc Lean","VA","Crossfit Tysons Corner","8466 Tyco Rd Ste E","22182",38.93321737074768,-77.23801579552782
"22102","Mc Lean","VA","The Fountains Gym","Jones Branch Rd.","22102",38.93160562077797,-77.22972393035889
"22102","Mc Lean","VA","Fountains At Mclean Gym","1503 Lincoln Center Ct","22102",38.93034714964715,-77.22718000377849
"22102","Mc Lean","VA","Hilton Health Club & Pool","7920 Jones Branch Dr","22102",38.92646031605939,-77.21624349139147
"22102","Mc Lean","VA","Gym at American Center","8300 Boone Blvd","22182",38.917206,-77.232175
"22102","Mc Lean","VA","جم عمارتنا","1521 Boyd Pointe Way","22182",38.930396,-77.24083900000001
"22102","Mc Lean","VA","The Rotonda Gym","8350 Greensboro Dr","22102",38.92816162109375,-77.23281860351562
"22102","Mc Lean","VA","Sheraton Premiere at Tysons Corner Gym","8661 Leesburg Pike, C-Level","22182",38.931006943144574,-77.24588640258578
"22102","Mc Lean","VA","Capital One Fitness Center","1680 Capital One Dr","22102",38.92597,-77.212138
"22102","Mc Lean","VA","Player's Edge Training Center","not_available","22102",38.918423,-77.227197
"22102","Mc Lean","VA","The Edge 2.0","8500 Tyco Rd","22182",38.9327507019043,-77.2393569946289
"22102","Mc Lean","VA","UFC Gym","1524 Spring Hill Rd","22102",38.9299789184517,-77.23632526106869
"22102","Mc Lean","VA","Hilton Worldwide Gym","7930 Jones Branch Dr, McLean, VA 22102","22102",38.92853546142578,-77.21600341796875
"22102","Mc Lean","VA","Gym At 7900 Westpark Dr","7900 Westpark Dr","22102",38.924636337424445,-77.21691873517032
"22124","Oakton","VA","Insanity Asylum","not_available","22124",38.8826087800165,-77.30857829930092
"22124","Oakton","VA","My House Fitness","2946 Chain Bridge Rd","22124",38.881168365478516,-77.3022232055664
"22124","Oakton","VA","Springfit Personal Training","3975 Fair Ridge Dr","22033",38.87255096435547,-77.36811828613281
"22134","Quantico","VA","Barber Fitness Center","2073 Barnett Ave","22134",38.51659130926291,-77.30265203346555
"22134","Quantico","VA","Russell-Knox Fitness Center","not_available","22134",38.51068320122083,-77.38921273798063
"22134","Quantico","VA","fbi national academy gym","1 Range Rd","22135",38.51079962479552,-77.30662822723389
"22134","Quantico","VA","Dungeon","2106 Rowell Rd","22134",38.50972366333008,-77.30518341064453
"22134","Quantico","VA","Ramer Hall","Gilberts Rd","22134",38.48428192245697,-77.44023147682191
"22134","Quantico","VA","MCAF Quantico ARFF Gym","5172 Cunningham Rd","22134",38.500208258628845,-77.31026530265808
"22134","Quantico","VA","RKB Gym","27130 Telegraph Rd","22134",38.510414123535156,-77.38903045654297
"22150","Springfield","VA","LA Fitness","6565 Springfield Mall","22150",38.775790255931156,-77.17507097734456
"22150","Springfield","VA","Metro Park Gym","not_available","22310",38.76892,-77.156974
"22150","Springfield","VA","Hilton Gym","not_available","22150",38.777651531614794,-77.17732141762643
"22150","Springfield","VA","Benders Bar Bells","General Washington Drive","not_available",38.794695,-77.16522
"22150","Springfield","VA","Outlaw CrossFit","6314E Gravel Ave","22310",38.77085714022724,-77.15873105276196
"22150","Springfield","VA","Kathy's Gym","Fleetside Court","not_available",38.778945,-77.15546824
"22150","Springfield","VA","Spartan Fitness Center","8000 Carbondale Way, Springfield, VA 22153","22153",38.7408332824707,-77.21714782714844
"22150","Springfield","VA","NCE gym","7500 GEOINT Dr.","22060",38.755939,-77.195123
"22150","Springfield","VA","Metro Park Fitness Center","6363 Walker Ln","22310",38.76889419555664,-77.15703582763672
"22150","Springfield","VA","Tom's Torture Factory","not_available","22201",38.756643583764095,-77.183762778114
"22150","Springfield","VA","Anytime Fitness","6400 Brandon Ave","22150",38.78042538474341,-77.18383133411406
"22151","Springfield","VA","Kazaxe","6728 Industrial Rd","22151",38.79867856376605,-77.1771288863653
"22151","Springfield","VA","Funktional Fitness","8143 Halleck Pl","22151",38.800137,-77.227588
"22151","Springfield","VA","Phoenix Fitness","8708 Morrissette Drive","22152",38.7954223,-77.2423014
"22151","Springfield","VA","NOVA Strength and Conditioning","5560 Port Royal Rd","22151",38.80122627987057,-77.2142743077493
"22151","Springfield","VA","Annandale Boys & Girls Club","6728 Commercial Dr","22151",38.79896763704273,-77.17725964177176
"22151","Springfield","VA","Every Body Fitness Center","8700 Morrissette Dr","22152",38.795464,-77.242866
"22151","Springfield","VA","Warrior Gym","5505 Cherokee Ave","22312",38.80438995361328,-77.16664123535156
"22151","Springfield","VA","Calisthenics Revolution","7950 Woodruff Court, Bay 7","22151",38.805850982666016,-77.21976470947266
"22151","Springfield","VA","Calisthenics Revolution","7950 Woodruff Ct #7","22151",38.805537,-77.21986400000003
"22152","Springfield","VA","West Springfield HS Main Gym","6100 Rolling Rd","22152",38.78512191772461,-77.24095916748047
"22152","Springfield","VA","Curves for Women","6210 Rolling Rd","22152",38.78130340576172,-77.23663330078125
"22152","Springfield","VA","Accelerated Physical Therapy","8346 Traford Ln","22152",38.781644,-77.232675
"22152","Springfield","VA","Planet Fitness","8430 Old Keene Mill Rd","22152",38.779638089142686,-77.2366739759696
"22153","Springfield","VA","Eric's Insanity Workout","Pinnacle Rock Ct.","22079",38.7193458,-77.2431998
"22153","Springfield","VA","Leo's P90x","Pinnacle Rock Ct, Lorton, VA 22079","22079",38.72741903385306,-77.24791577597088
"22153","Springfield","VA","SP8 Ball Training","7409 Lockport Pl","22079",38.717956,-77.198712
"22180","Vienna","VA","Mill Street Crossfit","Mill Street","not_available",38.90393191869294,-77.26971884002978
"22180","Vienna","VA","Schoggen Fitness Center","820 Follin Ln SE","22180",38.90371402770626,-77.24326281020035
"22180","Vienna","VA","Gridiron Basketball Court","Talisman Dr","22182",38.91832246698474,-77.26649774098618
"22180","Vienna","VA","Fitness Room","2920 Courtyard","22031",38.881506845709076,-77.22475577156473
"22180","Vienna","VA","Forak Fysique","9537 Courthouse Rd","22180",38.886486,-77.27407
"22180","Vienna","VA","Fairfax Square Gym","8045 Leesburg Pike","22182",38.91265106201172,-77.22457885742188
"22180","Vienna","VA","Golds Gym","8150 Leesburg Pike","22182",38.91634452859206,-77.22663074474096
"22180","Vienna","VA","Tysons International Plaza Fitness Center","1921 Gallows Rd","22182",38.91313177169312,-77.22715634729377
"22180","Vienna","VA","Curves","2070 Chain Bridge Rd","22182",38.917218,-77.238012
"22180","Vienna","VA","Gym at Courtyard by Marriott","1960A Chain Bridge Rd","22102",38.92023849487305,-77.22716522216797
"22180","Vienna","VA","Doonya","305 Maple Ave W","22180",38.89768981933594,-77.27085876464844
"22181","Vienna","VA","Flex n Tone","370 Maple Ave W #1","22180",38.8961465,-77.271079
"22181","Vienna","VA","Crossfit Northern Vienna","Mill St","22180",38.90682361025056,-77.26988484950976
"22181","Vienna","VA","Pure Barre","218 Maple Ave W","22180",38.8988738,-77.2677964
"22181","Vienna","VA","CrossFit Rubicon","310 Mill St NE","22180",38.9059479650667,-77.26752646910361
"22191","Woodbridge","VA","Eagles Pointe Rec Center","16387 Kramer Estate Dr","22191",38.598910496963605,-77.29921588425432
"22191","Woodbridge","VA","Wow Fit Style","13426 Occoquan Rd","22191",38.659389000000004,-77.250901
"22191","Woodbridge","VA","Port Potomac Gym","16201 Navigation Dr","22191",38.599971771240234,-77.29279327392578
"22191","Woodbridge","VA","Gym Room-Stonebridge Terrace","River Walk Way","not_available",38.63200379351264,-77.28733792211877
"22191","Woodbridge","VA","Holiday Inn Express Gym","1st Floor of Hotel","not_available",38.649403,-77.290459
"22191","Woodbridge","VA","Occoquan Bay Performance","1235 Featherstone Rd","22191",38.630023,-77.254543
"22191","Woodbridge","VA","CrossFit Unbowed","13576 Minnieville Rd","22192",38.654522,-77.310974
"22191","Woodbridge","VA","Burn Boot Camp","13817 Foulger Sq","22192",38.65498,-77.30159
"22191","Woodbridge","VA","Pure Barre","14463 Potomac Mills Rd","22192",38.6352008,-77.2938027
"22192","Woodbridge","VA","World Gym - Dale City/Woodbridge","4176 Dale Blvd","22193",38.643815061990516,-77.33571426169307
"22192","Woodbridge","VA","Orangetheory Fitness","4172 Merchant Plz","22192",38.674223376435904,-77.33391001012939
"22192","Woodbridge","VA","LA Fitness","13989 Noblewood Plz","22193",38.651971133890775,-77.31504089488618
"22192","Woodbridge","VA","Chinn Aquatics and Fitness Center","13025 Chinn Park Dr","22192",38.67060027964782,-77.33222937078321
"22192","Woodbridge","VA","Dale City Rec Center","14300 Minnieville Rd","22193",38.642183211542054,-77.34585772860905
"22192","Woodbridge","VA","Anytime Fitness","12751 Marblestone Dr","22192",38.67714,-77.35197
"22192","Woodbridge","VA","Dominion Lake Ridge Gym","3224 Ridge View Ct","22192",38.68663787841797,-77.31009674072266
"22192","Woodbridge","VA","County Center Owner's Association Clubhouse","4799 Wermuth Way","22192",38.673465,-77.350426
"22201","Arlington","VA","Gold's Gym","3910 Wilson Blvd.","22203",38.8793663,-77.1066852
"22201","Arlington","VA","MADabolic","3100 Clarendon Blvd","22201",38.886237,-77.095269
"22201","Arlington","VA","Ballston Sport&Health","4238 Wilson Blvd","22203",38.87958218367431,-77.11009858527902
"22201","Arlington","VA","Onelife Fitness-Ballston","not_available","22203",38.879578,-77.110006
"22201","Arlington","VA","CorePower Yoga","4201 Wilson Blvd Ste 140","22203",38.8808886,-77.1111602
"22201","Arlington","VA","Courtland Towers Gym","1200 N Veitch St","22201",38.88808849822775,-77.0850698859015
"22201","Arlington","VA","CorePower Yoga","1929 Clarendon Blvd","22201",38.8920025446147,-77.08125829696655
"22201","Arlington","VA","Gold's Gym","1220 N. Fillmore St., # 150","22201",38.8872923,-77.0931529
"22201","Arlington","VA","AVA Gym","4650 Washington Blvd","22201",38.88485381265816,-77.11839176998444
"22201","Arlington","VA","Bodymass Gym","2000 15th St N","22201",38.890696,-77.082213
"22201","Arlington","VA","Pure Barre Arlington","1024 N Garfield St","22201",38.885969,-77.0939596
"22201","Arlington","VA","Solidcore","2311 Wilson Blvd","22201",38.89109802246094,-77.08670806884766
"22201","Arlington","VA","Randolph Towers Gym","4001 9th St N","22203",38.88189050395816,-77.10872055583496
"22201","Arlington","VA","YMCA","3422 13th St N","22201",38.88766957101958,-77.10194600367309
"22201","Arlington","VA","Xtend Barre Arlington","2008 Wilson Blvd","22201",38.892224210712,-77.08248458141276
"22201","Arlington","VA","Archstone Virginia Square Fitness Center","901 N Nelson St","22203",38.882843017578125,-77.1037368774414
"22201","Arlington","VA","Park Adams Gymnasium","2000 N Adams St","22201",38.896148681640625,-77.0892562866211
"22201","Arlington","VA","Meridian at Courthouse Fitness Room","1401 N. Scott St.","22209",38.889953334410805,-77.08143832465812
"22201","Arlington","VA","Studio Body Logic","4001 9th St N Ste 108","22203",38.881212683326694,-77.1082022874668
"22201","Arlington","VA","Hartford Building Gym","3101 Wilson Blvd","22201",38.887317,-77.094946
"22201","Arlington","VA","Gym","2039 15th St. N","22201",38.890892966261866,-77.0802095880783
"22201","Arlington","VA","Fitness Room At The Market common","2800 Clarendon Blvd","22201",38.887447357177734,-77.0920181274414
"22201","Arlington","VA","Christin Blyumin Wellness and Nutrition Coaching","3830 9th St N","22203",38.880967,-77.105797
"22201","Arlington","VA","Custom Fitness Concepts Boot Camp","Quincy Street","not_available",38.8784901112995,-77.10816295278144
"22202","Arlington","VA","LA Fitness","3550 S Clark St","22202",38.84343554196175,-77.05202135665216
"22202","Arlington","VA","F45 Training Pentagon Row","1101 South Joyce Street","22202",38.8641886,-77.0630085
"22202","Arlington","VA","Pentagon Athletic Center (PAC)","6606 Army Pentagon","22202",38.87064395037173,-77.05357647401387
"22202","Arlington","VA","Gold's Gym","2955 S. Glebe Road","22206",38.84575417357432,-77.06743381067099
"22202","Arlington","VA","Crystal Houses - Gym","1900 S Eads St","22202",38.85653666867578,-77.05429227282504
"22202","Arlington","VA","Park at Arlington Ridge - Gym","1800 26th St S","22206",38.84821701049805,-77.07456970214844
"22202","Arlington","VA","Water Park Towers Gym","1501 Crystal Dr","22202",38.86050027019292,-77.04915602368361
"22202","Arlington","VA","CH Fitness And Performance","607 S Ball St","22202",38.863784,-77.049126
"22202","Arlington","VA","River House - Gym","1600 S Joyce St","22202",38.86122572194959,-77.0649937959431
"22202","Arlington","VA","StayFit at Hyatt Regency Crystal City","2799 Jefferson Davis Hwy","22202",38.848583,-77.051581
"22202","Arlington","VA","CorePower Yoga","560 12th Street S","22202",38.86243741654823,-77.05612868070602
"22202","Arlington","VA","Pure Barre Pentagon City","520 12th St S","22202",38.862429999999996,-77.054927
"22202","Arlington","VA","Post Pentagon Row Fitness Center","1101 S Joyce St","22202",38.86367149185431,-77.06266952616602
"22202","Arlington","VA","Crystal Park Sport&Health","2231 Crystal Drive","22202",38.85382908272137,-77.04859435558319
"22202","Arlington","VA","The Gym at The Metropolitan Club","550 14th Rd S","22202",38.8604255911154,-77.05482450569808
"22202","Arlington","VA","The Concord Fitness Center and Pool (Gym)","2600 Crystal Dr","22202",38.849337831558366,-77.0515295054113
"22202","Arlington","VA","Crystal Square Gym","1515 Jefferson Davis Hwy","22202",38.85897078157401,-77.05058838522928
"22202","Arlington","VA","The Point Fitness Center","1201 S Eads St","22202",38.86245715253484,-77.0533818942548
"22202","Arlington","VA","The Gym at the Gramercy","550 14th Rd S #4","22202",38.86002731323242,-77.05551147460938
"22202","Arlington","VA","Beyond Fitness Personal Training Studio, LLC","1201 S Eads St Suite 200A","22202",38.862739,-77.053658
"22202","Arlington","VA","Caliber Sports Club","801 15th St S","22202",38.860992431640625,-77.06036376953125
"22202","Arlington","VA","Crystal City Marriott Gym","1999 Richmond Hwy","22202",38.8567743,-77.0513966
"22202","Arlington","VA","220 Gym","not_available","22202",38.85637453203694,-77.05086111723786
"22202","Arlington","VA","Eclipse Fitness Center","3650 S Glebe Rd","22202",38.8424133730722,-77.05038887503986
"22202","Arlington","VA","Pentagon Athletic Center","1411 Jefferson Davis Hwy","22202",38.86112960447982,-77.05120405386634
"22202","Arlington","VA","Eaton Sq Fitness Center","801 Four Mile Rd","22305",38.843295,-77.069236
"22202","Arlington","VA","The Gym at the Buchanan","320 23rd St S","22202",38.85327067265933,-77.05208668955945
"22203","Arlington","VA","Phoenix Fitness","5130 Wilson Blvd","22205",38.877339444784255,-77.12346563953228
"22203","Arlington","VA","Gym @ The Amelia","816 N Oakland St","22203",38.88153620866598,-77.1051322302383
"22203","Arlington","VA","Hilton Arlington Fitness Center","950 N Stafford St","22203",38.88153744887013,-77.11134195327759
"22203","Arlington","VA","Hawthorne Gym","820 N Pollard St, Arlington, VA 22203","22203",38.88066101074219,-77.10678100585938
"22203","Arlington","VA","F45 Training","3865 Wilson Blvd","22203",38.880161,-77.105845
"22203","Arlington","VA","The Gym","4401 Wilson Blvd","22203",38.88048553466797,-77.11359405517578
"22203","Arlington","VA","Ballston 880 Fitness Center","880 N Pollard St","22203",38.880960379586845,-77.10714396622447
"22203","Arlington","VA","1100 Glebe Gym","1100 N Glebe Rd","22201",38.88320350588263,-77.11798021381614
"22203","Arlington","VA","PRU Fitness Center","4350 Fairfax Dr","22203",38.88178634643555,-77.11323547363281
"22204","Arlington","VA","Orangetheory Fitness","4231 Columbia Pike","22204",38.858564,-77.10210289999999
"22204","Arlington","VA","Barcroft Sport and Fitness Center","4200 S Four Mile Run Dr","22206",38.85051684627853,-77.10176220267451
"22204","Arlington","VA","XSport Fitness","2301 Columbia Pike","22204",38.86387325581725,-77.08261549472809
"22204","Arlington","VA","Gunston Park Bubble","1401 28th St S.","22206",38.84619394441331,-77.0748489367909
"22204","Arlington","VA","Fitness First","Courthouse Rd","22204",38.86777198302103,-77.07759600371706
"22204","Arlington","VA","First Priority Fitness @ Evolve All Studio","940 S George Mason Dr","22204",38.85939730451662,-77.10266158890882
"22204","Arlington","VA","Torture Chamber Fitness Room","2400 S Glebe Rd","22206",38.848499893567045,-77.08181432671569
"22204","Arlington","VA","Gym @ Dolley Madison Towers","2300 24th Rd S","22206",38.84920576595355,-77.07899739702351
"22204","Arlington","VA","Speedo Ready Fitness Center","not_available","22206",38.847464,-77.076962
"22204","Arlington","VA","Columbia Crossing Fitness Center","1957 Columbia Pike","22204",38.86569902494184,-77.07876509793618
"22205","Arlington","VA","Avalon Gym","2105 N Glebe Rd","22207",38.89622116088867,-77.1218490600586
"22206","Arlington","VA","XSport Fitness","4300 King St","22302",38.8371835,-77.1033935
"22206","Arlington","VA","Shirlington House Apartments","4201 31st St S","22206",38.838519887032646,-77.0900964041397
"22206","Arlington","VA","Fairlington Community Center","3308 S Stafford St","22206",38.83460302221185,-77.0872013495044
"22206","Arlington","VA","Edge Fitness","2700 S Quincy St","22206",38.84115982055664,-77.08692932128906
"22206","Arlington","VA","Orangetheory Fitness","3624 King St","22302",38.828208000000004,-77.091727
"22206","Arlington","VA","The Lab","1225 Martha Custis Dr","22302",38.842384338378906,-77.080078125
"22206","Arlington","VA","E60 Fitness","3464 Berkeley Street","22302",38.84124523492293,-77.10760831832886
"22206","Arlington","VA","Saffron Studios","2900 S Quincy St","22206",38.839759826660156,-77.08761596679688
"22206","Arlington","VA","CrossFit Adaptation","4144 S Four Mile Run Dr","22206",38.848509277324304,-77.09839153605009
"22206","Arlington","VA","Community Gym at Arlington Sqaure","2350 26th Ct S","22206",38.84617797883039,-77.0749424458715
"22206","Arlington","VA","Palazzo Gym","strutfield ln","22311",38.83537593406913,-77.10599952520262
"22206","Arlington","VA","Alexander Apts Gym","4390 King St","22302",38.83869490015485,-77.10494423247953
"22206","Arlington","VA","Werq Out!","not_available","22304",38.82849396844216,-77.1130909263838
"22207","Arlington","VA","Colonial Place Gym","2107 Wilson Blvd","22201",38.8926813739238,-77.0850150626706
"22207","Arlington","VA","Five Rings Fitness","6218 30th St N","22207",38.898918,-77.153527
"22207","Arlington","VA","Curves","2609-11 Mount Vernon Ave","22301",38.896820609720855,-77.10548254451952
"22207","Arlington","VA","Fitness Center @ Avalon Courthouse Place","1320 N Veitch St","22201",38.88884353637695,-77.08545684814453
"22207","Arlington","VA","Jazzercise!","200 N Glebe Rd","22201",38.886208120502985,-77.08554344864076
"22207","Arlington","VA","The Gym at the Clarendon","1200 N Herndon St","22201",38.88749462869435,-77.09673849007626
"22207","Arlington","VA","Club V - Fitness by Vornado","2300 Clarendon Blvd","22201",38.89006042480469,-77.08680725097656
"22207","Arlington","VA","Neighborhood Barre Arlington","1148 N Irving Street","22201",38.8868368392376,-77.09755629133213
"22209","Arlington","VA","Gold's Gym","1830 North Nash Street","22209",38.89620519935244,-77.07324430351946
"22209","Arlington","VA","Le Meridien Gym","1121 19th St N","22209",38.897072917236706,-77.06996024973571
"22209","Arlington","VA","Anytime Fitness","1919 North Lynn Street","22209",38.8976477,-77.0705536
"22209","Arlington","VA","London House Gym","1001 Wilson Blvd","22209",38.89460189071479,-77.06885554038061
"22209","Arlington","VA","The Gym At WJLA/NC8/CIRCA","1100 Wilson Blvd, Arlington, VA 22209","22209",38.89458084106445,-77.06997680664062
"22209","Arlington","VA","KICK fitness","1510 Clarendon Blvd","22209",38.89365,-77.074056
"22209","Arlington","VA","1800 Wilson Gym","1800 Wilson Blvd","22201",38.89300410636234,-77.07893743698877
"22209","Arlington","VA","Courtyard Marriott Gym","not_available","22209",38.893688,-77.075143
"22209","Arlington","VA","Parc Rosslyn Gym","1531 N Pierce St","22209",38.89199693344603,-77.07633029929221
"22209","Arlington","VA","River Place Gym","1020 Arlington Boulevard","22209",38.89177090815051,-77.06889733185291
"22209","Arlington","VA","Hyatt workout room","1325 Wilson Blvd","22209",38.895103454589844,-77.07276916503906
"22209","Arlington","VA","Glenborough Gym","1525 Wilson Blvd","22209",38.895198,-77.075347
"22209","Arlington","VA","Commonwealth Tower Gym","1350 Wilson Blvd.","22209",38.89483583506159,-77.07226186717197
"22209","Arlington","VA","The Atrium Gym","1530 Key Blvd","22209",38.89673963888892,-77.07660493124246
"22209","Arlington","VA","The Wooster Mercer Lofts Gym","1600 Clarendon Blvd","22209",38.89301,-77.076973
"22301","Alexandria","VA","YMCA Alexandria","420 E Monroe Ave","22301",38.82103446656629,-77.05416389692283
"22301","Alexandria","VA","Xtend Barre Old Town","1701 Duke St Ste 160, Entrance located on Reinekers St","22314",38.80508195947702,-77.05975550236158
"22301","Alexandria","VA","The Porter Del Ray Gym","625 E Monroe Ave","22301",38.820272,-77.051032
"22301","Alexandria","VA","ASIS Gym","Prince St","22314",38.80521669512546,-77.05758474612806
"22301","Alexandria","VA","Charles Houston Recreation Center","901 Wythe St","22314",38.81291608348191,-77.0483756026024
"22301","Alexandria","VA","Orangetheory Fitness","1101 King St","22314",38.805688476736954,-77.05162482626741
"22301","Alexandria","VA","Fitness Center at The Calvert","The Calvert","not_available",38.832094,-77.052247
"22301","Alexandria","VA","Snap Fitness","1315 King St","22314",38.80600792499156,-77.0541822953997
"22301","Alexandria","VA","Outlaw CrossFit","727 N Henry St","22314",38.81354438626002,-77.05262076534692
"22301","Alexandria","VA","Pilates Pro Works","1103 Queen St, 2nd Floor","22314",38.8081671,-77.0509993
"22301","Alexandria","VA","Hilton Alexandria Old Town Gym","1767 King St","22314",38.80724316100592,-77.05946234811483
"22301","Alexandria","VA","Foundation Fitness","2305 Mount Vernon Ave","22301",38.826451846460046,-77.05867691391977
"22301","Alexandria","VA","Gym @ Colecroft Station","not_available","22314",38.81226606395567,-77.05399248600985
"22301","Alexandria","VA","W. Abingdon Fitness Center","not_available","22305",38.822138,-77.050184
"22301","Alexandria","VA","Crossfit Trident","2504 Oakville St","22301",38.82900423944664,-77.05144756234618
"22301","Alexandria","VA","Monarch Fitness Ctr.","525 N Fayette St","22314",38.810522,-77.050876
"22302","Alexandria","VA","PAC ""The Gym""","4800 Mark Center Dr","22350",38.829612731933594,-77.1177978515625
"22302","Alexandria","VA","Chinquapin Park Recreation Center","3210 King St","22302",38.823636224251246,-77.08293006898862
"22302","Alexandria","VA","Hilton Alexandria Mark Center Fitness Center","5000 Seminary Rd","22311",38.832636019239615,-77.11780794348756
"22302","Alexandria","VA","The Gym at Foxchase","Howard","not_available",38.81519250316017,-77.11003695518967
"22302","Alexandria","VA","IDA Gym","4850 Mark Center Dr, Alexandria, VA 22311","22311",38.83008575439453,-77.1190414428711
"22302","Alexandria","VA","CNA Fitness Center","not_available","22311",38.829976989332636,-77.11586668540582
"22303","Alexandria","VA","Orangetheory Fitness","2381 Eisenhower Ave","22314",38.801455,-77.069147
"22303","Alexandria","VA","Hoffman Gym","2461 Eisenhower Ave","22331",38.801909,-77.07224000000001
"22303","Alexandria","VA","UFC Gym Alexandria In Onelife Fitness","305 Hooffs Run Dr","22314",38.799241,-77.063335
"22303","Alexandria","VA","Meridian at Eisenhower","2351 Eisenhower Ave","22314",38.8011732,-77.0691864
"22303","Alexandria","VA","Huntington Club Gym","not_available","22303",38.796445,-77.077532
"22303","Alexandria","VA","Riverside Gym","5860 Cameron Run Ter","22303",38.7922277,-77.0628164
"22303","Alexandria","VA","Carlyle Mill Workout Center","2201 Mill Rd","22314",38.79949374306371,-77.06687877737343
"22303","Alexandria","VA","Alexan Carlyle Gym","800 John Carlyle St","22314",38.79823104363068,-77.06237338146734
"22303","Alexandria","VA","Pure Barre Alexandria","429 John Carlyle St","22314",38.80272931122535,-77.06197108569847
"22303","Alexandria","VA","Parc Meridian - Gym","750 Port St","22314",38.80019760131836,-77.06846618652344
"22303","Alexandria","VA","Meridian at Carlyle Pool","401 Holland Ln","22314",38.802837440188284,-77.06010319958459
"22303","Alexandria","VA","Carlyle Place Fitness Center","2251 Eisenhower Ave","22314",38.801367,-77.068005
"22303","Alexandria","VA","PCS Fitness Center","501 Holland Ln","22314",38.80192565917969,-77.06045532226562
"22303","Alexandria","VA","Montebello Zumba Class","5905 Mount Eagle Dr","22303",38.78879928588867,-77.06990814208984
"22303","Alexandria","VA","Holiday inn fitness room","6055 Richmond Hwy, Alexandria, VA 22307","22307",38.7855224609375,-77.068603515625
"22303","Alexandria","VA","Riverside Apartments- Tower 3 Gym","5840 Cameron Run Ter","22303",38.793821114339856,-77.06123577868662
"22303","Alexandria","VA","Gym @ Residence Inn","2345 Mill Road, 2345 Mill Rd,","22314",38.80277633666992,-77.06751251220703
"22303","Alexandria","VA","The Perfect Workout Alexandria","5904 Richmond Hwy, 515","22306",38.7927726,-77.0602641
"22303","Alexandria","VA","Montebello Gym","Mt Eagle Drive","22303",38.788793,-77.070091
"22303","Alexandria","VA","Gym @ Huntington Gardens","2831 Fairhaven Ave","22303",38.787461,-77.080803
"22304","Alexandria","VA","LA Fitness","6200 Little River Tpke","22312",38.818958139972274,-77.14027161010426
"22304","Alexandria","VA","Sportrock Climbing Center (SR2)","5308 Eisenhower Ave. Alexandria, VA","22304",38.800983,-77.1259918
"22304","Alexandria","VA","Gold's Gym","255 South Van Dorn St","22304",38.8119656,-77.1334102
"22304","Alexandria","VA","Olympus Gym","6301 Stevenson Ave","22304",38.813747,-77.139964
"22304","Alexandria","VA","Hot House Fitness","5300 Navaho Dr","22312",38.832302541359795,-77.12864628414714
"22304","Alexandria","VA","Gym At The Strand","South Whiting Street","22304",38.81213580624487,-77.1387219583178
"22304","Alexandria","VA","Gym @ LPT","Duke Street","not_available",38.814579248428345,-77.12366
"22304","Alexandria","VA","Cameron Run Fitness Room","3601 Eisenhower Ave","22304",38.80429458618164,-77.0924072265625
"22304","Alexandria","VA","Fo Fitness","4819A Eisenhower Ave","22304",38.80395832865584,-77.11719297237072
"22304","Alexandria","VA","Cameron Club Gym","200 Cameron Station Blvd","22304",38.80873113436362,-77.11851145983941
"22304","Alexandria","VA","400 Gym","400 Cameron Station Blvd","22304",38.805838,-77.125262
"22304","Alexandria","VA","Alexandria Knolls Gym","6101 Edsall Rd","22304",38.808612630505216,-77.13794122860332
"22304","Alexandria","VA","iLoveKickboxing - Alexandria, VA","660 South Pickett Street","22304",38.8037447,-77.1325766
"22304","Alexandria","VA","Mark Center Club","5700-5798 Merton Ct","22311",38.829219,-77.127592
"22304","Alexandria","VA","BarCusi Gym","BarCusi 801","22304",38.810258,-77.127698
"22305","Alexandria","VA","Camden fitness center","3535 S Ball St","22202",38.84353256225586,-77.05076599121094
"22305","Alexandria","VA","Aspen Apartments Gym","3201 Landover St","22305",38.83369591079625,-77.06240866265058
"22306","Alexandria","VA","Lee District RECenter","6601 Telegraph Rd","22310",38.774014505607795,-77.10686106955728
"22306","Alexandria","VA","Capital MMA & Elite Fitness","6301A Richmond Highway","22306",38.78037643261805,-77.0764930441461
"22306","Alexandria","VA","Anytime Fitness","6090 Rose Hill Dr","22310",38.7857151,-77.1225177
"22306","Alexandria","VA","Pure Barre Kingstowne","5680 King Centre Dr Ste 100","22315",38.771675522086234,-77.13293105272659
"22306","Alexandria","VA","Mount Vernon Athletic Club","7950 Audubon Ave","22306",38.742058593027195,-77.09154432453742
"22306","Alexandria","VA","Snyder Fitness Center","6540 S. Van Dorn","22310",38.772344583157285,-77.13621092048956
"22306","Alexandria","VA","Pretty Lady Pole Fit","7702E Richmond Hwy","22306",38.74924734911831,-77.0851159942912
"22306","Alexandria","VA","Snap Fitness","1640 Belle View Blvd","22307",38.77563066234091,-77.0613742349625
"22306","Alexandria","VA","Mount Vernon Sq Gym","7513 Arlington Dr","not_available",38.75540175554054,-77.07908547273358
"22306","Alexandria","VA","CPA Gym","not_available","22308",38.74693,-77.05809
"22306","Alexandria","VA","Jungle's Gym Kingstowne","5825 Barclay Dr","22315",38.76721256141263,-77.13471903252265
"22306","Alexandria","VA","FIT PROOF","3916 Woodhue Pl","22309",38.740408,-77.09666800000001
"22306","Alexandria","VA","Curves","1506 Belle View Blvd","22307",38.775551349888545,-77.05992193748882
"22307","Alexandria","VA","Thornton Gym","750 Thornton Way","22314",38.792414,-77.05108
"22309","Alexandria","VA","Mount Vernon CrossFit","8459 Richmond Hwy","22309",38.72559528455529,-77.11053383528197
"22310","Alexandria","VA","Orangetheory Fitness","5900 Kingstowne Towne Ctr","22315",38.771281,-77.138526
"22310","Alexandria","VA","Fitness Center","5971 Kingstowne Village Pkwy","22315",38.770686,-77.141838
"22310","Alexandria","VA","bren mar gym","6344 Beryl Rd","22312",38.80249786376953,-77.15702819824219
"22310","Alexandria","VA","Sullivan Place Gym","Vincent gate terrace","22312",38.80077686723452,-77.16097777685891
"22310","Alexandria","VA","The WorX By Maia","5402 Eisenhower Ave","22304",38.80070802355704,-77.12745726006746
"22310","Alexandria","VA","S.M.A.R.T. Training","6007 Archstone Way","22310",38.793861389160156,-77.14155578613281
"22310","Alexandria","VA","Edgemoore Gym","The Edgemoore","22315",38.763785816371595,-77.14684517721633
"22310","Alexandria","VA","Sensazão Dance Fitness Studio","5424 Eisenhower Ave","22304",38.800189,-77.127936
"22311","Alexandria","VA","Millbrook/Townsquare Community Gym","1459 N Beauregard St","22311",38.828613,-77.124362
"22311","Alexandria","VA","Archstone Newport Village Gym","4757 W Braddock Rd","22311",38.836761474609375,-77.10906982421875
"22311","Alexandria","VA","Northampton Place Gym","3101 Northampton Drive","not_available",38.83858881541775,-77.10517347891572
"22312","Alexandria","VA","csc gym","6101 Stevenson Ave, Alexandria, VA 22304","22304",38.81331253051758,-77.1385498046875
"22312","Alexandria","VA","Gerk's Gym","6494 King Louis Dr","22312",38.821036,-77.14832
"22312","Alexandria","VA","Whitehead Fitness, LLC","6352 Wingate St","22312",38.823606,-77.147571
"22312","Alexandria","VA","Sentinel of Landmark Gym","6300 Stevenson Ave","22304",38.813390195050914,-77.14090179503039
"22312","Alexandria","VA","CSC (Stevenson)","6101 Stevenson Ave","22304",38.81306416132518,-77.13910973418153
"22314","Alexandria","VA","Old Town Sport&Health","209 Madison Street","22314",38.8125892,-77.0405516
"22314","Alexandria","VA","Old Town West","500 S Alfred St","22314",38.800737883008885,-77.05040216445923
"22314","Alexandria","VA","F45 Training Old Town Alexandria","901 N Washington St","22314",38.814274,-77.044871
"22314","Alexandria","VA","FitOne Studio","319 Cameron St","22314",38.805962,-77.04304499999999
"22314","Alexandria","VA","Row House","917 N St Asaph Street","22314",38.8141521,-77.0436603
"22314","Alexandria","VA","FitOne Studio","814 N Saint Asaph St","22314",38.81314072322119,-77.04403029127292
"22314","Alexandria","VA","Mason Hall Fitness Center","1420 W Abingdon Dr","22314",38.820638,-77.04493599999999
"22401","Fredericksburg","VA","Planet Fitness","1257 Jefferson Davis Hwy","22401",38.306029232254346,-77.48258774629409
"22401","Fredericksburg","VA","Bodyworks Downtown Athletic Club","1027 Caroline St","22401",38.30456158535168,-77.46017580619815
"22401","Fredericksburg","VA","FPD Gym","2200 Cowan Blvd","22401",38.303315999999995,-77.488907
"22401","Fredericksburg","VA","Powerhouse Wrestling Academy","24 Synan Rd Ste 115","22405",38.32244110107422,-77.44756317138672
"22401","Fredericksburg","VA","One Body Training","964 Bragg Rd","22407",38.291574866100916,-77.51867474584122
"22401","Fredericksburg","VA","Fitness Stop","4129 Plank Rd","22407",38.2908935546875,-77.53192138671875
"22401","Fredericksburg","VA","Curves","Hope Rd","22554",38.289706998183746,-77.52691639577732
"22401","Fredericksburg","VA","Residences at Belmont Gym and Sauna","2520 Belmont Ter","22401",38.305878,-77.49109
"22401","Fredericksburg","VA","YMCA","212 Butler Rd","22405",38.31681671105591,-77.45561465608296
"22401","Fredericksburg","VA","Greenbrier Gym","1 Greenbrier Dr","22401",38.292142999999996,-77.482229
"22401","Fredericksburg","VA","Zumba with Jax","12140 Amos Ln","22407",38.29186501594055,-77.51985401856196
"22405","Fredericksburg","VA","Anytime Fitness","27 S Gateway Dr","22406",38.34542,-77.49261
"22405","Fredericksburg","VA","USA All Star Cheer And Dance","not_available","22405",38.38629895455204,-77.44159869022134
"22405","Fredericksburg","VA","WOWY","4 Fletcher Dr","22406",38.366347999999995,-77.499623
"22405","Fredericksburg","VA","The Cave MMA","1504 Interstate Business Park","22405",38.337078280137725,-77.4825442912738
"22405","Fredericksburg","VA","Fitness 1440","not_available","22406",38.31718053964083,-77.43795088388322
"22406","Fredericksburg","VA","Coach Hidza Hiller","11 Catherine Ln","22554",38.45793235114198,-77.4556490778923
"22406","Fredericksburg","VA","Geico Gym","1 Geico Blvd, Fredericksburg, VA 22406","22406",38.362220764160156,-77.52433013916016
"22406","Fredericksburg","VA","YMCA @GES","177 Choptank Rd","22556",38.470959,-77.480891
"22406","Fredericksburg","VA","Anytime Fitness","25 Tech Pkwy","22556",38.480215,-77.474616
"22407","Fredericksburg","VA","Orangetheory Fitness","10002 Southpoint Pkwy","22407",38.237427000000004,-77.505983
"22407","Fredericksburg","VA","Brittany Commons Gym","10236-10256 Brittany Commons Blvd","22553",38.230537604143244,-77.53459253503262
"22407","Fredericksburg","VA","Banana Burpees Gym","Enchanted Ct.","22407",38.289747,-77.573152
"22407","Fredericksburg","VA","Koko Fitclub","10040 Jefferson Davis Hwy #112","22407",38.22455,-77.50679000000001
"22407","Fredericksburg","VA","Rare CrossFit","220 Industrial Dr","22408",38.25931622321345,-77.50480643889767
"22407","Fredericksburg","VA","Travelling Trainers","4143 Plank Rd","22407",38.291064,-77.534133
"22407","Fredericksburg","VA","M2 Fitness","9811 Jefferson Davis Hwy","22407",38.223743,-77.50410500000001
"22407","Fredericksburg","VA","Kings Basement Gym","not_available","22407",38.275179888888886,-77.56811176666666
"22407","Fredericksburg","VA","The Little Gym","4272 Plank Rd","22407",38.28698,-77.53638199999999
"22407","Fredericksburg","VA","Polar Fitness","4971 Quality Dr","22408",38.262344,-77.505934
"22407","Fredericksburg","VA","Anytime Fitness","7501 Graham St","22553",38.205147,-77.59254
"22407","Fredericksburg","VA","Home gym","10709 Bradford St, Spotsylvania, VA 22553","22553",38.253910064697266,-77.55850982666016
"22407","Fredericksburg","VA","Koko FitClub","5629 Plank Rd Ste 107","22407",38.291838,-77.565662
"22407","Fredericksburg","VA","Snap Fitness","5749 Plank Rd","22407",38.293476,-77.568711
"22408","Fredericksburg","VA","Burn Boot Camp","10013 Jefferson Davis Hwy","22407",38.22284,-77.50591
"22448","Dahlgren","VA","NSWC Dahlgren Gym","not_available","22448",38.329493341678585,-77.04093239841663
"22482","Kilmarnock","VA","Northern Neck Family YMCA","39 William B Graham Ct","22482",37.7031364440918,-76.38934326171875
"22485","King George","VA","King George Family YMCA","10545 Kings Hwy","22485",38.25531102215637,-77.16284960254688
"22485","King George","VA","YMCA","10447-10599 Kings Hwy","22485",38.25525720851695,-77.16283096027104
"22485","King George","VA","Anytime Fitness","16453 Merchants Ln","22485",38.352583,-77.054581
"22485","King George","VA","BIO CrossFit","9305 Kings Hwy","22485",38.26897048950195,-77.18463134765625
"22485","King George","VA","Hopyard Clubhouse","not_available","22485",38.250507259011094,-77.24761269332672
"22546","Ruther Glen","VA","Lake Land'Or fitness center.","not_available","22546",38.01871425066989,-77.56011434933932
"22551","Spotsylvania","VA","Fisher's Fitness","214 Lake Front Dr","23117",38.085111,-77.82383399999999
"22551","Spotsylvania","VA","Raw Fitness","4416 Gentry Ln","23024",38.083913,-77.750704
"22554","Stafford","VA","Fitness Stop","not_available","22554",38.45697280257598,-77.40715565647653
"22554","Stafford","VA","Courthouse Community Center","29 Stafford Ave","22554",38.4258175458669,-77.40798518982979
"22554","Stafford","VA","Orangetheory Fitness","308 Worth Ave","22556",38.475861,-77.41855799999999
"22601","Winchester","VA","Orangetheory Fitness","2016 S Pleasant Valley Rd","22601",39.160859,-78.167156
"22601","Winchester","VA","Planet Fitness","1673 S Pleasant Valley Rd","22601",39.1674696,-78.166843
"22601","Winchester","VA","CrossFit Pure Barbell","2245 Valor Dr","22601",39.160361,-78.181857
"22601","Winchester","VA","Snap Fitness","611 W Jubal Early Dr Ste C","22601",39.171141,-78.184839
"22601","Winchester","VA","Valley Health Wellness & Fitness Center","401 Campus Blvd","22601",39.19961452855412,-78.19117930859832
"22601","Winchester","VA","Gold's Gym","Berryville Avenue","not_available",39.18384580986326,-78.14190380095076
"22601","Winchester","VA","Courtyard Gym","not_available","22603",39.191673,-78.200632
"22601","Winchester","VA","Ladies Of The Pit","128 Windy Hill Ln, Winchester, VA 22602","22602",39.15648651123047,-78.16171264648438
"22601","Winchester","VA","George Washington Hotel Fitness Center","103 E Piccadilly St","22601",39.185691833496094,-78.16293334960938
"22601","Winchester","VA","iLoveKickboxing - Winchester, VA","3051 Valley Ave","22601",39.143572,-78.191402
"22601","Winchester","VA","my gym","not_available","22602",39.14407873229971,-78.15837213810087
"22602","Winchester","VA","Shenandoah Tumblers","not_available","22655",39.10727154759737,-78.19365524953879
"22602","Winchester","VA","Powerhouse Gym","201 Centre Dr #111","22655",39.08043649022074,-78.19098475962805
"22602","Winchester","VA","Body Renew Fitness & Family Sports Center","221 Commonwealth Ct","22602",39.12523760636913,-78.18895630492493
"22602","Winchester","VA","Sherando Family Fitness Club","201 Centre Dr Ste 111","22655",39.08030365083829,-78.19099509513705
"22602","Winchester","VA","Anytime Fitness","640 Warrior Dr","22655",39.09043,-78.17984
"22602","Winchester","VA","Anytime Fitness","208 Grocery Ave.","22602",39.1678,-78.11947
"22602","Winchester","VA","Curves","255-1 Fairfax Pike","22655",39.08097224338035,-78.2084240052926
"22625","Cross Junction","VA","Lake Holiday Gym","1045 Lakeview Dr","22625",39.310532,-78.326639
"22630","Front Royal","VA","Anytime Fitness","70 Riverton Commons Dr.","22630",38.96329,-78.18844
"22644","Maurertown","VA","Adventure 4 Life CrossFit","14799 Back Rd","22657",39.007052,-78.426908
"22644","Maurertown","VA","Woodstock Total Fitness","not_available","22664",38.87413787841797,-78.5094223022461
"22645","Middletown","VA","Anytime Fitness","100 Founders Wy Suite 6, 7, 8","22657",39.00345,-78.3424
"22652","Fort Valley","VA","Anytime Fitness","1025 S Main St","22664",38.864814,-78.516327
"22701","Culpeper","VA","Bev LLC","16332 Norman Rd","22701",38.48312759399414,-78.10250091552734
"22701","Culpeper","VA","Gold's Gym","201 Southgate Shopping Ctr","22701",38.46360766244143,-77.99994045617906
"22701","Culpeper","VA","Anytime Fitness","767 Nalles Mill Rd","22701",38.47919,-77.97658
"22701","Culpeper","VA","Zamora Boxing Gym","15510 Montanus Dr Ste B","22701",38.48302459716797,-77.96310424804688
"22701","Culpeper","VA","Raffy's Fitness Center","1337 Stacey Ct","not_available",38.479784,-78.026374
"22701","Culpeper","VA","Powell Wellness Center","1005 Golf Dr","22701",38.459964084624495,-78.01244689487596
"22709","Aroda","VA","Anytime Fitness","46 Madison Plz Dr","22727",38.367235,-78.270309
"22712","Bealeton","VA","Snap Fitness","11083D Marsh Rd","22712",38.57929992675781,-77.7653579711914
"22733","Rapidan","VA","The Hornet Sports Center Field House","Orange County High School","22960",38.244678374721225,-78.09552347204689
"22801","Harrisonburg","VA","Fitness Center At Courtyard","not_available","22801",38.4311610585837,-78.84784995893692
"22801","Harrisonburg","VA","WellnessCenter At Vmrc","not_available","22802",38.447036565221424,-78.87696321407392
"22801","Harrisonburg","VA","crossfit harrisonburg","2511B E Market St","22801",38.418243408203125,-78.83856964111328
"22801","Harrisonburg","VA","Curves Of Dayton","not_available","22812",38.420471816738946,-78.93108657341988
"22801","Harrisonburg","VA","Mad Max's Max Profit Pig Pen","1390 Coakley Town Rd","22821",38.4494514465332,-78.96793365478516
"22801","Harrisonburg","VA","Harrisonburg Fitness","1101 W Market St","22801",38.45151195743099,-78.88671401669362
"22801","Harrisonburg","VA","Stonegate Gym","1820 Putter Ct","22801",38.42597198486328,-78.86175537109375
"22801","Harrisonburg","VA","Orangetheory Fitness","1005 Port Republic Rd","22801",38.420753479003906,-78.87079620361328
"22801","Harrisonburg","VA","Gymnasio","3330 S Main St","22801",38.40372848510742,-78.9095687866211
"22801","Harrisonburg","VA","South View Gym","1073 Lois Ln","22801",38.416359,-78.873525
"22801","Harrisonburg","VA","Urban Exchange","242 E Water St","22801",38.44816537033874,-78.86532425880432
"22801","Harrisonburg","VA","Bridgewater Family Fitness","630 N Main St","22812",38.390987396240234,-78.96522521972656
"22801","Harrisonburg","VA","Planet Fitness","1790 E Market St","22801",38.43335042605465,-78.8405373669342
"22801","Harrisonburg","VA","RMH Wellness Center","501 Stone Spring Rd","22801",38.41788400568691,-78.88588984470952
"22801","Harrisonburg","VA","Copper Beech Clubhouse","410 Copper Beech Cir","22801",38.41566126283009,-78.84872359322112
"22802","Harrisonburg","VA","Le Club Gym","not_available","22840",38.40861529684644,-78.75002017063854
"22810","Basye","VA","Creekside Fitness","2742 Fairway Dr.","22810",38.82632827758789,-78.76045227050781
"22815","Broadway","VA","Curves","not_available","22844",38.683052,-78.693876
"22827","Elkton","VA","Elkton Area Community Center","20593 Blue and Gold Dr","22827",38.406455571959384,-78.61700534820557
"22827","Elkton","VA","Grinding The Treadmill","not_available","22849",38.489662,-78.614334
"22827","Elkton","VA","WMMS Gym","Monroe Dr, Stanardsville, VA 22973","22973",38.2947578517704,-78.44402917034914
"22827","Elkton","VA","Elkton Middle School Gym","not_available","22827",38.37678418063088,-78.72422440536083
"22835","Luray","VA","Valley Health PMH Fitness Center","not_available","22835",38.6743595309189,-78.44633310062171
"22835","Luray","VA","Curves","2 E Luray Shopping Ctr","22835",38.66569519042969,-78.44676971435547
"22901","Charlottesville","VA","Boar's Head Sports Club","200 Ednam Dr","22903",38.0470305519323,-78.53951958996437
"22901","Charlottesville","VA","MSC MadHouse","780 Madison Ave","22903",38.041339015016526,-78.49469359191194
"22901","Charlottesville","VA","Snap Fitness","241 Zan Rd","22901",38.064264440339066,-78.48731678069095
"22901","Charlottesville","VA","Slaughter Recreation Center","505 Edgemont Road","22903",38.03506130497203,-78.51762629921137
"22901","Charlottesville","VA","North Grounds Recreation Center","510 Massey Rd.","22903",38.05085186291774,-78.5132292973678
"22901","Charlottesville","VA","Orangetheory Fitness","1935 Arlington Blvd","22903",38.04886043349887,-78.50519228619525
"22901","Charlottesville","VA","Memorial Gymnasium","210 Emmet Street","22903",38.037371280244244,-78.50718435171694
"22901","Charlottesville","VA","Fitness Room","not_available","22901",38.074499998207735,-78.47720075855214
"22901","Charlottesville","VA","Anytime Fitness","315 Rivanna Plaza Dr Ste 110","22901",38.090977,-78.469336
"22901","Charlottesville","VA","Boar's Head Fitness Center","not_available","22903",38.04714318556488,-78.53949041796524
"22901","Charlottesville","VA","Curves of Charlottesville","1700 Seminole Trl","22901",38.083085,-78.473934
"22901","Charlottesville","VA","Pure Barre","2200 Old Ivy Rd Ste 101","22903",38.04545405623823,-78.51578015574154
"22901","Charlottesville","VA","ACAC Adventure Central","200 Four Seasons Dr.","22901",38.08025622987737,-78.48578054281515
"22901","Charlottesville","VA","Dinsmore Top Floor","210 15th st.","not_available",38.035535,-78.499429
"22901","Charlottesville","VA","Solidarity Crossfit","770 Harris St","22903",38.036597,-78.48331800000001
"22901","Charlottesville","VA","The Little Gym of Charlottesville","2075 Bond St","22901",38.065385,-78.493043
"22901","Charlottesville","VA","CHS Gymnasium","1400 Melbourne Rd","22901",38.0539665222168,-78.47314453125
"22901","Charlottesville","VA","Gymnastium","250 Rivanwood Dr","22901",38.103486,-78.491151
"22901","Charlottesville","VA","Crossfit Charlottesville","1309 Belleview Ave #2","22901",38.03740413014121,-78.45835536718369
"22902","Charlottesville","VA","ACAC Downtown","111 Monticello Ave","22902",38.02816165834478,-78.48330059390047
"22902","Charlottesville","VA","Jefferson Ridge Apts Gym","810 Catalpa Ct","22903",38.01467929224971,-78.52433568406272
"22902","Charlottesville","VA","PVCC Gym","501 College Dr","22902",38.005393981933594,-78.48773956298828
"22902","Charlottesville","VA","Gcc Gym","not_available","22911",38.02797014009875,-78.43923793970728
"22902","Charlottesville","VA","Lakeside Fitness Center","200","22902",38.00312743232434,-78.49268935247639
"22902","Charlottesville","VA","DanceFit Studio","221 Carlton Road Suite 3","22902",38.02546144100799,-78.46914052963257
"22902","Charlottesville","VA","Anytime Fitness","1434 Rolkin Ct","22911",38.02941,-78.44112
"22902","Charlottesville","VA","Clay Fitness","233 Douglas Ave","22902",38.024845123291016,-78.47526550292969
"22902","Charlottesville","VA","The Woodlands Gym","Woodlands","22901",38.00875368382516,-78.52512396455487
"22902","Charlottesville","VA","Bad River Private Training Facility","1200 Richmond Rd, Charlottesville, VA 22911","22911",38.03445199698295,-78.45275607332248
"22902","Charlottesville","VA","Aquatic & Fitness Center","450 Whitehead Rd","22903",38.032895840871404,-78.51351825431948
"22902","Charlottesville","VA","SNL Financial Workout Room","1 Snl Plz","22902",38.03063357768377,-78.47611427307129
"22903","Charlottesville","VA","Crozet PARC YMCA","not_available","22932",38.0646585509489,-78.69441596388374
"22920","Afton","VA","Five Star Health And Fitness","7850 Rockfish Valley Hwy","22920",37.949366999999995,-78.835006
"22920","Afton","VA","YMCA","648 S Wayne Ave","22980",38.06151590213779,-78.89425179824289
"22922","Arrington","VA","Anytime Fitness","81 Callohill Dr","22949",37.753442,-78.878136
"22923","Barboursville","VA","Anytime Fitness","5924 Seminole Trl Ste 105","22923",38.19442,-78.39376
"22938","Faber","VA","Knight Gym","not_available","22938",37.86595916748047,-78.80048370361328
"22939","Fishersville","VA","Augusta Lifetime Fitness Center","not_available","22939",38.0956372131308,-78.98347972083354
"22939","Fishersville","VA","Shenendoah Powerhouse Gym","600-630 Lew Dewitt Blvd","22980",38.0833059519782,-78.94263069692306
"22939","Fishersville","VA","Anytime Fitness","20 Bobby's Way Ste 103","24401",38.10967,-78.999347
"22939","Fishersville","VA","CrossFit 3xF","1782 Jefferson Hwy","22939",38.0986213684082,-78.96832275390625
"22939","Fishersville","VA","Curves For Women","1518 Jefferson Hwy","22939",38.104841,-78.978314
"22942","Gordonsville","VA","Anytime Fitness","75 Freedom Dr","22942",37.98278,-78.20755
"22952","Lyndhurst","VA","Snap 24/7","not_available","24477",38.001608,-79.042235
"22960","Orange","VA","Anytime Fitness","12379 B James Madison Hwy","22960",38.232896999999994,-78.11242299999999
"22963","Palmyra","VA","Orme Family Fitness","727 Lake Monticello Rd","22963",37.93067178586038,-78.34750933859829
"22963","Palmyra","VA","The Harris Gym","23 Dogleg Rd","22963",37.906259000000006,-78.310986
"22963","Palmyra","VA","Anytime Fitness","68 Heritage Dr. Unit 2","22963",37.90318,-78.34191
"22963","Palmyra","VA","Home Gym","not_available","22963",37.922096,-78.319473
"22963","Palmyra","VA","Spectrum Fitness Center","109 Crofton Pl","22963",37.924092,-78.318143
"22968","Ruckersville","VA","Stanardsville Health & Fitness","72 Lambs Ln","22973",38.298091,-78.430195
"22980","Waynesboro","VA","Anytime Fitness","Lew Dewitt","not_available",38.05608236617543,-78.91317404566689
"22980","Waynesboro","VA","Planet Fitness","2604 W Main St","22980",38.0790913,-78.9235812
"23002","Amelia Court House","VA","Finally Fit Gym And Tanning","goods bridge rd","23002",37.35993491522918,-77.96014851234105
"23002","Amelia Court House","VA","Amelia Middle School Gym","not_available","23002",37.334075995274645,-77.98940862936158
"23005","Ashland","VA","Patrick Henry YMCA","217 Ashcake Rd","23005",37.74483608501102,-77.47903347996628
"23005","Ashland","VA","Rita Lynn Gilman Fastpitch Softball","12187","23059",37.735160796511025,-77.58735964007423
"23005","Ashland","VA","Shady Grove Family YMCA","11255 Nuckols Rd","23059",37.67961532060508,-77.58940221275489
"23005","Ashland","VA","Hanover Olympiad","10094 Leadbetter Pl","23005",37.695422,-77.445305
"23005","Ashland","VA","iLoveKickboxing - Glen Allen, VA","5336 Wyndham Forest Dr","23059",37.684024810791016,-77.58770751953125
"23005","Ashland","VA","Superior Fitness and Nutrition","514 N Washington Hwy Ste F","23005",37.76552963256836,-77.47188568115234
"23005","Ashland","VA","Anytime Fitness","113 Junction Drive","23005",37.754822999999995,-77.468747
"23005","Ashland","VA","Workout Time","9441 Indianfield Dr","23116",37.697413,-77.418774
"23005","Ashland","VA","Kings Charter Fitness Center","not_available","23005",37.69216700857884,-77.43615215338745
"23005","Ashland","VA","Samaritans Walk","431 England St","23005",37.75789,-77.475092
"23009","Aylett","VA","Snap Fitness","7283H Richmond Tappahannock Hwy","23009",37.773024,-77.113345
"23030","Charles City","VA","Das Jeep","not_available","23875",37.25562574,-77.2655764
"23035","Cobbs Creek","VA","Curves","6253 Buckley Hall Rd","not_available",37.48444366455078,-76.35618591308594
"23059","Glen Allen","VA","CYCLEBAR","301 Maltby Apt D","23233",37.658927,-77.637376
"23059","Glen Allen","VA","American Family Fitness","11760 W Broad St","23233",37.6594562,-77.6219691
"23059","Glen Allen","VA","Row House","12274 W. Broad Street","23233",37.6624114,-77.640335
"23059","Glen Allen","VA","Orangetheory Fitness","11819 W Broad St","23233",37.65271985938942,-77.62216226427539
"23059","Glen Allen","VA","Jumpology Trampoline Arena","10087 Brook Rd","23059",37.67184781019633,-77.45991761394085
"23059","Glen Allen","VA","CorePower Yoga","11530 W Broad St Unit 17","23233",37.65262222290039,-77.61203002929688
"23059","Glen Allen","VA","Richmond Olympiad","5500 Cox Rd Ste J","23060",37.673729055009865,-77.56771866239937
"23059","Glen Allen","VA","Carriage Homes Gym","not_available","23059",37.69356764280002,-77.61047492836758
"23059","Glen Allen","VA","American Family Fitness Virginia Center Commons","10101 Brook Rd Ste 100","23059",37.67486702895524,-77.45735574100557
"23059","Glen Allen","VA","Anytime Fitness","1070 Virginia Ctr Pkwy Ste 115","23059",37.66678,-77.4589
"23059","Glen Allen","VA","Innsbrook 5600 Fitness Center","5600 Cox Rd","23060",37.67357,-77.564125
"23059","Glen Allen","VA","knolls v fitness","not_available","23060",37.66602582728706,-77.57137033732742
"23059","Glen Allen","VA","Anytime Fitness","11740 W Broad St","23233",37.65626525878906,-77.6162338256836
"23059","Glen Allen","VA","Markel Fitness Zone","4521 Highwoods Pkwy","23060",37.661506,-77.576944
"23060","Glen Allen","VA","Planet Fitness","9703 W Broad St","23060",37.640196,-77.56392199999999
"23060","Glen Allen","VA","ACAC Short Pump","2225 Old Brick Rd","23060",37.64723397251804,-77.60067747010793
"23060","Glen Allen","VA","Kangaroo Jac's","3941 Deep Rock Rd","23233",37.642949851457445,-77.57253527036325
"23060","Glen Allen","VA","Colonial Village at West End","4008 Gaelic Ln","23060",37.64759,-77.57672099999999
"23060","Glen Allen","VA","MMS Fitness Center","9954 Mayland Dr","23233",37.64106750488281,-77.5792236328125
"23060","Glen Allen","VA","West End Crossfit","3641 Cox Rd","23233",37.64333462567945,-77.58323561972759
"23060","Glen Allen","VA","body creations","not_available","23228",37.639383801395546,-77.50909693006733
"23060","Glen Allen","VA","Phoenix Fitness & Martial Arts","3957 Deep Rock Rd","23233",37.6438674,-77.5721163
"23060","Glen Allen","VA","West Broad Village Clubhouse & Pool","not_available","23233",37.64652719003096,-77.60028598401043
"23060","Glen Allen","VA","Breckenridge Gym","4050 Gaskins Rd","23060",37.64786370800942,-77.56295223989461
"23061","Gloucester","VA","Riverside Gym","gwmh","23061",37.3154435151659,-76.68880360943295
"23061","Gloucester","VA","Crossfit Gloucester","4924 George Washington Memorial Hwy","23072",37.33960723876953,-76.52008819580078
"23061","Gloucester","VA","Middlesex Family YMCA","11487 General Puller Hwy","23071",37.551373999999996,-76.43884399999999
"23063","Goochland","VA","TourDeGoochland Training Compound","not_available","23063",37.6993293762207,-77.8991928100586
"23063","Goochland","VA","Goochland Family YMCA","1800 Dickinson Rd","23063",37.69299801921034,-77.88606979992822
"23069","Hanover","VA","That Other Gym","not_available","23116",37.676418,-77.385068
"23072","Hayes","VA","Anytime Fitness","7084 Hayes Shopping Ct","23072",37.294677,-76.513173
"23075","Henrico","VA","Building By Block Fitness","520 Eastpark Ct","23150",37.53276062011719,-77.33290100097656
"23075","Henrico","VA","Wyndham Richmond Airport Gym","not_available","23223",37.53050417798982,-77.33805933310663
"23093","Louisa","VA","Fisher's Fitness","not_available","23093",38.015078,-77.971205
"23103","Manakin Sabot","VA","Hermitage Country Club","not_available","23103",37.64864326249428,-77.69391775131226
"23103","Manakin Sabot","VA","CarMax Gym","not_available","23238",37.64052145132188,-77.67064612624192
"23103","Manakin Sabot","VA","Pure PHIT - Performance and High Intensity Training","Plaza Dr, Manakin-Sabot, VA 23103","23103",37.6732276765134,-77.68209316839476
"23109","Mathews","VA","Boys And Girls Club Mathews","Mathews, VA 23109","23109",37.437851916666666,-76.32767021656036
"23111","Mechanicsville","VA","Planet Fitness","4951 Nine Mile Rd","23223",37.543699,-77.366643
"23111","Mechanicsville","VA","Gold's Gym","7368 Bell Creek Rd","23111",37.605842706212826,-77.35323429107666
"23111","Mechanicsville","VA","American Family Fitness","6337 Mechanicsville Tpke","23111",37.614274632004495,-77.32053197421871
"23111","Mechanicsville","VA","The Little Gym of Mechanicsville","7500 - G Jackson Arch Road","not_available",37.61232767789535,-77.33001708984375
"23111","Mechanicsville","VA","Atlee Station Family YMCA","8017 Rutland Center Blvd","23116",37.65603933392237,-77.40318726584935
"23111","Mechanicsville","VA","Golds Gym Flat Bench","not_available","23111",37.60561191666667,-77.35361638333333
"23111","Mechanicsville","VA","Divine Fitness","Brashier","23111",37.637500939369886,-77.35680324283464
"23111","Mechanicsville","VA","Garage Gym","6196 Pond Grass Rd","23111",37.614200592041016,-77.30887603759766
"23111","Mechanicsville","VA","Mikes Olympic GYM","7495 Old Hickory Dr","23111",37.615574626941665,-77.34332894791618
"23111","Mechanicsville","VA","Burn & Firm","King William Park Rd","23009",37.581082083426786,-77.33052712165319
"23111","Mechanicsville","VA","Pebble Creek Exercise Room","6069 Green Haven Dr","23111",37.616009999999996,-77.305791
"23111","Mechanicsville","VA","Striano's Gym-featuring Tony Horton","7974 Colony Dr","23111",37.613478,-77.35100200000001
"23111","Mechanicsville","VA","SparkFit","6372 Mechanicsville Tnpk #112","23111",37.61649148896697,-77.32382455851453
"23111","Mechanicsville","VA","Anytime Fitness","8319 Bell Creek Rd","23111",37.636307,-77.357781
"23112","Midlothian","VA","Oxygen And Iron","208 heathsbridge way","23114",37.501555957697576,-77.63838265523792
"23112","Midlothian","VA","American Family Fitness","12900 Amfit Way","23114",37.5009439,-77.64257099999999
"23112","Midlothian","VA","YMCA","737 Coalfield Rd","23114",37.4915296943955,-77.65475618374556
"23112","Midlothian","VA","Summer Lake Gym/Pool","17040 Lake Summer Dr.","not_available",37.44296578465763,-77.72268234998944
"23112","Midlothian","VA","YMCA Swift Creek","15800 Hampton Park Dr","23832",37.396518477921624,-77.70564380844297
"23112","Midlothian","VA","American Family Fitness","4751 Brad McNeer Pkwy","23112",37.418003,-77.63773259999999
"23112","Midlothian","VA","Planet Fitness","11001 Hull Street Rd","23112",37.43727410607887,-77.5965593197983
"23112","Midlothian","VA","Row House","7308 Hancock Village Dr","23832",37.4022998,-77.6749825
"23112","Midlothian","VA","Renegade Athletics","12113 Wilfong Drive","not_available",37.456153869628906,-77.62651824951172
"23112","Midlothian","VA","Pushin W8","13012 Boggs Cir","23114",37.473139,-77.640135
"23112","Midlothian","VA","Crowne Village Fitness Center","not_available","23112",37.41215725784851,-77.64101385680895
"23112","Midlothian","VA","my gym room","not_available","23120",37.4307861328125,-77.72115325927734
"23112","Midlothian","VA","Woodlake Aquatic Fitness Center (AFC)","14710 Village Square Pl","23112",37.408465310891586,-77.68042973952116
"23112","Midlothian","VA","Aim 4Fitness","13534 Waterford Pl","23112",37.46068101013424,-77.65442620864877
"23112","Midlothian","VA","Real World Strength And Conditioning","10625 Trade Road","not_available",37.499691009521484,-77.59273529052734
"23112","Midlothian","VA","AG Performance","2535 Oak Lake Blvd.","23112",37.4560412381561,-77.62809276569897
"23112","Midlothian","VA","Clover Hill Personal Training","3110 E Boundary Ct","23112",37.44797531189666,-77.64755072559637
"23112","Midlothian","VA","Gridiron (Personal fitness gym)","10605 hull street","not_available",37.43978,-77.592
"23112","Midlothian","VA","RBA South","not_available","23114",37.46032,-77.627089
"23112","Midlothian","VA","Anytime Fitness Busy Street","11532 Busy St","23236",37.5031623840332,-77.60943603515625
"23112","Midlothian","VA","Victory Lady Fitness","U.S. 60","23113",37.50438482538312,-77.62158044383348
"23112","Midlothian","VA","matts gym","Glen Tara","23112",37.41629197863571,-77.61967272287274
"23113","Midlothian","VA","ACAC Fitness & Wellness Center","11621 Robious Rd","23113",37.5217977686999,-77.61747130477134
"23113","Midlothian","VA","Gold's Gym","345 Schofield Dr","23113",37.51677339748428,-77.69408175401134
"23113","Midlothian","VA","Crunch Fitness - Midlothian","11500 Midlothian Turnpike","23235",37.5081833,-77.60926860000001
"23113","Midlothian","VA","Orangetheory Fitness","15801 City View Dr","23113",37.51374053955078,-77.69854736328125
"23113","Midlothian","VA","CrossFit Pushin Weight","1565 Standing Ridge Dr","23139",37.50832157262242,-77.6738440990448
"23113","Midlothian","VA","DoubleTree Fitness Center","1021 Koger Center Blvd","23235",37.50927734375,-77.59883880615234
"23113","Midlothian","VA","iLoveKickboxing - Midlothian (Walmart Way), VA","2017 Walmart Way","23113",37.5065779,-77.6277288
"23113","Midlothian","VA","Trophy Club Gym","not_available","23113",37.52576775948277,-77.61219257841157
"23113","Midlothian","VA","Bellvedere Fitness Center","not_available","23235",37.521803,-77.607177
"23113","Midlothian","VA","RVA 4 Fitness","1811 Huguenot Rd #408","23113",37.518184661865234,-77.61463165283203
"23113","Midlothian","VA","Pure Barre","1282 Alverser Plz","23113",37.509696207404964,-77.61642146802586
"23113","Midlothian","VA","Schwartz Gymnasium","413 Kilmarnock Dr","23229",37.57545471191406,-77.60275268554688
"23113","Midlothian","VA","Row House","14313 Winterview Pkwy.","23113",37.50691008043832,-77.66624370697934
"23113","Midlothian","VA","Gym","16107 Founders Bridge Ct","23113",37.53580856323242,-77.68583679199219
"23113","Midlothian","VA","Midlothian Athletic Club","10800 Center View Dr","23235",37.51090185288455,-77.5998705214958
"23113","Midlothian","VA","PUSH4SUCCESS","11421 Polo Cir","23113",37.526091,-77.609783
"23113","Midlothian","VA","Curves","117 Browns Way Rd","23114",37.502078000000004,-77.638177
"23113","Midlothian","VA","Youfit Health Clubs","13583 Midlothian Turnpike","23113",37.501750938739804,-77.65152543783188
"23113","Midlothian","VA","Burn Boot Camp","1208 Carmia Way","23235",37.50767,-77.60428
"23114","Midlothian","VA","Castle Fitness Studio","Castle Hollow Terrace","23114",37.48512626792039,-77.64613736311134
"23116","Mechanicsville","VA","Alliance Cheer","8444 Old Richfood Rd","23116",37.641314,-77.415033
"23120","Moseley","VA","Burn Boot Camp - Woodlake","7000 Woodlake Commons Loop","23112",37.40399,-77.686388
"23124","New Kent","VA","Ymca","not_available","23141",37.50750398490525,-77.09169182414489
"23124","New Kent","VA","Active Life Fitness Center","11815 Aspengraf Ln Ste A","23124",37.51399230957031,-76.98623657226562
"23124","New Kent","VA","Snap Fitness","3215 Rock Creek Villa Dr Ste B","23141",37.49868208435621,-77.1722613071004
"23139","Powhatan","VA","Powhatan YMCA","not_available","23138",37.548646221548005,-77.92845394618902
"23141","Quinton","VA","Results Fitness","7551 Cumberland Station Rd","23141",37.511165618896484,-77.18953704833984
"23148","Saint Stephens Church","VA","Snap Fitness","13847 Richmond-Tappahannock Hwy","23148",37.800048828125,-77.06639862060547
"23150","Sandston","VA","Curves","3991 E Williamsburg Rd","23150",37.50918960571289,-77.24147033691406
"23150","Sandston","VA","HSHS Football","not_available","23075",37.527413964271545,-77.3202109336853
"23150","Sandston","VA","Chickahominy Family YMCA","5401 Whiteside Rd","23150",37.51625757056173,-77.29014135756468
"23168","Toano","VA","Laurel Grove Gym","9205 Six Mount Zion Road","23168",37.419471740722656,-76.79928588867188
"23168","Toano","VA","Williamsburg Pilates Studio","7845 Richmond Road","23168",37.3785279,-76.8028901
"23173","Richmond","VA","Weinstein Center for Recreation & Wellness","28 Westhampton Way","23173",37.579940287712304,-77.53909576683274
"23173","Richmond","VA","Pure Barre","6235 River Rd","23229",37.568257,-77.5375124
"23185","Williamsburg","VA","Iron Bound Gym","4325 New Town Ave","23188",37.280521943326015,-76.74122851751697
"23185","Williamsburg","VA","Naval Weapons  Gym","not_available","23185",37.214541328783284,-76.58156057982787
"23185","Williamsburg","VA","American Family Fitness","5137 Main St","23188",37.276992,-76.73896900000001
"23185","Williamsburg","VA","Kelly's Fitness Room","154 Shoal Crk","23188",37.25657653808594,-76.78842163085938
"23185","Williamsburg","VA","CrossFit 1607","4260 Casey Blvd","23188",37.2827153,-76.74248239
"23185","Williamsburg","VA","Thoroughbred Fitness Center","4600 Mooretown Rd","23188",37.295021057128906,-76.72303771972656
"23185","Williamsburg","VA","Pure Barre","5231 Monticello Avene, Suite B","23188",37.2753483,-76.7470966
"23185","Williamsburg","VA","New Jackd City","3269","23188",37.2687547,-76.8152059
"23185","Williamsburg","VA","Results PerformanceTraining LLC","5251-61 John Tyler Hwy","23185",37.279687314787004,-76.71933174133301
"23185","Williamsburg","VA","Williamsburg Plantation Fitness Center","not_available","23188",37.30501900030077,-76.74739016523121
"23185","Williamsburg","VA","Anderson Field House / Fort Eustis Gym","643 Dickman St","23604",37.16076236401953,-76.58422885927173
"23185","Williamsburg","VA","Anytime Fitness","5251 John Tyler Hwy Ste 31","23185",37.25834655761719,-76.74119567871094
"23185","Williamsburg","VA","William & Mary Sports Medicine Training Room","not_available","23186",37.272133917644005,-76.71995207367256
"23185","Williamsburg","VA","Quarterpath Recreation Center","202 Quarterpath Rd","23185",37.26517734401946,-76.6819428236578
"23185","Williamsburg","VA","studio a fitness (at Five Forks Shopping Center)","4510 John Tyler Hwy Ste B","23185",37.25312042236328,-76.76475524902344
"23185","Williamsburg","VA","WMB Fitness Center","not_available","23691",37.239448615498056,-76.65281405644834
"23185","Williamsburg","VA","The Gym At Greensprings Plantation","3598 Ludwell Pkwy","23188",37.265614276828096,-76.79642896384514
"23185","Williamsburg","VA","Core Fitness","344 McLaws Cir","23185",37.24413630091714,-76.66348510999437
"23185","Williamsburg","VA","B-defined Fitness Center of Williamsburg","4801 Courthouse St Ste 122","23188",37.27735900878906,-76.74215698242188
"23188","Williamsburg","VA","Clark's Gym","139 Neighbors Dr","23188",37.326881075731066,-76.74344527837724
"23188","Williamsburg","VA","Benefits Personal Training","410 Lightfoot Rd Ste F","23188",37.34536872263065,-76.74481102484214
"23188","Williamsburg","VA","Snap Fitness","7500 Richmond Rd Ste D","23188",37.37167130360012,-76.77371488417855
"23188","Williamsburg","VA","Greensprings Fitness Center","3500 Ludwell Pkwy","23188",37.26554489135742,-76.7965316772461
"23188","Williamsburg","VA","Burn Boot Camp","5251 John Tyler Hwy","23185",37.25791,-76.73978
"23192","Montpelier","VA","Condrey estates gym","not_available","23192",37.7806510925293,-77.6231689453125
"23192","Montpelier","VA","Snap Fitness","16607 Mountain Rd","23192",37.812681,-77.663111
"23219","Richmond","VA","Gym at the John Marshall Residences","101 N 5th St","23219",37.54112714345917,-77.43849319040226
"23219","Richmond","VA","Richmond Balance","1806 E Main St","23223",37.532854585520035,-77.42738650053361
"23219","Richmond","VA","YMCA","2 W Franklin St","23220",37.549067959418274,-77.43893536059726
"23219","Richmond","VA","Shockoe Valley Heights Gym","E Franklin St","23224",37.53240112062153,-77.4245466506561
"23219","Richmond","VA","The River Lofts at Tobacco Row - Consolidated Carolina Gym","2222 E Cary St","23223",37.52976119542579,-77.42427019826995
"23219","Richmond","VA","MCV Campus Recreation & Aquatic Center","900 Turpin Street","23298",37.54483083494511,-77.4296523035288
"23219","Richmond","VA","HDL, Inc. Fitness Center","737 N 5th St","23219",37.547297,-77.43294200000001
"23219","Richmond","VA","Vistas On The James Gym","301 Virginia St","23219",37.532769122542156,-77.43335723876953
"23219","Richmond","VA","The Wedge","1321 1/2 E Main St","23219",37.535558,-77.432435
"23219","Richmond","VA","10th Street YMCA","919 E Main St","23219",37.537214,-77.436106
"23219","Richmond","VA","Lofts At River's Fall Gym","1810 E Cary St","23223",37.53172368859354,-77.42769750692337
"23219","Richmond","VA","4N4 Midtown Gym","4 N 4th St","23219",37.54133224487305,-77.44087219238281
"23219","Richmond","VA","Berkshire Fitness Room","300 W Franklin St","23220",37.546009999999995,-77.44636700000001
"23219","Richmond","VA","Park Plaza Gym","not_available","23220",37.546538,-77.448464
"23219","Richmond","VA","The Gym @ The Jefferson","101 W Franklin St","23220",37.54428482055664,-77.44530487060547
"23219","Richmond","VA","The Lofts at Canal Walk Pool","1900 E Cary St","23223",37.531625437841306,-77.42687190925463
"23219","Richmond","VA","golds gym Theater","not_available","23219",37.54482297782554,-77.44238314958757
"23219","Richmond","VA","17th Street Gym","17th Street","23219",37.53668,-77.42509
"23219","Richmond","VA","American Tobacco Center Gym","119 N 20th St","23223",37.5332105624945,-77.4241316036701
"23219","Richmond","VA","CoStar Group - 501 S 5th Street Gym","501 S 5th St","23219",37.535987854003906,-77.44197845458984
"23219","Richmond","VA","The Gym @ CedarBroad","1825 E Marshall St","23223",37.53519483020507,-77.42426612188088
"23219","Richmond","VA","James Center YMCA","1051 E Cary St Ste 300","23219",37.53558818175437,-77.43601228389346
"23219","Richmond","VA","Riverfront Plaza Fitness Center","901 E Byrd St","23219",37.53477,-77.438866
"23220","Richmond","VA","Gold's Gym","8 S Harvie St","23220",37.546202742036485,-77.4589991796448
"23220","Richmond","VA","SCOR: Sports Center of Richmond","1385 Overbrook Rd","23220",37.56331345416927,-77.45538758511448
"23220","Richmond","VA","CrossFit RVA","2522-D Hermitage Road","23220",37.56747376943746,-77.46306538581848
"23220","Richmond","VA","VCU Health Sports Medicine","1300 W Broad St Ste 113","23284",37.5534584,-77.4546344
"23220","Richmond","VA","the hamster cage","2201 W Broad St","23220",37.557979583740234,-77.46332550048828
"23220","Richmond","VA","Crossfit Full Circle","1509 Belleville St","23230",37.57135134205156,-77.47501411506117
"23220","Richmond","VA","Crunch Fitness - Scott's Addition","3600 West Broad Street","23230",37.5689098,-77.4774664
"23220","Richmond","VA","Maggie L. Walker Governor's School","1000 N Lombardy St","23220",37.557978474546495,-77.45377401693027
"23220","Richmond","VA","Narc's Gym","not_available","23221",37.551605,-77.477685
"23220","Richmond","VA","Fatty's Jym","2817 Hanes Ave","23222",37.569457,-77.434934
"23220","Richmond","VA","Cary Street Gym","101 S Linden St","23284",37.54438471242019,-77.45369994507614
"23220","Richmond","VA","Gold's Gym Tanning Booth #1","12 S Harvie St","23220",37.54596710205078,-77.45906066894531
"23220","Richmond","VA","Fitness center","2300 W Broad St","23269",37.560058000000005,-77.463394
"23220","Richmond","VA","Little Secret Fitness","3500 Kensington Ave Rm B-2","23221",37.56252670288086,-77.48328399658203
"23220","Richmond","VA","Body Renew Pulse","3308 W Clay St","23230",37.568575,-77.473786
"23221","Richmond","VA","ReDefineRVA","2609 W Cary St","23220",37.550647999999995,-77.474385
"23221","Richmond","VA","Anytime Fitness","7101 Forest Hill Ave","23225",37.534465999999995,-77.525927
"23221","Richmond","VA","The 3600 Centre Gym","3600 W Broad St","23230",37.568806,-77.477224
"23221","Richmond","VA","Advanced Wellness Fitness","3536 Grove Ave","23221",37.559096000000004,-77.485303
"23222","Richmond","VA","The Colorful Nut Hut","not_available","23227",37.601730989992575,-77.43641552066882
"23222","Richmond","VA","North Richmond YMCA","4207 Old Brook Rd","23227",37.592288530245135,-77.44698005842028
"23223","Richmond","VA","Gold's Gym","4346 S Laburnum Ave","23231",37.529349389209,-77.3607101611401
"23223","Richmond","VA","The River Lofts - Kinney Gym","2500 E Cary St","23223",37.52807715646134,-77.42110783373643
"23223","Richmond","VA","Villas of Oakwood Condos","E Richmond Rd","23223",37.53214221771852,-77.39489591761826
"23223","Richmond","VA","villas of oakwood fitness center","East Richmond Rd","23223",37.53219211099995,-77.39486782247387
"23224","Richmond","VA","908 Perry St Gym","908 Perry St","23224",37.52485,-77.44419
"23224","Richmond","VA","2000 Riverside","2000 Riverside Dr","23225",37.52424975719638,-77.45527416292506
"23224","Richmond","VA","The Dungeon","6290 Old Warwick Rd Ste N","23224",37.500835,-77.51053
"23224","Richmond","VA","Body By Maria","7007 Hull Street Rd","23235",37.47386849679525,-77.5227841677178
"23224","Richmond","VA","Root Force","1410 Hull St","23224",37.519258,-77.446178
"23224","Richmond","VA","BWE Gym","whitesand Dr","23225",37.52067824469449,-77.51743376255035
"23225","Richmond","VA","Boulders Gym","7325 Beaufont Springs Dr","23225",37.50730514526367,-77.52964782714844
"23225","Richmond","VA","Youfit Health Clubs","7250 Midlothian Tpke","23225",37.50299574376825,-77.5297263264656
"23225","Richmond","VA","Tucker Pavilion Gym - CJW Medical Center","7101 Jahnke Rd, Richmond, VA 23225","23225",37.51285740767765,-77.52710676581354
"23225","Richmond","VA","Boulders Gym","not_available","23225",37.512957,-77.534493
"23225","Richmond","VA","The Boys & Girls Club","Winder St.","not_available",37.538132,-77.461589
"23226","Richmond","VA","Gold's Gym","1601 Willow Lawn Dr Ste 3A","23230",37.580283552169405,-77.49739331264169
"23226","Richmond","VA","Orangetheory Fitness","6984 Forest Ave","23230",37.60240533976003,-77.52394449494467
"23226","Richmond","VA","YogaSix","1420 N. Parham Rd.","23229",37.6015906503298,-77.56777549536561
"23226","Richmond","VA","The Estates at Horsepen Gym","not_available","23226",37.59637997142767,-77.52028728376412
"23226","Richmond","VA","The Homski Gym","not_available","23230",37.60655975341797,-77.50293731689453
"23226","Richmond","VA","Westin Workout","6631 W Broad St","23230",37.604484947747636,-77.51754272203343
"23226","Richmond","VA","Richmond Kettlebell Club","not_available","23229",37.581732,-77.554765
"23226","Richmond","VA","Row House","1601 Willow Lawn Dr","23230",37.58230121377474,-77.49678411719667
"23226","Richmond","VA","Genworth Gym","6620 W Broad St","23230",37.60282516479492,-77.51342010498047
"23226","Richmond","VA","Zinger Fit","445 Ridge Rd","23229",37.582924,-77.554357
"23226","Richmond","VA","TRIgirl/TRIquest Training","5001 W Leigh St","23230",37.58634948730469,-77.49513244628906
"23226","Richmond","VA","Pump Custom Fitness","5718 Patterson Ave","23226",37.57908941023976,-77.5133728981018
"23226","Richmond","VA","Fit Richmond","4912 W Marshall St","23230",37.58488,-77.495098
"23226","Richmond","VA","Styles Group","401 Libbie Ave","23226",37.57456664100574,-77.51786155330093
"23226","Richmond","VA","Altria","6601 W Broad St","23230",37.60245539913458,-77.51799002998479
"23226","Richmond","VA","G.O.A.L.","Fitzhugh Ave","23230",37.579808,-77.495124
"23226","Richmond","VA","styles group fitness","5600 Patterson Ave","23226",37.578144,-77.511977
"23226","Richmond","VA","Acceleration Richmond","1501 Maple Ave Ste 100","23226",37.58522033691406,-77.51371765136719
"23226","Richmond","VA","Creative Visual Design's Gym","6900 Dartmouth Ave","23226",37.598564,-77.522909
"23227","Richmond","VA","Aerobics Room @ ZGHI","1311 Palmyra Ave","23227",37.57955,-77.45339
"23227","Richmond","VA","2206 N Hamilton St","2206 N Hamilton St","23230",37.57754459511344,-77.47526398702989
"23227","Richmond","VA","Crunch Fitness - Brook Rd","5750 Brook Rd","23227",37.61075323314285,-77.45983868837362
"23227","Richmond","VA","Glatter Fitness","6924 Lakeside Ave","23228",37.616584594383355,-77.47043224697829
"23227","Richmond","VA","J. Sarg Gym","1651 E Parham Rd","23228",37.63450241088867,-77.47575378417969
"23227","Richmond","VA","Fitness Evolution","5750 Brook Road","23227",37.6102853,-77.4573779
"23227","Richmond","VA","The McD Treadmill","Richmond","23060",37.65413,-77.47031
"23228","Henrico","VA","The Little Gym Of Glen Allen","8300 Staples Mill Rd","23228",37.62574005126953,-77.50518035888672
"23228","Henrico","VA","Mayhem Fitness And Cross Training","7503 Ranco Rd","23228",37.624581,-77.496705
"23228","Henrico","VA","Iron Factory","8506 Glazebrook Ave","23228",37.62886047363281,-77.50491333007812
"23228","Henrico","VA","FSR FITNESS STUDIO","8316 Staples Mill Rd","23228",37.62565231323242,-77.5053939819336
"23228","Henrico","VA","Improve Your Game (IYG SPIDERS)","Ranco road","23228",37.624061,-77.496902
"23228","Henrico","VA","Jazzercise","8119 Staples Mill Rd","23228",37.623857,-77.502925
"23228","Henrico","VA","Crunch - Richmond Glenside","5420 Glenside Drive","23228",37.61040328,-77.5169763
"23229","Henrico","VA","YMCA","2244 John Rolfe Pkwy","23233",37.62234744930311,-77.62403587287464
"23229","Henrico","VA","Crunch Fitness - West End","10470 Ridgefield Pkwy","23233",37.62099608839626,-77.61297941207886
"23229","Henrico","VA","YMCA","9211 Patterson Ave","23229",37.594183826052266,-77.58051535350074
"23229","Henrico","VA","Gayton Point Gym","9811 Tartuffe Dr","23238",37.60187911987305,-77.59322357177734
"23229","Henrico","VA","VCU T.E.E.N.S. Program","2303 N Parham Rd","23229",37.621070861816406,-77.55708312988281
"23229","Henrico","VA","Deep Run Recreation Center","9900 Ridgefield Pkwy","23233",37.62606036295726,-77.58923403162298
"23229","Henrico","VA","Anytime Fitness","11224 Patterson Ave","23238",37.59865,-77.61931
"23229","Henrico","VA","Turtle Creek Gym","Turtle Creek Drive","23233",37.62648270212733,-77.5943937692055
"23230","Richmond","VA","Richmond Alternative Center for Health","4700 Thalbro St","23230",37.585632101391255,-77.48941726937731
"23230","Richmond","VA","U-Turn, Inc.","2101 Maywill St","23230",37.584185999999995,-77.487105
"23231","Henrico","VA","Chester Family YMCA","3011 W Hundred Rd","23831",37.35586534671087,-77.42273569107056
"23231","Henrico","VA","White Oak Fitness Center","not_available","23836",37.352425003631,-77.40535084035359
"23231","Henrico","VA","Fairfield Inn & Suites Gym","not_available","23831",37.35592311276277,-77.40823180670458
"23231","Henrico","VA","Anytime Fitness","12324 Bermuda Crossroad Ln.","23831",37.35885,-77.41626
"23233","Henrico","VA","Mofit RVA","12430 Gayton Rd","23238",37.622559,-77.639526
"23233","Henrico","VA","Pure Barre - Richmond/Short Pump","4017 Lauderdale Drive","not_available",37.65141090133802,-77.62163459129142
"23233","Henrico","VA","Styles Group Fitness","11000 Three Chopt Rd","23233",37.63924789428711,-77.58656311035156
"23234","Richmond","VA","DLA DSCR DDRV Fitness Center","not_available","23237",37.413561460487635,-77.44171075617271
"23234","Richmond","VA","Manchester Family YMCA","7540 Hull Street Rd","23235",37.47017145969417,-77.53203947836666
"23234","Richmond","VA","Endorphasm","2510 Wayside Dr","23235",37.47154582319107,-77.52684831619263
"23235","Richmond","VA","Gold's Gym Arboretum","9101 Midlothian Turnpike","23235",37.49586,-77.5659699
"23235","Richmond","VA","Victory Lady Southside","10050 Midlothian Tpke","23235",37.50696606621983,-77.58249089330857
"23235","Richmond","VA","Arboretum Athletic Club","300 Arboretum Pl","23236",37.49374,-77.565724
"23235","Richmond","VA","Snap Fitness","Stony Point Rd","23235",37.53763999511084,-77.56436500147595
"23235","Richmond","VA","Hyatt Place Fitness Center","201 Arboretum Pl","23236",37.495026,-77.564229
"23235","Richmond","VA","FACT Fitness Training","9237 Upshur Dr","23236",37.473721999999995,-77.57596600000001
"23236","Richmond","VA","Youfit Health Clubs","9923 Hull Street Rd","23236",37.44320253042154,-77.57847279310226
"23237","Richmond","VA","Fit Factory","9600 Newbys Bridge Rd","23832",37.407311,-77.566039
"23237","Richmond","VA","RC Health and Fitness, LLC","10350 Iron Bridge Rd","23831",37.372108459472656,-77.50326538085938
"23238","Henrico","VA","Virginia Farm Bureau - Loft","12580 W Creek Pkwy, Henrico, VA 23238","23238",37.61153030395508,-77.64971923828125
"23294","Henrico","VA","Gold's Gym","8904 W Broad St Ste A","23294",37.63610140821545,-77.54563308410954
"23294","Henrico","VA","Sundance Station Apartments","3500 Sundance Way","23294",37.63273942296742,-77.55672158350835
"23294","Henrico","VA","Gold's Gym Playroom","8904 W Broad St","23294",37.63648223876953,-77.54564666748047
"23294","Henrico","VA","CKO Kickboxing RVA","9051 West Broad Street","23294",37.63423814,-77.55087305
"23310","Cape Charles","VA","Impact Fitness","18 Peach Street","23310",37.267643,-76.016143
"23314","Carrollton","VA","Total Fitness","6120 Jefferson Ave","23605",37.022675,-76.445862
"23314","Carrollton","VA","Anytime Fitness","13609 Carrollton Blvd Suites 8,9-10","23314",36.95011,-76.532
"23314","Carrollton","VA","Newport News Family YMCA","7827 Warwick Blvd","23607",37.018565294687384,-76.45202283455015
"23315","Carrsville","VA","Charles Street Gym","300 Charles St.","23851",36.67686919509225,-76.92755474445966
"23320","Chesapeake","VA","River Crest Community Center","1001 River Walk Pkwy","23320",36.74671038543065,-76.26815600947063
"23320","Chesapeake","VA","ECX Cheer","2129 Smith Ave","23320",36.79829025268555,-76.2283935546875
"23320","Chesapeake","VA","Pelican Watch Pool","3361 Buckner Blvd","23453",36.788655667537014,-76.09949486513744
"23320","Chesapeake","VA","Planet Fitness","1620 Sentinel Dr","23320",36.776790618896484,-76.25233459472656
"23320","Chesapeake","VA","YMCA","1033 Greenbrier Pkwy","23320",36.76166494006188,-76.223521481787
"23320","Chesapeake","VA","Anytime Fitness","109 Gainesborough Sq","23320",36.74011,-76.24413
"23320","Chesapeake","VA","Greenbrier North YMCA","2100 Old Greenbrier Rd","23320",36.794029449845986,-76.23511678237882
"23320","Chesapeake","VA","South Norfolk Community Center","Godwin Drive","not_available",36.78763234286891,-76.28148273115652
"23320","Chesapeake","VA","Dominion Fitness","not_available","23464",36.78600422285151,-76.1654079535633
"23320","Chesapeake","VA","Be-Fierce Fitness Studio","not_available","23456",36.79375254295026,-76.13016918449564
"23320","Chesapeake","VA","7 Cities Sports","624 Innovation Dr","23320",36.73295376944146,-76.21625135762865
"23320","Chesapeake","VA","Natural Bodyz Fitness","1320 Kempsville Rd","23464",36.79904918308055,-76.17370069026947
"23320","Chesapeake","VA","Crossfit Unrivaled","807 Professional Pl W","23320",36.76042499694755,-76.2356347593325
"23320","Chesapeake","VA","Changing Lives Martial Arts Greenbrier","1400 Kempsville Rd Ste 102","23320",36.7646987,-76.2019596
"23320","Chesapeake","VA","C Box","1456 Coolspring Way, Garage","23464",36.7945556640625,-76.17182159423828
"23320","Chesapeake","VA","Anytime Fitness","1501 Cedar Rd","23322",36.72471,-76.29647
"23320","Chesapeake","VA","Blackhawk Martial Arts","234 Battlefield Blvd N","23320",36.725318,-76.24189399999999
"23320","Chesapeake","VA","Residence Inn Gym","not_available","23320",36.779398,-76.241365
"23320","Chesapeake","VA","Long Life Fitness Club","1420 N Battlefield Blvd","23320",36.7665173,-76.2528905
"23320","Chesapeake","VA","Changing Lives Martial Arts Princess Anne","3809 Princess Anne Rd Ste 115","23456",36.7852035,-76.1090305
"23320","Chesapeake","VA","Edge Personal Fitness","601 Innovation Dr Ste B","23320",36.734557,-76.218571
"23320","Chesapeake","VA","Anytime Fitness","5300 Kemps River Dr.","23464",36.80316,-76.17426
"23320","Chesapeake","VA","Orangetheory Fitness","801 Volvo Pkwy","23320",36.76756,-76.22878
"23321","Chesapeake","VA","Taylor Bend YMCA","4626 Taylor Rd","23321",36.85054559118875,-76.42268619939097
"23321","Chesapeake","VA","Average Jeb's","Chipada Court","23321",36.850995,-76.430578
"23321","Chesapeake","VA","Anytime Fitness","5600 Portsmouth Blvd","23701",36.820489,-76.379042
"23321","Chesapeake","VA","Elite Cheer and Tumble","3800 Cook Blvd","23323",36.784901,-76.37343299999999
"23321","Chesapeake","VA","The Portsmouth YMCA","4900 High St W","23703",36.85059870048094,-76.37893037364377
"23321","Chesapeake","VA","Fit Bodies Unlimited","3232 Academy Ave, Portsmouth, VA 23703","23703",36.86229705810547,-76.39842987060547
"23322","Chesapeake","VA","Fitness 19","1253-A Cedar Road","23322",36.71617965,-76.285469
"23322","Chesapeake","VA","Anytime Fitness","1464 Mt. Pleasant Rd.","23322",36.71533,-76.18908
"23322","Chesapeake","VA","Fitness Together","940 Cedar Rd","23322",36.71208229,-76.2757133
"23322","Chesapeake","VA","K&A Gym","not_available","23323",36.7277175,-76.33810636
"23322","Chesapeake","VA","The Little Gym of Chesapeake","237 Hanbury Rd E","23322",36.685776000000004,-76.22513000000001
"23322","Chesapeake","VA","Anytime Fitness","237 Carmichael Way","23322",36.65961,-76.23445
"23322","Chesapeake","VA","NSA Northwest Annex Fitness MWR Gym","Relay Rd.","23322",36.566658805220285,-76.24973193350552
"23322","Chesapeake","VA","Fitness 19","Cedar Rd","23322",36.7105212097969,-76.27093342234562
"23322","Chesapeake","VA","Gym (Girl Look At This Body)","not_available","23457",36.62650223553771,-76.09476837497485
"23322","Chesapeake","VA","Your Time 24/7 Fitness","351 Johnstown Rd","23322",36.710966924219996,-76.23917606738316
"23322","Chesapeake","VA","Changing Lives Martial Arts Edinburg Commons","236 Carmichael Way Ste 303","23322",36.6604915,-76.23354259999999
"23322","Chesapeake","VA","CrossCoreCombat","4541 Relay Road","23322",36.56615035375743,-76.24829292297363
"23322","Chesapeake","VA","Jim's Gym","120 Bruton Ct","23322",36.68575556841927,-76.23218585525912
"23322","Chesapeake","VA","Your Time 24/7 Fitness","351","23322",36.581915,-76.183048
"23322","Chesapeake","VA","Grand Slam 2","237 Battlefield Blvd S","23322",36.716345000000004,-76.23711899999999
"23322","Chesapeake","VA","Fentress Crossfit","not_available","23322",36.714231334907076,-76.18673134422694
"23322","Chesapeake","VA","Crossfit Chesapeake","Scenic Pkwy, Chesapeake, VA 23323","23323",36.71476316049871,-76.31614934720663
"23322","Chesapeake","VA","The Beast Lab","240 Unser Dr","23322",36.6953125,-76.23963928222656
"23322","Chesapeake","VA","Cut The Crap Fitness","149 Bella Dr","23322",36.679396000000004,-76.23234000000001
"23323","Chesapeake","VA","Planet Fitness","1907 Victory Blvd","23702",36.79422085698721,-76.32603056100089
"23323","Chesapeake","VA","The Breakfast Club @ Deep Creek","2900 Margaret Booker Dr","23323",36.755026338481954,-76.3519764445338
"23325","Chesapeake","VA","Canon ITS Fitness Center","850 Greenbrier Cir Ste K","23320",36.78773445483437,-76.23039784515815
"23336","Chincoteague Island","VA","Island Gym","4391 Main St","23336",37.93983459472656,-75.36973571777344
"23336","Chincoteague Island","VA","Refuge Inn Gym","7058 Maddox Blvd","23336",37.924411,-75.354507
"23430","Smithfield","VA","I Work Out!","not_available","23487",36.906462,-76.790856
"23430","Smithfield","VA","Workout Anytime","1282 Smithfield Plz","23430",36.957247986178224,-76.60365343093872
"23430","Smithfield","VA","Rivermews Gym","64 Rexford Dr","23608",37.153366999999996,-76.559657
"23430","Smithfield","VA","YMCA","259 James St","23430",36.983361906473164,-76.63921313812409
"23434","Suffolk","VA","Papa's CrossFit Garage","not_available","23434",36.759401,-76.58091
"23434","Suffolk","VA","Anytime Fitness","11403 Windsor Blvd Ste D-E","23487",36.804797,-76.72777099999999
"23434","Suffolk","VA","Planet Fitness","569 E Constance Ave","23434",36.738807,-76.569632
"23434","Suffolk","VA","Anytime Fitness","2999 Corporate Ln","23434",36.77891,-76.58171
"23434","Suffolk","VA","East Suffolk Recreation Center","138 S 6th St","23434",36.72526836683937,-76.56467507934822
"23435","Suffolk","VA","iLoveKickboxing - Suffolk, VA","6550 Hampton Roads Pkwy","23435",36.877723,-76.41866
"23435","Suffolk","VA","Anytime Fitness","7386 Harbour Towne Pkwy","23435",36.873658,-76.436559
"23437","Suffolk","VA","Curves Circuit With Zumba","1317 Mariner St","23851",36.667319,-76.929598
"23451","Virginia Beach","VA","Planet Fitness","1944 Laskin Rd, Ste 406","23454",36.84897783627267,-76.03660046434862
"23451","Virginia Beach","VA","Great Neck Recreation Center","2521 Shorehaven Dr","23454",36.8846595324613,-76.05673869884995
"23451","Virginia Beach","VA","Fort Story Gym","707 Leyte Rd","23459",36.92689454270737,-76.01170362048417
"23451","Virginia Beach","VA","Oceana Gym","not_available","23454",36.805136139087445,-76.0285179488699
"23451","Virginia Beach","VA","The dungeon","not_available","23451",36.84794987445912,-75.99937126946571
"23451","Virginia Beach","VA","FuncFit Training Studio","3020 Shore Dr","23451",36.91081547,-76.07723551
"23451","Virginia Beach","VA","BODYBEAST","FB.com/SallyStanglerFitness","23454",36.84872835279279,-76.0572735234586
"23451","Virginia Beach","VA","RockBox","401 N Great Neck Rd Ste. 121","23454",36.8449266,-76.0492167
"23451","Virginia Beach","VA","Virginia Wild Allstar Cheerleading And Dance","209 First Colonial Rd Ste 109","23454",36.840669342158556,-76.02298163400063
"23451","Virginia Beach","VA","Orangetheory Fitness","737 First Colonial Rd #216","23451",36.85175815731304,-76.02437057995174
"23451","Virginia Beach","VA","functional family fitness","545 S Birdneck Rd","23451",36.82322692871094,-76.00150299072266
"23451","Virginia Beach","VA","Hornet's Nest Gym","D Ave and Laser Rd","23460",36.808906546871036,-76.0319973957965
"23451","Virginia Beach","VA","Bow Creek Community Rec Center","3427 Club House Rd","23452",36.8230298570962,-76.09049358535862
"23451","Virginia Beach","VA","Expressing the Human Body","not_available","23452",36.81301,-76.076089
"23451","Virginia Beach","VA","Armed Services YMCA","1200 S Birdneck Rd","23451",36.810927,-75.98213100000001
"23451","Virginia Beach","VA","The Fitness Center","W. Intruder","23454",36.7986,-76.012
"23451","Virginia Beach","VA","Jim White Fitness","1577 Laskin Rd","23451",36.850486755371094,-76.01590728759766
"23451","Virginia Beach","VA","Human Performance Initiative","620 Village Dr","23454",36.8486722013722,-76.02701691268923
"23451","Virginia Beach","VA","hammer fitness","2669 Production Rd #104","23454",36.822098,-76.058378
"23452","Virginia Beach","VA","Bayside Recreation Center","4500 First Court Rd","23455",36.89848141525651,-76.12641803713682
"23452","Virginia Beach","VA","YMCA","4441 South Blvd","23452",36.832353718001045,-76.12875746920199
"23452","Virginia Beach","VA","Anytime Fitness","1079 Independence Blvd.","23455",36.87392,-76.13612
"23452","Virginia Beach","VA","Anytime Fitness","4324 Holland Rd.","23452",36.82138,-76.11993
"23452","Virginia Beach","VA","Westin Gym/Pool","not_available","23462",36.84185071821863,-76.13565602601977
"23452","Virginia Beach","VA","Roller Derby Virginia Beach","2798 Dean Dr Ste A","23452",36.838518,-76.059955
"23452","Virginia Beach","VA","The Dancing Rose","205 Town Center Drive, Ste 220","23462",36.842689514160156,-76.13352966308594
"23452","Virginia Beach","VA","AA Gym","3313 Terrazzo Trail, Virginia Beach, VA 23452","23452",36.831546783447266,-76.08484649658203
"23452","Virginia Beach","VA","Core Fitness Obsession","476 Viking Dr","23452",36.82917969691931,-76.07003731042573
"23452","Virginia Beach","VA","Trainers On Call","310 Edwin Dr","23462",36.82914352416992,-76.12310028076172
"23452","Virginia Beach","VA","The Cosmopolitan Pool & Clubhouse","4544 Columbus St","23462",36.84164526782011,-76.13314315522368
"23452","Virginia Beach","VA","Apt Gym","1111-1119 Sir George Cir","23452",36.866903,-76.094301
"23452","Virginia Beach","VA","Hybrifit Integrated Fitness","2700 International Pkwy Ste 125","23452",36.81701747403564,-76.06491688448658
"23452","Virginia Beach","VA","willow lake gym","717 Willow Lake Cir","23452",36.807697,-76.098274
"23452","Virginia Beach","VA","Train Hard Inc","324 Lynn Shores Dr","23452",36.84128952026367,-76.10897827148438
"23453","Virginia Beach","VA","Crossfit Chronic","2504 Squadron Ct Ste 117","23453",36.79764995588052,-76.05921882255947
"23453","Virginia Beach","VA","The Little Gym","3312 Princess Anne Rd Ste 825","23456",36.77321336854081,-76.08490418506088
"23453","Virginia Beach","VA","Anytime Fitness","3352 Princess Anne Rd Suite 905","23456",36.77634,-76.08562
"23453","Virginia Beach","VA","Pelican Watch Gym","Norfeld Ct, Virginia Beach, VA 23453","23453",36.787449852294145,-76.10895585085466
"23453","Virginia Beach","VA","Ornish Reversal Gym","2025 Glenn Mitchell Dr","23456",36.775146484375,-76.09830474853516
"23454","Virginia Beach","VA","Princess Anne Recreation Center","1400 Nimmo Pkwy","23456",36.76464647792456,-76.02043290586506
"23454","Virginia Beach","VA","CYCLEBAR","2217 Upton Dr Ste 810","23454",36.75637858410727,-76.01048022508621
"23454","Virginia Beach","VA","Kettlebell Elite","2488 North Landing #108","23456",36.7493976,-76.05893365
"23455","Virginia Beach","VA","Brixx Fitness","not_available","23455",36.895447,-76.146215
"23455","Virginia Beach","VA","Project Sixkiller Performance","not_available","23518",36.927573,-76.192043
"23455","Virginia Beach","VA","Pierside Sports Center","Midway Rd","not_available",36.91776614374563,-76.1846406323789
"23455","Virginia Beach","VA","Crossfit Unparalleled","4924 Shell Rd","23455",36.895687103271484,-76.14610290527344
"23455","Virginia Beach","VA","Johnson Gym","5408","23462",36.866344076659864,-76.16667601649101
"23455","Virginia Beach","VA","East Coast Gold Weightlifting","5741 Bayside Rd","23455",36.89802551269531,-76.18573760986328
"23455","Virginia Beach","VA","Natural Bodyz Fitness - Open 24/7 Bayside","1608 Pleasure House Rd #113","23455",36.895019391296394,-76.14045212837638
"23455","Virginia Beach","VA","Full Spectrum Fitness","810 Caribe Pl","23462",36.866240999999995,-76.165817
"23455","Virginia Beach","VA","Waterford Fitness Center","5500 Shore Dr","23455",36.90806198120117,-76.17279052734375
"23455","Virginia Beach","VA","Rockwell Hall Gym","Nider Blvd","23521",36.91297056402071,-76.15180265033172
"23455","Virginia Beach","VA","Williams Farm Community Center Gym","5252 Learning Cir","23462",36.86476536863024,-76.15821361541748
"23455","Virginia Beach","VA","HCT","4904 Rutherford Rd","23455",36.893042,-76.141984
"23455","Virginia Beach","VA","CrossFit Little Creek - Norfolk, VA","9567 Shore Drive","23518",36.9275257,-76.19248739999999
"23455","Virginia Beach","VA","CrossFit Rife","5741 Bayside Road Suite101","23455",36.89801261452125,-76.18558233287585
"23455","Virginia Beach","VA","Station Little Creek Gym","1100 Abbot Rd","23459",36.911095130999655,-76.17692764317788
"23455","Virginia Beach","VA","Dbo's Elliptical","Martinique Ct, Virginia Beach, VA 23455","23455",36.904657526703055,-76.12963690947473
"23455","Virginia Beach","VA","P90x gym","5324 Justin Ct, Virginia Beach, VA 23462","23462",36.869384765625,-76.16504669189453
"23456","Virginia Beach","VA","Sanctuary Gym","3700 Sandpiper Rd","23456",36.69646635869934,-75.9257341168829
"23456","Virginia Beach","VA","TM:G/F","2447 windy pines bend","23456",36.769454,-76.03507
"23456","Virginia Beach","VA","Raw Strength and Conditioning","2424 Castleton Commerce Way Ste 729","23456",36.77924962281987,-76.03579959299037
"23456","Virginia Beach","VA","Get In Shape For Women","2158 Upton Drive","23454",36.757022,-76.00708
"23456","Virginia Beach","VA","iNLeT Fitness South","2336 Elson Green Ave Ste 106","23456",36.757731369900625,-76.00862240437968
"23456","Virginia Beach","VA","GEICO Gym","1345 Perimeter Pkwy","23454",36.78209686279297,-76.01903533935547
"23456","Virginia Beach","VA","Anytime Fitness","2090 Princess Anne Rd Suite 100","23456",36.74988,-76.01052
"23456","Virginia Beach","VA","Crossfit Oceana","1333 Harpers Rd, Virginia Beach, VA 23454","23454",36.798641204833984,-76.00560760498047
"23457","Virginia Beach","VA","D & D workout grounds","2248 Stowe Rd","23457",36.650040000000004,-76.043079
"23460","Virginia Beach","VA","Flightline Fitness Center","5th St","23460",36.80519042075498,-76.02862937732142
"23462","Virginia Beach","VA","Simon Family Jewish Community Center","5000 Corporate Woods Dr","23462",36.835129351437615,-76.15518769923622
"23462","Virginia Beach","VA","CrossFit Accolade","402 Davis St Ste 101","23462",36.853084564208984,-76.17030334472656
"23462","Virginia Beach","VA","Kosama","5208 Fairfield Shopping Ctr","23464",36.8149052460223,-76.16565710910689
"23462","Virginia Beach","VA","PT757","4992 Euclid Rd","23462",36.839890999999994,-76.148718
"23464","Virginia Beach","VA","MC Gym","not_available","23502",36.83610153198242,-76.21275329589844
"23464","Virginia Beach","VA","The 36th Chamber Studio","1648 Sinking Creek Dr","23464",36.78684997558594,-76.16496276855469
"23464","Virginia Beach","VA","PRA Gym","not_available","23510",36.8399401249467,-76.2115204405063
"23464","Virginia Beach","VA","Gymboree Play And Music","5000 Providence Rd","23464",36.810413,-76.156396
"23464","Virginia Beach","VA","Straight Edge Fitness","1051 Kempsville Rd","23464",36.81085638836245,-76.16718705143988
"23464","Virginia Beach","VA","Indian River Family YMCA","5660 Indian River Rd","23464",36.80567477349135,-76.18893434746238
"23502","Norfolk","VA","Planet Fitness","415 N Military Hwy, Ste 23","23502",36.84768400880643,-76.21250260906484
"23502","Norfolk","VA","Saberation Light Sword Martial Arts","880 N Military Hwy Ste 1172","23502",36.8506867,-76.2060485
"23502","Norfolk","VA","Marriott Residence Gym","1590 N Military Hwy","23502",36.87894821166992,-76.21033477783203
"23502","Norfolk","VA","Brute Strength Gym","836 Poplar Hall Dr","23502",36.85358312286943,-76.1969784702363
"23502","Norfolk","VA","AOS Gym","6387 Center Dr #101","23502",36.8470573425293,-76.18365478515625
"23502","Norfolk","VA","Amerigroup Gym","5800 Northampton Blvd","23502",36.877815999999996,-76.203225
"23503","Norfolk","VA","N-24 Gym","Gilbert St.","23511",36.9485309030372,-76.310507623274
"23503","Norfolk","VA","Comnav Gym","NAS Norfolk","23511",36.9456328350574,-76.30381878455741
"23503","Norfolk","VA","HomePort Hampton Roads PPV Gym","8000 Diven St (Bahrain)","23511",36.92747923262008,-76.2922344286011
"23503","Norfolk","VA","McCormick Sports Center","Bldg CEP-58","23511",36.93823162033015,-76.32109225560953
"23503","Norfolk","VA","OVFit","9309 Granby St","23503",36.945641520079036,-76.25958582821865
"23503","Norfolk","VA","Marine Gym","not_available","23511",36.945907450772935,-76.30387897297051
"23503","Norfolk","VA","McCormick Sports Complex","CEP-60","23511",36.93737261170171,-76.32142066955566
"23503","Norfolk","VA","Camp Allen Gym","5th Ave","23511",36.9302606373831,-76.29479455517138
"23503","Norfolk","VA","LF-18 Gym","1 Avionics Loop","23511",36.9535886720856,-76.30204102369188
"23504","Norfolk","VA","brambleton community outreach center","not_available","23504",36.85050042971915,-76.26888006563745
"23504","Norfolk","VA","River House Gym","llewellyn ave","23504",36.886562421658894,-76.28182232172114
"23505","Norfolk","VA","Norfolk Fitness and Wellness Center","7300 Newport Ave","23505",36.91135633237581,-76.27828112633524
"23505","Norfolk","VA","Elite Fitness","122 E Little Creek Rd","23505",36.915546,-76.271429
"23505","Norfolk","VA","COMOPTEVFOR Gym","7970 Diven St","23505",36.926376,-76.293265
"23507","Norfolk","VA","Orangetheory Fitness","333 W 21st St","23517",36.868291,-76.28915500000001
"23507","Norfolk","VA","Fit Co","615 Claremont Ave","23507",36.864902,-76.308205
"23507","Norfolk","VA","Devils Paradas Gym","Boissevain Ave","23507",36.859609239599656,-76.29763549734325
"23507","Norfolk","VA","Anytime Fitness","780 W. 20th St.","23517",36.87024,-76.29624
"23507","Norfolk","VA","Dumbbells Gym","2123 Colonial Ave","23517",36.869636,-76.29194100000001
"23507","Norfolk","VA","Titus Sports Performance","22nd Street","not_available",36.87080077941525,-76.29324562776567
"23507","Norfolk","VA","Fitness Together","350 West 22nd St","23517",36.8700602,-76.2898166
"23508","Norfolk","VA","201 Twenty One Gym","201 W 21st St","23517",36.86787780297727,-76.28759062717272
"23508","Norfolk","VA","ODU Student Recreation Center","4700 Powhatan Avenue","23508",36.88634480659855,-76.31083431433944
"23508","Norfolk","VA","Crossfit757","22nd","23508",36.87734205632052,-76.3014167547226
"23508","Norfolk","VA","Outdoor Adventure Center","Student Recreation Centers","23508",36.886384785145786,-76.30903075085783
"23510","Norfolk","VA","YMCA","312 W Bute St","23510",36.85291682798511,-76.29391584288585
"23510","Norfolk","VA","Executive Health & Fitness","101 W Main St","23510",36.845649882285024,-76.29284977912903
"23510","Norfolk","VA","Residence Inn Exercise Room","227 W Brambleton Ave","23510",36.85386657714844,-76.29141998291016
"23510","Norfolk","VA","The Gym (N) The Heights","303 Green St","23704",36.83989942073822,-76.30364298820496
"23510","Norfolk","VA","Fitness First Health and Wellness","115 W Tazewell St","23510",36.849311377762085,-76.29159834311353
"23510","Norfolk","VA","YMCA - Dominion Tower","999 Waterside Dr","23510",36.843165,-76.287036
"23510","Norfolk","VA","Courtyard Marriott Norfolk Gym","520 E Plume St","23510",36.84702682495117,-76.28722381591797
"23518","Norfolk","VA","Women’s Workout and Fitness Center","1730 E Little Creek Rd","23518",36.91773333744626,-76.22781401055288
"23518","Norfolk","VA","The Power House Gym","7924 Chesapeake Blvd Ste F","23518",36.915928681855945,-76.24124784525749
"23518","Norfolk","VA","Anytime Fitness","2406B E. Little Crk. Rd.","23518",36.91618,-76.2157
"23601","Newport News","VA","Onelife Fitness - Newport News Gym","815 City Center Blvd","23606",37.094867535203605,-76.4716511964798
"23601","Newport News","VA","Elite Cheer Sensation","700 Thimble Shoals Blvd","23606",37.08391189575195,-76.47663879394531
"23601","Newport News","VA","CrossFitOP","320 Ed Wright Ln","23606",37.09453745377909,-76.49143083988007
"23601","Newport News","VA","Jungle Gym","727 Bluecrab Rd","23606",37.089878999999996,-76.476218
"23601","Newport News","VA","Jamestown Apartments","137-193 Yeardley Dr","23601",37.04814897281742,-76.47617597989003
"23601","Newport News","VA","Fit Bodies Unlimited","135 Harpersville Rd, Newport News, VA 23601","23601",37.054691314697266,-76.47257995605469
"23601","Newport News","VA","Center for Weight Loss Success","645 J. Clyde Morris Blvd","23601",37.075862884521484,-76.47150421142578
"23601","Newport News","VA","iLoveKickboxing- Newport News","47 Hidenwood Shopping Ctr","23606",37.0695525,-76.4946184
"23601","Newport News","VA","Jazzercise","J Clyde Morris Blvd","23601",37.09609,-76.45787
"23601","Newport News","VA","Gym","Apex Dr","23601",37.06460984882324,-76.4515665413283
"23601","Newport News","VA","Waypoint at City Center Gym","not_available","23606",37.08304956038388,-76.48437659985622
"23601","Newport News","VA","Fit Bodies","135 B Harpersville Lane","23601",37.047521583333335,-76.47118168333333
"23601","Newport News","VA","One Life Fitness Small Gym","100 Fountain Way","not_available",37.085159586129954,-76.47259186175334
"23601","Newport News","VA","Performance Fitness","11015 Warwick Blvd","23601",37.04525375366211,-76.47406768798828
"23601","Newport News","VA","Meridian Parkside Gym","not_available","23601",37.06693940182032,-76.46545633259349
"23601","Newport News","VA","Netcenter - Fitness Room","5200 Mercury Blvd #229","23605",37.02355194091797,-76.43744659423828
"23601","Newport News","VA","Pure Barre","12368 Warwick Blvd Ste 114","23606",37.06559993727678,-76.49106115707775
"23602","Newport News","VA","CrossFit Hampton Roads","104 Production Dr","23693",37.110886123881706,-76.45776883519079
"23602","Newport News","VA","Comfort Inn Newport News Gym","not_available","23602",37.116902059049714,-76.4984944069219
"23602","Newport News","VA","Windsor Apt Gym","59-69 Cedarwood Way","23608",37.143566,-76.51831090450287
"23602","Newport News","VA","American Iron Barbell Club","14346 Warwick Blvd Ste 470","23602",37.128318786621094,-76.5335464477539
"23602","Newport News","VA","Villages of Stoney Run Gym","650 Stoney Creek Lane","23608",37.141691635238345,-76.51904582977295
"23602","Newport News","VA","Curves","555 Denbigh Blvd","23608",37.137271999999996,-76.52334599999999
"23602","Newport News","VA","Featherstone","702 Bellows Way","23602",37.118627494600965,-76.49684351849037
"23602","Newport News","VA","Radius Gym","900 Radius Way","23602",37.12562942504883,-76.51190948486328
"23602","Newport News","VA","Workout","not_available","23693",37.126498,-76.480549
"23602","Newport News","VA","Burn Boot Camp","120 Ottis St","23602",37.113836,-76.470853
"23602","Newport News","VA","Exercise Faith Xtreme Training Gym","128 Production Dr","23693",37.112183,-76.460542
"23602","Newport News","VA","Jefferson Point Gym","201 Monticello Ct","23602",37.103903,-76.49562399999999
"23603","Newport News","VA","Sports zone gymnasium","not_available","23603",37.20674445248616,-76.57675250178977
"23604","Fort Eustis","VA","Apex Gym","not_available","23608",37.16128983358427,-76.56028967813519
"23605","Newport News","VA","Weight Shack 6","not_available","23666",37.043008533357366,-76.43028557534673
"23605","Newport News","VA","Caldwell Gym","Roanoke Ave","23605",37.021357,-76.43079
"23607","Newport News","VA","julius conn","not_available","23607",36.98210621256073,-76.42925166261982
"23607","Newport News","VA","Home Port HamptonRoads Gym","200 31st St","23607",36.98166641111111,-76.43193834444445
"23651","Fort Monroe","VA","The Gauntlet","not_available","23651",37.009665,-76.311716
"23651","Fort Monroe","VA","Fort Monroe Family YMCA","8 Ruckman Rd","23651",37.003636,-76.310674
"23662","Poquoson","VA","Snap Fitness","475 Wythe Creek Rd","23662",37.12533,-76.39294
"23662","Poquoson","VA","The Efird Gym","not_available","23662",37.13373140648361,-76.40741894366273
"23662","Poquoson","VA","Marker #13 Fitness Center","Timber Lane","23662",37.15369877266039,-76.39789706755613
"23663","Hampton","VA","Snap Fitness","Nickerson Blvd","not_available",37.04743576049805,-76.32743835449219
"23664","Hampton","VA","Debbie's Workout Place","not_available","23664",37.048101594550886,-76.29881748213447
"23665","Hampton","VA","Anytime Fitness","16 Towne Center Way","23666",37.06356,-76.42556
"23665","Hampton","VA","LAFB Wellness & Fitness Ctr","35-41 Sweeney Blvd","23665",37.07401932433528,-76.36716706689838
"23665","Hampton","VA","Lodging Exercise Room","not_available","23665",37.09664079925648,-76.35330178500558
"23665","Hampton","VA","Falcon Creek Gym","4900 Falcon Creek Way","23666",37.0937614440918,-76.4010238647461
"23665","Hampton","VA","Elliptical","not_available","23669",37.064106,-76.338083
"23665","Hampton","VA","ACC Gym","228-260 Dodd Blvd","23665",37.08296548697959,-76.34316541957863
"23665","Hampton","VA","Shellbank Fitness Center","36 Sweeney Blvd","23665",37.07402789446468,-76.36718521835334
"23665","Hampton","VA","Curves","3355 Commander Shepard Blvd","23666",37.09346977127207,-76.39616214694273
"23665","Hampton","VA","Logic Fitness Club","2012 Exploration Way","23666",37.08348846435547,-76.40264129638672
"23665","Hampton","VA","Langley AFB Gym","216 Dodd Blvd.","23665",37.082492558552325,-76.34322760823719
"23665","Hampton","VA","Secret Gym","700 Sweeney Blvd","23665",37.08146834139818,-76.34670390773269
"23665","Hampton","VA","Belmont at York Fitness Room","101 Saint Clair Cir","23693",37.102723,-76.425927
"23665","Hampton","VA","Demand Great Health & Fitness","299 Floyd Thompson Blvd Ste 104","23666",37.085777282714844,-76.3962631225586
"23666","Hampton","VA","YMCA","1322 Lasalle Ave","23669",37.032176006548994,-76.36203634223993
"23666","Hampton","VA","Sentara Center For Health & Fitness","4001 Coliseum Dr","23666",37.059027971297304,-76.3938107025092
"23666","Hampton","VA","Fitness Center","1700 Coliseum Dr","23666",37.037071228027344,-76.38410949707031
"23666","Hampton","VA","9Round Fitness","4321 E Claiborne Square","23666",37.04358844,-76.39327092
"23666","Hampton","VA","tribal yoga","1451 Merchant Ln","23666",37.044559478759766,-76.39314270019531
"23666","Hampton","VA","Salvation Army Gym","1029 Big Bethel Rd","23666",37.048915,-76.43004
"23666","Hampton","VA","Virginia Baseball Academy","Downtown Hampton","23669",37.03132325919063,-76.3622682672185
"23666","Hampton","VA","Respectapole","1146 Big Bethel Rd, Hampton, VA 23666","23666",37.05796215549352,-76.42574481661802
"23666","Hampton","VA","Recreation Center","111 Cheswick Cir","23693",37.106374,-76.438092
"23669","Hampton","VA","Sculpt Yours. Personal Training Studio.","53-199 Wine St","23669",37.026042,-76.343262
"23669","Hampton","VA","CrossFit Stimulus","Langley Square Shopping Center, 19 W. Mercury Blvd","23669",37.04253,-76.35115
"23669","Hampton","VA","Fitness Center","nickerson blvd","23663",37.06843064763789,-76.31483259089642
"23669","Hampton","VA","Extreme Muscle Gym","1415 N King St","23669",37.056967,-76.347657
"23690","Yorktown","VA","USCG Yorktown Gym","Bibb Rd","not_available",37.21774873896563,-76.47958866753895
"23692","Yorktown","VA","The Gym","Arcadia Loop","23692",37.19007884,-76.49429413
"23692","Yorktown","VA","Anytime Fitness","5304 George Washington Memorial Hwy","23692",37.157484000000004,-76.460341
"23692","Yorktown","VA","FAME Central","not_available","23692",37.18459653445376,-76.4794067664305
"23692","Yorktown","VA","Fyzique Fitness","8100 George Washington Mem Hwy Ste F","23692",37.191280458230054,-76.48670896748284
"23693","Yorktown","VA","YMCA","101 Long Green Blvd","23693",37.11243529067188,-76.44483287910354
"23701","Portsmouth","VA","crossfit","not_available","23707",36.83698654174805,-76.35358428955078
"23701","Portsmouth","VA","Kshanti CrossFit","3405 High St","23707",36.833980560302734,-76.34356689453125
"23701","Portsmouth","VA","Treadmill","Greenwood Dr","not_available",36.80109405517578,-76.3514404296875
"23702","Portsmouth","VA","Callaghan Fitness Center NNSY","not_available","23709",36.81404611936469,-76.31015316956245
"23703","Portsmouth","VA","Coast Guard Gym","not_available","23703",36.88271217923307,-76.3573041068305
"23704","Portsmouth","VA","YMCA","1013 Effingham St","23704",36.83128881845086,-76.30622062645092
"23704","Portsmouth","VA","Renaissance Hotel Fitness Center","not_available","23704",36.83707766961124,-76.29591622801271
"23704","Portsmouth","VA","Harbor Tower Gym","1 Harbor Ct","23704",36.839107,-76.29629399999999
"23704","Portsmouth","VA","Naval Hospital Gym","not_available","23708",36.83751588666465,-76.30744169465554
"23704","Portsmouth","VA","Fleming's Gym","305 High St","23704",36.83497,-76.29998499999999
"23704","Portsmouth","VA","Portsmouth Federal Building Gym","431 Crawford St.","23704",36.836204528808594,-76.29736328125
"23801","Fort Lee","VA","Clark Fitness Center","862 C Ave","23801",37.24616488730881,-77.33023547001964
"23801","Fort Lee","VA","Fort Lee - McLaughlin Gym","not_available","23801",37.24356870408735,-77.34400960400012
"23801","Fort Lee","VA","MacLaughlin Physical Fitness Center","4320 C Ave","23801",37.23944328149925,-77.34242252095919
"23801","Fort Lee","VA","ALU Fitness","12507 Quarters Rd","23801",37.23214163974463,-77.34303941093137
"23803","Petersburg","VA","Southside YMCA","120 N Madison St","23803",37.230718282180305,-77.39808102955959
"23803","Petersburg","VA","Gold's Gym","1823 Southpark Blvd","23834",37.25224929726977,-77.38951296672482
"23803","Petersburg","VA","Bodies & Beyond Gym and Fitness Center","2538 S Crater Rd","23805",37.198260999999995,-77.37761
"23803","Petersburg","VA","JT3 Industries","not_available","23834",37.27069091796875,-77.41233825683594
"23803","Petersburg","VA","Snap Fitness","Ellersie Ave","23834",37.26980207172458,-77.4103231624793
"23803","Petersburg","VA","Burnatron","not_available","23803",37.237927250790015,-77.49794284837007
"23803","Petersburg","VA","Star Factory","23225 Airpark Dr","23803",37.1908073425293,-77.50231170654297
"23803","Petersburg","VA","Gym","not_available","23805",37.188919,-77.365544
"23803","Petersburg","VA","Seacoast Fitness","Post Rd. Rt.1","23803",37.22600555419922,-77.38862609863281
"23803","Petersburg","VA","Addison Carter Gym","300 Addison Way #9","23805",37.17901611328125,-77.37367248535156
"23803","Petersburg","VA","Hilton Garden Inn Guest Gym","800 Southpark Blvd","23834",37.24921798706055,-77.39097595214844
"23821","Alberta","VA","The Gym","not_available","23821",36.814872118888566,-77.87740564863911
"23824","Blackstone","VA","Kenbridge Fitness Center","not_available","23944",36.960093,-78.123459
"23831","Chester","VA","Candlewood Gym","15830 woods edge","not_available",37.309516305708684,-77.40032298961475
"23832","Chesterfield","VA","iLoveKickboxing - Midlothian","5203 Commonwealth Centre Pkwy","23112",37.4175046,-77.6286245
"23834","Colonial Heights","VA","Colonial Crossfit","13543 Charlotte Ct.","23834",37.30394588554463,-77.3836699184099
"23836","Chester","VA","I Work Out!","not_available","23860",37.300984822360114,-77.29207330039908
"23836","Chester","VA","Club Fitness","209 E Cawson St","23860",37.30548858642578,-77.28679656982422
"23838","Chesterfield","VA","gym","not_available","23838",37.33759307861328,-77.51477813720703
"23847","Emporia","VA","Rockman's Gym","not_available","23847",36.74722126075864,-77.63596283517532
"23847","Emporia","VA","The Family YMCA of Emporia-Greensville","212 Weaver Ave","23847",36.700392,-77.54042199999999
"23847","Emporia","VA","Build A Body Gym","527 N Main St","23847",36.696671,-77.538174
"23847","Emporia","VA","Wkn It","136-196 Smith St","23847",36.6970020532608,-77.54164338111877
"23847","Emporia","VA","Ebs","400 Watkins St","23847",36.682334,-77.55029
"23851","Franklin","VA","James L. Camp YMCA","300 Crescent Dr","23851",36.69051940048267,-76.9459696197953
"23868","Lawrenceville","VA","Cutting Edge Fitness","203 N Main St, Lawrenceville, VA 23868","23868",36.77956786237771,-77.79344131374961
"23868","Lawrenceville","VA","Freedom Life Fitness","813 N Mecklenburg Ave","23970",36.75872640140105,-77.84715704192837
"23901","Farmville","VA","Prospect Gym","Glenn Carson rd","23960",37.30164078468077,-78.55447769165039
"23901","Farmville","VA","Southside Virginia Family YMCA","580 Commerce Rd","23901",37.270507751761066,-78.41633540300013
"23901","Farmville","VA","pefya gym","not_available","23901",37.30283709936173,-78.39731206539771
"23901","Farmville","VA","Sunchase Gym","405 Sunchase Blvd","23901",37.296248999999996,-78.374363
"23917","Boydton","VA","Moose Lodge","Danville Street","23970",36.71982911044875,-78.15111637115479
"23917","Boydton","VA","YMCA","not_available","23970",36.726764,-78.128547
"23917","Boydton","VA","Boydton Fitness Center","392 Washington Street","23917",36.66698455810547,-78.38774871826172
"23921","Buckingham","VA","Boxing Gym","not_available","23921",37.510857,-78.666367
"23922","Burkeville","VA","House Of Pain","not_available","23942",37.09339941950934,-78.29893316045337
"23927","Clarksville","VA","YMCA/GYM","1575-1633 Noblin Farm Rd","23927",36.603057861328125,-78.5654067993164
"23936","Dillwyn","VA","Stay Fit","15944 N James Madison Hwy","23936",37.5414356,-78.47514009999999
"23944","Kenbridge","VA","Powerhouse Gym","11 Falls Rd","23974",37.012046999999995,-78.221627
"24011","Roanoke","VA","Zoom Fitness","215 S Jefferson St","24011",37.271317,-79.94061605
"24011","Roanoke","VA","RAC Xpress","16 W Church Avenue","24011",37.27039856640052,-79.94146637238454
"24011","Roanoke","VA","Gym At The Patrick Henry","not_available","24011",37.268493,-79.941269
"24011","Roanoke","VA","Anthem Fitness Center","602PH S Jefferson St","24011",37.26894037457507,-79.94089261586036
"24012","Roanoke","VA","Kentmere Gym","not_available","24014",37.32811043205759,-79.88684221335596
"24012","Roanoke","VA","Botetourt Athletic Club-BAC","2 Summers Way","not_available",37.35642887239464,-79.8857988567875
"24012","Roanoke","VA","Campbells Gym","not_available","24012",37.300933,-79.93668
"24012","Roanoke","VA","Hampton Inn Fitness Center","7922 Plantation Rd","24019",37.356466999999995,-79.956585
"24012","Roanoke","VA","BAC- Carilion Fitness","not_available","24019",37.356476782485366,-79.88601320277502
"24012","Roanoke","VA","Palmercare Chiropractic - McLean","6862 Elm Street","22101",37.345443,-79.956806
"24012","Roanoke","VA","TRI-STAR Roanoke","3016 Christian Ave NW","24012",37.310412,-79.948973
"24012","Roanoke","VA","Sheraton Roanoke hotel & Conference Center Gym","not_available","24017",37.30937039112779,-79.97829837658702
"24012","Roanoke","VA","Brickhouse Crossfit","521 Salem Ave SW","24016",37.27297578174146,-79.95100259217583
"24012","Roanoke","VA","Gold's Gym","5002 Airport Rd NW","24012",37.31796066300943,-79.96056747851786
"24012","Roanoke","VA","Wellbodies","263 Arrington Ln","24019",37.352250105829015,-79.8844876773027
"24012","Roanoke","VA","Fitness Center","not_available","24016",37.275159,-79.957821
"24012","Roanoke","VA","Elite Health & Fitness Center","4630 Williamson Rd NW","24012",37.314398,-79.95374100000001
"24012","Roanoke","VA","8 Jefferson Place Gym","8 N Jefferson St","24016",37.273865,-79.94089100000001
"24012","Roanoke","VA","Jazzercise","1326 E Washington Ave","24179",37.278869,-79.87479300000001
"24014","Roanoke","VA","Fit Studio 365","2601 Franklin Rd SW","24014",37.24859619140625,-79.95870971679688
"24014","Roanoke","VA","Planet Fitness Club","672 Brandon Ave SW","24018",37.255506,-79.956952
"24014","Roanoke","VA","Pheasant Ridge Nursing and Rehabilitation Center","4355 Pheasant Ridge Rd. S.W.","24014",37.223025,-79.959681
"24014","Roanoke","VA","Burn Boot Camp","4208 Franklin Rd SW","24014",37.22427,-79.96731
"24016","Roanoke","VA","Kirk Family YMCA","520 Church Ave SW","24016",37.27034980313262,-79.95082585526625
"24017","Roanoke","VA","The Dungeon Gym","Maine ave","24017",37.298556,-80.00125
"24018","Roanoke","VA","Orangetheory Fitness","5010 Keagy Rd","24018",37.249491,-80.03953800000001
"24018","Roanoke","VA","Workout Anytime","1955 Electric Rd","24153",37.26363640290076,-80.0338339805603
"24018","Roanoke","VA","Carter Athletic Center","4254 Colonial Ave","24018",37.225638000000004,-80.00037900000001
"24018","Roanoke","VA","iLoveKickboxing - Roanoke, VA","4347 Starkey Road","24018",37.2286326,-79.98251839999999
"24018","Roanoke","VA","Allstate Gym","not_available","24018",37.24858277078941,-80.03678320259124
"24018","Roanoke","VA","Pure Barre","5036 Keagy Rd Ste 202","24018",37.25005665056533,-80.03843524906756
"24018","Roanoke","VA","Roanoke Athletic Club - RAC","4508 Starkey Rd","24018",37.22219345295195,-79.98443614470136
"24018","Roanoke","VA","Roanoke Valley CrossFit","4035 Electric Rd","24018",37.223324112665416,-79.98274509384241
"24018","Roanoke","VA","The Training Edge","5401 Fallowater Ln","24018",37.22642517089844,-79.9853744506836
"24018","Roanoke","VA","Crunch Fitness - Roanoke","3270 Electric Rd","24018",37.230939167025554,-80.00590145587921
"24019","Roanoke","VA","Fairfield Gym","not_available","24153",37.320771,-80.033902
"24019","Roanoke","VA","Fat Camp@ The RTC","1220 Kessler Mill Rd, Roanoke, VA 24153","24153",37.3237190246582,-80.0414810180664
"24054","Axton","VA","Wankin Station","not_available","24054",36.662173,-79.692558
"24055","Bassett","VA","Planet Fitness-Martinsville","1506 Greensboro Road","24112",36.6527256,-79.8756596
"24055","Bassett","VA","YMCA","3 Starling Ave","24112",36.687238424578176,-79.86335524960367
"24055","Bassett","VA","MHS Gym","not_available","24055",36.69581657503917,-79.86182039397056
"24055","Bassett","VA","Curves","not_available","24078",36.71142973746619,-79.90748804166245
"24055","Bassett","VA","Gym 24","730 E Church St #6","24112",36.68807480970361,-79.85421952523578
"24055","Bassett","VA","curves","1918 Virginia Ave","24078",36.70679055581838,-79.90914344787598
"24055","Bassett","VA","Collinsville Ymca","395 W John Redd Blvd","24078",36.724409724253576,-79.91823833250471
"24055","Bassett","VA","Gamechangers","107 Jones St","24112",36.692811,-79.873019
"24059","Bent Mountain","VA","Winslow Treadmill","not_available","24059",37.154455,-80.137406
"24060","Blacksburg","VA","Anytime Fitness","1480 S Main St Ste 100","24060",37.21361,-80.403
"24060","Blacksburg","VA","Perry Gibsons Tech MMA","not_available","24073",37.173309326171875,-80.41803741455078
"24060","Blacksburg","VA","Ambler Johnston Gym","700 Washington","24060",37.222981861837276,-80.42069926105319
"24060","Blacksburg","VA","Corning Fitness Center","3050 N Franklin St","24073",37.17197799682617,-80.42367553710938
"24060","Blacksburg","VA","Phase 1 Gym","not_available","24060",37.24529430390965,-80.42606435118732
"24060","Blacksburg","VA","Waldron Wellness Center","267 Alleghany Spring Rd","24162",37.167184000000006,-80.25607
"24060","Blacksburg","VA","New Residence Gym","Virginia Tech","24060",37.220872,-80.422251
"24060","Blacksburg","VA","CrossFit 460","131 Ardmore St","24060",37.214551,-80.398978
"24060","Blacksburg","VA","McComas Hall","895 Washington St SW","24061",37.21952330698639,-80.42259864937631
"24060","Blacksburg","VA","Collegiate Fitness Center","1310 Henry Ln","24060",37.245197,-80.416756
"24060","Blacksburg","VA","Foxridge Fitness Center & Aerobics Room","8400 Hunters Mill Rd","24060",37.214633616020855,-80.44883264960835
"24060","Blacksburg","VA","PTOR","1997 S Main St","24060",37.206260681152344,-80.39788055419922
"24060","Blacksburg","VA","Knollwood Gym","215 S Knollwood Dr","24060",37.200846000000006,-80.40371999999999
"24060","Blacksburg","VA","Gym","200 Hampton Ct","24060",37.23942947387695,-80.39698028564453
"24060","Blacksburg","VA","Gym","500 Hampton road","24060",37.213075,-80.380647
"24060","Blacksburg","VA","War Memorial Gymnasium","370 Drillfield Dr","24061",37.22636328832848,-80.42064535505183
"24060","Blacksburg","VA","New Res East Fitness Room","540 Washington St SW","24061",37.22861263545178,-80.42404309927375
"24060","Blacksburg","VA","Terrace View Clubhouse","501 Hunt Club Rd","24060",37.24295191124774,-80.42539060599196
"24060","Blacksburg","VA","The Weight Club","801 University City Blvd","24060",37.233984447930034,-80.43481886386871
"24060","Blacksburg","VA","Tech SportsPlex","219 County Dr. NE","24073",37.173586,-80.41798299999999
"24066","Buchanan","VA","Creative Fitness","not_available","24066",37.52812882641184,-79.70395107844537
"24073","Christiansburg","VA","Christiansburg Recreation Center","1600 N Franklin St","24073",37.151932599877796,-80.4152841313751
"24073","Christiansburg","VA","NRV Fitness Connection","1655 N Franklin St","24073",37.151308,-80.412522
"24073","Christiansburg","VA","Virginia Techniques","1550 Roanoke St Ste C","24073",37.13521225072972,-80.37795350671439
"24073","Christiansburg","VA","Peak Strength & Conditioning","970 Roanoke St","24073",37.133606,-80.390773
"24073","Christiansburg","VA","Burn Boot Camp","452 Peppers Fry Rd NW","24073",37.16191,-80.4332
"24073","Christiansburg","VA","Planet Fitness","782 New River Rd","24073",37.16656672887566,-80.42740430216098
"24083","Daleville","VA","Curves Daleville","116 Kingston Dr, Daleville, VA 24083","24083",37.395834,-79.91064300000001
"24084","Dublin","VA","Hensel Eckman YMCA - Pulaski","615 Oakhurst Ave","24301",37.061463,-80.76576899999999
"24084","Dublin","VA","Nrcc Gym","not_available","24084",37.104705,-80.695428
"24084","Dublin","VA","Anytime Fitness","7339 Lee Hwy","24141",37.147976,-80.58654200000001
"24085","Eagle Rock","VA","YMCA","101 Ymca Way","24426",37.79084315940721,-79.89342060140346
"24088","Ferrum","VA","Schwartz Gymnasium","not_available","24088",36.929062799296645,-80.02233761264507
"24101","Hardy","VA","Jazzercise","299 Village View Ln","24121",37.1200801924033,-79.70571530319604
"24101","Hardy","VA","Smith Mountain Lake Wellness and Fitness","65 Westlake Rd","24101",37.11873245239258,-79.71790313720703
"24101","Hardy","VA","Carilion Wellness – Westlake","157 Westlake Rd","24101",37.117197,-79.717844
"24104","Huddleston","VA","Noland Fitness Center","not_available","24121",37.15910682348961,-79.60441354774046
"24121","Moneta","VA","Bridgewater Plaza","16410 Booker T Washington Highway","24121",37.1434229,-79.67013630000001
"24121","Moneta","VA","Smith Mountain Lake YMCA","293 Firstwatch Dr","24121",37.134311794109905,-79.69858949318336
"24124","Narrows","VA","fairfield inn princeton gym","not_available","24739",37.365729,-81.040809
"24124","Narrows","VA","Anytime Fitness","1284 Stafford Dr","24740",37.36035,-81.09627
"24141","Radford","VA","Radford Recreation Center","200 George St","24141",37.132511265560204,-80.56038066135787
"24141","Radford","VA","King Center","not_available","24141",37.134486,-80.569152
"24141","Radford","VA","New River Fitness","51 W Main St","24141",37.13635090233309,-80.57199450931112
"24151","Rocky Mount","VA","Workout Anytime Rocky Mount","934 Tanyard Rd","24151",37.006842999999996,-79.873773
"24151","Rocky Mount","VA","YMCA","235 Technology Dr","24151",37.01348874821238,-79.89641692923122
"24153","Salem","VA","Carbyne Crossfit","735 Roanoke St","24153",37.287987,-80.070113
"24179","Vinton","VA","Rayna's House Of Zumba","936 Norbourne Ave","24179",37.26826858520508,-79.88671875
"24179","Vinton","VA","Lancerlot Sports Complex","1110 Vinyard Rd","24179",37.27093595347296,-79.88758403799739
"24201","Bristol","VA","Anna's Fitness Studio","1659 Pineview Dr","24201",36.608255,-82.206053
"24201","Bristol","VA","GB Brazilian Jiu Jitsu","100 Travelite Dr, Suite 4 & 5","24202",36.632923,-82.132967
"24201","Bristol","VA","Anytime Fitness","3177 Linden Dr","24202",36.63024,-82.12372
"24202","Bristol","VA","Alpha Natural Respurces Employee Fitness Center","One Alpha Place","24202",36.644943,-82.116931
"24210","Abingdon","VA","Gym","Lauren Drive","24210",36.7236287175856,-81.92839661335125
"24210","Abingdon","VA","Abingdon Fitness","748 Cummings St","24211",36.697353,-81.97451099999999
"24210","Abingdon","VA","Body Works","not_available","24210",36.70179183507427,-82.00491835283465
"24210","Abingdon","VA","DynaBody By Lee","889 Empire Dr SW","24210",36.715327,-81.935602
"24210","Abingdon","VA","Anytime Fitness","220 Cook St","24210",36.70232,-81.97632
"24216","Appalachia","VA","Curves of Big Stone Gap","1514 3rd Ave E","24219",36.879093,-82.763017
"24216","Appalachia","VA","Carnes Gym","505 E 5th St S","24219",36.86254119873047,-82.77133178710938
"24221","Blackwater","VA","Fitness Source","not_available","24263",36.68395450853436,-83.12536201569822
"24228","Clintwood","VA","Dominion Health and Fitness","4862 Dickenson Hwy","24228",37.149139609703745,-82.47304136796012
"24230","Coeburn","VA","Front Street Fitness","407 Front Street West","24230",36.943749,-82.46512299999999
"24230","Coeburn","VA","Fit-One","not_available","24273",36.99000239091638,-82.56525260889924
"24230","Coeburn","VA","Student Center Fitness  Center","not_available","24293",36.970373119883305,-82.55936890371265
"24244","Duffield","VA","Planet Fitness","Duffield","not_available",36.7189826965332,-82.7959976196289
"24251","Gate City","VA","total fitness","not_available","24290",36.6297492980957,-82.5632095336914
"24251","Gate City","VA","A&H Fitness Center","not_available","24251",36.646278381347656,-82.56204223632812
"24251","Gate City","VA","Total Fitness Gym & Tanning","Jackson St","24251",36.63820409768558,-82.58024479605639
"24311","Atkins","VA","Anytime Fitness","118 Atkins Farm Ln","24354",36.84904548776362,-81.51056170463562
"24311","Atkins","VA","The Gym","1 Health Way","24354",36.854038,-81.507583
"24314","Bastian","VA","Anytime Fitness","537 Commerce Dr","24605",37.24060821533203,-81.24971008300781
"24315","Bland","VA","weight watchers","not_available","24701",37.255409240722656,-81.220458984375
"24315","Bland","VA","GBCC Gym","703 College Ave","24701",37.252782,-81.225206
"24317","Cana","VA","Steel Mill Fitness Center","not_available","24317",36.5650749206543,-80.6548843383789
"24333","Galax","VA","Galax Wellness Center","not_available","24333",36.684983,-80.917365
"24333","Galax","VA","Wellness Center","544 E Stuart Dr Ste P","24333",36.674223,-80.914012
"24333","Galax","VA","Ultimate Fitness","2400-2502 Deer Haven Rd","24333",36.68661509,-80.89449956
"24333","Galax","VA","Ghetto Gym","Equestrian Dr","24381",36.727455854415894,-80.79133808612823
"24361","Meadowview","VA","The Fitness Barn","Sylvan Ln.","24361",36.76222759993627,-81.86457333725548
"24366","Rocky Gap","VA","Planet Fitness","261 Mercer Mall Rd,Suite 800","24701",37.297541,-81.167686
"24382","Wytheville","VA","Anytime Fitness","1155 N 4th St","24382",36.95584196103791,-81.09542548656464
"24382","Wytheville","VA","Curves","155 W Main St","24382",36.949238,-81.083799
"24382","Wytheville","VA","Wytheville Community Fitness Center","333 Community Blvd","24382",36.95983954842125,-81.07175459993033
"24382","Wytheville","VA","BG's Gym","not_available","24382",36.879894226580724,-81.0349094099886
"24401","Staunton","VA","Staunton-Augusta Family YMCA","708 N Coalter St","24401",38.16063789493192,-79.06272431908447
"24401","Staunton","VA","Flory Fitness","not_available","24401",38.15513769602656,-79.08139989312663
"24401","Staunton","VA","Aliquid Training and Performance","17 N. Central Ave","24401",38.150142,-79.07348000000002
"24401","Staunton","VA","F45 Training Staunton","856 Statler Blvd","24401",38.137937,-79.067123
"24416","Buena Vista","VA","ymca","790 N Lee Hwy, Lexington, VA 24450","24450",37.796414715376244,-79.42083737982384
"24416","Buena Vista","VA","Exercise Room at Best Western","not_available","24450",37.7973,-79.41936
"24416","Buena Vista","VA","Snap Fitness","210 W 22nd St","24416",37.735801696777344,-79.35494995117188
"24445","Hot Springs","VA","The Homestead Gym","not_available","24445",37.998619067252875,-79.8307110697306
"24501","Lynchburg","VA","Downtown YMCA","1316 Church St","24504",37.410481496747245,-79.14002066821092
"24501","Lynchburg","VA","Walden Pond Aerobics & Fitness Center","not_available","24501",37.39631017398636,-79.1985762796492
"24501","Lynchburg","VA","The Vistas Gym","7612 Timberlake Rd","24502",37.35388064426295,-79.21882013629245
"24501","Lynchburg","VA","Willowbrook Apts Gym","120 Clubhouse Dr","24502",37.335991,-79.23339399999999
"24501","Lynchburg","VA","Cornerstone Fitness","119 Cornerstone St Apt 106","24502",37.340389251708984,-79.22509765625
"24501","Lynchburg","VA","Iron and Grace","3831 Old Forest Rd","24501",37.39959,-79.22347
"24501","Lynchburg","VA","Crossfit Lynchburg","302 Oakley Ave","24502",37.401486,-79.174649
"24501","Lynchburg","VA","Jamerson YMCA","801 Wyndhurst Dr","24502",37.361714132631676,-79.24199986737398
"24501","Lynchburg","VA","GNW CSC gym","3100 Albert Lankford Dr","24501",37.386666999999996,-79.161436
"24501","Lynchburg","VA","Schilling Center","1971 University Blvd","24515",37.350878294578465,-79.1817674317476
"24501","Lynchburg","VA","Days Inn Fitness Center","3276-3298 U.S. 501","24502",37.368117570877075,-79.17562365531921
"24501","Lynchburg","VA","Crosswhite Athletic Club","118 Davis Cup Rd","24502",37.408747999999996,-79.225371
"24501","Lynchburg","VA","American Fitness","3014 Memorial Ave","24501",37.397078,-79.17025500000001
"24501","Lynchburg","VA","Kendall Square Apartments Fitness Room","not_available","24502",37.35467786299553,-79.22747321554503
"24501","Lynchburg","VA","Curves","20722 Timberlake Rd","24502",37.338342754511245,-79.23687960666909
"24501","Lynchburg","VA","Curves","Old Forest Rd","not_available",37.4004553185343,-79.22320478286606
"24501","Lynchburg","VA","Crosswhite Fitness","Davis Cup Rd","24501",37.40393656532856,-79.22552352967028
"24501","Lynchburg","VA","Cliffs Edge Lofts Gym","not_available","24572",37.41734524173287,-79.14276123046875
"24501","Lynchburg","VA","Genworth Employee Gym","700 Main St","24504",37.416385,-79.14294
"24501","Lynchburg","VA","Gym - Legacy At Linden Park","1000 Misty Mountain Rd","24502",37.360110167940654,-79.21219863739489
"24502","Lynchburg","VA","Warrior Success Academy","18013 Forest Rd Ste E02","24551",37.37721,-79.24693
"24502","Lynchburg","VA","Lifestyles Gym","not_available","24551",37.36565840471468,-79.2519454938575
"24502","Lynchburg","VA","Fit 221","17928 Forest Rd Ste 2","24551",37.376708984375,-79.24934387207031
"24503","Lynchburg","VA","Snap Fitness","4119 Boonsboro Rd","24503",37.4427201303356,-79.20343403397868
"24503","Lynchburg","VA","Turner Gymnasium","1501 Lakeside Dr","24501",37.39789584364753,-79.18433712513702
"24517","Altavista","VA","YMCA","728-756 7th St","24517",37.11236678330528,-79.28742556617624
"24517","Altavista","VA","Altavista Area YMCA","802 7th St","24517",37.1127815246582,-79.28653717041016
"24517","Altavista","VA","Vista Fitness 24","623 Broad St","24517",37.10944366455078,-79.29035186767578
"24520","Alton","VA","CSES Gym","not_available","24592",36.609722,-78.915747
"24522","Appomattox","VA","Health & Wellness Fitness Center","230 Union Blvd","24522",37.365583083758196,-78.83435403055381
"24522","Appomattox","VA","Appomatox Gym","Appomattox, VA 24522","not_available",37.36576646141785,-78.83384310039624
"24523","Bedford","VA","Liberty High School Training Room","100 Minute Man Dr","24523",37.37208640114837,-79.49684791838001
"24528","Brookneal","VA","Shapes For Women","Main Street","24528",37.04789733886719,-78.9420166015625
"24540","Danville","VA","New YMCA Site","Riverside Dr","24541",36.59189580274631,-79.3898012180067
"24540","Danville","VA","power zone","not_available","24541",36.58814432618076,-79.3951043159693
"24540","Danville","VA","Urban Fitness","601 Craghead St.","24541",36.58523941040039,-79.38633728027344
"24540","Danville","VA","Perfect Body Fitness Center","121 Piney Forest Rd","24540",36.59559995730471,-79.41723308422351
"24540","Danville","VA","D.A.C.","441 Piney Forest Rd Ste M","24540",36.60558723782205,-79.41203218480142
"24540","Danville","VA","Courtyard Marriott-Fitness Center","not_available","24540",36.596514751258795,-79.40652220902533
"24540","Danville","VA","Curves","104 Trade St","24541",36.587378,-79.420287
"24540","Danville","VA","Hampton Inn Fitness Center","2130 Riverside Dr","24540",36.595967,-79.40556
"24540","Danville","VA","Southside Power & Endurance","402 Wilson St","24540",36.584616100623734,-79.36522755802149
"24540","Danville","VA","DRMC Wellstep gym","S Main St, Danville, VA 24541","24541",36.57880436505678,-79.40585279888617
"24540","Danville","VA","Power Gym","Floyd","not_available",36.598409,-79.460885
"24540","Danville","VA","Weight Pusha Fitness","216 Mount Cross Rd Ste B","24540",36.5907674,-79.4226956
"24540","Danville","VA","Trey Belcher Training, LLC","201 Eastwood Dr","24540",36.58418273925781,-79.3656234741211
"24540","Danville","VA","Panzer CrossFit","3325 U S Highway 29","24540",36.64105987548828,-79.38388061523438
"24540","Danville","VA","Ultimate fitness","758 Westover Dr","24541",36.585786,-79.438689
"24550","Evington","VA","goodmans goodies","not_available","24588",37.26286697387695,-79.14185333251953
"24551","Forest","VA","Forest Fit Body Boot Camp","1332 Venture Dr Suite C","24551",37.36596201046993,-79.29887652397154
"24551","Forest","VA","Wellness For Life","5164 Waterlick Rd","24551",37.338714,-79.277782
"24557","Gretna","VA","Camber Inn Hotel Gym","200 McBride Ln","24557",36.95203399658203,-79.37760925292969
"24609","Cedar Bluff","VA","Anytime Fitness","1051 Claypool Hill Mall Rd","24609",37.06678657173058,-81.75977110862732
"24614","Grundy","VA","YMCA","1089 Golden Way Rd.","24614",37.28459930419922,-82.06403350830078
