"zip","city","state","name","address","postalCode","lat","lon"
"70001","Metairie","LA","King’s Kickboxing","4304 Firestone Rd","70001",29.970476,-90.176092
"70001","Metairie","LA","Baudry Therapy Center","2620 Metairie Lawn Dr","70002",29.99956181469322,-90.15239881490932
"70001","Metairie","LA","Sheraton Fitness Center","4 Galleria Blvd","70001",29.99304962158203,-90.15260314941406
"70001","Metairie","LA","Pure Barre","701 Metairie Road","70005",29.988856785201747,-90.13052330719518
"70001","Metairie","LA","rowley's own gym","not_available","70005",29.997005,-90.131124
"70001","Metairie","LA","Marriott Courtyard - Gym","not_available","70001",29.994258251417776,-90.15225309665918
"70001","Metairie","LA","Residence Inn Fitness Center","not_available","not_available",29.993106791430364,-90.15224395357794
"70001","Metairie","LA","Country Day Lupin Gymnasium","300 Park Rd","70005",29.983584641067026,-90.13162191873867
"70001","Metairie","LA","BAM FIT","616 N Causeway Blvd","70001",29.979354858398438,-90.1566162109375
"70001","Metairie","LA","Premier Fitness","1909 Airline Dr","70001",29.97492218017578,-90.14637756347656
"70001","Metairie","LA","GeauxFit Performance Training","800 B Central Ave","70121",29.9684764167723,-90.17404262954724
"70001","Metairie","LA","Simply Fit","701 Metairie Rd","70005-4049",29.989039152225036,-90.13071766441543
"70001","Metairie","LA","Work Out Room","not_available","70118",29.976485199418036,-90.1382027348916
"70001","Metairie","LA","Metairie Country Club","580 Woodvine Ave","70005",29.97645014927008,-90.1335097552792
"70001","Metairie","LA","Planet Fitness","100 N Labarre Rd","70001",29.974616690690386,-90.15221331008013
"70001","Metairie","LA","MR Fitness Center","2501 Metairie Lawn Dr","70002",29.99818992614746,-90.15119171142578
"70002","Metairie","LA","Premier Fitness Lakeway","3838 N Causeway Blvd, St 900","70002",30.01836739548091,-90.15572025732914
"70002","Metairie","LA","JCC Metairie (West Esplanade)","3747 West Esplanade Ave","70002",30.015376327110662,-90.16689755760967
"70002","Metairie","LA","Snap Fitness Metairie","3501 Severn Ave 10","70002",30.0125259,-90.1582034
"70002","Metairie","LA","Tiger-Rock Martial Arts of Metairie","3828 Veterans Blvd., Suite E","70002",30.003631254078915,-90.16967976501235
"70002","Metairie","LA","Cheer Practice","not_available","70002",30.00257,-90.173285
"70002","Metairie","LA","F45 Training Metairie Central","3926 Barron St","70002",30.002192,-90.172759
"70002","Metairie","LA","Fitness Expo","4124 Veterans Blvd","70002",30.00379,-90.1775
"70002","Metairie","LA","Orangetheory Fitness","3620 Hessmer Ave","70002",30.0076875,-90.1638002
"70002","Metairie","LA","ReadSoft","3838 N Causeway Blvd","70002",30.01855259979248,-90.15573398139418
"70002","Metairie","LA","Ivanovs","not_available","70006",30.001859664916992,-90.17315804958344
"70002","Metairie","LA","Fitness Principle with Mackie Shilstone","Houma Blvd","70001",29.99742447,-90.17861401
"70002","Metairie","LA","Crossfit Full Bore","3333 Division St","70002",30.005212,-90.16426899999999
"70003","Metairie","LA","East Jefferson YMCA","6691 Riverside Dr","70003",30.010291343762397,-90.22019838589492
"70003","Metairie","LA","Westgate Athletic Club","Westgate","70003",29.998347911899266,-90.23126025502846
"70003","Metairie","LA","Curves","7052 Veterans Blvd.","70003",30.003703,-90.218847
"70003","Metairie","LA","Nicole's Gym","not_available","70003",30.012302,-90.223628
"70003","Metairie","LA","Jazzercise Metairie Kenner Fitness Center","8847 Veterans Memorial Blvd","70003",30.007200241088867,-90.2258529663086
"70003","Metairie","LA","Neighbor's Gym","3232 Maryland Ave, Kenner, LA 70065","70065",30.014690399169922,-90.22782897949219
"70003","Metairie","LA","Crescent City Boxing","5402 Veterans Blvd","70003",30.005782266764673,-90.20088828042124
"70003","Metairie","LA","TITLE Boxing Club","5029 Veterans Memorial Boulevard","70006",30.00659433,-90.19635756
"70003","Metairie","LA","Next Level Metairie","5400 Veterans Blvd","70003",30.00581605742631,-90.20086997127206
"70003","Metairie","LA","Anytime Fitness","5200 Veterans Hwy Ste 101","70006",30.00516,-90.19723
"70003","Metairie","LA","Dancers Pointe","5101 W Esplanade Ave #12","70006",30.017793,-90.200331
"70005","Metairie","LA","Hour Blast","105 Focis St","70005",29.987816,-90.129971
"70006","Metairie","LA","East Jefferson General Hospital Wellness Center","3726 Houma Blvd","70006",30.009491344096798,-90.1813811629878
"70006","Metairie","LA","Fitness Connection","4426 Eldorado","not_available",30.000563,-90.181505
"70031","Ama","LA","Anytime Fitness","151 Almedia Rd","70087",29.96226,-90.30386
"70031","Ama","LA","Snap Fitness","Almedia rd","not_available",29.962026596069336,-90.3038558959961
"70036","Barataria","LA","Anytime Fitness","2512 Jean Lafitte Blvd","70067",29.73804,-90.12818
"70037","Belle Chasse","LA","Woodland west Fitness Club","not_available","70058",29.872756,-90.057589
"70037","Belle Chasse","LA","Westbank Athletic Club","2400 Belle Chasse Hwy","70053",29.901747999999998,-90.04933100000001
"70037","Belle Chasse","LA","Nshape Studio","8611 Highway 23 Ste 2B","70037",29.848102569580078,-89.99055480957031
"70037","Belle Chasse","LA","Snap Fitness","102 Woodland Hwy","70037",29.863063289511782,-89.99658577953241
"70037","Belle Chasse","LA","Fitness Center","not_available","70056",29.899354,-90.040396
"70037","Belle Chasse","LA","NAS/JRB Fitness Center","not_available","70037",29.825415114763118,-90.01856984734793
"70037","Belle Chasse","LA","Manhattan Athletic Club","4162 Manhattan Blvd","70058",29.84646683559043,-90.04196983952936
"70037","Belle Chasse","LA","Westbank Athletic Club","601 Terry Pkwy","70056",29.90336036682129,-90.02989196777344
"70037","Belle Chasse","LA","French Riviera Fitness","665 Behrman Hwy","70056",29.8997787648067,-90.01871702454606
"70037","Belle Chasse","LA","Naval Air Station JRB Nola Fitness Center","400 Russell Ave","70037",29.825489912431767,-90.01832724174409
"70037","Belle Chasse","LA","Youfit Health Clubs","2424 Manhattan Blvd","70058",29.876931985369122,-90.0517344474793
"70037","Belle Chasse","LA","New Orleans Karate Institute, Inc.","8611 HWY 23 SUITE 2C","70037",29.848902001976967,-89.98999334871769
"70037","Belle Chasse","LA","Fitness Room at Best Western","1700 Lapalco Blvd","70058",29.875919342041016,-90.0500717163086
"70039","Boutte","LA","Snap Fitness","12807 Highway 90","70070",29.906977,-90.36354
"70043","Chalmette","LA","st. bernard fitness","1010 Judge Perez","70043",29.94001055614352,-89.95346494015976
"70043","Chalmette","LA","Prestige Fitness","8700 W Judge Perez Dr Ste V","70043",29.95015640391613,-89.97350296470975
"70043","Chalmette","LA","Training Center/Gym","not_available","70043",29.943451,-89.956978
"70043","Chalmette","LA","Shoemaker Fitness Center","215 W Judge Perez Dr","70043",29.943601608276367,-89.96531677246094
"70047","Destrehan","LA","curves","1970 Ormond Blvd #E","70047",29.969648361206055,-90.37437438964844
"70047","Destrehan","LA","nDurance Fitness","312 Murray Hill Dr","70047",29.964940000000002,-90.37575
"70047","Destrehan","LA","DHS Gym","not_available","70047",29.965665,-90.381765
"70047","Destrehan","LA","Anytime Fitness","1955 Ormond Blvd Suite F","70047",29.96948,-90.37681
"70047","Destrehan","LA","Cardio Club 24 Hour Fitness","121 Ormond Center Ct Ste O","70047",29.98702230213147,-90.36584352865339
"70052","Gramercy","LA","Anytime Fitness","1732 Deroche Cir","70052",30.062481,-90.69751099999999
"70052","Gramercy","LA","Anytime Fitness","Unnamed Road","70052",30.06242440411512,-90.68692128560801
"70053","Gretna","LA","Planet Fitness","Westside Shopping Center North, 62 Westbank Expressway, Suite 230","70053",29.916713,-90.049197
"70053","Gretna","LA","Anytime Fitness","1729 Lafayette St Ste 100","70053",29.90644,-90.05375
"70053","Gretna","LA","Gym@Fibre Mills","1107 S Peters St","70130",29.940192,-90.066113
"70053","Gretna","LA","The Jellyroll Gym","310 Andrew Higgins Dr, New Orleans, LA 70130","70130",29.941856384277344,-90.06629180908203
"70053","Gretna","LA","Anytime Fitness","1811 Rousseau St","70130",29.92789,-90.06876
"70053","Gretna","LA","Crossfit NOLA Downtown","1309 Magazine Street","70130",29.938012038853934,-90.07145419869511
"70053","Gretna","LA","Marriott Gym","859 Convention Center Blvd","70130",29.94329833984375,-90.06488037109375
"70053","Gretna","LA","Gym @The Bakery","1111 S Peters St","70130",29.939859000000002,-90.065957
"70053","Gretna","LA","Anytime Fitness","5163 Gen De Gaulle Suite J","70131",29.9305,-90.0428
"70053","Gretna","LA","Gym at Woodward Apartments","344 Saint Joseph St","70130",29.9429874420166,-90.06857299804688
"70053","Gretna","LA","iLoveKickboxing - Gretna, LA","2100 Franklin Ave, Suite 100","70053",29.9177722,-90.0484486
"70053","Gretna","LA","Body Designs Riverfront Fitness","844 S Peters St","70130",29.943956,-90.065526
"70053","Gretna","LA","LA Motion","651 Richard","not_available",29.931621000000003,-90.068045
"70053","Gretna","LA","Springhill Suites/ Gym","301 Saint Joseph St","70130",29.9434814453125,-90.06622314453125
"70053","Gretna","LA","The Saulet Apartments Gym","1450 Annunciation St","70130",29.93585661498884,-90.06907156677549
"70056","Gretna","LA","Youfit Health Clubs","3066 Holiday Dr","70131",29.92122277038064,-90.01151740550989
"70056","Gretna","LA","Planet Fitness","4001 General Degaulle Dr","70114",29.918892,-90.014423
"70056","Gretna","LA","Holiday Inn Gym","275 Whitney Ave","70053",29.92437744140625,-90.04173278808594
"70056","Gretna","LA","Better You Fitness","not_available","70053",29.9255289,-90.0364912
"70056","Gretna","LA","Breakthru Fitness","401 Whitney Ave","70056",29.919483184814453,-90.04141998291016
"70056","Gretna","LA","Monkey Bar Gym New Orleans","2901 General Degaulle Dr Ste 201","70114",29.927719116210938,-90.029052734375
"70057","Hahnville","LA","St. Charles Parish Gym","Tiger Circle","not_available",29.965385,-90.406323
"70058","Harvey","LA","Supra Crossfit Body Transformation Center","3519 Tchoupitoulas St.","70115",29.91828,-90.08926
"70062","Kenner","LA","Hilton Fitness Center","not_available","70062",29.981690961716186,-90.25840327925218
"70062","Kenner","LA","Comfort Suites Airport Gym","2710 Idaho Ave","70062",30.005510330200195,-90.23786926269531
"70062","Kenner","LA","Bounce","1711 18th St","70062",29.990083000000002,-90.246317
"70062","Kenner","LA","Double Tree Gym","2150 Veterans Memorial Blvd","70062",30.006902855001915,-90.23894655615531
"70065","Kenner","LA","Lakes Of Chateau South Fitness Center","3600 Loyola Drive","70065",30.026437759399414,-90.2689208984375
"70065","Kenner","LA","CDA dance","not_available","70065",30.015701494114325,-90.24932788421077
"70065","Kenner","LA","Snap Fitness","West Esplanade","70065",30.02131506827506,-90.25557173859318
"70065","Kenner","LA","curves","365 W Esplanade Ave","70065",30.02260971069336,-90.26806640625
"70065","Kenner","LA","Club4 Kenner","1000 W Esplanade Ave","70065",30.0222213,-90.253203
"70065","Kenner","LA","Snap Fitness Kenner","910 W Esplanade Ave Suite D","70065",30.0214041,-90.2554609
"70068","La Place","LA","Airline Athletic Center","not_available","70068",30.077769814980655,-90.52334780049719
"70068","La Place","LA","Curves","Riverlands Shopping Center, 1420 W Airline Hwy","70068",30.07334327697754,-90.49349212646484
"70068","La Place","LA","Anytime Fitness","607 Belle Terre Blvd","70068",30.09019,-90.50452
"70068","La Place","LA","Snap Fitness","844 Belle Terre Blvd.","70068",30.088106037962895,-90.50315750776204
"70070","Luling","LA","Anytime Fitness","12225 US 90 Suite G","70070",29.9119,-90.3483
"70070","Luling","LA","Mushin New Orleans Training Center","6005 Jefferson Hwy Ste F","70123",29.9413778,-90.1878586
"70070","Luling","LA","River Parish CrossFit","737 Paul Maillard Rd Ste B","70070",29.928119716980053,-90.36887492916357
"70070","Luling","LA","Anytime Fitness","7335 Jefferson Hwy","70123",29.93631,-90.20248
"70070","Luling","LA","Final Fitness","206 Edwards Ave","70123",29.945680618286133,-90.18695831298828
"70070","Luling","LA","Ellington Swim & Fitness","207 Angus Dr","70070",29.92277,-90.36999
"70070","Luling","LA","Tiger Elite Harahan","633 Time Saver Ave","70123",29.945857401380323,-90.18024648138841
"70072","Marrero","LA","French Riviera Fitness","5045 Lapalco Blvd","70072",29.874001697708703,-90.10121775285178
"70072","Marrero","LA","West Jeff Fitness Center","1179-1199 Medical Center Blvd","70072",29.89001125438346,-90.09448621418775
"70072","Marrero","LA","Anytime Fitness","3176 Barataria Blvd Suite A","70072",29.84591,-90.11992
"70072","Marrero","LA","Snap Fitness","not_available","70094",29.896994592106545,-90.13610521777397
"70072","Marrero","LA","GymMatrix Marrero","2324 Barataria Blvd","70072",29.861523157462965,-90.09884728030296
"70072","Marrero","LA","Anytime Fitness","1625 Barataria Blvd","70072",29.88212776184082,-90.09832000732422
"70072","Marrero","LA","Scott's Gym","not_available","70072",29.81078880171046,-90.11112820934906
"70075","Meraux","LA","Excersising","not_available","70075",29.934922,-89.929284
"70075","Meraux","LA","Anytime Fitness","3201 E Judge Perez Dr Stes 107, 108, 109","70075",29.93808,-89.9285
"70083","Port Sulphur","LA","YMCA Port Sulphur","311 Civic Dr","70083",29.476457595825195,-89.69615173339844
"70094","Westwego","LA","Brent House Gym","not_available","70121",29.961848871085493,-90.14432843554222
"70094","Westwego","LA","Planet Fitness","108 Sauve Rd","70123",29.961202102991496,-90.22033882497978
"70094","Westwego","LA","Citrus Creek Apartment Fitness Center","not_available","70123",29.966251,-90.191088
"70094","Westwego","LA","Forward Fitness","9523 Jefferson Hwy Ste A","70123",29.9549579,-90.21656800000001
"70094","Westwego","LA","Ultimate Change Boot Camp","Harahan Playground","not_available",29.951725,-90.203084
"70094","Westwego","LA","Crossfit","911 Joliet St","70118",29.948028564453125,-90.135009765625
"70094","Westwego","LA","Cornerstone Chemical Fitness Center","Dd Fry Way","70094",29.95698604,-90.26579
"70094","Westwego","LA","CrossFit Roux","3511 River Rd Ste D","70121",29.95799985182917,-90.16241614533392
"70094","Westwego","LA","Hour Blast","5171 Citrus Blvd","70123",29.964197158813477,-90.18606567382812
"70094","Westwego","LA","Prima Raga Fitness & Aerobic Centre (Woman Only)","Jalan S. Parman RT 24 No. 116","70123",29.9565557,-90.2010233
"70094","Westwego","LA","Galaxy All Stars","1200 S Clearview Pkwy","70123",29.961923560596112,-90.18859563287332
"70094","Westwego","LA","Metairie Crossfit","1517 Kuebel St","70123",29.963354,-90.192948
"70094","Westwego","LA","Curves","Dublin St","70118",29.945383705649423,-90.13374279143298
"70094","Westwego","LA","Curves of Elmwood","5700 Citrus Blvd","70123",29.964366912841797,-90.19661712646484
"70094","Westwego","LA","CrossFit NOLA","8422 Burthe St","70118",29.947443339440383,-90.13478083014148
"70112","New Orleans","LA","Downtown Fitness Center - Canal Place","380 One Canal Place","70130",29.951263705496057,-90.0659270254004
"70112","New Orleans","LA","The Saint Fitness Center","not_available","70116",29.954969566066357,-90.07145353101396
"70112","New Orleans","LA","Gym","not_available","70112",29.956736,-90.068376
"70112","New Orleans","LA","Hyatt Regency New Orleans Exercise Room","32nd Floor","70113",29.949706984292384,-90.07751185801698
"70112","New Orleans","LA","Sweat® Fitness Center - W New Orleans","333 Poydras St","70130",29.948987026295455,-90.06660447123987
"70112","New Orleans","LA","New Orleans Athletic Club","222 N Rampart St","70112",29.956874531011504,-90.07136945033895
"70112","New Orleans","LA","JW Fitness Center","614 Canal St","70130",29.952369689941406,-90.06890869140625
"70112","New Orleans","LA","Astor Gym","not_available","70130",29.954469751152313,-90.06622131670714
"70112","New Orleans","LA","Mean Jean's Gym","837 Gravier St","70112",29.95262336730957,-90.0721206665039
"70112","New Orleans","LA","Exchange Center Gym (6th fl)","935 Gravier St, New Orleans, LA 70112","70112",29.953103840057253,-90.07348072513098
"70112","New Orleans","LA","Marriott Health Club","555 Canal St","70130",29.95261732054892,-90.0668028921474
"70112","New Orleans","LA","Capital One Fitness Center @ Place St Charles","201 Saint Charles Ave Fl 17","70170",29.95218056516563,-90.07057308237738
"70112","New Orleans","LA","1201 Canal Health Club","1201 Canal St","70112",29.956682205200195,-90.07350158691406
"70112","New Orleans","LA","Fitness Center","300 Gravier St","70130",29.949495315551758,-90.06632995605469
"70112","New Orleans","LA","Sheraton Fitness Center","500 Canal St","70130",29.951757,-90.067989
"70112","New Orleans","LA","Gym/Pool @ The Maritime","800 Common St","70112",29.952735900878906,-90.07119750976562
"70112","New Orleans","LA","Gym At Astor Crowne Plaza","Canal","not_available",29.9537738889075,-90.06949193731283
"70112","New Orleans","LA","Four Points By Sheraton Fitness Center","541 Bourbon St","70130",29.957801818847656,-90.06689453125
"70113","New Orleans","LA","Friday Night Fights Boxing Gym","1632 Oretha Castle Haley Blvd","70113",29.93967,-90.079862
"70113","New Orleans","LA","Equip Sports Performance","1029 Oretha Castle Haley Blvd","70113",29.944904054792108,-90.07698746792109
"70113","New Orleans","LA","Hour Blast Downtown","821 Baronne St","70113",29.94622114492342,-90.07438242250379
"70113","New Orleans","LA","F45 Training New Orleans CBD","740 Julia Street","70130",29.945944,-90.0726442
"70113","New Orleans","LA","Workout room","837 Gravier St, New Orleans, LA 70112","70112",29.95262336730957,-90.0721206665039
"70113","New Orleans","LA","Tuad Fitness","1340 Poydras St Ste 1420","70112",29.95090944695208,-90.07754802703857
"70113","New Orleans","LA","1205 Gym & Pool","1205 Saint Charles Ave","70130",29.9412784576416,-90.07415771484375
"70113","New Orleans","LA","The Entergy Building Fitness Center","639 Loyola Ave","70113",29.94908332824707,-90.07707214355469
"70114","New Orleans","LA","NSA New Orleans Fitness Center","not_available","70114",29.946627616882324,-90.03172
"70115","New Orleans","LA","Salvation Studio","2917 Magazine St","70115",29.925403418936213,-90.08417706027635
"70115","New Orleans","LA","New Orleans Lawn And Tennis Club","5353 Laurel St","70115",29.918699182528645,-90.1150342186702
"70115","New Orleans","LA","CycleBar NOLA Uptown","3823 Magazine St","70115",29.9214611,-90.0948745
"70115","New Orleans","LA","Be Fit Personal Training","1738 Soniat St","70115",29.929914987272298,-90.10962688744311
"70115","New Orleans","LA","Franco's on Magazine","2116 Magazine St","70130",29.929890990706365,-90.07617862826596
"70115","New Orleans","LA","Anytime Fitness","4600 Freret St","70115",29.93474,-90.10581
"70115","New Orleans","LA","A And T Fitness Fun","not_available","70115",29.93994400136207,-90.10405344912232
"70115","New Orleans","LA","Gravity Defying Fitness","4521 Magazine St, New Orleans, LA 70115","70115",29.920949935913086,-90.1033706665039
"70115","New Orleans","LA","Pure Barre","4712 Magazine St","70115",29.9203875,-90.10536789999999
"70115","New Orleans","LA","Freret St. Boxing Gym","4510 Freret St","70115",29.934948,-90.10458
"70115","New Orleans","LA","Uptown Fitness","4834 Pitt St","70115",29.925094604492188,-90.10745239257812
"70115","New Orleans","LA","New Orleans Fencers Club","5212 S Claiborne Ave","70125",29.940759000000003,-90.10935
"70115","New Orleans","LA","All-Inclusive Health","4121 Magazine Street","70115",29.9212205,-90.09865743
"70115","New Orleans","LA","SMX Training","735 Octavia St","70115",29.9206727,-90.11607029999999
"70115","New Orleans","LA","De La Salle Gym","5300 Saint Charles Ave","70115",29.926531,-90.112169
"70115","New Orleans","LA","Temple Gym","4521 Magazine St","70115",29.920714406484482,-90.10326813408142
"70115","New Orleans","LA","Chippewa Fitness","2818 Chippewa st","70115",29.922426,-90.080242
"70115","New Orleans","LA","New Orleans Fencers Club","Jefferson Ave","70115",29.940606129956038,-90.10912185587064
"70116","New Orleans","LA","Downtown Fitness @ New Orleans Healing Center","2372 Saint Claude Ave","70117",29.96852842741795,-90.05237852909588
"70116","New Orleans","LA","24Hr. Fitness","1440 Marais St","70116",29.968090057373047,-90.06488037109375
"70116","New Orleans","LA","SWEAT Fitness Center - W New Orleans French Quarter","316 Chartres St","70130",29.95457699906222,-90.06607079275842
"70116","New Orleans","LA","Gymnase à la Maison","1014 Dumaine St","70116",29.961517999999998,-90.066425
"70116","New Orleans","LA","The Gym at the Hotel Monteleone","Rue royale","not_available",29.954084934592775,-90.06796378840595
"70117","New Orleans","LA","Anytime Fitness","3817 Chartres St","70117",29.96102,-90.03818
"70118","New Orleans","LA","Reily Student Recreation Center","McAlister Place","70118",29.943320679959733,-90.11709967422159
"70118","New Orleans","LA","Anytime Fitness","4900 Canal St","70119",29.97994,-90.10909
"70118","New Orleans","LA","French Riviera Fitness","8350 Earhart Blvd","70118",29.962477337486646,-90.1175645507187
"70118","New Orleans","LA","New Orleans Country Club","5024 Pontchartrain Blvd","70118",29.9784496249945,-90.11427313640397
"70118","New Orleans","LA","GymMatrix - Uptown","5300 Tchoupitoulas St","70115",29.916344538118285,-90.11281805975594
"70119","New Orleans","LA","CrossFit NOLA 504","540 N Cortez St, New Orleans, LA 70119","70119",29.97623868231708,-90.09430289096709
"70119","New Orleans","LA","Orangetheory Fitness Mid City New Orleans","4141 Bienville Street Suite 107","70119",29.97741610423994,-90.09964168179445
"70119","New Orleans","LA","Zone Fit Nola LLC","5590 Canal Blvd","70124",29.99168,-90.11001
"70119","New Orleans","LA","The Esplanade At City Park Gym","not_available","70119",29.983940680764576,-90.08820414568265
"70119","New Orleans","LA","highpower CYCLE|YOGA","514 City Park Ave","70119",29.98337715069303,-90.10484942258697
"70119","New Orleans","LA","2nd To None Fitness","400 S Broad St","70119",29.962531,-90.089672
"70119","New Orleans","LA","Jesuit High School Gym","Banks Street","70119",29.97212419158277,-90.1039347376814
"70119","New Orleans","LA","Marquis Fitness Center","2651 Poydras St","70119",29.958749771118164,-90.09236145019531
"70119","New Orleans","LA","AmCan Gym","3700 Orleans Ave","70119",29.97725517770577,-90.09407829968785
"70119","New Orleans","LA","Gym @Crescent Club","3000 Tulane Ave","70119",29.963483810424805,-90.09512329101562
"70119","New Orleans","LA","NOPD Gym","715 S Broad St","70119",29.960840225219727,-90.09266662597656
"70122","New Orleans","LA","Anytime Fitness","2141 Caton St","70122",29.99903,-90.06079
"70122","New Orleans","LA","Columbia Parc at the Bayou District - Fitness Center","not_available","70122",29.995086808906894,-90.077682176191
"70122","New Orleans","LA","Church's Karate Academy | New Orleans Martial Arts","4716 Paris Ave","70122",30.006109999999996,-90.075144
"70122","New Orleans","LA","Lagniappe CrossFit","2168 Agriculture St","70122",29.987413,-90.058868
"70124","New Orleans","LA","Snap Fitness","785 Harrison Ave","70124",30.004667412794138,-90.10597985947055
"70124","New Orleans","LA","Sculpt","514 City Park Ave","70124",30.00541114807129,-90.11691284179688
"70124","New Orleans","LA","Anytime Fitness","125 Robert E Lee Blvd","70124",30.02087,-90.11185
"70124","New Orleans","LA","The Parks Health and Fitness","111 Robert E Lee Blvd","70124",30.0213603,-90.112478
"70124","New Orleans","LA","GNOTRI","7306 Lakeshore Dr","70124",30.023560999999997,-90.113734
"70124","New Orleans","LA","NOLA Xtreme Fitness","5304 Canal Blvd","70124",29.987000200702166,-90.11076287116366
"70124","New Orleans","LA","Body Doctor's","4438 St. Louis St","70119",29.9807805731931,-90.10193039592941
"70124","New Orleans","LA","NOLA bootcamp","not_available","70124",30.006157839337018,-90.1055191089924
"70125","New Orleans","LA","Broadmoor Fitness Center","4200 Washington Ave","70125",29.95257239633778,-90.10163819992547
"70125","New Orleans","LA","Dirty Barre Gym","Smexi-ville","70125",29.942720688946903,-90.10621314808432
"70126","New Orleans","LA","Planet Fitness","5790 Crowder Blvd","70127",30.027881,-89.99412
"70127","New Orleans","LA","Poise Dance Studio","not_available","70127",30.045243950613095,-89.96424090204839
"70127","New Orleans","LA","Anytime Fitness","5941 Bullard Ave Ste. 1-3","70128",30.04095,-89.95529
"70127","New Orleans","LA","Anytime Fitness","5941 Bullard Avenue, Suites 1, 2 & 3","70126",30.04063606262207,-89.95543670654297
"70128","New Orleans","LA","City Church Gym","New Orleans","70116",30.05480984072687,-89.95130391302227
"70130","New Orleans","LA","Health Club by Hilton","2 Poydras St","70130",29.94658443194772,-90.06376058592662
"70130","New Orleans","LA","Fitness Center","300 Poydras St","70130",29.948211669921875,-90.06620788574219
"70130","New Orleans","LA","Outer Ring Of Masquerade","8 Canal St","70130",29.94890022277832,-90.06463623046875
"70131","New Orleans","LA","Anytime Fitness","5163 General Degaulle Ste J","70131",29.91125,-90.00053
"70301","Thibodaux","LA","Snap Fitness Thibodaux","1655 Saint Mary St","70301",29.80073627257991,-90.84840960507057
"70301","Thibodaux","LA","Massage & Body Work","not_available","70301",29.784696027627607,-90.84616109022113
"70301","Thibodaux","LA","Koko Fit Club","430-498 N Canal Blvd","70301",29.807981015940335,-90.81632757163126
"70301","Thibodaux","LA","Anytime Fitness","127 Laura Dr.","70301",29.80126,-90.81985
"70301","Thibodaux","LA","Anytime Fitness","4882 LA-1","70394",29.69106,-90.5514
"70301","Thibodaux","LA","Workout Company","115 Johnny Dufrene Dr","70394",29.69349919152182,-90.55434143981475
"70301","Thibodaux","LA","Bayou Barbell Strength & Conditioning","201C Saint Mary St","70301",29.795574188232422,-90.82354736328125
"70341","Belle Rose","LA","Rick's Fitness Gym","Hwy 70","70341",30.000747,-91.043334
"70342","Berwick","LA","Anytime Fitness","1201 Hwy 90 E Ste 102","70380",29.68319,-91.26317
"70345","Cut Off","LA","Anytime Fitness","14057 E Main St","70345",29.549542,-90.342812
"70345","Cut Off","LA","X-treme Fitness","not_available","70345",29.458731417817923,-90.30862277763481
"70346","Donaldsonville","LA","Anytime Fitness","3000 Thibaut Dr. Ste. E","70346",30.09609,-90.98304
"70346","Donaldsonville","LA","Anytime Fitness","Woodlawn","70068",30.206652,-90.945955
"70346","Donaldsonville","LA","Snap Fitness","6473 Highway 44","70737",30.165735244750977,-90.92009735107422
"70346","Donaldsonville","LA","Anytime Fitness","3228 S Burnside Ave","70737",30.20147,-90.91973
"70360","Houma","LA","Planet Fittness","MLK","70360",29.607557193007324,-90.7489604911422
"70360","Houma","LA","Hollywood Fitness","235A N Hollywood Rd","70364",29.610686336123877,-90.73290785697219
"70360","Houma","LA","Houma Highlands Gym","not_available","70360",29.596272371617392,-90.75859357717711
"70360","Houma","LA","Workout Company","443 Corporate Dr","70360",29.60466063067182,-90.75451949312402
"70360","Houma","LA","Herques House Gym","Highway 311","70360",29.611423780218097,-90.78147681443781
"70360","Houma","LA","Body Elite West","136-168 Westside Blvd","70364",29.62356361,-90.74787547
"70360","Houma","LA","Planet Fitness","1539 Martin Luther King Blvd","70360",29.608607,-90.751307
"70360","Houma","LA","Tiger-rock Martial Arts of Houma, LA","5953 West Park Ave., Southland Mall Ste 3005","70364",29.63593230191958,-90.75551376190185
"70360","Houma","LA","Evolution Training","407 N Hollywood Rd Ste B","70364",29.611981861272387,-90.72876926439068
"70360","Houma","LA","D.A.N.C.E.","580 Corporate Dr","70360",29.608323,-90.756038
"70363","Houma","LA","Da Mini Hotel Gym","Oaklawn Dr","70363",29.576178,-90.6886524
"70363","Houma","LA","Anytime Fitness","1128 Grand Caillou Rd","70363",29.57887,-90.69077
"70363","Houma","LA","Average Joe's Gym","not_available","70364",29.605397,-90.664907
"70364","Houma","LA","Songe Hotel","134 Songe Ct","70364",29.635900497436523,-90.68019104003906
"70374","Lockport","LA","Snap Fitness","5204 LA-1","70394",29.672064,-90.546149
"70380","Morgan City","LA","Atchafalya 24hr Fitness","not_available","70380",29.696264495278044,-91.18103654716208
"70380","Morgan City","LA","Anytime Fitness","1340 Elm St. Ste. 100","70380",29.70652961730957,-91.20256805419922
"70380","Morgan City","LA","Atchafalaya Health Club","Victor II Blvd","70380",29.696178609090005,-91.18115380143067
"70401","Hammond","LA","Snap Fitness","not_available","70401",30.50038378495937,-90.48130324542886
"70401","Hammond","LA","Planet Fitness","1719 W Thomas St","70401",30.499428,-90.479431
"70401","Hammond","LA","Spoga","not_available","70403",30.503884547614234,-90.46291743610287
"70403","Hammond","LA","Snap Fitness","1360-18641 Louisiana 22","70454",30.44421344449391,-90.41904215025598
"70403","Hammond","LA","Ponchtoula Fitness Center","1038-1098 U.S. 51 Business","70454",30.44469370982074,-90.45632020118938
"70403","Hammond","LA","Anytime Fitness","115 Berryland Shopping Center","70454",30.43623,-90.45414
"70403","Hammond","LA","Anytime Fitness","19115 Florida Blvd","70711",30.50447322,-90.58094002
"70403","Hammond","LA","Your Body My Business","1681 Highway 51","70454",30.453746,-90.456501
"70403","Hammond","LA","AdrenaZone Nutrition & Fitness","1712 SW Railroad Ave Ste F","70403",30.486034393310547,-90.45709228515625
"70403","Hammond","LA","Gracie United - Hammond/Ponchatoula","1675 Hwy 51","70454",30.45392636892973,-90.45663602650166
"70403","Hammond","LA","Pine Crest Gym","not_available","70433",30.48073903402547,-90.45443127593167
"70403","Hammond","LA","Chappapeela Sports Park","19325 Hipark Blvd","70403",30.48247,-90.40386
"70403","Hammond","LA","Anytime Fitness","44200 LA-445","70455",30.50081,-90.34384
"70403","Hammond","LA","Spirit Professionals","210 Hewitt Rd","70403",30.49032278634137,-90.45908003716079
"70403","Hammond","LA","Ponchatoula Karate Center","311 N 5th St","70454",30.442324,-90.44112
"70420","Abita Springs","LA","Workout 24/7","Hwy 59","not_available",30.425804,-90.040653
"70420","Abita Springs","LA","Training","Hwy 36","not_available",30.480665,-90.038221
"70422","Amite","LA","Anytime Fitness","114 W Chestnut St","70422",30.72557,-90.50968
"70427","Bogalusa","LA","Snap Fitness","not_available","70427",30.790411506604336,-89.86092440849505
"70433","Covington","LA","YMCA","71256 Francis Rd","70433",30.468792891282074,-90.14981707885482
"70433","Covington","LA","Franco's Athletic Club","100 Bon Temps Roule","70471",30.405705816479877,-90.12684838631901
"70433","Covington","LA","Anytime Fitness","1205 Village Walk","70433",30.47921,-90.09251
"70433","Covington","LA","French Riviera Fitness","109 Crestwood Blvd","70433",30.455022011552103,-90.08287729496651
"70433","Covington","LA","Planet Fitness","401 N Highway 190","70433",30.436094,-90.08665
"70433","Covington","LA","FitCamp","105 Campbell Blvd","70471",30.408317216989836,-90.04197177202757
"70433","Covington","LA","Star Fitness Center","340 Falconer Dr","70433",30.441842760623473,-90.07703823515187
"70433","Covington","LA","Beau Chene Fitness Center","N Beau Chene Dr","70471",30.40962875,-90.10914064
"70433","Covington","LA","Franco's Free Weights","not_available","70471",30.405741570940545,-90.1269122176939
"70433","Covington","LA","Stone Creek Club and Spa","1201 Oschner Blvd.","70433",30.452048562184206,-90.14214674128853
"70433","Covington","LA","CrossFit Launch","111 Cambell Ave.","not_available",30.407945,-90.042802
"70433","Covington","LA","Holiday Fitness","301 N Highway 190 #D1","70433",30.434541448042783,-90.086617055874
"70433","Covington","LA","Athletic republic","Northpark blvd","not_available",30.443982840967415,-90.08981525423407
"70433","Covington","LA","Anytime Fitness","70325 SR 1077 Ste 1D","70433",30.45175,-90.17569
"70433","Covington","LA","Exclusive Fitness Studios","1645 N Highway 190 Ste 500","70433",30.454681396484375,-90.083251953125
"70435","Covington","LA","Anytime Fitness","82205 Orange St","70437",30.6265,-90.18732
"70438","Franklinton","LA","Anytime Fitness","1719 Washington St","70438",30.847,-90.14347
"70445","Lacombe","LA","Anytime Fitness","2020 Hwy 190 W Ste 105","70460",30.29979,-89.81551
"70446","Loranger","LA","Garretts Gym","not_available","70446",30.60597,-90.390689
"70448","Mandeville","LA","Orangetheory Fitness","3549 U.S. 190","70471",30.394124,-90.085006
"70448","Mandeville","LA","Orangetheory Fitness","3549 Highway 190","70471",30.392990112304688,-90.08541870117188
"70448","Mandeville","LA","Crossfit Mandeville","4240 Highway 22","70471",30.394742,-90.09564
"70448","Mandeville","LA","Pelican Athletic Club","1170 Meadowbrook Blvd","70471",30.386983312244066,-90.07786832613613
"70448","Mandeville","LA","Hwy 22 Gym","4240 LA-22","70471",30.395565032958984,-90.09513854980469
"70448","Mandeville","LA","Snap Fitness 24-7","3442 East Causeway","70448",30.37523029246459,-90.0880724121497
"70448","Mandeville","LA","LA Boxing","Chenier","not_available",30.376636505126953,-90.07616424560547
"70448","Mandeville","LA","Stephanie Haydel's Northshore Taekwondo","929 Louisiana 59","70448",30.3640848,-90.0610823
"70448","Mandeville","LA","Freedom Fitness","2040 Highway 59 #B","70448",30.382649391283703,-90.05091905593872
"70448","Mandeville","LA","MSC Gym","Hwy 1088","not_available",30.384715521463193,-90.02317606980588
"70448","Mandeville","LA","Next Level Fitness Inc.","211 W Causeway Approach","70448",30.376693725585938,-90.09186553955078
"70448","Mandeville","LA","Mandeville Sports Complex","not_available","70448",30.384758119965383,-90.023200259898
"70448","Mandeville","LA","Anytime Fitness","1705 Hwy. 59","70448",30.37553,-90.05388
"70448","Mandeville","LA","Mike Storms Karate","4420 Highway 22","70471",30.396471696413624,-90.10110050439835
"70448","Mandeville","LA","Crossfit Francos (The Box)","1801 N Causeway Blvd","70471",30.39204216003418,-90.08731842041016
"70448","Mandeville","LA","Gracie United - Mandeville","813 Florida St Ste E","70448",30.354942321777344,-90.0427017211914
"70448","Mandeville","LA","Pure Barre","1814 N Causeway Blvd Ste 8","70471",30.3932724,-90.0906568
"70448","Mandeville","LA","Koko FitClub of Mandeville, LA","3441 E Causeway Approach","70448",30.3755415,-90.0879327
"70449","Maurepas","LA","Anytime Fitness","12713 Water Way Dr","70449",30.25515,-90.76774
"70452","Pearl River","LA","Anytime Fitness","64724 SR-41","70452",30.37255,-89.76484
"70458","Slidell","LA","Ohana Wellness","Lakewood Drive","70458",30.282899276413726,-89.75813448429108
"70458","Slidell","LA","Anointed Hands Boxing","3805 Pontchartrain Dr","70458",30.25354766845703,-89.79078674316406
"70458","Slidell","LA","CrossFit FYR","101 Production Dr","70460",30.314334869384766,-89.77469635009766
"70458","Slidell","LA","Planet Fitness","131 Gause Blvd W","70460",30.28552990074864,-89.78191022396946
"70458","Slidell","LA","HakunaMata Gym","56713.5 Cass St","70458",30.254708,-89.7668
"70458","Slidell","LA","Anytime Fitness Slidell","not_available","70461",30.2868781069253,-89.73825937702186
"70458","Slidell","LA","Crossgates @ Ponchartrain","not_available","70458",30.24827117350961,-89.79269560238315
"70458","Slidell","LA","Trainer's Choice Vitamins","1321 Gause Blvd","70458",30.28424835205078,-89.76374816894531
"70458","Slidell","LA","LA Fitness","390 Town Center Pkwy","70458",30.2646018500256,-89.76062969778881
"70501","Lafayette","LA","Anytime Fitness","505 West Pont Des Mounton Rd","70507",30.272985,-92.02981
"70501","Lafayette","LA","Planet Fitness","1800 NE Evangeline Thruway","70501",30.247520104357154,-92.0069604257741
"70501","Lafayette","LA","Qivanna Health Systems Lafayette Louisiana","not_available","70501",30.211762,-92.007107
"70501","Lafayette","LA","Domingue Center","Park Avenue","not_available",30.23279912047077,-92.00696420522456
"70501","Lafayette","LA","Impact Room","1508 Surrey St","70501",30.217564000000003,-91.992914
"70503","Lafayette","LA","Red Lerille's Health & Racquet Club","301 Doucet Rd","70503",30.20036895500063,-92.04420353858912
"70503","Lafayette","LA","Pure Barre","4243 Ambassador Caffery Pkwy Ste 117","70508",30.161218099637328,-92.05225218214315
"70503","Lafayette","LA","Anytime Fitness","3524 Kaliste Saloom Rd","70508",30.14102,-92.06208
"70503","Lafayette","LA","CYCLEBAR","4243 Ambassador Caffery Pkwy Ste 113","70508",30.161555994204907,-92.05259242752527
"70503","Lafayette","LA","Campus Edge Gym","not_available","70506",30.216718549265174,-92.05138709970164
"70503","Lafayette","LA","Iron House","not_available","70508",30.165444,-92.020135
"70503","Lafayette","LA","Back yard gym","121 Maple","70506",30.1935699,-92.06781988333333
"70503","Lafayette","LA","Anytime Fitness","4517 Johnston St","70503",30.191392999999998,-92.05812
"70503","Lafayette","LA","Mirror 2 Mirror Images","2835 Verot School Rd","70508",30.142751,-92.032057
"70503","Lafayette","LA","Home Gym","928","70503",30.188537735659736,-92.04366360492158
"70503","Lafayette","LA","Snap Fitness","1521 W Pinhook Rd","70503",30.196014,-92.015563
"70503","Lafayette","LA","CrossFit Lafayette","313 Pinehurst St","70508",30.157076725047556,-92.05140610398821
"70503","Lafayette","LA","LGMC Wellness Center","111 Pasa Place","70503",30.20194180707,-92.02187850506007
"70503","Lafayette","LA","iLoveKickboxing - Lafayette, LA","318 Bertrand Drive","70506",30.2090061,-92.0425521
"70503","Lafayette","LA","Snap Fitness 24/7","2425 W Congress St","70506",30.21371551146008,-92.04836581301984
"70503","Lafayette","LA","Physiques Women's Fitness Center","2505 Verot School Rd","70508",30.149653000000004,-92.02885
"70503","Lafayette","LA","The Fit Room","2946 Johnston St","70503",30.206225,-92.04211
"70503","Lafayette","LA","Club4 Lafayette","4516 Ambassador Caffery Parkway","70508",30.15538229999999,-92.04702259999999
"70503","Lafayette","LA","GAINZville, La","Cajundome Blvd","70506",30.21299770087123,-92.03789817537192
"70503","Lafayette","LA","Hilton Fitness","not_available","70503",30.19595574720982,-92.01508300828995
"70506","Lafayette","LA","Anytime Fitness","101 Park West Dr","70583",30.24276,-92.1006
"70506","Lafayette","LA","Ragin Cajun Crossfit","815 Cajundome Blvd","70506",30.229841999999998,-92.04731
"70506","Lafayette","LA","Outrage Athletics","116 Luke Dr","70506",30.22097,-92.06092
"70507","Lafayette","LA","Opti-Fit-MD","206 E Saint Peter St","70520",30.317056,-92.047268
"70507","Lafayette","LA","The Gym","not_available","70507",30.287091023971527,-92.01984413677197
"70507","Lafayette","LA","Anytime Fitness","115 Derek Plaza Dr Ste 105","70520",30.32041,-92.03958
"70507","Lafayette","LA","Aj's GYM","Jack st.","70520",30.319839311699134,-92.04686481681814
"70508","Lafayette","LA","Snap Fitness","not_available","70592",30.110560999999997,-92.02095200000001
"70508","Lafayette","LA","Snap Fitness","2800 W Pinhook Rd","70508",30.17631951278018,-92.00373506383289
"70508","Lafayette","LA","Anytime Fitness","1700 Chemin Metairie Pkwy Ste 603","70592",30.105907,-92.01619
"70508","Lafayette","LA","Full Circle Health Sugar Mill Pond","120 Waterview Rd Apt 101","70592",30.10252094193571,-92.00967030820775
"70508","Lafayette","LA","Cajun Fitness","818 Fortune Road","70592",30.12303612,-92.00829919
"70510","Abbeville","LA","Anytime Fitness","200 Veterans Memorial Dr","70548",29.99842,-92.28744
"70510","Abbeville","LA","Snap Fitness","109 Rue Centre Suite 3 hwy 14","70510",29.971403121948242,-92.0917739868164
"70510","Abbeville","LA","Body Quest","601 E Jane St","70510",29.991525650024414,-92.12374877929688
"70510","Abbeville","LA","Curves","100 Thomas St","70510",29.977733,-92.141518
"70510","Abbeville","LA","Healthworks","not_available","70510",29.964676,-92.141841
"70510","Abbeville","LA","Anytime Fitness","3015 Veterans Memorial Dr","70510",29.97186,-92.09625
"70512","Arnaudville","LA","Gibsons Energy Services Gym","4500 NE Evangeline Trwy","70520",30.350317001342773,-92.04084777832031
"70515","Basile","LA","Iota Fitness","not_available","70543",30.330823,-92.495629
"70517","Breaux Bridge","LA","Anytime Fitness","1880 Rees St","70517",30.29064,-91.91143
"70517","Breaux Bridge","LA","Gold's Gym","1400 Rees St","70517",30.285095204865033,-91.90483640637729
"70517","Breaux Bridge","LA","QOS Fitness Zone","not_available","70582",30.213788,-91.834386
"70517","Breaux Bridge","LA","Giovinazzo Gym and Yoga Studio","not_available","70517",30.282195794030212,-91.90575224464105
"70517","Breaux Bridge","LA","Enso Fitness","1446 Mills Hwy","70517",30.264551162719727,-91.93497467041016
"70517","Breaux Bridge","LA","Noel Fitness and Performance","1353 Sawmill Hwy","70517",30.327992,-91.943199
"70518","Broussard","LA","Anytime Fitness","156 Heritage Pkwy","70518",30.08907,-91.94133
"70518","Broussard","LA","Fitness & Beyond","Albertsons Pkwy","not_available",30.1385795416599,-91.95579445616131
"70518","Broussard","LA","ESA Weight Room","not_available","70518",30.085943,-91.912918
"70518","Broussard","LA","Cajun Fitness","812 East Main Street","70518",30.14426448,-91.95314461
"70518","Broussard","LA","Real Fit","817 Albertson Pkwy Ste E","70518",30.13896369999999,-91.9617686
"70525","Church Point","LA","Anytime Fitness","219-E S Main St","70525",30.40369,-92.21611
"70526","Crowley","LA","Anytime Fitness","1506 N Parkerson Ave","70526",30.225012,-92.37848699999999
"70526","Crowley","LA","Anytime Fitness","1401 The Blvd","70578",30.24977,-92.27052
"70528","Delcambre","LA","Red  Rush","not_available","70560",29.947553,-91.962775
"70535","Eunice","LA","Anytime Fitness","1516 Hwy 190 Ste G","70535",30.49421,-92.44822
"70535","Eunice","LA","Cajun Fitness","163 North Bobcat Drive","70535",30.4968464,-92.4406
"70538","Franklin","LA","Anytime Fitness","1812 Main St","70538",29.80773,-91.5061
"70546","Jennings","LA","Anytime Fitness","1210 Elton Rd","70546",30.23199,-92.66208
"70546","Jennings","LA","CrossFit Jennings Unlimited","not_available","70546",30.23162078857422,-92.68177032470703
"70546","Jennings","LA","Health & Fitness Gym Jennings, LA","Jennings Airport, 5, LA 70546","70546",30.240418606168483,-92.66106753521589
"70555","Maurice","LA","Anytime Fitness","8905 Maurice Ave","70555",30.10562,-92.12427
"70555","Maurice","LA","Heighten Coaching & Events","430 E Lafayette St","70555",30.10848045349121,-92.12249755859375
"70560","New Iberia","LA","Anytime Fitness","507 Jefferson Terrace Blvd","70560",29.99108,-91.80416
"70560","New Iberia","LA","Snap Fitness","722 E Admiral Doyle Dr","70560",29.98798942565918,-91.82666778564453
"70560","New Iberia","LA","Canadian Gym and Pool","3912 Avenue Bonne Terre","70563",29.991310119628906,-91.78237915039062
"70560","New Iberia","LA","Curves","703 S Lewis St","70560",29.99216651916504,-91.8114242553711
"70560","New Iberia","LA","main street fitness","Main Street","70560",30.018638610839844,-91.82634735107422
"70570","Opelousas","LA","Cajun Fitness","2930 South Union Street","70570",30.50007124,-92.08842357
"70570","Opelousas","LA","Anytime Fitness","1901 S Union St","70570",30.51488,-92.08293
"70570","Opelousas","LA","Swimming Lessons","not_available","70584",30.415371,-92.080708
"70578","Rayne","LA","Cajun Fitness","1225 Church Point Highway","70578",30.2576717,-92.2662321
"70582","Saint Martinville","LA","Anytime Fitness","2230 N Main Hwy","70582",30.14501,-91.82279
"70582","Saint Martinville","LA","The burn room","1010 hyde st","70582",30.132123,-91.72717
"70583","Scott","LA","Elite Fitness & Kettlebell Systems","not_available","70583",30.240623,-92.098614
"70586","Ville Platte","LA","Anytime Fitness","921 E Lasalle St","70586",30.68612,-92.26018
"70586","Ville Platte","LA","Anytime Fitness","1221 NW Main St","71322",30.96208065070186,-92.19701886177062
"70592","Youngsville","LA","iLoveKickboxing - Youngsville, LA","905 Savoy Rd Ste 7","70592",30.094303131103516,-92.0165786743164
"70601","Lake Charles","LA","Curves","605 W College St","70605",30.196229934692383,-93.228271484375
"70601","Lake Charles","LA","Performance Evolution Gym","not_available","70601",30.211758,-93.21826
"70601","Lake Charles","LA","Dreams 2 Reality Sports Performance","3000 Kirkman St","70601",30.2022785,-93.21004783
"70601","Lake Charles","LA","Recrearion District 1 - Ward 4","not_available","70669",30.24880779617438,-93.25842399545745
"70601","Lake Charles","LA","Reality Fitness","2419 20th St","70601",30.20257568359375,-93.18401336669922
"70601","Lake Charles","LA","Crossfit Lake Charles","426 Broad St","70601",30.229379653930664,-93.21469116210938
"70601","Lake Charles","LA","Gigi's","Division St","70601",30.230203033030623,-93.21657156661153
"70601","Lake Charles","LA","RayGyms","3113 Ryan St","70601",30.199644088745117,-93.2180404663086
"70601","Lake Charles","LA","Anytime Fitness","630 W Prien Lake Rd Shoppes at Prien Lake","70601",30.19882,-93.22907
"70605","Lake Charles","LA","The Front Yard","1809.11 New School Rd","70605",30.18926155,-93.24993181666666
"70605","Lake Charles","LA","The Treadmill Of Pain","1506 N Covey Ln","70605",30.192590713500977,-93.24329376220703
"70605","Lake Charles","LA","Snap Fitness","2712 Country Club Rd","70605",30.170041956167122,-93.26471504391851
"70605","Lake Charles","LA","Anytime Fitness","4740 Nelson Rd Ste 110","70605",30.171152114868164,-93.25052642822266
"70605","Lake Charles","LA","Project Fit","3814 Ryan St Ste 200","70605",30.1884452,-93.21912909999999
"70605","Lake Charles","LA","Orangetheory Fitness","4540 Nelson Rd","70605",30.175098419189453,-93.2496566772461
"70605","Lake Charles","LA","Planet Fitness","4068 Ryan St","70605",30.184976546537463,-93.2211664578242
"70605","Lake Charles","LA","Gym","not_available","70605",30.163034265403518,-93.2508222432106
"70607","Lake Charles","LA","The Little Gym","not_available","70607",30.176563,-93.202358
"70607","Lake Charles","LA","Unique Fitness","645 Petro Point Dr","70607",30.16509246826172,-93.2093505859375
"70611","Lake Charles","LA","Anytime Fitness","277 Hwy. 171 N. Ste. 5, 6 and 7","70611",30.30499,-93.19608
"70611","Lake Charles","LA","Crossfit in the Bluff","469 HWY 171","70611",30.307510549752475,-93.19548005231783
"70615","Lake Charles","LA","National Wastewater Systems Inc","6754 Highway 90 E","70615",30.2372349,-93.1069503
"70631","Cameron","LA","Body Workz","not_available","77630",30.03938366,-93.87619245
"70631","Cameron","LA","CrossFit Bridge City","405 Parkside Dr","77611",30.03828239440918,-93.8431396484375
"70631","Cameron","LA","The Next Level Tumble & Cheer","870 Center St","77611",30.034422692173017,-93.83438901630366
"70631","Cameron","LA","Bodyworks Bridge City","not_available","77611",30.00122627905459,-93.86527425848698
"70631","Cameron","LA","Fitness 24","not_available","77619",29.93063,-93.92492
"70631","Cameron","LA","Anytime Fitness","1145 Texas Ave","77611",30.02716,-93.84055
"70631","Cameron","LA","Tiger Rock Martial Arts of Bridge City","1955 Miller Drive","77611",30.0375865,-93.8512962
"70633","Dequincy","LA","All Hours Fitness","314 W 4th St","70633",30.45207977294922,-93.44084167480469
"70634","Deridder","LA","All Hours Fitness","1015 N Pine St","70634",30.8626708984375,-93.28753662109375
"70634","Deridder","LA","Cross Training Gym & Fitness","725 West Dr","70634",30.853477478027344,-93.29337310791016
"70634","Deridder","LA","The You Better Work Room","not_available","70634",30.83764,-93.269658
"70647","Iowa","LA","Anytime Fitness","214 S Thompson St","70647",30.23578,-93.01375
"70647","Iowa","LA","Louisiana Powerhouse","509 E Hi way 90","not_available",30.23175327811432,-93.00539744958017
"70648","Kinder","LA","Coushatta Grand Gym","not_available","70648",30.545146178260072,-92.81370511325046
"70655","Oberlin","LA","All Hours Fitness","229 E 6th Ave","71463",30.81560227531153,-92.66162044748793
"70656","Pitkin","LA","Tiger Gym","not_available","71459",31.110572407026226,-93.16823693214268
"70663","Sulphur","LA","Sulphur Parks and Recreation","933 W Parish Rd","70663",30.2228019,-93.38646419999999
"70663","Sulphur","LA","Lake Charles Martial Arts","571 Marshall St","70665",30.212411880493164,-93.37142944335938
"70663","Sulphur","LA","Olympic","Post oak","not_available",30.23096371587953,-93.35127223385331
"70663","Sulphur","LA","Dynamic Dimensions","545 Cypress St","70663",30.23075576265394,-93.37104698818194
"70663","Sulphur","LA","Anytime Fitness","333 N Cities Service Hwy","70663",30.23119,-93.32749
"70663","Sulphur","LA","Snap Fitness","not_available","70663",30.229203652344413,-93.36000705008404
"70706","Denham Springs","LA","Premier Fitness Center","35055 LA Highway 16","70706",30.576574325561523,-90.9569091796875
"70706","Denham Springs","LA","C's GYM","33538 Nancy Dr","70785",30.55525779724121,-90.84292602539062
"70706","Denham Springs","LA","Anytime Fitness","32350 Hwy 16 Bldg N","70706",30.53865,-90.95578
"70706","Denham Springs","LA","Patsy's Fitness Center","not_available","70706",30.59090495109558,-90.94139099121094
"70710","Addis","LA","Dow-Westside YMCA","3688 Sugar Plantation Pkwy","70710",30.37486837533171,-91.25560042989227
"70714","Baker","LA","Anytime Fitness","11231 Lovett Rd","70818",30.53202,-91.06088
"70714","Baker","LA","CreoleFitQueens","7512 Oak Fern Pl","70811",30.552489,-91.113465
"70719","Brusly","LA","Spectrum 24/7","not_available","70767",30.405325,-91.230116
"70726","Denham Springs","LA","Planet Fitness","2334 S Range Ave","70726",30.459255,-90.95513
"70726","Denham Springs","LA","Gym","not_available","70726",30.517805,-90.956036
"70726","Denham Springs","LA","Anytime Fitness","17900 Airline Hwy","70769",30.33913,-90.98863
"70726","Denham Springs","LA","Planet Beach Prairieville","17188 Airline Hwy Ste F","70769",30.321902073484566,-90.97794198993142
"70726","Denham Springs","LA","Foxy's Fitness Center","17775 Airline Hwy","70769",30.335417487035116,-90.98814814861453
"70726","Denham Springs","LA","Snap Fitness Watson","1217 N Range Ave","70726",30.4994916786579,-90.95658888342814
"70726","Denham Springs","LA","Revolution Fitness","31839 LA Highway 16 Ste A","70726",30.529746501418916,-90.9564547281551
"70726","Denham Springs","LA","Anytime Fitness","28799 Walker S Rd","70785",30.47991,-90.86406
"70726","Denham Springs","LA","Anytime Fitness","25550 Juban Rd","70726",30.43744,-90.91342
"70726","Denham Springs","LA","Jazzercise Prairieville Fitness Center","17424 Airline Hwy Ste 8","70769",30.327578073677994,-90.98211765289305
"70726","Denham Springs","LA","Body Sculpt Barre Studio","17900 Airline Hwy Ste B","70769",30.33872,-90.98964640000001
"70726","Denham Springs","LA","CrossFit 225","not_available","70769",30.335689742654555,-90.98967352893986
"70726","Denham Springs","LA","spectrum fitness","Aspen Square","70726",30.46021538426089,-90.95297005252479
"70726","Denham Springs","LA","Snap Fitness","40363 Louisiana 42","70769",30.323550008696518,-90.9288219488551
"70734","Geismar","LA","Anytime Fitness","36533 C Braud Rd","70769",30.268685975741803,-90.98949909210205
"70737","Gonzales","LA","Snap Fitness","not_available","70737",30.283173398503912,-90.92166733428475
"70737","Gonzales","LA","Anytime Fitness","13091 Airline Hwy","70737",30.25586,-90.93071
"70737","Gonzales","LA","The Mansions Gym","14086 Airline Hwy","70737",30.27239990234375,-90.94303894042969
"70737","Gonzales","LA","S.I.C.A. MMA and Fitness","1452 N Airline Hwy","70737",30.245396,-90.9186029
"70737","Gonzales","LA","Gracie United - Team Jucao Ascension","14210 Airline Hwy Ste I","70737",30.274245530095484,-90.94500660896301
"70737","Gonzales","LA","D4 Gym","2525 W Orice Roth Rd #D4","70737",30.216053009033203,-90.9500503540039
"70739","Greenwell Springs","LA","WORK OUT ROOM","not_available","70739",30.497093200683594,-90.99198913574219
"70739","Greenwell Springs","LA","Spectrum Central","not_available","70818",30.55901245193948,-91.02515589985025
"70739","Greenwell Springs","LA","Snap Fitness","14415 Greenwell Springs Rd","70739",30.513762956684502,-91.0289834103298
"70739","Greenwell Springs","LA","Snap Fitness Walker","not_available","70785",30.481094693661145,-91.02815580954265
"70740","Grosse Tete","LA","The shed","not_available","70740",30.42265,-91.449383
"70744","Holden","LA","Anytime Fitness","29526 Frost Rd","70754",30.49013,-90.74783
"70748","Jackson","LA","Anytime Fitness","2220 Church St.","70791",30.65186,-91.18139
"70748","Jackson","LA","CrossFit Zachary","5041 Highway 19","70791",30.652399,-91.15009
"70748","Jackson","LA","Svensson Gym","not_available","70791",30.65598709507796,-91.18327381539069
"70748","Jackson","LA","Zachary Parkside Gym","20051 Old Scenic Hwy","70791",30.650910999999997,-91.195557
"70764","Plaquemine","LA","Indigo Park Fitness Center","not_available","70810",30.344287606825674,-91.13821856991689
"70764","Plaquemine","LA","Snap Fitness Plaquemine","58630 Belleview Rd","70764",30.272977773363593,-91.23947484961178
"70764","Plaquemine","LA","Swole's Gym","not_available","70764",30.290287910611074,-91.24615150688912
"70764","Plaquemine","LA","Anytime Fitness","745 Highway 30","70776",30.306889,-91.121104
"70767","Port Allen","LA","Spectrum Fitness","4463 LA Highway 1 S","70767",30.48795615694439,-91.26873850822449
"70767","Port Allen","LA","Anytime Fitness","702 N. Lobdell Hwy.","70767",30.45693,-91.24811
"70769","Prairieville","LA","Zumba","18342 Green Lakes Ct","70810",30.339548110961914,-91.0101089477539
"70775","Saint Francisville","LA","Anytime Fitness","5357 Live Oak Center Drive","70775",30.786087364934875,-91.36484742164612
"70791","Zachary","LA","Americana YMCA","4200 Liberty Way","70791",30.647232000000002,-91.208759
"70801","Baton Rouge","LA","Ymca","not_available","70801",30.45251051876083,-91.18882127015338
"70801","Baton Rouge","LA","Cajun Fitness","440 North 3rd Street","70802",30.4509923,-91.18819943
"70801","Baton Rouge","LA","Charles W. Lamar YMCA","521 3rd St","70802",30.452324033139053,-91.18829405553875
"70802","Baton Rouge","LA","University Edge Baton Rouge","650 W McKinley St","70802",30.424274660608937,-91.18515581219013
"70802","Baton Rouge","LA","Red Stick Crossfit","3057 Government St","70806",30.444850976183684,-91.15702077853459
"70802","Baton Rouge","LA","Anytime Fitness","200 Government St","70802",30.44316,-91.18826
"70802","Baton Rouge","LA","LSU - Student Recreation Complex (SRC)","Student Recreation Complex","70803",30.410362699698652,-91.16865935620599
"70802","Baton Rouge","LA","Pure Barre","3033 Perkins Rd Ste B","70808",30.424508000000003,-91.157593
"70802","Baton Rouge","LA","A.C. Lewis YMCA","350 S Foster Dr","70806",30.445728104499498,-91.13987993371914
"70802","Baton Rouge","LA","BREC Sports Academy","1002 Laurel St","70802",30.450357,-91.179316
"70802","Baton Rouge","LA","Tiger Gym","July Street","70808",30.42102230038778,-91.17516487450146
"70802","Baton Rouge","LA","LA Boxing Acadian","3731 Perkins Rd","70808",30.420899004909657,-91.15129526319748
"70802","Baton Rouge","LA","Riverview Athletics","not_available","70802",30.46490679879588,-91.18855086603001
"70802","Baton Rouge","LA","CC Gym","Highland Road","70802",30.420281500974358,-91.1762434744965
"70802","Baton Rouge","LA","Tres Bien","2935 Perkins Rd","70808",30.42494047360042,-91.15842670081851
"70805","Baton Rouge","LA","Planet Fitness","5151 Plank Rd Ste 300","70805",30.495523,-91.156448
"70806","Baton Rouge","LA","Anytime Fitness","7350 Jefferson Hwy Ste 470","70806",30.4334,-91.1123
"70806","Baton Rouge","LA","Residence Inn Fitness Center","not_available","70806",30.430806,-91.117323
"70806","Baton Rouge","LA","Future Fitness","674 Caddo St","70806",30.442903,-91.137683
"70806","Baton Rouge","LA","BREC Gym","Ardenwood","not_available",30.45240203364955,-91.12582857829027
"70806","Baton Rouge","LA","Louisiana State Police Academy Gym","7901 Independence Blvd","70806",30.447777000000002,-91.107457
"70807","Baton Rouge","LA","ExxonMobil YMCA","7717 Howell Boulevard","70807",30.5155245,-91.15562129999999
"70807","Baton Rouge","LA","Hilton Garden Inn Gym","not_available","70807",30.52039730859233,-91.15585327502787
"70808","Baton Rouge","LA","Max Fitness","7347 Highland Rd","70808",30.379346864725076,-91.13850437724481
"70808","Baton Rouge","LA","Pennington Fitness Center","6400 Perkins Rd","70808",30.400060653686523,-91.12268829345703
"70808","Baton Rouge","LA","Orangetheory Fitness","636 Arlington Creek Center Blvd Bldg 4","70820",30.3893744,-91.1619652
"70808","Baton Rouge","LA","Anytime Fitness","8827 Highland Rd","70808",30.37,-91.12382
"70808","Baton Rouge","LA","Snap Fitness","7731 Perkins Road #110 Baton Rouge","70810",30.39373909126463,-91.1075872822327
"70808","Baton Rouge","LA","Snap Fitness - Perkins Road","7731 Perkins Rd Ste 110","70810",30.39381556212902,-91.10809296369553
"70808","Baton Rouge","LA","CC -Brightside Gym","1443 Brightside Dr","70820",30.3852596282959,-91.17340850830078
"70808","Baton Rouge","LA","Ucrest Workout Center","4500 Burbank Dr","70820",30.39803695678711,-91.17488098144531
"70808","Baton Rouge","LA","Snap Fitness","not_available","70808",30.395835134180537,-91.15815948935514
"70808","Baton Rouge","LA","Jefferson Place Fitness Gym","Jefferson place blvd","70809",30.42171,-91.10436
"70808","Baton Rouge","LA","Momentum Group Fitness","8841 Highland Rd","70808",30.370282384913864,-91.12357105595667
"70808","Baton Rouge","LA","Our Lady of the Lake Physician Group Men's Health","7777 Hennessy Blvd Ste 101","70808",30.404364,-91.108637
"70808","Baton Rouge","LA","Mimi's Boxing Center","not_available","70820",30.393413,-91.181149
"70808","Baton Rouge","LA","Warwick Gym","8001 Jefferson Hwy","70809",30.426652,-91.104219
"70808","Baton Rouge","LA","The Enclave Gym","not_available","70809",30.425862601520613,-91.12340569496155
"70808","Baton Rouge","LA","HOTWORX - Baton Rouge, LA (Highland Road)","4410 Highland Rd Ste 4A","70808",30.4024845,-91.1716491
"70809","Baton Rouge","LA","LA Fitness","6474 Siegen Ln","70809",30.391861376928773,-91.06309188292532
"70809","Baton Rouge","LA","Planet Fitness","19973 Thad Cain Ln","70809",30.357221000000003,-91.00824300000001
"70809","Baton Rouge","LA","Foxy's Health Club & Fitness Centers","4343 Rhoda Dr","70816",30.411129468845445,-91.06096062305004
"70809","Baton Rouge","LA","YMCA - Paula Manship","8100 Ymca Plaza Dr","70810",30.37515766163179,-91.07601125092577
"70809","Baton Rouge","LA","Geaux Crossfit","3854 American Way","70816",30.415600274411137,-91.05426035765993
"70809","Baton Rouge","LA","Orangetheory Fitness","14650 Village Market St","70817",30.361938,-91.01249
"70809","Baton Rouge","LA","Foxy's Fitness for Women","11550 Old Hammond Hwy","70816",30.436714209934696,-91.054949258485
"70809","Baton Rouge","LA","Proving Ground Fitness, LLC","13520 Perkins Rd","70810",30.366342453900735,-91.06913591480115
"70809","Baton Rouge","LA","Bluebonnet Place Rec Room","9989 Burbank Dr","70810",30.357513427734375,-91.11571502685547
"70809","Baton Rouge","LA","Foxy's Bootcamp","not_available","70816",30.424753189086914,-91.02668762207031
"70809","Baton Rouge","LA","Bally Total Fitness Baton Rouge","10000 Perkins Rowe","70810",30.37854915801663,-91.09574675559998
"70809","Baton Rouge","LA","Fletcher's House of Power","not_available","70817",30.382545471191406,-91.00773620605469
"70810","Baton Rouge","LA","The Bar Method Baton Rouge","8645 Bluebonnet Blvd Ste C","70810",30.37113,-91.1012115
"70810","Baton Rouge","LA","Snap Fitness","9828 Bluebonnet Blvd Ste G","70810",30.356808,-91.1102
"70810","Baton Rouge","LA","iLoveKickboxing - Baton Rouge, LA","6725 Siegen Ln Ste R","70809",30.3874451,-91.06111849999999
"70811","Baton Rouge","LA","S. E. Mackey Center","not_available","70811",30.518997,-91.12582
"70815","Baton Rouge","LA","My Gym","not_available","70815",30.433034016069318,-91.07556196911214
"70815","Baton Rouge","LA","Powerhouse Gym","Sherwood Forest Blvd","70816",30.433624188686682,-91.05733919404318
"70815","Baton Rouge","LA","Fitness Expo","9603 Airline Hwy","70815",30.434613,-91.081985
"70816","Baton Rouge","LA","C. B. Pennington YMCA","15550 Old Hammond Hwy","70816",30.4570159192925,-91.01074168771137
"70816","Baton Rouge","LA","Joel Neely's Tiger-Rock Martial Arts Academy","14160 Coursey Blvd","70817",30.407164,-91.020315
"70816","Baton Rouge","LA","Camden Lake Gym","2525 Oneal Ln","70816",30.4320068359375,-91.0062484741211
"70816","Baton Rouge","LA","LA Boxing Baton Rouge","4520 S Sherwood Forest Blvd #110","70816",30.412037122370133,-91.05200461519517
"70816","Baton Rouge","LA","gymis homeis","4920 Shadeland Dr","70816",30.407040000000002,-91.04240899999999
"70816","Baton Rouge","LA","Foxy's fitness center","Baton rouge","not_available",30.429412,-91.056833
"70816","Baton Rouge","LA","Anytime Fitness","13711 Coursey Blvd","70817",30.40902,-91.02522
"70816","Baton Rouge","LA","Gymnasiana","11036 Industriplex","not_available",30.395385099754854,-91.06150124568488
"70817","Baton Rouge","LA","HOTWORX - Baton Rouge, LA (Highland at Airline)","19970 Highland Rd Ste B-4","70809",30.3573799,-91.00892580000001
"70820","Baton Rouge","LA","Mt Olympus Body Sculpting","374 College Hill Dr","70808",30.393746000000004,-91.154739
"70820","Baton Rouge","LA","Definitions Fitness Center","4005 Nicholson Dr","70808",30.400405939118897,-91.17956386158436
"70820","Baton Rouge","LA","Staybridge Suites Gym","4001 Nicholson Dr","70808",30.400189,-91.179459
"71001","Arcadia","LA","LaTech Gym","not_available","71270",32.548182576101084,-92.79871091914326
"71006","Benton","LA","Anytime Fitness","5212 Airline Dr Ste E","71111",32.61103,-93.71345
"71006","Benton","LA","Bossier City CrossFit","4500 Benton Rd","71111",32.58587646484375,-93.73043060302734
"71006","Benton","LA","Anytime Fitness","185 Burt Blvd","71006",32.67859,-93.74009
"71006","Benton","LA","Bossier Reserve Gym","4855 Airline Dr","71111",32.5887565612793,-93.71483612060547
"71006","Benton","LA","The Landing Gym","not_available","71111",32.601162,-93.710469
"71006","Benton","LA","Adreneline 24/7 Fitness Center","5000 Benton Rd Ste 5","71111",32.607059478759766,-93.73502349853516
"71006","Benton","LA","Adrenaline","5000 Benton Rd","71111",32.607059478759766,-93.73502349853516
"71037","Haughton","LA","Anytime Fitness","4800 Hwy. 80","71037",32.55542,-93.56451
"71037","Haughton","LA","Average Joe's Gym","124 Ardis Dr","71037",32.570289611816406,-93.57553100585938
"71037","Haughton","LA","Suite Success Fitness Center","7950 E Texas St","71111",32.5474853515625,-93.63040924072266
"71037","Haughton","LA","Tower 200","not_available","71051",32.414638,-93.539092
"71047","Keithville","LA","Remedes Gym","not_available","71118",32.367069244384766,-93.79962921142578
"71047","Keithville","LA","Anytime Fitness","4974 Hwy 3276 Ste A","71078",32.28266,-93.8128
"71055","Minden","LA","Anytime Fitness","1121, 1123, 1125 Homer Rd","71055",32.624567,-93.254526
"71055","Minden","LA","All Hours Fitness","1005 Homer Road","71055",32.621166344438315,-93.27047655492031
"71075","Springhill","LA","All Hours Fitness","405 Arkansas Street","71075",33.003225456374345,-93.46133556900067
"71082","Vivian","LA","North Caddo Fitness Center","501 S Pine St","71082",32.86914825439453,-93.98815155029297
"71101","Shreveport","LA","Fit Nation","1701 Old Minden Rd","71111",32.51695002324422,-93.71859045672126
"71101","Shreveport","LA","The Weight Room","not_available","71101",32.512635140178325,-93.75139211804331
"71101","Shreveport","LA","Diamond Jacks Fitness Center","711 Diamondjacks Blvd","71111",32.51076126098633,-93.72759246826172
"71101","Shreveport","LA","Hilton Shreveport Fitness Center","104 Market St","71101",32.517181396484375,-93.75127410888672
"71101","Shreveport","LA","Fitness Lady","1700 Old Minden Rd Ste 180","71111",32.5155255,-93.7167322
"71101","Shreveport","LA","Sweat It Up","436 Preston Blvd","71111",32.51882966666667,-93.71168866666666
"71101","Shreveport","LA","YMCA Downtown","400 McNeil St","71101",32.51300598471971,-93.751243321687
"71104","Shreveport","LA","Anytime Fitness","739 Shreveport Barksdale Hwy","71105",32.47823,-93.71566
"71104","Shreveport","LA","Sexy Time Fitness","not_available","71104",32.48427590926865,-93.73444205727768
"71104","Shreveport","LA","Element Fitness","6697 Quail Creek","71105",32.47967725486369,-93.70405225667747
"71104","Shreveport","LA","Haynes Fitness Center","2911 Centenary Blvd","71104",32.48244305118633,-93.7310061200111
"71105","Shreveport","LA","Planet Fitness","5711 Youree Dr","71105",32.4557005,-93.7213763
"71105","Shreveport","LA","Island Park Gym","1105 Island Park Blvd","71105",32.46681901222549,-93.68744940693095
"71105","Shreveport","LA","Broadmoor Ymca","215 Carroll St","71105",32.45300000874908,-93.72014949313719
"71105","Shreveport","LA","Team Bring It Training Facility","not_available","71105",32.482512734311136,-93.68310576192819
"71105","Shreveport","LA","Fitness Expo","6319 Sand Beach Blvd","71105",32.449288,-93.722927
"71105","Shreveport","LA","Spring Lake Point Apt Gym","not_available","71106",32.41971477640615,-93.72863630178028
"71105","Shreveport","LA","The Exercise Solution","5805 E Kings Hwy","71105",32.455177307128906,-93.70802307128906
"71105","Shreveport","LA","Fitness World","1450 E Bert Kouns Industrial Loop","71105",32.42698247207469,-93.71854846132554
"71105","Shreveport","LA","Fitness Center at River Walk Apartments","1000 Riverwalk Blvd","71105",32.47106,-93.688761
"71105","Shreveport","LA","Zap Fitness","not_available","71115",32.416449,-93.693445
"71105","Shreveport","LA","YMCA","not_available","71107",32.46495644402184,-93.7363163029516
"71105","Shreveport","LA","Ron Dunigan's","8961 Youree Dr","71115",32.41474914550781,-93.70110321044922
"71105","Shreveport","LA","Barksdale Fitness Center","709 Langley Dr","71110",32.496864024683504,-93.6822191457463
"71105","Shreveport","LA","Orangetheory Fitness","1370 E 70th St","71105",32.44329071044922,-93.73040771484375
"71105","Shreveport","LA","Ron Dunigan's Professional Fitness Center","8961 Pugh St.","71115",32.4147067491357,-93.70129713984562
"71105","Shreveport","LA","Louisiana Cheernastics","2533 E 70th St","71105",32.450486,-93.695493
"71106","Shreveport","LA","Anytime Fitness","1931 Southern Loop","71106",32.35470962524414,-93.71823120117188
"71106","Shreveport","LA","Anytime Fitness","9250 Ellerbe Rd","71106",32.40791,-93.73921
"71106","Shreveport","LA","CrossFit SBC","6644 Saint Vincent Ave","71106",32.4454583394893,-93.75972167431432
"71106","Shreveport","LA","Pure Barre","5821 Line Ave Ste C","71106",32.4559564,-93.7455744
"71106","Shreveport","LA","Anytime Fitness","855 Pierremont Rd Ste 142","71106",32.454,-93.7471
"71106","Shreveport","LA","CHRISTUS Schumpert Wellness South","9425 Healthplex Dr","71106",32.39681747179306,-93.74894398669417
"71107","Shreveport","LA","Anytime Fitness","5795 N Market St","71107",32.59885,-93.83899
"71108","Shreveport","LA","Mosley's Movements","6171 Bert Kouns Industrial Loop","71129",32.44178009033203,-93.78304290771484
"71108","Shreveport","LA","Whatchabodylooklike Fitness","4711 Greenwood Rd","71109",32.470130920410156,-93.82321166992188
"71108","Shreveport","LA","Planet Fitness","2729 W 70th St","71108",32.4408639,-93.7843215
"71110","Barksdale Afb","LA","Gym","not_available","71110",32.5149456,-93.672074
"71110","Barksdale Afb","LA","Barksdale Fitness Center","not_available","71112",32.509882244949594,-93.68146231480387
"71111","Bossier City","LA","Planet Fitness","801 Benton Rd","71111",32.526908,-93.719128
"71111","Bossier City","LA","Anytime Fitness","3011 Airline Dr Stes B-C","71111",32.56084,-93.71163
"71111","Bossier City","LA","Christus Louisiana Athletic Club - Bossier","2539 Viking Dr","71111",32.573539856948784,-93.72312684263045
"71111","Bossier City","LA","Anytime Fitness","2091 Stockwell Rd","71111",32.56151,-93.63924
"71112","Bossier City","LA","CrossFit Sage","1156 Airline Dr","71112",32.5057487487793,-93.69568634033203
"71112","Bossier City","LA","Anytime Fitness","5390 Barksdale Blvd","71112",32.44915,-93.6541
"71118","Shreveport","LA","Willis Knighton Medical Center","2508 Bert Kouns Industrial Loop","71118",32.40446090698242,-93.79621887207031
"71118","Shreveport","LA","Anytime Fitness","9315 Mansfield Rd","71118",32.39898,-93.80662
"71119","Shreveport","LA","Anytime Fitness","6259 Westport Ave Ste 100","71129",32.44924,-93.86964
"71119","Shreveport","LA","ProElite Perfomance Center","7288 Greenwood Rd","71119",32.45038986206055,-93.90127563476562
"71201","Monroe","LA","Anytime Fitness","1130 Oliver Rd","71201",32.52401,-92.10348
"71201","Monroe","LA","CrossFit West Monroe","707 Coleman Ave","71292",32.49526,-92.126963
"71201","Monroe","LA","Moore Health & Fitness","Ferrand Street","71203",32.52917511240238,-92.08281167120394
"71201","Monroe","LA","Fitness Together","2252 Tower Dr","71201",32.52500255,-92.10234426
"71201","Monroe","LA","Comfort Suities Fitness","not_available","71202",32.49309260094228,-92.08191611921698
"71201","Monroe","LA","Monroe Athletic Club","3801 Chauvin Ln","71201",32.55884502931159,-92.11812145027959
"71201","Monroe","LA","Planet Fitness","1205 Lamy Ln","71201",32.526843510822005,-92.09549876168748
"71201","Monroe","LA","CrossFit North Monroe","3331 Sterlington Rd","71203",32.557151794433594,-92.07681274414062
"71202","Monroe","LA","Gorilla Fitness","not_available","71292",32.495609,-92.13762
"71203","Monroe","LA","West Monroe Rebel Strength Complex","not_available","71291",32.51226155756114,-92.14065819984518
"71203","Monroe","LA","Van mark gym/pool","not_available","71203",32.56490586853447,-92.06438702832057
"71203","Monroe","LA","Anytime Fitness","7930 Desiard St","71201",32.52584,-92.03972
"71203","Monroe","LA","Anytime Fitness","8950 Hwy. 165 N. Ste. A","71280",32.64768,-92.05607
"71219","Baskin","LA","Beefy's Cross Fit Gym","not_available","71219",32.287892,-91.727871
"71220","Bastrop","LA","Anytime Fitness","1812 E Madison Ave","71220",32.77873,-91.8926
"71220","Bastrop","LA","The Fitness Lodge","not_available","71220",32.723704,-91.967592
"71225","Calhoun","LA","Anytime Fitness","989 Hwy 80 E","71225",32.52072,-92.32668
"71232","Delhi","LA","Anytime Fitness","407 Depot St","71232",32.45655,-91.49512
"71241","Farmerville","LA","Snap Fitness","767 Sterlington Hwy","71241",32.77275851616602,-92.39528914041678
"71241","Farmerville","LA","Anytime Fitness","1006 Sterlington Hwy","71241",32.769561767578125,-92.39079284667969
"71251","Jonesboro","LA","Anytime Fitness","914 Pershing Hwy","71251",32.2583,-92.72254
"71269","Rayville","LA","Anytime Fitness","103 Jasper St","71269",32.45967,-91.76081
"71270","Ruston","LA","Planet Fitness","103 N Service Rd E","71270",32.542716,-92.637579
"71270","Ruston","LA","Jay’s Fitness Academy","1501 Ida Aly","71270",32.54254239999999,-92.63464839999999
"71270","Ruston","LA","All Hours Fitness","1305 Commerce St","71270",32.54295593477147,-92.61954258407076
"71270","Ruston","LA","Anytime Fitness","1223 Goodwin Rd","71270",32.5423,-92.63188
"71282","Tallulah","LA","Anytime Fitness","3403 Pemberton Square Blvd Unit C","39180",32.31366,-90.87967
"71282","Tallulah","LA","Anytime Fitness","34 Crothers Dr","71282",32.3889,-91.18168
"71282","Tallulah","LA","Massenburg Memorial Athletic Center","2715 Confederate Ave","39180",32.32238006591797,-90.88201904296875
"71282","Tallulah","LA","#FuerzaChikitong","Calle 13","39180",32.199394,-90.942316
"71291","West Monroe","LA","Planet Fitness","115 Constitution Dr","71292",32.50466,-92.160167
"71291","West Monroe","LA","CrossFit Chivalry","105 Blanchard St","71291",32.5116487,-92.15849359999999
"71291","West Monroe","LA","Anytime Fitness","2419 N 7th St","71291",32.5233,-92.14801
"71291","West Monroe","LA","Anytime Fitness","5600 Cypress St.","71291",32.51601,-92.19606
"71291","West Monroe","LA","Totally Tumbling","119 Julia St","71291",32.51639938354492,-92.15122985839844
"71301","Alexandria","LA","Planet Fitness","2255 S MacArthur Dr","71301",31.274416932610364,-92.46415517735043
"71301","Alexandria","LA","Don Fields Gym","2228 Bonaventure Ct","71301",31.2679386138916,-92.4677734375
"71301","Alexandria","LA","Snap Fitness","Jackson st","71301",31.285015954876165,-92.47571916141307
"71301","Alexandria","LA","YMCA Downtown Gamburg","not_available","71301",31.312143107332332,-92.45119905840812
"71301","Alexandria","LA","Rapides Regional Medical Center Cardiac Rehab","724 Scott St","71301",31.312268,-92.451482
"71301","Alexandria","LA","Louisiana Athletic Club - Alexandria","1804 MacArthur Dr","71301",31.277519275301422,-92.47521911512176
"71301","Alexandria","LA","Gracie United Alexandria","4732 Jackson St Ste 7","71303",31.27552032470703,-92.48249053955078
"71303","Alexandria","LA","Anytime Fitness","6501 Coliseum Blvd Stes  100-200","71303",31.29367911,-92.51570553
"71303","Alexandria","LA","Pump It Up","not_available","71485",31.192424,-92.513334
"71328","Deville","LA","The Iron Lab","ESF","71360",31.396538,-92.296408
"71328","Deville","LA","Sweat Shop","2 Get Fit Rd","71360",31.337347,-92.31372
"71334","Ferriday","LA","Perfect Fit Natchez","not_available","39120",31.550977713708015,-91.40059800998658
"71334","Ferriday","LA","Vidalia Total Fitness","not_available","71373",31.57257652282715,-91.44505310058594
"71334","Ferriday","LA","Snap Fitness","Carter Street","71373",31.57308493295213,-91.45201442617794
"71334","Ferriday","LA","Anytime Fitness","4012 Carter St","71373",31.573259353637695,-91.4540023803711
"71350","Mansura","LA","Total Health","1203 S Main St","71351",31.1129207611084,-92.07860565185547
"71350","Mansura","LA","Anytime Fitness","812 Tunica Dr E","71351",31.11318,-92.06591
"71360","Pineville","LA","The Source Fitness","3493 Highway 28 E Ste H","71360",31.335102,-92.388165
"71360","Pineville","LA","Louisiana Athletic Club","1135 College Drive","71328",31.322210179034716,-92.42506563663483
"71360","Pineville","LA","Anytime Fitness","3800 Hwy 165 Ste A","71360",31.37053,-92.40835
"71360","Pineville","LA","The Gym","not_available","71360",31.410641116666667,-92.40824531666667
"71360","Pineville","LA","desert sky dance","1622 Military Hwy","71360",31.333839416503906,-92.42749786376953
"71403","Anacoco","LA","Anytime Fitness","1772 S 5th St","71446",31.125110626220703,-93.26783752441406
"71403","Anacoco","LA","All Hours Fitness","McRae Plaza","71446",31.117427825927734,-93.2734603881836
"71403","Anacoco","LA","Curves","not_available","71446",31.14314079284668,-93.26367950439453
"71418","Columbia","LA","Anytime Fitness","1000 Davis Lake Rd","71418",32.11738967895508,-92.07100677490234
"71446","Leesville","LA","Thomas 24 Hour Fitness Center","128 Belview Ln, Leesville, LA 71446","71446",31.16302490234375,-93.23944854736328
"71449","Many","LA","Cypress Bend Fitness Area","not_available","71449",31.430198,-93.691303
"71449","Many","LA","Rigs and Racks Fitness","890 Hwy 171 Bypass","71449",31.563910048839922,-93.48292350769043
"71449","Many","LA","All Hours Fitness","645 San Antonio Ave","71449",31.56833438044819,-93.48460504924785
"71457","Natchitoches","LA","natchitoches flipping athletics","105 Isadore St","71457",31.75118064880371,-93.07678985595703
"71457","Natchitoches","LA","CrossFit Natchitoches","4404 Hwy 1","71457",31.79492304643771,-93.1527328491211
"71457","Natchitoches","LA","All Hours Fitness","142 Claudia St","71457",31.755089,-93.06222199999999
"71457","Natchitoches","LA","Warehouse Fitness","400 University Pkwy #C","71457",31.752127453315552,-93.09224367141724
"71457","Natchitoches","LA","Spark Studio","733 Keyser Ave","71457",31.752628,-93.072307
"71457","Natchitoches","LA","fit in time","234 Keyser Ave","71457",31.754175186157227,-93.08297729492188
"71457","Natchitoches","LA","CrossFit Get It Done","1200 Keyser Ave","71457",31.752525329589844,-93.05670166015625
"71457","Natchitoches","LA","Curves","99 South Dr","71457",31.753141999999997,-93.081902
"71483","Winnfield","LA","All Hours Fitness","303 W Court St","71483",31.937257593962897,-92.6539190658359
