"zip","city","state","name","address","postalCode","lat","lon"
"46001","Alexandria","IN","Medfit","not_available","not_available",40.20452,-85.654292
"46011","Anderson","IN","Planet Fitness","903 Raible Ave","46011",40.106683000000004,-85.711377
"46011","Anderson","IN","The Onion Factory","2700 County Road 100 W","46011",40.1453241765861,-85.68959826921984
"46012","Anderson","IN","Cross Lake Fitness room","not_available","46012",40.133179,-85.657082
"46012","Anderson","IN","White River sports complex","not_available","46016",40.100303985636096,-85.65393485452174
"46012","Anderson","IN","The Eliptical","Here","46012",40.11045547052054,-85.65078007933435
"46012","Anderson","IN","O.C. Lewis Gymnasium","211 Graceland Ave","46012",40.11469448701472,-85.65996421483213
"46012","Anderson","IN","Fitness Offce","12th Street","46016",40.10410160094798,-85.68028830043984
"46012","Anderson","IN","Anderson Sports Center","2700 Indiana Ave","46012",40.14283734554399,-85.68098295763394
"46013","Anderson","IN","Pendleton YMCA","6539 Spring St","46064",40.01130418464968,-85.7322701609703
"46013","Anderson","IN","Hoosier Woods Fitness Center","not_available","46013",40.075625100114436,-85.63791432874858
"46013","Anderson","IN","LivRite Fitness","4018 Columbus Avenue","46013",40.07452,-85.66689
"46030","Arcadia","IN","workout room","not_available","46060",40.14128494262695,-85.88164520263672
"46032","Carmel","IN","LA Fitness","2744 E 146th St","46033",40.00203694149783,-86.11446566618042
"46032","Carmel","IN","Carmel Total Fitness","820 City Center Dr","46032",39.96548711408159,-86.14812847334872
"46032","Carmel","IN","Monon Community Center","1195 Central Park Drive West","46032",39.9511147,-86.1378288
"46032","Carmel","IN","Orangetheory Fitness","2438 E 146th St","46033",40.000815404952185,-86.11934326451124
"46032","Carmel","IN","Off The Wall Sports","1423 Chase Court","46032",39.96072465097412,-86.13664443338317
"46032","Carmel","IN","Exercise Inc","11145 N Michigan Rd Ste 140","46077",39.947694165694664,-86.2392536011189
"46032","Carmel","IN","Life Time Fitness","11691 Fishers Corner Blvd","46038",39.926121,-86.157808
"46032","Carmel","IN","LA Fitness","10574 Workout Way","46032",39.939347849816166,-86.23850690714175
"46032","Carmel","IN","Monon Community Center Aqua Park","1195 Central Park Drive W","46032",39.95117317109199,-86.13835938914414
"46032","Carmel","IN","Planet Fitness","2192 E 116th St","46032",39.959346,-86.116277
"46032","Carmel","IN","Hoosier Heights Indianapolis","9850 Mayflower Park Dr","46032",39.929856215219324,-86.23816995933072
"46032","Carmel","IN","Hoffacker Fitness @ Meridian street","not_available","46240",39.94203436929391,-86.16004655623415
"46032","Carmel","IN","Wentworth at WestClay Gym","not_available","46032",39.97378241963513,-86.19891532370468
"46032","Carmel","IN","Anytime Fitness","110 W Main St Ste 170","46032",39.979147151754844,-86.12860475330353
"46032","Carmel","IN","Harmony Club","1414 W 151st St","46074",40.008426666259766,-86.18390655517578
"46032","Carmel","IN","Hollywood All Stars","Gradle Drive","46032",39.965712,-86.135196
"46032","Carmel","IN","Abrams Fitness Center","9820 Summerlakes Dr","46032",39.933027,-86.197539
"46032","Carmel","IN","Eat The Frog Fitness","12751 Pennsylvania St","46032",39.9730224609375,-86.15448760986328
"46032","Carmel","IN","F45 Training West Carmel","4335 West 106th St","46077",39.940141,-86.234702
"46032","Carmel","IN","Laura Marenco Fitness","not_available","46033",40.00046180956912,-86.1181299705831
"46032","Carmel","IN","F45 Training North Carmel","14300 Clay Terrace Blvd","46032",39.995975,-86.129785
"46032","Carmel","IN","Merdian Crossing Gym","Meridian CROSSING","46032",39.95548092989175,-86.1605583101065
"46032","Carmel","IN","The Bar Method","10425 Commerce Drive, Suite 120","46032",39.93677,-86.230506
"46032","Carmel","IN","CrossFit Carmel","260 1st Ave SW","46032",39.966543514050954,-86.14487047972496
"46032","Carmel","IN","Better Bodies Inc.","12775 Horseferry Rd","46032",39.97261428120861,-86.1956696915103
"46033","Carmel","IN","Planet Fitness","11728 Fishers Crossing Dr","46038",39.959641,-86.040699
"46033","Carmel","IN","Stewart Fitness Boot Camp","10475 Crosspoint Blvd","46256",39.93959573171281,-86.02394721808494
"46033","Carmel","IN","Gym","Porchester Dr","46062",40.00904804567619,-86.07980671418466
"46033","Carmel","IN","Snap Fitness","7266 E 116th","46038",39.95817,-86.042348
"46033","Carmel","IN","Core Essentials By Stewart Fitness","not_available","46256",39.93967270400549,-86.02390793087173
"46033","Carmel","IN","Inner Strength Indy","11099 Village Square Ln","46038",39.951115,-86.040417
"46033","Carmel","IN","My Personal Fitness","11531 Village Square Ln","46038",39.951953508967925,-86.0404385626316
"46033","Carmel","IN","Feel Good Nutrition & Fitness","260 W Carmel Dr","46032",39.96249008178711,-86.13146209716797
"46033","Carmel","IN","North Haven Gym","Haven Point Bl","not_available",39.9320333921894,-86.09110833078867
"46033","Carmel","IN","Survival Fitness","14179 Clay Terrace Blvd","46032",39.99445636666667,-86.12831625
"46033","Carmel","IN","Cardinal Fitness","2480 E 146th St","46033",40.00160319348172,-86.11869503268505
"46033","Carmel","IN","Bang Fitness","3304 E 146th St","46033",40.00175381202971,-86.1185194549042
"46033","Carmel","IN","Fitness Together - Westfield","14645 N Gray Rd","46062",40.00177296597325,-86.09167856149136
"46033","Carmel","IN","Mohawk Hills fitness Center","945 Mohawk Hills Dr","46032",39.967838287353516,-86.11390686035156
"46034","Cicero","IN","The Horseshoe Gym","23129 Sonoma Ln Bsmt","46034",40.125553131103516,-86.05242156982422
"46034","Cicero","IN","Hodson Gym","not_available","46034",40.117799505078686,-86.0222290779572
"46036","Elwood","IN","Anytime Fitness","7350 W SR-28 Unit A, Park Plaza Center","46036",40.27822,-85.81146
"46036","Elwood","IN","Elwood YMCA","1620 Main St","46036",40.27759672782247,-85.83878312441156
"46037","Fishers","IN","YMCA","9012 E 126th St","46038",39.97238708098964,-86.01009185311275
"46037","Fishers","IN","LA Fitness","11752 Cumberland Rd","46037",39.95946935580703,-85.99520477359955
"46037","Fishers","IN","MEi fitness","10610 E 96th St","46037",39.928076998573765,-85.98155944297929
"46037","Fishers","IN","The Fieldhouse","11825 Technology Dr","46038",39.96272176021019,-86.00518485506431
"46037","Fishers","IN","Orangetheory Fitness","11695 Olio Rd","46037",39.95891523234961,-85.91686248779297
"46037","Fishers","IN","Pure Barre","11581 Geist Pavilion Dr Ste 110","46037",39.9562626,-85.9164016
"46037","Fishers","IN","Orangetheory Fitness","8700 North St","46038",39.9586319,-86.0157847
"46037","Fishers","IN","First Friend K-9 Training","12401 Reynolds Dr","46038",39.96882929675486,-86.00204662084283
"46037","Fishers","IN","zumba class","not_available","46038",39.961932558869286,-86.00724586468895
"46037","Fishers","IN","HSE Weight Room","Hse","46038",39.96925599468246,-85.91722519929651
"46037","Fishers","IN","Ultimate Personal Training","12574 Promise Creek Ln Ste 108","46038",39.971404352471744,-85.97348095654506
"46037","Fishers","IN","Sky Zone","10080 E. 121st Street, Suite 182","46037",39.967181718524714,-85.98871572501548
"46037","Fishers","IN","Limestone Springs Gym & Clubhouse","Copper Mines Way","46038",39.98387817268605,-85.95074517501574
"46037","Fishers","IN","CYCLEBAR","11545 Ikea Way Ste 630 Bldg P6","46037",39.956329345703125,-86.00237274169922
"46037","Fishers","IN","Xanderfit Personal Training","11834 Igneous Dr","46038",39.983506,-85.95512
"46037","Fishers","IN","Lantern Woods","10950 Lantern Woods Boulevard","46038",39.9465474,-86.0193504
"46037","Fishers","IN","Fitness Together - Fishers","8395 E 116th St","46038",39.95635986328125,-86.02037048339844
"46037","Fishers","IN","Wellington Place Fitness Center","not_available","46037",39.93662624707094,-86.01312645485142
"46037","Fishers","IN","Cardinal Fitness","10610 East 96th St","46256",39.92801348369179,-85.98167021535123
"46038","Fishers","IN","Anytime Fitness","14300 Mundy Dr Ste 1200","46060",39.99591,-86.00234
"46039","Forest","IN","JCT Private Gym","not_available","46979",40.414147,-86.281625
"46040","Fortville","IN","Anytime Fitness","9653 Olio Rd","46055",39.92906,-85.91814
"46041","Frankfort","IN","clubville","Roth Ct","46065",40.41835221861273,-86.60815244262658
"46041","Frankfort","IN","Anytime Fitness","2419 E Wabash St","46041",40.27873990206998,-86.48153185844421
"46052","Lebanon","IN","Sedgeley Gym","not_available","46075",39.990897,-86.351114
"46052","Lebanon","IN","Lebanon Sports & Fitness","327 N Lebanon St","46052",40.05010986328125,-86.46886444091797
"46052","Lebanon","IN","Fit4Change HQ","7735 G Tanager CT","46077",39.929286,-86.340697
"46052","Lebanon","IN","ZWest Gym","not_available","46077",39.95891176234479,-86.33388583159237
"46052","Lebanon","IN","Witham YMCA Program Site","119 N Meridian St","46052",40.04813003540039,-86.4679183959961
"46052","Lebanon","IN","Anytime Fitness","2310 N Lebanon St","46052",40.06727,-86.47499
"46052","Lebanon","IN","XCEL Fit Club","6848 Whitestown Parkway","46077",39.94999313354492,-86.3388900756836
"46052","Lebanon","IN","Indy Juniors Volleyball Club","5801 S 650 E","46075",39.95686340332031,-86.34373474121094
"46052","Lebanon","IN","Anson Fitness Center","6380 Central Blvd","46075",39.952815,-86.347115
"46052","Lebanon","IN","Workout Hub","6828 W Stonegate Dr.","46077",39.951361,-86.332528
"46060","Noblesville","IN","LA Fitness","16640 Mercantile Blvd","46060",40.030335993977765,-85.99228476390007
"46060","Noblesville","IN","Three Kings Crossfit","10400 Pleasant St","46060",40.041053771972656,-85.98270416259766
"46060","Noblesville","IN","Crossfit Indy North","15475 Endeavor Dr","46060",40.01392186494287,-85.99168636780922
"46060","Noblesville","IN","Curves Of Noblesville","170 Logan St","46060",40.0496711730957,-86.019287109375
"46060","Noblesville","IN","Raymer Strength","18915 Fairfield Blvd","46060",40.062904357910156,-86.00022888183594
"46060","Noblesville","IN","""The Gym"" And Fitness Center","939 Conner St","46060",40.04542922973633,-86.01277923583984
"46060","Noblesville","IN","Pure Barre","17231 Mercantile Blvd","46060",40.0388265,-85.9941325
"46060","Noblesville","IN","Compass Fitness","15192 Cumberland Rd","46060",40.00973892211914,-85.99420166015625
"46060","Noblesville","IN","Judies Gym","191st","46060",40.064573901172174,-86.00586891174316
"46060","Noblesville","IN","Slim&Fit","14093 Mundy Dr","46038",39.993049,-86.002632
"46060","Noblesville","IN","Amy Lee's Workout Room","CB","46038",39.99770367980548,-85.9834885597229
"46060","Noblesville","IN","Koko Fit Club","Mundy Dr","46062",39.9970588684082,-86.00241088867188
"46060","Noblesville","IN","Embassy Suites Fitness Center","13700 Conference Center Dr S","46060",39.992774963378906,-85.9210433959961
"46060","Noblesville","IN","LivRite Fitness","14640 Herriman Blvd","46060",40.001399,-86.005964
"46060","Noblesville","IN","Anytime Fitness","158 W Logan St","46060",40.04951,-86.01897
"46062","Noblesville","IN","Planet Fitness","3440 E State Rd 32, Unit B","46074",40.043425,-86.107498
"46062","Noblesville","IN","Brooke's Workout Room","17926 Racebrook Ct","46062",40.048526763916016,-86.08795928955078
"46062","Noblesville","IN","Fit Now - Speed Athletics Location","711 E Main St","46074",40.0423698425293,-86.11781311035156
"46062","Noblesville","IN","PB Gym","Pebble Brooke","46060",40.0452480466954,-86.07776664627275
"46062","Noblesville","IN","401 Fitness","not_available","46074",40.04199955863326,-86.11745369592381
"46062","Noblesville","IN","Workout Anytime","5633 Pebble Village Lane","46062",40.0440349,-86.0743974
"46062","Noblesville","IN","Greystone Gym","7160 Oxfordshire Blvd","46062",40.002113342285156,-86.04368591308594
"46064","Pendleton","IN","MyTime Fitness","3319 Angle Rd","46064",39.99574230621214,-85.73785254972901
"46064","Pendleton","IN","Academy Of Athletic Arts","3167 Angle Rd","46064",39.99260036167596,-85.73394121522158
"46069","Sheridan","IN","F45 Training Westfield Airport (Opening soon - Location to be revealed shortly)","632 E","46074",40.043173,-86.147724
"46071","Thorntown","IN","The Gym","not_available","46071",40.16616439819336,-86.5538330078125
"46072","Tipton","IN","Anytime Fitness","341 W Jefferson St","46072",40.28132,-86.04616
"46072","Tipton","IN","T & G Workout Facility","not_available","46072",40.272525787353516,-86.03114318847656
"46074","Westfield","IN","Survival Fitness","233 E 175th St","46074",40.040487,-86.154477
"46074","Westfield","IN","FitNow Personal Fitness Training","1022 Kendall Ct","46074",40.039827,-86.13975500000001
"46074","Westfield","IN","Maple Knoll Gym","500 Bigleaf Maple Way","46074",40.03886032104492,-86.16769409179688
"46074","Westfield","IN","Snap Fitness Center","220 W 161st St","46074",40.022265173419264,-86.16288938445744
"46074","Westfield","IN","Hamilton Crossing Fitness Center","13085 Hamilton Crossing Blvd","46032",39.976967,-86.16075
"46074","Westfield","IN","Alexandria Fitness Center","1419 W Main St","46032",39.977447,-86.153134
"46074","Westfield","IN","PXP Endurance","13686 N Meridian St","46032",39.98759078979492,-86.1390609741211
"46074","Westfield","IN","The Jungle","16707 Southpark Dr, Westfield, IN 46074","46074",40.029448109060915,-86.13808507693729
"46075","Whitestown","IN","Anytime Fitness","1570 W Oak St","46077",39.95067,-86.28236
"46075","Whitestown","IN","ZCHS Main Gym","1000 Mulberry St","46077",39.960743,-86.272719
"46077","Zionsville","IN","Crossfit Zionsville","10668 Andrade Dr","46077",39.94200557320005,-86.24413912805295
"46077","Zionsville","IN","Professional Fitness","5635 W 96th St","46278",39.924557,-86.26119200000001
"46077","Zionsville","IN","Altered Physique","8840 Michigan Rd Ste 111","46268",39.915775299072266,-86.22611999511719
"46077","Zionsville","IN","Motiv Athletics","4340 West 96th st, Suite 106","46268",39.92643209743311,-86.23409271240234
"46077","Zionsville","IN","Indy Pole Fitness-North","4340 W 96th","46032",39.926245,-86.2342
"46077","Zionsville","IN","Workout Room","4701-4751 NW Plaza Dr E","46077",39.93199292,-86.23536483
"46077","Zionsville","IN","Orangetheory Fitness West-Carmel Zionsville","4000 W 106th St","46032",39.9416872,-86.2344957
"46077","Zionsville","IN","Summit Strength","4377 W 96th St","46268",39.924506,-86.233956
"46106","Bargersville","IN","Anytime Fitness","50 N State Road 135 Ste D","46106",39.52141,-86.1595
"46107","Beech Grove","IN","New Fitness","342 E Churchman Ave","46203",39.71525640233327,-86.07808499776965
"46107","Beech Grove","IN","Work Out Central","not_available","46107",39.71826706608565,-86.09091638596524
"46107","Beech Grove","IN","Holiday Inn Express Fitness Center","5302 Victory Dr","46203",39.70276641845703,-86.07787322998047
"46107","Beech Grove","IN","New Fitness and Health","342 E Churchman Ave","46107",39.71529368129416,-86.07818342482764
"46107","Beech Grove","IN","StoRAGEfit","not_available","46203",39.698561,-86.081915
"46107","Beech Grove","IN","Woodcrest Gym","Red Robin Dr","46107",39.69663125356264,-86.08525072956981
"46112","Brownsburg","IN","Planet Fitness","908 E Main St","46112",39.8387817,-86.3816256
"46112","Brownsburg","IN","PR Fitness","481 Southpoint Cir Ste 4","46112",39.843326568603516,-86.38075256347656
"46112","Brownsburg","IN","Wrestling Gym","not_available","46112",39.830587,-86.38829
"46112","Brownsburg","IN","CrossFit 317","10021 E US Highway 136","46234",39.824885924656805,-86.34621366100227
"46112","Brownsburg","IN","Brown Township","8125 Maloney Rd","46112",39.8880983,-86.3791625
"46112","Brownsburg","IN","Gino's Gym","731 Fountain Ct","46112",39.85327911376953,-86.4132308959961
"46112","Brownsburg","IN","HIP Fitness","1630 E Northfield Dr-suite 100","46112",39.83667663294799,-86.37082771966901
"46112","Brownsburg","IN","Connection Point (Fitness Center)","1800 N Green St","46112",39.874855041503906,-86.39478302001953
"46112","Brownsburg","IN","Core Restore Pilates Studio","1650 E Northfield Dr","46112",39.83608683,-86.371312
"46112","Brownsburg","IN","Brownsburg Fitness","719 Rose Ln","46112",39.861177183956144,-86.38523684878804
"46112","Brownsburg","IN","Anytime Fitness","124 E Northfield Dr Ste A","46112",39.85795,-86.39046
"46112","Brownsburg","IN","Workout Room Roadhog","464 Southpoint Cir","46112",39.840850830078125,-86.3827133178711
"46112","Brownsburg","IN","Brownsburg Workout Gym","1122 Windhaven Cir","46112",39.85213088989258,-86.37810516357422
"46112","Brownsburg","IN","Snap Fitness","311 W Northfield Dr","46112",39.8566181525949,-86.39549732208252
"46113","Camby","IN","Anytime Fitness","10302 Prosperity Cir","46113",39.63752,-86.33866
"46113","Camby","IN","Deemer's Dungeon Gym","not_available","46113",39.61940002441406,-86.31554412841797
"46118","Clayton","IN","Elite Cheer and Dance Inc","not_available","46118",39.659834708317426,-86.54796618311585
"46120","Cloverdale","IN","Eminence High School","6760 N SR 42","46125",39.52448790134073,-86.64257199496855
"46122","Danville","IN","LA Fitness","1125 Baltustrol Run","46123",39.74581527709961,-86.43746948242188
"46122","Danville","IN","Family Fun & Fitness","not_available","46123",39.76050627049123,-86.43527538394143
"46122","Danville","IN","Snap Fitness Danville","779 E Main St","46122",39.75757058599598,-86.50974855326248
"46122","Danville","IN","Fentz Gym","not_available","46122",39.77434238056635,-86.49102252687457
"46122","Danville","IN","Anytime Fitness","1070 W Main St Ste 125","46168",39.69833,-86.41753
"46122","Danville","IN","Danville Recreation And Fitness","49 N Wayne St","46122",39.76156419803483,-86.52024742416897
"46123","Avon","IN","Orangetheory Fitness","8100 E US Highway 36","46123",39.764492,-86.379395
"46123","Avon","IN","The Vest Insanity Gym","not_available","46231",39.739384,-86.327677
"46123","Avon","IN","Gym @ Linden Square","not_available","46234",39.77979355993632,-86.33119212175639
"46123","Avon","IN","CrossFit Notch 8","8109 Kingston St","46123",39.75946807861328,-86.37911224365234
"46123","Avon","IN","Mei Fitness","9166 E US Highway 36","46123",39.76419104098512,-86.35896446631355
"46123","Avon","IN","Anytime Fitness","1124 N SR 267","46123",39.77941,-86.40087
"46124","Edinburgh","IN","Camp Atterbury Fitness Center","Bldg. 329","46124",39.35327118177816,-86.03259026723715
"46124","Edinburgh","IN","Treadmill","not_available","46124",39.366467,-85.905328
"46130","Fountaintown","IN","New Palestine 24 Hour Gym And Fitness","5971 W US Highway 52","46163",39.725354851465625,-85.9126618430708
"46130","Fountaintown","IN","Anytime Fitness","5971 W US-52","46163",39.72554,-85.913
"46131","Franklin","IN","LXF ","not_available","46131",39.46554236456994,-86.06368127934226
"46131","Franklin","IN","J&R's Gym","Niagara Ln","46131",39.497755,-86.080282
"46131","Franklin","IN","The Gym @ Copper Chase","not_available","46143",39.5718125,-86.148814
"46131","Franklin","IN","Jazzercise of Franklin","715 Commerce Dr","46131",39.50722122192383,-86.05860137939453
"46131","Franklin","IN","Home Gym","not_available","46184",39.537555,-86.099595
"46131","Franklin","IN","Hollywood All-stars","2110 Earlywood Dr","46131",39.521461486816406,-86.0623779296875
"46131","Franklin","IN","Bfit Now LLC","241 N US Highway 31","46184",39.55529022216797,-86.08827209472656
"46131","Franklin","IN","Anytime Fitness","1168 N Main St","46131",39.49281,-86.06357
"46131","Franklin","IN","Sweat Shop","229 South Main Street","46131",39.47818862,-86.05496622
"46131","Franklin","IN","Moo Moo's Gym","County road 75 E","46143",39.58748375390677,-86.0901466419289
"46135","Greencastle","IN","Anytime Fitness","27 Putnam Plaza Suite A","46135",39.64757,-86.83001
"46135","Greencastle","IN","Fitness In Motion","3915 Hanna Drive","46135",39.63922882080078,-86.86688232421875
"46140","Greenfield","IN","Hancock Wellness Center","888 W New Rd","46140",39.81472145670925,-85.78207921368984
"46140","Greenfield","IN","Indiana Gym Nest","58 N Harrison St","46140",39.78515410544386,-85.78544146937685
"46140","Greenfield","IN","Treadmill","not_available","46140",39.869462,-85.737061
"46140","Greenfield","IN","Curves","7133 E Main St","46140",39.789859771728516,-85.67024230957031
"46140","Greenfield","IN","Washington village gym","4508-4598 Victory Hwy","46140",39.77880229119549,-85.88346644752868
"46140","Greenfield","IN","Boys & Girls Clubs of Hancock County","715 E Lincoln St","46140",39.788934999999995,-85.76109699999999
"46140","Greenfield","IN","Hancock Wellness Center New Palestine","5151 W US Highway 40","46140",39.77830123901367,-85.89816284179688
"46140","Greenfield","IN","24/7","1556 N State St","46140",39.80598123811689,-85.77126049509467
"46140","Greenfield","IN","Weight Room","10320 E. 250 North","46117",39.82682172046386,-85.70381591689461
"46140","Greenfield","IN","Anytime Fitness","1921 Melody Ln","46140",39.810957,-85.76707900000001
"46140","Greenfield","IN","Locker Room","810 N Broadway St","46140",39.79212951660156,-85.7805404663086
"46142","Greenwood","IN","Mt Pleasant Community Life Center","407 N Bluff Rd","46142",39.620577297587054,-86.20703999207882
"46142","Greenwood","IN","Orangetheory Fitness","1675 W Smith Valley Rd","46142",39.604986801288305,-86.1575342825035
"46142","Greenwood","IN","Wright's FUNdamentals","1012 N Bluff Rd","46142",39.63118950924343,-86.20592847700836
"46142","Greenwood","IN","Farrell's eXtreme Bodyshaping","3011 Meridian Meadows Rd","46142",39.631062,-86.159238
"46142","Greenwood","IN","LA Fitness","540 N State Road 135","46142",39.62219007589876,-86.15917916501465
"46142","Greenwood","IN","Pure Barre","1001 N State Road 135 Ste B2","46142",39.63107021104668,-86.15633554657495
"46142","Greenwood","IN","Life Balance & Fitness","1259 N State Road 135 Ste I","46142",39.63350365309447,-86.15656608933932
"46142","Greenwood","IN","amanda's gym (treadmill)","not_available","46142",39.631263732910156,-86.14115142822266
"46142","Greenwood","IN","UFit","2801 Fairview Pl","46142",39.62197494506836,-86.15800476074219
"46142","Greenwood","IN","Stage 1 Dance Academy","740 Fry Rd","46142",39.62849044799805,-86.12539672851562
"46143","Greenwood","IN","UFIT, Inc.","300 Commerce Parkway W. Dr.","46143",39.612689152859545,-86.06679864227772
"46143","Greenwood","IN","F45 Training Center Grove Indiana","1533 Olive Branch Parke Lane","46143",39.5944065,-86.15991181
"46143","Greenwood","IN","Jeff's Gym","1118 Vicksburg S Dr, Greenwood, IN 46143","46143",39.601827853484025,-86.07451690165566
"46143","Greenwood","IN","Anytime Fitness","997 E County Line Rd","46143",39.6344,-86.08478
"46143","Greenwood","IN","Bexley Village gym","Bexley drive","not_available",39.606095905151676,-86.08078902323443
"46143","Greenwood","IN","Greenwood Rec Center","144-198 Surina Way","46143",39.611649263606125,-86.10438484032444
"46143","Greenwood","IN","Community Center","100 Surina Way","46143",39.611652,-86.104798
"46143","Greenwood","IN","Home Gym","361 Campbell Rd","46143",39.60152284,-86.00116505
"46148","Knightstown","IN","The BackRoom","not_available","47351",39.863151,-85.447258
"46148","Knightstown","IN","Knightstown Family Fitness","238 West Main St","not_available",39.795849323272705,-85.52369356155147
"46151","Martinsville","IN","Martinsville Academy","not_available","46151",39.42647745376671,-86.43355074816392
"46151","Martinsville","IN","Bars On Fire CrossFit","265 Morton Ave","46151",39.41593933105469,-86.43097686767578
"46151","Martinsville","IN","Anytime Fitness","1696 S Ohio St","46151",39.4108,-86.4267
"46158","Mooresville","IN","Core Fitness","149 E High St","46158",39.60989592026916,-86.37062684767412
"46158","Mooresville","IN","Blue Gym","not_available","46158",39.618774,-86.378822
"46168","Plainfield","IN","The Flip Zone","880 Andico Rd","46168",39.714252713752515,-86.39226289339732
"46168","Plainfield","IN","Capitol Sports Center","1915 Gladden Rd","46168",39.70749192884838,-86.36830266355561
"46168","Plainfield","IN","Fundex Gym","1570 Perry Rd","46168",39.678892,-86.35714899999999
"46168","Plainfield","IN","Plainfield Gym And Fitness","not_available","46168",39.706478000000004,-86.389077
"46168","Plainfield","IN","CrossFit Unbreakable","2198 Reeves Rd","46168",39.683685302734375,-86.3678970336914
"46168","Plainfield","IN","Contenders Wrestling Academy","116 W Main St, Plainfield, IL 60544","60544",39.703409271886606,-86.40266033050324
"46173","Rushville","IN","Anytime Fitness","222 S Main St","46173",39.60511,-85.44385
"46176","Shelbyville","IN","Anytime Fitness","1818-A State Rd 44","46176",39.52305,-85.74738
"46176","Shelbyville","IN","Shelbyville Community Athletic Club","not_available","46176",39.55027604938529,-85.7771191159792
"46176","Shelbyville","IN","Anytime Fitness","921 Blue River Way","46176",39.511592864990234,-85.7624740600586
"46201","Indianapolis","IN","FGN Fitness","1628 Bates St","46201",39.76223,-86.13132
"46201","Indianapolis","IN","West Gym","not_available","46201",39.77767562866211,-86.13196563720703
"46201","Indianapolis","IN","Anchorman Athletics","242 N Walcott St, Indianapolis, IN 46201","46201",39.770225524902344,-86.12979125976562
"46202","Indianapolis","IN","Irsay Family YMCA at CityWay","430 S Alabama St","46225",39.76115126130158,-86.15422649392309
"46202","Indianapolis","IN","NIFS—National Institute for Fitness and Sport","250 University Blvd","46202",39.76911250220589,-86.17409138233415
"46202","Indianapolis","IN","Sheraton Fitness","31 W Ohio St","46204",39.76978743157403,-86.15861187904723
"46202","Indianapolis","IN","YMCA @ the Athenaeum","401 E Michigan St","46204",39.773769992660455,-86.14969455997763
"46202","Indianapolis","IN","Hyatt Fitness Center","1 S Capitol Ave","46204",39.76639175415039,-86.16083526611328
"46202","Indianapolis","IN","Westin Fitness Center","not_available","46204",39.766145857831376,-86.1631168645415
"46202","Indianapolis","IN","Waverly Fitness Center","not_available","46202",39.764437,-86.148338
"46202","Indianapolis","IN","Riley Gym","650 N Alabama St","46204",39.776292,-86.15281
"46202","Indianapolis","IN","Simon Property Group Fitness Center","225 W Washington St","46204",39.7669015255872,-86.16234864921408
"46202","Indianapolis","IN","Gym 251","251 E Ohio St","46204",39.769438,-86.152912
"46202","Indianapolis","IN","Basic Training","909 N East St","46202",39.779735478457965,-86.14859608129758
"46202","Indianapolis","IN","Conrad Fitness & Pool","50 W Washington St","46204",39.76729359826507,-86.15949894705888
"46202","Indianapolis","IN","Community Healthplex Sports Club","1 American Square, Indianapolis, IN 46204","46204",39.770641355772085,-86.1606600916937
"46202","Indianapolis","IN","CrossFit NapTown","609 N Delaware St","46204",39.775718138828736,-86.15372622238355
"46202","Indianapolis","IN","Harness Factory Fitness & Tan Center","30 E Georgia St","46204",39.76460647583008,-86.1570816040039
"46202","Indianapolis","IN","Indianapolis Athletic Club","350 N Meridian St","46204",39.77267178000997,-86.15836945772334
"46202","Indianapolis","IN","24 Hour Fitness","36 S Pennsylvania St","46204",39.765996,-86.156717
"46202","Indianapolis","IN","Penn Arts Gym","111 E 16th St","46202",39.78822708129883,-86.15531921386719
"46202","Indianapolis","IN","F45 Training Indianapolis Downtown","435 Virginia Ave","46203",39.76044959,-86.14874408
"46202","Indianapolis","IN","Indy Bike Hub YMCA","222 E Market St","46204",39.768677948009106,-86.15303215348749
"46202","Indianapolis","IN","Anytime Fitness Geist","96th","46256",39.78096843416022,-86.14053150141544
"46202","Indianapolis","IN","Anytime Fitness","47 S Pennsylvania St 2nd Fl","46204",39.76593,-86.15545
"46202","Indianapolis","IN","Fitness Room - Park Place","1150 N White River Pkwy West Dr","46222",39.782989501953125,-86.19084930419922
"46203","Indianapolis","IN","Anytime Fitness","3919 Madison Ave Ste 900","46227",39.70919,-86.14112
"46203","Indianapolis","IN","Arc Fitness","not_available","46225",39.74541,-86.149185
"46203","Indianapolis","IN","Fitness in Motion South","not_available","46227",39.709312247179966,-86.14159515667565
"46203","Indianapolis","IN","Exercise Inc.","1430 N Green St","46112",39.706218428552354,-86.1402656911392
"46204","Indianapolis","IN","Emmis Gym","40 Monument Cir","46204",39.76801681518555,-86.15867614746094
"46204","Indianapolis","IN","Turnverien Gym","902 N Meridian St","46204",39.77954864501953,-86.15813446044922
"46204","Indianapolis","IN","CrossFit Infiltrate","335 W 9th St Ste C","46202",39.779151916503906,-86.16449737548828
"46204","Indianapolis","IN","Allen Plaza Weight Room","1 Virginia Ave Bsmt","46204",39.765865000000005,-86.155744
"46204","Indianapolis","IN","Indy Star Fitness Dungeon","307 N Pennsylvania St","46204",39.7718832449178,-86.15533122387139
"46204","Indianapolis","IN","Homewood Suites Fitness Center","211 S Meridian St","46225",39.763865,-86.157736
"46205","Indianapolis","IN","Washington Park Family Center","3130 E 30th St","46218",39.810909271240234,-86.1128921508789
"46205","Indianapolis","IN","Studio 49 Fitness","4913 N Pennsylvania St","46205",39.843043377216624,-86.15449055802434
"46205","Indianapolis","IN","I Work Out!","not_available","46220",39.84782,-86.145037
"46205","Indianapolis","IN","Mike Ford Personal Training","2326 E 44th St","46205",39.83669965946694,-86.12268375438721
"46205","Indianapolis","IN","P90X Class","not_available","46205",39.833341,-86.148621
"46205","Indianapolis","IN","Gym @ 40 North on Meridian","not_available","46208",39.82792382730163,-86.15526662726042
"46205","Indianapolis","IN","Marott Gym","2625 N Meridian St","46208",39.80511770532164,-86.15579172408566
"46205","Indianapolis","IN","Marcy Village Workout Room","4555 Marcy Ln","46205",39.839199,-86.134232
"46208","Indianapolis","IN","IMG - Fitness Center","2960 N Meridian St","46208",39.810759,-86.158732
"46208","Indianapolis","IN","White River Workout Room","Gable Lane","46228",39.82589025701731,-86.19675562050163
"46208","Indianapolis","IN","Apartment Gym","not_available","46228",39.826009,-86.196732
"46214","Indianapolis","IN","D1 and the Factory","6331 Crawfordsville Rd","46224",39.8004769,-86.27050609999999
"46214","Indianapolis","IN","Body Change","not_available","46214",39.775729,-86.298538
"46214","Indianapolis","IN","EDGE FItness & Strength LLC","1224 Indy Pl","46214",39.77958761691086,-86.30707022596039
"46214","Indianapolis","IN","BLAST Fitness","1212 Indy Pl","46214",39.781745,-86.305446
"46214","Indianapolis","IN","Planet Fitness","7425 W 10th St","46214",39.7777031,-86.2914705
"46214","Indianapolis","IN","Nutrition Plus","8287 Indy Ct","46214",39.78990173339844,-86.30615997314453
"46216","Indianapolis","IN","YMCA-Fort Ben","5736 Lee Rd","46216",39.85947773019647,-86.00187924073845
"46216","Indianapolis","IN","LA Fitness","9930 Pendleton Pike","46236",39.85441255645665,-85.99289097755586
"46216","Indianapolis","IN","Anytime Fitness","6703 Knollcreek Dr","46256",39.878337,-86.024918
"46216","Indianapolis","IN","Insanity Workout","not_available","46216",39.861885084343044,-85.99960657824371
"46216","Indianapolis","IN","Barkes Fitness","9135 Pendleton Pike","46236",39.84582814777616,-86.00687742233276
"46217","Indianapolis","IN","BBL","not_available","46222",39.70248515091483,-86.24293841622033
"46217","Indianapolis","IN","Janena's Work Out Spot","not_available","46241",39.718599,-86.2453
"46217","Indianapolis","IN","Chapman Compound Gym","not_available","46217",39.63780530313622,-86.19510723377277
"46217","Indianapolis","IN","Anytime Fitness","2222 W Southport Rd","46217",39.664773,-86.19812156
"46217","Indianapolis","IN","The Trail","740 Mount Rainier Dr","46217",39.67071533203125,-86.17303466796875
"46218","Indianapolis","IN","Body Zone East","1500 N Ritter Ave, Indianapolis, IN 46219","46219",39.78760528564453,-86.07556915283203
"46218","Indianapolis","IN","Express Fitness","Manor Center","46218",39.8188097,-86.0911325
"46219","Indianapolis","IN","Get Fit Athletic Club","7140 E Washington St","46219",39.77323247488318,-86.04272535421424
"46219","Indianapolis","IN","Indyshield Crossfit","910 n post rd","not_available",39.77395107080652,-86.00922484037463
"46219","Indianapolis","IN","Ford ACH Gym","not_available","46219",39.7660765,-86.05071544647217
"46219","Indianapolis","IN","Indy CrossFit","211 S Ritter Ave #G","46219",39.76728203447946,-86.07307084586816
"46219","Indianapolis","IN","Suites Of Irvington Gym","5730 E Washington St","46219",39.77120590209961,-86.06889343261719
"46219","Indianapolis","IN","Ransburg YMCA","501 N Shortridge Rd","46219",39.77875899224541,-86.0399648386657
"46219","Indianapolis","IN","Pratt House Of Pain","3035 N Shadeland Ave","46226",39.81283950805664,-86.04305267333984
"46219","Indianapolis","IN","My Oasis Fitness","8727 E Washington St","46219",39.772441,-86.01369100000001
"46220","Indianapolis","IN","Livrite Fitness","6220 N Butler Ave","46220",39.8689,-86.08181
"46220","Indianapolis","IN","Orangetheory Fitness","5858 N College Ave","46220",39.861119,-86.14655
"46220","Indianapolis","IN","LA Fitness","6160 N Keystone Ave","46220",39.86704319346752,-86.12414402888488
"46220","Indianapolis","IN","Crossfit Broad Ripple","6542 E Westfield Blvd","46220",39.874769587960664,-86.1417476380706
"46220","Indianapolis","IN","Athletic Revolution","5111 E 65th St","46220",39.875075602183394,-86.08385377072405
"46220","Indianapolis","IN","Anytime Fitness","6935 Lake Plz Dr","46220",39.88169,-86.06721
"46220","Indianapolis","IN","Fitness 1020","1020 Reserve Way","46220",39.877231,-86.141205
"46220","Indianapolis","IN","Workin On My Fitness","5623 N Rural St","46220",39.85574008100496,-86.11693819619815
"46220","Indianapolis","IN","Ced's Boxing","56th and Keystone","46220",39.855163398369285,-86.11845318694228
"46220","Indianapolis","IN","IHM Gym","317 E 57th St","46220",39.856971740722656,-86.15225219726562
"46220","Indianapolis","IN","Boone County Gymnasium","651 E 56th St","46220",39.85405349731445,-86.14624786376953
"46220","Indianapolis","IN","Knowsweat Workouts","4160 e 65th St","not_available",39.87474829195297,-86.09467395104416
"46220","Indianapolis","IN","Knowsweat Workouts","5160 E 65th St","46220",39.87685012817383,-86.08116149902344
"46220","Indianapolis","IN","Janies Gym","not_available","46250",39.889693,-86.084563
"46220","Indianapolis","IN","Pure Barre","6280 N College Ave Ste 400","46220",39.869194810432795,-86.14631446864774
"46221","Indianapolis","IN","TitanFit - A CrossFit Affiliate","7109 Girls School Ave","46241",39.746140105698245,-86.28627911165643
"46221","Indianapolis","IN","Stout Field Gym","Bldg 9","46241",39.737183066797755,-86.22572958469391
"46221","Indianapolis","IN","Workout Room At Country Inn","not_available","46221",39.699102,-86.259801
"46221","Indianapolis","IN","Fairfield Inn & Suites Exercise Room","5220 W Southern Ave","46241",39.728837,-86.248848
"46221","Indianapolis","IN","Eli Lilly Building 301 Fitness Center","1348 nordyke ave","46221",39.750332847734335,-86.1797478671682
"46222","Indianapolis","IN","Westview Healthplex Sports Club","3660 Guion Rd","46222",39.82149872546624,-86.22440325838706
"46222","Indianapolis","IN","IMET Gym","1635 W Michigan St","46222",39.77377700805664,-86.19129943847656
"46222","Indianapolis","IN","The Dungeon Gym","not_available","46224",39.780903,-86.236885
"46222","Indianapolis","IN","GWCHS Wellness Center","2215 W Washington St","46222",39.76519775390625,-86.19792938232422
"46222","Indianapolis","IN","Goodwill Gym","413 N Tremont St","46222",39.773179,-86.200153
"46224","Indianapolis","IN","Speedway Junior High Gym","5151 W 14th St","46224",39.78486,-86.24785
"46225","Indianapolis","IN","Lilly Fitness Center","625 S Meridian St","46225",39.758175,-86.158043
"46225","Indianapolis","IN","Fitness Center at The Alexander Hotel","333 S Delaware St","46204",39.76182174682617,-86.15412902832031
"46225","Indianapolis","IN","Anthem Fitness Center","220 Virginia Ave","46204",39.76384489641564,-86.15178471999381
"46226","Indianapolis","IN","Lawrence Central High School","7300 E 56th St","46226",39.85651705050193,-86.03965261813927
"46226","Indianapolis","IN","Gym","Cider Mill Ln","46226",39.84994322106224,-86.04206793963327
"46226","Indianapolis","IN","The Gym","not_available","46226",39.84187,-86.025721
"46227","Indianapolis","IN","Baxter YMCA","7900 Shelby St","46227",39.65188743624053,-86.14032525373756
"46227","Indianapolis","IN","LA Fitness","3855 E Southport Rd","46237",39.66487666531165,-86.09982177139815
"46227","Indianapolis","IN","Indy Boot Camps: Southside","6025 Madison Ave","46227",39.67887496948242,-86.13040161132812
"46227","Indianapolis","IN","Tasker Gym","3508 Pinetop Dr","46227",39.660469,-86.10566700000001
"46227","Indianapolis","IN","Fit For A Cause","3123 E Thompson Rd","46227",39.69272994995117,-86.1114273071289
"46227","Indianapolis","IN","Stone Bridge Luxury Apt Gym","603 Crossing Pl","not_available",39.67129047119052,-86.14643600022293
"46227","Indianapolis","IN","oasis fitness gym","8435 Shelby St","46227",39.643256,-86.138797
"46227","Indianapolis","IN","Gym Room","7130 Griffith Rd","46227",39.662946000000005,-86.131439
"46227","Indianapolis","IN","Brookwood Apartments - Fitness Room","5301 Turtle Creek East Dr","46227",39.689109,-86.146702
"46227","Indianapolis","IN","Madison Village Apartments Fitness Center","1819 Madison Village Dr","46227",39.661766,-86.128753
"46229","Indianapolis","IN","LA Fitness","9529 E Washington St","46229",39.77348410976596,-85.9972188405255
"46229","Indianapolis","IN","Champion's Edge","310 S Mitthoeffer Rd","46229",39.76727995142703,-85.99160379017832
"46229","Indianapolis","IN","Indy Shield Crossfit","901 N Post Rd","46219",39.780818939208984,-86.0074462890625
"46229","Indianapolis","IN","--llll----THE•45's•GYM----llll--","10601 E 30th St","46229",39.81121826171875,-85.97874450683594
"46234","Indianapolis","IN","LA Fitness","9030 Rockville Rd","46234",39.765104715937944,-86.32206916809082
"46235","Indianapolis","IN","Monarch Fitness Center","9347 Pendleton Pike","46236",39.84402084350586,-86.00357055664062
"46235","Indianapolis","IN","McCord's Fitness Center","not_available","46055",39.86152062995254,-85.97486000507284
"46235","Indianapolis","IN","Turbo Crossfit","not_available","46236",39.860687789603595,-85.97933261094428
"46235","Indianapolis","IN","Cardinal Fitness","10830 Pendleton Pike","46236",39.86248016357422,-85.9755630493164
"46235","Indianapolis","IN","Indiana Volleyball Academy","6010 Sunnyside Rd","not_available",39.865521422659256,-85.97491485541705
"46235","Indianapolis","IN","Anytime Fitness","11915 E Pendleton Pike","46236",39.87209,-85.95498
"46236","Indianapolis","IN","Curves","8150 Oaklandon Rd","46236",39.903895,-85.9587
"46237","Indianapolis","IN","ISSA - Indy South Sports Academy","4150 Kildeer Dr","46237",39.667690909863964,-86.09523610556617
"46237","Indianapolis","IN","Curves","8028 S Emerson Ave","46237",39.64990423859487,-86.08515619009182
"46237","Indianapolis","IN","Planet Fitness","5239 E Thompson Rd","46237",39.69341452672579,-86.07913720619064
"46237","Indianapolis","IN","The Box","not_available","46237",39.676682,-86.083721
"46237","Indianapolis","IN","Anytime Fitness","Southport road","not_available",39.663844,-86.082357
"46237","Indianapolis","IN","Cardinal Fitness","5220 E Southport Rd","46237",39.66710732984672,-86.07955507635026
"46237","Indianapolis","IN","Overlook Fitness Room","6810 Valley Ridge Dr","46237",39.668659000000005,-86.07925
"46239","Indianapolis","IN","Indy Crossfit","1435 Brookville Way","46239",39.75005355925968,-86.044367508409
"46239","Indianapolis","IN","GT's GYM","Indy","46239",39.6979620140694,-86.02368375485263
"46239","Indianapolis","IN","PT At FC Park","not_available","46259",39.680824279785156,-86.01126098632812
"46239","Indianapolis","IN","Echo Ridge Apartments","8520 Sierra Ridge Dr","46239",39.71328,-86.016669
"46240","Indianapolis","IN","Indianapolis - Ironworks at Keystone","2727 E 86th St Suite #115","46240",39.91234350275582,-86.11606269753872
"46240","Indianapolis","IN","F3 /// Fit Flex Fly","1706 E 86th St","46240",39.912833700076746,-86.13148332599584
"46240","Indianapolis","IN","Life Time Fitness","9525 N Meridian St","46260",39.92573489061466,-86.15613297065303
"46240","Indianapolis","IN","Orangetheory Fitness Indianapolis Ironworks at Keystone","2727 E 86th St","46240",39.911685,-86.11618059999999
"46240","Indianapolis","IN","Duke Realty Fitness Center","8711 River Crossing Blvd","46240",39.91461181640625,-86.10563659667969
"46240","Indianapolis","IN","Precedent Fitness Center","9315 Delegates Row","46240",39.923353000000006,-86.098939
"46240","Indianapolis","IN","Jordan YMCA","8400 Westfield Blvd","46240",39.90845309957442,-86.13560439648673
"46240","Indianapolis","IN","Northview Apartments Fitness Area","1807 Cholla Road","46240",39.91344836772025,-86.12937173113856
"46240","Indianapolis","IN","9100 Fitness Center","9100 Keystone Xing","46240",39.918898946924145,-86.11117910572334
"46240","Indianapolis","IN","push! Fitness For Women","4025 E 82nd St","46250",39.90702394906976,-86.09694243069033
"46240","Indianapolis","IN","Gym @ keystone crossing","9100 building keystone crossing","46240",39.9139777774451,-86.10874089040495
"46240","Indianapolis","IN","Indy Personal Trainining","9425 Delegates Row","46240",39.924719,-86.09881899999999
"46240","Indianapolis","IN","Parkwood Fitness Center","600 E 96th St","46240",39.92892459259235,-86.14384665313871
"46240","Indianapolis","IN","First Baptist Athletics","86th Street","46240",39.91385752088321,-86.1498352513798
"46240","Indianapolis","IN","Gym at Homewood Suites","2501 E 86th St","46240",39.911651611328125,-86.1194076538086
"46240","Indianapolis","IN","Be Now Fitness and Training","9607 N College Ave","46280",39.927957,-86.145108
"46240","Indianapolis","IN","Fitness 180","9135 N Meridian St","46260",39.92132855106734,-86.15601795422113
"46240","Indianapolis","IN","Nspire:  Adult 'Nspired Fitness 'n Dance","9401 N Meridian St","46260",39.924792877371495,-86.15687759700273
"46250","Indianapolis","IN","Life Time Fitness","8705 Castle Creek Parkway East Dr","46250",39.913719,-86.068971
"46250","Indianapolis","IN","Bob Block Fitness Equipment","8051-8155 Castleway Ct W","46250",39.90401196,-86.05716756
"46250","Indianapolis","IN","CrossFit Dog Fight","8345 Clearvista Pl","46256",39.907940999999994,-86.041923
"46250","Indianapolis","IN","Lake Castleton Gym","7601 Carlton Arms Dr","46256",39.8951301574707,-86.04389953613281
"46250","Indianapolis","IN","Crossfit Castlewood","8455 Castlewood Dr Ste E","46250",39.90897750854492,-86.04420471191406
"46250","Indianapolis","IN","The Masters Exercise Room","8975 Doral West Dr","46250",39.918701171875,-86.04414367675781
"46250","Indianapolis","IN","Anytime Fitness","7035 E 96th St","46250",39.92643,-86.04476
"46254","Indianapolis","IN","The SportZone","6601 Coffman Rd","46268",39.87593918989777,-86.23993563836565
"46254","Indianapolis","IN","LA Fitness","4015 Shore Dr","46254",39.82764018047356,-86.27815706328191
"46254","Indianapolis","IN","LA Fitness","5435 W Pike Plaza Rd","46254",39.828099206506096,-86.2547779083252
"46254","Indianapolis","IN","The Park at Eagle Creek Fitness Center","5462 Elkham Dr","46254",39.8515066522145,-86.27967503218873
"46254","Indianapolis","IN","Cottrell Fitness Corner","not_available","46268",39.879716,-86.249876
"46254","Indianapolis","IN","Indy Boot Camps: Eagle Creek, Speedway, Clermont, Brownsburg & Zionsville","3939 N High School Rd","46254",39.82697063492869,-86.26961890066723
"46254","Indianapolis","IN","Oaks of Eagle Creek Gym","5439 Longwoods Dr","46254",39.848602294921875,-86.27851867675781
"46254","Indianapolis","IN","Abington Apt Gym","4656 Edwardian Cir","46254",39.83991241455078,-86.2396011352539
"46254","Indianapolis","IN","Anytime Fitness","5510 Lafayette Rd #190","46254",39.851471999999994,-86.263041
"46254","Indianapolis","IN","Mojo’s GYM Addicts","3919 Lafayette Rd","46254",39.8283895,-86.236538
"46254","Indianapolis","IN","The Lift Spot","56th Street","not_available",39.853388,-86.256083
"46256","Indianapolis","IN","Hollywood All-Stars (North)","9360-9598 Castlegate Dr","46256",39.924491,-86.026374
"46256","Indianapolis","IN","Jelly Fitness","11502 East 106th Street","46037",39.93939075984974,-85.96269358275826
"46256","Indianapolis","IN","F45 Training South Fishers","8936 E 96th St","46037",39.927951,-86.01062
"46260","Indianapolis","IN","Pickwick Gym","not_available","46260",39.9224794470935,-86.18277243370017
"46260","Indianapolis","IN","Sempose Fitness","1475 W 86th St Ste G","46260",39.91118621826172,-86.18565368652344
"46260","Indianapolis","IN","Summerwood Workout Room","2520 Summer Dr","46268",39.908675,-86.205586
"46260","Indianapolis","IN","Fitness by Design, Inc","1355 W 96th St","46260",39.92538126046175,-86.18337851730368
"46260","Indianapolis","IN","The Lakes Fitness Center","Arbor Lake Lane","not_available",39.91481210127272,-86.20430177110788
"46260","Indianapolis","IN","Fitness Clinic","2160 W 86th St","46260",39.91244585247622,-86.19940082742656
"46268","Indianapolis","IN","CycleBar Traders Point","6010 W 86th St Ste 130","46278",39.912997484240066,-86.26498095337297
"46268","Indianapolis","IN","Iron Valley Barbell","5301-5329 Van Camp Drive","46268",39.909912,-86.251884
"46268","Indianapolis","IN","Bent Tree Gym","3120 Ramblewood Dr","46268",39.90705732865819,-86.21579261129088
"46268","Indianapolis","IN","Fiziques","5346 W 79th St","46268",39.89682388305664,-86.25384521484375
"46268","Indianapolis","IN","Pike YMCA","7114 Lakeview Drive West","46278",39.88223398479126,-86.25906720417636
"46268","Indianapolis","IN","gym 41","5313 W 86th St","46268",39.91003,-86.25279300000001
"46268","Indianapolis","IN","Gym41","5315 W 86th St","46268",39.91003,-86.25279300000001
"46268","Indianapolis","IN","Core Performance","9510 Ross Ln","46268",39.92453384399414,-86.23192596435547
"46268","Indianapolis","IN","Better Bodies, Inc.","7031 Mayflower Park Dr Ste C","46077",39.939812,-86.2410162
"46268","Indianapolis","IN","One College Park Gym","8910 Purdue Rd","46268",39.91690444946289,-86.22210693359375
"46278","Indianapolis","IN","Mickey's Gym","Blossom Ln N","46278",39.900069,-86.276298
"46278","Indianapolis","IN","ININ Gym","7601 Interactive Way","46278",39.890279566329916,-86.2677428877066
"46278","Indianapolis","IN","Tau Kappa Epsilon Offices of the Grand Chapter","7439 Woodland Dr","46278",39.887834442752364,-86.26623519870039
"46278","Indianapolis","IN","Gym 7635 Interactive Way","not_available","46278",39.89164968214143,-86.2677645227325
"46280","Indianapolis","IN","DoubleTree Fitness Center","11355 N Meridian St","46032",39.953142,-86.156572
"46280","Indianapolis","IN","Penn Mark Plaza Fitness Center","12595 N Meridian St","46032",39.9547714354179,-86.15697095669115
"46290","Indianapolis","IN","St Vincent Health","10330 N Meridian St","46290",39.93697787119533,-86.15921183990444
"46290","Indianapolis","IN","Courtyard by Marriott Fitness Center","10290 N Meridian St","46290",39.935626,-86.159559
"46301","Beverly Shores","IN","Troybuilt Fitness","3440 W Dunes Hwy","46360",41.68863323386048,-86.94822549819945
"46303","Cedar Lake","IN","Anytime Fitness","13350 Lincoln Plaza","46303",41.37655,-87.45208
"46303","Cedar Lake","IN","Hanover Central Fitness Center","10120 W 133rd Ave","46303",41.3791618347168,-87.4566650390625
"46304","Chesterton","IN","Omni Health & Fitness - Chesterton","810 Michael Dr","46304",41.61165140473691,-87.03740342591004
"46304","Chesterton","IN","Wii Workout Room","not_available","46304",41.61452102661133,-87.061279296875
"46304","Chesterton","IN","Franciscan Health Fitness Centers Chesterton","810 Michael Dr Ste Z","46304",41.6109867,-87.03728509999999
"46304","Chesterton","IN","Anytime Fitness","757 Indian Boundary Rd, Ste 6","46304",41.61742,-87.03725
"46304","Chesterton","IN","1550 N. Lakeshore Fitness","1550 N. LSD","46304",41.647945,-87.013884
"46307","Crown Point","IN","Southlake YMCA","1450 S Court St","46307",41.39231187644165,-87.36826156991802
"46307","Crown Point","IN","Anytime Fitness","4831 E Lincoln Hwy","46410",41.470436,-87.277336
"46307","Crown Point","IN","Planet Fitness","1656 E Summit St","46307",41.42883871875551,-87.3380699872963
"46307","Crown Point","IN","Life Power","8571 Louisiana Place","not_available",41.462547302246094,-87.31840515136719
"46307","Crown Point","IN","Inspiration Fitness","1940 E North St Ste C","46307",41.42076630828083,-87.33939340523413
"46307","Crown Point","IN","One In A Million Boxing Gym","not_available","46410",41.458468271579505,-87.31918847431747
"46307","Crown Point","IN","Hollywood Alliance - Merrillville","1400 E 89th Ave","46410",41.45695114135742,-87.31935119628906
"46307","Crown Point","IN","Next Level School of Strength LLC","1100 W 84th Dr","46410",41.465728759765625,-87.34559631347656
"46307","Crown Point","IN","Body MAX Fitness","240 W 79th Ave","46410",41.4748870177971,-87.33894285119632
"46307","Crown Point","IN","Anytime Fitness","822 Country Sq Plz","46341",41.33253,-87.20204
"46307","Crown Point","IN","P.S. Fitness","7601 Whitcomb St","46410",41.479502000000004,-87.38315
"46307","Crown Point","IN","Anytime Fitness","10845 Maple Ln","46373",41.4221305847168,-87.44731903076172
"46307","Crown Point","IN","Universal Fitness","1090 W 84th Dr","46410",41.465634175557085,-87.34511294986376
"46307","Crown Point","IN","Pentwater clubhouse gym","11723 Maryland St","46307",41.40538813125145,-87.32826018932236
"46307","Crown Point","IN","Midwest training crown point","1204 Erie Ct","46307",41.42499542236328,-87.34293365478516
"46307","Crown Point","IN","UFC Gym","5206 E 81st Ave","46410",41.47162138336418,-87.27319717825075
"46307","Crown Point","IN","F.A.S.T. Center","1084 Breuckman Dr","46307",41.42900848388672,-87.34879302978516
"46307","Crown Point","IN","The Dungeon","My Basement","46307",41.3870039,-87.37845064
"46307","Crown Point","IN","Curves","186 S West St","46307",41.41548867249092,-87.36624240875244
"46307","Crown Point","IN","Anytime Fitness","10711 Randolph St","46307",41.42306,-87.23787
"46307","Crown Point","IN","Anytime Fitness","10645 Broadway","46307",41.42302,-87.33404
"46310","Demotte","IN","Anytime Fitness","1334 15th St","46310",41.18817,-87.1797
"46310","Demotte","IN","House Of Fitness","10144 Peaceful Dr","46310",41.16044816666667,-87.17440388333333
"46310","Demotte","IN","Curves","115 7th St SW","46310",41.196006774902344,-87.19964599609375
"46310","Demotte","IN","Demotte Boxing Club","not_available","46310",41.1462287902832,-87.20852661132812
"46310","Demotte","IN","Infinity Fitness, Inc.","5569 W SR 10","46310",41.188117386052284,-87.1579098701477
"46311","Dyer","IN","Orangetheory Fitness","835 Joliet St","46311",41.49441146850586,-87.50691223144531
"46311","Dyer","IN","DJ's Gym","not_available","46375",41.52261872177761,-87.48904756354897
"46311","Dyer","IN","She Fit","not_available","46311",41.435305,-87.51142
"46311","Dyer","IN","Rockwell Gym","1620","46311",41.488939,-87.4971882
"46311","Dyer","IN","Insanity","not_available","46373",41.45179008709967,-87.50763689972405
"46311","Dyer","IN","Crossfit DNA","966 Richard Rd","46311",41.49116265368371,-87.50480757345747
"46311","Dyer","IN","Anytime Fitness","262 81st Ave","46311",41.47149,-87.51946
"46311","Dyer","IN","Patti's All-American","1530 Joliet St","46311",41.49053644385582,-87.49216579706292
"46311","Dyer","IN","Semper Fit","9546 N. Industrial Dr.","46373",41.435955,-87.514742
"46311","Dyer","IN","Fit Code -  Dyer","101 Joliet St","46311",41.49488067626953,-87.52290344238281
"46312","East Chicago","IN","#GetItRight","not_available","46312",41.64753999991801,-87.44388628783433
"46312","East Chicago","IN","East Chicago Police Dept. (Gym)","2301 E Columbus Dr","46312",41.638065338134766,-87.44361114501953
"46319","Griffith","IN","Griffith Family YMCA","1345 N Broad St","46319",41.54664895682941,-87.42653846740723
"46319","Griffith","IN","Harbor Rob's Fitness Center","not_available","46319",41.523956298828125,-87.42374420166016
"46319","Griffith","IN","Womens Core Fitness Center","not_available","46322",41.538115000000005,-87.448427
"46319","Griffith","IN","Skinners Tae Kwon Do","112 E Ridge Rd","46319",41.551608,-87.426817
"46319","Griffith","IN","Anytime Fitness","9632 Cline Ave","46322",41.53894,-87.43357
"46319","Griffith","IN","Matchpoint","1625 N Glenwood St","46319",41.550785999999995,-87.415724
"46319","Griffith","IN","the buisness","730 N Rueth Dr","46319",41.534773,-87.445736
"46320","Hammond","IN","Whiting Community Center","not_available","46394",41.67806185962926,-87.49661257048744
"46320","Hammond","IN","The Dungeon","In The Middle Of My Street","not_available",41.68175787474222,-87.51188445823497
"46320","Hammond","IN","Holiday's Backyard (IUWA gym)","not_available","46324",41.6012428,-87.5061061
"46320","Hammond","IN","rons life cycle","not_available","46327",41.638370513916016,-87.51080322265625
"46320","Hammond","IN","Sweat Box","not_available","60438",41.5967568,-87.495271
"46321","Munster","IN","Anytime Fitness","821 Main St","46321",41.523315,-87.507724
"46321","Munster","IN","Hammond YMCA","7322 Southeastern Ave","46324",41.58120483446848,-87.4871087717922
"46321","Munster","IN","Globo Gym Purple Cobras","9950 Calumet Ave","46321",41.53288650512695,-87.51031494140625
"46321","Munster","IN","CrossFit Munster","9430 Calumet Ave","46321",41.543121,-87.5103
"46321","Munster","IN","Region Barbell Club","9360 Calumet Ave","46321",41.54336929321289,-87.5101089477539
"46321","Munster","IN","Hammond boxing club","not_available","46320",41.552049431243304,-87.52004021976401
"46321","Munster","IN","Priority fitness","9337 Calumet Ave, Munster, IN 46321","46321",41.54380615826415,-87.50811505130389
"46321","Munster","IN","Crossfit DNA","9258-9398 Calumet Ave","46321",41.54301585,-87.50916326666666
"46321","Munster","IN","Overall Body and Fitness","245 Ridge Rd","46321",41.56304168701172,-87.52017974853516
"46321","Munster","IN","CLASS UFC GYM Munster","10417 Calumet Ave # A","46321",41.5637397,-87.5093294
"46321","Munster","IN","Fransiscan Gym","701 Superior Ave","46321",41.537901,-87.512001
"46322","Highland","IN","World Gym Highland","8313 Indianapolis Blvd","46322",41.5611,-87.47093
"46322","Highland","IN","World ""Torture Chamber"" Gym","8197-8239 S Indianapolis Blvd","46322",41.560624837875366,-87.47041404247284
"46322","Highland","IN","highland parks and recreation","2450 Lincoln St","46322",41.550838470458984,-87.46881103515625
"46322","Highland","IN","Gator's","3150 45th St","46322",41.536922454833984,-87.4524154663086
"46323","Hammond","IN","Jean Shephard Community Center","3031 J.F. Mahoney Dr","46323",41.575092692901116,-87.45547944657001
"46324","Hammond","IN","Gotta Get It Right ;-)","My casa","46324",41.5855628,-87.5054003
"46341","Hebron","IN","Novak's Gym","not_available","46385",41.389226,-87.128835
"46341","Hebron","IN","Fuel Fitness","not_available","46307",41.42247394124423,-87.23997250956843
"46341","Hebron","IN","STRIDE","10835 Broadway Ste A122","46307",41.422811713559724,-87.33292377778803
"46342","Hobart","IN","Anytime Fitness","6445 US Hwy 6","46368",41.55001,-87.1652
"46342","Hobart","IN","Workout Wonderland","1234 Pump Iron Drive","46342",41.53187788227088,-87.29629706649497
"46342","Hobart","IN","Anytime Fitness","7878 East Ridge Road","46342",41.55238,-87.24345
"46342","Hobart","IN","Cardinal Fitness","8560 E Ridge Rd","46342",41.551433,-87.235495
"46342","Hobart","IN","Portage YMCA","3100 Willowcreek Rd","46368",41.56225409144227,-87.18378403749988
"46342","Hobart","IN","Willow Creek Fitness Center","Sundance Trl S","46368",41.553948017766245,-87.18495189094885
"46342","Hobart","IN","Get Fit!","not_available","46342",41.499429818962724,-87.16882809818628
"46342","Hobart","IN","Curves","3394 Reserve Dr","46368",41.554176330566406,-87.18663787841797
"46342","Hobart","IN","The Basement","not_available","46368",41.55647853210076,-87.16929902725757
"46342","Hobart","IN","Rising Star martial arts","5822 US Highway 6","46368",41.550586,-87.188958
"46342","Hobart","IN","Hobart YMCA","601 W 40th Pl","46342",41.543845349588366,-87.26854540431782
"46342","Hobart","IN","Chicago Health & Fitness","1435 S Lake Park Ave","46342",41.51365366269626,-87.25706361175543
"46347","Kouts","IN","The Sole Provider","not_available","46347",41.31028747558594,-87.03351593017578
"46350","La Porte","IN","Anytime Fitness","4112 Franklin St","46360",41.67791,-86.89258
"46350","La Porte","IN","Richmonde Fitness Center","Eastwood City","46360",41.741634,-86.836282
"46350","La Porte","IN","Fitness Plus","1209 E US 2","46350",41.63308700524039,-86.67505558581328
"46350","La Porte","IN","Anytime Fitness","59 Pine Lake Ave","46350",41.61378,-86.72512
"46350","La Porte","IN","Howland Gym","not_available","46350",41.611289978027344,-86.76887512207031
"46350","La Porte","IN","Long Beach Fitness Center","2501 Oriole Trl","46360",41.745686,-86.848414
"46350","La Porte","IN","Northwest Athletic Club","301 W Kieffer Rd","46360",41.667194749082846,-86.89692589611975
"46350","La Porte","IN","Ladies Fitness Zone / Jazzercise","717 Michigan Ave Ste 300","46350",41.610709474640316,-86.72065219279071
"46356","Lowell","IN","Anytime Fitness","1920 E Commercial Ave","46356",41.28899,-87.39474
"46356","Lowell","IN","Weight Room","not_available","46356",41.301516488966506,-87.40241791954492
"46356","Lowell","IN","Creekside Gym.","501 Creekside Dr","46356",41.283097999999995,-87.43092
"46356","Lowell","IN","Fitness Premier","289 Westmeadow Pl, Lowell, IN 46356","46356",41.29439163208008,-87.44329071044922
"46360","Michigan City","IN","Jazzercise","522 Franklin St","46360",41.71657030511393,-86.90149603044944
"46360","Michigan City","IN","Fitness on Four","not_available","46360",41.70366911168781,-86.9038716913939
"46366","North Judson","IN","Max Effex","not_available","46534",41.21521805429608,-86.78245924288677
"46368","Portage","IN","The Crossroads","783 N 425 W","46385",41.548458099365234,-87.14705657958984
"46368","Portage","IN","Classic Bodyworks","6020 Central Ave","46368",41.57771048025068,-87.18254091561109
"46373","Saint John","IN","Lake Central Weight Room","8400 Wicker Ave","46373",41.46650695800781,-87.47303009033203
"46373","Saint John","IN","Curves","11230 Ventura Trails Dr","46373",41.46468816,-87.47160478
"46375","Schererville","IN","Franciscan Omni Health & Fitness","221 US Highway 41","46375",41.517256051319585,-87.46732231847523
"46375","Schererville","IN","Anytime Fitness","2151 US 41","46375",41.482,-87.47095
"46383","Valparaiso","IN","Anytime Fitness","3020 N Calumet Ave","46383",41.495750427246094,-87.04390716552734
"46383","Valparaiso","IN","Planet Fitness","1270 Strongbow Center Dr, Unit 200","46383",41.456894,-87.034711
"46383","Valparaiso","IN","Valparaiso Family YMCA","1201 Cumberland Xing","46383",41.49699195430178,-87.04667071529141
"46383","Valparaiso","IN","Uptown East Fitness Center","not_available","46383",41.46694266315419,-87.04423291147295
"46383","Valparaiso","IN","Will Power Fitness","354 Valparaiso St","46383",41.471375,-87.056045
"46383","Valparaiso","IN","Fitness Center","1710 Vale Park Rd","46383",41.491492,-87.039959
"46383","Valparaiso","IN","Jazzercise At Calvary","1325 Evans Ave","46383",41.479576110839844,-87.04470825195312
"46383","Valparaiso","IN","Anytime Fitness","1361 Morthland Dr Ste A","46385",41.4596,-87.07756
"46383","Valparaiso","IN","Orangetheory Fitness","510 Porters Vale Blvd","46383",41.47304583335733,-87.0142156719428
"46383","Valparaiso","IN","too strong personal training","1765 Morthland Dr","46385",41.460628509521484,-87.08161163330078
"46383","Valparaiso","IN","Southlake Fitness","3522 Calumet Ave","46383",41.50051410998,-87.04029240653597
"46383","Valparaiso","IN","Charter Fitness","1805 Lincolnway","46383",41.467143813852104,-87.03854695985036
"46383","Valparaiso","IN","Regional Crossfit","1115 Calumet Ave","46383",41.478955,-87.05586
"46383","Valparaiso","IN","Region Crossfit","2701 Beech St Ste M","46383",41.47435766366027,-87.02860018772428
"46385","Valparaiso","IN","Aberdeen Gym","Marcliffe Dr.","46385",41.44453918951571,-87.11339061236662
"46385","Valparaiso","IN","F45 Training Valparaiso","2272 West US Highway 30","46385",41.4624049,-87.0880443
"46391","Westville","IN","The Basement","not_available","46391",41.58710826666667,-86.93287296666666
"46392","Wheatfield","IN","Tumble Loving Care, Inc.","not_available","46392",41.18670206232745,-87.12257741729283
"46402","Gary","IN","Hudson-Campbell Fitness Center","401-499 Massachusetts St","46402",41.60400328455074,-87.33895671517259
"46402","Gary","IN","YWCA","not_available","46407",41.588222471187144,-87.33880636256121
"46403","Gary","IN","zumba","not_available","46405",41.60119676841376,-87.25895914638771
"46405","Lake Station","IN","1 Зал L'orange Gym","L'orange Gym","46405",41.578297,-87.247434
"46409","Gary","IN","Gary Police Athletic League","1-799 W 30th Ave","46407",41.56383045685569,-87.32886746718228
"46410","Merrillville","IN","Body Sculpting 219","6154 Broadway","46410",41.50593185424805,-87.33648681640625
"46410","Merrillville","IN","Top Fuel Crossfit","4162 W 82nd Ave","46410",41.47115664627449,-87.38772783817504
"46410","Merrillville","IN","Northwest Indiana Zumba","3161 E 84th Pl","46410",41.464141845703125,-87.29762268066406
"46410","Merrillville","IN","Anytime Fitness","8119 Taft St","46410",41.47032,-87.36457
"46410","Merrillville","IN","MHS Weightroom","276 E 68th Pl","46410",41.494559,-87.329479
"46410","Merrillville","IN","Charter Fitness","6055 Broadway","46410",41.50894834121749,-87.33296122264063
"46504","Bourbon","IN","g's gym","not_available","46504",41.317420959472656,-86.13114166259766
"46506","Bremen","IN","curves - Bremen","not_available","46506",41.44658660888672,-86.16127014160156
"46507","Bristol","IN","Richie's Fitness Center","5150 Verdant St","46516",41.67464828491211,-85.88951873779297
"46507","Bristol","IN","Todd's Gym","not_available","46507",41.704872,-85.797117
"46507","Bristol","IN","fit stop","not_available","46516",41.68677255605052,-85.88830894757145
"46507","Bristol","IN","Fit Stop","5230 Beck Dr","46516",41.69450974867284,-85.8900135755539
"46510","Claypool","IN","Beaver Dam Fitness","not_available","46910",41.09323421717787,-85.96503088504983
"46511","Culver","IN","bottom line fitness Company","not_available","46511",41.216854095458984,-86.42338562011719
"46514","Elkhart","IN","Elkhart Youth & Community Center","200 E Jackson Blvd","46516",41.68887825306787,-85.97184314687607
"46514","Elkhart","IN","Maple Lane Apartments Gym","2001 Sugar Maple Ln","46514",41.711129,-85.945875
"46514","Elkhart","IN","The Body Shop","not_available","46514",41.681949615478516,-86.00213623046875
"46514","Elkhart","IN","Nibgym","1516 Milldlebury St.","46516",41.68207266672156,-85.94277759050006
"46514","Elkhart","IN","E.A.C","Jeanwood drive","46514",41.7167869115907,-85.92672938533453
"46514","Elkhart","IN","YourFitnessTraining.biz","30242 County Road 2","46530",41.753177642822266,-86.04756164550781
"46514","Elkhart","IN","Eastlake Athletic Club","3400 Henke St","46514",41.716889775956055,-85.92665835049598
"46514","Elkhart","IN","Eastlake Northpointe","3130 Northview Dr","46514",41.73342515273803,-85.97632222396615
"46514","Elkhart","IN","Crossfit Michiana","2830 Dexter Dr","46514",41.72571684189417,-85.99929258413813
"46516","Elkhart","IN","Eastlake Athletic Club","57001 Tealwood Ct","46516",41.666736,-85.908332
"46516","Elkhart","IN","The Knafel Gym - Elkhart","Spring Creek Tr","46516",41.64983281666667,-85.93976285
"46516","Elkhart","IN","Gym At Apartments","Portsmouth Drive","46517",41.67403735,-85.95354344
"46516","Elkhart","IN","Inspire Athletics","24615 County Road 45 #3","46516",41.65259344590167,-85.93662361389642
"46526","Goshen","IN","Anytime Fitness","712 W Lincoln Ave","46526",41.58599,-85.84627
"46526","Goshen","IN","Schmucker Wrestling Club","not_available","46526",41.55211199928988,-85.81537562601773
"46526","Goshen","IN","Ares Fitness Club","209 Chicago Ave","46526",41.587542780551956,-85.84331033047401
"46526","Goshen","IN","The Knafel Gym - New Paris","Red Cedar Rd","46553",41.504846,-85.827896
"46526","Goshen","IN","TF Gym","not_available","46528",41.592514196490846,-85.7934117728564
"46528","Goshen","IN","Eastlake Athletic Club 24/7","304 N Main St","46540",41.678341029575904,-85.70542395114899
"46528","Goshen","IN","Atomic Fitness","129 Orpha Dr","46540",41.657039000000005,-85.710479
"46530","Granger","IN","Fit Stop","13160 Edwardsburg Hwy.","46530",41.750707230894946,-86.1221735285218
"46530","Granger","IN","Orangetheory Fitness","7135 Heritage Square Dr","46530",41.72564487800767,-86.17685722726918
"46530","Granger","IN","Royal Majestics at Mary Phillips School","not_available","46635",41.72496309800096,-86.14092416176968
"46530","Granger","IN","Tu Sei Bella","307 Florence Ave","46530",41.728026178574936,-86.1754992468216
"46530","Granger","IN","basement fitness #fitbit","not_available","46530",41.73036193847656,-86.16869354248047
"46530","Granger","IN","Main Street Village Workout Room","Sterling  Blvd","not_available",41.71401617892206,-86.16993790120992
"46530","Granger","IN","Peak Fast Gym","51050 Bittersweet Rd","46530",41.752702789795876,-86.11011037219826
"46530","Granger","IN","Midwest Orthotics Gym","17530 Dugdale Dr","46635",41.71228939785072,-86.20798011463309
"46530","Granger","IN","Beacon Health and Fitness Granger","3221 Beacon Pkwy","46530",41.7317185,-86.1480659
"46530","Granger","IN","Soccer Zone","1435 University Drive Ct","46530",41.71989000431083,-86.16513123059154
"46530","Granger","IN","Complete Nutrition","not_available","46545",41.71917653867808,-86.18912864617985
"46538","Leesburg","IN","The Field House","N State Road 13","46538",41.30364859,-85.68872563
"46538","Leesburg","IN","The Y","301 N Mainstreet","not_available",41.31513888888889,-85.7057638888889
"46538","Leesburg","IN","Briar Ridge Fitness Center","Briar Ridge circle","not_available",41.279585,-85.856704
"46544","Mishawaka","IN","Anytime Fitness","322 N Bittersweet Rd","46544",41.66587,-86.10774
"46544","Mishawaka","IN","Fun N Fitness","1401-1519 S Fir Rd","46544",41.64982738002086,-86.1576318038511
"46544","Mishawaka","IN","Park Jefferson Fitness Center","not_available","46615",41.674858375991995,-86.20542863329007
"46544","Mishawaka","IN","Rockstar Gym","1454 3rd St","46561",41.661399841308594,-86.08829498291016
"46544","Mishawaka","IN","fitness u s a","Ireland Rd, IN","46544",41.62959289550781,-86.1758804321289
"46544","Mishawaka","IN","Michiana Fitness","16323 Roosevelt Rd","46544",41.596797943115234,-86.18104553222656
"46544","Mishawaka","IN","Michiana Workout Company","308 S Byrkit St","46544",41.66017067857536,-86.1572570993065
"46545","Mishawaka","IN","Anytime Fitness","Grape Road","46545",41.6981,-86.186789
"46545","Mishawaka","IN","World Gym","2456 Miracle Ln","46545",41.68239878546805,-86.19336823319743
"46545","Mishawaka","IN","Charter Fitness","4601 Grape Rd","46545",41.70253247207279,-86.18833969037217
"46545","Mishawaka","IN","ICE Athletic Center","1526 Deer Run Dr","46545",41.68745040893555,-86.15970611572266
"46545","Mishawaka","IN","Crossfit South Bend","3927 N Home St","46545",41.69675827026367,-86.15013122558594
"46545","Mishawaka","IN","Penn High School Wrestling Room","56100 Bittersweet Rd, Mishawaka, IN 46545","46545",41.67924118041992,-86.10811614990234
"46545","Mishawaka","IN","Gym @ Residence Inn","231 Park Pl","46545",41.697364,-86.179671
"46545","Mishawaka","IN","Pinnacle Gym","Day Road","not_available",41.69439158130068,-86.1844181987275
"46545","Mishawaka","IN","Punch Gym","3602 Grape Rd","46545",41.69304826636581,-86.18653717933053
"46545","Mishawaka","IN","Gymnastics Michiana","3390 N Home St","46545",41.69167663813152,-86.14914502883605
"46545","Mishawaka","IN","Runaway Bay Apartments Gym","302 Runaway Bay Cir","46545",41.689564000000004,-86.186216
"46545","Mishawaka","IN","Fitness center @ Hyatt Place","215 E Day Rd, Mishawaka, IN 46545","46545",41.69795227050781,-86.18040466308594
"46556","Notre Dame","IN","Joyce Athletic Center","University of Notre Dame","46556",41.69814083951986,-86.23138424069472
"46563","Plymouth","IN","Ace Fitness","1101 E Jefferson St","46563",41.344147614430774,-86.29407512925975
"46580","Warsaw","IN","Wyndham Garden Fitness Center","E Centre Street","46580",41.23907277298309,-85.81970187364136
"46580","Warsaw","IN","KCH Regional Rehab Ctr","1500 Provident Dr","46580",41.25114822387695,-85.82867431640625
"46580","Warsaw","IN","Positive Fitness Fitness","211 N Indiana St, Warsaw, IN 46580","46580",41.239498138427734,-85.85558319091797
"46580","Warsaw","IN","Workout Anytime","2880 Frontage Road","46580",41.2374551540812,-85.81559300422668
"46580","Warsaw","IN","Crossfit Haymaker","not_available","46580",41.236593,-85.867409
"46580","Warsaw","IN","Giverny Fitness Studio","207 S Buffalo St","46580",41.23671772407118,-85.85639020401975
"46580","Warsaw","IN","Hampton Inn Fitness Center","115 Robmar Dr","46580",41.237173,-85.820319
"46580","Warsaw","IN","D. Brown's Savage Gym","not_available","46582",41.25042673866016,-85.87947259085733
"46582","Warsaw","IN","Anytime Fitness","2520 Walton Blvd.","46582",41.27228,-85.85369
"46601","South Bend","IN","Beacon Health and Fitness South Bend","111 W Jefferson Blvd","46601",41.6752281,-86.2513046
"46601","South Bend","IN","Workout Room at The Pointe","307 E Lasalle Ave","46617",41.67945098876953,-86.24728393554688
"46601","South Bend","IN","Doubletree Fitness Center","not_available","46601",41.67711383479654,-86.24910386811639
"46601","South Bend","IN","Pro Health Fitness","320 S Saint Joseph St","46601",41.67260617133803,-86.24854836329217
"46601","South Bend","IN","YMCA OF MICHIANA","1201 Northside Blvd","46615",41.66328093819107,-86.23223338228786
"46601","South Bend","IN","The Kroc Fitness Center","900 W Western Ave, South Bend, IN 46601","46601",41.67148521054269,-86.26239657722026
"46601","South Bend","IN","Crossfit 450","701 W Sample St","46601",41.66598129272461,-86.25489044189453
"46614","South Bend","IN","O'Brien Fitness Center","321 E Walter St","46614",41.632404756459735,-86.24659687295767
"46614","South Bend","IN","Warrior Gym","1433 Byron Dr, South Bend, IN 46614","46614",41.635963439941406,-86.22516632080078
"46614","South Bend","IN","Nutwood Gym","Roosevelt Road","46614",41.59444368224092,-86.27799509368927
"46614","South Bend","IN","Curves for Women","2051 E Ireland Rd","46614",41.63011932373047,-86.21672058105469
"46614","South Bend","IN","Anytime Fitness","1290 E. Ireland Rd.","46614",41.62861,-86.23155
"46615","South Bend","IN","Sautter's Gym","not_available","46617",41.685046,-86.224714
"46615","South Bend","IN","The Foundry Gym","North Eddy Street","not_available",41.691413589066066,-86.23573534829409
"46616","South Bend","IN","Garage Boxing Gym","not_available","46616",41.689587,-86.266886
"46619","South Bend","IN","Planet Fitness","4848 Western Ave","46619",41.670466,-86.315372
"46619","South Bend","IN","East Race Muscle","3300 W Sample St","46619",41.663618,-86.295136
"46635","South Bend","IN","Woodbridge GYM/Pool","not_available","46637",41.71701908111572,-86.22076749801636
"46637","South Bend","IN","The Golden Touch","50801-50899 Indiana 933","46637",41.75418715,-86.25117995
"46701","Albion","IN","hiatt gym","not_available","46723",41.26945114135742,-85.4040298461914
"46703","Angola","IN","Club Fitness","605 W 275 N","46703",41.6822697511195,-85.00097326058997
"46703","Angola","IN","Anytime Fitness","205 W Harcourt Rd","46703",41.65685,-85.00326
"46703","Angola","IN","Fitt4life","not_available","46703",41.6347174704169,-84.99925108525012
"46703","Angola","IN","Curves of Angola","610 N Wayne St","46703",41.64080047607422,-84.99909973144531
"46706","Auburn","IN","SDI - Fitness Room","CR 59","46742",41.37370996214743,-84.91805987875625
"46706","Auburn","IN","Anytime Fitness","233 N Grandstaff Rd","46706",41.36783851,-85.07217787
"46706","Auburn","IN","Fit Zone","Duesenberg Dr","46706",41.36857331086637,-85.03827664539158
"46706","Auburn","IN","Dekalb Rehabilitation Gym","7th St","46706",41.3686857067697,-85.03426945457294
"46711","Berne","IN","No Excuse","156 W Main St","46711",40.65759,-84.951016
"46711","Berne","IN","Brother's","900s","46740",40.61549928,-84.86055297
"46714","Bluffton","IN","Anytime Fitness","935 Main St","46714",40.75279,-85.16637
"46714","Bluffton","IN","Market Street Boxing Gym","117 Market St, Bluffton, IN 46714","46714",40.739941790307036,-85.17065608970168
"46714","Bluffton","IN","Well's County YMCA","1935 N Main St","46714",40.77082061767578,-85.16409301757812
"46723","Churubusco","IN","Anytime Fitness","8475 US-33","46723",41.23977,-85.32798
"46725","Columbia City","IN","Anytime Fitness","462 West Plaza Drive","46725",41.17042,-85.49814
"46733","Decatur","IN","Anytime Fitness","514 S 13th St","46733",40.82808871433927,-84.92659150325105
"46733","Decatur","IN","Workout Center","not_available","46772",40.7522813462941,-84.97581884124733
"46733","Decatur","IN","Adams County Service Complex","not_available","46733",40.828460960133654,-84.92513237173038
"46733","Decatur","IN","Resolutions","Decatur, IN 46733","46733",40.830604553222656,-84.92913055419922
"46741","Grabill","IN","Anytime Fitness","14550 Amstutz Rd.","46765",41.214996,-85.018182
"46741","Grabill","IN","Gym Time","not_available","46835",41.145826,-85.021919
"46750","Huntington","IN","the florida hotbox","not_available","46750",40.88325500488281,-85.49089813232422
"46750","Huntington","IN","WOWY SuperGym markle indiana","103 N Clay St","46770",40.82698059082031,-85.33724212646484
"46750","Huntington","IN","West Park Skate Center","2987 West Park Drive.","46750",40.877408,-85.530575
"46750","Huntington","IN","IN Strong -Strength.Fitness","2048 N Jefferson St","46750",40.893611907958984,-85.50788116455078
"46750","Huntington","IN","The Gym","not_available","46783",40.963607842509035,-85.37273770384124
"46750","Huntington","IN","Sparks Fitness","718 S Main St","46783",40.954917907714844,-85.37537384033203
"46750","Huntington","IN","Anytime Fitness","317 Hauenstein Rd","46750",40.89478,-85.51578
"46750","Huntington","IN","Parkview Huntington YMCA","1160 500 N","46750",40.903155080305986,-85.48733839268023
"46755","Kendallville","IN","Cole YMCA","700 Garden St","46755",41.43615771962284,-85.25931621571104
"46755","Kendallville","IN","Curves","not_available","46755",41.45115280151367,-85.292724609375
"46774","New Haven","IN","BRAVES GYM","7400 E State Blvd","46815",41.10429763793945,-85.04535675048828
"46774","New Haven","IN","Anytime Fitness","6520 E State Blvd","46815",41.10052,-85.05699
"46774","New Haven","IN","New Haven Fitness","Quemetco Ct","46774",41.064783,-85.049745
"46774","New Haven","IN","My Workout Room","not_available","46815",41.10482406616211,-85.05213928222656
"46774","New Haven","IN","Curves","6714 E State Blvd","46815",41.10246552834365,-85.05627224456005
"46774","New Haven","IN","Curls and Cues","not_available","46806",41.044747,-85.036934
"46774","New Haven","IN","Weight Station","8522 Young Rd","46835",41.161202,-85.05383
"46783","Roanoke","IN","VBD Gym","Zunbrick Rd","not_available",40.955770739446784,-85.298824553874
"46783","Roanoke","IN","Anytime Fitness","Chapel Ridge","not_available",41.028205,-85.275129
"46787","South Whitley","IN","Shindigz Fitness Room","not_available","46787",41.093728504980646,-85.62617425536286
"46787","South Whitley","IN","Shindigz","101 Carroll Rd","46787",41.093283101144166,-85.62724403731039
"46792","Warren","IN","T's WOWY SuperGym Warren indiana","9934 SE Jeff Rd-90","46792",40.59638540415086,-85.33618810449316
"46802","Fort Wayne","IN","Mad Apple Crossfit","3630 Illinois Rd Ste 100","46804",41.07613232231606,-85.18844941590709
"46802","Fort Wayne","IN","St. Joseph Wellness Center","not_available","46802",41.07728765299931,-85.1501923494208
"46802","Fort Wayne","IN","GE Club","Swinney Ave, Fort Wayne, IN 46802","46802",41.070129951907944,-85.15161523418703
"46802","Fort Wayne","IN","Mostly Anytime Fitness","not_available","46807",41.059513092041016,-85.15556335449219
"46802","Fort Wayne","IN","American Health & Fitness","4150 Illinois Rd","46804",41.07481895164378,-85.19553955149915
"46802","Fort Wayne","IN","Three Rivers Apartments Workout Room And Sauna","not_available","46805",41.08319256617436,-85.13477626582755
"46802","Fort Wayne","IN","Ezo Fitness","2429 West Main Street, ezofitness.com","46808",41.07616549999999,-85.17232949999999
"46802","Fort Wayne","IN","Mad Apple Crossfit","300 E Washington Blvd","46802",41.07753303667169,-85.13440807749862
"46802","Fort Wayne","IN","Central YMCA","1020 Barr St","46802",41.07708527615336,-85.13598611937104
"46802","Fort Wayne","IN","Stout Barbell","1124-B Sherman","46808",41.0841008350383,-85.15181777708868
"46802","Fort Wayne","IN","Catalyst Fitness","203 E Berry St Lowr Level","46802",41.06702600205942,-85.15254692540044
"46802","Fort Wayne","IN","The Warrior's Code","326 W Rudisill Blvd, Fort Wayne, IN 46807","46807",41.050384521484375,-85.1410140991211
"46802","Fort Wayne","IN","YogaSix","4130 W Jefferson Blvd","46804",41.0725344961456,-85.19787554517443
"46802","Fort Wayne","IN","Velocity Barbell","919 Monroe St","46802",41.078831,-85.13069200000001
"46802","Fort Wayne","IN","Kickball Field at My Place!","2823 Edwards St","46802",41.05986022949219,-85.17239379882812
"46803","Fort Wayne","IN","Deers Boxing Club","3110 New Haven Ave, Fort Wayne, IN 46803","46803",41.06842803955078,-85.0984115600586
"46803","Fort Wayne","IN","HOPE Fitness & Sports","2221 Reed St","46803",41.065709,-85.117127
"46804","Fort Wayne","IN","Jorgensen Family YMCA","10313 Aboite Center Rd","46804",41.043791491256705,-85.27847635183713
"46804","Fort Wayne","IN","Orangetheory Fitness","1034 S Thomas Rd","46804",41.07773044762495,-85.20320768840517
"46804","Fort Wayne","IN","Heat Fitness Lab","5948 W Jefferson Blvd","46804",41.061212,-85.218331
"46804","Fort Wayne","IN","Max Fitness","9914 Illinois Rd","46804",41.075105667680475,-85.27148585242841
"46804","Fort Wayne","IN","Crossfit Fort Wayne","829 Lawrence Dr Ste 2","46804",41.07800513588103,-85.20645373626162
"46804","Fort Wayne","IN","Stealth Athletix","4012 Lower Huntington Rd","46809",41.01690849225186,-85.190449470725
"46804","Fort Wayne","IN","Pointe Inverness Gym","7028-7278 Pointe Inverness Way","46804",41.07210122,-85.23490187
"46804","Fort Wayne","IN","Anytime Fitness","5984 W Jefferson Blvd","46804",41.05986446,-85.21769106
"46804","Fort Wayne","IN","Sud'n Impact Gym","2429 W Main St","46808",41.05987350918102,-85.2222212138687
"46804","Fort Wayne","IN","Catalyst Fitness","2488 Getz Road","46804",41.083513153315295,-85.23430648878454
"46805","Fort Wayne","IN","PHP Wellness Studio","3201 Stellhorn Rd","46815",41.12055969238281,-85.09748840332031
"46805","Fort Wayne","IN","anytime fitness","North Clinton street","46805",41.11233139038086,-85.1227035522461
"46805","Fort Wayne","IN","Asylum Fitness","2025 Lynn Ave","46805",41.098174,-85.11137099999999
"46805","Fort Wayne","IN","American Health Fitness Center","not_available","46825",41.121438382469975,-85.12554178191927
"46805","Fort Wayne","IN","Awp Sports Training","3946 Ice Way","46805",41.1141986399889,-85.14747552573681
"46805","Fort Wayne","IN","Plus Ultra Fitness","122 E Collins Rd","46825",41.1205903,-85.1396784
"46808","Fort Wayne","IN","Spiece Fitness & Fieldhouse","5310 Merchandise Dr","46825",41.12684164324087,-85.15078726307063
"46808","Fort Wayne","IN","Peloton Cycling Center","5310 Merchandise Dr, Fort Wayne, IN 46825","46825",41.126808166503906,-85.1509780883789
"46808","Fort Wayne","IN","Extra Innings","Keystone Dr","46825",41.126898366666666,-85.14317786666666
"46814","Fort Wayne","IN","Woodside Gymnasium","not_available","46814",41.064046,-85.312587
"46815","Fort Wayne","IN","Summit City Fitness","5928 Trier Rd","46815",41.11268163499746,-85.06483088699393
"46815","Fort Wayne","IN","The Exercise Room","5419 Bellmawr Ln","46815",41.11934158576079,-85.07198900879749
"46815","Fort Wayne","IN","Ivy Tech Gym","4900 Saint Joe Rd","46835",41.1255989074707,-85.09896850585938
"46816","Fort Wayne","IN","Planet Fitness","7528 S Anthony Blvd","46816",41.016253,-85.113648
"46818","Fort Wayne","IN","Max Fitness","1415 W DuPont Rd","46825",41.17594335190418,-85.16095556055996
"46818","Fort Wayne","IN","The Gym","not_available","46818",41.13486,-85.20775
"46818","Fort Wayne","IN","Planet Fitness","1916 W Dupont Rd","46818",41.178943,-85.168829
"46818","Fort Wayne","IN","Anytime Fitness","1505 W DuPont Rd Ste B","46825",41.177225,-85.163021
"46818","Fort Wayne","IN","ICE All Stars","6393 Cross Creek Blvd","46818",41.137264251708984,-85.16815948486328
"46818","Fort Wayne","IN","Marriot Gym","1619 W Washington Center Rd","46818",41.131195068359375,-85.16100311279297
"46819","Fort Wayne","IN","Jamison's Gym","not_available","46819",41.00080892288235,-85.1501923494208
"46825","Fort Wayne","IN","Parkview Family YMCA","10001 Dawsons Creek Blvd","46825",41.17519737419591,-85.14855672485795
"46825","Fort Wayne","IN","Jackson R. Lehman Family YMCA","5680 Ymca Park Dr W","46835",41.132032170532696,-85.07037732926746
"46825","Fort Wayne","IN","Maxfit","Maplecrest Road","46825",41.131280631963136,-85.1088621226594
"46825","Fort Wayne","IN","Body Design For Women","7769 Coldwater Rd","46825",41.150571,-85.137477
"46825","Fort Wayne","IN","Anytime Fitness","2934 E DuPont Rd","46825",41.1776768472256,-85.1047218323043
"46825","Fort Wayne","IN","Max Fitness","7245 Maplecrest Rd","46835",41.14806103568282,-85.06457535089994
"46825","Fort Wayne","IN","Arrow Fitness","6656 Saint Joe Rd Ste B","46835",41.14393997192383,-85.08981323242188
"46825","Fort Wayne","IN","Woodcreek Fitness Center","6834 Ramblewood Dr","46835",41.14440155029297,-85.0730972290039
"46825","Fort Wayne","IN","Wambsganss Gym","6600 N Clinton St","46825",41.139095306396484,-85.11067199707031
"46825","Fort Wayne","IN","St Joseph Fire Dept Weight Room","6033 Maplecrest Rd","46835",41.136661529541016,-85.06332397460938
"46835","Fort Wayne","IN","Pine Ridge Racket & Fitness Club","Lima rd.","46825",41.19603368867382,-85.10226893219024
"46845","Fort Wayne","IN","VaultHigh Athletics","not_available","46845",41.215127,-85.125788
"46901","Kokomo","IN","Anytime Fitness","2935 S Washington St Ste 8","46902",40.4518,-86.13065
"46901","Kokomo","IN","Robbie's Gym","not_available","46901",40.48931607900211,-86.13178284493469
"46901","Kokomo","IN","Kokomo Flipsters","2378 W Boulevard","46902",40.4625358581543,-86.16328430175781
"46902","Kokomo","IN","Parisi Speed School","not_available","46902",40.441143,-86.125152
"46902","Kokomo","IN","Club Fitness 24 by Powerhouse","3780 S Reed Rd","46902",40.44124866954029,-86.1247337787033
"46902","Kokomo","IN","The Temple Of Swoll","Glen Morre Ct.","46902",40.411047259449106,-86.15653369974324
"46913","Bringhurst","IN","Lilly Building Zumba","not_available","46920",40.48066571693694,-86.38991106945842
"46923","Delphi","IN","Indiana Fitness Club","515 W Monroe St","46923",40.58643341064453,-86.68062591552734
"46923","Delphi","IN","CCCC","not_available","46929",40.547400390181956,-86.50974361906196
"46947","Logansport","IN","Workout Anytime","3304 E Market St","46947",40.759157,-86.321795
"46947","Logansport","IN","Ultimate Fitness","1600 W Market St","46947",40.75691350967765,-86.38877346847183
"46952","Marion","IN","Planet Fitness","1129 N Baldwin Ave, Ste 40","46952",40.5737188,-85.6769953
"46952","Marion","IN","Anytime Fitness","1107 N Forest Ave","46952",40.57498,-85.67839
"46952","Marion","IN","Grant County YMCA","123 Sutter Way","46952",40.562581394584235,-85.65856114721018
"46953","Marion","IN","The Tabernacle","not_available","46953",40.528744200927,-85.6083223606816
"46953","Marion","IN","The Well","236 W Reade Ave, Taylor University, Upland, IN 46989","46989",40.45604827565351,-85.50235077296543
"46953","Marion","IN","Center Group Wellness Center","4407 S Adams St","46953",40.517433166503906,-85.65535736083984
"46953","Marion","IN","Kesler Student Activities Center","Taylor University","46947",40.45597949435502,-85.50232337664619
"46953","Marion","IN","Boy's and Girl's Club of GRANT COUNTY","3402 S Meridian St","46953",40.52948760986328,-85.65433502197266
"46953","Marion","IN","Bill Green Athletic Arena","750 W 26th St","46953",40.53776550292969,-85.66736602783203
"46962","North Manchester","IN","Manchester University - Brown Fitness Center","604 E College Ave","46962",41.010964,-85.75937
"46962","North Manchester","IN","Anytime Fitness","408 W Main St","46962",40.9993,-85.77526
"46970","Peru","IN","Victory Gym","not_available","46970",40.766277,-86.060293
"46970","Peru","IN","Anytime Fitness","907 W Main St","46970",40.74359,-86.09448
"46975","Rochester","IN","Wellness Center","not_available","46975",41.0683774484721,-86.21556691077637
"46992","Wabash","IN","Wabash County YMCA","500 S Cass St","46992",40.79446912621908,-85.82458508056305
"46992","Wabash","IN","curves Of Wabash","not_available","46992",40.83935546875,-85.77055358886719
"46992","Wabash","IN","LeBROS CENTRE","Manchester Avenue","46992",40.81704269999999,-85.80687929999999
"47001","Aurora","IN","Planet Fitness","401 W Eads Pkwy, Unit 200","47025",39.09564,-84.865346
"47001","Aurora","IN","Anytime Fitness","102 Sycamore Ests Dr","47001",39.07832,-84.89137
"47001","Aurora","IN","Anytime Fitness Aurora","not_available","47001",39.025328518151,-84.97076952157936
"47001","Aurora","IN","Planet Fitness","not_available","47025",39.095467,-84.864783
"47001","Aurora","IN","Crossfit OTR","1 Shurlite Dr","47025",39.080467224121094,-84.88247680664062
"47006","Batesville","IN","Anytime Fitness","10 Bedel Blvd","47006",39.30562,-85.2157
"47006","Batesville","IN","Bee Active Gym School","not_available","47006",39.28817434577239,-85.19106165934146
"47012","Brookville","IN","Turing Point Fitness","not_available","47012",39.422306060791016,-85.01287841796875
"47025","Lawrenceburg","IN","HVL Fitness Center","19303 Schmarr Dr","47025",39.1527214050293,-84.83698272705078
"47025","Lawrenceburg","IN","Hidden Valley Fitness Center","19491-19567 Alpine Dr","47025",39.15762955272237,-84.83736779686951
"47025","Lawrenceburg","IN","Lbg community gym","Walnut street","47025",39.09492572938509,-84.85267240522762
"47040","Rising Sun","IN","Extreme Fitness And Tan","100-198 Indiana 56 Scenic","47040",38.948987125592325,-84.85416904150593
"47106","Borden","IN","New Albany Parks & Recreation","620 Parkeast Blvd","47150",38.394058,-85.809008
"47106","Borden","IN","The ""Gym""","8444 E Bethel Rd","47165",38.53531265258789,-85.94857788085938
"47111","Charlestown","IN","Anytime Fitness","1107 Market St","47111",38.45467,-85.67166
"47111","Charlestown","IN","Orangetheory Fitness","9031 U.S. 42","41091",38.4320255,-85.5244992
"47111","Charlestown","IN","Tumble Town","250 Harrison St","47111",38.44398880004883,-85.65957641601562
"47112","Corydon","IN","Anytime Fitness","1885 Old Hwy 135 NW","47112",38.2289,-86.13312
"47112","Corydon","IN","Corydon Central High School Weight Room","not_available","47112",38.19981036172546,-86.11953719002423
"47117","Elizabeth","IN","Horseshoe Hotel Exercise Room","not_available","47117",38.1798163565614,-85.90502849935321
"47119","Floyds Knobs","IN","ClarkFloyd Crossfit","121 Hausfeldt Ln","47150",38.33979034423828,-85.83492279052734
"47119","Floyds Knobs","IN","Southern Indiana Sports Center","620 Park East Blvd","47150",38.34006554033017,-85.82326658545462
"47119","Floyds Knobs","IN","Anytime Fitness","3684 Hwy 150 Ste 6","47119",38.32959,-85.89719
"47122","Georgetown","IN","Jazzercise - New Albany","not_available","47122",38.29925537109375,-85.91609954833984
"47129","Clarksville","IN","Louisville Athletic Club","951 E Lewis and Clark Pkwy","47129",38.31912529173008,-85.76072798846036
"47129","Clarksville","IN","Pure Barre","4317 Charlestown Rd Ste 9","47150",38.35143496385944,-85.79619430580317
"47129","Clarksville","IN","Personal best fitness","not_available","47129",38.27159603036126,-85.75147581269147
"47129","Clarksville","IN","Home","Irving Drive","not_available",38.32259895631382,-85.77533835498222
"47129","Clarksville","IN","lois a kratz wellness center","Missouri","not_available",38.283616,-85.749437
"47129","Clarksville","IN","CrossFit 927","951 E. Lewis & Clark Pkwy","47129",38.319113,-85.760675
"47129","Clarksville","IN","Louisville Athletic Club","4430 Charlestown Rd","47150",38.35311013157127,-85.7924811911105
"47129","Clarksville","IN","Turbo Kick","1804 Maxine Ct","47129",38.32726580855288,-85.77284954461321
"47130","Jeffersonville","IN","YMCA of Southern Indiana","4812 Hamburg Pike","47130",38.33698075058602,-85.74195897025281
"47130","Jeffersonville","IN","Snap Fitness","2760 Jefferson Centre Way","47130",38.32487869262695,-85.71021270751953
"47130","Jeffersonville","IN","Heuser Clinic","2040 Metal Ln","40206",38.27026367559977,-85.71311195445283
"47130","Jeffersonville","IN","Workout Anytime","1435 E 10th St","47130",38.290250123741046,-85.72954688655139
"47130","Jeffersonville","IN","ProFormance Fitness & Training","2041 River Rd.","40206",38.27030720947536,-85.7132035994422
"47130","Jeffersonville","IN","Captatrix Crossfit","not_available","47130",38.295403,-85.730084
"47130","Jeffersonville","IN","River Oak Gym","River Oak Apartments","40206",38.26768493652344,-85.70325469970703
"47130","Jeffersonville","IN","Anytime Fitness","5560 Highway 62","47130",38.35659,-85.70005
"47130","Jeffersonville","IN","CrossFit Jeffersonville","521 Michigan Ave","47130",38.273435,-85.745172
"47130","Jeffersonville","IN","Simmons Dance Studio","woodlawn ave","47130",38.30558180809021,-85.7224988937378
"47130","Jeffersonville","IN","Gym at Orchard Hills","201 Orchard Hills Dr","47130",38.32128143310547,-85.72016906738281
"47130","Jeffersonville","IN","HSC Fitness Center","1 Heartland Way","47130",38.33080182763773,-85.68711396596161
"47130","Jeffersonville","IN","Bluegrass Barbell","2734 River Green Circle","not_available",38.27479934692383,-85.70464324951172
"47130","Jeffersonville","IN","CrossFit Captatrix","252 4th Ave & B St","47130",38.29549207,-85.73005038
"47135","Laconia","IN","MEADE CrossFit","104 Olin Road Suite C","40108",37.99274682844694,-86.15933418273924
"47135","Laconia","IN","Snap","Bypass Road","40108",37.98172420604263,-86.1627344490115
"47150","New Albany","IN","New Albany Housing Authority","300 Erni Ave","47150",38.299308,-85.827669
"47150","New Albany","IN","Glassworks Fitness","815 W Market St","40202",38.25609240875881,-85.76452731948493
"47150","New Albany","IN","Federal Gym","not_available","40202",38.24906460470896,-85.76446924300612
"47150","New Albany","IN","Saint Dennis Gym","not_available","40216",38.18706625,-85.83724515
"47150","New Albany","IN","Zumba!","7th St","40202",38.255445258891086,-85.76212615555318
"47150","New Albany","IN","Humana Walkstation","22nd Floor Humana Building","not_available",38.256212,-85.758338
"47150","New Albany","IN","Fitness Zone","not_available","47150",38.364327403187865,-85.80630685550815
"47150","New Albany","IN","Station house","1500 S 5th St","40208",38.22620146106625,-85.76495859177608
"47150","New Albany","IN","L.J. Butch Charmolli Gymnasium","110 cardinal blvd","40208",38.22116732468215,-85.75833594129097
"47150","New Albany","IN","BF Fitness Center","850 Dixie Hwy","40210",38.24467670423426,-85.7842241754474
"47150","New Albany","IN","Small Gym at Manual","120 W Lee St","40208",38.22163772583008,-85.75845336914062
"47150","New Albany","IN","LMPD Fitness","633 W Jefferson St","40202",38.254744,-85.76156999999999
"47150","New Albany","IN","Towers Gym","511 S 5th St","40202",38.2509880065918,-85.75889587402344
"47150","New Albany","IN","University of Louisville Crawford Gym","not_available","40208",38.215668851668475,-85.75762769527597
"47150","New Albany","IN","MSD CMF Gym","3050 Commerce Center Pl","40211",38.22077941894531,-85.81017303466797
"47150","New Albany","IN","COE Gym","not_available","40203",38.24879951205708,-85.76214689759956
"47150","New Albany","IN","Brown Hotel Fitness Center","335 W Broadway","40202",38.246483000000005,-85.757954
"47150","New Albany","IN","CPL Gym","1251 S 4th St","40203",38.23310470581055,-85.76020050048828
"47167","Salem","IN","Washington County Family YMCA","1709 N Shelby St","47167",38.62349260650472,-86.1063389917893
"47167","Salem","IN","Anytime Fitness","805 S Main St","47167",38.59655,-86.10162
"47170","Scottsburg","IN","All Star Tumbling","650 S Lake Rd S","47170",38.68269348144531,-85.7946548461914
"47170","Scottsburg","IN","Anytime Fitness","796 White St","47170",38.69514,-85.78094
"47172","Sellersburg","IN","curves","147 Ohio Ave","47172",38.393226623535156,-85.76526641845703
"47172","Sellersburg","IN","Anytime Fitness","7605 State Rd. Ste. 311","47172",38.38248,-85.76935
"47201","Columbus","IN","Hotel gym","not_available","47201",39.20156751589204,-85.95255604620853
"47201","Columbus","IN","Farrells Extreme Bodyshaping","3230 N National Rd","47201",39.230435781060415,-85.91618686846655
"47201","Columbus","IN","Total Fitness","3075 Middle Dr","47203",39.22960022487957,-85.89561711333035
"47201","Columbus","IN","C&A Fitness Center","not_available","47203",39.219024658203125,-85.86427307128906
"47201","Columbus","IN","Marriott Residence Inn Gym","4525 West Indiana State Road 46","47201",39.19881548987822,-85.97524894262537
"47201","Columbus","IN","Tracker Fitness","1926 Washington","47201",39.216393376845495,-85.92237661180128
"47201","Columbus","IN","Jodys Gym Zone","3880 N Long Rd","47203",39.240283000000005,-85.93464399999999
"47201","Columbus","IN","Deathproof CrossFit","3345 Commerce Dr","47201",39.234957,-85.933055
"47201","Columbus","IN","Pure Barre","1315 N National Rd","47201",39.21368,-85.879278
"47201","Columbus","IN","Studio Fit by Nancy","1282 Washington St","47201",39.21138000488281,-85.92198181152344
"47201","Columbus","IN","Columbus North High School-Memorial Gymnasium","1400 25th St","47201",39.224394000000004,-85.91040699999999
"47201","Columbus","IN","Anytime Fitness","1565 N National Rd","47201",39.21531,-85.88243
"47201","Columbus","IN","Tipton Lakes Athletic Club","4000 W Goeller Blvd","47201",39.19881301136572,-85.96930447936231
"47201","Columbus","IN","Columbus Fit","3475 Tressel Dr","47203",39.23723655256674,-85.89186735470993
"47201","Columbus","IN","Cummins IOB Gym","526 Washington St (5th Street)","47201",39.204063415527344,-85.92144775390625
"47240","Greensburg","IN","Decatur County Family YMCA","W Kathy's Way","47240",39.344547355931084,-85.50061764206816
"47240","Greensburg","IN","Anytime Fitness","1807 N Lincoln St","47240",39.35420184,-85.48095907
"47250","Madison","IN","Planet Fitness","431 E Clifty Dr","47250",38.779827000000004,-85.378781
"47250","Madison","IN","Fit For The King","2617 Wilson Ave","47250",38.77637483281915,-85.40636393024693
"47250","Madison","IN","Personal Gym","not_available","47250",38.766639709472656,-85.42467498779297
"47250","Madison","IN","Lide White Boys & Girls Club","1551 Msh North Gate Rd","47250",38.758081,-85.402794
"47265","North Vernon","IN","Computrainer","1 Hot chica way","47265",39.017107,-85.551214
"47265","North Vernon","IN","Anytime Fitness","620 E Buckeye St","47265",39.00616,-85.62146
"47274","Seymour","IN","Anytime Fitness","840 E Tipton St","47274",38.9578273,-85.8768332
"47274","Seymour","IN","AnytimeFitness","824 E Tipton St","47274",38.95783233642578,-85.87718200683594
"47274","Seymour","IN","Seymour Health And Fitness Club","2012 tipton st","not_available",38.991533,-86.076254
"47274","Seymour","IN","Girls Inc.","N obrien st","47274",38.967851,-85.879429
"47274","Seymour","IN","The Body Shop","not_available","47274",38.9866040807385,-85.89164562888543
"47274","Seymour","IN","Snap Fitness","801 W Tipton St","47274",38.95531463623047,-85.89622497558594
"47274","Seymour","IN","Fitness 1440 Seymour","2012 E Tipton St","47274",38.95720309141461,-85.85491932083374
"47302","Muncie","IN","Irving Gym","2000 W University Ave","47306",40.20532870089844,-85.40554761886597
"47302","Muncie","IN","BMH Employeel Fitness Ctr","not_available","47303",40.196017,-85.414673
"47302","Muncie","IN","Cardiopulmonary/Bariatric Rehab","not_available","47304",40.19631620083101,-85.41426791918722
"47302","Muncie","IN","Anytime Fitness","3600 S Chandler Dr","47302",40.1599,-85.36572
"47302","Muncie","IN","Downtown YMCA","500 S Mulberry St","47305",40.19014991243369,-85.38489051781292
"47302","Muncie","IN","MPD Gym","not_available","47305",40.195943983557186,-85.38699425153462
"47302","Muncie","IN","DC Barbell","520 S Nichols Ave","47303",40.19023254040276,-85.41130096962195
"47302","Muncie","IN","South YMCA","3813","47302",40.158971,-85.38347
"47303","Muncie","IN","YMCA","3500 N Chadam Ln","47304",40.22173719789184,-85.43050875238453
"47303","Muncie","IN","Rob House","2113 W Woodmont Dr","47304",40.219627380371094,-85.41114044189453
"47303","Muncie","IN","Cindi's Gym","not_available","47320",40.25897979736328,-85.2896728515625
"47303","Muncie","IN","The Grove @ Muncie Gym","3015 N Oakwood Ave","47304",40.217281341552734,-85.40978240966797
"47304","Muncie","IN","Yorktown YMCA","600 W","47304",40.1905689018574,-85.49865826155529
"47304","Muncie","IN","Munciana Center","200 County Road 600 W.","47304",40.190673086177725,-85.49861096919733
"47327","Cambridge City","IN","Golay Community Center","not_available","47327",39.81365422198798,-85.15605581735453
"47331","Connersville","IN","Anytime Fitness","1720 Western Ave.","47331",39.6542,-85.13859
"47331","Connersville","IN","Reid HealthWorks Fitness Center","3542 Western Ave","47331",39.67662372380644,-85.1377625617701
"47348","Hartford City","IN","Northside Gym","not_available","47348",40.47437,-85.370674
"47348","Hartford City","IN","Blackford YMCA","1710-1722 Indiana 3","47348",40.465544917475874,-85.37064705301196
"47353","Liberty","IN","Family Fitness Works - Liberty","not_available","47353",39.6307258605957,-84.9308090209961
"47355","Lynn","IN","Retter Gym","not_available","47355",40.05892066778995,-84.99018710609596
"47356","Middletown","IN","The Treadmill!","not_available","47356",40.053024,-85.547819
"47362","New Castle","IN","Henry County YMCA","300 Wittenbraker Ave","47362",39.93844608133951,-85.3788773698926
"47362","New Castle","IN","Anytime Fitness","1713 S Memorial Dr","47362",39.91562,-85.38596
"47362","New Castle","IN","Burger Junior High School","639 Erie Station Rd","14586",39.91230382772135,-85.37883281707764
"47374","Richmond","IN","Family Fitness Works","213 N 3rd St","47374",39.8317252010591,-84.89708839144936
"47374","Richmond","IN","Planet Fitness","3783 National Rd E","47374",39.829384,-84.848109
"47374","Richmond","IN","Family Fitness","200 N 4th St","47374",39.822229868894965,-84.89610967813333
"47374","Richmond","IN","Richmond YMCA","2101 Chester Blvd","47374",39.860755,-84.88702099999999
"47374","Richmond","IN","Curves","1848 W Main St","47374",39.82954025268555,-84.92911529541016
"47374","Richmond","IN","P-GYM","not_available","47374",39.83119139182911,-84.84460037991174
"47374","Richmond","IN","Anytime Fitness","2500 National Rd W","47374",39.82393,-84.93624
"47374","Richmond","IN","The Lion's Den (Pig Pen)","1476 Saddlebrook Ln","47374",39.85184860229492,-84.88043975830078
"47390","Union City","IN","Fraze Fitness","not_available","47390",40.22298812866211,-84.86459350585938
"47394","Winchester","IN","Randolph County YMCA","State Road 32","47394",40.17219450823238,-84.94855483712617
"47394","Winchester","IN","MUSCLEbarn","not_available","47394",40.17276614627322,-84.98048677214751
"47394","Winchester","IN","WOWY Super Gym","DeGuise Place","47394",40.17361068725586,-84.96417236328125
"47401","Bloomington","IN","IU Student Recreational Sports Center","1601 Law Ln","47408",39.17338917451809,-86.51238019237768
"47401","Bloomington","IN","YMCA","2125 S Highland Ave","47401",39.14220927324831,-86.51462568256017
"47401","Bloomington","IN","Wildermuth Intramural Center","1025 E 7th St","47405",39.16927750431092,-86.52136123680901
"47401","Bloomington","IN","Jazzercise","Walnut St","47401",39.13729111904995,-86.52642299589276
"47401","Bloomington","IN","CoreFit Studio","1960 S Walnut Street","47401",39.143807,-86.532409
"47401","Bloomington","IN","Eagle Pointe Fitness Center","2250 E Pointe Rd","47401",39.0281202681376,-86.50777976843436
"47401","Bloomington","IN","The Fields Gym","Fenbrook Ln","47401",39.151943465776775,-86.48613774537955
"47401","Bloomington","IN","Pure Barre","2894 E 3rd St Rm D04","47401",39.1628592,-86.4961843
"47401","Bloomington","IN","The Training Room @ Camp D","737 S Deer Trce","47401",39.15065383911133,-86.41954803466797
"47401","Bloomington","IN","Iron Pit Gym","122 E Miller Dr","47401",39.14727913642623,-86.52926796899506
"47401","Bloomington","IN","MCGB Gym","not_available","47401",39.16198,-86.50166
"47401","Bloomington","IN","Hoosier Crossfit","501 N Rogers St Ste C","47404",39.17064379882847,-86.53875393261183
"47401","Bloomington","IN","DG Bike Room","not_available","47405",39.167248,-86.516302
"47401","Bloomington","IN","Park On Morton Gym","706 N Morton St","47404",39.17350769042969,-86.53572082519531
"47401","Bloomington","IN","Hoosier CrossFit","418 S College Ave","47403",39.162509,-86.535575
"47401","Bloomington","IN","The Woods at Latimer's Gym","700 S Clarizz Blvd","47401",39.157942,-86.491275
"47401","Bloomington","IN","Bloom Zum!","2560 E 3rd St","47401",39.16279983520508,-86.50125885009766
"47401","Bloomington","IN","HPER Strength and Conditioning Room","125 E 7th St","47406",39.16929508289096,-86.52135415674478
"47401","Bloomington","IN","Anytime Fitness","2894 E 3rd St Ste 160","47401",39.16211,-86.49652
"47401","Bloomington","IN","Hilton Garden Inn Fitness Center","245 N College Ave","47404",39.168279999999996,-86.535145
"47403","Bloomington","IN","Adams Village","2730 S Adams St","47403",39.138054314967015,-86.55745684590609
"47403","Bloomington","IN","Millennium Clubhouse Gym/Pool","1200 S Rolling Ridge Way","47403",39.153321956478585,-86.56232269122681
"47403","Bloomington","IN","Twin Lakes Recreation Center","1700 W Bloomfield Rd","47403",39.15614713562401,-86.56323196910266
"47403","Bloomington","IN","Teamwork","2013 S Yost Ave","47403",39.14839172363281,-86.58065795898438
"47403","Bloomington","IN","Force Fitness & Performance","3201 W Fullerton Pike","47403",39.12155758130066,-86.57373457365618
"47403","Bloomington","IN","Treadmill","not_available","47403",39.129628,-86.552695
"47403","Bloomington","IN","Meltdown- NGPT","5008 A. Rogers St.","47403",39.110757466797644,-86.54011797348518
"47403","Bloomington","IN","CrossFit SI","3434 S Weeping Willow Way","47403",39.126224,-86.54142
"47403","Bloomington","IN","Village At Muller Park Gym","504 S Muller Pkwy","47403",39.161407470703125,-86.56779479980469
"47403","Bloomington","IN","Twin Lakes Sports Park","2350 West Bloomfield Road","47403",39.15409376059104,-86.56648414347785
"47403","Bloomington","IN","Gym","not_available","47404",39.165616,-86.603378
"47404","Bloomington","IN","Holiday Inn Fitness Center","1710 N Kinser Pike","47404",39.185722,-86.537195
"47404","Bloomington","IN","Campus Court Rec Center","2036 N Walnut St","47404",39.184526,-86.531841
"47404","Bloomington","IN","Pi90X Gym","2001 N Fisher Ct","47406",39.184882,-86.51723100000001
"47404","Bloomington","IN","Curves","3826 W 3rd St","47404",39.16596475729848,-86.58201893312231
"47404","Bloomington","IN","Briscoe-FWC","1225 N Fee Ln","47406",39.177066802978516,-86.51925659179688
"47404","Bloomington","IN","Btown Gym","2356 W Industrial Park Dr Ste 300","47404",39.17544174194336,-86.56769561767578
"47404","Bloomington","IN","Indiana Fitness Club","3643 W State Road 46","47404",39.210250806315834,-86.58533409844932
"47404","Bloomington","IN","Willkie South","150 N Rose Ave","47406",39.16549665817082,-86.51036941616108
"47404","Bloomington","IN","Infinity Pro Wrestling Headquarters","2499 Indiana 43","not_available",39.25290654530267,-86.66082055809123
"47404","Bloomington","IN","Xcel Performance","116 South College Avenue","47404",39.1659178,-86.5350376
"47404","Bloomington","IN","Jazzercise","3631 W State Road 46","47404",39.20992596745602,-86.58482769688759
"47404","Bloomington","IN","BODYFIT LLC","1713 N College Ave Ste 4","47404",39.18217468261719,-86.53512573242188
"47404","Bloomington","IN","The Torture Chamber","not_available","47408",39.171440628893365,-86.52548123109383
"47421","Bedford","IN","Mitchell High School Gymnasium","not_available","47446",38.736348032927204,-86.479966690646
"47421","Bedford","IN","Curves Of Bedford","2111 16th St","47421",38.861397,-86.502399
"47421","Bedford","IN","Flynn's Fitness Center","777","47421",38.87633602643808,-86.49063472919121
"47421","Bedford","IN","Healthy Balance Wellness Center","1201 5th St","47421",38.874556,-86.48790600000001
"47421","Bedford","IN","Anytime Fitness","2643 16th St.","47421",38.86209,-86.5095
"47421","Bedford","IN","Branditty's Workout Place","not_available","47421",38.856614602791694,-86.50562339097797
"47429","Ellettsville","IN","Jazzercise Fitness Center - Smith Pike Crossing","3624 St Rd 46","47404",39.20993258398219,-86.58483071871686
"47431","Freedom","IN","A&E Gym","In Your Dreams!","47431",39.222843,-86.872535
"47432","French Lick","IN","French Lick Springs Hotel Fitness Center","not_available","47469",38.55389313153155,-86.62103304907782
"47433","Gosport","IN","Curves","2536 W State Highway 46","47460",39.281620025634766,-86.72081756591797
"47448","Nashville","IN","YMCA","not_available","47448",39.199084,-86.240554
"47460","Spencer","IN","YMCA","1111 W State Highway 46","47460",39.29124069213867,-86.78787231445312
"47501","Washington","IN","Anytime Fitness","not_available","47501",38.66194964,-87.15372705
"47501","Washington","IN","Anytime Fitness","101 Cherry Tree Plz","47501",38.65146,-87.15328
"47522","Crane","IN","NSWC Gym","not_available","47522",38.871812410848314,-86.83272875136183
"47523","Dale","IN","Dale Community Center","not_available","47523",38.17061996459961,-86.98701477050781
"47542","Huntingburg","IN","New Dimensions Fitness & Tanning","not_available","47542",38.29922866821289,-86.95193481445312
"47542","Huntingburg","IN","B & B Fitness","745 3rd Ave","47546",38.37872547690863,-86.91385381098699
"47546","Jasper","IN","Anytime Fitness","1918 Newton St","47549",38.40575347,-86.93718779
"47567","Petersburg","IN","Zone 13","not_available","47567",38.485477,-87.276988
"47586","Tell City","IN","Everybody's Gym","710 Fulton St","47586",37.9538917242551,-86.77066224343348
"47591","Vincennes","IN","Planet Fitness","2419 N 6th St","47591",38.687677,-87.505637
"47591","Vincennes","IN","YMCA Men's Room","2010 College Ave","47591",38.6671257019043,-87.50749206542969
"47601","Boonville","IN","Newburgh Tumbling","5800 Vann Rd","47630",37.98420715332031,-87.3539810180664
"47601","Boonville","IN","Exercise Chambers","not_available","47630",37.968231,-87.354687
"47601","Boonville","IN","Newburgh Tumbling","5800 Vann Rd Unit A","47630",37.98415538988234,-87.35451090870859
"47610","Chandler","IN","Dunigan YMCA","6846 Oak Grove Road","47715",37.99221969855574,-87.46899193205783
"47620","Mount Vernon","IN","Hargett House Gym","not_available","47712",37.96252633902955,-87.72474298011554
"47630","Newburgh","IN","The Women's Hospital","4199 Gateway Blvd","47630",37.97365233466618,-87.44728803634644
"47630","Newburgh","IN","Anytime Fitness","8887 High Pointe Dr","47630",37.97775,-87.41204
"47630","Newburgh","IN","Castle High School","3344 State Route 261","47630",37.98526027707154,-87.38563091032597
"47630","Newburgh","IN","North Gym","Gymnasium","47630",37.984890814933564,-87.37675260439762
"47630","Newburgh","IN","Bob's Gym","8120 High Pointe Dr","47630",37.9781333,-87.3979709
"47630","Newburgh","IN","elite fitness","4944 Old SR 261","47630",37.96225415682362,-87.39676058292389
"47630","Newburgh","IN","Mankin Gym","5366 Epworth Rd","47630",37.95515823364258,-87.44073486328125
"47648","Fort Branch","IN","Gym Super Sweat","601 N Church St","47648",38.25224304199219,-87.5766830444336
"47670","Princeton","IN","Elite Fitness Center","1601 W Broadway St","47670",38.35383256957121,-87.58610485861263
"47670","Princeton","IN","Princeton Fitness","115 N Hart St","47670",38.355635251196105,-87.5691182051986
"47708","Evansville","IN","Downtown YMCA","222 NW 6th Street","47708",37.97500419191218,-87.57051238687286
"47708","Evansville","IN","Tropicana Evansville Hotel Fitness Center","421 NW Riverside Dr","47708",37.9722785949707,-87.57891082763672
"47708","Evansville","IN","DoubleTree Fitness Center","601 Walnut St","47708",37.970924377441406,-87.5667953491211
"47708","Evansville","IN","Club Fitness Zone","222 Main St","47708",37.971074,-87.572712
"47708","Evansville","IN","Steam Room","not_available","47708",37.97445,-87.570664
"47708","Evansville","IN","YWCA of Evansville","118 Vine St","47708",37.972175,-87.575096
"47710","Evansville","IN","Rock'Em Sock'Em Boxing And Kickboxing","325 W Louisiana St","47710",37.988704681396484,-87.56907653808594
"47710","Evansville","IN","Evansville Athletic Club","321 W Oregon St","47710",37.986692602232786,-87.56897449493408
"47710","Evansville","IN","Planet Fitness","4530 N First Ave","47710",38.020293,-87.575442
"47710","Evansville","IN","The 3rd Degree","not_available","47710",37.98044117094728,-87.57971012424706
"47711","Evansville","IN","Elite Fitness","9515 Seib Rd","47725",38.064811,-87.509931
"47711","Evansville","IN","Fitness 19","1 N Weinbach Ave Ste 4A","47711",37.9774223149665,-87.5286961518668
"47711","Evansville","IN","PTI (Professional Transportation Inc)","3700 E Morgan Ave","47715",37.99221925451295,-87.50764173220857
"47711","Evansville","IN","Swonder Fitness Center","not_available","47711",37.97936930244191,-87.51933499553775
"47711","Evansville","IN","stairmaster!","not_available","47715",37.99278313470512,-87.49668518950315
"47711","Evansville","IN","The Diet Doc","8601 N Kentucky Ave","47725",38.056028000000005,-87.543832
"47711","Evansville","IN","Bob's Gym","8700 N Kentucky Ave","47725",38.05596569666816,-87.54556682209017
"47712","Evansville","IN","Anytime Fitness","222 Red Bank Rd S Ste J-K","47712",37.97523471,-87.6352495
"47712","Evansville","IN","Bob's Gym","200 N Rosenberger Ave","47712",37.9806319,-87.6289726
"47712","Evansville","IN","Howell Baptist Gym","3111 Emerson","not_available",37.959760143865935,-87.61339015381684
"47713","Evansville","IN","Soul Empowerment Fitness. Center","625 Bellemeade Ave","47713",37.96815872192383,-87.55563354492188
"47713","Evansville","IN","The Tony Shark Center","2012 South Kentucky Ave","47714",37.94854,-87.54791
"47713","Evansville","IN","Boys & Girls Club","700 Bellemeade Ave","47713",37.96818542480469,-87.55482482910156
"47714","Evansville","IN","Memorial High School","1500 Lincoln Ave","47714",37.97032001396948,-87.53644466400146
"47714","Evansville","IN","CYCLEBAR","111 S Green River Rd Ste G","47715",37.9758186340332,-87.49372863769531
"47714","Evansville","IN","Custom Fit Personal Training","111 S Green River Rd #G","47715",37.975716999999996,-87.49371500000001
"47714","Evansville","IN","Woah' Gym","not_available","47714",37.96479302254059,-87.51500585021815
"47715","Evansville","IN","Tri-State Athletic Club","555 Tennis Ln","47715",37.98080923900327,-87.48923697311352
"47715","Evansville","IN","Workout Room","Regency Club Apartments","47715",37.9721606395177,-87.45203470403068
"47715","Evansville","IN","Body Makeover","5401 Vogel Rd Ste 210","47715",37.98706817626953,-87.485595703125
"47715","Evansville","IN","The Pit Barbell Club","5221 Oak Grove Road","47715",37.99149543717652,-87.48747825622559
"47715","Evansville","IN","Bob's Gym","345 Bentee West Ct.","47715",37.98018,-87.46527
"47715","Evansville","IN","High Performance Training","1307 N Royal Ave","47715",37.98863983154297,-87.48155212402344
"47715","Evansville","IN","Hilton Garden Inn Fitness Center","220 Eagle Crest Dr","47715",37.97462463378906,-87.45628356933594
"47802","Terre Haute","IN","Terre Haute South Vigo High School","3737 S 7th St","47802",39.42501186685164,-87.40793681661097
"47802","Terre Haute","IN","Planet Fitness","138 W Honey Creek Pkwy","47802",39.424224,-87.419941
"47802","Terre Haute","IN","our apartment gym","not_available","47802",39.426745,-87.394573
"47802","Terre Haute","IN","VQ Fitness Center","100 Village Dr, Terre Haute, IN 47803","47803",39.456363677978516,-87.337158203125
"47802","Terre Haute","IN","The Boys And Girls Club","not_available","47803",39.453899,-87.343088
"47802","Terre Haute","IN","Anytime Fitness","4425 S 7th St","47802",39.41272731,-87.40730166
"47802","Terre Haute","IN","Always Sun Tanning","2200-2330 E Margaret Ave","47802",39.43412125110626,-87.38302230834961
"47802","Terre Haute","IN","Drury Inn - Workout Room","3040 S US Highway 41","47802",39.43289566040039,-87.41303253173828
"47803","Terre Haute","IN","Anytime Fitness","101 S Fruitridge Ave","47803",39.47339,-87.36041
"47803","Terre Haute","IN","Sweat Shop","not_available","47807",39.48817078876259,-87.38097825448926
"47803","Terre Haute","IN","Heritage Gym","4201 Locust St, Terre Haute, IN 47803","47803",39.47726821899414,-87.35492706298828
"47803","Terre Haute","IN","JAM Fitness with Carlee","3614 Maple Ave","47804",39.49251937866211,-87.365966796875
"47804","Terre Haute","IN","CrossFit Terre Haute","1839 N 4th St","47804",39.488155364990234,-87.41250610351562
"47804","Terre Haute","IN","Curves","3000 - 4000 N. 13th St.","47804",39.50318781204148,-87.39782858101718
"47804","Terre Haute","IN","Terre Haute Fitness Center","1360 Lafayette Ave","47804",39.49556350708008,-87.39602661132812
"47804","Terre Haute","IN","Jeremys Gym","not_available","47804",39.49052810668945,-87.40457153320312
"47807","Terre Haute","IN","Pig's Gym","1201 Wabash Ave, Terre Haute, IN 47807","47807",39.46733093261719,-87.39904022216797
"47807","Terre Haute","IN","Riverbank Family And Fitness","Faibanks Park","47802",39.457225,-87.41873273333333
"47807","Terre Haute","IN","Sweat Box Gym","940 Poplar St","47807",39.4632181,-87.40327669999999
"47807","Terre Haute","IN","Anytime Fitness","320 S 3rd St Ste A-B","47807",39.463,-87.41486
"47807","Terre Haute","IN","Fitness Solutions","1101 Walnut St","47807",39.46427917480469,-87.40059661865234
"47807","Terre Haute","IN","Fitness Experts","815 Ohio St","47807",39.465152740478516,-87.40522766113281
"47834","Brazil","IN","YMCA of Clay County","225 E Kruzan St","47834",39.525551314668725,-87.12440940630351
"47834","Brazil","IN","Anytime Fitness","60 Forest Park Plz","47834",39.525821685791016,-87.11669158935547
"47834","Brazil","IN","Curves","557 E US Highway 40","47834",39.53080749511719,-87.09820556640625
"47834","Brazil","IN","Funzie Gym","5592 N Co Rd 400 E","47834",39.468588472673844,-87.03346548344297
"47834","Brazil","IN","Peak Performance Gym","not_available","47834",39.51615658309802,-87.20337664922448
"47842","Clinton","IN","Cottrell's Fitness Corner","222 Vine St","47842",39.660302132634676,-87.39843358702342
"47842","Clinton","IN","7th Street GYM","not_available","47842",39.67361006979935,-87.40799008850371
"47874","Rosedale","IN","Curves","7410 IN-163","47874",39.65937255,-87.37913982
"47882","Sullivan","IN","Ann Shorters School of Dance","not_available","47882",39.113643646240234,-87.40663146972656
"47882","Sullivan","IN","Sullivan Fitness Center","2200 N Section St","47882",39.125732421875,-87.41268157958984
"47901","Lafayette","IN","YMCA Downtown Center","250 Main St #50B","47901",40.41937935736531,-86.8946322798729
"47901","Lafayette","IN","The Fitness Room","not_available","47904",40.424685,-86.887509
"47901","Lafayette","IN","Rhynos Gym","611 N 13th St","47904",40.42336654663086,-86.88294982910156
"47901","Lafayette","IN","NFPT Headquarters","530 Main St","47901",40.41946399408925,-86.89088072439576
"47904","Lafayette","IN","Absolute U Fitness","2529 Schuyler Ave","47905",40.443616999999996,-86.866935
"47904","Lafayette","IN","Club NewTone","725 Sagamore Pkwy N","47904",40.424342,-86.857502
"47904","Lafayette","IN","McAllister Recreation Center","2351 N 20th St","47904",40.44073735103708,-86.87377537031043
"47905","Lafayette","IN","Lafayette sports center","3832 Fortune Dr","47905",40.41212844848633,-86.8363037109375
"47905","Lafayette","IN","Faith Community Center","5572 Mercy Way","47905",40.419552990792866,-86.7958928306374
"47905","Lafayette","IN","SIA Rec Center","not_available","47905",40.37865085104048,-86.78955818361668
"47905","Lafayette","IN","Ismail Center","800 W Stadium Ave","47907",40.432221999999996,-86.915959
"47905","Lafayette","IN","Pure Barre","324 E State St","47906",40.421082,-86.900542
"47905","Lafayette","IN","Waterfront Club House","320 Brown St","47906",40.42419,-86.901738
"47905","Lafayette","IN","Metamorphic Fitness","200 Farabee Dr N","47905",40.418987836720774,-86.85275548215404
"47905","Lafayette","IN","Parkway Apartments Fitness Center","not_available","47906",40.454851,-86.90373597790835
"47905","Lafayette","IN","Snap Fitness","3830 South St","47905",40.41802630355445,-86.83611803668403
"47905","Lafayette","IN","Snap Fitness","2049 Veterans Memorial Pkwy","47909",40.366409999999995,-86.872016
"47905","Lafayette","IN","Lafayette Family YMCA","3001 S Creasy Ln","47905",40.38420867919922,-86.8409194946289
"47905","Lafayette","IN","Royal Gym","not_available","47909",40.35750268651197,-86.90258978070334
"47905","Lafayette","IN","LVA","Fortune Dr","47905",40.412,-86.8362
"47905","Lafayette","IN","Miracles Fitness","257 Sagamore Pkwy W","47906",40.45183341065541,-86.91020273061883
"47905","Lafayette","IN","Shenandoah Fitness Center","3601 Driftwood","47905",40.422318708096476,-86.84635901619914
"47905","Lafayette","IN","Fitness Experience Total Gym and Spa","120 S. River Road","47906",40.42110824584961,-86.90467071533203
"47905","Lafayette","IN","Orangetheory Fitness","1020 Sagamore Parkway W","47906",40.4547004699707,-86.91755676269531
"47905","Lafayette","IN","Lifelong Fitness","Earl Ave.","not_available",40.418758034245286,-86.84512896964209
"47906","West Lafayette","IN","McCormick Place Apartments Fitness Center","2110 McCormick Rd","47906",40.447859,-86.94479799999999
"47906","West Lafayette","IN","Snap Fitness","2060 US 52","47906",40.46869615042942,-86.94448381659225
"47906","West Lafayette","IN","Family Sports Center","3242 W 250 N","47906",40.45557934953515,-86.96778683952188
"47906","West Lafayette","IN","Impact Zone Training Center","2781 Klondike Rd","47906",40.457258,-86.960465
"47906","West Lafayette","IN","purdue cordova Recreational Facility","355 s martin jischke dr","47907",40.460801294983895,-86.94584997933661
"47906","West Lafayette","IN","The Weight Room at the Lodge","2101 Cumberland Ave, West Lafayette, IN 47906","47906",40.458065032958984,-86.94137573242188
"47907","West Lafayette","IN","Cardiovascular Exercise Room","Hawkins Hall","47906",40.4252341,-86.9162775
"47918","Attica","IN","Basketball Band Gym #2","not_available","47993",40.2854591883122,-87.28951802140162
"47922","Brook","IN","Bryant Gym","not_available","47978",40.93921,-87.24416
"47933","Crawfordsville","IN","Athena Center","not_available","47933",40.037255425805824,-86.90049829471187
"47933","Crawfordsville","IN","Snap Fitness Crawfordsville","1883 S US Highway 231","47933",40.01144642944847,-86.90460998491969
"47933","Crawfordsville","IN","Elavus CrossFit","1416 Darlington Ave","47933",40.04824447631836,-86.8802490234375
"47933","Crawfordsville","IN","Planet Fitness","1632 Bush Ln","47933",40.01882950762847,-86.90338097553251
"47944","Fowler","IN","Breao Health & Fitness","not_available","47971",40.52816870853257,-87.24775928672271
"47948","Goodland","IN","Miiller gym","not_available","47948",40.771458,-87.295718
"47951","Kentland","IN","South Newton Weight Room","not_available","47951",40.806831409281116,-87.3846895736894
"47960","Monticello","IN","Personal Fitness","not_available","47960",40.75210761700054,-86.77038569600603
"47960","Monticello","IN","Anytime Fitness","914 N Main St","47960",40.75631,-86.76599
"47978","Rensselaer","IN","Anytime Fitness","496 S College Ave","47978",40.92889,-87.15748
"47991","West Lebanon","IN","Seeger Girls Game","not_available","47991",40.3009184072452,-87.38769392311525
"47991","West Lebanon","IN","Seeger PAC","1222 S SR 263","not_available",40.298979316529284,-87.38848849802318
"47991","West Lebanon","IN","Seeger Jr. High Wrestling Match","not_available","47992",40.274025,-87.380843
