"zip","city","state","name","address","postalCode","lat","lon"
"98001","Auburn","WA","Curves","2408 S 288th St","98003",47.343746,-122.302448
"98001","Auburn","WA","City of Pacific Community Center Gym","305 Milwaukee Blvd. S","98047",47.26419990393619,-122.24979903798294
"98001","Auburn","WA","LA Fitness","1101 Outlet Collection Dr SW Ste 1269","98001",47.299096,-122.24578500000001
"98001","Auburn","WA","Weyerhaeuser Technology Fitness Center","Weyerhaeuser Rd","98001",47.306328816666664,-122.29669793333333
"98001","Auburn","WA","YMCA","1620 Perimeter Rd","98001",47.29356313157007,-122.23896531480422
"98001","Auburn","WA","Safeway Gym","not_available","98001",47.28065805192948,-122.23347486863989
"98001","Auburn","WA","The Palisades Gym","2009-2153 S Star Lake Rd","98003",47.354466797796064,-122.30426216502522
"98001","Auburn","WA","CrossFit LifeLine","4302 B St NW Ste H","98001",47.34573745727539,-122.23182678222656
"98001","Auburn","WA","Elev8 Hot Yoga","2000 314Th St","98003",47.320986,-122.30617600000001
"98001","Auburn","WA","Stephie's Iron Works","not_available","98003",47.350807189941406,-122.30279541015625
"98001","Auburn","WA","Rainier Meadows Workout Facility","29225 Military Rd S","98003",47.33946228027344,-122.30158233642578
"98001","Auburn","WA","The Champions Edge","1501 15th St NW Ste 102","98001",47.32284927368164,-122.25267791748047
"98001","Auburn","WA","JA World","1610 Perimeter Rd","98001",47.29491424560547,-122.23774719238281
"98001","Auburn","WA","GSA Fitness And Wellness Center","12G Batchelder Ave","98001",47.2827839184487,-122.23549607361231
"98001","Auburn","WA","Inner Icon Fitness","2002 W Valley Hwy N #100","98001",47.3259344043138,-122.25161235694591
"98002","Auburn","WA","LA Fitness","1347 Auburn Way N","98002",47.320349,-122.224073
"98002","Auburn","WA","Gold's Gym","1314 Auburn Way N","98002",47.3199829,-122.221216
"98002","Auburn","WA","Summit Fitness","not_available","not_available",47.31608894380547,-122.21535646781241
"98002","Auburn","WA","Curves","421 E Main St","98002",47.308109283447266,-122.22352600097656
"98002","Auburn","WA","Allstar Fitness","tacoma","98002",47.34775900840759,-122.19697415828705
"98002","Auburn","WA","Doxon Gym","3405 Auburn Way N","98002",47.338045,-122.22348
"98002","Auburn","WA","Auburn Athletic Club","1341 Auburn Way N","98002",47.31951141357422,-122.2234878540039
"98003","Federal Way","WA","Planet Fitness Federal Way","1211 S 320th St","98003",47.3140253,-122.316528
"98003","Federal Way","WA","LA Fitness","27417 Pacific Hwy S","98003",47.355632464984566,-122.31189095671817
"98003","Federal Way","WA","Nw Sports Rehab","33400 13th Pl S","98003",47.302504777908325,-122.31624126434326
"98003","Federal Way","WA","Freedom Fitness","1320 S 324th St #A11","98003",47.3124885559082,-122.3166732788086
"98003","Federal Way","WA","iLoveKickboxing - Federal Way, WA","1320 South 324th Street, Studio A4","98003",47.312313,-122.31611
"98003","Federal Way","WA","The Gym At Waterbury","32905 19th Pl S","98003",47.3096809387207,-122.30980682373047
"98003","Federal Way","WA","KW Dance Studio","35506 6th Ave SW","98023",47.28325918300008,-122.34238569507798
"98003","Federal Way","WA","Apartment Sporting Club","Nowhere","not_available",47.30109669544559,-122.34439003288772
"98003","Federal Way","WA","The Reserve Apartments Rec Center","125 SW Campus Dr","98023",47.2880973815918,-122.33733367919922
"98003","Federal Way","WA","LA Fitness","35009 Enchanted Pkwy S","98003",47.28780627772572,-122.31538780034968
"98003","Federal Way","WA","CrossFit Federal Way","33753 9th Ave S","98003",47.29888021172032,-122.32358123529718
"98003","Federal Way","WA","Redondo Fitness","28300 18th Ave S","98003",47.34750747680664,-122.31169128417969
"98003","Federal Way","WA","Pole Fitness Northwest","29100 Pacific Hwy S","98003",47.34114456176758,-122.31180572509766
"98003","Federal Way","WA","Complete Mind And Body Training","876 S 333rd St","98003",47.304866790771484,-122.32264709472656
"98003","Federal Way","WA","Got 2 Get Fit Training Studios","33507 9th Ave S","98003",47.3014729,-122.32360940000001
"98004","Bellevue","WA","Life Time Athletic","11111 NE 8th St","98004",47.61694973333955,-122.19185705803727
"98004","Bellevue","WA","Pure Barre Bellevue","909 112th Ave NE Ste 107","98004",47.61816444562253,-122.19123107055225
"98004","Bellevue","WA","Sweat Equity","989 112TH Ave NE","98004",47.61923694418193,-122.19148320591125
"98004","Bellevue","WA","989 Fitness","989 112th Ave NE","98004",47.618988037109375,-122.19136047363281
"98004","Bellevue","WA","Bellevue Club","11200 SE 6th St","98004",47.605763665880076,-122.18938521169771
"98004","Bellevue","WA","LA Fitness","550 106th Ave NE Ste 215","98004",47.61522383958724,-122.19918554629587
"98004","Bellevue","WA","CorePower Yoga","10307 NE 10th St","98004",47.619095170849626,-122.20276772975922
"98004","Bellevue","WA","23 Fit Club","10620 NE 8th St","98004",47.61781,-122.19823799999999
"98004","Bellevue","WA","Cedar Terrace","3205 115th Ave NE","98004",47.64064909,-122.18876131
"98004","Bellevue","WA","Shakti Vinyasa Yoga","10245 Main St","98004",47.609970356856145,-122.20315517091532
"98004","Bellevue","WA","Gym at Yarrow Plaza","3927 Lake Washington Blvd NE","98033",47.645502,-122.202202
"98004","Bellevue","WA","Renegade Fitness","200 105th Ave NE","98004",47.612306,-122.199877
"98004","Bellevue","WA","Hidden Assets","1750 112th Ave NE","98004",47.62572453883688,-122.19020962715149
"98004","Bellevue","WA","Yarrow Bay Plaza","10510 NE Northrup Way","98033",47.643128277356446,-122.200026512146
"98004","Bellevue","WA","The Vue Fitness Center","9951 Lake Washington Blvd NE","98004",47.60985565185547,-122.20816040039062
"98004","Bellevue","WA","Full Circle Fitness","not_available","98004",47.615604400634766,-122.20337927341461
"98004","Bellevue","WA","Bellevue City Hall Workout Room","450 110th Ave NE","98004",47.614309999999996,-122.19218799999999
"98004","Bellevue","WA","Sheraton Gym","100 112th Ave NE","98004",47.610845,-122.18989099999999
"98004","Bellevue","WA","FIT Gym","10455 NE 5th Pl","98004",47.614643,-122.20081599999999
"98004","Bellevue","WA","Avalon Towers Fitness Center","10349 NE 10th St","98004",47.6190676461018,-122.20277615437462
"98005","Bellevue","WA","Pro Sports Club","4455 148th Ave NE","98007",47.65175455426816,-122.14504565674004
"98005","Bellevue","WA","Ironworks Gym","12708 Northup Way","98005",47.62878410943747,-122.17098156375367
"98005","Bellevue","WA","Rebound Athletics","not_available","98005",47.628335,-122.174244
"98005","Bellevue","WA","My Gym Bellevue","13800 Bel Red Rd #3","98005",47.62407610066634,-122.15672998090935
"98005","Bellevue","WA","Bellevue Family YMCA","14230 Bel Red Rd","98007",47.62608789139919,-122.14974045753478
"98005","Bellevue","WA","Warrior Strength Martial Arts","13222 SE 30th St Ste A4","98005",47.5851936340332,-122.16370391845703
"98005","Bellevue","WA","UC4 Gym","not_available","98007",47.629958,-122.149347
"98005","Bellevue","WA","WA Table Tennis Center","1454 127th Pl NE","98005",47.623521000000004,-122.169854
"98005","Bellevue","WA","Renew Fitness - Bellevue WA","1200 112th Ave NE","98004",47.62234921933118,-122.18938535430595
"98005","Bellevue","WA","Crossfit 425","1820 130th Ave NE","98005",47.62667735856509,-122.166529636885
"98006","Bellevue","WA","Newport Hills Swim & Tennis Club","5464 119th Ave SE","98006",47.555387890800475,-122.18351723309259
"98006","Bellevue","WA","Coal Creek Family YMCA","13750 Newcastle Golf Club Rd","98059",47.540966580534494,-122.1560624081059
"98006","Bellevue","WA","Elliptical","not_available","98008",47.57869050976629,-122.11314906224422
"98006","Bellevue","WA","Sammamish View","16160 SE Eastgate Way","98008",47.5766818,-122.12552473
"98006","Bellevue","WA","Boeing Bellevue Gym","not_available","98059",47.55927688711486,-122.11614665096562
"98006","Bellevue","WA","Larkspur Workout Room","not_available","98006",47.575295959896884,-122.12989980103269
"98006","Bellevue","WA","Snap Fitness","15100 SE 38th St","98006",47.57653135681647,-122.13769682076844
"98006","Bellevue","WA","Newport Terrace Gym","Newport Terrace","not_available",47.576585022231484,-122.16747065085147
"98006","Bellevue","WA","Bentall Fitness Room","Factoria","98006",47.55734443582219,-122.16594432585238
"98006","Bellevue","WA","Newport Sports and Wellness","3617 131st Ave SE","98006",47.5788688659668,-122.16642761230469
"98006","Bellevue","WA","Newport Tower Fitness Center","3650 131st Ave SE","98006",47.577988,-122.165276
"98006","Bellevue","WA","Newcastle Fitness","6600 Ripley Lane SE","98056",47.543645,-122.196501
"98006","Bellevue","WA","AA Fitness Center","5400 128th Ave SE","98006",47.55339431762695,-122.169677734375
"98007","Bellevue","WA","LA Fitness","15053 Main St","98007",47.609268046220755,-122.13947767007532
"98007","Bellevue","WA","Stone Gardens","15600 NE 8th St Ste C-1","98008",47.61988709225091,-122.12919870900873
"98007","Bellevue","WA","Orangetheory Fitness","not_available","98052",47.633553,-122.1374
"98007","Bellevue","WA","Aloft Fitness Center","15220 NE Shen St","98052",47.635711669921875,-122.13691711425781
"98007","Bellevue","WA","Kendall Ridge Apartments","15301 NE 20th St","98007",47.626380449184026,-122.1340806645494
"98007","Bellevue","WA","Fitness Center","3225 158th Ave SE","98008",47.58103506424137,-122.13428526818387
"98007","Bellevue","WA","Crunch - Bellevue","15600 Northeast 8th Street","98008",47.6187131,-122.1314311
"98007","Bellevue","WA","Nintendo - Fitness Center","4600 150th Ave NE","98052",47.652505973056236,-122.13944290568753
"98007","Bellevue","WA","Sunset North Fitness Center","3120 139th Ave SE #150","98005",47.58304672853542,-122.15407406911436
"98007","Bellevue","WA","Eastgate Office Park Gym","15355 SE 30th Pl","98007",47.58216094970703,-122.1364974975586
"98007","Bellevue","WA","Bellevue meadows gym","4277 148th Ave NE","98007",47.649396,-122.146041
"98007","Bellevue","WA","Evolution Fitness","14603 NE 20th Street","98007",47.62675857543945,-122.14457702636719
"98008","Bellevue","WA","3D Sport Performance","NE 8th","not_available",47.61637829849867,-122.12733300532359
"98008","Bellevue","WA","My Gym","900 160th Ave NE","98008",47.626041412353516,-122.12601470947266
"98008","Bellevue","WA","Club At Trails Of Redmond","16539 NE 35th Ct","98052",47.64390084163892,-122.11969514443823
"98010","Black Diamond","WA","Crossfit Basic","30741 3rd Ave","98010",47.326336,-122.01019099999999
"98011","Bothell","WA","Sonoma Villero Gym","not_available","98011",47.74619810106769,-122.18436836518724
"98011","Bothell","WA","JR's House of Pain","16125 Juanita Woodinville Way NE","98011",47.74616622924805,-122.1851577758789
"98011","Bothell","WA","CrossFit Kenmore","17455 68th Ave NE","98028",47.75615988021926,-122.23943057306305
"98011","Bothell","WA","Cambridge Club House","162nd ln","98011",47.74571487923729,-122.18189795773583
"98011","Bothell","WA","Strength University","11801 NE 160th St","98011",47.743158,-122.183775
"98011","Bothell","WA","Northshore YMCA","11811 NE 195th St","98011",47.7678706426859,-122.1818494167765
"98011","Bothell","WA","F45 Training Bothell","10125 Main St","98011",47.759939,-122.204387
"98011","Bothell","WA","LA Fitness","14130 Juanita Dr NE","98034",47.729827689560324,-122.24364848945852
"98011","Bothell","WA","Village at Beardslee Gym","19115 112th Ave NE","98011",47.76588439941406,-122.19146728515625
"98012","Bothell","WA","425 Fitness","18524 Bothell Everett Hwy","98012",47.82970449554575,-122.2098449365507
"98012","Bothell","WA","Anytime Fitness","1523 132nd St SE","98208",47.8795,-122.21074
"98012","Bothell","WA","YMCA","13723 Puget Park Dr","98208",47.87263993358673,-122.15450302204815
"98012","Bothell","WA","LA Fitness","15024 Main St","98012",47.86162848037314,-122.22099805456241
"98012","Bothell","WA","Camp Sweat","12810 35th Ave SE, Everett, WA 98208","98208",47.88090896606445,-122.18695068359375
"98012","Bothell","WA","The Cabana","not_available","98012",47.86245145002158,-122.17990536327332
"98012","Bothell","WA","Mieko's Fitness","132nd St","98208-5637",47.87914244126486,-122.18111578351936
"98012","Bothell","WA","Water stone Gym","2049 186th Pl SE","98012",47.82993452,-122.2059111
"98012","Bothell","WA","Leif Gym","34th Dr SE","98012",47.87051747409237,-122.18597173690796
"98012","Bothell","WA","Taz Training Facility","not_available","98037",47.864678,-122.239762
"98012","Bothell","WA","Mill Creek Curves","15130 Main St","98012",47.86024856567383,-122.22090148925781
"98012","Bothell","WA","Body Shop Fitness LLC.","2020 Maltby Rd Ste 14","98021",47.80868148803711,-122.20590209960938
"98012","Bothell","WA","Archstone Gym","20225 Bothell Everett Hwy","98012",47.81453323364258,-122.2024154663086
"98012","Bothell","WA","Xtra Fitness","18001 Bothell Everett Hwy Ste 105","98012",47.83421213390531,-122.20828986349646
"98012","Bothell","WA","BodyFit Spa","4809 132nd St SE Ste C101","98208",47.87812042236328,-122.16622161865234
"98012","Bothell","WA","Energy Personal Training","4809 132nd St SE #C102","98208",47.87812042236328,-122.16622161865234
"98012","Bothell","WA","Gym","18432 20th Dr SE","98012",47.830421447753906,-122.20465850830078
"98012","Bothell","WA","Orangetheory Fitness","12902 Bothell Everett Hwy","98208",47.88019569999999,-122.2072958
"98014","Carnation","WA","Marques Garcia, Ironman Triathlon Certified Coach","2344 293rd PL","98014",47.63176656478723,-121.94435298442839
"98019","Duvall","WA","Anytime Fitness","23435 NE Novelty Hill Rd Ste. F 503","98053",47.6992,-122.02778
"98019","Duvall","WA","Insanity","not_available","98072",47.723642,-122.024728
"98019","Duvall","WA","Destiny Management - Hyper X Racewear NW","26311 NE Valley St. #A-PMB 156","98019",47.737626,-121.986718
"98019","Duvall","WA","Duvall Fitness","15321 Main St NE","98019",47.73928558051265,-121.98697701036738
"98020","Edmonds","WA","Firdale village Apartments Gym","not_available","98020",47.779039740459076,-122.35971311520446
"98020","Edmonds","WA","Snap Fitness 24/7","505 5th Ave S #104","98020",47.807116242883474,-122.37750821619834
"98020","Edmonds","WA","The Workshop","172 Sunset Ave","98020",47.81093392,-122.38383885
"98020","Edmonds","WA","Anytime Fitness","22824 100th Ave W","98020",47.79209737094735,-122.36783757805824
"98020","Edmonds","WA","Edmonds Fit Club","9639 Firdale Ave","98020",47.7782431,-122.362571
"98021","Bothell","WA","HappyJoy","not_available","98021",47.78821938883939,-122.24650382995604
"98021","Bothell","WA","Fitness Together","22833 Bothell Everett Hwy Ste 142","98021",47.79054709611672,-122.21679904400501
"98021","Bothell","WA","Mason Gym","508 212th St SW","98021",47.805694580078125,-122.23991394042969
"98021","Bothell","WA","Hilton Garden Inn Fitness Center","22600 Bothell Everett Hwy","98021",47.79548263549805,-122.2177505493164
"98021","Bothell","WA","Orangetheory Fitness","22627 Bothell Everett Hwy","98021",47.792083740234375,-122.21402740478516
"98021","Bothell","WA","Canyon Pointe Apartments Fitness Center & Pool","1630 228th St SE","98021",47.78973388671875,-122.21070861816406
"98022","Enumclaw","WA","Enumclaw Fitness Center","856 Cole St","98022",47.19839859008789,-121.9959716796875
"98022","Enumclaw","WA","NW Fitness Zone","28719 State Route 410 E","98321",47.15940131407716,-122.04573316262054
"98022","Enumclaw","WA","Doxsa CrossFit","151 S Cedar St","98321",47.16212,-122.02863
"98022","Enumclaw","WA","Anytime Fitness","135 Jefferson Ave","98321",47.15873,-122.03572
"98022","Enumclaw","WA","Crossfit Enunclaw","1713 Garrett St","98022",47.202484999999996,-121.984756
"98022","Enumclaw","WA","Muckleshoot Health & Wellness Center","17500 SE 392nd St","98092",47.25046370593147,-122.10831309389698
"98023","Federal Way","WA","Pavilion Apartments Retreat","1900 SW Campus Dr Bldg 24","98023",47.30262785456677,-122.35554523919087
"98023","Federal Way","WA","Anytime Fitness","1614 SW Dash Point Rd","98023",47.323496999999996,-122.3568
"98023","Federal Way","WA","Fitness 19 Federal Way","33702 21st Ave SW","98023",47.297932,-122.3588581
"98024","Fall City","WA","Anytime Fitness","7713 Center Blvd SE #120","98065",47.53126,-121.87363
"98024","Fall City","WA","Cascade CrossFit","8126 304th Ave SE","98027",47.53237696179635,-121.9475301586488
"98026","Edmonds","WA","LA Fitness","19800 Highway 99","98036",47.819318507709305,-122.31852029900473
"98026","Edmonds","WA","Embassy Suites Fitness Center","20610 44th Ave W","98036",47.81145596742725,-122.29395649012628
"98026","Edmonds","WA","Forest Crest Tennis Club","4901 238th St SW","98043",47.782612,-122.29968999999998
"98026","Edmonds","WA","LA Fitness","20827 63rd Ave W","98036",47.809566497802734,-122.31756591796875
"98026","Edmonds","WA","Seaview Elementary Gym","not_available","98026",47.82745223010918,-122.3479040813679
"98026","Edmonds","WA","CEG","23101 56th Ave W","98043",47.789018,-122.30783000000001
"98026","Edmonds","WA","Experience Momentum","4720 200th St SW Ste 100","98036",47.8171127681097,-122.2986396571643
"98026","Edmonds","WA","King's treadmill","not_available","98036",47.81659698486328,-122.30957794189453
"98026","Edmonds","WA","Kamiak Main Gym","10801 Harbour Pointe Blvd","98275",47.898380279541016,-122.30030822753906
"98026","Edmonds","WA","Absolute Fitness & Sports Performance","6925 216th St SW Ste G","98036",47.8040204,-122.3269436
"98026","Edmonds","WA","CrossFit Industrious","21619 Highway 99 Ste H","98036",47.802922433476915,-122.32851282350038
"98026","Edmonds","WA","Bay Court Fitness Center","Chennault Beach Rd","98275",47.89501981811943,-122.3018648490967
"98026","Edmonds","WA","Orangetheory Fitness","19723 Highway 99","98036",47.819379225629405,-122.31598377227783
"98026","Edmonds","WA","F45 Training Lynnwood WA","17214 Highway 99","98037",47.842317,-122.298122
"98026","Edmonds","WA","Human Forge","16921 48th Ave W","98037",47.845264,-122.297459
"98026","Edmonds","WA","SuperFit","7627 196th St SW","98036",47.82152988987669,-122.33681626262958
"98027","Issaquah","WA","Anytime Fitness","4524 Klahanie Dr SE","98029",47.56595,-122.00548
"98027","Issaquah","WA","Gold's Gym","1025 NW Gilman Blvd","98027",47.54412390059564,-122.05335472168929
"98027","Issaquah","WA","The Gym","999 Lake Dr","98027",47.54931188548528,-122.0520117082334
"98027","Issaquah","WA","East Highlands Fitness","16410 SE 128th St","98059",47.488504538886446,-122.12102727954014
"98027","Issaquah","WA","SwimLabs","1555 NW Mall St","98027",47.54413543,-122.06106659
"98027","Issaquah","WA","The Little Gym","82 Front St S","98027",47.529057762974645,-122.0350482167157
"98027","Issaquah","WA","Kids Club-24 Hour Fitness","not_available","98029",47.545888,-122.024192
"98027","Issaquah","WA","The Highlands at Wynhaven Gym","1460 NE Hawthorne St","98029",47.544926000000004,-122.009672
"98027","Issaquah","WA","HGI Fitness Center","not_available","98027",47.55136489868164,-122.06647491455078
"98027","Issaquah","WA","Warrior Fitness Kickboxing","3310 E Lake Sammamish Pkwy SE #C2","98075",47.579735008884406,-122.07462508644653
"98027","Issaquah","WA","Summerwalk Gym","3850 Klahanie Dr SE","98029",47.573495,-121.99656399999999
"98027","Issaquah","WA","Issaquah Fitness","2115 NW Poplar Way","98027",47.55066045849621,-122.07681513585837
"98027","Issaquah","WA","Orangetheory Fitness","1676 9th Ave NE","98029",47.544218,-122.01983100000001
"98027","Issaquah","WA","Boulder Creek Apartments - Resident Gym","4425 Issaquah Pine Lake Rd SE","98075",47.56467056274414,-122.02803039550781
"98027","Issaquah","WA","Gravity Janes","1290 NW Mall St","98027",47.54432696035873,-122.05796172272113
"98027","Issaquah","WA","Crossfit Issaquah","1740 19th Ave NW #3","98027",47.54946517944336,-122.06652069091797
"98028","Kenmore","WA","Kenmore Fitness","7800 NE Bothell Way #150","98028",47.76014497007484,-122.24996405026025
"98028","Kenmore","WA","Great Play","6784 NE 181st St","98028",47.76045969701675,-122.2504191887107
"98030","Kent","WA","Planet Fitness","24044 104th Ave SE, Ste A","98030",47.385979999999996,-122.200244
"98030","Kent","WA","LifeStyle Indoor Cycling and Yoga Studio","13003 SE Kent Kangley Rd #104","98030",47.3571891784668,-122.16801452636719
"98030","Kent","WA","Bike Room","Kent Kangley","98038",47.35999090291335,-122.16851017279718
"98030","Kent","WA","Oberto Brands' Gym","not_available","98032",47.37329558843004,-122.20300270871739
"98030","Kent","WA","Kent Police & Fire Training Station","not_available","98030",47.3808998818172,-122.1867996396629
"98031","Kent","WA","Anytime Fitness","13210 SE 240th St Ste A-1","98042",47.38744,-122.16501
"98031","Kent","WA","My Gym Childrens Fitness Center","24030 132nd Ave SE Ste B","98042",47.386274,-122.16470100000001
"98031","Kent","WA","Workout Room","1024 Central Ave N","98032",47.392278999999995,-122.22665500000001
"98031","Kent","WA","Fassio FitCamp","not_available","98042",47.385882,-122.164927
"98031","Kent","WA","Mosiac Hills Weight Room","not_available","98031",47.38746397727028,-122.19483827626901
"98032","Kent","WA","Rachel's Body Shop","20829 72nd Ave S","98032",47.41609420334482,-122.24593686662672
"98032","Kent","WA","YMCA","3595 S 188th St","98188",47.433935934800175,-122.28803149563106
"98032","Kent","WA","LA Fitness","520 Washington Ave South","98032",47.37700593289963,-122.24654823354354
"98032","Kent","WA","Club Chubb","not_available","98198",47.369754484605096,-122.307266389785
"98032","Kent","WA","City Hall Dungeon Gym","4800 S 188th St","98188",47.433764000000004,-122.27273899999999
"98032","Kent","WA","Create Fitness","835 Central Ave N Ste 110","98032",47.3888833,-122.231626
"98032","Kent","WA","Vision Quest Sports And Fitness","841 Central Ave N #115","98032",47.390163301729864,-122.23140968313575
"98032","Kent","WA","Boeing Employee's Tennis Club","6727 S 199th Pl","98032",47.42320830831875,-122.24951299307088
"98032","Kent","WA","South Elite All Stars (Northwest Cheer And Dance Academy)","1119 Central Ave S","98032",47.369547999999995,-122.23201399999999
"98032","Kent","WA","Metro All-Star Cheer","6822 S 190th St, Kent, WA 98032","98032",47.432945251464844,-122.24708557128906
"98032","Kent","WA","Emerald City Basketball Academy","19441 66th Ave S","98032",47.42729949951172,-122.25222778320312
"98032","Kent","WA","Bally Total Fitness","1340 W Smith St","98032",47.382477050101066,-122.25154711045076
"98032","Kent","WA","DoubleTree by Hilton Fitness Center","18740 International Blvd","98188",47.43677414432108,-122.29373673963546
"98032","Kent","WA","Nwx Cheer Gym","21440 68th Ave S","98032",47.409034729003906,-122.24801635742188
"98032","Kent","WA","Interurban Athletics","7405 S 212th St","98032",47.41044616699219,-122.24095916748047
"98032","Kent","WA","BigWu Fitness","404 W Meeker St","98032",47.38132858276367,-122.236328125
"98033","Kirkland","WA","Gold's Gym","11133 120th Ave NE","98033",47.6995589,-122.1818325
"98033","Kirkland","WA","Sixty-01: Fitness Center","137th Ave NE","98052",47.661831005891315,-122.1565957506589
"98033","Kirkland","WA","F45 Training Kirkland","not_available","98033",47.676184,-122.206285
"98033","Kirkland","WA","Kirkland Crossfit","11200 Kirkland Way Ste 208","98033",47.68035161446436,-122.19018095614817
"98033","Kirkland","WA","Whitesel pro therapy","13120 NE 70th Pl Ste 3","98033",47.6673583984375,-122.16461944580078
"98033","Kirkland","WA","G-Fit Kirkland","747 6th St","98033",47.66919248583338,-122.19933365083023
"98033","Kirkland","WA","Anytime Fitness","6533 132nd Ave NE","98074",47.66473,-122.16583
"98033","Kirkland","WA","Fly Fitness","2225 Carillon Point Suite 2225","98033",47.65646743195717,-122.20728951052541
"98033","Kirkland","WA","Aerojet Gym","11411 139th Pl NE","98052",47.703182,-122.15663300000001
"98033","Kirkland","WA","Plaza Yarrow Bay","10220 NE Points Dr","98033",47.64505131628108,-122.20314210181645
"98033","Kirkland","WA","Pacific Northwest Krav Maga","210 8th St S","98033",47.67425537109375,-122.19251251220703
"98033","Kirkland","WA","The Ashram Yoga","12637 NE 85th St","98033",47.67905554926021,-122.1702655150439
"98033","Kirkland","WA","Fitness Together - Kirkland","10627 NE 68th St","98033",47.66578051738861,-122.19786721794011
"98033","Kirkland","WA","Lake Washington High School - Gym","12033 NE 80th St","98033",47.6726777211042,-122.18079033317284
"98033","Kirkland","WA","X Gym","126 Central Way Ste 150","98033",47.676518092449115,-122.20720718237163
"98033","Kirkland","WA","EndZone Athletics","423 6th St S","98033",47.67142868041992,-122.19683837890625
"98033","Kirkland","WA","Gym at Portsmith","109 2nd St S","98033",47.674555,-122.204702
"98034","Kirkland","WA","LA Fitness","12321 120th Pl NE","98034",47.708788743649436,-122.17953226449166
"98034","Kirkland","WA","Embody Health","11803 98th Ave NE","98034",47.70635929709036,-122.21083019401956
"98034","Kirkland","WA","Corbella at Juanita Bay","9536 NE 120th St","98034",47.708571,-122.213606
"98034","Kirkland","WA","Free Weight Zone","13426 NE 135th St","98034",47.722043,-122.160826
"98034","Kirkland","WA","GE - Gym","10865 Willows Rd NE","98052",47.69783401489258,-122.15361022949219
"98034","Kirkland","WA","Fresh Vitamins","not_available","98034",47.711646,-122.189921
"98034","Kirkland","WA","Northwest Aerials","12440 128th Ln NE","98034",47.71170676052616,-122.16937367382434
"98034","Kirkland","WA","Lake Washington CrossFit","11823","98034",47.706231573014726,-122.17924837585272
"98034","Kirkland","WA","Gym @ BDA","Woodinville-Redmond RD NE","98072",47.740321266432034,-122.15882739153612
"98034","Kirkland","WA","Gym At Kirkland courtyard","11215 NE 124th St","98034",47.71066665649414,-122.19125366210938
"98034","Kirkland","WA","Griponite Games Fitness Center","12421 Willows Rd NE","98034",47.712100982666016,-122.15633392333984
"98034","Kirkland","WA","Curves","10144 NE 137th Pl","98034",47.72416,-122.204947
"98034","Kirkland","WA","F3 Functional Fitness LLC","12815 NE 124th St Ste L","98034",47.710403,-122.169002
"98034","Kirkland","WA","MMAXOUT Fitness","12815 NE 124th St Ste C","98034",47.71043017158544,-122.16944682196912
"98034","Kirkland","WA","Iron-Core Fit","12700 NE 124th St","98034",47.71089484345852,-122.1706903271019
"98036","Lynnwood","WA","Anytime Fitness","4114 198th St SW","98036",47.81684332352077,-122.2902077436447
"98036","Lynnwood","WA","Paramount Strength & Conditioning","22402 44th Ave W","98043",47.795759999999994,-122.293158
"98036","Lynnwood","WA","Anvil Fitness","2100 196th St SW Ste 106","98036",47.81843948364258,-122.26270294189453
"98036","Lynnwood","WA","The Little Gym","18905 33rd Ave W","98036",47.82722149110299,-122.27695337744935
"98036","Lynnwood","WA","Local's Gym / Lynnwood CrossFit","2031 196th St SW","98036",47.8218323790456,-122.26119494345484
"98037","Lynnwood","WA","Avalon Brandemoor Fitness Center","3333 164th St SW","98087",47.85118903409866,-122.27889613650835
"98037","Lynnwood","WA","Cypress WADC Gym","2700 162nd St SW","98087",47.8513298034668,-122.27041625976562
"98038","Maple Valley","WA","Orangetheory Fitness","26555 Maple Valley Black Diamond Rd SE","98038",47.363395000000004,-122.022124
"98038","Maple Valley","WA","Thrive Community Fitness","27411 Maple Valley Black Diamond Rd SE","98038",47.35606610121403,-122.02005668316428
"98038","Maple Valley","WA","Maple Valley Fitness","23756-23758 Witte Rd SE","98038",47.38793131787643,-122.04741532947916
"98038","Maple Valley","WA","Vance gym","25009 234th Pl SE","98038",47.377655029296875,-122.02959442138672
"98038","Maple Valley","WA","Ronin Training","26207 Maple Valley Black Diamond Rd SE","98038",47.36681129058051,-122.02255713800666
"98038","Maple Valley","WA","Stroller Strides of Maple Valley","22500 SE 248th St","98038",47.3790283203125,-122.03864288330078
"98038","Maple Valley","WA","CrossFit Discovery","23130 224th Pl SE","98038",47.392749,-122.04243899999999
"98038","Maple Valley","WA","Work It Out Fitness","23745 225th Way SE","98038",47.388288,-122.042569
"98038","Maple Valley","WA","Tahoma Athletic Club","23836 222nd Pl SE","98038",47.38807265530904,-122.04392857847704
"98038","Maple Valley","WA","Crossfit Basic","30741 3rd Ave Ste 125","98010",47.3918488508271,-122.04424483712197
"98038","Maple Valley","WA","Maple Crossing Gym","not_available","98038",47.391708817821794,-122.04963527558864
"98040","Mercer Island","WA","Orangetheory Fitness","2601 76th Ave SE","98040",47.587407,-122.238613
"98040","Mercer Island","WA","Weight Room @ MIHS","9100 SE 42nd St, Mercer Island, WA 98040","98040",47.57202911376953,-122.22010803222656
"98040","Mercer Island","WA","Wii Fit Balance Board","not_available","98040",47.586052,-122.232788
"98040","Mercer Island","WA","Avalon Meydenbauer Gym","10410 NE 2nd St","98004",47.613319084844036,-122.20082675485301
"98040","Mercer Island","WA","Avalon Gym","139 104th Ave NE","98004",47.61245346069336,-122.20204162597656
"98040","Mercer Island","WA","Elite Fitness","136 102nd Ave NE","98004",47.60933610349829,-122.20401154639465
"98040","Mercer Island","WA","Fitness Together - Mercerisland","3011 78th Ave SE","98040",47.58335142240635,-122.23384803782544
"98040","Mercer Island","WA","Orangetheory Fitness","30 Bellevue Way NE","98004",47.610881,-122.20046
"98040","Mercer Island","WA","Jazzercise","8236 SE 24th St","98040",47.59017562866211,-122.22796630859375
"98042","Kent","WA","LA Fitness","27245 172nd Ave SE","98042",47.35675422975675,-122.11211954368615
"98042","Kent","WA","The Fighters Guild","not_available","98058",47.43623733520508,-122.16224670410156
"98042","Kent","WA","CrossFit Devotion","19632 183rd Way SE","98042",47.34743198585309,-122.13679621467512
"98042","Kent","WA","Fitness Center","12725 SE 312th Street","98092",47.32152557373047,-122.1727523803711
"98042","Kent","WA","Gym","SE 312th St","98092",47.321359083333334,-122.17268301666667
"98042","Kent","WA","Little Gym","17431 SE 272nd St","98042",47.357887268066406,-122.10846710205078
"98045","North Bend","WA","Mt. Si Sports & Fitness","1546 boalch ave nw","98065",47.51881962794197,-121.81790977182783
"98045","North Bend","WA","CrossFit Within","39075 SE Park St","98065",47.52565383911133,-121.8194808959961
"98045","North Bend","WA","Mt Si Sports & Fitness","1546 Boalch Ave NW #10","98045",47.50630243807518,-121.79592302372777
"98045","North Bend","WA","Thrive Community Fitness","not_available","98053",47.49494186,-121.78749271
"98045","North Bend","WA","Curves!","249 Main Ave S","98045",47.493873596191406,-121.78726196289062
"98052","Redmond","WA","The PRO Sports Club","9911 Willows Rd NE Ste 100","98052",47.68879113929041,-122.1517260722081
"98052","Redmond","WA","Pure Barre Redmond","16015 Cleveland Streeet","98052",47.674385,-122.12726699999999
"98052","Redmond","WA","YogaSix","16450 Redmond Way Ste 159","98052",47.67366409301758,-122.11961364746094
"98052","Redmond","WA","Koko FitClub","16510 Suite R","98052",47.673055754619725,-122.12089558293
"98052","Redmond","WA","gym @ shadowbrook","8500 148th Ave NE","98052",47.67942810058594,-122.14508056640625
"98052","Redmond","WA","Pendano Elite Fitness & Athletics","17625 NE 65th St Ste 115","98052",47.663813,-122.105085
"98052","Redmond","WA","Serious About Fitness","15205 NE 95th St","98052",47.68573904645669,-122.13711960596288
"98052","Redmond","WA","Hard Core Fitness Studio","16339 NE 74th Street","98052",47.670570373535156,-122.12175750732422
"98052","Redmond","WA","F45 Training Redmond WA","7405 168th Ave NE","98052",47.6701742,-122.1164532
"98052","Redmond","WA","Sgt. Mike's Training and Classes","8709 161st Ave NE","98052",47.680057525634766,-122.1263198852539
"98052","Redmond","WA","Eastside Gym","15040 NE 95th St","98052",47.68605977425324,-122.1398206393418
"98053","Redmond","WA","Orangetheory Fitness","22830 NE 8th St","98074",47.61712472581501,-122.03471911745761
"98053","Redmond","WA","YogaSix","22526 SE 4th St Ste B","98074",47.60577728996996,-122.03884976311939
"98053","Redmond","WA","Condo Cabana Gym","228th","98075",47.597564595646716,-122.03471907297182
"98053","Redmond","WA","Sammamish Community  Y","831 228th Ave SE","98075",47.6007718896062,-122.03844721536488
"98053","Redmond","WA","Tha Gym","22433 NE Marketplace Dr","98053",47.693114,-122.041418
"98055","Renton","WA","Valley Fitness Center - Valley Medical Center","400 S 43rd St","98055",47.44275665283203,-122.21391296386719
"98055","Renton","WA","Renton CrossFit","17110 116th Ave SE","98058",47.449098886531395,-122.18436483244112
"98055","Renton","WA","Landmark Gym","1600 Lind Ave SW","98057",47.46474120653591,-122.21937131588578
"98055","Renton","WA","Way of Living Fitness","221 SW 41st St #221","98057",47.4426383972168,-122.22016906738281
"98055","Renton","WA","My Fitness","10728 SE Carr Rd","98055",47.44603679082984,-122.19790346510183
"98056","Renton","WA","LA Fitness","715 N Landing Way","98057",47.4960775634305,-122.20645615248219
"98056","Renton","WA","Orangetheory Fitness","3895 NE 4th St","98056",47.48781289999999,-122.1662862
"98056","Renton","WA","Anytime Fitness","64 Rainier Ave S","98057",47.48426,-122.216
"98056","Renton","WA","Fitness Center","950 Harrington Ave NE","98056",47.497775187461016,-122.18113968728515
"98056","Renton","WA","The Asylum","not_available","98056",47.47936900695853,-122.21162427013621
"98056","Renton","WA","Brighton Ridge Gym Facility","2307 NE 4th St","98056",47.487518,-122.186756
"98056","Renton","WA","Empower Health and Diesel Fitness","3700 NE 4th St","98056",47.488776,-122.16910700000001
"98056","Renton","WA","Marina Landing Workout Center","1300 N 20th St","98056",47.509944915771484,-122.20071411132812
"98056","Renton","WA","Vigor Ground Fitness and Performance","1222 Bronson Way N #250","98057",47.48422845197727,-122.2013028883665
"98056","Renton","WA","Bristol Gym","1131 Lake Washington Blvd N","98056",47.502717,-122.20171599999999
"98056","Renton","WA","Rebel Fitness","216 S Tobin St","98057",47.48380993293806,-122.21331353719668
"98057","Renton","WA","LA Fitness","350 Baker Blvd","98188",47.458871340852646,-122.25309107374999
"98057","Renton","WA","King CrossFit","2230 Lind Ave SW #100","98057",47.459605820683194,-122.2220862430359
"98057","Renton","WA","Providence Gym","1801 Lind Ave SW","98057",47.46433717016866,-122.2245052975651
"98057","Renton","WA","Towneplace Suites Marriott gym","300 SW 19th St","98057",47.463279724121094,-122.22090148925781
"98057","Renton","WA","HSSH Gym","8013 S 112th St","98178",47.49610835791143,-122.2293329360252
"98057","Renton","WA","Courtyard Marriott Fitness Center","not_available","98188",47.45919704957888,-122.24371139102222
"98057","Renton","WA","RingDemon","840 Industry Dr","98188",47.45048141479492,-122.24806213378906
"98057","Renton","WA","SCOB gym","1601 Lind Ave SW","98057",47.46533203125,-122.22457122802734
"98058","Renton","WA","LA Fitness","14060 SE Petrovitsky Rd","98058",47.44611091110331,-122.15170563461862
"98058","Renton","WA","Fairwood Apartments Gym","14300 SE 171st Way","98058",47.44646072387695,-122.14822387695312
"98059","Renton","WA","Do Work Fitness Studio","11423 164th Ave SE","98059",47.500530619471654,-122.12465107440948
"98065","Snoqualmie","WA","Coffer Peloton","8812 Norman Ave SE","98065",47.5213737487793,-121.87287902832031
"98072","Woodinville","WA","Gold's Gym","18600 Woodinville Snohomish Rd NE","98072",47.7624015,-122.1536547
"98072","Woodinville","WA","Koko FitClub","17614 140th Ave NE","98072",47.75541384411915,-122.15195032921206
"98072","Woodinville","WA","Beaumont Gym","14001 NE 183rd St","98072",47.7613410949707,-122.15339660644531
"98072","Woodinville","WA","Studio Nine","13424 NE 177th Pl","98072",47.757808685302734,-122.15947723388672
"98072","Woodinville","WA","The Snoho Gym","20330 75th Dr. South","not_available",47.811456,-122.133216
"98072","Woodinville","WA","Snap Fitness","15610 NE Woodinville Duvall Rd","98072",47.761958393277055,-122.12951419618926
"98072","Woodinville","WA","CrossFit Nine","23128 State Route 9 SE","98072",47.78694152832031,-122.14405822753906
"98072","Woodinville","WA","Julie Michaelson Training","17331 135th Ave NE","98072",47.753393,-122.15968799999999
"98072","Woodinville","WA","Agoge CrossFit Woodinville","19400 144th Ave NE","98072",47.76830952,-122.14713391
"98072","Woodinville","WA","F45 Training Woodinville","13311 NE 173rd St","98072",47.752331,-122.161136
"98072","Woodinville","WA","Crossfit Nine","16130 Woodinville Redmond Rd NE","98072",47.746063232421875,-122.16000366210938
"98077","Woodinville","WA","The Dungeon","16566 ne 118th","not_available",47.70671398,-122.119962
"98087","Lynnwood","WA","LA Fitness","13619 Mukilteo Speedway","98087",47.87475864053684,-122.2750110677266
"98087","Lynnwood","WA","Gold's Gym","12138 Mukilteo Speedway","98275",47.88721109057643,-122.28373469000063
"98087","Lynnwood","WA","Crossfit Advantage","12410 Beverly Park Rd","98087",47.88561371674968,-122.27966716453055
"98087","Lynnwood","WA","Avalon Gym","not_available","98204",47.8847918756948,-122.25108218035774
"98087","Lynnwood","WA","Fit-Results Boot Camp","14007 Highway 99 Ste D","98087",47.87094497680664,-122.2747573852539
"98087","Lynnwood","WA","Comcast Gym","15815 25th Ave W","98087",47.85464480024687,-122.26819834797294
"98087","Lynnwood","WA","highwood ridge workout room","15026","98087",47.86168368446451,-122.28876909962038
"98087","Lynnwood","WA","Sunrise Lane workout area","12522","98204",47.88425445000001,-122.24796094999999
"98087","Lynnwood","WA","immortals fitness","3616 South Rd Ste B5","98275",47.882591247558594,-122.2838363647461
"98092","Auburn","WA","Palermo Gym","not_available","98390",47.2439144236479,-122.214302357114
"98092","Auburn","WA","Tahoma Athletic Club","1620 Lake Tapps Pkwy SE","98092",47.24504256071389,-122.20722119064853
"98092","Auburn","WA","Orangetheory Fitness","1408 Lake Tapps Pkwy SE","98092",47.244651,-122.20950900000001
"98092","Auburn","WA","Kettlebell 180","2014 62nd St SE","98092",47.25210952758789,-122.20384216308594
"98101","Seattle","WA","Shred415","1823 Minor Ave Ste 101","98101",47.617061614990234,-122.33149719238281
"98101","Seattle","WA","Seattle Athletic Club","2020 Western Ave","98121",47.61062270822991,-122.34404818035023
"98101","Seattle","WA","Axtion Club","2602 2nd Ave","98121",47.616050729474445,-122.34876813865766
"98101","Seattle","WA","Washington Athletic Club","1325 6th Ave","98101",47.60992444680146,-122.3333152559069
"98101","Seattle","WA","Riot Athletics","not_available","98101",47.60612788593904,-122.3391011743967
"98101","Seattle","WA","CrossFit Felix","2211 5th Ave","98121",47.61565190410052,-122.34238990383515
"98101","Seattle","WA","Via6 Gym","2121 6th Ave., Mezzanine","98121",47.61520108224513,-122.33983824619418
"98101","Seattle","WA","Rival Fitness","510 E Pine St","98122",47.61532673956715,-122.32479073317754
"98101","Seattle","WA","Stay Fit-Grand Hyatt Seattle","721 Pine St Fl 4","98101",47.612758033732575,-122.33387598448323
"98101","Seattle","WA","Renaissance Fitness Center","not_available","98104",47.606804456437786,-122.33071665438734
"98101","Seattle","WA","Elliott Bay CrossFit","209 Bell St.","98121",47.61430252261196,-122.34533611352816
"98101","Seattle","WA","Bassline Fitness Pike","501 East Pike","98122",47.61403193793973,-122.3251768873651
"98101","Seattle","WA","Cristalla Gym","2033 2nd Ave","98121",47.611850097108295,-122.34297760418445
"98101","Seattle","WA","Demco Fitness","2521 4th Ave","98121",47.616799,-122.34696399999999
"98101","Seattle","WA","Escala Gym","1920 4th Ave","98101",47.61314579722344,-122.33979348850755
"98101","Seattle","WA","The Westin - Fitness Center","1900 5th Ave","98101",47.61368000650174,-122.33901575166257
"98101","Seattle","WA","Lift Fitness Training","2604 Western Ave","98121",47.614916,-122.35069299999999
"98101","Seattle","WA","Burn Cycle","601 E Pine St","98122",47.61518733251864,-122.32413852272472
"98101","Seattle","WA","Waterfront Landings","2000 Alaskan Way","98121",47.609539,-122.344597
"98101","Seattle","WA","Marriott Fitness Center","2100 Alaskan Way Fl 2","98121",47.61066818237305,-122.34657287597656
"98101","Seattle","WA","Seattle Steamworks","1520 Summit Ave","98122",47.614782141643474,-122.3253396087324
"98101","Seattle","WA","Aspira Apartments Fitness Center","1823 Terry Ave","98101",47.61586495720113,-122.33362488372941
"98101","Seattle","WA","Belltown Dance Studio","2217 3rd Ave Ste 102","98121",47.6171431891241,-122.34699487793979
"98101","Seattle","WA","YMCA","909 4th Ave","98104",47.60568456244552,-122.33247492105406
"98101","Seattle","WA","ZUM fitness","1813 7th Ave","98101",47.61400529327087,-122.33607373888364
"98101","Seattle","WA","Enso Gym","820 Blanchard St Fl 5","98121",47.617681675820364,-122.33882377576636
"98101","Seattle","WA","Talisman Gym","1000 Union St","98101",47.612342,-122.32902
"98102","Seattle","WA","Pro Sports Club","501 Eastlake Ave E Fl 2","98109",47.6234498,-122.3295504
"98102","Seattle","WA","Pocock Rowing Center","3320 Fuhrman Ave E","98102",47.6520166106945,-122.32199171172148
"98102","Seattle","WA","The Lyric Apartments","215 10th Ave E","98102",47.62070248573968,-122.32009496583903
"98102","Seattle","WA","CycleBar South Lake Union","1288 Harrison St","98109",47.62210172143018,-122.33059778809547
"98102","Seattle","WA","TRIBE Fitness","606 Broadway E","98102",47.624561268467666,-122.32075641106029
"98102","Seattle","WA","Row House","419 Fairview Ave N","98109",47.6228146,-122.3345227
"98102","Seattle","WA","Tiltshift Lab CrossFit","3534 Bagley Ave N","98103",47.650191,-122.332023
"98102","Seattle","WA","Alley 24 Office Building","221 Yale Ave N","98109",47.62016361346431,-122.33049349937912
"98102","Seattle","WA","E Howe Street Stairs","810 E Howe St","not_available",47.63583910041901,-122.32061919851522
"98102","Seattle","WA","F45 Training Eastlake","1800 Eastlake Ave E","98102",47.63515853881836,-122.324951171875
"98102","Seattle","WA","Jonson GYM","not_available","98109",47.621687,-122.333556
"98102","Seattle","WA","Wakefield Gym","1061 E Republican St","98102",47.622972,-122.31853600000001
"98102","Seattle","WA","AMLI Endurance Zone","535 Pontius Ave N","98109",47.6240577385904,-122.3316846516597
"98102","Seattle","WA","The Cairns","422 Yale Ave N","98109",47.62238284,-122.32998029
"98102","Seattle","WA","PEMCO FItness Center","325 Eastlake Ave E","98109",47.62145978167154,-122.32964580995414
"98102","Seattle","WA","Rugged Elite Crossfit","not_available","98102",47.648173445323025,-122.32282928445308
"98102","Seattle","WA","Gymnasium at Ward's Cove","2811 Fairview Ave E","98102",47.646667,-122.326949
"98102","Seattle","WA","Equinox - Gym","1520 Eastlake Ave E","98102",47.63291549682617,-122.32530975341797
"98102","Seattle","WA","Gym at Silver Cloud Inn","1150 Fairview Ave N","98109",47.62969207763672,-122.32905578613281
"98102","Seattle","WA","CorePower Yoga","501 Broadway E, Suite 1","98102",47.623323,-122.3212249
"98102","Seattle","WA","Elite Health & Fitness","413 Fairview Ave N","98109",47.622686,-122.33481599999999
"98102","Seattle","WA","Essential Fitness","1616 Eastlake Ave E","98102",47.634419,-122.32466000000001
"98102","Seattle","WA","YogaSix","620 W. Boren Ave., Block 25 W","98109",47.62537837422087,-122.33542634709272
"98102","Seattle","WA","Regata Workout Room","1700 N Northlake Way","98103",47.647349,-122.33691499999999
"98103","Seattle","WA","Versatile Arts","7601 Greenwood Ave N","98103",47.68419167115905,-122.35569568960263
"98103","Seattle","WA","Emerald City Athletics","3920 Stone Way N. #101","98103",47.655073749937415,-122.34236507740765
"98103","Seattle","WA","Orangetheory Fitness","1325 N 45th St","98103",47.661046999999996,-122.34113899999998
"98103","Seattle","WA","Seatown Crossfit","8316 Aurora Ave N","98103",47.68966434172042,-122.34410101897639
"98103","Seattle","WA","Studiofit","8111 Stone Ave N","98103",47.68807878625269,-122.34194982447487
"98103","Seattle","WA","Anytime Fitness","837 N. 34th St. Ste. 220","98103",47.64919,-122.34825
"98103","Seattle","WA","NW Fitness Project","3601 Greenwood Ave N","98103",47.6529,-122.35586
"98103","Seattle","WA","Google Seattle - Waterworks Gym","651 N 34th St","98103",47.648670978086805,-122.35079086252469
"98103","Seattle","WA","Stoneway CrossFit","2 Dravus St","98109",47.648325700265765,-122.35513927072327
"98103","Seattle","WA","Wallingford Boys & Girls Club","1310 N 45th St","98103",47.66195926812324,-122.34148867711781
"98103","Seattle","WA","Row House","900 N 34th St","98103",47.64943456976489,-122.34684937992137
"98103","Seattle","WA","ACP Crossfit","7622 Aurora Ave N","98103",47.68456,-122.34415800000001
"98103","Seattle","WA","Sutra Yoga","1621 N 45th St","98103",47.661359857189915,-122.33813236113103
"98103","Seattle","WA","Green Lake Park Basketball Courts","7201 E Green Lake Dr N","98115",47.68002764347282,-122.32820391654968
"98103","Seattle","WA","Adobe Exercise Room","801 N 34th St","98103",47.648948669433594,-122.34796142578125
"98103","Seattle","WA","CorePower Yoga","10004 Aurora Avenue North, Suite #6","98133",47.703066996377984,-122.3443791988575
"98103","Seattle","WA","Crossfit Phinney Ridge","7601 Greenwood Ave Suit 100","not_available",47.68420811286531,-122.35544329867312
"98103","Seattle","WA","Seattle Fresh Air Fitness","5775 W Greenlake Way N","98103",47.670204,-122.341487
"98103","Seattle","WA","Glo Training with Angie Lewis","1225 N 45th St","98103",47.661136,-122.34282900000001
"98103","Seattle","WA","Power Lab Seattle","7201 Green Lake Trail","98115",47.6799353,-122.3285924
"98103","Seattle","WA","Todo Bien","5417 Meridian Ave N","98103",47.668540954589844,-122.33392333984375
"98103","Seattle","WA","StoneWay CrossFit","not_available","98103",47.65516355453756,-122.34421054846139
"98103","Seattle","WA","Vera Fitness","701 N 36th St","98103",47.6511,-122.34949499999999
"98104","Seattle","WA","Courtyard Seattle Fitness Center","612 2nd Ave Bsmt","98104",47.602943420410156,-122.33263397216797
"98104","Seattle","WA","Fitness Center @ The Wave","521 Stadium Pl S","98104",47.59786,-122.332422
"98104","Seattle","WA","ASIA gym","7th Ave","98104",47.59673480019179,-122.32384490656054
"98104","Seattle","WA","Fourth & Madison Fitness","925 4th Ave","98104",47.60552621212864,-122.33374690427343
"98104","Seattle","WA","Crowne Plaza Gym","1113 6th Ave","98101",47.60808284363962,-122.33211801301931
"98104","Seattle","WA","fifth avenue fitness","800 5th Ave","98104",47.605780366335416,-122.33033661931584
"98104","Seattle","WA","520 Pike Gym","520 Pike St","98101",47.611059418199005,-122.33466204322998
"98104","Seattle","WA","RC Health Club","820 4th Ave Fl 5","98104",47.605210942439484,-122.33176017780075
"98104","Seattle","WA","Federal Building (Caged Bird) Stairs","915 Third Ave","not_available",47.6047875002726,-122.3345077353761
"98104","Seattle","WA","CueFit Seattle","902 1st Ave S","98134",47.594667,-122.33368999999999
"98104","Seattle","WA","FitnessTrainer Seattle","823 Madison St Apt 416","98104",47.60805892944336,-122.32748413085938
"98104","Seattle","WA","Hilton Fitness Center","Hilton Seattle","not_available",47.609348229899695,-122.33268052159131
"98104","Seattle","WA","Core Fitness","1201 3rd Ave","98101",47.60730856079317,-122.33536910261813
"98104","Seattle","WA","M Street Rooftop","910 8th Ave","98104",47.60772778429469,-122.32791261563031
"98104","Seattle","WA","Pelago","307 3rd Ave S","98104",47.606983,-122.335439
"98104","Seattle","WA","Harbor Steps Gym","1221 1st Ave","98101",47.60632437897696,-122.33865538876006
"98104","Seattle","WA","RIC Fitness Center","1301 2nd Ave Fl 4","98101",47.60795034118958,-122.33766250903952
"98104","Seattle","WA","The Q Gym","201 Yesler Way","98104",47.601556,-122.33118400000001
"98105","Seattle","WA","University Family YMCA","5003 12th Ave NE","98105",47.665085790726636,-122.31544487246684
"98105","Seattle","WA","CorePower Yoga","4535 12th Ave NE, Ste A","98105",47.6621772,-122.3156506
"98105","Seattle","WA","UW: IMA","3924 NE Pacific St","98195",47.65360346965251,-122.3015649683854
"98105","Seattle","WA","The Kennedy Building Gym","not_available","98164",47.66096158019367,-122.3186553365997
"98105","Seattle","WA","Athletics Training of Seattle","not_available","98105",47.66841506958008,-122.31657409667969
"98105","Seattle","WA","Radford Court Gym","6301 65th Ave NE","98115",47.67414855957031,-122.2602767944336
"98105","Seattle","WA","The Seattle Gym","3811 NE 45th St","98105",47.661272629779496,-122.28664190016119
"98105","Seattle","WA","CrossFit Deliverance","4535 Union Bay Pl NE","98105",47.662092,-122.29391000000001
"98105","Seattle","WA","Pure Barre U Village","4552 11th Ave NE","98105",47.66255844835203,-122.3161060220728
"98105","Seattle","WA","Curves- University","4530 Union Bay Pl NE","98105",47.66236877441406,-122.29337310791016
"98105","Seattle","WA","Unique Physique","2920 NE Blakeley St","98105",47.665684999999996,-122.295872
"98105","Seattle","WA","Sound Crossfit","3416 NE 55th St","98105",47.668693,-122.29053600000002
"98106","Seattle","WA","West Seattle Health Club","2629 SW Andover St","98126",47.56806928486818,-122.36732496137144
"98106","Seattle","WA","Allstar Fitness","not_available","98106",47.558765676499725,-122.36306585242953
"98106","Seattle","WA","K-Gym","not_available","98134",47.583534475621576,-122.3340596631212
"98106","Seattle","WA","The Warbox","7910 32nd Ave SW","98126",47.531556,-122.37366000000002
"98106","Seattle","WA","Pure Barre","2414 SW Andover St Bldg D","98106",47.56932067871094,-122.36358642578125
"98106","Seattle","WA","Zulily Gym/Basketball Court","2200 1st Ave S","98134",47.583597,-122.333684
"98106","Seattle","WA","South Seattle CrossFit","4101 W Marginal Way SW #B9","98106",47.5671501159668,-122.35459899902344
"98106","Seattle","WA","West Seattle Fight And Fitness","5050 Delridge Way SW","98106",47.555784,-122.362521
"98106","Seattle","WA","Resolution Gym","Sw Avalon Way","98126",47.56437805436464,-122.37418153425222
"98106","Seattle","WA","BNSF Occidental Gym","2454 Occidental Ave S","98134",47.58076858520508,-122.33272552490234
"98106","Seattle","WA","Westridge Park GyM","7701 Delridge Way SW","98106",47.532866999999996,-122.361515
"98106","Seattle","WA","X Gym West Seattle","3213 Harbor Ave SW","98126",47.575227000000005,-122.371384
"98106","Seattle","WA","Northwest Strength & Performance","2920 1st Ave S","98134",47.5770149230957,-122.33369445800781
"98106","Seattle","WA","Java Gym","2401 Utah Ave S","98134",47.58147818609784,-122.3355503441908
"98106","Seattle","WA","Southwest Boys & Girls Club","9800 8th Ave SW","98106",47.515341571829794,-122.34462324060632
"98106","Seattle","WA","Blueprint Athletic Performance","6335 1st Ave S","98108",47.546221,-122.33480300000001
"98107","Seattle","WA","Vertical World 4.0","2330 W Commodore Way","98199",47.66093812016734,-122.38687912138278
"98107","Seattle","WA","LA Fitness","1416 NW Ballard Way","98107",47.662630822346074,-122.37516289319532
"98107","Seattle","WA","Olympic Athletic Club","5301 Leary Ave NW","98107",47.666384,-122.3827919
"98107","Seattle","WA","Fitness 19 Seattle","5680 24th Ave NW","98107",47.66993622161847,-122.38736731080992
"98107","Seattle","WA","Ballard Health Club","2208 NW Market St","98107",47.66884132060383,-122.38502456109715
"98107","Seattle","WA","Stone Gardens","2839 NW Market St","98107",47.668338222410895,-122.3952150852745
"98107","Seattle","WA","CorePower Yoga","1455 NW Leary Way, Suite 100","98107",47.663512,-122.3758951
"98107","Seattle","WA","BurnCycle Ballard","2420 NW Market St","98107",47.669114,-122.388697
"98107","Seattle","WA","Balance In Our Life","1446 NW 53rd St","98107",47.667388916015625,-122.37572479248047
"98107","Seattle","WA","Aros Gym","2251 NW 59th St.","not_available",47.67137,-122.386812
"98107","Seattle","WA","Parkour Visions","4216 6th Ave NW","98107",47.65822982788086,-122.3637466430664
"98107","Seattle","WA","FIT36 - Ballard","5603 24th Ave NW","98107",47.6696684,-122.3879202
"98107","Seattle","WA","Denali Fitness - Interbay","3257 16th Ave W Ste A","98119",47.65033886019373,-122.37796522611448
"98107","Seattle","WA","Ballard Health Club","1536 NW Market St","98107",47.66891098022461,-122.37776947021484
"98107","Seattle","WA","On The Park Gym","2233 NW 58th St","98107",47.670571,-122.38673700000001
"98107","Seattle","WA","RenFitness Gym","not_available","98107",47.66456985473633,-122.3742904663086
"98107","Seattle","WA","Parkour Visions Gym","1210 W Nickerson St","98119",47.65577905439319,-122.37222299526674
"98107","Seattle","WA","Leva Gym","1545 NW Market St","98107",47.66834352103744,-122.37835191238041
"98107","Seattle","WA","Canal Station Gym","5440 Leary Ave NW","98107",47.66761779785156,-122.38259887695312
"98107","Seattle","WA","Level 4: Crossfit Seattle","4201 9th Ave NW","98107",47.65806103363327,-122.3672946154394
"98107","Seattle","WA","The Muscle Factory","4020 Leary Way NW #123","98107",47.65668487548828,-122.36206817626953
"98107","Seattle","WA","Gym at the Ballard","1525 NW 57th St","98107",47.66984558105469,-122.37738037109375
"98107","Seattle","WA","Upbeats Fitness","928 NW Leary Way","98107",47.663902282714844,-122.37002563476562
"98107","Seattle","WA","Leisy Army Reserve Center - Gym","4570 Texas Way W","98199",47.66324996948242,-122.40494537353516
"98107","Seattle","WA","ModBody Fitness","not_available","98119",47.652026,-122.364131
"98107","Seattle","WA","Game Plan Fitness","5501 8th Ave NW","98107",47.66892,-122.366401
"98107","Seattle","WA","Ballard CrossFit","6419 15th Ave NW, Seattle, WA 98107","98107",47.67523884983638,-122.37627015301847
"98108","Seattle","WA","Rainier Vista Boys & Girls Club","4520 Martin Luther King Jr Way S","98108",47.56260201286588,-122.2939752365552
"98108","Seattle","WA","Ligot Training","4803 Beacon Ave S","98108",47.559410095214844,-122.30481719970703
"98108","Seattle","WA","McKinstry Gym","5005 3rd Ave S","98134",47.556646401523665,-122.33147800892831
"98109","Seattle","WA","CorePower Yoga","300 3rd Avenue West","98119",47.6210855,-122.3605155
"98109","Seattle","WA","Barry's Bootcamp","112 Westlake Ave N","98109",47.618863,-122.338204
"98109","Seattle","WA","The Bar Method","124 Westlake Ave N.,","98109",47.619577,-122.338256
"98109","Seattle","WA","The SeattleGYM","1530 Queen Anne Ave N","98109",47.63324627451277,-122.35692101390747
"98109","Seattle","WA","CrossFit Belltown","3025 1st Ave","98121",47.618324918785774,-122.35502833867473
"98109","Seattle","WA","Taylor 28 Fitness Center","100 Taylor Ave N","98109",47.61958461376803,-122.34525871669213
"98109","Seattle","WA","Flywheel Sports - South Lake Union","224 Westlake Ave N Ste 100","98109",47.6205347,-122.3380017
"98109","Seattle","WA","Pilates ProWorks","771 Thomas St","98109",47.620463,-122.34145
"98109","Seattle","WA","Soul Fitness Club","159 Western Avenue West","98119",47.6191889,-122.3589123
"98109","Seattle","WA","Dexter Apartment Gym","1215 Dexter Ave N","98109",47.630104422569275,-122.34270393848419
"98109","Seattle","WA","Univera Fitness Center","3005 1st Ave","98121",47.61772155761719,-122.3544692993164
"98109","Seattle","WA","Riley Athletics","1601 Dexter Ave N","98109",47.63348995298905,-122.34262224357683
"98109","Seattle","WA","Ava Queen Anne Gym","330 3rd Ave W","98119",47.62138372516012,-122.36052906343083
"98109","Seattle","WA","Q Fitness","Lee St","not_available",47.63103885,-122.35717225
"98110","Bainbridge Island","WA","CrossFit 98110","9463 NE Business Park Ln","98110",47.63387590218926,-122.51713022601498
"98110","Bainbridge Island","WA","Gym at the Pavilion","not_available","98110",47.62843555656792,-122.52229980197171
"98110","Bainbridge Island","WA","Bainbridge Athletic Club","11700 Meadowmeer Cir NE","98110",47.628366517900886,-122.52968665964805
"98110","Bainbridge Island","WA","Fusion Fitness Studio","7995 NE Day Rd W Ste B","98110",47.67869567871094,-122.54399108886719
"98110","Bainbridge Island","WA","Suquamish Tribal Gym","not_available","98370",47.70623809726763,-122.57994045824869
"98110","Bainbridge Island","WA","Sue Boyle Homeopath","755 Winslow Way E Ste 105D","98110",47.624607444630364,-122.51164609682007
"98110","Bainbridge Island","WA","Next Step Conditioning Sytems","9727 Coppertop Loop NE Ste 102","98110",47.64812088012695,-122.52474975585938
"98112","Seattle","WA","YMCA","1700 23rd Ave","98122",47.61669944407516,-122.30202561677386
"98112","Seattle","WA","Emerald City CrossFit","2308 E Madison St","98112",47.61951858034859,-122.30209731151875
"98112","Seattle","WA","Denali Fitness","3130 E Madison St #104","98112",47.62696547956247,-122.29161911655228
"98112","Seattle","WA","Fitness Together - Madison Park","4202 E Madison St","98112",47.635926603292816,-122.27817995904464
"98112","Seattle","WA","Strength Studio","not_available","98112",47.62404276830245,-122.30683704927178
"98112","Seattle","WA","GYM - Summit at Madison","Madison","98122",47.618180695058804,-122.30326273945512
"98115","Seattle","WA","Northwest Crossfit","466 NE 70th St","98115",47.679373343259705,-122.3231479937296
"98115","Seattle","WA","Arena Sports - Magnuson","7727 63rd Ave NE","98115",47.686864317360545,-122.26306809871953
"98115","Seattle","WA","GreenLake Fitness","7203 Woodlawn Ave NE","98115",47.68058970536773,-122.32494771136015
"98115","Seattle","WA","Kettlebility","905 NE 65th St","98115",47.67585592707284,-122.31848595182393
"98115","Seattle","WA","Orangetheory Fitness","7317 35th Ave Northeast","98115",47.68170049144538,-122.29048462527301
"98115","Seattle","WA","Little Gym","7777 15th Ave NE","98115",47.68645808004245,-122.31231821923897
"98115","Seattle","WA","UFC Gym of Seattle","6516 Roosevelt Way NE","98115",47.67643,-122.317009
"98115","Seattle","WA","our lady of the lake gym","3520 NE 89th St","98115",47.693518,-122.289323
"98115","Seattle","WA","MCW Health and Fitness","319 NE 72nd St","98115",47.6803231,-122.3249723
"98115","Seattle","WA","Vera Fitness","6845 Oswego Pl NE","98115",47.678905,-122.324003
"98115","Seattle","WA","Community Fitness","2113 NE 65th St","98115",47.67574893482343,-122.30468933284402
"98115","Seattle","WA","grunge city crossfit","9024 20th Ave NE #9030","98115",47.69471740722656,-122.30650329589844
"98115","Seattle","WA","Pure Barre","406 NE 71st St","98115",47.680114,-122.324032
"98116","Seattle","WA","LA Fitness","3900 SW Alaska St","98116",47.561259173982286,-122.38180034366573
"98116","Seattle","WA","Row House","4203 SW Oregon St","98116",47.5627792,-122.3855151
"98116","Seattle","WA","CrossFit Loft","4142 California Ave SW Seattle‎ Washington‎ 98116 United States","98116",47.56521732889811,-122.38627995303189
"98116","Seattle","WA","Caroll St Stairs","4024 58th Pl SW","98116",47.567678,-122.407372
"98116","Seattle","WA","Crossfit Loft","4142 California Ave SW","98116",47.56524,-122.386486
"98116","Seattle","WA","Fitness Revolution West Seattle","4517 California Ave SW Ste A","98116",47.562381744384766,-122.38717651367188
"98116","Seattle","WA","equilibrium fitness","3270 California Ave SW","98116",47.573665618896484,-122.38639831542969
"98116","Seattle","WA","Snap Fitness","4714 42nd Ave SW","98116",47.56052472734443,-122.3854130117261
"98116","Seattle","WA","YogaSix","4755 Fauntleroy Way SW Ste 140","98116",47.56019973754883,-122.3822250366211
"98116","Seattle","WA","Anytime Fitness","2222 California Ave. SW.","98116",47.58329,-122.38606
"98116","Seattle","WA","Allstar Fitness","not_available","98136",47.56415888726725,-122.40012576347401
"98116","Seattle","WA","The Gym at Altamira Apartments","4540 42nd Ave SW","98116",47.56153106689453,-122.38522338867188
"98116","Seattle","WA","Gym @ Link Apts","4550 38th Ave SW","98126",47.56126077033438,-122.3794985394957
"98116","Seattle","WA","Fitness Together - West Seattle","4546 California Ave SW","98116",47.56151846405671,-122.38641261801023
"98116","Seattle","WA","Project 968","4617 37th Ave SW","98126",47.561521,-122.37903700000001
"98117","Seattle","WA","The Gym Downstairs","not_available","98117",47.691842,-122.363704
"98117","Seattle","WA","Ballard Crossfit","6419 15th Ave NW","98107",47.67550277709961,-122.3766098022461
"98118","Seattle","WA","Rainier Health and Fitness","7722 Rainier Ave S","98118",47.53645369627841,-122.27382618726848
"98118","Seattle","WA","The Station At Othello Park Parkside Gym","not_available","98118",47.53666466535679,-122.27959903001961
"98118","Seattle","WA","Planet Fitness","9000 Rainier Ave S","98118",47.52271860081749,-122.26816554814735
"98118","Seattle","WA","Rocket Community Fitness","5720 Rainier Ave S","98118",47.55068504977225,-122.27709496537375
"98118","Seattle","WA","Columbia City Fitness Center","4860 Rainier Ave S #B","98118",47.55838986364289,-122.28524937406367
"98118","Seattle","WA","Angeline Apartments","4801 Rainier Avenue South","98118",47.55931702,-122.28654402
"98118","Seattle","WA","CrossFit RE","4243 Rainier Ave S","98118",47.56428632956585,-122.2886600517248
"98118","Seattle","WA","Bowflex Central","3934 S Brandon St","98118",47.553618,-122.281879
"98119","Seattle","WA","The Little Gym of Interbay","2213 15th Ave W","98119",47.63916048692152,-122.37638120659683
"98119","Seattle","WA","FPR Gym","200 W Thomas St","98119",47.62137222290039,-122.35972595214844
"98119","Seattle","WA","Northwest Fitness & Conditioning","1631 15th Ave W Ste 121","98119",47.634849548339844,-122.37673950195312
"98119","Seattle","WA","Darwin's Fitness Center","1201 Amgen Ct W","98119",47.62837600708008,-122.37477111816406
"98119","Seattle","WA","Church Gym","3200 3rd Ave W","98119",47.649284,-122.360401
"98119","Seattle","WA","Archstone","312 2nd Ave W","98119",47.621482,-122.35899199999999
"98119","Seattle","WA","Anytime Fitness Queen Anne","110 W Galer St","98119",47.6325012,-122.3589527
"98119","Seattle","WA","Gym At Metro on First","215 1st Ave W","98119",47.620109,-122.358395
"98119","Seattle","WA","magnolia health and fitness","3019B 24th Ave W","not_available",47.647408,-122.387444
"98119","Seattle","WA","F5 Fitness Center","333 Elliott Ave W","98119",47.62096608229932,-122.36187703353475
"98119","Seattle","WA","NW CrossFit - Interbay","2001 15th Ave W Ste C","98119",47.63718919999999,-122.3770471
"98121","Seattle","WA","Gym at The Gallery","2911 2nd Ave","98121",47.61766695841407,-122.35230955227586
"98121","Seattle","WA","Concord Condo Gym","2929 1st Ave","98121",47.617187,-122.353403
"98121","Seattle","WA","2900 on First Apartments","2900 1st Ave,","98121",47.61748,-122.353143
"98121","Seattle","WA","Metropolitan Tower Gym","1942 Westlake Ave","98101",47.614306342499816,-122.33816061585125
"98121","Seattle","WA","EBP Phase 2 Gym","2415 Western Ave","98121",47.613905957110454,-122.34926496137595
"98121","Seattle","WA","The McGuire Gym","210 Wall Street","98121",47.615840911865234,-122.34809112548828
"98121","Seattle","WA","818 Stewart Fitness Center","818 Stewart St","98101",47.615668091739856,-122.33504391485637
"98122","Seattle","WA","Rain City Fit","1205 E Pike St","98122",47.613925,-122.316422
"98122","Seattle","WA","Foundation CrossFit","1415 12th Ave","98122",47.61356548262911,-122.31730881933828
"98122","Seattle","WA","Anytime Fitness","1700 E Madison Suite B","98122",47.61629,-122.30996
"98122","Seattle","WA","Mode of Fitness Gym","1410 14th Ave","98122",47.61327802014488,-122.31406530293916
"98122","Seattle","WA","Curves-Leschi","200 Lake Washington Blvd","98122",47.602959000000006,-122.28419199999999
"98122","Seattle","WA","Urban Fit Studios","1500 Summit Ave","98122",47.61591082773579,-122.32364592032103
"98122","Seattle","WA","Fitness4Life","2318 E Cherry St","98122",47.608253999999995,-122.301928
"98122","Seattle","WA","Davis Fitness Method","1516 11th Ave","98122",47.614753,-122.31784383
"98122","Seattle","WA","The Onyx Gym","1125 E Olive St","98122",47.616172790527344,-122.31727600097656
"98122","Seattle","WA","Parkview Plaza Gym","1101 Seneca St","98101",47.610705564686675,-122.32596158981323
"98122","Seattle","WA","Phred's Jym","1465 22nd Ave","98122",47.614827000000005,-122.303851
"98125","Seattle","WA","CrossFit MKG","1557 NE 145th St","98155",47.70726270342889,-122.32200261951584
"98125","Seattle","WA","LA Fitness","12015 31st Ave NE","98125",47.716210865175135,-122.29572568581824
"98125","Seattle","WA","MKG Seattle","10714 5th Ave NE","98125",47.70732706107779,-122.32209531512461
"98125","Seattle","WA","Cormaster Fitness","12504 Lake City Way NE","98125",47.719611,-122.294551
"98125","Seattle","WA","Fit Life","not_available","98125",47.706017,-122.2855
"98125","Seattle","WA","Gym-Executive Estates","1227 NE 143rd St","98125",47.73160934448242,-122.31404113769531
"98125","Seattle","WA","Slate CrossFit","2701 NE 127th St","98125",47.7209826520902,-122.29876843877867
"98126","Seattle","WA","The Little Gym West Seattle","7025 California Ave SW","98136",47.54005572312155,-122.3875189969915
"98126","Seattle","WA","West Seattle YMCA","4515 36th Ave SW","98126",47.56230140664524,-122.37798654903602
"98126","Seattle","WA","Morgan Junction CrossFit","5659 California Ave SW","98136",47.54923048028588,-122.39152680004736
"98126","Seattle","WA","Mickey's Seattle Gym","not_available","98126",47.551891,-122.379339
"98126","Seattle","WA","Sweat! A Private & Small Group Training Studio","9131 California Ave SW","98136",47.521907806396484,-122.38848114013672
"98133","Seattle","WA","LA Fitness","13244 Aurora Ave N","98133",47.72622097816073,-122.34335548155298
"98133","Seattle","WA","Orangetheory Fitness - Shoreline","18336 Aurora Ave N","98133",47.7622235450434,-122.34489402893323
"98133","Seattle","WA","CKO Kickboxing","15901 Westminster Way N","98133",47.744707,-122.346259
"98133","Seattle","WA","CrossFit North Seattle","907 N 135th St","98133",47.72654637607341,-122.34741298100369
"98133","Seattle","WA","Get Strong First","19022 Aurora Ave N Ste B","98133",47.767691,-122.345264
"98133","Seattle","WA","Tressa Residential Gym","14100 Linden Ave N","98133",47.731722999999995,-122.346857
"98133","Seattle","WA","Nexus Hotel Gym","not_available","98133",47.709191,-122.332037
"98133","Seattle","WA","Aurora Village Physical Therapy","1207 N 200th St Ste 103","98133",47.773596999999995,-122.344022
"98133","Seattle","WA","Jazzercise","10303 Aurora Ave N","98133",47.703802,-122.345146
"98133","Seattle","WA","Lindon Square Fitness Room","13530 Linden Ave N","98133",47.72818374633789,-122.34685516357422
"98133","Seattle","WA","Paladino Strength","16312 Fremont Ave N","98133",47.74726104736328,-122.35050964355469
"98134","Seattle","WA","SPD Gym","not_available","98121",47.583188153497865,-122.32283484932019
"98134","Seattle","WA","CrossFit RE SODO","2920 6th Ave S","98134",47.576844,-122.325317
"98134","Seattle","WA","USCG Base Seattle Gym/MWR","1519 Alaskan Way S","98134",47.5895881652832,-122.33980560302734
"98134","Seattle","WA","Studio 206","3100 Airport Way S","98134",47.57502484483752,-122.32101808413086
"98134","Seattle","WA","Wheeler Fitness","605 5th Ave S","98104",47.59708786010742,-122.32855987548828
"98134","Seattle","WA","Parkour Visions","2600 Airport Way S","98134",47.5796556323932,-122.32106328420066
"98134","Seattle","WA","Cue CrossFit","902 1st Avee S","98134",47.59466041884601,-122.33403781070136
"98134","Seattle","WA","Tin Can Studio","3130 Airport Way S #510","98134",47.576358795166016,-122.32050323486328
"98134","Seattle","WA","Silver Cloud Hotel Fitness Center","not_available","98122",47.5925848770787,-122.33390746327764
"98134","Seattle","WA","Seattle Fitness","83 S King St","98104",47.59804063573383,-122.33424351342418
"98144","Seattle","WA","Seattle Bouldering Project","900 Poplar Pl S","98144",47.59350528645206,-122.31092469333515
"98144","Seattle","WA","Ridge Fitness","1414 31st Ave S #103","98144",47.589982859517384,-122.29230309090065
"98144","Seattle","WA","Seattle Kettlebell Club","1716 21st Ave S","98144",47.58781534765079,-122.30482578277588
"98144","Seattle","WA","Cappy's Boxing Gym","1408 22nd Ave","98122",47.59924095956592,-122.29826519897394
"98144","Seattle","WA","F45 Training Seattle Central District","400 18th Avenue South","98144",47.599163,-122.308406
"98144","Seattle","WA","Legacy At Pratt Park Gym","1800 S Jackson St","98144",47.599666595458984,-122.30831146240234
"98144","Seattle","WA","Curves","402 Jackson","98144",47.599,-122.30305600000001
"98144","Seattle","WA","Nikkfit Mount Baker","Mount Baker","98144",47.57779226585245,-122.2877181849284
"98144","Seattle","WA","Every Body Health & Fitness","2609 S Jackson St","98144",47.599173,-122.298258
"98146","Seattle","WA","Pixie Pirate  Gym","12269 3rd Ave SW","98146",47.492618560791016,-122.33840942382812
"98148","Seattle","WA","Raw Fitness","not_available","98166",47.465592,-122.335977
"98148","Seattle","WA","Discovery Landing Gym","not_available","98148",47.465310642714954,-122.32391088814686
"98148","Seattle","WA","Freedom Fitness","15830 1st Ave S","98148",47.461270179197136,-122.33253080854836
"98148","Seattle","WA","Normandy Park Athletic Club","9901 1st Ave S #401","98148",47.42367192704497,-122.33707627033428
"98148","Seattle","WA","Curves","17694 1st Ave S","98148",47.44248626500219,-122.33392906904547
"98148","Seattle","WA","ATA Black Belt Academy","128 SW 153rd St","98166",47.46612431891895,-122.33517849103728
"98154","Seattle","WA","Safeco Plaza Gym","1001 4th Ave","98154",47.606125,-122.333856
"98155","Seattle","WA","CrossFit Paramount","20021 Ballinger Way NE #C1","98155",47.77424240112305,-122.31051635742188
"98155","Seattle","WA","briarcrest gym","2990 30th St.","not_available",47.742704,-122.296963
"98155","Seattle","WA","The Bloodworks","not_available","98155",47.77352513429754,-122.31176363534277
"98155","Seattle","WA","Curves","17171 Bothell Way NE Ste A012B","98155",47.753964,-122.28000700000001
"98155","Seattle","WA","Spartan Gym","18560 1st Ave NE","98155",47.76459944844919,-122.32721515804676
"98155","Seattle","WA","Out of Bounds CrossFit","14712 Bothell Way NE","98155",47.736019,-122.29189199999999
"98158","Seattle","WA","Gym At The Hilton Airport","S 180th St","98188",47.44455576700094,-122.29484839177084
"98166","Seattle","WA","Pro Fitness","14635 9th Ave SW","98166",47.47134692858794,-122.34611157928069
"98166","Seattle","WA","LA Fitness","14905 4th Ave SW","98166",47.469618353680445,-122.34097687660818
"98166","Seattle","WA","Simply Fit","14400 Ambaum Blvd SW","98166",47.47356033325195,-122.34644317626953
"98166","Seattle","WA","Highline Athletic Club","125 S 156th St","98148",47.453546918868675,-122.35733550613506
"98166","Seattle","WA","Crossfit Burien","819 SW 152nd St","98166",47.46658420588825,-122.34509990772028
"98168","Seattle","WA","South Sound Athletics","2450 S 142nd St","98168",47.4777,-122.29923600000001
"98168","Seattle","WA","The Gym","not_available","98168",47.48991799385866,-122.27201243929981
"98168","Seattle","WA","Group Health AMB Fitness Center","12400 E Marginal Way S","98168",47.49215983942848,-122.28385610475762
"98168","Seattle","WA","The Lord's Gym","3455 S 148th St","98168",47.4700927734375,-122.28733825683594
"98168","Seattle","WA","Trinity Health Gym","16400 Southcenter Pkwy Ste 208","98188",47.46492678966821,-122.26337394871469
"98168","Seattle","WA","Oxbow Activity Center","10500 W Marginal Place S","98108",47.50790988887301,-122.29363594365941
"98168","Seattle","WA","Iron Moxie","10453 19th Ave S","98168",47.50877380371094,-122.30895233154297
"98188","Seattle","WA","The Gym @ Sunset Station","3351 S 175th St","98188",47.44577,-122.29016299999999
"98198","Seattle","WA","Planet Fitness","27073 Pacific Hwy S","98198",47.35917200435514,-122.31253904312624
"98198","Seattle","WA","Waterland Crossfit","22236 7th Ave S","98198",47.40205383300781,-122.3255386352539
"98198","Seattle","WA","Anytime Fitness","21819 Marine View Dr S","98198",47.40640794232613,-122.32572957873343
"98198","Seattle","WA","Fitness Center Skyline Park Apartments","3322 Military Rd","98032",47.40009689331055,-122.28978729248047
"98199","Seattle","WA","Moffett Personal Training Studio","3216 W Lynn St","98199",47.639326000000004,-122.398987
"98199","Seattle","WA","UPS Access Point location","2438 32ND AVE W","98199",47.64090347290039,-122.39794921875
"98199","Seattle","WA","Next Level - Personal Training Studio","2560 32nd Ave W","98199",47.642462,-122.397927
"98199","Seattle","WA","Curves","2821 NW Market St Ste F","98107",47.668146,-122.39438999999999
"98201","Everett","WA","PEAK Health & Fitness","2902 Rucker Ave","98201",47.97930424400293,-122.21185981583741
"98201","Everett","WA","PR Lifting Quality Fitness Gear","3402 Everett Ave","98201",47.98139953613281,-122.18495178222656
"98201","Everett","WA","Vertical World Everett","2820 Rucker Ave","98201",47.97988089143114,-122.21181032861398
"98201","Everett","WA","Frontier Fitness Center","not_available","98208",47.962139804283225,-122.20583879634512
"98201","Everett","WA","Run 2 Be Fit","2316 12th St","98201",48.000769,-122.1973
"98201","Everett","WA","Pilates By The Bay","2717 Rockefeller Ave","98201",47.98114647423703,-122.20558256104128
"98201","Everett","WA","Engineered Sports Therapy","2205 Wall St, Everett, WA 98201","98201",47.978281509036435,-122.19974056748353
"98201","Everett","WA","Naval Station Everett Gym","W Marine View Dr","98207",47.99319663031067,-122.21797495043735
"98201","Everett","WA","City of Everett exercise facilities","3101 Cedar St","98201",47.9764518737793,-122.19345092773438
"98201","Everett","WA","YMCA","2720 Rockefeller Ave","98201",47.981121333984596,-122.20593379746808
"98201","Everett","WA","Laces Baseball Academy","not_available","98201",47.981123,-122.202054
"98203","Everett","WA","Planet Fitness - Temporarily Closed","7621 Evergreen Way","98203",47.927522,-122.219416
"98203","Everett","WA","The Little Gym","7207 Evergreen Way","98203",47.93238398680835,-122.21930684046538
"98203","Everett","WA","Boeing, Gym","3003 W Casino Rd","98204",47.92246809121511,-122.27201700210571
"98203","Everett","WA","Elegant Dance","1500 Industrial Street","not_available",47.940545,-122.254344
"98203","Everett","WA","MCOB Fitness Center","7100 Hardeson Rd","98203",47.933753967285156,-122.25223541259766
"98203","Everett","WA","View Ridge Athletic Club","4120 Elm","98203",47.95815138885106,-122.25509964152252
"98203","Everett","WA","PUD Fitness Center","1802 80th","98203",47.92709467154476,-122.25683553467522
"98203","Everett","WA","Fluke Park Gym","6920 Seaway Blvd","98203",47.9349365234375,-122.26702117919922
"98203","Everett","WA","Pro.FIT.Rx","7425 Hardeson Rd Ste C","98203",47.930204,-122.24756
"98203","Everett","WA","Hearthstone Fitness Center","1901 Merrill Creek Pkwy","98203",47.94268798828125,-122.2591323852539
"98204","Everett","WA","Emerald City Athletics","10110 Evergreen Way","98204",47.90594918155632,-122.24400093609657
"98204","Everett","WA","The Fitness Pointe","11524 Mukilteo Speedway","98037",47.893517,-122.28857199999999
"98204","Everett","WA","Quality Fitness","8221 44th Ave W Ste E","98275",47.92345,-122.2932
"98204","Everett","WA","iLoveKickboxing - Everett, WA","505 SE Everett Mall Way #3","98208",47.9106469,-122.2258277
"98208","Everett","WA","TMC To Health, LLC","13820 64th Dr SE","98296",47.871573,-122.147312
"98208","Everett","WA","Snohomish County Strength","3723 125th Pl SE","98208",47.884098052978516,-122.18152618408203
"98208","Everett","WA","Charter Club Gym","1701 121st St SE","98208",47.888687,-122.21083700000001
"98208","Everett","WA","LA Fitness","1402 SE Everett Mall Way Ste 138","98208",47.90918861767263,-122.21276321906292
"98221","Anacortes","WA","Unstoppable Personal Fitness","1005 Commercial Ave Ste 3B","98221",48.513980865478516,-122.61216735839844
"98221","Anacortes","WA","Rick's Gym","2013 12th St","98221",48.51250457763672,-122.6292724609375
"98221","Anacortes","WA","Bayside Fitness Gym","8212 S March Point Rd","98221",48.46238486309349,-122.5665487149509
"98223","Arlington","WA","PA Fitness","3131 Smokey Point Dr","98223",48.15529251098633,-122.18758392333984
"98223","Arlington","WA","Stillaguamish Athletic Club","4417 172nd St NE","98223",48.152531298823305,-122.16768648632792
"98223","Arlington","WA","Anytime Fitness","11515 State Ave.","98271",48.0995,-122.17362
"98223","Arlington","WA","PA Fitness","13319 38th Ave NE","98271",48.116309976120846,-122.17994112798081
"98223","Arlington","WA","Zombieland","not_available","98223",48.159589,-122.185401
"98223","Arlington","WA","Anytime Fitness","104 S Olympic Ave","98223",48.192172590705155,-122.12701410055159
"98223","Arlington","WA","Linda's Place","8624 55th Ave NE","98270",48.0740852355957,-122.15717315673828
"98223","Arlington","WA","Golds gym","101 s adler ave","98252",48.082977294921875,-121.96449279785156
"98223","Arlington","WA","The Underground Sanctuary","not_available","98292",48.250341741098985,-122.1419237511894
"98223","Arlington","WA","Body & Mind Fitness","4205 177th Pl NE","98223",48.157559,-122.17343600000001
"98225","Bellingham","WA","Glow Fitness","436 W Bakerview Rd","98226",48.791204,-122.496348
"98225","Bellingham","WA","Bellingham Fitness","1730 N State St","98225",48.75300654619479,-122.4695042395736
"98225","Bellingham","WA","Fitness Gear & Training","1605 N State St","98225",48.75213689442739,-122.47189864603274
"98225","Bellingham","WA","Whatcom Family YMCA","1256 N State St","98225",48.748318396429475,-122.47710232329044
"98225","Bellingham","WA","Alya's Gym","not_available","98225",48.73399392717371,-122.48716420325195
"98225","Bellingham","WA","Bellingham Athletic Club","4191 Meridian St","98226-5594",48.79320649963869,-122.4867438321201
"98225","Bellingham","WA","City Gym","4152 Meridian St Ste 219","98226",48.79197267941636,-122.4855216086171
"98225","Bellingham","WA","Brampton Court Recreation Center/Pool","1470 Birchwood Ave","98225",48.77556610107422,-122.49219512939453
"98225","Bellingham","WA","Springhill Suites Fitness Center","4040 Northwest Ave","98226",48.788429260253906,-122.505859375
"98225","Bellingham","WA","Anytime Fitness","115 W Kellogg Rd","98226",48.79492,-122.48681
"98225","Bellingham","WA","Bellingham Athletic Club","1616 Cornwall Ave","98225",48.753517521372444,-122.4745413456308
"98225","Bellingham","WA","Love To Zumba","311 E Holly St","98225",48.748191833496094,-122.47620391845703
"98225","Bellingham","WA","Jogo CrossFit","101 - 122 Ohio St","98225",48.75493317720142,-122.47375121223305
"98226","Bellingham","WA","Victorious Crossfit","not_available","98226",48.764293935084254,-122.4563925830876
"98226","Bellingham","WA","Thrive","not_available","98248",48.84329475039697,-122.58260745621769
"98226","Bellingham","WA","Lummi Youth Rec Gym.","Kwina Rd.","98226",48.79483,-122.61645
"98226","Bellingham","WA","Lex Bannister Fitness","1420 Meador Ave Ste K-101","98229",48.75310516357422,-122.45487976074219
"98226","Bellingham","WA","Gold's Gym","1504 Iowa St","98229",48.75578493547342,-122.45490174027405
"98226","Bellingham","WA","CrossfitX","2031 Grant St","98225",48.77206681528035,-122.44790786405649
"98226","Bellingham","WA","Dragon Den","2834 Nevada St","98226",48.767796000000004,-122.45876200000001
"98226","Bellingham","WA","Fitness Evolution - Bellingham","1504 Iowa St.","98229",48.7558500136578,-122.45500755615171
"98226","Bellingham","WA","Flex Movement Lab","2044 Main St","98248",48.84716796875,-122.59178924560547
"98226","Bellingham","WA","Everyday fitness","1920 Main St","98248",48.84548,-122.58598
"98230","Blaine","WA","Beachwood Resort","5001 Bay Rd","98230",48.90629382634581,-122.75514357372009
"98230","Blaine","WA","Anytime Fitness","8115 Birch Bay Sq St","98230",48.93574784,-122.6654425
"98230","Blaine","WA","Everyday Fitness","1600-1692 Grant Ave","98230",48.99309305855884,-122.73230624842734
"98230","Blaine","WA","Fit Pit","not_available","98230",48.888815,-122.732207
"98230","Blaine","WA","Custom Fit 360","7056 Portal Way, Suite C5","98248",48.89778137207031,-122.60906982421875
"98230","Blaine","WA","Curves","8115 Birch Bay Square St","98230",48.935766,-122.665466
"98230","Blaine","WA","Anytime Fitness","5905 Portal Way","98248",48.85629,-122.58933
"98233","Burlington","WA","Planet Fitness - Temporarily Closed","125 Cascade Mall Dr","98233",48.4660597,-122.3365133
"98233","Burlington","WA","Mt Baker Crossfit","1635 S Walnut St","98233",48.45563507080078,-122.33180236816406
"98233","Burlington","WA","Tim's Gym","not_available","98233",48.475918,-122.33079
"98236","Clinton","WA","Family Care Fitness Center - Clinton","11042 State Route 525 #226","98236",47.99077953672107,-122.39316234603407
"98237","Concrete","WA","Riverside Gym East","not_available","98284",48.51757844,-121.90612864
"98239","Coupeville","WA","Port Townsend Athletic Club","229 Monroe St","98368",48.116429,-122.75330100000001
"98239","Coupeville","WA","Port Townsend Zumba","1919 Blaine St","98368",48.115028381347656,-122.7718734741211
"98239","Coupeville","WA","Fitness Center","not_available","98239",48.214135873258876,-122.68663472003776
"98239","Coupeville","WA","Work Your Body Class","1100-1198 Lawrence St","98368",48.116987783333336,-122.762091
"98245","Eastsound","WA","Orcas Spa & Athletics","18 A Rd","not_available",48.696493,-122.90848799999999
"98247","Everson","WA","Cross Fit","not_available","98247",48.923127512755364,-122.32854180956701
"98247","Everson","WA","Anytime Fitness","6918 Hannegan Rd","98264",48.892307,-122.44129699999999
"98248","Ferndale","WA","Cantrelle Cardio Center","not_available","98264",48.934267858873554,-122.51015803487422
"98248","Ferndale","WA","Club Barbell","1420 Pacific Pl","98248",48.828138,-122.556702
"98248","Ferndale","WA","Lummi Fitness Center","2616  Chief Kwina Rd","98248",48.794247983333335,-122.62211181666666
"98248","Ferndale","WA","CROSSFIT LYNDEN","164 Bay Lyn Drive Suite D","98264",48.9341948,-122.4889936
"98249","Freeland","WA","Gymapalooza Gym","2583 Hillis Dr","98260",48.00714111328125,-122.47539520263672
"98249","Freeland","WA","Gymnastic Gym","not_available","98260",48.007075,-122.475485
"98252","Granite Falls","WA","Retro Fitness Toms River","not_available","98290",47.98185348510742,-122.02020263671875
"98252","Granite Falls","WA","All In Cross fit","not_available","98258",48.02318572998047,-122.04278564453125
"98258","Lake Stevens","WA","Anytime Fitness","25 95th Dr NE Ste 107","98258",47.99670752,-122.102557
"98258","Lake Stevens","WA","The Loop Fitness","3304 Old Hartford Rd","98258",48.02753,-122.0585399
"98258","Lake Stevens","WA","TeamFitness","1109 Frontier Cir E","98258",48.00632887794606,-122.1077251048395
"98258","Lake Stevens","WA","Zumba","9805 31st Pl NE, Lake Stevens, WA 98258","98258",48.024513244628906,-122.09915161132812
"98258","Lake Stevens","WA","Lake Stevens Athletic Club","1904 125th Ave NE","98258",48.014984223084475,-122.06255008574573
"98264","Lynden","WA","Homestead Fitness Center","101 Homestead Blvd","98264",48.960233286869595,-122.45070977395915
"98264","Lynden","WA","Lynden YMCA","145-233 Drayton St","98264",48.948562,-122.449087
"98264","Lynden","WA","CrossFit i1uvit","873 Hinotes Ct","98264",48.894134521484375,-122.44408416748047
"98264","Lynden","WA","Anytime Fitness","111 North 17th St","98264",48.94046,-122.4699
"98270","Marysville","WA","Journey Fitness","6432 Armar Rd","98270",48.05477780226732,-122.16647420220345
"98270","Marysville","WA","YMCA","6420 60th Dr NE","98270",48.05473504542778,-122.15020535601609
"98270","Marysville","WA","Crossfit Marysville","Columbia Ave.","98270",48.05192995476444,-122.1841272860979
"98270","Marysville","WA","Journey Fitness LLC","Marysville","98270",48.066035091275545,-122.15691804885864
"98270","Marysville","WA","PA Fitness - Downtown","1052 State Ave","98270",48.05913739136734,-122.17567565020293
"98270","Marysville","WA","Room 407","4923 67th St NE","98270",48.058902,-122.16436000000002
"98270","Marysville","WA","Winterhill Gym","not_available","98270",48.057897138374614,-122.1537365606921
"98271","Marysville","WA","Tulalip Warrior","not_available","98271",48.067464,-122.293598
"98272","Monroe","WA","Pursuit Fitness","14925 Chain Lake Rd","98272",47.861582823222285,-121.96833165154533
"98272","Monroe","WA","YMCA","14033 Fryelands Blvd SE","98272",47.870708069449556,-122.00844228607933
"98272","Monroe","WA","Petri Gym","20416 Welch Rd","98296",47.81121826171875,-122.04615020751953
"98272","Monroe","WA","Pump & Grunt","Robb's super secret weight lifting gym. Sissys need not apply. Spitting not optional, it's required!","not_available",47.865556,-121.96274
"98272","Monroe","WA","Morning Run Fitness Center","18463 Blueberry Ln","98272",47.859466552734375,-121.98411560058594
"98272","Monroe","WA","JB Fitness","509 Main Street","98294",47.86255346015535,-121.81452324388593
"98272","Monroe","WA","Thrive Community Fitness","118 N Lewis St","98272",47.85348806651186,-121.98582914895348
"98272","Monroe","WA","MCC Weight Deck","not_available","98272",47.847025,-122.002087
"98273","Mount Vernon","WA","Anytime Fitness","205 W Stewart Rd","98273",48.44334,-122.34349
"98273","Mount Vernon","WA","Crossfit","2464 E Blackburn Rd","98274",48.405724,-122.309475
"98273","Mount Vernon","WA","Emily Zumba","not_available","98273",48.439892428566694,-122.3362481755603
"98273","Mount Vernon","WA","Riverside Health Club","2225 Riverside Dr","98273",48.441663607664715,-122.33582106204106
"98273","Mount Vernon","WA","Competitve Edge","1809 Railroad Ave","98273",48.408061,-122.335475
"98273","Mount Vernon","WA","Urban Fitness","525 E College Way Ste A1","98273",48.436107013063534,-122.33294445887583
"98275","Mukilteo","WA","Lift To Lose Fitness, Mukilteo","304 Lincoln Ave","98275",47.945661,-122.30270900000001
"98275","Mukilteo","WA","Mukilteo Boys & Girls Club","1134 2nd St","98275",47.94901323769873,-122.29436836358812
"98277","Oak Harbor","WA","NAS Whidbey Fitness Center","3755 N. Wasp Street, Bldg. 117","not_available",48.346069426822154,-122.6749642346386
"98277","Oak Harbor","WA","Mt Baker CrossFit-Whidbey Island","1640 NE Goldie St","98277",48.311378479003906,-122.64403533935547
"98277","Oak Harbor","WA","Planet Fitness","32165 State Rte 20","98277",48.297555634765025,-122.65666994246675
"98277","Oak Harbor","WA","Excalibur Gym","181-199 NW 1st Ave","98277",48.30092523333333,-122.6426084
"98277","Oak Harbor","WA","Bella's ZUMBA & Fitness Center","not_available","98277",48.28402307982381,-122.67007839270752
"98277","Oak Harbor","WA","Crossfit Oak Harbor","1080 SE Pioneer Way","98277",48.28982925415039,-122.6443099975586
"98277","Oak Harbor","WA","North End Fitness Center","2800(A) NE Goldie Street","98277",48.321502685546875,-122.64604949951172
"98282","Camano Island","WA","Camano Island Fitness","370 NE Camano Dr, Ste 4","98282",48.224039000000005,-122.47375100000001
"98284","Sedro Woolley","WA","Riverside Health Club Sedro Woolley","632 Sunset Park Dr","98284",48.501772116666665,-122.25375105
"98284","Sedro Woolley","WA","Anytime Fitness","922 3rd St","98284",48.502594,-122.237848
"98290","Snohomish","WA","Boys & Girls Club","402 2nd St","98290",47.91297596302787,-122.08736106105489
"98290","Snohomish","WA","Rivertown Crossfit","1910 Bickford Ave","98290",47.935009,-122.106454
"98290","Snohomish","WA","Anytime Fitness","2603 Bickford Ave Ste C","98290",47.942359,-122.10783500000001
"98290","Snohomish","WA","Life & Elite Fitness CO","19126 WA-9","98296",47.823842,-122.137331
"98290","Snohomish","WA","Team Fitness","825 Avenue D","98290",47.92198459285765,-122.09664921577145
"98290","Snohomish","WA","Snohomish Fitness Center","707 Pine Ave Ste B","98290",47.92095821641628,-122.0855927467346
"98292","Stanwood","WA","Studio Z","7009 265th St NW","98292",48.237823486328125,-122.32640838623047
"98292","Stanwood","WA","Anytime Fitness","7104 265th St NW Ste 130","98292",48.23648985,-122.3272862
"98310","Bremerton","WA","Planet Fitness - Temporarily Closed","4310 Wheaton Way","98310",47.604827548435374,-122.62743676480409
"98310","Bremerton","WA","Marcella's Gym","not_available","98310",47.594831,-122.644084
"98310","Bremerton","WA","OC - Bremer Student Center","1199-1101 15th St.","98337",47.57628392734667,-122.63572778996208
"98310","Bremerton","WA","Home Gym","not_available","98337",47.57641850872736,-122.63751658348595
"98310","Bremerton","WA","Westcoast Fitness","5881 State Highway 303 NE","98311",47.61618121194417,-122.62981620323788
"98310","Bremerton","WA","Pine Ridge Gym","3232 Pine Rd NE, Bremerton, WA 98310","98310",47.59326934814453,-122.63863372802734
"98310","Bremerton","WA","Bremerton R/C Raceway","11123 M Wycoff Ave","not_available",47.571784,-122.654692
"98310","Bremerton","WA","safe gym","not_available","98311",47.62118581666667,-122.62885501666666
"98310","Bremerton","WA","Snap Fitness","1600 NE Roseway Ln","98311",47.60889584575942,-122.6290847670416
"98310","Bremerton","WA","Fairfield Inn Gym","239 4th St","98337",47.565622258145325,-122.62449589677337
"98310","Bremerton","WA","NHB Gym","Bremerton Naval Hospital","98312",47.577763679957556,-122.64627130502444
"98311","Bremerton","WA","Crunch Fitness - Silverdale","9577 Ridgetop Blvd NW","98383",47.65669,-122.67806
"98311","Bremerton","WA","Olympic Village Clubhouse","1302 NE Mount Constance Ln","98311",47.631747,-122.63233643
"98311","Bremerton","WA","Silverdale Fitness","2021 NW Myhre Pl","98383",47.659995282142454,-122.681704655765
"98311","Bremerton","WA","*Weights* @ the Y","not_available","98383",47.652469635009766,-122.687744140625
"98311","Bremerton","WA","The Reserve","1255 NW Mirage Ln","98383",47.65331302268924,-122.66919191283081
"98311","Bremerton","WA","Fitness Center","11153 Shipside Ln NW","98383",47.663026,-122.668567
"98311","Bremerton","WA","Total Solution Gym (in IBM)","1400 NE McWilliams Rd","98311",47.622291564941406,-122.6312026977539
"98312","Bremerton","WA","The Factory Fitness Center","4940 Auto Center Blvd","98312",47.561288,-122.679892
"98312","Bremerton","WA","Bldg 467 Gym","467 W St","98314",47.55672073364258,-122.64717864990234
"98312","Bremerton","WA","PSNS gym","823-865 Barclay St","98337",47.56071536301812,-122.65176940393307
"98312","Bremerton","WA","Curves","1950Pottery Ave","98366",47.51880506962889,-122.65283757295956
"98312","Bremerton","WA","GYM","9315 NW Holly Rd","98312",47.602886,-122.77355800000001
"98312","Bremerton","WA","Concourse West Fitness & Aquatics Center","Sampson Ave","98337",47.56072630722054,-122.65180207359515
"98312","Bremerton","WA","Arbor Terrace Gym","1800 Sidney Ave","98366",47.520584,-122.64641599999999
"98312","Bremerton","WA","Rain City Crossfit","1215 Charleston Beach Rd W","98312",47.552889,-122.661906
"98312","Bremerton","WA","silverdale crossfit","9535 Provost Rd Nw","not_available",47.648768,-122.707552
"98315","Silverdale","WA","Nbk Racket Ball Court","not_available","98315",47.72442,-122.719277
"98327","Dupont","WA","Intel Fitness Center","not_available","98327",47.111651529145114,-122.63295508637822
"98327","Dupont","WA","Anytime Fitness","2620 Williamson Pl NW","98327",47.10739,-122.62372
"98332","Gig Harbor","WA","Westsound Crossfit","10421 Burnham Dr NW #3","98332",47.35450744628906,-122.60934448242188
"98332","Gig Harbor","WA","Harbor Fit","not_available","98332",47.338595,-122.590581
"98332","Gig Harbor","WA","better.","3308 Uddenberg Ln","98335",47.32727813720703,-122.58194732666016
"98332","Gig Harbor","WA","Harbor Fit","8805 N Harborview Dr, Gig Harbor, WA 98332","98332",47.338462829589844,-122.59046173095703
"98335","Gig Harbor","WA","Anytime Fitness","5275 Olympic Dr NW","98335",47.30645986,-122.5831848
"98335","Gig Harbor","WA","iLoveKickboxing.com - Gig Harbor","3201 Jahn Ave NW #104","98335",47.287477669450965,-122.56230693892762
"98335","Gig Harbor","WA","I Love Kickboxing - Gig Harbor","3201 Jahn Ave NW","98335",47.28795598412187,-122.56270540740968
"98335","Gig Harbor","WA","Narrows CrossFit","2905 Jahn Ave NW #3","98335",47.2846263743821,-122.56284743245305
"98335","Gig Harbor","WA","Work Out Room At The Inn","The Inn At Gig Harbor","98335",47.310255,-122.581814
"98335","Gig Harbor","WA","Orangetheory Fitness","4935 Point Fosdick Dr # F500","98335",47.303497314453125,-122.57633209228516
"98338","Graham","WA","CrossFit Deluge","10113 213th St E","98338",47.06346130371094,-122.29535675048828
"98338","Graham","WA","Anytime Fitness","22307 Mountain Hwy E","98387",47.05460222,-122.39711
"98338","Graham","WA","No Mercys's Work Out Room","not_available","98387",47.05668004021198,-122.36224754246953
"98346","Kingston","WA","Kingston Fitness","26001 Barber Cut Off Rd NE","98346",47.797631,-122.50843
"98346","Kingston","WA","PersonalFitSolutions","20125 NE Pond View Ln","98370",47.745228000000004,-122.584001
"98354","Milton","WA","Anytime Fitness","900 Meridian Ave E Ste 30","98354",47.248847,-122.295854
"98357","Neah Bay","WA","Makah Fitness Center","11 Resort Dr","98357",48.34646940165137,-124.66921514319833
"98357","Neah Bay","WA","Center Gym","60 Resort Dr.","98357",48.34722900390625,-124.66802978515625
"98357","Neah Bay","WA","Makah Community Gym","1394 Bayview Ave","98357",48.36582962539548,-124.60964423696416
"98359","Olalla","WA","Floyd's Gym","not_available","98367",47.437218,-122.587487
"98360","Orting","WA","Anytime Fitness","401 Washington Ave. N.","98360",47.1005,-122.21043
"98360","Orting","WA","Serria Gym","not_available","98374",47.099683,-122.25882
"98362","Port Angeles","WA","Storm King Athletic Club","Pain","98363",48.121471136262464,-123.43735442759204
"98362","Port Angeles","WA","Port Angeles Gym","not_available","98362",48.11158559311908,-123.43721235440728
"98362","Port Angeles","WA","Anytime Fitness","112 Del Guzzi Dr. Ste. 5","98362",48.10486,-123.39619
"98362","Port Angeles","WA","CrossFit ThunderRidge","325 1/2 W 2nd St","98362",48.120391845703125,-123.43907928466797
"98362","Port Angeles","WA","Fitness West","114 S Lincoln St","98362",48.1177952,-123.4324719
"98362","Port Angeles","WA","Clallam County Family YMCA","302 S Francis St","98362",48.111769551361334,-123.42302120527603
"98366","Port Orchard","WA","Olympic Fitness PRO","3049 Mile Hill Dr.","98366",47.53431269222337,-122.61196123092735
"98366","Port Orchard","WA","Mariners Glen Gym","not_available","98366",47.52003369,-122.60695001
"98366","Port Orchard","WA","Westcoast Fitness","1948 SE Lund Ave","98366",47.518057,-122.62733899999999
"98366","Port Orchard","WA","Max Fitness","1476 Olney Ave SE","98366",47.535354,-122.61111499999998
"98366","Port Orchard","WA","basement gym","454 Perry Ave N","98366",47.546087,-122.62241499999999
"98366","Port Orchard","WA","Kasey Olson - Certified Fitness Trainer","4740 Ramsey Rd SE","98366",47.50545883178711,-122.63484191894531
"98368","Port Townsend","WA","Evergreen Fitness","not_available","98368",48.08173205064769,-122.8156189530318
"98370","Poulsbo","WA","Snap Fitness","1016 NE Forest Rock Ln","98370",47.747696429158175,-122.6376187652685
"98370","Poulsbo","WA","curves poulsbo","Lidvig","not_available",47.746727,-122.653472
"98370","Poulsbo","WA","Ultimate Performance","19351 8th Ave NE #200","98370",47.738399,-122.639762
"98371","Puyallup","WA","Planet Fitness - Temporarily Closed","625 River Rd","98371",47.201586989229426,-122.30171063849427
"98371","Puyallup","WA","Bar Method @ Harms Studio","not_available","98372",47.1728630065918,-122.29287719726562
"98371","Puyallup","WA","NW Diamond Sports","239 W. Stewart Street","98371",47.19343612425804,-122.29686166383112
"98371","Puyallup","WA","Shawn Bell's Boot Camp","not_available","98371",47.193519191704716,-122.29713112485382
"98371","Puyallup","WA","Bella Sonoma Fitness Center","not_available","98424",47.235158808614656,-122.3452654288718
"98372","Puyallup","WA","Rainier CrossFit","2411 136th Avenue Ct E","98390",47.233276588196375,-122.24577734098335
"98372","Puyallup","WA","North Hill Fitness","715 Meridian Ave E","98371",47.25099968055939,-122.293055729647
"98372","Puyallup","WA","Roach Strength and Conditioning","1627 45th St E Bldg D102","98390",47.216697692871094,-122.23397064208984
"98372","Puyallup","WA","Addison Greens's Fitness Center","Addison Greens","98372",47.19239612537763,-122.2693471085182
"98372","Puyallup","WA","Robert Miller Gym","15206 Daffodil Street Ct E","98390",47.208248138427734,-122.22626495361328
"98372","Puyallup","WA","Sumner Valley Dance Center","1705 Willow St","98390",47.1956672668457,-122.23348236083984
"98372","Puyallup","WA","Bradley Park Fitness Center","2323 7th St SE","98374",47.16844177246094,-122.28413391113281
"98373","Puyallup","WA","Hot Yoga at the Edge","5605 112th St E","98373",47.154842376708984,-122.35424041748047
"98373","Puyallup","WA","Bally Total Fitness","716 S Hill Park Dr","98373",47.158736059750446,-122.3016864710019
"98373","Puyallup","WA","Trio Gym","13404 97th Ave E","98373",47.135169982910156,-122.2999496459961
"98373","Puyallup","WA","The Little Gym Of Puyallup","10404 156th St E Unit 140","98373",47.15550514431575,-122.29394661238555
"98373","Puyallup","WA","Vision Quest Gym","4301 S Meridian","98373",47.15031180206281,-122.29157604106327
"98373","Puyallup","WA","Oxygen4Energy.com/o2boss","not_available","98373",47.1284,-122.3219
"98373","Puyallup","WA","YMCA","302 43rd Ave SE","98374",47.149789836136115,-122.28998088521438
"98373","Puyallup","WA","Pure Barre","4417 S Meridian Ste B","98373",47.14975357055664,-122.2923812866211
"98373","Puyallup","WA","Anytime Fitness","14312 Meridian Ave E","98373",47.12601,-122.29443
"98374","Puyallup","WA","LA Fitness","10515 156th St E","98374",47.115203610318765,-122.28847548509142
"98374","Puyallup","WA","active Fitness","35th Ave SE","not_available",47.15770721435547,-122.26651000976562
"98374","Puyallup","WA","Iron Legacy Fitness","16719 110th Ave E Ste B","98374",47.104032166413326,-122.28262782096863
"98374","Puyallup","WA","Sterling Athletics","16719 110th Ave E","98374",47.104385245199055,-122.2822712954166
"98375","Puyallup","WA","CrossFit Infusion","15919 99tj Ave","98375",47.111436,-122.29663
"98375","Puyallup","WA","Orangetheory Fitness","16816 Meridian E","98375",47.103513,-122.29580800000001
"98375","Puyallup","WA","Callaway Fitness","176th and Meridian","98375",47.09602316655364,-122.31523877505089
"98382","Sequim","WA","Anytime Fitness","10131 Old Olympic Hwy.","98382",48.09478698,-123.1037761
"98382","Sequim","WA","360 Health & Fitness","755 W Washington St Ste D","98382",48.0791445,-123.1204084
"98382","Sequim","WA","Sequim Aquatic Recreation Center","610 N 5th Ave","98382",48.085811053216545,-123.11247289119648
"98382","Sequim","WA","Gym @ Holiday Inn Express","not_available","98382",48.073624,-123.092584
"98387","Spanaway","WA","LA Fitness","15707 Pacific Ave S","98444",47.11437528554846,-122.4326755967983
"98387","Spanaway","WA","Spanaway Fitness","not_available","98444",47.115389,-122.415148
"98387","Spanaway","WA","Spanaway Fitness","13819 Pacific Ave S","98444",47.13082478902989,-122.43392073181145
"98387","Spanaway","WA","Spanaway Hit","222 162nd St S","98387",47.10944366455078,-122.43595886230469
"98387","Spanaway","WA","Section Gym","1422 Union Ave","98438",47.096432006393954,-122.40457190842585
"98387","Spanaway","WA","Body By Neagle","not_available","98446",47.095743,-122.376531
"98391","Bonney Lake","WA","Planet Fitness","19410 Washington 410","98391",47.1695563,-122.1698524
"98391","Bonney Lake","WA","The Gym","20916 120th St E","98390",47.148021301196614,-122.1506613030467
"98391","Bonney Lake","WA","Elite Total Fitness","20617 Washington 410","98391",47.167902,-122.154745
"98391","Bonney Lake","WA","Planet Fitness - Temporarily Closed","19561 State Route 410 E","98391",47.16862,-122.16927
"98391","Bonney Lake","WA","Bonney Lake Fitness","20800 sr 410 east","not_available",47.168437079760295,-122.15290351292526
"98402","Tacoma","WA","YMCA","1144 Market St","98402",47.24984904871088,-122.44102696882156
"98402","Tacoma","WA","Tacoma Strength","2354 Jefferson Ave","98402",47.238837038656385,-122.43914112333556
"98402","Tacoma","WA","Barre 253","915 Pacific Ave","98402",47.25482445624537,-122.43851034897672
"98402","Tacoma","WA","Underground Fitness","not_available","98402",47.249459494805016,-122.4376274764922
"98402","Tacoma","WA","lean body lifestyles","711 St Helens Ave #201","98402",47.257259368896484,-122.44208526611328
"98402","Tacoma","WA","Thea’s Landing Fitness Center","1705 Dock St","98402",47.247352600097656,-122.43408966064453
"98403","Tacoma","WA","Orangetheory Fitness","637 Division Ave","98403",47.263643,-122.44871299999998
"98403","Tacoma","WA","The Stadium Apartments Fitness Center","102 N G St","98403",47.263465999999994,-122.449905
"98403","Tacoma","WA","Mountaineers Club","30th St","98403",47.27459804731496,-122.46693409143553
"98404","Tacoma","WA","The Alley Gym","Eastside","98404",47.23088,-122.41559
"98404","Tacoma","WA","Planet Fitness - Temporarily Closed","817 E 72nd St","98404",47.192183,-122.41996200000001
"98404","Tacoma","WA","Ohana Gym","Puyallup ave.","not_available",47.240537,-122.429297
"98405","Tacoma","WA","Gym Plus","1100-1108 N Cedar St","98406",47.260099,-122.47630586666666
"98405","Tacoma","WA","Town Athletics","not_available","98406",47.255272,-122.490948
"98406","Tacoma","WA","LA Fitness","5915 6th Ave","98406",47.256204507553285,-122.51704566769216
"98406","Tacoma","WA","Anytime Fitness","2623 N Pearl St","98407",47.27211,-122.51429
"98406","Tacoma","WA","iLoveKickboxing - Tacoma, WA","5401 6th Avenue, Suite 315","98406",47.25643669999999,-122.5088852
"98406","Tacoma","WA","Taiso Fitness and Nutrition","3819 N 27th St","98407",47.272216796875,-122.48796844482422
"98406","Tacoma","WA","Planet Fitness - Temporarily Closed","2217 N Pearl St","98406",47.26883080865038,-122.51443094169746
"98406","Tacoma","WA","SkyView Social","10359 Greenlands Cir","23116",47.2712049,-122.5132801
"98406","Tacoma","WA","Edgeworks Climbing Gym","6102 N 9th St Ste 200","98406",47.257228079601475,-122.51977442393122
"98407","Tacoma","WA","Elev8 Fitness Studio","not_available","98407",47.27873,-122.48884115
"98408","Tacoma","WA","LA Fitness","1905B S 72nd St","98408",47.187759432994206,-122.46024888894173
"98409","Tacoma","WA","Gurleyman Fitclub","not_available","98409",47.205614,-122.484594
"98409","Tacoma","WA","CrossFit South Tacoma","5206 South Tacoma Way","98409",47.209536901465384,-122.48412981295688
"98409","Tacoma","WA","Cabana Gym","Madrona","98335",47.23290801491522,-122.49717187799746
"98409","Tacoma","WA","Fitness Plus","3801 S Union Ave","98409",47.221683502197266,-122.48278045654297
"98409","Tacoma","WA","STAR Center","3873 S 66th St","98409",47.19829170964187,-122.48862778582094
"98409","Tacoma","WA","Lincoln Plaza Athletic Club","31 Montana Ave","98409",47.22437470918016,-122.47002271034796
"98421","Tacoma","WA","Solos Fitness","4501 Pacific Hwy E","98424",47.2435,-122.36881
"98421","Tacoma","WA","APP Fitness Center","2326 Milwaukee Way","98421",47.243672,-122.402405
"98433","Tacoma","WA","Studio Fitness","11112 Gravelly Lake Dr SW","98499",47.15637753223582,-122.52106741975025
"98433","Tacoma","WA","4/2 SBCT (Raider Brigade) Change Of Command","Soldier's Field House","98433",47.091861,-122.572374
"98433","Tacoma","WA","HHD 56th MMB PT","PT Field","98433",47.1114703,-122.5675696
"98433","Tacoma","WA","Soldier's Field House","2nd Division Dr.","98433",47.08236022345839,-122.57266588375082
"98433","Tacoma","WA","North Fort Gym","D St","98433",47.12772708551091,-122.60421928162623
"98433","Tacoma","WA","Jensen Gym","Bldg 2022 Liggett Ave","98433",47.08932928249606,-122.60478825821917
"98433","Tacoma","WA","Thor 3 Gym","not_available","98433",47.11030224267369,-122.54302925590947
"98438","Mcchord Afb","WA","McChord Fitness Center Annex","Building 726","not_available",47.13442469642991,-122.48984469891249
"98438","Mcchord Afb","WA","McChord Gym","5th St","98439",47.13441069431249,-122.49194462109782
"98439","Lakewood","WA","Muscle Factory (Blue Gym)","not_available","98439",47.14314624268411,-122.4871362508677
"98444","Tacoma","WA","Planet Fitness - Temporarily Closed","9820 Pacific Ave","98444",47.1675817,-122.4349151
"98444","Tacoma","WA","Flex Wheeler Fitness","10821 A St S","98444",47.159374440779025,-122.43356937004344
"98444","Tacoma","WA","Doing Some P90X","1610 120th St S","98444",47.14828109741211,-122.45632934570312
"98445","Tacoma","WA","Harris Training Systems","not_available","98445",47.15735963647756,-122.40144716931664
"98465","Tacoma","WA","Bally Total Fitness","1680 S Mildred St","98465",47.2452479,-122.5288911
"98466","Tacoma","WA","Figures","2079 Mildred St W","98466",47.24139712301945,-122.5251265261961
"98466","Tacoma","WA","Rainier Medical Health & Fitness","3633 Market Pl W Ste 1","98466",47.225595,-122.536013
"98466","Tacoma","WA","BeFit Tacoma","4040 Orchard St W Ste 210","98466",47.220550537109375,-122.50589752197266
"98466","Tacoma","WA","Total Woman Health Studio","2310 Mildred St W","98466",47.238529205322266,-122.52778625488281
"98466","Tacoma","WA","20 Minute Fitness","4114 Bridgeport Way W","98466",47.219401,-122.53755600000001
"98466","Tacoma","WA","Exercise Science Center","1101 Regents Blvd","98466",47.239051,-122.518397
"98466","Tacoma","WA","Truly Fit People","27 St W","98466",47.235434,-122.530273
"98466","Tacoma","WA","Pure Barre","3556 Market Pl W Ste 106","98466",47.226375,-122.536602
"98466","Tacoma","WA","Boulders at Puget Sound Fitness Center","2602 Westridge Ave W","98466",47.2374,-122.556327
"98466","Tacoma","WA","Fitness Evolution","6704 19th St W","98466",47.242088317871094,-122.52767181396484
"98466","Tacoma","WA","Revolutionary Fitness","6919 24th St W, Rear Warehouse","98466",47.238544,-122.529257
"98466","Tacoma","WA","AL's Gym","not_available","98466",47.2409553527832,-122.53111267089844
"98466","Tacoma","WA","Planet Fitness","6706 19th St W","98466",47.241875,-122.52796399999998
"98498","Lakewood","WA","Griffin Personal Training","97th St. SW","98498",47.16916601175651,-122.54811284472481
"98498","Lakewood","WA","The Gym","not_available","98498",47.18283868418613,-122.55102618220344
"98498","Lakewood","WA","Anytime Fitness","8520 Steilacoom Blvd SW","98498",47.17914,-122.55158
"98499","Lakewood","WA","Northwest Strength And Conditioning","3624A 96th St SW","98499",47.169641,-122.485444
"98499","Lakewood","WA","Crunch Fitness - Lakewood WA","6111 Lakewood Towne Center Blvd SW","98499",47.16542778898919,-122.51900553703308
"98499","Lakewood","WA","Gym","not_available","98499",47.17172596595908,-122.51475633387986
"98499","Lakewood","WA","Vital Fitness","6002 Mount Tacoma Dr SW","98499",47.16932187224028,-122.51697787596463
"98501","Olympia","WA","Anytime Fitness","4200 6th Ave SE Suite 101","98503",47.04347,-122.83109
"98501","Olympia","WA","Planet Fitness","720 Sleater Kinney Rd SE, Suite Q","98503",47.04069512869731,-122.83026290740963
"98501","Olympia","WA","Cambridge Court Gym","2323","98502",47.038482,-122.930749
"98501","Olympia","WA","YMCA","1530 Yelm Hwy SE","98501",47.00408904635249,-122.88238085847269
"98501","Olympia","WA","the TEAMhouse Functional Fitness Center Gym","4706 Pacific Ave SE","98503",47.037899580121675,-122.82181694673808
"98501","Olympia","WA","Physiotherapy Bigrock","not_available","98512",46.99135971069336,-122.92342376708984
"98501","Olympia","WA","Spartan Gym","2330 55th Ave SE","98501",46.998311,-122.86923600000001
"98501","Olympia","WA","90ten","6780 Bonniewood Dr SE, Tumwater, WA 98501","98501",46.98731994628906,-122.90250396728516
"98501","Olympia","WA","Summit Marketing Gym","not_available","98503",47.041664123535156,-122.82670593261719
"98501","Olympia","WA","Falls Pointe Gym","not_available","98501",46.997351,-122.912179
"98501","Olympia","WA","LA Fitness","1786 Barnes Blvd SW","98512",47.01769587583122,-122.92016909392537
"98501","Olympia","WA","Curves","4810 Unit E Yell Hwy","98503",46.997718275672575,-122.81997128024814
"98501","Olympia","WA","Crossfit Olympia","407 4th Ave E","98501",47.044922,-122.897488
"98501","Olympia","WA","Blogilates Sweat Central","not_available","98502",47.037864685058594,-122.92747497558594
"98501","Olympia","WA","5th Ave Fitness","Plum","98501",47.044313626654294,-122.89321128890944
"98501","Olympia","WA","Anytime Fitness","5743 Little Rock Rd SW Ste 115","98512",46.99753,-122.92041
"98501","Olympia","WA","Curves","2607 Martin Way E #101","98506",47.045448303222656,-122.86455535888672
"98501","Olympia","WA","Phisiotherapy Bigrock","420 Lilly Rd NE","98506",47.052492,-122.843726
"98501","Olympia","WA","Curves","2302 Harrison Ave NW #204","98502",47.046391,-122.929708
"98501","Olympia","WA","Thrive Fitness","5401 Corporate Center Loop SE","98503",46.99918142970778,-122.82529302459615
"98501","Olympia","WA","Fit Plus Training","3940 12th Ave SE, Lacey, WA 98503","98503",47.038272857666016,-122.83660125732422
"98501","Olympia","WA","The Strong Center","2256 Mottman Rd SW","98512",47.02635,-122.929832
"98501","Olympia","WA","Rock Fitness","5001 Pacific Ave SE","98503",47.03637318329466,-122.81759861540088
"98501","Olympia","WA","Soundbody Fitness","4200 6th ave","not_available",47.042902,-122.832116
"98502","Olympia","WA","Orangetheory Fitness","1540 Cooper Point Rd SW Ste 480","98502",47.03419876098633,-122.93575286865234
"98502","Olympia","WA","Elite Fitness & Yoga","1700 Cooper Point Rd SW Ste C2","98502",47.033483000000004,-122.935724
"98502","Olympia","WA","Fortis Sports Usa","1202 Black Lake Blvd SW Ste D","98502",47.0367546081543,-122.93419647216797
"98502","Olympia","WA","Whetstone Fitness","1212 Black Lake Blvd SW","98502",47.03670899999999,-122.934906
"98502","Olympia","WA","Olympia Crossfit","1202 Black Lake Blvd SW Ste E","98502",47.0367546081543,-122.93419647216797
"98502","Olympia","WA","Impact Fitness","1025 Black Lake Blvd SW Ste 2E","98502",47.039153999999996,-122.933158
"98503","Lacey","WA","p90x","1101-1399 Tracy St SE","98503",47.03533530235154,-122.79820203780771
"98503","Lacey","WA","Curves","5740C Ruddell Rd SE","98503",46.996279,-122.806828
"98503","Lacey","WA","Gym Time","not_available","98513",47.04727419,-122.75906131
"98503","Lacey","WA","West Coast Fitness Lacey","5823 Lacey Blvd SE","98503",47.0354256,-122.8066889
"98503","Lacey","WA","LA Fitness","1200 Galaxy Dr NE","98516",47.05779811780981,-122.76822430004476
"98503","Lacey","WA","Sunrise Fitness, Lacey, WA","1010 Homann Drive Southeas","98503",47.01556,-122.78414
"98506","Olympia","WA","Warehouse Rock Gym","315 Jefferson St NE","98501",47.0472375077646,-122.89741311397427
"98512","Olympia","WA","South Sound Champions Center","111 Tumwater Blvd SE Ste A-209","98501",46.983150482177734,-122.90387725830078
"98512","Olympia","WA","ProActive Sports Med","111 Tumwater Blvd SE Ste 113","98501",46.9831428527832,-122.90386199951172
"98516","Olympia","WA","Crossfit Finish First","2825 Marvin Rd NE Ste H","98516",47.080691319954155,-122.78473636341053
"98516","Olympia","WA","jubilee Gym","not_available","98516",47.09262874384457,-122.76123641702299
"98516","Olympia","WA","Time On Target Fitness and Boxing","4070 Campus Willows Loop NE","98516",47.08978271484375,-122.75816345214844
"98516","Olympia","WA","Black Hills Gymnastics","7961 29th Avenue Northeast","98516",47.0723587,-122.7708385
"98516","Olympia","WA","Lacey Crossfit","2911 Marvin Rd NE","98516",47.07295608520508,-122.7764892578125
"98520","Aberdeen","WA","Ymca","2500 Simpson Ave","98550",46.97494888305664,-123.86652374267578
"98520","Aberdeen","WA","Anytime Fitness","2700 Simpson Ave Ste 103","98520",46.97521,-123.85112
"98524","Allyn","WA","Peninsula Crossfit","not_available","98524",47.3786506652832,-122.84371948242188
"98531","Centralia","WA","Anytime Fitness","515 Harrison Ave. Ste. B","98531",46.72214473,-122.9704401
"98531","Centralia","WA","Iron Horse Gym","20550 Old Highway 99","98531",46.79026159288951,-123.0105230097477
"98531","Centralia","WA","Thorbeckes FitLife","2020 Borst Ave","98531",46.725816614006334,-122.979736964382
"98532","Chehalis","WA","Thorbeckes","not_available","98532",46.65725950344561,-122.96976776065127
"98541","Elma","WA","Anytime Fitness","3 Shouweiler Rd","98541",46.99787,-123.4452
"98550","Hoquiam","WA","Ocean Shores Community Club","1016 Catala Ave SE","98569",46.954609999999995,-124.13080900000001
"98550","Hoquiam","WA","Shilo Inn Gym","not_available","98569",47.0096272722111,-124.16717177173251
"98571","Pacific Beach","WA","Rusty Anchor Fitness","not_available","98571",47.195673,-124.197229
"98576","Rainier","WA","Anytime Fitness","1304 Yelm Ave E","98597",46.934562,-122.59073799999999
"98576","Rainier","WA","YGC","10432-10466 Creek St SE","98597",46.93692396666667,-122.5906868
"98584","Shelton","WA","Anytime Fitness","2121 Olympic Hwy N Ste. 103-106","98584",47.223025,-123.12170800000001
"98584","Shelton","WA","skokomish fitness facility","not_available","98584",47.32279168807111,-123.14565240173488
"98584","Shelton","WA","Union Square Fitness","not_available","98592",47.34639,-123.07842
"98584","Shelton","WA","Shelton Athletic Club","707 S 1st St","98584",47.20784944148214,-123.10159206390381
"98601","Amboy","WA","Northwest SUP and Fitness","15604 NE Reid Rd","98601",45.902088,-122.511789
"98604","Battle Ground","WA","Battle Ground Fitness","1902 SW 9th Ave","98604",45.76659545892307,-122.54580741266959
"98604","Battle Ground","WA","Snap Fitness 24-7","2500 W Main St #113","98604",45.780887603759766,-122.563232421875
"98604","Battle Ground","WA","Resolution Fitness","1311 SE Grace Ave Ste 120","98604",45.77099548979185,-122.5260329246521
"98604","Battle Ground","WA","Bold Fitness","not_available","98604",45.774402346111884,-122.52251012810909
"98604","Battle Ground","WA","Bold Training","819 SE 14th Loop Ste 101","98604",45.77507019042969,-122.52300262451172
"98605","Bingen","WA","Curves","not_available","97031",45.70217772481,-121.52431049022599
"98605","Bingen","WA","CrossFit Hood River","1816 Belmont","97031",45.699609,-121.530739
"98605","Bingen","WA","Snap Fitness","Vietnam Veterans Memorial Highway","97031",45.71208250013517,-121.54136984791437
"98605","Bingen","WA","Get Fit, Stay Fit","209 E Eugene St, Hood River, OR 97031","97031",45.70605565,-121.50774999
"98606","Brush Prairie","WA","Fearless Gym and Nutrition","12205 NE 212th Ave","98606",45.710553999999995,-122.45404199999999
"98606","Brush Prairie","WA","Curves","7702 NE 94th Ave","98662",45.691132,-122.552025
"98606","Brush Prairie","WA","Baumgartner Correctional Facility","10006 NE 141st Ct","98682",45.694979,-122.528168
"98606","Brush Prairie","WA","Columbia Extreme Cheer","9600 NE 126th Ave Bldg 25","98682",45.69142150878906,-122.5442886352539
"98607","Camas","WA","LaCamas Swim & Sport","2950 NW 38th Ave","98607",45.60580558251621,-122.44048124058257
"98607","Camas","WA","all pride fitness","701 Evergreen blvd","98671",45.5780485082416,-122.33363476905156
"98607","Camas","WA","Kt Bell Fitness","421 C St","98671",45.58122,-122.373368
"98607","Camas","WA","Snap Fitness","3316 NE 3rd Ave","98607",45.584391722669686,-122.37074470397755
"98607","Camas","WA","Anytime Fitness","1700 Main St","98671",45.57808,-122.35335
"98607","Camas","WA","Cross Fit Mill Town","2027 Main St","98671",45.578714,-122.35032199999999
"98607","Camas","WA","Burntown Fitness","2004 SE 192nd Ave Ste 103","98683",45.606273,-122.476327
"98607","Camas","WA","StarCycle","3215 SE 192nd Ave #100","98683",45.5978124,-122.4763483
"98607","Camas","WA","KT Bell Fitness For Women","2946 E St","98671",45.5790043,-122.339339
"98607","Camas","WA","Champions Center","334 NE 4th Ave","98607",45.58544921875,-122.40428161621094
"98613","Centerville","WA","Sole To Soul","not_available","98620",45.82200241088867,-120.8213882446289
"98625","Kalama","WA","Kalama Gym","not_available","98625",46.023880347666626,-122.85246642390773
"98625","Kalama","WA","Complete Physique Anytime","524 N 1st St","98625",46.01191329956055,-122.84609985351562
"98626","Kelso","WA","1826 Elite Fitness","not_available","98632",46.14139386486744,-122.91678261517008
"98626","Kelso","WA","Snap Fitness","218 Kelso Dr","98626",46.14360046386719,-122.89549255371094
"98626","Kelso","WA","Curves","760 Ocean Beach Hwy","98632",46.14656066894531,-122.92469024658203
"98632","Longview","WA","YMCA","766 15th Ave","98632",46.12842253902432,-122.94029205988515
"98632","Longview","WA","Snap Fitness","3707 Ocean Beach Hwy","98632",46.154287,-122.98183600000002
"98632","Longview","WA","Anytime Fitness","600 E Columbia River Hwy","97016",46.10280990600586,-123.1987075805664
"98632","Longview","WA","Snap Fitness","1940 Cascade Way","98632",46.146863877958566,-122.93312800316856
"98632","Longview","WA","Forever Fit","1211 18th Ave","98632",46.13653449976913,-122.9411443462179
"98642","Ridgefield","WA","Lefebvre Gym","not_available","98642",45.82770824432373,-122.73009538650513
"98660","Vancouver","WA","Planet Fitness","9919 NE Hazel Dell Ave","98685",45.6937466,-122.6673187
"98660","Vancouver","WA","Anytime Fitness","710 Esther St","98660",45.62695,-122.67617
"98660","Vancouver","WA","Hot Yoga NorthWest","7409 NE Hazel Dell Ave","98665",45.676029,-122.66799499999999
"98660","Vancouver","WA","The Source Climbing Center","1118 Main St","98660",45.630196881167805,-122.67178940156535
"98660","Vancouver","WA","LA Fitness","7607 NE 5th Ave","98665",45.67870298181519,-122.66597318181589
"98660","Vancouver","WA","Orangetheory Fitness","7902 NE 6th Ave","98665",45.67978762584898,-122.6672853601459
"98660","Vancouver","WA","YogaSix","1700 Main St Ste B","98660",45.63426208496094,-122.67188262939453
"98660","Vancouver","WA","The Training Zone","110 NW 139th St, Vancouver, WA 98685","98685",45.72237777709961,-122.67129516601562
"98660","Vancouver","WA","CYCLEBAR","1700 Main St Ste A","98660",45.63426208496094,-122.67188262939453
"98660","Vancouver","WA","Vancouvercenter Fitness Center","701 Columbia St","98660",45.62646484375,-122.67330169677734
"98660","Vancouver","WA","Hilton Fitness Center","not_available","97217",45.6253752038143,-122.67437028024969
"98660","Vancouver","WA","StarCycle","10714 NW Lakeshore Ave Ste 203","98685",45.698985,-122.7035978
"98660","Vancouver","WA","CrossFit Brave Legion","not_available","98685",45.72323243273358,-122.66842793786834
"98660","Vancouver","WA","4100 Fitness Center","4100 N Marine Dr, Portland, OR 97203","97203",45.62568283081055,-122.73686981201172
"98660","Vancouver","WA","Salmon Creek Indoor Sports Arena","110 NW 139th St","98685",45.72216184605645,-122.67149005078363
"98660","Vancouver","WA","Lake Shore Athletic Club","2401 NW 94th St","98665",45.688558376875,-122.695859048152
"98660","Vancouver","WA","inferno Fitness & Sports","14010 NE 3rd Ct","98685",45.72302434220585,-122.66819781451326
"98661","Vancouver","WA","Marshall Community Center","1009 E McLoughlin Blvd","98663",45.63350588375017,-122.66097738644733
"98661","Vancouver","WA","Fly Fitness Personal Training, Inc.","7588 Delaware Ln","98664",45.62391662597656,-122.59201049804688
"98661","Vancouver","WA","Northwynd Gym","not_available","98661",45.616892,-122.652432
"98661","Vancouver","WA","Steves Cardio Casa","East Minnehaha","98685",45.66327079348005,-122.62805222737224
"98661","Vancouver","WA","O'Connell Sports Center","1933 Fort Vancouver Way","98663",45.6340797937639,-122.65511709253607
"98661","Vancouver","WA","Pure Barre","2410 Columbia House Blvd Ste 102","98661",45.61905351400899,-122.64657678834322
"98661","Vancouver","WA","Endeavourz Training","705 Grand Blvd","98661",45.62654113769531,-122.64012145996094
"98661","Vancouver","WA","Revolutionary Fitness Studios","5000 E Fourth Plain Blvd Ste E101","98661",45.6406183,-122.6202836
"98662","Vancouver","WA","Gold's Gym Vancouver","8700 NE Vancouver Mall Dr Ste 220","98662",45.6582181,-122.5845389
"98662","Vancouver","WA","Anytime Fitness","5115 NE 82nd Ave Ste 101","98662",45.66002,-122.58846
"98662","Vancouver","WA","Clark County Family YMCA","11324 NE 51st Cir","98682",45.66131138122297,-122.55696161229329
"98662","Vancouver","WA","Vega Fencing Academy","6707 NE 117th Ave, Vancouver, WA 98662","98662",45.67168426513672,-122.5519790649414
"98662","Vancouver","WA","MBSJ Fitness","9907 NE 90th Ave","98662",45.6936729,-122.58084600000001
"98662","Vancouver","WA","LA Fitness","11505 NE Fourth Plain Blvd","98662",45.66411637062239,-122.55646107942471
"98662","Vancouver","WA","Healthy Image Fitness","3315 NE 112th Ave","98682",45.64656531666667,-122.555974
"98664","Vancouver","WA","Planet Fitness - Temporarily Closed","8024 E Mill Plain Blvd","98664",45.62551633,-122.59021783
"98664","Vancouver","WA","Columbia Gym","not_available","98664",45.61461874466652,-122.5810471469751
"98664","Vancouver","WA","Fitness Canter","2216 NE Bridgecreek Ave","98664",45.63863754272461,-122.58892822265625
"98664","Vancouver","WA","Curves","700 SE Chkalov Dr #21","98683",45.6161994934082,-122.55503845214844
"98664","Vancouver","WA","Sterling Heights Gym","1221 SE Ellsworth Rd","98664",45.611537,-122.559071
"98665","Vancouver","WA","Odin's Strength Gym","8302 NE Highway 99","98665",45.68269729614258,-122.66194152832031
"98665","Vancouver","WA","Crossfit Untamed","9811 NE 15th Ave","98665",45.692707,-122.656374
"98674","Woodland","WA","fara","not_available","97051",45.86110890673411,-122.79733020891653
"98674","Woodland","WA","Woodland High School Gym","not_available","98674",45.904907,-122.74862
"98675","Yacolt","WA","Wiseman Gym","not_available","98682",45.6868968943789,-122.52887398012831
"98682","Vancouver","WA","24 Hr Fitness Columbia Tech","not_available","98684",45.65052552682523,-122.50882765495282
"98683","Vancouver","WA","Cascade Athletic Club","16096 SE 15th St","98683",45.61077,-122.5071
"98683","Vancouver","WA","iLoveKickboxing - Vancouver","1825 SE 164th Ave., Suite 120","98683",45.60738172001253,-122.50175065211488
"98683","Vancouver","WA","The Gym","2524 se 166th ave","98683",45.60110855102539,-122.5014419555664
"98683","Vancouver","WA","Accel Human Performance","1825 SE 164th Ave","98683",45.607025,-122.501884
"98683","Vancouver","WA","Parkside Loft Gym","17701 SE Mill Plain Blvd","98683",45.61497809959392,-122.49446229822921
"98683","Vancouver","WA","Sharp Fitness Center","not_available","98683",45.59664,-122.47919
"98683","Vancouver","WA","Shift Fitness","1825 SE 164th Ave Ste 110","98683",45.607763630277645,-122.50083849995396
"98683","Vancouver","WA","NLS Fitness Center","16400 SE Nautilus Drive, Basement Floor","98683",45.61295700073242,-122.50043487548828
"98683","Vancouver","WA","Off The Grid Fit","16500 SE 15th St","98683",45.610422,-122.50312
"98684","Vancouver","WA","H2 Fitness","NE 158th Ave","98684",45.62264571535659,-122.5104157332194
"98684","Vancouver","WA","Tectonic CrossFit","17000 SE 1st Street, Suite 101","98684",45.62141418457031,-122.4962387084961
"98685","Vancouver","WA","Curves - Hazel Dell/Salmon Creek","1313 NE 134th St Ste 110","98685",45.71726989746094,-122.65789794921875
"98685","Vancouver","WA","Moy Martial Arts & Tai Chi Academy","14407-E NE 13th Ave, Suite 122","98685",45.725704,-122.658212
"98686","Vancouver","WA","Fly Fitness Personal Training","10506 NE 52nd Ct","98686",45.69801154367171,-122.61900183680535
"98686","Vancouver","WA","Highland Hills Gym","not_available","98686",45.722654,-122.642248
"98801","Wenatchee","WA","Wenatchee YMCA","217 Orondo Ave","98801",47.422633665929744,-120.31215683431861
"98801","Wenatchee","WA","Mountain View Fitness","515 Grant Rd","98802",47.4068717956543,-120.28089141845703
"98801","Wenatchee","WA","Crossfit Wenatchee","120 S Columbia St","98801",47.423179626464844,-120.30912017822266
"98801","Wenatchee","WA","Anytime Fitness","950 N Wenatchee Ave","98801",47.43609,-120.32124
"98801","Wenatchee","WA","Gold's Gym","12 N Worthen St","98801",47.42503522541814,-120.3081076970782
"98801","Wenatchee","WA","Biosports","18 N Worthen St","98801",47.42585,-120.30915700000001
"98801","Wenatchee","WA","Derby Dome","not_available","98801",47.51776923,-120.34778301
"98801","Wenatchee","WA","Workout Warehouse","244 N Wenatchee Ave","98801",47.42844009399414,-120.3150863647461
"98801","Wenatchee","WA","The Inner Circle Gym","Piere","98801",47.43293,-120.31396299999999
"98801","Wenatchee","WA","Crossport","Wenatchee Ave","98801",47.41820782914644,-120.305819803206
"98815","Cashmere","WA","Crossfit Cashmere","not_available","98815",47.5218505859375,-120.4723892211914
"98816","Chelan","WA","Heartfelt Fitness","not_available","98816",47.840179443359375,-120.0160903930664
"98816","Chelan","WA","CHELANTWOFOURSEVENFITNESSCLUB","319 N SANDERS  CHELAN WA","98816",47.842248,-120.01504
"98816","Chelan","WA","Lake Chelan Fitness","229 E Woodin Ave","98816",47.840152740478516,-120.01517486572266
"98823","Ephrata","WA","Anytime Fitness","514 Basin St NW","98823",47.3257715,-119.5477856
"98823","Ephrata","WA","Studio 90","105 2nd Ave SE","98848",47.23680114746094,-119.85029602050781
"98826","Leavenworth","WA","Enzian Inn - Exercise Room","Basement","98826",47.593824,-120.666854
"98837","Moses Lake","WA","South Campus Athletic Club","1475 Nelson Rd NE","98837",47.11332697503516,-119.25235127030427
"98837","Moses Lake","WA","Crossfit Four Pillars","not_available","98837",47.132954,-119.275968
"98837","Moses Lake","WA","The Vintage fitness center","1133 N Grape Dr","98837",47.14417266845703,-119.29258728027344
"98837","Moses Lake","WA","Moses Lake Athletic Club","1066 S Division St","98837",47.119224548339844,-119.27478790283203
"98837","Moses Lake","WA","Anytime Fitness","619 N Stratford Rd","98837",47.1373,-119.2773
"98844","Oroville","WA","Evolution Fitness Center","1300 Main St","98844",48.93762969970703,-119.43668365478516
"98848","Quincy","WA","Anytime Fitness","918 13th Ave SW Ste G","98848",47.230637,-119.874201
"98901","Yakima","WA","YMCA","212 E F St","98901",46.609865,-120.506949
"98901","Yakima","WA","24/7 Selah Fitness","103 N 1st St Ste D","98942",46.6552,-120.53002099999999
"98901","Yakima","WA","Delay GymKids","North Park Centre","98942",46.6634167,-120.52140335
"98901","Yakima","WA","Selah Fitness","103 N 1st St","98942",46.65535976421754,-120.53011398077207
"98901","Yakima","WA","Fully Charged Fitness","117 E Naches Ave","98942",46.65433120727539,-120.5295639038086
"98901","Yakima","WA","Anytime Fitness","201 S 1st St","98942",46.65177,-120.53006
"98901","Yakima","WA","gym","not_available","98902",46.57851409969249,-120.52663451099123
"98901","Yakima","WA","Anytime Fitness","304 West Seattle Ave","98936",46.55746598597946,-120.39233833551407
"98901","Yakima","WA","YAC Fitness","2500 Business Ln","98901",46.60837928911397,-120.46624684450272
"98901","Yakima","WA","Studio Z","2600A W Nob Hill Blvd","98902",46.5853888,-120.5435377
"98901","Yakima","WA","Yakima Athletic Club","2501 Racquet Ln","98902",46.57504598091854,-120.54291250667816
"98901","Yakima","WA","Z's G.T.S.","not_available","98942",46.65646286092564,-120.53337008404225
"98901","Yakima","WA","Achieve Health and Fitness","2105 W Lincoln Ave #2","98902",46.6046175,-120.5375238
"98901","Yakima","WA","Fit Studio","201 E Yakima Ave #101","98901",46.60297393798828,-120.50438690185547
"98901","Yakima","WA","Anytime Fitness","2529 Main St","98903",46.56535,-120.47959
"98902","Yakima","WA","Crossfit Reformation","3806 W Nob Hill Blvd","98902",46.585052490234375,-120.55999755859375
"98903","Yakima","WA","Castle Creek Apartments Gym","not_available","98908",46.581993103027344,-120.57626342773438
"98903","Yakima","WA","Anytime Fitness","5611 Summitview Ave","98908",46.60142849,-120.5850813
"98922","Cle Elum","WA","Suncadia Swim and Fitness","3600 Suncadia Trl","98922",47.21020565170028,-121.0156755292768
"98922","Cle Elum","WA","NW PT Gym","112 W Railroad St","98922",47.19437026977539,-120.9400863647461
"98922","Cle Elum","WA","Cross Fit Cle Elum","719 E 1st St","98922",47.19343948364258,-120.9240493774414
"98926","Ellensburg","WA","The Gym","427 N Main St","98926",46.996355513444314,-120.54894032125394
"98926","Ellensburg","WA","Anytime Fitness","2305 W Dolarway Rd","98926",47.0037,-120.58331
"98926","Ellensburg","WA","CWU Gym","400 E University Way","98926",47.003163007974415,-120.53767183363874
"98930","Grandview","WA","Prosser Family Fitness Zone","not_available","99350",46.209867760778266,-119.76235819623432
"98930","Grandview","WA","Anytime Fitness","2680 Yakima Valley Hwy Ste E","98944",46.31776502094673,-119.98446090250815
"98932","Granger","WA","Anytime Fitness","121 Sunnyside Ave","98932",46.34334,-120.19556
"98944","Sunnyside","WA","Valley Racquet & Fitness Club","701 Scoon Rd","98944",46.33365,-120.020886
"98944","Sunnyside","WA","Orangetheory Fitness","1034 Queensgate Dr","99352",46.250091552734375,-119.30188751220703
"98944","Sunnyside","WA","Lub","not_available","99352",46.2930554151535,-119.28524851799011
"98944","Sunnyside","WA","Hampton Inn Fitness Center","Bradley Blvd","not_available",46.272116766454175,-119.26870890969684
"98944","Sunnyside","WA","Club 24 Express Fitness","4850 Paradise Way","99353",46.28648618184234,-119.35113496942314
"98944","Sunnyside","WA","Keene Fitness","2150 Keene Rd","99352",46.24843863677303,-119.30192213311743
"98944","Sunnyside","WA","CBRC Fitness Express","2418 Garlick Blvd","99354",46.318853999999995,-119.279568
"98944","Sunnyside","WA","F45 Training Sunnyside","818 E Edison Ave","98944",46.324167,-120.009148
"98944","Sunnyside","WA","Elite Fitness","400 Bradley Blvd #106","99352",46.270572662353516,-119.26861572265625
"98944","Sunnyside","WA","Gold's Gym","2575 Queensgate Road","99352",46.25451337332402,-119.31311215479845
"98944","Sunnyside","WA","Smitty's Gym","245 Symons St","99354",46.28919691277081,-119.27622884932963
"98948","Toppenish","WA","Anytime Fitness","425 S Elm St Ste 3","98948",46.374166,-120.321079
"98951","Wapato","WA","Anytime Fitness","220 W 1st St","98951",46.44806,-120.42216
"99004","Cheney","WA","University Recreation Center (URC)","1007 W Elm St.","99004",47.493148218729374,-117.58431293432878
"99004","Cheney","WA","Snap Fitness - Cheney","2726 1st St","99004",47.50634399754543,-117.56664169316194
"99004","Cheney","WA","Anytime Fitness","10511 W Aero Rd","99224",47.58958053588867,-117.56388092041016
"99005","Colbert","WA","Midway's Gym","16320 N Hatch Rd","99208",47.805657775,-117.40225185
"99006","Deer Park","WA","Anytime Fitness","3 W Crawford St","99006",47.95335,-117.47755
"99011","Fairchild Air Force Base","WA","Fairchild AFB Fitness Center","Doolittle Ave","99011",47.63182201380788,-117.65564832603177
"99016","Greenacres","WA","The Fitness Center","14210 E Sprague","99037",47.656316913900376,-117.21394036640854
"99016","Greenacres","WA","Anytime Fitness","23505 E Appleway","99019",47.67773,-117.08936
"99016","Greenacres","WA","Liberty Lake Athletic Club","23410 E Mission Ave","99019",47.670932160761396,-117.09081326005658
"99016","Greenacres","WA","PhysZique","1611 N Molter Rd","99019",47.672206050398614,-117.09073012457877
"99016","Greenacres","WA","The Training Room","1907 N Salmon River Ln","99016",47.675880432128906,-117.14905548095703
"99016","Greenacres","WA","Pure Barre","13910 E Indiana Ave Ste E","99216",47.6750158,-117.2152997
"99016","Greenacres","WA","Oz Fitness Valley","14927 E Sprague Ave","99216",47.65833517524178,-117.20315731348877
"99016","Greenacres","WA","Cliff’s Dojo","22855 E Mission Ave.","99019",47.67186453092069,-117.09911121146655
"99016","Greenacres","WA","Exercise Institute","21651 E Country Vista Dr","99019",47.66679000854492,-117.11407470703125
"99016","Greenacres","WA","Gym","not_available","99019",47.674636981215784,-117.21002179359859
"99016","Greenacres","WA","Parkside at mirabeau fitness center","not_available","99216",47.6835778660248,-117.22415879347571
"99016","Greenacres","WA","CrossFit Spokane Valley","14415 E Sprague Ave #3","99216",47.65803909301758,-117.21038055419922
"99016","Greenacres","WA","Snap Fitness Spokane Valley","13514 E 32nd Ave Ste A","99216",47.627561,-117.222247
"99021","Mead","WA","Snap Fitness-Mt Spokane","14017 Hwy 2, Suite C","99021",47.78611520118225,-117.35391446441943
"99115","Coulee City","WA","good looks fitness center","not_available","99115",47.61093177565165,-119.2930894538389
"99156","Newport","WA","Club Energy","328 W 4th St","99156",48.178293,-117.04368999999998
"99163","Pullman","WA","Washington State University Student Recreation Center","1260 NE Palouse Ridge Rd.","99163",46.73735479009994,-117.15433464544921
"99163","Pullman","WA","SNAP Fitness","745 N Grand Ave","99163",46.73595622838968,-117.176034450531
"99163","Pullman","WA","erg room","not_available","99163",46.73380497720314,-117.16253153707609
"99163","Pullman","WA","Michael Jarod Raggio Memorial Weight Room","501 NE Campus Street","99163",46.733875,-117.172655
"99163","Pullman","WA","Anytime Fitness","690 SE Bishop Blvd Ste A","99163",46.71454,-117.17375
"99179","Uniontown","WA","ACFAC","not_available","99403",46.4182761433768,-117.0447542152566
"99201","Spokane","WA","Doubletree Gym","not_available","99201",47.66119821631344,-117.41407996907137
"99201","Spokane","WA","Real Weight Loss","not_available","99208",47.660401569186924,-117.43011474609375
"99201","Spokane","WA","Hotel Gym","580-660 N Washington St","99201",47.663961718850004,-117.41702641317703
"99201","Spokane","WA","Hit Fitness","917 W Broadway Ave","99201",47.664188385009766,-117.4259033203125
"99201","Spokane","WA","Central Spokane YMCA","930 N Monroe St","99201",47.6664401081491,-117.42609561428314
"99201","Spokane","WA","Wild Walls Climbing Gym","202 W 2nd Ave","99201",47.65502581920358,-117.41558212970094
"99201","Spokane","WA","Impact Fitness","508 W 6th Ave #50","99204",47.650691986083984,-117.419921875
"99201","Spokane","WA","Oz Fitness","809 W Main Ave","99201",47.65899838711515,-117.42372526509314
"99202","Spokane","WA","The Warehouse","800 N Hamilton St","99202",47.66498619083191,-117.39570289539706
"99202","Spokane","WA","CFCS","1826 E Sprague Ave","99202",47.657035,-117.38296299999999
"99202","Spokane","WA","farmgirlfit","128 S Sherman St, Spokane, WA 99202","99202",47.65597406907063,-117.40363441533574
"99202","Spokane","WA","Sky High Sports","1322 E Front Ave","99202",47.660231052407156,-117.39065047078435
"99202","Spokane","WA","Get Fit 360","not_available","99202",47.67134783015261,-117.41043854772788
"99202","Spokane","WA","Gonzaga Student Athlete Lab","502 E Boone Ave #66","99258",47.665539023611245,-117.40035957771823
"99203","Spokane","WA","Elite Fitness","4100 S Cheney Spokane Rd","99224",47.616263000000004,-117.43219099999999
"99203","Spokane","WA","Snap Fitness","3717 S Grand Blvd","99203",47.62056689196913,-117.40148885679154
"99203","Spokane","WA","CYCLEBAR","2525 E 29th Ave Ste 2","99223",47.62866524278599,-117.37373910429916
"99205","Spokane","WA","Anytime Fitness","1804 W Francis Ave","99205",47.71646,-117.4382
"99205","Spokane","WA","Snap Fitness","4727 N Division St #100","99207",47.70112140713396,-117.41297469509163
"99205","Spokane","WA","Curves","not_available","99205",47.700965999999994,-117.42770300000001
"99206","Spokane","WA","Anytime Fitness","8901 E Trent Ave Ste 107","99212",47.6818,-117.28451
"99206","Spokane","WA","Forever Fit","1509 N Pines Rd","99206",47.671043395996094,-117.23995208740234
"99206","Spokane","WA","Strohs family fitness","9233 E Montgomery Ave","99206",47.67885971069336,-117.28124237060547
"99206","Spokane","WA","Giorgio's Fitness Center","11811 E 1st Ave","99206",47.657440054082656,-117.26986145700224
"99206","Spokane","WA","Olympus Personal Training","16 S. Union Suite 6","not_available",47.656564,-117.245292
"99206","Spokane","WA","Pasadena Ridge Exercise Room","not_available","99212",47.70021090250497,-117.28581972412763
"99206","Spokane","WA","Spokane Valley YMCA","2421 N Discovery Pl","99216",47.68000145878679,-117.22635578676783
"99206","Spokane","WA","Anytime Fitness","13004 E Sprague Ave","99216",47.6569329146751,-117.23074615001677
"99207","Spokane","WA","Chrome Personal Training Centre","206 East North Foothills","99207",47.68143,-117.40658799999999
"99207","Spokane","WA","Krosswind Cave","3408 E Marietta Ave","99217",47.68128204345703,-117.36016082763672
"99207","Spokane","WA","Empire Strength","112 E Wellesley Ave","99207",47.700376,-117.408351
"99208","Spokane","WA","Cedar Creek Gym","8424 N Nevada St","99208",47.733893,-117.392655
"99208","Spokane","WA","The Hutson Gym","It's a secret!","99208",47.727718233333334,-117.44397888333333
"99208","Spokane","WA","Kinetic Sports & Fitness Training Studio","321 W Hastings Rd Ste 102","99218",47.76872253417969,-117.41896057128906
"99208","Spokane","WA","Graves Gym","not_available","99218",47.75410303730389,-117.4206386804923
"99208","Spokane","WA","FastTracPerformance/CrossfitFTP","103 E Lincoln Rd","99208",47.72977066040039,-117.40895080566406
"99208","Spokane","WA","physique Fitness North","8117 N Division St","99208",47.731807,-117.412121
"99208","Spokane","WA","Physzique Spokane","9301 N Division St","99218",47.741859436035156,-117.41207122802734
"99208","Spokane","WA","Orangetheory Fitness","410 E Holland Ave","99218",47.74352289999999,-117.4052365
"99208","Spokane","WA","Anytime Fitness","101 E. Hastings Rd.","99218",47.7696,-117.4083
"99208","Spokane","WA","Oz Fitness","603 E Holland Ave","99218",47.74486727575695,-117.40092644622443
"99208","Spokane","WA","Gold's Gym","10101 N Nevada St","99218",47.74957874797612,-117.39588975906372
"99212","Spokane","WA","Training Ground","3621 S Fancher Rd","99223",47.621279140587525,-117.32409238815306
"99223","Spokane","WA","Orangetheory Fitness - Spokane South Hill","2620 E 29th Ave","99223",47.628006,-117.371595
"99223","Spokane","WA","MÜV Fitness","5501 S Regal St","99223",47.60373461809244,-117.3678195997204
"99223","Spokane","WA","Golds Gym","2921 E 57th Ave","99223",47.60294271271656,-117.36753803146884
"99223","Spokane","WA","Total Fit","2718 E 57th Ave, Spokane, WA 99223","99223",47.60179138183594,-117.37032318115234
"99224","Spokane","WA","Steve Fountian Pitching Clinic","not_available","99224",47.642682895047194,-117.44827656362638
"99301","Pasco","WA","RAB Fitness","731 N Columbia Center Blvd Ste 110","99336",46.21668,-119.226458
"99301","Pasco","WA","Columbia Basin College Gym","2600 N 20th Ave","99301",46.25018774040336,-119.12081997152251
"99301","Pasco","WA","Kia Ora Fitness","2008 N Pittsburg St","99336",46.228600242303564,-119.23941871220246
"99301","Pasco","WA","Tri-City Court Club","1350 N Grant St","99336",46.22469325591885,-119.19335213816223
"99301","Pasco","WA","24 Gym","not_available","99301",46.23948669433594,-119.07498931884766
"99301","Pasco","WA","Fairfield Inn Exercise Room","not_available","99336",46.220741,-119.227377
"99301","Pasco","WA","Mikeos","Rodeo Dr","99301",46.26910328865051,-119.18262720108032
"99301","Pasco","WA","Life Quest Gym","4215 Convention Pl","99301",46.266117453925325,-119.17851366947538
"99301","Pasco","WA","Hansen Park Fitness","910 S Columbia Center Blvd #C","99336",46.19995875240953,-119.22365501500317
"99301","Pasco","WA","Club 24 Express Fitness","120 Keene Rd","99352",46.228851318359375,-119.26725769042969
"99301","Pasco","WA","Weights And Repetition","1115 West Court St","99301",46.2417559,-119.1040368
"99301","Pasco","WA","Pasco YMCA","205 S Wehe Ave","99301",46.23167037963867,-119.07477569580078
"99301","Pasco","WA","Advanced Fitness Solutions","3180 W Clearwater Ave Ste O","99336",46.2139382,-119.16448
"99301","Pasco","WA","Gold's Gym","151 N Ely St","99336",46.21170101815416,-119.16037876151198
"99301","Pasco","WA","Planet Fitness","731 N Columbia Center Blvd, Ste 100C","99336",46.21685,-119.226249
"99301","Pasco","WA","Contenders Boxing Club","107 W Kennewick Ave","99336",46.208351135253906,-119.11894226074219
"99301","Pasco","WA","Hilton Garden Inn Fitness Center","701 N Young St","99336",46.217683,-119.219594
"99301","Pasco","WA","Natural Selection Crossfit","6818 W Kennewick Ave","99336",46.20984,-119.211525
"99301","Pasco","WA","Fit For Me Women's Fitness 24/7","4311 W Clearwater Ave","99336",46.211751,-119.179357
"99301","Pasco","WA","Blue ROOM","0818","not_available",46.47107696533203,-119.13182830810547
"99301","Pasco","WA","Columbia Fitness","433 E Columbia Dr","99336",46.212549,-119.109385
"99324","College Place","WA","Miles To Go","1021se broadway","not_available",46.0395863740539,-118.38697309222725
"99324","College Place","WA","Blue Room","not_available","99324",46.03964892899179,-118.38698841397083
"99337","Kennewick","WA","Club 24 Expesss Fitness (union)","not_available","99338",46.187144,-119.179776
"99344","Othello","WA","Anytime Fitness","740 E Main St","99344",46.82589588,-119.1638906
"99361","Waitsburg","WA","Mwh Fitness Center","not_available","99362",46.071194,-118.30576
"99361","Waitsburg","WA","Lions Gym","2222 E Isaacs Ave","99362",46.075836181640625,-118.2985610961914
"99362","Walla Walla","WA","walts fitness","Pine st","99362",46.06813762875273,-118.36804360189996
"99362","Walla Walla","WA","Overtime Training","1919 Fern Ave","99362",46.048918,-118.31368300000001
"99362","Walla Walla","WA","YMCA","340 S Park St","99362",46.066211231490186,-118.33024919472683
"99362","Walla Walla","WA","Curves M-F","not_available","97862",45.938363990105636,-118.3878829552087
"99362","Walla Walla","WA","Jazzercise","15 S Spokane St","99362",46.06849886806293,-118.33551818715415
"99362","Walla Walla","WA","The Muscle Shack","1519 E Isaacs Ave","99362",46.07525,-118.31536
"99403","Clarkston","WA","Asotin County Family Aquatic Center","1603 Dustin Loop","99403",46.4016171,-117.072912
