"zip","city","state","name","address","postalCode","lat","lon"
"02804","Ashaway","RI","Fitness Center","89 Clarks Falls Rd","06359",41.458309,-71.802842
"02806","Barrington","RI","Barrington YMCA","not_available","not_available",41.736607213546925,-71.31152941183866
"02806","Barrington","RI","Towne Gym","not_available","02915",41.762638092041016,-71.36112976074219
"02806","Barrington","RI","Fitness Together - Eastbay","334 County Rd Ste A","02806",41.7416805725902,-71.31128158953192
"02806","Barrington","RI","The gym","11 Preston Dr","02806",41.72554016113281,-71.29637145996094
"02806","Barrington","RI","Anytime Fitness","180-188 County Rd Ste B","02806",41.73738,-71.30518
"02807","Block Island","RI","Club Soda Gym","not_available","02807",41.17143,-71.566996
"02809","Bristol","RI","Bristol Total Fitness","685 Metacom Ave","02809",41.70325061286992,-71.26579500086751
"02809","Bristol","RI","Anytime Fitness","576 Metacom Ave","02809",41.694,-71.26243
"02809","Bristol","RI","Complete athlete","Gooding Avenue","not_available",41.69426670717253,-71.27362516994546
"02813","Charlestown","RI","World's Gym","Rt 1","02813",41.4090855717446,-71.62348157148868
"02816","Coventry","RI","iLoveKickboxing.com - Coventry","760 Tiogue Ave, Unit 2","02816",41.68215459003292,-71.56175420325849
"02816","Coventry","RI","Kccats","1036 Tiogue Ave","02816",41.67900466918945,-71.57743072509766
"02816","Coventry","RI","Coventry Brazilian Jiu Jitsu","2435 Nooseneck Hill Rd","02816",41.662109375,-71.6037826538086
"02816","Coventry","RI","No Fear Fitness Solutions","not_available","02816",41.68573760986328,-71.64773559570312
"02816","Coventry","RI","Gym","not_available","02817",41.66078428933239,-71.55941028342606
"02816","Coventry","RI","Body Fit","113 Tiogue Ave","02816",41.67990493774414,-71.53402709960938
"02816","Coventry","RI","Anytime Fitness","55 Sandy Bottom Rd","02816",41.68809,-71.56128
"02816","Coventry","RI","Coventry High School Gym","40 Reservoir Rd","02816",41.68442153930664,-71.59260559082031
"02817","West Greenwich","RI","Ewg Multi Purpose Room","930 Nooseneck Hill Rd","02817",41.607421875,-71.6385726928711
"02818","East Greenwich","RI","Briarwood Gym","not_available","02818",41.67063455845178,-71.49591254665029
"02818","East Greenwich","RI","Planet Fitness","Route 2","not_available",41.67816874433983,-71.50794982910156
"02818","East Greenwich","RI","Caralines Trainer","65 Friendly Rd","02818",41.649171,-71.46211
"02818","East Greenwich","RI","Poliquin Group World Headquarters","1598 S County Trl","02818",41.652530670166016,-71.4949722290039
"02818","East Greenwich","RI","Ocean State Health & Fitness","5600 Post Rd","02818",41.64154391654222,-71.46667877586009
"02818","East Greenwich","RI","GOLD'S GYM","1000 Division Rd","02818",41.649098442522806,-71.50042239738595
"02818","East Greenwich","RI","Benefitness Pilates Studio","333 Main St","02818",41.659199,-71.450122
"02818","East Greenwich","RI","Aim High Academy","3355 South County Trail","not_available",41.60544582687586,-71.49509829406759
"02818","East Greenwich","RI","Crush Fitness","6659 Post Rd","02852",41.616039,-71.458775
"02818","East Greenwich","RI","Curves Of West Warwick","289 Cowesett Ave","02893",41.68395233154297,-71.50643157958984
"02818","East Greenwich","RI","Alpha Fitness","461 Main St","02818",41.657985,-71.451942
"02818","East Greenwich","RI","Fitness Together - East Greenwich","788 Main St","02818",41.653636196450854,-71.4547661721249
"02818","East Greenwich","RI","American Health Fitness Center","555 Quaker Ln    Rte. 2","02893",41.67847242591137,-71.5012962407306
"02822","Exeter","RI","Anytime Fitness","22 Kingstown Rd","02898",41.51281,-71.68635
"02822","Exeter","RI","McGee Fitness Center","242 Plain Rd","02852",41.575374603271484,-71.51353454589844
"02826","Glendale","RI","102 Fitness Studio","1452 Broncos Hwy","02830",41.967613220214844,-71.64457702636719
"02828","Greenville","RI","Smithfield YMCA","not_available","02828",41.877426732226,-71.54838982698779
"02828","Greenville","RI","The Little Gym","Putnum Pike","02828",41.871378,-71.52885
"02828","Greenville","RI","iLoveKickboxing - Smithfield, RI","400 Putnam Pike","02917",41.8694344,-71.5297149
"02831","Hope","RI","Five Alarm Fitness","2225 Plainfield Pike","02919",41.79349346677818,-71.54232992477465
"02832","Hope Valley","RI","South County Movement Center","335 Woodville Alton Rd, Hope Valley, RI 02832","02832",41.48216247558594,-71.72990417480469
"02835","Jamestown","RI","Jamestown Fitness Center","36 Southwest Ave","02835",41.494402,-71.37601
"02837","Little Compton","RI","The Gym","not_available","02837",41.54842797790265,-71.13288434425881
"02840","Newport","RI","Newport County YMCA","792 Valley Rd","02842",41.49836007869657,-71.28632634376628
"02840","Newport","RI","Anytime Fitness","288 E Main Rd","02842",41.52067,-71.29117
"02840","Newport","RI","Newport Marriott Gym","25 Americas Cup Ave","02840",41.4897263,-71.3178107
"02840","Newport","RI","Crossfit Newport","122 Connell Hwy","02840",41.50539779663086,-71.31777954101562
"02840","Newport","RI","Bay Club Fitness Room","not_available","02840",41.484584,-71.315227
"02840","Newport","RI","Newport Athletic Club","not_available","02842",41.518209397106965,-71.29204325889188
"02840","Newport","RI","Anytime Fitness","199 Connell Hwy","02840",41.508507,-71.317092
"02840","Newport","RI","The Fitness Hub At Nimitz","197 Elliot St","02841",41.52001190185547,-71.3260498046875
"02840","Newport","RI","Gym 109","Naval Station Newport","08241",41.511772048928904,-71.32612577210226
"02840","Newport","RI","The Newport Gym","not_available","02841",41.51901,-71.324936
"02840","Newport","RI","Renaissance Gym","Rhode Island Ave","02840",41.496003925195566,-71.30783375359249
"02840","Newport","RI","Captain Howard N. Kay Hall","1801 Elliot Ave","02840",41.51888010907555,-71.32482088609954
"02842","Middletown","RI","Bridge to fitness","951 Aquidneck Ave","02842",41.5139108738856,-71.28226541664242
"02842","Middletown","RI","Crossfit One Asterisk","369 Green Ln","02842",41.553504,-71.30428
"02842","Middletown","RI","Heidi's Fitness Camp","1038 Aquidneck Ave","02842",41.51625061035156,-71.28372955322266
"02842","Middletown","RI","Home Gym","Sisson Pond Rd","not_available",41.54595927427312,-71.29456365123978
"02842","Middletown","RI","The Newport Gym","510 E Main Rd","02842",41.52234253998704,-71.283664
"02842","Middletown","RI","Force Newport Crossfit","855 Aquidneck Ave, Middletown, RI 02842","02842",41.53574371990961,-71.29156013701208
"02842","Middletown","RI","Elevate Fitness","60 Hammarlund Way","02842",41.5020637512207,-71.28351593017578
"02842","Middletown","RI","Able Mind And Body","926 Aquidneck Ave, Middletown, RI 02842","02842",41.512891757685686,-71.28327093586121
"02852","North Kingstown","RI","YMCA","7540 Post Rd","02852",41.59276161078336,-71.45643251299217
"02852","North Kingstown","RI","JTab Training","8190 Post Rd","02852",41.575164794921875,-71.46076202392578
"02852","North Kingstown","RI","Anytime Fitness","1051 Ten Rod Rd","02852",41.58321,-71.49433
"02860","Pawtucket","RI","LA Fitness","615 Pawtucket Ave","02860",41.85684865004774,-71.39984296498427
"02860","Pawtucket","RI","Planet Fitness","50 Ann Mary St","02860",41.857103,-71.402228
"02860","Pawtucket","RI","Providence Fit Body Boot Camp","1284 N Main St","02904",41.85538352837851,-71.40075757299343
"02860","Pawtucket","RI","Essentials Of Fitness","not_available","02904",41.8702636659757,-71.42047127446163
"02860","Pawtucket","RI","Ymca Gym","not_available","02860",41.858886208898426,-71.39756269267878
"02860","Pawtucket","RI","Zumba Brazilian Way","560 Mineral Spring Ave","02860",41.873549,-71.405875
"02860","Pawtucket","RI","Golds Gym","550 Pawtucket Ave","02860",41.85882953329212,-71.39749474646389
"02860","Pawtucket","RI","That Gym Guy","827 N Main St","02904",41.842273,-71.407368
"02860","Pawtucket","RI","PE Fitness Studio","1005 Main St Unit 8138B","02860",41.86228789605847,-71.40085034586733
"02860","Pawtucket","RI","Cross Trainers Health & Fitness","154 Smithfield Ave","02860",41.86318194772252,-71.41243097741503
"02860","Pawtucket","RI","Fitness Rising LLC","85 Industrial Cir Ste 2202","02865",41.8924396,-71.408609
"02860","Pawtucket","RI","Focus Fitness","101 Higginson Ave","02865",41.88450622558594,-71.4102554321289
"02860","Pawtucket","RI","BODY ROCK","85 Industrial Cir","02865",41.891990661621094,-71.40853118896484
"02860","Pawtucket","RI","Manfredo Gym","168-200 Conant St","02860",41.87803685968038,-71.39548687516074
"02860","Pawtucket","RI","The Forge","1005 Main St","02860",41.86344495077386,-71.40090477508842
"02860","Pawtucket","RI","Fight2Fitness","65 Blackstone Ave","02860",41.8814821068732,-71.38040790781868
"02860","Pawtucket","RI","Full Range Crossfit","859 N Main St","02904",41.84370803833008,-71.40644836425781
"02860","Pawtucket","RI","Pawtucket YMCA","12 Summer St","02860",41.87851020230608,-71.38526417085129
"02861","Pawtucket","RI","Ballys Fitness","Newport Avenue","02916",41.85864481982154,-71.35303439827011
"02861","Pawtucket","RI","Blast! Fitness","50 Narragansett Park Dr.","02916",41.85865256382932,-71.35271750450032
"02861","Pawtucket","RI","Bounce Utopia","17 Central Ave Ste 6","02771",41.88898468017578,-71.33970642089844
"02864","Cumberland","RI","Fore Court Racquet and Fitness","44 Cray St","02864",41.92735624098866,-71.42138076039357
"02864","Cumberland","RI","Fitness Together","618 George Washington Hwy","02865",41.935809,-71.481195
"02864","Cumberland","RI","Iron Aesthetics","7 Founders Dr, Woonsocket, RI 02895","02895",41.99041,-71.48489
"02864","Cumberland","RI","Spinworks","2370 Mendon Road","02864",41.957897,-71.44311
"02864","Cumberland","RI","Pure Barre","613 George Washington Highway","02865",41.934685,-71.4808156
"02864","Cumberland","RI","Planet Fitness","1500 Diamond Hill Rd","02895",42.017001,-71.478773
"02864","Cumberland","RI","Maxx Fitness Clubzz","622 George Washington Hwy","02865",41.93837242730239,-71.47582878764763
"02864","Cumberland","RI","My Gym","not_available","02865",41.933642,-71.462629
"02864","Cumberland","RI","Underground Fitness","3427 Mendon Rd","02864",41.978153228759766,-71.45993041992188
"02864","Cumberland","RI","Rhode Island Elite Allstars","Industrial dr","02864",41.95369733333333,-71.39525168333333
"02864","Cumberland","RI","Ashton Mills Gym","51 Front St","02864",41.93704605102539,-71.43204498291016
"02864","Cumberland","RI","Gym at Courtyard Marriott","636 George Washington Highway","not_available",41.93571853637695,-71.4712142944336
"02864","Cumberland","RI","Body Rock","not_available","02864",41.983258,-71.467238
"02864","Cumberland","RI","Fitness Center at Holiday Inn Express","194 Fortin Dr","02895",41.99217987060547,-71.4847412109375
"02865","Lincoln","RI","Fitness Together - Lincoln-Ri","600 George Washington Hwy","02865",41.936519622802734,-71.48780059814453
"02865","Lincoln","RI","Fitness Together","600 George Washington Hwy Unit 2","02865",41.93480062006974,-71.48752691330442
"02871","Portsmouth","RI","Peak fitness","Highpoint ave","02871",41.59769216491898,-71.26097178202494
"02871","Portsmouth","RI","The Fieldhouse at Portsmouth High School","not_available","02871",41.612471794669254,-71.25041748545944
"02878","Tiverton","RI","Crunch Fitness  - Fall River","450 William S Canning Blvd","02721",41.672367095947266,-71.15769958496094
"02878","Tiverton","RI","Sally's Gym","200-322 Narrow Ave","02790",41.59889751,-71.12794205
"02878","Tiverton","RI","Atlantic Health and Fitness","31 Shove St","02878",41.67135031893121,-71.18178757759522
"02879","Wakefield","RI","Luxe Fitness","55 Village Square Dr","02879",41.45445371335083,-71.47074997230331
"02879","Wakefield","RI","YMCA Of South County","165 Broad Rock Rd","02879",41.45133976944152,-71.48397349432024
"02879","Wakefield","RI","Anytime Fitness","91 Pt Judith Rd","02882",41.42874,-71.48443
"02879","Wakefield","RI","Edge Hockey Performance","1 Keaney Road","02881",41.483868,-71.53799
"02879","Wakefield","RI","South County Gym","70 Kenyon Ave","02879",41.430999755859375,-71.49639129638672
"02879","Wakefield","RI","Tootell Aquatic Center","Keaney Rd","02881",41.48674416220685,-71.53601333532217
"02879","Wakefield","RI","Studio X","1174 Kingstown Rd","02879",41.4509181722997,-71.49775011492869
"02879","Wakefield","RI","River Bend Athletic Club","316 Columbia St","02879",41.44952392578125,-71.49675750732422
"02879","Wakefield","RI","Crossfit South Kingstown","1425 Kingstown Rd","02879",41.45481834071549,-71.5058723060227
"02879","Wakefield","RI","River Bend Athletic Club","316 columbia street","not_available",41.44964465752272,-71.49649747062044
"02879","Wakefield","RI","Curves","47-99 Holley St","02879",41.443695068359375,-71.49008178710938
"02882","Narragansett","RI","The Poundhouse","29 Salem Trl","02882",41.482490000000006,-71.433544
"02882","Narragansett","RI","Curves","889 Boston Neck Rd","02882",41.47515869140625,-71.43448638916016
"02885","Warren","RI","Swansea Total Fitness","200-218 Massachusetts 118","02777",41.753470943819366,-71.21317259874809
"02885","Warren","RI","Barbelle","1707 Gar Hwy","02777",41.757478000000006,-71.245696
"02885","Warren","RI","426 Fitness","426 Metacom Ave","02885",41.72711354247448,-71.270199673072
"02885","Warren","RI","Endurance Fitness","246 Ocean Grove Ave","02777",41.726972,-71.209346
"02885","Warren","RI","all generations fitness","544 Milford Rd","02777",41.74851095346922,-71.2146316219463
"02885","Warren","RI","SALT Fitness Company","262 Swansea Mall Dr","02777",41.75496132920172,-71.21823414253474
"02885","Warren","RI","Prestige Fitness Gym","not_available","02777",41.758664705777164,-71.24884550672355
"02886","Warwick","RI","LA Fitness","1500 Bald Hill Rd","02886",41.69951813907553,-71.49467344188817
"02886","Warwick","RI","Healthtrax Fitness & Wellness","2191 Post Rd","02886",41.722506,-71.442976
"02886","Warwick","RI","Work Out World","3030 W Shore Rd","02886",41.70195205384157,-71.4311444166068
"02886","Warwick","RI","Crowne Plaza Fitness Center","801 Greenwich Ave","02886",41.71489334106445,-71.4674072265625
"02886","Warwick","RI","The Villa Del Rio Gym","not_available","02886",41.7209778597666,-71.47212895799545
"02886","Warwick","RI","Northeast Sports Training","25 Coronado Rd","02886",41.727716,-71.439565
"02886","Warwick","RI","Mike Roids Gym","Asylum rd","not_available",41.692762,-71.418796
"02886","Warwick","RI","Pro Fitness","1799 Bald Hill Rd.","02886",41.69454533771815,-71.49981000391725
"02886","Warwick","RI","Evolutionary Sports","1230 East Ave","02889",41.7205240589479,-71.4879436819317
"02886","Warwick","RI","VIP Hydration Station","not_available","02920",41.732859,-71.478215
"02886","Warwick","RI","iLoveKickboxing - Cranston, RI","1400 Oaklawn Avenue","02920",41.7328,-71.47701
"02886","Warwick","RI","Gold's Gym","200 Bald Hill Rd","02886",41.734548394992224,-71.47915951032552
"02886","Warwick","RI","The Edge Fitness Clubs","1350 Bald Hill Rd","02886",41.70191192626953,-71.49138641357422
"02886","Warwick","RI","Virtual Fit Clubs","1400 Oaklawn Ave","02920",41.73251975160636,-71.47783794475241
"02886","Warwick","RI","Insanity","50 Horta Dr, West Warwick, RI 02893","02893",41.73043441772461,-71.5180892944336
"02886","Warwick","RI","Laid Back Fitness","2800 Post Rd","02886",41.707855224609375,-71.44986724853516
"02886","Warwick","RI","What is Movement","22 Dewey Ave","02886",41.73521778,-71.4305707
"02886","Warwick","RI","The Dugeon","New London Ave","02893",41.70156860437234,-71.51548186428896
"02886","Warwick","RI","Body In Action","1639 Warwick Ave","02889",41.73164749145508,-71.40716552734375
"02888","Warwick","RI","The Way HPI","10 Worthington Rd","02920",41.751593,-71.446517
"02888","Warwick","RI","Ocean State Crossfit","50 Freeway Dr","02920",41.75314078435719,-71.44592702884525
"02888","Warwick","RI","Planet Fitness","1222 Warwick Ave","02888",41.742932404999415,-71.40724612581018
"02888","Warwick","RI","House Of Iron","1 Capuano Avenue","not_available",41.759730553975835,-71.44465967188434
"02888","Warwick","RI","Anthony Villa's Leg","not_available","02888",41.75001265,-71.38574893333333
"02888","Warwick","RI","Rhody All Stars","56 Maple St","02888",41.751309,-71.43843299999999
"02889","Warwick","RI","Melissa's Gym","Park Ave.","02889",41.7026350597458,-71.37367268081356
"02889","Warwick","RI","Lil D Fitness","not_available","02889",41.694834,-71.401525
"02889","Warwick","RI","Zumba/Herbalife Retailer","2426 W Shore Rd","02889",41.70358,-71.410591
"02889","Warwick","RI","Tropical Tans","2-32 Stillwater Dr","02889",41.715989,-71.40017900000001
"02891","Westerly","RI","Luxe Fitness","116 Granite St","02891",41.37177679300383,-71.81803524602597
"02891","Westerly","RI","Skurv's Palace","not_available","02891",41.388906133333336,-71.82938183333333
"02891","Westerly","RI","Ocean Community YMCA","95 High St","02891",41.380111450256486,-71.82749662684567
"02891","Westerly","RI","LenCo Fitness","19 High St Apt 2","02891",41.3782958984375,-71.83000183105469
"02891","Westerly","RI","Ocean House Fitness Center","1 Bluff","not_available",41.31818137782676,-71.84853706116637
"02891","Westerly","RI","Dirrdy Daves Personal Training Group","400 Post Road","02891",41.3511034,-71.75712315
"02893","West Warwick","RI","Planet Fitness","21 Colvin St","02893",41.71821594238281,-71.52921295166016
"02893","West Warwick","RI","Evolutionary Sports","not_available","02893",41.704783,-71.523925
"02893","West Warwick","RI","St Joes Gym","Wakefield st","02893",41.724849463723984,-71.49303734168292
"02893","West Warwick","RI","World Gym","1755 Bald Hill Rd","02886",41.694472,-71.49942
"02893","West Warwick","RI","crossfit banana","245 Quaker Ln","02893",41.689734,-71.50216800000001
"02893","West Warwick","RI","Kent County YMCA","900 Centerville Rd","02886",41.69405487917943,-71.493740170987
"02895","Woonsocket","RI","Planet Fitness","16 Dowling Village Blvd","02896",41.97921,-71.509878
"02895","Woonsocket","RI","Get Bent Fitness","not_available","02895",42.013294,-71.524841
"02895","Woonsocket","RI","BP Workout Room","63 Blakeley St","02895",41.99192428588867,-71.51351165771484
"02895","Woonsocket","RI","YMCA of Greater Woonsocket","18 Federal St","02895",42.00479476680109,-71.51237496034959
"02895","Woonsocket","RI","Coleman Elementary School","96 2nd Ave","02895",41.99930953979492,-71.52642822265625
"02895","Woonsocket","RI","Curves","not_available","02896",41.979462646351124,-71.51354005256343
"02896","North Smithfield","RI","Fit Center","900 Salem St","02917",41.93655014038086,-71.5330810546875
"02903","Providence","RI","Omni Gym","not_available","02903",41.825320915420996,-71.41562450938314
"02903","Providence","RI","Boston Sports Clubs","131 Pitman St","02906",41.825526064215666,-71.38777613639826
"02903","Providence","RI","Renaissance Gym","5 Avenue of the Arts","02903",41.83008285000449,-71.41671392836949
"02903","Providence","RI","The Capital Club Fitness Center at the Omni Hotel","1 W Exchange St","02903",41.82535202037091,-71.4156373066624
"02903","Providence","RI","903 Gym","903 Providence Pl","02903",41.82729134985527,-71.42196393787239
"02903","Providence","RI","CYCLEBAR","23 Providence Pl","02903",41.8277689,-71.4156998
"02903","Providence","RI","Iyengar Yoga Source","1155 Westminster St Ste 201","02909",41.8173743,-71.4276713
"02903","Providence","RI","VP Fitness","10 Dorrance St Ste 200","02903",41.8239855,-71.4118187
"02903","Providence","RI","Waterplace Residence Gym 2F","100 Exchange St","02903",41.827402,-71.412773
"02903","Providence","RI","Spin Works","mineral spring ave","02904",41.825898,-71.43031
"02903","Providence","RI","Da Gym","not_available","02906",41.826019203357,-71.38780392792171
"02903","Providence","RI","RIH YMCA","98-100 Borden St","02903",41.813140780000005,-71.4106313
"02903","Providence","RI","Rock Spot Climbing","42 Rice St","02907",41.814369201660156,-71.42263793945312
"02903","Providence","RI","Grant Mill Gym","not_available","02909",41.818226,-71.429625
"02903","Providence","RI","Fitness Center @ The Providence Biltmore","11 Dorrance St","02903",41.82443901158856,-71.41331648473594
"02903","Providence","RI","Club Run Studio","116 Union St","02903",41.82347869873047,-71.41357421875
"02903","Providence","RI","Formless Fitness","14 Bassett St","02903",41.817909240722656,-71.4104995727539
"02903","Providence","RI","Crossfit Providence","425 Washington St","02903",41.81823727556406,-71.42279950624555
"02904","Providence","RI","Planet Fitness","1920 Mineral Spring Ave","02904",41.859802,-71.46843
"02904","Providence","RI","American Muscle Corps","725 Branch Ave","02904",41.85463244718806,-71.42954324372113
"02904","Providence","RI","North Providence YMCA","1810 Mineral Spring Ave","02904",41.8614387512207,-71.45886993408203
"02904","Providence","RI","Downtown Marriott Gym","1 Orms St","02904",41.835485731529474,-71.41305793213088
"02904","Providence","RI","La Salle Weight Room","not_available","02908",41.84250450623243,-71.4470308818528
"02904","Providence","RI","Casa del Cottle gym","601 Smithfield Rd","02904",41.86499422412107,-71.46672038225587
"02904","Providence","RI","East Side YMCA","438 Hope St","02906",41.83840014870773,-71.40082892311905
"02904","Providence","RI","Orangetheory Fitness","563 N Main St","02904",41.836816,-71.408604
"02904","Providence","RI","2nd Stepper From The Right @ World Gym","not_available","02911",41.851229,-71.460751
"02904","Providence","RI","Ladies Workout Express","not_available","02919",41.86621753615023,-71.4739595308025
"02904","Providence","RI","The Maxx Fitness Club","650 Branch Ave","02904",41.85206654795118,-71.42693230492257
"02904","Providence","RI","Youfit Health Clubs","1527 Smith St","02911",41.85099775316007,-71.46095886826515
"02905","Providence","RI","Exercise Solutions Training Studio","14 Bartlett Ave","02905",41.777232,-71.401682
"02905","Providence","RI","The Edge Fitness For Women","1788 Broad St","02905",41.77682876586914,-71.39939880371094
"02905","Providence","RI","Kent Farm Fitness Center","not_available","02914",41.806386,-71.370067
"02906","Providence","RI","Fitness Together - Providence","145 Elmgrove Ave","02906",41.834781075104644,-71.39072029155079
"02907","Providence","RI","Dutemple Elementary School","23 Garden street","02910",41.7805054436786,-71.43129015988454
"02907","Providence","RI","39 concord","39 Concord Ave","02910",41.776202590807905,-71.43923367001142
"02907","Providence","RI","workout world","not_available","02907",41.79609717860682,-71.42802597524991
"02907","Providence","RI","Bob's","25 Justin Way","not_available",41.77611901100179,-71.43927366222717
"02907","Providence","RI","Blast! Fitness","333 Adelaide Ave","02907",41.796184775278235,-71.42821745096253
"02909","Providence","RI","Gym at Rising Sun Mills","166 Valley St","02909",41.82091209674394,-71.44077603273634
"02909","Providence","RI","Fitness With Bells","69 Silver Lake Ave","02909",41.807374,-71.460615
"02909","Providence","RI","Body Armour Fitness Kettlebell Gym","1010 Plainfield St","02919",41.80423,-71.46696
"02910","Cranston","RI","Chico's Bail Bonds and Workout Wonderworld","900 Reservoir Ave","02910",41.77622985839844,-71.44722747802734
"02910","Cranston","RI","Cranston YMCA","1225 Park Ave","02910",41.78457642546238,-71.45257163640171
"02910","Cranston","RI","iLoveKickboxing.com","530 Wellington Ave","02910",41.77278518676758,-71.42664337158203
"02910","Cranston","RI","The Edge Fitness Clubs","296 Garfield Ave","02920",41.79414699941026,-71.44616797726519
"02914","East Providence","RI","Work Out World","1925 Pawtucket Ave","02914",41.823965611512314,-71.35808128235196
"02914","East Providence","RI","Healthtrax Fitness & Wellness Center","15 Catamore Blvd","02914",41.80571,-71.34253
"02914","East Providence","RI","Art Of Strength/pumch Gym","3-5 progress st","not_available",41.800069,-71.33321
"02914","East Providence","RI","Michelets Taekwondo School","242 Taunton Ave","02914",41.820097,-71.370025
"02914","East Providence","RI","World Gym","350 Fall River Ave","02771",41.81910971866835,-71.33605037802826
"02915","Riverside","RI","Sherwood Indoor Sports Seekonk","1310 Fall River Ave","02771",41.79248318667394,-71.32045303833216
"02915","Riverside","RI","Seekonk Total Fitness","1301 Fall River Ave","02771",41.790282138412906,-71.32259262731988
"02915","Riverside","RI","iLoveKickboxing - East Providence/Seekonk, MA","20 Commerce Way","02771",41.79448699951172,-71.3244400024414
"02915","Riverside","RI","Crossfit Prowess","40 Mead St","02771",41.791436,-71.32723299999999
"02915","Riverside","RI","Gym","120 Village Grn N","02915",41.78828048706055,-71.3593978881836
"02915","Riverside","RI","Out of Control Allstars Cheer Company","40 Mead Street, Unit 1","02771",41.79107652269516,-71.32700222327878
"02916","Rumford","RI","Curves","56 Newport Ave","02916",41.85744157468239,-71.35303439827011
"02916","Rumford","RI","212 Health and Performance","20 Newman Ave #2002","02916",41.83999883709536,-71.35411315706635
"02916","Rumford","RI","Rumford Center Work Out Room","20 Newman Ave","02916",41.841099,-71.354614
"02917","Smithfield","RI","Bryant University Chace Wellness Center","Jacob Dr","02917",41.92097710213548,-71.53936263095574
"02917","Smithfield","RI","Fit Center OSGYM","500 Salem St","02917",41.931941986083984,-71.53072357177734
"02917","Smithfield","RI","Red Island CrossFit","10 Industrial Dr","02917",41.916255950927734,-71.5495376586914
"02917","Smithfield","RI","Twins Gym","not_available","02917",41.91796061157322,-71.52018853924875
"02917","Smithfield","RI","Fit Source Rhode Island","34 Lark Industrial Dr","02828",41.92482357930389,-71.53137624263763
"02917","Smithfield","RI","Elite Fitness","970 Douglas Pike","02917",41.91496453604208,-71.51610208247638
"02917","Smithfield","RI","CYCLEBAR","371 Putnam Pike Ste 310","02917",41.87446270885941,-71.51693176322937
"02917","Smithfield","RI","New Life Fitness","915 Douglas Pike","02917",41.91468684526216,-71.51540071416427
"02919","Johnston","RI","Peter Mollo Fitness","1340 Hartford Ave","02919",41.822117,-71.496277
"02919","Johnston","RI","Wellness Center","1301 Atwood Ave","02919",41.80889129638672,-71.49410247802734
"02919","Johnston","RI","Club Fit 24","1347 Hartford Ave","02919",41.82375490665436,-71.4969025
"02919","Johnston","RI","Anytime Fitness","1577 Atwood Ave","02919",41.82934,-71.49933
"02919","Johnston","RI","iLoveKickboxing.com - Johnston","1408 Atwood Ave","02919",41.81935041773557,-71.49813758034334
"02919","Johnston","RI","FM Global Gym","270 Central Ave","02919",41.80855941772461,-71.48408508300781
"02919","Johnston","RI","Rainone Gym","45 Mill St","02919",41.796151,-71.486878
"02919","Johnston","RI","Total Health Fitness Center","233 Morgan Ave","02919",41.80862589093277,-71.48377005620794
"02919","Johnston","RI","Muscle Mind Motivation Fitness Club","1351 Hartford Ave","02919",41.823853,-71.496868
"02919","Johnston","RI","Fit4Life","1478 Atwood Ave, Johnston, RI 02919","02919",41.82269287109375,-71.49899291992188
"02919","Johnston","RI","Pocasset Mill Fitness Center","75 Pocasset St","02919",41.797251,-71.476379
"02920","Cranston","RI","LA Fitness","190 Hillside Rd","02920",41.758660312739686,-71.45755098439437
"02920","Cranston","RI","Pure Barre","2000 Chapel View Blvd Ste 125","02920",41.75722944848863,-71.45991260983908
"02920","Cranston","RI","Jeff Allen's Latin and Ballroom Dance Studio","800 Oaklawn Avenue, Unit M2","02920",41.75045614792245,-71.47743746494297
"02920","Cranston","RI","Curves of Cranston","669 Oaklawn Ave","02920",41.754882,-71.476807
"02920","Cranston","RI","Swarovski Corporate Gym & Wellness Center","1 Kenney Dr","02920",41.74259948730469,-71.45603942871094
"02920","Cranston","RI","Body Complete Fitness","1375 Park Ave","02920",41.78420639038086,-71.45903778076172
"02920","Cranston","RI","Orangetheory Fitness","4 Chapel View Blvd","02920",41.75553512573242,-71.46112823486328
"02920","Cranston","RI","LA Fitness","180 Hillside Rd","02920",41.759918212890625,-71.45864868164062
"02920","Cranston","RI","Perfectly Fit @ RBS","100 Sockanosset Cross Rd","02920",41.75284283070763,-71.45569233161898
"02920","Cranston","RI","Tedesco's Fitness & Kettlebells","926 Oaklawn Ave","02920",41.74635314941406,-71.47875213623047
"02920","Cranston","RI","Fit World","30 Kenney Dr","02920",41.74321672852913,-71.45066598903102
"02921","Cranston","RI","Dragonfly Studio","1199 Pippin Orchard Rd","02921",41.765642,-71.525755
"02921","Cranston","RI","Primal Athlete Training Center","101 Comstock Pkwy Ste 8","02921",41.78559112548828,-71.51663208007812
"02921","Cranston","RI","better bodies functional fitness","140 Comstock Pkwy Unit 9","02921",41.785169943304055,-71.51456022962137
"02921","Cranston","RI","VIP Fit Club","1400 Oaklawn Ave, Marshalls Plaza, Cranston, RI 02920","02920",41.732855839843296,-71.47819269220915
