"zip","city","state","name","address","postalCode","lat","lon"
"87002","Belen","NM","Extreme Fitness","301 E Reinken Ave","87002",34.660119,-106.763849
"87002","Belen","NM","Elite Muscle","115 S Main St","87002",34.66019821166992,-106.7773208618164
"87002","Belen","NM","Eagle Park Weight Room","not_available","87002",34.67157931064155,-106.77066597543268
"87004","Bernalillo","NM","Elite Physique Gym","1660 Rio Rancho Dr SE Ste B","87124",35.2326022,-106.6557691
"87004","Bernalillo","NM","GoTime Fitness","111 New Mexico 528","87124",35.259484,-106.639586
"87004","Bernalillo","NM","Crossfit Hunger","1542 Stephanie Rd SE #105","87124",35.23323059082031,-106.65142822265625
"87004","Bernalillo","NM","Charter Fitness","1660 Rio Rancho Dr SE","87124",35.23238821485032,-106.65588806519786
"87004","Bernalillo","NM","Crossfit Sandstorm","HWY 550","87004",35.32425440935603,-106.56398617703867
"87004","Bernalillo","NM","Tamaya Fitness Center Gym","not_available","87004",35.35091187932228,-106.54541664547138
"87004","Bernalillo","NM","Wii Zumba!","not_available","87124",35.2597770690918,-106.67023468017578
"87004","Bernalillo","NM","Santa Ana Fitness Center","not_available","not_available",35.34285512310259,-106.53138648602862
"87004","Bernalillo","NM","Curves","3301 Southern Blvd SE","87124",35.24316820200912,-106.66989249132176
"87004","Bernalillo","NM","HP Fitness","not_available","87144",35.30752848219272,-106.6197619868515
"87004","Bernalillo","NM","Crossfit Hellbox","581 Quantum Rd NE","87124",35.26798629760742,-106.63616943359375
"87004","Bernalillo","NM","Defined Fitness","4080 Ridge Rock Rd SE","87124",35.250047,-106.653667
"87004","Bernalillo","NM","Loaded Bell CrossFit","4116 Jackie Rd SE Ste 104","87124",35.23609924316406,-106.65360260009766
"87004","Bernalillo","NM","Anytime Fitness","4405 Jager Dr. NE Ste. B1","87144",35.326652,-106.57546599999999
"87008","Cedar Crest","NM","Vista Grande Community Center","15 La Madera Rd","87047",35.177067,-106.341008
"87008","Cedar Crest","NM","Better Balance & Strength for Seniors","10 Tecolote Rd","87059",35.105739,-106.324266
"87013","Cuba","NM","StayHeated.com Workout Room","PO Box 46133","87174",35.320564,-106.72441709999998
"87016","Estancia","NM","Four seasons health club","1600 7th Street","87032",34.78172635,-105.94812348333333
"87020","Grants","NM","T Bones Gym","100-244 E Stephens Ave","87020",35.151582304387226,-107.84601005061847
"87020","Grants","NM","Snap Fitness - Grants","901 N 1st St","87020",35.16155681199924,-107.83351525922934
"87020","Grants","NM","JHM Gym","1342-1626 Lobo Canyon Rd","87020",35.17152989732398,-107.82226462598489
"87031","Los Lunas","NM","Planet Fitness","1950 Ken Haynes Rd","87031",34.813362,-106.759658
"87031","Los Lunas","NM","Anytime Fitness","2510 Main St NE","87031",34.80784855605545,-106.70315891504286
"87031","Los Lunas","NM","My Body n Soul Wellness Center","not_available","87031",34.83095169067383,-106.748046875
"87031","Los Lunas","NM","Main Street Muscle And Fitness","435 Main St.","87031",34.80943780302599,-106.73976338670157
"87031","Los Lunas","NM","JMC Training & Fitness Center","3551 State Highway 47, Spc C","87042",34.81940841674805,-106.69334411621094
"87048","Corrales","NM","Simon Kiddy's Clubhouse","not_available","87114",35.19893793985669,-106.65768694120264
"87048","Corrales","NM","NUTRISHOP","3410 State Highway 528 NW","87114",35.20439147949219,-106.6509017944336
"87048","Corrales","NM","Lapaz Gym","Calle Cuervo","not_available",35.208909,-106.649728
"87048","Corrales","NM","Cottonwood ranch gym","10001 Coors Bypass NW","87114",35.19920349121094,-106.6620101928711
"87102","Albuquerque","NM","Alvarado Gym","611 Lead Ave SW","87102",35.082356,-106.65542
"87102","Albuquerque","NM","Downtown Sports and Wellness","40 First Plaza Center Northwest #76","87102",35.0851459,-106.6481632
"87102","Albuquerque","NM","Iron Soul Gym","216 Menaul Blvd NE","87107",35.109771,-106.64038799999999
"87102","Albuquerque","NM","New Heart","Lomas","not_available",35.09048,-106.63778300000001
"87102","Albuquerque","NM","Sunlighten Sauna Dealer Albuquerque","8100 Wyoming Blvd NE","87113",35.084201405504594,-106.6498875617981
"87102","Albuquerque","NM","Embassy Gym","not_available","87102",35.0916633605957,-106.63585662841797
"87102","Albuquerque","NM","Embassy Suites Fitness Center","1000 Woodward Pl NE, Albuquerque, NM 87102","87102",35.09191399329388,-106.63617344528942
"87102","Albuquerque","NM","Xpac Fit Gym","1445 Central Ave NW","87104",35.090063,-106.663945
"87102","Albuquerque","NM","Greg's Pad (not Tom's)","122 Cornell Dr SE","87106",35.079294,-106.61928200000001
"87102","Albuquerque","NM","Jackson Wink Academy","301 Dr Martin Luther King Jr Ave NE","87102",35.086633,-106.643289
"87102","Albuquerque","NM","Broadstone Gym","1953-1999 Gibson Blvd SE","87106",35.05900991,-106.62708864
"87102","Albuquerque","NM","Rebel Workout","300 Central Ave SE","87102",35.083298,-106.644278
"87102","Albuquerque","NM","Sandia CrossFit","1224 Sawmill Rd NW","87104",35.10024713270619,-106.66008702560733
"87102","Albuquerque","NM","SAHQ Training Facility","1404 Lead Ave SE, Albuquerque, NM 87106","87106",35.07866287231445,-106.63158416748047
"87102","Albuquerque","NM","Rhino's Gym","1417 Central Ave.","not_available",35.08198835,-106.63034593
"87102","Albuquerque","NM","Sheraton Albuquerque Airport Hotel Gym (2nd Floor)","2910 Yale Blvd SE, Albuquerque, NM 87106","87106",35.051170349121094,-106.62098693847656
"87102","Albuquerque","NM","Sunport Davita Fitness Center","2901 Transport St SE","87106",35.05339813232422,-106.63617706298828
"87102","Albuquerque","NM","Sheraton Albuquerque Gym and Fitness Center (Members Only)","not_available","87106",35.0512705166688,-106.6207290253308
"87105","Albuquerque","NM","Liberty Gym","not_available","87110",35.10579481499797,-106.59368141024521
"87105","Albuquerque","NM","Defined Fitness Mesa Club","8050 Central Avenue SW","87121",35.0766882,-106.7241288
"87105","Albuquerque","NM","Midtown Sports and Wellness","4100 Prospect NE","87110",35.10681,-106.60013
"87105","Albuquerque","NM","Westside Community Center","1124 Sunflower Rd SW","87105",35.053922,-106.67199099999999
"87105","Albuquerque","NM","Orangetheory Fitness","5010 Cutler Ave NE","87110",35.10499580183115,-106.58888063595904
"87105","Albuquerque","NM","Snap Fitness","99999 Cumbres St NE","87112",35.09548970565077,-106.49601129274649
"87105","Albuquerque","NM","Snap Fitness - Tramway Boulevard","1530 Tramway Blvd NE","87112",35.09559261196849,-106.49597654331629
"87105","Albuquerque","NM","Zia Strength Systems","5400 Coal Ave SE","87108",35.075353,-106.585108
"87105","Albuquerque","NM","Albuquerque Marriott Fitness Center","2101 Louisiana Blvd NE","87110",35.09952008068579,-106.57049481443501
"87105","Albuquerque","NM","Mike's Gym","214 San Pedro Dr NE","87108",35.08979,-106.577114
"87105","Albuquerque","NM","Zumba","3801 Isleta Blvd SW","87105",35.019901275634766,-106.68370819091797
"87105","Albuquerque","NM","¡Muévelo! Fitness Studio","806 Old Coors Dr SW, Albuquerque, NM 87105","87105",35.07130813598633,-106.69921112060547
"87105","Albuquerque","NM","Tensegrity Fitness","203 Wellesley Dr SE","87106",35.078728000000005,-106.608607
"87105","Albuquerque","NM","Planet Fitness","3725 Las Estancias Ct SW","87121",35.022707,-106.713002
"87105","Albuquerque","NM","The Source","1111 Carlisle Blvd SE","87106",35.06352996826172,-106.60450744628906
"87105","Albuquerque","NM","Building 22018 Fitness Center","A St SE","87123",35.06253073450217,-106.54011011123657
"87105","Albuquerque","NM","Anytime Fitness","4212 Coal Ave SE","87108",35.07571,-106.59744
"87106","Albuquerque","NM","UNM Athletics","1626 university Blvd. Se","not_available",35.06571660231611,-106.6297606825746
"87106","Albuquerque","NM","Ryde Shack","101 Bryn Mawr Dr SE","87106",35.08002697471404,-106.6097098154414
"87107","Albuquerque","NM","Riverpoint Sports and Wellness","9190 Coors Boulevard Northwest","87120",35.17903,-106.66816
"87107","Albuquerque","NM","Defined Fitness","6210 Riverside Plaza Ln NW","87120",35.154548,-106.680449
"87107","Albuquerque","NM","Anytime Fitness","3301 Menaul Blvd NE Ste 14-15","87107",35.11041,-106.607814
"87107","Albuquerque","NM","Southwest Sports Institute","5910 Midway Park Blvd NE Ste A","87109",35.147813,-106.602698
"87107","Albuquerque","NM","The Gym @ Las Mananitas","6200 Montano Plaza Dr NW","87120",35.153639,-106.685682
"87107","Albuquerque","NM","Black Box Fitness","4201 Yale Blvd NE","87107",35.12789393037514,-106.62185007646329
"87107","Albuquerque","NM","Absolute Results","3520 Pan American Fwy NE","87107",35.121179780362205,-106.62188026725171
"87107","Albuquerque","NM","Resolute Strength","5445 Edith Blvd NE Ste H","87107",35.13594055175781,-106.62924194335938
"87107","Albuquerque","NM","Orangetheory Fitness","6361 Riverside Plaza Ln NW","87120",35.157462,-106.680149
"87107","Albuquerque","NM","Xclusive Fitness","413 Montano","87107",35.136635,-106.626533
"87107","Albuquerque","NM","Enchantment Elite Cheer","3800 Hawkins St NE","87109",35.1624934,-106.6020993
"87107","Albuquerque","NM","Planet Fitness - Albuquerque (4th), NM","6211 4th St NW","87107",35.14516830444336,-106.64054870605469
"87107","Albuquerque","NM","Cool Springz","not_available","87107",35.12932064856994,-106.62123577420307
"87107","Albuquerque","NM","Sombra Del Oso Gym","Challenger Learning Center of Nm, 1776 Montano Rd NW, Los Ranchos, NM 87107-3245","87107-3245",35.14128494262695,-106.66262817382812
"87107","Albuquerque","NM","United Fit","3305 Vassar Dr NE","87107",35.117701,-106.615735
"87107","Albuquerque","NM","Finally Fit","9101 High Assets Way NW Ste 108","87120",35.18035888671875,-106.67408752441406
"87107","Albuquerque","NM","eVOLV Strong","3201 Candelaria Rd NE","87107",35.117035,-106.61071
"87108","Albuquerque","NM","Jacksons MMA","5505 Acoma Rd SE","87108",35.075225830078125,-106.58397674560547
"87108","Albuquerque","NM","Kirtland AFB East Fitness Center","not_available","87117",35.05461390168933,-106.55739142026428
"87108","Albuquerque","NM","West Side Gym","Kirtland AFB","not_available",35.055072698271665,-106.59346106332134
"87108","Albuquerque","NM","15-C Fitness Center","Raymond G Murphy VA Medical Center","87108",35.05524174329874,-106.5861370699486
"87109","Albuquerque","NM","Defined Fitness","4930 McLeod Rd NE","87109",35.137791,-106.588348
"87109","Albuquerque","NM","Presbyterian Healthplex","6301 Forest Hills Dr NE","87109",35.158319,-106.579954
"87109","Albuquerque","NM","YogaSix","5901 Wyoming Blvd NE Ste P-7","87109",35.14739383600852,-106.5553994704486
"87109","Albuquerque","NM","Republiq","6300 San Mateo Blvd NE Ste Q","87109",35.1489799,-106.5858911
"87109","Albuquerque","NM","San Pedro Village Fitness Room","4209 San Pedro Dr NE, Albuquerque, NM 87109","87109",35.13300323486328,-106.57804107666016
"87109","Albuquerque","NM","T-Mobile Gym","5421 Jefferson ST SE","87109",35.14399935,-106.59809807
"87109","Albuquerque","NM","FIREBELLZ: Russian Kettlebell Training and Z Health Performance","7447 Pan American West Fwy NE","87109",35.163117,-106.58798600000001
"87109","Albuquerque","NM","HD Fitness Studio","9050 Montgomery Blvd NEW","87111",35.130287,-106.542474
"87109","Albuquerque","NM","Fitness Center","Silverado Apartments","87109",35.14553821141322,-106.58377647399902
"87109","Albuquerque","NM","Precision Gymnastics","4606 McLeod Rd NE","87109",35.137235,-106.592052
"87109","Albuquerque","NM","Cool Springz","not_available","87109",35.140156,-106.587989
"87109","Albuquerque","NM","Sweatshop.","3900 Masthead St NE","87109",35.16592025756836,-106.59947967529297
"87109","Albuquerque","NM","Church Of Pain","6300 San Mateo Blvd NE","87109",35.14876347122646,-106.58503250161347
"87109","Albuquerque","NM","Open Gym","4200 Wyoming Blvd NE","87111",35.128644565983365,-106.54983393710513
"87109","Albuquerque","NM","SWEAT Yoga Studio","4500 Osuna Rd NE","87109",35.154131,-106.591576
"87109","Albuquerque","NM","The Enclave","9500 Osuna Rd NE","87111",35.13613073046132,-106.53415602258355
"87109","Albuquerque","NM","Academy Hills Fitbody Bootcamp","6501 Wyoming Blvd NE","87109",35.15249252319336,-106.56114196777344
"87109","Albuquerque","NM","Jewish Community Center","5520 Wyoming Blvd NE","87109",35.142745332178976,-106.54975684982183
"87110","Albuquerque","NM","The Y","commanche","not_available",35.1234255,-106.562083
"87110","Albuquerque","NM","Conditioned By Kelly Tekin","2621 Wyoming Boulevard Northeast","87112",35.115851,-106.551423
"87110","Albuquerque","NM","Invictus Brazilian Jiu Jitsu And Muay Thai","not_available","87112",35.096733,-106.550891
"87110","Albuquerque","NM","Team Tapia Boxing Academy","2500 San Mateo Pl NE","87110",35.107751,-106.585967
"87110","Albuquerque","NM","Gracie Barra NM (East)","1504 San Pedro Dr NE","87110",35.092037200927734,-106.57707977294922
"87111","Albuquerque","NM","Snap Fitness","7900 Carmel Ave NE","87122",35.17657456018485,-106.55797784462541
"87111","Albuquerque","NM","Highpoint Sports and Wellness","4300 Landau NE","87111",35.12866,-106.49392
"87111","Albuquerque","NM","CYCLEBAR","9900 Montgomery Blvd NE Ste B","87111",35.129920959472656,-106.53095245361328
"87111","Albuquerque","NM","Broadstone Heights Pool","not_available","87122",35.17635042295399,-106.54918656137563
"87111","Albuquerque","NM","Head Over Heels","not_available","87111",35.14666461589374,-106.52668187615214
"87111","Albuquerque","NM","Orangetheory Fitness","8850 Holly Ave NE","87122",35.1751594543457,-106.54531860351562
"87111","Albuquerque","NM","Mountain Run Gym","5802 Eubank Blvd NE","not_available",35.145599,-106.526699
"87111","Albuquerque","NM","Defined Fitness","3301 Juan Tabo Blvd NE","87111",35.1183088,-106.5171598
"87111","Albuquerque","NM","Anytime Fitness","5809 Juan Tabo NE","87111",35.1468,-106.52445
"87111","Albuquerque","NM","Cardio Fitness Center","Spring Park Apartments","87111",35.14715679319803,-106.5290755033493
"87111","Albuquerque","NM","Snap Fitness","12251 Academy Rd NE","87111",35.15266418457031,-106.49915313720703
"87112","Albuquerque","NM","Powerflex Gym","1635 Eubank Blvd NE","87112",35.09940913022193,-106.53312204965535
"87112","Albuquerque","NM","Crunch Fitness - Albuquerque","840 Juan Tabo Boulevard Northeast","87123",35.085221000000004,-106.51465
"87112","Albuquerque","NM","Beauty Body Brains","10900 Menaul Blvd NE Ste A","87112",35.108936075675516,-106.5184298157692
"87112","Albuquerque","NM","Momentum Pilates & Gyrotonic Studio","10900 Menaul Blvd NE, Suite J","87112",35.108472,-106.519108
"87112","Albuquerque","NM","Curves","Juan Tabo","87112",35.104538,-106.514845
"87113","Albuquerque","NM","Pure Barre","6500 Holly Ave NE Ste A-4","87113",35.1754685,-106.5735565
"87113","Albuquerque","NM","Fifth Dimension Cheer Gym","Washington St","not_available",35.17900293685964,-106.5947106060799
"87113","Albuquerque","NM","Crossfit ABQ","6501 Eagle Rock Ave NE","87113",35.187819,-106.572861
"87113","Albuquerque","NM","CEDARFit Boot Camp","5701 Carmel Ave NE","87113",35.177649,-106.580169
"87113","Albuquerque","NM","F45 Training North East Heights","5920 Holly Ave NE","87113",35.17567,-106.578753
"87114","Albuquerque","NM","ACE Kids Gym","6824 Brushfield Rd NW","87114",35.19785,-106.73186100000001
"87114","Albuquerque","NM","CrossFit Petroglyph","6521 Paradise Blvd NW","87114",35.193527594222374,-106.72504471753378
"87114","Albuquerque","NM","Snap Fitness","5740 Night Whisper Rd NW","87114",35.21603883097805,-106.69840156086498
"87114","Albuquerque","NM","Ring Of Fire","8100 Rainbow Blvd NW","87114",35.17717361450195,-106.73304748535156
"87114","Albuquerque","NM","Anytime Fitness","5708 McMahon Blvd NW","87114",35.208033,-106.683702
"87114","Albuquerque","NM","Robert Drake's Dungeon","5100 Stone Mountain Rd NW","87114",35.21110153198242,-106.68534851074219
"87120","Albuquerque","NM","UFC Gym","5400 Sevilla Ave NW","87120",35.14070240073595,-106.70009634638222
"87120","Albuquerque","NM","Jazzercise West","3296 Coors Blvd NW Ste A","87120",35.120418548583984,-106.70015716552734
"87120","Albuquerque","NM","Anytime Fitness","2115 Vista Oeste NW Ste A","87120",35.10917,-106.730499
"87120","Albuquerque","NM","zandra's zumba","not_available","87105",35.08188774771341,-106.70324724784726
"87120","Albuquerque","NM","Heavenly Creation's","not_available","87120",35.0993766784668,-106.72843933105469
"87120","Albuquerque","NM","Duke City Crossfit","520 Airport Dr NW Ste C5","87121",35.08686635188083,-106.71696569137528
"87120","Albuquerque","NM","Snap Fitness","2115 Vista Oeste NW","87120",35.10918045043945,-106.73053741455078
"87120","Albuquerque","NM","¡Mueveló! Fitness Studio","Bridge Blvd SW, Albuquerque, NM","87105",35.068634033203125,-106.7002944946289
"87120","Albuquerque","NM","Lovato's Total Fitness","not_available","87121",35.099113,-106.712811
"87121","Albuquerque","NM","Anytime Fitness","9550 Sage Rd SW Ste A105","87121",35.05511,-106.73819
"87123","Albuquerque","NM","Club Presidio","10835 Arguello Trl NE","87123",35.0778,-106.526261
"87124","Rio Rancho","NM","Fit Tease","2218 Southern Blvd SE","87124",35.2411003112793,-106.69131469726562
"87124","Rio Rancho","NM","Westside Fit body Bootcamp","1515 Golf Course Rd SE #106, Rio Rancho, NM 87124","87124",35.23023688935639,-106.6777691588198
"87124","Rio Rancho","NM","The Sports Clubs","2003 Southern Blvd SE","87124",35.24251715895501,-106.69462233255082
"87301","Gallup","NM","Starlette Dance Studio","not_available","87301",35.50936257303547,-108.73827721978543
"87301","Gallup","NM","Gallup Fitness Center","Old Zuni Rd","87301",35.51997406167123,-108.74973961545759
"87301","Gallup","NM","Lisa's Beautiful Image","Downtown Gallup","87301",35.52717809315578,-108.74260439922267
"87301","Gallup","NM","Curves","835 Metro Ave","87301",35.52685752019718,-108.75973378252561
"87301","Gallup","NM","Herbal Life","104 Boardman Dr","87301",35.52872848510742,-108.70948791503906
"87327","Zuni","NM","Zuni Wellness Center","not_available","87327",35.07226835886165,-108.84832189077524
"87401","Farmington","NM","Anytime Fitness","1245 West Apache Street","87401",36.73351359999999,-108.228383
"87401","Farmington","NM","Anytime Fitness","4917 E Main St","87402",36.766479,-108.145812
"87401","Farmington","NM","Defined Fitness","1700 E 20th St","87401",36.748859,-108.185783
"87401","Farmington","NM","Punch's Boxing Club","not_available","87401",36.740184,-108.180899
"87410","Aztec","NM","Anytime Fitness","105 W Aztec Blvd","87410",36.82652,-107.99409
"87420","Shiprock","NM","The Francis Gym","not_available","87420",36.761281669525886,-108.70434015558493
"87501","Santa Fe","NM","Santa Fe Way","605 Baca St","87505",35.67908,-105.96409
"87501","Santa Fe","NM","Villas de Santa Fe gym","not_available","87501",35.69307782222577,-105.94349560093106
"87501","Santa Fe","NM","Santa Fe Spa","786 N Saint Francis Dr","87501",35.70006466655719,-105.9522692855431
"87501","Santa Fe","NM","jazzercise","244 Maynard St","87501",35.686820000000004,-105.95106899999999
"87501","Santa Fe","NM","Fitness Center At La Posada","not_available","87505",35.685756595682506,-105.93249247777707
"87501","Santa Fe","NM","Orangetheory Fitness","516 W Cordova Rd","87505",35.67282003458826,-105.9515083837339
"87501","Santa Fe","NM","Crossfit Santa Fe","915 West Almeda","87501",35.68862533569336,-105.95875549316406
"87501","Santa Fe","NM","Bulldog Gym Santa Fe","909 Early St","87505",35.675838,-105.95180800000001
"87501","Santa Fe","NM","Santa Fe Spirit Cheer Academy","515 Cerrillos Rd","87501",35.682033000000004,-105.94510700000001
"87501","Santa Fe","NM","Fitness Center","198 State Road 592","87506",35.79612350463867,-105.92882537841797
"87501","Santa Fe","NM","The Gym @ The Reserve","941 Calle Mejia","87501",35.7046012878418,-105.94924926757812
"87501","Santa Fe","NM","Carl and Sandra's Physical Conditioning Center","DeVargas Mall","not_available",35.692455,-105.952039
"87505","Santa Fe","NM","Level Gym","Km 20 ruta 2","87507",35.688136,-105.989107
"87505","Santa Fe","NM","Curves","2426 Cerrillos Rd","87505",35.659099,-105.98138300000001
"87505","Santa Fe","NM","Planet Fitness","2412 Cerrillos Rd","87505",35.65915767771258,-105.98093798948956
"87505","Santa Fe","NM","Anytime Fitness","720 St. Michael's Dr.","87505",35.65753,-105.96101
"87506","Santa Fe","NM","Prather Gym","not_available","87532",35.9552456,-106.06330081666667
"87506","Santa Fe","NM","Santa Fe Women's Fitness Center","1119 Calle De Cielo","87505",35.652799,-105.993932
"87506","Santa Fe","NM","Dynamic Kettlebell","3201 Richards Ln Ste B","87507",35.65760040283203,-105.99917602539062
"87506","Santa Fe","NM","The Praxis Lab","3221 Richards Ln Ste B","87507",35.65707015991211,-106.00051879882812
"87507","Santa Fe","NM","Superior Fitness","not_available","87507",35.6247954678218,-106.02539648911332
"87507","Santa Fe","NM","Spine Solutions","4386 Rodeo Rd","87507",35.63798904418945,-106.01251220703125
"87507","Santa Fe","NM","DoubleTree Hotel Gym","4048 Cerrillos Rd","87507",35.639739990234375,-106.01517486572266
"87507","Santa Fe","NM","LION TWIN FITNESS","29 Canto del Pajaro","87508",35.61153793334961,-106.01518249511719
"87507","Santa Fe","NM","Anytime Fitness","4641 Airport Rd Ste 9","87507",35.638557,-106.02856000000001
"87507","Santa Fe","NM","New Mexico All-Stars Cheer","2520 Camino Entrada, Santa Fe, NM 87507","87507",35.63699736338511,-106.02145356403359
"87507","Santa Fe","NM","Genoveva Chavez Community Center","3221 Rodeo Rd","87507",35.64142219399767,-105.99321838797196
"87507","Santa Fe","NM","OpenEye Gym","Bisbee Court","87508",35.59797220097508,-106.039842902337
"87507","Santa Fe","NM","Defined Fitness Capital Club","3320 Cerrillos Rd","87507",35.648441314697266,-106.00110626220703
"87513","Arroyo Hondo","NM","Bodyshop athletic club","Arrouyohondo","not_available",36.5361394,-105.6698971
"87528","Dulce","NM","Jicarilla Apache Fitness Center","Martinez St","87528",36.93468661194692,-107.0057257309528
"87529","El Prado","NM","High Altitude Gymastic","not_available","87571",36.41958704230901,-105.56818133225933
"87529","El Prado","NM","Northside Fitness","Paseo del Pueblo Norte","87529",36.4350020429949,-105.57541797202444
"87532","Espanola","NM","Anytime Fitness","603 Silkey Way","87532",36.01271,-106.06343
"87532","Espanola","NM","Ohkay Owingeh Diabetes/Wellness Center","not_available","87537",36.01246599621444,-106.0618221398182
"87544","Los Alamos","NM","Anytime Fitness","195 East Rd","87544",35.866778028591625,-106.26765131950378
"87544","Los Alamos","NM","Curves","967 Central Ave","87544",35.880708,-106.29515
"87544","Los Alamos","NM","The Family YMCA","1450 Iris St","87544",35.88212720681668,-106.2982339913519
"87544","Los Alamos","NM","Los Alamos Fitness Center","771 Central Ave","87544",35.880672,-106.294559
"87575","Tierra Amarilla","NM","Luiso M - GyM","Las Tablas","87549",36.555012,-106.025795
"87701","Las Vegas","NM","Anytime Fitness","not_available","87701",35.609091,-105.223118
"87701","Las Vegas","NM","Pete's Gym","115 S Grand Ave, Las Vegas, NM 87701","87701",35.58462968333333,-105.21799871666667
"88001","Las Cruces","NM","Fitness Center@ Copperstone","2775 N Roadrunner Pkwy","88011",32.341453552246094,-106.7557373046875
"88001","Las Cruces","NM","World Gym","1690 S. Valley","88005",32.290087492306604,-106.7846692730551
"88001","Las Cruces","NM","JC Fitness For Everyone","421 Avenida de Mesilla","88005",32.293941497802734,-106.78453826904297
"88001","Las Cruces","NM","Zero Gravity Gym","not_available","88005",32.278593,-106.77013999999998
"88001","Las Cruces","NM","Club Fitness","3850 E Lohman Ave Ste 200","88011",32.31869593191698,-106.73431632232722
"88001","Las Cruces","NM","Pavilion Gym","not_available","88011",32.32654754192857,-106.73304978955653
"88001","Las Cruces","NM","Primetime Fitness","N. Telsor","88001",32.331066327975016,-106.75673759974211
"88001","Las Cruces","NM","Cheeky Fit","901 E University Ave # 925A","88001",32.284091,-106.75725
"88001","Las Cruces","NM","9Round Las Cruces","1221 El Paseo Rd","88001",32.29858,-106.770674
"88001","Las Cruces","NM","The Sweatbox","151 S Walnut St Ste C13","88001",32.315242767333984,-106.75544738769531
"88001","Las Cruces","NM","Anytime Fitness","115 Roadrunner Way Suite 4","88011",32.32194,-106.73314
"88001","Las Cruces","NM","meerscheidt rec. center weight room","1600 E Hadley Ave","88001",32.31790542602539,-106.75628662109375
"88001","Las Cruces","NM","Snap Fitness","Triviz Dr","88001",32.28711247444153,-106.7435073852539
"88001","Las Cruces","NM","Crunch Fitness - Las Cruces","320 East Wyatt Drive","88001",32.3010443,-106.7723969
"88001","Las Cruces","NM","Stay Fit Fitness","305 E Foster Rd","88005",32.295978,-106.773408
"88001","Las Cruces","NM","Arrowood Strength Training","3060 Harrelson St","88005",32.277924,-106.76964299999999
"88002","White Sands Missile Range","NM","Bell Gym","Picatinny Ave","88002",32.38571204262387,-106.48290674457985
"88005","Las Cruces","NM","CrossFit 575","301 N 17th St","88005",32.302642822265625,-106.80347442626953
"88005","Las Cruces","NM","east picacho fit club","not_available","88007",32.35862091292284,-106.82083074105363
"88005","Las Cruces","NM","G3 Fitness Center","2701 W Picacho Ave","88007",32.31055,-106.815467
"88008","Santa Teresa","NM","Get Lifted Gym","4617 Ripley Dr, El Paso, TX 79922","79922",31.831827860987264,-106.57175269223954
"88008","Santa Teresa","NM","Fitness Center At Springhill Suites","7518 Remcon Cir","79912",31.83403778076172,-106.56641387939453
"88008","Santa Teresa","NM","Insanity Sweat Room","not_available","79922",31.812910079956055,-106.57722473144531
"88008","Santa Teresa","NM","CYCLEBAR","7470 Cimarron Market Ave","79911",31.886972427368164,-106.5709228515625
"88008","Santa Teresa","NM","Anytime Fitness","101 Vlg Ct","79922",31.83897973499132,-106.57342128271955
"88008","Santa Teresa","NM","Pure Barre","5610 North Desert Blvd.","79912",31.86405,-106.575275
"88008","Santa Teresa","NM","Fighter Physique","4640 Doniphan Dr","79922",31.831991577159943,-106.57322838605951
"88008","Santa Teresa","NM","Body Hero Gym","5020 N Desert Blvd","79912",31.8407558,-106.5686129
"88008","Santa Teresa","NM","9Round 30 Minute Kickboxing Fitness","7470 Cimarron Market Ave Ste 300 Bldg 12","79911",31.886617765011398,-106.57165791296688
"88008","Santa Teresa","NM","The Gym (Puerta Villa at Cimarron)","not_available","79912",31.880783403163562,-106.56938168590825
"88008","Santa Teresa","NM","Anytime Fitness","7456 Cimarron Market","79911",31.88732379396296,-106.5688955783844
"88008","Santa Teresa","NM","Body Mind & Soul Fitness","6351 S Desert Blvd Ste 216","79932",31.880618787034162,-106.58315420150757
"88008","Santa Teresa","NM","Sunland Park Fitness","1989 Victory Lane","88063",31.804512759786103,-106.56970640131328
"88008","Santa Teresa","NM","Fitness Center at the Fairfield Inn & Suites El Paso","7514 Remcon Cir","79912",31.833283,-106.566034
"88008","Santa Teresa","NM","Goga","7930 N Mesa St Ste B9","79932",31.841217041015625,-106.5740966796875
"88011","Las Cruces","NM","FitnessOne","4655 Sonoma Ranch Blvd","88011",32.3701,-106.73918
"88021","Anthony","NM","Nerdland Gym","not_available","79835",31.96292495727539,-106.57462310791016
"88021","Anthony","NM","Extreme Performance (EP) Fitness","989 N Resler Dr","79912",31.86304512827138,-106.55881320714478
"88021","Anthony","NM","The Mind Body Studio","631 N. Resler 102","79912",31.8503961503724,-106.5547995213642
"88021","Anthony","NM","Fit Body Boot Camp El Paso","3945 Doniphan Park Cir","79922",31.81626682848967,-106.55654484672915
"88021","Anthony","NM","Westside YMCA","7145 N Mesa St","79912",31.834876818360783,-106.55384092437397
"88021","Anthony","NM","Gymboree","750 Sunland Park Dr","79912",31.83673613,-106.56094809
"88021","Anthony","NM","SICFIT El Paso","1057 Doniphan Park Cir Ste F","79922",31.815366744995117,-106.55734252929688
"88021","Anthony","NM","Fit 30","3950 Doniphan Dr Ste G","79922",31.81467056274414,-106.55825805664062
"88041","Hanover","NM","Green Machine","Hermosa St","88041",32.81919479370117,-108.0793228149414
"88045","Lordsburg","NM","Gym","400 W Wabash St","88045",32.344295501708984,-108.71359252929688
"88061","Silver City","NM","Iniguez Fitness Center","1310 N Pope St","88061",32.77889633178711,-108.27555847167969
"88061","Silver City","NM","Curves For Women","2045 Memory Ln","88061",32.78425216674805,-108.25667572021484
"88061","Silver City","NM","Iron Works Gym","1216 N Bennett St","88061",32.77764892578125,-108.27227020263672
"88063","Sunland Park","NM","112 Rio Flor Pl","112 Rio Flor Pl","79912",31.83321433,-106.53402269
"88063","Sunland Park","NM","Open Doors Yoga Studios","810 E. Redd Rd, Suite E","79912",31.860410690307617,-106.55196380615234
"88063","Sunland Park","NM","The Tuscany Exercise Room","415 S Mesa Hills Dr","79912",31.820307,-106.52876100000002
"88063","Sunland Park","NM","West Side Recreation Center","Wallenberg Dr","79912",31.815779334334344,-106.53230328432252
"88063","Sunland Park","NM","Elite","6910 N Mesa St","79912",31.836298307114916,-106.5481678494736
"88063","Sunland Park","NM","Tru Fit Sunland","750 Sunland Park","79924",31.81495812305519,-106.54351081935768
"88063","Sunland Park","NM","Scott Warman's Pro Gym","6910 N Mesa St Ste G","79912",31.836940350596723,-106.54775164453267
"88101","Clovis","NM","Bodies in Motion","900 Parkland Dr","88101",34.423292001752095,-103.19409546693124
"88101","Clovis","NM","YMCA Clovis","2300 N Main St Ste 17","88101",34.42140111783796,-103.20660319895255
"88101","Clovis","NM","clovis sports academy","not_available","88101",34.4524040222168,-103.19644927978516
"88201","Roswell","NM","PREMIER ATHLETICS","219 E McGaffey St","88203",33.379926,-104.519126
"88201","Roswell","NM","Planet Fitness","1709 S Main St","88203",33.370861,-104.522056
"88201","Roswell","NM","Alton's Power Block Gym","Virginia and College","not_available",33.40764607790518,-104.52157089395244
"88201","Roswell","NM","Elite Fitness & Tanning LLC","2101 N Atkinson Ave","88201",33.41777186830007,-104.50558358283796
"88201","Roswell","NM","Rodeway Inn Fitness Center","2nd St","88201",33.394846700220626,-104.56384016379673
"88201","Roswell","NM","Curves","1907 N Main St","88201",33.416927337646484,-104.52204132080078
"88201","Roswell","NM","CrossFit Vision","101 N Sycamore Ave Ste E","88203",33.39435958862305,-104.55838775634766
"88210","Artesia","NM","addiction gym","not_available","88210",32.84821701049805,-104.41301727294922
"88220","Carlsbad","NM","American Muscle","1101 W Mermod St","88220",32.42031212536891,-104.24028845168685
"88220","Carlsbad","NM","Anytime Fitness","400-2 Cascades Ave","88220",32.425338,-104.223679
"88220","Carlsbad","NM","Maximum Core Fitness","3127 National Parks Hwy","88220",32.386846000000006,-104.221775
"88220","Carlsbad","NM","Body Evolution","1120 W Mermod St","88220",32.420684,-104.240652
"88220","Carlsbad","NM","sweating to the oldies","not_available","88220",32.43600696196741,-104.2360599726634
"88220","Carlsbad","NM","Impact Fitness Gym","604 E Cherry Ln","88220",32.45027542114258,-104.21867370605469
"88240","Hobbs","NM","Fitness Fury","not_available","88240",32.73728318241403,-103.14511369844415
"88240","Hobbs","NM","Curves for Women","3619 Industrial Dr","88240",32.73921203613281,-103.16167449951172
"88240","Hobbs","NM","Crabby Jacks Gym","420 N Turner St","88240",32.70497278154015,-103.13598154359183
"88240","Hobbs","NM","Gym","Lovington Highway","88240",32.75038230556049,-103.16311713433267
"88240","Hobbs","NM","Anytime Fitness","3825 North Grimes St","88240",32.742729,-103.144679
"88267","Tatum","NM","Tatum Gym","not_available","88267",33.25654104316231,-103.31741572806803
"88301","Carrizozo","NM","Bonita Park Gym","in Bonita Park","88316",33.44540798907254,-105.66766262054443
"88310","Alamogordo","NM","Premier Fitness & Health Spa","indian wells road","88310",32.91492080349073,-105.93270473218371
"88310","Alamogordo","NM","Curves","1701 10th St Ste A","88310",32.90034056655909,-105.94709843081726
"88310","Alamogordo","NM","Planet Fitness","1807 E 10th St","88310",32.900556,-105.938716
"88310","Alamogordo","NM","Quimby Gymnasium","not_available","88310",32.913699,-105.958089
"88310","Alamogordo","NM","Base Gym","not_available","88330",32.836432311814406,-106.09011902582317
"88310","Alamogordo","NM","Anytime Fitness","1300 Hamilton Rd","88310",32.87429,-105.96074
"88310","Alamogordo","NM","Pete Domenici Sports and Fitness Center","Bldg. 588","88330",32.83637950684974,-106.08864351327375
"88340","Mescalero","NM","The R.A.C. (Ruidoso Athletic Club)","415 Wingfield St","88345",33.33017488913777,-105.67203628889696
"88340","Mescalero","NM","Southwest Personal Fitness","103 El Paso Rd","88345",33.32045706507055,-105.63097830201433
"88340","Mescalero","NM","A2Z Fitness","not_available","90028",33.33104816529901,-105.67875623703003
"88340","Mescalero","NM","Southwest Personal Fitness","not_available","88345",33.32361102,-105.64554757
"88340","Mescalero","NM","Anytime Fitness","2927 Sudderth Dr","88345",33.333643,-105.683789
"88435","Santa Rosa","NM","Holiday Inn Gym","not_available","88435",34.947418,-104.648605
