"zip","city","state","name","address","postalCode","lat","lon"
"48001","Algonac","MI","Powerhouse Gym Algonac","1099 Saint Clair River Dr","48001",42.618897075923755,-82.53255924928746
"48001","Algonac","MI","The gym ","not_available","48001",42.61400893656419,-82.53763073699757
"48009","Birmingham","MI","Townsend gym","not_available","48009",42.54501043581536,-83.21517872027115
"48009","Birmingham","MI","Powerhouse Gym","355 S Old Woodward Ave Ste 150","48009",42.54504057017182,-83.21156741751717
"48009","Birmingham","MI","Barre Bee Fit","555 S Old Woodward Ave","48009",42.542482426572334,-83.20985897993192
"48009","Birmingham","MI","F45 Training Birmingham MI","2450 Cole St","48009",42.5400794,-83.193347
"48009","Birmingham","MI","powerhouse gym sauna","not_available","not_available",42.544942826438124,-83.21146520277057
"48009","Birmingham","MI","RPM","2223 Cole St","48009",42.54051971435547,-83.19345092773438
"48009","Birmingham","MI","Birmingham Ultimate Fitness","555 S Old Woodward Ave #12L","48009",42.5428421,-83.2099935
"48009","Birmingham","MI","OmniKinetics","1025 Webster St","48009",42.540870666503906,-83.20623779296875
"48009","Birmingham","MI","Body in 45 Personal Training","515 S Eton St","48009",42.544156,-83.19554699999999
"48009","Birmingham","MI","Birmingham Family YMCA","400 E Lincoln St","48009",42.53847,-83.21145
"48009","Birmingham","MI","LA Fitness","3501 W Maple Rd Ste A","48084",42.546491349111975,-83.19264285834372
"48009","Birmingham","MI","CoachMeFit","2125 Cole St","48009",42.540679931640625,-83.194091796875
"48009","Birmingham","MI","Workout Torture Chamber","not_available","48073",42.53192715024553,-83.19658808153619
"48009","Birmingham","MI","Gotham Premier Personal Training","60 W Big Beaver Rd","48304",42.559823930179455,-83.22040648935072
"48009","Birmingham","MI","orange theroy","Adams","48009",42.54135938657496,-83.20444555126717
"48009","Birmingham","MI","Snap Fitness","108 Willits St","48009",42.54784680854848,-83.21580272011171
"48009","Birmingham","MI","Tweak","2135 Cole St","48009",42.5406494140625,-83.19415283203125
"48009","Birmingham","MI","BASCC","2121 Midvale St","48009",42.541262190242236,-83.23963132141816
"48009","Birmingham","MI","Orangetheory Fitness","633 S Adams Rd","48009",42.542784105214885,-83.20477886190966
"48017","Clawson","MI","Julie's Groovy Gym","201 Gladwin Ave","48017",42.529338,-83.143991
"48017","Clawson","MI","Amber Apts Gym","not_available","48017",42.54054,-83.138484
"48017","Clawson","MI","Michigan Kettlebells","1195 Rochester Rd Ste B","48083",42.54471923002091,-83.13680991446539
"48017","Clawson","MI","Twyfit Personal Fitness","112 S Main St","48017",42.532447999999995,-83.14676899999999
"48017","Clawson","MI","YWCA Gym","509 Fisher Ct","48017",42.536879,-83.139721
"48021","Eastpointe","MI","In House Yoga Studio/gym","22034 Pleasant Ave","48021",42.460446000000005,-82.951987
"48021","Eastpointe","MI","Alter Ego Pole Fitness","21733 Kelly Rd","48021",42.45848846435547,-82.93376159667969
"48021","Eastpointe","MI","Eastside Gym","15000 E 9 Mile Rd","48021",42.464488,-82.966684
"48021","Eastpointe","MI","Fitness 19 Eastpointe","22331 Gratiot Ave","48021",42.46275759869619,-82.96018505970163
"48021","Eastpointe","MI","La Fitness","not_available","48236",42.47617093123564,-82.91668849992608
"48023","Fair Haven","MI","P90X Time","not_available","48023",42.685010954721605,-82.64941236933467
"48023","Fair Haven","MI","Anytime Fitness","51400 County Line Rd","48047",42.68803,-82.72772
"48025","Franklin","MI","Franklin Athletic Club","29350 Northwestern Hwy","48034",42.50486456464028,-83.31308128679404
"48025","Franklin","MI","Fitness Driven Personal Training Studio","32680-32718 Ravine Dr","48025",42.52699915,-83.3057666
"48025","Franklin","MI","Planet Fitness","29816 Southfield Rd","48076",42.508613966133396,-83.22127181931941
"48025","Franklin","MI","Comcast Spotlight Exercise Facility","not_available","48025",42.512580058512945,-83.28347468782714
"48025","Franklin","MI","Fitness USA","30000 Telegraph Rd","48034",42.508055999999996,-83.284755
"48025","Franklin","MI","Vital Performance Fitness","29536 Northwestern Hwy","48034",42.505859375,-83.31558990478516
"48025","Franklin","MI","Total Being Fitness","30679 Southfield Rd","48076",42.514974,-83.224063
"48025","Franklin","MI","Get Some Fitness","31119 Greenfield Rd","48025",42.51847105938652,-83.20506321824531
"48025","Franklin","MI","Beverly Hills Club","31555 Southfield Rd","48025",42.52142225952634,-83.22431066885781
"48025","Franklin","MI","Row House","17620 W 13 Mile Rd","48025",42.517846,-83.220821
"48026","Fraser","MI","Anytime Fitness","31887 Utica Rd.","48026",42.53096,-82.94911
"48026","Fraser","MI","keith and danica's","not_available","48026",42.53480911254883,-82.96318817138672
"48026","Fraser","MI","Stunner Elite Training","18440 Malyn Blvd","48026",42.54969787597656,-82.93280792236328
"48030","Hazel Park","MI","Ben's DoJo","550 B W. 9 mile","not_available",42.45878885,-83.10932737
"48030","Hazel Park","MI","Work Out Zone","111 E Mahan Ave","48030",42.475615999999995,-83.10243
"48033","Southfield","MI","Powerhouse Gym","25267 Telegraph Rd","48033",42.473052230902034,-83.2852647589381
"48033","Southfield","MI","Corey Alford Fitness","26297 Northwestern Hwy","48034",42.48023614752773,-83.25900307023643
"48033","Southfield","MI","P80 Fitness","not_available","48034",42.445450481074474,-83.28422180672219
"48034","Southfield","MI","LA Fitness","28661 Telegraph Rd","48034",42.499711691991564,-83.28679747194931
"48034","Southfield","MI","12 North Gym","25701 W 12 Mile Rd","48034",42.500017,-83.29939399999999
"48034","Southfield","MI","SunFit","27777 Franklin Rd","48034",42.48977367244668,-83.29855400299918
"48035","Clinton Township","MI","Pete's pump it up gym","not_available","48036",42.56981966609283,-82.90852858149401
"48035","Clinton Township","MI","Metro Fitness","36246-36598 Groesbeck Hwy","48035",42.56262523360978,-82.9173399892449
"48035","Clinton Township","MI","curves","not_available","48035",42.546654,-82.928271
"48035","Clinton Township","MI","Metro Health And Fitness","35700 Groesbeck Hwy","48035",42.55897063126606,-82.91973568274382
"48035","Clinton Township","MI","Shake, Shimmy, Sweat Group Fitness","35490 Groesbeck Hwy, Clinton Township, MI 48035","48035",42.55742429505375,-82.92020926318497
"48036","Clinton Township","MI","Planet Fitness","Groesbeck","48043",42.600245,-82.899165
"48036","Clinton Township","MI","Powerhouse Gym","37015 S Gratiot Ave","48036",42.57095959349384,-82.8921139542596
"48036","Clinton Township","MI","Fitness 19 Clinton Township","40789 Garfield Rd","48038",42.59683,-82.9532649
"48036","Clinton Township","MI","zone 5","not_available","48038",42.60757314421785,-82.9654747314412
"48036","Clinton Township","MI","Vic Tanny Gym","43287-43569 Dalcoma Dr","48038",42.616904766666664,-82.96456947
"48036","Clinton Township","MI","LA Fitness","17500 Hall Rd","48038",42.6268667,-82.9409913
"48036","Clinton Township","MI","power house gym","37095 S Gratiot Ave","48036",42.571109771728516,-82.89202880859375
"48036","Clinton Township","MI","empower","20554 Hall Rd, Charter Township of Clinton, MI 48038","48038",42.62767028808594,-82.9180679321289
"48036","Clinton Township","MI","STRIVE Fitness and Performance","39920 Garfield Rd","48038",42.589759826660156,-82.95198059082031
"48036","Clinton Township","MI","Crosstrainers Fitness Forum","44899-44999 Heydenreich Rd","48038",42.627252645701056,-82.91714428036327
"48036","Clinton Township","MI","Macomb Athletic Club","40 N Groesbeck Hwy","48043",42.599742914045535,-82.89773320577352
"48036","Clinton Township","MI","BrickHouse Health & Fitness","30 N Groesbeck Hwy","48043",42.600041999999995,-82.897607
"48036","Clinton Township","MI","Bottom of the 9th","44368 N Groesbeck Hwy","48036",42.623713333333335,-82.87816445
"48036","Clinton Township","MI","Gymboree Play & Music","40790 Garfield Rd","48038",42.59687042236328,-82.95217895507812
"48036","Clinton Township","MI","Chippewa Valley High School Main Gym","Inside CVHS","48038",42.611553355952715,-82.93880929587498
"48036","Clinton Township","MI","Macomb Family YMCA","10 N River Rd","48043",42.598032,-82.873561
"48036","Clinton Township","MI","Crunch Fitness - Clinton Township","41941 Garfield Rd","48038",42.605186462402344,-82.9547348022461
"48036","Clinton Township","MI","ConCorde Inn Gym","44315 N Gratiot Ave","48036",42.622854426359694,-82.86498092086407
"48036","Clinton Township","MI","Switch CrossFit","22675 Morelli Dr","48036",42.6244049914172,-82.88069218630484
"48036","Clinton Township","MI","Powerhouse Gym Macomb","20596 Hall Rd","48038",42.62738592434608,-82.91733202200591
"48036","Clinton Township","MI","Planet Fitness","50 N Groesbeck Hwy","48043",42.600041999999995,-82.897607
"48038","Clinton Township","MI","Anytime Fitness","15222 Canal Rd","48038",42.60921,-82.97191
"48039","Marine City","MI","Feel the Burn Gym","not_available","48039",42.72036434590353,-82.4911466581387
"48040","Marysville","MI","Buff Bodies","1020 Gratiot Blvd Ste B","48040",42.92235051429514,-82.4717903137207
"48040","Marysville","MI","Anytime Fitness","3270 Gratiot Ave","48040",42.91239,-82.49688
"48040","Marysville","MI","Elipticaltime","1025 Huntington Ct","48040",42.91404,-82.49906800000001
"48040","Marysville","MI","Viking Fitness Centers","782 Huron Blvd Ste 5","48040",42.91374712188927,-82.48791867941006
"48042","Macomb","MI","L'anse Creuse High School North","23700 21 Mile Rd","48042",42.63951525881665,-82.86965847015381
"48042","Macomb","MI","Treadmill","not_available","48044",42.646756,-82.937545
"48042","Macomb","MI","Fitness 19","48915 Hayes Rd","48315",42.65539485829067,-82.97617410304886
"48042","Macomb","MI","TeamFit","47139 21 Mile Rd","48042",42.644839,-82.859989
"48042","Macomb","MI","Anytime Fitness","16336 26 Mile Rd","48042",42.71453,-82.96126
"48042","Macomb","MI","Snap Fitness","50846 Romeo Plank Rd","48044",42.67059166633975,-82.93983018899634
"48042","Macomb","MI","Anytime Fitness","48812-48816 Romeo Plank","48044",42.65599,-82.93592
"48042","Macomb","MI","Macomb Township Community Recreation Center","20699 Macomb Dr","48042",42.696430117571204,-82.92220453751283
"48042","Macomb","MI","LCN GYM","not_available","48042",42.63891846037336,-82.86995379680897
"48042","Macomb","MI","Zone 6 aka Da North Pole","not_available","48315",42.65499,-82.976432
"48042","Macomb","MI","MTRC-  Weight Room","Macomb St","48042",42.69601648333333,-82.92256628333334
"48045","Harrison Township","MI","village green gym.","not_available","48045",42.559423758340465,-82.85152843209458
"48045","Harrison Township","MI","127th ANG fitness Center","SANGB","48045",42.61141498788779,-82.82504360317276
"48045","Harrison Township","MI","Snap Fitness 24-7","26110 Crocker Blvd","48045",42.571317469952014,-82.85198133050203
"48045","Harrison Township","MI","1/24","1060 C St.","48045",42.62831908325645,-82.82801610642014
"48047","New Baltimore","MI","Anytime Fitness","27653 23 Mile Rd","48051",42.67569,-82.8307
"48047","New Baltimore","MI","H2fit - Hydrate The Core","not_available","48947",42.69269397503025,-82.78626796168756
"48047","New Baltimore","MI","Blackwood's House of Pain Gym","53259 Joann Marie Dr","48047",42.69462585449219,-82.78752136230469
"48047","New Baltimore","MI","Land O' P90X","Mallard Dr","48047",42.65901553333333,-82.79550643333333
"48047","New Baltimore","MI","Planet Fitness Chesterfield","50740 Gratiot Ave","48051",42.673149077466256,-82.83224547243636
"48047","New Baltimore","MI","curves","36335 Milo St","48047",42.682713,-82.73980999999999
"48047","New Baltimore","MI","Powerhouse Gym","34760 23 Mile Rd","48047",42.67643803555845,-82.77724007369893
"48047","New Baltimore","MI","Team Fit","47139","48051",42.63897488884944,-82.84576545308322
"48047","New Baltimore","MI","Planet Fit","not_available","48051",42.6760517,-82.831842
"48047","New Baltimore","MI","Guerrillazen","48734 gratiot","48047",42.657623,-82.845635
"48047","New Baltimore","MI","Crossfit Macomb","56343 Precision Dr","48051",42.716529846191406,-82.80921936035156
"48047","New Baltimore","MI","Snap Fitness 24-7","52396 Gratiot Ave","48051",42.68470537999688,-82.82446389604354
"48047","New Baltimore","MI","Planet Fitness","50860 Gratiot Ave","48051",42.673084,-82.832087
"48048","New Haven","MI","Clubhouse Workout Room","not_available","48048",42.732477,-82.778983
"48050","New Haven","MI","Anytime Fitness","67200 Gratiot Ave","48062",42.79567053,-82.73391667
"48051","New Baltimore","MI","elite cheer michigan","25151 Terra Industrial Dr","48051",42.649536431547034,-82.85584268708928
"48051","New Baltimore","MI","Xtreme Fitness","47163 Gratiot Ave","48051",42.64610376254711,-82.85390759938991
"48059","Fort Gratiot","MI","Port Huron Northern High School","1799 Krafft Rd","48060",43.02374451051221,-82.4455792640943
"48059","Fort Gratiot","MI","Cutting Edge Gym","3520 Pine Grove Ave","48060",43.015185859255624,-82.43516568532937
"48059","Fort Gratiot","MI","1951 Gym","not_available","48059",43.07402038574219,-82.47002410888672
"48059","Fort Gratiot","MI","Locker Room","not_available","48060",43.01436350597259,-82.44702786801157
"48059","Fort Gratiot","MI","Cutting Edge Health & Fitness","24th Ave","48060",43.01414131459058,-82.44798125898602
"48060","Port Huron","MI","Viking Fitness Center of Port Huron","2422 Lapeer Rd","48060",42.977515841715835,-82.45403360206564
"48060","Port Huron","MI","Fairfield Inn Port Huron Gym","Yeager Street","not_available",42.989798268466586,-82.45082101009285
"48063","Columbus","MI","Elite personal fitness","10358 Gratiot","48062",42.81201547790895,-82.7233857393107
"48066","Roseville","MI","LA Fitness","31055 Gratiot Ave","48066",42.5254774,-82.919649
"48066","Roseville","MI","Xtreme Advantage Personal Training And More","not_available","48066",42.48060683980341,-82.9191666638599
"48066","Roseville","MI","Snap Fitness 24-7","26700 Gratiot Ave","48066",42.49261993510669,-82.93905912397852
"48066","Roseville","MI","NCI Corporate Gym","27947 Groesbeck Hwy","48066",42.500640000000004,-82.965675
"48066","Roseville","MI","Detroit Bodybuilding Company","27251 Gratiot Ave","48066",42.496942,-82.937495
"48067","Royal Oak","MI","Orangetheory Fitness","905 S Main St","48067",42.482519600796785,-83.14375470157302
"48067","Royal Oak","MI","5th Street Gym","100 W 5th St","48067",42.48666000366211,-83.14466857910156
"48067","Royal Oak","MI","Royal Oak Gym","Stephenson Hwy.","48071",42.50325865609308,-83.1175712868431
"48067","Royal Oak","MI","AoM","913 Maplegrove Ave","48067",42.495847999999995,-83.16083499999999
"48067","Royal Oak","MI","Barre Code","831 S Main Street","not_available",42.48309692950185,-83.14399107563641
"48067","Royal Oak","MI","CycleBar Royal Oak","413 N Main St","48067",42.4923723691627,-83.144700229168
"48067","Royal Oak","MI","South Oakland YMCA","1016 W 11 Mile Rd","48067",42.489914,-83.155196
"48067","Royal Oak","MI","KoR Studios","123 Catalpa Dr","48067",42.497822,-83.145731
"48067","Royal Oak","MI","Village Park Gym","not_available","48067",42.50004028028128,-83.12261678439322
"48067","Royal Oak","MI","Jazzercise Royal Oak","1019 N Main St","48067",42.4988611,-83.1450047
"48067","Royal Oak","MI","Retrofit Studio","1515 E 11 Mile Rd","48067",42.48982057073142,-83.15169425729702
"48067","Royal Oak","MI","TITLE Boxing Club Royal Oak","403 S Center St","48067",42.48680384,-83.14499706
"48067","Royal Oak","MI","Pulse Fitness","616 Main","not_available",42.49461655357931,-83.14410328657077
"48067","Royal Oak","MI","CrossFit BMW","1500 N Stephenson Hwy","48067",42.502604999999996,-83.117189
"48067","Royal Oak","MI","Weaver's Gym","923 Catalpa Dr","48067",42.49752203,-83.1550221
"48067","Royal Oak","MI","World Gym","326 N Main St","48067",42.490374786393986,-83.14379632472992
"48067","Royal Oak","MI","The Jordan Gym","not_available","48071",42.4918917370798,-83.1143887946622
"48067","Royal Oak","MI","LA Fitness","25352 Woodward Ave","48067",42.47793722466987,-83.14684913680803
"48067","Royal Oak","MI","Al Irish's Intensity","1625 N Main St","48067",42.503146,-83.145151
"48071","Madison Heights","MI","Anytime Fitness","32340 N Campbell Rd","48071",42.52961941,-83.12546748
"48071","Madison Heights","MI","Powerhouse Gym","1449 W 14 Mile Rd","48071",42.53289468962626,-83.12447726258104
"48071","Madison Heights","MI","Detroit Strong Boutique Gym","28075 John R Rd","48071",42.499195,-83.1060016
"48071","Madison Heights","MI","Fit Element Personal Training","29235 Stephenson Hwy","48071",42.507598876953125,-83.11952209472656
"48071","Madison Heights","MI","The Heights Gym","The Heights","48071",42.520294,-83.092399
"48071","Madison Heights","MI","530am Boot camp","2482462222","not_available",42.505013,-83.123033
"48071","Madison Heights","MI","Fitness Zone","11 Mile Road","not_available",42.49105887735758,-83.10616945852786
"48072","Berkley","MI","Fitness USA","29444 Woodward Ave","48073",42.50689581237624,-83.17549544303438
"48072","Berkley","MI","Anytime Fitness","3144 12 Mile Rd","48072",42.50322,-83.19089
"48072","Berkley","MI","Dreadmill Treadmill","not_available","48072",42.5004997253418,-83.18680572509766
"48072","Berkley","MI","1314","Kenmore Rd","48072",42.49638855457306,-83.18452298641205
"48073","Royal Oak","MI","Bad Boys Boxing Gym","30371 Woodward Ave","48073",42.512606570174476,-83.18195918253733
"48073","Royal Oak","MI","Fitness 19","595 E 13 Mile Rd","48073",42.519808,-83.13717380000001
"48073","Royal Oak","MI","New Species CrossFit","2625 Nakota Rd","48073",42.52885506806119,-83.17830646983658
"48073","Royal Oak","MI","Rev Fitness","32801 Woodward Ave","48073",42.53049953135332,-83.19887562698364
"48073","Royal Oak","MI","F45 Training Royal Oak Michigan","30955 Woodward Ave","48073",42.51601268,-83.18813944
"48074","Smiths Creek","MI","wadhams total fitness","2840 Stable Dr","48074",42.98518753051758,-82.53277587890625
"48075","Southfield","MI","LA Fitness","16000 Northland Dr","48075",42.446994459075164,-83.20731047820603
"48075","Southfield","MI","Skyline Gym","at The Skyline Club","48075",42.4772286788289,-83.2458771312107
"48075","Southfield","MI","Westin Southfield Gym","1500 Town Ctr","48075",42.4759033081034,-83.24454828689859
"48079","Saint Clair","MI","Cargill Gym","not_available","48079",42.8176296544346,-82.48735043967777
"48080","Saint Clair Shores","MI","Next Level Health And Fitness","21431 Greater Mack Ave","48080",42.451688042767316,-82.90480003889851
"48080","Saint Clair Shores","MI","LA Fitness","20701 E 8 Mile Rd","48080",42.45119698868497,-82.91650138441537
"48080","Saint Clair Shores","MI","Syphus Training","not_available","48080",42.465582707566234,-82.91538938314413
"48080","Saint Clair Shores","MI","Anytime Fitness","24040 Harper Ave","48080",42.471859499042615,-82.90477395057678
"48080","Saint Clair Shores","MI","YMCA","23401 Jefferson Ave","48080",42.462155558872645,-82.88412519072057
"48080","Saint Clair Shores","MI","Advanced Training Techniques","24623 Harper Ave","48080",42.47758483886719,-82.90333557128906
"48080","Saint Clair Shores","MI","WOW- Women's Only Workout","22601 Greater Mack Ave, St Clair Shores, MI 48080","48080",42.46037673950195,-82.90080261230469
"48081","Saint Clair Shores","MI","Charged Up","26610 Harper Ave","48081",42.48889963417995,-82.89750144108628
"48081","Saint Clair Shores","MI","Powerhouse Gym","25212 Harper Ave","48081",42.4812995953488,-82.9007698490763
"48081","Saint Clair Shores","MI","Pilates Connection","29040 Harper Ave","48081",42.5079015,-82.8979106
"48081","Saint Clair Shores","MI","Curves","28628 Harper Ave","48081",42.504592933333335,-82.89755933333333
"48082","Saint Clair Shores","MI","Xxtreme Fitness","not_available","48082",42.52448847315695,-82.88752782708448
"48082","Saint Clair Shores","MI","Jim's Gym","Hoffman","48082",42.522363,-82.897767
"48082","Saint Clair Shores","MI","Retro Fitness","31059 Harper Ave","48082",42.52331445905779,-82.9009531695088
"48082","Saint Clair Shores","MI","CrossFit Freshwater","31020 Harper Ave","48082",42.523101806640625,-82.89840698242188
"48082","Saint Clair Shores","MI","Anytime Fitness","30110 Harper Ave","48082",42.51486232,-82.89800708
"48083","Troy","MI","Powerhouse Gym","2585 Livernois Rd","48083",42.558035839575325,-83.14804542917547
"48083","Troy","MI","CycleBar Troy","311 E Big Beaver Rd","48083",42.56302783644813,-83.1409302396284
"48083","Troy","MI","Real Detroit Muscle","1231 Wheaton Dr","48083",42.557579040527344,-83.12345123291016
"48083","Troy","MI","Gryphon CrossFit","2241 Bellingham Dr","48083",42.555213928222656,-83.11300659179688
"48083","Troy","MI","Orangetheory Fitness","3624 Rochester Rd","48083",42.571450740084906,-83.12733954944832
"48083","Troy","MI","LA Fitness","710 E Big Beaver Rd","48083",42.56103992809796,-83.13375575374609
"48083","Troy","MI","Brightwing Workout Room","not_available","48083",42.5363743722947,-83.12104103862656
"48083","Troy","MI","Troy Community Center","3179 Livernois Rd","48083",42.56579783600767,-83.15009186182427
"48083","Troy","MI","Burn Boot Camp","3279 Rochester Rd","48083",42.56719,-83.12903
"48084","Troy","MI","Pure Barre","2885 W Maple Rd","48084",42.54681995688218,-83.1846869175186
"48084","Troy","MI","Candlewood Fitness Center","not_available","48084",42.55725724876604,-83.16035401604559
"48084","Troy","MI","Madame Annette's","Banmoor","not_available",42.56631346,-83.17079218
"48084","Troy","MI","Stars and Stripes CrossFit","778 W Maple Rd # B","48084",42.5487404,-83.1583203
"48084","Troy","MI","F45 Training Troy","1475 W Big Beaver Rd","48084",42.5613156,-83.1691318
"48084","Troy","MI","Red Effect Infrared Fitness","750 W Big Beaver Rd","48084",42.56309509277344,-83.1612548828125
"48085","Troy","MI","Troy City Fitness","4924 John R Rd","48085",42.591711,-83.108613
"48085","Troy","MI","Jazzercise Troy","1071 E Long Lake Rd","48085",42.5921827,-83.12800899999999
"48085","Troy","MI","Sad Robot Gym & Spa","not_available","48085",42.621047,-83.135267
"48085","Troy","MI","Peak Physique Fitness Training","1069 E Long Lake Rd","48085",42.60752242999218,-83.128134258851
"48085","Troy","MI","iLoveKickboxing - Troy, MI","26 West Square Lake Road","48098",42.6065468,-83.1503048
"48088","Warren","MI","Crunch Fitness - Warren","30750 Schoenherr Rd","48088",42.5205487,-82.986401
"48088","Warren","MI","Gym of Arlington Manor","not_available","48088",42.52277755737305,-82.98957824707031
"48088","Warren","MI","The Edge Fitness Clubs","13700 E 14 Mile Rd","48088",42.5369521,-82.9874274
"48089","Warren","MI","Motown Boxing","21740 Schoenherr Rd","48089",42.457307,-82.985476
"48089","Warren","MI","La Bella Vita a.k.a Bossolini's Hair Care","24421 Prairie Ln","48089",42.47489547729492,-82.97978973388672
"48089","Warren","MI","Curves","26493 Hoover Rd","48089",42.488578000000004,-83.007897
"48089","Warren","MI","Blink Fitness","26475 Hoover Rd","48089",42.4889649,-83.0075255
"48091","Warren","MI","Gym Locker Room","Mound Rd","48091",42.46264735203114,-83.05035654722602
"48091","Warren","MI","Anytime Fitness","7580 E 9 Mile Rd","48091",42.4627,-83.02816
"48091","Warren","MI","Elite Goalie Training","not_available","48091",42.477967,-83.044419
"48091","Warren","MI","The Kinect workout zone","7203 Timken Ave","48091",42.466961,-83.031032
"48092","Warren","MI","LA Fitness","30195 Mound Rd","48092",42.513710455521164,-83.04896253113283
"48092","Warren","MI","Warren Community Center","5460 Arden Ave","48092",42.530223250647225,-83.05396876896567
"48092","Warren","MI","Basement Gym","30303 Austin Dr","48092",42.515044,-83.078199
"48092","Warren","MI","TACOM Gym Facility","not_available","48092",42.4927119340501,-83.0416245437282
"48092","Warren","MI","Gym Towneplace Marriot","not_available","48093",42.52453857183025,-83.03059656965036
"48093","Warren","MI","Cousino Fitness Center","30333 Hoover Rd","48093",42.517032623291016,-83.00846862792969
"48093","Warren","MI","Zinke Powerhouse","31111 Canterbury","48089",42.52229728817273,-83.0126092097157
"48093","Warren","MI","Gold’s Gym","30730 Hoover Rd","48093",42.520044,-83.006435
"48094","Washington","MI","LA Fitness","7500 26 Mile Rd","48316",42.713304,-83.039369
"48094","Washington","MI","Globo Gym","not_available","48094",42.752993,-83.052873
"48095","Washington","MI","Anytime Fitness","65929 Van Dyke Rd","48095",42.77835,-83.01667
"48098","Troy","MI","Anytime Fitness","2129 W S Blvd","48098",42.62067,-83.17122
"48098","Troy","MI","Life Time Fitness","4700 Investment Dr","48098",42.5894212,-83.17277179999999
"48101","Allen Park","MI","Oakwood Wellness Center","17101 Rotunda Dr","48124",42.2933660567596,-83.20874110930322
"48101","Allen Park","MI","Allen Park Fitness Center","not_available","48101",42.25806437937014,-83.21175287721294
"48101","Allen Park","MI","Cristov's Gym","2145 Paris Ave","48146",42.264816,-83.187998
"48101","Allen Park","MI","CrossFit Downriver","12717 Universal Dr","48180",42.263543446978225,-83.21594754874575
"48101","Allen Park","MI","Maple Village of Southgate Gym","not_available","48195",42.22639412258716,-83.2161462920394
"48101","Allen Park","MI","LA Fitness","3223 Fairlane Dr","48101",42.280832473693884,-83.203233415333
"48103","Ann Arbor","MI","Wolverine Strength and Conditioning","680 State Cir","48108",42.2348,-83.74225
"48103","Ann Arbor","MI","Saline Rec Center","1866 Woodland Dr","48176",42.19556179097166,-83.76679565962456
"48103","Ann Arbor","MI","Ann Arbor YMCA","400 W Washington St","48103",42.28080554324866,-83.75344859427119
"48103","Ann Arbor","MI","U-M Intramural Sports Building","606 E Hoover Ave","48109",42.26936363947647,-83.74170296421883
"48103","Ann Arbor","MI","LA Fitness","155 N Maple Rd","48103",42.281587,-83.781824
"48103","Ann Arbor","MI","Lake Village Fitness Center","101 Lake Village Dr","48103",42.25014004185893,-83.7485856558069
"48103","Ann Arbor","MI","Anytime Fitness","2744 Jackson Rd","48103",42.28265,-83.7861
"48103","Ann Arbor","MI","Liberty Athletic Club","2975 W Liberty Rd","48103",42.27197851587324,-83.78965166862278
"48103","Ann Arbor","MI","Crunch Fitness - Ann Arbor","2723 Oak Valley Drive","48103",42.24713482,-83.7694737
"48103","Ann Arbor","MI","Orangetheory Fitness","2246 S Main St","48103",42.2528593,-83.75056649999999
"48103","Ann Arbor","MI","planet fitness","not_available","48108",42.24063036928096,-83.74599457474511
"48103","Ann Arbor","MI","Pure Barre","539 E Liberty St","48104",42.279517241740336,-83.74198582327256
"48103","Ann Arbor","MI","Valley Ranch Gym","1315 Oak Valley Dr","48108",42.235209999999995,-83.755318
"48103","Ann Arbor","MI","CITYROW Ann Arbor","401 E Liberty St Ste 1B","48104",42.279585,-83.7438133
"48103","Ann Arbor","MI","Vie Fitness & Spa","209 South Ashley Street","48104",42.28012503,-83.74965255
"48103","Ann Arbor","MI","Body Specs, LTD.","3796 Plaza Dr","48108",42.230382,-83.748188
"48103","Ann Arbor","MI","Bodies In Balance","213 S 4th Ave","48104",42.2823746741636,-83.74682442187799
"48103","Ann Arbor","MI","411 Lofts Gym","not_available","48104",42.28048636523275,-83.74382135998717
"48103","Ann Arbor","MI","PR Fitness","255 E Liberty St Ste 227","48104",42.27954164241369,-83.74644285529799
"48103","Ann Arbor","MI","Arbor Fit Club","2723 Oak Valley Dr","48103",42.24726200802798,-83.7689606449631
"48103","Ann Arbor","MI","Jazzercize Of Dexter","not_available","48130",42.33012008666992,-83.88362884521484
"48103","Ann Arbor","MI","ophir yarn","1522 N Maple Rd","48103",42.2950918,-83.7808062
"48103","Ann Arbor","MI","CITYROW Ann Arbor","401 E Liberty St","48104",42.279514,-83.74367
"48103","Ann Arbor","MI","Meadowbrook Village Apartments Workout Room","not_available","48103",42.248746929279015,-83.76362643803044
"48104","Ann Arbor","MI","North Campus Recreational Building","2375 Hubbard St","48109",42.29520823511754,-83.72034038908647
"48104","Ann Arbor","MI","Huron Towers Fitness Center","not_available","48105",42.28517108135344,-83.71730724770786
"48104","Ann Arbor","MI","Huron High School Weight Room","2727 Fuller Rd, Ann Arbor, MI 48105","48105",42.28166198730469,-83.70314025878906
"48104","Ann Arbor","MI","Jazzercise Center of Ann Arbor","Industrial Hwy.","not_available",42.25870510113112,-83.73671992446374
"48104","Ann Arbor","MI","Fitness Room","not_available","48109",42.272218,-83.736204
"48104","Ann Arbor","MI","Balance Wellness & Fitness Center","1531 Eastover Pl Ste 8","48104",42.25516891479492,-83.725341796875
"48104","Ann Arbor","MI","Cohen Family Muscle Blasting Area","3140 W Dobson Pl","48105",42.290557861328125,-83.70136260986328
"48104","Ann Arbor","MI","Central Campus Recreational Building","401 Washtenaw Ave","48109",42.27848271591346,-83.73283991235745
"48104","Ann Arbor","MI","CoachMeFit Ann Arbor","2300 E Stadium Blvd","48104",42.260081,-83.715654
"48104","Ann Arbor","MI","pt2u","liberty st","48104",42.27943174158381,-83.74747756766737
"48104","Ann Arbor","MI","Vie Fitness & Spa","3050 Washtenaw Avenue","48104",42.25629797,-83.69864774
"48104","Ann Arbor","MI","CITYROW Ann Arbor","401 East Liberty Street Suite 1-B","48104",42.279585,-83.7438133
"48104","Ann Arbor","MI","Courtyards Exercise Room","1780 Broadway St","48105",42.296630859375,-83.7203140258789
"48105","Ann Arbor","MI","Peninsular Place Fitness Center","1000 N Huron River Dr","48197",42.25853150811303,-83.62299988223403
"48105","Ann Arbor","MI","Anytime Fitness","3393 Plymouth Rd Ste D","48105",42.30521,-83.69476
"48105","Ann Arbor","MI","Snap Fitness","3151 Falcon Ct","48105",42.320091,-83.718356
"48108","Ann Arbor","MI","Glencoe Hills Gym","2201 Glencoe Hills Dr.","48108",42.25346755981445,-83.67239379882812
"48108","Ann Arbor","MI","Golfside Lake Gym","2349-2399 Woodridge Way","48197",42.25394118520697,-83.66356153706371
"48108","Ann Arbor","MI","Coval Fitness & Sports Performance","3751 Varsity Dr","48108",42.23373031616211,-83.72512817382812
"48108","Ann Arbor","MI","The Place I Go To Die","2392 Twin Lakes dr","48105",42.25289513333333,-83.66548643333333
"48108","Ann Arbor","MI","Joust Strength + Fitness","3951 Varsity Dr","48108",42.22979962479083,-83.7255088672959
"48108","Ann Arbor","MI","All Out Fitness","540 Avis Dr Ste D","48108",42.214311,-83.737741
"48108","Ann Arbor","MI","Tru Fitness Performance Training","3131 S State St","48108",42.24183100009695,-83.73788223470484
"48108","Ann Arbor","MI","Curves","6901 State Rd Ste B","48176",42.187582,-83.737377
"48108","Ann Arbor","MI","Applied Fitness Solutions","4710 S State Rd","48108",42.218979698738025,-83.73425136968167
"48108","Ann Arbor","MI","Work It Out","not_available","48197",42.20636066302118,-83.69261731926383
"48109","Ann Arbor","MI","Sparrow Gym","405 North Fifth Avenue","not_available",42.2843157062435,-83.74598080340097
"48109","Ann Arbor","MI","618 Gym","618 S Main St","48104",42.2732048034668,-83.74955749511719
"48111","Belleville","MI","Harbour Club Fitness Center","49000 Denton Rd","48111",42.21613729142999,-83.51850406504751
"48111","Belleville","MI","Snap Fitness","9612 Belleville Rd","48111",42.23306637648451,-83.4863641699601
"48111","Belleville","MI","West Main Fitness Center - GLCC","One Village Center Drive","48111",42.24324097722555,-83.43100565898135
"48111","Belleville","MI","JIM'S GYM FITNESS CENTER","3375 E Michigan Ave","48198",42.259517669677734,-83.54463195800781
"48111","Belleville","MI","Basketball Court","53-143 Country Club Blvd","48111",42.1299436,-83.53775143333333
"48111","Belleville","MI","Anytime Fitness","11780 Belleville Rd","48111",42.21521,-83.48691
"48111","Belleville","MI","Pryde Athletics","224 E Columbia Ave","48111",42.2038477,-83.4804042
"48111","Belleville","MI","GM Willow Run Fitness Center","Division Dr","48198",42.235311,-83.553783
"48111","Belleville","MI","A-Train's Super Fit, LLC","2055 Rawsonville Rd","48111",42.2169303894043,-83.54303741455078
"48114","Brighton","MI","The Weight Room","241 S 2nd St, Brighton, MI 48116","48116",42.52602133472642,-83.78976940227508
"48114","Brighton","MI","Top Dog Training","not_available","48116",42.52888870239258,-83.78600311279297
"48114","Brighton","MI","Powerhouse Gym","5757 Whitmore Lake Rd","48116",42.51870218864157,-83.75852408487609
"48114","Brighton","MI","Crossfit Brighton","603 W Grand River Ave","48116",42.533279,-83.783022
"48114","Brighton","MI","MI Fitness","736 Grand River Ave","48116",42.53529948384621,-83.78293794245337
"48114","Brighton","MI","Kensington Valley CrossFit","988 Rickett Rd","48116",42.52078628540039,-83.77657318115234
"48114","Brighton","MI","Crossfit Brighton","10500 Citation Dr","48116",42.519896,-83.746464
"48114","Brighton","MI","Intelligent Fitness Design, The Boot Camp for Body & Brain","5205 Van Winkle St","48116",42.5295576,-83.7655753
"48114","Brighton","MI","Commons Crew Crossfit","7526 Grand River Rd","48114",42.56473922729492,-83.80323028564453
"48114","Brighton","MI","funk Fitness","not_available","48114",42.54799134492045,-83.75116019266395
"48114","Brighton","MI","DMC RIM Hartland","11166 Highland Rd","48353",42.63351821899414,-83.73612976074219
"48114","Brighton","MI","Anytime Fitness","101 Brookside Ln Ste G","48116",42.542031,-83.785528
"48114","Brighton","MI","Anytime Fitness","1812 Old US 23","48843",42.63107,-83.75176
"48114","Brighton","MI","Neff Martial Arts","1363 S Old US Highway 23","48114",42.58321762084961,-83.75292205810547
"48114","Brighton","MI","Title Boxing Club Brighton","8491 W Grand River Ave #100","48116",42.5429347,-83.78594799999999
"48114","Brighton","MI","Krav Maga Great Lakes","5757 Whitmore Lake Rd Ste 1000","48116",42.5194626,-83.75817409999999
"48114","Brighton","MI","Paladin House of Fitness","10115 Bergin Rd","48843",42.619035,-83.756293
"48114","Brighton","MI","iLoveKickboxing - Brighton, MI","300 Brookside Ln","48116",42.54138946533203,-83.785400390625
"48114","Brighton","MI","Bench Press","not_available","48380",42.58008,-83.67617
"48116","Brighton","MI","EverFit Personal Training","9835 Village Place Blvd","48116",42.50819396972656,-83.7569808959961
"48116","Brighton","MI","Anytime Fitness","9500 Chilson Cir","48169",42.46221,-83.83249
"48116","Brighton","MI","Pure Barre","9418 Village Place Blvd","48116",42.5037722,-83.7554776
"48116","Brighton","MI","Gym LP","Silverside","48178",42.47113787989267,-83.7226661465284
"48116","Brighton","MI","Hamburg Fitness Center & Camp","8540 Hamburg Rd","48116",42.47887812038625,-83.80601240417265
"48117","Carleton","MI","Curves","1050 Monroe St","48117",42.059490000000004,-83.390626
"48118","Chelsea","MI","Bergman Gym","Lehman","48158",42.246342,-84.06509
"48118","Chelsea","MI","Anytime Fitness","1030 S Main St","48118",42.30621,-84.02359
"48118","Chelsea","MI","Westside Gym","120 W Middle St","48118",42.318128,-84.021556
"48120","Dearborn","MI","UAW - Ford Fitness Center","3001 Miller Rd","48120",42.30684098147747,-83.15620015688356
"48120","Dearborn","MI","Dearborn Police Gym","Michigan Ave","48126",42.31306987544039,-83.2007732702681
"48120","Dearborn","MI","Ford Earnest Lofton Fitness Center","not_available","48126",42.31554996530924,-83.16762442549334
"48124","Dearborn","MI","Dearborn Racquet and Health Club","2727 S Gulley Rd","48124",42.29105750166664,-83.28525104025788
"48124","Dearborn","MI","Orangetheory Fitness","22001 Michigan Ave","48124",42.305846,-83.24418399999999
"48124","Dearborn","MI","Fitness USA Dearborn","23080 Michigan Ave","48124",42.303026032939705,-83.2599496513183
"48124","Dearborn","MI","Planet Fitness","24411 Michigan Ave","48124",42.29780883161393,-83.27467154144543
"48124","Dearborn","MI","Snap 24/7 Fitness","136 N Telegraph Rd","48128",42.3132693027708,-83.27157094264629
"48124","Dearborn","MI","A.M. Total Being Fitness","5500 Ford Rd","48126",42.327833,-83.222264
"48124","Dearborn","MI","Elite Training","23600 Michigan Ave","48124",42.301415999999996,-83.266813
"48124","Dearborn","MI","Fitness Center - The Henry Hotel","300 Town Center Dr","48126",42.32031312314241,-83.21732093404259
"48124","Dearborn","MI","SchmoeGym™","Nightingale","48128",42.3219327,-83.2848187
"48124","Dearborn","MI","Fairlane Meadows Gym","5329-5383 Heather Dr","48126",42.32409533333333,-83.20232303333333
"48124","Dearborn","MI","Katie's Fitness Spot","not_available","48124",42.2861379,-83.2767132
"48124","Dearborn","MI","A.M. Total Being Fitness","23400 Michigan Ave","48124",42.303067,-83.264809
"48124","Dearborn","MI","Wii Fit Gym","not_available","48125",42.28125269525424,-83.23375647631836
"48125","Dearborn Heights","MI","Fitness 19","27155 Cherry Hill Rd","48141",42.31161880493164,-83.30799865722656
"48125","Dearborn Heights","MI","F3 Fitness","23250 Van Born Rd","48125",42.26979081277843,-83.26161503791809
"48126","Dearborn","MI","Crunch Fitness - Dearborn","5601 Mercury Dr","48126",42.32993913675813,-83.20557564496994
"48126","Dearborn","MI","Kronk Boxing","not_available","48228",42.343162,-83.228747
"48127","Dearborn Heights","MI","DK's Gym","7881 Robindale Ave","48127",42.348392486572266,-83.28544616699219
"48127","Dearborn Heights","MI","Anytime Fitness","26334 Ford Rd","48127",42.327526,-83.298304
"48127","Dearborn Heights","MI","Hype Athletics Recreation Center","23302 W Warren St","48127",42.342461749701314,-83.2657763157917
"48130","Dexter","MI","curves","7200 Dan Hoey Rd, Dexter, MI 48130","48130",42.32758331298828,-83.87397003173828
"48130","Dexter","MI","CrossFit Dexter","3219 Broad St Ste 105","48130",42.33889389038086,-83.88856506347656
"48130","Dexter","MI","Jazzercise - Dexter","8997 Main Street","48130",42.33707037316951,-83.88824387121672
"48130","Dexter","MI","Champion Gym Ann Arbor","240 Metty Dr Ste C","48103",42.29436741735586,-83.86497972761204
"48130","Dexter","MI","Snap Fitness","3219 Broad St","48130",42.339056,-83.888603
"48131","Dundee","MI","Curves","256 Tecumseh St","48131",41.95798873901367,-83.66261291503906
"48131","Dundee","MI","Snap Fitness 24/7","not_available","48131",41.958751261162256,-83.67405839600035
"48134","Flat Rock","MI","Anytime Fitness","24619 Gibraltar Rd","48134",42.09355,-83.27122
"48134","Flat Rock","MI","Anytime Fitness","23796 W Rd","48183",42.13884,-83.26404
"48134","Flat Rock","MI","Froo's Fitness","not_available","48134",42.098082559470555,-83.33695207899028
"48134","Flat Rock","MI","Best Western Fitness Center","West Rd.","48183",42.14055424397856,-83.24378136616117
"48135","Garden City","MI","My Treadmill","Westland Dr.","48185",42.3315751417876,-83.37394533835116
"48135","Garden City","MI","McCoy Bootcamp","not_available","48135",42.335568,-83.313602
"48135","Garden City","MI","The Pitt II","not_available","48186",42.31632720927635,-83.34913579262144
"48135","Garden City","MI","Forum Fitness","34250 Ford Rd","48185",42.32564473328799,-83.37862478714193
"48135","Garden City","MI","Dynamic Boxing Club","not_available","48185",42.340607,-83.319862
"48137","Gregory","MI","Workout Factory","not_available","48169",42.477569580078125,-83.98937225341797
"48138","Grosse Ile","MI","3DFIT Ultimate Fitness Arena","12425 Nixon Avenue","48193",42.1719675,-83.176205
"48138","Grosse Ile","MI","The Fighting Fit","4210 13th St","48192",42.19013734314919,-83.16908740870942
"48138","Grosse Ile","MI","My Treadmill","not_available","48192",42.197898864746094,-83.17652893066406
"48144","Lambertville","MI","The Walter's Gym","Spring brook Drive","not_available",41.75800784319828,-83.63177993810912
"48144","Lambertville","MI","Z-Fit Factory","7183-7299 Douglas Rd","48144",41.747479545051256,-83.60741074413745
"48144","Lambertville","MI","Rockwell's Cardio-kick Gym And Social Club","not_available","48144",41.728865,-83.605759
"48144","Lambertville","MI","Anytime Fitness","7300 Secor Rd. Ste. 4B","48144",41.74656,-83.6242
"48150","Livonia","MI","Dragon Academy","12792 Currie Ct","48150",42.37619816220242,-83.41129927774975
"48150","Livonia","MI","Strength Depot","37659 Schoolcraft Rd","48150",42.380621,-83.416673
"48150","Livonia","MI","1 on 1 Fitness Coach Inc","8960 Fremont Street","48150",42.35603683,-83.33333438
"48150","Livonia","MI","LA Fitness","30273 Plymouth Rd","48150",42.367456647705374,-83.34202652272562
"48150","Livonia","MI","I Workout!","not_available","48150",42.360781,-83.36785
"48150","Livonia","MI","iLoveKickboxing - Livonia, M","33191 Plymouth Rd","48150",42.367820739746094,-83.37116241455078
"48150","Livonia","MI","CECo Gym","11801 Farmington Rd","48150",42.370642,-83.373775
"48150","Livonia","MI","Bear Athletics | Polar Cross Fit","27495 Schoolcraft Rd","48150",42.3826693,-83.31640039999999
"48150","Livonia","MI","Treadmill Time","not_available","48154",42.385600005903065,-83.39188331634143
"48150","Livonia","MI","Freedom Freerunning Academy","32977 Schoolcraft Rd","48150",42.38164138793945,-83.36921691894531
"48150","Livonia","MI","Marys","E Clements Cir","48150",42.366450316666665,-83.31924188333333
"48152","Livonia","MI","LA Fitness","29659 7 Mile Rd","48152",42.42560817517713,-83.33955457769163
"48152","Livonia","MI","Club Valassis","19975 Victor Psrkway","48152",42.4321643806804,-83.4259957039368
"48152","Livonia","MI","The Coliseum Racquet","8761 telegraph","48185",42.43418958,-83.37457408
"48152","Livonia","MI","Fitzone","16112 Middlebelt Rd","48154",42.40603298469471,-83.3343122735627
"48152","Livonia","MI","Get Skillz","18000 Newburgh Rd","48152",42.41737747192383,-83.41072082519531
"48152","Livonia","MI","Hyatt Place Gym","19300 Haggerty Rd","48152",42.428053000000006,-83.431084
"48152","Livonia","MI","Red Effect Infrared Fitness","29482 West Seven Mile Road","48152",42.4274816,-83.34082305
"48152","Livonia","MI","Core fitness","17235 Middlebelt Rd","48152",42.414148,-83.33584
"48152","Livonia","MI","F45 Training North Livonia","19860 Haggerty Road","48152",42.431208,-83.431968
"48152","Livonia","MI","Team Rehab","6 Mile Road","48154",42.4089439492253,-83.41158793536017
"48152","Livonia","MI","Marriott Gym","not_available","48152",42.41298482048977,-83.41792062009912
"48152","Livonia","MI","Snap Fitness","18727 Nola St","48152",42.421793,-83.422574
"48152","Livonia","MI","Costick Center","not_available","48334",42.43997165065366,-83.37519571678448
"48152","Livonia","MI","Anytime Fitness","37189 Six Mile Rd.","48152",42.40956,-83.41114
"48152","Livonia","MI","The Banish Shower","18687 Glengarry Dr","48152",42.42203903198242,-83.41854858398438
"48154","Livonia","MI","Livonia Community Rec Center","15100 Hubbard St","48154",42.39640552345444,-83.36225037255551
"48154","Livonia","MI","Fitness 19","37290 5 Mile Rd","48154",42.39719680932292,-83.41173988625621
"48154","Livonia","MI","Heartland Rehabilitation Services","33887 5 Mile Rd","48154",42.396339416503906,-83.3772964477539
"48154","Livonia","MI","dfmincome","34012 Coventry Dr","48154",42.397727,-83.379494
"48154","Livonia","MI","Livonia Family YMCA","14255 Stark Rd","48154",42.38674364984076,-83.37858588440535
"48154","Livonia","MI","The Basement","14811 Country Club Dr","48154",42.39346694946289,-83.39630126953125
"48158","Manchester","MI","Cheer Room","not_available","48158",42.158157771962124,-84.0354864266496
"48158","Manchester","MI","river ridge fitness center","1000 E Duncan St","48158",42.15321731567383,-84.0232925415039
"48160","Milan","MI","Toyota York Gym","8777 Platt Rd","48176",42.162315368652344,-83.69184112548828
"48160","Milan","MI","Griffin Performance Athletics","465 W Michigan Ave, Saline, MI 48176","48176",42.17190198457191,-83.77170430468696
"48160","Milan","MI","Lori's Gym","252 Ferman St","48160",42.086884999999995,-83.680645
"48160","Milan","MI","Breakthrough Performance Training, LLC","not_available","48191",42.149182,-83.562765
"48160","Milan","MI","Fitmod","23 Wabash St","48160",42.08430862426758,-83.6831283569336
"48161","Monroe","MI","YMCA","1111 W Elm Ave","48162",41.92280914957932,-83.41127096841416
"48161","Monroe","MI","Snap Fitness","1539 N Telegraph Rd","48162",41.943006170669,-83.40559710001185
"48161","Monroe","MI","Endurance Fitness Center","15249 S Dixie Hwy","48161",41.89407730102539,-83.4215316772461
"48161","Monroe","MI","My Workout Spot!","not_available","48162",41.929622650146484,-83.41047668457031
"48161","Monroe","MI","Quality Inn Fitness Center","1225 N Dixie Hwy","48162",41.92626,-83.365075
"48161","Monroe","MI","Anytime Fitness","2355 N Telegraph Rd","48162",41.938733980826136,-83.40712250592924
"48161","Monroe","MI","Misery","not_available","48161",41.91549749071814,-83.40162573371056
"48165","New Hudson","MI","Exerbike 2000","not_available","48178",42.47824741694343,-83.63905403942942
"48165","New Hudson","MI","Burn Boot Camp","30809 Milford Rd","48165",42.51589,-83.61686
"48166","Newport","MI","Fermi Gym","4600-4944 Enrico Fermi Dr","48166",41.96883638333333,-83.28156926666666
"48166","Newport","MI","GTOC GYM","5797-5999 Enrico Fermi Dr","48166",41.95913903333334,-83.26064616666666
"48167","Northville","MI","CYCLEBAR","20085 Haggerty Rd","48167",42.4330295,-83.4343141
"48167","Northville","MI","Orangetheory Fitness","39725 Traditions Dr","48168",42.42368365666832,-83.43631553459957
"48167","Northville","MI","Life Time Fitness","40000 High Pointe Blvd","48375",42.448953,-83.436651
"48167","Northville","MI","Northville Yoga Center","133 W Main St # 261","48167",42.43061659190077,-83.48432175159456
"48167","Northville","MI","LTF Womens Locker Room","not_available","48167",42.452848,-83.426056
"48167","Northville","MI","Uptown Body","170 E Main St Ste 301","48167",42.430683292474825,-83.48161056830892
"48167","Northville","MI","Title Boxing Club Northville","43249 West Seven Mile Road","48167",42.4231521,-83.4719669
"48167","Northville","MI","Kensington Court fitness facility","Kensington court","48167",42.427623,-83.609224
"48167","Northville","MI","Fitness Center","Hampton Inn","48167",42.43844850057832,-83.43479512666309
"48167","Northville","MI","DiPerna Strength Institute","22801 Heslip Dr","48375",42.45882797241211,-83.46858215332031
"48167","Northville","MI","Bodyfit","133 W Main St Ste 240","48167",42.429913991307245,-83.48397517425785
"48167","Northville","MI","Forever Fit","215 E Main St","48167",42.431517,-83.480335
"48167","Northville","MI","average joe's gym","9929 Briarcliff Ct, Northville, MI 48167","48167",42.43216901340855,-83.61019167022889
"48167","Northville","MI","River Oaks West Clubhouse Gym","not_available","48375",42.45878116666483,-83.4737485441679
"48168","Northville","MI","Curves-Plymouth","44707 Five Mile Rd","48170",42.3948521,-83.4843114
"48168","Northville","MI","Snap Fitness","15368 Haggerty","48170",42.383997,-83.45258698333333
"48168","Northville","MI","The Ninja's Edge","45677 Helm St","48170",42.39102,-83.49352
"48168","Northville","MI","F45 Training South Northville","15343 Beck Rd","48167",42.396336,-83.509558
"48168","Northville","MI","CrossFit Forgiven","770 Davis St","48170",42.380098,-83.462333
"48168","Northville","MI","The Little Gym","not_available","48170",42.395236,-83.484353
"48168","Northville","MI","9Round Fitness - Northville","15404 N Haggerty Rd","48170",42.39674758911133,-83.4372329711914
"48168","Northville","MI","Superslow Zone","42000 6 Mile Rd Ste 120","48168",42.411445,-83.458484
"48168","Northville","MI","Snap Fitness","15374 N Haggerty Rd","48170",42.39651870727539,-83.43830108642578
"48168","Northville","MI","Strength Depot","736 Junction St","48170",42.37990188598633,-83.46916198730469
"48168","Northville","MI","Burn Boot Camp","16855 Ridge Rd","48168",42.40533,-83.53135
"48169","Pinckney","MI","Snap Fitness","1337 Michigan 36","48169",42.45957929222003,-83.92801613477056
"48170","Plymouth","MI","Fit Body Boot Camp","not_available","48187",42.344519023516305,-83.48062625088238
"48170","Plymouth","MI","LA Fitness","41128 Ann Arbor Rd E","48170",42.360447286902236,-83.44680127571783
"48170","Plymouth","MI","Xclusive Fitness","595 S Main St","48170",42.367765198914654,-83.46941634462236
"48170","Plymouth","MI","The Z Spot Fitness","1472 S Sheldon Rd","48170",42.359039306640625,-83.47940063476562
"48170","Plymouth","MI","WiiFit Zone","Deer street","48170",42.337315459800024,-83.4993232180086
"48170","Plymouth","MI","L Oa Fitness for Women","43367 Joy Rd","48187",42.34989929199219,-83.46808624267578
"48170","Plymouth","MI","LA Fitness","Plymouth Rd, Livonia, MI","not_available",42.36434390151649,-83.44388475989079
"48170","Plymouth","MI","Canton Karate","44254 Warren Road","48187",42.33722488157824,-83.47650374921261
"48170","Plymouth","MI","Crossfit Lower Town","587 W Ann Arbor Trl","48170",42.369110107421875,-83.46757507324219
"48170","Plymouth","MI","Snap Fitness","521 Ann Arbor Rd W","48170",42.358442292138946,-83.46563414883052
"48170","Plymouth","MI","Crossfit Lower Town","9145 General Ct","48170",42.354400634765625,-83.45700073242188
"48170","Plymouth","MI","Pure Barre","585 Forest Ave Ste 1","48170",42.368279995095286,-83.47062821701911
"48170","Plymouth","MI","NeuroMuscular Junction Wellness Center","9357 General Dr Ste 111","48170",42.35700225830078,-83.45763397216797
"48174","Romulus","MI","Embassy Suites Fitness Center","8600 Wickham Rd","48174",42.242244595682486,-83.3486295177884
"48174","Romulus","MI","Reps! Gym & Fitness","7836 Telegraph Rd","48180",42.25119279361543,-83.27072826842587
"48174","Romulus","MI","Clarion Gym","8600 Merriman Rd","48174",42.24248123168945,-83.34635162353516
"48174","Romulus","MI","APF/AAPF State Meet","2899 Goddard","48242",42.232342,-83.336429
"48174","Romulus","MI","Delta HealthCentral","Mcnamara Terminal Gate A 57","not_available",42.19618225097656,-83.35685729980469
"48174","Romulus","MI","Four Points by Sheraton Workout Room","8800 Wickham Rd","48174",42.24122619628906,-83.34831237792969
"48174","Romulus","MI","Fitness USA","not_available","48180",42.19632513851471,-83.26799222857699
"48174","Romulus","MI","Marriott Fitness Center","30559 Flynn Dr","48174",42.24150466918945,-83.33777618408203
"48174","Romulus","MI","William D. Ford Senior Citizens' Activity Center","6750 Troy St, Taylor, MI 48180","48180",42.25785827636719,-83.27854919433594
"48174","Romulus","MI","The Mezz-Gym","At the job gym!","48242",42.234527652154206,-83.35037275659141
"48174","Romulus","MI","Sheraton Fitness","8000 Merriman Rd","48174",42.246336160701716,-83.34911533851053
"48174","Romulus","MI","Detroit Barbell","17608 U.S. 24","48174",42.177711712896176,-83.26797655090127
"48174","Romulus","MI","MSP Gym","12111 Telegraph Rd","48180",42.21844482421875,-83.2679672241211
"48174","Romulus","MI","Fairfield Inn & Suites Fitness Center","7800 Merriman Rd","48174",42.247063,-83.349052
"48176","Saline","MI","Michigan Sports Academy","not_available","48176",42.18410762800051,-83.77273261628994
"48176","Saline","MI","Powerhouse Gym","946 E Michigan Ave","48176",42.17255318454519,-83.76388730294859
"48176","Saline","MI","Snap Fitness","1359 E Michigan Ave","48176",42.1786003112793,-83.7582015991211
"48178","South Lyon","MI","Anytime Fitness","20758 Pontiac Tr","48178",42.43365,-83.64774
"48178","South Lyon","MI","Powerhouse Fitness Complex","22185 Pontiac Trl","48178",42.443025472458615,-83.651276044005
"48178","South Lyon","MI","Anytime Fitness","57066 10 Mile Rd","48178",42.46309976,-83.61313486
"48178","South Lyon","MI","Snap Fitness","23200 Pontiac Trl","48178",42.452374549604095,-83.65047521317311
"48178","South Lyon","MI","TruFit Fitness","10638 N Rushton Rd","48178",42.44881057739258,-83.698486328125
"48178","South Lyon","MI","Curves","559 S Lafayette St","48178",42.45501708984375,-83.65044403076172
"48179","South Rockwood","MI","Legendary Fitness","11430 Armstrong Rd","48179",42.043321,-83.282673
"48180","Taylor","MI","Taylor Recreation Center","22805 Goddard Rd","48180",42.225392330053296,-83.25644806416051
"48180","Taylor","MI","Crunch Fitness - Taylor","21604 Ecorse Rd","48180",42.2570199,-83.2469665
"48182","Temperance","MI","Temperance Family Fitness","8955 Lewis Ave #3","48182",41.778785705566406,-83.56912231445312
"48182","Temperance","MI","Francis Family YMCA","2000 W Dean Rd","48182",41.76559446924625,-83.5961078666718
"48183","Trenton","MI","Powerhouse Gym","19055 Allen Rd","48183",42.16878289805456,-83.22663888275933
"48183","Trenton","MI","LA Fitness","20940 West Rd","48183",42.14130829488262,-83.23614706563617
"48183","Trenton","MI","3D Fit","3214 W Jefferson Ave","48183",42.13879295069086,-83.1813865544572
"48183","Trenton","MI","Gymboree Play & Music","19090 Fort St","48193",42.16958999633789,-83.18929290771484
"48183","Trenton","MI","Red Effect Infrared Fitness","21631 Allen Rd","48183",42.15093,-83.22599249999999
"48183","Trenton","MI","Mighty Warrior CrossFit","19280 Allen Rd","48183",42.16546630859375,-83.22758483886719
"48184","Wayne","MI","Ford Wayne Assembly Gym","not_available","48184",42.28038714242884,-83.40630865821937
"48184","Wayne","MI","Planet Fitness","34610 W Michigan Ave","48184",42.282224,-83.380262
"48184","Wayne","MI","Terry Gym","Richard St","48184",42.27168076666667,-83.37470346666666
"48184","Wayne","MI","Fat Loss Boot Camp","33029 Michigan Ave","48184",42.282072,-83.365063
"48184","Wayne","MI","P90x Working Out At Home","feel the burn","48184",42.2876419,-83.378859
"48185","Westland","MI","Fitness USA","7677 N Wayne Rd","48185",42.343099,-83.386078
"48185","Westland","MI","The Edge Fitness Clubs","36577 Warren Rd","48185",42.33592987060547,-83.40116882324219
"48185","Westland","MI","Powerhouse Gym","34520 Ford Rd","48185",42.3255615234375,-83.38256072998047
"48185","Westland","MI","Physical Rehabilitation Services","37620 Ford Rd","48185",42.324545861739345,-83.41075026337285
"48185","Westland","MI","Home Gym","7036 Lakeview Blvd","48185",42.33567428588867,-83.39703369140625
"48185","Westland","MI","Crunch Fitness - Westland","35715 Warren Road","48185",42.3375985,-83.3955298
"48186","Westland","MI","My Workout Room","517 S Sybald St","48186",42.30363845825195,-83.41536712646484
"48186","Westland","MI","Kevin's P90X Gym","Birchwood st.","48186",42.3041617,-83.38538968
"48187","Canton","MI","Life Time Fitness","1700 N Haggerty Rd","48187",42.3188804,-83.4455967
"48187","Canton","MI","Anytime Fitness","45211 Cherry Hill Rd","48188",42.30684,-83.485271
"48187","Canton","MI","TITLE Boxing Club Canton","5848 Sheldon Road","48187",42.3243235,-83.4768486
"48187","Canton","MI","4EverFit","45580 Cherry Hill Rd","48187",42.30791122028254,-83.48935175990131
"48187","Canton","MI","Village Green Fitness Center","41420 W Village Green Blvd","48187",42.312653000000005,-83.451686
"48187","Canton","MI","CYCLEBAR","41847 Ford Rd","48187",42.3222694,-83.4538565
"48187","Canton","MI","Maxx Force Fitness","6728 N Canton Center Rd","48187",42.33233642578125,-83.48748779296875
"48187","Canton","MI","Fitness 19","1717 N Canton Center Rd","48187",42.3191012630888,-83.48917232667948
"48187","Canton","MI","Michigan Premiere Athletics","Rounda","48187",42.34348733,-83.45328898
"48187","Canton","MI","Anytime Fitness","8501 N Lilley Rd","48187",42.34947,-83.4606
"48187","Canton","MI","Burn Boot Camp","7399 N Lilley Rd","48187",42.33905,-83.46006
"48188","Canton","MI","The Summit","46000 Summit Pkwy","48188",42.29585014603066,-83.49300309518287
"48188","Canton","MI","The Medicine Ball","640 Roosevelt St","48188",42.302002,-83.53264300000001
"48188","Canton","MI","Snap Fitness","4011 S Canton Center Rd","48188",42.276190597957424,-83.484613262613
"48188","Canton","MI","Adis' Barbells and Beers Gym","1855 Barclay Ct","48188",42.292604,-83.467639
"48188","Canton","MI","Scenic Walk","not_available","48188",42.29522705078125,-83.45550537109375
"48192","Wyandotte","MI","Workout Warehouse","18582 Jefferson","48193",42.2114772236199,-83.16658772878758
"48195","Southgate","MI","Anytime Fitness","15345 Dix-Toledo Rd","48195",42.19653,-83.21321
"48195","Southgate","MI","Downriver Family YMCA","16777 Northline Rd","48195",42.212787,-83.218808
"48197","Ypsilanti","MI","The FIRM Express Gym","Geddes Rd.","not_available",42.24131944444444,-83.61303
"48197","Ypsilanti","MI","Powerhouse Gym","1326 Anna J Stepp Dr","48197",42.22340430710866,-83.62014441356348
"48197","Ypsilanti","MI","Crunch Fitness - Ypsilanti","3020 Washtenaw Avenue","48197",42.25081088,-83.65841631
"48197","Ypsilanti","MI","Marriott Gym","1275 N. Huron St","48197",42.2245089188567,-83.61294128721644
"48197","Ypsilanti","MI","Curves","2624 Washtenaw Rd","48197",42.249784999999996,-83.652428
"48197","Ypsilanti","MI","Crossfit734","258 Airport Industrial Dr","48198",42.24357555298402,-83.57089461293387
"48197","Ypsilanti","MI","CrossFit Lily","3828 Carpenter Rd","48197",42.233089447021484,-83.68121337890625
"48197","Ypsilanti","MI","Anytime Fitness","1900 Whittaker Rd","48197",42.21353,-83.62104
"48197","Ypsilanti","MI","EMU Fitness Center","EMU","48197",42.25209431327309,-83.66872361274811
"48201","Detroit","MI","Detroit Athletic Club (DAC)","241 Madison St","48226",42.33728538599592,-83.0470674164324
"48201","Detroit","MI","Dte Energy Gym","not_available","48201",42.33443105564181,-83.05896559468019
"48201","Detroit","MI","CrossFit In The D","150 Michigan Ave.","48226",42.331767461695414,-83.04887229832313
"48201","Detroit","MI","ECC Fitness Center","not_available","48226",42.333981,-83.05611
"48201","Detroit","MI","Pure Barre","1414 Griswold Avenue","48226",42.334073,-83.0497046
"48201","Detroit","MI","Compuware World Headquarters","1 Campus Martius","48226",42.332258418186285,-83.0466726141566
"48201","Detroit","MI","Crain Communications Workout room","1155 Gratiot Ave, Detroit, MI 48207","48207",42.34299087524414,-83.04200744628906
"48201","Detroit","MI","The Kales Building Gym","76 W Adams Ave","48226",42.33674161802777,-83.05261168124397
"48201","Detroit","MI","Fitness Zone","1 Energy Plz","48226",42.33345031738281,-83.05756378173828
"48201","Detroit","MI","F45 Training Midtown Detroit","3150 Woodward Ave","48201",42.345589,-83.056394
"48201","Detroit","MI","Crossfit BMW","3124 Cass Ave","48201",42.343482971191406,-83.05907440185547
"48201","Detroit","MI","Detroit Tough","1244 Beech St","48226",42.33213498044687,-83.06363604267594
"48202","Detroit","MI","Orangetheory Fitness","2911 W Grand Blvd","48202",42.36813735961914,-83.08042907714844
"48202","Detroit","MI","FitnessWorks","6525 2nd Ave","48202",42.36799662615948,-83.0767270729248
"48202","Detroit","MI","Blink Fitness","640 Amsterdam Street","48202",42.365253,-83.075572
"48202","Detroit","MI","Proving Grounds Strength And Konditioning","1600 Clay St, Ste. 131","48211",42.37868881225586,-83.059814453125
"48203","Highland Park","MI","Powerhouse Gym","16251 Woodward Ave","48203",42.41476771597322,-83.10373212502326
"48203","Highland Park","MI","St. Benedict Parish Gymnasium","John R","not_available",42.414361,-83.099464
"48203","Highland Park","MI","Jcjonesbootcamp","not_available","48238",42.40272125272191,-83.12202397684985
"48203","Highland Park","MI","Body Zone","not_available","48203",42.41847,-83.087006
"48203","Highland Park","MI","JC Jones Bootcamp - The Bootcamp Warehouse","2239 Fenkell St","48238",42.402899984222195,-83.12226471388304
"48204","Detroit","MI","St. Cecilia Gym","Stoepel","not_available",42.37197070310593,-83.14017266203122
"48205","Detroit","MI","Hickory Block Club Gym","18000 Hickory","48205",42.428452783333334,-82.98702768333334
"48205","Detroit","MI","1punch knockout","15050 gratiot","48205",42.444806,-82.970854
"48207","Detroit","MI","RenCen Fitness","300 Renaissance Ctr Ste A305","48243",42.328439831231144,-83.0388030702426
"48207","Detroit","MI","Downtown Youth Boxing Gym","6445 E Vernor Hwy","48207",42.35597773959468,-83.01516284619855
"48207","Detroit","MI","JABS Gym (Eastern Market)","2501 Russell Street, Floors 2 & 3","48207",42.34597,-83.040511
"48207","Detroit","MI","Detroit Marriott Health Club","400 Renaissance Ctr","48243",42.32907203047574,-83.03929735412336
"48207","Detroit","MI","igivefitness","200 Mt Elliott St, Detroit, MI 48207","48207",42.3424994077316,-83.00934063851447
"48207","Detroit","MI","The Wise Decision","3100 Guoin St","48207",42.336921000000004,-83.01501800000001
"48207","Detroit","MI","The Pavilion Gym","1 Lafayette Plaisance St","48207",42.34010475788527,-83.03687267439066
"48207","Detroit","MI","G.I.V.E Fitness","not_available","48207",42.34267966662773,-83.00930391207592
"48207","Detroit","MI","Area 313 Event Space","1343 East Fisher Service Drive, 3rd Floor","48207",42.3451797,-83.0404741
"48207","Detroit","MI","Courtyard Marriott Gym Downtown Detroit","333 E Jefferson Ave","48226",42.3303184122863,-83.04207674767166
"48207","Detroit","MI","DMP Gym","615 W Lafayette Blvd","48226",42.32842254638672,-83.05410766601562
"48208","Detroit","MI","Wii Gym","2544-1 Michigan Ave","48216",42.332193,-83.081496
"48208","Detroit","MI","True Body Fitness","1438 Michigan Ave","48216",42.33150592760036,-83.06626907269437
"48209","Detroit","MI","Southwest Boxing Gym","6705 Lafayette Blvd","48209",42.3062744140625,-83.11009216308594
"48210","Detroit","MI","Academy Of The America","5680 Konkel St","48210",42.32723171810863,-83.1105280878105
"48210","Detroit","MI","K-ronk Gym","not_available","48210",42.34338067980709,-83.12010871763886
"48211","Detroit","MI","Hamtramck High School Community Center","11350 Charest St","48212",42.40234253162572,-83.05772306729256
"48211","Detroit","MI","NBTG Fitness","10326 Joseph Campau St","48212",42.399716,-83.05936
"48211","Detroit","MI","Fit and Tan","11828 Joseph Campau St","48212",42.40358352661133,-83.0621566772461
"48212","Hamtramck","MI","Steel Dungeon","17452 Moran St","48212",42.423363,-83.067763
"48213","Detroit","MI","Blaze Gym","5640 Saint Jean St","48213",42.39239,-82.98649300000001
"48213","Detroit","MI","PVS Gym","not_available","48213",42.39500090688256,-82.99436505138203
"48213","Detroit","MI","Motor City Electric Employee Gym","9440 Grinnell St","48213",42.400718688964844,-83.01065826416016
"48215","Detroit","MI","Fit","Kercheval","not_available",42.381449266593485,-82.94066855712224
"48216","Detroit","MI","Infrared Saunas Michigan","2030 Howard St","48216",42.32386779785156,-83.07044982910156
"48219","Detroit","MI","The Treadmill","not_available","48219",42.41109085083008,-83.22156524658203
"48220","Ferndale","MI","Anytime Fitness","22861 Woodward Ave","48220",42.46131,-83.13552
"48220","Ferndale","MI","Snap Fitness","23000 Woodward Ave","48220",42.4624648231884,-83.13524597072748
"48220","Ferndale","MI","Station515","not_available","48220",42.46905179994471,-83.13317944719446
"48220","Ferndale","MI","359 Gym","359 Livernois St","48220",42.448578999999995,-83.14282800000001
"48220","Ferndale","MI","Aerial Dragonfly Movement Studio","3025 Hilton Rd","48220",42.4713385,-83.12389290000002
"48220","Ferndale","MI","Bodymorph, Inc.","561 Livernois St","48220",42.450292550755464,-83.14255389436902
"48220","Ferndale","MI","Trainers Total Fitness","370 Hilton Rd","48220",42.44902038574219,-83.1222152709961
"48220","Ferndale","MI","Behave Weight Loss","3029 Hilton Rd","48220",42.471334999999996,-83.123868
"48220","Ferndale","MI","Watters Performance MCB","23446 Woodward Ave","48220",42.466755894182455,-83.13775464353964
"48220","Ferndale","MI","Metro Detroit Athletes","1000 Mapledale Street","48220",42.472223527571416,-83.12989711761475
"48220","Ferndale","MI","Body and Mind fitness 239 E. Nine Mile","239 E 9 Mile Rd","48220",42.46051013301251,-83.13170242331246
"48221","Detroit","MI","Grindtime Fitness","18411 Wyoming St","48221",42.42623519897461,-83.16108703613281
"48223","Detroit","MI","Powerhouse Gym","18230 Grand River Ave","48223",42.401601758549056,-83.220506325534
"48224","Detroit","MI","Push The Limit Fitness","17725 Mack Avenue","48224",42.393554,-82.926365
"48224","Detroit","MI","Syphus Training","19556 Harper Ave","48225",42.430320739746094,-82.92318725585938
"48224","Detroit","MI","Eastside Tennis & Fitness Club","18201 E Warren Ave","48224",42.41209099586228,-82.91846229442717
"48226","Detroit","MI","Riverfront Gym","100 Riverfront Dr","48226",42.324045050218444,-83.05516687047377
"48227","Detroit","MI","World's Best Gym","14955 Schaefer Hwy","48227",42.39940283,-83.17925939
"48230","Grosse Pointe","MI","Pure Barre","75 Kercheval Ave Ste 101","48236",42.395053525361845,-82.90377426562503
"48234","Detroit","MI","Anytime Fitness","1851 44th St SW","49509",42.43427305415494,-83.01406768524855
"48236","Grosse Pointe","MI","LA Fitness","22327 Moross Rd","48236",42.41832770131729,-82.91245007550906
"48236","Grosse Pointe","MI","Brad's Gym","951 Hampton Rd","48236",42.443288,-82.889241
"48236","Grosse Pointe","MI","Grosse Pointe North Gym","707 Vernier Rd","48236",42.436666884553624,-82.88955671716428
"48236","Grosse Pointe","MI","Orangetheory Fitness","20853 Mack Ave","48236",42.44636917114258,-82.90665435791016
"48236","Grosse Pointe","MI","Curves Pointe Plaza","19165 Mack Ave","48236",42.41815948486328,-82.91136932373047
"48237","Oak Park","MI","Planet Fitness","13301 W 10 Mile Rd","48237",42.47380076207204,-83.1793123325534
"48237","Oak Park","MI","Samuel's Fitness","21700 Greenfield Rd","48237",42.44695614095573,-83.20046985315005
"48237","Oak Park","MI","DUKES WORKOUT ROOM","not_available","48237",42.457152,-83.186581
"48237","Oak Park","MI","Planet Fitness","13151 W 10 Mile Rd","48237",42.473307,-83.18005699999999
"48239","Redford","MI","Alistair Overeem Shoulder Develoment Center and Hulk Training","7777 Joy Rd","48239",42.35938845316479,-83.30992682567424
"48239","Redford","MI","Blink Fitness","9395 Telegraph Rd","48239",42.363462,-83.279115
"48239","Redford","MI","total gym","Telegraph","48239",42.38284654278675,-83.28899166949209
"48239","Redford","MI","Planet Fitness","not_available","48240",42.406066058922875,-83.30424450202457
"48239","Redford","MI","LA Fitness","9359 Telegraph Rd","48239",42.363037109375,-83.27584838867188
"48240","Redford","MI","Elite Fitness & Bootcamps","25513 W 7 Mile Rd","48240",42.428191999999996,-83.29377099999999
"48301","Bloomfield Hills","MI","Equinox Bloomfield Hills","4065 W Maple Rd","48301",42.5438855,-83.2832944
"48301","Bloomfield Hills","MI","Body By Margo","6632 Telegraph Road, #208","48301",42.542602452368136,-83.28647068584439
"48302","Bloomfield Hills","MI","Detroit Skating Club","888 Denison Court Bloomfield Hills, MI 48302","48302",42.60739438271128,-83.29113206515632
"48302","Bloomfield Hills","MI","CYCLEBAR","2125 S Telegraph Rd Ste A","48302",42.60757616768585,-83.29765319824219
"48302","Bloomfield Hills","MI","LA Fitness","2050 S Telegraph Rd","48302",42.608589194222,-83.30229942751521
"48302","Bloomfield Hills","MI","Michigan Cheer Starz","not_available","48302",42.607386,-83.287903
"48302","Bloomfield Hills","MI","Wow Fitness","2448 Orchard Lake Rd","48320",42.6101129231972,-83.33303383833145
"48302","Bloomfield Hills","MI","Sor","44200 Woodward Ave","48341",42.61457061767578,-83.27251434326172
"48302","Bloomfield Hills","MI","CrossFit Bloomfield","799 Industrial Ct","48302",42.60439992889867,-83.28995126187013
"48302","Bloomfield Hills","MI","Bloomfield Tennis & Fitness","denison","48302",42.60730356134,-83.2895726403643
"48302","Bloomfield Hills","MI","Cross Fit Bloomfield","2124 Franklin Rd","48302",42.607295989990234,-83.28829956054688
"48302","Bloomfield Hills","MI","Fitness Innovation Team","795A Industrial Ct","48302",42.60523986816406,-83.28926086425781
"48302","Bloomfield Hills","MI","D1 Training","799 Denison Ct","48302",42.60685348510742,-83.28956604003906
"48302","Bloomfield Hills","MI","Life Time Athletic","4106 Telegraph Rd","48302",42.579714,-83.28111
"48304","Bloomfield Hills","MI","The Gym","39475 Woodward Ave","48304",42.58110809326172,-83.24402618408203
"48306","Rochester","MI","Van Hoosen Middle School","1339 N Adams Rd","48306",42.69816045576229,-83.19815755890502
"48306","Rochester","MI","fitness 24","Vandyke","48315",42.72068729832136,-83.19871209851105
"48306","Rochester","MI","Anytime Fitness","2079 25 Mile Road","48316",42.6980623,-83.09330489999999
"48306","Rochester","MI","Orangetheory Fitness","1470 N Rochester Rd","48307",42.69493865966797,-83.13204956054688
"48306","Rochester","MI","Anytime Fitness Rochester","2079 25 Mile Rd","48316",42.697200775146484,-83.0927505493164
"48306","Rochester","MI","Snap Fitness","4890 N Adams Rd","48306",42.72586278824348,-83.19899527132604
"48306","Rochester","MI","Fitness 19 Rochester Hills","6838 North Rochester Road","48306",42.69791715,-83.13650123
"48306","Rochester","MI","Infrared Sauna Dealers Oakland MI","6841 N Rochester Rd","48306",42.69791793823242,-83.13189697265625
"48306","Rochester","MI","Lake Orion High weight room","not_available","48363",42.74853641439229,-83.17769383220225
"48307","Rochester","MI","Retro Fitness","637 N Main St","48307",42.6845549,-83.1346538
"48307","Rochester","MI","The Edge Fitness Clubs","1086 S. Rochester Rd","48307",42.6648727,-83.1363949
"48307","Rochester","MI","Rochester Gym","278 E Auburn Rd","48307",42.6352463879806,-83.12584225294424
"48307","Rochester","MI","Rochester OPC","650 Letica Dr","48307",42.68365478515625,-83.1196517944336
"48307","Rochester","MI","Game Changer Athletic","110 E 2nd St","48307",42.67799758911133,-83.1322250366211
"48307","Rochester","MI","Pine Ridge Workout center","2840 Lower Ridge Dr","48307",42.6391949881357,-83.15154364271262
"48307","Rochester","MI","Pure Barre","439 S Main St Ste 150","48307",42.681877552440774,-83.13445427175202
"48307","Rochester","MI","F45 Training Rochester Hills","878 S Rochester Rd","48307",42.668588,-83.134676
"48307","Rochester","MI","Class Action Fitness","345 John R Rd","48307",42.680294036865234,-83.11135864257812
"48307","Rochester","MI","Mayweather Training Facility","Deepwood Cir","48307",42.683526277542114,-83.098064661026
"48307","Rochester","MI","Legacy Volleyball Center","1160 S Rochester Rd","48307",42.663131,-83.13574100000001
"48307","Rochester","MI","Avondale Gym","not_available","48309",42.63479055143244,-83.15783090540837
"48307","Rochester","MI","Royal Park Fitness Center","University","48307",42.68122450300823,-83.12898617865356
"48307","Rochester","MI","Applied Fitness Solutions","1136 S. Rochester Rd.","48307",42.663611714259424,-83.13712561296688
"48307","Rochester","MI","Life Time Fitness","200 W Avon Rd","48307",42.668137,-83.136993
"48307","Rochester","MI","Rochester Hills: Fit Body Bootcamp","1900 S Rochester Rd","48307",42.6538200378418,-83.13349151611328
"48307","Rochester","MI","Curves","41 S Livernois Rd","48307",42.680121,-83.15150200000001
"48307","Rochester","MI","Leah V Fitness","not_available","48360",42.649720713125255,-83.12766642003311
"48307","Rochester","MI","Row House","1206 Walton Blvd","48307",42.68247,-83.15055199999999
"48309","Rochester","MI","Beacon Hill Apartments Gym","2617 Beacon Hill Dr","48326",42.68161392211914,-83.21568298339844
"48309","Rochester","MI","Anytime Fitness","1390 Walton Blvd","48309",42.68211,-83.15845
"48309","Rochester","MI","Class Action Fitness","1950 Star Batt Dr","48309",42.6485710144043,-83.16909790039062
"48309","Rochester","MI","Solidcore","256 N Adams Rd","48309",42.683237,-83.192465
"48309","Rochester","MI","River Oaks Gym","3200 River Oaks Blvd","48309",42.658036436020716,-83.20055629875831
"48309","Rochester","MI","YogaSix","358 N Adams Rd","48309",42.684818267822266,-83.19410705566406
"48309","Rochester","MI","Stratford Manor Gym","manor way","48309",42.6797921430036,-83.17919050294151
"48309","Rochester","MI","Orthopedic Spine & Sports Therapy","2558 N Squirrel Rd","48326",42.68000030517578,-83.22029113769531
"48309","Rochester","MI","Rule # 1 Cardio","Walton Blvd","48309",42.67907696666666,-83.1808001
"48309","Rochester","MI","The Boulevard Fitness Center","not_available","48326",42.6826407387527,-83.21277803394707
"48309","Rochester","MI","Fitness Center","6 Roanoke Ln","48309",42.682167,-83.186352
"48309","Rochester","MI","Adams Creek","3280 S Adams Rd","48326",42.630547463416725,-83.21027264784593
"48309","Rochester","MI","Starting Line Health & Fitness","1771 W Hamlin Rd","48309",42.6497570660741,-83.16735888032622
"48309","Rochester","MI","Forester Square Fitness Center","Adams Rd","48326",42.63797203631381,-83.2129663262806
"48309","Rochester","MI","Boulevard Weight Room","2601-2735 Greenstone Blvd","48326",42.68283426761627,-83.21262717247009
"48309","Rochester","MI","Crossfit ReviveR","2255 Star Ct","48309",42.64576832653429,-83.17438899845278
"48309","Rochester","MI","Elain Ceime Irish Dance Studio","1930 Star-Batt Dr.","48309",42.64914321899414,-83.16999816894531
"48309","Rochester","MI","VWGoA Fitness Center","3800 W Hamlin Rd, Auburn Hills, MI 48326","48326",42.64557465193596,-83.21472128909636
"48310","Sterling Heights","MI","M Fitness Club","5742 15 Mile Rd","48310",42.54990705876198,-83.0504358650341
"48310","Sterling Heights","MI","Elite Training","37771 Mound Rd","48310",42.571528,-83.050561
"48310","Sterling Heights","MI","Shoal Creek","34350 Ryan Rd","48310",42.54569270450151,-83.06699602130186
"48310","Sterling Heights","MI","Charter Fitness","2173 18 Mile Rd","48314",42.593536376953125,-83.0864028930664
"48312","Sterling Heights","MI","Motor City CrossFit","8200 Irving Rd","48312",42.545551299164394,-83.02736781453869
"48312","Sterling Heights","MI","Planet Fitness","13255 Fifteen Mile Rd","48312",42.55907073361275,-82.99169507028186
"48312","Sterling Heights","MI","BAE Gym","not_available","48312",42.54614280305828,-83.0309322450927
"48312","Sterling Heights","MI","Metro Family Fitness of Sterling Heights","37680 Van Dyke Ave","48312",42.570741883526054,-83.02849139772133
"48313","Sterling Heights","MI","Holiday Inn Fitness Center","not_available","48314",42.62446975708008,-83.01632690429688
"48313","Sterling Heights","MI","Powerhouse Gym - Sterling Heights","44605 Schoenherr Rd","48313",42.624114990234375,-82.99571990966797
"48313","Sterling Heights","MI","Dangerously Fit","not_available","48313",42.602152,-83.009422
"48313","Sterling Heights","MI","The Treadmill","11416 Canal Rd","48314",42.620360999999995,-83.015627
"48313","Sterling Heights","MI","Fitness USA","39333 Van Dyke Ave","48313",42.58254623413086,-83.03092956542969
"48313","Sterling Heights","MI","Workout Room @ Comfort Inn","not_available","48317",42.62747185615437,-83.01597729512854
"48313","Sterling Heights","MI","The Edge Fitness Clubs","14495 Hall Road","48315",42.62761709999999,-82.98178
"48313","Sterling Heights","MI","iLovekickboxing - Sterling Heights, MI","44823 Schoenherr Rd","48313",42.62664031982422,-82.9935302734375
"48314","Sterling Heights","MI","LA Fitness","44777 Mound Rd","48314",42.622911204450084,-83.05683899732001
"48314","Sterling Heights","MI","The Edge Fitness Clubs","2325 18 Mile Rd","48314",42.59453,-83.086038
"48315","Utica","MI","Life Time Fitness","14843 Lakeside Blvd N","48315",42.6336825,-82.97787699999999
"48315","Utica","MI","F45 Training Shelby 23 Mile","14055 23 Mile Rd","48315",42.67108917236328,-82.9888916015625
"48315","Utica","MI","Pure Barre","13456 24 Mile Road","48315",42.68422837342446,-82.99650592511387
"48315","Utica","MI","Bayonet CrossFit","13313 W Star Dr","48315",42.675423,-82.997307
"48315","Utica","MI","Shelby Township Athletic Club (STAC)","13745 23 Mile Rd","48315",42.671079795741285,-82.9932416458932
"48315","Utica","MI","Fitness 24","45160 Northpointe Blvd","48315",42.62881729879508,-82.99918290117371
"48315","Utica","MI","Orangetheory Fitness","50560 Schoenherr Rd","48315",42.66800308227539,-82.99329376220703
"48315","Utica","MI","Cheerleading Center of Michigan","Technology Drive","48315",42.6607782165103,-82.97812104718744
"48315","Utica","MI","Shelby Forest Gym","14473-14547 Bronte Dr S","48315",42.66333317,-82.99002931
"48315","Utica","MI","586 CrossFit Asylum","14626 23 Mile Rd","48315",42.66995483628786,-82.98170233245686
"48315","Utica","MI","LTF - Shelby","Hayes","48315",42.629848,-82.99912
"48316","Utica","MI","Level Health and Fitness","55148 Van Dyke Ave","48316",42.69949959822658,-83.03284325342271
"48316","Utica","MI","Powerhouse Gym","56148 Van Dyke Ave","48316",42.69966,-83.032567
"48316","Utica","MI","TITLE Boxing Club Shelby Township","55221 Shelby Road","48316",42.69866447,-83.07029022
"48316","Utica","MI","Crossfit Edge 94","52801","48316",42.682623,-83.067856
"48316","Utica","MI","Big Boa's Joe-Buster Gym","8234 Mound","48317",42.668991625024844,-83.03135708187293
"48316","Utica","MI","F45 Training Shelby 26 Mile","56270 Van Dyke Ave","48315",42.708237,-83.034316
"48316","Utica","MI","D-Lux Karate University","8174 23 Mile Rd","48316",42.6695862,-83.031922
"48317","Utica","MI","Joe Dumars Fieldhouse","45300 Mound Rd","48317",42.62698339605648,-83.05078866392252
"48317","Utica","MI","Intrinsic Motion Systems","48121 Van Dyke Ave","48317",42.6491813659668,-83.03404235839844
"48317","Utica","MI","Anytime Fitness","49045 Van Dyke Ave.","48317",42.65592,-83.03446
"48317","Utica","MI","Zellador Wellness & Fitness","45265 Van Dyke Ave","48317",42.627895,-83.0330728
"48317","Utica","MI","Turek Gym For Muscles","Cottonwood, Shelby Township, MI 48317","48317",42.62649412634399,-83.06397216536945
"48317","Utica","MI","the weight room","2077 Durham Rd, Utica, MI 48317","48317",42.646331787109375,-83.09075164794922
"48317","Utica","MI","Authentic Martial Arts Private Training","45511 CASS AVE","48317",42.629887,-83.035224
"48317","Utica","MI","Planet Fitness","2020 Auburn Rd","48317",42.638052,-83.090619
"48320","Keego Harbor","MI","Next Level Golf Fitness & Personal Training LLC","2141 Cass Lake Rd","48320",42.60131,-83.34718699999996
"48320","Keego Harbor","MI","Dwight Orthopedic Rehabilitation company","2700 Orchard Lake Rd","48320",42.6077811489454,-83.33928620329937
"48322","West Bloomfield","MI","TITLE Boxing Club Farmington Hills","31196 Haggerty Rd","48331",42.52705599999999,-83.4375566
"48322","West Bloomfield","MI","Jewish Community Center","5720 West Maple Rd.","not_available",42.54392439071045,-83.40269672961205
"48322","West Bloomfield","MI","Art Of Strength","6775 Daly Rd","48322",42.5387354885268,-83.36307701924773
"48322","West Bloomfield","MI","S.W.A.G Kids Gym","7306 Haggerty Rd","48322",42.52796173095703,-83.43757629394531
"48322","West Bloomfield","MI","Live Cryo","6750 Orchard Lake Rd","48322",42.5386597,-83.3615795
"48322","West Bloomfield","MI","Koko FitClub","6385 Orchard Lake Rd","48322",42.54459762573242,-83.36032104492188
"48322","West Bloomfield","MI","Coach Me Fit","5564 Drake Rd","48322",42.555179595947266,-83.40127563476562
"48322","West Bloomfield","MI","CITYROW West Bloomfield - Orchard Lake","6629 Orchard Lake Road","48322",42.54130105,-83.35984553
"48322","West Bloomfield","MI","Pure Barre","6923 Orchard Lake Road","48322",42.53705902915027,-83.35954003566712
"48322","West Bloomfield","MI","F45 Training West Bloomfield South","6718 Orchard Lake Road","48322",42.540128,-83.362536
"48322","West Bloomfield","MI","YogaSix","33340 W. 14 Mile Rd.","48322",42.527992248535156,-83.37844848632812
"48322","West Bloomfield","MI","Planet Fitness","6433 Orchard Lake Rd","48322",42.544555,-83.359183
"48323","West Bloomfield","MI","Powerhouse Gym West Bloomfield, MI","4805 Haggerty Rd","48323",42.56479435288969,-83.43697028465579
"48323","West Bloomfield","MI","St. Mary's Weight Room","3535 Indian Trl","48324",42.59552764892578,-83.35841369628906
"48323","West Bloomfield","MI","Fitness 19","4299 Orchard Lake Rd","48323",42.57589106201841,-83.36142363945702
"48323","West Bloomfield","MI","Orchard Lake Country Club Gym","not_available","48324",42.584938852491184,-83.38128388253926
"48323","West Bloomfield","MI","Rep Eaters CrossFit","2055","48390",42.552862,-83.441053
"48326","Auburn Hills","MI","North Oakland YMCA","3378 E Walton Blvd","48326",42.6780157,-83.22407659999999
"48326","Auburn Hills","MI","Retro Fitness","47 S Telegraph Rd","48341",42.633713,-83.324856
"48326","Auburn Hills","MI","Anytime Fitness","149 N Perry St","48342",42.641,-83.29233
"48326","Auburn Hills","MI","Workin It","not_available","48340",42.674431,-83.305617
"48326","Auburn Hills","MI","GLC Bike Patrol","4000 Baldwin Rd","48326",42.70318519211528,-83.29612751938045
"48326","Auburn Hills","MI","Shuttle","4612 Baldwin Rd","48326",42.7021484375,-83.30650329589844
"48326","Auburn Hills","MI","Detroit Pistons Lifting/anti Inflamatory Room","Davidson Drive","48326",42.697488995407,-83.25112084926918
"48326","Auburn Hills","MI","Chrysler Health Activity Center","1000 Chrysler Dr","48326",42.65424656934811,-83.23347502644998
"48326","Auburn Hills","MI","Hampton Inn Fitness Center","3988 Baldwin Road","not_available",42.70322036743164,-83.3052978515625
"48326","Auburn Hills","MI","Playmakers University","Edison St","48342",42.652567,-83.29118299999999
"48326","Auburn Hills","MI","Xceleration Sports","3951 Joslyn Rd","48326",42.697932,-83.28273399999999
"48326","Auburn Hills","MI","Anytime Fitness","4399 Interpark Dr","48326",42.707337578000285,-83.24150919914246
"48326","Auburn Hills","MI","Sweat Shop","1466-1488 Grandville Ct","48340",42.6793054,-83.25509865
"48326","Auburn Hills","MI","Great Lakes Strength and Conditioning","1000 N Opdyke Rd Ste B","48326",42.65353775024414,-83.24546813964844
"48326","Auburn Hills","MI","Avery Baseball","100 Premier Dr","48359",42.71124267578125,-83.24149322509766
"48326","Auburn Hills","MI","Gym","not_available","48328",42.63444444444444,-83.32666666666667
"48327","Waterford","MI","The Mfing Elliptical","not_available","48327",42.656485,-83.390525
"48327","Waterford","MI","Iron City Fitness","4721 Highland Rd","48328",42.65825968515037,-83.38141286229576
"48327","Waterford","MI","OCC Gym & Fitness room","27500 Cooley Lk Rd","48324",42.61953370590397,-83.43006313612948
"48327","Waterford","MI","LA Fitness","1490 N Oakland Blvd","48327",42.6599264870449,-83.43068768789335
"48328","Waterford","MI","Home Gym","Willow Way","48328",42.64022557567957,-83.36893558502197
"48328","Waterford","MI","Aspire Fitness","3635 Highland Rd","48328",42.64369201660156,-83.35973358154297
"48328","Waterford","MI","Anytime Fitness","3399 Elizabeth Lake Rd","48328",42.63847344608298,-83.35317492485046
"48328","Waterford","MI","iCan Fitness Center & iCan CrossFit 24/7/365","3770 Dixie Hwy Ste B","48329",42.67789077758789,-83.36254119873047
"48329","Waterford","MI","American Fitness","5070 Dixie Hwy","48329",42.69437789916992,-83.38861846923828
"48329","Waterford","MI","Work It Personal Training","not_available","48346",42.70499038696289,-83.43997192382812
"48329","Waterford","MI","Dignified CrossFit","5875 Dixie Hwy","48346",42.705020904541016,-83.4052734375
"48329","Waterford","MI","American Fitness","5072 Dixie Hwy","48329",42.69437789916992,-83.38861846923828
"48329","Waterford","MI","The Shop","5911 Dixie Hwy","48346",42.705331,-83.405447
"48329","Waterford","MI","Flipstarz","5425 Perry Dr Ste 101","48329",42.685157775878906,-83.39611053466797
"48329","Waterford","MI","Crunch Fitness - Waterford","4998 Dixie Highway","48329",42.6927607,-83.3883704
"48329","Waterford","MI","American Fitness","5770 Dixie Hwy","48329",42.70228701350794,-83.40221502929114
"48329","Waterford","MI","Dueces","4078 Highview Ct","48329",42.699483,-83.34411899999999
"48331","Farmington","MI","CrossFit 248","24663 Halsted Rd","48335",42.47423361898291,-83.41656789696867
"48331","Farmington","MI","Anytime Fitness","37592 W 12 Mile Rd","48331",42.49925,-83.41977
"48331","Farmington","MI","Next Level Training/Team Angie Fitness","24505 Halsted Rd","48335",42.472981,-83.41704
"48331","Farmington","MI","Nissan Technical Center Fitness Center","39001 Sunrise Dr","48331",42.4936326986379,-83.42557157029505
"48331","Farmington","MI","GreenPath Fitness","not_available","48331",42.48767589561527,-83.4141614331423
"48331","Farmington","MI","Crunch Fitness - Farmington Hills","24900 Haggerty Rd","48335",42.474733,-83.433661
"48331","Farmington","MI","Powerhouse Gym","not_available","48335",42.46986510235695,-83.41758172883522
"48331","Farmington","MI","Snap Fitness","33322 W 12 Mile Rd","48334",42.49972152709961,-83.37757110595703
"48331","Farmington","MI","Crossfit Frostbite","24756 Crestview Ct.","48335",42.474143981933594,-83.42674255371094
"48334","Farmington","MI","YMCA Farmington Hills","28100 Farmington Rd","48334",42.50147,-83.37648
"48334","Farmington","MI","Body Positive Transformations","29220 Orchard Lake Rd","48334",42.5117994,-83.358156
"48334","Farmington","MI","MyGym Children's Fitness Center","27873 Orchard Lake Rd","48334",42.5004997253418,-83.35953521728516
"48335","Farmington","MI","Diamond Forest Apartments","23140 Halsted Rd","48335",42.46056824,-83.41463485
"48335","Farmington","MI","Fitness 19","23296 Farmington Rd","48336",42.46285509739476,-83.37616465908526
"48335","Farmington","MI","Drakeshire Community Pool","Drakeshire Lane","48335",42.46633051559754,-83.39243887368279
"48335","Farmington","MI","Instant Replay Volleyball Club","24016 Haggarty","not_available",42.466009,-83.432691
"48336","Farmington","MI","Anytime Fitness","22004 Farmington Rd Farmington","48336",42.454242,-83.374542
"48336","Farmington","MI","Nantucket Gym","not_available","48336",42.4553473710685,-83.34518465511765
"48336","Farmington","MI","The Edge Fitness Clubs","30150 Grand River Ave","48336",42.45448082434686,-83.34398200922112
"48346","Clarkston","MI","Anytime Fitness","7113 Dixie Hwy","48346",42.723087,-83.427971
"48346","Clarkston","MI","impact nutrition","6491 Sashabaw Rd","48346",42.73270034790039,-83.37960815429688
"48346","Clarkston","MI","Nacy Gym","not_available","48348",42.740915,-83.471161
"48346","Clarkston","MI","FitnessQuest of Clarkston","32 S Main St","48346",42.73460840570064,-83.41880177229892
"48346","Clarkston","MI","Swoll Patrol","5169-5211 Lancaster Hills Dr","48346",42.71633564,-83.41709575
"48346","Clarkston","MI","Curves","Airway","not_available",42.72359010079549,-83.42867557175764
"48346","Clarkston","MI","Snap Fitness of Clarkston","5900 Sashabaw Rd","48346",42.721578452750684,-83.3768278382355
"48348","Clarkston","MI","Anytime Fitness","9685 Dixie Hwy","48348",42.756522,-83.483168
"48348","Clarkston","MI","Bryan's LOOK HOW FAT YOU ARE Gym","Stowe Trial","48348",42.75293413333333,-83.36808883333333
"48348","Clarkston","MI","Pure Barre","7743 Sashabaw Rd Ste C","48348",42.7510789,-83.3812182
"48353","Hartland","MI","Michigan Rehabilitation Specialists - Hartland","10474-10690 W Highland Rd","48353",42.63395011,-83.74037168
"48353","Hartland","MI","Snap Fitness","11333 Highland Rd","48353",42.63631605472433,-83.73302677230674
"48356","Highland","MI","Powerhouse","2258 S Milford Rd","48357",42.61943817138672,-83.61615753173828
"48356","Highland","MI","Insanity","not_available","48356",42.67918639557589,-83.58659407139609
"48356","Highland","MI","Snap Fitness","2825 E Highland Rd","48356",42.65517014692028,-83.57523054153414
"48356","Highland","MI","Mitch's Gym","805 White House Dr","48356",42.674226000000004,-83.60957900000001
"48356","Highland","MI","Highland Fit Body Boot Camp","2860 E Highland Rd","48356",42.6534717,-83.5749621
"48356","Highland","MI","Powerhouse Gym","2256 S Milford Rd","48357",42.61837637318487,-83.61652578723313
"48357","Highland","MI","59 Fitness","786 W Highland Rd","48357",42.644405364990234,-83.62654876708984
"48359","Lake Orion","MI","Anytime Fitness","3603, 3607 & 3611 South Baldwin Rd","48359",42.7274284362793,-83.30708312988281
"48359","Lake Orion","MI","Orangetheory Fitness","3067 S Baldwin Rd","48359",42.735287,-83.30534300000001
"48359","Lake Orion","MI","Great Lakes Athletic Club","3800 S Baldwin Rd","48359",42.724626728577064,-83.30880205561505
"48359","Lake Orion","MI","Oakland County CrossFit","169 W Clarkston Rd","48362",42.71846054097783,-83.24406221712815
"48359","Lake Orion","MI","Vert Village BMX","4662 Joslyn Rd","48359",42.712599,-83.286466
"48360","Lake Orion","MI","The Gym","1224 S Lapeer Rd","48360",42.764776814316534,-83.24388131018637
"48360","Lake Orion","MI","The Blue Room","not_available","48362",42.76762,-83.24665
"48360","Lake Orion","MI","Energy zone","900 Lapeer Road","48371",42.7508154498998,-83.2431540212945
"48360","Lake Orion","MI","Maximum Motivation Outdoor Bootcamp","Orion oaks park","48359",42.75079791666667,-83.30910983333334
"48360","Lake Orion","MI","Planet Fitness","1101 S Lapeer Rd","48360",42.766401,-83.23854
"48362","Lake Orion","MI","Powerhouse Gym","802 S Lapeer Rd","48362",42.77132651394365,-83.23979403305435
"48362","Lake Orion","MI","Globo Gym","78 W Elizabeth St","48362",42.78900909423828,-83.24162292480469
"48362","Lake Orion","MI","Collins Gym","673 Leyland Ct","48362",42.776426,-83.286273
"48371","Oxford","MI","Joy Studios","925 N Lapeer Rd Ste 113","48371",42.8393117,-83.2744498
"48371","Oxford","MI","Curves","not_available","48371",42.825222,-83.265785
"48371","Oxford","MI","Anytime Fitness","186 S. Washington","48371",42.81844,-83.25766
"48371","Oxford","MI","Building Your Temple Fitness","925 N Lapeer Rd Ste 440","48371",42.85238386697913,-83.28360007901522
"48374","Novi","MI","""G""TL","not_available","48374",42.46834839939157,-83.51210409247862
"48374","Novi","MI","Anytime Fitness","47980 Grand River Ave","48374",42.49227,-83.52208
"48374","Novi","MI","Crossfit Novi","47001 Grand River Ave","48374",42.48604303124162,-83.50104371922703
"48375","Novi","MI","Snap Fitness 24/7","41601-41979 Manor Park Dr","48375",42.46860141,-83.4571352
"48375","Novi","MI","Fitness Together - Novi","24276 Novi Rd","48375",42.467586542886664,-83.47401986380635
"48375","Novi","MI","Oakland Gymnastics Training Center LTD","42950 W 10 Mile Rd","48375",42.46685028076172,-83.47123718261719
"48375","Novi","MI","DoubleTree By Hilton Fitness By Precor","not_available","48377",42.484401658194535,-83.46802539797383
"48375","Novi","MI","The Sports Club of Novi","42500 Nick Lidstrom Dr","48375",42.46185280463725,-83.46835197617706
"48375","Novi","MI","Pure Barre","42972 Grand River Ave","48375",42.48003692214305,-83.4700367239252
"48375","Novi","MI","Fitness Society","39810 Grand River Ave Unit 150C","48375",42.47447967529297,-83.43889617919922
"48377","Novi","MI","Novi Rehabilitation Center","42005 W 12 Mile Rd","48377",42.4950743362878,-83.46286531090715
"48377","Novi","MI","Fit Element Boot Camp","30560 Beck Rd","48377",42.520662,-83.51611700000001
"48377","Novi","MI","Renaissance Novi - Fitness Center","27790 Novi Rd","48377",42.49399948120117,-83.47506713867188
"48377","Novi","MI","PowerHouse Gym","31185 Wellington Dr","48377",42.523339,-83.509293
"48377","Novi","MI","The Beachwalk Gym","not_available","48390",42.52519726364281,-83.47144800969583
"48377","Novi","MI","Powerhouse Gym","44125 W 12 Mile Rd","48377",42.491465999999996,-83.484054
"48377","Novi","MI","Intermix Fit Club","46670 W Pontiac Trl","48390",42.52574157714844,-83.50588989257812
"48377","Novi","MI","The Workout Place","Novi","48377",42.51260754994039,-83.46611344781122
"48377","Novi","MI","My Gym","31135 Wellington Dr","48377",42.523339,-83.509293
"48377","Novi","MI","PF Tanning","not_available","48393",42.52328522662674,-83.51588872245205
"48380","Milford","MI","H.E.A.T. 4 Athletes","not_available","48381",42.55661473760386,-83.61656914189797
"48380","Milford","MI","Carls Family YMCA","300 Family Dr","48381",42.5896714,-83.6149087
"48380","Milford","MI","CrossFit Justice","1280 Holden Ave Ste 115","48381",42.55653762817383,-83.6163558959961
"48381","Milford","MI","Powerhouse Gym","963 E Summit St","48381",42.596153,-83.589242
"48381","Milford","MI","Planet Fitness","161 S Milford Rd","48381",42.581366,-83.608016
"48381","Milford","MI","nucli fitness","240 W Summit St","48381",42.595377,-83.603124
"48382","Commerce Township","MI","Vip Fitness","4202 Pioneer Dr","48390",42.574745,-83.45161
"48382","Commerce Township","MI","Curves","2546 Union Lake Rd","48382",42.59787899438153,-83.44662598854468
"48382","Commerce Township","MI","Midwest Xplosion Cheer and Dance","3167 Ridgeway Ct","48390",42.568222999999996,-83.446963
"48383","White Lake","MI","My Elliptical","4911 Lake Grove Dr","48383",42.6837272644043,-83.55863189697266
"48383","White Lake","MI","Anytime Fitness","6845 Highland Rd","48383",42.65,-83.52093
"48386","White Lake","MI","Your Fit Club","9278 Highland Rd","48386",42.65702973389022,-83.47020884226256
"48390","Walled Lake","MI","Orangetheory Fitness","39700 W 14 Mile Rd","48390",42.52721405029297,-83.43962860107422
"48390","Walled Lake","MI","Life Time Fitness","2901 Commerce Xing","48390",42.53523,-83.445504
"48390","Walled Lake","MI","Anytime Fitness","686 N Pontiac Trl","48390",42.53624,-83.48124
"48390","Walled Lake","MI","Life Time Fitness","2901 Commerce Crossing","48390",42.5362755,-83.4462911
"48393","Wixom","MI","CrossFit Fate","48845 West Rd","48393",42.50727844238281,-83.53263092041016
"48393","Wixom","MI","24-7 Fitness","2083 N Wixom Rd","48393",42.55234146118164,-83.53791046142578
"48393","Wixom","MI","Total Soccer Wixom","30990 S Wixom Rd","48393",42.5203700361113,-83.53395112332608
"48393","Wixom","MI","Krav Maga Great Lakes","48909 West Rd","48393",42.508211,-83.53428009999999
"48393","Wixom","MI","World Sports Fitness","50240 Dennis Ct","48393",42.525936,-83.546221
"48393","Wixom","MI","Upper Echelon Fitness and Performance","28265 Beck Rd Ste C9","48393",42.49883270263672,-83.51966857910156
"48412","Attica","MI","Park Fitness Room","Pine lakes drive","48446",43.044273,-83.237599
"48413","Bad Axe","MI","24/7 Club Fitness","not_available","48413",43.80718408657746,-83.00037647234737
"48415","Birch Run","MI","Diversified Fitness Club","195 Mayer Rd","48734",43.33459112930895,-83.75375877366588
"48415","Birch Run","MI","Fitness Center @ Bavarian Inn","not_available","48734",43.32629448509646,-83.73680846320977
"48416","Brown City","MI","BC Weight Room","not_available","48416",43.213319036976294,-82.99464843316862
"48416","Brown City","MI","Oetiker Fitness Center","not_available","48453",43.320124431259714,-83.07379649644095
"48420","Clio","MI","Snap Fitness","Vienna Rd.","48420",43.17765481255598,-83.7652908343207
"48420","Clio","MI","Good Vibes Studios LLC","11394 N Linden Rd","48420",43.173406,-83.772788
"48420","Clio","MI","Snap Fitness","425 W Vienna St","48420",43.17698227939083,-83.73855416173922
"48420","Clio","MI","Pumping Iron","not_available","48420",43.165233,-83.671686
"48420","Clio","MI","The MAAC","5338 W Vienna Rd","48420",43.178105,-83.786801
"48423","Davison","MI","Davison Athletic Club","2140 Fairway Dr","48423",43.00280118158312,-83.51755194859213
"48423","Davison","MI","Fun 2B Fit","1444 Irish Rd","48423",43.03132246948363,-83.55586077200672
"48423","Davison","MI","The Just Elliptical","not_available","48423",43.03658,-83.505042
"48423","Davison","MI","JR Training Facility","not_available","48506",43.09211452454009,-83.55628252029419
"48423","Davison","MI","SSGA","1507 Granger Dr","48423",43.007137,-83.510452
"48423","Davison","MI","Davison Crossfit","8419 Davison Rd","48423",43.035596,-83.54033199999999
"48423","Davison","MI","Flint Elks Golf Club","Near 7177 E Maple Ave","48439",42.9627685546875,-83.56708526611328
"48423","Davison","MI","Lapeer community center","not_available","48519",43.00955581665039,-83.57981872558594
"48423","Davison","MI","Anytime Fitness","622 N State Rd","48423",43.03496,-83.518
"48423","Davison","MI","Tru Fitness","1086 N Irish Rd","48423",43.022272,-83.555081
"48423","Davison","MI","World of Fitness","6020 Davison Rd","48509",43.033202,-83.594966
"48429","Durand","MI","Anytime Fitness","8753 Monroe Rd","48429",42.92283,-83.99101
"48430","Fenton","MI","Powerhouse Gym","1376 N Leroy St","48430",42.813311185821284,-83.70609562650759
"48430","Fenton","MI","Georgetown Fitness Centet","not_available","48430",42.81019072212674,-83.71869160751804
"48430","Fenton","MI","Anytime Fitness","1145 N. Leroy St.","48430",42.80994,-83.70775
"48430","Fenton","MI","cool hand 24 hour fitness","not_available","48451",42.7951545715332,-83.83660888671875
"48430","Fenton","MI","Snap Fitness","614 W Broad St","48451",42.81267385797812,-83.7902574348052
"48433","Flushing","MI","the workout spot","not_available","48504",43.0899543762207,-83.78872680664062
"48433","Flushing","MI","The Gym for her","112 E Main St","48433",43.06246211515865,-83.85528370610176
"48433","Flushing","MI","Snap Fitness","6429 W Pierson Rd","48433",43.059657,-83.808594
"48433","Flushing","MI","YMCA","5219 W Pierson Rd","48433",43.059956009203276,-83.7809267164571
"48437","Genesee","MI","Anytime Fitness","7441 N Genesee Rd","48437",43.11762,-83.61812
"48438","Goodrich","MI","Hill Road Hoops","9000","48439",42.909870575577365,-83.51438947383235
"48439","Grand Blanc","MI","Anytime Fitness","10293 S Saginaw Rd","48439",42.87776,-83.59585
"48439","Grand Blanc","MI","Blackberry Creek Village Fitness Center","not_available","48507",42.97215706544069,-83.63221640801109
"48439","Grand Blanc","MI","Pure Barre","12751 S Saginaw St Ste 700","48439",42.9194162359817,-83.61853078538894
"48439","Grand Blanc","MI","Anytime Fitness","2241 E Hill Rd","48439",42.94472,-83.66326
"48439","Grand Blanc","MI","Masters Martial Arts & Fitness","G4277 South Saginaw Street","48529",42.966812,-83.671392
"48439","Grand Blanc","MI","Snap Fitness","5418 Perry Rd","48439",42.929954528808594,-83.59898376464844
"48439","Grand Blanc","MI","Fit Zone For Women","11419 S Saginaw St","48439",42.92813004620578,-83.62902286098964
"48439","Grand Blanc","MI","Genesee Valley Court And Fitness","Hill Rd. by Meijer","48507",42.94278884929171,-83.72507876496607
"48439","Grand Blanc","MI","Snap Fitness","1381 W Bristol Rd","48507",42.973855608753965,-83.70720345081878
"48439","Grand Blanc","MI","Genesys Athletic Club","801 Health Park Blvd","48439",42.8902994,-83.63612859999999
"48439","Grand Blanc","MI","Snap Fitness","4501 E Hill Rd","48439",42.94573433376431,-83.61395851894326
"48439","Grand Blanc","MI","the gym","not_available","48439",42.94331886791061,-83.61050354210688
"48439","Grand Blanc","MI","Planet Fitness","11527 S Saginaw St","48439",42.927497,-83.628568
"48439","Grand Blanc","MI","Home Gym","not_available","48529",42.96199417114258,-83.66255950927734
"48442","Holly","MI","Snap Fitness","not_available","48442",42.79298109553764,-83.62765805168365
"48442","Holly","MI","Snap Fitness","15213 N Holly Rd","48442",42.80791307212741,-83.62701514520906
"48444","Imlay City","MI","Anytime Fitness","1847 Van Dyke Rd","48444",43.01115,-83.06992
"48444","Imlay City","MI","Absolute Results Health Club","not_available","48444",43.02532958984375,-83.07254791259766
"48446","Lapeer","MI","Lapeer Community Center","880 S Saginaw St","48446",43.039094049999726,-83.30480335572332
"48446","Lapeer","MI","xtreme results","265 Howard St, Lapeer, MI 48446","48446",43.04934632068826,-83.30910166642236
"48446","Lapeer","MI","Curves","69 W Nepessing St","48446",43.055023193359375,-83.3089370727539
"48446","Lapeer","MI","Anytime Fitness","700 S. Main St. suite 120 C","48446",43.04314,-83.32308
"48453","Marlette","MI","Summit 24/7 Fitness + Wellness","6444 Morris Street","48453",43.3270591,-83.0790995
"48458","Mount Morris","MI","Phreshfit LLC","2187 W Coldwater Rd","48505",43.08926773071289,-83.72091674804688
"48460","New Lothrop","MI","Hard A** Bleachers","not_available","48460",43.120228,-83.975941
"48461","North Branch","MI","""Z"" Studio & Group Fitness","3670 North Branch Rd","48461",43.2281379699707,-83.2053451538086
"48462","Ortonville","MI","Anytime Fitness","250 N Ortonville Rd","48462",42.848473,-83.45223299999999
"48462","Ortonville","MI","Fitness19 Rochester Hills","not_available","48462",42.859829,-83.46601
"48462","Ortonville","MI","Extreme Results Training","180 N Ortonville Rd","48462",42.855878999999995,-83.45443900000001
"48471","Sandusky","MI","Secret Gym <3","565-673 Sleepy Hollow","48471",43.422321466666666,-82.8656539
"48471","Sandusky","MI","Mark S. Hund Gymnasium","not_available","48471",43.41298553243485,-82.82333895780006
"48473","Swartz Creek","MI","Pole Passion Fitness","3490 Miller Rd","48507",42.986309999999996,-83.74857800000001
"48473","Swartz Creek","MI","Powerhouse Gym","4164 Miller Rd","48507",42.9817260659429,-83.75830834115693
"48473","Swartz Creek","MI","Home Gym","3370.5 Pine Run Dr","48473",42.97637569,-83.82721835
"48473","Swartz Creek","MI","The Gym Fitness Center","4290 Miller Road","48507",42.980892,-83.762162
"48473","Swartz Creek","MI","Snap Fitness","9136 Miller Rd","48473",42.95804537661862,-83.85509749642517
"48473","Swartz Creek","MI","Fitness USA","4580 Miller Rd","48507",42.97715893464108,-83.77070550198975
"48473","Swartz Creek","MI","VehicleCity Crossfit","1491 Linden Ed","not_available",43.00313610770741,-83.77180280875436
"48473","Swartz Creek","MI","Anytime Fitness","2133  S. Linden Rd.","48532",42.9988,-83.7721
"48502","Flint","MI","YMCA","411 E 3rd St","48503",43.01630097691705,-83.68506390971379
"48503","Flint","MI","I AM MY BILLBOARD Fitness Studio","4067 E Court St","48509",43.00951140459908,-83.67306007215629
"48503","Flint","MI","Wellness Room at Consumers Energy","3201 E Court St","48506",43.019802,-83.64695
"48503","Flint","MI","The Rock Fitness Center","not_available","48503",42.9983278095981,-83.67775881475036
"48503","Flint","MI","475 Elite Training","3600 S Dort Hwy Suite #63A","48507",42.9902417,-83.6534777
"48503","Flint","MI","Jazzercise","3525 E Court St","48506",43.019028000000006,-83.638509
"48503","Flint","MI","Planet Fitness","Center Rd","48509",43.01916885745615,-83.70235493505827
"48505","Flint","MI","Butcher's Gym","Davison Road","not_available",43.0368287,-83.631321
"48506","Flint","MI","First Class Athletics","5543 Richfield Rd","48506",43.055689,-83.596822
"48506","Flint","MI","Elle Kay Fitness Center","not_available","48509",43.03880014498008,-83.59932196737272
"48506","Flint","MI","Curves","4482 N Genesee Rd","48506",43.075477600097656,-83.61631774902344
"48506","Flint","MI","Curves","5515 Davison Rd","48509",43.034392,-83.596704
"48601","Saginaw","MI","CrossFit Whip","6235 Gratiot Rd","48638",43.414573,-84.03942
"48601","Saginaw","MI","Elements For Women","5815 Bay Rd Ste 100","48604",43.49189758300781,-83.97633361816406
"48601","Saginaw","MI","Bridgeport Sport & Spine","6940 Dixie Hwy","48722",43.337745666503906,-83.84042358398438
"48601","Saginaw","MI","The Training Grounds","not_available","48603",43.443826,-84.04743254184723
"48601","Saginaw","MI","Fox Glen Fitness Center","6301 Fox Glen Dr","48638",43.43392562866211,-84.03938293457031
"48601","Saginaw","MI","studio 4 u","2735 Bay Rd","48603",43.444621000000005,-83.975927
"48601","Saginaw","MI","Cardinal Fitness- Ryder Center","not_available","48604",43.51155405210659,-83.9581887501623
"48601","Saginaw","MI","Bridgeport High School Weight Room","4691 Bearcat Blvd","48722",43.355369567871094,-83.86957550048828
"48601","Saginaw","MI","Sarah Fechter Fitness","Midland Road","48603",43.436708,-84.042603
"48601","Saginaw","MI","Next Level Fitness","6285 Bay Rd","48604",43.498172760009766,-83.97393035888672
"48601","Saginaw","MI","Saginaw Police Weight Room","not_available","48607",43.429812329755585,-83.93463759298561
"48601","Saginaw","MI","Swell Factory","1346-1400 Shady Pine Ln","48603",43.452439633333334,-84.04733061790466
"48601","Saginaw","MI","Survival Fitness","3085 Bay Rd Ste 1B","48603",43.46108380364416,-83.96993493948354
"48601","Saginaw","MI","Seung-ni Fit Club","6700 Weiss St","48603",43.443406,-84.048339
"48601","Saginaw","MI","Mid Michigan Barbell Club","4884 Gratiot Rd Suite 19","48603",43.449616484191054,-84.04476642608643
"48601","Saginaw","MI","Wrestling Room","3140-3298 Carla Dr","48604",43.463379966666665,-83.93759556666667
"48603","Saginaw","MI","Freeland Sports Zone","5620 Midland Rd.","48603",43.491374726276604,-84.09627289890544
"48604","Saginaw","MI","Gym","2770 Freeland Rd","48604",43.52263236951521,-83.96921396255493
"48609","Saginaw","MI","The Muscle Factory","not_available","48609",43.41608084902566,-84.06543498120016
"48609","Saginaw","MI","Exercise Express","7400 Gratiot Rd","48609",43.416297912597656,-84.05986022949219
"48611","Auburn","MI","CrossFit Glory","1042 W Midland Rd","48611",43.60322688391191,-84.08540440225174
"48611","Auburn","MI","Dow Corning Fitness Center","2200 W Salzburg Rd","48611",43.58321762084961,-84.13328552246094
"48611","Auburn","MI","Western Middle School","500 W Midland Rd","48611",43.60471354990912,-84.07696042220147
"48616","Chesaning","MI","Core Fitness and Tanning","625 W Broad St","48616",43.18565272161345,-84.12161053351112
"48616","Chesaning","MI","Snap Fitness","901 W Broad St","48616",43.185849,-84.124723
"48616","Chesaning","MI","CrossFit Steel Courage","301 Broad St","not_available",43.183629390231694,-84.11320426560178
"48617","Clare","MI","Curves","not_available","48617",43.81884106086464,-84.76820733760849
"48617","Clare","MI","Clare High School","300-314 E Wheaton Ave","48617",43.82409906267455,-84.76217107409184
"48618","Coleman","MI","Railway family center","991 East Railway","48618",43.752634927183074,-84.57565505932861
"48623","Freeland","MI","Zapozzii","not_available","48640",43.51668853502906,-84.245361328125
"48623","Freeland","MI","Dow Corning Fitness Center","3901 S Saginaw Rd","48640",43.59130998911811,-84.20726559977444
"48623","Freeland","MI","Freeland High School Gym","not_available","48623",43.52848116367513,-84.10784744898656
"48624","Gladwin","MI","Mainstreet Athletic Club","239 W Cedar Ave","48624",43.980384826660156,-84.48890686035156
"48624","Gladwin","MI","Gladwin youth wrestling building","M61 ( behind Bonhams Heating and Cooling)","48624",43.98077792922701,-84.46344982348674
"48626","Hemlock","MI","onetruth ℠ Wellness","191 Hemlock Plaza Dr.","48626",43.413028684751445,-84.22559022903442
"48626","Hemlock","MI","Raqs Mystique Dance","7 Clear Lake Dr","48626",43.390018463134766,-84.2403335571289
"48629","Houghton Lake","MI","Body And Swole","not_available","48629",44.296414028788156,-84.65489599913151
"48629","Houghton Lake","MI","24/7 fitness","not_available","48651",44.296522,-84.654659
"48629","Houghton Lake","MI","Curves","189 Hidden Hills Rd","48629",44.284183502197266,-84.77198791503906
"48640","Midland","MI","Northwood University Gym","northwood university","48640",43.62851453058033,-84.27420078118911
"48640","Midland","MI","Home Gym","not_available","48642",43.626291,-84.211101
"48640","Midland","MI","Snap Fitness","1625 E Wheeler St","48642",43.64175033569336,-84.20763397216797
"48640","Midland","MI","Opies Gym","3600-3998 N Jefferson Ave","48640",43.63385905,-84.22688580000002
"48640","Midland","MI","Seung-Ni Fit Plex","203 W Wackerly St","48640",43.65421541877747,-84.22929302889281
"48640","Midland","MI","Steele's Gym","4801-4999 Mac St","48640",43.642439366666665,-84.2463195
"48640","Midland","MI","Smitty's Iron Works","601 E Wackerly St","48642",43.65516372271219,-84.22232939042458
"48640","Midland","MI","Gym 1327","3rd St","48640",43.60766977087449,-84.22696106894921
"48640","Midland","MI","Country Club Fitness Center","1120 W Saint Andrews Rd","48640",43.630191802978516,-84.24259185791016
"48640","Midland","MI","Buffalo Marathon Training Facility","405 Wilson Dr","48642",43.64202880859375,-84.22268676757812
"48640","Midland","MI","Midland Community Center","2205 Jefferson Ave","48640",43.618268150002024,-84.22774718966367
"48640","Midland","MI","Reaction Fitness","1403 Washington St","48640",43.61363983154297,-84.21949768066406
"48642","Midland","MI","989 CrossFit","4400 James Savage Rd","48642",43.610626220703125,-84.17300415039062
"48642","Midland","MI","Curves","139 Hickory Ridge Dr","48642",43.68312454223633,-84.36341094970703
"48653","Roscommon","MI","Craf  Center Gym","606 Lake St","48653",44.4968678902837,-84.59315681922033
"48658","Standish","MI","Powerhouse Gym","123 E Cedar St","48658",43.9829216003418,-83.95887756347656
"48706","Bay City","MI","Bay City Health & Family Fitness","2515 Wilder Rd","48706",43.62461304957252,-83.95124930801386
"48706","Bay City","MI","Delta College Fitness Center","1961 Mackinaw Rd","48710",43.55972799287022,-83.98581830165577
"48706","Bay City","MI","Old Time Gym","3110 Center Ave","48732",43.5938606262207,-83.8424301147461
"48706","Bay City","MI","New Body Health & Fitness","107 N Henry St","48706",43.6025505065918,-83.9005126953125
"48706","Bay City","MI","Old Town Gym","4435 Raven Ln","48706",43.61098352786174,-83.91695777345356
"48706","Bay City","MI","Peggy's Super Fit Boot Camp","not_available","48706",43.59735966369918,-83.8952085334746
"48706","Bay City","MI","Seung Ni Fit Club","3772 Wilder Rd","48706",43.62335968017578,-83.9033432006836
"48706","Bay City","MI","Cosens Martial Arts","4101 E. Wilder Road, Suite E-505","48706",43.62723865727474,-83.8914245368652
"48706","Bay City","MI","Basement Gym!","301 Oakland Dr","48732",43.60642623901367,-83.84977722167969
"48706","Bay City","MI","JJKN","not_available","48708",43.601436,-83.878957
"48706","Bay City","MI","Boys And Girls Club","101-273 Lafayette St Bridge","48706",43.580441755440525,-83.9014282177164
"48706","Bay City","MI","Survival Fitness Bay City","512 Saginaw St","48708",43.59523010253906,-83.88916778564453
"48706","Bay City","MI","BC Community Center","800 Jf Kennedy Dr","48706",43.59213507144475,-83.90012354318245
"48723","Caro","MI","State Street Fitness","160 N State St","48723",43.489260975474814,-83.39571238807538
"48727","Clifford","MI","Detroit City Residence Workout Room","Washington St, Clifford, MI 48727","48727",43.313899993896484,-83.18042755126953
"48730","East Tawas","MI","Huron Sport And Fitness","1190 W Lake St","48763",44.251657,-83.540868
"48732","Essexville","MI","Karn Generating Facility","2742 Weadock Hwy","48732",43.64477052283022,-83.83878318466238
"48768","Vassar","MI","1 Life Fitness","171 E Huron Ave","48768",43.37184269988901,-83.58215845975262
"48768","Vassar","MI","Zumba Fitness Yo!","not_available","48768",43.37964027664115,-83.47764158224172
"48801","Alma","MI","Hogan Center","614 W Superior St","48801",43.380763879026155,-84.66907735713845
"48801","Alma","MI","Snap Fitness- Alma","Cheeseman Rd.","48801",43.40153,-84.65738
"48801","Alma","MI","Young Guns","315 E Superior St","48801",43.37925,-84.657449
"48808","Bath","MI","Conquest Health & Fitness","15510 Chandler Rd","48808",42.79025261988418,-84.4849458983679
"48808","Bath","MI","Spartan CrossFit","4033-4063 Hunsaker St","48823",42.77532125467929,-84.48016554061513
"48811","Carson City","MI","Snap Fitness","not_available","48811",43.177361,-84.851067
"48813","Charlotte","MI","Healthworks!","1500 S Main St, Eaton Rapids, MI 48827","48827",42.49525451660156,-84.65849304199219
"48813","Charlotte","MI","The Dungeon","not_available","48813",42.562089,-84.841568
"48813","Charlotte","MI","health works","1500 S Main St","48827",42.495216,-84.658836
"48813","Charlotte","MI","Tropp's Gym","5758 Nixon Rd, Potterville, MI 48876","48876",42.65120315551758,-84.7008285522461
"48813","Charlotte","MI","Liquid Web DC3 Fitness Center","2703 Ena Dr","48917",42.70516313933523,-84.6663244600723
"48813","Charlotte","MI","Gorbe Fitness Studio","not_available","48876",42.634685,-84.751605
"48813","Charlotte","MI","Snap Fitness","515 Lansing St","48813",42.571532,-84.826062
"48813","Charlotte","MI","Health Works Fitness Center","not_available","48827",42.49537034636854,-84.65817276731508
"48817","Corunna","MI","Gym","800 Riverwalk Cir","48817",42.986263275146484,-84.13334655761719
"48817","Corunna","MI","Snap Fitness","2500 E M 21","48817",42.99729194320253,-84.11844800829287
"48820","Dewitt","MI","Weight Room","not_available","48820",42.820216,-84.576138
"48820","Dewitt","MI","B Strong Fitness","12900 S US Highway 27","48820",42.82927733228635,-84.54538121980467
"48822","Eagle","MI","Bancorp Gym","not_available","48822",42.81037,-84.78984
"48823","East Lansing","MI","Powerhouse Gym","4790 S Hagadorn Rd","48823",42.72011231211285,-84.46028797325069
"48823","East Lansing","MI","Burcham Gym","731 Burcham","48823",42.74161624246738,-84.4736803533635
"48823","East Lansing","MI","Spartan Village Fitness Center","not_available","48823",42.71598014622428,-84.50245927199627
"48823","East Lansing","MI","Marriott Hotel Gym","M.A.C.","not_available",42.739431634958095,-84.48593991588062
"48823","East Lansing","MI","Anytime Fitness","2119 Haslett Rd Ste C-D","48840",42.74667,-84.42672
"48823","East Lansing","MI","central park fitness club","not_available","48864",42.7286376953125,-84.41272735595703
"48823","East Lansing","MI","Magic Brazilian Jiu-Jitsu","2824 East Grand River Avenue","48912",42.7425091969,-84.5122708577
"48823","East Lansing","MI","The Landings Gym","16789 Chandler Rd","48823",42.77187516999414,-84.482402286019
"48823","East Lansing","MI","Berry Tree Club House","2950 Whitehall Dr","48864",42.71095721230581,-84.46012384426948
"48823","East Lansing","MI","State of Fitness","2655 E Grand River Ave","48823",42.7240308,-84.4484446
"48823","East Lansing","MI","Burcham Woods Workout Room","Burcham","48823",42.74138499864339,-84.4738017722235
"48823","East Lansing","MI","Abbott Place Gym","2535 Abbot Rd","48823",42.76311492919922,-84.48418426513672
"48823","East Lansing","MI","Red Effect Infrared Fitness","326 East Morgan Lane","48912",42.73701,-84.50503069999999
"48823","East Lansing","MI","Planet Fitness - Temporarily Closed","1982 Grand River Ave","48864",42.72356020140111,-84.42060576217955
"48823","East Lansing","MI","Joe's Gym","Corner Of House","48840",42.746785,-84.421892
"48823","East Lansing","MI","Snap Fitness","1846-1898 E Grand River Ave","48823",42.7280222287113,-84.46059502829473
"48823","East Lansing","MI","Abbott Pointe Gym","204 E Pointe Ln","48823",42.74934387207031,-84.48670959472656
"48823","East Lansing","MI","Club Gym","not_available","48910",42.705425,-84.507367
"48823","East Lansing","MI","The Oaks Gym","136 Reniger Ct","48823",42.73223970213973,-84.50073236886145
"48823","East Lansing","MI","Home Gym","328 Evergreen Ave Bsmt","48823",42.736698150634766,-84.48500061035156
"48823","East Lansing","MI","Anytime Fitness","16800 Chandler Rd Ste 107","48823",42.77298,-84.48555
"48823","East Lansing","MI","Court One Athletic Clubs","2291 Research Cir","48864",42.70557220080489,-84.43509139139447
"48823","East Lansing","MI","Arnot Glen Fitness Center","295 Arbor Glen Dr","48823",42.76070022583008,-84.48641967773438
"48825","East Lansing","MI","Yakeley Hall Fitness Center","662 W Circle Dr","48825",42.73371916567048,-84.48645735773377
"48825","East Lansing","MI","IM Sports West","393 Chestnut Rd","48824",42.72919762557856,-84.48647785038607
"48825","East Lansing","MI","Shaw Weight Room","not_available","48825",42.72685337660874,-84.4747805002851
"48825","East Lansing","MI","The Penthouse Penthouse GYM","233 River St","48823",42.72993469238281,-84.46881866455078
"48836","Fowlerville","MI","The Basement Gym","Lamoreaux Rd.","48137",42.55736033294921,-84.09565234136706
"48836","Fowlerville","MI","NO BULL STRENGTH AND PERFORMANCE","2535 S Bull Run Rd","48836",42.560249598793995,-84.0713581148564
"48836","Fowlerville","MI","Maximus Fitness","8067 Country Corner Dr","48836",42.64366010724135,-84.07345743121111
"48837","Grand Ledge","MI","Curves","not_available","48837",42.752908885230816,-84.74912566322425
"48837","Grand Ledge","MI","Go Workout Fitness","227 Bridge St","48837",42.753227,-84.74593
"48837","Grand Ledge","MI","Snap Fitness","607 E Saginaw Hwy","48837",42.741417,-84.743072
"48838","Greenville","MI","weight loss class","not_available","48838",43.17420959472656,-85.26360321044922
"48838","Greenville","MI","Club Fitness","Oak st","not_available",43.175138000000004,-85.27421
"48838","Greenville","MI","My Gym","9831 Palmer Rd","48838",43.150223,-85.29334300000001
"48838","Greenville","MI","Snap Fitness","701 S Greenville West Dr","48838",43.1752459351586,-85.28078366607885
"48838","Greenville","MI","Fresh Start Fitness","406 S. Lafayette Street","48838",43.1773625,-85.2531485
"48838","Greenville","MI","Kim's Gym","not_available","48888",43.30713821752844,-85.19271537243169
"48840","Haslett","MI","Nemoke Fitness Center","Nemoke Trail Apartments","48840",42.7402000018657,-84.41291938843024
"48840","Haslett","MI","Fit Body Bootcamp","not_available","48840",42.746038,-84.40951
"48840","Haslett","MI","Snap Fitness","1630 Haslett Rd","48840",42.74796184764696,-84.4089008795895
"48842","Holt","MI","Woodland Lakes Clubhouse","4320 Dell Rd","48911",42.664000736461524,-84.5169028453801
"48842","Holt","MI","Holt Jr High Basketball Court","1800-1872 N Aurelius Rd","48842",42.6346745529412,-84.52234945003376
"48842","Holt","MI","Old School Fitness","1800 N Cedar Rd, Holt, MI 48842","48842",42.63621520996094,-84.51060485839844
"48842","Holt","MI","woodlakes gym","4320 Dell Rd, Lansing Charter Township, MI 48911","48911",42.66434860229492,-84.5145492553711
"48842","Holt","MI","Planet Fitness","2380 Cedar St","48842",42.65139189604339,-84.5265211870331
"48842","Holt","MI","New Life Fitness","7045 S Cedar St Ste 100","48911",42.65334169238994,-84.53354584002402
"48842","Holt","MI","Orthopadic Rehab Specialists","not_available","48842",42.641451054610975,-84.52240577014045
"48842","Holt","MI","Holt Fit Body Boot Camp","2495 Cedar St","48842",42.65367889404297,-84.53424835205078
"48842","Holt","MI","YMCA Sauna","920 Long Blvd","48911",42.65896224975586,-84.5400619506836
"48842","Holt","MI","Snap Fitness","2040 Aurelius Rd","48842",42.641327897408665,-84.52252601896704
"48842","Holt","MI","YMCA of Lansing (Oak Park)","900 Long Blvd","48911",42.65862303335451,-84.54133410439819
"48843","Howell","MI","fitzone","4258 E Grand River Ave, Howell, MI 48843","48843",42.58354187011719,-83.86901092529297
"48843","Howell","MI","KFit Studios","4160 E Grand River Ave","48843",42.58527413441625,-83.87100519307194
"48843","Howell","MI","Anytime Fitness","980 W Highland Rd","48843",42.62264,-83.94762
"48843","Howell","MI","Gold's Gym","951 S. Latson Rd.","48843",42.58835677363075,-83.87390804204865
"48843","Howell","MI","The Fitness Center At The Glens at Rolling Ridge","not_available","48843",42.59242497604922,-83.8767758098466
"48843","Howell","MI","Endeavor Fitness","1456 Lawson Dr","48843",42.580625343058855,-83.85965012772284
"48846","Ionia","MI","Ionia Middle School Gym","not_available","48846",42.98532324981258,-85.06397649761544
"48847","Ithaca","MI","Stay Fit Gratiot County","not_available","48847",43.291362,-84.60629899999999
"48849","Lake Odessa","MI","Viking Sportsplex","4253 Laurel Dr (M-50)","48849",42.7816276550293,-85.13735961914062
"48854","Mason","MI","Snap Fitness","409 N Cedar Rd","48854",42.59360346043349,-84.46635464450154
"48855","Howell","MI","Snap Fitness","1455 N Michigan Ave Ste 900","48843",42.621514126802666,-83.92459338857257
"48858","Mount Pleasant","MI","MP Fit Club","1639 E Broomfield St","48858",43.582800576571984,-84.76046678581484
"48858","Mount Pleasant","MI","Tallgrass Workout Room","not_available","48858",43.58147897853859,-84.7595552361567
"48858","Mount Pleasant","MI","Bluegrass Workout Room","4300 Collegiate Way","48858",43.578522,-84.751708
"48858","Mount Pleasant","MI","Stone Crest Workout Room","High St","48858",43.59909892509,-84.74826886831653
"48858","Mount Pleasant","MI","University Meadows Fitness Center","4310 Sterling Way","48858",43.577518463134766,-84.75987243652344
"48858","Mount Pleasant","MI","Morey Courts","5175 E Remus Rd","48858",43.59871830426754,-84.74384907190971
"48858","Mount Pleasant","MI","MP Fit Club","1623 E. Broomfield","48858",43.58266997162903,-84.71848727520307
"48864","Okemos","MI","TechSmith Fitness Lab","2405 Woodlake Dr","48864",42.68075942993164,-84.43816375732422
"48864","Okemos","MI","Sparrow Michigan Athletic Club","2900 Hannah Blvd","48823",42.71984151716801,-84.45643323369666
"48864","Okemos","MI","Club Meridian Clubhouse","4425 Heritage Ave","48864",42.695574356969374,-84.43726238025084
"48864","Okemos","MI","Spartan Fit Center","4980 Northwind Dr","48823",42.72548316825405,-84.45282435988192
"48864","Okemos","MI","Snap Fitness","3552 Meridian Crossings","48864",42.68442302814827,-84.43317647931605
"48864","Okemos","MI","Fitness Together - Okemos","4901 Okemos Rd","48864",42.722906453499824,-84.42805721288013
"48864","Okemos","MI","F45 Training East Lansing","2650 E Grand River Ave","48823",42.7261067,-84.448057
"48864","Okemos","MI","Elements","5100 Marsh Rd","48864",42.72850705205584,-84.41287477629805
"48867","Owosso","MI","Shiawassee Family YMCA","515 W Main St","48867",42.997089525500016,-84.17824758947441
"48867","Owosso","MI","Woodard Station","317 S Elm St","48867",42.995253459070376,-84.17973101935226
"48867","Owosso","MI","Planet Fitness","1580 E Main St","48867",42.997088,-84.139129
"48867","Owosso","MI","Powerhouse Gym","1231 W Main St","48867",42.99723897089129,-84.18848468967686
"48867","Owosso","MI","total gym","not_available","48867",43.00273846015761,-84.18929016851553
"48875","Portland","MI","Zug Elite Training","349 N Water St","48875",42.87437477466072,-84.90375833368897
"48875","Portland","MI","Latin Bulldog Boxing MMA","100 Bridge","48875",42.869266510009766,-84.90321350097656
"48877","Riverdale","MI","Gary's Gym","not_available","48877",43.34854548589984,-84.81679732408513
"48879","Saint Johns","MI","Motiv8 Fitness and Training","213 N Clinton Ave","48879",42.99278621004472,-84.5440491361702
"48879","Saint Johns","MI","Iron House fitness center","not_available","48879",43.00518169311448,-84.55918651365869
"48879","Saint Johns","MI","Snap Fitness","2421 Ontario Dr","48879",42.980500926341556,-84.53966149513731
"48888","Stanton","MI","Body Building Fitness Club","108 N. Camburn","48888",43.292825479364296,-85.0812578201294
"48895","Williamston","MI","Fitness Zone 24/7","725 W Grand River Ave","48895",42.687244,-84.29449699999999
"48895","Williamston","MI","Tom Donnelly's Barbell Club","350 W Grand River Ave","48895",42.688327,-84.288658
"48906","Lansing","MI","Fitness USA","5611 W Saginaw Hwy","48917",42.74087134391213,-84.62900633671096
"48906","Lansing","MI","VG Pool & Gym","5300 Mall Dr W","48917",42.74594497680664,-84.62440490722656
"48906","Lansing","MI","Mid Michigan All Stars","812 Filley St Ste A","48906",42.76315594163177,-84.5628985942676
"48906","Lansing","MI","Capitol Bancorp's Workout Facility","200 N Washington Sq","48933",42.734883,-84.551808
"48906","Lansing","MI","Peckham - The Wellness Center","3510 Capital City Blvd, Lansing, MI 48906","48906",42.76806048443431,-84.58771061007279
"48906","Lansing","MI","Fitness USA","Frandor","48912",42.736120099413405,-84.56670767819288
"48906","Lansing","MI","Bootcamp 30","300 N Clippert St Ste 15B","48912",42.7363847,-84.50747009999999
"48906","Lansing","MI","Motor Wheel Lofts fitness room","707 Prudden St","48906",42.74130716294801,-84.54305916061189
"48906","Lansing","MI","Lathams Classic Fitness","4014 W Saginaw Hwy","48917",42.7410507,-84.6048805
"48906","Lansing","MI","Lansing Community College Gym","not_available","48906",42.738126734988526,-84.55236034146323
"48906","Lansing","MI","Core Strength GVT 368","not_available","48933",42.739028621107096,-84.55206353317023
"48906","Lansing","MI","Furgasonia Dungeon","220 Furgeson st","48912",42.73550804974567,-84.53095436096191
"48906","Lansing","MI","Genesis Fitness Center","6135 W Saginaw Hwy","48917",42.74012791064698,-84.63798908634855
"48906","Lansing","MI","Crown Boxing Club","1010 Ballard St","48906",42.74462127685547,-84.5391616821289
"48906","Lansing","MI","Curves","602 Elmwood Rd","not_available",42.73825440973637,-84.6247770798706
"48906","Lansing","MI","Al's Gym","not_available","48912",42.74602929698548,-84.50369425967894
"48906","Lansing","MI","CrossFit Shift","4412 S Creyts Rd","48917",42.74039249334456,-84.62107213807839
"48906","Lansing","MI","Village Green Fitness Center","not_available","48917",42.746057114166554,-84.6235657653764
"48906","Lansing","MI","Fitness USA","656 Frandor Ave","48912",42.73969052388539,-84.50659419755208
"48906","Lansing","MI","Planet Fitness - Temporarily Closed","5833 W Saginaw Hwy","48917",42.7392044,-84.6343267
"48910","Lansing","MI","College Towne Gym","4915 Belle Chase Blvd","48910",42.68400955200195,-84.50779724121094
"48910","Lansing","MI","Trainer's Studio","3480 Dunckel Rd","48911",42.68184280395508,-84.5128402709961
"48911","Lansing","MI","YMCA of Lansing","3700 Old Lansing Rd","48917",42.717555546122874,-84.59940151085372
"48912","Lansing","MI","M&M","Vermont","not_available",42.730303,-84.523897
"48912","Lansing","MI","Iron Quest Personal Training","2510 E Michigan Ave","48912",42.73329850700896,-84.51529876657297
"48917","Lansing","MI","WILDCATS Cheer Academy","4300 S Creyts Rd","48917",42.68963960373262,-84.64263181370318
"48917","Lansing","MI","Snap Fitness","325 S Waverly Rd","48917",42.730828,-84.60236012935638
"48933","Lansing","MI","FLEXCity Fitness","119 N Washington Sq","48933",42.73439230742268,-84.55227506574097
"49001","Kalamazoo","MI","Kalamazoo Strength & Conditioning","1919 E Kilgore Service Rd Ste B","49001",42.245552,-85.5563091
"49001","Kalamazoo","MI","I Am The One Fitness, LLC.","326 W Kalamazoo Avenue, Suite 209-L","49007",42.2944631,-85.5867801
"49001","Kalamazoo","MI","LifeCycles Studios","522 Mills Street","49001",42.2879724,-85.5667053
"49001","Kalamazoo","MI","Snap Fitness","4209 Portage St","49001",42.24866362374736,-85.55902965451605
"49001","Kalamazoo","MI","Kalamazoo Athletic Club","100 W Michigan Ave","49007",42.2921734,-85.58394129999999
"49001","Kalamazoo","MI","The Fitness Spot","125 S Kalamazoo Mall","49007",42.290906358930414,-85.58238506656939
"49001","Kalamazoo","MI","Parker Fitness Center","Palmer Ave","49001",42.26940517117085,-85.55217559460962
"49002","Portage","MI","Courthouse Athletic Center","7365 S Sprinkle Rd","49002",42.21057126556715,-85.5398308244532
"49002","Portage","MI","The Gym","9030 S Westnedge Ave","49002",42.18417739868164,-85.58959197998047
"49002","Portage","MI","Hills Powerhouse Gym","not_available","49002",42.187243,-85.540918
"49002","Portage","MI","Anytime Fitness","283 W Centre Ave","49024",42.19931,-85.59173
"49002","Portage","MI","Snap Fitness 24/7","641 Romence Rd","49024",42.21535110473633,-85.59555053710938
"49002","Portage","MI","Lil' Gym","950 Trade Centre Way","49002",42.23868179321289,-85.60086822509766
"49002","Portage","MI","Klein's Fitness","not_available","49024",42.213015,-85.608369
"49002","Portage","MI","American Fitness Partners","6022 S Westnedge Ave, Portage, MI 49002","49002",42.229408264160156,-85.5904312133789
"49002","Portage","MI","Crossfit AZO","1176 Gernaat Ct","49002",42.21726288264643,-85.5761349052113
"49002","Portage","MI","Mvp Gym","not_available","49001",42.24112219211074,-85.54146304703012
"49002","Portage","MI","Repetitions Gym","300 E Centre Ave Ste 2","49002",42.20083448128724,-85.58626466273306
"49004","Kalamazoo","MI","Strength Beyond Fitness And Tanning","5660 Gull Rd","49048",42.32394667497895,-85.51894515415412
"49004","Kalamazoo","MI","Curves of Kalamazoo NE","3410 Gull Rd","49048",42.31523132324219,-85.5388412475586
"49004","Kalamazoo","MI","Physical Therapy - Ascension Borgesss Hospital at Gull Road","3025 Gull Rd","49048",42.31684693,-85.54264266
"49004","Kalamazoo","MI","Motion Activated Fitness","5309 Gull Rd","49048",42.322391510009766,-85.52523803710938
"49006","Kalamazoo","MI","Orangetheory Fitness","1750 S Drake Rd","49006",42.272441091920975,-85.64887248074409
"49006","Kalamazoo","MI","Hidden Hills Gym","not_available","49009",42.27905982618799,-85.64161143265665
"49006","Kalamazoo","MI","The Centre Gym","5200 Croyden Ave","49009",42.30240172458044,-85.65190714851545
"49006","Kalamazoo","MI","YMCA","1001 W Maple St","49008",42.27171208462836,-85.59764580145509
"49006","Kalamazoo","MI","Pills Fitness","Rambling Rd","49008",42.26507443916791,-85.62137597282087
"49006","Kalamazoo","MI","The Centre Tanning","5200 croyden ave","49009",42.30257063956939,-85.65231031472734
"49006","Kalamazoo","MI","58 West Gym","5800 Jefferson Commons Dr","49009",42.28183882277977,-85.66220660228201
"49006","Kalamazoo","MI","Drakes Pond Fitness Center","Drakes Pond Apartments","49006",42.28743822258295,-85.64290782821982
"49006","Kalamazoo","MI","K Staff/Faculty Fitness Room","not_available","49006",42.290500157984454,-85.60086028610378
"49006","Kalamazoo","MI","Campus Court Field House","1701 Knollwood Ave","49006",42.275139548182985,-85.62128561263312
"49006","Kalamazoo","MI","Greenhill Workout Room","200 Lake Forest Blvd","49006",42.291391701356986,-85.62159079393092
"49009","Kalamazoo","MI","Greenspire Gym","Greenspire Drive","49024",42.19548862810599,-85.6290428905973
"49009","Kalamazoo","MI","Mattawan High School Weight Room","56720 Murray St","49071",42.213863372802734,-85.79129791259766
"49009","Kalamazoo","MI","The Lean Body Studio","6084 S 12th St","49009",42.22865295410156,-85.64921569824219
"49009","Kalamazoo","MI","Copper Beech Gym","Copper Beech Blvd","49009",42.2827748300406,-85.66634080582644
"49009","Kalamazoo","MI","Tee's Gym","Tee's House","not_available",42.24804276487224,-85.64897701933742
"49009","Kalamazoo","MI","Brown's Gym","not_available","49071",42.21533691615729,-85.73084499384386
"49009","Kalamazoo","MI","Swat Fitness Club","5053 Sports Dr","49009",42.2444845104854,-85.67379665284989
"49009","Kalamazoo","MI","Anytime Fitness","6980 Stadium Dr","49009",42.25779,-85.68611
"49009","Kalamazoo","MI","Anytime Fitness","56098 S Main St","49071",42.21501954,-85.78555547
"49009","Kalamazoo","MI","Soldier Academy","6336 W R Ave","49087",42.186832427978516,-85.67388153076172
"49010","Allegan","MI","Curves For Women","113 Locust St","49010",42.52810287475586,-85.84963989257812
"49010","Allegan","MI","Perrigo Fitness Center","not_available","49010",42.52848434448242,-85.83475494384766
"49012","Augusta","MI","YMCA","6225 N 39th St","49012",42.34348069190736,-85.38598564086261
"49012","Augusta","MI","Gym","5600 armstrong","49017",42.344331716666666,-85.29137
"49014","Battle Creek","MI","Gold's Gym","5700 Beckley Rd","49015",42.25578419933904,-85.1868106988629
"49014","Battle Creek","MI","Fitness Center","50 Capital Ave SW","49017",42.31871795654297,-85.18453216552734
"49014","Battle Creek","MI","The Fitness Loft","22 Michigan Ave W","49017",42.3199577331543,-85.18270874023438
"49014","Battle Creek","MI","Fit in 30 Studio Battle Creek, LLC","2545 Capital Ave SW Ste 205","49015",42.26565708768285,-85.19845303137447
"49014","Battle Creek","MI","Troy Huggett's Fitness Pros","395 S Shore Dr","49014",42.30073928833008,-85.1800765991211
"49014","Battle Creek","MI","WKKI Fitness Hub","not_available","49017",42.317057316159485,-85.18332442250227
"49014","Battle Creek","MI","unique fitness","not_available","49014",42.308748826035064,-85.19737614117345
"49014","Battle Creek","MI","""THE Elliptical""","not_available","49015",42.27035313089339,-85.2148576389774
"49014","Battle Creek","MI","Oaklawn Life Improvement Center","13697 15 Mile Rd","49068",42.271564076296535,-85.00451868220898
"49015","Battle Creek","MI","Feeling Fit Gym & Fitness Center","1791 Columbia Ave W","49015",42.29695734634669,-85.2278986737669
"49015","Battle Creek","MI","Crossfit Battle Creek (bcx)","1356 Columbia Ave W","49015",42.297850111105554,-85.22204021695062
"49015","Battle Creek","MI","Btl ANG Gym","not_available","49037",42.3100473,-85.25733075
"49017","Battle Creek","MI","Battle Creek ANG Base Gym","Base Gym","49015",42.31762225968682,-85.24508578097966
"49017","Battle Creek","MI","Denso Recreational Center","1 Denso Rd","49037",42.33186340332031,-85.2837905883789
"49022","Benton Harbor","MI","Crossfit Tides","622 Langley Ave Ste B","49085",42.10351542777365,-86.47568887539056
"49022","Benton Harbor","MI","For The Love Of Fitness","Red Arrow","49098",42.18639,-86.285259
"49022","Benton Harbor","MI","Renaissance Athletic Club","501 Graham Ave","49022",42.11870577562832,-86.4637265925208
"49022","Benton Harbor","MI","Countryside Academy Gym","not_available","49022",42.077705,-86.34357
"49022","Benton Harbor","MI","Coloma High School Gym","not_available","49038",42.177755,-86.313218
"49022","Benton Harbor","MI","DD's Dojo","1390 Miami Rd","49022",42.093082427978516,-86.46870422363281
"49030","Burr Oak","MI","Doyle Community Center","310 N Franks Ave","49091",41.806526461675,-85.39961481008402
"49030","Burr Oak","MI","Fit Zone","not_available","49091",41.78940532775525,-85.42914713890633
"49030","Burr Oak","MI","Explicit CrossFit","304 Jacob St","49091",41.80194,-85.42542
"49031","Cassopolis","MI","Edwardsburg Fitness Co.","not_available","49112",41.7839135858858,-86.08762520544455
"49031","Cassopolis","MI","Strength Beyond","not_available","49047",41.991973876953125,-86.10672760009766
"49036","Coldwater","MI","Anytime Fitness","355 S Willowbrook Rd","49036",41.93479919433594,-84.9698715209961
"49036","Coldwater","MI","mass","not_available","49036",41.94652557373047,-84.99425506591797
"49036","Coldwater","MI","Great Lakes Health & Fitness","603 E Chicago Rd","49036",41.933784849451726,-84.9606076657146
"49042","Constantine","MI","Constantine Community Fitness Center","Clinton Street","not_available",41.83482489339731,-85.66678265995277
"49047","Dowagiac","MI","Pokagon Band Wellness Center","58620 Sink Road","49047",41.94773864746094,-86.1954116821289
"49048","Kalamazoo","MI","Fly Fit","5015 E Michigan Ave","49048",42.2904166,-85.5293581
"49058","Hastings","MI","Hastings High School Gym","not_available","49058",42.637823593731795,-85.29538030477585
"49058","Hastings","MI","Hastings Roll-A-Rama","1907 S M 37 Hwy","49058",42.62573858270853,-85.27997380520857
"49058","Hastings","MI","The Other Body Shop","301 E Center St","49058",42.647084,-85.284093
"49065","Lawton","MI","Lawton Athlete Training Center","not_available","49065",42.15950776527787,-85.8365233384073
"49065","Lawton","MI","Practice Shed","29881-29899 Deep Woods Dr","49065",42.18304042,-85.8409881
"49065","Lawton","MI","Lawton Bootcamp","235 N Main","49065",42.1690544,-85.850248
"49068","Marshall","MI","Anytime Fitness","15873 W Michigan Ave Ste 3","49068",42.27262,-84.98599
"49068","Marshall","MI","Marshall Activity Center (MAC)","15325 W Michigan Ave","49068",42.27090072631836,-84.99767303466797
"49068","Marshall","MI","Anytime Fitness","15873 W Michigan Ave, Marshall, MI 49068","49068",42.272315979003906,-84.98633575439453
"49068","Marshall","MI","Wonderfully Made Body Center","112 N Eagle St","49068",42.27264404296875,-84.9608383178711
"49078","Otsego","MI","Curves For Women","M89","49078",42.46029925,-85.69768229
"49079","Paw Paw","MI","Strength Beyond Fitness (Paw Paw)","201","49079",42.21892549951583,-85.89105611680823
"49079","Paw Paw","MI","Paw Paw High School Gymnasium","30609 E Red Arrow Hwy","49079",42.22132223923284,-85.85009558907619
"49080","Plainwell","MI","Complete Athlete","8740 N 32nd St","49083",42.387001037597656,-85.4546890258789
"49080","Plainwell","MI","All That Athletics","87 10th St","49080",42.42780077199909,-85.63472249932242
"49085","Saint Joseph","MI","Anytime Fitness","5643 Cleveland Ave","49127",42.01624286,-86.49305262
"49085","Saint Joseph","MI","South Shore Health & Racquet Club","3630 Tennis Ct","49085",42.05247627897216,-86.50776361329525
"49085","Saint Joseph","MI","Red Arrow Gym","4640 Red Arrow Hwy","49127",42.033138275146484,-86.5149917602539
"49085","Saint Joseph","MI","Crossfit Fort Miami","3905 Michigan 139","49085",42.04903769738075,-86.43506526947021
"49085","Saint Joseph","MI","MagFit","2512 Paulmar Ave","49085",42.04694747924805,-86.51454162597656
"49085","Saint Joseph","MI","YMCA","3665 Hollywood Rd","49085",42.05128375856824,-86.45487841371992
"49085","Saint Joseph","MI","Deja Family Fitness Room","not_available","49085",42.029716475382195,-86.48402979891551
"49085","Saint Joseph","MI","Gym at Lake Pines Apartments","2665 Lake Pine Dr","49085",42.04982748071427,-86.5180656512616
"49085","Saint Joseph","MI","Anytime Fitness","1332 Hilltop Rd Ste C","49085",42.07931,-86.48694
"49087","Schoolcraft","MI","Brad's Gym","10500 S 8th St, Schoolcraft, MI 49087","49087",42.165435791015625,-85.68736267089844
"49087","Schoolcraft","MI","Brad's Gym","not_available","49087",42.17729262989979,-85.65839068421789
"49090","South Haven","MI","Shoreline Wellness & Rehabilitation Center","not_available","49090",42.39145463108,-86.26544520923369
"49090","South Haven","MI","Anytime Fitness","855 LaGrange St","49090",42.39385,-86.2686
"49093","Three Rivers","MI","Bentwaters Gym","420 Bentwaters Ave","49093",41.946413,-85.647702
"49093","Three Rivers","MI","The Colosseum Gym","not_available","49093",41.94499390693822,-85.63311145622511
"49097","Vicksburg","MI","Curves","not_available","49097",42.12903369809069,-85.51808005365926
"49097","Vicksburg","MI","Bulldog Tanning & Fitness","625 W Prairie St","49097",42.1212043762207,-85.5428466796875
"49103","Berrien Springs","MI","The Forge-garage Gym","not_available","49103",41.954917,-86.34195
"49103","Berrien Springs","MI","Lamson Health Club","8585 US Highway 31","49104",41.96351623535156,-86.36067962646484
"49103","Berrien Springs","MI","Crossfit Berrien","102 N Mechanic St","49103",41.947811126708984,-86.3364486694336
"49106","Bridgman","MI","WoW","Cook Pl","49127",41.977474759734726,-86.56275037797045
"49106","Bridgman","MI","Lake Side Fit","4171 Lake St","49106",41.943284,-86.5543066
"49107","Buchanan","MI","Bucktown Studio","117 Redbud Tr.","49107",41.8271084768546,-86.37755930207292
"49107","Buchanan","MI","Fitness Industry","400 E Front St Ste G","49107",41.8270149230957,-86.3561019897461
"49117","New Buffalo","MI","Equilibrium Fitness","705 W Buffalo St","49117",41.79037701002769,-86.75112227116392
"49117","New Buffalo","MI","Four WInds Fitness Center","not_available","49117",41.78081087074323,-86.71126529255295
"49120","Niles","MI","Lace Dance Studio","Main St.","49120",41.83066790392927,-86.25875205872559
"49120","Niles","MI","Niles-Buchanan YMCA","905 N Front St","49120",41.8366788,-86.2586048
"49120","Niles","MI","Downstairs Powerhouse","Janellen Dr","49120",41.833228,-86.21531
"49120","Niles","MI","Jazzercise Niles Fitness Center","1011 Broadway St","49120",41.8283576965332,-86.24713134765625
"49120","Niles","MI","Anytime Fitness","2010 S. 11th St.","49120",41.79418564,-86.25011444
"49120","Niles","MI","Brenner's Olympic Lifting Gym","not_available","49120",41.770473,-86.225356
"49120","Niles","MI","Bunky Brothers Gym","Barron Lake Road","49120",41.80497453560243,-86.2468173316315
"49128","Three Oaks","MI","Equilibrium","not_available","49128",41.798634,-86.61069
"49201","Jackson","MI","Jackson Ymca Summit Branch","2131 Ferguson Rd","49203",42.19797065977257,-84.44027195479565
"49201","Jackson","MI","Anytime Fitness","916-966 N West Ave","49202",42.26091384887695,-84.42472076416016
"49201","Jackson","MI","Anytime Fitness","4010 Page Ave","49254",42.23832,-84.3438
"49201","Jackson","MI","Total Joint & Aquatic Center","113 East street","not_available",42.24901053699121,-84.3929386138916
"49201","Jackson","MI","Curves","3634 McCain Rd","49203",42.234100341796875,-84.461669921875
"49201","Jackson","MI","Snap Fitness","1527 Horton Rd","49203",42.20398777516261,-84.43348227402672
"49201","Jackson","MI","Powerhouse Gym","323 Wildwood Ave","49203",42.20151451230544,-84.43656720726887
"49201","Jackson","MI","Elite Strength & Conditioning","610 Caroll","not_available",42.291219,-84.443602
"49201","Jackson","MI","Walnut Ridge 24 Hour Gym","3201 Hawthorn","not_available",42.295099,-84.445632
"49201","Jackson","MI","VCL Gym","Myrlice Ct","49203",42.200309,-84.391432
"49201","Jackson","MI","East Jackson High School","1832 N Sutton Rd","49202",42.26066929506851,-84.342831628867
"49201","Jackson","MI","Allegiance Health Wellness Center","not_available","49201",42.25081169165015,-84.39351984390198
"49201","Jackson","MI","Evolve Fit Club","2151 Ferguson Rd","49203",42.198707580566406,-84.4395751953125
"49201","Jackson","MI","Cascade Gym","cascade ridge dr","49203",42.231388888888894,-84.47347222222223
"49201","Jackson","MI","Canterbury gym","not_available","49202",42.249458832733794,-84.45157357547996
"49201","Jackson","MI","Pros Gym","201-299 E McDevitt Ave","49203",42.19689736156606,-84.39965861187638
"49201","Jackson","MI","Next Step Dance Centre","3190 Lansing Ave","49202",42.288357,-84.414249
"49201","Jackson","MI","Get Fit Warehouse","3514 Wayland Dr","49202",42.271444637717806,-84.45514733909074
"49221","Adrian","MI","Jeff Willet's Powerhouse Gym","not_available","49221",41.89790694446453,-84.03691283124493
"49221","Adrian","MI","Merillat Sport And Fitness Center","100-298 S Charles St","49221",41.897485172179145,-84.06395220483735
"49221","Adrian","MI","Planet Fitness","1368 S Main St","49221",41.879041491143305,-84.04564539014359
"49221","Adrian","MI","Christian Family Center","111 Wolf Creek Hwy","49221",41.90688619885714,-84.08128834345543
"49221","Adrian","MI","G2 Pt","4667-4687 W Maumee St","49221",41.90512159,-84.08065989
"49221","Adrian","MI","Warrior Performance Gym","4650 W US Highway 223","49221",41.905906677246094,-84.07846069335938
"49221","Adrian","MI","The Centre","1800 W US Highway 223","49221",41.9067985496667,-84.08108941429082
"49221","Adrian","MI","Break Thru Fit","1099 E US Highway 223","49221",41.874351501464844,-84.04095458984375
"49221","Adrian","MI","Adrian Barbell Company","416 W Maumee St","49221",41.899688720703125,-84.04176330566406
"49224","Albion","MI","Shs Gym","300 main street","49284",42.377277,-84.703835
"49228","Blissfield","MI","The Leader's Rec/IM","not_available","49228",41.786516,-83.895377
"49229","Britton","MI","ProMedica Fitness Connection","703 E Chicago Blvd","49286",42.00447222226643,-83.93425962517497
"49230","Brooklyn","MI","Anytime Fitness","250 S Main St Unit 7-8","49230",42.10075,-84.24866
"49230","Brooklyn","MI","Every Day Fitness","not_available","49230",42.078102111816406,-84.28790283203125
"49242","Hillsdale","MI","Anytime Fitness","210 West Carleton Rd Ste A","49242",41.92969,-84.64254
"49250","Jonesville","MI","Crossfit Timoro","409 W Chicago St","49250",41.979122161865234,-84.67194366455078
"49251","Leslie","MI","Curves","111 Carney St","49251",42.44936752319336,-84.43248748779297
"49286","Tecumseh","MI","Curves","1410 W Chicago","not_available",42.00622676722766,-83.96404670094748
"49286","Tecumseh","MI","Anytime Fitness","1400-1422 W Chicago Blvd","49286",42.005958557128906,-83.96697998046875
"49301","Ada","MI","DoubleTree Fitness Center","DoubleTree by Hilton Grand Rapids Airport","49512",42.915292354703894,-85.55115416020152
"49301","Ada","MI","Amway Optimal You Gym","7575 Fulton St E","49355",42.95763804848378,-85.48385044282158
"49301","Ada","MI","Crowne Plaza Gym","5700 28th St SE","49546",42.912113,-85.52570899999999
"49301","Ada","MI","The Funky Buddha Yoga Hothouse","820 Forest Hill Ave SE","49546",42.94761146197871,-85.55521699887997
"49301","Ada","MI","Iron Orr Gym","not_available","49546",42.914205,-85.517527
"49301","Ada","MI","Koko FitClub- Cascade","2845 Thornhills Ave SE Ste X","49546",42.911926981469385,-85.50894032256367
"49301","Ada","MI","CYCLEBAR","6080 28th St SE","49546",42.91237701277213,-85.5182564787354
"49301","Ada","MI","Energized | Inspired | Fitness","8108 Fulton St E","49301",42.953277587890625,-85.46964263916016
"49301","Ada","MI","Catalyst Training Center","4835 Cascade Road SE, Ste 4","49546",42.94610131484383,-85.55395899378965
"49301","Ada","MI","Xtreme Performance","5060 Cascade Rd SE","49546",42.942896999999995,-85.542689
"49301","Ada","MI","Snap Fitness","5500 Cascade Rd SE","49546",42.932930214468406,-85.53503290310617
"49301","Ada","MI","MVP Fieldhouse","5435 28th Street Ct SE","49546",42.917433791918384,-85.53227629478943
"49301","Ada","MI","Centennial Fitness","3030 Charlevoix Dr SE","49546",42.90918737381944,-85.52127394281597
"49301","Ada","MI","Burn Boot Camp","6272 28th St SE","49546",42.9121,-85.5127
"49306","Belmont","MI","Title Boxing Club","5150 Northland Dr NE","49525",43.0555235262876,-85.57948053861533
"49306","Belmont","MI","Anytime Fitness","5429 Northland Dr NE Ste A","49525",43.06106,-85.58064
"49306","Belmont","MI","Rockford High School Gymnasium","4500 Kroes St NE","49341",43.091487884521484,-85.55831909179688
"49306","Belmont","MI","American Fitness Partners","not_available","49525",43.05652289814621,-85.58109617172742
"49306","Belmont","MI","Fitness & Sports Performance","4950 Plainfield Ave NE Ste A","49525",43.0516471862793,-85.59526824951172
"49306","Belmont","MI","BBCoachLewis Training Grounds","2871 Manitou Dr NE #2","49525",43.038299560546875,-85.59821319580078
"49306","Belmont","MI","Snap Fitness","2355 Belmont Center Dr NE","49306",43.0777655299151,-85.61073984141
"49306","Belmont","MI","Riverview Athletic Club","4940 Plainfield Ave NE","49525",43.05175996685369,-85.59618444885496
"49306","Belmont","MI","F45 Training Rockford","191 Marcell Dr NE","49341",43.115028,-85.546962
"49306","Belmont","MI","Snap Fitness","221 Wolverine Blvd NE","49341",43.11336898803711,-85.55040740966797
"49307","Big Rapids","MI","T-N-T Gym & Tanning","310 N Michigan Ave","49307",43.7014917442481,-85.48173736564836
"49307","Big Rapids","MI","24 Hour Fitness","14299 Northland Dr","49307",43.67403030395508,-85.48343658447266
"49307","Big Rapids","MI","MCMC Gym","not_available","49307",43.695147,-85.474221
"49307","Big Rapids","MI","UPS Office, Pool & Fitness Centre","19500 14 Mile Rd","49307",43.66993891879981,-85.47639063052435
"49307","Big Rapids","MI","FSU Athlete's Weight Room","210 Sports Dr","49307",43.67992,-85.48556
"49307","Big Rapids","MI","Fitness XT","213 N Michigan Ave","49307",43.699910640692345,-85.48233724310684
"49315","Byron Center","MI","Byron Center High School","8500 Burlingame Ave SW","49315",42.81038836811439,-85.70003271102905
"49315","Byron Center","MI","Snap Fitness - Byron Center","2492 84th St SW","49315",42.81223710455265,-85.72507821516801
"49315","Byron Center","MI","Snap Fitness","7199 Kalamazoo Ave SE","49316",42.83380136863884,-85.62573975020966
"49315","Byron Center","MI","Cutting Edge Fitness","566 100th St SE","49513",42.781558990478516,-85.67720031738281
"49315","Byron Center","MI","Family fitness center","2249 84th st","49315",42.814300537109375,-85.71925354003906
"49315","Byron Center","MI","Upward Basketball","1200 60th St SE","49508",42.85284981637839,-85.63393692333688
"49315","Byron Center","MI","Performance Edge Training Center","571 Gordon Industrial Ct SW Unit C","49315",42.8244514465332,-85.67778778076172
"49315","Byron Center","MI","Inside Moves","639 76th St SW","49315",42.827186761604786,-85.67927371406462
"49315","Byron Center","MI","F45 Training Byron Center","2149 84th Street Southwest","49315",42.812574,-85.717409
"49316","Caledonia","MI","cali fitness","not_available","49316",42.7975117089912,-85.50819579618911
"49316","Caledonia","MI","CKO Kickboxing Grand Rapids South","6670 Kalamazoo Ave SE","49508",42.843668,-85.6239135
"49316","Caledonia","MI","Davenport Fitness Facility/Weight Room","Kraft Ave","not_available",42.849755940176244,-85.53338175153159
"49316","Caledonia","MI","Bloomfield Fitness Center","1695 Bloomfield Dr SE","49508",42.85437081662208,-85.62225545271906
"49316","Caledonia","MI","Commercial Fitness","9818 M-37","49316",42.7861579,-85.5067826
"49316","Caledonia","MI","Snap Fitness","9321 Cherry Valley Ave SE","49316",42.795927414956395,-85.50741101399895
"49316","Caledonia","MI","CKO Kickboxing Grand Rapids South","6670 Kalamazoo Avenue Southeast","49508",42.84373379975259,-85.62390172883602
"49319","Cedar Springs","MI","Max Fitness","14111 white creek suite D","49319",43.222118,-85.57207
"49319","Cedar Springs","MI","Frey Gym","6732 Fawn Dr NE, Cedar Springs, MI 49319","49319",43.208274841308594,-85.50381469726562
"49321","Comstock Park","MI","Locker Room","not_available","49544",43.028566360576214,-85.69556249667028
"49321","Comstock Park","MI","Alpine Slopes Apartments","4285 Alpenhorn Dr NW","49321",43.0430384349447,-85.68144723136182
"49321","Comstock Park","MI","Family Fitness of Alpine","1040 4 Mile Rd NW","49544",43.028618367336556,-85.69560435006845
"49321","Comstock Park","MI","Planet Fitness","4235 Alpine Ave NW","49321",43.040601,-85.690698
"49321","Comstock Park","MI","Kenowa Hills Weight Room","2325 4 Mile Rd NW","49544",43.03074645996094,-85.7270736694336
"49321","Comstock Park","MI","Snap Fitness","3588 Alpine Ave NW","49544",43.028727207462325,-85.68779501282914
"49323","Dorr","MI","Sandy Pines Gym","3681 28th St","49323",42.685943603515625,-85.81948852539062
"49323","Dorr","MI","Fit 24","not_available","49323",42.725171983298736,-85.70068318003288
"49327","Grant","MI","Newaygo Fitness","8843 S Mason Dr","49337",43.39403665099547,-85.80143812552191
"49327","Grant","MI","Dynamic Fitness","not_available","49337",43.394053386674855,-85.80097891131165
"49328","Hopkins","MI","Wedgwood Wellness Center","3300 36th St, Heath, MI 49419","49419",42.64836883544922,-85.89859008789062
"49331","Lowell","MI","Snap Fitness","2173 W Main St","49331",42.93236437866254,-85.3628820727459
"49333","Middleville","MI","Middleville Elite","not_available","49333",42.664772,-85.522333
"49341","Rockford","MI","MVP Athletic Club","515 E Division St","49341",43.11959916675111,-85.54667611537242
"49341","Rockford","MI","Curves","400 E Division St","49341",43.117069244384766,-85.5499267578125
"49341","Rockford","MI","Studio30","126 Courtland St","49341",43.12070846557617,-85.5583724975586
"49341","Rockford","MI","Energized | Inspired | Fitness","8830 Belding Rd NE","49341",43.08474349975586,-85.44992065429688
"49341","Rockford","MI","The Fitness Center At Chen Manor","10 mile","49341",43.121727,-85.576623
"49341","Rockford","MI","djv fitness","not_available","49341",43.14562225341797,-85.54713439941406
"49345","Sparta","MI","Snap Fitness","not_available","49345",43.145291491439885,-85.70936901894386
"49348","Wayland","MI","Snap Fitness","150 Pine St","49348",42.67321794017409,-85.64437844679696
"49348","Wayland","MI","Wayland High School Fitness Center","870 E Superior St","49348",42.670963287353516,-85.63082885742188
"49401","Allendale","MI","Fieldhouse","Grand Valley State University","49401",42.966831645626506,-85.88937912944895
"49401","Allendale","MI","Snap Fitness","6101 Lake Michigan Dr","49401",42.97371290477904,-85.93589534503762
"49401","Allendale","MI","The Kapua Suite G5","not_available","49401",42.96458,-85.905887
"49401","Allendale","MI","Recreation Center","The Fieldhouse","49401",42.96628409225372,-85.8902011546277
"49401","Allendale","MI","Lamont Christian School Gym","not_available","49404",43.01042,-85.916629
"49404","Coopersville","MI","Coopersville Fitness","345main st.","not_available",43.064178000000005,-85.935875
"49412","Fremont","MI","Tamarac, a member of Spectrum Health","1401 W Main St","49412",43.4692772463676,-85.96831939485102
"49412","Fremont","MI","Anytime Fitness","1224 W Main St","49412",43.466751,-85.965748
"49412","Fremont","MI","Family Fitness at the Rec","not_available","49412",43.466041669020406,-85.9410969373418
"49415","Fruitport","MI","Snap Fitness","15454 Cricket St","49456",43.101749420166016,-86.17206573486328
"49417","Grand Haven","MI","Generation Care","16760 Lincoln St","49417",43.000692,-86.202539
"49417","Grand Haven","MI","TGH CrossFit (Train Grand Haven)","15023 168th Ave","49417",43.043521881103516,-86.2076187133789
"49417","Grand Haven","MI","Snap Fitness","723 E Savidge St Ste F","49456",43.0764900637283,-86.20266897714824
"49417","Grand Haven","MI","Curves","1032 Madison Ave","49417",43.064697265625,-86.21693420410156
"49417","Grand Haven","MI","Ottawa County Building Fitness Room","not_available","49417",43.062316,-86.227618
"49417","Grand Haven","MI","Fitness Factory","1835 Industrial Park Dr","49417",43.03143150772166,-86.19296787258467
"49417","Grand Haven","MI","Snap Fitness","13040 US Highway 31","49417",43.005131087089644,-86.20251518868596
"49417","Grand Haven","MI","F45 Training Grand Haven MI","17222 Robbins Rd","49417",43.044287,-86.216535
"49417","Grand Haven","MI","Anytime Fitness","1027 S Beacon Blvd","49417",43.05085,-86.22181
"49418","Grandville","MI","Fitness 19 Jenison","7561 Cottonwood Dr","49428",42.9057181,-85.793127
"49418","Grandville","MI","Forever FIT","3040 28th St SW","49418",42.91288757324219,-85.74011993408203
"49418","Grandville","MI","Clubhouse Gym","not_available","49418",42.87449836068841,-85.74630607595797
"49418","Grandville","MI","Escape Fitness Center","not_available","49428",42.888219496712146,-85.8343308603076
"49418","Grandville","MI","Pro Gym","7756 20th Ave","49428",42.90973663330078,-85.83109283447266
"49418","Grandville","MI","YMCA - Visser Family Y","3540 Fairlanes Ave SW","49418",42.90098080583343,-85.7774903540629
"49418","Grandville","MI","Pure Barre","4533 Ivanrest Ave SW Ste F","49418",42.882069261618376,-85.74406206931155
"49418","Grandville","MI","Curves","7651 Riverview Dr","49428",42.908119201660156,-85.79090118408203
"49418","Grandville","MI","TITLE Boxing Club Grandville","4499 Ivanrest Ave SW","49418",42.8830196,-85.7440714
"49418","Grandville","MI","The Gymroom!","Bedroom","not_available",42.889682,-85.730594
"49418","Grandville","MI","Snap Fitness","4830 Wilson Ave SW","49418",42.87637541914893,-85.75837418183724
"49418","Grandville","MI","RTHC","4250 Spartan Industrial Dr SW","49418",42.88758431337163,-85.73457714743982
"49418","Grandville","MI","FitCorr","2845 44th St SW","49418",42.88536834716797,-85.73491668701172
"49418","Grandville","MI","The 3-2-1","not_available","49509",42.901175,-85.730778
"49418","Grandville","MI","JSHS Gym","Jenison Senior High School","49428",42.920130947842374,-85.83627335609994
"49419","Hamilton","MI","overisel zumba hall","not_available","49464",42.72798984475575,-86.00954874038291
"49419","Hamilton","MI","Snap Fitness","1153 Washington Ave","49423",42.75682586201002,-86.11531763746818
"49419","Hamilton","MI","Haworth Gym","1 Haworth Ctr","49423",42.75032043457031,-86.08277893066406
"49419","Hamilton","MI","The Downstairs Gym","19 Old Mill Dr","49423",42.758697509765625,-86.10951232910156
"49420","Hart","MI","American Fitness Center","not_available","49420",43.70287609991305,-86.3641452760666
"49423","Holland","MI","P90X","not_available","49423",42.78325653076172,-86.10404205322266
"49423","Holland","MI","Back to Fitness Mind and Body Fitness Center","171 E 24th St","49423",42.77629379861071,-86.09833648200278
"49423","Holland","MI","Dow Center","168 E 13th St","49423",42.78551914863747,-86.09991595234547
"49423","Holland","MI","Crossfit Flight","647 96th Ave","49424",42.780553000000005,-86.019099
"49423","Holland","MI","Holland South Fit Body Boot Camp","180 E 40th St","49423",42.7609662,-86.0987803
"49423","Holland","MI","FLEX Fitness Center","474 Century Ln","49423",42.78050246657486,-86.08688633718735
"49423","Holland","MI","Pure Barre","90 Douglas Ave","49424",42.80200295711561,-86.11176688132934
"49424","Holland","MI","Orangetheory Fitness","12365 James St","49424",42.81258010864258,-86.08740997314453
"49424","Holland","MI","The Funky Buddha Yoga Hothouse","12330 James St","49424",42.80945046449442,-86.08501558155282
"49424","Holland","MI","Fitness Together - Holland","3006 W Shore Dr","49424",42.82363387170024,-86.08864066005356
"49424","Holland","MI","CrossFit Flight","11315 Chicago Dr","49424",42.80403518676758,-86.06168365478516
"49424","Holland","MI","pure performance","2350 112th Ave","49424",42.81120625069709,-86.05828003800639
"49424","Holland","MI","Clearview Apartments","12100 Clear View Ln","49424",42.82832717895508,-86.08112335205078
"49424","Holland","MI","Ultimate Fitness & Health","91 Douglas Ave","49424",42.803387936131436,-86.11118091424648
"49424","Holland","MI","HIE Gym","not_available","49424",42.82024002075195,-86.08739471435547
"49424","Holland","MI","Anytime Fitness","977 Butternut Dr Ste 16","49424",42.82869,-86.13536
"49424","Holland","MI","Holland Snap Fitness Center","12059 Felch St","49424",42.81970071221991,-86.0786453162186
"49425","Holton","MI","Pro Ball","not_available","49425",43.41631699784576,-86.06984845634427
"49426","Hudsonville","MI","Snap Fitness","3715 Baldwin St","49426",42.908068195343716,-85.8753363850166
"49426","Hudsonville","MI","ARMR CrossFit","3229 Oak St","49426",42.87221145629883,-85.8615493774414
"49426","Hudsonville","MI","Royal Gym","3765 Quincy St","49426",42.84139633178711,-85.87467956542969
"49426","Hudsonville","MI","F45 Training Hudsonville","3413 Quincy St","49426",42.840838,-85.867631
"49431","Ludington","MI","Wildwood Meadows Gym","not_available","49431",43.952652571411676,-86.3929704424968
"49437","Montague","MI","Americas fitness center","not_available","49461",43.40805244663743,-86.32395225473785
"49437","Montague","MI","Thunder Bolt Gym","204 E Colby St","49461",43.410011291503906,-86.34600067138672
"49437","Montague","MI","Rising Star Fitness","not_available","49437",43.424517388092134,-86.37586731395056
"49437","Montague","MI","Flipz","801-819 E Hanson St","49461",43.410255698571326,-86.33544554270887
"49440","Muskegon","MI","Bobby's World","201 Merrill Ave","49441",43.23021697998047,-86.24850463867188
"49441","Muskegon","MI","Norton Pines Athletic Club","1350 Judson Rd","49456",43.1256275,-86.21255339999999
"49441","Muskegon","MI","Curves","1212 E Forest Ave","49442",43.14577102661133,-86.20658111572266
"49441","Muskegon","MI","Ultimate Training Center","695 W Hackley Ave","49441",43.21198654174805,-86.26042175292969
"49441","Muskegon","MI","The Reserves Fitness Center","1455 Capstan Dr","49444",43.14252853393555,-86.20964050292969
"49441","Muskegon","MI","Curves","Norton Ave","49441",43.19117394917356,-86.26645537447388
"49441","Muskegon","MI","Watermark Gym","930 Washington Ave","49441",43.22739791870117,-86.26602172851562
"49441","Muskegon","MI","Pool & Gym @ Muskegon High School","1490-1548 5th St","49441",43.22495802178931,-86.24775052070618
"49441","Muskegon","MI","Family Fitness","1052 E Sternberg Rd","49444",43.15587389964057,-86.21930073947459
"49441","Muskegon","MI","The Rec Room","not_available","49444",43.19199166235134,-86.24445132765142
"49441","Muskegon","MI","Omni Fitness Club","40 E Norton Ave","49444",43.190700242511376,-86.24443435561106
"49441","Muskegon","MI","Snap Fitness","950 W Norton Ave","49441",43.19129194919483,-86.26699547178767
"49441","Muskegon","MI","Planet Fitness","1501 E Apple Ave","49442",43.232192,-86.206317
"49442","Muskegon","MI","Eglecraft","4130 summergreen","49442",43.21562986923434,-86.1427631638816
"49442","Muskegon","MI","Northwinds Gym","1172-1398 Holton Rd","49445",43.275235367949016,-86.23733281091636
"49442","Muskegon","MI","Family Fitness of North Muskegon","1222 Holton Rd","49445",43.27497192536996,-86.23783126182217
"49442","Muskegon","MI","Blue Wave Fitness 24/7","not_available","49442",43.23648369676687,-86.18339321748323
"49445","Muskegon","MI","Muskegon CrossFit","575 W Sherman Blvd","46444",43.293783135556836,-86.20183941040335
"49445","Muskegon","MI","Blue Wave Fitness","2968 E Riley Thompson Rd","49445",43.33849556436511,-86.16861985271021
"49445","Muskegon","MI","North Muskegon Schools","1600 Mills Ave","49445",43.25746451058507,-86.2679775014265
"49445","Muskegon","MI","The Gym","308 Center St","49445",43.26165008544922,-86.25981140136719
"49453","Saugatuck","MI","pump house","not_available","49453",42.66964537100913,-86.18359683292051
"49453","Saugatuck","MI","Pump House Gym","Blue Star Hwy","not_available",42.67666120027079,-86.18262695440431
"49454","Scottville","MI","GloboGym","not_available","49454",43.908378,-86.28833
"49456","Spring Lake","MI","Woodland Fitness Center","not_available","49456",43.09098186929425,-86.24249693521685
"49460","West Olive","MI","Fillmore Complex Fitness Room","not_available","49460",42.939174,-86.087885
"49464","Zeeland","MI","Herman Miller Mainsite","855 E Main Ave","49464",42.81504454431446,-85.99566589939
"49464","Zeeland","MI","Wellness center - Mainsite","855","49464",42.816905002146044,-85.9954833984375
"49464","Zeeland","MI","Snap Fitness","9479 Riley St","49464",42.82818160406147,-86.01662108987874
"49464","Zeeland","MI","New Heights Fitness","340 W Washington Ave.","49464",42.81327480832664,-86.02779420562702
"49503","Grand Rapids","MI","Icon on Bond","538 Bond Ave NW","49503",42.973199,-85.670954
"49503","Grand Rapids","MI","YMCA - David D. Hunting","475 Lake Michigan Dr NW","49504",42.96653450846819,-85.68067074063136
"49503","Grand Rapids","MI","The Quest Center","not_available","49506",42.92216198048759,-85.62274261488483
"49503","Grand Rapids","MI","Fitness 19","1243 Leonard St NE","49505",42.985276,-85.637607
"49503","Grand Rapids","MI","MVP Metro Club","33 Fountain St NW","49503",42.965557147054994,-85.66929763659661
"49503","Grand Rapids","MI","Paul i Phillips Recreation Center","not_available","49503",42.949526282496315,-85.65911305817765
"49503","Grand Rapids","MI","The Funky Buddha Yoga Hothouse","1331 Lake Drive SE","49506",42.95817606870435,-85.63612290958673
"49503","Grand Rapids","MI","Bill's Gym","not_available","49504",42.95839365927668,-85.69697879316037
"49503","Grand Rapids","MI","Flirt Fitness","415 Norwood Ave SE","49506",42.955062,-85.632127
"49503","Grand Rapids","MI","Plaza Apartments Fitness Room","201 Fulton St W","49503",42.96366960656791,-85.6737095117569
"49503","Grand Rapids","MI","CKO Kickboxing","820 Monroe Ave NW Ste 150","49503",42.977517999999996,-85.671852
"49503","Grand Rapids","MI","Body By ARMR","1111 Godfrey Ave SW","49503",42.943119553683474,-85.68492650985718
"49503","Grand Rapids","MI","The Gym","1746 McDonald St NW","49504",42.98425098333333,-85.71124911666666
"49503","Grand Rapids","MI","Amway Grand Plaza Hotel Fitness Center","187 Monroe Ave NW","49503",42.966800689697266,-85.67247772216797
"49503","Grand Rapids","MI","8th Day Gym","130 Market Ave SW","49503",42.960032085884194,-85.67482748887367
"49503","Grand Rapids","MI","Franks Knockout Fitness","445 Bridge St NW","49504",42.97074806620151,-85.68060922451305
"49503","Grand Rapids","MI","Work It Off Fitness","1100 Hynes Ave SW","49507",42.943628000000004,-85.67562099999999
"49503","Grand Rapids","MI","44 Workout Room","44 Grandville Ave SW","49503",42.961883544921875,-85.6731185913086
"49503","Grand Rapids","MI","The Fitness Room","not_available","49507",42.92793674033429,-85.6298139358376
"49503","Grand Rapids","MI","Fitness Center at JW Marriott Hotel","235 Louis St NW","49503",42.96581295011118,-85.67436933517456
"49503","Grand Rapids","MI","The Gym @ Globe Apartments","315 Commerce Ave SW","49503",42.957183,-85.66956400000001
"49504","Grand Rapids","MI","Work It Off Fitness","1642 Broadway Ave NW, Grand Rapids, MI 49504","49504",42.99371337890625,-85.67903137207031
"49504","Grand Rapids","MI","Snap Fitness","2056 Lake Michigan Dr NW","49504",42.971280879656256,-85.71897574671053
"49504","Grand Rapids","MI","Redoy's Gym","1846 Hillmount St NW Ste B","49504",42.986779944113295,-85.71343475720523
"49504","Grand Rapids","MI","Riverhouse Exercise Facility","335 Bridge St NW","49504",42.97115,-85.67655
"49504","Grand Rapids","MI","Planet Fitness - Temporarily Closed","2807 Lake Michigan Dr NW","49504",42.97257488319972,-85.73819675333598
"49504","Grand Rapids","MI","Tony's Bring It Gym","1756 1/2 Tamarack Ave","49504",42.99598808,-85.69298174
"49504","Grand Rapids","MI","Next Level Personal Training","801 Monroe Ave NW Unit 1","49503",42.976890563964844,-85.67304992675781
"49504","Grand Rapids","MI","Heights Yoga Project","744 Leonard St NW Ste A","49504",42.98512816517391,-85.68793703565137
"49504","Grand Rapids","MI","Spartan Core Training, LLC","827 Bridge St NW Apt A","49504",42.97105407714844,-85.68882751464844
"49504","Grand Rapids","MI","The Hills Work-out Room","Preston Ridge St NW","49504",42.99821781,-85.70237755
"49505","Grand Rapids","MI","Eastside Fitness","not_available","49505",42.98928,-85.656819
"49505","Grand Rapids","MI","Kuma Fitness","1042 Oaklawn St NE","49505",43.008869,-85.643052
"49505","Grand Rapids","MI","Pure Barre","2107 E Beltline Ave NE Ste C","49525",43.00077036965794,-85.59104175640783
"49505","Grand Rapids","MI","Monroe North Fitness Center","940 Monroe Ave NW","49503",42.97907944651686,-85.67205850086768
"49505","Grand Rapids","MI","CKO Kickboxing Grand Rapids Downtown","820 Monroe Avenue Northwest #150","49503",42.9779056,-85.6721595
"49505","Grand Rapids","MI","Acceleration","1140 Monroe Ave NW","49503",42.98398971557617,-85.67005920410156
"49505","Grand Rapids","MI","Snap Fitness","855 Michigan St NE","49503",42.970346853995466,-85.64769777266308
"49505","Grand Rapids","MI","Grand Rapids Label Gym","2351 Oak Industrial Dr NE","49505",42.975657,-85.61141500000001
"49505","Grand Rapids","MI","Stop Motion","Lafayette Ave NE","49505",42.999994,-85.662001
"49505","Grand Rapids","MI","The Weight Room","814 Prospect Ave NE","49503",42.978008,-85.660507
"49505","Grand Rapids","MI","Flees ATA Martial Arts","1621 Leonard St NE","49505",42.98485,-85.62827
"49506","Grand Rapids","MI","Stairstepper",".","49546",42.92587879392088,-85.60588198530144
"49506","Grand Rapids","MI","MLK Mentoring & Boxing","900 Fuller Ave SE","49506",42.946245000000005,-85.63852299999999
"49507","Grand Rapids","MI","YMCA Healthy Living Hub @ SECOM","1545 Buchanan Ave SW","49507",42.935346,-85.672578
"49508","Grand Rapids","MI","Orangetheory Fitness","3108 28th St SE","49512",42.911895751953125,-85.59122467041016
"49508","Grand Rapids","MI","Endurance Fitness","1421 60th St SE","49508",42.855652192400015,-85.62853842973709
"49508","Grand Rapids","MI","Blues Gym","4248 Kalamazoo Ave SE","49508",42.88572692871094,-85.62496948242188
"49508","Grand Rapids","MI","Gain Line Performance, LLC","5610 Division Ave S #105","49548",42.86198425292969,-85.66217803955078
"49508","Grand Rapids","MI","Steelcase Employee Gym","901 44th St SE","49508",42.88522178839832,-85.64302660130015
"49508","Grand Rapids","MI","Booking.com Gym","4147 Eastern Ave SE","49508",42.88856,-85.646934
"49508","Grand Rapids","MI","Oxford Place Fitness Center","2143 43rd St SE","49508",42.88716125488281,-85.61100769042969
"49508","Grand Rapids","MI","Planet Fitness","5270 Eastern Ave, SE","49508",42.86808660594494,-85.64299436874417
"49508","Grand Rapids","MI","Aim Fitness","4620 Kalamazoo Ave SE","49508",42.88003532498053,-85.62493847450467
"49508","Grand Rapids","MI","Symmetry Training and Fitness","3091 29th St SE","49512",42.91084076446823,-85.5912978336584
"49509","Wyoming","MI","Planet Fitness","958 28th St SW","49509",42.91240326648198,-85.68900101136698
"49509","Wyoming","MI","YMCA - Spartan Stores Y","5722 Metro Way SW","49519",42.85964697213869,-85.71135432927709
"49509","Wyoming","MI","Fit Body Boot Camp","5316 Clyde Park Ave SW Ste G","not_available",42.86788558959961,-85.6829833984375
"49509","Wyoming","MI","sauce's gym","1443 40th St SW, Wyoming, MI 49509","49509",42.891879774912475,-85.70074098260552
"49509","Wyoming","MI","Anytime Fitness","1851 44th St. SW","49519",42.88497,-85.71085
"49512","Grand Rapids","MI","Wedgwood Wellness Center","3300 36th St SE, Grand Rapids, MI 49512","49512",42.8968505859375,-85.58506774902344
"49512","Grand Rapids","MI","Friction CrossFit","3390 Broadmoor Ave SE","49512",42.90229415893555,-85.57833862304688
"49512","Grand Rapids","MI","G-Force Fitness","3876 East Paris Ave SE Ste 6","49512",42.89282186133244,-85.56661834982441
"49512","Grand Rapids","MI","Complete Nutrition","not_available","49512",42.912202918814025,-85.5820096409721
"49519","Wyoming","MI","Waterchase Gym","3100 Waterchase Way SW, Wyoming, MI 49519","49519",42.9091682434082,-85.72118377685547
"49525","Grand Rapids","MI","Orangetheory Fitness","2052 E Beltline Ave NE","49525",42.999629974365234,-85.58931732177734
"49525","Grand Rapids","MI","Koko FitClub- East Beltline","2830 E Beltline Ave NE","49525",43.014483,-85.58934599999999
"49525","Grand Rapids","MI","Kuyper College Fitness Center","3333 E Beltline Ave NE","49525",43.02189295283222,-85.59254331450092
"49525","Grand Rapids","MI","Grand Rapids Mixed Martial Arts (GRMMA)","Plainfield Avenue","49525",43.02296835713883,-85.63384421083562
"49525","Grand Rapids","MI","Family Fitness of Grand Rapids","3325 Plainfield Ave NE","49525",43.02311216818571,-85.63356836725808
"49525","Grand Rapids","MI","Snap Fitness","1600 E Beltline Ave NE","49525",42.9921550570407,-85.58924674987793
"49534","Grand Rapids","MI","Ridgeview Industries","3093 Northridge Dr NW","49544",43.02345092876086,-85.74630694335056
"49534","Grand Rapids","MI","Walker Ice & Fitness Center","4151 Remembrance Rd NW","49534",43.00548879789623,-85.77161837482238
"49534","Grand Rapids","MI","Curves","walker village dr","49534",42.975273,-85.753937
"49534","Grand Rapids","MI","Curves","1230-1274 Walker Village Dr NW","49534",42.988547,-85.75398613
"49544","Grand Rapids","MI","Workout time","Nordic Ave nw","49545",43.03633797104741,-85.7574296542332
"49544","Grand Rapids","MI","OtterBase Gym","555 3 Mile Rd NW","49544",43.01431261524609,-85.68198680877686
"49546","Grand Rapids","MI","MVP Sportsplex","4035 Burton St SE","49546",42.92781846245531,-85.56844312944175
"49546","Grand Rapids","MI","Gymco","2306 Camelot Ridge Ct SE","49546",42.921604481952976,-85.56604681074842
"49546","Grand Rapids","MI","East Hills Athletic Club","1640 East Paris Ave SE","49546",42.93327350269241,-85.56669428787141
"49546","Grand Rapids","MI","Fitness Together - Eastparis","1144 East Paris Ave SE","49546",42.94215100086522,-85.56938856948557
"49546","Grand Rapids","MI","Martindill Wellness Center","3600 Fulton St E","49546",42.96178436279297,-85.58035278320312
"49548","Grand Rapids","MI","Champion Force Athletics","165 54th St SW","49548",42.86664252827195,-85.66837728023529
"49548","Grand Rapids","MI","Crossfit Grand Rapids","2945 Hillcroft Ave SW","49548",42.909967,-85.674072
"49601","Cadillac","MI","Anytime Fitness","2101 Plett Rd","49601",44.28089,-85.39717
"49601","Cadillac","MI","Cadillac CrossFit","1461 A N.Mitchell St.","49601",44.271864911891775,-85.40682040740967
"49601","Cadillac","MI","Better Bodies Health & Fitness","412 S Mitchell St","49601",44.246976884808035,-85.39744389169226
"49614","Bear Lake","MI","PLCBC GYM","not_available","49675",44.368483,-86.208175
"49615","Bellaire","MI","Shanty Creek Fitness Center And Spa","not_available","49615",44.94942401919517,-85.185539258666
"49616","Benzonia","MI","Covid-19 Fitness Plaza","not_available","49617",44.629826,-86.107441
"49621","Cedar","MI","Maple City Health And Fitness","not_available","49664",44.85592269897461,-85.85746002197266
"49630","Empire","MI","Nordic Walking Poles USA and SkiWalking.com, LLC","13556 S Beaver Pond Rd","49630",44.784266,-86.015552
"49636","Glen Arbor","MI","New Leaf Fitness","not_available","49636",44.915750486748344,-85.96434262734658
"49637","Grawn","MI","Tone and Trim","not_available","49684",44.67689100151292,-85.65520008190701
"49643","Interlochen","MI","The Shed","not_available","49643",44.63230529107242,-85.77026952371013
"49648","Kewadin","MI","Elk Rapids Fitness Center","7401 Cherry Ave","49648",44.9269896,-85.354892
"49650","Lake Ann","MI","Pennys Gym","not_available","49650",44.726688,-85.855029
"49651","Lake City","MI","Curves","286 N Oakwood Dr","49651",44.341497454761516,-85.20978763725941
"49660","Manistee","MI","Northstar Training","33 Lake St","49660",44.249488830566406,-86.31478118896484
"49660","Manistee","MI","StayFit24","51522 US 31/33","46637",44.2553823,-86.3187882
"49660","Manistee","MI","Little River Fitness","not_available","49660",44.23095703125,-86.31322479248047
"49660","Manistee","MI","Fit USA","1672 US Highway 31 S","49660",44.22458331646713,-86.31291244689459
"49682","Suttons Bay","MI","Strongheart","not_available","49682",45.02093503252285,-85.61620173383312
"49684","Traverse City","MI","Planet Fitness","3111 S Airport Rd W","49684",44.722793,-85.634857
"49684","Traverse City","MI","Fit For You","1226 S Garfield Ave","49686",44.74501,-85.59593
"49684","Traverse City","MI","The B Fitness Club","3031 Cass Rd","49684",44.73038173926013,-85.62654942328261
"49684","Traverse City","MI","Premier Health & Fitness","1209 S Garfield Ave Ste A","49686",44.745733202878064,-85.59457747598927
"49684","Traverse City","MI","Vital Choice Gym","sixth street","49684",44.761216156880785,-85.64389287161441
"49684","Traverse City","MI","YMCA","3000 Racquet Club Dr.","49684",44.72915821924186,-85.6176312590343
"49684","Traverse City","MI","Bayshore Resort Fitness Center","833 E Front St","49686",44.765229999999995,-85.603372
"49684","Traverse City","MI","Total Results Xtraining","1209 S Garfield Ave","49686",44.745033264160156,-85.59479522705078
"49684","Traverse City","MI","Ironworks Fitness Center","141 Rivers Edge Dr Ste 200","49684",44.760506414582814,-85.62183869286953
"49684","Traverse City","MI","Arbors Gym","2955 Leggett Dr","49685",44.71753405870928,-85.63462528400123
"49684","Traverse City","MI","Grand Traverse Athletic Club","1713 Park Dr","49686",44.736667969183884,-85.60992967203929
"49686","Traverse City","MI","Fit For You Ice","1600 Chartwell Dr","49696",44.708666968391306,-85.54463624954224
"49686","Traverse City","MI","Turtle Creek Fitness Center","not_available","49690",44.77290000551613,-85.42327252693264
"49686","Traverse City","MI","Anytime Fitness","728 Munson Ave","49686",44.75447,-85.57426
"49688","Tustin","MI","Today's Fitness LLC","202 Howard St","49688",44.10147493004676,-85.45740807833913
"49701","Mackinaw City","MI","Mackinaw Recreation Center","not_available","49701",45.780730780247005,-84.74143664204277
"49706","Alanson","MI","Bay Tennis And Fitness","not_available","49770",45.398125,-84.88340277777779
"49707","Alpena","MI","Bay Athletic Club","1501 W Chisholm St","49707",45.076465679600624,-83.44916515998976
"49707","Alpena","MI","Alpena Health And Racquet Club","not_available","49707",45.03923961079828,-83.46323081904136
"49709","Atlanta","MI","Snap Fitness-24•7","780","49735",44.880017958997115,-84.31786844457012
"49712","Boyne City","MI","BCEC Gym","not_available","49712",45.21187693065479,-85.01268922188338
"49712","Boyne City","MI","Boyne Fitness Center","not_available","49713",45.16291720790905,-84.92914773067537
"49720","Charlevoix","MI","Curves For Women","not_available","49720",45.30333943457014,-85.25843070740768
"49720","Charlevoix","MI","Charlevoix Fitness","9600 Club House Dr","49720",45.34193420410156,-85.22008514404297
"49720","Charlevoix","MI","Harbor Health & Fitness Ctr","110 Clinton St","49720",45.316802978515625,-85.2600326538086
"49721","Cheboygan","MI","Box Fit Fitness Club, LLC.","221 S Main St","49721",45.64454,-84.47724000000001
"49735","Gaylord","MI","Fairfield Inn Gym","not_available","49735",45.029056,-84.684889
"49735","Gaylord","MI","Powerhouse Gym","1044 W Main St","49735",45.029481216439805,-84.6904840700436
"49735","Gaylord","MI","Nautilus Fitness System, Inc.","1140 Gornick Ave","49735",45.014984130859375,-84.68132781982422
"49735","Gaylord","MI","Otsego County Community Center","315 S Center Ave","49735",45.024956,-84.673618
"49738","Grayling","MI","Snap Fitness","7557-7803 Michigan 72","49738",44.66313097806728,-84.77363181195673
"49740","Harbor Springs","MI","Curves","8494 M 119","49740",45.42758830150597,-84.90736223693204
"49749","Indian River","MI","Vances Rehabilitation Services","PO Box 184","49749",45.409919430476684,-84.61270377788527
"49770","Petoskey","MI","Anytime Fitness","2170 Anderson Rd Ste 120","49770",45.34517,-84.97161
"49770","Petoskey","MI","YMCA Of Northern MI","622 Howard St","49770",45.371049,-84.955885
"49770","Petoskey","MI","Curves","37 Fulton St","49770",45.36943435668945,-84.96379852294922
"49770","Petoskey","MI","Bear Creek Meadows Gym & Clubhouse","1600 Bear Creek Ln","49770",45.342529296875,-84.97482299804688
"49781","Saint Ignace","MI","Little Bear East Fitness","not_available","49781",45.89742259357578,-84.75563163605324
"49783","Sault Sainte Marie","MI","Fit4Less","480 Pim St, Unit 3&4","P6B 1Y2",46.521334,-84.31856
"49783","Sault Sainte Marie","MI","GoodLife Fitness Sault Ste Marie Great Northern and Second Line","589 Second Line E","P6B 4K2",46.537802,-84.322072
"49783","Sault Sainte Marie","MI","WMH Fitness Center","not_available","49783",46.49734878540039,-84.34803009033203
"49783","Sault Sainte Marie","MI","Anytime Fitness","4422 I-75 Business Spur","49783",46.46526,-84.37864
"49783","Sault Sainte Marie","MI","UP North Nutrition & GYM 906","327 Ashmun St","49783",46.4983792,-84.34685979999999
"49801","Iron Mountain","MI","Anytime Fitness","1078 S Stephenson Ave","49801",45.81246,-88.0631
"49801","Iron Mountain","MI","Private Gym","not_available","49801",45.808046,-88.074313
"49807","Bark River","MI","Island Resort & Casino - Employee Fitness Center","W399 Hwy 2 & 41","not_available",45.70147627206143,-87.33940557607434
"49829","Escanaba","MI","Anytime Fitness","301 N Lincoln Rd Ste 31","49829",45.74788,-87.08129
"49829","Escanaba","MI","Wells Sports Complex","17.4 Rd","49829",45.787372597059715,-87.08356320316699
"49829","Escanaba","MI","Great Lakes Fitness","not_available","49829",45.745401,-87.059962
"49833","Little Lake","MI","M & T's Fitness Center","not_available","49841",46.32487487792969,-87.36591339111328
"49841","Gwinn","MI","Anytime Fitness","48 E Stephenson Ave","49841",46.277635,-87.426422
"49849","Ishpeming","MI","Strength and Fitness","not_available","49849",46.4899265867599,-87.66883677007536
"49849","Ishpeming","MI","Negaunee YMCA","204 Iron St","49866",46.49924301612051,-87.61172886955966
"49849","Ishpeming","MI","Anytime Fitness","130 N Pansy St","49849",46.486596,-87.71638100000001
"49855","Marquette","MI","Marquette Orthopedic And Sports Therapy (MOST)","Harbor Hills Dr.","not_available",46.538082122802734,-87.41816711425781
"49855","Marquette","MI","Cedarville Fitness Center","Cedarville Drive","49855",46.55933221407515,-87.45166353359832
"49855","Marquette","MI","Anytime Fitness","1175 W Washington St","49855",46.54538,-87.42143
"49855","Marquette","MI","Crossfit Marquette","1455 W Fair Ave","49855",46.556483,-87.417612
"49855","Marquette","MI","Anytime Fitness","1001 M-28 E","49855",46.48769,-87.3481
"49855","Marquette","MI","Ringside Fitness","181 W Bluff St","49855",46.544339943431275,-87.39486694335938
"49855","Marquette","MI","Snap Fitness","3226 US Highway 41 W","49855",46.550221510478934,-87.45881954667304
"49855","Marquette","MI","Joe's Gym","not_available","49855",46.54228210449219,-87.39552307128906
"49855","Marquette","MI","Marquette YMCA","1420 Pine St","49855",46.557388693677986,-87.3876431048382
"49858","Menominee","MI","Anytime Fitness","2350 10th St","49858",45.12026,-87.61316
"49862","Munising","MI","Anytime Fitness","601 W Munising Ave","49862",46.41466,-86.66205
"49908","Baraga","MI","Hornet Weightroom","201 N 4th St","49946",46.75812911987305,-88.44983673095703
"49908","Baraga","MI","BCMH Rehab And Fitness Center","not_available","49946",46.7580991475522,-88.45571807312733
"49913","Calumet","MI","Steph's Gym","not_available","49913",47.25025664844977,-88.4533395493346
"49920","Crystal Falls","MI","Complete Family Fitness","not_available","49920",46.097159,-88.354252
"49920","Crystal Falls","MI","The Wall Gym & Fitness Center","1359 US-2","49920",46.0969861,-88.354108
"49930","Hancock","MI","Student Development Complex","Sharon Ave.","49931",47.112283678943584,-88.54701519012451
"49930","Hancock","MI","Yeoman- Ouellette Gym","not_available","49931",47.107044869077654,-88.53474633087372
"49930","Hancock","MI","Quad Core Fitness Club (at Hillside Place)","1801 Woodland Rd","49931",47.11670684814453,-88.54630279541016
"49930","Hancock","MI","Snap Fitness","850 W. Sharon Ave. (Red Ridge Plaza)","49931",47.11359558870941,-88.58377095069626
"49930","Hancock","MI","Quad Core Fitness Club","1700 Townsend Dr, Houghton, MI 49931","49931",47.11717987060547,-88.54255676269531
"49930","Hancock","MI","Kettlebell Combat Conditioning","Sheldon Ave","49931",47.140277777777776,-88.58305555555555
"49938","Ironwood","MI","Snap Fitness","not_available","49938",46.46294021606445,-90.18367004394531
