"zip","city","state","name","address","postalCode","lat","lon"
"66002","Atchison","KS","YMCA of Atchison","321 Commercial St","66002",39.56206564988254,-95.11717850669908
"66002","Atchison","KS","Fitness Center (Fem Gym)","Haverty Center","66002",39.57355593003833,-95.11377985291212
"66002","Atchison","KS","Insular Gym","721 Commercial St Side","66002",39.56222152709961,-95.12288665771484
"66002","Atchison","KS","Snap Fitness","5th","66002",39.56207717960336,-95.11838240872065
"66006","Baldwin City","KS","Baldwin Athletic Center","not_available","66006",38.78239404047866,-95.1909771931449
"66007","Basehor","KS","Energizing Mission","not_available","not_available",39.11621243450695,-94.91321622995707
"66007","Basehor","KS","Snap Fitness","15604 Pinehurst Dr Ste 6","66007",39.1157366248531,-94.94121703601843
"66007","Basehor","KS","Cobra Command Fitness","14500 Parallel Rd","66007",39.129398345947266,-94.9140396118164
"66007","Basehor","KS","Snap Fitness","1318 158th Ter","66007",39.120994567871094,-94.94683837890625
"66012","Bonner Springs","KS","The Greens at Shawnee Apartment Community","6626 Hedge Lane Ter","66226",39.01263780536864,-94.85515423042872
"66012","Bonner Springs","KS","maXimus Fitness And Wellness Gym","not_available","66086",39.07442855834961,-94.99854278564453
"66012","Bonner Springs","KS","Punch Fitness","not_available","66226",39.03015911579132,-94.85006153583527
"66012","Bonner Springs","KS","Anytime Fitness","620 S 130th St","66012",39.08618,-94.8839
"66012","Bonner Springs","KS","lake forest gym","100 Lake of the Frst","66012",39.06772232055664,-94.84076690673828
"66012","Bonner Springs","KS","Greens at Shawnee Fitness Center","6602 Hedge Lane Ter","66226",39.007932000000004,-94.860093
"66012","Bonner Springs","KS","Bonner Springs Family YMCA","2251 S 138th St","66012",39.06016970395837,-94.89710262854199
"66012","Bonner Springs","KS","Toe2Toe Fitness","22350 W 66th St","66226",39.0099262,-94.84565289999999
"66012","Bonner Springs","KS","Bonner Springs Highschool Weight Room","not_available","66012",39.05977599475095,-94.896235
"66012","Bonner Springs","KS","Snap Fitness Shawnee","5424 Roberts St","66226",39.03011296563608,-94.85013461692004
"66013","Bucyrus","KS","Stay Fit","6819 W 185th Ter","66085",38.792003,-94.664817
"66018","De Soto","KS","Great Life Fitness Center of De Soto","De Soto, KS","66018",38.97629320465587,-94.96758776034575
"66018","De Soto","KS","Gymnase","not_available","66018",38.97886,-94.978286
"66027","Fort Leavenworth","KS","Gruber Gym","220 Reynolds Ave","66027",39.34898886683355,-94.91599559783936
"66027","Fort Leavenworth","KS","Harney Gym","185 Fourth St","66027",39.34269484095872,-94.92487907409668
"66027","Fort Leavenworth","KS","Gruber Gym","not_available","66027",39.341891006450965,-94.93934548232382
"66030","Gardner","KS","Anytime Fitness","255 North Stone Ck Dr","66030",38.81268344502765,-94.90538440624512
"66030","Gardner","KS","Legacy Fitness","17935 S Moonlight Rd","66030",38.8004746704748,-94.90778706212636
"66030","Gardner","KS","Gibby's dungeon","not_available","66030",38.80704800993339,-94.90386886023524
"66030","Gardner","KS","jazzercise Gardner","615 E Main St","66030",38.810577392578125,-94.91555786132812
"66030","Gardner","KS","KC Offices","not_available","66061",38.84336630708406,-94.8994947901513
"66030","Gardner","KS","apt gym","400 S Moonlight Rd","66030",38.80515670776367,-94.91134643554688
"66030","Gardner","KS","Gardner Athletic Club","214 E Main St","66030",38.81107509841322,-94.92441581389731
"66032","Garnett","KS","Garnett Recreation Center","510 N Lake Rd","66032",38.28843654700776,-95.23944038401879
"66040","La Cygne","KS","Zumba By Dee Dee","not_available","66040",38.34533630220451,-94.75953974794824
"66043","Lansing","KS","Genesis Health Clubs - Leavenworth","2924 S. 4th Trafficway","66048",39.287869716676454,-94.9077819158471
"66043","Lansing","KS","Anytime Fitness","100 E. Kansas Ave.","66043",39.24904,-94.89927
"66044","Lawrence","KS","Genesis Health Clubs - Lawrence North","3201 Mesa Way","66049",38.971989658054596,-95.27571974759249
"66044","Lawrence","KS","CrossFit Ajax","110 Riverfront Rd Ste A","66044",38.98702593168954,-95.23414850234985
"66044","Lawrence","KS","Lawrence Community Building","115 W 11th St","66044",38.96317705728447,-95.23678646224595
"66044","Lawrence","KS","G-Force Athletics","420 N 2nd St","66044",38.98568344116211,-95.23567962646484
"66044","Lawrence","KS","CrossFit Lawrence","815 E 12th St","66044",38.961251,-95.226145
"66044","Lawrence","KS","Body Boutique","2330 Yale Rd","66049",38.96666162504283,-95.2634247586362
"66044","Lawrence","KS","The Iron Gym","WBN 6","66044",38.962166,-95.241889
"66044","Lawrence","KS","Tuckaway Fitness","2600 W 6th St","66049",38.97199630737305,-95.26948547363281
"66044","Lawrence","KS","Yellow Brick Yoga","1410 Kasold Dr Ste A1","66049",38.9587522,-95.27799449999999
"66044","Lawrence","KS","East Lawrence Recreation Center","1245 E 15th St","66044",38.95647359278317,-95.22038274110001
"66044","Lawrence","KS","Highpointe Apartments Gym","not_available","66044",38.971993633620166,-95.2589890877377
"66044","Lawrence","KS","The Summit","901 New Hampshire St","66044",38.96734778835693,-95.23491065055748
"66044","Lawrence","KS","On The Treadmill","501 California St","66044",38.97444534301758,-95.25757598876953
"66044","Lawrence","KS","Robinson Health and Physical Education Center","1301 Sunnyside Ave","66045",38.95492766445586,-95.24971160147933
"66046","Lawrence","KS","Jim Thorpe Fitness Center","not_available","66046",38.93783244401383,-95.23045148560568
"66046","Lawrence","KS","Lawrence Snap Fitness","1800 E 23rd St Ste C","66046",38.94318079842343,-95.21265723063541
"66046","Lawrence","KS","Studio Alpha Training","2449 Iowa St","66046",38.93924693285466,-95.26156963143228
"66046","Lawrence","KS","The UndergroundLAB","919 E 29th St Ste C","66046",38.93065257361154,-95.22481505732155
"66046","Lawrence","KS","Crunch Fitness - Lawrence","1900 W 23rd St","66046",38.9438147,-95.2592317
"66046","Lawrence","KS","Snap Fitness","1800 E 23rd St","66046",38.94328308105469,-95.21158599853516
"66046","Lawrence","KS","The Workout Room","2408 Bryce Ct","66047",38.93881607055664,-95.27812957763672
"66046","Lawrence","KS","Triple Play Academy","not_available","66049",38.971248626708984,-95.28907775878906
"66046","Lawrence","KS","Planet Fitness","2525 Iowa St","66046",38.937735939380154,-95.26153144711779
"66046","Lawrence","KS","Chase Court Fitness Center","1942 Stewart Ave","66046",38.94977893080154,-95.2580044854564
"66047","Lawrence","KS","Genesis Health Clubs - Lawrence South","5200 Clinton Pkwy","66047",38.94356486731781,-95.31566703491562
"66047","Lawrence","KS","Remington Square gym","4100 W 24th Pl","66047",38.94157028198242,-95.2921371459961
"66047","Lawrence","KS","TITLE Boxing Club Lawrence","1520 Wakarusa Dr Ste J","66047",38.95590266599855,-95.30603625364533
"66047","Lawrence","KS","Legends Gym","4101 W 24th Pl","66047",38.94021809285911,-95.29176235198975
"66047","Lawrence","KS","Greg's Gym","not_available","66047",38.94862103333333,-95.30602351666667
"66047","Lawrence","KS","Unite Health & Fitness","4910 Wakarusa Ct Ste A","66047",38.94422149658203,-95.30876159667969
"66048","Leavenworth","KS","The Gym","1314-1320 Metropolitan Ave","66048",39.32849586009979,-94.93531286716461
"66048","Leavenworth","KS","MTC Gym","8 Sherman Ave","64079",39.32883071899414,-94.91590118408203
"66048","Leavenworth","KS","Osage Gym","747 Osage St","66048",39.320709228515625,-94.92137908935547
"66049","Lawrence","KS","Saddlebrooke Townhomes Gym","625 Folks Rd","66049",38.969707196640584,-95.2983437712349
"66049","Lawrence","KS","A Gym","5555 W 6th St","66049",38.9705924987793,-95.31949615478516
"66049","Lawrence","KS","Pure Barre","4821 W 6th St Ste L","66049",38.97005686039026,-95.30546046388986
"66050","Lecompton","KS","Big Springs","not_available","66050",39.01227544868301,-95.4797293120063
"66053","Louisburg","KS","Louisburg Athletic Club","not_available","66053",38.617408906626906,-94.67578122389855
"66061","Olathe","KS","Healthridge Fitness Center","17800 W 106th St","66061",38.93769733700436,-94.79228937312547
"66061","Olathe","KS","Anytime Fitness","1473 E 151st St","66062",38.85372,-94.79583
"66061","Olathe","KS","Olathe Community Center","1205 E Kansas City Rd","66061",38.89029351545891,-94.79847248913799
"66061","Olathe","KS","A House","21105 W 95th Ter","66220",38.95567321777344,-94.82943725585938
"66061","Olathe","KS","Olathe Family YMCA","21400 W 153rd St","66061",38.8503359054571,-94.83286647177728
"66061","Olathe","KS","Anytime Fitness","1251 W Harold St","66061",38.897308,-94.836917
"66061","Olathe","KS","Gym At Somerset","Somerset","66062",38.893961,-94.781263
"66061","Olathe","KS","Tr1be Fitness","10084 Woodland Dr","66220",38.945837824441845,-94.8176669711474
"66061","Olathe","KS","Pudgy Prodigies","not_available","66062",38.904824,-94.772312
"66061","Olathe","KS","The Soft Landing","S Woodland Street","66061",38.912385343035496,-94.81557201143039
"66061","Olathe","KS","Orangetheory Fitness","20144 W 153rd St","66062",38.851374,-94.818483
"66061","Olathe","KS","gym","9701 Renner Blvd","66219",38.95317840576172,-94.77832794189453
"66061","Olathe","KS","TNR Gym","707 N Lindenwood Dr","66062",38.89122772216797,-94.78507995605469
"66061","Olathe","KS","Olathe Jazzercise Fitness Center","2067 E Santa Fe St","66062",38.882130409123256,-94.78190807844601
"66061","Olathe","KS","Lifestyle Fitness","2075 East Santa Fe St","66062",38.881747999999995,-94.781941
"66061","Olathe","KS","Snap Fitness","11172 S Lone Elm Rd","66061",38.9296795569037,-94.81416441304938
"66061","Olathe","KS","DaSharks Gym","The Basement","66062",38.834928,-94.791133
"66061","Olathe","KS","Snap Fitness","16587 W 151st St","66062",38.854572890611536,-94.77724797118243
"66061","Olathe","KS","Millcreek Woods Fitness","1711 N Ridgeview Rd","66061",38.90998840332031,-94.79965209960938
"66062","Olathe","KS","Orangetheory Fitness","14995 W 119th St","66062",38.91058074893377,-94.75893815441104
"66062","Olathe","KS","Genesis Health Club","13370 S Blackfoot Dr","66062",38.885410991706095,-94.7661290313299
"66062","Olathe","KS","Prairie Life Fitness","13655 S Alden St","66062",38.88133253271613,-94.75545581728407
"66062","Olathe","KS","The Dunes at St. Andrews","11340 W 136th St","66221",38.88294902396434,-94.71690948482642
"66062","Olathe","KS","BioFit Fitness","9201 W 133rd St","66213",38.88605472051093,-94.69348998693312
"66062","Olathe","KS","Hunter's Pointe Gym","not_available","66210",38.91531506912914,-94.69438858632712
"66062","Olathe","KS","The Homestead Apartments Fitness Center","11800 S Shannan St, Olathe, KS 66062","66062",38.91546630859375,-94.75611877441406
"66062","Olathe","KS","Mel's Gym","not_available","66213",38.894739747047424,-94.71306502819061
"66062","Olathe","KS","Snap Fitness","14162 W 119th St","66062",38.913195073413775,-94.75011466367775
"66062","Olathe","KS","Genesis Health Clubs - Olathe","13370 South Blackfoot Drive","66062",38.8852814,-94.7660844
"66062","Olathe","KS","Highland Ridge Gym","11846 Perry St","66210",38.91450500488281,-94.70404815673828
"66064","Osawatomie","KS","Get CrunkED","not_available","66064",38.511385376725435,-94.93558734872252
"66067","Ottawa","KS","Fitness Spot","not_available","66067",38.61088618795618,-95.26327871496721
"66067","Ottawa","KS","Great Life Golf & Fitness","216 S Main St","66067",38.615179812466195,-95.26863636006046
"66071","Paola","KS","G&L Gym","119 W Wea St","66071",38.571746826171875,-94.87989044189453
"66071","Paola","KS","JD's Gym","105 E Peoria St","66071",38.572147369384766,-94.87608337402344
"66083","Spring Hill","KS","Spring Hill Snap Fitness","21231 W 223rd St","66083",38.72338104248047,-94.83134460449219
"66085","Stilwell","KS","ATI Gym","not_available","66223",38.838871935817345,-94.67373847961426
"66085","Stilwell","KS","Wilderness Fitness Center","not_available","66085",38.83710387362323,-94.63663415493306
"66085","Stilwell","KS","Plunkett Fitness Personal Training","16140 Foster St","66085",38.8340191808704,-94.67508700712017
"66101","Kansas City","KS","Phys Ed Kc","554 Central Ave","66101",39.10298156738281,-94.62444305419922
"66101","Kansas City","KS","US Courthouse Fitness Center","not_available","66101",39.11740160692305,-94.62245631525353
"66101","Kansas City","KS","8th Street Family YMCA","900 N 8th St","66101",39.11457594806977,-94.6305636272726
"66101","Kansas City","KS","Studio Moves","544 Central Ave","66101",39.10283372410431,-94.6244890842632
"66102","Kansas City","KS","Workout Room","not_available","66102",39.1246981,-94.7300005
"66102","Kansas City","KS","Harcros Fitness Center","5200 Speaker Rd","66106",39.09556362585362,-94.69822430470666
"66103","Kansas City","KS","CrossFit Matters","735 Southwest Blvd","66103",39.06288166979453,-94.61850796243114
"66103","Kansas City","KS","Kirmayer Recreation Center","3901 Rainbow Blvd","66160",39.05365482953887,-94.6109045122971
"66103","Kansas City","KS","Madison At Woodview Fitness Center","not_available","66103",39.04558665199523,-94.6426463052595
"66103","Kansas City","KS","Graves Gym of Mettle, Sweat and Kittens","1639 1/2 Southwest Blvd","66103",39.058433532714844,-94.63339233398438
"66104","Kansas City","KS","24 Hour Fitness Sauna","not_available","66203",39.133817152618754,-94.73279289400567
"66105","Kansas City","KS","Argentine Community Center","2810 Metropolitan Ave","66106",39.07366180419922,-94.6611557006836
"66106","Kansas City","KS","Sweet Z's Boxing Club","2416 S 34th St","66106",39.057957,-94.66838
"66106","Kansas City","KS","My Gym","S. 88th St","not_available",39.06580385270682,-94.78408019645566
"66109","Kansas City","KS","The Tini Bikini","not_available","64152",39.21291762596089,-94.7383211264484
"66109","Kansas City","KS","Byrda Dance And Gym","2929 N 103rd Ter","66109",39.14076355210622,-94.81551500360852
"66109","Kansas City","KS","Providence YMCA/Ball Family Center","8601 Parallel Pkwy","66112",39.12751995927284,-94.77999872649333
"66109","Kansas City","KS","Washington HS Small Gym","7340 Leavenworth Rd","66109",39.144012451171875,-94.74874114990234
"66109","Kansas City","KS","Anytime Fitness","10940 Parallel Pkwy Ste P","66109",39.1298,-94.834
"66109","Kansas City","KS","Jillian Michaels 30 Day Shred","not_available","66109",39.14120101928711,-94.80571746826172
"66111","Kansas City","KS","Sam's Gym!","10142 Riverview Ave","66111",39.10298156738281,-94.81593322753906
"66115","Kansas City","KS","VML Gym","250 NW Richards Rd","64116",39.12043380737305,-94.59038543701172
"66115","Kansas City","KS","GM Fairfax Body Work","not_available","66115",39.14660345518132,-94.60599413354038
"66202","Mission","KS","Planet Fitness","6765 Johnson Dr","66202",39.021359030962394,-94.6625233150187
"66202","Mission","KS","Genesis Health Clubs - KC Racquet Club","6501 Frontage Rd","66202",39.0104097,-94.692014
"66202","Mission","KS","Sylvester J. Powell Jr. Community Center","6200 Martway St","66202",39.02040607585148,-94.65679879109298
"66202","Mission","KS","Crossfit I-35","4203 Merriam Dr","66203",39.04129299105452,-94.67779851778698
"66202","Mission","KS","Roeland Park Dome","4850 Rosewood Dr","66205",39.04160329836299,-94.64590796621552
"66202","Mission","KS","Barnone Training- Mission","5809 Johnson Dr","66202",39.02199172973633,-94.65309143066406
"66202","Mission","KS","Silverwood Gym","not_available","66202",39.03732,-94.665947
"66202","Mission","KS","Ringside Boxing","6501 Frontage Rd, Merriam, KS 66202","66202",39.01128406163591,-94.69181343581448
"66202","Mission","KS","Argo Badger Wrestling Practice","7329 w 63rd st","66202",39.014895,-94.67066369999999
"66202","Mission","KS","Pinegate Gym","9002 W 64th Ter","66202",39.01278305053711,-94.68850708007812
"66202","Mission","KS","My Healthy Fit Life","6506 Floyd St","66202",39.010974374775856,-94.66915574708987
"66202","Mission","KS","Fitpit","3439 Merriam Dr","66203",39.04279327392578,-94.67078399658203
"66202","Mission","KS","Irene B French Community Center","5701 Merriam Dr","66203",39.025257834502035,-94.69302481998703
"66202","Mission","KS","Curves","6518 Martway St","66202",39.021221999999995,-94.660933
"66202","Mission","KS","SlinkFit","5304 Martway St","66205",39.015818353974474,-94.64894743733556
"66202","Mission","KS","The Boulevard Gym","not_available","66205",39.04224476963388,-94.64711100336038
"66203","Shawnee","KS","Shawnee Mission Med Life Dynamics Building","9120 W 75th","66204",38.993551819750735,-94.6925969989951
"66203","Shawnee","KS","The Sweat Shop","11311 Shawnee Mission Pkwy","66203",39.013763427734375,-94.71773529052734
"66203","Shawnee","KS","The Fit Pit","6238 Merriam Dr","66203",39.01608773622926,-94.6976450946408
"66203","Shawnee","KS","Krav Maga and Fitness Center","6242 Merriam Dr","66203",39.01658927186073,-94.6978432294194
"66203","Shawnee","KS","Georgetown Fitness Center","not_available","66204",38.99881294717064,-94.69261121457996
"66203","Shawnee","KS","Tricep Dip Machine","730-7336 Metcalf Ln","66204",38.995038,-94.667885
"66203","Shawnee","KS","Curves","6230 Nieman Rd","66203",39.015862,-94.715262
"66204","Overland Park","KS","Matt Ross Community Center","8101 Marty St","66204",38.98214244026782,-94.66925349906344
"66204","Overland Park","KS","Tim Crough Fitness","7331 W 79th St","66204",38.9853515625,-94.67091369628906
"66204","Overland Park","KS","The Highlands Fitness Center","10020 W 80th St","66204",38.98310050013169,-94.69965034914271
"66205","Mission","KS","Crosstraining Club","48th And Rainbow","66205",39.041529065662814,-94.61226077148808
"66205","Mission","KS","Woodside Studios","2001 W 47th Pl","66205",39.042653,-94.610162
"66206","Leawood","KS","JQ's Bfit2","3955 W 83rd St","66208",38.97839444374835,-94.6315592932815
"66206","Leawood","KS","Snap Fitness","8015 State Line Rd","64114",38.982534325912404,-94.60793333419561
"66206","Leawood","KS","Mindful Child Aerial Yoga","8016 State Line Rd Ste 206","66208",38.9829055,-94.60825589999999
"66206","Leawood","KS","Health House","8029 State Line Rd","64114",38.982243907863904,-94.6079544445474
"66206","Leawood","KS","Elite Cycling","10673 Mission Rd","66206",38.93418833613396,-94.62917894124985
"66206","Leawood","KS","The Lakes Of Schaumburg Gym #2","Belinder","60173",38.96273422241211,-94.61827087402344
"66206","Leawood","KS","rEvolution","3851 West 95th Street","66206",38.95599817,-94.62904344
"66207","Overland Park","KS","Orangetheory Fitness","9538 Nall Ave","66207",38.955554,-94.65129
"66207","Overland Park","KS","JQ's Bfit2","4563 Indian Creek Pkwy","66207",38.935885999999996,-94.637799
"66207","Overland Park","KS","Cambridge Square Gym","not_available","66207",38.9343188840813,-94.64624890612332
"66207","Overland Park","KS","Curves","5340 W 95th St","66207",38.957077310097674,-94.64760542180505
"66207","Overland Park","KS","Front Door Fitness","9005 Roe Avenue","66207",38.96575002,-94.63907133
"66208","Prairie Village","KS","Title Boxing Club","8029 State Line Road","64114",38.98205488,-94.60766557
"66208","Prairie Village","KS","Paul Henson Family YMCA","4200 W 79th St","66208",38.98629894671271,-94.63382257881945
"66208","Prairie Village","KS","AYC Health & Fitness","7830 State Line Rd Ste 101","66208",38.9858769,-94.6085162
"66208","Prairie Village","KS","Corey Scott Personal Training Studio","not_available","66208",38.99359689263148,-94.62634948013721
"66208","Prairie Village","KS","Fitness Together","11 On The Mall","66208",39.00186587,-94.63145054
"66208","Prairie Village","KS","2020 Fitness","3710 W 73rd Ter","66208",38.996002197265625,-94.62885284423828
"66208","Prairie Village","KS","Power Life Yoga Barre Fitness","4145 Somerset Dr","66208",38.980692,-94.6331892
"66209","Leawood","KS","Genesis Health Club","12075 Metcalf Ave","66213",38.91002521852114,-94.66621883626169
"66209","Leawood","KS","CYCLEBAR","5053 W 117th St","66211",38.915087111345684,-94.64402765035629
"66209","Leawood","KS","results","6924 W 135th St","66223",38.885573,-94.666081
"66209","Leawood","KS","Anytime Fitness","13154 Stateline Rd","66209",38.889771,-94.609729
"66209","Leawood","KS","Power Life Yoga Barre Fitness","11832 Roe Ave","66211",38.9149392,-94.6405327
"66209","Leawood","KS","Weston Point Gym","not_available","66209",38.88575384566255,-94.65098070426805
"66209","Leawood","KS","10 Miles","11728-11898 W 119th St","66210",38.91284,-94.665119
"66209","Leawood","KS","Pure Barre","11954 Roe Ave","66209",38.91131955727404,-94.64090966701872
"66209","Leawood","KS","Deer Creek Apartments Gym","12849 Metcalf Ave","66213",38.895800444036,-94.66597775869857
"66209","Leawood","KS","Kosama","4800 W 135th St","66224",38.88492202758789,-94.6421890258789
"66209","Leawood","KS","YogaSix","6555 W 119th St","66209",38.912397,-94.660422
"66209","Leawood","KS","Health House","5029 W 117th St","66211",38.91516876220703,-94.64334106445312
"66209","Leawood","KS","iLoveKickboxing - Overland Park","6912 W 135th St","66223",38.885990209352144,-94.66629454457393
"66209","Leawood","KS","CorePower Yoga","4921 W. 119th Street","66209",38.9117095,-94.6421065
"66209","Leawood","KS","24 Hour Fittness","11100-11198 Nall Ave","66211",38.91283412266432,-94.60846440331017
"66210","Overland Park","KS","SnapIT Gym","7780 W 119th St","66213",38.91518783569336,-94.67431640625
"66210","Overland Park","KS","Title Boxing Club","7812 W 119th St","66213",38.9132926495029,-94.67485581726271
"66210","Overland Park","KS","MW Builders Gym","10955 Lowell Ave, Overland Park, KS 66210","66210",38.93035888671875,-94.67584228515625
"66210","Overland Park","KS","Midtown Tennis","6766-6798 W 110th St","66211",38.92986667154731,-94.66358057715551
"66210","Overland Park","KS","Snap Fitness - Overland Park","11118 Antioch Rd","66210",38.92672844231129,-94.68641057610512
"66210","Overland Park","KS","Cleveland YMCA Express","8205 W 108th Ter Ste 100","66210",38.932215,-94.681016
"66210","Overland Park","KS","""the Gym""","10206 W 118th Ter","66210",38.914310455322266,-94.70446014404297
"66210","Overland Park","KS","Doubletree KC Fitness Center","not_available","66212",38.92865854802828,-94.70252887878699
"66210","Overland Park","KS","JCCC Lifetime Fitness Center","12345 College Blvd","66210",38.92373275756836,-94.73177337646484
"66210","Overland Park","KS","Autumn Park 24 Hour Fitness Center","8400 W 108th Ter","66210",38.933162689208984,-94.68346405029297
"66210","Overland Park","KS","Genesis Health Clubs - Overland Park","6700 W 110th St","66211",38.9301237,-94.6636033
"66211","Leawood","KS","J Fit Jewish Community Center of Greater Kansas City","5801 W 115th St","66211",38.91804860444236,-94.65360438656253
"66211","Leawood","KS","Revolve Gym","11450 Lamar Ave","66211",38.922224,-94.658434
"66211","Leawood","KS","YRC GYM","not_available","66211",38.93040579351906,-94.6407596388585
"66211","Leawood","KS","Tuilerie's Gym","107th & Lamar","66211",38.93285529695966,-94.66105914426637
"66211","Leawood","KS","Sprint Campus Fitness Center","6400 Sprint Pkwy","66251",38.91636841909375,-94.65877832000726
"66211","Leawood","KS","Sandpit Fitness","6600 College Blvd Ste 100","66211",38.92796217547337,-94.66145065260578
"66211","Leawood","KS","Tomahawk Creek Gym","11600 Tomahawk Creek Pkwy","66211",38.91804885864258,-94.63465118408203
"66211","Leawood","KS","Orangetheory Fitness","11614 Ash St","66211",38.91747873545645,-94.64818775653839
"66211","Leawood","KS","Black & Veatch Fitness Center","11401 Lamar Ave","66211",38.924383242737306,-94.65588507450774
"66212","Overland Park","KS","Prairie Life Fitness","10351 Barkley St","66212",38.94090806977947,-94.663837589811
"66212","Overland Park","KS","Smart Fitness Kansas City","6701 W 91st St, Overland Park, KS 66212","66212",38.96357727050781,-94.66336059570312
"66212","Overland Park","KS","W. E. Fit","6875 W 91st St","66212",38.96381903761961,-94.66565787501885
"66212","Overland Park","KS","SM West Gym","8800 W 85th St","66212",38.97631282737585,-94.68855680144846
"66212","Overland Park","KS","O-Lifting Advantage","6701 W 91st St","66212",38.96357727050781,-94.66336059570312
"66212","Overland Park","KS","Kosama","8809 W 95th St, Overland Park, KS 66212","66212",38.95595106524377,-94.68853208850857
"66212","Overland Park","KS","KC Fitness Co.","10420 Mastin St","66212",38.940634,-94.702825
"66212","Overland Park","KS","The Athletic Club of Overland Park","10440 Marty St","66212",38.94001626790021,-94.67193805947407
"66212","Overland Park","KS","Body Blast Boot Camp","91st","66212",38.9637661,-94.66571089
"66212","Overland Park","KS","Fitness  Stride","10308 Metcalf Ave","66212",38.941049,-94.669512
"66213","Overland Park","KS","Tomahawk Ridge Community Center","11902 Lowell Ave","66213",38.91223266615833,-94.67797899437636
"66213","Overland Park","KS","Kosama","11408 W 135th St","66221",38.88417542129153,-94.71966761455408
"66213","Overland Park","KS","My Gym","8532 W 133rd St","66213",38.886954014313815,-94.68489510473721
"66213","Overland Park","KS","ERE Nordic Track","12130 Bluejacket St","66213",38.90678787231445,-94.70956420898438
"66213","Overland Park","KS","The Cheer Pit","not_available","66221",38.885869,-94.719211
"66213","Overland Park","KS","The Preserve at Overland Park Gym","12401 W 120th St","66213",38.908050537109375,-94.7263412475586
"66213","Overland Park","KS","Lifestyle Fitness","12140 W 135th St","66221",38.885685,-94.72653300000002
"66213","Overland Park","KS","Crossfit Wild Prairie","7400 W 121st St","66213",38.908445,-94.670345
"66213","Overland Park","KS","Fitness Together - Leawood Overlandpark","13370 Metcalf Ave","66213",38.8857213,-94.6682561
"66214","Overland Park","KS","Training for Warriors - Overland Park","8255 Melrose Dr","66214",38.97901687364755,-94.70586593988116
"66214","Overland Park","KS","Planet Fitness","9331 Quivira Rd","66215",38.959596999999995,-94.72314
"66214","Overland Park","KS","Carlyle gym","not_available","66214",38.977970123291016,-94.71529388427734
"66214","Overland Park","KS","68's Inside Sports","11301 W 88th St","66214",38.968059018606716,-94.71696603484752
"66214","Overland Park","KS","68's Inside Sports Indoor Training Facility","9111 Flint St","66214",38.96250045887617,-94.71697485981504
"66215","Lenexa","KS","TopSpeed Strength & Conditioning","13932 W 108th St","66215",38.93333,-94.74777399999999
"66215","Lenexa","KS","Jazzercise","12948 W 87th Street Pkwy","66215",38.971796431555326,-94.73641078001698
"66215","Lenexa","KS","Curves","12820 W 87th","not_available",38.971594396725074,-94.73392477194704
"66215","Lenexa","KS","iRise Performance","12831 W 87th Street Pkwy","66215",38.97032928466797,-94.73471069335938
"66215","Lenexa","KS","Brazil Academy","11441 Strang Line Rd","66215",38.92075622118746,-94.76015145905005
"66215","Lenexa","KS","Lenexa Community Center","13420 Oak St","66215",38.959707880031374,-94.74130674446408
"66215","Lenexa","KS","Oak Park Village Fitness Center","not_available","66215",38.951293480589555,-94.72581518012367
"66215","Lenexa","KS","Rosehill Pointe Gym","12701 W 88th Cir","66215",38.969134000000004,-94.734833
"66215","Lenexa","KS","title fight store","14711 W 112th St","66215",38.924753,-94.758533
"66216","Shawnee","KS","Planet Fitness","13320 W 62nd Ter","66216",39.015846727102385,-94.74004312800501
"66216","Shawnee","KS","Home Gym","72xx Noland","66216",38.99762342,-94.738630325
"66216","Shawnee","KS","Prairie Lakes Fitness Center","not_available","66216",39.006994,-94.760468
"66216","Shawnee","KS","Orangetheory Fitness","11900 Shawnee Mission Pkwy","66216",39.01530075073242,-94.72451782226562
"66216","Shawnee","KS","Element Fitness","7880 Quivira Rd","66216",38.98613339200818,-94.72507219527438
"66217","Shawnee","KS","Okun Fieldhouse","20200 Johnson Dr","66218",39.0341971283287,-94.82027803881405
"66217","Shawnee","KS","Millcreek Activity Center","6518 Vista Dr","66218",39.01007302196675,-94.81873650332183
"66217","Shawnee","KS","Shawnee Fitness Club","not_available","66218",38.998558,-94.815902
"66217","Shawnee","KS","Tuckaway Apartments Gym","7150 Lackman Rd","66217",39.000789871887356,-94.7626994859321
"66218","Shawnee","KS","PUNCH Boxing + Fitness","5421 Martindale Rd","66218",39.03002166748047,-94.82176971435547
"66219","Lenexa","KS","The Gym @ The Trails","9031 Renner Blvd","66219",38.96493911743164,-94.77786254882812
"66219","Lenexa","KS","West End @ City Center Gym","8620 Cardinal St","66219",38.97161697383617,-94.78748499722717
"66219","Lenexa","KS","Pure Barre","16970 City Center Drive","66219",38.9688826932812,-94.78269741097894
"66219","Lenexa","KS","Supreme Fitness","15906 B 87th Street Pkwy","66219",38.97138218,-94.77060116
"66219","Lenexa","KS","Orangetheory Fitness","17140 W 87th St","66219",38.971024,-94.78408
"66219","Lenexa","KS","Lowdown Gym","11559 S Lennox St","66061",38.91889953613281,-94.79276275634766
"66223","Overland Park","KS","Anytime Fitness","14820 Metcalf Ave","66223",38.85967,-94.66834
"66223","Overland Park","KS","Life Time Fitness","6800 W 138th St","66223",38.87902579,-94.66450038
"66223","Overland Park","KS","Gym @ L.A.L.G","6655 W 141st St","66223",38.873506545020085,-94.66677678940054
"66223","Overland Park","KS","KC Boot Camp","6855 W 152nd Ter","66223",38.85000228881836,-94.66505432128906
"66223","Overland Park","KS","Title Boxing Club","14868 Metcalf Ave, Overland Park, KS 66223","66223",38.859062465795574,-94.66893106301546
"66223","Overland Park","KS","Kansas City Athletic Cheer","6855 W 152nd Ter Ste 1","66223",38.849932,-94.665143
"66223","Overland Park","KS","SKO Fitness LLC","15110 Glenwood Ave","66223",38.853505,-94.664204
"66223","Overland Park","KS","Orangetheory Fitness","13621 Metcalf Ave","66223",38.88136206056592,-94.66719388961792
"66223","Overland Park","KS","Blue Ding Champions Baseball Academy","153rd","66223",38.849259,-94.663997
"66223","Overland Park","KS","Sandstone Gym","7501-7533 W 139th Terrace","66213",38.876333,-94.670423
"66223","Overland Park","KS","Body Solutions","8571 W 135th St","66223",38.88277104814536,-94.68477571916095
"66223","Overland Park","KS","Front Door Fitness","14878 Metcalf Avenue","66223",38.85893719,-94.66907125
"66223","Overland Park","KS","Hustle and Heart Fitness","8300 W 151st St","66223",38.85526614017497,-94.68328714370728
"66223","Overland Park","KS","Corbin Crossing Fitness Center","6801 W 138th Ter","66223",38.876853598195645,-94.66451925043772
"66223","Overland Park","KS","Fairways Fitness Center","13820 Russell St","66223",38.878562927246094,-94.65991973876953
"66224","Overland Park","KS","Fitness Quest","2313 W 143rd St","66224",38.868961687005815,-94.61294845553168
"66224","Overland Park","KS","Iron Tribe Fitness Leawood","not_available","66224",38.879706614828336,-94.64072937201563
"66224","Overland Park","KS","Workout Spot!","not_available","64131",38.87651583013293,-94.61135829074664
"66224","Overland Park","KS","His & Hers Fitness","5328 W 151st St","66224",38.85559217199047,-94.64694
"66224","Overland Park","KS","My Gym","3453 W 143rd Ter","66224",38.86814880371094,-94.6261215209961
"66224","Overland Park","KS","PRECISE FITNESS","4833 W 135th St","66224",38.88289,-94.64255
"66224","Overland Park","KS","Crossfit Explore","1920 143rd St","66224",38.869693756103516,-94.61004638671875
"66227","Lenexa","KS","G.R.I.T.T. Fitness LLC","23704 W 83rd Ter","66227",38.977378845214844,-94.86067199707031
"66409","Berryton","KS","YMCA","6320 SE Stubbs Rd","66409",38.952096999999995,-95.514517
"66436","Holton","KS","Lifecare Fitness Center","115 E 5th St","66436",39.464562,-95.733829
"66441","Junction City","KS","Long Fitness Center","8069 Normandy Dr","66442",39.11055789379022,-96.80365780668647
"66441","Junction City","KS","Gym","1810 Caroline Ave","66441",39.00607681274414,-96.86137390136719
"66441","Junction City","KS","Great Life Golf And Fitness","663 Country Club Terrace","66441",39.02826927016707,-96.85422605724041
"66441","Junction City","KS","Craig Fitness Center","7024 Apennines Drive","66442",39.105870836285824,-96.81977391242981
"66441","Junction City","KS","WTB Gym","not_available","66442",39.08117557659315,-96.76857844751748
"66441","Junction City","KS","Crossfit Manhattan Kansas","2181 W 52nd Ave","66502",39.13255,-96.666611
"66441","Junction City","KS","Robinson Fitness Center","7832 Hale St","66442",39.11477843137204,-96.80791854858398
"66441","Junction City","KS","King Field House","202 Main Post","66442",39.06155318339332,-96.78129821315972
"66441","Junction City","KS","Leonard Fitness Center","7632 Normandy Drive","66442",39.114476029096295,-96.81443594910887
"66441","Junction City","KS","Wayne Manor Workout Room","not_available","66441",39.02986501893009,-96.87409497716463
"66441","Junction City","KS","Geary Rehabilitation & Fitness Center","104 S Washington St","66441",39.022738000000004,-96.82987800000001
"66502","Manhattan","KS","The Fitness Center","not_available","66502",39.193992449575376,-96.59919824621782
"66502","Manhattan","KS","K-State CrossFit","1001-1099 Denison Ave","66502",39.18866045051497,-96.58491023245658
"66502","Manhattan","KS","Holiday Inn Gym","1641 Anderson Ave","66502",39.1853583264775,-96.58259689807892
"66502","Manhattan","KS","Maximum Performance Studio","4201 Anderson Ave","66503",39.1898307800293,-96.64076232910156
"66502","Manhattan","KS","Manhattan Fit Body Boot Camp","612 Fort Riley Blvd","66502",39.174534,-96.566041
"66502","Manhattan","KS","Curves","2312 Stagg Hill Rd","66502",39.168067932128906,-96.59623718261719
"66502","Manhattan","KS","Maximum Performance","426 McCall Rd","66502",39.188846588134766,-96.55335998535156
"66502","Manhattan","KS","PhloVibe Martial Arts","8055 E US Highway 24 Ste C","66502",39.195184,-96.5286364
"66502","Manhattan","KS","Max Fitness","457 E Poyntz Ave","66502",39.18508964915345,-96.55334274336862
"66502","Manhattan","KS","Genesis Health Clubs - Manhattan","3011 Anderson Ave","66502",39.1881117,-96.6146342
"66502","Manhattan","KS","Konza Strength","205 S 4th St Ste A","66502",39.1780158,-96.5614078
"66502","Manhattan","KS","K.O. Boxing","2048 Tuttle Creek Blvd Ste B","66502",39.20770501938753,-96.57244553786975
"66502","Manhattan","KS","Westchester Park Apartments Fitness Center","not_available","66503",39.205396043834675,-96.61938907388821
"66502","Manhattan","KS","Community Building","201-221 N 4th St","66502",39.18041594504752,-96.56181174491738
"66502","Manhattan","KS","Wildcat Creek Fitness","800 Anneberg Cir","66503",39.183437307705695,-96.62786722183228
"66502","Manhattan","KS","Prime Time Fitness Club Inc","1129 Garden Way","66502",39.18898391723633,-96.6104965209961
"66502","Manhattan","KS","Pro Fitness","1125 Laramie St","66502",39.18442952293556,-96.57462639122207
"66508","Marysville","KS","Athletic Warehouse",".","66508",39.842440636342104,-96.64742477589878
"66508","Marysville","KS","Oak Tree Exercise Room","not_available","66508",39.840945478820906,-96.61445422448008
"66538","Seneca","KS","Seneca Fitness Center","not_available","66538",39.83429578975132,-96.06405423034866
"66542","Tecumseh","KS","Anytime Fitness","3627 SE 29th St Ste 109","66605",39.01385,-95.61236
"66547","Wamego","KS","Get Big","421 Lincoln St","66547",39.1991766227741,-96.31526835748696
"66547","Wamego","KS","Wamego Athletic Club","not_available","66547",39.20667266845703,-96.30828857421875
"66547","Wamego","KS","Bettencourt Gym","Kansas Dept of Transportation, 1425 W US Highway 24, Wamego, KS 66547-1256","66547-1256",39.20962142944336,-96.31365966796875
"66547","Wamego","KS","Flint Hills Fitness","490 E US Highway 24","66547",39.20173191596115,-96.30529592067681
"66603","Topeka","KS","WE Fitness Center","818 S Kansas Ave","66612",39.048004150390625,-95.67449951171875
"66603","Topeka","KS","Sunflower Strength & Conditioning","125 N Kansas Ave","66603",39.059882,-95.670264
"66603","Topeka","KS","Ramada Gym","not_available","66612",39.05087402074224,-95.66831126616447
"66604","Topeka","KS","Summit Woods Gym","1310 SW Overlook Dr","66615",39.04275894165039,-95.76870727539062
"66604","Topeka","KS","Mike's Gym","5501 SW Avalon Ln","66604",39.04110336303711,-95.74768829345703
"66604","Topeka","KS","Residence Inn-Topeka Fitness Room","not_available","66604",39.05094,-95.75031
"66604","Topeka","KS","Student Recreation & Wellness Center","1700 SW College Ave","66621",39.032547384949794,-95.70093283957719
"66604","Topeka","KS","Marriott Exercise Room","SW Westridge Mall","66604",39.03014015,-95.76388481666666
"66604","Topeka","KS","Maximus Fitness & Wellness","5515 SW 21st St","66604",39.0284,-95.748358
"66604","Topeka","KS","TITLE Boxing Club Topeka","1550 SW Wanamaker Rd","66604",39.03639148145284,-95.76219270444653
"66604","Topeka","KS","Ryans Gym","1617 SW Mulvane St","66604",39.037649,-95.699383
"66605","Topeka","KS","Shawnee Country Club","913 SE 29th St","66605",39.01212118164257,-95.66518484396741
"66605","Topeka","KS","Maximus","2900 SE California Ave","66605",39.011748827898444,-95.6574344201304
"66605","Topeka","KS","Top City Athletics","5005 SW Topeka Blvd","66609",39.00546721769138,-95.66563637324884
"66606","Topeka","KS","Own The Line","not_available","66606",39.05859849352881,-95.69321520742587
"66606","Topeka","KS","Fitness In Training","801 SW Fairlawn Rd","66606",39.054325,-95.743975
"66607","Topeka","KS","Strength Guild Topeka","3532 SE 2nd St","66607",39.051869787257544,-95.6203452080826
"66608","Topeka","KS","Genesis Health Clubs - Topeka North","2020 NW Topeka Blvd #200","66608",39.0861062,-95.6641834
"66608","Topeka","KS","Genesis Health Club","2020 NW Topeka Blvd","66608",39.085690147637486,-95.66319880648109
"66609","Topeka","KS","Wood Valley Racquet Club","2909 SW 37th St","66614",38.999551000000004,-95.71342299999999
"66609","Topeka","KS","Performance Fitness with Keith Fine","905 SW 37th Ter","66609",38.999551000000004,-95.689486
"66609","Topeka","KS","Forbes Fitness Center","5920 SE Coyote Dr","66619",38.960914611816406,-95.68165588378906
"66609","Topeka","KS","Trail","45th Street","66509",38.98739840424009,-95.68423320778882
"66609","Topeka","KS","Pinnacle Fitness","907 SW 37th Ter","66609",38.999674945773876,-95.68972066489572
"66609","Topeka","KS","Topeka","2905 SW Topeka Blvd","66611",39.014528,-95.6892713
"66609","Topeka","KS","Maximus at Wood Valley","2909 SW 37th St, Topeka","66614",38.99973135734441,-95.71386149424382
"66610","Topeka","KS","Treadmill Of Death","not_available","66610",38.99218805549265,-95.77110416542358
"66610","Topeka","KS","YMCA Southwest","3635 SW Chelsea Dr","66614",39.000824322019874,-95.7488575217522
"66612","Topeka","KS","YWCA Topeka","225 SW 12th St","66612",39.04305641146761,-95.67951845057333
"66614","Topeka","KS","ChaLee Basement Workout","not_available","66614",39.012979,-95.752797
"66615","Topeka","KS","D&W Gym","not_available","66618",39.08062744140625,-95.82869720458984
"66618","Topeka","KS","Fit Lifestyle","2136 NW 53rd Terrace","66618",39.14361055,-95.69041029
"66701","Fort Scott","KS","Life Center","not_available","66701",37.81709451017966,-94.71287263425452
"66710","Altoona","KS","Kore 7 Fitness","6473 Pullman Dr","43035",37.59999999999999,-95.665
"66713","Baxter Springs","KS","Blue Line Gym","not_available","66713",37.02447296597769,-94.73537502467967
"66713","Baxter Springs","KS","Spring River Mental Health & Wellness","6610 SE Quakervale Rd","66770",37.08089828491211,-94.71204376220703
"66713","Baxter Springs","KS","quapaw gym","Main St, Quapaw, OK 74363","74363",37.02474536736598,-94.77724673260091
"66720","Chanute","KS","Inertia Health & Fitness","2816 S Santa Fe Ave","66720",37.715924,-95.452526
"66725","Columbus","KS","Gym","833 Southeast Ave, Columbus, KS 66725","66725",37.1746392,-94.8416543
"66749","Iola","KS","Truckers Track","not_available","66749",37.92341983550028,-95.3837468318749
"66762","Pittsburg","KS","Jumpin Jakes","3002 N Broadway St","66762",37.437530517578125,-94.7041015625
"66762","Pittsburg","KS","Z-Fit Pittsburg, LLC","not_available","66762",37.405836,-94.704081
"66762","Pittsburg","KS","Pinamonti Wellness Center","1014 S Mount Carmel Pl","66762",37.37959671020508,-94.68759155273438
"66762","Pittsburg","KS","Clubhouse","2609 S Springdale St","66762",37.38025316379899,-94.67695062368146
"66762","Pittsburg","KS","Phase 1 Fitness","101-151 E 9th St","66762",37.415875,-94.682203
"66762","Pittsburg","KS","Frontenac Recreation Center & Gym","222 E McKay St","66763",37.45471954345703,-94.68778228759766
"66762","Pittsburg","KS","SEK Crossfit","Pittsburg","66762",37.41852190987554,-94.70849852268083
"66801","Emporia","KS","Emporia Fitness","not_available","66801",38.412493429166005,-96.21734196652685
"66801","Emporia","KS","Genesis Health Clubs","1007 Commercial St","66801",38.41018124507337,-96.18055966174279
"66801","Emporia","KS","Emporia Recreation Center","313 W 4th Ave","66801",38.402147,-96.184725
"66846","Council Grove","KS","Council Grove Life Center","300 N Union St","66846",38.666197656517085,-96.48709939849839
"66901","Concordia","KS","Dumbbells","238 W 6th St","66901",39.571944,-97.662687
"66952","Lebanon","KS","Tracy's Training Tent","500 Walnut St, Lebanon, KS 66952","66952",39.807718076653906,-98.557753335059
"66953","Linn","KS","Linn High School Gym","300 Parkview St","66953",39.683799743652344,-97.08430480957031
"66967","Smith Center","KS","The Gym","1900 N Grant St","66967",39.778645997286404,-98.77421113220245
"67002","Andover","KS","Andover YMCA","1115 Old U.S. 54","67002",37.67770672759161,-97.12338924407959
"67002","Andover","KS","Rogue Personal Training","118 E 13th St #100","67002",37.715418423457756,-97.13559851827804
"67005","Arkansas City","KS","Anytime Fitness","2127 N Summit St","67005",37.086603000000004,-97.041258
"67005","Arkansas City","KS","Fit Zone","1400-1598 N C St","67005",37.0800742,-97.0341799
"67005","Arkansas City","KS","Fit Zone 24/7","1817 N Summit St","67005",37.083966,-97.04064
"67010","Augusta","KS","Anytime Fitness","217 W 7th Ave","67010",37.67867,-96.98088
"67020","Burrton","KS","SheStrength by Anna Woods","4516 N Kent Rd","67522",38.1036849,-97.80886749999999
"67030","Colwich","KS","Northwest YMCA","13838 W 21st St N","67235",37.722898175920896,-97.50314932188552
"67037","Derby","KS","Dole Center Gym","McConnell AFB","67210",37.62709316795762,-97.25308828515189
"67037","Derby","KS","The Greens Clubhouse","1500 E Tall Tree Rd","67037",37.57097735996406,-97.24990367889404
"67037","Derby","KS","Oaklawn Activity Center","4904 S Clifton Ave","67216",37.60313415527344,-97.29203796386719
"67037","Derby","KS","Kansas Strength & Performance","401 E Industrial Suite 8","67052",37.54828,-97.267134
"67037","Derby","KS","Feel The Beat","1606 N Nelson Dr","67037",37.56332263652484,-97.27567822809488
"67037","Derby","KS","Fairways Fitness Center","1401 E Patriot Ave","67037",37.57651727272054,-97.25009652709238
"67037","Derby","KS","SLC4 Fitness","11621 E Calais Rd","67210",37.632405,-97.202607
"67037","Derby","KS","Love 139 Wellness","411 N Osage Rd","67037",37.547523498535156,-97.24711608886719
"67037","Derby","KS","Laselva MMA & Fitness","402 N River St #100","67037",37.5666389465332,-97.27542877197266
"67042","El Dorado","KS","El Dorado YMCA","300 N Main St","67042",37.82067285793142,-96.84942279632048
"67114","Newton","KS","Gym","600 Mockingbird Ln","67114",38.037296295166016,-97.38716125488281
"67114","Newton","KS","CrossFit Old 81","125 W 6th St Ste B","67114",38.04803860405515,-97.34649972453205
"67120","Peck","KS","Hampton Inn & Suites Fitness Center","785 Kansas Star Dr","67110",37.469062,-97.327733
"67124","Pratt","KS","Pratt Community Center","619 N Main St","67124",37.65184,-98.739761
"67147","Valley Center","KS","Omega Training","100 W 61st St N Ste A","67204",37.79659362032577,-97.33854532241821
"67147","Valley Center","KS","Synergy Fun & Fitness Center","600 S Ramsey Dr","67147",37.82597195035573,-97.37124681472778
"67147","Valley Center","KS","Livin' Right Womens Fitness","320 S Meridian Ave","67147",37.82934329928957,-97.37166929622123
"67152","Wellington","KS","Fitness Center","208 N Washington Ave","67152",37.26709569880662,-97.39824696285291
"67156","Winfield","KS","Winfield Recreation Commission","624 College St","67156",37.24303238751555,-96.97783948175427
"67202","Wichita","KS","Stay Fit @ Hyatt Regency Wichita","400 W Waterman St","67202",37.68262841725613,-97.34196835288945
"67202","Wichita","KS","Downtown YMCA","402 N Market St","67202",37.692292271745806,-97.33587646137275
"67202","Wichita","KS","Ambassador Hotel Gym","104 S Broadway Ave","67202",37.685574,-97.335347
"67202","Wichita","KS","Eaton Place Fitness Room","517 E Douglas Ave","67202",37.6856689453125,-97.3321533203125
"67202","Wichita","KS","Drury Plaza Fitness Center","400 W Douglas Ave","67202",37.686339839811836,-97.34241206389392
"67202","Wichita","KS","Hotel at Old Town Fitness Center","830 E 1st St N","67202",37.688432,-97.327866
"67202","Wichita","KS","Raising the Bar","811 W Douglas Ave","67213",37.68387839164986,-97.3498947416668
"67202","Wichita","KS","250 Douglas Fitness Center","250 W Douglas Ave","67202",37.686724109765265,-97.34017610549927
"67202","Wichita","KS","High Touch Level 10 Fitness Center","110 S Main St Ste 600","67202",37.68546729272493,-97.33816360860429
"67202","Wichita","KS","Genesis Health Clubs - Downtown Wichita","505 W Maple","67213",37.6798476,-97.3464739
"67202","Wichita","KS","Wheels Studio","501 S Saint Francis Ave","67202",37.680899447755245,-97.33185052871704
"67202","Wichita","KS","CrossFit Wichita","535 S Saint Francis St","67202",37.679914474275726,-97.33242988586426
"67202","Wichita","KS","Forge Fitness","330 N Mosley St","67202",37.69089,-97.32721
"67202","Wichita","KS","Fairfield Inn and Suites Gym","525 S Main St","67202",37.680202,-97.338657
"67203","Wichita","KS","Planet Fitness","2021 N Amidon Ave","67203",37.7199561,-97.3638952
"67203","Wichita","KS","Jim Maynard's Fast Pitch","2313 N Amidon Ave","67204",37.7251630301691,-97.36494822379233
"67203","Wichita","KS","Genesis Health Club","3725 W 13th St N","67203",37.70861144894188,-97.38712446444698
"67205","Wichita","KS","Orangetheory Fitness","2835 N Maize Rd","67205",37.73518809412354,-97.4629293163684
"67205","Wichita","KS","Barre Forte","2835 N Maize Rd #167","67205",37.735112,-97.463029
"67205","Wichita","KS","Jazzercise Wichita","2260 N Ridge Rd Ste 140","67205",37.72493816379371,-97.42499828338623
"67205","Wichita","KS","Fit Physique Fitness Center","2112 N Maize Rd","67212",37.72093263937812,-97.4636435508728
"67205","Wichita","KS","Berkshire Apartments Fitness Center","8820 W Westlawn St","67212",37.7210578918457,-97.44551849365234
"67206","Wichita","KS","East YMCA","9333 E Douglas Ave","67207",37.685735835037725,-97.22868337264732
"67206","Wichita","KS","Orangetheory Fitness","1423 N Webb Rd","67206",37.70895004272461,-97.22785186767578
"67206","Wichita","KS","Genesis Health Clubs - Rock Road","1551 N. Rock Road","67206",37.7117385781674,-97.24524825835424
"67206","Wichita","KS","Wichita Country Club","8501 E 13th St N","67206",37.70567802454899,-97.23666685303293
"67206","Wichita","KS","Opti-Life Health & Fitness Center","9758 E 21st St N","67206",37.723171,-97.22489
"67206","Wichita","KS","Cresthill Suites Workout Room","12111 E Central Ave","67230",37.69337181660285,-97.19708561897278
"67206","Wichita","KS","Premier Fitness","11414 E Central Ave","67206",37.69434327061927,-97.20553610298586
"67206","Wichita","KS","Pure Barre","1423 N Webb Rd Ste 119","67206",37.70959608072991,-97.22758263229514
"67206","Wichita","KS","Hilton Garden Inn Gym","2041 N Bradley Fair Pkwy","67206",37.720695016717094,-97.24179267883301
"67206","Wichita","KS","Best Western Plus Fitness Center","8300 E Kellogg Dr","67207",37.680056,-97.239075
"67206","Wichita","KS","My Gym Wichita","2434 N Woodlawn Blvd #370","67220",37.72178314410639,-97.22505654573341
"67206","Wichita","KS","Williamson Wellness Center","8340 E 21st St N","67206",37.723760999999996,-97.240113
"67206","Wichita","KS","Kapaun Wrestling Room","8506 E Central Ave","67206",37.695660416847836,-97.23910506186927
"67206","Wichita","KS","Elite Wellness","8100 E 22nd St N","67226",37.72627639770508,-97.24303436279297
"67206","Wichita","KS","Apex Personal Training","6429 E Central Ave","67206",37.69324414675247,-97.2613215712398
"67206","Wichita","KS","Optimal Performance","11444 E Central Ave","67206",37.69431787717418,-97.20445707763635
"67206","Wichita","KS","Omnicut Motivational Fitness","11015 E 26th St N","67206",37.69438552856445,-97.20894622802734
"67206","Wichita","KS","Wichita Marriott Fitness Center","9100 E Corporate Hills Dr","67207",37.68193810486657,-97.23058488054657
"67206","Wichita","KS","Hampton Inn Fitness Center","9449 E Corporate Hills Dr","67207",37.681655,-97.228121
"67207","Wichita","KS","Holiday Inn Fitness Center","549 S Rock Rd","67207",37.677829546719884,-97.24548273762866
"67207","Wichita","KS","Claremont Apartments Gym","9100 E Harry St","67207",37.665133,-97.230862
"67207","Wichita","KS","The Club Fitness Center","2200 S Rock Rd","67207",37.65294149934429,-97.24353075027466
"67208","Wichita","KS","Heskett Center","1845 Fairmount St","67260",37.720275646148174,-97.2918983695968
"67208","Wichita","KS","Genesis Health Clubs - East Central","6100 E. Central","67208",37.695341084224786,-97.26655216674628
"67209","Wichita","KS","Anytime Fitness","215  S Maize Rd","67209",37.6807,-97.46303
"67209","Wichita","KS","DoubleTree Fitness Center","2098 S Airport Rd","67209",37.65630516334634,-97.42926836013794
"67209","Wichita","KS","SpringHill Suites Gym","6633 W Kellogg Dr","67209",37.672026,-97.419434
"67209","Wichita","KS","Compelled Fitness","9223 W Kellogg Dr","67209",37.66818930676382,-97.45001754810465
"67209","Wichita","KS","Elite Training Solutions","2007 S West St","67213",37.65840034045649,-97.391142387957
"67209","Wichita","KS","Holiday Inn Fitness Center","1236 S Dugan Rd","67209",37.671293597932035,-97.41536220097983
"67211","Wichita","KS","Cox Gym","801 E Lincoln St","67211",37.671357566933324,-97.30834372234226
"67211","Wichita","KS","Fundamental Fitness","257 S Hillside St","67211",37.682828,-97.299334
"67211","Wichita","KS","Wichita Fit Body Boot Camp","1520 E Douglas Ave","67214",37.686215,-97.318724
"67211","Wichita","KS","ICT Dodgeball","2020 E Blake St","67211",37.65154842215924,-97.3120665550232
"67212","Wichita","KS","Genesis Health Clubs - West Central","854 N. Socora","67212",37.69724943294812,-97.43605013155494
"67212","Wichita","KS","West YMCA","6940 W Newell St","67212",37.69276103448679,-97.42271517169698
"67212","Wichita","KS","Newport Fitness Center","777 N Silver Springs Blvd","67212",37.69736862182617,-97.42147064208984
"67212","Wichita","KS","Zeal Fitness Studio","841 N Tyler Rd","67212",37.696468412617655,-97.44484612523262
"67212","Wichita","KS","Bishop Carroll Weight Room","8101 W Central Ave","67212",37.693979356571916,-97.43769446222285
"67212","Wichita","KS","Cheer Eclipse","1441 N Ridge Rd","67212",37.70978052592577,-97.42647886276245
"67212","Wichita","KS","CrossFit 316","7540 W Northwind St","67205",37.693033,-97.459222
"67214","Wichita","KS","Zen Fit","2214 E Douglas Ave","67214",37.68649486786648,-97.3103928565979
"67215","Wichita","KS","South YMCA","3405 S Meridian Ave","67217",37.63097919156522,-97.37655919253433
"67216","Wichita","KS","The Gym at Royal Caribbean Cruise Lines","4729 S Palisade Ave","67217",37.60855405411308,-97.34238624572754
"67217","Wichita","KS","Planet Fitness","3113 S Seneca St","67217",37.6390038,-97.3533425
"67217","Wichita","KS","Curves","2610 S Seneca St","67217",37.64679137626581,-97.35227823257446
"67218","Wichita","KS","VASA Fitness","1607 S Georgetown St","67218",37.66335477280108,-97.28648900985718
"67218","Wichita","KS","Southeast High Gym","903 S Edgemoor St","67218",37.67117505932317,-97.27343364695622
"67219","Wichita","KS","Anytime Fitness","1615 E 61st St N Stes 100-200","67219",37.79548,-97.31798
"67219","Wichita","KS","S&P Sports Complex","3679 N St Francis St #3603","67219",37.749387417448396,-97.33216498274624
"67220","Wichita","KS","North YMCA","3330 N Woodlawn Blvd","67220",37.74401783082236,-97.25925424434942
"67220","Wichita","KS","Inside Out Fitness","4065 N Woodlawn Ct #2","67220",37.756335366682,-97.26272812545373
"67220","Wichita","KS","Aloft Gym","3642 N Oliver St","67220",37.748692,-97.279446
"67220","Wichita","KS","Tall Oaks Gym","2330 N Oliver St","67220",37.72572326660156,-97.2783203125
"67220","Wichita","KS","Olde English Manor Fitness Center","2323 N Woodlawn Blvd","67220",37.72698850357507,-97.26573694758004
"67226","Wichita","KS","Planet Fitness","3535 N Rock Rd, Ste 200","67226",37.74723614831276,-97.24689960479735
"67226","Wichita","KS","GoTimeTraining","11010 E 28th St N","67226",37.73594109646984,-97.2104800471949
"67226","Wichita","KS","Candlewood Suites Gym","3141 N Webb Rd","67226",37.74083931616233,-97.22881078720091
"67226","Wichita","KS","Courtyard by Marriott Fitness Center","2975 N Webb Rd","67226",37.737037,-97.227792
"67226","Wichita","KS","Towneplace Suites Gym","9444 E 29th St N","67226",37.738399,-97.22844
"67226","Wichita","KS","Gym @ Windermere at Tallgrass","8220 E Oxford Cir","67226",37.730699,-97.241573
"67226","Wichita","KS","Hampton Inn & Suites Fitness Center","2433 N Greenwich Rd","67226",37.727862,-97.208548
"67226","Wichita","KS","Gym @ Villas at Waterford","8510 E 29th St N","67226",37.738325,-97.238262
"67226","Wichita","KS","HOTWORX","2564 N Greenwich Rd Ste 300","67226",37.728694915771484,-97.2071304321289
"67226","Wichita","KS","Eaglerock Fitness Center","7627 E 37th St N","67226",37.751078,-97.24876
"67226","Wichita","KS","NetApp Gym","3718 N Rock Rd","67226",37.75032407630291,-97.24076271057129
"67230","Wichita","KS","Bob Cobb Gym","1000 N 127th St E","67206",37.701313,-97.188638
"67301","Independence","KS","Legacy Fitness Center","120 W 8th St","67337",37.03641128540039,-95.61659240722656
"67301","Independence","KS","Hampton Gym","not_available","67301",37.13284,-95.78558
"67301","Independence","KS","Palm Beach Fitness","110 W 9th St","67337",37.03526306152344,-95.61617279052734
"67301","Independence","KS","Cornerstone Family Fitness.","2801 W Main St","67301",37.224287624324916,-95.74066223128274
"67333","Caney","KS","Iron Revolution","South McGee","67333",37.009875,-95.928704
"67335","Cherryvale","KS","The Muscle Factory","not_available","67335",37.32882262641735,-95.53773923047932
"67336","Chetopa","KS","Oswego Fitness Center","1025 S Commercial St","67356",37.15964126586914,-95.1095962524414
"67337","Coffeyville","KS","Integral Health & Fitness","1503 W 11th St","67337",37.03256607055664,-95.64031219482422
"67357","Parsons","KS","Performance Enhancement Center","2100 Commerce Dr","67357",37.31780676666666,-95.26791
"67357","Parsons","KS","Parsons Community Center","200 Heacock Ave","67357",37.33921432495117,-95.25067901611328
"67357","Parsons","KS","Tonya's Gym","not_available","67357",37.34441467439329,-95.27617558957307
"67357","Parsons","KS","Bouman's Fitness Center","21004 Ness Rd","67357",37.29659652709961,-95.28662872314453
"67401","Salina","KS","Genesis Health Club Salina","1849 S Old Hwy 81","67401",38.81107672565893,-97.61357412135166
"67401","Salina","KS","YMCA","570 Ymca Dr","67401",38.83101798122342,-97.60174633232923
"67401","Salina","KS","Curves","1907 S Ohio Ct","67401",38.78984735,-97.60624621
"67401","Salina","KS","Shinzenkan Dojo","911 W Crawford St","67401",38.82620155161506,-97.62075988420739
"67401","Salina","KS","Memorial Hall","ash street","not_available",38.843448301095876,-97.61366943244288
"67401","Salina","KS","Kanza Fencing Club","not_available","67401",38.83542251586914,-97.5965805053711
"67401","Salina","KS","Muscle By Design","305 Lamar St","67401",38.821485,-97.60656
"67401","Salina","KS","Next Level Fitness","155 S 5th St","67401",38.838439916666665,-97.60804628333334
"67401","Salina","KS","Driven Fitness Center","330 N 9th St","67401",38.846340000000005,-97.611874
"67401","Salina","KS","Genesis Health Clubs - Salina","1830 S 9th St","67401",38.8119469,-97.6143021
"67401","Salina","KS","Humphrey's Gym","1125 Wilbre Rd","67401",38.82785415649414,-97.59278869628906
"67401","Salina","KS","Planet Fitness","2012 S Ohio St","67401",38.808447,-97.595665
"67420","Beloit","KS","Wellness Center","3033 US 24 Hwy","67420",39.482975006103516,-98.11042785644531
"67460","Mcpherson","KS","Hess Fitness Center","1000 Hospital Dr","67460",38.3788948059082,-97.67081451416016
"67460","Mcpherson","KS","CT Fit","119 N Main St","67460",38.36648429171898,-97.66736845103232
"67460","Mcpherson","KS","Body Construction","405 Walnut St","67460",38.36956688735086,-97.66639112066342
"67460","Mcpherson","KS","Genesis Health Clubs - McPherson","601 N Main","67460",38.37508043143238,-97.66761521509201
"67501","Hutchinson","KS","Genesis Health Clubs - Hutchinson","412 E 30th St","67502",38.0876965,-97.923453
"67501","Hutchinson","KS","Hutchinson YMCA","716 E 13th Ave","67501",38.06677375946532,-97.916186965646
"67501","Hutchinson","KS","Planet Fitness","401 E 4th Ave","67501",38.056553,-97.923708
"67501","Hutchinson","KS","Zod's Alpha Gym","The Phantom Zone","not_available",38.060830640962564,-97.90821492951116
"67501","Hutchinson","KS","North gym","Severance","67502",38.06890464129235,-97.9139311597029
"67502","Hutchinson","KS","Dye's Fitness Center","not_available","67502",38.172489166259766,-97.95207977294922
"67514","Arlington","KS","Sabres Gym","not_available","67501",37.89726598637662,-98.1867841285186
"67530","Great Bend","KS","Image Total Fitness","1209 Main St","67530",38.36381912231445,-98.76553344726562
"67530","Great Bend","KS","The Fieldhouse","not_available","67530",38.360067,-98.777893
"67530","Great Bend","KS","Club 1 Fitness","3806 Broadway Ave","67530",38.37748670013256,-98.76669178764293
"67530","Great Bend","KS","Anytime Fitness","3721 10th St.","67530",38.361268,-98.78987099999999
"67530","Great Bend","KS","Curves","2100 Washington St","67530",38.37280433821624,-98.77408740293787
"67550","Larned","KS","Unique Physique","not_available","67550",38.18829603471042,-99.10347507666852
"67554","Lyons","KS","Fitness First Platinum Avenue K","Avenue K","not_available",38.3769645690918,-98.20356750488281
"67579","Sterling","KS","Sterling Community Wellness Center","401-499 N 4th St","67579",38.21619729566036,-98.20268156202408
"67601","Hays","KS","Munsch Fitness","1104 E 22nd St","67601",38.877736,-99.31589
"67601","Hays","KS","Center For Health Improvement","2500 Canterbury Dr","67601",38.88211538686669,-99.29711719974095
"67601","Hays","KS","SouthWind CrossFit","229 W 10th St","67601",38.87273712360413,-99.33357966656249
"67601","Hays","KS","Old Hays High Gym","2300 E 13th St","67601",38.870033264160156,-99.29550170898438
"67601","Hays","KS","R&M Gym","1304 W 45th St","67601",38.904258728027344,-99.34114074707031
"67601","Hays","KS","Main Street 24 Hour Gym & Fitness","806 Main St","67601",38.8709208031367,-99.33112079586846
"67601","Hays","KS","Baymont Gym","3801 Vine St","67601",38.897257,-99.319337
"67601","Hays","KS","SouthWind Fitness","301 E 10th St","67601",38.870371,-99.327229
"67601","Hays","KS","Towneplace Gym","not_available","67601",38.898961,-99.315311
"67637","Ellis","KS","Ellis Weight Room","not_available","67637",38.93667551471728,-99.56451465328396
"67654","Norton","KS","Define Gym and Salon","104 S 2nd Ave","67654",39.82897186279297,-99.8915023803711
"67661","Phillipsburg","KS","Wellness Center Corporation","520 S 7th St","67661",39.74439239501953,-99.318115234375
"67701","Colby","KS","Crossfit Colby","200 N Franklin Ave","67701",39.3953971862793,-101.04623413085938
"67701","Colby","KS","Jump Start Fitness Center","415 N Franklin Ave","67701",39.397363,-101.045596
"67701","Colby","KS","Forever Together Yoga","230 E 4th St","67701",39.396854400634766,-101.04420471191406
"67735","Goodland","KS","Goodland Activities Center - GAC","808 Main St","67735",39.35100173950195,-101.71207427978516
"67801","Dodge City","KS","CrossFit RUK","114 Poplar St","67801",37.7435417175293,-100.01786041259766
"67801","Dodge City","KS","Sheridan Activity Center","298 San Jose","67801",37.77743369830312,-100.01005116065956
"67801","Dodge City","KS","Anytime Fitness","2203 Central Ave","67801",37.77311,-100.01693
"67846","Garden City","KS","Fit Body Boot Camp","306 N Main St","67846",37.966957092285156,-100.87356567382812
"67846","Garden City","KS","Fitness Center","not_available","67846",37.9809841033962,-100.8413464464657
"67846","Garden City","KS","Project Fitness","1016 W Mary St","67846",37.98931121826172,-100.88184356689453
"67846","Garden City","KS","Garden City Recreation","310 N 6th St","67846",37.96676254272461,-100.87077331542969
"67846","Garden City","KS","YMCA","1224 Center St","67846",37.97737063258563,-100.85844257322789
"67859","Kismet","KS","Southwest Fitness & Racquetball","1530 N Western Ave","67901",37.05534835061698,-100.94088077545166
"67951","Hugoton","KS","Stevens County Wellness Center","837 E 11th St","67951",37.16904067993164,-101.33256530761719
