"zip","city","state","name","address","postalCode","lat","lon"
"85003","Phoenix","AZ","Roosevelt Square Fitness Center","121 W Portland St","85003",33.4597639660859,-112.07475671574585
"85003","Phoenix","AZ","Gym @ Fairfield","not_available","85003",33.47616157661509,-112.07476992688257
"85003","Phoenix","AZ","Lifestart Fitness Center","40 N Central Ave","85004",33.448326743241715,-112.07443152534982
"85003","Phoenix","AZ","Renaissance Athletic Club","2 N Central Ave","85004",33.44844887216982,-112.07407208028516
"85003","Phoenix","AZ","Maricopa County Attorney's Office Gym","301 W Jefferson St","85003",33.447723388671875,-112.0784912109375
"85003","Phoenix","AZ","2800 Gym","2800 N Central Ave","85004",33.47877502441406,-112.07449340820312
"85003","Phoenix","AZ","Body Pump!","not_available","85004",33.45338346096413,-112.07545108396546
"85003","Phoenix","AZ","44 Monroe Gym","44 W Monroe St","85003",33.450574,-112.074924
"85003","Phoenix","AZ","ROC Gymbrarium","not_available","not_available",33.47369803069918,-112.07332795832198
"85003","Phoenix","AZ","Central Park Square Athletic Club","2020 N Central Ave","85004",33.470436,-112.074061
"85003","Phoenix","AZ","Ck Fitness Studio","McDowell","85003",33.46573,-112.07388
"85004","Phoenix","AZ","Mountainside Fitness Platinum","401 E Jefferson St","85004",33.44654545447412,-112.06667428884842
"85004","Phoenix","AZ","EōS Fitness","1 E Washington St #250","85004",33.44794123210831,-112.07303303085496
"85004","Phoenix","AZ","The Warehouse","321 E Lincoln St","85004",33.442845992258746,-112.06902118564945
"85004","Phoenix","AZ","Gannett Fitness Center","200 E Van Buren St","85004",33.451839447021484,-112.07084655761719
"85004","Phoenix","AZ","Stay Fit Gym at Hyatt","122 N 2nd St","85004",33.44995446537287,-112.07162612254248
"85004","Phoenix","AZ","Phoenix Suns/Mercury IASIS Healthcare Training Facility","230 South Third Street","85004",33.445191,-112.06965
"85004","Phoenix","AZ","WestinWORKOUT Fitness Center","333 N Central Ave","85004",33.45180785166161,-112.07281016343097
"85004","Phoenix","AZ","The gym at Alta Phoenix Lofts","600 N 4th St","85004",33.455005253167045,-112.06881964620868
"85006","Phoenix","AZ","Tangible Fitness","1500 E Thomas Rd Ste 110","85014",33.48031478499672,-112.04888463020323
"85006","Phoenix","AZ","The Stamski Gym","not_available","85006",33.450825,-112.060288
"85006","Phoenix","AZ","Copperhead Crossfit","2109 E McDowell Rd","85006",33.46529684403805,-112.03646706310587
"85006","Phoenix","AZ","Calballo Loco Gym","11OO e osborn","85014",33.48005130745933,-112.06423816682086
"85007","Phoenix","AZ","Central Boxing Club","1755 W Van Buren St","85007",33.451072118492235,-112.09786278475467
"85007","Phoenix","AZ","Rodriguez Boxing Gym","1350 W Roosevelt St","85007",33.45894241333008,-112.09095001220703
"85008","Phoenix","AZ","Planet Fitness","3975 E Thomas Rd","85018",33.478433,-111.996531
"85008","Phoenix","AZ","Curves","2012 N 51st St","85008",33.469688415527344,-111.97295379638672
"85008","Phoenix","AZ","Spark Crossfit","5444 E Washington St","85034",33.446628000000004,-111.963582
"85008","Phoenix","AZ","Allen Readiness Center Gym","not_available","85018",33.472146359210555,-111.96542160852005
"85008","Phoenix","AZ","Indigo Palms Gym","3777 E McDowell Rd","85008",33.464393615722656,-112.0013198852539
"85008","Phoenix","AZ","Crossfit Full Strength","4633 E Thomas Rd","85018",33.478539532507874,-111.99966871295022
"85008","Phoenix","AZ","Iron 90","4201 E Thomas Rd","85018",33.479934,-111.991009
"85008","Phoenix","AZ","Monte Verde Gym","not_available","85008",33.46353749589608,-112.00362587757428
"85008","Phoenix","AZ","Club 44 (GYM)","410 N 44th St","85008",33.45270844412597,-111.98971657808472
"85008","Phoenix","AZ","Gym @ Red Mountain Villas","815 N 52nd St, Phoenix, AZ 85008","85008",33.457244873046875,-111.96758270263672
"85008","Phoenix","AZ","CST Gym","5636 E McDowell Rd","85008",33.468839,-111.966214
"85008","Phoenix","AZ","PERA Club Gym","not_available","85281",33.454764294803326,-111.94153934427004
"85008","Phoenix","AZ","Residence Inn Fitness Center","801 N 44th St","85008",33.456561,-111.986149
"85008","Phoenix","AZ","Palazzo Townhomes Fitness Center","886 N Cofco Center Ct","85008",33.46291012663863,-111.99073481537833
"85008","Phoenix","AZ","Chavez Boxing Gym","2309 N 24th St Ste A","85008",33.4736938,-112.0298991
"85008","Phoenix","AZ","Gold's Gym Elite","1 E Washington St","85004",33.4684820979181,-112.01297018867344
"85008","Phoenix","AZ","Aloft Gym","4450 E Washington St","85034",33.44876952655028,-111.98598222425512
"85009","Phoenix","AZ","Rock Solid Fitness","410 N 44th St, Phoenix, AZ 85008","85008",33.4759414802825,-112.1067495022593
"85009","Phoenix","AZ","Real Deal Pro-Wrestling Arena","1764-1938 S 35th Ave","85009",33.43219086,-112.13559245
"85009","Phoenix","AZ","Falcon's Wrestling Gym","3333 N. Roosevelt","85009",33.45700137261552,-112.13004198891768
"85009","Phoenix","AZ","MCSO Fitness Center","not_available","85009",33.42498592818364,-112.13274637779631
"85009","Phoenix","AZ","Falcon's Weight Room","3333 W Roosevelt St","85009",33.45684051513672,-112.13236999511719
"85012","Phoenix","AZ","The Station on Central","4140 N Central Ave","85012",33.495938,-112.075503
"85012","Phoenix","AZ","Muscle Factory","not_available","85012",33.48639206345727,-112.06958846946662
"85012","Phoenix","AZ","24 Hour Fitness","not_available","85014",33.48594347949492,-112.06543747394817
"85012","Phoenix","AZ","Gym","1 W Campbell Ave","85013",33.50147909861899,-112.07419079646483
"85012","Phoenix","AZ","Phoenix Plaza Fitness Center","Thomas","not_available",33.481523516253716,-112.07266241404116
"85012","Phoenix","AZ","Monarch Gym","Coolidge St.","85013",33.489336,-112.06822
"85012","Phoenix","AZ","TriFIT Wellness","505 E Camelback Rd","85012",33.509043,-112.066741
"85012","Phoenix","AZ","Major League Conditioning Center","6200 N. 7th","85012",33.52760696411133,-112.06537628173828
"85012","Phoenix","AZ","Sports Club at City Square","4000 N Central Ave","85012",33.49240741480846,-112.07565484886842
"85012","Phoenix","AZ","NPBC Family Life Center","5757 N Central Ave","85012",33.52129884905345,-112.07110057801064
"85012","Phoenix","AZ","Curves On Central","3636 N Central Ave","85012",33.49048,-112.075033
"85012","Phoenix","AZ","Now, Voyager Counseling Hypnosis","3819 N 3rd Street","85012",33.49186262,-112.06879224
"85012","Phoenix","AZ","Apartments At Steele Park Gym","411 E Indian School Rd","85012",33.49308348061682,-112.06746337020122
"85012","Phoenix","AZ","Third Avenue Palms Fitness Center","3633 N 3rd Ave","85013",33.48953845546894,-112.07720964729685
"85012","Phoenix","AZ","Gym at Landmark Towers","4750 N Central Ave","85012",33.50685944850069,-112.07478849659483
"85013","Phoenix","AZ","LA Fitness","710 W Camelback Rd","85013",33.51136200487606,-112.08342471248312
"85013","Phoenix","AZ","Orangetheory Fitness","3350 N 7th Ave","85013",33.48733532640289,-112.08449055772792
"85013","Phoenix","AZ","Aura at Midtown","3626 N 5th Ave","85013",33.49009163442884,-112.08032440790574
"85013","Phoenix","AZ","Fitness Room At Hawthornes","3848 N 3rd Ave","85013",33.49334716796875,-112.08008575439453
"85013","Phoenix","AZ","Fitness Center at Colter Park","909 W Colter St","85013",33.51235580444336,-112.08443450927734
"85014","Phoenix","AZ","The Heritage Apartment Homes","1100 E Osborn Road","85014",33.48820915284504,-112.05768908427649
"85014","Phoenix","AZ","Youfit Health Clubs","1515 E Bethany Home Rd","85014",33.522537372274876,-112.04852730988853
"85014","Phoenix","AZ","CorePower Yoga","5539 N 7th St Ste 116","85014",33.5183002,-112.0634413
"85014","Phoenix","AZ","FIIT Training Center","4828 N 16th St","85016",33.508576684129046,-112.04767377360986
"85014","Phoenix","AZ","32 Fitness","1000 E Camelback Rd","85014",33.509451,-112.060433
"85014","Phoenix","AZ","Regency Park Gym","6333 N 12th St","85014",33.53021,-112.055555
"85014","Phoenix","AZ","CrossFit Boot Camps","4717 N 7th St","85014",33.50601577758789,-112.0645980834961
"85014","Phoenix","AZ","Citi Clubhouse and Gym","911 E Camelback Rd","85014",33.50904905252948,-112.06104863039351
"85014","Phoenix","AZ","Carlyle Gym","5303 N 7th St","85014",33.514365999999995,-112.064249
"85014","Phoenix","AZ","Gym At Partenza","1320 E Highland Ave","85014",33.50651168823242,-112.05345153808594
"85014","Phoenix","AZ","Pamela Young Fitness","1095 E Indian School Rd Ste 500","85014",33.4945194,-112.0583242
"85014","Phoenix","AZ","Pure Barre","5505 N 7th St Ste 130","85014",33.5168320372334,-112.06458805136435
"85014","Phoenix","AZ","Handemon","Bethany Home Road","85014",33.523334,-112.063234
"85014","Phoenix","AZ","Phoenix Country Club Fitness Center","2901 N 7th St","85014",33.48139226077664,-112.06001919397252
"85015","Phoenix","AZ","Christown YMCA","5517 N 17th Ave","85015",33.517419039175486,-112.09469111086143
"85015","Phoenix","AZ","Planet Fitness","1625 W Camelback Rd","85015",33.50858684300972,-112.09490336796529
"85015","Phoenix","AZ","Anytime Fitness Christown","1703 W Bethany Home Rd, Suite T10","85015",33.52237319946289,-112.09640502929688
"85015","Phoenix","AZ","ideal rehabilitation","59th And Union Hills","85308",33.5248002910268,-112.10038595945903
"85015","Phoenix","AZ","Home Gym - Temporary","not_available","85015",33.53464449357437,-112.09679973138034
"85015","Phoenix","AZ","Estates on Maryland","1802 W Maryland Ave","85015",33.53184102666386,-112.0970835138228
"85016","Phoenix","AZ","Life Time Biltmore","2580 E. Camelback Rd","85016",33.5096016,-112.0254993
"85016","Phoenix","AZ","LA Fitness","2077 E Camelback Rd","85016",33.50688822254393,-112.03727602958679
"85016","Phoenix","AZ","Biltmore Promenade Gym/Fitness Center","2625 E Indian School Rd","85016",33.494793545326125,-112.02496545929633
"85016","Phoenix","AZ","Anytime Fitness","3135 E Indian School Rd","85016",33.49429,-112.01364
"85016","Phoenix","AZ","GYM","not_available","85016",33.51397978106831,-112.04145122557762
"85016","Phoenix","AZ","Camby Jim","2401 E Camelback Rd","85016",33.50871658325195,-112.02941131591797
"85016","Phoenix","AZ","F45 Training Biltmore","3147 E Lincoln Dr","85016",33.5305954,-112.0135779
"85016","Phoenix","AZ","i workout!","1701 E Colter St","85016",33.511844635009766,-112.04542541503906
"85016","Phoenix","AZ","camelback commons fitness center","4722 N 24th st","85016",33.506561279296875,-112.031005859375
"85016","Phoenix","AZ","Studio Verve Pilates","3172 E Indian School Rd","85016",33.4960222,-112.0140681
"85016","Phoenix","AZ","TriCore Fitness","1824 E Indian School Rd","85016",33.49503,-112.04185
"85016","Phoenix","AZ","Fitness Center at Homewood Suites","2001 E Highland Ave","85016",33.505146,-112.037999
"85016","Phoenix","AZ","Orangetheory Fitness","1928 E Highland Ave","85016",33.5062014,-112.0414425
"85016","Phoenix","AZ","LaGym","4644 N 22nd St","85016",33.50300216674805,-112.03573608398438
"85016","Phoenix","AZ","Colonade Gym","5023 N. 18th St","85016",33.510440826416016,-112.04205322265625
"85017","Phoenix","AZ","K.O. boxing gym","not_available","85017",33.485387733588645,-112.11670439178641
"85017","Phoenix","AZ","the Battle Grounds Gym","2625 Indian school rd","85017",33.503666,-112.120502
"85017","Phoenix","AZ","Gorillas Gym","3102 W Thomas Rd","85017",33.480838775634766,-112.12699890136719
"85017","Phoenix","AZ","Youfit Health Clubs","6135 N 35th Ave","85017",33.52641941739334,-112.13082075119019
"85018","Phoenix","AZ","Sanctuary Spa (at Sanctuary Resort)","5700 E McDonald Dr","85253",33.522732498145615,-111.95978078278326
"85018","Phoenix","AZ","Camelback Village Racquet & Health Club","4444 East Camelback Road","85018",33.5106834,-111.9846534
"85018","Phoenix","AZ","Pure Barre","4219 E Indian School Rd Ste 101","85018",33.49474111446511,-111.9903337159559
"85018","Phoenix","AZ","Orangetheory Fitness","3923 E Camelback Rd","85018",33.509618,-111.996118
"85018","Phoenix","AZ","Gym @ Bulbstorm Inc.","5050 N 40th St","85018",33.51198,-111.996181
"85018","Phoenix","AZ","The Fitness Studio","4250 E Camelback Rd Ste K205","85018",33.50993728637695,-111.9887924194336
"85018","Phoenix","AZ","Studio 360","3627 E Indian School Rd Ste 102","85018",33.49453363979161,-112.0032009703346
"85018","Phoenix","AZ","Orangetheory Fitness","5109 N 44th St Ste D401","85018",33.51124580828489,-111.98590638588408
"85018","Phoenix","AZ","Paradise Valley Country Club Gym","not_available","85253",33.54465065,-111.97856088333333
"85018","Phoenix","AZ","Peak Performance Personal Training","3734 E Indian School Rd","85018",33.495609283447266,-112.00041961669922
"85018","Phoenix","AZ","Newton Fitness","3243 E Indian School Rd","85018",33.494825,-112.01060700000001
"85018","Phoenix","AZ","Gym @ Capri On Camelback","5011 N 40th st.","85018",33.51211805603345,-111.99411261078508
"85018","Phoenix","AZ","The Training Room","3550 E Indian School Rd","85018",33.495497,-112.004581
"85018","Phoenix","AZ","Belsito Gym","6400 N 48th St","85253",33.530487,-111.97953500000001
"85018","Phoenix","AZ","Ultimate Body Boot Camp","Arcadia Park","85018",33.48815277140983,-111.96170359517596
"85019","Phoenix","AZ","workout at christian's","3721 W Bethany Home Rd, Phoenix, AZ 85019","85019",33.52371597290039,-112.13953399658203
"85020","Phoenix","AZ","Gym Of Death","not_available","85020",33.55158521,-112.05111653
"85020","Phoenix","AZ","Mirador Apartments Gym","not_available","85022",33.60113484,-112.047552
"85020","Phoenix","AZ","EōS Fitness","2150 E Cactus Rd Ste 112","85022",33.5974279,-112.0352932
"85020","Phoenix","AZ","Orangetheory Fitness","742 E Glendale Ave","85020",33.53875719149068,-112.06331379851791
"85020","Phoenix","AZ","Apartment Gym","1550 e. Thunderbird, behind office","not_available",33.600983,-112.046804
"85020","Phoenix","AZ","Chuckwalla CrossFit","10 E Ruth Ave","85020",33.563201904296875,-112.07335662841797
"85020","Phoenix","AZ","Koko FitClub of Phoenix","6819 N 16th St Ste 7","85016",33.536895751953125,-112.04732513427734
"85020","Phoenix","AZ","Tocasierra Spa, Salon.& Fitness","7767 N. 16th St","85020",33.54657397071216,-112.04043555945296
"85020","Phoenix","AZ","Underground Fitness","9822 N 7th St Ste 2-3","85020",33.57605739286477,-112.06581071786908
"85020","Phoenix","AZ","Curves","1227 E Northern Ave","85020",33.55275182220333,-112.05542294707648
"85020","Phoenix","AZ","Koko FitClub of Phoenix","6819 N 16th St","85016",33.53707504272461,-112.04711151123047
"85020","Phoenix","AZ","Anytime Fitness","111 E Dunlap Ave Ste 9","85020",33.56673,-112.07299
"85020","Phoenix","AZ","Results Only Fitness","7030 North 7th Street","85020",33.5393525,-112.0656084
"85021","Phoenix","AZ","LA Fitness","2200 W Northern Ave","85021",33.554283256683405,-112.10627065533231
"85021","Phoenix","AZ","MV Fitzone","801 W Peoria Ave","85029",33.58084,-112.083798
"85021","Phoenix","AZ","Tyrannosaurus Flex","not_available","85021",33.55307202878667,-112.09128020566823
"85021","Phoenix","AZ","Hardknocks Gym","2602 W Townley Ave Ste 2","85021",33.566192626953125,-112.1148681640625
"85021","Phoenix","AZ","M.P GYM","8902 N 19th Ave","85021",33.5659065246582,-112.1019515991211
"85021","Phoenix","AZ","Spring Hill Suites Fitness Center","9426 Black Canyon Fwy","not_available",33.57222,-112.116199
"85021","Phoenix","AZ","gain land","123 Pain Blvd","not_available",33.554444,-112.106427
"85021","Phoenix","AZ","Grand Canyon University- Peoria Gym","2400 Peoria Ave.","85017",33.580456986829134,-112.10830358640996
"85021","Phoenix","AZ","Abuv Gravity Playground","not_available","85029",33.574668884277344,-112.11107635498047
"85021","Phoenix","AZ","Gym @ Montevida","7101 N 19th Ave","85021",33.54020690917969,-112.09832000732422
"85022","Phoenix","AZ","Planet Fitness","320 E Bell Rd","85022",33.6413054,-112.0694962
"85022","Phoenix","AZ","LA Fitness","244 E Greenway Pkwy","85022",33.636696678174786,-112.07136892674292
"85022","Phoenix","AZ","Anytime Fitness","18413 N Cave Creek Rd","85032",33.654305,-112.029583
"85022","Phoenix","AZ","The Gym At Vaseo Apartments","16220 North 7th St. R2 building","85022",33.63438174910095,-112.06983478740808
"85022","Phoenix","AZ","STMicro","1000 E Bell Rd","85022",33.641424,-112.06000900000001
"85022","Phoenix","AZ","Rock Star Fitness","not_available","85023",33.64290237426758,-112.07521057128906
"85022","Phoenix","AZ","Fitness Center","17625 N 7th St","85022",33.64659881591797,-112.06395721435547
"85022","Phoenix","AZ","Jabz Boxing - 16th and Bell","1614 E Bell Rd","85022",33.6413465,-112.0472623
"85022","Phoenix","AZ","GYM","2900 S 4570 W","not_available",33.6136474609375,-112.04612731933594
"85022","Phoenix","AZ","Core Fitness Bootcamp","16207 N 3rd Ave","85023",33.634910583496094,-112.07734680175781
"85022","Phoenix","AZ","Saratoga Ridge Gym","N 15th St","85022",33.644933471799234,-112.05135431262326
"85022","Phoenix","AZ","Cordillera Fitness Center","17017 N 12th St","85022",33.64219284057617,-112.05599212646484
"85022","Phoenix","AZ","Anytime Fitness","15610 N 7th St","85022",33.627632,-112.066204
"85022","Phoenix","AZ","CrossFit BCR","1427 E Bell Rd Ste 101","85022",33.63983154296875,-112.05061340332031
"85022","Phoenix","AZ","Mountainview gym","1104 E Grovers Ave","85022",33.648137,-112.059405
"85022","Phoenix","AZ","Lose It All Training And Fitness LLC","14040 N Cave Creek Rd","85022",33.61505889892578,-112.03489685058594
"85022","Phoenix","AZ","Gym @ San Pedregal","16601 N 12th St","85022",33.63827450753894,-112.05578026517188
"85022","Phoenix","AZ","Curves Moon Valley","15440 N 7th St","85022",33.627632,-112.066204
"85022","Phoenix","AZ","Physiques Gym","2716 E Bell Rd","85032",33.641021728515625,-112.02356719970703
"85022","Phoenix","AZ","Park On Bell Apartment Homes","110 W Bell Rd","85023",33.64139011497786,-112.07589443727633
"85022","Phoenix","AZ","Ultimate Fitness AZ","1609 E Bell Rd","85022",33.63999557495117,-112.04765319824219
"85023","Phoenix","AZ","Crunch Fitness - Phoenix","1818 W Bell Rd","85023",33.64072,-112.098974
"85024","Phoenix","AZ","CrossFit Narrow Gate","625 W Deer Valley Rd Ste 109","85027",33.683155,-112.082037
"85024","Phoenix","AZ","Trillium Gym","20425 N 7th St","85024",33.671223,-112.06374
"85024","Phoenix","AZ","Athletes Performance","2629 E Rose Garden Ln","85050",33.67555073464953,-112.02516527691206
"85024","Phoenix","AZ","La Verne Gym","20660 N 40th St","85050",33.674946999999996,-111.99848600000001
"85024","Phoenix","AZ","24hr Fitness","3401 E Bell Rd","not_available",33.67199632860825,-112.01461198975007
"85024","Phoenix","AZ","Pietra Apartments","19635 N Cave Creek Rd","85024",33.66639780355735,-112.02890397105905
"85024","Phoenix","AZ","TruHiT Fitness North Phoenix","20830 N 25th Place","85050",33.67610800082706,-112.02840809801911
"85024","Phoenix","AZ","Desert Strength Gym","20634 N 28th St","85050",33.675025939941406,-112.02281951904297
"85024","Phoenix","AZ","Fitness One","not_available","85024",33.656252872782154,-112.06317858432462
"85024","Phoenix","AZ","Full Force Fitness","3130 E Union Hills Dr Ste 109","85050",33.65568542480469,-112.01493835449219
"85024","Phoenix","AZ","Monte Viejo Gym","2220 E Beardsley Rd","85024",33.66998215942721,-112.03419098458666
"85024","Phoenix","AZ","ROCKSTAR Bootcamp","20635 N Cave Creek Rd","85024",33.67481438377375,-112.0294071844528
"85024","Phoenix","AZ","Pietra Gym","not_available","85050",33.665435,-112.029153
"85024","Phoenix","AZ","Fireside Community Center","3775 E Lone Cactus Dr","85050",33.681964532410944,-111.99711612315818
"85024","Phoenix","AZ","Curves","20350 N Cave Creek Rd","85024",33.67066,-112.032098
"85027","Phoenix","AZ","Mountainside Fitness Happy Valley","2501 W Happy Valley Rd Ste 30","85085",33.70857325168715,-112.11501250009974
"85027","Phoenix","AZ","CYCLEBAR","2470 W Happy Valley Rd Ste 1189","85085",33.71482747472401,-112.11280150066375
"85027","Phoenix","AZ","Metroflex Gym","1950 W Rose Garden Ln, Phoenix, AZ 85027","85027",33.67699432373047,-112.10164642333984
"85027","Phoenix","AZ","Goelet Beuf Community Center","Pinnacle peak","85310",33.6971173430938,-112.13179216315987
"85027","Phoenix","AZ","Extreme Fitness & Conditioning Boot Camp","not_available","85027",33.69646782457653,-112.13311003247061
"85027","Phoenix","AZ","Barry Goldwater Gym","2820 W Rose Garden Ln","85027",33.678309999999996,-112.11897900000001
"85027","Phoenix","AZ","365 Gym","1734 W Williams Dr Ste 8","85027",33.69145584106445,-112.09659576416016
"85027","Phoenix","AZ","DVV Fitness Center","19645 N 31st Ave","85027",33.66503143310547,-112.12298583984375
"85027","Phoenix","AZ","Orangetheory Fitness","2501 W Happy Valley Rd","85085",33.709015123160945,-112.11457383029551
"85027","Phoenix","AZ","Anytime Fitness","2460 West Happy Valley Road Ste 1159","85085",33.7135,-112.10933
"85027","Phoenix","AZ","Blast Fitness","18631 N 19th Ave","85027",33.65637289868158,-112.09810200160055
"85027","Phoenix","AZ","Elite Fitness","1125 W Pinnacle Peak Rd","85027",33.696962,-112.08869399999999
"85027","Phoenix","AZ","Gym @ Aspire Pinnacle Peak","24250 N 23rd Ave","85085",33.70595155112493,-112.11011336371952
"85027","Phoenix","AZ","Rock Star Boot Camp","3435 W Pinnacle Peak Rd","85027",33.69623565673828,-112.1329116821289
"85027","Phoenix","AZ","Montelena @ The Canyons Fitness Center","19929 N 23rd Ave, Phoenix, AZ 85027","85027",33.666334,-112.110298
"85027","Phoenix","AZ","Deer Valley Fitness Center","2001 W Wahalla Ln","85027",33.666253999999995,-112.10300900000001
"85027","Phoenix","AZ","CrossFit Uprising","2013 W Rose Garden Ln","85027",33.67614624140814,-112.10327938948618
"85027","Phoenix","AZ","Private Gym","17398 W Buckhorn Trl","85387",33.681366668372135,-112.09826682534472
"85027","Phoenix","AZ","Cigna Gym","25500 N Norterra Dr","85085",33.71657116822544,-112.11520977743656
"85027","Phoenix","AZ","Curves","18635 N 35th Ave #101","85027",33.655874,-112.13389199999999
"85028","Phoenix","AZ","Orangetheory Fitness","10810 N Tatum Blvd Ste 108","85028",33.585111179317025,-111.97824185597129
"85028","Phoenix","AZ","Pure Barre","10810 N Tatum Blvd Ste 148","85028",33.58512195205631,-111.97860317805032
"85028","Phoenix","AZ","Jabz boxing fitness for women north phoenix","10880 N 32nd St Ste 1","85028",33.58552407144979,-112.01345341391057
"85028","Phoenix","AZ","The Workout Spot","3241 E Shea Blvd Ste 9B","85028",33.5820198059082,-112.01126098632812
"85028","Phoenix","AZ","Gym at Stonecreek","not_available","85028",33.595448070841776,-111.98385235061707
"85028","Phoenix","AZ","CorePower Yoga","10810 N Tatum Blvd","85028",33.5839372,-111.9788582
"85028","Phoenix","AZ","Shamrock Crossfit","3375 E Shea Blvd","85028",33.5820426940918,-112.00827026367188
"85028","Phoenix","AZ","B LIFTED","10211 N 32nd St","85028",33.579406,-112.012528
"85028","Phoenix","AZ","Esporta Fitness","11630 N Tatum Blvd","85028",33.592804,-111.9799772
"85028","Phoenix","AZ","Youfit Health Clubs","10630 N 32nd St","85028",33.5836502,-112.0143522
"85029","Phoenix","AZ","Planet Fitness","3331 W Peoria Ave,Suites 101-102","85029",33.5806374,-112.1322374
"85029","Phoenix","AZ","Mr. Wilson's","10215 N 43rd Ave","85051",33.578857421875,-112.15048217773438
"85029","Phoenix","AZ","Kingdom Courts","11410 N 19th Ave","85029",33.58978645217836,-112.10115776292997
"85029","Phoenix","AZ","DS Fitness Studio","13601 N 35th Ave","85029",33.60821646551773,-112.13339241790611
"85029","Phoenix","AZ","Candlewood Suites Fitness Center","11411 N Black Canyon Hwy","85029",33.589632,-112.11568
"85029","Phoenix","AZ","Random Place","Tuscon Raceway","85387",33.591009059574105,-112.14840361210159
"85029","Phoenix","AZ","Fenix Gym","not_available","85051",33.57657075742478,-112.12833622471919
"85029","Phoenix","AZ","Pure Fitness","4147 W Thunderbird Rd","85053",33.610083,-112.147883
"85029","Phoenix","AZ","Strong Bodies","13615 N 35th Ave","85029",33.608491,-112.13302
"85029","Phoenix","AZ","LA Fitness","10046 N Metro Pkwy","85051",33.57690966038908,-112.12566154097665
"85029","Phoenix","AZ","Villas at Cave Creek Gym","2529 W Cactus Rd","85029",33.595401763916016,-112.11500549316406
"85031","Phoenix","AZ","Zumba La Princesa","not_available","85031",33.495906,-112.185855
"85031","Phoenix","AZ","Blast Fitness","4344 W Indian School Rd","85031",33.497425478651266,-112.15285857058632
"85032","Phoenix","AZ","E?S Fitness","12869 N Tatum Blvd","85032",33.60379202189441,-111.97663291047581
"85032","Phoenix","AZ","Youfit Health Clubs","3901 E Thunderbird Rd","85032",33.6107869,-111.9974283
"85032","Phoenix","AZ","Fred Astaire Dance Studios Paradise Valley","4855 E Greenway Rd","85254",33.625260243988244,-111.97598205159
"85032","Phoenix","AZ","LA Fitness","3202 E Greenway Rd","85032",33.6129777112237,-112.013034230577
"85032","Phoenix","AZ","Greenspoint Gym","not_available","85032",33.60028714863177,-111.99199930090002
"85032","Phoenix","AZ","CrossFit Magna","4318 E Cactus Rd","85032",33.59946060180664,-111.98863220214844
"85032","Phoenix","AZ","Cross Fit Magna","not_available","85254",33.599691613608336,-111.97659019447495
"85032","Phoenix","AZ","Shaolin Tao Martial Arts","15227 N 32nd St","85032",33.6256103515625,-112.01290130615234
"85032","Phoenix","AZ","RockBox Fitness Scottsdale","4710 E Cactus Rd","85032",33.5987434,-111.978676
"85032","Phoenix","AZ","PVCC Fitness Center","18401 N 32nd St","85032",33.650930607433374,-112.00977391367863
"85032","Phoenix","AZ","Exrtion Human Performance","4626 E Thunderbird Rd #105","85032",33.6120491027832,-111.9811019897461
"85032","Phoenix","AZ","FieldFit","Paradise Plaza 4848 E Cactus Rd","85254",33.59983993206633,-111.97715163230895
"85032","Phoenix","AZ","Peradise Fitness","2945 E Bell Rd #101","85032",33.63998794555664,-112.01936340332031
"85032","Phoenix","AZ","Anytime Fitness","4030 E Thunderbird Rd Ste D","85032",33.612389,-111.994281
"85032","Phoenix","AZ","The Palisades Gym","13440 N 44th St Apt 1155","85032",33.608726501464844,-111.98883056640625
"85032","Phoenix","AZ","Beyond Bodyz Gym","3110 E Cactus Rd","85032",33.597379,-112.01486499999999
"85032","Phoenix","AZ","The Club For Women","4030 E Thunderbird Rd","85032",33.612416910450875,-111.99377502033109
"85032","Phoenix","AZ","Esporta Fitness","3301 E Bell Rd","85032",33.6400075,-112.0104305
"85032","Phoenix","AZ","High Altitude Personal Training","4605 E Cactus Road Ste 2A02","85032",33.5982780456543,-111.98289489746094
"85032","Phoenix","AZ","TITLE Boxing Club Paradise Valley","4848 E Cactus Rd Ste 810","85254",33.5992874,-111.9766304
"85032","Phoenix","AZ","Cardio Barre","4663 E Cactus Rd Ste 3A09","85032",33.598664801658124,-111.98087587952614
"85032","Phoenix","AZ","Villa Encanto Gym","4315 E Thunderbird Rd","85032",33.611032,-111.98794199999999
"85033","Phoenix","AZ","Planet Fitness","7333 W Thomas Rd Ste 78","85033",33.479322833342266,-112.21791965515592
"85033","Phoenix","AZ","Esporta Fitness","7640 W Thomas Rd","85033",33.4815384,-112.2232194
"85033","Phoenix","AZ","Azteca Boxing Club","not_available","85033",33.4969596862793,-112.19775390625
"85033","Phoenix","AZ","Fitness West","6850 W Indian School Rd","85033",33.49611282348633,-112.20601654052734
"85034","Phoenix","AZ","CrossFit DTP","2060 S 16th St #119","85034",33.428344,-112.049746
"85034","Phoenix","AZ","Fitness Center at the Hilton Phoenix Airport","2435 S 47th St","85034",33.424668,-111.979854
"85034","Phoenix","AZ","St charles atlethic club,","not_available","85034",33.4258042,-112.0198327
"85034","Phoenix","AZ","PFD Admin Gym","150 S 12th St","85034",33.44554996565838,-112.05704813411748
"85034","Phoenix","AZ","Challenge","1721 W 10th Pl #3","85281",33.416903000000005,-111.96721000000001
"85034","Phoenix","AZ","Pilgrim Gym","1401 E Jefferson St","85034",33.44606589417478,-112.05158432425233
"85034","Phoenix","AZ","KO (KnockOut) Boxing Gym","602 S 16th St","85034",33.44187545776367,-112.04837036132812
"85034","Phoenix","AZ","Arizona Air National Guard Base Gym","3200 E Old Tower Rd","85034",33.42786407470703,-112.01014709472656
"85034","Phoenix","AZ","Fitness Center at Microchip Technology","1200 S 52nd St","85281",33.41660690307617,-111.97203063964844
"85034","Phoenix","AZ","Workout @ M","5402 E Washington St","85034",33.446715000000005,-111.96481999999999
"85034","Phoenix","AZ","Fitness Center","3220 S 48th St","85040",33.418332,-111.979367
"85035","Phoenix","AZ","E?S Fitness","7400 W Encanto Blvd","85035",33.47369103686313,-112.21841533695988
"85035","Phoenix","AZ","Curves","2201 N 83rd Ave Ste 108","85035",33.47206,-112.23702
"85035","Phoenix","AZ","Broadstone Apartment Fitness Center","7850 W McDowell Rd","85035",33.467041015625,-112.22794342041016
"85035","Phoenix","AZ","Robert's Big Daddy Gym","7725 W McDowell Rd","85035",33.46516036987305,-112.22533416748047
"85037","Phoenix","AZ","Youfit Health Clubs","9675 W Camelback Rd","85037",33.507693350905726,-112.26765632629395
"85037","Phoenix","AZ","Courtyard Marriott Exercise Room","not_available","85037",33.465905531280995,-112.26691179516276
"85037","Phoenix","AZ","The Workout Dungeon","2","85323",33.491168205566694,-112.30432494103378
"85037","Phoenix","AZ","The Villas 24hr Fitness Center","not_available","85305",33.51140362004742,-112.27404870584594
"85037","Phoenix","AZ","Crunch Fitness - Avondale","10050 West McDowell Road","85392",33.46734939,-112.27632283
"85037","Phoenix","AZ","24hrs Apartment Gym","Red Hawk Apartments","85037",33.465973,-112.260695
"85037","Phoenix","AZ","Strength Training International","W. Indian School","85037",33.495207711379095,-112.25659058309431
"85037","Phoenix","AZ","Crossfit West Valley","8550 N 91st Ave #94","85345",33.46532415438596,-112.27838555802023
"85040","Phoenix","AZ","Hampton Inn Fitness Room","4234 S 48th St","85040",33.408348083496094,-111.9789810180664
"85040","Phoenix","AZ","ALEE ATHLETICS","4223 S 36th Pl","85040",33.40818786621094,-112.00254821777344
"85040","Phoenix","AZ","Esteban's Sweatbox","not_available","85040",33.39602415405608,-112.0116253083693
"85040","Phoenix","AZ","Fischer Sports","5750 S 32nd St","85040",33.395025570217925,-112.01455428508905
"85040","Phoenix","AZ","Progressive Fitness Center","4550 S 44th Pl","85040",33.40607911902655,-111.9865091191986
"85040","Phoenix","AZ","Able Wellness Center","5238 S 31st Pl","85040",33.398170471191406,-112.01557922363281
"85040","Phoenix","AZ","Crossfit602","4012 E Broadway Rd #ST310","85040",33.40774154663086,-111.994384765625
"85041","Phoenix","AZ","Curves Laveen","not_available","85339",33.378666,-112.168416
"85041","Phoenix","AZ","Laveen CrossFit","3648 W Southern Ave Ste 148","85041",33.393374,-112.13644
"85041","Phoenix","AZ","Planet Fitness","3630 W Southern Ave","85041",33.393374,-112.13644
"85041","Phoenix","AZ","F45 Training Laveen","4920 West Baseline Road","85339",33.3789234,-112.1665409
"85042","Phoenix","AZ","EōS Fitness","5031 E Elliot Rd","85044",33.347792701919445,-111.97711016336314
"85042","Phoenix","AZ","LA Fitness","2325 E Baseline Rd","85042",33.37631830926745,-112.03210667978522
"85042","Phoenix","AZ","Zumba @ Cloves Campbell Gym","not_available","85042",33.371924,-112.02616
"85042","Phoenix","AZ","UFC Gym","4825 E Warner Rd","85044",33.32944033003442,-111.97882291434121
"85042","Phoenix","AZ","YMCA","222 E Olympic Dr","85042",33.374780809699864,-112.07107244169246
"85042","Phoenix","AZ","Curves","3220 E Baseline Rd #116","85042",33.3787841796875,-112.0111083984375
"85042","Phoenix","AZ","Fitness Center@ Vista Sureno Apt","4727 E Warner Rd","85044",33.32989501953125,-111.98198699951172
"85042","Phoenix","AZ","Anytime Fitness","3220 E Baseline Rd","85042",33.37887,-112.01069
"85042","Phoenix","AZ","Spartan Training®","3857 E Minton St","85042",33.381118136436356,-111.99781134724617
"85042","Phoenix","AZ","Orangetheory Fitness","2485 E Baseline Rd","85042",33.37716885020949,-112.02801507955297
"85042","Phoenix","AZ","Fitness Center @ SMCC","7050 S 24th St","85042",33.381895316818685,-112.03522682189941
"85042","Phoenix","AZ","Sedona Gym","5010 E Cheyenne Dr","85044",33.346717834472656,-111.97792053222656
"85043","Phoenix","AZ","G’s Gym","not_available","85043",33.410374,-112.181693
"85043","Phoenix","AZ","Laveen zumba -Sierra Linda High School","3434 S 67th Ave","85043",33.41759490966797,-112.20687866210938
"85043","Phoenix","AZ","p90x","not_available","85353",33.431521691364544,-112.23839879144906
"85044","Phoenix","AZ","Mountainside Fitness","4820 E Ray Rd","85044",33.321098,-111.978812
"85044","Phoenix","AZ","TRUHit Fitness Ahwatukee","4302 E Ray Rd, Ste 109","85044",33.320613389927374,-111.99148535728455
"85044","Phoenix","AZ","Eat The Frog Fitness","4722 East Ray Road","85044",33.32134246826172,-111.98255157470703
"85044","Phoenix","AZ","Presidio Fitness & Aquatics","13201 S Wakial Loop","85044",33.32664108276367,-111.97615051269531
"85044","Phoenix","AZ","LA Fitness","4836 E Chandler Blvd","85048",33.307271264218436,-111.97885942371195
"85044","Phoenix","AZ","Anytime Fitness","1420 E Chandler Blvd Suite 104","85048",33.30581,-112.05308
"85044","Phoenix","AZ","Ufc Gym","3830 E Ray Rd","85044",33.316994,-112.002458
"85044","Phoenix","AZ","The Bar Fitness","14832 s 27 st","85048",33.3112661,-112.02561538333333
"85044","Phoenix","AZ","Orangetheory","not_available","85044",33.31612777709961,-111.97209930419922
"85044","Phoenix","AZ","Rockledge Fairways Gym","13220 S 48th St","85044",33.326290130615234,-111.98110961914062
"85044","Phoenix","AZ","Arizona Grand Resort Athletic Club","8000 S Arizona Grand Pkwy","85044",33.37277122207297,-111.97243402260182
"85044","Phoenix","AZ","Gym at Advantage Office Suites","not_available","85226",33.31151959537015,-111.97683286857792
"85044","Phoenix","AZ","Gym Schmym","4221 E Ray Rd","85044",33.319148,-111.994723
"85044","Phoenix","AZ","Body Swap Fitness","14647 South 50th St. Ste B-100","85044",33.3129754,-111.9751899
"85044","Phoenix","AZ","MP Gym","4301-4399 E Knox Rd","85044",33.326336133333335,-111.98989763333333
"85044","Phoenix","AZ","South Mountain Nutrition","4302 E Ray Rd","85044",33.32093297627341,-111.99142012761699
"85044","Phoenix","AZ","The Apartment Gym at Windsor Mountain Park","13820 S 44th St","85044",33.3223876953125,-111.9912109375
"85044","Phoenix","AZ","The Bar Fitness","4121-4199 E Knox Rd","85044",33.32630378333333,-111.99155873333333
"85044","Phoenix","AZ","Arboretum Gym","15251 S 50th St","85044",33.307432348709995,-111.97443192730454
"85045","Phoenix","AZ","Exercise Room","not_available","85045",33.298792,-112.093916
"85048","Phoenix","AZ","YMCA","1030 E Liberty Ln","85048",33.29669399629307,-112.05985423630727
"85048","Phoenix","AZ","San Simeon at the Foothills - Gym","16013 S Desert Foothills Pkwy","85048",33.29960756590167,-112.05956319238497
"85048","Phoenix","AZ","Curves","4025 E Chandler Blvd","85048",33.304869284290554,-111.99421407367832
"85048","Phoenix","AZ","Minifield Fitness Center","not_available","85048",33.29096615869683,-111.99666274543915
"85048","Phoenix","AZ","Pecos Park","17010 S 48th St","85048",33.29235291158592,-111.98083262201187
"85048","Phoenix","AZ","Pure Barre","4025 E Chandler Blvd Ste 6","85048",33.30320011426845,-111.99496156448743
"85050","Phoenix","AZ","The Club at Aviano","22500 N Aviano Way","85050",33.689306652192265,-111.98666858134618
"85050","Phoenix","AZ","Mountainside Fitness","4355 N 46th Pl","85050",33.67385191315588,-111.98658837330561
"85050","Phoenix","AZ","Mountainside Fitness Desert Ridge","4355 E Irma Ln","85050",33.67385215887097,-111.9866741204319
"85050","Phoenix","AZ","Residence Inn Fitness Center","not_available","85255",33.661658,-111.959019
"85050","Phoenix","AZ","Fuzion Fitness","20910 N Tatum Blvd","85050",33.675072,-111.97998500000001
"85050","Phoenix","AZ","JW MARRIOTT Fitness Center","not_available","85054",33.68324265140934,-111.9648510444623
"85050","Phoenix","AZ","Fuzion Fitness Personal Training","20910 N Tatum Blvd Ste 170","85050",33.67526536077022,-111.97969308711163
"85050","Phoenix","AZ","JW Marriott Desert Ridge Gym","5350 E Marriott Dr","85054",33.683309146956724,-111.96544489684682
"85050","Phoenix","AZ","F45 Training Desert Ridge","5315 E High St","85054",33.676118,-111.966921
"85050","Phoenix","AZ","katie's fit life bootcamps","0940 North Tatum Boulevard","85050",33.72492860213206,-111.9774842262268
"85051","Phoenix","AZ","Tim's House","8144 N 33rd Ave","85051",33.55575942993164,-112.12931823730469
"85051","Phoenix","AZ","Trainer Trey's","41st Ave & Puget","not_available",33.56680717,-112.14788421
"85053","Phoenix","AZ","Fitness 1 Gym","3515 W Union Hills Dr","85308",33.65346150960906,-112.13568630252863
"85053","Phoenix","AZ","northwest christian weight room","43rd Ave And Bell","not_available",33.636347582386506,-112.14749543149239
"85053","Phoenix","AZ","Metro  Gym","3515 W Union Hills Dr #105","85308",33.65345286741191,-112.13562916830737
"85053","Phoenix","AZ","Effort=Results Fitness","15820 N 35th Ave","85053",33.629418,-112.134285
"85053","Phoenix","AZ","Hammers Boxing Gym","17234 N. 29th Ave.","85053",33.64283502101898,-112.12023675441742
"85053","Phoenix","AZ","Curves","4139 W Bell Rd #2","85053",33.638607025146484,-112.14796447753906
"85053","Phoenix","AZ","Fierce & Fit","not_available","85308",33.639283776283264,-112.12314963340759
"85053","Phoenix","AZ","Metroflex Gym","17039 N Holmes Blvd","85053",33.640915926025066,-112.12065938036869
"85054","Phoenix","AZ","E?S Fitness","7000 E Mayo Blvd Bldg 13","85054",33.657311,-111.930243
"85054","Phoenix","AZ","Life Time Athletic","6850 E Chauncey Ln","85054",33.65269079383684,-111.93314710838013
"85054","Phoenix","AZ","Orangetheory Fitness","7000 E Mayo Blvd Ste 1016","85054",33.65586872188051,-111.9290799358473
"85054","Phoenix","AZ","San Milan","6975 E Princess Dr","85054",33.6468,-111.930048
"85054","Phoenix","AZ","Tiny Gym","5635 E Bell Rd","85254",33.639404296875,-111.95858001708984
"85054","Phoenix","AZ","CYCLEBAR","7000 E Mayo Blvd Ste 1018","85054",33.65581083362324,-111.92930752188755
"85054","Phoenix","AZ","Pure Barre","7000 E Mayo Boulevard, Suite 1004","85054",33.6559662,-111.9293085
"85054","Phoenix","AZ","Villa Salerno at Desert View","17030 N 49th St","85254",33.6436950670732,-111.97334098155594
"85054","Phoenix","AZ","Koko Fitclub","6245 E Bell Rd","85254",33.63989004691091,-111.94421241498472
"85083","Phoenix","AZ","OmniBalance","23425 N. 39th Drive Ate 105","85310",33.69894495292681,-112.14198812288807
"85083","Phoenix","AZ","Pure Fitness","not_available","85310",33.71253015,-112.14040916666667
"85083","Phoenix","AZ","Fitness 1 Phoenix","3850 W Happy Valley Rd, Phoenix, AZ 85083","not_available",33.71408919152264,-112.14208415227156
"85083","Phoenix","AZ","Danny’s Gym","25930 N 54th Ave","85083",33.72077941894531,-112.17698669433594
"85083","Phoenix","AZ","Baxter Fitness","N 35th Ave and W Happy Valley Rd.","85310",33.71092913,-112.14045114999999
"85083","Phoenix","AZ","Sage Apartments Fitness Center","not_available","85085",33.740985103069335,-112.12051919487544
"85083","Phoenix","AZ","20Nineteen CrossFit","3632 W Pinnacle Peak Rd Ste 120A","85310",33.698734283447266,-112.14089965820312
"85085","Phoenix","AZ","Mountainside Fitness","2655 W Carefree Hwy","85085",33.796696,-112.11659
"85085","Phoenix","AZ","Fireside Norterra Community Center, Pools, and Parks","28185 N Melvern Trl","85085",33.74026377265215,-112.10019468339165
"85085","Phoenix","AZ","Belara Gym","29675 N North Valley Pkwy","85085",33.75370989761207,-112.10759055752405
"85085","Phoenix","AZ","Sully's Gym","N 23rd Dr, Phoenix, AZ 85085","85085",33.73889261666667,-112.10929516666667
"85085","Phoenix","AZ","Talus Ranch Phase 2 Gym","2605 W Dove Valley Rd","85085",33.782779693603516,-112.1154556274414
"85085","Phoenix","AZ","The Gym at Las Colinas","34000 N 27th Dr","85085",33.792694091796875,-112.12013244628906
"85085","Phoenix","AZ","USAA Gym","1 N Norterra Pkwy","85085",33.719551163199256,-112.11201336843426
"85086","Phoenix","AZ","Anytime Fitness","42407 N Vision Way","85086",33.86937,-112.15132
"85086","Phoenix","AZ","the treadmill","not_available","85086",33.84895891102175,-112.10446121198768
"85086","Phoenix","AZ","Funtastic Fitness","4122 W Innovative Dr","85086",33.86744689941406,-112.1488037109375
"85086","Phoenix","AZ","Persimmion Country Club-Fitness Center","2708 W Anthem Club Dr","85086",33.86504459940088,-112.09613876255746
"85086","Phoenix","AZ","Dance Dance","not_available","85087",33.870269775390625,-112.15779113769531
"85086","Phoenix","AZ","SkinSport","4220 W Opportunity Way #8","85086",33.8657112121582,-112.14978790283203
"85118","Gold Canyon","AZ","Mountain Brook Fitness Center","5782 S Mountainbrook Dr","85118",33.362728118896484,-111.46428680419922
"85118","Gold Canyon","AZ","The Gym","not_available","85218",33.353232725654564,-111.45762308677176
"85119","Apache Junction","AZ","Multigenerational Recreation Center","not_available","85220",33.42438878127334,-111.54452011315034
"85119","Apache Junction","AZ","Saguaro Fitness and Rehabilitation","305 N Plaza Dr","85120",33.417811,-111.55011
"85119","Apache Junction","AZ","dolce gym","not_available","85219",33.3836784362793,-111.50609588623047
"85120","Apache Junction","AZ","Turbo Fire","10138 E Isabella Ave","85209",33.385128021240234,-111.61198425292969
"85120","Apache Junction","AZ","Planet Fitness","3003 W Apache Trail, Suite 1","85120",33.41405784120458,-111.57859851581622
"85120","Apache Junction","AZ","The Gym At The District","37511-38667 E Southern Ave","85208",33.39231091695778,-111.6046841995428
"85120","Apache Junction","AZ","LA Fitness","1905 S Signal Butte Rd","85209",33.380925026007546,-111.59865901837651
"85120","Apache Junction","AZ","Wounded Pole Dancer Way","not_available","85212",33.329322,-111.59865
"85120","Apache Junction","AZ","Elite Personal Training & Gym","10165 E Hampton Ave Ste 101","85209",33.388145950797465,-111.61125767155433
"85120","Apache Junction","AZ","Insanity Gym A&C","not_available","85208",33.412811279296875,-111.60386657714844
"85122","Casa Grande","AZ","24/7 Fitness","2080 N Trekell Rd","85122",32.9117498032926,-111.73826456992042
"85122","Casa Grande","AZ","Esporta Fitness","2024 E Florence Blvd","85122",32.8810118,-111.6998889
"85122","Casa Grande","AZ","Inspirit Gymnastics","not_available","85122",32.924241,-111.740633
"85122","Casa Grande","AZ","Snap Fitness","1667 Trekell","85222",32.897010803222656,-111.74104309082031
"85122","Casa Grande","AZ","Planet Fitness","Tri Valley Plaza, 1325 E Florence Blvd","85122",32.877557,-111.730148
"85122","Casa Grande","AZ","Snap Fitness","973 E Cottonwood Ln","85122",32.893949835742255,-111.7414503291131
"85128","Coolidge","AZ","Anthem Community Center","not_available","85242",33.061043090773495,-111.47691825750341
"85128","Coolidge","AZ","Snap Fitness","1491 N Arizona Blvd","85128",32.995045000000005,-111.52237099999999
"85131","Eloy","AZ","Alma’s Gym","not_available","85653",32.520772,-111.332261
"85131","Eloy","AZ","Taz Boxing","199 N Stuart Blvd","85131",32.75077819824219,-111.55155944824219
"85132","Florence","AZ","Florence Fitness Center II","133 N Main St","85132",33.03267288208008,-111.38716125488281
"85138","Maricopa","AZ","Villages Club House","rancho el dorado","85239",33.06976426531111,-112.03762255434786
"85138","Maricopa","AZ","CrossFit Maricopa","not_available","85239",33.05825736058273,-112.04516561529704
"85138","Maricopa","AZ","The Hangout @ Rancho","Goles Dr","85138",33.074839783702096,-112.02423774742378
"85138","Maricopa","AZ","Gym St. 571","20945 N Porter Rd","85138",33.07028579711914,-112.01287078857422
"85138","Maricopa","AZ","Longevity Athletics","20924 N John Wayne Pkwy Ste D2-A","85139",33.0696489,-112.047366
"85138","Maricopa","AZ","Anytime Fitness","21116 N John Wayne Pkwy B3","85139",33.07165,-112.04656
"85138","Maricopa","AZ","Planet Fitness","20595 N John Wayne Pkwy, Ste 400, Suite 400","85139",33.065982,-112.044469
"85140","San Tan Valley","AZ","Anytime Fitness","40601 N Gantzel Rd","85140",33.24728956,-111.5616103
"85140","San Tan Valley","AZ","LA Fitness","40885 N Ironwood Dr","85140",33.2544202,-111.5349059
"85142","Queen Creek","AZ","Mountainside Fitness","21002 S Ellsworth Loop Rd","85142",33.257677,-111.639306
"85142","Queen Creek","AZ","Orangetheory Fitness","20715 S Rittenhouse Rd","85142",33.256348,-111.63702
"85142","Queen Creek","AZ","Planet Fitness","21545 S Ellsworth Loop Rd","85142",33.25283753078954,-111.63610717126397
"85142","Queen Creek","AZ","crossfit VisVires","3373 E Queen Creek Rd","85297",33.26274108886719,-111.71664428710938
"85142","Queen Creek","AZ","Dave's Gym","3543 E Blue Ridge Way","85298",33.23766326904297,-111.71312713623047
"85142","Queen Creek","AZ","Floor Exercises","not_available","85297",33.28199771140797,-111.72190613913929
"85142","Queen Creek","AZ","Desert Fitness","4658 S Higley Rd","85297",33.26893880766296,-111.7186512529811
"85142","Queen Creek","AZ","elliptical","not_available","85296",33.28390121459961,-111.74410247802734
"85142","Queen Creek","AZ","Maison De Deux S Gymnase","not_available","85205",33.24788173768659,-111.74378072413688
"85142","Queen Creek","AZ","Town Center Cyndee","town center apartments","85142",33.24537434169227,-111.6328932272772
"85142","Queen Creek","AZ","Anytime Fitness","4720 E. Queen Ck. Rd.","85297",33.2674386,-111.6874027
"85142","Queen Creek","AZ","Esporta Fitness","7225 S Power Rd Bldg A","85142",33.2846903,-111.6834931
"85142","Queen Creek","AZ","Queen Creek Crossfit","18510 E San Tan Blvd #104","85242",33.21249008178711,-111.6834716796875
"85142","Queen Creek","AZ","Snap Fitness","21258 E Rittenhouse Rd","85142",33.247278002380156,-111.62461171686382
"85142","Queen Creek","AZ","Burn Boot Camp","7400 S Power Rd","85297",33.28159,-111.68691
"85143","San Tan Valley","AZ","Anytime Fitness","530 E Hunt Hwy Ste 113","85143",33.16139,-111.56083
"85143","San Tan Valley","AZ","Zumba!","not_available","85142",33.141181149999994,-111.55782580375671
"85201","Mesa","AZ","Pala Mesa Gym","2433 W Main St","85201",33.414310455322266,-111.88410949707031
"85201","Mesa","AZ","Esporta Fitness","1844 W Rio Salado Pkwy","85201",33.4300079,-111.8712977
"85201","Mesa","AZ","Colores del Sol","510 E McKellips Rd","85203",33.45224565590626,-111.82123463917105
"85201","Mesa","AZ","Melissa's Gym","Apache Station Apartments","85281",33.414064049720764,-111.88808619976044
"85201","Mesa","AZ","Veranda Gym","1415 N Country Club Dr","85201",33.441444396972656,-111.83824920654297
"85201","Mesa","AZ","Planet Fitness","825 W University Dr","85201",33.420829,-111.849128
"85201","Mesa","AZ","Protege Performance","2450 W Broadway Rd Ste 104","85202",33.4076995,-111.8856802
"85201","Mesa","AZ","1on1 Boxing Fitness","1815 W 1st Ave Ste 145","85202",33.41166825839929,-111.8694090890571
"85201","Mesa","AZ","Karebear Gymboree!","1865 W Devonshire St","85201",33.427757263183594,-111.87234497070312
"85201","Mesa","AZ","Build Up Crossfit","1932 W Main At","85201",33.41498119575234,-111.87201674091774
"85201","Mesa","AZ","Mildred Fitch Family Life Center","15 E 1st Ave","85210",33.412078857421875,-111.83039855957031
"85201","Mesa","AZ","The Fit Stop","553 E University Dr","85203",33.422123,-111.818936
"85201","Mesa","AZ","One On One Boxing","1815 W 1st Ave","85202",33.41187000274658,-111.8696916103363
"85201","Mesa","AZ","Fitness Center At Marriott Mesa","not_available","85201",33.41987880759564,-111.82846047704071
"85201","Mesa","AZ","YMCA","207 N Mesa Dr","85201",33.41994891188587,-111.82199275593996
"85202","Mesa","AZ","Dobson High School C Building","not_available","85202",33.36262783896613,-111.86742882524085
"85202","Mesa","AZ","Home Gym","1101 S Longmore","85202",33.395718939397405,-111.86359197345524
"85202","Mesa","AZ","Arizona Grand Athletic Fitness Club","8000 az grand parkway","not_available",33.37917279032361,-111.87781567332998
"85202","Mesa","AZ","BJ's Fitness Room","2524 S El Paradiso","85202",33.37240982055664,-111.87222290039062
"85202","Mesa","AZ","Anytime Fitness","1837 West Guadalupe Road","85202",33.3636791,-111.8736341
"85202","Mesa","AZ","Gym","1000 S Sycamore","85202",33.39452147483826,-111.86825394630432
"85202","Mesa","AZ","Tyler Smith Training","2665 West Guadalupe Road","85202",33.36256167,-111.89187
"85202","Mesa","AZ","Snap Fitness","2025 S Alma School Rd","85210",33.378043248214865,-111.85847243396842
"85202","Mesa","AZ","Curves","1543 W Elliot Rd","85233",33.363870486247656,-111.85830538040463
"85202","Mesa","AZ","Vista Valley","Vista Valley","85202",33.39793190468108,-111.86734252782581
"85203","Mesa","AZ","E?S Fitness","1954 E McKellips Rd","85203",33.452168,-111.78938
"85203","Mesa","AZ","Desert Fitness","not_available","85213",33.45125,-111.78606
"85203","Mesa","AZ","Anytime Fitness","1239 E McKellips Rd","85203",33.44939,-111.80386
"85203","Mesa","AZ","Esporta Fitness","445 N Stapley Dr","85203",33.423681,-111.8037222
"85203","Mesa","AZ","Better You Personal Training","755 E McKellips Rd","85203",33.4510233,-111.8141367
"85204","Mesa","AZ","EōS Fitness","2156 E Baseline Rd","85204",33.38039200429655,-111.7855462910751
"85204","Mesa","AZ","Planet Fitness","2643 E Broadway Rd","85204",33.4068852359995,-111.77407359881136
"85204","Mesa","AZ","LA Fitness","931 S Gilbert Rd","85204",33.39803025127143,-111.78672278284462
"85204","Mesa","AZ","Gym at The Premiere","not_available","85206",33.389029,-111.753225
"85204","Mesa","AZ","Sta 2","1105 E 2nd Ave","85204",33.4112663269043,-111.80735778808594
"85204","Mesa","AZ","Performance One Advanced Sports Training","916 E Baseline Rd Ste 130","85204",33.379838,-111.81188600000002
"85204","Mesa","AZ","Pure Barre","1854 S Val Vista Dr","85204",33.38136521060184,-111.75685720078695
"85204","Mesa","AZ","gym @ villages at lindsay park","1441 S Lindsay Rd","85204",33.38823318481445,-111.7698974609375
"85204","Mesa","AZ","FlexFitness","1455 S Stapley Dr Ste 14","85204",33.388248443603516,-111.8045425415039
"85204","Mesa","AZ","San Montero Gym","3636 E Inverness Ave","85206",33.38431930541992,-111.752685546875
"85204","Mesa","AZ","My Fitness Studio, LLC","3130 E Baseline Rd Ste 110","85204",33.38012791718912,-111.76313365126593
"85204","Mesa","AZ","Forever Fit Personal Trainer","not_available","85204",33.38774914002335,-111.80380890547387
"85204","Mesa","AZ","Flex Fitness LLC","1455 S Stapley Dr","85204",33.388248443603516,-111.8045425415039
"85205","Mesa","AZ","24 Hour Fitness","6560 E Decatur St","85205",33.42709732055664,-111.68896484375
"85205","Mesa","AZ","Trust Crossfit","4211 E Julep St Ste 110","85215",33.449800709434925,-111.72733839994542
"85205","Mesa","AZ","Mountainside Fitness","1253 N Greenfield Rd","85205",33.4387496,-111.7349162
"85205","Mesa","AZ","Freak Animal Fitness","1919 N Rosemont","85205",33.45035285189601,-111.72155901922814
"85205","Mesa","AZ","Fit Cru","5609 E McKellips Rd","85215",33.45131690000001,-111.70934440000002
"85205","Mesa","AZ","The Cell Gym","6215 E Main St Ste 1","85205",33.414268493652344,-111.69735717773438
"85205","Mesa","AZ","Burn Boot Camp","1118 N Recker Rd","85205",33.43621,-111.70254
"85206","Mesa","AZ","EōS Fitness","1728 S Greenfield","85206",33.385193,-111.742456
"85206","Mesa","AZ","LA Fitness","1731 S Greenfield Rd","85206",33.382995870132234,-111.73644443642661
"85206","Mesa","AZ","Lakeview gym","7125 E Superstition Springs Blvd","85209",33.382408142089844,-111.68085479736328
"85206","Mesa","AZ","Youfit Health Clubs","1668 N Higley Rd","85234",33.38075082110065,-111.72436952590948
"85206","Mesa","AZ","LA Fitness","1310 S Higley Rd","85296",33.3913551,-111.7194474
"85206","Mesa","AZ","Mesa Personal Training","7015 E Southern Ave Ste 105","85209",33.392859,-111.679805
"85206","Mesa","AZ","The Gym","Superstition Springs Blvd","85206",33.385984668869604,-111.69291657429214
"85207","Mesa","AZ","LA Fitness","2605 N Power Rd","85215",33.462686556015775,-111.683420281557
"85207","Mesa","AZ","The Gym","not_available","85207",33.42156974308498,-111.66995312143162
"85207","Mesa","AZ","Karve Studio","3514 N Power Rd","85215",33.47929763793945,-111.68435668945312
"85208","Mesa","AZ","UFC Gym","4395 S. Ellsworth","not_available",33.406158863927196,-111.63110035968192
"85208","Mesa","AZ","LA Boxing","439 S Ellsworth Rd Ste 106","85208",33.406235554829415,-111.63115658208707
"85208","Mesa","AZ","Mesa Personal Training","1116 S Crismon Rd Ste 104","85208",33.394744873046875,-111.61611938476562
"85208","Mesa","AZ","Fitness Quik","7125 E Southern Ave Ste 105","85209",33.392581939697266,-111.67717742919922
"85208","Mesa","AZ","Workout Room Casa De Spargo","not_available","85209",33.38161601666667,-111.62472173333333
"85209","Mesa","AZ","Anytime Fitness","8257 E. Guadalupe Rd.","85212",33.36322,-111.65565
"85209","Mesa","AZ","Kinect Fitness And P90x","2260 - 2273 E. Sawyer Circle","85209",33.37321320804696,-111.67214169985527
"85209","Mesa","AZ","The Gym","9731-9755 E Baseline Rd","85209",33.37739900796542,-111.63160108479141
"85209","Mesa","AZ","Time for Personal Trainer","not_available","85282",33.37373932609996,-111.64735645716122
"85209","Mesa","AZ","Fitness Center","not_available","85236",33.365442,-111.689735
"85210","Mesa","AZ","Fitness 1440","1020 West Southern Avenue","85210",33.3945824,-111.8535981
"85210","Mesa","AZ","EōS Fitness","1661 S Alma School Rd","85210",33.384833004480726,-111.85583719510652
"85210","Mesa","AZ","Wyndham Fitness Center","not_available","85210",33.38752746582031,-111.85387420654297
"85210","Mesa","AZ","Off Broadway Fitness Center","546 S Country Club Dr","85210",33.40586052533808,-111.84395353201103
"85210","Mesa","AZ","CrossFit GTO","40 W Baseline Rd #116","85210",33.379673503149036,-111.83288097381592
"85210","Mesa","AZ","R Boxing","542 W Baseline Rd Ste 101","85210",33.379332303942675,-111.84278325776361
"85210","Mesa","AZ","Firebird CrossFit","535 W Iron Ave","85210",33.38438989644458,-111.84421752833343
"85210","Mesa","AZ","Youfit Health Clubs","706 N McQueen Rd","85233",33.36254437086333,-111.82563900947571
"85210","Mesa","AZ","CT GYM","455 W Holmes Ave","85210",33.38740158081055,-111.84204864501953
"85212","Mesa","AZ","Williams Campus Fitness Center","7460 E Texas Ave","85212",33.3083381652832,-111.67162322998047
"85212","Mesa","AZ","CrossFit SanTan","7665 E Velocity Way Ste 119","85212",33.29945721782642,-111.66830572063421
"85212","Mesa","AZ","Fit Body Boot Camp","5950 S Sossaman Rd","85212",33.307882,-111.670667
"85212","Mesa","AZ","CrossFit 400","6856 E Parkway Norte","85212",33.33913336037554,-111.68523073196411
"85212","Mesa","AZ","Knockouts Training","4477 E Harrison St","85295",33.31629943847656,-111.69390869140625
"85212","Mesa","AZ","AZ All Stars","8743 East Pecos Road, Mesa, AZ 85212 @33.284596,-111.644642","85297",33.32133551371754,-111.69282341632656
"85213","Mesa","AZ","Gym","N Val Vista Gardens","85213",33.42227425,-111.75711698333333
"85213","Mesa","AZ","GAP Fitness Academy","116 N Lindsay Rd #5","85213",33.417945861816406,-111.77176666259766
"85215","Mesa","AZ","Build Up Crossfit","4255 East McDowell Road Suite 101","85215",33.465824127197266,-111.73869323730469
"85215","Mesa","AZ","Orangetheory Fitness","2836 N Power Rd","85215",33.467891693115234,-111.68527221679688
"85224","Chandler","AZ","Anytime Fitness","1072 W Chandler Blvd","85224",33.30636,-111.86071
"85224","Chandler","AZ","Scorpion CrossFit","2095 W Frye Rd","85224",33.29817139466109,-111.87780070191282
"85224","Chandler","AZ","Funktional Fitness","not_available","85224",33.305428000000006,-111.87001699999999
"85224","Chandler","AZ","CorePower Yoga","2875 W Ray Road, #14","85224",33.318638965341215,-111.89136959693315
"85224","Chandler","AZ","The Insanity Gym","Evergreen","85225",33.335411071777344,-111.85338592529297
"85224","Chandler","AZ","Focus on Fitness","610 N Alma School Rd","85224",33.314510345458984,-111.859619140625
"85224","Chandler","AZ","Pure Barre","2055 W Frye Rd Ste 5","85224",33.298027625517804,-111.87700992266713
"85224","Chandler","AZ","S-Cape Fitness","401 N Alma School Rd","85224",33.309967041015625,-111.85857391357422
"85224","Chandler","AZ","STA Fit","2130 W Chandler Blvd","85224",33.3071403503418,-111.87844848632812
"85224","Chandler","AZ","The Gym","2450 W Pecos Rd","85224",33.293391,-111.88353300000001
"85224","Chandler","AZ","CYCLEBAR","2855 W Ray Rd Ste 9","85224",33.3196998,-111.8901186
"85224","Chandler","AZ","Planet Fitness","2980 N Alma School Rd","85224",33.34757990126516,-111.86072703704832
"85224","Chandler","AZ","Esporta Fitness","2100 N Dobson Rd","85224",33.3371601,-111.8775258
"85224","Chandler","AZ","Greens Gym","125 S Alma School Rd","85224",33.302243033154895,-111.85846723873685
"85224","Chandler","AZ","Cantara Workout Facility","2475 W Pecos Rd","85224",33.290279388427734,-111.88226318359375
"85224","Chandler","AZ","Freescale Activity Center","1300 N Alma School Rd, Chandler, AZ 85224","85224",33.32618361066468,-111.86539021624456
"85224","Chandler","AZ","QBE Gym","2700 W Frye Rd","85224",33.299914,-111.88834399999999
"85224","Chandler","AZ","Gym At Marriott Courtyard","not_available","85248",33.28990233984746,-111.89301745645005
"85224","Chandler","AZ","MSF @ Home","Unit 2104","85225",33.32651223950189,-111.85626983642578
"85224","Chandler","AZ","Flex Fitness Personal Trainers","2160 N. Alma School Rd. #124","85224",33.33745193481445,-111.85993957519531
"85224","Chandler","AZ","Coronado Crossings Gym","700 N Coronado St","85224",33.315696716308594,-111.8924560546875
"85224","Chandler","AZ","Soliel Gym","725 N Dobson Rd","85224",33.315284729003906,-111.87519836425781
"85224","Chandler","AZ","Chandler-Gilbert YMCA","1655 W Frye Rd","85224",33.297988948366694,-111.86994069497929
"85225","Chandler","AZ","E?S Fitness","1970 E Ray Rd","85225",33.32243250438978,-111.80799857168881
"85225","Chandler","AZ","Gilbert Elementary Gym","not_available","85233",33.34946784776446,-111.7919430448528
"85225","Chandler","AZ","Dial's Muscle Beach","20-98 N 132nd St","85225",33.304662108421326,-111.79901540279388
"85225","Chandler","AZ","Vimtrim Personal Training Services","1820 E Ray Rd","85225",33.32145610716965,-111.80829048156737
"85225","Chandler","AZ","Insanity!","not_available","85225",33.33344555604232,-111.85084708226114
"85225","Chandler","AZ","Boys & Girls Clubs of the East Valley - Gilbert Branch","44 N Oak St","85233",33.350812,-111.793423
"85225","Chandler","AZ","Orangetheory Fitness","1110 S Gilbert Rd Ste 101","85296",33.32974043239486,-111.79084591462097
"85225","Chandler","AZ","Fit Body Boot Camp","950 E Pecos Rd","85225",33.292857858220344,-111.8247982639725
"85225","Chandler","AZ","Floyd Factor","150 N William Dillard Dr Ste D113","85233",33.351112365722656,-111.8320083618164
"85225","Chandler","AZ","The Little Gym of Gilbert","538 S Gilbert Rd Ste 109","85296",33.340356,-111.790986
"85225","Chandler","AZ","Apollo's Gym","3002 N Arizona Ave","85225",33.35039418954704,-111.84235823272178
"85225","Chandler","AZ","Jump Street","455 E Warner Rd Ste 104","85225",33.3343748,-111.8344079
"85225","Chandler","AZ","AZ Boot Camp","3002 N Arizona Ave Ste 10-11","85225",33.35032775108649,-111.8419157408599
"85226","Chandler","AZ","E?S Fitness","4949 W Ray Rd","85226",33.3179394,-111.9267249
"85226","Chandler","AZ","Classic Image Dance","335 N Austin Dr #4","85226",33.3088841,-111.9461476
"85226","Chandler","AZ","The Loomy Little Gym","1100 N Priest Dr","85226",33.322499,-111.963578
"85226","Chandler","AZ","Health & Wellness Center @ VZW","6955 W Morelos Pl","85226",33.291778564453125,-111.96121215820312
"85226","Chandler","AZ","Joyful Yoga Studio","3900 W Ray Rd","85226",33.32046811144505,-111.90859081297161
"85226","Chandler","AZ","Biagio Gym","N Rural Rd.","85226",33.30673567591666,-111.92626995520499
"85233","Gilbert","AZ","The Body Shop Gilbert","217 N Gilbert Rd #101","85234",33.354188,-111.789406
"85233","Gilbert","AZ","CrossFit Gilbert Functional Fitness","1170 N Gilbert Rd Ste 119","85234",33.37082290649414,-111.790771484375
"85233","Gilbert","AZ","Funktional Fitness","213 N Gilbert Rd","85234",33.354258611669266,-111.78929439728486
"85233","Gilbert","AZ","Pinnacle Fit","3245 N Arizona Ave Ste 10","85225",33.35273,-111.841806
"85233","Gilbert","AZ","McQueen Park Activity Center","510 N Horne St","85233",33.35752207430408,-111.81785227934668
"85234","Gilbert","AZ","Vista Montaña","3225 E Baseline Rd","85234",33.378745155647906,-111.76322563222358
"85234","Gilbert","AZ","Crunch Fitness - Gilbert","855 N Gilbert Rd","85234",33.36538088157545,-111.7883352655005
"85234","Gilbert","AZ","The Magic Moving Fat Eraser","not_available","85234",33.376075744628906,-111.77754211425781
"85234","Gilbert","AZ","Freestone Recreation Center","1141 E Guadalupe Rd","85234",33.36386959791413,-111.76646064326641
"85234","Gilbert","AZ","Team Fit","950 N Greenfield Rd","85234",33.368643,-111.73959099999999
"85234","Gilbert","AZ","Black Stripes","4024 E Guadalupe Rd Ste 103","85234",33.365437,-111.7041741
"85234","Gilbert","AZ","Karve Studio","3244 E Guadalupe Rd","85234",33.36616134643555,-111.72048950195312
"85234","Gilbert","AZ","Anytime Fitness","949 N Val Vista Dr Ste 115","85234",33.36762,-111.75529
"85234","Gilbert","AZ","Cross Driven Athletics LLC","7 E Palo Verde St #8","85296",33.34751510620117,-111.7890396118164
"85234","Gilbert","AZ","Shapes Fitness For Women","1829 E Baseline Rd","85233",33.3772315,-111.7920449
"85248","Chandler","AZ","Ocotillo Village Health Club & Spa","4200 S Alma School Rd","85248",33.2447173,-111.866602
"85248","Chandler","AZ","Anytime Fitness","1065 E Riggs Rd","85249",33.218204,-111.822597
"85248","Chandler","AZ","LA Fitness","3985 S Arizona Ave","85248",33.248611990178716,-111.83809458080226
"85248","Chandler","AZ","Sunbird Gym","not_available","85249",33.21529769897461,-111.81053161621094
"85248","Chandler","AZ","Chandler Crossfit","10951 E Cloud Rd","85248",33.225276947021484,-111.84564971923828
"85248","Chandler","AZ","Snap Fitness","990 E Riggs Rd","85249",33.219306094033975,-111.82464264249082
"85248","Chandler","AZ","Orangetheory Fitness","4850 S Gilbert Rd","85249",33.236269,-111.790311
"85248","Chandler","AZ","StudioFIT","1075 W Queen Creek Rd #4","85248",33.26111878655662,-111.86002484209381
"85248","Chandler","AZ","Gym","825 W Queen Creek Rd","85248",33.26014709472656,-111.85557556152344
"85248","Chandler","AZ","F45 Training Chandler South","4901 S Arizona Ave","85248",33.235694,-111.840468
"85248","Chandler","AZ","Orangetheory Fitness","4850 S. Gilbert Road Suite 7","85249",33.236270904541016,-111.79031372070312
"85248","Chandler","AZ","Intel - OC2 Gym","4500 S Dobson Rd","85248",33.24273077875911,-111.8804065593502
"85248","Chandler","AZ","Body Envy BootCamp","22606 S Gilbert Rd","85249",33.2433967590332,-111.7899398803711
"85248","Chandler","AZ","SPENGA Ocotillo","1075 W Queen Creek Rd Ste 4","85248",33.2608752,-111.860136
"85248","Chandler","AZ","Sunbird Fitness Center","6240 S Sunbird Blvd","85249",33.21543884277344,-111.81045532226562
"85248","Chandler","AZ","F45 Training Chandler Steelyard","S Gilbert Rd & E Chandler Heights Rd","85249",33.234127,-111.790064
"85249","Chandler","AZ","EōS Fitness","4185 S Gilbert Rd","85249",33.245660871479366,-111.78782601497869
"85250","Scottsdale","AZ","Anytime Fitness","7704 E Doubletree Ranch Rd","85258",33.5652102,-111.9152772
"85250","Scottsdale","AZ","Gainey Village Health Club & Spa","7477 East Doubletree Ranch Road","85258",33.5653114,-111.9207382
"85250","Scottsdale","AZ","LA Fitness","7365 N Via Paseo del Sur","85258",33.54428429191825,-111.90413845423942
"85250","Scottsdale","AZ","Mountainside Fitness","8929 E Talking Stick Way","85250",33.538424,-111.889025
"85250","Scottsdale","AZ","CrossFit Infinite Strength","8425 N 90th St Ste 3","85258",33.557196013522784,-111.88758786869249
"85250","Scottsdale","AZ","Anytime Fitness","5094 North Hayden Rd","85250",33.510647999999996,-111.910531
"85250","Scottsdale","AZ","Villages At Gainey Ranch","via de ventura","85259",33.56281959157584,-111.90720030322302
"85250","Scottsdale","AZ","Amplify Cycle","8499 E McDonald Dr Suite A","85250",33.5235399,-111.8971949
"85250","Scottsdale","AZ","CycleBar McCormick Ranch","7001 N Scottsdale Rd Ste 172","85253",33.5393414712782,-111.92347473743439
"85250","Scottsdale","AZ","Mohave Middle School Gymnasium","8598 E Jackrabbit Rd.","85250",33.5172,-111.8979
"85250","Scottsdale","AZ","Gym78","not_available","85250",33.522165,-111.914307
"85250","Scottsdale","AZ","SCC Fitness & Wellness Center","9000 E Chaparral Rd","85256",33.51335229896241,-111.88513032413566
"85250","Scottsdale","AZ","Scottsdale Resort & Athletic Club","not_available","85258",33.54520553333333,-111.90720155
"85250","Scottsdale","AZ","Traviata Gym","7027 N Scottsdale Rd","85253",33.540130615234375,-111.92031860351562
"85250","Scottsdale","AZ","Human Performance Specialists","8131 E Indian Bend Rd","85250",33.537649,-111.903827
"85250","Scottsdale","AZ","Row House","6149 N Scottsdale Rd Ste 106","85250",33.52739686936354,-111.92460253621101
"85250","Scottsdale","AZ","Core Concepts","not_available","85251",33.53757576741328,-111.88880218384162
"85250","Scottsdale","AZ","Bella Vita apartments","5995 N 78th St","85250",33.523359352727866,-111.91130074632066
"85250","Scottsdale","AZ","Medicis Fitness Center!","E Vía De Ventura","85256",33.548120649826025,-111.87671821345853
"85250","Scottsdale","AZ","McKesson Onsite Fitness Center","5601 N Pima Rd","85250",33.5180778503418,-111.89054870605469
"85250","Scottsdale","AZ","Scottsdale Resort and Athletic Club","8235 E Indian Bend Rd","85250",33.53767622130007,-111.90268870459903
"85250","Scottsdale","AZ","Rural Metro Corporate Gym","8465 N Pima Rd","85258",33.559547424316406,-111.89066314697266
"85250","Scottsdale","AZ","YogaSix","8777 N Scottsdale Rd Ste 307","85253",33.56481170654297,-111.92552185058594
"85250","Scottsdale","AZ","Stay Fit Fitness Center","7500 E Doubletree Ranch Rd","85258",33.56627752178783,-111.91866997385236
"85251","Scottsdale","AZ","BODI","7034 E 5th Ave","85251",33.497656906943554,-111.92993025773933
"85251","Scottsdale","AZ","Mountainside Fitness Executive Club","7135 E Camelback Rd, #235","85251",33.50169787403683,-111.92841159789027
"85251","Scottsdale","AZ","Curves","4408 N Miller Rd #104","85251",33.500287,-111.918906
"85251","Scottsdale","AZ","Scottsdale Shadows Gymnasium","7800 E Camelback Rd","85251",33.503257,-111.912006
"85251","Scottsdale","AZ","Camellero Gym","4331 N 78th St","85251",33.499734000000004,-111.910677
"85251","Scottsdale","AZ","Body Mechanix","7540 E 6th Ave","85251",33.4988806,-111.91913669999997
"85251","Scottsdale","AZ","Optima Gym","7147 E Rancho Vista Dr","85251",33.50668716216522,-111.92772364070893
"85251","Scottsdale","AZ","Colonial Grand at Old Scottsdale","70th St and Thomas Rd","85251",33.484625093874364,-111.92921971138242
"85251","Scottsdale","AZ","El Dorado Fitness Center","not_available","85257",33.473137137477636,-111.91671372787611
"85251","Scottsdale","AZ","Basic Training","4416 N Miller Rd","85251",33.50035858154297,-111.91860961914062
"85251","Scottsdale","AZ","colonial grand gym","3131 N 70th St","85251",33.48566818237305,-111.92882537841797
"85251","Scottsdale","AZ","The Palladium at Scottsdale Civic Center","4111 N Drinkwater Blvd","85251",33.4956748608515,-111.9201902420434
"85251","Scottsdale","AZ","The Danger Room","4130 N Goldwater Blvd","85251",33.49556350708008,-111.93084716796875
"85251","Scottsdale","AZ","NexLevel Fitness","2980 N Hayden Rd","85251",33.481836,-111.909739
"85251","Scottsdale","AZ","CorePower Yoga","4252 N. Drinkwater Boulevard","85251",33.497292,-111.9223571
"85251","Scottsdale","AZ","Jacked By Jodscheidt","4419 N Scottsdale Rd","85251",33.50082557698457,-111.92556809403249
"85253","Paradise Valley","AZ","Scottsdale Pilates & Yoga","6500 N Scottsdale Rd Fl 2","85253",33.531865,-111.926226
"85253","Paradise Valley","AZ","Sommet Fitness","6500 N Scottsdale Rd","85253",33.5318717956543,-111.92620849609375
"85253","Paradise Valley","AZ","Koncrete Gym","6949 E Shea Blvd ste 120","85254",33.58156967163086,-111.93128204345703
"85253","Paradise Valley","AZ","John's Sweat Box","7007 E Gold Dust Ave","85253",33.576900482177734,-111.92916107177734
"85253","Paradise Valley","AZ","Esporta Fitness","7330 E Shea Blvd","85260",33.58237075805664,-111.92366790771484
"85253","Paradise Valley","AZ","Off The Grid Fitness","10050 N Scottsdale Rd #111","85253",33.57758959547767,-111.92771759826681
"85254","Scottsdale","AZ","Valley Of The Sun Jewish Community Center","12701 N Scottsdale Rd","85254",33.60296158911423,-111.92483473268294
"85254","Scottsdale","AZ","The Tradition At Kierland Fitness Center","Greenway Parkway","not_available",33.620404,-111.93859
"85254","Scottsdale","AZ","La  Camarilla Racquet, Fitness & Swim Club","5320 E Shea Blvd","85254",33.584411,-111.965187
"85254","Scottsdale","AZ","Anytime Fitness","16447 N Scottsdale Rd Ste 109","85254",33.635476000000004,-111.923732
"85254","Scottsdale","AZ","Fitness Center @ The Fairmont Scottsdale Princess","7575 E Princess Dr","85255",33.644879650110326,-111.91747241575558
"85254","Scottsdale","AZ","Edufit","7366 E Shea Blvd","85260",33.583953857421875,-111.92292785644531
"85254","Scottsdale","AZ","Move Group Fitness","14202 N Scottsdale Rd Ste 200","85254",33.61762131948868,-111.92614674568176
"85254","Scottsdale","AZ","DC Elite Fitness","7607 E Greenway Rd #100","85260",33.625328063964844,-111.91542053222656
"85254","Scottsdale","AZ","The View at Cascade","18575 N Scottsdale Rd","85255",33.651422642108614,-111.9251275062561
"85254","Scottsdale","AZ","Jazzercise","14202 N Scottsdale Rd","85254",33.61533926161256,-111.92752088408307
"85254","Scottsdale","AZ","Personal Power Training","7645 e. evans rd #4","85260",33.61602029049703,-111.91562392149702
"85254","Scottsdale","AZ","Recess Endurance Training","14811 N 73rd St Ste 105","85260",33.6213909,-111.9219272
"85254","Scottsdale","AZ","Platinum FitClub","7202 E Cactus Rd","85260",33.597842004677666,-111.92530722942954
"85255","Scottsdale","AZ","Crossfit Forbidden","16099 N 82nd St","85260",33.632415771484375,-111.90235137939453
"85255","Scottsdale","AZ","Mountainside Fitness","9375 E Bell Rd","85260",33.638815,-111.882082
"85255","Scottsdale","AZ","EōS Fitness","14843 N Northsight Blvd","85260",33.62016981545575,-111.89624923850272
"85255","Scottsdale","AZ","DC Ranch Village Health Club & Spa","18501 North Thompson Peak Parkway","85255",33.6560707,-111.8659896
"85255","Scottsdale","AZ","Orangetheory Fitness","23757 N Scottsdale Rd","85255",33.70146560668945,-111.92300415039062
"85255","Scottsdale","AZ","The Highlands Gym","15255 N Frank Lloyd Wright Blvd","85260",33.624711,-111.876411
"85255","Scottsdale","AZ","Foothills Sports Medicine & Rehabilitation","21811 N Scottsdale Rd","85255",33.685266999999996,-111.924723
"85255","Scottsdale","AZ","Mountainside Fitness","9745 W. Happy Valley Rd.","85255",33.712573,-111.873348
"85255","Scottsdale","AZ","The Allison Gym","not_available","85260",33.61240424177241,-111.87794376211298
"85255","Scottsdale","AZ","Troon Mountain Health-Fitness","10440 E Jomax Rd","85262",33.728365999999994,-111.853751
"85255","Scottsdale","AZ","Solutions By Dr Fitness","8888 E Raintree Dr #150","85260",33.621178,-111.889525
"85257","Scottsdale","AZ","LA Fitness","1900 N Scottsdale Rd","85257",33.46872071971052,-111.9268101752619
"85257","Scottsdale","AZ","Tytin Fitness","7620 E McKellips Rd Ste 12","85257",33.451706,-111.916475
"85257","Scottsdale","AZ","UFC Gym Scottsdale","7750 E McDowell Rd, 107","85257",33.46711733732103,-111.91354380312049
"85257","Scottsdale","AZ","The Hampton Inn Gym","Scottsdale rd","not_available",33.44556845918402,-111.9256740247887
"85257","Scottsdale","AZ","Scottsdale Healthcare CrossFit","8322 E McDowell Rd","85257",33.46635,-111.902033
"85257","Scottsdale","AZ","TR3 Athetic","7000 E McDowell Rd","85257",33.466151,-111.930238
"85257","Scottsdale","AZ","Levels Fitness & Nutrition","7607 E McDowell Rd #105","85257",33.46489334106445,-111.91680145263672
"85257","Scottsdale","AZ","ClassFit","7730 E McDowell Rd #106","85257",33.46682357788086,-111.9131088256836
"85257","Scottsdale","AZ","Crossft PHX","2200 N Scottsdale Rd","85257",33.472007751464844,-111.92707824707031
"85257","Scottsdale","AZ","Catalyst Fitness","2334 N Scottsdale Rd Ste A125","85257",33.474481,-111.92698
"85257","Scottsdale","AZ","Thorebeck's Gym","936 N Stadem Dr","85281",33.43948745727539,-111.91433715820312
"85257","Scottsdale","AZ","Scottsdale Gateway Gym","2100 N Scottsdale Rd","85281",33.452126,-111.92863999999999
"85257","Scottsdale","AZ","Anytime Fitness","2240 N Scottsdale Rd","85281",33.453858,-111.927014
"85257","Scottsdale","AZ","Youfit Health Clubs","2845 N Scottsdale Rd #160","85257",33.47975325487112,-111.92380249500269
"85257","Scottsdale","AZ","Pure Fitness","1126 N Scottsdale Rd","85281",33.44130992889404,-111.927107
"85257","Scottsdale","AZ","San Tropez Gym","2700 N Hayden Rd","85257",33.477681702787315,-111.91024118839421
"85257","Scottsdale","AZ","Revitalize Life","700s US HWY 1793 LONGWOOD FL32750","32750",33.452046018994,-111.92295080793457
"85258","Scottsdale","AZ","Gainey Ranch Estate Club","7720 E Gainey Ranch Rd","85258",33.571331,-111.910898
"85258","Scottsdale","AZ","Orangetheory Fitness","9301 E Shea Blvd Ste 114-116","85260",33.58064206195343,-111.88109573224062
"85258","Scottsdale","AZ","YogaSix","9301 E Shea Blvd","85260",33.5817031,-111.8807482
"85258","Scottsdale","AZ","Willtrain","E Ironwood","85258",33.57848346233368,-111.87551736831665
"85258","Scottsdale","AZ","CrossFit Blur","9319 N 94th Way","85258",33.57011413574219,-111.87641906738281
"85258","Scottsdale","AZ","Corp Yard Fitness Center","9191 E San Salvador Dr","85258",33.568907,-111.88247
"85258","Scottsdale","AZ","Curves","9832 N Hayden Rd #200","85258",33.576045,-111.90731299999999
"85258","Scottsdale","AZ","CVS/Caremark Fitness Center","9501 E Shea Blvd","85260",33.58054733276367,-111.87626647949219
"85258","Scottsdale","AZ","Fitness Experience","10155 E Via Linda","85258",33.57435818211549,-111.86132629144363
"85258","Scottsdale","AZ","Crossfit Tempest","9525 E Doubletree Ranch Rd","85258",33.568296000000004,-111.875623
"85258","Scottsdale","AZ","Az FitLife","9326 N 95th Way","85258",33.570095,-111.87565500000001
"85259","Scottsdale","AZ","Mountainside Fitness","11611 E Sahuaro Dr","85259",33.58402,-111.82945
"85259","Scottsdale","AZ","Javier personal Training","not_available","85259",33.588775634765625,-111.8409194946289
"85259","Scottsdale","AZ","Madsweat","11291 E Vía Linda","85259",33.587882,-111.838339
"85259","Scottsdale","AZ","Mostro Fitness","11291 E Via Linda, 124","85259",33.587674557966956,-111.8366848036701
"85259","Scottsdale","AZ","The Little Gym of Scottsdale","10953 N Frank Lloyd Wright Blvd Ste 107","85259",33.585159000000004,-111.83416799999999
"85259","Scottsdale","AZ","Curves","10405 E McDowell Mountain Ranch Rd","85255",33.62680435180664,-111.85556030273438
"85259","Scottsdale","AZ","At Ease Fitness","10953 N Frank Lloyd Wright Blvd","85259",33.585159000000004,-111.83416799999999
"85260","Scottsdale","AZ","CorePower Yoga","15745 N Hayden Rd Ste I-119","85260",33.62851333618164,-111.89336395263672
"85260","Scottsdale","AZ","Prime Body","14500 N Northsight Blvd","85260",33.617251,-111.89841299999999
"85260","Scottsdale","AZ","Mint Condition","917 E Bahia Drive","not_available",33.63749137013895,-111.88284024414251
"85260","Scottsdale","AZ","Ship Shape (@Vanguard)","14321 N Northsight Blvd","85260",33.615041,-111.89645300000001
"85260","Scottsdale","AZ","Redline Athletics - Scottsdale","15001 N Hayden Rd, Scottsdale, AZ","85260",33.620094,-111.906684
"85260","Scottsdale","AZ","Urban Warfit","8261 E Gelding Dr","85260",33.61518,-111.902745
"85260","Scottsdale","AZ","The Mma Lab Scottsdale","7645 E Evans Rd","85260",33.61614227294922,-111.91565704345703
"85260","Scottsdale","AZ","Athleteist","16447 N 91st St Ste 102","85260",33.636566162109375,-111.8843002319336
"85262","Scottsdale","AZ","Sonoran Spa & Fitness Center at Desert Mountain","10225 E Desert Hills Dr, AZ 85262","85262",33.841190338134766,-111.86280059814453
"85262","Scottsdale","AZ","Legend Trail Community Center","34575 N Legend Trail Pkwy","85262",33.798487,-111.87381599999999
"85262","Scottsdale","AZ","Fr. Farley's GYM","36811 N. Pima Road","85377",33.81998062133789,-111.89009857177734
"85262","Scottsdale","AZ","Rio Verde Fitness Center","18804 E Four Peaks Blvd","85263",33.72026256651019,-111.6744363533612
"85262","Scottsdale","AZ","Curves","8900 E Pinnacle Peak Rd","85255",33.700035095214844,-111.88845825195312
"85263","Rio Verde","AZ","Mcdowell mountain ranch gym","16300 mcdowell mountain park drive","85255",33.667381286621094,-111.69786834716797
"85264","Fort Mcdowell","AZ","Crossfit Four Peaks","not_available","85268",33.596908,-111.713869
"85264","Fort Mcdowell","AZ","Peaks Athletic Club","12401-12599 N Saguaro Blvd","85268",33.59905857733299,-111.71628887016713
"85266","Scottsdale","AZ","Cactus Shadows High School","not_available","85266",33.785347093102224,-111.9559898226844
"85266","Scottsdale","AZ","Michelle Lynns Personal Training ( Mobile )","not_available","85262",33.79597854614258,-111.92572784423828
"85266","Scottsdale","AZ","Winfield Fitness Center","Winfield Clubhouse","85262",33.78861751450726,-111.91992756001915
"85266","Scottsdale","AZ","Boulders Fitness Center","34631 N. Tom Darlington Dr.","85377",33.80653762817383,-111.92579650878906
"85266","Scottsdale","AZ","TMS Fitness","33755 N Scottsdale Rd Ste 125","85266",33.79126340000001,-111.92407
"85266","Scottsdale","AZ","Anytime Fitness","32687 N Scottsdale Rd","85266",33.78169,-111.92366
"85268","Fountain Hills","AZ","Anytime Fitness","16425 E Palisades Blvd","85268",33.60955,-111.725323
"85281","Tempe","AZ","Mountainside Fitness","300 E Rio Salado Pkwy Ste 102","85281",33.430823,-111.934223
"85281","Tempe","AZ","Aloft Tempe Gym","951 E Playa del Norte Dr","85281",33.434734000000006,-111.92442199999999
"85281","Tempe","AZ","Onnix Apartments","1440 E Broadway Rd","85282",33.40897622373544,-111.91417526434286
"85281","Tempe","AZ","Authority Fitness","2120 E 6th St","85281",33.42454528808594,-111.89554595947266
"85281","Tempe","AZ","IronGloves Boxing Gym","1425 E University Dr # B109","85281",33.420648228456095,-111.91501103047156
"85281","Tempe","AZ","Optimum Sports Performance LLC","2009 E 5th St Ste 12","85281",33.4251708984375,-111.8990249633789
"85281","Tempe","AZ","Fitness @ Moxy","1333 S Rural Rd","85281",33.41386795043945,-111.9257583618164
"85281","Tempe","AZ","Fit Zone","1301 E University Dr","85281",33.42163325601612,-111.91730674083622
"85281","Tempe","AZ","Az Bodybuilding Personal Training","2103 E Cedar St","85281",33.41157531738281,-111.89595031738281
"85281","Tempe","AZ","Quadrangles Gym","1255 E University Dr","85281",33.42143650539583,-111.92105189780146
"85281","Tempe","AZ","Muscle Factory","1275 E University Dr","85281",33.42184829711914,-111.91849517822266
"85281","Tempe","AZ","Crossfit Southwest","2027 E Cedar St #101","85281",33.41127811535745,-111.89795899396229
"85281","Tempe","AZ","Sun Devil Athletics Weight Room (Carson Student-Athlete Center)","500 E Veterans Way","85281",33.42605972290039,-111.93267059326172
"85281","Tempe","AZ","Regatta Pointe Gym","435 W Rio Salado Prkwy","85281",33.42994215159778,-111.94520028300346
"85282","Tempe","AZ","LA Fitness","63 E Southern Ave","85282",33.39157801860313,-111.93780995514784
"85282","Tempe","AZ","Planet Fitness","3122 S McClintock Dr","85282",33.395802,-111.910249
"85282","Tempe","AZ","Planet Fitness","1405 W Southern Ave","85282",33.39175543402351,-111.9617521258271
"85282","Tempe","AZ","Contempo Tempe Fitness Center","2609 W Southern Ave, Tempe, AZ 85282","85282",33.38954162597656,-111.97569274902344
"85282","Tempe","AZ","Healthy Body Works","4685 S Ash Ave","85282",33.38180160522461,-111.94134521484375
"85282","Tempe","AZ","Ultimate Fitness","4685 S Ash Ave Ste H-1","85282",33.381774283509664,-111.94073011041411
"85282","Tempe","AZ","I AM FUNdamentals","1130 W Alameda Dr #5","85282",33.40108871459961,-111.95700073242188
"85282","Tempe","AZ","I.E Fitness","312 W Laguna Dr","85282",33.391638,-111.94417299999999
"85282","Tempe","AZ","Gym / Fitness Center?hideUnverified=true","1430 W Broadway Rd #104","85282",33.408241271972656,-111.96324920654297
"85282","Tempe","AZ","Arbour Park Fitness Center","1901 E Apache Blvd, Tempe, AZ 85281","85281",33.41288757324219,-111.90435791015625
"85282","Tempe","AZ","solara at mill gym","202 W Hermosa Dr","85282",33.389644867444694,-111.94227454313179
"85282","Tempe","AZ","Gym @ The Park","3409 S Rural Rd","85282",33.391075134277344,-111.92521667480469
"85282","Tempe","AZ","Anderson Training","4685 S. Ash Ave, Suite H-1, Tempe, AZ","not_available",33.38180160522461,-111.94134521484375
"85282","Tempe","AZ","Pro Advantage Training System","1025 E Broadway Rd","85282",33.40705108642578,-111.92316436767578
"85282","Tempe","AZ","201 West Apartments Gym","west hermosa drive","85282",33.3846526,-111.9529412
"85282","Tempe","AZ","revolution training systems","606 W Southern Ave","85282",33.3933513873411,-111.94836920734568
"85283","Tempe","AZ","Orangetheory Fitness","1855 E. Guadalupe Rd. Suite A-102","85283",33.36346566029101,-111.90836876381971
"85283","Tempe","AZ","Inn Suites Workout Room","1651 W Baseline Rd","85283",33.37736511230469,-111.96513366699219
"85283","Tempe","AZ","Gym at Little Cottonwoods","1820 E Bell de Mar","85283",33.36746189445563,-111.91504276697772
"85283","Tempe","AZ","Sunshine Fit Training","2655 W Guadalupe Rd","85202",33.3506861,-111.91315359999999
"85283","Tempe","AZ","Suncadia Gym","560 W Apartment","85283",33.37643317066038,-111.94759434662859
"85283","Tempe","AZ","Body Science Fitness","125 W Gemini Dr Ste E-10","85283",33.36638175092316,-111.94061726331711
"85283","Tempe","AZ","Signature Place 24 Hour Luxury Fitness Center","600 W Grove Pkwy","85283",33.35508346557617,-111.94757080078125
"85283","Tempe","AZ","The Fitness Center","not_available","85283",33.35588834296509,-111.94772243310304
"85283","Tempe","AZ","San Marquis Gym","577 E Baseline Rd","85283",33.377344,-111.9333
"85283","Tempe","AZ","Champion's Training Center","6745 S Harl Ave","85283",33.3589,-111.966001
"85283","Tempe","AZ","Kiwanis Fitness Center","6111 S All American Way","85283",33.36793899536133,-111.93749237060547
"85283","Tempe","AZ","Green leaf Sienna Fitness Center","4839 S Darrow Dr","85282",33.38071823120117,-111.95919799804688
"85283","Tempe","AZ","Free Range Crossfit","5030 S Mill Ave Ste 23","85282",33.37906508182571,-111.94006369256147
"85283","Tempe","AZ","Weon Keyong Health Center ( A Pilates Studio focusing on Core Condition, Group Fitness & Well-Being))","6473 S Rural Rd","85283",33.36262512207031,-111.9278564453125
"85283","Tempe","AZ","Sole Fitness","1700 E Elliot Rd #17","85284",33.350251,-111.913169
"85283","Tempe","AZ","East Valley Jazzercise","6356 S Price Rd","85283",33.364337,-111.89531299999999
"85283","Tempe","AZ","Origins Barbell CrossFit","9831 S 51st St Ste D131","85044",33.357127,-111.974151
"85284","Tempe","AZ","EōS Fitness","1840 E Warner Rd Ste 111","85284",33.33565517347171,-111.90997883283802
"85284","Tempe","AZ","Life Time Fitness","1616 W Ruby Dr","85284",33.34125397518415,-111.96448087692261
"85284","Tempe","AZ","Aspire Volleyball","not_available","85284",33.339857463979826,-111.94718728389863
"85284","Tempe","AZ","Luna Fitness of Tempe","975 E Elliot Rd Ste 106","85284",33.34839274568175,-111.92695415456443
"85284","Tempe","AZ","Airworx","9985 S Rural Rd","85226",33.32135263228259,-111.92683733609807
"85284","Tempe","AZ","Gold's Gym","4950 W Ray Rd","85226",33.321315000000006,-111.92663300000001
"85284","Tempe","AZ","F45 Training Tempe South","9880 S Rural Rd","85284",33.321981,-111.930281
"85284","Tempe","AZ","San Tierra Workout Room","3939 W Windmills Blvd","85226",33.323314256933315,-111.90970358236031
"85284","Tempe","AZ","Honeywell Health And Wellness Center","1300 W Warner Rd","85284",33.33787536621094,-111.95977020263672
"85284","Tempe","AZ","San Ventura Fitness Center","San Ventura","not_available",33.32107874282954,-111.90316196448786
"85284","Tempe","AZ","Method 19 Fitness","9845 S Priest Dr #101","85284",33.321689197734194,-111.96246385574341
"85284","Tempe","AZ","Alpha Elite Fitness","15410 S Mountain Pkwy Ste 101","85044",33.34218517221703,-111.96365220522952
"85284","Tempe","AZ","Planet Fitness","1020 N 54th St","85226",33.3205594,-111.9702861
"85284","Tempe","AZ","Esporta Fitness","7810 S Priest Dr Ste D","85284",33.3465112,-111.9648248
"85284","Tempe","AZ","Climbmax","1330 W Auto Dr Ste 108","85284",33.34308606894727,-111.95877870993911
"85284","Tempe","AZ","EMEYER FITNESS AZ","7420 S Rural Rd","85283",33.35044479370117,-111.92919921875
"85286","Chandler","AZ","Planet Fitness","1420 S Arizona Ave","85286",33.28545954985766,-111.84286717747004
"85286","Chandler","AZ","LA Fitness","3625 S Gilbert Rd","85297",33.28443227074566,-111.78781169286033
"85286","Chandler","AZ","Orangetheory Fitness","1900 W Germann Rd #6","85286",33.27757476713535,-111.87417331706745
"85286","Chandler","AZ","Tyler's Nutrition Training LLC","3260 E Azalea Dr","85286",33.2565787,-111.7858386
"85286","Chandler","AZ","Impact Bootcamp","2040 S Alma School Rd","85286",33.273479982372585,-111.85854434967041
"85286","Chandler","AZ","Gym","1643 E Wildhorse Pl","85286",33.284210205078125,-111.81367492675781
"85286","Chandler","AZ","Mountainside Fitness","1920 S Alma School Rd","85248",33.2778191,-111.8604916
"85286","Chandler","AZ","Club Del Sport","1870 W Germann Rd","85286",33.277244567871094,-111.87403106689453
"85286","Chandler","AZ","The Pitt","2150 E Germann Rd","85286",33.27789636786507,-111.80497724710806
"85286","Chandler","AZ","Zumba","24 hr fitness","85286",33.28861147082598,-111.84822124625141
"85295","Gilbert","AZ","Beyond Fitness Gilbert","1198 E Tyson St","85295",33.310367584228516,-111.76435089111328
"85295","Gilbert","AZ","Mountainside Fitness","3345 S Val Vista Dr","85297",33.290319,-111.754261
"85295","Gilbert","AZ","PNP Fitness","1472 E Williams Field Rd","85295",33.307858,-111.758418
"85295","Gilbert","AZ","Fitness Evolution","1433 E Williams Field Rd","85295",33.305621771550136,-111.75925651139717
"85295","Gilbert","AZ","Borrego At Spectrum - Gym","3004 S Market St","85295",33.298344,-111.747911
"85295","Gilbert","AZ","Fitness 1440 Gilbert","870 E Williams Field Rd","85295",33.3082884,-111.7714519
"85295","Gilbert","AZ","CrossFit Gilbert Functional Fitness","1170 N Gilbert Rd","85234",33.308101028428375,-111.7718447294787
"85295","Gilbert","AZ","9Round Fitness","2487 S Gilbert Road, Suite 115, Ste 115","85295",33.304876,-111.78788899999999
"85295","Gilbert","AZ","Pure Barre","2556 S Val Vista Dr Ste 103","85295",33.30381384019495,-111.7560621710087
"85295","Gilbert","AZ","Mountainside Fitness","3345 S Val Vista Dr Ste 110","85297",33.2902981,-111.754293
"85295","Gilbert","AZ","Skinovative","2557 S Val Vista Dr","85295",33.30390930175781,-111.7548828125
"85295","Gilbert","AZ","My Perfect Body Now Boot Camp","2164 E. Pecos Rd.","85295",33.29300872073335,-111.741026753192
"85296","Gilbert","AZ","Life Time Fitness","381 E Warner Rd","85296",33.33383312,-111.782726
"85296","Gilbert","AZ","Planet Fitness","858 S Greenfield Rd","85296",33.334786,-111.7396
"85296","Gilbert","AZ","Orangetheory Fitness","1440 S Higley Rd","85296",33.32423,-111.721768
"85296","Gilbert","AZ","Fit Method","263 E Warner Rd #103","85296",33.33484649658203,-111.78448486328125
"85296","Gilbert","AZ","Suffer City Gym and Personal Training","263 E Warner Rd","85296",33.334942,-111.783794
"85296","Gilbert","AZ","Body Heart Fitness","1395 E Warner Rd","85296",33.33426,-111.75875800000001
"85296","Gilbert","AZ","Snap Fitness","1459 S Higley Rd","85296",33.32395921103615,-111.72017773521483
"85296","Gilbert","AZ","Fit Life 120","1495 S Higley Rd","85296",33.32298278808594,-111.71965026855469
"85296","Gilbert","AZ","Physiotherapy Associates","W Gilbert Town Square Ave","85233",33.329018180092426,-111.79424867992367
"85296","Gilbert","AZ","LIV Northgate Gym","455 S Recker Rd","85296",33.34227752685547,-111.70234680175781
"85296","Gilbert","AZ","F45 Training East Point 22","E Warner Rd","85296",33.334627,-111.787249
"85297","Gilbert","AZ","E?S Fitness","3300 S Higley Rd","85297",33.2909459,-111.7228989
"85297","Gilbert","AZ","F45 Training Gilbert and the 202","3757 S Gilbert Rd","85297",33.281884,-111.788644
"85301","Glendale","AZ","Glendale Senior Center","not_available","85301",33.53796267980419,-112.18265557424375
"85301","Glendale","AZ","Planet Fitness","5121 W Glendale Ave","85301",33.537273400886406,-112.16960829814758
"85302","Glendale","AZ","EōS Fitness","5070 W Olive Ave","85302",33.56885833612042,-112.16771418062746
"85302","Glendale","AZ","Fitness and Spa","not_available","85302",33.56421742498134,-112.1928108305087
"85302","Glendale","AZ","SUPERIOR GYM","Awesomeness","85302",33.57689666748047,-112.16802215576172
"85302","Glendale","AZ","XL Health Club","5720 W Peoria Ave","85302",33.582861037172684,-112.18222211148884
"85302","Glendale","AZ","Esporta Fitness","5810 W Peoria Ave","85302",33.5832857,-112.1850843
"85304","Glendale","AZ","Orangetheory Fitness","5839 W Thunderbird Rd","85306",33.61056900024414,-112.18553161621094
"85304","Glendale","AZ","Anytime Fitness","6640 W Cactus Rd Ste A 112","85304",33.59744,-112.201
"85304","Glendale","AZ","Youfit Health Clubs","4414 W Cactus Rd","85304",33.5973814,-112.1529649
"85304","Glendale","AZ","YouFit Gym","not_available","85304",33.594708030196514,-112.16882010748111
"85305","Glendale","AZ","The Metro Apartments at Zanjero Gym","9450 W Cabela Dr","85305",33.54191966299714,-112.26345975524782
"85305","Glendale","AZ","RSK Gym","not_available","85303",33.540584564208984,-112.25133514404297
"85306","Glendale","AZ","Planet Fitness","4907 W Bell Rd,Deer Valley","85308",33.637976555009224,-112.16543610406623
"85306","Glendale","AZ","Becker Fitness","5115 W Bell Rd","85308",33.63837814331055,-112.17123413085938
"85306","Glendale","AZ","YMCA","14711 N 59th Ave","85306",33.61911985637354,-112.1848658572367
"85306","Glendale","AZ","E?S Fitness","5860 W Thunderbird Rd","85306",33.6120911,-112.1834934
"85306","Glendale","AZ","Independence Gym","4920 W Thunderbird Rd","85306",33.611184,-112.164553
"85306","Glendale","AZ","24 Hr Fitness","56th ave & Bell rd","not_available",33.638170609760216,-112.18850288397122
"85306","Glendale","AZ","Todds' Gym @ Pureheart","14240 N 43rd Ave","85306",33.614922,-112.15238500000001
"85306","Glendale","AZ","Music Box Dance Center","15410 N 67th Ave","85306",33.625384,-112.203028
"85306","Glendale","AZ","MetaBody Phoenix","5932 W Bell Rd","85308",33.63912582397461,-112.18766784667969
"85307","Glendale","AZ","Luke AFB Gym Annex (East Side)","not_available","85309",33.541497927334866,-112.35566693331687
"85307","Glendale","AZ","CrossFit 623","not_available","85307",33.54166052123374,-112.29638166108545
"85307","Glendale","AZ","Gym (@ Trillium Villas)","10847 W Olive Ave","85345",33.56354522705078,-112.29299926757812
"85308","Glendale","AZ","E?S Fitness","20255 N 59th Ave","85308",33.67000631639564,-112.18460355092623
"85308","Glendale","AZ","LA Fitness","18295 N 83rd Ave","85308",33.64660494367363,-112.23568310507197
"85308","Glendale","AZ","Moore Gym","not_available","85383",33.691826,-112.231972
"85308","Glendale","AZ","Anytime Fitness","6120 W Behrend D Ste 145","85308",33.666861,-112.188337
"85308","Glendale","AZ","Orangetheory Fitness","17530 N 75th Ave","85308",33.64277792480319,-112.22094603743044
"85308","Glendale","AZ","Arrowhead Country Club","not_available","85382",33.667187674002875,-112.23623904977275
"85308","Glendale","AZ","MWU Wellness & Recreation Center","20000 N 57th Ave","85308",33.664452092932905,-112.18219812913703
"85308","Glendale","AZ","Pure Barre","19420 N 59th Ave Ste H820","85308",33.661988,-112.187752
"85308","Glendale","AZ","Planet Fitness","20713 N 83rd Ave","85382",33.67232,-112.23763
"85308","Glendale","AZ","The Isle Gym","20250 N 67th Ave","85308",33.669655,-112.20440900000001
"85308","Glendale","AZ","Esporta Fitness","5536 W Bell Rd","85308",33.6403017,-112.1786033
"85308","Glendale","AZ","Absolute Fitness","17224 N 43rd Ave #104, Glendale, AZ 85308","85308",33.64173889160156,-112.15247344970703
"85308","Glendale","AZ","Fuzion Fitness Personal Training - Arrowhead","19420 N 59th Ave","85308",33.662760868384204,-112.1872919555708
"85308","Glendale","AZ","iLoveKickboxing - Glendale","18561 N 59th Ave Ste 118","85308",33.65297310791388,-112.1849281337853
"85308","Glendale","AZ","Fitness Institute Arrowhead","17437 N 71st Dr #107","85308",33.6428486,-112.2121614
"85308","Glendale","AZ","Canyon Sports, Fitness, and Physical Therapy","19420 N 59th Ave Ste H830","85308",33.662476,-112.187812
"85308","Glendale","AZ","Yorkshire House of Pain","19502 N 41st Ln","85308",33.662546,-112.14958500000002
"85308","Glendale","AZ","F45 Training Arrowhead","7507 West Rose Garden Lane","85308",33.674003,-112.220997
"85309","Luke Air Force Base","AZ","Luke AFB Main Gym","14075-14079 W Shooting Star St","85309",33.53411281553345,-112.36020263318701
"85309","Luke Air Force Base","AZ","944 MXG Memorial Gym","14708 W Super Sabre","85309",33.5302734375,-112.37725830078125
"85310","Glendale","AZ","PCD Gym","7338 W Villa Chula","85310",33.693327000000004,-112.21796499999999
"85310","Glendale","AZ","Oasis Personal Training","19401-19799 N 59th Ave","85308",33.687392,-112.187066
"85310","Glendale","AZ","T's Gym","5958 W Fieldstone Dr","85308",33.680969,-112.187622
"85310","Glendale","AZ","Gymboree","20221 N 67th Ave #E8","85308",33.67045974731445,-112.20140075683594
"85310","Glendale","AZ","Life Time Happy Valley-Peoria Preview Center","24700 North 67th Avenue","85383",33.70790692,-112.20380085
"85323","Avondale","AZ","The Studance LAB","1050 N Fairway Dr Bldg G Ste 101-102","85323",33.453542999999996,-112.32606200000001
"85323","Avondale","AZ","Knockout Fitness Goodyear","13215 W McDowell Rd","85395",33.46314808972085,-112.34365235856995
"85323","Avondale","AZ","Fitness Center @ Ashton Pointe","12175 W McDowell Rd","85392",33.461864197519006,-112.31824139427526
"85323","Avondale","AZ","Synergy Sports Nutrition","1473 N Dysart Rd #104","85323",33.45372009277344,-112.34038543701172
"85323","Avondale","AZ","Esporta Fitness","13035 W Rancho Santa Fe Blvd","85392",33.4592273,-112.3362916
"85323","Avondale","AZ","Planet Fitness","200 N Avondale Blvd","85323",33.44806547713841,-112.3080092229449
"85323","Avondale","AZ","Towneplace Suites Gym","not_available","85338",33.43996717930325,-112.35144088718081
"85323","Avondale","AZ","Coldwater GYM","W Van Buren St, Sun Garden Mobile Home Park, AZ","85323",33.44298830032505,-112.32494343248209
"85323","Avondale","AZ","HybridFit Club","1050 N Fairway Dr Bldg A Ste 106","85323",33.4537213,-112.3262394
"85323","Avondale","AZ","Randell McDaniel Sports Complex","755 N 114th Ave","85323",33.45397616030103,-112.30451720953252
"85323","Avondale","AZ","The Little Gym of Litchfield Park","1400 N Litchfield Rd Ste G8A","85395",33.46238327026367,-112.36042022705078
"85323","Avondale","AZ","Burn It Build It Fitness - W. Rancho Santa Fe Blvd.","13048 W. Rancho Santa Fe Blvd. Ste 101","85392",33.46085821770916,-112.33933568000793
"85323","Avondale","AZ","Red City Movement Fit Club","not_available","85323",33.461647033691406,-112.31840515136719
"85325","Bouse","AZ","Buckskin Fire Dept. St. 11","8500 Riverside Dr, Parker, AZ 85344","85344",34.20750045776367,-114.21537780761719
"85326","Buckeye","AZ","Life Time Fitness","14540 W McDowell Rd","85395",33.46452,-112.37159
"85326","Buckeye","AZ","Orangetheory Fitness","14175 W Indian School Rd","85395",33.48392,-112.362987
"85326","Buckeye","AZ","YMCA","2919 N Litchfield Rd","85395",33.47931188136168,-112.35861817349658
"85326","Buckeye","AZ","Cardio Machines at Life Time Fitness Goodyear Palm Valley","14541 W McDowell Rd","85396",33.465741106948876,-112.3714592029726
"85326","Buckeye","AZ","Rock Wall at Life Time Fitness Goodyear Palm Valley","14548 W McDowell Rd","85403",33.465445,-112.371661
"85326","Buckeye","AZ","Firmin","Gym","not_available",33.472455739974976,-112.39746987819672
"85326","Buckeye","AZ","Starpointe Club","not_available","85326",33.445584931461795,-112.55619159530396
"85326","Buckeye","AZ","CrossFit Fury","600 N Bullard Ave","85338",33.45260677087323,-112.37616320528149
"85326","Buckeye","AZ","Free Weights at Life Time Fitness Goodyear Palm Valley","14542 W McDowell Rd","85397",33.465445,-112.371661
"85326","Buckeye","AZ","Goodyear Adventure Boot Camp","3151 N Litchfield Rd","85395",33.482826232910156,-112.35950469970703
"85326","Buckeye","AZ","Group Fitness at Life Time Fitness Goodyear Palm Valley","14543 W McDowell Rd","85398",33.465445,-112.371661
"85326","Buckeye","AZ","Basketball Court at Life Time Fitness Goodyear Palm Valley","14547 W McDowell Rd","85402",33.465445,-112.371661
"85326","Buckeye","AZ","Perryville gym","not_available","85395",33.475116,-112.442243
"85326","Buckeye","AZ","Orangetheory Fitness","783 S Cotton Ln","85338",33.43941879272461,-112.4257583618164
"85326","Buckeye","AZ","TFW Estrella","17650 W Elliot Rd","85338",33.35739517211914,-112.4295883178711
"85326","Buckeye","AZ","Planet Fitness","515 S Cotton Ln","85338",33.441958,-112.423092
"85331","Cave Creek","AZ","Jazzercise Fitness Center","4815 E. Carefree Hwy 107","85331",33.79727885939397,-111.97768447721627
"85331","Cave Creek","AZ","Snap Fitness","4702 E Happy Coyote Trl","85331",33.79778289794922,-111.98004913330078
"85331","Cave Creek","AZ","carefree fire department gym","37401 N Tom Darlington","85027",33.82477958249964,-111.9241311551765
"85331","Cave Creek","AZ","Carefree Movement Therapy","7518 E Elbow Bend Road","85262",33.82313913,-111.92039707
"85331","Cave Creek","AZ","KarateBuilt ™ Martial Arts Academies","29850 N. Tatum Road","85331",33.7559538,-111.9927319
"85331","Cave Creek","AZ","The Gym","not_available","85331",33.79906497719764,-111.98469264122767
"85331","Cave Creek","AZ","Global Fighting Systems Gym","4536 E Hedgehog Pl","85331",33.73549115287235,-111.98115690335366
"85331","Cave Creek","AZ","The Little Gym of Tatum Ranch","30845 N Cave Creek Rd Ste 104-106","85331",33.76576614379883,-111.98307037353516
"85331","Cave Creek","AZ","Orenda Force","28325 N Tatum Blvd Ste 2","85331",33.74262259647168,-111.97739079877663
"85331","Cave Creek","AZ","Freedom Fitness - Cave Creek","4532 E Lone Mountain Rd","85331",33.77038661852466,-111.98348931258074
"85334","Ehrenberg","AZ","Cruves","137 N Spring St","92225",33.61115276813507,-114.5985496044159
"85334","Ehrenberg","AZ","Blythe Fitness Center","824 E Hobsonway","92225",33.60922622680664,-114.5876693725586
"85334","Ehrenberg","AZ","Blythe Fitness Center","7th Ave","92225",33.6072325,-114.6052638
"85335","El Mirage","AZ","Anytime Fitness","13915 N Dysart Rd Ste A4","85335",33.61055,-112.34145
"85335","El Mirage","AZ","Pete's workout bench","not_available","85363",33.586734771728516,-112.30574035644531
"85335","El Mirage","AZ","Villanueva Recreation Center","15660 N Hollyhock St","85378",33.626851998916244,-112.33157482332477
"85335","El Mirage","AZ","Burn Boot Camp","12100 N Dysart Rd","85335",33.59382,-112.34262
"85338","Goodyear","AZ","Esporta Fitness","1382 S Cotton Ln","85338",33.4340695,-112.4296121
"85339","Laveen","AZ","LA Fitness","5175 W Baseline Rd","85339",33.37611377803917,-112.170682443699
"85340","Litchfield Park","AZ","Mirabella's Weight Room","3800 N El Mirage Dr","85392",33.48958206176758,-112.3259506225586
"85340","Litchfield Park","AZ","EōS Fitness","3005 N Dysart Rd","85392",33.47993206297892,-112.3389608239479
"85340","Litchfield Park","AZ","Arkham Asylum gym","not_available","85340",33.49422105769563,-112.3670527514083
"85342","Morristown","AZ","vulture peak middle school gym","not_available","85390",33.969960542635654,-112.73940635658914
"85342","Morristown","AZ","GTL","12820 W Oyer Ln","85383",33.76810790592221,-112.33727865774628
"85342","Morristown","AZ","Wickenburg Fitness Center","520 Rose Ln","85390",33.97853088378906,-112.73974609375
"85344","Parker","AZ","Weight Room","1821 S Navajo Ave","85344",34.13934326171875,-114.28961181640625
"85344","Parker","AZ","CRIT Diabetes Prevention Program","not_available","85344",34.14366912841797,-114.30347442626953
"85345","Peoria","AZ","Planet Fitness","7565 W Peoria Ave","85345",33.580022,-112.22175800000001
"85345","Peoria","AZ","LA Fitness","8160 N 91st Ave","85345",33.55486881171532,-112.25564045359522
"85345","Peoria","AZ","Allied Crossfit","9299 W Olive Ave","85345",33.56313196601296,-112.25823449182882
"85345","Peoria","AZ","City of Peoria Operations Gym.","not_available","85345",33.562692571387394,-112.24092527846071
"85345","Peoria","AZ","TW BJJ & MMA","7961 W Gold Dust Ave Ste C","85345",33.57611083984375,-112.23014831542969
"85345","Peoria","AZ","a-list fitness","not_available","85351",33.59012222290039,-112.2718276977539
"85345","Peoria","AZ","Orangetheory Fitness","9736 W Northern Ave","85345",33.553863525390625,-112.2689437866211
"85349","San Luis","AZ","Sport Center Fitness","Juarez","83450",32.47106068842264,-114.74839528304662
"85349","San Luis","AZ","Nutrysport","Juarez Y 8","not_available",32.478861,-114.773767
"85349","San Luis","AZ","Crossfit Gym","Internacional Y 29","not_available",32.477277,-114.757052
"85349","San Luis","AZ","Ultra Gym & Fitness","Av. Guadalupe Victoria","not_available",32.465858457942936,-114.74591408712858
"85349","San Luis","AZ","TRX Suspension Fitness","Ave. Revolucion 33 y 34","not_available",32.46700999419655,-114.74589335096054
"85349","San Luis","AZ","Border Fitness Gym","1938 East Juan Sanchez Blvd # 1","not_available",32.49675750732422,-114.7551498413086
"85350","Somerton","AZ","FA Fitness","Traxcala","not_available",32.450696636823146,-114.76312577195259
"85350","Somerton","AZ","rinos gym","Avenida Jalisco","83477",32.454997960144865,-114.77099772720257
"85350","Somerton","AZ","The Office of Hugeness","not_available","85365",32.65313856557723,-114.63205240157163
"85353","Tolleson","AZ","Zumba Fitness w/ Krystal Harris","9419 W Van Buren St","85353",33.448818,-112.26433899999999
"85353","Tolleson","AZ","LA Fitness","9880 W Lower Buckeye Rd","85353",33.42434258598034,-112.27139812438107
"85353","Tolleson","AZ","Fitness Factory Arizona","9897 W McDowell Rd","85353",33.4637451171875,-112.27094268798828
"85353","Tolleson","AZ","Maribella Weight Room","not_available","85392",33.46184,-112.271996
"85355","Waddell","AZ","Mountainside Fitness","15455 W Bell Rd","85374",33.637042,-112.392357
"85355","Waddell","AZ","Esporta Fitness","16635 W Bell Rd","85374",33.6378173828125,-112.41665649414062
"85355","Waddell","AZ","MooseheadFitness","16053 N 171st Dr","85388",33.6306037902832,-112.42709350585938
"85355","Waddell","AZ","Planet Fitness","15569 W Bell Rd,Suite 569","85374",33.637169147527686,-112.39561837479937
"85355","Waddell","AZ","Desired Physiques Fitness Center","14763 W Cactus Rd","85379",33.59414251128894,-112.3783777456489
"85355","Waddell","AZ","Gym","not_available","85374",33.63380983875427,-112.3787295286284
"85355","Waddell","AZ","Crossfit Surprise","16995 W Greenway Rd","85388",33.623376729665594,-112.42463985521564
"85355","Waddell","AZ","La Borgata Gym & Tanning","16671 N Litchfield Rd","85374",33.63547134399414,-112.35811614990234
"85355","Waddell","AZ","Knockout Fitness","13839 West Bell Road","85374",33.6364426,-112.3577091
"85355","Waddell","AZ","EvoFit Surprise","13437 N Litchfield Rd","85379",33.60593,-112.35734
"85355","Waddell","AZ","Oasis Fitness","Bell road","85374",33.636886,-112.382922
"85355","Waddell","AZ","Fitness 1 Gym","802 E. Union Hills","85024",33.60591226062871,-112.35713360070244
"85355","Waddell","AZ","Villas @ MVR Fitness Center","16630 N Reems Rd","85374",33.635797238056306,-112.39637328554691
"85361","Wittmann","AZ","Desert Moon Motor Room","not_available","85387",33.718389032044534,-112.45219908831997
"85364","Yuma","AZ","Snap Fitness Yuma Valley","3840 W 24th St #2","85364",32.68419061676959,-114.66577990995746
"85364","Yuma","AZ","Yuma Family YMCA","1917 W 32nd St","85364",32.6809473,-114.62530158333334
"85364","Yuma","AZ","Loyalty Fitness","3780 S 4th Ave Ste H2","85365",32.65927505493164,-114.62493896484375
"85364","Yuma","AZ","Meres Butt","200-298 S Madison Ave","85364",32.72213489,-114.61959712
"85364","Yuma","AZ","CrossFit Yuma","1735 S 1st Ave","85364",32.659201764287744,-114.62497485595335
"85364","Yuma","AZ","MC2","24th","85364",32.673999,-114.681948
"85364","Yuma","AZ","Sun Country Restoration (Zumba)","3121 E 33rd Pl","85365",32.666577000000004,-114.579348
"85364","Yuma","AZ","MCAS Fitness Center","MCAS YUMA, Bldg 545","85369",32.657112961190194,-114.58980457962438
"85364","Yuma","AZ","Snap Fitness Yuma","2780 S Pacific Ave Ste B","85365",32.67719163960984,-114.59931553991662
"85364","Yuma","AZ","Vigilante Fitness","not_available","85364",32.695722,-114.646343
"85364","Yuma","AZ","Rowing","Fuss - Terrell Garage","85365",32.657498329827,-114.53190624539525
"85364","Yuma","AZ","Planet Fitness","1232 S Castle Dome Ave","85365",32.70505882640538,-114.60896398126799
"85364","Yuma","AZ","Best Western Inn Fitness Center","1450 S Castle Dome Ave","85365",32.701566,-114.60822399999999
"85364","Yuma","AZ","Quechan Rez Rec. Center","The Rez","not_available",32.746040441198,-114.61533192862933
"85364","Yuma","AZ","Emancipation Crossfit","2165 S Factor Avenue","85365",32.68855285644531,-114.61324310302734
"85364","Yuma","AZ","World Gym","2205 W 23rd St","85364",32.685517514936244,-114.64654829355823
"85364","Yuma","AZ","Holiday Inn Fitness Center","E 18th St","85365",32.69370445176782,-114.61109844600817
"85364","Yuma","AZ","Jump Up","2081 S Kennedy Ln","85365",32.690174,-114.6089941
"85364","Yuma","AZ","Hardcore Personal Training And Fitness","3970 W 24th St Ste 107","85364",32.68477769388838,-114.66655134809265
"85364","Yuma","AZ","Club Yuma Fitness and Sports Center","3131 S Winsor Ave","85365",32.672627,-114.604554
"85365","Yuma","AZ","Ferny's Fitness!","not_available","85367",32.68131378531265,-114.43286138099171
"85365","Yuma","AZ","Snap Fitness Yuma Foothills","11274 S Fortuna Rd Ste C4","85367",32.667767173194385,-114.44756317747749
"85373","Sun City","AZ","Just Get Fit Personal Training","10530 W Carlota Ln","85383",33.684772,-112.286446
"85373","Sun City","AZ","Anytime Fitness","24640 N Lake Pleasant Rd Ste 103","85258",33.70774,-112.27475
"85373","Sun City","AZ","My Fitness Center","123 Westside","not_available",33.67022915319608,-112.30917692184448
"85373","Sun City","AZ","Power Gym","not_available","85373",33.68508109973382,-112.2910525958946
"85373","Sun City","AZ","Mountainside Fitness","9745 W Happy Valley Rd","85383",33.709189,-112.269103
"85373","Sun City","AZ","The Lakes Recreation Center","19251 N Westbrook Pkwy","85382",33.658178469472546,-112.26573589025963
"85373","Sun City","AZ","CrossFit A.R.M.S.","11294 W Bell Rd #105","85378",33.639766693115234,-112.30386352539062
"85373","Sun City","AZ","Lotus Club Fight & Fitness","18700 N 107th Ave","85373",33.6533504,-112.2907041
"85374","Surprise","AZ","EōS Fitness","16750 W Bell Rd","85374",33.6402303,-112.4197
"85374","Surprise","AZ","CrossFit Celsius","13260 W Foxfire Dr","85375",33.64240127014546,-112.34534467149945
"85374","Surprise","AZ","Surprise Angels Gymnastics","13200 W Foxfire Dr., Ste 142","85378",33.642728999999996,-112.34433899999999
"85374","Surprise","AZ","Rose Garden Gym","West Suerra Dawn Blvd","85378",33.636397,-112.310321
"85374","Surprise","AZ","CoMotion Fitness AZ","13939 W Grand Ave","85374",33.64723,-112.363114
"85374","Surprise","AZ","Orangetheory Fitness","16846 W Bell Rd","85374",33.640109,-112.421573
"85375","Sun City West","AZ","Sun city Palm Ridge","not_available","85375",33.684877,-112.35614776611328
"85381","Peoria","AZ","EOS Fitness - Peoria","8440 W Thunderbird Rd","85381",33.61144843339782,-112.24060072565413
"85381","Peoria","AZ","Visions Serenity Power Gym","not_available","85381",33.60843477310055,-112.24894132102796
"85381","Peoria","AZ","Kalvery Fitness","12370 N 83rd Ave","85381",33.597013000000004,-112.238548
"85381","Peoria","AZ","Crossfit North Valley","77th Ave","85381",33.61878200588075,-112.22548105339217
"85382","Peoria","AZ","TRX Suspension Group Training","16140 N Arrowhead Fountains Ctr Dr #103","85382",33.63432312011719,-112.23751831054688
"85382","Peoria","AZ","Gracie Barra Brazilian Jiu-Jitsu & Self Defense","20799 North 83rd Avenue #102","85382",33.67238,-112.2391003
"85382","Peoria","AZ","Fitness 19","8110 W Union Hills Dr","85308",33.65401675,-112.233786
"85382","Peoria","AZ","Empire Fitness","16671 N 84th Ave Ste 180","85382",33.63480758666992,-112.24247741699219
"85382","Peoria","AZ","Crossfit Incendia","21465 N 78th Ave Ste 180","85382",33.67862319946289,-112.22598266601562
"85382","Peoria","AZ","AZ Muay Thai & Fitness","9001 W Union Hills Dr","85382",33.65205383300781,-112.2523422241211
"85382","Peoria","AZ","Hammer Crossfit","8615 W Kelton Ln","85382",33.63404420856486,-112.24611213360782
"85382","Peoria","AZ","Mountainside Fitness Arrowhead","20250 N 75th Ave","85308",33.668951,-112.222607
"85383","Peoria","AZ","Orangetheory Fitness","25314 N Lake Pleasant Pkwy","85383",33.71392024411728,-112.27465015599644
"85383","Peoria","AZ","F-H Fitness Center","28620 N El Mirage Rd Ste 101","85383",33.74259567260742,-112.32298278808594
"85383","Peoria","AZ","Title Boxing Club","15090 N Northsight Blvd","85383",33.68292195104545,-112.23705404693206
"85392","Avondale","AZ","Anytime Fitness","12958 W Indian School Rd","85340",33.494599,-112.337966
"85395","Goodyear","AZ","Racquetball at Life Time Fitness Goodyear Palm Valley","14549 W McDowell Rd","85404",33.465445,-112.371661
"85395","Goodyear","AZ","Title Boxing Club- Goodyear","15367 W McDowell Rd","85395",33.46416473388672,-112.38887023925781
"85395","Goodyear","AZ","E?S Fitness","15277 W McDowell Rd","85395",33.46253485148756,-112.38747074355126
"85396","Buckeye","AZ","Verrado Village Sport & Health Club","4239 N Village St","85396",33.49608959769907,-112.51132924744866
"85396","Buckeye","AZ","Planet Fitness","1341 S Watson Rd","85326",33.434265,-112.556166
"85501","Globe","AZ","Globe Gym","201 N. Ash St.","85501",33.39646,-110.789102
"85501","Globe","AZ","Boxer Fitness","not_available","85539",33.41084347403959,-110.84211653279668
"85501","Globe","AZ","Cobre Valley Country Club","4877 W Cypress Way","85539",33.4185940587269,-110.82763731479645
"85541","Payson","AZ","Rim Country Crossfit","1506 W Bravo Taxiway #17","85541",34.25400924682617,-111.35398864746094
"85541","Payson","AZ","Gym","LAREDO","85541",34.24516048047797,-111.3322002999171
"85541","Payson","AZ","Anytime Fitness","101 E Hwy 260 Ste B","85541",34.23953,-111.32206
"85542","Peridot","AZ","Burdette Hall","San Carlos Ave. & Yavapai St.","85550",33.357308863142165,-110.45255184173584
"85542","Peridot","AZ","San Carlos Fitness Center","San Carlos Ave. & Aravaipa Rd.","85550",33.34565833638016,-110.45168280601501
"85543","Pima","AZ","Local Edge fitness","not_available","85546",32.83389382362091,-109.71659565280667
"85543","Pima","AZ","Eighth Street Fitness","3333 W 8th St","85552",32.83102035522461,-109.7555923461914
"85602","Benson","AZ","Butterfield RV Resort gym","251 S Ocotillo Ave","85602",31.967710494995117,-110.30537414550781
"85602","Benson","AZ","Xtreme Fit","801 W 4th St","85602",31.970355987548828,-110.31209564208984
"85602","Benson","AZ","Fitness Center","not_available","85748",32.240905,-110.683635
"85602","Benson","AZ","Frontier Fitness Club","500 S Highway 80,","85602",31.96409034729004,-110.28972625732422
"85603","Bisbee","AZ","Lowell Gym","Erie Street","85603",31.43079265172859,-109.89416842283863
"85607","Douglas","AZ","M. C. Fitness Center","not_available","85607",31.345804,-109.554704
"85613","Fort Huachuca","AZ","Barnes Field House","Hatfield St","85613",31.560299061580974,-110.35132904620095
"85613","Fort Huachuca","AZ","McCloskey Wellness Room","2133 Cushing St","85613",31.56334686279297,-110.34923553466797
"85614","Green Valley","AZ","GV Crossfit","630 W Ward Ln Ste 112","85614",31.88721466064453,-111.00177764892578
"85614","Green Valley","AZ","Anza Athletic Club","not_available","85614",31.889965189194122,-110.94049688090722
"85615","Hereford","AZ","Summit Express","1993 Frontage Rd","85635",31.533240999999997,-110.256546
"85615","Hereford","AZ","Alma Dolores International Dance Centre","3811 S Highway 92","85650",31.499855,-110.257389
"85615","Hereford","AZ","Crossfit Huachuca","1965 Frontage Rd","85635",31.534496999999998,-110.256257
"85615","Hereford","AZ","Cochise Health And Racquet Club","4225 Avenida Cochise","85635",31.533377,-110.254492
"85615","Hereford","AZ","Holiday Inn Express Fitness Center","not_available","85635",31.534976128789673,-110.25933757913715
"85615","Hereford","AZ","Casa Antiqua Gym","2299 Oakmont Dr","85635",31.527873,-110.265027
"85619","Mount Lemmon","AZ","Orangetheory Fitness","not_available","85750",32.27478811310927,-110.87388739370984
"85619","Mount Lemmon","AZ","Canyon Ranch - Gyms 2, 3, 4","8600 E Rockcliff Rd","85750",32.284839223412696,-110.80831839126124
"85619","Mount Lemmon","AZ","Sabercat gym","5000 N Bowes Rd","85749",32.298784000000005,-110.787866
"85619","Mount Lemmon","AZ","Sharon's Personal Training","5501 N Swan Rd #150","85718",32.306697845458984,-110.89299774169922
"85619","Mount Lemmon","AZ","iLoveKickboxing - Tucson, AZ","6890 E Sunrise Dr Ste 160","85750",32.306943282336334,-110.84577732939147
"85619","Mount Lemmon","AZ","Ventana Vista Gym","5051 N Sabino Canyon Rd","85750",32.298744201660156,-110.82554626464844
"85619","Mount Lemmon","AZ","Ventana Crossfit","6875 E Sunrise Dr #131","85750",32.29699531190933,-110.82451966894936
"85619","Mount Lemmon","AZ","zumba fitness","not_available","85711",32.28712007409307,-110.89251376302126
"85619","Mount Lemmon","AZ","Summerlin Villas Gym","not_available","85712",32.267766709894964,-110.89032133209751
"85619","Mount Lemmon","AZ","Arboretum Fitness Center","4700 N Kolb Rd","85750",32.292642,-110.83810700000001
"85619","Mount Lemmon","AZ","Anytime Fitness","4784 E Sunrise Dr","85718",32.307178,-110.89138799999999
"85619","Mount Lemmon","AZ","Select Fitness","5501 N Swan Rd Ste 150","85718",32.3067086,-110.8930537
"85619","Mount Lemmon","AZ","Sierra Fitness","5455 N Kolb Rd","85750",32.30564782317573,-110.84449942378069
"85619","Mount Lemmon","AZ","Ventana Canyon Golf and Racquet Club (Gym)","6200 N Club House Ln","85750",32.32222366333008,-110.84379577636719
"85619","Mount Lemmon","AZ","Body Mindfulness Center","not_available","85739",32.50602853319,-110.8846892980695
"85621","Nogales","AZ","fitness eXpress","2051 N Grand Ave","85621",31.369140625,-110.93238067626953
"85621","Nogales","AZ","SunFed Gym","51 Kipper St","85648",31.459075499873833,-110.98371957465179
"85623","Oracle","AZ","Desert View Fitness Center","39900 Clubhouse","85739",32.53634833288932,-110.87771689249678
"85623","Oracle","AZ","The Body Shop","540 S Avenue A","85631",32.600442,-110.63158899999999
"85629","Sahuarita","AZ","Clubhouse @ Rancho Sahuarita","15455 S Camino Lago Azul","85629",31.970003048794556,-110.96797323773623
"85629","Sahuarita","AZ","Sonora Del Webb clubhouse","not_available","85629",31.98952522796316,-110.9792779190568
"85634","Sells","AZ","Hopp","Highway 86","not_available",31.921246412174952,-111.89415278467035
"85634","Sells","AZ","Wrestling Room","12000 W Emigh Rd, Tucson, AZ 85743","85743",32.3680534362793,-111.22100830078125
"85635","Sierra Vista","AZ","CrossFit Cochise","4148 Industry Dr","85635",31.564271926879883,-110.25507354736328
"85635","Sierra Vista","AZ","Summit Fitness","934 E. Fry Blvd.","85635",31.553744841093003,-110.28981339355285
"85635","Sierra Vista","AZ","Lee's Cardio & Fitness","650 E Wilcox Dr","85635",31.551853,-110.29308700000001
"85635","Sierra Vista","AZ","Buena Health Fitness Center","255 W Wilcox Dr","85635",31.55255860916093,-110.30161874642309
"85635","Sierra Vista","AZ","4th Ave. Gym","not_available","85634",31.55673611111111,-110.25645833333333
"85641","Vail","AZ","La Mariposa","1501 N Houghton Rd","85749",32.24205210269491,-110.77877816258803
"85641","Vail","AZ","Curves","150 S Houghton Rd","85748",32.218902587890625,-110.77394104003906
"85641","Vail","AZ","Billy's Boot Camp","not_available","85710",32.21060562133789,-110.81796264648438
"85641","Vail","AZ","The Motivator Personal Fitness Training","7831 E Wrightstown Rd","85715",32.25074,-110.82612
"85641","Vail","AZ","Hilton Tucson East Gym","7600 E Broadway Blvd","85710",32.219493883333335,-110.830278
"85641","Vail","AZ","Canyon Fitness","not_available","85715",32.257401,-110.80323700000001
"85641","Vail","AZ","Making You Better Personal Training","2251 N Indian Ruins Rd","85715",32.249435999999996,-110.845607
"85641","Vail","AZ","Carolyn's Gym","1015 S Camino de Las Colinas","85748",32.208964,-110.770853
"85641","Vail","AZ","Orangetheory Fitness","6307 E Broadway Blvd","85710",32.22279739379883,-110.85746765136719
"85641","Vail","AZ","Lakeside Casitas Gym","8250 E Golf Links Rd","85730",32.18991,-110.81703799999998
"85641","Vail","AZ","TakeDown","9550 E Golf Links Rd","85730",32.19072341918945,-110.78852081298828
"85641","Vail","AZ","Anytime Fitness","8868 Tanque Verde Rd","85749",32.25745,-110.80325
"85641","Vail","AZ","Pure Barre","not_available","85747",32.096942,-110.782908
"85641","Vail","AZ","Platinum Fitness","9550 E Golf Links Rd #190","85730",32.191062930143595,-110.78837969127883
"85643","Willcox","AZ","Special K's Gym","not_available","85643",32.2419319152832,-109.87505340576172
"85645","Amado","AZ","cristas total fitness","26 Tubac Rd, Suite D","85646",31.612062454223633,-111.04927062988281
"85653","Marana","AZ","Orangetheory Fitness","9170 N Silverbell Rd","85743",32.373847,-111.136486
"85658","Marana","AZ","The Gallery Sports Club","13965 N Dove Mountain Blvd","85658",32.462208358804034,-111.08131418528598
"85658","Marana","AZ","Anytime Fitness","12040 N Thornydale Rd Ste 106","85658",32.4254,-111.04382
"85658","Marana","AZ","Oro Valley Recreation","not_available","85737",32.41561035476225,-111.00141063204265
"85701","Tucson","AZ","Arizona Sonora Gym","not_available","85719",32.2289338800107,-110.95745401491637
"85701","Tucson","AZ","Wildcat CrossFit","300 S Park Ave","85719",32.21847636170997,-110.95649419096256
"85701","Tucson","AZ","Rocks and Ropes","330 S Toole Ave","85701",32.21748085076916,-110.96119372331533
"85701","Tucson","AZ","Downtown Lohse YMCA","60 W Alameda St","85701",32.22419529108278,-110.97265884861906
"85701","Tucson","AZ","One North Fifth Gym","1 N 5th Ave","85701",32.222322,-110.967522
"85701","Tucson","AZ","6th Street Gym","221 E 6th St, Tucson, AZ 85705","85705",32.22809982299805,-110.9681167602539
"85701","Tucson","AZ","Platinum Fitness","110 S Church Ave","85701",32.2208121479592,-110.97293210939061
"85704","Tucson","AZ","LA Fitness","8850 N Oracle Rd","85704",32.36717035075018,-110.96739669232564
"85704","Tucson","AZ","Orangetheory Fitness","7057 N Oracle Rd","85704",32.335543,-110.978205
"85704","Tucson","AZ","Pure Barre","7121 N Oracle Rd","85704",32.33597679345869,-110.9781641772746
"85704","Tucson","AZ","Promontory Apartments Fitness Center","60 W Stone Loop","85704",32.29811534015772,-110.97288614643884
"85704","Tucson","AZ","Valley View Gym","5025 N 1st Ave","85718",32.29854077329946,-110.96358876300854
"85704","Tucson","AZ","Platinum Fitness","7315 N Oracle Rd","85704",32.33995409078791,-110.97773757356882
"85704","Tucson","AZ","Snap Fitness","5095 N La Canada Dr Ste 105","85704",32.298909,-110.996468
"85704","Tucson","AZ","Anytime Fitness","7937 N. Oracle Rd.","85704",32.35028,-110.97702
"85704","Tucson","AZ","Westward Look Fitness Center","not_available","85704",32.343448164866885,-110.96460249133193
"85704","Tucson","AZ","CrossFit Now","1861 W Grant Rd #107","85745",32.29590196459469,-111.00539140129668
"85704","Tucson","AZ","Body2Build Training Systems","8851 N Oracle Rd","85704",32.3680305480957,-110.97035217285156
"85704","Tucson","AZ","The Gym @ El Conquistador Resort","N. Oracle Rd","85737",32.38662304290529,-110.95616752525483
"85705","Tucson","AZ","Undisputed Tucson","1240 N Stone Ave","85705",32.237987575348974,-110.9715099004048
"85705","Tucson","AZ","Chuze Fitness","4343 N. Oracle Rd., Ste 173","85705",32.285453045008246,-110.97992949030262
"85705","Tucson","AZ","Gym","2525 W Anklam Rd","85745",32.22331619262695,-111.02196502685547
"85705","Tucson","AZ","GetFitAZ","905 W Prince Rd","85705",32.271440999999996,-110.987369
"85705","Tucson","AZ","Life Fitness Systems","954 W Grant Rd","85705",32.25103759765625,-110.98716735839844
"85705","Tucson","AZ","Prestige Fitness","4490 N 1st Ave","85719",32.2880551523684,-110.96052715481613
"85705","Tucson","AZ","Westcourt Fitness Center","2600 W Ironwood Hill Dr","85745",32.252215,-111.02315800000001
"85705","Tucson","AZ","Pro Health & Fitness","1290 W Prince Rd","85705",32.272943,-110.99348400000001
"85705","Tucson","AZ","Sandstone Fitness Center","405 E Prince Rd","85705",32.27307310040532,-110.96513271331787
"85705","Tucson","AZ","World Gym","3327 N 1st Ave","85719",32.267621000000005,-110.961428
"85705","Tucson","AZ","Personal Training at the Foundry Co.","705 N Main Ave","85705",32.231293,-110.97836399999998
"85705","Tucson","AZ","Anytime Fitness","2500 N Silverbell Rd Ste 100","85745",32.253032,-111.014071
"85705","Tucson","AZ","Old Gym","Yavapai","85705",32.26901286966611,-110.97494105798795
"85706","Tucson","AZ","Intuit Fitness Center","not_available","85706",32.14395726242802,-110.92975880162713
"85706","Tucson","AZ","CrossFit Lanista","5120 S Julian Dr","85706",32.161033,-110.92143
"85706","Tucson","AZ","Psychosomatic Transformation Center - Valencia","653 W Valencia Rd","85706",32.133006,-110.978831
"85706","Tucson","AZ","LazyDays KOA Fitness Center","5151 S Country Club Rd","85706",32.15885378875556,-110.92416485342504
"85707","Tucson","AZ","Arthur J. Benko Fitness and Sport Center","Building 2301","not_available",32.182586896638995,-110.88164338269618
"85707","Tucson","AZ","DM EOD Crossfit","not_available","85708",32.17816150093519,-110.88244349304438
"85710","Tucson","AZ","Snap Fitness","8832 E Broadway Blvd","85710",32.21966025444573,-110.803906096597
"85710","Tucson","AZ","Boxing Inc","7543 E Broadway Blvd","85710",32.22148672453229,-110.83092823470699
"85710","Tucson","AZ","fitness center","1108 Pantano Road","not_available",32.207645452203366,-110.82418862921945
"85710","Tucson","AZ","The Press Room","1108 S Pantano Rd","85710",32.207558589604986,-110.82464264472299
"85711","Tucson","AZ","Planet Fitness","4722 E Broadway Blvd","85711",32.221044,-110.890779
"85711","Tucson","AZ","Neutral Corner Boxing","1130 S Wilmot Rd","85711",32.20614977479113,-110.85936863573494
"85711","Tucson","AZ","DoubleTree Fitness By Precore","445 S Alvernon Way","85711",32.21474838256836,-110.90901947021484
"85711","Tucson","AZ","Evolution Fitness","5252 E Speedway Blvd","85712",32.235512638674976,-110.88009617537986
"85711","Tucson","AZ","Elite Tucson Training","975 N. Alvernon","not_available",32.2340735,-110.9100617
"85711","Tucson","AZ","LA Fitness","240 S Wilmot Rd","85711",32.21896462306545,-110.8601259668046
"85711","Tucson","AZ","Warrior Fitness","5151 E Broadway Blvd","85711",32.222595136873196,-110.88240274642409
"85711","Tucson","AZ","Weight Room","5353 E 22nd St","85711",32.20778274536133,-110.87804412841797
"85711","Tucson","AZ","Boxing Inc.","6121 E Broadway Blvd","85711",32.22254051666667,-110.86145185
"85711","Tucson","AZ","ETT Kids Athletic Conditioning","975 N Alvernon Way","85711",32.234107971191406,-110.91004180908203
"85711","Tucson","AZ","FitCenter","5555 E 5th St","85711",32.22939682006836,-110.87395477294922
"85711","Tucson","AZ","Force Kickboxing & Fittness","4925 E 29th St","85711",32.20002746582031,-110.88750457763672
"85712","Tucson","AZ","Lighthouse / City YMCA","2900 N Columbus Blvd","85712",32.262367857264195,-110.90046187634609
"85712","Tucson","AZ","The Fit Center","5 st.","85712",32.2408984,-110.8757593
"85712","Tucson","AZ","Fred Astaire Dance Studios - Tucson","4811 E Grant Rd Ste 151","85712",32.252059,-110.89051299999998
"85712","Tucson","AZ","Psychosomatic Transformation Center - Grant","4444 E Grant Rd #109","85712",32.2502159,-110.8976265
"85712","Tucson","AZ","Platinum Fitness","5851 E Speedway Blvd","85712",32.237269496683034,-110.86675999057839
"85712","Tucson","AZ","LA Fitness","2475 N Swan Rd","85712",32.25178622832274,-110.89412476989864
"85712","Tucson","AZ","Crossfit Purgatory","4500 E Speedway Blvd #45","85712",32.242106509614025,-110.8890246853279
"85713","Tucson","AZ","Desert Sports & Fitness - Ajo","3672 S 16th Ave","85713",32.1809869,-110.9843955
"85713","Tucson","AZ","Mulcahy YMCA at Kino Community Center","2805 E Ajo Way","85713",32.18072960091665,-110.9301053076407
"85713","Tucson","AZ","STFD/STPD Fitness","1601 S 6th Ave","85713",32.20210266113281,-110.96758270263672
"85713","Tucson","AZ","Bare Bones Barbell Club","244 S Tucson Blvd, Tucson, AZ 85719","85719",32.21965789794922,-110.93579864501953
"85713","Tucson","AZ","Stronghold Climbing And Fitness","244 S Tucson Blvd","85716",32.219648,-110.935689
"85713","Tucson","AZ","Mid-Valley Athletic Club","140 S Tucson Blvd","85716",32.220341175168805,-110.93707489284775
"85713","Tucson","AZ","Brown's Boot Camp","Reid Park w/Mindy","85711",32.206776611796165,-110.93577592499621
"85713","Tucson","AZ","The Gym at the reserve","not_available","85745",32.21971893889168,-111.02647180681056
"85713","Tucson","AZ","Chuze Fitness","3693 S. 16th Ave","85713",32.17942254,-110.98071565
"85713","Tucson","AZ","Tucson Southwest Boxing Academy","3723-3731 E 37th St","85713",32.191781401634216,-110.91295301914215
"85714","Tucson","AZ","Holiday Inn Workout Room","4550 S Palo Verde Rd","85714",32.169578552246094,-110.91905212402344
"85714","Tucson","AZ","LA Fitness","5325 S Calle Santa Cruz","85706",32.1549254,-110.9890754
"85714","Tucson","AZ","Planet Fitness","4755 S Calle Santa Cruz Rd","85714",32.163788,-110.99035
"85715","Tucson","AZ","the BLOC climbing+fitness","8975 E Tanque Verde Rd","85749",32.26007271495978,-110.80047483776293
"85715","Tucson","AZ","F45 Training Northeast Tucson","7000 E Tanque Verde Rd","85715",32.249983,-110.842006
"85715","Tucson","AZ","Desert Sports & Fitness - Northeast","2480 N Pantano Rd","85715",32.2525028,-110.8228756
"85716","Tucson","AZ","Orangetheory Fitness","2501 E Grant Rd","85716",32.25052,-110.93501
"85716","Tucson","AZ","Tucson Racquet & Fitness Club","4001 N Country Club Rd","85716",32.28029811089138,-110.92783003078753
"85716","Tucson","AZ","Toros Clubhouse Fitness","not_available","85716",32.22186529464398,-110.92856198008002
"85716","Tucson","AZ","Jabz Boxing - Tucson Central","3400 E Speedway Blvd, Suites 116-118","85716",32.235694,-110.9202552
"85716","Tucson","AZ","Tucson Therapy","Edith Blvd.","not_available",32.258527,-110.922015
"85718","Tucson","AZ","LA Fitness","4240 N 1st Ave","85719",32.28417622691546,-110.95929070672581
"85718","Tucson","AZ","F45 Training St. Philips","4280 N Campbell Ave","85718",32.285032,-110.943071
"85718","Tucson","AZ","Fit At La Paloma","not_available","85718",32.309856,-110.908284
"85718","Tucson","AZ","Westin Workout Room","Westin La Paloma","not_available",32.316551680776264,-110.91489939601763
"85718","Tucson","AZ","Koko FitClub","10785 N Oracle Rd #175","85737",32.40202434232225,-110.95637357386907
"85718","Tucson","AZ","Tmc Cardiac Rehabilitation","2404 E River Rd","85718",32.28555679321289,-110.9359359741211
"85718","Tucson","AZ","New Gym","Oracle","85741",32.26987462798786,-110.95411845780255
"85718","Tucson","AZ","The Legends at La Paloma","3750 E Via Palomita","85718",32.31197164,-110.91363866
"85719","Tucson","AZ","Fitness Center @ Marriott","880 E 2nd St","85719",32.232540130615234,-110.95828247070312
"85719","Tucson","AZ","Curves","1949-1999 E Glenn St","85719",32.256949,-110.94349199999999
"85719","Tucson","AZ","University Hights. Personal Trainer","1201 N Park Ave","85719",32.237945556640625,-110.95738220214844
"85719","Tucson","AZ","Pivirotto Wellness Center","1501 N Campbell Ave","85724",32.241501503816444,-110.94570731476098
"85719","Tucson","AZ","Boxing Inc University","2524 N Campbell Ave","85719",32.25293090116207,-110.94367643851363
"85719","Tucson","AZ","Better Bodies Personal Training","3122 N Campbell Ave","not_available",32.263692999999996,-110.943141
"85730","Tucson","AZ","PTC Psychosomatic Transformation Center","60 North Harrison Road","85748",32.2221851,-110.78780169999999
"85730","Tucson","AZ","William Clements Fitness Center","8155 E Poinciana Dr","85730",32.168513978932545,-110.8182806205227
"85730","Tucson","AZ","Morning Workout","not_available","85730",32.188352544788806,-110.8447165013005
"85730","Tucson","AZ","Turbo Gym","4425 S White Pine Dr","85730",32.170017,-110.83086899999999
"85730","Tucson","AZ","LA Fitness","9350 E Golf Links Rd","85730",32.1903095539248,-110.79280918605251
"85735","Tucson","AZ","Yaqui Wellness Center - Gym","5305 W Calle Torim","85757",32.107120513916016,-111.07499694824219
"85737","Tucson","AZ","Oro Valley Fitness 24","10550 N La Canada Dr Ste 160","85737",32.39780328467304,-110.99414808967919
"85737","Tucson","AZ","Anytime Fitness","11911 N 1st Ave Ste 101","85737",32.42211,-110.96218
"85737","Tucson","AZ","jazzercise oro valley resurrection","11575 N 1st Ave","85737",32.4166259765625,-110.96223449707031
"85737","Tucson","AZ","F45 Training Oro Valley","1335 W Lambert Ln","85737",32.39484,-110.994217
"85737","Tucson","AZ","Lady of America Fitness Center","12142 N Rancho Vistoso Blvd","85755",32.426759999999994,-110.959497
"85741","Tucson","AZ","LA Fitness","2950 W Ina Rd","85741",32.33854758659702,-111.03101836546095
"85741","Tucson","AZ","CrossFit Northwest Tucson","6800 N. Camino Martin","not_available",32.33363289981595,-111.0573781415685
"85741","Tucson","AZ","The Gym","Crystal Cave Dr","85741",32.33969162201053,-111.0218204734133
"85741","Tucson","AZ","Amped Fitness","3603 W Cortaro Farms Rd #135","85742",32.3582471677743,-111.04318526771381
"85741","Tucson","AZ","Northwest YMCA Pima County Community Center","7770 N Shannon Rd","85741",32.34649172794278,-111.02362869001466
"85741","Tucson","AZ","Psychosomatic Transformation Center - Ina","2840 W Ina Rd, Ste 156","85741",32.338255,-111.028477
"85741","Tucson","AZ","Ultima Self Defense and Fitness","4241 W Ina Rd Ste 111","85741",32.336578369140625,-111.05561065673828
"85742","Tucson","AZ","Northwest ymca","not_available","85741",32.35916102353772,-111.12932787945182
"85742","Tucson","AZ","Snap Fitness Marana","8567 N Silverbell Rd #123","85743",32.36232010543106,-111.11947615044491
"85742","Tucson","AZ","Anytime Fitness","7475 W. Twin Peaks Rd. Sre. 103-109","85743",32.37434,-111.12515
"85742","Tucson","AZ","Desert Sports and Fitness Express","9725 N Thornydale Rd., Ste 131","85741",32.38262677754759,-111.048053960261
"85742","Tucson","AZ","Man Cave Gym","10905 N Camino de Oeste","85742",32.404883,-111.068024
"85742","Tucson","AZ","LA Fitness","5885 W Arizona Pavilions Dr","85743",32.352894493905794,-111.09056122325443
"85742","Tucson","AZ","Psychosomatic Transformation Center - Silverbell","8235 N Silverbell Rd #175","85743",32.3560905456543,-111.11344146728516
"85742","Tucson","AZ","F45 Training Marana","8275 N. Silverbell Rd","85743",32.357165,-111.11409
"85745","Tucson","AZ","Gateway Gym","2800 W Broadway Blvd","85745",32.222219,-111.026843
"85746","Tucson","AZ","Jetts Logan Central","Wembly Rd","85746",32.154481,-110.995863
"85746","Tucson","AZ","Desert Sports & Fitness Express - Southwest","3030 W Valencia Rd Ste 272","85746",32.13481,-111.03062
"85747","Tucson","AZ","Zona Fitness","8160 S Houghton Rd","85747",32.103427,-110.774662
"85747","Tucson","AZ","F45 Training Rita Ranch","10185 East Old Vail Road","85747",32.089522,-110.774945
"85747","Tucson","AZ","Snap Fitness","7545 S Houghton Rd","85747",32.1148022481281,-110.77175386484315
"85756","Tucson","AZ","Falcon Field Bldg 844","1151 E Hermans Rd","85756",32.10587078791478,-110.95170778530026
"85901","Show Low","AZ","Ironworks Gym","861 E Cooley St","85901",34.2529296875,-110.03302764892578
"85901","Show Low","AZ","the dance academy","not_available","85929",34.193336486816406,-110.01632690429688
"85901","Show Low","AZ","Bodyworks","4800 S White Mountain Rd","85901",34.20536731675191,-110.02147927466739
"85924","Concho","AZ","Fortunae Imperas","1330 Zuni","not_available",34.49312210083008,-109.8599853515625
"85929","Lakeside","AZ","Pinetop Fitness Zone","857 W White Mountain Blvd","85935",34.127018,-109.94497199999999
"85929","Lakeside","AZ","The Gym - Pinetop","not_available","85935",34.12719,-109.944552
"85937","Snowflake","AZ","Mountain Multi Fit","501 S Main St","85937",34.502272999999995,-110.07863799999998
"85941","Whiteriver","AZ","N'dee Bii Fitness Center","202 Upper N. Terrace Ave","not_available",33.82327840969917,-109.98007535934448
"86001","Flagstaff","AZ","Flagstaff Athletic Club - W Route 66","1200 W Route 66","86001",35.20839952756262,-111.5769132116943
"86001","Flagstaff","AZ","Summit Health And Fitness","1301 W University Ave","86001",35.18374806876077,-111.67240814189928
"86001","Flagstaff","AZ","Anytime Fitness","2500 S Woodlands Vlg Dr Ste 21","86001",35.1778,-111.66792
"86001","Flagstaff","AZ","home away from home","3601 Lake Mary Rd","86005",35.16404342651367,-111.66502380371094
"86001","Flagstaff","AZ","Truly Fit","5200 E Cortland Blvd Ste A19","86004",35.21286392211914,-111.5770034790039
"86001","Flagstaff","AZ","Wayman","3321 N Wayman St","86004",35.219084,-111.610508
"86001","Flagstaff","AZ","Muscle Man Heaven","1385 W. University Ave. (Clubhouse)","86001",35.18305969238281,-111.67280578613281
"86001","Flagstaff","AZ","Rich's Treadmill","516 E Cherry Ave","86001",35.197746,-111.641709
"86001","Flagstaff","AZ","Flagstaff Aquaplex","1702 N 4th St","86004",35.20483650019632,-111.61044944561675
"86001","Flagstaff","AZ","Armory Gym","254-340 N Thorpe Rd","86001",35.2042927,-111.6573534
"86001","Flagstaff","AZ","Bear Ridge Apartment Workout Room","3300 S Gila Dr #0","86005",35.165979,-111.656508
"86001","Flagstaff","AZ","Dig Deep Insanity (flagstaff)","2420 S Woodlands Village Blvd","86001",35.178260803222656,-111.6677017211914
"86001","Flagstaff","AZ","Build Your Own Body Gym","1802 W Kristy Ln Ste 200","86001",35.19023895263672,-111.67591094970703
"86001","Flagstaff","AZ","High Altitude Personal Training","not_available","86001",35.1758837525154,-111.66898757678196
"86001","Flagstaff","AZ","Truly Fit","5200 E Cortland Blvd","86004",35.21286392211914,-111.5770034790039
"86001","Flagstaff","AZ","Ponderosa Park Gym","not_available","86004",35.20158,-111.63183
"86001","Flagstaff","AZ","Flagstaff Mixed Martial Arts","1929 N 4th St","86004",35.20742416381836,-111.61370849609375
"86001","Flagstaff","AZ","Hilton Garden Inn Fitness Center","350 W Forest Meadows St","86001",35.179634,-111.662098
"86001","Flagstaff","AZ","Flagstaff Family YMCA","1001 N Turquoise Dr","86001",35.20485762905769,-111.63950212190456
"86001","Flagstaff","AZ","Fairfield Fitness Center","1000 N Country Club Dr","86004",35.21530532836914,-111.57826232910156
"86001","Flagstaff","AZ","New Roots Personal Training","2605 E 7th Ave","86004",35.211066,-111.610995
"86004","Flagstaff","AZ","CrossFit Flagstaff","1072 E Old Canyon Ct","86001",35.190050140081794,-111.63830714258015
"86004","Flagstaff","AZ","CYCLEBAR","319 S Regent St Ste 206","86001",35.19178771972656,-111.64313507080078
"86004","Flagstaff","AZ","NAU Recreation Center","824 S San Francisco St Bldg 25","86011",35.1896591209788,-111.65150065056513
"86011","Flagstaff","AZ","Woodlands Village Apartments Gym","813 W University Ave","86001",35.182519,-111.664652
"86020","Cameron","AZ","Quality Inn Gym","not_available","86045",36.130735,-111.240578
"86023","Grand Canyon","AZ","Yavapai P90X Gym","not_available","86046",36.056611,-112.117981
"86023","Grand Canyon","AZ","Grand Canyon Recreation Center","Albright Ave","86023",36.05088048197439,-112.13668380638399
"86028","Petrified Forest Natl Pk","AZ","PEFO Fitness Room","1Park RD","86028",35.066165924072266,-109.77997589111328
"86033","Kayenta","AZ","Kayenta Fitness Center","not_available","86033",36.727981382891954,-110.2481460571289
"86040","Page","AZ","The Lord's Gym","263 S Lake Powell Blvd.","86040",36.913848876953125,-111.4519271850586
"86040","Page","AZ","Insanity","not_available","86040",36.924864,-111.454808
"86046","Williams","AZ","Results Fitness Center","106 N 4th St","86046",35.250017,-112.190559
"86046","Williams","AZ","The Hot Box Gym","987 Tolani Ovi","86001",35.100425720214844,-111.69427490234375
"86047","Winslow","AZ","Xtreme Fitness","200 W Second St","86047",35.02406311035156,-110.69912719726562
"86047","Winslow","AZ","Dilkon Wellness Center","not_available","86047",35.38551993290306,-110.29946188602743
"86301","Prescott","AZ","Planet Fitness","1841 E State Route 69,Suite 112","86314",34.548724656602076,-112.43342849174536
"86301","Prescott","AZ","Prescott YMCA","750 Whipple St","86301",34.55772776119049,-112.47865345708787
"86301","Prescott","AZ","Champions Gym","not_available","86301",34.56331217830266,-112.44206824874941
"86301","Prescott","AZ","Prescott Fitness","3600 Ranch Dr","86303",34.547962,-112.40101100000001
"86301","Prescott","AZ","Prescott Downtown Athletic Club","130 N Cortez St","86301",34.542939000000004,-112.46903799999998
"86301","Prescott","AZ","Captain CrossFit","420 6th St","86301",34.54653527402287,-112.46668095889787
"86301","Prescott","AZ","Her Fitness","not_available","86305",34.562344,-112.483799
"86301","Prescott","AZ","TNT Fitness","301 Whipple St","86301",34.556613,-112.47246000000001
"86301","Prescott","AZ","Prescott Lakes Athletic Club","E Smoketree Lane","86301",34.582297,-112.44738000000001
"86301","Prescott","AZ","Prescott Family Fitness-East","3600 Ranch Road Dr.","86303",34.549302,-112.403374
"86301","Prescott","AZ","Anytime Fitness","3190 Willow Creek Rd","86301",34.60196057709221,-112.45774179697037
"86301","Prescott","AZ","Miller's Gym","2624 College Heights Rd","86301",34.59178924560547,-112.46498107910156
"86301","Prescott","AZ","Snap Fitness","1046 Willow Creek Rd","86301",34.560909271240234,-112.48468017578125
"86301","Prescott","AZ","Mile High Fitness","not_available","86303",34.54788804533365,-112.4009778216974
"86301","Prescott","AZ","Your Soul Shine","843 Miller Valley Rd Ste 201","86301",34.5564105,-112.4816248
"86301","Prescott","AZ","CrossFit Prescott / Praxis Athletics","3260 Tower Rd Ste C","86305",34.605759,-112.461861
"86303","Prescott","AZ","Prescott Racquet Club","1 Kingswood Dr","86305",34.572757,-112.52229399999999
"86303","Prescott","AZ","Stoneridge Fitness Center","1300 N Stoneridge Dr","86314",34.5619366676735,-112.34041585835497
"86303","Prescott","AZ","Snap Fitness","1454 W Gurley St","86305",34.544371999999996,-112.49195900000001
"86305","Prescott","AZ","Anytime Fitness","759 N Hwy 89","86323",34.75657,-112.45347
"86305","Prescott","AZ","Gym","Bagdad Airport (BGT), Bagdad, AZ 86321","86321",34.580401094698274,-113.1716057044409
"86314","Prescott Valley","AZ","Anytime Fitness","6715 E 2nd St Ste A","86314",34.5793,-112.34825
"86314","Prescott Valley","AZ","Comfort Suites Fitness Center","Comfort Suites","not_available",34.58082509817638,-112.36543893814087
"86314","Prescott Valley","AZ","Victory Fitness","11971-12035 Arizona 69","86327",34.5546477995843,-112.25443668462323
"86314","Prescott Valley","AZ","Fusion of Movement","6401 E 2nd St Ste E","86314",34.579157,-112.353426
"86314","Prescott Valley","AZ","Kate's House of Fitness","not_available","86314",34.587547302246094,-112.32723236083984
"86314","Prescott Valley","AZ","Snap Fitness","6455 N Viewpoint Dr","86314",34.635925,-112.33275900000001
"86314","Prescott Valley","AZ","Tapestry Gym","Spouse Dr","86314",34.61292391,-112.34362453
"86322","Camp Verde","AZ","Snap Fitness 24-7","400 W Finnie Flat Rd","86322",34.565863609313965,-111.86089932918549
"86324","Clarkdale","AZ","Golden Cobra Center Of Fitness","not_available","86326",34.73976135253906,-112.01009368896484
"86326","Cottonwood","AZ","Planet Fitness","1655 E Cottonwood St","86326",34.728514,-112.009495
"86326","Cottonwood","AZ","Snap Fitness","976 S Main St","86326",34.721837,-112.00410900000001
"86335","Rimrock","AZ","Snap Fitness","6560 State Rte","86351",34.779726214796426,-111.76348874324162
"86335","Rimrock","AZ","Gym at The Ridge Resort","not_available","86351",34.773023,-111.766555
"86336","Sedona","AZ","West End Personal Fitness Center","2050 Yavapai Dr","86336",34.86671447753906,-111.79653930664062
"86336","Sedona","AZ","Sedona Spa at Los Abrigados","160 Portal Ln","86336",34.862938,-111.763876
"86336","Sedona","AZ","Snap Fitness","2065 W State Route 89a","86336",34.8629492772651,-111.79677333839433
"86401","Kingman","AZ","Planet Fitness","3911 N Stockton Hill Rd","86409",35.235811,-114.038176
"86401","Kingman","AZ","Anytime Fitness","3900 Stockton Hill Rd Ste M","86409",35.23685,-114.0359
"86401","Kingman","AZ","curves","not_available","86401",35.23949204693709,-114.02279263138847
"86401","Kingman","AZ","Kingman Fitness And Racquet Club","1950 Kino Ave","86409",35.23188668236978,-114.03430873105113
"86401","Kingman","AZ","Fitness for $10","3990 Stockton Hill Rd","86409",35.239115,-114.035758
"86403","Lake Havasu City","AZ","Strapped & Fit","not_available","86404",34.511423,-114.314055
"86403","Lake Havasu City","AZ","Anytime Fitness","62 S Lk Havasu Ave","86403",34.47259,-114.34193
"86403","Lake Havasu City","AZ","Universal Gymastics","2775 Kiowa Blvd S","86403",34.49432373046875,-114.31107330322266
"86403","Lake Havasu City","AZ","Planet Fitness","1755 McCulloch Blvd N","86403",34.476973,-114.342176
"86403","Lake Havasu City","AZ","Ben Hicks yoga studio","2000 McCulloch Blvd N Ste A","86403",34.47656181107359,-114.33189511299133
"86403","Lake Havasu City","AZ","Trisatya Yoga Retreats","2180 McCulloch Blvd N Ste B # 102","86403",34.47490433735036,-114.32360523618371
"86403","Lake Havasu City","AZ","Havasu CrossFit","1050 Lake Havasu Ave N #C","86403",34.505705171044,-114.3474646216604
"86403","Lake Havasu City","AZ","London Bridge Racquet & Fitness Club","1407 McCulloch Blvd N","86403",34.471964,-114.34989099999999
"86413","Golden Valley","AZ","Anytime Fitness","3699 Hwy 95 Suite 660","86442",35.05317,-114.59105
"86413","Golden Valley","AZ","tri-state athletic","not_available","92363",34.82574021420258,-114.59534715452473
"86413","Golden Valley","AZ","Bullhead Health Club","Hwy 95","86442",34.99967575073242,-114.599365234375
"86413","Golden Valley","AZ","Mad Dogs Fitness","2270 Hwy 95","86442",35.10108226949816,-114.59437266062001
"86413","Golden Valley","AZ","Avi Resort Gym","not_available","86442",35.095516204833984,-114.59398651123047
"86413","Golden Valley","AZ","Bullhead Health Club","967 Hancock Rd #65","86442",35.10874493699774,-114.61409297939203
"86413","Golden Valley","AZ","Gym on the water","not_available","89029",35.14566171044107,-114.57674749417905
"86441","Dolan Springs","AZ","Trainer's","Charleston","86441",35.709366,-114.479825
"86503","Chinle","AZ","Tsaile Health & Wellness Center","not_available","86556",36.300976328824824,-109.2229574918747
"86503","Chinle","AZ","Chinle Wellness Center","not_available","86503",36.15835317958614,-109.60658674859137
"86505","Ganado","AZ","Hoo'zhoo'gii Wellness Center","not_available","86505",35.71171019088485,-109.54399254206942
