"zip","city","state","name","address","postalCode","lat","lon"
"01001","Agawam","MA","LA Fitness","1150 Hall of Fame Ave Ste 1","01105",42.09543608387003,-72.58682012557983
"01001","Agawam","MA","Bootcamp","not_available","01001",42.065359,-72.623479
"01001","Agawam","MA","Gold's Gym","1452 Memorial Ave","01089",42.09270773295979,-72.62233724942716
"01001","Agawam","MA","Agawam YMCA Express","Springfield Street","01001",42.089243,-72.629782
"01001","Agawam","MA","Active Lifestyle Fitness, LLC","168 Elm St","01001",42.06567071378231,-72.62290723621845
"01001","Agawam","MA","Next Fitness And Crossfit Catch","491 Springfield St","01030",42.08265686035156,-72.64544677734375
"01001","Agawam","MA","Hilton Inn Indoor Pool And Gym","800 W Columbus Ave","01105",42.092044830322266,-72.58428955078125
"01001","Agawam","MA","Anytime Fitness","200 Silver St","01001",42.06204,-72.63318
"01002","Amherst","MA","Totman Gym","30 Eastman Ln","01003",42.3958261564156,-72.5259017944336
"01002","Amherst","MA","The Boulders Workout Room","Brittany Manor Dr","01002",42.3506305844416,-72.5280765755368
"01002","Amherst","MA","Hampshire Athletics","not_available","01002",42.365435551144984,-72.48569349965685
"01002","Amherst","MA","Nepaabdul","not_available","01035",42.37542,-72.518437
"01002","Amherst","MA","The Body Tailor","100 University Dr","01002",42.370567321777344,-72.53205871582031
"01002","Amherst","MA","The Aerobics And fitness Studio","Massachusetts 9, Cordaville, MA","01585",42.37298912851642,-72.49997050927189
"01002","Amherst","MA","Fitness Together - Amherst","534 Main St","01002",42.37602557513636,-72.50948763252352
"01007","Belchertown","MA","Anytime Fitness","35 Turkey Hill Rd Rt 21 Suite 101","01007",42.26652,-72.41855
"01013","Chicopee","MA","Muevelo Dance Fitness","25 Center St","01013",42.14730296742287,-72.60688341330011
"01013","Chicopee","MA","Baystate Health employee fitness center","330 Birnie Avenue","01199",42.123384690668786,-72.61133134791301
"01013","Chicopee","MA","Bally Fitness","not_available","01089",42.133084,-72.619992
"01013","Chicopee","MA","Michael J. Ashe Gymnasium","not_available","01107",42.114825024548004,-72.59026996485262
"01013","Chicopee","MA","Neos","bernie ave","not_available",42.18531316346558,-72.6072541395788
"01013","Chicopee","MA","Fitness Center","310 Plainfield St, Springfield, MA 01107","01107",42.116268157958984,-72.61356353759766
"01013","Chicopee","MA","house Of Hard Glutes","532 Main St","01040",42.196026,-72.61063299999999
"01013","Chicopee","MA","Health Trax","155 Ashley Ave","01089",42.13645886486996,-72.62483302901578
"01013","Chicopee","MA","Baystate Gym","354","not_available",42.123218,-72.611651
"01020","Chicopee","MA","Club Fitness","1501 Memorial Dr","01020",42.197501,-72.572053
"01020","Chicopee","MA","Westover Fitness Center Break Room","not_available","not_available",42.200444,-72.542884
"01020","Chicopee","MA","Planet Fitness","90 Carando Dr","01104",42.14555712306316,-72.53523433875537
"01020","Chicopee","MA","Westover ARB Fitness Center","not_available","01022",42.20046597527564,-72.54296551831169
"01020","Chicopee","MA","Nasty Habit CrossFit","68 Winter St","01040",42.200215,-72.60052900000001
"01020","Chicopee","MA","Hyatt Gym","not_available","01020",42.173945,-72.577875
"01027","Easthampton","MA","Pioneer Valley CrossFit","375 South St","01060",42.307052,-72.64445400000001
"01027","Easthampton","MA","Strength For Life Health & Fitness Center","116 Pleasant St Ste 125","01027",42.273274,-72.663721
"01027","Easthampton","MA","Anytime Fitness","135 King St","01060",42.324213,-72.632349
"01027","Easthampton","MA","Williston Gym","not_available","01027",42.26319601049713,-72.67630380633211
"01027","Easthampton","MA","Brazilian Jiu Jitsu | Cardio MMA | Kickboxing - TEAM LINK NORTHAMPTON","141 Damon Rd Ste H","01060",42.3382034,-72.6303317
"01027","Easthampton","MA","The Gym at The Hotel Northampton","36 King St","01060",42.32035827636719,-72.63133239746094
"01027","Easthampton","MA","Soul Fitness","15 College Hwy","01073",42.252094,-72.697862
"01027","Easthampton","MA","SHOW Circus Studio","150 Pleasant St #113","01027",42.27458189036038,-72.66014207026305
"01027","Easthampton","MA","Snap Fitness of Easthampton","39 Union St","01027",42.26915990666595,-72.67067822595286
"01027","Easthampton","MA","Olin Fitness Center","not_available","01060",42.31494425907155,-72.6393982368797
"01027","Easthampton","MA","Ashtanga Yoga","25 Main St Ste 210B","01060",42.32027053833008,-72.62915802001953
"01027","Easthampton","MA","BY Fitness Center","not_available","01104",42.2625642,-72.668907
"01027","Easthampton","MA","Pure Barre","63 King St","01060",42.3210331813763,-72.63092022147845
"01027","Easthampton","MA","Fitness Together - Northampton","22 Strong Ave","01060",42.319867226577266,-72.62807217194415
"01028","East Longmeadow","MA","Orangetheory Fitness","434 N Main St","01028",42.0770412,-72.5266295
"01028","East Longmeadow","MA","Century Fitness","491 N Main St","01028",42.07940058344352,-72.53048106499665
"01028","East Longmeadow","MA","Pure Barre","432 N Main St","01028",42.0770868,-72.5263577
"01028","East Longmeadow","MA","Mercy Wellness Center","45 Crane Ave","01028",42.066019,-72.51553
"01028","East Longmeadow","MA","Attain Therapy + Fitness","168 Denslow Rd","01028",42.040849,-72.52985600000001
"01028","East Longmeadow","MA","Fitness Together","66 Dwight Rd #2","01106",42.058556,-72.537417
"01028","East Longmeadow","MA","All American Gynastics","not_available","01028",42.072762,-72.501742
"01028","East Longmeadow","MA","Continuum Perfotmance Center East Longmeadow Ma","18 Maple Ct","01028",42.06266,-72.515999
"01030","Feeding Hills","MA","Final Destination Fitness","28 Southwick St","01030",42.06766128540039,-72.68023681640625
"01030","Feeding Hills","MA","Fitness First","60 N Westfield St","01030",42.06932026199427,-72.67728936666593
"01033","Granby","MA","Tanya Gets You Fit","54 W State St","01033",42.245435,-72.545371
"01035","Hadley","MA","Planet Fitness","367 Russell St","01035",42.355771,-72.548839
"01035","Hadley","MA","50/50 Fitness/Nutrition","251 Russell St","01035",42.34809870605082,-72.56971049308777
"01035","Hadley","MA","Pioneer Valley CrossFit","220 Russell St","01035",42.34608137212382,-72.57557945219963
"01035","Hadley","MA","Orangetheory Fitness","7 S Maple St","01035",42.35557556152344,-72.55154418945312
"01035","Hadley","MA","F45 Training Hampshire Meadows","207 Russell St","01035",42.344316,-72.577242
"01035","Hadley","MA","Fit Together","Russel St.","01035",42.346509439788704,-72.5729475960667
"01036","Hampden","MA","Total 24 Fitness","not_available","01036",42.059074,-72.441633
"01040","Holyoke","MA","Snap Fitness","506 Westfield Rd","01040",42.186716,-72.650024
"01040","Holyoke","MA","Greater Holyoke YMCA","171 Pine St","01040",42.20771796827335,-72.61445412139862
"01056","Ludlow","MA","Core Fitness","433 Center St","01056",42.16932239538843,-72.48203271896917
"01056","Ludlow","MA","All Day All Night Fitness","not_available","01056",42.156461,-72.482484
"01057","Monson","MA","The FitClub Gym","354 Wilbraham St","01069",42.1540237,-72.36816189999999
"01057","Monson","MA","Asylum Fitness","289 Wilbraham St","01069",42.155563194259486,-72.36393553938906
"01069","Palmer","MA","Gil's Gym And Racquet","159 Wilbraham St","01069",42.16076,-72.355
"01069","Palmer","MA","Tori Gym","Aeropuerto 1069","01069",42.22328567504883,-72.31138610839844
"01069","Palmer","MA","Palmer Gym","not_available","01069",42.16827421747309,-72.34567819231647
"01077","Southwick","MA","Tribe Life Athletics","809 College Hwy","01077",42.08896255493164,-72.7642822265625
"01077","Southwick","MA","Southwick Basketball Courts","454 College Hwy","01077",42.05288314819336,-72.76951599121094
"01077","Southwick","MA","Xrossover Fitness LLC","320 D College Highway","01067",42.040433945816886,-72.78445978649194
"01085","Westfield","MA","Expert Fitness","not_available","01085",42.112104662667605,-72.72026159056038
"01085","Westfield","MA","Anytime Fitness","415 E Main St","01085",42.11214,-72.72399
"01085","Westfield","MA","Balance Total Body Fitness","Sandy Hill Road","not_available",42.136152044249606,-72.72230386734009
"01085","Westfield","MA","CrossFit SWARM","79 Mainline Dr","01085",42.11005401611328,-72.73104095458984
"01089","West Springfield","MA","Sheraton Springfield Monarch Place Hotel Athletic Club","1 Monarch Pl","01144",42.10193333316229,-72.59077483780426
"01089","West Springfield","MA","YMCA of Greater Springfield","275 Chestnut St","01104",42.10934132663592,-72.59309313547311
"01089","West Springfield","MA","Four Gs Gym","19 Deer Run Rd","01089",42.124168,-72.657089
"01089","West Springfield","MA","Best Elite Gym","280 Bridge St","01103",42.104061126708984,-72.59150695800781
"01089","West Springfield","MA","F45 Training Riverdale","1464 Riverdale St","01089",42.143702,-72.629946
"01089","West Springfield","MA","S.T.A.R. Dance Studio","23 Mosher St","01089",42.107361,-72.624325
"01095","Wilbraham","MA","Train For Life","2041 Boston Rd","01095",42.149101,-72.47022700000001
"01095","Wilbraham","MA","YMCA","45 Post Office Park","01095",42.15186471218532,-72.4421433284614
"01103","Springfield","MA","STCC Scibelli Hall Building 2","1 Armory Sq","01105",42.10830200033464,-72.58163820169008
"01104","Springfield","MA","Dunbar Community Center","33 Oak St","01109",42.10814088584478,-72.57386596179582
"01104","Springfield","MA","CrossFit Journey","311 Page Blvd","01104",42.134215999999995,-72.560851
"01104","Springfield","MA","Massmutual Gym","1295 State St","01111",42.11661148071289,-72.54463958740234
"01106","Longmeadow","MA","JCC Gym","1160 Dickinson St","01106",42.065370774323156,-72.57792284252935
"01118","Springfield","MA","Best Fitness Springfield","1739 Allen St Ste 28A","01118",42.09358501290046,-72.50136971234507
"01118","Springfield","MA","Answer Is Fitness","1739 Allen St","01118",42.09315080145808,-72.50239127304239
"01129","Springfield","MA","Fighting Arts Academy","not_available","01129",42.146909,-72.493991
"01129","Springfield","MA","Crossfit Iron Will","100 Verge St","01129",42.147056579589844,-72.490966796875
"01201","Pittsfield","MA","Berkshire Nautilus","42 Summer St","01201",42.45283949490737,-73.25411183913114
"01201","Pittsfield","MA","GDAIS Fitness Center","100 Plastics Ave","01201",42.45928955078125,-73.21167755126953
"01201","Pittsfield","MA","Jester's Gym","not_available","01225",42.51594816983405,-73.22147707867026
"01201","Pittsfield","MA","Berkshire Running Center","34 Depot St","01201",42.45075583271095,-73.25365355819702
"01201","Pittsfield","MA","Lenox Central Fire House Jail House Gym","Main Street","not_available",42.4156282178197,-73.34598610482104
"01201","Pittsfield","MA","Retro Fitness","675 Merrill Rd","01201",42.465838,-73.206543
"01201","Pittsfield","MA","Cross Athletic Center","Miss Hall's School","01201",42.42514244922434,-73.24429832205688
"01201","Pittsfield","MA","Bootcamp @ Onota","not_available","01201",42.47046661376953,-73.27528381347656
"01201","Pittsfield","MA","The Gym on the 3rd floor","1 Lebabon Ave","01201",42.43088756194207,-73.35945724786492
"01201","Pittsfield","MA","MVP Strength Camp LLC","549 North St","01201",42.456399,-73.251689
"01201","Pittsfield","MA","Berkshire West Athletic Club","100 Dan Fox Dr","01201",42.421140131136355,-73.27656172182499
"01201","Pittsfield","MA","Music room@ MHS","492 Holmes Rd","01201",42.426536560058594,-73.2441635131836
"01220","Adams","MA","Amber's Gym","not_available","01220",42.626405,-73.111087
"01230","Great Barrington","MA","Berkshire Functional Fitness","325 Stockbridge Rd, Great Barrington, MA 01230","01230",42.210954543816904,-73.34655029762732
"01230","Great Barrington","MA","Berkshire South Regional Community Center","15 Crissey Rd","01230",42.21273955159497,-73.34084363113826
"01230","Great Barrington","MA","Fairfield Inn Fitness Room","249 Stockbridge Rd","01230",42.207765,-73.348168
"01230","Great Barrington","MA","Crossfit Great Barrington","11 bridge St.","01230",42.19947814941406,-73.36101531982422
"01230","Great Barrington","MA","Oak N’ Spruce Gym","190 Meadow St","01238",42.274189,-73.27203100000001
"01230","Great Barrington","MA","Kilpatric Athletic Center","not_available","01230",42.210139,-73.419411
"01237","Lanesborough","MA","work out room jiminy peak ski resort","not_available","01267",42.562095642089844,-73.29450988769531
"01238","Lee","MA","Canyon Ranch Gym 5","not_available","01240",42.345049,-73.276782
"01238","Lee","MA","Planet Vidoli","425 Maple St Bsmt","01238",42.30247497558594,-73.2318115234375
"01240","Lenox","MA","Lenox Fit","90 Pittsfield Rd","01240",42.37951452728159,-73.27612881770376
"01247","North Adams","MA","Frenchy's Gym","not_available","05352",42.701945353261266,-73.14532420335647
"01247","North Adams","MA","Zumba in the Berkshires","not_available","01247",42.699488469899094,-73.10784331058149
"01253","Otis","MA","Otis Woodlands Gym","Woodlands Way","not_available",42.185716,-73.093472
"01253","Otis","MA","Otis Rec Center","not_available","01253",42.1949497,-73.09258628333333
"01301","Greenfield","MA","Kings Gym","154 Main St","01301",42.58785128793904,-72.60352876654362
"01301","Greenfield","MA","Planet Fitness","259 Mohawk Trail","01301",42.587546,-72.625966
"01301","Greenfield","MA","Greenfield YMCA","451 Main St","01301",42.58632949294662,-72.59768457398683
"01301","Greenfield","MA","The Body Shoppe","not_available","01301",42.601852,-72.584824
"01331","Athol","MA","Main Street Gym","545 Main St","01331",42.593509999999995,-72.22912600000001
"01349","Millers Falls","MA","NEX Performance Films Gym","18 Industrial Blvd","01376",42.591896057128906,-72.52823638916016
"01360","Northfield","MA","Linden Hill School (Gym)","not_available","01360",42.65096774248748,-72.45522573053462
"01364","Orange","MA","SpinZone Plus","not_available","01364",42.59086870933551,-72.30929133401843
"01370","Shelburne Falls","MA","Ladie's Express Gym","679 Mohawk Trl","01370",42.58551025390625,-72.6987533569336
"01373","South Deerfield","MA","Yankee Candle Fitness Center","25 Greenfield Rd","01373",42.475528717041016,-72.61526489257812
"01420","Fitchburg","MA","Gym At Whitney Carriages Apartments","126 Water St","01453",42.529015,-71.754532
"01420","Fitchburg","MA","St. Bernard's Activity Center","269 Summer St.","01420",42.57346725607937,-71.77874670246854
"01420","Fitchburg","MA","Fitchburg Weightlifting Club","Main Street","01420",42.58720122737388,-71.8065821454027
"01420","Fitchburg","MA","Global Fitness Center","215 Hamilton St","01453",42.543565870554175,-71.75006768374327
"01420","Fitchburg","MA","Boost Fitness","130 Water St","01420",42.580242,-71.79279
"01420","Fitchburg","MA","Commit Fitness","98 Adams St","01453",42.52494799999999,-71.7627849
"01420","Fitchburg","MA","Global Fitness","37 Horseshoe Park Dr","01420",42.57159317906193,-71.78035163265103
"01420","Fitchburg","MA","Leger Fitness","Battles St","01453",42.557414,-71.772286
"01420","Fitchburg","MA","Pokemon Gym","6 Main St","01453",42.526790999999996,-71.759857
"01420","Fitchburg","MA","Montachusett Regional YMCA","55 Wallace Ave","01420",42.585145000000004,-71.800729
"01420","Fitchburg","MA","Crossfit Wachusetts","not_available","01420",42.58432340337305,-71.81803642792784
"01420","Fitchburg","MA","iLoveKickboxing - Fitchburg, MA","24 John Fitch Highway","01420",42.570814,-71.7768004
"01420","Fitchburg","MA","I Love Kickboxing - Fitchburg","24 John Fitch Hwy","01420",42.5709029,-71.7768893
"01420","Fitchburg","MA","Planet Fitness","308 Massachusetts Ave","01462",42.592512390533926,-71.75741021450527
"01434","Devens","MA","Anytime Fitness","20 Andrews Pkwy","01434",42.54,-71.61411
"01434","Devens","MA","ZUMBA","Church Street","01464",42.5241394,-71.6275016
"01434","Devens","MA","Hilton Garden Inn Fitness Center","not_available","01605",42.53828711332457,-71.61195009383034
"01434","Devens","MA","Fitness Center","quebec st","01434",42.53641704785294,-71.61856190878039
"01434","Devens","MA","Bristol-Myers Squibb Health And Fitness Center","38 Jackson Rd","01434",42.5318603515625,-71.62696075439453
"01434","Devens","MA","Koko Fitness Harvard","285 MA-111","01451",42.53792909556164,-71.57622856660323
"01440","Gardner","MA","Fitness Concepts","696 W Broadway","01440",42.563913425212434,-72.00999137410153
"01450","Groton","MA","Anytime Fitness","536 Main St","01450",42.62163,-71.58789
"01450","Groton","MA","Fitness Your Weigh","495 Main St","01450",42.620183000000004,-71.586667
"01450","Groton","MA","Alves' Private Gym","63 Mount Lebanon St","01463",42.644548,-71.60907399999999
"01451","Harvard","MA","Swymfit","90 Swanson Rd","01719",42.49216842651367,-71.54805755615234
"01451","Harvard","MA","Cisco TimeOut Fitness","300 Beaver Brook Road","not_available",42.49848556518555,-71.54283142089844
"01453","Leominster","MA","ProAthletics","507 Lancaster St","01453",42.51176071166992,-71.74103546142578
"01453","Leominster","MA","Option 1 Fitness","59 New Lancaster Rd","01453",42.500562784537614,-71.73283742348814
"01453","Leominster","MA","Orangetheory Fitness","82 Orchard Hill Park Dr","01453",42.52592,-71.713183
"01453","Leominster","MA","Cross Fit","100 Crawford St","01453",42.545230865478516,-71.74595642089844
"01453","Leominster","MA","517 Lancaster St","517 Lancaster St","01453",42.511245,-71.740511
"01460","Littleton","MA","One2One Bodyscapes","not_available","01886",42.56100214261454,-71.4317487480352
"01460","Littleton","MA","iLoveKickboxing - Westford, MA","355 Littleton Rd Ste 6","01886",42.55397622535039,-71.45086974144203
"01460","Littleton","MA","The Little Gym","222 Great Rd","01460",42.542444736801,-71.46549584356914
"01460","Littleton","MA","Gym @ IBM Mass Lab - Littleton","550 King St","01460",42.549822999999996,-71.46995600000001
"01460","Littleton","MA","Westford Regency Inn","219 Littleton Rd","01886",42.56313666701317,-71.42939329147339
"01460","Littleton","MA","Melt RX Fitness - Littleton","702 Constitution Ave","01460",42.5514029,-71.47770609999999
"01460","Littleton","MA","Anytime Fitness","501 Nagog Park","01720",42.52256,-71.43191
"01460","Littleton","MA","Crossfit Woodshed","80 Taylor St","01460",42.532981872558594,-71.5099105834961
"01460","Littleton","MA","Athlete's Edge","not_available","01460",42.54668,-71.47453900000001
"01460","Littleton","MA","Fitness Together - Westford","334 Littleton Rd","01886",42.554238266031554,-71.44746778711988
"01463","Pepperell","MA","Pure Energy","Lomar park","not_available",42.67488773441423,-71.56877021597994
"01463","Pepperell","MA","Pepperell Jazzercise","main st","01463",42.6664378,-71.5728713
"01469","Townsend","MA","SBMA Gym","Townsend","01469",42.666756,-71.705072
"01469","Townsend","MA","Planet Fitness","18 Main St","01469",42.649154989077125,-71.66160548277789
"01469","Townsend","MA","The Gym","14 Center St","01469",42.665152,-71.704503
"01473","Westminster","MA","J&L Fitness","217 State Rd E","01473",42.5596923828125,-71.8641128540039
"01501","Auburn","MA","Impact Fitness Club","314 Washington St","01501",42.197752,-71.81983699999999
"01501","Auburn","MA","Crossfit Claddagh","not_available","01501",42.189328,-71.827753
"01501","Auburn","MA","Crunch Fitness - Auburn","489 Washington St","01501",42.18762629797047,-71.82984441518789
"01501","Auburn","MA","Everybodys Fitness Center","441 Southbridge Street","01501",42.19980428979132,-71.83968544006353
"01501","Auburn","MA","Anytime Fitness","619 Southbridge St.","01501",42.18768,-71.8506
"01503","Berlin","MA","Sara's Gym","Brook Ln","01503",42.36464486,-71.61170197
"01503","Berlin","MA","F45 Training Hudson","2 Highland Common E","01749",42.395643,-71.594533
"01503","Berlin","MA","Simrah Gardens Gym","not_available","01749",42.39999946155915,-71.59740480597495
"01504","Blackstone","MA","Hannafords","not_available","01504",42.054689,-71.499691
"01505","Boylston","MA","Anytime Fitness","81 Shrewsbury St","01505",42.334537506103516,-71.73768615722656
"01507","Charlton","MA","Sims Premier Fitness","306 Sturbridge Rd","01507",42.12966687368392,-72.04499235237327
"01507","Charlton","MA","76 Mill St. Boxing Gym","not_available","01550",42.08279587808815,-72.04437148411647
"01510","Clinton","MA","Turner Hall","60 Branch St","01510",42.418565,-71.670765
"01510","Clinton","MA","Anytime Fitness","300A High St.","01510",42.4203,-71.6846
"01518","Fiskdale","MA","Crossfit Sturbridge","not_available","01518",42.116362,-72.114175
"01518","Fiskdale","MA","Julie Garrish Fitness","559 Main St","01518",42.11604309082031,-72.11276245117188
"01519","Grafton","MA","Anytime Fitness","100 Worcester St.","01536",42.22012,-71.6962
"01520","Holden","MA","eXcel fitness","1097 Main St","01520",42.34859865427642,-71.85827484596325
"01520","Holden","MA","GH2","not_available","01520",42.33400301211496,-71.83627809408793
"01520","Holden","MA","YMCA","100 Shore Dr","01605",42.303631824024194,-71.80947282461565
"01520","Holden","MA","Plourde Gym","Assumption College","01602",42.29506004297702,-71.82861198909191
"01527","Millbury","MA","146 Fitness","not_available","01590",42.15672500934752,-71.72904404290938
"01527","Millbury","MA","Curves","11-29 Waters St","01527",42.192998,-71.765326
"01527","Millbury","MA","Stepp N Up","143 SW Cutoff, Worcester, MA 01604","01604",42.232333000000004,-71.75153900000001
"01527","Millbury","MA","KRAVE Fitness & Nutrition Studio","Felter's Mill, 22 West Street","01527",42.19390106201172,-71.76520538330078
"01527","Millbury","MA","The ""Gym""","not_available","01527",42.22002221666666,-71.74970856666667
"01527","Millbury","MA","CrossfitAC","22 West St","01527",42.193725,-71.765275
"01532","Northborough","MA","Anytime Fitness","10010-P Shops Way","01532",42.28461,-71.67034
"01532","Northborough","MA","Westboro Tennis and Swim Club","35 Chauncy St","01581",42.28718228352855,-71.61624334722131
"01532","Northborough","MA","Pure Barre","10010D Shops Way","01532",42.284791183963186,-71.67123291785418
"01532","Northborough","MA","Boost Fitness Northboro","79 W Main St","01532",42.31898,-71.64752
"01532","Northborough","MA","Dow Gym","455 Forest St, Marlborough, MA 01752","01752",42.330265045166016,-71.59394073486328
"01532","Northborough","MA","TITLE Boxing Club Marlborough","43 Apex Dr","01752",42.33573913574219,-71.59051513671875
"01532","Northborough","MA","Crunch Fitness - Westborough","1 Oak Street","01581",42.2858857,-71.6085572
"01532","Northborough","MA","Get IN-SHAPE For Women","318 Main St","01532",42.328245,-71.617673
"01532","Northborough","MA","The Gym @ Avalon Northborough","Avalon Dr","01532",42.28757451213304,-71.67465569684276
"01532","Northborough","MA","Orangetheory Fitness","42 Hwy 20","01752",42.3403383943792,-71.58256889861525
"01532","Northborough","MA","F45 Training Northborough","8114 Shops Way","01532",42.29324442,-71.67144896
"01532","Northborough","MA","AV25 Fitness","164 Milk St","01581",42.2807731628418,-71.63141632080078
"01532","Northborough","MA","Studio28","122 Turnpike Rd","01581",42.284356,-71.605182
"01532","Northborough","MA","Resolution Fitness","75 Main St","01532",42.320479,-71.637027
"01532","Northborough","MA","Resolution Fitness","253-267 W Main St","01532",42.309546966666666,-71.65537266666666
"01532","Northborough","MA","Coopers New England MMA","not_available","01752",42.339761,-71.590715
"01532","Northborough","MA","Embassy Suites Gym","not_available","01503",42.34554569808042,-71.60122952371022
"01532","Northborough","MA","NorthBridge Gym at 313","313 Boston Post Rd W","01752",42.337127685546875,-71.59541320800781
"01532","Northborough","MA","Fitness Together - Northborough","411 W Main St","01532",42.30488950131382,-71.66745132834288
"01532","Northborough","MA","Exceed Sports Performance And Fitness","not_available","01532",42.285532945839435,-71.65455664825066
"01532","Northborough","MA","Gym at 33 West Office Park","33 Boston Post Rd W","01752",42.34119802303798,-71.58276646112343
"01532","Northborough","MA","Get IN-SHAPE For Women","1000 Boston Turnpike","01545",42.280503,-71.674403
"01532","Northborough","MA","Gold's Gym (Westborough)","1 Oak St","01581",42.286057544040965,-71.60835729186299
"01532","Northborough","MA","Club One Gym","Campus Drive","01752",42.32459700874214,-71.58444101134997
"01534","Northbridge","MA","Whitinsville Community Center","60 Main St","01588",42.110727562992544,-71.66719522295669
"01534","Northbridge","MA","Bellator Fitness XXIV","1047 Providence Rd","01588",42.1220524483003,-71.64403438568115
"01535","North Brookfield","MA","nature's treadmill","green rd","01535",42.24597669509622,-72.04415559768677
"01537","North Oxford","MA","Integrity Cheer","Rte 20","01537",42.16671840352316,-71.89834396355947
"01540","Oxford","MA","Boost Fitness Oxford","not_available","01540",42.11370300131695,-71.84727025804958
"01540","Oxford","MA","Crunch Fitness - Oxford","115 Sutton Avenue","01540",42.11335853,-71.8477236
"01543","Rutland","MA","Rutland Crossfit","Main St.","not_available",42.37594389407704,-71.9345737335452
"01545","Shrewsbury","MA","Orangetheory Fitness","193 Boston Tpke","01545",42.27637011329457,-71.7471680503233
"01545","Shrewsbury","MA","Crunch Fitness - Worcester East","877 Grafton Street","01604",42.2482796,-71.76141439999999
"01545","Shrewsbury","MA","HardCore Fitness","50 Lake Ave","01604",42.27148406579807,-71.7590681795113
"01545","Shrewsbury","MA","Snap Fitness","1000 Grafton St","01604",42.2438792902044,-71.75777381901379
"01545","Shrewsbury","MA","Synergy Health and Wellness","307 Grafton St Ste 201","01545",42.2755662,-71.71150469999999
"01545","Shrewsbury","MA","FC BTWC Gym","Plantation St","not_available",42.298699,-71.764502
"01545","Shrewsbury","MA","AdvantEdge Fitness","165 Memorial Dr","01545",42.258316,-71.708907
"01545","Shrewsbury","MA","Koko Fitclub","not_available","01545",42.27545299815173,-71.75023200275012
"01545","Shrewsbury","MA","Peak Fitness","712 Plantation St","01605",42.299869,-71.761628
"01545","Shrewsbury","MA","Fit FRIENDzy Studios","196 Boston Tpke #RT.9","01545",42.27493058266975,-71.74538373269581
"01550","Southbridge","MA","Anytime Fitness","479 E Main St","01550",42.06989,-72.01038
"01550","Southbridge","MA","Everybodys Fitness Center","184 Main St","01566",42.0974449,-72.0709513
"01562","Spencer","MA","Guaranteed Fitness","107 N Spencer Rd","01562",42.279229421839204,-72.00536695623111
"01562","Spencer","MA","J&L Fitness","not_available","01562",42.244031,-71.994629
"01564","Sterling","MA","The Sterling Gym","15 Industrial Dr","01564",42.45950350777512,-71.7409967309619
"01568","Upton","MA","Rebecca's Place 3","4 Farm St","not_available",42.169777,-71.62488
"01568","Upton","MA","Crazy Suburban Land","not_available","01748",42.204443,-71.565642
"01568","Upton","MA","Dance Works Academy","26 School Street","01568",42.174171,-71.606124
"01569","Uxbridge","MA","Anytime Fitness","158 N Main St","01569",42.08188,-71.63805
"01570","Webster","MA","Everybodys Fitness Center","37 Sutton Rd","01570",42.0669212,-71.8565826
"01570","Webster","MA","CrossFit HammerMill","26 Poland Street","01570",42.05238754382581,-71.87984534864214
"01581","Westborough","MA","Boston Sports Clubs","1500 Union St","01581",42.2697372,-71.6065292
"01581","Westborough","MA","DoubleTree Gym","5400 Computer Dr","not_available",42.289642,-71.572572
"01581","Westborough","MA","TJX Gym At Westboto","118 Flanders Rd","01581",42.27889787793217,-71.57331050502499
"01581","Westborough","MA","Fitness Together Westborough","57 E MAIN ST. SUITE 120","01581",42.26,-71.61
"01581","Westborough","MA","The Gym At Flanders Hill","not_available","01581",42.26872241616861,-71.54646823644417
"01581","Westborough","MA","Small Town CrossFit","25 Brigham St","01581",42.268898010253906,-71.61029815673828
"01581","Westborough","MA","Get IN-SHAPE For Women","45 E Main St","01581",42.273351,-71.609829
"01581","Westborough","MA","CrossFit Prototype","50 E Main St","01581",42.27310276969395,-71.61146912416267
"01581","Westborough","MA","KBQ","173 Flanders Rd","01581",42.2754,-71.561261
"01581","Westborough","MA","Fitness Together - Westborough","57 E Main St","01581",42.27443526626242,-71.60824556012213
"01581","Westborough","MA","Westborough Office Gym","1800 W Park Dr","01581",42.282888,-71.568608
"01583","West Boylston","MA","New Horizon Karate & More","360 W Boylston St Rm 105","01583",42.33998107910156,-71.78941345214844
"01583","West Boylston","MA","Anytime Fitness","71 Pullman St","01606",42.32422,-71.79801
"01583","West Boylston","MA","Fitness Rooms Health Club","Worcester Industrial Estate","01606",42.338399,-71.79007
"01583","West Boylston","MA","iLoveKickboxing - West Boylston, MA","119 W Boylston St Ste A180","01583",42.35616783,-71.78283033
"01603","Worcester","MA","Giguere Gym","148 Main St","01611",42.242937609926344,-71.86913722884428
"01603","Worcester","MA","Atlantic Athletics","21-69 Main St. #D13","01611",42.2411121,-71.8652624
"01603","Worcester","MA","Shaping Zone For Women","120 Stafford St, Worcester, MA 01603","01603",42.23945617675781,-71.84443664550781
"01603","Worcester","MA","Baystate Gym","75 Webster St","01603",42.241904757889,-71.83331317091907
"01603","Worcester","MA","Escape Aerial Arts","6 Brussels St","01610",42.24160385131836,-71.81526947021484
"01604","Worcester","MA","Anytime Fitness","386 Shrewsbury St","01604",42.2716,-71.77539
"01604","Worcester","MA","Crossfit Centermass","333 Shrewsbury St","01604",42.26893799917814,-71.77794303158218
"01604","Worcester","MA","Da Gym","not_available","01608",42.267128,-71.79961
"01604","Worcester","MA","Worcester Fitness","123 Summer St","01608",42.26409076107089,-71.79648675000438
"01605","Worcester","MA","Orangetheory Fitness","41 Park Ave","01605",42.28240966796875,-71.80810546875
"01605","Worcester","MA","Blast! Fitness","535 Lincoln St","01605",42.29372512608567,-71.77459133679163
"01605","Worcester","MA","The Hanover Fitness Center","135 Beverly Rd","01605",42.29600375812997,-71.78298737017717
"01605","Worcester","MA","React Fitness Club","173 Grove St Ste 2","01605",42.27924567497572,-71.80480599403381
"01605","Worcester","MA","Impact Fitness","40 Millbrook St","01606",42.28803708653548,-71.80245369316945
"01605","Worcester","MA","Wedge Gym","WPI","not_available",42.27350683069984,-71.80991131053833
"01605","Worcester","MA","Mass Barbell","330 Tacoma St Ste 2A","01605",42.3094882,-71.77541049999999
"01605","Worcester","MA","Central Rock Gym","299 Barber Ave","01606",42.29686562621144,-71.79750416838502
"01605","Worcester","MA","Peak Fitness Workouts","30 Glennie St","01605",42.285907959510396,-71.80492568807787
"01605","Worcester","MA","W Fitness","525 Lincoln St","01605",42.29373813817422,-71.7744918123171
"01605","Worcester","MA","Worcester Fitness","440 Grove St","01605",42.28911477703636,-71.8082452066089
"01605","Worcester","MA","World Gym","7 Neponset St","01606",42.29761396947956,-71.80136554171649
"01606","Worcester","MA","Frank Nash Training System","230 Brooks St","01606",42.319732,-71.800361
"01607","Worcester","MA","Loyola Gym","1 College St","01610",42.239323713329746,-71.80520890552486
"01607","Worcester","MA","Over The Top Gym","Mckeon Rd","01610",42.243541,-71.808872
"01608","Worcester","MA","YMCA Central Community Branch","766 Main St","01610",42.257552000000004,-71.809691
"01608","Worcester","MA","X-Core Fitness","5 Pleasant St","01609",42.263712,-71.80248399999999
"01612","Paxton","MA","True Strength Fitness","not_available","01612",42.287882167769986,-71.9379197647169
"01701","Framingham","MA","Life Time Athletic","490 Old Connecticut Path","01701",42.31329746459072,-71.39486701461321
"01701","Framingham","MA","MetroWest YMCA","280 Old Connecticut Path","01701",42.307411139469885,-71.40199220805373
"01701","Framingham","MA","LA Fitness","1 Dean Road Sherwood Plaza","01760",42.297079616023844,-71.38560881795345
"01701","Framingham","MA","Courtyard Gym","342 Spleen St.","01760",42.30622780636622,-71.38337963648003
"01701","Framingham","MA","Anytime Fitness","19 Temple St","01702",42.29704,-71.44783
"01701","Framingham","MA","Gym @ Gulf/Cumberland","Crossing Boulevard","MA",42.29616475058186,-71.48891578714
"01701","Framingham","MA","Get In Shape For Women","255 Worcester Rd","01701",42.298832,-71.405024
"01701","Framingham","MA","MEDITECH Gym - Framingham","550 Cochituate Rd","01701",42.3082160949707,-71.39063262939453
"01701","Framingham","MA","Georgetown Gym","640 Worcester Rd","01702",42.297816,-71.423222
"01701","Framingham","MA","Rad Gym","not_available","01701",42.32146558859128,-71.43758653166506
"01701","Framingham","MA","10x","1400 Worcester St","01760",42.29804229736328,-71.39253997802734
"01701","Framingham","MA","Evolve Fitness","2 California Ave","01701",42.29755080766409,-71.48354882370222
"01701","Framingham","MA","VaVaVoom Dance Fitness","969 Concord St","01701",42.305032458950066,-71.40278233556569
"01701","Framingham","MA","EPM gym","959 Concord St","01701",42.304130128564815,-71.40367585059869
"01701","Framingham","MA","Gold's Gym","321 Speen St","01760",42.30371992762909,-71.37813679685041
"01701","Framingham","MA","CrossFit Framingham","280 Worcester Rd","01702",42.29787446803616,-71.40581428123383
"01701","Framingham","MA","The TJX Companies Tower X Gym","The TJX Companies Inc.","01701",42.31092351225207,-71.38216394907015
"01701","Framingham","MA","The TJX Companies Gym","The TJX Companies - 500 OCP","01701",42.31571814178407,-71.39469623565674
"01701","Framingham","MA","TITLE BOXING CLUB Framingham","235 Old Connecticut Path","01701",42.30580984,-71.40177922
"01701","Framingham","MA","Impact Metro West","2 Watson Pl","01701",42.32275390625,-71.3991928100586
"01701","Framingham","MA","The Gym","Worcester Rd","01701",42.29655697039914,-71.45132168689582
"01701","Framingham","MA","The Gym At The Residence Inn - Marriott","400 Staples Dr","01702",42.293941497802734,-71.48485565185547
"01701","Framingham","MA","Cloverleaf Apartments Gym","not_available","01760",42.304831,-71.378015
"01702","Framingham","MA","Suburban Athletic Club","10 Roxanna St","01702",42.27375899816911,-71.4087810762644
"01702","Framingham","MA","Jefferson Hills Resident Fitness Club","31 Gates St.","01702",42.29317726310302,-71.46827537747912
"01702","Framingham","MA","CrossFit Synergistics","50 Main St","01721",42.26267,-71.466341
"01702","Framingham","MA","Grandview Terrace Gym","not_available","01702",42.293038,-71.458792
"01702","Framingham","MA","Fitness Together - Southborough","21 Turnpike Rd","01772",42.2966966,-71.4963038
"01702","Framingham","MA","Bancroft Boxing & Fitness Club","701 Waverly St","01702",42.273441314697266,-71.42733764648438
"01702","Framingham","MA","Gold's Gym","200 Homer Ave","01721",42.25821319510969,-71.45677644739517
"01702","Framingham","MA","Marian HS Gym","273 Union Ave","01702",42.286467750040295,-71.4219497586947
"01702","Framingham","MA","Gold's Gym","1 H F Brown Way","01760",42.274112701416016,-71.39218139648438
"01702","Framingham","MA","Ashland P.A.L.","200 Homer Ave, Ashland, MA 01721","01721",42.25910568237305,-71.45645904541016
"01720","Acton","MA","Avalon Acton Gym","84 nagog park","not_available",42.52515236485304,-71.42488351728254
"01720","Acton","MA","Pure Barre","80 Beharrell St","01742",42.4584355,-71.3951389
"01720","Acton","MA","Gold's Gym","61 Domino Dr","01742",42.455249418969196,-71.4049147909284
"01720","Acton","MA","Thoreau Club of Concord","275 Forest Ridge Rd","01742",42.43765,-71.42152
"01720","Acton","MA","The Fitter Female","255a Main St","01720",42.47366714477539,-71.45384979248047
"01720","Acton","MA","Shaun T's Remote Gym","not_available","01742",42.465081,-71.387259
"01720","Acton","MA","Anytime Fitness","100 Powder Mill Rd","01720",42.44218,-71.4294
"01720","Acton","MA","Acton Work Gym","8 Post Office Sq","01720",42.48777770996094,-71.42310333251953
"01720","Acton","MA","Get In Shape For Women","133 Great Rd","01720",42.480352,-71.414315
"01720","Acton","MA","Memorial Gymnasium (Old Fowler)","Summer Street","01754",42.439272,-71.448115
"01720","Acton","MA","마이GYM","5 Duston Ln","01720",42.49777,-71.395628
"01720","Acton","MA","Total Athletic Performance","53 Knox Trl","01720",42.44872283935547,-71.42316436767578
"01721","Ashland","MA","Crossfit Southborough","12 Southville Rd","01772",42.266447,-71.508379
"01721","Ashland","MA","Anytime Fitness","309 Pond St","01721",42.2405,-71.4329
"01721","Ashland","MA","Fitness Together","200 Butterfield Drive","01721",42.249037134869006,-71.42648071859273
"01730","Bedford","MA","Boston Sports Clubs","475 Bedford St","02420",42.4761951,-71.2506837
"01730","Bedford","MA","Network Drive Fitness Center","64 network drive","not_available",42.49690605708747,-71.2335469987686
"01730","Bedford","MA","L&W's Gym","not_available","01731",42.453825,-71.2803
"01730","Bedford","MA","personal best fitness","not_available","02420",42.46873474121094,-71.2411880493164
"01730","Bedford","MA","Instrumentation Laboratory Gym","180 Hartwell Rd","01730",42.477290999999994,-71.29647299999999
"01730","Bedford","MA","Gym @ 22 Crosby Dr","not_available","01730",42.508128949425846,-71.2468268677256
"01730","Bedford","MA","Bedford Business Park Fitness Center","Crosby Dr, Bedford, MA 01730","01730",42.506660987087834,-71.24386849823274
"01730","Bedford","MA","Homewood Suites Exercise Room","First Floor","not_available",42.51284188778575,-71.23379246849588
"01730","Bedford","MA","Gym @ MITRE","202 Burlington Rd","01730",42.504573822021484,-71.23736572265625
"01730","Bedford","MA","Bernardo Faria Academy","131A Great Rd","01730",42.491182,-71.277778
"01730","Bedford","MA","Hanscom Air Force Base Fitness center","180 Marrett St.","01731",42.45870556984723,-71.27899646759033
"01730","Bedford","MA","Gym at TF","thompson frm","not_available",42.51072860927602,-71.23854917641118
"01730","Bedford","MA","Progress Software Gym","Oak park drive","not_available",42.51271844481628,-71.25190244836305
"01730","Bedford","MA","Fitness Center","22 Crosby Dr","01730",42.50795364379883,-71.24615478515625
"01730","Bedford","MA","Get In Shape For Women Bedford","328 Bedford Rd","01730",42.486256073404114,-71.25948959053036
"01730","Bedford","MA","RSA Fitness Center","176 Middlesex Turnpike","not_available",42.513943183764624,-71.23914213435368
"01742","Concord","MA","Nashawtuc Country Club","1861 Sudbury Rd","01742",42.41437366364599,-71.36850017157121
"01742","Concord","MA","Fitness Together - Lincoln","145 Lincoln Rd","01773",42.414973529689625,-71.32533669323672
"01742","Concord","MA","Get In Shape For Women","83 Main St","01742",42.459262,-71.351651
"01742","Concord","MA","Fitness Together - Concord","97 Thoreau St","01742",42.4567551,-71.3568774
"01746","Holliston","MA","Athletic Based Training","16 Everett St","01746",42.212897999999996,-71.408305
"01746","Holliston","MA","CrossFit Tri-Valley","23 Jayar Rd","02053",42.159428999999996,-71.392124
"01746","Holliston","MA","GetJosette Fitness Studio","6 Main St","02053",42.156982421875,-71.39147186279297
"01746","Holliston","MA","Insanity Zone","11 Virginia Rd","02053",42.158733000000005,-71.406088
"01747","Hopedale","MA","The Pit's","not_available","01757",42.14331012816704,-71.52281427982766
"01747","Hopedale","MA","BST MMA & Fitness","28 Hastings St","01756",42.103146,-71.556143
"01747","Hopedale","MA","Gold's Gym","196 E Main St Ste 54","01757",42.153621757440234,-71.50089474510403
"01747","Hopedale","MA","NRG Lab Fitness Center","51 Sumner St","01757",42.150725,-71.517696
"01747","Hopedale","MA","Athletic Based Training","120 Prospect St","01757",42.13884,-71.536436
"01748","Hopkinton","MA","CrossFit Resilience","25 South St","01748",42.2112710311576,-71.54895274694142
"01748","Hopkinton","MA","Emc 228 Gym","228 South St","01748",42.190075,-71.540832
"01749","Hudson","MA","Crunch Fitness - Hudson","205 Washington St","01749",42.3803016,-71.5689959
"01749","Hudson","MA","Crossfit Railtrail","157 Washington St","01749",42.382870000000004,-71.570032
"01749","Hudson","MA","Dance On","15 Bonazzoli Ave","01749",42.39133834838867,-71.54829406738281
"01749","Hudson","MA","Ten Bells Gym","4 Lower Rd","01749",42.381099700927734,-71.53202819824219
"01749","Hudson","MA","Zumba","Boost Fitness","01749",42.392479,-71.55903
"01749","Hudson","MA","Koko FitClub - Hudson","234 Washington St","01749",42.37998954964895,-71.566452391501
"01749","Hudson","MA","Old School MMA","243 washington st","01749",42.380136,-71.566284
"01749","Hudson","MA","Cressey Performance","577 Main St","01749",42.389546385188034,-71.501578462767
"01749","Hudson","MA","SMS Wellness Room","Cabot Rd, Hudson, MA 01749","01749",42.377872467041016,-71.56015014648438
"01752","Marlborough","MA","Insanity Headquarters","Mechanic Street","01752",42.35599274840731,-71.55960017312586
"01752","Marlborough","MA","Marlborough Hills Fitness Center","224 Forest St","01752",42.3298,-71.579986
"01752","Marlborough","MA","Gym / Event Room","197 Union St","01752",42.355316162109375,-71.55545806884766
"01752","Marlborough","MA","New Life Health and Wellness","75 Felton St","01752",42.3434859,-71.577534
"01752","Marlborough","MA","Gold's Gym","420 Maple St","01752",42.332082387667455,-71.54033599874488
"01752","Marlborough","MA","wayside fitness","Broadmeadow road","01752",42.341683777363656,-71.51051428264479
"01752","Marlborough","MA","Born To Fly Productions","406 Lincoln St #2","01752",42.3463466,-71.5578483
"01754","Maynard","MA","Anytime Fitness","52 Nason St","01754",42.4335,-71.45312
"01754","Maynard","MA","CYCLEBAR","129 Parker St Ste 2-24","01754",42.418355,-71.450316
"01756","Mendon","MA","Tetreault Gym","not_available","01756",42.076808,-71.580614
"01757","Milford","MA","CYCLEBAR","128 Medway Rd Ste 4","01757",42.15029418312732,-71.48857518650817
"01757","Milford","MA","CrossFit Never Doubt","231 E Main St Unit A3","01757",42.15174102783203,-71.49242401123047
"01757","Milford","MA","World Gym","126 Medway Rd","01757",42.14984954502575,-71.48875612585003
"01760","Natick","MA","Orangetheory Fitness","21 S Main St","01760",42.284377,-71.347454
"01760","Natick","MA","Longfellow Tennis & Health Club Natick","203 Oak St","01760",42.31413968267068,-71.3366809064115
"01760","Natick","MA","Get IN-SHAPE For Women","117 W Central St","01760",42.283584,-71.371694
"01760","Natick","MA","F45 Training Natick","213 N Main St","01760",42.3012696,-71.358941
"01760","Natick","MA","Keohane Sports Center","106 Central St","02482",42.295640975871194,-71.3110151912824
"01760","Natick","MA","Crossfit New England","15 Tech Cir","01760",42.314831439600866,-71.33440958426274
"01760","Natick","MA","Physical Ed's Fitness Studio","89-Z Washington Ave","01760",42.303138,-71.35990799999999
"01760","Natick","MA","Fitness Together - Natick","6 South Ave","01760",42.28557737773242,-71.34695086030271
"01760","Natick","MA","Fitness Together - Wayland","44 Main St","01778",42.31694566147194,-71.36399776957974
"01760","Natick","MA","NSSC Gym","Wilbur Ave.","01760",42.28926365216837,-71.36470192606787
"01760","Natick","MA","Lift Personal Training","4 Pleasant St","01760",42.298448,-71.358987
"01760","Natick","MA","FitWorks","1 Apple Hill Dr","01760",42.29929822652619,-71.35185221081923
"01772","Southborough","MA","Iron Mountain","120 Turnpike Road","01772",42.29169,-71.513049
"01772","Southborough","MA","HP Software - office gym","120 Turnpike Rd","01772",42.29169845581055,-71.51304626464844
"01772","Southborough","MA","Bodyscapes","The Crossings","02446",42.29220053852602,-71.52025299128387
"01772","Southborough","MA","New England Martial Arts Athletic Center","38 Brigham St.","01752",42.3303021,-71.5421722
"01773","Lincoln","MA","200 West Street Gym","not_available","02451",42.392122847104964,-71.26969255027784
"01773","Lincoln","MA","PKGym@880WinterSt","880","02451",42.411306,-71.290444
"01773","Lincoln","MA","Fitness Works At Work","930 Winter St","02451",42.40491618620186,-71.27453819724958
"01773","Lincoln","MA","National Grid Fitness Center","40 Sylvan Rd","02451",42.39683151245117,-71.2714614868164
"01773","Lincoln","MA","Bay Colony Fitness","1000 Winter St","02451",42.4075813293457,-71.27473449707031
"01773","Lincoln","MA","fitness center at 950 Winter street","950 Winter street","not_available",42.40638732910156,-71.27312469482422
"01773","Lincoln","MA","HealthPoint","840 Winter St","02451",42.40008496809992,-71.27967044843922
"01775","Stow","MA","Global Fitness Center","117 Great Rd","01775",42.43441691643071,-71.48581291048025
"01776","Sudbury","MA","Koko FitClub","447 Boston Post Rd","01776",42.36009002426171,-71.42358550383416
"01776","Sudbury","MA","Pure Barre","435 Boston Post Rd","01776",42.35961519215664,-71.4212647674529
"01776","Sudbury","MA","Cross Fit Studio","1 Hamblin Way","01776",42.39830901,-71.42937881
"01776","Sudbury","MA","Fitness Together - Sudbury","423 Boston Post Rd","01776",42.359818073521474,-71.42218344601535
"01776","Sudbury","MA","Orangetheory Fitness","534 Boston Post Rd","01776",42.360214,-71.430301
"01776","Sudbury","MA","Bosse Sports","141 Boston Post Rd","01776",42.3627020163439,-71.39590264514757
"01776","Sudbury","MA","Academia do celio","Ma","not_available",42.4072107,-71.3824374
"01776","Sudbury","MA","Get In Shape For Women","60 Union Ave","01776",42.364155,-71.42041800000001
"01776","Sudbury","MA","CrossFit Union","31 Union Ave","01776",42.362805489272255,-71.42649989041433
"01778","Wayland","MA","Cross Courts","19 Tech Cir","01760",42.314781188964844,-71.3355712890625
"01801","Woburn","MA","Crossfit Shuriken","not_available","01801",42.50789804987311,-71.14938614771853
"01801","Woburn","MA","Fitness Together","212 Cambridge St","01803",42.512142717098335,-71.20104447852152
"01801","Woburn","MA","Boston Sports Clubs","400 Presidential Way","01801",42.52014,-71.1372
"01801","Woburn","MA","Woburn (North Suburban) YMCA","137 Lexington St","01801",42.47280901950915,-71.17451236380248
"01801","Woburn","MA","Bando Performance Inc","33 East St","01890",42.46874504242631,-71.13679520792175
"01801","Woburn","MA","Gold Medal CrossFit","135 Cambridge St","01803",42.502844,-71.195746
"01801","Woburn","MA","The Little Gym","260 W Cummings Park","01801",42.49779379277591,-71.12719412051793
"01801","Woburn","MA","Peoplefit","237 Lexington St","not_available",42.466158469371564,-71.17871848881833
"01801","Woburn","MA","Hard Nock's Boston","2 Lowell Ave","01890",42.466627,-71.133044
"01801","Woburn","MA","Unleashed Fitness","11 Cabot Rd","01801",42.50999450683594,-71.13475799560547
"01801","Woburn","MA","Gym @ 5 Wall St","5 Wall St","01803",42.48691940307617,-71.18888854980469
"01801","Woburn","MA","Healthy Fit","6 Cummings Park","01801",42.49773025512695,-71.1248779296875
"01801","Woburn","MA","Burlington Woods Offices Gym","not_available","01803",42.48839976126338,-71.19422830950467
"01801","Woburn","MA","Penta Fencing Club, 1 Jewel Dr., Wilmington, MA 01877","1 Jewel Dr","01887",42.526472999999996,-71.157399
"01801","Woburn","MA","Orangetheory Fitness","348 Cambridge Rd","01801",42.461094,-71.16453
"01801","Woburn","MA","Gridiron Training","45 Cummings Park","01801",42.49774932861328,-71.12447357177734
"01801","Woburn","MA","Kaspersky Gym","300 Unicorn Park Drive","01801",42.48382568359375,-71.11549377441406
"01801","Woburn","MA","Fitness Together - Winchester","605R Main St","01890",42.45370864868164,-71.13719177246094
"01801","Woburn","MA","F45 Training Southwest Burlington","34 Cambridge St","01803",42.483362,-71.186401
"01801","Woburn","MA","Advantage Sports Therapy","North St","02180",42.496437503238646,-71.11393327368556
"01801","Woburn","MA","Get In Shape For Women","264 Cambridge St","01803",42.514608,-71.203333
"01801","Woburn","MA","Gym","Best Western New Englander","01801",42.48803964960014,-71.11794289833213
"01803","Burlington","MA","New England Executive Park","New England Executive Park","01803",42.48219745388494,-71.21012212176996
"01803","Burlington","MA","Zumba With Brian","25 Cook Street","not_available",42.53601837158203,-71.22856140136719
"01803","Burlington","MA","Orangetheory Fitness","112 Mall Rd","01803",42.48529223785358,-71.21845578825517
"01803","Burlington","MA","Lucky 13 Fitness","23B Cambridge St.","01803",42.482147216796875,-71.18821716308594
"01803","Burlington","MA","Employee Gym at Lahey Clinic","41 Mall Rd","01805",42.48533248901367,-71.20580291748047
"01803","Burlington","MA","Pure Barre","82 Mall Rd","01803",42.4863247,-71.2123138
"01803","Burlington","MA","Empire Sports Club","12 A St","01803",42.498272841970696,-71.22471988265579
"01803","Burlington","MA","Steel Fox Crossfit","12A Garfield Circle","not_available",42.47180374813473,-71.21297223630008
"01803","Burlington","MA","Sophos Inc.","3 Van de Graaff Dr","01803",42.482495638618815,-71.1990333007309
"01803","Burlington","MA","Corporate Drive Gym","25 Corporate Dr","01803",42.494876861572266,-71.18859100341797
"01810","Andover","MA","Crunch Fitness - Tewksbury","553 Main St","01876",42.61826574527502,-71.25374818752361
"01810","Andover","MA","Andover/North Andover YMCA","165 Haverhill St","01810",42.67304822858594,-71.13244092173865
"01810","Andover","MA","Gold's Gym","540 Main St","01876",42.61926498517255,-71.25236628323307
"01810","Andover","MA","Choice Fitness","180 Haverhill St","01844",42.69938707220692,-71.19186630171109
"01810","Andover","MA","Orangetheory Fitness","554 Turnpike St","01845",42.6662712097168,-71.11540985107422
"01810","Andover","MA","Fitness Center - Holiday Inn Tewksbury","not_available","01852",42.64526130119678,-71.23314808472627
"01810","Andover","MA","Pure Barre","107 Turnpike St","01845",42.67581340457177,-71.13140775639346
"01810","Andover","MA","Latitude Sports Club","10 Main St","01810",42.656531028032134,-71.1402790936564
"01810","Andover","MA","Blast! Fitness","73 Winthrop Ave, Lawrence, MA 01843","01843",42.68999702790157,-71.1518639073182
"01810","Andover","MA","Choice Fitness","595 Chickering Rd","01845",42.696852501690195,-71.11776989621617
"01810","Andover","MA","Gym at The Lodge","1 Ames Hill Dr","01876",42.63827133178711,-71.23255157470703
"01810","Andover","MA","Yang's Fitness Center","5 Dundee Park Dr","01810",42.654337,-71.1473482
"01810","Andover","MA","Kwon's Taekwondo Martial Arts","885 Main St","01876",42.613657,-71.23992
"01810","Andover","MA","Champion Factory","not_available","01845",42.69703497560888,-71.11809956881442
"01810","Andover","MA","Fitness Center La Quinta","not_available","01810",42.691137,-71.20904
"01810","Andover","MA","One To One Strength Training","500 osgood st","01845",42.69619672502852,-71.11469406741776
"01810","Andover","MA","East Celebrity Elite","1500 Shawsheen St","01876",42.61620195568051,-71.18857107831565
"01810","Andover","MA","Andover Workout Room","Wildwood St","01803",42.62451427315455,-71.1078230161706
"01810","Andover","MA","Melissa's Spin Class At Gold's","Main St","01876",42.61947745212628,-71.25247670981312
"01810","Andover","MA","Raytheon Integrated Defense Systems, Walkabout","350 Lowell St","01810",42.6401252746582,-71.18854522705078
"01810","Andover","MA","Boston Sports Club","307 Lowell St","01810",42.64975815415269,-71.18383769894571
"01810","Andover","MA","Results Personal Training","Main St","not_available",42.656547,-71.142121
"01810","Andover","MA","IPF","Harding Street","01810",42.663472,-71.144264
"01810","Andover","MA","The Gym TownePlace Suites","20 International Pl","01876",42.640767,-71.24193100000001
"01810","Andover","MA","Stroller Strides","286 Livingston St","01876",42.600440979003906,-71.20916748046875
"01810","Andover","MA","Kismet Wellness Center","205 Andover St","01810",42.627484,-71.15818725
"01821","Billerica","MA","Planet Fitness - Temporarily Closed","480 Boston Rd","01821",42.55593200996733,-71.26310677719839
"01821","Billerica","MA","Billerica Boys & Girls Club","19 Campbell Rd","01821",42.54847311685667,-71.27144401145911
"01821","Billerica","MA","NDB Fitness LLC","258 Salem Rd Ste 3","01821",42.5740548,-71.2301118
"01821","Billerica","MA","Billerica Crossfit","475 Boston Rd","01821",42.551700592041016,-71.26448822021484
"01821","Billerica","MA","The Trampoline","Jennifer Cir.","01821",42.547928,-71.251051
"01821","Billerica","MA","Pro Fitness Plus","333 Boston Rd","01821",42.56700767100462,-71.2741970623735
"01821","Billerica","MA","Get In Shape For Women","700 Boston Rd","01821",42.540087,-71.24399100000001
"01821","Billerica","MA","Fitness Center Villas At Old Concord","not_available","01821",42.541108364070176,-71.2866698061599
"01821","Billerica","MA","Curves For Women","199 Boston Rd","not_available",42.580714,-71.28936
"01821","Billerica","MA","Anytime Fitness","99 Chelmsford Rd","01862",42.58793799980565,-71.30668317553895
"01821","Billerica","MA","Crossfit Highpower","42 Manning Rd Unit B","01821",42.528045654296875,-71.26329040527344
"01821","Billerica","MA","Middlesex Crossing: Fitness Center","158 Concord Rd","01821",42.547794342041016,-71.27803802490234
"01824","Chelmsford","MA","CrossFit110","290 Littleton Rd Unit 6","01824",42.58200856791525,-71.38820153408264
"01824","Chelmsford","MA","Best Fitness Drum Hill","67 Parkhurst Rd Unit 1","01824",42.62302041615156,-71.35929826315052
"01824","Chelmsford","MA","Fitcorp-Cross Point","900 Chelmsford St","01851",42.61305618286133,-71.32643127441406
"01824","Chelmsford","MA","Courtyard Marriott Fitness Room","30 Industrial Ave","01852",42.615265,-71.317663
"01824","Chelmsford","MA","It's Personal Fitness","7 Summer St","01824",42.59405,-71.347731
"01824","Chelmsford","MA","The Meadows Gym","82 Brick Kiln Rd","not_available",42.59648132324219,-71.30319213867188
"01824","Chelmsford","MA","Best Fitness Chelmsford","265 Chelmsford St Ste 1","01824",42.610403294139516,-71.33429720829963
"01824","Chelmsford","MA","Comcast Employee Gym","330 Billerica Rd","01824",42.59135437011719,-71.31654357910156
"01824","Chelmsford","MA","Forever Health And Fitness","5 Courthouse Ln, Chelmsford, MA 01824","01824",42.62364917132311,-71.35828746524868
"01824","Chelmsford","MA","Westford Racquet & Fitness Club","4 Littleton Rd","01886",42.578533814348724,-71.39671613164907
"01824","Chelmsford","MA","Keith Gymnasium","512-534 Stevens St","01851",42.62569269,-71.33083627
"01824","Chelmsford","MA","Apollo fitness center","300 Apollo Dr, Chelmsford, MA 01824","01824",42.60144891906041,-71.32690242859897
"01824","Chelmsford","MA","Gold's Gym","5 Courthouse Ln","01824",42.62375104871469,-71.35824191910244
"01824","Chelmsford","MA","High Speed Defense","963 Chelmsford St #201","01851",42.6145385215198,-71.32753372192383
"01824","Chelmsford","MA","Get In Shape For Women","115 Drum Hill Rd","01824",42.623653000000004,-71.364841
"01824","Chelmsford","MA","Best Fitness Lowell","199 Plain St Unit 9","01852",42.62187345997765,-71.31817705726462
"01824","Chelmsford","MA","The Courtyard Gym","360 Littleton Rd","01824",42.579279,-71.39030100000001
"01824","Chelmsford","MA","CrossFit Lowell","2 Foundry Industrial Park","01852",42.622444876635356,-71.31551256674334
"01824","Chelmsford","MA","crossfit High Power #23","34 Sullivan Rd","01824",42.565764,-71.32359100000001
"01826","Dracut","MA","Gravity Fitness","28 Loon Hill Rd","01826",42.672446161130544,-71.29387816636545
"01826","Dracut","MA","Big Hitters","14 Village Grn","03076",42.733280181884766,-71.32672119140625
"01826","Dracut","MA","Lofts at Perkins Fitness Center","21 Perkins St","01854",42.651548999999996,-71.315061
"01826","Dracut","MA","New Energy &  Weight-loss Training Systems","101 Broadway Rd Ste 4","01826",42.67329025268555,-71.29407501220703
"01826","Dracut","MA","Curves For Women","bridge st","03076",42.7236103,-71.31886721666666
"01826","Dracut","MA","CrossFit Objective","1 New Boston Rd","01826",42.675571999999995,-71.334192
"01826","Dracut","MA","CLEVELAND HEALTH & FITNESS","17 Darrin Rd","01826",42.68119576401934,-71.35609629025942
"01826","Dracut","MA","Gettin' Fit","Oak Terrace","01826",42.67743682861328,-71.35798645019531
"01826","Dracut","MA","Get Fit With Amanda","not_available","01826",42.673869,-71.293783
"01826","Dracut","MA","Wannalancit Gym","650 Suffolk St","01854",42.650062561035156,-71.31607818603516
"01827","Dunstable","MA","Bay State Fit Club","not_available","01879",42.654573465900434,-71.44809763132756
"01830","Haverhill","MA","YMCA","81 Winter St","01830",42.777467350457115,-71.07901569086106
"01830","Haverhill","MA","Choice Fitness","2 Water St","01830",42.77568675217353,-71.07581883626362
"01830","Haverhill","MA","Latitude Sports Club","3 Ferry St","01835",42.770591912915755,-71.07476506750197
"01830","Haverhill","MA","The Compound","34 Merrimack St.","01830",42.7748133,-71.07735780000002
"01830","Haverhill","MA","Boom! Athletics","241 Winter St","01830",42.777976989746094,-71.08619689941406
"01830","Haverhill","MA","Hayes gym room","Railroad squares","01832",42.77399806485387,-71.08477777568623
"01830","Haverhill","MA","brickhouse fitness","191 Merrimack St","01830",42.7741813659668,-71.08177185058594
"01830","Haverhill","MA","Brazilian Jiu Jitsu","South Main Street","not_available",42.75856936835658,-71.10002403423316
"01830","Haverhill","MA","The Residences at Little River","10 Primrose Way","01830",42.795501,-71.09395
"01833","Georgetown","MA","Curves","939 Salem Street (rte 97)","not_available",42.73442840576172,-71.01274108886719
"01833","Georgetown","MA","Crossfit 133","16 Carleton Dr","01833",42.71216177922095,-70.96576464894501
"01833","Georgetown","MA","GET IN SHAPE FOR WOMEN","56 Central St","01833",42.721476,-70.991427
"01835","Haverhill","MA","Cedardale Fitness","931 Boston Road","01835",42.7522738,-71.1038162
"01840","Lawrence","MA","Lawrence YMCA","40 Lawrence St","01840",42.709272,-71.162554
"01840","Lawrence","MA","Crossfit Mass","60 Island St","01840",42.705754324431666,-71.15327343684274
"01840","Lawrence","MA","Flow Fitness","280 Merrimack St","01843",42.70353698730469,-71.14856719970703
"01840","Lawrence","MA","Union Crossing Gym","not_available","01840",42.70539199133361,-71.15176488876025
"01841","Lawrence","MA","Chaotic Training Center","100 Belmont St","01845",42.70254898071289,-71.13826751708984
"01841","Lawrence","MA","My Gym","Market St, Lawrence, MA 01843","01843",42.70293130374076,-71.14454118469564
"01841","Lawrence","MA","Cheito's Gym","Andover St","not_available",42.693505184758,-71.15507208281026
"01841","Lawrence","MA","Beverly Athlectic Club Express","not_available","01841",42.71976852416992,-71.15843963623047
"01844","Methuen","MA","Planet Fitness","92 Cluff Crossing Rd","03079",42.765998,-71.22068
"01844","Methuen","MA","Orangetheory Fitness","236 N Broadway","03079",42.79261768662836,-71.23443461563924
"01844","Methuen","MA","Workout Club and Wellness Center","16 Pelham Rd","03079",42.77666,-71.247856
"01844","Methuen","MA","iLoveKickboxing - Methuen, MA","40 Jackson St","01844",42.7239717,-71.1601765
"01844","Methuen","MA","Choice Fitness","126 Merrimack St","01844",42.73138626618843,-71.1382880318894
"01844","Methuen","MA","Latitude Sports Club","116 Pleasant Valley St","01844",42.74511901721005,-71.15132620624105
"01844","Methuen","MA","Endure-Strength-Flow","60 Lowell Rd-the Icenter","03079",42.76544718530801,-71.24869281349186
"01844","Methuen","MA","Get In Shape","224 N Broadway","03079",42.790552000000005,-71.233162
"01844","Methuen","MA","Spicket Commons Mini-Gym","23 Hampshire Rd.","not_available",42.740581676436825,-71.20334596000001
"01844","Methuen","MA","The Sweat Shop","Anderson Dr.","01844",42.738619572942255,-71.14423946889302
"01844","Methuen","MA","miami fitness and lifestyle","202 Sutton St","01845",42.707591,-71.131884
"01844","Methuen","MA","Best Fitness","4 Myona St","01844",42.73164367675781,-71.13751220703125
"01844","Methuen","MA","Fitness Enhancement","17 Lawrence","01844",42.724195,-71.152894
"01844","Methuen","MA","Fyfe Training","47 High Street","not_available",42.701995849609375,-71.12422180175781
"01845","North Andover","MA","FItness for You","530 Turnpike St","01845",42.66692787620218,-71.1161208741543
"01845","North Andover","MA","Fitness Together - Northandover","73 Main St","01845",42.703967,-71.13271800000001
"01845","North Andover","MA","GET IN SHAPE FOR WOMEN","63 Park St","01810",42.65683833,-71.13711892
"01845","North Andover","MA","Heritage Green","Farrwood Ave","01845",42.684903999999996,-71.124413
"01845","North Andover","MA","Crossfit Mass","1630 Osgood St","01845",42.731822248580485,-71.11663150596883
"01845","North Andover","MA","Fitness Together - Andover","354 N Main St","01810",42.673441611321955,-71.15134219674428
"01850","Lowell","MA","Fitness at Boott Mills West","130 John St","01852",42.64796,-71.307317
"01850","Lowell","MA","BrickHouse Wrestling","47 Lee St","01852",42.64610027320296,-71.30924309440009
"01850","Lowell","MA","Massmills Fitness Center","150 Massmills Dr","01852",42.64652336382702,-71.3053035736084
"01851","Lowell","MA","Fitness Reclaimed","345 Chelmsford St","01851",42.630608,-71.322582
"01852","Lowell","MA","Choice Fitness","55 Church St","01852",42.64088622294908,-71.30682825209598
"01852","Lowell","MA","Greater Lowell YMCA","35 Ymca Dr","01852",42.63534035309117,-71.31211632462089
"01852","Lowell","MA","Get Fit","642 Gorham St","01852",42.633122,-71.308876
"01852","Lowell","MA","West End Gym","900 Lawrence St","01852",42.629653999999995,-71.298839
"01854","Lowell","MA","Cardiac Rehab","not_available","01854",42.646823,-71.342848
"01854","Lowell","MA","Chelmsford Sports Club","51 Middlesex","01852",42.63793922010286,-71.37880452640732
"01854","Lowell","MA","Camp Shiny Things","51 Middlesex Street","not_available",42.637107849121094,-71.37910461425781
"01863","North Chelmsford","MA","Chelmsford sports club","166 Middlesex St","01863",42.636307,-71.36581
"01863","North Chelmsford","MA","Crosstrain Sports Club","166 Middlesex St","not_available",42.636307,-71.36581
"01863","North Chelmsford","MA","Skill Of Strength","not_available","01863",42.63476855456434,-71.38066693686038
"01864","North Reading","MA","Gym at Edgewood","100 Lowell Rd","01864",42.582061767578125,-71.12425231933594
"01864","North Reading","MA","Core Synergy","197 Main St","01864",42.58604460202524,-71.11263513565063
"01864","North Reading","MA","Orangetheory Fitness","265 Main St","01864",42.590777,-71.115879
"01867","Reading","MA","Gold's Gym","1 General Way","01876",42.51856231689453,-71.09776306152344
"01867","Reading","MA","Burbank YMCA","36 Arthur B Lord Dr","01867",42.53811150290653,-71.11229559221779
"01867","Reading","MA","Bootcamp By Costa","335 Main St","01867",42.51799774169922,-71.10285949707031
"01867","Reading","MA","Fitness Together - Reading","102 Main St","01867",42.506708392522924,-71.10422249584104
"01867","Reading","MA","Rebirth Body Transportation Center","333 North Ave","01880",42.504447,-71.077003
"01867","Reading","MA","Stroller Strides","1 Church St","01880",42.50738525390625,-71.07311248779297
"01867","Reading","MA","Minuteman CrossFit","25 Haverhill St","01867",42.527968753718895,-71.07854704229982
"01867","Reading","MA","Reading Athletic Club","1 General Way","01867",42.51931452504435,-71.10057132204908
"01867","Reading","MA","Snap Fitness","46 Haven St","01867",42.522727966308594,-71.10623931884766
"01867","Reading","MA","Today's Fitness Center","27 Normac Rd","01801",42.50140833772547,-71.13561711895225
"01867","Reading","MA","Shakti Health, Fitness & Wellness - Reading","627 Main St","01867",42.5238812,-71.1026136
"01867","Reading","MA","Get In Shape For Women","150 Main St","01867",42.509053,-71.104674
"01876","Tewksbury","MA","Evolutions Fitness","1830 Main St","01876",42.592259,-71.207906
"01876","Tewksbury","MA","Get IN-SHAPE For Women","1555 Main St","01876",42.59774442,-71.21860432
"01876","Tewksbury","MA","The Self Defense Institute","1721 Main St","01876",42.59443664550781,-71.21218872070312
"01876","Tewksbury","MA","IDS HQ Raytheon Gym","not_available","01876",42.639059840559426,-71.24466900046893
"01876","Tewksbury","MA","Indian Ridge Fitness Center","Apache Way","01876",42.602065,-71.196901
"01879","Tyngsboro","MA","Chucks Gym","121 Scribner Rd","01879",42.643367767333984,-71.47547149658203
"01879","Tyngsboro","MA","Anytime Fitness","315 Middlesex Rd Units 6 & 7","01879",42.68374,-71.42794
"01879","Tyngsboro","MA","Global Fitness","11 Progress Ave","01879",42.67483872756863,-71.44314150613272
"01880","Wakefield","MA","Mamas Move","60 D Audubon Rd","01880",42.5172004699707,-71.04547119140625
"01880","Wakefield","MA","Warrior Strength & Conditioning","60 Farm St","01880",42.49561610899737,-71.05052833959655
"01880","Wakefield","MA","Total Inspiration Athletics","20 Spencer St","02180",42.477195,-71.09900999999999
"01880","Wakefield","MA","Better Health Pro","440 Main St","02180",42.477443,-71.0999
"01880","Wakefield","MA","Get in Shape for Women","470 Main St","01880",42.501627,-71.069008
"01880","Wakefield","MA","Sweat Fixx","383 Lowell St","01880",42.517208099365234,-71.06378173828125
"01880","Wakefield","MA","Olympia Barbell","456 Main St","01880",42.501861572265625,-71.06901550292969
"01886","Westford","MA","Orangetheory Fitness","160 Littleton Rd","01886",42.568925858860695,-71.41947585639984
"01886","Westford","MA","Puma Weight Room","10 Lyberty Way","01886",42.55847930908203,-71.42677307128906
"01886","Westford","MA","Koko Fit Club Westford","174 Littleton Rd","01886",42.56656265258789,-71.4219970703125
"01886","Westford","MA","Get In Shape for Women","142 Littleton Rd","01886",42.569287,-71.418435
"01886","Westford","MA","Boost Westford","139 Littleton Rd","01886",42.570482266114595,-71.41925519193533
"01886","Westford","MA","Abbot Mill Gym","Abbot Mill Ln","not_available",42.580863293979625,-71.48463766687625
"01887","Wilmington","MA","Strive 24 Hour Fitness","3 Lopez Road Suite C","01887",42.55788803100586,-71.1484603881836
"01887","Wilmington","MA","Avalon Gym","not_available","01887",42.58107486059805,-71.15931337364815
"01887","Wilmington","MA","Matrix Strength & Fitness","10 Upton Dr #7","01887",42.59209060668945,-71.14865112304688
"01887","Wilmington","MA","Body Xpress","424 Main St","01887",42.54696273803711,-71.17356872558594
"01887","Wilmington","MA","Crossfit Phoenix Rising","5 Birch St #3","01887",42.54128646850586,-71.154296875
"01887","Wilmington","MA","RMA Fitness","1 Burlington Ave","01887",42.54584738712594,-71.17482183674613
"01887","Wilmington","MA","Textron Systems Fitness Center","201 Lowell St","01887",42.538403,-71.15516600000001
"01887","Wilmington","MA","Wilmington Fit Body Boot Camp","2 Lowell St","01887",42.542978,-71.1671101
"01890","Winchester","MA","Stroller Strides","4 Mystic Valley Parkway","01890",42.44013340625128,-71.14514350891113
"01890","Winchester","MA","Winchester Country Club - Fitness Center","Cambridge Street","not_available",42.437798385226316,-71.15660962852367
"01890","Winchester","MA","Rachel's Gym","201 Main","not_available",42.469106,-71.14383
"01890","Winchester","MA","Winchester High School Gym","not_available","01890",42.446136,-71.14753
"01890","Winchester","MA","Crossfit Lando","10 Micro Dr","01801",42.47161059688031,-71.13644547450969
"01890","Winchester","MA","Mountain Strength CrossFit","70 Cross St","01890",42.46617457609472,-71.13004782018426
"01890","Winchester","MA","Freddy's Hawaiian Punch","20 Sonar Dr","01801",42.47133255004883,-71.13822174072266
"01890","Winchester","MA","Get In Shape For Women","564 Main St","01890",42.452346,-71.13707
"01901","Lynn","MA","Lynn YMCA","40 neptune Blvd.","01902",42.46066854981742,-70.95155293086238
"01902","Lynn","MA","City Fitness","181 A Union Street","01902",42.4670524597168,-70.94210052490234
"01904","Lynn","MA","Brock Hard Abs","not_available","01904",42.494685,-70.974178
"01904","Lynn","MA","Quietman Sports Gym","not_available","01940",42.510996,-71.004426
"01905","Lynn","MA","Dublins fight factory; Fight To Be Fit!","725 Summer St","01905",42.45916748046875,-70.97711944580078
"01905","Lynn","MA","GE Health & Fitness Center","1000 Western Ave","01910",42.45214,-70.972321
"01905","Lynn","MA","Flex Fitness","304 Lincoln Ave","01906",42.44931727362024,-70.99745003750637
"01906","Saugus","MA","Gym at Alterra","11 Overlook Ridge Dr","02151",42.43885716796143,-71.01958557206075
"01906","Saugus","MA","LA Fitness","1450 Broadway","01906",42.45024487873222,-71.02553000400279
"01906","Saugus","MA","Fitness Center @ Steven's Pond","not_available","01906",42.467177013698524,-71.02961172436318
"01906","Saugus","MA","F45 Training Saugus","1565 Broadway","01906",42.45393,-71.023851
"01906","Saugus","MA","World Gym","1277 Broadway","01906",42.46131896972656,-71.02725982666016
"01906","Saugus","MA","Bobby Tomasello Memorial Boxing Club","347 Central St","01906",42.461456298828125,-71.0097885131836
"01906","Saugus","MA","L A Fitness","1423 Broadway","01906",42.45854187011719,-71.0245132446289
"01906","Saugus","MA","Bally Total Fitness","561 Squire Rd","02151",42.432325,-71.019937
"01906","Saugus","MA","Quarrystone Gym","not_available","02151",42.43796057946403,-71.02121924472164
"01906","Saugus","MA","CrossFit RTE 1","184 Broadway","01906",42.444702021061666,-71.02877795625761
"01906","Saugus","MA","Gym at 21 Overlook Ridge Terrace","21 Overlook Ridge Ter","02151",42.44098663330078,-71.02139282226562
"01907","Swampscott","MA","Body Mind Systems Martial Arts Center","1005 Paradise Rd","01907",42.481963,-70.900313
"01907","Swampscott","MA","Sweat Fitness","Humphrey Avenue","01907",42.47254719329718,-70.9066536804646
"01907","Swampscott","MA","Paradise gym","21 Elm Pl","01907",42.4762652480751,-70.91959154052483
"01907","Swampscott","MA","Pure Barre","1016 Paradise Rd","01907",42.4849963,-70.9009937
"01907","Swampscott","MA","TD Athletes Edge","171 Essex St","01907",42.477088928222656,-70.91922760009766
"01907","Swampscott","MA","Orangetheory Fitness","450 Paradise Rd","01907",42.4827655,-70.904393
"01913","Amesbury","MA","Pure Barre","45 Storey Ave","01950",42.8199312,-70.906189
"01913","Amesbury","MA","Hard Nocks Gym","11 High St","01913",42.85839773206157,-70.93062087032574
"01915","Beverly","MA","Sterling YMCA","254 Essex St","01915",42.56767171710215,-70.86301538835103
"01915","Beverly","MA","Link Gym","Rantoul St","01915",42.55604,-70.88114
"01915","Beverly","MA","Blink Fitness","71 Dodge Street, Route 1A","01915",42.57586049993968,-70.88895753121159
"01915","Beverly","MA","Park Street Crossfit","not_available","01915",42.553654,-70.88335
"01915","Beverly","MA","Beverly Commons Gym","Tozer Rd","01915",42.57728990820081,-70.8859995828375
"01915","Beverly","MA","Get In Shape For Women","131 Dodge St","01915",42.581888,-70.884703
"01915","Beverly","MA","VIP Fitness","Cabot St","01915",42.54836891481181,-70.87888158368843
"01915","Beverly","MA","Beverly Athletic Club","7 Reservoir Rd","01915",42.56964166972005,-70.88053524293915
"01915","Beverly","MA","Fitness Together","950 Cummings Ctr Ste 98X","01915",42.55746077687064,-70.8880599954431
"01915","Beverly","MA","Fitness Crossing","140 Elliott St","01915",42.55473,-70.88478
"01915","Beverly","MA","Cabot Street YMCA","245 Cabot St","01915",42.549735,-70.877463
"01915","Beverly","MA","Spectrum Fitness","100 Cummings Ctr","01915",42.559093,-70.887006
"01915","Beverly","MA","Revive Dance Xchange","260 Cabot St","01915",42.551041999999995,-70.87813299999999
"01915","Beverly","MA","The Inner Cycle","377 Cabot St, Beverly, MA 01915","01915",42.55798495935621,-70.87927347254939
"01915","Beverly","MA","Beverly School for the Deaf Gymnasium","Echo ave.","01915",42.54833333333333,-70.87840277777777
"01915","Beverly","MA","Blink Fitness","71 Dodge Street Route 1A","01915",42.57651,-70.88939
"01915","Beverly","MA","Crossfit Variance","Park St","not_available",42.55236528723703,-70.88349803178399
"01921","Boxford","MA","Fitness Together - Topsfield","10 S Main St","01983",42.63726824368098,-70.95135987796961
"01922","Byfield","MA","Bill Alfond '67 Fitness Center","1 Elm St","01922",42.751436273221515,-70.89975917185747
"01923","Danvers","MA","Orangetheory Fitness","35 Independence Way","01923",42.55013656616211,-70.93950653076172
"01923","Danvers","MA","Boston North Fitness Center","not_available","01923",42.55983198570198,-70.9606491895599
"01923","Danvers","MA","Atlantis Sports Club, Danvers","50 Ferncroft Rd","01923",42.59679508768538,-70.96834739390033
"01923","Danvers","MA","Body Ambition Fitnes","206 S Main St","01949",42.581085205078125,-71.00104522705078
"01923","Danvers","MA","Latitude Sports Clubs","194 Newbury St","01960",42.5441927375652,-70.98658732532886
"01923","Danvers","MA","Endicott Green Fitness Center","180 Newbury St","01923",42.57210922241211,-70.97445678710938
"01923","Danvers","MA","Powerfit Gym","not_available","01960",42.546903,-70.98338100000001
"01923","Danvers","MA","Get In Shape For Women","110 Newbury St","01923",42.56824,-70.97496899999999
"01923","Danvers","MA","Crossfit Wicked","Natsue Way","01949",42.56877475729779,-71.00227632223051
"01923","Danvers","MA","Danvers Community YMCA","34 Pickering St","01923",42.56646739134433,-70.94427168504569
"01923","Danvers","MA","Avalon Essex Gym","1 Avalon Dr","01960",42.543717,-70.948148
"01923","Danvers","MA","Olympia Gym And Fitness","6 Varney St.","03894",42.560820058566044,-70.97072151648403
"01923","Danvers","MA","OSRAM SYLVANIA Fitness Center","100 Endicott St","01923",42.549264103486635,-70.92988900344801
"01923","Danvers","MA","Work Out World","216 Newbury St","01960",42.546089280603425,-70.98498537892817
"01923","Danvers","MA","Cycle Shoppe","150A Andover St","01923",42.556114,-70.972266
"01923","Danvers","MA","North Shore CrossFit","121 Liberty St","01923",42.55716804969675,-70.92440869578118
"01923","Danvers","MA","Axis spin and conditioning","235 newbury st, danvers, ma","not_available",42.58073425292969,-70.96766662597656
"01923","Danvers","MA","United Martial Arts Center for Health & Well Being","20 Locust St","01923",42.569081,-70.938149
"01923","Danvers","MA","Everyday Fitness For Everyday Women","83 Pine St","01960",42.54386611651049,-71.00130529160027
"01930","Gloucester","MA","MAC Fitness","Washington St","not_available",42.61708892471902,-70.66888880572547
"01930","Gloucester","MA","Mirhonda's House Of Wellness","not_available","01930",42.61268222052705,-70.66274534587323
"01930","Gloucester","MA","Crossfit Cape Ann","18 Sargent St","01930",42.618934,-70.66380799999999
"01930","Gloucester","MA","Cape Ann YMCA","71 Middle St","01930",42.6129934857141,-70.66353660716821
"01930","Gloucester","MA","Harmony Barre + Healing","25B Lexington Avenue","01930",42.57627436776456,-70.71219529314284
"01930","Gloucester","MA","Rach's Workout World","3 Butler Ave","01944",42.578088,-70.717647
"01930","Gloucester","MA","Sisu Fitness Cape Ann","3A Pond Rd","01930",42.630210876464844,-70.63899230957031
"01930","Gloucester","MA","The Fitness Zone","37 blackburn industrial park","01930",42.62565348607075,-70.65088977364937
"01930","Gloucester","MA","O'Neil Fitness","85 Bass Ave","01930",42.617514,-70.640548
"01938","Ipswich","MA","Foley Sports Conditionong","not_available","01983",42.658608,-70.932339
"01938","Ipswich","MA","Casa de Gleff Fitness Center","not_available","01938",42.67613947999532,-70.87933819146357
"01938","Ipswich","MA","The Gym Downtown","not_available","01982",42.63898604358397,-70.8381163473421
"01940","Lynnfield","MA","Fitness Together - Lynnfield","10 Post Office Sq","01940",42.5145893280486,-71.01388111815457
"01940","Lynnfield","MA","Pure Barre","530 Market St","01940",42.514723,-71.034918
"01940","Lynnfield","MA","Highlands Gym","19 Dearborn Road","01960",42.52260023030682,-70.98807716703614
"01940","Lynnfield","MA","iLoveKickboxing - Peabody, MA","124 Newbury Street, Route 1 South","01960",42.534255576077314,-70.99094338161467
"01940","Lynnfield","MA","Boston Sports Clubs","425 Walnut Street","01940",42.515140533447266,-71.02986907958984
"01940","Lynnfield","MA","Row House","1370 Market Street","01949",42.5146764,-71.0319969
"01944","Manchester","MA","Manchester Athletic Club","8 Atwater Ave","01944",42.591368537205135,-70.76173209845699
"01945","Marblehead","MA","Salem YMCA","1 Sewall St","01970",42.52163812542222,-70.89830894252229
"01945","Marblehead","MA","Jefferson at Salem Station Fitness Center","190 Bridge St","01970",42.52499008178711,-70.89378356933594
"01945","Marblehead","MA","Get in shape for women","Essex St","01970",42.521223,-70.89744
"01945","Marblehead","MA","Get In Shape For Women","27 Atlantic Ave","01945",42.49979496,-70.8552704
"01949","Middleton","MA","Fuller Pond Gym","not_available","01949",42.579506340342895,-71.01191535047653
"01949","Middleton","MA","bodyco","108 S Main St","01949",42.58811902249449,-71.01080095870167
"01950","Newburyport","MA","Fuel Training Studio","not_available","01950",42.81190188155732,-70.87387685298785
"01950","Newburyport","MA","Mako Fitness","251 Low St","01950",42.818549,-70.906518
"01950","Newburyport","MA","Fitness Together - Newburyport","3 Graf Rd","01950",42.80638331407024,-70.88189808818395
"01950","Newburyport","MA","CrossFit Full Potential","5 Perkins Way","01950",42.795807498851126,-70.88381303193171
"01950","Newburyport","MA","Get IN-SHAPE For Women","58 Merrimac St","01950",42.812347412109375,-70.87328338623047
"01952","Salisbury","MA","Latitude Sports Club","191 Elm St","01952",42.84250947549128,-70.89364682709213
"01952","Salisbury","MA","Krave Cycling","2 Elm St","01952",42.841682,-70.861071
"01960","Peabody","MA","Peabody Torigian Family YMCA","259 Lynnfield St","01960",42.515737780413176,-70.97819747996469
"01960","Peabody","MA","Salem Fitness Center","38 Swampscott Rd","01970",42.49751202227071,-70.92430614560739
"01960","Peabody","MA","S4Z's Power House","205 Highland Ave","01970",42.50510025024414,-70.91730499267578
"01960","Peabody","MA","Powerfit Gym and Fitness","215 Lowell Street","01960",42.54012659997509,-70.94178998604332
"01960","Peabody","MA","Anytime Fitness","2 1st Ave Suite 126","01960",42.5196,-70.97515
"01960","Peabody","MA","Peabody Athletic Club","119R Foster St","01960",42.521535,-70.933414
"01970","Salem","MA","Bowenwork","not_available","01970",42.512131,-70.900623
"01970","Salem","MA","Healthworks Fitness Center for Women","84 Highland Ave","01970",42.51222807732005,-70.90885361568635
"01970","Salem","MA","DiHard Fitness","41 Mason St","01970",42.52429778553506,-70.90406265211938
"01982","South Hamilton","MA","Get In Shape For Women","Walnut Road","01982",42.61000934421177,-70.87353429973544
"01982","South Hamilton","MA","The Hamilton Athletic Club","300 At Main","01984",42.609601715092005,-70.87507516519766
"01983","Topsfield","MA","Northshore Crossfit","97 Central St.","01983",42.630137,-70.944991
"02019","Bellingham","MA","Work Out World","799 S Main St","02019",42.051255159098766,-71.48114223721149
"02019","Bellingham","MA","BPD Gym","80 Harpin St","02019",42.033748626708984,-71.4892807006836
"02019","Bellingham","MA","Crossfit Tri-county","Maple Street","02019",42.10079826780106,-71.44995284021519
"02021","Canton","MA","Life Time Athletic Westwood","44 Harvard St","02090",42.20085070375899,-71.15689787234231
"02021","Canton","MA","LA Fitness","3 Hawes Way","02072",42.15243296663402,-71.07064863373567
"02021","Canton","MA","Stroller Strides","Houghton's Pond","02186",42.20781089893318,-71.09905242919922
"02021","Canton","MA","Journey Forward","755 Dedham St","02021",42.192352294921875,-71.14999389648438
"02021","Canton","MA","Fuzion Sports Club","300 Turnpike St","02021",42.176235419942195,-71.11212283669815
"02021","Canton","MA","Crossfit Homebase","960 Turnpike St","02021",42.15303039550781,-71.1048812866211
"02021","Canton","MA","plus one fitness center","not_available","02021",42.20521610916484,-71.13286792728923
"02021","Canton","MA","Atlantis Sports Club","Allied Drive","02027",42.225870735925064,-71.16990635060779
"02021","Canton","MA","Dunkin Brands Fitness Center","1 Royall St","02021",42.206917017430904,-71.12967560705148
"02021","Canton","MA","Downstairs Gym","not_available","02090",42.22110879028958,-71.1695620551387
"02021","Canton","MA","Get In Shape For Women","14 Washington St","02021",42.139364,-71.14976999999999
"02021","Canton","MA","Reebok Gym","1895 J W Foster Blvd","02021",42.2055778503418,-71.12603759765625
"02021","Canton","MA","Avalon Fitness Center","1 Avalon Dr","02368",42.183774885492184,-71.08433648679369
"02021","Canton","MA","Gold's Gym","333 Tosca Dr","02072",42.13791521394707,-71.12515686327424
"02021","Canton","MA","MEDITECH Canton Gym","7 Blue Hill River Rd","02021",42.20560073852539,-71.1148452758789
"02021","Canton","MA","Neumann Law Group","793 Washington St","02021",42.15857772,-71.14448245
"02025","Cohasset","MA","Fitness Together - Cohasset","790 Chief Justice Cushing Hwy","02025",42.220919,-70.8004963
"02025","Cohasset","MA","South Shore Athletic Club","132 Chief Justice Cushing Hwy","02025",42.24246906915374,-70.83547371326738
"02025","Cohasset","MA","SSF","not_available","02025",42.234533,-70.822303
"02025","Cohasset","MA","Scituate Racquet & Fitness","1004 Chief Justice Cushing Hwy","02066",42.21837377847117,-70.79562751927605
"02026","Dedham","MA","Sky Zone","91-B Sprague Street","02136",42.2349829,-71.140348
"02026","Dedham","MA","pescado gymnasio","35 Pinewood Rd","02492",42.279312,-71.225127
"02026","Dedham","MA","The body workshop","not_available","02026",42.248296999999994,-71.17258199999999
"02026","Dedham","MA","Craic Crossfit","359 Washington St","02026",42.24868639313351,-71.17307306411621
"02026","Dedham","MA","Top Notch Training","Providence hwy","not_available",42.224815368652344,-71.18167877197266
"02026","Dedham","MA","Westwood Fitness","Nahattan Street","02090",42.21689932178811,-71.21532776380538
"02026","Dedham","MA","Ten X Club","460 Providence Hwy","02026",42.246543828829644,-71.17191813411013
"02026","Dedham","MA","Stadium Performance","450 Providence Hwy","02026",42.2465474,-71.1711787
"02026","Dedham","MA","Blast! Fitness","1600 Vfw Pkwy","02132",42.26703822609618,-71.16817790639558
"02026","Dedham","MA","Pure Barre","260 Legacy Place","02026",42.232255416042506,-71.17729895031192
"02026","Dedham","MA","American Red Cross Fitness Center","180 Rustcraft Rd","02026",42.23156511091571,-71.16850364774518
"02026","Dedham","MA","Hale","80 Carby St","02090",42.23379898071289,-71.22763061523438
"02026","Dedham","MA","Get In Shape For Women","75 Spring St","02132",42.27777564573879,-71.1637331315769
"02026","Dedham","MA","DHAC Rock Gym","200 Providence Hwy","02026",42.256938,-71.16581
"02026","Dedham","MA","Get In Shape For Women","917 High St","02090",42.218121999999994,-71.22516800000001
"02026","Dedham","MA","Rock Spot Climbing","67 Sprague St","02136",42.235235672823165,-71.13842230792642
"02026","Dedham","MA","Weights N Training","90 Glacier Dr","02090",42.21549606323242,-71.1868896484375
"02026","Dedham","MA","BGA","not_available","02136",42.23527,-71.138358
"02030","Dover","MA","New England Ruffnecks","40 Chestnut Pl","02492",42.275636,-71.238718
"02030","Dover","MA","Community Cycle","4 Springdale Ave","02030",42.244144,-71.28104599999999
"02030","Dover","MA","Body Burn","916 Great Plain Ave","02492",42.280073,-71.235098
"02032","East Walpole","MA","LA Fitness","20 Providence Hwy","02032",42.15660757518938,-71.20076073480517
"02032","East Walpole","MA","Crossfit Prosperity","555 Providence Hwy #6","02081",42.14862823486328,-71.21497344970703
"02032","East Walpole","MA","Thomas Jefferson Weightlifting Club For Boys Or Girls","1080 Pleasant St","02062",42.164716999999996,-71.20758599999999
"02032","East Walpole","MA","Bike n Barre, LLC","397 High Plain St #10","02081",42.14063906762097,-71.22065305709839
"02035","Foxboro","MA","Cheer Legacy","W Water St","02780",42.083806,-71.218955
"02035","Foxboro","MA","Cheer Factor","69 E Belcher Rd","02035",42.052131370421975,-71.22644312306
"02035","Foxboro","MA","Mass Premier Courts","97 Green St","02035",42.03031521335513,-71.2560547661122
"02035","Foxboro","MA","Cedar Heights Gym","10 Conners Ave","02048",42.039315,-71.208963
"02035","Foxboro","MA","Higher Ground Fitness","88 Chilson Ave #2","02048",42.0322131,-71.2159108
"02035","Foxboro","MA","Gold's Gym","7 Lincoln Rd","02035",42.08472474073928,-71.28098757656527
"02035","Foxboro","MA","crossfit first down","190 Chauncy St","02048",42.03044509887695,-71.2271957397461
"02035","Foxboro","MA","World Gym","131 Morse St.","not_available",42.04534726259166,-71.21339962180572
"02035","Foxboro","MA","Pure Barre","244 Patriot Pl Spc D11","02035",42.093038,-71.267375
"02035","Foxboro","MA","Fitness Together - Mansfield","80 Copeland Dr","02048",42.02938116503453,-71.22921819938833
"02035","Foxboro","MA","F45 Training Foxborough","121 Main St","02035",42.074339,-71.257298
"02035","Foxboro","MA","Fit Factory Foxboro","10 Foxboro Boulevard","02035",42.037353712705844,-71.23342652825218
"02035","Foxboro","MA","Fit Focus","30 Commercial St","02035",42.05300484201174,-71.2400020875493
"02035","Foxboro","MA","Putnam Village Fitness Center","Putnam Rd","02035",42.0505636,-71.2393628
"02035","Foxboro","MA","Mansfield Fitness Center","31 Hampshire St","02048",42.02811548404916,-71.25153791513648
"02035","Foxboro","MA","Charles G Taylor Elementary School","South Street","not_available",42.048557,-71.254078
"02038","Franklin","MA","Fitness Together - Franklin-Ma","13 Main St","02038",42.08317420511444,-71.39723557068403
"02038","Franklin","MA","Adirondack Club","800 Chestnut St","02038",42.116794176972476,-71.41823506978919
"02038","Franklin","MA","YMCA","45 Forge Hill Rd","02038",42.078263566762324,-71.4341851455154
"02038","Franklin","MA","Crossfit Franklin","100 Franklin Village Dr","02038",42.089881896972656,-71.42342376708984
"02038","Franklin","MA","Hampton Gym","not_available","02038",42.065173349783144,-71.39788740049147
"02038","Franklin","MA","Crunch Fitness - Franklin","100 Franklin Village Drive","02038",42.08805265,-71.4219906
"02038","Franklin","MA","Hourglass Fitness","447 E Central St","02038",42.07975274862312,-71.37634590268135
"02038","Franklin","MA","Wadsworth Wrestling","Kenwood Circle","not_available",42.073291,-71.416103
"02038","Franklin","MA","Get In Shape For Women","not_available","02081",42.08186437075949,-71.39568402035086
"02038","Franklin","MA","Boston Sports Club","750 Union St","02038",42.06523642142247,-71.3959880156114
"02038","Franklin","MA","St. Cyr Sports Performance Academy","Grove St.","02038",42.07046696047878,-71.42567783120614
"02038","Franklin","MA","RWL Weightlifting","72 Grove St","02038",42.08110427856445,-71.42326354980469
"02038","Franklin","MA","Torture house to look bangin!","Planet Fitness","02038",42.068721771240234,-71.42292022705078
"02038","Franklin","MA","St. Cyr Sports Performance Academy","157 Grove St","02038",42.070896000000005,-71.42553199999999
"02043","Hingham","MA","Black Rock Country Club","25 Clubhouse Dr","02043",42.202667184569954,-70.9105110887856
"02043","Hingham","MA","MyGym","not_available","02061",42.159791260993245,-70.85865780812476
"02043","Hingham","MA","Orangetheory Fitness","15 Shipyard Dr","02043",42.251656,-70.922605
"02043","Hingham","MA","Empower Gym NFP Thorbahn","141 Longwater Dr","02061",42.15793991088867,-70.87821960449219
"02043","Hingham","MA","Fitness Together","454 Washington St","02061",42.15932879,-70.85475356
"02043","Hingham","MA","Fitness Together - Hingham","84 North St","02043",42.24280626555698,-70.88757732944775
"02043","Hingham","MA","DD's Locker Room","not_available","02043",42.234265,-70.918231
"02043","Hingham","MA","Work Gym","1 Technology Pl Ste 15","02370",42.1659049987793,-70.90190124511719
"02043","Hingham","MA","Get In Shape For Women","400 Lincoln St","02043",42.24779617,-70.92360408
"02043","Hingham","MA","Hingham Recreation Center/Fitness Room","210 Central St","02043",42.23147446177384,-70.88603075564147
"02043","Hingham","MA","Fitness Together - Norwell","15 Farrar Farm Rd","02061",42.16547639206018,-70.86715974660969
"02043","Hingham","MA","Webbs Pro Fitness","130 Washington St","02061",42.169839,-70.87685400000001
"02043","Hingham","MA","Crossfit Hingham","55 Sharp St","02043",42.16102114887872,-70.91816467079607
"02045","Hull","MA","Ocean Fitness Health Club","not_available","02045",42.274745,-70.861674
"02048","Mansfield","MA","Hockomock Area YMCA","40 Balcom St","02048",41.99810028076172,-71.24713897705078
"02048","Mansfield","MA","Hub Parkour Training Center","253 Mansfield Ave","02766",41.991703716734,-71.20938241481781
"02050","Marshfield","MA","Get IN-SHAPE For Women","99 Front St","02066",42.194864,-70.72539599999999
"02050","Marshfield","MA","Koko FitClub","not_available","02050",42.091702000000005,-70.70540799999999
"02050","Marshfield","MA","Get In Shape For Women","Ocean St.","02050",42.096762,-70.691648
"02050","Marshfield","MA","EMPOWER Marshfield Gym","25 Rockwood Rd","02050",42.1030158996582,-70.74668884277344
"02050","Marshfield","MA","Heart To Soul","33 Riverside Dr","02359",42.108544,-70.773513
"02050","Marshfield","MA","Usa health & fitness","not_available","02359",42.100580217239376,-70.77086178068406
"02050","Marshfield","MA","curves marshfield ma","696 Plain St","02050",42.106578000000006,-70.745104
"02050","Marshfield","MA","Fit Worx","125 Church St","02359",42.105,-70.771631
"02050","Marshfield","MA","Rob Belley Fitness","1775 Ocean St","02050",42.092887,-70.69960400000001
"02050","Marshfield","MA","The gym @ the village","Plain Street","02050",42.1049525,-70.73721979999999
"02050","Marshfield","MA","Get In Shape For Women","1899 Ocean St","02050",42.091702000000005,-70.70540799999999
"02050","Marshfield","MA","Anytime Fitness","166 Church St","02359",42.1084,-70.76854200000001
"02052","Medfield","MA","Get In Shape For Women","258 Main St","02052",42.1937193,-71.29025
"02052","Medfield","MA","My Gym Children's Fitness Center - Boston","67 West St","02052",42.19279,-71.32391
"02052","Medfield","MA","Curves","67 West St #10","02052",42.192806243896484,-71.32388305664062
"02052","Medfield","MA","Reebok Crossfit Medfield","not_available","02052",42.197011151345315,-71.32420613822016
"02052","Medfield","MA","Medfield High School Gym","88R Pound St","02052",42.1859016418457,-71.29440307617188
"02052","Medfield","MA","Kingsbury Club","2 Icehouse Rd","02052",42.200462606081835,-71.3282650419681
"02052","Medfield","MA","Fitness Together - Medfield","238 Main St","02052",42.1939576,-71.2884609
"02052","Medfield","MA","FA Boxing | Fitness Advantage","99 West St","02052",42.190306,-71.331781
"02052","Medfield","MA","St Edward's Church Gym","Saint Edward Church","not_available",42.17676793103278,-71.3017671478755
"02053","Medway","MA","Anytime Fitness","106 Main St","02053",42.1511,-71.41528
"02053","Medway","MA","The Little Gym of Westboro","122 Turnpike Road #4","01581",42.151713949984206,-71.4128616148778
"02053","Medway","MA","Orangetheory Fitness","67 Main St","02053",42.1527099609375,-71.40459442138672
"02053","Medway","MA","Cybex Showroom","10 Trotter Dr","02053",42.14323043823242,-71.4732894897461
"02054","Millis","MA","Gold's Gym","27 Milliston Rd","02054",42.16782290041256,-71.35207486236668
"02054","Millis","MA","Clyde brown Elementary","Park Rd.","02054",42.16483064108983,-71.36053250906414
"02056","Norfolk","MA","Staff Fitness Center","not_available","02056",42.11553715694847,-71.3011001632488
"02061","Norwell","MA","Planet Fitness","357 Columbia Rd","02339",42.10945480892655,-70.81355425816068
"02061","Norwell","MA","Bikram Yoga South Shore","222 Webster Street, Route 123","02025",42.15421676635742,-70.8561019897461
"02061","Norwell","MA","iLoveKickboxing - Hanover, MA","228 Columbia Rd Ste 7","02339",42.11345672607422,-70.8170394897461
"02061","Norwell","MA","Norwell Athletic Center","412 Washington St","02061",42.14977317188591,-70.80747980558425
"02061","Norwell","MA","South Shore YMCA","75 Mill St","02339",42.13954461259114,-70.8386365723218
"02061","Norwell","MA","CrossFit South Shore","145 Webster St","02339",42.156361,-70.852437
"02062","Norwood","MA","Work Out World","911 Providence Highway","02062",42.18117661192888,-71.19112768343349
"02062","Norwood","MA","TITLE Boxing Club Norwood","1206 Boston-Providence Turnpike","02062",42.17171633,-71.19469784
"02062","Norwood","MA","Windsor Garden Clubhouse","624 Walpole St","02062",42.172698974609375,-71.2242660522461
"02062","Norwood","MA","Fit Asylum","Crescent Ave","02062",42.18973922729492,-71.21086120605469
"02062","Norwood","MA","Darren's Workout Center","not_available","02062",42.18310619689019,-71.1796503617336
"02062","Norwood","MA","Workout World","Rt. 1Providence Highway","02062",42.17975997924805,-71.18914794921875
"02062","Norwood","MA","APT Fitness Training","1020 Washington St","02062",42.180641174316406,-71.2042007446289
"02062","Norwood","MA","Crossfit Florian","50 Central St","02062",42.192810471472974,-71.20012441285536
"02062","Norwood","MA","Mind Body Barre","650 Washington St","02062",42.193328857421875,-71.20094299316406
"02062","Norwood","MA","Anytime Fitness","111 Lenox St","02062",42.19289,-71.19771
"02062","Norwood","MA","Burn Boot Camp","675 Washington St","02062",42.192906,-71.201165
"02062","Norwood","MA","CrossFit Automile","661 Pleasant St","02062",42.17420959472656,-71.20205688476562
"02066","Scituate","MA","Bay State Athletic Club","not_available","02066",42.214383290205,-70.74059101023764
"02067","Sharon","MA","Orangetheory Fitness","985 Old Post Rd","02081",42.12394501447894,-71.23166135721752
"02067","Sharon","MA","Royal Crest Fitness Room","9 Rainbow Pond Dr","02081",42.144109,-71.236496
"02072","Stoughton","MA","Old Colony YMCA - Stoughton Branch","445 Central St","02072",42.13040770419064,-71.08242944391833
"02072","Stoughton","MA","Terban Fitness","not_available","02072",42.129967,-71.101981
"02072","Stoughton","MA","Body Works Fitness Center","22 Mazzeo Dr","02368",42.164005279541016,-71.0582275390625
"02072","Stoughton","MA","iLoveKickboxing.com Randolph","47 Mazzeo Drive","02368",42.1633817,-71.0600506
"02072","Stoughton","MA","Jazz","not_available","02301",42.08582174765779,-71.06475845911075
"02072","Stoughton","MA","Elite Boot Camp","Stoughton, MA","02072",42.12841104710606,-71.11185010990643
"02072","Stoughton","MA","fitworx easton","25 washington st","02356",42.08803176879883,-71.09296417236328
"02072","Stoughton","MA","Elite Physical Therapy in Stoughton","1519 Central St","02072",42.13277031430424,-71.12156097611322
"02072","Stoughton","MA","Why Weight Fitness","163 Washington Street Suite 3","02356",42.07757568359375,-71.0889892578125
"02072","Stoughton","MA","Terban's gym","Central St, Stoughton, MA 02072","02072",42.13386917114258,-71.1102523803711
"02072","Stoughton","MA","Wu Li Academy","2 Canton St","02072",42.124249,-71.104696
"02081","Walpole","MA","Get IN-SHAPE For Women","953 Main St","02081",42.14653741,-71.25287697
"02081","Walpole","MA","National Sports & Fitness","2140 Providence Hwy","02081",42.11241912841797,-71.24236297607422
"02081","Walpole","MA","Walpole Rec Basic Training","Stone St","02081",42.145514960468326,-71.25121183869543
"02081","Walpole","MA","Planet Fitness","Washington St","02072",42.145478017898206,-71.24262713638416
"02081","Walpole","MA","Koko FitClub of Walpole","907 Main St","02081",42.14779643281567,-71.25186244382674
"02108","Boston","MA","Boston Sports Clubs","10 Franklin St Fl 3","02110",42.35599350697061,-71.0589245744859
"02108","Boston","MA","Boston Sports Club","1 Bulfinch Pl","02114",42.3615804,-71.0609101
"02108","Boston","MA","Joint Ventures PT","1 Beacon St","02108",42.35827142614073,-71.06073089791325
"02108","Boston","MA","Rock'N Fitness - Boston","1 Washington Mall","02108",42.35941586927856,-71.05777699134259
"02108","Boston","MA","Exhale","45 Province St","02108",42.35712726,-71.0601444
"02108","Boston","MA","Katie's Dance Studio","not_available","02114",42.359249,-71.065689
"02108","Boston","MA","ZONE5","3 Hancock St","02114",42.36104390683939,-71.06475416146606
"02108","Boston","MA","Barre Groove","52 Province St","02108",42.356895,-71.059955
"02108","Boston","MA","50 Milk Street Fitness Center","50 Milk St","02109",42.357012,-71.05764
"02108","Boston","MA","Motion Fitness and Wellness Center","1 Federal St","02110",42.3564227268075,-71.05756801589649
"02108","Boston","MA","Sky Club","1 Devonshire Pl","02109",42.35829544067383,-71.05757904052734
"02108","Boston","MA","Nine Zero Fitness Center","not_available","02108",42.35736440038207,-71.06055099151752
"02108","Boston","MA","Union Boat Club","Storrow Drive (Charles River Esplanade)","not_available",42.356233,-71.07274699999999
"02108","Boston","MA","Boston Sports Clubs","1 Beacon Street","02108",42.35849,-71.06076
"02108","Boston","MA","AMP Fitness","30 Court Sq","02108",42.35857623147109,-71.05908852369211
"02108","Boston","MA","Womens' Fitness of Boston","27 School St","02108",42.35770415838123,-71.05935666041657
"02108","Boston","MA","Fitcorp","60 State St","02109",42.35887071719316,-71.05690641914126
"02109","Boston","MA","Marriott Fitness Center - Long Wharf","not_available","02110",42.36009282516437,-71.05075371167587
"02109","Boston","MA","Beacon Hill Athletic Club (North End)","85 Atlantic Ave","02110",42.3624036774381,-71.05121426481897
"02109","Boston","MA","MYSTRYDE","456 Hanover St","02113",42.3670156787151,-71.05256141706991
"02109","Boston","MA","Boston Sports Club","89 State St","02109",42.359047,-71.05529
"02109","Boston","MA","2nd Floor Gym","148 State St","02109",42.359493,-71.05399799999999
"02109","Boston","MA","Crossfit The Taj North End","133 Salem St","02113",42.364776611328125,-71.05533599853516
"02109","Boston","MA","USCG Gym","427 Commercial St","02109",42.367592,-71.052887
"02109","Boston","MA","TITLE Boxing Club North Station","226 Causeway Street","02114",42.3666884,-71.059341
"02109","Boston","MA","Fitness Center at 53 State","53 State St","02109",42.358687846555725,-71.05594729587393
"02109","Boston","MA","Gym @ Marriott's Custom House","25th Floor","not_available",42.35931515201799,-71.05353458051123
"02109","Boston","MA","Lincoln Wharf Gym","357 Commerical","02109",42.36637448929174,-71.05062119678783
"02109","Boston","MA","75 State St Fitness Center","not_available","02109",42.35856899720857,-71.05481880462011
"02109","Boston","MA","PUMA Gym","1 Congress St","02114",42.362308997580534,-71.05872290592032
"02109","Boston","MA","Fisique","50 Congress St","02109",42.358058905035065,-71.05538550845645
"02109","Boston","MA","OLS GYM","One Liberty Square Gym","02109",42.357704162597656,-71.05500030517578
"02109","Boston","MA","Redemption Strength & Conditioning","107 Atlantic Ave","02110",42.362266540527344,-71.05157470703125
"02110","Boston","MA","Equinox Seaport","27 Northern Avenue,","02210",42.35350837012874,-71.04720595938028
"02110","Boston","MA","Equinox Franklin Street","225 Franklin Street","02110",42.356074,-71.054484
"02110","Boston","MA","Boston Sports Clubs","100 Summer St","02110",42.35378337742102,-71.0573100379878
"02110","Boston","MA","CorePower Yoga","20 Bond Drive","02210",42.3540497,-71.0460092
"02110","Boston","MA","Stay Fit at Hyatt","1 Avenue de Lafayette","02111",42.353963047621086,-71.06068760744353
"02110","Boston","MA","Republic Fitness","1 International Pl","02110",42.35631077615299,-71.05251980688075
"02110","Boston","MA","Gym @ Intercontinental","not_available","02210",42.353976,-71.052417
"02110","Boston","MA","Barry's Bootcamp","30 Chauncy St","02111",42.3540102743177,-71.0597764787762
"02110","Boston","MA","Federal street health and fitness","133 Federal St","02110",42.354225158691406,-71.05648803710938
"02110","Boston","MA","Life Start","125 High St","02110",42.35558507553406,-71.05353458051123
"02110","Boston","MA","Elite home fitness","1 Lincoln St","02111",42.35284423828125,-71.05873107910156
"02110","Boston","MA","The Bar Method","75 Federal Street, 1st Floor","02110",42.355306,-71.05667
"02110","Boston","MA","The 101 Gym","101 Summer St","02110",42.35346603393555,-71.05809783935547
"02111","Boston","MA","Equinox Sports Club Boston","4 Avery St.","02111",42.353189,-71.063053
"02111","Boston","MA","Boston Sports Clubs","695 Atlantic Ave","02111",42.3516874,-71.0561048
"02111","Boston","MA","TOC Fitness Center","151 Tremont St","02111",42.35444259643555,-71.06336975097656
"02111","Boston","MA","Tauber Fitness Center, Tufts University School of Medicine","145 Harrison Ave","02111",42.34985289608458,-71.06220525929446
"02111","Boston","MA","BSAC","48 Boylston St","02116",42.351924896240234,-71.06381225585938
"02111","Boston","MA","Plus One","100 Federal St","02110",42.355064392089844,-71.05594635009766
"02111","Boston","MA","CorePower Yoga","18 Kingston Street, Suite L100","02110",42.353499,-71.0586299
"02111","Boston","MA","Caliber Sports Club - Archstone Boston Common","660 Washington St","02111",42.3519287109375,-71.0621566772461
"02111","Boston","MA","Boylston Athletic Club","not_available","02111",42.351394,-71.06042
"02111","Boston","MA","Boston Ultimate Fitness","33 Harrison Ave","02111",42.351623367203636,-71.06129478169542
"02111","Boston","MA","Bikram Yoga Financial District","108 Lincoln St","02111",42.35170833659529,-71.05833164972366
"02111","Boston","MA","Federal Reserve Fitness Center","600 Atlantic Ave","02210",42.352768,-71.053525
"02111","Boston","MA","Gym @ Atlantic Wharf","530 Atlantic Ave Fl 2","02210",42.353763580322266,-71.05301666259766
"02114","Boston","MA","The Clubs at Charles River Park","10 Whittier Pl","02114",42.3659854541083,-71.06825720425095
"02114","Boston","MA","Row House","25 Lovejoy Wharf","02114",42.3671646,-71.0598556
"02114","Boston","MA","Liberty Hotel Gym","Charles Street","not_available",42.36240434811465,-71.07052676462216
"02114","Boston","MA","Longfellow Gym","1 Longfellow Pl","02114",42.36362354228651,-71.0649127666248
"02114","Boston","MA","West End GYM","4 Emerson Pl","02114",42.36433792114258,-71.06826782226562
"02114","Boston","MA","The Gym At Thomas Graves Landing","not_available","02141",42.36886408655387,-71.07374996235288
"02114","Boston","MA","Caliber Sports Club","101 Canal St","02114",42.36529714770198,-71.06091548440637
"02114","Boston","MA","Beacon Hill Athletic Club","261 Friend St","02114",42.36516384793409,-71.06162302723581
"02115","Boston","MA","CrossFit Fenway","100 Brookline Ave.","02215",42.3461432,-71.0994951
"02115","Boston","MA","Reggie Lewis Track & Athletic Center","1350 Tremont St","02120",42.33203269342008,-71.093001450369
"02115","Boston","MA","Boston Sports Clubs","201 Brookline Ave","02215",42.3442361,-71.1020382
"02115","Boston","MA","YMCA of Greater Boston","316 Huntington Ave","02115",42.34070205728165,-71.08717630289247
"02115","Boston","MA","Pure Barre Boston","350 Newbury St","02115",42.34813470814128,-71.08711982514859
"02115","Boston","MA","Bodyscapes","77 Avenue Louis Pasteur","02115",42.33896912933653,-71.10386880097936
"02115","Boston","MA","Boston Sports Clubs","361 Newbury St","02115",42.34838531721976,-71.08771019498818
"02115","Boston","MA","Vanderbilt Hall Athletic Facility","107 Avenue Louis Pasteur","02115",42.337717420947406,-71.10377389250911
"02115","Boston","MA","BU Boat House","Memorial Drive","02139",42.35336762310738,-71.10764842879755
"02115","Boston","MA","Gym at 75 St Alphonsus St","75 Saint Alphonsus St","02120",42.334388732910156,-71.10124206542969
"02115","Boston","MA","CorePower Yoga","1282 Boylston Street","02215",42.3446273,-71.0968911
"02115","Boston","MA","Get in Shape for Women","249 Newbury St","02116",42.34976577758789,-71.08280944824219
"02115","Boston","MA","Hilton Boston Back Bay Gym","40 Dalton St","02115",42.346286589134465,-71.08511978816361
"02115","Boston","MA","BURN Fitness Studio","547 Columbus Ave","02118",42.341587636278824,-71.08091700778975
"02115","Boston","MA","The Colonnade Gym","101 Huntington Ave","not_available",42.34687805175781,-71.08089447021484
"02115","Boston","MA","Church Park Gym","199 Massachusetts Ave","02115",42.344452000000004,-71.086736
"02115","Boston","MA","Beatty hall fitness center","600 Huntington Ave","02115",42.336151123046875,-71.09724426269531
"02115","Boston","MA","Fitness Center","500 Commonwealth Ave","02215",42.34847640991211,-71.09564971923828
"02115","Boston","MA","Cama LEGD","Boylston st","not_available",42.34714,-71.095572
"02115","Boston","MA","Dp Gym","650 Columbus Ave","02118",42.33875358629097,-71.08344489469343
"02115","Boston","MA","Stroller Strides","800 Boylston St","02199",42.348474552532686,-71.08257293701172
"02115","Boston","MA","Greenhouse Gym","150 Huntington Ave","02115",42.34477996826172,-71.08203887939453
"02115","Boston","MA","Gym at XII Stoneholm","12 Stoneholm St","02115",42.34583,-71.088625
"02115","Boston","MA","SAC Gym","1 University Rd","02215",42.35137628714617,-71.11016625630627
"02115","Boston","MA","Back Bay Fitness","400 Commonwealth Ave","02215",42.348414,-71.091068
"02115","Boston","MA","12 Stoneholm Fitness Center","12 Stoneholm St Fl 6","02115",42.34586624216944,-71.0888776448293
"02115","Boston","MA","Douglass Park","Columbus Ave.","02118",42.33903957302134,-71.08348300174983
"02115","Boston","MA","trillFit","1484 Tremont St","02120",42.331722259521484,-71.09873962402344
"02115","Boston","MA","Gold's Gym","71 Lansdowne St","02215",42.34730295392073,-71.09804982046644
"02116","Boston","MA","Equinox Dartmouth","131 Dartmouth St","02116",42.3470414,-71.0753582
"02116","Boston","MA","CorePower Yoga","36 Traveler Street, Unit 1","02118",42.34447609149565,-71.06317520141602
"02116","Boston","MA","Btone Fitness","30 Newbury St","02116",42.352071238164804,-71.07275418035292
"02116","Boston","MA","Courtyard Marriott Fitness Center - 6th Floor","not_available","02116",42.349904686542544,-71.06564029921161
"02116","Boston","MA","Healthworks Fitness Center","441 Stuart St","02116",42.3485565942423,-71.07577496822658
"02116","Boston","MA","Barry's Bootcamp","455 Stuart St","02116",42.348294,-71.076986
"02116","Boston","MA","Westin Workout","The Westin Copley Place","02116",42.34836391058259,-71.07807396697453
"02116","Boston","MA","Wang YMCA of Chinatown","8 Oak Street","02111",42.34852341692006,-71.06481258443651
"02116","Boston","MA","Public Body","650 Tremont St","02118",42.343456716076176,-71.07255231571781
"02116","Boston","MA","Rooftop Health Club at The Fairmont Copley Plaza","138 Saint James Ave","02116",42.34944191590328,-71.07643604278564
"02116","Boston","MA","40th Floor Gym","200 Clarendon St","02116",42.34886932373047,-71.07537841796875
"02116","Boston","MA","Reebok CrossFit Back Bay","31 Saint James Avenue","02116",42.351134071223605,-71.07109147354129
"02116","Boston","MA","Copley Square Hotel Workout Center","not_available","02199",42.3481223879475,-71.0784425850897
"02116","Boston","MA","Sweat @ W Hotel","100 Stuart St","02116",42.35130531997124,-71.06713597005033
"02116","Boston","MA","CorePower Yoga","399 Boylston St","02116",42.3517658,-71.0720139
"02116","Boston","MA","Form","20 Piedmont St","02116",42.349871,-71.067945
"02116","Boston","MA","Gym / Fitness Center","197 Clarendon St","02116",42.349578857421875,-71.0739517211914
"02116","Boston","MA","Invictus Boston","31 St James Ave.","02116",42.3509312,-71.07159039999999
"02118","Boston","MA","Troy Gym","not_available","02118",42.343941,-71.062473
"02118","Boston","MA","Holiday Inn Express Fitness Center","not_available","02125",42.327020920918706,-71.05915816513547
"02118","Boston","MA","Ethos Fitness + Performance","477 Harrison Ave Ste 1A","02118",42.341968,-71.066459
"02118","Boston","MA","Crack House Gym","not_available","02115",42.33920720773573,-71.08654374236633
"02118","Boston","MA","South End Fitness Center","35 Northampton St","02118",42.33364429042324,-71.07512895634592
"02118","Boston","MA","Fitness Center","110 Huntington Ave","02116",42.346744537353516,-71.07804870605469
"02118","Boston","MA","The Z Spot","121 E Berkeley St Fl 2","02118",42.34369914739249,-71.06523038930389
"02118","Boston","MA","Le gymnase du nadpad","St. Stephen St.","not_available",42.342797,-71.086663
"02118","Boston","MA","Gym @ Atelier","505 Tremont St","02116",42.34492874145508,-71.07086181640625
"02118","Boston","MA","Courtyard Fitness Center","63 Boston St","02125",42.326496999999996,-71.06036800000001
"02118","Boston","MA","Fitness Together - Southend Boston","633 Tremont St","02118",42.34246063232422,-71.07501220703125
"02118","Boston","MA","Suffolk County House of Correction Gym","21 Bradston Street","02118",42.334336,-71.069331
"02119","Roxbury","MA","Fitness Center. Four Seasons Hotel","200 Boylston St","02116",42.314263000000004,-71.101184
"02119","Roxbury","MA","Roxbury YMCA","285 Martin Luther King Blvd","02119",42.317790547093686,-71.0827891429966
"02119","Roxbury","MA","Melnea Cass Arena Complex","120 Martin Luther King Blvd","02119",42.32137680053711,-71.090576171875
"02119","Roxbury","MA","Crossfit Boston","123 Terrace St","02120",42.32790220993883,-71.09830251243832
"02119","Roxbury","MA","Ray & Joan KROC Community Center- Fitness Center","650 Dudley St","02125",42.31939087802958,-71.07000247833702
"02121","Dorchester","MA","Healthworks at Codman","450 Washington St","02124",42.296105615901034,-71.0719441816504
"02122","Dorchester","MA","QC gym","47 Marshall St","02171",42.277766,-71.019906
"02122","Dorchester","MA","34 Coffey Street Gym","not_available","02122",42.28897821583002,-71.04924460619682
"02122","Dorchester","MA","The Gym at 150 Newport Ave.","150 Newport Avenue Ext","02171",42.277122497558594,-71.03240203857422
"02122","Dorchester","MA","Massachusetts National Guard Armory Gym","70 Victory Rd","02122",42.29706573486328,-71.05315399169922
"02122","Dorchester","MA","Lamberts Fitness Center","735 William T Morrissey Blvd","02122",42.29600556208215,-71.05531996553509
"02122","Dorchester","MA","Healthworks at St. Mary's","90 Cushing Ave Fl 4","02125",42.31416702270508,-71.06354522705078
"02122","Dorchester","MA","Body+Fuel","1115 Dorchester Ave","02125",42.312538146972656,-71.05754852294922
"02122","Dorchester","MA","Stroller Strides","Pope John Paul II Park","02124",42.28043636309356,-71.04472160339355
"02122","Dorchester","MA","BT's Gym","not_available","02171",42.27744557749166,-71.0329837586115
"02122","Dorchester","MA","The Gym at 225","225 Centre St.","02119",42.292999267578125,-71.06369018554688
"02122","Dorchester","MA","SJA Treadmill","not_available","02124",42.28308787370648,-71.0648106894711
"02122","Dorchester","MA","The Gym at Granite","100 Newport Avenue Ext","02171",42.27831905442056,-71.03461494590921
"02122","Dorchester","MA","TR Gym","450 Victory Rd","02171",42.29831278324127,-71.03044152259827
"02122","Dorchester","MA","Modern Taekwondo Center","618 Gallivan Blvd","02124",42.283518,-71.0505549
"02122","Dorchester","MA","Carson Muscle Factory","1410 Columbia Rd","02127",42.330955505371094,-71.04356384277344
"02124","Dorchester Center","MA","One Life Physique","33 Hannon St","02124",42.28233,-71.08501
"02124","Dorchester Center","MA","Milton Hill Sport and Spa","1 Eliot St","02186",42.27039414869166,-71.06819772618596
"02127","South Boston","MA","Lifted Fitness","803 Summer St","02127",42.33989350070609,-71.03588143365333
"02127","South Boston","MA","The Club by George Foreman III","15 Channel Ctr St","02210",42.34553673503063,-71.05142103881444
"02127","South Boston","MA","Boston Athletic Club","653 Summer St","02210",42.34004032505593,-71.04368252056936
"02127","South Boston","MA","Gillette Gym","1 Gillette Park","02127",42.34409898807968,-71.05662705829563
"02127","South Boston","MA","Tower Point Workout Room","27-43 Wormwood St","02210",42.346702575683594,-71.049560546875
"02127","South Boston","MA","9 West Broadway Gym","9 W Broadway","02127",42.342529,-71.056923
"02127","South Boston","MA","C's Gym","not_available","02127",42.33499,-71.029141
"02127","South Boston","MA","Smith Gym","65 I St","02127",42.336005,-71.04008499999999
"02127","South Boston","MA","Peter Welch's Gym","371 Dorchester Ave","02127",42.3351742213561,-71.05795172785595
"02127","South Boston","MA","State Street Fitness Center","1 Iron St","02210",42.34455871582031,-71.05242919921875
"02127","South Boston","MA","Stacey Schaedler Strength","36 W Broadway","02127",42.3427,-71.05628
"02127","South Boston","MA","WestinWORKOUT","425 Summer St","02210",42.34599989127958,-71.04368199853236
"02127","South Boston","MA","Regan's Motivated Fitness","315 W Broadway","02127",42.3385266733907,-71.05049131575367
"02128","East Boston","MA","Park Lane Gym","1 Park Ln","02210",42.34808308839569,-71.03869145562464
"02128","East Boston","MA","East Boston YMCA","215 Bremen St","02128",42.37363202393959,-71.0330694834079
"02128","East Boston","MA","Wave Health Club","1 Seaport Ln","02210",42.34918726213251,-71.04173002571271
"02128","East Boston","MA","Hilton Boston Logan Fitness Center","Hilton Boston Logan","02128",42.36734299657496,-71.02330147768228
"02128","East Boston","MA","Gym @ Hyatt Harborside","101 Harborside Dr","02128",42.35842409610512,-71.02670372874562
"02128","East Boston","MA","Marriott Courtyard Fitness Center","225 William F McClellan Hwy","02128",42.38722,-71.016581
"02128","East Boston","MA","Mill creek gym","not_available","02150",42.389008533171925,-71.02532264289194
"02128","East Boston","MA","Bullhorn Gym","37-44 Farnsworth Street","not_available",42.35176701503929,-71.04661671137724
"02128","East Boston","MA","The Eddy Gym","10 New Street","not_available",42.371134,-71.043855
"02128","East Boston","MA","Embassy Suites Fitness Center","207 Porter St","02128",42.37033282063123,-71.03177075805858
"02128","East Boston","MA","Crossfit Jeffries Point","1A Everett St","02128",42.36845016479492,-71.0374526977539
"02128","East Boston","MA","Insanity","1 Marina Park Dr","02210",42.353235265978306,-71.04538053627384
"02128","East Boston","MA","Second Wave Health & Fitness","601 Congress St","02210",42.347521496860765,-71.03984666060103
"02129","Charlestown","MA","CorePower Yoga","19 Austin St Ste E101","02129",42.37587569999999,-71.0654236
"02129","Charlestown","MA","Crossfit Lando Charlestown","545 Medford St","02129",42.383905,-71.07061999999999
"02129","Charlestown","MA","CYCLEBAR","387 Revolution Dr","02145",42.3916417,-71.0793367
"02129","Charlestown","MA","Crossfit Charlestown","50 Terminal St","02129",42.382388211911625,-71.06035367473457
"02129","Charlestown","MA","North Point Gym","1 Leighton St","02141",42.370053,-71.073556
"02129","Charlestown","MA","Constitution Inn YMCA","150 3rd Ave","02129",42.37624959544034,-71.0533809547234
"02129","Charlestown","MA","Fitness Together","271 Main Street","02129",42.37725403721894,-71.06645958307158
"02129","Charlestown","MA","Avalon Heath And Fitness","50 Terminal St Ste 301 Bldg 202129","02129",42.382535909277564,-71.06033626442564
"02129","Charlestown","MA","Charlestown Yoga","191 Main St","02129",42.37592192183967,-71.06498305456256
"02129","Charlestown","MA","Admirals Hill Fitness Center","325 Commandants Way","02150",42.39235305786133,-71.0478744506836
"02129","Charlestown","MA","Charlestown Ultimate Bootcamp","Paul Revere Park","not_available",42.377512808417286,-71.0624254962144
"02129","Charlestown","MA","Stroller Strides","90 8th Street","02129",42.37373212698093,-71.05156660079956
"02129","Charlestown","MA","Pure Barre","363 Revolution Dr","02145",42.39169004284052,-71.07915464907379
"02129","Charlestown","MA","The Row Hotel Gym","not_available","02145",42.393176,-71.080157
"02129","Charlestown","MA","Gym @ Parris Landing","42 8th St","02129",42.375,-71.05208587646484
"02129","Charlestown","MA","YogaSix","391 Revolution Dr","02145",42.39189910888672,-71.07868194580078
"02129","Charlestown","MA","Avalon Personal Training","Terminal street","02129",42.3823700125329,-71.05968047558352
"02129","Charlestown","MA","HarborView Gym","250 1st Ave","02129",42.377237,-71.0501
"02129","Charlestown","MA","Orangetheory Fitness","383 Revolution Dr","02145",42.39170301546325,-71.07942912432976
"02129","Charlestown","MA","Suka's Gym","Mystic Place","not_available",42.381559,-71.066223
"02129","Charlestown","MA","Fitcorp","529 Main St","02129",42.38333535449441,-71.07109604581107
"02129","Charlestown","MA","Regatta Riverview Fitness Center","8-10 Museum Way","02141",42.36988730756481,-71.07147317356585
"02129","Charlestown","MA","Crossfit Lando - Canal Park","2 Canal Park","02141",42.370216369628906,-71.07640075683594
"02129","Charlestown","MA","Mezzo Fitness Room","30 Caldwell St","02129",42.38482264872255,-71.07784821363114
"02130","Jamaica Plain","MA","Mike's Fitness","284 Amory St","02130",42.31457417401941,-71.10368881863975
"02130","Jamaica Plain","MA","Brook House Health Club","99 Pond Ave","02445",42.32923243063114,-71.1158706198731
"02130","Jamaica Plain","MA","MetroMark Gym","3611 Washington St","02130",42.302860260009766,-71.11160278320312
"02130","Jamaica Plain","MA","WOR","143 Forest Hills St","02130",42.307415999999996,-71.102858
"02130","Jamaica Plain","MA","Curtis Hall Weight Room","20 South St","02130",42.30884387228489,-71.1155177620136
"02130","Jamaica Plain","MA","WikidFit","2 Porter Street","02130",42.31605927704232,-71.10351026058197
"02130","Jamaica Plain","MA","Fearless F.I.T.T. Personal Training","284 Amory Strret","02130",42.314364044013665,-71.1038016849543
"02130","Jamaica Plain","MA","The Gym","not_available","02130",42.303503998097966,-71.10558284699962
"02130","Jamaica Plain","MA","Tappan Street Gym","66 Tappan St","not_available",42.331863267923346,-71.1276318530074
"02131","Roslindale","MA","Crunch Fitness - Roslindale","950 American Legion Hwy","02131",42.27571713706198,-71.11413985490799
"02132","West Roxbury","MA","YMCA West Roxbury","15 Bellevue St","02132",42.28297351620947,-71.15624665022091
"02132","West Roxbury","MA","Hancock Village Fitness Center","not_available","02467",42.29652338750111,-71.15755330817991
"02132","West Roxbury","MA","Body Mind Systems Martial Arts Center","1739 Centre Street","02132",42.28746032714844,-71.14991760253906
"02132","West Roxbury","MA","Get In Shape For Women","637 Veterans of Foreign Wars Pkwy","02467",42.2961311340332,-71.15743255615234
"02134","Allston","MA","GymIt","920 Commonwealth Ave","02446",42.350867,-71.1170696
"02134","Allston","MA","CorePower Yoga","1119 Commonwealth Ave","02215",42.35168778971637,-71.12597856536922
"02134","Allston","MA","Wellbridge Athletic Club - Cambridge - CLOSED","5 Bennett Street","02138",42.3719484,-71.1229377
"02134","Allston","MA","My Gym Boston","1065 Commonwealth Ave","02215",42.35279365611504,-71.1232736534968
"02134","Allston","MA","Crossfit Boston","114 Western Ave","02134",42.36308342165659,-71.12445724396947
"02134","Allston","MA","Gym Bowie","not_available","02134",42.3482349709371,-71.13980073877606
"02134","Allston","MA","PT Gym","not_available","02138",42.37085,-71.120561
"02134","Allston","MA","Rock City Gym","39 Allston St","02134",42.352084000000005,-71.135592
"02134","Allston","MA","The Gym at Karma Yoga","1120 Massachusetts Ave","02138",42.37076789810491,-71.11377842892895
"02134","Allston","MA","CorePower Yoga","57 JFK St","02138",42.3720936,-71.1207503
"02134","Allston","MA","Wai Kru Mixed Martial Arts","236 Brighton Ave","02134",42.353402846836005,-71.13600759774076
"02134","Allston","MA","15 North Beacon Fitness Center","15 North Beacon St","02134",42.35382080078125,-71.1380615234375
"02134","Allston","MA","Boston Boxing","8 Rugg Rd","02134",42.35477828979492,-71.13567352294922
"02134","Allston","MA","Charles River Gyrotonic","300 Western Ave","02134",42.363229,-71.135018
"02134","Allston","MA","P90X Gym Commonwealth Ave","1455 Commonwealth Ave","02135",42.348717,-71.14125200000001
"02134","Allston","MA","The Ring Boxing Club","971 Commonwealth Ave","02215",42.35174774345127,-71.11981390517
"02134","Allston","MA","Cambridge Boat Club","2 Gerrys Landing Rd","02138",42.372304260762924,-71.1340312718197
"02134","Allston","MA","Shelby Leonard","51 Linden St","02134",42.353819,-71.130485
"02134","Allston","MA","Camelot Court Gym","10 Camelot Ct","02135",42.35006303968573,-71.1411062527799
"02135","Brighton","MA","NB Fitness Club","25 Guest St","02135",42.35712093983235,-71.14616078065163
"02135","Brighton","MA","YMCA - Oak Square","615 Washington St","02135",42.35085178167349,-71.16727331350194
"02135","Brighton","MA","Gym It","Arlington st","not_available",42.36332643840577,-71.1552438449535
"02135","Brighton","MA","Community Rowing","20 Nonantum Rd","02135",42.3584775721062,-71.16554847269788
"02135","Brighton","MA","Lovell's Gym","127 Washington St","02135",42.345149993896484,-71.14492797851562
"02135","Brighton","MA","Beacon Hill Athletic Club (Cleveland Circle)","1686 Commonwealth Ave","02135",42.341278152788526,-71.1459907834373
"02135","Brighton","MA","FRUGAL FITNESS","500 Washington Street","02135",42.351299696120215,-71.16981486887059
"02135","Brighton","MA","The sweat factory","43 Willoughby St","02135",42.34606170654297,-71.16132354736328
"02135","Brighton","MA","Healthworks Fitness Center","325 Harvard St","02446",42.34366645650461,-71.1235994637317
"02135","Brighton","MA","Indoor IronMan","not_available","02135",42.35034373333333,-71.16541676666667
"02135","Brighton","MA","Train With Boh","222 Arsenal St Fl 2","02472",42.36956325039784,-71.1554673058615
"02135","Brighton","MA","University Road Gym","University Rd","not_available",42.338598,-71.134898
"02135","Brighton","MA","The Lievenweber Gym","71 Brooks St #1","02135",42.35516357421875,-71.16293334960938
"02135","Brighton","MA","O'Brien's Gym","169 Winchester St","02446",42.344969,-71.13088499999999
"02135","Brighton","MA","Mount Auburn Club","57 Coolidge Ave","02472",42.36439514256736,-71.1497947184388
"02136","Hyde Park","MA","Personalized Fitness","1587 Hyde Park Ave","02136",42.24517058158972,-71.12982589298878
"02136","Hyde Park","MA","Hyde Park YMCA","1137 River St","02136",42.257152064462666,-71.12029218274711
"02138","Cambridge","MA","Commonwealth Crossfit","630 Somerville Ave","02143",42.38430790256518,-71.11117404690727
"02138","Cambridge","MA","Brooklyn Boulders Somerville","12A Tyler St","02143",42.3816884068849,-71.10612796257173
"02138","Cambridge","MA","Planet Fitness - Temporarily Closed","1815 Massachusetts Ave","02140",42.38762595091082,-71.11901870107536
"02138","Cambridge","MA","Cambridge War Memorial Recreation Center","1640 Cambridge St","02138",42.37474098216426,-71.10938406763745
"02138","Cambridge","MA","Healthworks Fitness Center","36 White St","02140",42.38896008209378,-71.11910704929575
"02138","Cambridge","MA","CorePower Yoga","200 Alewife Brook Pkwy","02138",42.3909298,-71.1393903
"02138","Cambridge","MA","Cambridge Family YMCA","820 Massachusetts Ave","02139",42.366646089757616,-71.10691860453531
"02138","Cambridge","MA","iLoveKickboxing - Cambridge, MA","42 Concord Ln","02138",42.388441,-71.141412
"02138","Cambridge","MA","Evolve Fitness","52 New St","02138",42.38799279271035,-71.13996013116017
"02138","Cambridge","MA","The Training Room","691A Somerville Ave","02143",42.385581182814825,-71.113248760973
"02138","Cambridge","MA","Get In Shape For Women","1764 Massachusetts Ave","02140",42.385351,-71.119636
"02138","Cambridge","MA","Work Out World","1815 Mass Ave","02140",42.387517923747836,-71.11909081496377
"02138","Cambridge","MA","Commonwealth Crossfit","170 Rindge Ave","02140",42.392845,-71.131305
"02138","Cambridge","MA","Walden Park Gym","not_available","02140",42.38703184471237,-71.12968434009612
"02138","Cambridge","MA","Pure Barre","114 Mount Auburn St","02138",42.3730471,-71.1223957
"02138","Cambridge","MA","Health Forever Fitness","624 Somerville Ave","02143",42.38388442993164,-71.11094665527344
"02138","Cambridge","MA","Rock N' Fitness","1 Porter Sq","02140",42.388469661646795,-71.11864878241359
"02138","Cambridge","MA","Crossfit Medusa","1957 Massachusetts Ave","02140",42.389992,-71.120125
"02138","Cambridge","MA","150 CPD Fitness Center","150 Cambridgepark Dr","02140",42.394405364990234,-71.14653778076172
"02139","Cambridge","MA","Fitness Together - Cambridge","143 Hampshire St","02139",42.371125241266355,-71.09709754049283
"02139","Cambridge","MA","The Gym @ Church Corner","10 Magazine St","02139",42.364596,-71.104582
"02139","Cambridge","MA","Residence Inn Boston Cambridge Gym","not_available","02142",42.36415383586485,-71.08798289952989
"02139","Cambridge","MA","One Kendall Square Fitness Center","not_available","02139",42.36679358515561,-71.09094244054327
"02139","Cambridge","MA","Boston Sports Club","625 Massachusetts Ave","02139",42.3656091,-71.1026813
"02139","Cambridge","MA","Redline Fight Sports","614 Massachusetts Ave","02139",42.36514698946533,-71.10333122139426
"02139","Cambridge","MA","MIT Ashdown House Gym","235 Albany St","02139",42.358760833740234,-71.1011962890625
"02139","Cambridge","MA","MIT Climbing Wall","142 Memorial Dr","02142",42.3593864440918,-71.08824920654297
"02139","Cambridge","MA","Get In Shape For Women","645 Massachusetts Ave","02139",42.365631,-71.103184
"02139","Cambridge","MA","VIM Fitness Spa & Salon (University Park)","350 Massachusetts Ave","02139",42.36261464339078,-71.09918146429625
"02139","Cambridge","MA","11 Cambridge Center Gym","11 Cambridge Ctr","02142",42.36493682861328,-71.08872985839844
"02139","Cambridge","MA","Cambridge Capoeira","50 Vassar St","02139",42.361839294433594,-71.09113311767578
"02139","Cambridge","MA","301 Binney Street Gym","301 Binney St","02142",42.36668395996094,-71.08705139160156
"02139","Cambridge","MA","VIM Fitness II","579 Massachusetts Ave","02139",42.365008345587164,-71.10264956912533
"02139","Cambridge","MA","Cambridge Athletic Club","600 Technology Sq","02139",42.36357293998642,-71.09303541816742
"02139","Cambridge","MA","91 Sidney Fitness Center","91 Sidney St","02139",42.36056164963044,-71.1022088088895
"02140","Cambridge","MA","Boston Sports Clubs","1 Davis Square","02144",42.3964337,-71.1226372
"02140","Cambridge","MA","Somerville Fire Department (Teele Square)","6 Newbury St","02144",42.402671000000005,-71.12719799999999
"02140","Cambridge","MA","Fitness Center at Discovery Park","60 Acorn Park Dr","02140",42.398250579833984,-71.14888000488281
"02140","Cambridge","MA","Arlington Health and Fitness","29 Massachusetts Ave","02474",42.40236582762999,-71.13624400523757
"02140","Cambridge","MA","Homewood Gym","1 Massachusetts Ave","02474",42.401865,-71.136096
"02140","Cambridge","MA","Claremon Oasis fitness center","not_available","02144",42.40103530883789,-71.1270523071289
"02140","Cambridge","MA","Health Forever","32 Cottage Park Ave","02140",42.398476,-71.13298499999999
"02140","Cambridge","MA","Pfizer Pfitness Center","35 Cambridgepark Dr","02140",42.395140000000005,-71.143462
"02140","Cambridge","MA","Blast! Fitness","Mass Ave Music, 1904 Massachusetts Ave, Cambridge, MA 02140","02140",42.38886260986328,-71.12001037597656
"02141","Cambridge","MA","Cambridge Athletic Club","215 1st St","02142",42.36444965870192,-71.0791610976603
"02141","Cambridge","MA","Orangetheory Fitness","270 3rd St","02142",42.3661329380258,-71.08201105070228
"02141","Cambridge","MA","BIIB Fitness Center (Bldg 9)","14 Cambridge Ctr","02142",42.365631103515625,-71.08668518066406
"02141","Cambridge","MA","Equilibrium - Fitness & Spa","350 3rd St","02142",42.36351776123047,-71.08284759521484
"02141","Cambridge","MA","Inner City Weightlifting","160 2nd St","02142",42.366363,-71.079075
"02141","Cambridge","MA","BodyScapes Fitness","356 3rd St","02142",42.36356353937811,-71.08338271109254
"02141","Cambridge","MA","Boston Cambridge Marriott Gym","2 Cambridge Ctr","02142",42.363006591796875,-71.08572387695312
"02141","Cambridge","MA","Axiom Apartment Homes","33 Rogers St,","02142",42.366226,-71.078489
"02141","Cambridge","MA","Third Square Gym (South Building)","303 3rd St","02142",42.364398,-71.083873
"02141","Cambridge","MA","Caliber Sports Club Kendall Square","195 Binney St","02142",42.36602020263672,-71.08319854736328
"02142","Cambridge","MA","Fitness Works At Work","1 Main Street Cambridge","MA",42.36225509643555,-71.0802993774414
"02142","Cambridge","MA","CAC Express","101 Main St","02142",42.362403869628906,-71.08157348632812
"02143","Somerville","MA","Crossfit Somerville","35 Prospect St","02143",42.378315928927634,-71.09477700283884
"02143","Somerville","MA","Achieve Fitness","42 Merriam St","02143",42.37792532884302,-71.09214102057551
"02143","Somerville","MA","The Training Room 2","373 Washington St","02143",42.37890909188931,-71.10427952840806
"02143","Somerville","MA","Triumvirate Gym","200 Innerbelt Rd","02143",42.37702560424805,-71.08354187011719
"02143","Somerville","MA","Assembly Sports Club","5 Middlesex Ave #203","02145",42.39057803651946,-71.08232461701017
"02143","Somerville","MA","Durbrow Performance Training","50 Tufts St","02145",42.38251437287231,-71.08911922919475
"02143","Somerville","MA","Fort Hard Knox","430 Somerville Ave.","02143",42.38159942626953,-71.10204315185547
"02143","Somerville","MA","Corpbasics","73 Bow St","02143",42.381568908691406,-71.09983825683594
"02143","Somerville","MA","Durbrow Performance Fitness","10 Garfield Ave","02145",42.389864,-71.086185
"02143","Somerville","MA","Yoga Time","Washington St","02143",42.379318,-71.102322
"02143","Somerville","MA","Mountain Strength CrossFit","14 Tyler St","02143",42.381202697753906,-71.10454559326172
"02144","Somerville","MA","WOW - Work Out World","200 Boston Ave","02155",42.41594058509198,-71.12710900328075
"02144","Somerville","MA","Maximum Fitness","255A Main St","not_available",42.41003231243395,-71.10995262263711
"02144","Somerville","MA","Graviton Crossfit","1 Broadway","02474",42.407655,-71.13419499999999
"02144","Somerville","MA","Fitness Plus","not_available","02474",42.4083291595756,-71.13384754062537
"02144","Somerville","MA","Roshankish Martial Arts Center (Boston)","393 Main St","02155",42.4052879268045,-71.10673586802014
"02144","Somerville","MA","Crossfit H2O","83 Mystic","not_available",42.412489397730916,-71.10772471059548
"02144","Somerville","MA","iLoveKickboxing - Medford, MA","45 Riverside Ave","02155",42.41749954223633,-71.1076889038086
"02144","Somerville","MA","Bristol Training","96 Bristol Rd","02155",42.400678000000006,-71.112921
"02145","Somerville","MA","One Cabot Road","1 Cabot Rd","02155",42.39563181437642,-71.0773283731802
"02145","Somerville","MA","Avalon at Assembly Row Gym","333 Great River Rd","02145",42.395467,-71.080389
"02148","Malden","MA","Blink Fitness","465 Salem St","02155",42.4226334,-71.0893688
"02148","Malden","MA","Total Performance Sports","150 Charles St","02148",42.42337625342721,-71.07265138995308
"02148","Malden","MA","Alpha Krav Maga Boston","141 Pleasant St","02148",42.42717986144058,-71.07079779208239
"02148","Malden","MA","0600 Conditioning","not_available","02176",42.442344665527344,-71.07144927978516
"02148","Malden","MA","Blast! Fitness","285 Middlesex Ave","02155",42.41369491485571,-71.07885724837575
"02148","Malden","MA","Alvim Team","not_available","02148",42.428513,-71.0557
"02148","Malden","MA","Exercise Room - 160 Pleasant Street","160 Pleasant St","02148",42.426821999999994,-71.07154799999999
"02148","Malden","MA","Crunch - Medford","295 Middlesex Ave","02155",42.413434,-71.0782426
"02148","Malden","MA","Core Cardio Fitness","239 Commercial St, Malden, MA 02148","02148",42.41921110193275,-71.07595881686343
"02148","Malden","MA","Work Out World Medford","Boston Ave","02155",42.426298511410124,-71.06450311058632
"02148","Malden","MA","Windsor at Oak Grove Fitness Center","12 Island Hill Ave","02176",42.44087472832636,-71.06950255280317
"02148","Malden","MA","Gym","Cedar's Height","02148",42.42787561879885,-71.07443256859325
"02148","Malden","MA","Mystic Valley Athletic Complex","Eastern ave","02151",42.42953429022135,-71.05412895853118
"02148","Malden","MA","Studio 239","239 Commercial St","02148",42.419404,-71.07606700000001
"02148","Malden","MA","Custom Conditioning Fitness Studios","182 Highland Ave","02148",42.420159000000005,-71.080078
"02149","Everett","MA","Crossfit RBP","20 Garvey","not_available",42.40190198845047,-71.05549616986528
"02149","Everett","MA","Total Performance Sports","68 Vine St","02149",42.40193349445807,-71.04799216945496
"02149","Everett","MA","Samuel Gentile Memorial Recreation Center (Everett Rec)","47 Elm St","02149",42.41252136230469,-71.04483032226562
"02149","Everett","MA","Everett Weight Room","80","not_available",42.39814602076184,-71.06646464743187
"02149","Everett","MA","Gold Gym","Revere beach pkwy","02149",42.405055397720666,-71.05515956644106
"02149","Everett","MA","The Gym @ Rivers Edge Apartments","100 Rivers Edge Dr","02155",42.40913772583008,-71.07550048828125
"02149","Everett","MA","Citizens Bank Fitness Center","20 Cabot Rd","02155",42.40758691546029,-71.07482718846589
"02149","Everett","MA","Boston Firearms Training Center","151 Bow Street, Unit 2","02149",42.39838409423828,-71.0611572265625
"02149","Everett","MA","Batch Yard Gym","not_available","02149",42.399907,-71.06286
"02150","Chelsea","MA","Parkside Commons Gym","Stockton street","02150",42.40251036432717,-71.02197376227663
"02151","Revere","MA","Millions of Muscles","315 Rice Ave","02151",42.4209870497349,-70.99895727811271
"02151","Revere","MA","The Magic Spot","2 Ocean Ave","02151",42.401457,-70.991078
"02151","Revere","MA","Hampton Gym Boston","Lee Burbank Hwy","02151",42.401340151297475,-71.00620986539971
"02151","Revere","MA","East Shore Athletic Club","321 Charger St","02151",42.427296000000005,-71.007212
"02151","Revere","MA","Jiraiya's Toad Pond (Gym, Meditation and Senjutsu training center)","Revere Street","02151",42.418799500311955,-71.00118398666382
"02151","Revere","MA","Comfort Inn Fitness Center","85 American Legion Hwy","02151",42.411861419677734,-71.00160217285156
"02152","Winthrop","MA","Crossfit Tradewinds","45 Crest Ave","02152",42.385545,-70.974926
"02152","Winthrop","MA","Move Fitness","1 Michaels Mall","02152",42.375506383837056,-70.98593693332897
"02152","Winthrop","MA","RPM Fitness","120 Banks St","02152",42.38485375929893,-70.98391844390845
"02152","Winthrop","MA","Derek's Wrestling Arena","not_available","02152",42.38132078322886,-70.97707179368759
"02155","Medford","MA","Mystic Place","3620 Mystic Valley Pkwy","02155",42.40947250600024,-71.09507277786635
"02155","Medford","MA","Boston Sports Clubs","70 Station Landing","02155",42.4030674,-71.0806824
"02155","Medford","MA","Gold's Gym","4000 Mystic Valley Pkwy","02155",42.404838190275356,-71.08801304703275
"02155","Medford","MA","Gibbs Gymnasium, Gibbs School","41 Foster St","02474",42.410568,-71.1452
"02155","Medford","MA","CorePower Yoga","312 Mystic Ave, Suite 312F","02155",42.4042452,-71.0994902
"02155","Medford","MA","Yorba Linda Personal Trainer and Training","21550 Via Mariano","92887",42.43009296230383,-71.10956668853758
"02169","Quincy","MA","South Shore YMCA","79 Coddington St","02169",42.25405557579265,-70.99792091751718
"02169","Quincy","MA","Quincy Athletic Club","90 Quincy Ave","02169",42.24357261338898,-70.99656280032673
"02169","Quincy","MA","The Highlands At Faxon Woods Gym","2001 Falls Blvd","02169",42.23644,-70.992072
"02169","Quincy","MA","LH Gym","175 Centre St","02169",42.2388916015625,-71.0180435180664
"02169","Quincy","MA","L.I.F.E. Professional Trainers","150 Parkingway","02169",42.245556,-71.00144399999999
"02169","Quincy","MA","Hillside Gym","39 B Hillside Ave","02184",42.23136836789523,-70.976270590518
"02169","Quincy","MA","Secret Physique","67 Federal Ave","02169",42.238347126075695,-71.0054973309442
"02169","Quincy","MA","LIFE Health & Fitness","152 Parkingway","02169",42.2456802,-71.00218819999999
"02169","Quincy","MA","Trifecta MMA","65 School St","02169",42.244663,-71.00308199999999
"02169","Quincy","MA","Fitness Center at Elevation","7 Crown Dr","02169",42.229817838424296,-71.01335445637233
"02169","Quincy","MA","Anytime Fitness","475 Hancock St","02171",42.27094,-71.02377
"02169","Quincy","MA","Super Fitness GYM","not_available","02169",42.24595150019137,-71.00217038013606
"02169","Quincy","MA","Amy's GYM","not_available","02170",42.25908,-71.018709
"02169","Quincy","MA","Cyr-Farrell Boxing","1452 Hancock St","02169",42.249146,-71.001857
"02169","Quincy","MA","Fitness Center at Marriott Boston Quincy","1000 Marriot Dr","02169",42.229561630770526,-71.01825982854699
"02169","Quincy","MA","Rosecliff Gym","816 Willard St","02169",42.22896957397461,-71.02989959716797
"02169","Quincy","MA","Javimente's Gym","85 Sea St","02169",42.25846862792969,-70.99443817138672
"02169","Quincy","MA","Fitness Unlimited for Women","364 Granite Ave","02186",42.258982451513404,-71.041666045997
"02169","Quincy","MA","Avalon Quincy Fitness Center","3 Avalon Dr","02169",42.24760759416643,-71.01606922839507
"02169","Quincy","MA","TMX Boxing Academy","20 Independence Ave","02169",42.2378462967651,-71.00380520889324
"02169","Quincy","MA","NFPA","1 Batterymarch Park","02169",42.230314125885585,-71.0255895276018
"02170","Quincy","MA","Archstone Workout Room","95 W Squantum St","02171",42.27395624909937,-71.03141672373457
"02176","Melrose","MA","Barre & Soul","450 Main St","02176",42.454157007497585,-71.06594865363304
"02176","Melrose","MA","Anytime Fitness","462 Main St.","02176",42.45445127,-71.06584254
"02176","Melrose","MA","Barre & Soul, Franklin Street Studio","466 Franklin Street","02176",42.46859,-71.06826
"02176","Melrose","MA","Melrose Family YMCA","497 Main St","02176",42.455068701679146,-71.06510255655542
"02176","Melrose","MA","Get In Shape For Women","473 Main St","02176",42.45451664,-71.06539547
"02176","Melrose","MA","1-800-PersonalTrainers Melrose location 1","462 Main street, -inside anytime fitness-melrose","02176",42.45450210571289,-71.0660400390625
"02176","Melrose","MA","Fitness Together - Melrose","445 Franklin St","02176",42.46887439364795,-71.06788528644532
"02176","Melrose","MA","LA Fitness","121 Main St","02180",42.4448479,-71.0680891
"02176","Melrose","MA","Personal Trainers Of Melrose","462 Main Street","02176",42.45450210571289,-71.0660400390625
"02180","Stoneham","MA","Studio 38 Fitness","not_available","02180",42.48192211489632,-71.10326202273208
"02180","Stoneham","MA","Kaspersky Gym (500 Unicorn)","500 Unicorn Park Dr","01801",42.487640380859375,-71.1156005859375
"02180","Stoneham","MA","Cliffside Fitness Center","117 Hill St","02180",42.476451000000004,-71.11109300000001
"02180","Stoneham","MA","MK Boxing","116 Cummings Park","01801",42.499592,-71.12160300000001
"02184","Braintree","MA","Crunch Fitness - Braintree","294 Grove Street","02184",42.19171462,-70.98817674
"02184","Braintree","MA","Fit Factory","288 Wood Rd Ste 100","02184",42.2186721,-71.0394403
"02184","Braintree","MA","Bayshore Athletic Club","14 Plain St","02184",42.19735639158559,-71.00283721984141
"02184","Braintree","MA","Crossfit Rigel","907 North St # 107-108","02368",42.19052505493164,-71.02913665771484
"02184","Braintree","MA","Weymouth Club","75 Finnell Dr","02188",42.1900486846979,-70.96712972377068
"02184","Braintree","MA","Blue Hill Fitness","288 Wood Rd","02184",42.21887324274398,-71.0389667302338
"02184","Braintree","MA","GET IN SHAPE FOR WOMEN","920 Washington St","02184",42.202656,-71.00482099999999
"02184","Braintree","MA","Fuzion","Wood Road","not_available",42.21887676615675,-71.0387991472747
"02184","Braintree","MA","the PUMP","not_available","02184",42.20448666737233,-71.02214788151794
"02184","Braintree","MA","Gym","not_available","02368",42.181169,-71.031524
"02184","Braintree","MA","Spartan training center","533 Washington St","02184",42.21501159667969,-71.00464630126953
"02184","Braintree","MA","Atlantis Sports Club","37 Forbes Rd","02184",42.220344522025336,-71.03127743145858
"02184","Braintree","MA","Hidden Gym","536 Granite St","02184",42.213019,-71.02003
"02184","Braintree","MA","Faxon Park Resident Gym","500 Falls Blvd","02169",42.23701858520508,-70.98895263671875
"02184","Braintree","MA","Fit Factory","Wood St.","not_available",42.229123638387335,-71.03037783438147
"02184","Braintree","MA","Fitness Center","1100 Crown Colony Dr","02169",42.23297,-71.017259
"02186","Milton","MA","Copeland Fieldhouse","25 Gile Rd","02186",42.2518064238046,-71.08706814079197
"02186","Milton","MA","SNF Fitness","261 Willard St","02169",42.246773,-71.033252
"02188","Weymouth","MA","Boston Sports Club","551-553 Washington St","02188",42.205296840740694,-70.9549633708747
"02188","Weymouth","MA","Boot Camp @ Weymouth Club","Finnell Dr","02188",42.18962504909635,-70.96684396955304
"02188","Weymouth","MA","CrossFit 781","106 Finnell Dr","02188",42.191221999999996,-70.968906
"02189","East Weymouth","MA","ultimate starz athletics","not_available","02188",42.190363968227054,-70.93381373447185
"02189","East Weymouth","MA","Sullivan Training Systems","65 Mathewson Dr Ste B","02189",42.192115783691406,-70.9342041015625
"02189","East Weymouth","MA","Ultimate starz cheerleading","360 Libbey Industrial Pkwy","02189",42.19059371948242,-70.9342041015625
"02190","South Weymouth","MA","Get In Shape For Women","1025 Main St","02190",42.16944133,-70.95593525
"02190","South Weymouth","MA","Abington Athletic Club","1215 Bedford St","02351",42.13754141716802,-70.95017361423443
"02190","South Weymouth","MA","ZASS Fitness","1255 Main St","02190",42.161269,-70.95530276
"02190","South Weymouth","MA","SouthField","540 Shea Dr","02190",42.15736109927065,-70.94639338836268
"02191","North Weymouth","MA","Treadmill of Doom","not_available","02191",42.240513,-70.95932
"02199","Boston","MA","The Lenox Fitness Center","61 Exeter St","02116",42.349148,-71.079601
"02199","Boston","MA","Life in Synergy","867 Boylston St","02116",42.348454701697,-71.08321789070386
"02210","Boston","MA","Marriott Residence Inn Seaport Gym","370 Congress","not_available",42.35034942626953,-71.04785919189453
"02210","Boston","MA","Grand Circle Gym","347 Congress St","02210",42.35063920568876,-71.0491418838501
"02210","Boston","MA","A Dimly Lit Gym","22 Thomson Pl","02210",42.350990295410156,-71.04798126220703
"02215","Boston","MA","BodyScapes Fitness","1285 Beacon St","02446",42.342593839160806,-71.11963965995628
"02215","Boston","MA","Pure Barre Brookline","1333 Beacon St","02446",42.341730363908624,-71.12150331288012
"02215","Boston","MA","My Gym","not_available","02446",42.343898,-71.118381
"02215","Boston","MA","180 Brookline Gym","180 Brookline Ave","02215",42.344085693359375,-71.10121154785156
"02215","Boston","MA","Harvard Club of Boston Fitness Center","374 Commonwealth Ave","02215",42.348426818847656,-71.08906555175781
"02215","Boston","MA","Tanger Be Well Center","330 Brookline Avenue - Ground Level","02215",42.33860130497952,-71.10629063882128
"02215","Boston","MA","Boston Sports Club","202 Brookline Ave","02215",42.34352303589509,-71.10079054964356
"02215","Boston","MA","Fitness Together - Brookline","1404 Beacon St","02446",42.341464372308785,-71.12519830613422
"02301","Brockton","MA","Planet Fitness","200 Westgate Dr","02301",42.096713,-71.052101
"02301","Brockton","MA","WorkOut World","75 Campanelli Industrial Dr","02301",42.1007305329445,-71.05210099050339
"02301","Brockton","MA","Punch kettlebell gym","609 Belmont St","02301",42.07313574259703,-71.0456676460332
"02301","Brockton","MA","Metro South Athletic Club","Liberty Street","not_available",42.058245236211384,-71.06373767492774
"02301","Brockton","MA","Crossfit Boost","Knapp Cir","02301",42.054356495656,-71.05325435966861
"02301","Brockton","MA","The Giovannello Gym","65 South St","02301",42.063175201416016,-71.01856231689453
"02301","Brockton","MA","Zumba Ty & Dee","not_available","02302",42.098347156077864,-70.99848441012833
"02301","Brockton","MA","Vagabond CrossFit","15 Hampden Drive","02375",42.04742524682557,-71.07227448874453
"02301","Brockton","MA","Crunch Fitness - Brockton","85 Torrey Street","02301",42.07538986206055,-71.0457534790039
"02302","Brockton","MA","planet fitness cresent st. brockton ma","Crescent st","not_available",42.079818,-70.990047
"02302","Brockton","MA","Club eX For Women","840 Crescent St","02302",42.081504821777344,-70.9844970703125
"02324","Bridgewater","MA","Waterford Village Apartments","51 Meadow Ln,","02324",41.994644,-70.961998
"02324","Bridgewater","MA","GET IN SHAPE FOR WOMEN","180 Winter St","02324",41.96789395,-70.97493681
"02324","Bridgewater","MA","Crossfit Bridgewater","not_available","02324",41.97189312615863,-70.97394310411212
"02324","Bridgewater","MA","Baseball Performance Training Center","27 Perkins St","02324",41.994102478027344,-70.97480010986328
"02324","Bridgewater","MA","Fitness Together - Bridgewater","220 Winter St","02324",41.968326568603516,-70.97412109375
"02324","Bridgewater","MA","Xfit Bridgewater","620 Bedford St","02324",41.971622467041016,-70.97340393066406
"02330","Carver","MA","Anytime Fitness","100 N Main St","02330",41.92401,-70.80641
"02330","Carver","MA","Coach John Sports Basketball","not_available","02330",41.9321071138142,-70.8119263495273
"02330","Carver","MA","USA Fitness And Spa","160 N Main St","02330",41.93218781036239,-70.81185282262356
"02332","Duxbury","MA","Kingsbury Club and Spa","186 Summer St","02364",42.01305836279251,-70.73365886383691
"02332","Duxbury","MA","CrossFit Kells","187 Summer St","02364",42.01198196411133,-70.73016357421875
"02332","Duxbury","MA","YogaSix","182 Summer St #105","02364",42.010277482671576,-70.73455778577585
"02332","Duxbury","MA","Orangetheory Fitness","160 Summer St","02364",42.008152,-70.731374
"02332","Duxbury","MA","My Gym","182 Summer St","02364",42.01094005810363,-70.73479617724615
"02332","Duxbury","MA","Gymnastics with flair","14 chestnut street","02332",42.023301000000004,-70.68475
"02333","East Bridgewater","MA","Cynergy CrossFit","23 Commercial Waye","02341",42.052686588807006,-70.90468426396393
"02333","East Bridgewater","MA","Edify Fitness","612 Plymouth St","02333",42.017215728759766,-70.9411392211914
"02333","East Bridgewater","MA","Anytime Fitness","225 Bedford St","02333",42.02675825055693,-70.95970094203948
"02333","East Bridgewater","MA","MightyFit90","3 Noslo Ter","02382",42.070596,-70.943336
"02333","East Bridgewater","MA","Club Ex Fitness & Nutrition","649 Oak St","02333",42.055893782407686,-70.90960737298445
"02333","East Bridgewater","MA","Fuel and Fitness","not_available","02333",42.04353476294677,-70.95556521508388
"02338","Halifax","MA","Class Action Fitness","284 Montponsett Street","02338",41.993646025657654,-70.84383487701416
"02343","Holbrook","MA","So Fly Fitness","782 Plymouth St","02343",42.143991,-70.984261
"02346","Middleboro","MA","Plannet Fitness","not_available","02346",41.8844,-70.914017
"02346","Middleboro","MA","Home Fitness Equipment Superstore","201-337 U.S. 44","02718",41.90287241666667,-70.99378533333334
"02346","Middleboro","MA","Be Fit Performance","290 Bedford St","02347",41.853612240127745,-70.9408669776117
"02346","Middleboro","MA","Planet Fitness","10 Merchants Way","02346",41.883248,-70.914257
"02351","Abington","MA","South Shore Fit Body Boot Camp","329 Centre Ave","02370",42.11416058001246,-70.92638179877662
"02351","Abington","MA","Abington Woods Gym","12 Forsyth Drive","02351",42.11062676095318,-70.95120571945938
"02351","Abington","MA","Advanced Cardio & Fitness Strength Center","191 Brockton Ave","02351",42.10512713993686,-70.95318520300266
"02356","North Easton","MA","Koko Fit Club of Easton","15 Roberts Drive-Highlands Plaza","02375",42.0239975687506,-71.14150832291179
"02356","North Easton","MA","Barrows Street Gym YMCA","15 Barrows St","02356",42.065331,-71.10508399999999
"02356","North Easton","MA","Old Colony YMCA - Easton Branch","25 Elm Street","02356",42.07023750620681,-71.10387851144074
"02356","North Easton","MA","get in shape for women north easton ma","285 Washington St","02356",42.06696701049805,-71.08882141113281
"02356","North Easton","MA","Gym 888","Veni","02375",42.019821,-71.148501
"02356","North Easton","MA","Gymmm","Venis","02375",42.020228,-71.148552
"02360","Plymouth","MA","Planet Fitness","84 Shops at 5 Way","02360",41.927894592285156,-70.65083312988281
"02360","Plymouth","MA","Plymouth Fitness","16 Aldrin Rd","02360",41.96132543264153,-70.69493276208382
"02360","Plymouth","MA","Anytime Fitness","138 Industrial Park Rd","02360",41.950145,-70.711567
"02360","Plymouth","MA","dance it out","not_available","02562",41.782163767560235,-70.53870343721773
"02360","Plymouth","MA","Wow Plymouth","Gemini Cir","02360",41.956400871276855,-70.71583449840546
"02360","Plymouth","MA","Gale Force CrossFit","14 Appollo 11 Rd","02360",41.958858489990234,-70.69125366210938
"02360","Plymouth","MA","USA Fitness For Women","2421 Cranberry Hwy Ste 434","02571",41.772532,-70.743905
"02360","Plymouth","MA","dance it out","not_available","02364",41.984291076660156,-70.7021255493164
"02360","Plymouth","MA","Just Ride!","74-7 Camelot Dr","02360",41.92607247057526,-70.64968152076418
"02360","Plymouth","MA","Baystate Crossfit","160 Camelot Dr","02360",41.929858,-70.647122
"02360","Plymouth","MA","Seaside Crossfit","10 Kendrick Rd","02571",41.780931,-70.740678
"02360","Plymouth","MA","Straight Blast Gym East Coast","14 Kendrick Rd","02571",41.781944,-70.740263
"02360","Plymouth","MA","Fit Factory Kingston","101 Kingston Collection Way","02364",41.9705054,-70.7161642
"02360","Plymouth","MA","Lighthouse Fitness Center","430 Court St","02360",41.98041075265257,-70.6957853043191
"02360","Plymouth","MA","elements diet & fitness","2421 Cranberry Hwy","02571",41.77502438453854,-70.74253939292664
"02360","Plymouth","MA","Power House Gym","7 Herring Pond Rd","02360",41.81744173623737,-70.552955569917
"02360","Plymouth","MA","Stonebridge Club Gym","Stonebridge Road","02360",41.8928841,-70.61006726666666
"02360","Plymouth","MA","Get IN-SHAPE For Women","74 Long Pond Rd","02360",41.92953599,-70.657324
"02368","Randolph","MA","Work Out World","Warren street","not_available",42.16492011673637,-71.04496368275046
"02370","Rockland","MA","Iron Way Fitness","10 Rockview Way","02370",42.14650159820225,-70.91312850029789
"02370","Rockland","MA","Harmon Golf and Fitness","not_available","02370",42.11753685246343,-70.90485753274017
"02370","Rockland","MA","South Shore Gymnastics Academy","22 Reservoir Park Drive South Shore Gymnastics Academy","02370",42.15746655023729,-70.90342819690704
"02375","South Easton","MA","The Xtreme Change Arena","594 Turnpike St","02375",42.00188064575195,-71.06648254394531
"02375","South Easton","MA","Gold's Gym","314 E Main St Unit 4","02766",41.997363565800526,-71.14972233945157
"02382","Whitman","MA","Bostonian Gym","not_available","02382",42.08013403730627,-70.93310101123993
"02420","Lexington","MA","Gold's Gym","30 Park Ave","02476",42.424993372135695,-71.1823418382574
"02420","Lexington","MA","Get In Shape For Women","442 Marrett Rd","02421",42.43415983,-71.24328869
"02420","Lexington","MA","Takeda Gym","not_available","MA",42.42514812063703,-71.24599056558353
"02420","Lexington","MA","Ridge Gym","not_available","02460",42.42557391611418,-71.18215521788092
"02420","Lexington","MA","Shire Gym","500 Shire Way","02421",42.429347625932294,-71.25501070064338
"02420","Lexington","MA","Fitness Together - Lexington","433 Marrett Rd","02421",42.43477493682145,-71.24250099879399
"02420","Lexington","MA","One2one Bodyscapes","1762 Massachusetts Ave","02420",42.447333,-71.22767900000001
"02420","Lexington","MA","Eppinger Fitness","319 Marrett Rd","02421",42.43598835484107,-71.23422503471375
"02421","Lexington","MA","Gym at Avalon @ Lexington Hills","60 Concord Ave.","02421",42.4076679800553,-71.2129550751644
"02421","Lexington","MA","Hobbs Brook Gym","303 Wyman St","02451",42.40706859858308,-71.25499416900726
"02421","Lexington","MA","Boston Sports Club (Reservoir Place)","1601 Trapelo Rd","02451",42.41792846591936,-71.25750118232331
"02421","Lexington","MA","minuteman weight room","not_available","02421",42.44385462486927,-71.26069609463562
"02421","Lexington","MA","Windsor Village","976 Lexington St","02451",42.40909655713647,-71.23723238633673
"02445","Brookline","MA","Healthworks Fitness Center","1300 Boylston St","02467",42.32181322643609,-71.16934484002809
"02445","Brookline","MA","Beacon Hill Athletic Club (Brookline Village)","279 Washington St","02445",42.33330872472061,-71.11900935583162
"02445","Brookline","MA","Koko FitClub Brookline","39 Harvard St","02445",42.33452,-71.11915
"02445","Brookline","MA","Eutopia","300 Washington St","02445",42.333051,-71.11957
"02445","Brookline","MA","Benefitness Health Club for Women","62 Harvard St","02445",42.33504902773156,-71.11998913925683
"02451","Waltham","MA","Waltham Athletic Club","249 Lexington St","02452",42.3846637294967,-71.23685055096263
"02451","Waltham","MA","Orangetheory Fitness","500 Totten Pond Rd","02451",42.3961067199707,-71.25813293457031
"02451","Waltham","MA","crossfit one nation","221 Bear Hill Rd","02451",42.38364,-71.264656
"02451","Waltham","MA","Get In Shape For Women","251 Moody St","02453",42.37190246582031,-71.23696899414062
"02451","Waltham","MA","Prospect Hill Fitness Center","100 5th Ave","02451",42.393592834472656,-71.25582122802734
"02451","Waltham","MA","Fitness Together - Weston Waltham","1347 Main St","02451",42.37768783256415,-71.26774115153788
"02451","Waltham","MA","Gym at Archstone Cronin's Landing","not_available","02453",42.372076,-71.237871
"02451","Waltham","MA","Telerik Gym","201 Jones Rd","02451",42.37447738647461,-71.27346801757812
"02451","Waltham","MA","Zumba With Ed","Stanley Elementary School","02453",42.370708963173556,-71.25035399555333
"02451","Waltham","MA","Cronin's Landing Apartments Gym","25 Crescent St","02453",42.372076,-71.237871
"02451","Waltham","MA","Embassy Suites Fitness Center","550 Winter St","02451",42.39602279663086,-71.26605987548828
"02451","Waltham","MA","National Personal Training Institute","249 Lexington St, Waltham, MA 02451","02451",42.384765625,-71.2358627319336
"02452","Waltham","MA","Waltham YMCA","725 Lexington St","02452",42.40065405881306,-71.23159811703293
"02452","Waltham","MA","Dana Athletic Center","175 Forest St","02452",42.3832789545725,-71.22451405607909
"02452","Waltham","MA","Perry's Martial Arts Academy","87 Beaver St","02453",42.382677011227,-71.20672452286479
"02452","Waltham","MA","MGC","109 Clematis Ave","02453",42.384664333762764,-71.19848236217945
"02452","Waltham","MA","Boston Parkour Academy","108 Clematis Ave Ste A","02453",42.38465881347656,-71.19967651367188
"02452","Waltham","MA","Champion Physical Therapy and Performance","110-1 Clematis Ave","02453",42.3833419,-71.20086866
"02452","Waltham","MA","Crossfit Watch City","411 Waverley Oaks Rd #136","02452",42.386478424072266,-71.20378112792969
"02452","Waltham","MA","Waverly Oaks Athletics Club","411 Waverley Oaks Rd","02452",42.38678200239185,-71.20071560604949
"02452","Waltham","MA","Xformation Fitness - Waltham","335 Bear Hill Road","02451",42.382735,-71.206595
"02453","Waltham","MA","Syn Club","130 High St","02453",42.36686676659961,-71.2316506358607
"02453","Waltham","MA","Change Your Body Boot Camps","675 Watertown St","02460",42.354787,-71.21351800000001
"02453","Waltham","MA","CrossFit City Line","69 Howard St","02472",42.368586452115885,-71.19619373483967
"02453","Waltham","MA","AJ's treadmill & weights","not_available","02472",42.37117383895304,-71.1954988341964
"02453","Waltham","MA","Waltham Watch Factory Fitness Center","Cresant St","02453",42.36574774964553,-71.24499964220863
"02453","Waltham","MA","Work Out World","41 Seyon St","02453",42.37115917510023,-71.21507930476545
"02453","Waltham","MA","Forever Crossfit","191 Watertown St","02472",42.36342866940988,-71.19449403785671
"02453","Waltham","MA","University Office Park Fitness Center","51 Sawyer Rd (in Three University Park)","02453",42.36138019007995,-71.258184670236
"02453","Waltham","MA","Crossfit Newton","166 Riverview Ave","02453",42.35959069668747,-71.24521177989774
"02453","Waltham","MA","Village Gym","415 South St","02453",42.36549494865045,-71.26002903754984
"02453","Waltham","MA","Flight Performance & Fitness","225 Riverview Ave","02466",42.35763931274414,-71.24424743652344
"02453","Waltham","MA","Curves gym","not_available","02465",42.358577728271484,-71.24154663085938
"02458","Newton","MA","YMCA","276 Church St","02458",42.35453222211428,-71.1903977394104
"02458","Newton","MA","Get In Shape For Women","300 Walnut St","02460",42.35062168,-71.20677453
"02458","Newton","MA","Fitness Together - Newtonville","309 Walnut St","02460",42.350146192384656,-71.20718298834322
"02458","Newton","MA","Prana Power Yoga","282 Centre St","02458",42.3584779762992,-71.1849063871118
"02458","Newton","MA","Nonantum Boxing Club","75 Adams St","02458",42.36102326522158,-71.2039665723124
"02458","Newton","MA","Ultimate Bootcamp Watertown","545 Arsenal St.","02472",42.3632685402568,-71.1993335890779
"02458","Newton","MA","CorePower Yoga","305 Centre St","02458",42.3579174,-71.1848393
"02459","Newton Center","MA","Life Time Athletic","300 Boylston St.","02467",42.318789102901185,-71.18011580423149
"02459","Newton Center","MA","Equinox Chestnut Hill","200 Boylston Street","02467",42.318601,-71.175498
"02459","Newton Center","MA","Newton Indoor Sports Center","125 Wells Ave","02459",42.2910903495361,-71.1960973103212
"02459","Newton Center","MA","Boston Sports Club","135 Wells Ave","02459",42.292154,-71.195222
"02459","Newton Center","MA","Barry's Bootcamp","55 Boylston St","02467",42.32260626221995,-71.17071246295055
"02459","Newton Center","MA","Boston Volleyball Association@NSHS","140 Brandeis Rd","02459",42.31292724609375,-71.18582916259766
"02459","Newton Center","MA","Bodyscapes","1197 Walnut St","02461",42.320664,-71.205585
"02459","Newton Center","MA","Gabo's Gym","not_available","02461",42.33393731010939,-71.20762952550174
"02459","Newton Center","MA","Vigor Transformations","872 Walnut St","02459",42.331528000000006,-71.20682
"02459","Newton Center","MA","Pure Barre Newton","1300 Centre St","02459",42.32907823414348,-71.19464786935691
"02459","Newton Center","MA","Workout World","150 A St","02494",42.30209613945666,-71.21650242051514
"02459","Newton Center","MA","Get In Shape For Women","552 Commonwealth Avenue","02459",42.336054,-71.189674
"02459","Newton Center","MA","Shakti Health, Fitness & Wellness - Newton","386 Langley Rd","02459",42.3209105,-71.18358549999999
"02459","Newton Center","MA","Vitality Personal Fitness","118 Needham St","02464",42.313423,-71.211597
"02459","Newton Center","MA","CRS Gym","233 Needham St","02464",42.309993743896484,-71.21521759033203
"02459","Newton Center","MA","Bbq Sports Gym","Kenneth St","02461",42.31210425095796,-71.21100006162006
"02459","Newton Center","MA","Kidsstreet","714th street","02494",42.30472843710719,-71.21789187551569
"02459","Newton Center","MA","Fitness Together - Newtoncentre","796 Beacon St","02459",42.33009862911956,-71.19342785129794
"02459","Newton Center","MA","Waju Fitness","118 Needham St Ste 2","02464",42.3133619,-71.2116047
"02460","Newtonville","MA","Beacon Hill Athletic Clubs (West Newton)","1089 Washington St","02465",42.35007235414087,-71.21790243441
"02460","Newtonville","MA","Fusion Workouts","60 Austin St","02460",42.35009765625,-71.2096176147461
"02461","Newton Highlands","MA","Up The Pole Studio","not_available","02464",42.312285,-71.223011
"02461","Newton Highlands","MA","Pure Performance Training","19 Wexford St","02494",42.305233,-71.221161
"02461","Newton Highlands","MA","Gstar Fit","not_available","02494",42.305486,-71.221646
"02461","Newton Highlands","MA","X-ERT","55 Charles St","02494",42.30554962158203,-71.22190856933594
"02461","Newton Highlands","MA","Sports & Physical Therapy Associates","200 1st Ave","02494",42.300670000000004,-71.221108
"02461","Newton Highlands","MA","My Gym Newton","30 Ossipee Rd","02464",42.310062,-71.22012
"02461","Newton Highlands","MA","CATZ","114 1st Ave","02494",42.301943473682606,-71.22163045912427
"02462","Newton Lower Falls","MA","Shipley Fitness Center @ NWH","2014 Washington St","02462",42.331398010253906,-71.24605560302734
"02462","Newton Lower Falls","MA","Train Boston: Boston Gym and Fitness","34 Washington Street Wellesley","MA",42.32424220886592,-71.25958594341421
"02465","West Newton","MA","Boston Sports Clubs","1359 Washington St","02465",42.3488797,-71.2290076
"02465","West Newton","MA","Fit4 Newton","105 Elm St","02465",42.34860142070815,-71.22964650392532
"02465","West Newton","MA","Gymnasium: Inspired Perspiration","1001 Watertown St","02465",42.349788665771484,-71.22603607177734
"02465","West Newton","MA","All About You","955 Watertown St","02465",42.350225,-71.22460799999999
"02466","Auburndale","MA","Cardio High","271B Auburn St","02466",42.34663290470736,-71.24652790793459
"02466","Auburndale","MA","Marriott Gym","Marriott Hotel","02466",42.34613838488002,-71.25859051046706
"02466","Auburndale","MA","The Gym - Riverside Center","275 Grove Street","not_available",42.338818379378004,-71.25339848723556
"02466","Auburndale","MA","Fitness Together - Auburndale","2088 Commonwealth Ave","02466",42.34770129627397,-71.24731338726833
"02472","Watertown","MA","Get In Shape For Women","428 Common St","02478",42.3815795,-71.17463611
"02472","Watertown","MA","Orangetheory Fitness","280 Trapelo Rd","02478",42.383514404296875,-71.1816177368164
"02472","Watertown","MA","GymIt","36 Arlington St","02472",42.363421,-71.154503
"02472","Watertown","MA","JS US Taekwondo","263 Trapelo Rd","02478",42.383304595947266,-71.18063354492188
"02472","Watertown","MA","whitney tower gym","275 Main St","02472",42.369523,-71.18981
"02474","Arlington","MA","Shakti Health, Fitness & Wellness - Arlington","801 Massachusetts Ave","02476",42.4167626,-71.1588012
"02474","Arlington","MA","Fitness First","471 Massachusetts Ave","02474",42.415101,-71.151668
"02474","Arlington","MA","Fitness Together - Arlington","37 Broadway","02474",42.40812516630415,-71.13548932944775
"02474","Arlington","MA","Back Bay Fitness","180 Massachusetts Ave","02474",42.40509430627149,-71.14165166624969
"02474","Arlington","MA","Get In Shape For Women","801 Massachusetts Avenue","02476",42.41672897338867,-71.15877532958984
"02474","Arlington","MA","FitGeek","not_available","02155",42.41766544873985,-71.13961995942266
"02478","Belmont","MA","Fitness Together - Belmont","30 Church St","02478",42.3870133,-71.190292
"02478","Belmont","MA","Tokyo Joes Studios - Elite Fitness","499 Trapelo Rd","02478",42.3877274,-71.18975809999999
"02478","Belmont","MA","RayFit","4 Church St","02478",42.387436,-71.189778
"02481","Wellesley Hills","MA","Boston Sports Clubs","140 Great Plain Ave","02482",42.2941762,-71.268443
"02481","Wellesley Hills","MA","Fitness Club For Women","200 Linden St","02482",42.301557,-71.291536
"02481","Wellesley Hills","MA","360 Degrees of Fitness & Wellness","140 Gould Street, Located in the rear of the building","02494",42.305313,-71.229096
"02481","Wellesley Hills","MA","Beacon Hill Athletic Club (Wellesley)","161 Linden St","02482",42.29924149101464,-71.29315540182665
"02481","Wellesley Hills","MA","Stretchmed Studios","85 Central St","02482",42.30742600295956,-71.27335980534554
"02481","Wellesley Hills","MA","Get In Shape For Women Wellesley","259 Washington St","02481",42.313487,-71.273842
"02481","Wellesley Hills","MA","Next Level","not_available","02482",42.296612875476114,-71.29487684961578
"02481","Wellesley Hills","MA","Body In Motion","180 Linden St","02482",42.30035390403106,-71.29249691434167
"02481","Wellesley Hills","MA","Koko FitClub","850 Highland Ave","02494",42.29396377205723,-71.23516661446065
"02481","Wellesley Hills","MA","Stroller Strides","184 Linden St","02482",42.299728,-71.293089
"02481","Wellesley Hills","MA","The Bar Method","66 Central Street, Suite 16","02482",42.295958,-71.295764
"02481","Wellesley Hills","MA","YogaSix","200 Linden St Ste 200D","02482",42.30177688598633,-71.29183959960938
"02481","Wellesley Hills","MA","Physical Therapy and Fitness Center","not_available","02481",42.308551,-71.277958
"02481","Wellesley Hills","MA","Pure Barre","200 Linden St Ste 103","02482",42.301671748596654,-71.29173739731897
"02481","Wellesley Hills","MA","The Maugus Club","40 Abbott Rd","02481",42.30908362929511,-71.27397167933447
"02481","Wellesley Hills","MA","CycleBar Wellesley","386 Washington St","02481",42.30778027493699,-71.27791285514832
"02482","Wellesley","MA","OmniFitness","77 Mayflower Rd","02492",42.287828999999995,-71.264675
"02492","Needham","MA","Get In Shape For Women","1201 Highland Ave","02494",42.28571301,-71.23584516
"02493","Weston","MA","Get IN-SHAPE For Women","450 Boston Post Rd","02493",42.36701186,-71.30150105
"02493","Weston","MA","City Point Gym","230 3rd Ave","02451",42.38960647583008,-71.260498046875
"02493","Weston","MA","CFN gym","29 Sawyer Rd","02453",42.36100769042969,-71.25982666015625
"02532","Buzzards Bay","MA","RMA Fitness","130 MacArthur Blvd. (Rt. 28)","02532",41.735926,-70.585596
"02532","Buzzards Bay","MA","Dance Zone","32 Jonathan Bourne Dr","02559",41.704627990722656,-70.58731842041016
"02532","Buzzards Bay","MA","Anytime Fitness","3103 Cranberry Hwy","02538",41.75569,-70.6441
"02536","East Falmouth","MA","Anytime Fitness","614 Main St","02540",41.55275622,-70.60551137
"02536","East Falmouth","MA","Basement Gym","not_available","02536",41.60778337208549,-70.56304717880913
"02536","East Falmouth","MA","USA  Fitness","747 East Falmouth Highway","02536",41.5769474,-70.54773519999999
"02536","East Falmouth","MA","Balanced Health and Fitness","634 N Falmouth Hwy","02556",41.65102767944336,-70.61265563964844
"02536","East Falmouth","MA","Planet Fitness","13 Davis Straits","02540",41.556029,-70.598142
"02538","East Wareham","MA","Planet Fitness","2991 Cranberry Hwy","02538",41.756932,-70.664994
"02539","Edgartown","MA","Martha's Vineyard YMCA","Edgartown Rd","02568",41.41971040048317,-70.59300940853
"02539","Edgartown","MA","Workout & Vineyard Tennis Center","22 Airport Road","02575",41.38663682235849,-70.6112423162671
"02539","Edgartown","MA","Field Club Fitness Center","not_available","02539",41.383678248347394,-70.53709403660154
"02542","Buzzards Bay","MA","Camp Edwards Gym","not_available","02542",41.666026523417536,-70.55045713660812
"02542","Buzzards Bay","MA","Moxie Training Lab - Cape Cod","not_available","02644",41.680132,-70.512959
"02542","Buzzards Bay","MA","The Fitness Company For Women","502 Main St","02649",41.65454007481785,-70.49191885537216
"02554","Nantucket","MA","The Studio","48 Main St","02554",41.283111572265625,-70.09884643554688
"02554","Nantucket","MA","Nantucket Health Club","10 Young's Way","02554",41.265558960369304,-70.08304564008623
"02554","Nantucket","MA","Gym","not_available","02554",41.26655664485121,-70.10689876020274
"02554","Nantucket","MA","Nantucket Cycling & Fitness","25 Young's Way","not_available",41.264582,-70.085215
"02556","North Falmouth","MA","Sea Crest Fitness Center","not_available","02556",41.626682592804315,-70.6397425544599
"02557","Oak Bluffs","MA","Crossfit Martha's Vineyard","114 Cook Rd","02539",41.448237,-70.61184
"02557","Oak Bluffs","MA","B-Strong","Kennebec Ave","02557",41.45637996780982,-70.55749730391165
"02557","Oak Bluffs","MA","Muscle Beach South","not_available","02557",41.45126735271781,-70.55360031907526
"02563","Sandwich","MA","Snap Fitness","331 Cotuit Rd","02563",41.70862030203428,-70.48789309656541
"02571","Wareham","MA","Seaside CrossFit","6 Little Brook Rd","02576",41.78300476074219,-70.7541732788086
"02601","Hyannis","MA","Impact Perfornance","not_available","02601",41.662616776344144,-70.26955800567272
"02601","Hyannis","MA","Fitness 500 Club","540 Main St","02601",41.651181119556675,-70.2893230257
"02601","Hyannis","MA","Sheer Pole Fitness","11 Enterprise Rd Ste 6","02601",41.66749930368672,-70.30269682894553
"02601","Hyannis","MA","Anytime Fitness","1070 Iyannough Rd","02601",41.67628,-70.30528
"02601","Hyannis","MA","Cape Cod Fitness Center","iyannough rd","02601",41.670425589426394,-70.30074377796352
"02601","Hyannis","MA","Alpha Krav Maga Boston - Cape Cod","11 Enterprise Rd #17","02601",41.6675371,-70.30282629999999
"02601","Hyannis","MA","Community Center Track","152 Stevens St","02601",41.653508,-70.292697
"02601","Hyannis","MA","hampshire ave","Hampshire Ave","02601",41.656996916129735,-70.29446606911084
"02601","Hyannis","MA","Cape Cod Fitness Company","68 Center St #17","02601",41.655829,-70.28097
"02601","Hyannis","MA","Woman's Workout Company","865 Attucks Ln","02601",41.67395093116751,-70.2951028818508
"02601","Hyannis","MA","Silvaback Fitness","105 Ferndoc St","02601",41.66294,-70.269773
"02601","Hyannis","MA","CrossFit Hyannis","70 Center St, Hyannis Port, MA 02601","02601",41.65623017572289,-70.28092065167597
"02601","Hyannis","MA","Cape Cod Boxing Club","61 Bodick Rd","02601",41.66294,-70.269773
"02601","Hyannis","MA","WW","rte 28","02601",41.662494,-70.300703
"02601","Hyannis","MA","Atlantis Sports Club Hyannis","Scudder Ave","not_available",41.645664742335306,-70.29750538971678
"02630","Barnstable","MA","YMCA","2245 Iyannough Rd","02668",41.69065311937362,-70.34208220137207
"02631","Brewster","MA","Bodystrong Fitness","21 Old Colony Way","02653",41.7863441579845,-69.99497974432788
"02631","Brewster","MA","Koko Fit Club Orleans","65 Old Colony Way","02653",41.78480812064015,-69.99824557112893
"02631","Brewster","MA","Ocean Edge Fitness","not_available","02631",41.773292478995536,-70.05335820863527
"02631","Brewster","MA","Masjah Center","181 Route 137 Ste 5","02645",41.710914611816406,-70.02439880371094
"02631","Brewster","MA","Curves Orleans","26 Bay Ridge Ln","02653",41.779254,-70.007687
"02631","Brewster","MA","Koko FitClub","1421 Orleans Rd","02645",41.706502294824276,-70.02224405496283
"02632","Centerville","MA","Duchesney Fitness","not_available","02632",41.659183,-70.355967
"02632","Centerville","MA","Grandma's Dojo","not_available","02655",41.641609,-70.369587
"02632","Centerville","MA","Curves of Cape Cod Centerville","1600 Falmouth Rd","02632",41.6579704284668,-70.34581756591797
"02632","Centerville","MA","The Gym Express","Falmouth Rd","02632",41.65780983175521,-70.34793204167688
"02633","Chatham","MA","Get Fit with Corey","11 Chicks Way","02633",41.686617,-70.015052
"02633","Chatham","MA","Chatham Works","not_available","02650",41.698743,-69.963461
"02633","Chatham","MA","Body Strong Fitness","Commerce Park","02659",41.68643522276243,-70.01494161203335
"02635","Cotuit","MA","Planet Fitness","106 Falmouth Rd","02649",41.631844,-70.463405
"02635","Cotuit","MA","Workout World","31 Simons Rd","02649",41.63099670410156,-70.46440887451172
"02635","Cotuit","MA","Golds Gym","not_available","02649",41.631349,-70.465473
"02638","Dennis","MA","Cape Cod Health And Fitness","305 Hokum Rock Rd","02638",41.730286,-70.165702
"02642","Eastham","MA","Willy's Gym","4730 State Hwy","02642",41.85894529999999,-69.984657
"02642","Eastham","MA","Fitness Center","not_available","02642",41.85965081465552,-69.96834326261913
"02648","Marstons Mills","MA","Osterville Fitness","1336 Main St","02655",41.640769958496094,-70.39230346679688
"02649","Mashpee","MA","Curves in Mashpee","681 Falmouth Rd","02649",41.61062,-70.49136
"02649","Mashpee","MA","Koko Fitclub","Commercial St","02649",41.611705,-70.488893
"02653","Orleans","MA","OPD Pit","not_available","02653",41.78152900510918,-69.98786641185451
"02657","Provincetown","MA","Provincetown Gym","81 Shank Painter Rd","02657",42.05220665291553,-70.1951261544688
"02657","Provincetown","MA","Mussel Beach","35 Bradford St","02657",42.046889451775534,-70.19263718767576
"02657","Provincetown","MA","USCG Station Provincetown Gym","not_available","02657",42.04540765061748,-70.19145553322716
"02657","Provincetown","MA","Strength & Clarity - Movement Studio","170 Commercial St","02657",42.04789733886719,-70.19022369384766
"02660","South Dennis","MA","Curves of Cape Cod S. Dennis","495 rt 134","02660",41.69293,-70.155003
"02660","South Dennis","MA","Koko Fit Club","Patriot Square","02670",41.694629497388014,-70.15040917779743
"02664","South Yarmouth","MA","Mid-Cape Racquet-Health Club","193 Whites Path","02664",41.689816102658384,-70.1981503203614
"02664","South Yarmouth","MA","KD Physical Therapy & Fitness","23 Whites Path Ste E","02664",41.68816210000001,-70.2089285
"02664","South Yarmouth","MA","Vertical Fitness By Heather","28","02664",41.65523707866669,-70.2079850435257
"02664","South Yarmouth","MA","Clarion Inn - Exercise Room","1199 Route 28","02664",41.665032,-70.194328
"02673","West Yarmouth","MA","Planet Fitness","36 Constance Ave","02673",41.68254852294922,-70.22549438476562
"02673","West Yarmouth","MA","Cape Point work out room","not_available","02673",41.649658203125,-70.25365447998047
"02702","Assonet","MA","Matt's Gym","not_available","02702",41.796714,-71.050423
"02703","Attleboro","MA","YMCA","63 N Main St","02703",41.94620242581342,-71.28520237955013
"02703","Attleboro","MA","Fitness Together - North Attleboro","429 S Washington St","02760",41.96827059175753,-71.33902315994104
"02703","Attleboro","MA","Planet Fitness","40 Cumberland Ave","02760",41.931856,-71.354035
"02703","Attleboro","MA","Anytime Fitness","227 B Washington St Rte 1","02703",41.924219,-71.358398
"02703","Attleboro","MA","Striking Beauties","18 Church St","02760",41.98319369029796,-71.33317398032398
"02703","Attleboro","MA","Boston Sports Club","not_available","02703",41.946343,-71.27586
"02703","Attleboro","MA","Olympic Fitness","not_available","02760",41.95772783955618,-71.34267712835928
"02703","Attleboro","MA","Orangetheory Fitness","228 Washington St","02703",41.922925,-71.356059
"02703","Attleboro","MA","Fit Factory North Attleboro","473 E Washington St","02760",41.98024368286133,-71.32938385009766
"02703","Attleboro","MA","Asylum Time/Insanity Time/T 25","22 Frenier Ave","not_available",41.903878000000006,-71.317452
"02703","Attleboro","MA","Fitness Plus","749 S Washington St","02760",41.9576416015625,-71.34322357177734
"02703","Attleboro","MA","Boston Barbell","48 Eddy St, Attleboro, MA 02703","02703",41.94504928588867,-71.27043914794922
"02703","Attleboro","MA","YMCA","537 Pleasant St","02703",41.95251460796915,-71.26670612954945
"02703","Attleboro","MA","Answer is Fitness","15 John L Dietsch Blvd","02763",41.97227462884261,-71.29869549208556
"02703","Attleboro","MA","Curves","15 Washington St","02703",41.92990635966227,-71.35385542243311
"02703","Attleboro","MA","Xformation Fitness","429 S Washington St Unit 2","02760",41.9683645,-71.3389685
"02717","East Freetown","MA","Anytime Fitness","1 Chace Rd","02717",41.76998,-70.95624
"02718","East Taunton","MA","Hero Fitness","421 New State Hwy","02767",41.905425,-71.04955600000001
"02719","Fairhaven","MA","Planet Fitness","24 Commons Way","02719",41.644221,-70.887284
"02719","Fairhaven","MA","WOW","not_available","02740",41.67922649590931,-70.90861268650018
"02719","Fairhaven","MA","Mattapoisett Ymca","not_available","02739",41.65243177305164,-70.82373933980845
"02719","Fairhaven","MA","On Point Boxing","101 Rodney French Blvd","02744",41.612449645996094,-70.91837310791016
"02720","Fall River","MA","WOW - Work Out World","18 Pocasset St","02721",41.70190353256404,-71.15976327077108
"02720","Fall River","MA","Amy Jones A** Kicking","CD Rec Center","02720",41.703999,-71.156961
"02720","Fall River","MA","Doran Elementary School","columbia st.","02721",41.7616459,-71.1604554
"02720","Fall River","MA","Gym","not_available","02720",41.704603,-71.143752
"02720","Fall River","MA","Balance A Fitness and Wellness Studio","140 Slades Ferry Ave","02726",41.72734451293945,-71.15902709960938
"02720","Fall River","MA","Grow Zone","Warner St","02720",41.73196568304454,-71.13239694280118
"02720","Fall River","MA","General Fitness","425 Pleasant St","02721",41.69846217679751,-71.14855630392393
"02720","Fall River","MA","Royal Crest","37 Courtney St","02720",41.73237,-71.12330899999999
"02720","Fall River","MA","Bristol Community College Fitness Center","777 Elsbree St","02720",41.722755432128906,-71.12020874023438
"02720","Fall River","MA","Jet Gym","119 Wordell St","02721",41.69632339477539,-71.14640808105469
"02720","Fall River","MA","Burn Boot Camp","101 President Ave","02720",41.7157,-71.15432
"02721","Fall River","MA","Planet Fitness - Temporarily Closed","657 Quarry St","02723",41.690115021492446,-71.13960926302845
"02721","Fall River","MA","Crunch Fitness  - Fall River","450 William S Canning Blvd","02721",41.672367095947266,-71.15769958496094
"02721","Fall River","MA","Atlantic Health and Fitness","31 Shove St","02878",41.67135031893121,-71.18178757759522
"02721","Fall River","MA","Planet Lunk","662 Quarry Street","02723",41.69035742319132,-71.1396034607316
"02721","Fall River","MA","Working Out","not_available","02724",41.684993743896484,-71.17443084716797
"02721","Fall River","MA","curves for Women, Fall River","not_available","02721",41.678360642270526,-71.16377509281762
"02725","Somerset","MA","Planet Fitness","887 Grand Army Hwy","02726",41.73034241152834,-71.17225612807597
"02725","Somerset","MA","Generations Fitness","1125 Grand Army Hwy","02726",41.733112756761855,-71.1749726829921
"02725","Somerset","MA","Horton's gym","not_available","02726",41.730804448879475,-71.1722516398831
"02726","Somerset","MA","Strategic Strength & Conditioning","3019 County St","02726",41.773082,-71.13873199999999
"02740","New Bedford","MA","Champions Fitness","1707 Purchase St","02740",41.64824244105879,-70.92860694518912
"02740","New Bedford","MA","Carabiner`s Indoor Climbing","328 Parker St","02740",41.64225432159376,-70.94815111245136
"02740","New Bedford","MA","YMCA","25 S Water St","02740",41.63403565133972,-70.92339910490942
"02740","New Bedford","MA","24-7 Fitness","468 North St","02740",41.636095000000005,-70.950916
"02740","New Bedford","MA","Anytime Fitness","5-D State Rd","02740",41.63605,-70.95925
"02740","New Bedford","MA","Boutique Fitness","516 Pleasant St","02740",41.63371463006872,-70.92667640436294
"02743","Acushnet","MA","Total Fitness","Faunce Corner Road","02745",41.67838019,-70.93416263
"02743","Acushnet","MA","Camara's Gym","26 Village Ave","02743",41.686409000000005,-70.902226
"02743","Acushnet","MA","CFC Gym","822 Church Street, New Bedford, MA","02719",41.689640045166016,-70.94046783447266
"02743","Acushnet","MA","Escape To Fitness","not_available","02745",41.67391671666667,-70.93991618333334
"02745","New Bedford","MA","Body Works","500 Kings Hwy","02745",41.676212310791016,-70.94304656982422
"02745","New Bedford","MA","Xcel Bjj","59 Tarkiln Pl","02745",41.693612,-70.94389699999999
"02747","North Dartmouth","MA","Crossfit Dartmouth","668A State Rd","02747",41.640268,-71.021326
"02747","North Dartmouth","MA","Healthtrax Fitness & Wellness","250 Faunce Corner Rd","02747",41.65727930745878,-70.98930572029536
"02747","North Dartmouth","MA","Sault Fitness","302 Elm St","02748",41.587127910819945,-70.94412561901436
"02747","North Dartmouth","MA","Dartmouth Total Fitness","360 Faunce Corner Rd","02747",41.66201969179942,-70.99148909259881
"02747","North Dartmouth","MA","Dartmouth Woods Fitness Center","not_available","02747",41.65690150771627,-71.02922286494848
"02747","North Dartmouth","MA","Club Fit Fitness Center","125 N Dartmouth Mall","02747",41.64209642802643,-70.99160935879561
"02760","North Attleboro","MA","Village Green Gym","71 Messenger St","02762",42.010711669921875,-71.30179595947266
"02760","North Attleboro","MA","Hockomock YMCA","300 Elmwood St","02760",41.999317597112565,-71.31935749691822
"02760","North Attleboro","MA","Crossfit508","1 George St","02762",42.00788089617593,-71.3113218830982
"02760","North Attleboro","MA","Get Josette","570 Kelly Blvd","not_available",42.007283,-71.302648
"02760","North Attleboro","MA","Anytime Fitness","13 Taunton St Ste 3","02762",42.01066,-71.30569
"02764","North Dighton","MA","P90X","not_available","02780",41.86845779418945,-71.11459350585938
"02766","Norton","MA","Home Gym","Hayworth","02766",41.966767,-71.186994
"02767","Raynham","MA","Planet Fitness","690 County St","02780",41.884324,-71.065551
"02767","Raynham","MA","Old Colony YMCA - Taunton Branch","71 Cohannet St","02780",41.90132353541743,-71.09687306349784
"02767","Raynham","MA","snap fitness 24/7","855 Broadway Route 138","02767",41.951224664413694,-71.07134392126257
"02767","Raynham","MA","Energy NO LIMIT","391 W Water St","02780",41.88331985473633,-71.09265899658203
"02769","Rehoboth","MA","Crossfit Seekonk","1882 Fall River Ave","02771",41.781459999999996,-71.299325
"02769","Rehoboth","MA","DTrain Fitness","152 Pine St","02769",41.85671,-71.294539
"02771","Seekonk","MA","Sherwood Indoor Sports Seekonk","1310 Fall River Ave","02771",41.79248318667394,-71.32045303833216
"02771","Seekonk","MA","Healthtrax Fitness & Wellness Center","15 Catamore Blvd","02914",41.80571,-71.34253
"02771","Seekonk","MA","Art Of Strength/pumch Gym","3-5 progress st","not_available",41.800069,-71.33321
"02771","Seekonk","MA","Seekonk Total Fitness","1301 Fall River Ave","02771",41.790282138412906,-71.32259262731988
"02771","Seekonk","MA","iLoveKickboxing - East Providence/Seekonk, MA","20 Commerce Way","02771",41.79448699951172,-71.3244400024414
"02771","Seekonk","MA","Body language spoken","County St, Seekonk, MA 02771","02771",41.81445641080209,-71.31770482735114
"02771","Seekonk","MA","Crossfit Prowess","40 Mead St","02771",41.791436,-71.32723299999999
"02771","Seekonk","MA","World Gym","350 Fall River Ave","02771",41.81910971866835,-71.33605037802826
"02771","Seekonk","MA","Bounce Utopia","17 Central Ave Ste 6","02771",41.88898468017578,-71.33970642089844
"02771","Seekonk","MA","Eliptical","My Home","not_available",41.833795,-71.316471
"02771","Seekonk","MA","Out of Control Allstars Cheer Company","40 Mead Street, Unit 1","02771",41.79107652269516,-71.32700222327878
"02777","Swansea","MA","Bristol Total Fitness","685 Metacom Ave","02809",41.70325061286992,-71.26579500086751
"02777","Swansea","MA","Swansea Total Fitness","200-218 Massachusetts 118","02777",41.753470943819366,-71.21317259874809
"02777","Swansea","MA","Barbelle","1707 Gar Hwy","02777",41.757478000000006,-71.245696
"02777","Swansea","MA","426 Fitness","426 Metacom Ave","02885",41.72711354247448,-71.270199673072
"02777","Swansea","MA","Anytime Fitness","576 Metacom Ave","02809",41.694,-71.26243
"02777","Swansea","MA","Endurance Fitness","246 Ocean Grove Ave","02777",41.726972,-71.209346
"02777","Swansea","MA","all generations fitness","544 Milford Rd","02777",41.74851095346922,-71.2146316219463
"02777","Swansea","MA","Fitness Together - Eastbay","334 County Rd Ste A","02806",41.7416805725902,-71.31128158953192
"02777","Swansea","MA","SALT Fitness Company","262 Swansea Mall Dr","02777",41.75496132920172,-71.21823414253474
"02777","Swansea","MA","The gym","11 Preston Dr","02806",41.72554016113281,-71.29637145996094
"02777","Swansea","MA","Complete athlete","Gooding Avenue","not_available",41.69426670717253,-71.27362516994546
"02777","Swansea","MA","Anytime Fitness","180-188 County Rd Ste B","02806",41.73738,-71.30518
"02777","Swansea","MA","Prestige Fitness Gym","not_available","02777",41.758664705777164,-71.24884550672355
"02790","Westport","MA","Sally's Gym","200-322 Narrow Ave","02790",41.59889751,-71.12794205
"02790","Westport","MA","The Gym","not_available","02837",41.54842797790265,-71.13288434425881
