"zip","city","state","name","address","postalCode","lat","lon"
"06001","Avon","CT","Healthtrax Fitness","100 Simsbury Rd","06001",41.817203,-72.829288
"06001","Avon","CT","Gracie Farmington Valley Mma/Bjj","not_available","06019",41.824448286932935,-72.8778814866476
"06001","Avon","CT","Slim's Gym","not_available","not_available",41.777938,-72.876586
"06001","Avon","CT","Jazzercise","192 W Main St","06001",41.812032,-72.847522
"06001","Avon","CT","The Zoo Health Club","530 Bushy Hill Rd","06070",41.817948858170496,-72.86432423389019
"06001","Avon","CT","Snap Fitness Avon","222-248 W Main St","06001",41.81341420019797,-72.8530923043454
"06001","Avon","CT","CYCLEBAR","110 Albany Turnpike Suite 611","06019",41.8227714,-72.8809265
"06001","Avon","CT","The Little Gym","not_available","06001",41.819828,-72.827523
"06001","Avon","CT","Chubb Fitness Center","82 Hopmeadow St","06089",41.82830468252853,-72.82095355791463
"06001","Avon","CT","Farmington  Valley Fitness Boot Camp","12 Cheryl Dr Ste C","06019",41.823951721191406,-72.87802124023438
"06001","Avon","CT","Fitness Together - Avon","300 Country Club Rd","06001",41.790252207308626,-72.8628141959472
"06001","Avon","CT","CrossFit Legitimus","130","06019",41.824756008319554,-72.89650244419458
"06001","Avon","CT","Envision Strength Fitness and Wellness Coaching","15 Cheryl Dr","06019",41.82429122924805,-72.87743377685547
"06001","Avon","CT","Fitness Showrooms Superstore LLC","395 West Main Street","06001",41.815678000000005,-72.865454
"06001","Avon","CT","F45 Training Avon CT","260 W Main St","06001",41.813641,-72.853051
"06002","Bloomfield","CT","Planet Fitness","269 Cottage Rd","06002",41.81656,-72.712003
"06002","Bloomfield","CT","Gold's Gym","107 Old Windsor Rd","06002",41.85962016683725,-72.6897108248257
"06002","Bloomfield","CT","The Gym At Rt ProExec","not_available","06002",41.86943108753261,-72.73906041596464
"06002","Bloomfield","CT","StairMaster #1","not_available","06117",41.800294,-72.725681
"06002","Bloomfield","CT","Hartbeat Gym @ The Hartford","1 Griffin Rd N","06095",41.87778091430664,-72.7296371459961
"06002","Bloomfield","CT","Gold's Gym","1001 Day Hill Rd","06095",41.87693404901523,-72.70412365182713
"06002","Bloomfield","CT","The Fitness Center At MetLife","1300 Hall Blvd","06002",41.80646896362305,-72.75039672851562
"06002","Bloomfield","CT","Vertafore Gym","7 Waterside Xing","06095",41.8809700012207,-72.73741149902344
"06002","Bloomfield","CT","The Gym at Bloomfield Crossing","22 Mountain Ave","06002",41.83106113392377,-72.74149196433886
"06002","Bloomfield","CT","Waterside Crossing, Exercise Room","3 Waterside Crossing, Windsor, CT 06095","06095",41.88274383544922,-72.73877716064453
"06002","Bloomfield","CT","MRHA gym","Kristins way","not_available",41.852242,-72.72015
"06002","Bloomfield","CT","Leisure Service Community Center Gym","330 Park Ave","06002",41.824527740478516,-72.71358489990234
"06002","Bloomfield","CT","Cigna Healthy Life Fitness Center","900 Cottage Grove Rd","06002",41.8127914357527,-72.74261436922646
"06010","Bristol","CT","ESPN Employee Wellness Center","1 Espn Dr","06010",41.650402896120355,-72.90479086626021
"06010","Bristol","CT","Bell City CrossFit","not_available","06010",41.655904,-72.905579
"06010","Bristol","CT","Gym","Blakeslee Street","06010",41.67312432,-72.93054836
"06010","Bristol","CT","Fitness Center For Women","224","06010",41.67662555418382,-72.94660738344173
"06010","Bristol","CT","Parisi Speed School","842 Clark Ave","06010",41.69089126586914,-72.983642578125
"06010","Bristol","CT","Sculpt Studio","Central Street","06010",41.674489,-72.898418
"06010","Bristol","CT","LA Fitness","1379 Farmington Ave","06010",41.69973541811083,-72.89786064275553
"06013","Burlington","CT","Lewis Mills Weight Room","not_available","06013",41.780326,-72.988158
"06013","Burlington","CT","The Treadmill","4 Ridgewood Rd","06013",41.7896614074707,-72.94625091552734
"06026","East Granby","CT","School Street Fitness","not_available","06026",41.94148304669584,-72.72728500709779
"06026","East Granby","CT","SkrillexCardioAssKickingTime","East Street","06026",41.93937730459995,-72.71637494203136
"06029","Ellington","CT","Anabolics","Joel Dr","06029",41.92158666,-72.46666611
"06029","Ellington","CT","Tolland CrossFit","60 Industrial Park Rd W","06084",41.85950469970703,-72.4207763671875
"06029","Ellington","CT","Cardio Express","not_available","06084",41.88649821,-72.32964121
"06029","Ellington","CT","Walking/sunning Trail","not_available","06029",41.86957313,-72.48661727
"06029","Ellington","CT","Anytime Fitness","89 W Rd","06029",41.87924,-72.46276
"06029","Ellington","CT","Isbel's Domain","not_available","06066",41.867545,-72.46931
"06029","Ellington","CT","Deer Valley Fitness Center","155 Windermere Ave","06029",41.875667572021484,-72.4903335571289
"06032","Farmington","CT","Residences at 299 Gym","299 Colt Hwy","06032",41.708224,-72.817795
"06032","Farmington","CT","Anytime Fitness","188 Main St","06032",41.71238,-72.83936
"06032","Farmington","CT","Farmington Line Aprtment Gymnasium","950 Farmington Ave","06053",41.702386,-72.795787
"06032","Farmington","CT","Kickboxing Of Unionville","1051 Farmington Ave","06032",41.734062042821066,-72.83802290557774
"06032","Farmington","CT","Malibu Fitness","15 Executive Dr","06032",41.698872444134814,-72.85465505773811
"06032","Farmington","CT","One Beacon fitness Center","not_available","06032",41.705981,-72.872231
"06032","Farmington","CT","Ilovekickboxing","108 S Main St","06085",41.754731,-72.88718100000001
"06032","Farmington","CT","Sam May Fitness Center","not_available","06053",41.69300522392018,-72.76341181129739
"06032","Farmington","CT","Valley Fitness","45 S Main St","06085",41.7565364573661,-72.88638084035787
"06032","Farmington","CT","Farmington Farms Racquet Club","Brickyard Road","06032",41.74685867082276,-72.85545093920578
"06032","Farmington","CT","Yankee Cross Fit","24 Spring Ln","06032",41.693937024719375,-72.84970092461033
"06032","Farmington","CT","Bernier Fitness","15 Janet Dr","06053",41.694740295410156,-72.78732299804688
"06032","Farmington","CT","LA Fitness","1600 S East Rd","06032",41.71628540947666,-72.76428897602361
"06032","Farmington","CT","Cvp Panthers","grace ave","06062",41.726951584818735,-72.76316363419788
"06032","Farmington","CT","Pebblebrook 357 Fitness Center","357 Brittany Farms Rd","06053",41.7112922668457,-72.77400207519531
"06033","Glastonbury","CT","Hebron Avenue School","1363 Hebron Ave","06033",41.71838501500835,-72.55917172043539
"06033","Glastonbury","CT","Anytime Fitness","38-2868 Main St","06033",41.72069,-72.61352
"06033","Glastonbury","CT","Mission Fitness","80 Commerce St","06033",41.70909128381914,-72.58858954799925
"06033","Glastonbury","CT","Crossfit 033","Oakwood Drive","06033",41.712162859031174,-72.58109287467026
"06033","Glastonbury","CT","The Gym @ The Court","15 Courtney Cir, Glastonbury, CT 06033","06033",41.700721740722656,-72.58352661132812
"06033","Glastonbury","CT","Healthtrax Fitness and Wellness","622 Hebron Ave Ste 200","06033",41.7138163,-72.58930950000001
"06033","Glastonbury","CT","Orangetheory Fitness","27 Welles St","06033",41.71411895751953,-72.60623168945312
"06033","Glastonbury","CT","100 Percent Martial Arts","2450 Main St","06033",41.713501007340035,-72.6080417633057
"06033","Glastonbury","CT","Healtrax","628 Hebron Ave","06033",41.71369171142578,-72.58927154541016
"06033","Glastonbury","CT","The Edge Fitness Clubs","2865 Main Street","06033",41.7210229,-72.6147399
"06033","Glastonbury","CT","Build It Up, LLC","175 Capital Blvd Ste 467","06067",41.6737976,-72.6459564
"06033","Glastonbury","CT","Villari's Martial Arts Centers - Glastonbury CT","103 New London Tpke #B","06033",41.7141,-72.60491
"06033","Glastonbury","CT","Fierce and Mighty: The Gym","20 Holly Ln","06033",41.72351291034897,-72.58746123840062
"06033","Glastonbury","CT","Accelerated Fitness Solutions","122 Naubuc Ave","06033",41.715833,-72.61746600000001
"06033","Glastonbury","CT","Fitness Together","41 Welles St Ste 5","06033",41.71504076201356,-72.606917572999
"06033","Glastonbury","CT","Glastonbury Wellness Center","622 Hebron Ave","06033",41.713907,-72.589036
"06033","Glastonbury","CT","Gym","not_available","06033",41.714578,-72.600931
"06033","Glastonbury","CT","Pure Barre","140 Glastonbury Blvd Ste 2600","06033",41.721035938581124,-72.61969303596801
"06033","Glastonbury","CT","Healthtrax at P&W","400 Main St","06118",41.744685,-72.628365
"06033","Glastonbury","CT","WOW Fitness","271 Oakwood Dr","06033",41.71055519346486,-72.5791488515311
"06033","Glastonbury","CT","Against All Odds Health & Fitness","41-B New London Turnpike","06033",41.7175459,-72.6073055
"06033","Glastonbury","CT","Designed Training","256 Oakwood Dr","06033",41.710907,-72.57762199999999
"06035","Granby","CT","YMCA of Greater Hartford - Farmington Valley","97 Salmon Brook Street","not_available",41.93283695337285,-72.7924425604877
"06035","Granby","CT","Anytime Fitness","5-9 Bank St","06035",41.9524,-72.78419
"06037","Berlin","CT","Average Joe's","1176 Farmington Ave","06037",41.62832,-72.756866
"06037","Berlin","CT","Crossfit Berlin","229 Christian Ln","06037",41.63673782348633,-72.7498779296875
"06037","Berlin","CT","LA Fitness","3563 Berlin Tpke","06111",41.64995582637902,-72.7321314811706
"06037","Berlin","CT","B Gym","not_available","06037",41.63252316853119,-72.74772999390156
"06037","Berlin","CT","Powerhouse Gym","99 Webster Square Rd","06037",41.628360555461356,-72.74690066443935
"06037","Berlin","CT","Berlin Fitness Center","107 Selden St","06037",41.64894485473633,-72.72333526611328
"06037","Berlin","CT","Hypack Gym","56 Bradley St","06457",41.594227000000004,-72.72183299999999
"06037","Berlin","CT","Crossfit USA","112 Woodlawn Rd","06037",41.632469177246094,-72.74252319335938
"06037","Berlin","CT","The Gym","not_available","06457",41.56956221666667,-72.7281385
"06037","Berlin","CT","Rando","Kensington Road","06037",41.61215811805373,-72.77002592796472
"06037","Berlin","CT","Fitness By Design","1263 Berlin Tpke","06037",41.615787506103516,-72.74272918701172
"06037","Berlin","CT","Rebel Fitness","384 Deming Rd","06037",41.640174,-72.735078
"06037","Berlin","CT","Lutomski","Percival","not_available",41.61959714848969,-72.78614104972671
"06039","Lakeville","CT","North East Athletic Club","208 Route 44","12546",41.95221264084335,-73.49431648023376
"06040","Manchester","CT","iron will fitness","384e Green Manor Blvd","06040",41.779346000000004,-72.54033299999999
"06040","Manchester","CT","ML Fitness","46 Purnell Pl","06040",41.770332797959114,-72.52059080237207
"06040","Manchester","CT","Olivia's Gym","not_available","06040",41.752603566843966,-72.4948804777853
"06040","Manchester","CT","Blitz","867 Main St","06040",41.770347595214844,-72.52024841308594
"06040","Manchester","CT","Alpha Fitness","385 Center St","06040",41.772830963134766,-72.536376953125
"06040","Manchester","CT","Workout Harder Fitness Llc.","134 Pine St Bldg 136 1/2","06040",41.76697,-72.534874
"06042","Manchester","CT","Anytime Fitness","238-A Tolland Tpke.","06042",41.80992,-72.51428
"06042","Manchester","CT","LA Fitness","100 Cedar Ave","06074",41.81756620334527,-72.55394530766957
"06042","Manchester","CT","Orangetheory Fitness","1500 Pleasant Valley Rd","06042",41.8054313659668,-72.56053924560547
"06042","Manchester","CT","Big Sky Fitness","47 Hartford Tpke","06066",41.817770078528696,-72.50675195974955
"06042","Manchester","CT","Broadleaf Boulevard Gym","4000 Broadleaf Blvd","06042",41.79118347167969,-72.55834197998047
"06042","Manchester","CT","Academy of Martial Arts","440 Oakland St","06042",41.8088264465332,-72.5187759399414
"06042","Manchester","CT","Crossfit Thin Blue Line","60 Progress Dr","06042",41.80115401812329,-72.50392907573878
"06042","Manchester","CT","Muvement","52 Main St","06042",41.79214891726694,-72.52544567827235
"06043","Bolton","CT","Pro Gym","not_available","06248",41.72998809814453,-72.4302749633789
"06051","New Britain","CT","Flight Trampoline Park New Britain","140 Production Ct","06051",41.66630707786719,-72.75850617847622
"06051","New Britain","CT","DC's House of Pain","152 Wilcox St","06051",41.681176,-72.777712
"06051","New Britain","CT","FRT's Dungeon","109 Buena Vista Ave","06051",41.678964,-72.75585799999999
"06052","New Britain","CT","Big Sky Fitness","1185 W Main St","06053",41.66907226694708,-72.82356603050287
"06062","Plainville","CT","Dungeon Of Doom","Bruce Avenue","06062",41.67743057844744,-72.87381000037824
"06062","Plainville","CT","Planet Fitness","161 Woodford Ave","06062",41.671983366666666,-72.8553569
"06066","Vernon Rockville","CT","Fitness Revolution","40 Hockanum Blvd","06066",41.842244451282646,-72.49475512054372
"06066","Vernon Rockville","CT","Valassis Fitness Center","233 Great Pond Dr","06095",41.8537093053298,-72.44978812663797
"06067","Rocky Hill","CT","Sheraton Fitness","Sheraton Hartford South","06067",41.64970337963141,-72.66853266680633
"06067","Rocky Hill","CT","Fitness Together - Rockyhill","156 New Britain Ave","06067",41.659562009746374,-72.6839929766865
"06067","Rocky Hill","CT","Gym - 500 Enterprise Dr.","500 Enterprise Dr","06067",41.645987873861806,-72.67250970327893
"06067","Rocky Hill","CT","Crossfit Halo","50 Inwood Rd","06067",41.63711,-72.678097
"06067","Rocky Hill","CT","Home Gym","not_available","06416",41.630446,-72.643104
"06067","Rocky Hill","CT","power house gym","not_available","06111",41.67739486694336,-72.711181640625
"06067","Rocky Hill","CT","Glenbrook at Rocky Hill Gym","not_available","06067",41.63319859221862,-72.68868816205132
"06070","Simsbury","CT","Big Sky","526 Hopmeadow St","06070",41.85972673188587,-72.80958347650882
"06070","Simsbury","CT","Burn Boot Camp","836 Hopmeadow St","06070",41.8769961,-72.7998562
"06071","Somers","CT","Anytime Fitness","95 S. Rd.","06071",41.98019,-72.44471
"06074","South Windsor","CT","THE MAX Challenge of South Windsor","1735 Ellington Rd","06074",41.82664108276367,-72.55512237548828
"06074","South Windsor","CT","M.E.L.T Fitness Studio","524 Sullivan Ave","06074",41.85273,-72.58105400000001
"06074","South Windsor","CT","home gym","not_available","06074",41.82783508300781,-72.61091613769531
"06074","South Windsor","CT","M.E.L.T Fitness Studio","40 Sandra Dr","06074",41.8483942265803,-72.60425480991186
"06074","South Windsor","CT","crossfit","85 Nutmeg Rd S","06074",41.822709797671685,-72.60704398155212
"06074","South Windsor","CT","Lightning Fitness","259 Sullivan Ave","06074",41.85402595137986,-72.59395786728952
"06074","South Windsor","CT","CrossFit BrickYard","1161 John Fitch Blvd","06074",41.83692599145694,-72.60341535468947
"06074","South Windsor","CT","Crossfit South Windsor","405 Sullivan Ave","06074",41.853312,-72.588706
"06076","Stafford Springs","CT","Body By Design","8 Middle River Dr","06076",41.96603907396259,-72.32346083832985
"06078","Suffield","CT","Army Aviation Support Facility","Bldg 85-152 Perimeter rd","06096",41.9443656344602,-72.67383881275838
"06078","Suffield","CT","The Club at Bigelow Commons","not_available","06082",42.00066670952157,-72.60382920311964
"06078","Suffield","CT","The gym","not_available","06096",41.94565963745117,-72.6640625
"06082","Enfield","CT","Club Fitness","640 Enfield St","06082",42.00622209033369,-72.59383112958436
"06082","Enfield","CT","Gold's Gym","585 Hazard Ave","06082",41.986571997094444,-72.5111769029604
"06082","Enfield","CT","Massmutual Gym (Medifit)","100 Bright Meadow Blvd","06082",42.01703191304077,-72.58456843692903
"06082","Enfield","CT","Weight Buffet","32 Ridge Rd, Enfield, CT 06082","06082",42.00706100463867,-72.57386016845703
"06082","Enfield","CT","Healthtrax","3 Weymouth Rd","06082",41.952394,-72.596611
"06082","Enfield","CT","Woodgate Fitness Room","100 Woodgate Cir","06082",41.96651077270508,-72.60091400146484
"06082","Enfield","CT","Holiday Inn Fitness Center","1 Bright Meadow Blvd","06082",42.02006149291992,-72.58426666259766
"06082","Enfield","CT","Planet Fitness","2 Elizabeth St","06082",41.951314,-72.564402
"06082","Enfield","CT","Villari's Martial Arts Centers - Enfield CT","249 Hazard Ave","06082",41.9873572,-72.543724
"06082","Enfield","CT","Crossfit Revelation","7 Moody Rd","06082",42.00027994868442,-72.552585180615
"06088","East Windsor","CT","CrossFit NorConn","226 Main Street","06088",41.92051152950228,-72.6147241730551
"06088","East Windsor","CT","Scout Hall Youth Center","28 Abbe Rd","06088",41.87678909301758,-72.60222625732422
"06093","West Suffield","CT","Suffield Fire Company 2","Ratley Rd","06093",41.993321716666664,-72.70480961666667
"06095","Windsor","CT","Anytime Fitness","1065 Kennedy Rd","06095",41.89139,-72.65102
"06095","Windsor","CT","Lion's Den Fitness Center","1 Orange Way","06095",41.879584338253224,-72.68181183292658
"06095","Windsor","CT","Can'twaitforgymbury","not_available","06095",41.879424,-72.682224
"06095","Windsor","CT","Hilton Garden Inn Fitness Center","1st Floor","06118",41.87150435081287,-72.66615944833008
"06095","Windsor","CT","Metacomet Crossfit & Yoga","436 Hayden Station Rd","06095",41.89881134033203,-72.64366149902344
"06095","Windsor","CT","Hampton Inn Fitness Center","2168 Poquonock Ave","06095",41.9149169921875,-72.67417907714844
"06096","Windsor Locks","CT","Windsor Locks Jazzercise Fitness Center","255 Main St Ste 3","06096",41.9343147277832,-72.62861633300781
"06098","Winsted","CT","YMCA Cardio/Fitness Room","480 Main St","06098",41.92130661010742,-73.07296752929688
"06103","Hartford","CT","H21 Gym","221 Trumbull St","06103",41.767826080322266,-72.67598724365234
"06103","Hartford","CT","Downtown YMCA","90 State House Sq","06103",41.76623930020995,-72.67148206320168
"06103","Hartford","CT","The Downtown YMCA","241 Trumbull St","06103",41.7683378901772,-72.67597366066948
"06103","Hartford","CT","915 Gym","915 Main St","06103",41.767928999999995,-72.674205
"06103","Hartford","CT","55 On The Park Fitness Center","55 Trumbull St","06103",41.765449,-72.676806
"06103","Hartford","CT","Marriott Hartford Downtown - Fitness Center","200 Columbus Blvd","06103",41.76379792156151,-72.66947243127214
"06105","Hartford","CT","Total Fit Studio","247 S Whitney St","06105",41.765113,-72.71092900000001
"06105","Hartford","CT","The Creative Source Dance & Fitness Center","56 Arbor St","06106",41.75921905160266,-72.703085956786
"06105","Hartford","CT","Aetna Wellness Works Fitness Center","151 Farmington Ave","06156",41.76646828583263,-72.69209978820274
"06105","Hartford","CT","The Gym","115-133 Woodland St","06105",41.774396896362305,-72.69997715950012
"06105","Hartford","CT","Body Matrix HD","1229 Albany Ave","06112",41.78205490112305,-72.69731140136719
"06105","Hartford","CT","The Antonio Banderas House","31 Gillett St","06105",41.769002,-72.700282
"06105","Hartford","CT","Crossfit Hartford","221 Newfield Ave","06106",41.75656083220347,-72.70640496665341
"06105","Hartford","CT","Saint Francis Fitness Center","not_available","06105",41.773975743779516,-72.70019911401475
"06105","Hartford","CT","Fitness Touch","not_available","06112",41.79370432072202,-72.68193874361289
"06105","Hartford","CT","Boundless Performance","1200 Park St","06106",41.75899124145508,-72.6991195678711
"06105","Hartford","CT","Park Place Towers Gym","2 Park Pl","06106",41.75958193785138,-72.69613804823966
"06106","Hartford","CT","Workout Station","not_available","06114",41.74038231946614,-72.6906102970357
"06106","Hartford","CT","Riverpoint Gym","235 E River Dr","06108",41.765024,-72.66366
"06106","Hartford","CT","Ferris Athletic Center","Trinity College","06106",41.746273139379454,-72.68876991011656
"06106","Hartford","CT","Barney Gym","not_available","06106",41.7557205168425,-72.67902314112814
"06106","Hartford","CT","Holiday Inn Gym","not_available","06108",41.767254,-72.661272
"06107","West Hartford","CT","New York Sports Clubs","65 Memorial Road Building C, Building C","06107",41.75958609970875,-72.73972915252676
"06107","West Hartford","CT","CYCLEBAR","55 Memorial Road","06107",41.759769439697266,-72.73938751220703
"06107","West Hartford","CT","Fitness Center","not_available","06107",41.759884,-72.738633
"06107","West Hartford","CT","The Inner Kur","977 Farmington Ave","06107",41.76083755493164,-72.74383544921875
"06107","West Hartford","CT","Fitness Continuum","20 Isham Rd","06107",41.761531066410896,-72.74071123768663
"06107","West Hartford","CT","Muscle Factory","37 Tunxis Rd, West Hartford, CT 06107","06107",41.748817443847656,-72.75711822509766
"06108","East Hartford","CT","Bare Bones Boxing Gym","826 Silver Ln","06118",41.765659059198725,-72.60725048197405
"06108","East Hartford","CT","CT Baseball Academy","525 Burnside Ave","06108",41.777469635009766,-72.6170425415039
"06108","East Hartford","CT","Gold's Gym - East Hartford","1064 Main St","06108",41.772046847625596,-72.64192413130792
"06108","East Hartford","CT","Nexgen Wellness Lifestyle Center","1181 Main St","06108",41.77389674791825,-72.64060673117116
"06108","East Hartford","CT","All Out Fitness","29 Thomas St","06108",41.772174,-72.653616
"06109","Wethersfield","CT","Healthtrax Fitness & Wellness","375 E Cedar St","06111",41.697514,-72.707136
"06109","Wethersfield","CT","Physical Fitness","54-130 Crystal St","06109",41.713441,-72.68601531666667
"06109","Wethersfield","CT","Rugged Fitness - Boot Camps & Boxing","1870 Berlin Tpke","06109",41.70292496428579,-72.70225843203579
"06109","Wethersfield","CT","Crunch Fitness - Wethersfield","1392 Berlin Turnpike","06109",41.71798324584961,-72.69396209716797
"06109","Wethersfield","CT","Fitness Center","Vollage drive","not_available",41.717166,-72.693889
"06109","Wethersfield","CT","Villari's Martial Arts Centers - Newington CT","2303 Berlin Tpke","06111",41.6891688,-72.7076184
"06109","Wethersfield","CT","MillPointe Fitness Center","33 Mill St","06109",41.691343,-72.653601
"06110","West Hartford","CT","Work Out World","99 Shield St","06110",41.725120272035646,-72.7200694837925
"06110","West Hartford","CT","The Playground","635 New Park Ave","06110",41.732849,-72.726629
"06110","West Hartford","CT","Sudor Taino","New Park Avenue","06106",41.73275907839076,-72.72635923131283
"06110","West Hartford","CT","Excel Fitness","New Park Ave","not_available",41.734829,-72.723248
"06110","West Hartford","CT","The Edge Fitness Clubs","1471 New Britain Ave","06110",41.72377395629883,-72.75836944580078
"06110","West Hartford","CT","Bally Total Fitness","1031 New Britain Ave","06110",41.729241236099284,-72.72452001444285
"06110","West Hartford","CT","Farmington Valley Fitness Boot Camp","653 new park ave","not_available",41.73086166381836,-72.72573852539062
"06110","West Hartford","CT","School House Gym","School house dr","not_available",41.734235,-72.732238
"06110","West Hartford","CT","Work In Progress","485 New Park Ave","06110",41.74126312235426,-72.71928918567134
"06110","West Hartford","CT","Curves For Women","not_available","06110",41.73310025374292,-72.72445074492326
"06110","West Hartford","CT","Villari's Martial Arts Centers - West Hartford CT","1124 New Britain Ave","06110",41.7332246,-72.73227059999999
"06111","Newington","CT","Big Sky Fitness","58 Commerce Ct","06111",41.704590829461495,-72.74824054207127
"06111","Newington","CT","Curves Of Newington","65 E. Cedar Street","06111",41.697866,-72.720342
"06111","Newington","CT","Defy Fitness","65 Lewis Street","06111",41.669972,-72.721164
"06111","Newington","CT","Anytime Fitness","3310 Berlin Tpke","06111",41.65794,-72.72349
"06111","Newington","CT","BIONIC CrossFit","193 Pascone Pl","06111",41.667819,-72.723029
"06111","Newington","CT","Tough Mudder Training","Country Club Rd, New Britain, CT 06053","06053",41.704972746151235,-72.74842262358736
"06114","Hartford","CT","Dixon Sports Performance & Fitness","218 Murphy Rd","06114",41.737355,-72.653325
"06117","West Hartford","CT","Anytime Fitness","340 N Main St","06117",41.78448,-72.74555
"06117","West Hartford","CT","Orangetheory Fitness","N Main Street","06117",41.784766017833796,-72.7477409137371
"06117","West Hartford","CT","Orangetheory Fitness","345 N Main St","06117",41.785189,-72.7479087
"06117","West Hartford","CT","Beach Body Gym","89 Seymour Ave","06119",41.752410888671875,-72.72618103027344
"06117","West Hartford","CT","F45 Training West Hartford","31 Crossroads Plaza","06119",41.786546,-72.74630519
"06226","Willimantic","CT","Planet Fitness","1315 Main St","06226",41.715935,-72.228295
"06226","Willimantic","CT","Super Future Fitness","157 Boston Post Rd","06256",41.729504739457724,-72.18784222589663
"06226","Willimantic","CT","Work Zone","4 Gem Dr, Willimantic, CT 06226","06226",41.72444152832031,-72.23320007324219
"06226","Willimantic","CT","Cardio Express","95 Storrs Rd","06226",41.73480173311423,-72.2017734375112
"06234","Brooklyn","CT","Fitness Factory","444 Hartford Pike","06241",41.84721785455834,-71.88877066553263
"06238","Coventry","CT","Coventry Fitness","1155 Main St","06238",41.76765509157683,-72.29924817978866
"06238","Coventry","CT","Crossfit Storrs","1768 Storrs Rd","06268",41.83074188232422,-72.27589416503906
"06238","Coventry","CT","George A. Sherman Family Sports Complex","not_available","06268",41.806024075736744,-72.25717131387621
"06239","Danielson","CT","The Key Gym","156 Main St","06239",41.80554,-71.882974
"06239","Danielson","CT","Just Performance Fitness","521 Davis Rd","06239",41.820404052734375,-71.87875366210938
"06239","Danielson","CT","ARC","not_available","06241",41.837285,-71.872051
"06239","Danielson","CT","The Trampoline Place","not_available","06374",41.74044566685864,-71.90668679715745
"06248","Hebron","CT","Steve-O's Club Fitness USA","261 East St","06248",41.687703000000006,-72.395652
"06249","Lebanon","CT","CES","not_available","06415",41.56290815853482,-72.32184863716422
"06254","North Franklin","CT","Summit Fitness & Sports","2 Wisconsin Ave","06360",41.56457957865569,-72.11308332322953
"06259","Pomfret Center","CT","The Key Gym - Pomfret","6 Killingly Rd","06259",41.85906651613647,-71.96380937463768
"06259","Pomfret Center","CT","Zumba @ EastConn","Pomfret St","06260",41.90575662024781,-71.91976508257163
"06260","Putnam","CT","Putnam Key Gym","137 Providence St","06260",41.92380111561147,-71.90737151095436
"06260","Putnam","CT","Anytime Fitness","62 Providence Pike","06260",41.927388,-71.877096
"06260","Putnam","CT","Curves","School Street","06260",41.918006,-71.904144
"06260","Putnam","CT","Midtown Fitness","75 Railroad St","06260",41.91883695749282,-71.90548948505892
"06260","Putnam","CT","PSA fitness center","PSA","06260",41.915034,-71.914866
"06278","Ashford","CT","Dragon's eatery and gym","not_available","06278",41.83787536621094,-72.1574478149414
"06279","Willington","CT","Futon Fitness","not_available","06279",41.838494,-72.275963
"06281","Woodstock","CT","South Campus Gym","not_available","06281",41.927368,-71.957897
"06281","Woodstock","CT","Hyde School Gym","150 Route 169","06281",41.92662048339844,-71.95730590820312
"06281","Woodstock","CT","Body by Design","172 Route 171","06281",41.933887400545636,-71.94703851144192
"06320","New London","CT","Electric Boat GYM New London Facility","50 Pequot Ave","06320",41.340328216552734,-72.0970230102539
"06320","New London","CT","NLHS Gym","490 Jefferson Ave","06320",41.360328674316406,-72.12271881103516
"06320","New London","CT","4th Deck Gym HSWL RP New London","not_available","06320",41.3732821411168,-72.099961137217
"06320","New London","CT","Old School Iron","Bank St.","06320",41.34106211519115,-72.11792557048305
"06331","Canterbury","CT","The Key Gym","23-31 Torrey Ln","06374",41.696886574113115,-71.99630926723513
"06333","East Lyme","CT","North Gym","30 Chesterfield Rd","06333",41.36856460571289,-72.21076965332031
"06333","East Lyme","CT","Anytime Fitness","17 Liberty Way","06357",41.31947,-72.24329
"06333","East Lyme","CT","David McIlhenney Fitness Studio","323 Flanders Road","06333",41.364917,-72.20865599999999
"06333","East Lyme","CT","Yuhas","14 Pennsylvania Ave","06357",41.32394027709961,-72.19243621826172
"06334","Bozrah","CT","Megs Garadge","56-298 Gifford Ln","06334",41.54998905,-72.15123701666667
"06335","Gales Ferry","CT","Snap Fitness","Bokum Rd.","06426",41.42232019442993,-72.06860608494956
"06335","Gales Ferry","CT","Valley-Shore YMCA","not_available","06438",41.422377508192525,-72.06875653235123
"06339","Ledyard","CT","Grand Pequot Fitness Center","39 Norwich Westerly Rd","06339",41.47378,-71.96039
"06339","Ledyard","CT","The FROG","not_available","06339",41.408785,-72.0239
"06340","Groton","CT","Navy Gym","not_available","06340",41.390641,-72.089083
"06340","Groton","CT","Body Works Fitness Center","Shark Blvd","06340",41.3929054676822,-72.08826189243956
"06340","Groton","CT","Crossfit Groton","266 Bridge Dt","not_available",41.36081592454496,-72.07514468986187
"06340","Groton","CT","Anytime Fitness","441 Long Hill Rd","06340",41.3544,-72.06151
"06340","Groton","CT","Crossfit Ingaz","225 Leonard Dr","06340",41.34148025512695,-72.04634094238281
"06340","Groton","CT","RB Gym","Eastern point road","06340",41.37480655,-72.0596707
"06340","Groton","CT","AVCRAD Gym","Tower Ave","06340",41.33433339650106,-72.04804036392716
"06340","Groton","CT","WOW!","34 Plaza Ct","06340",41.347776375602926,-72.05121153590368
"06340","Groton","CT","Lower Base Gym","669-741 Shark Blvd","06340",41.396917032919625,-72.0921675285315
"06340","Groton","CT","Planet Fitness","656 Long Hill Rd","06340",41.34439318184746,-72.04830958709884
"06351","Jewett City","CT","Anytime Fitness","160 River Rd","06351",41.58438,-71.98968
"06355","Mystic","CT","Mystic YMCA","1 Harry Austin Dr","06355",41.345427788806305,-71.95798433121826
"06355","Mystic","CT","Crossfit Mystic","not_available","06355",41.370429,-71.956394
"06355","Mystic","CT","Residence Inn Workout Room","40 Whitehall Ave","06355",41.3784294128418,-71.95684814453125
"06355","Mystic","CT","Advantage Personal Training","11 Main St","06355",41.388454635039444,-71.9583741160856
"06355","Mystic","CT","UP Fitness","12 Coogan Blvd","06355",41.37210464477539,-71.95513153076172
"06359","North Stonington","CT","Fitness Center","89 Clarks Falls Rd","06359",41.458309,-71.802842
"06359","North Stonington","CT","Home Gym","not_available","06359",41.445657182648105,-71.89785762907555
"06360","Norwich","CT","Fitness Center - Mohegan Sun","Occum Crosssing","06382",41.49197153344152,-72.09726399247157
"06360","Norwich","CT","exercise explorers academy","82 Franklin St","06360",41.526100158691406,-72.07440185546875
"06360","Norwich","CT","Curves","154 Asylum St","06360",41.527228,-72.09265699999999
"06360","Norwich","CT","Work Out World","113 Salem Tpke","06360",41.5128397828793,-72.11654862560056
"06360","Norwich","CT","Eagleview Fitness Center","67 Sandy Desert Rd","06382",41.49192279189305,-72.09717143890524
"06360","Norwich","CT","Courtyard Marriott Fitness Center","not_available","06360",41.556375433959445,-72.10679990169145
"06360","Norwich","CT","Curves","96 Salem Tpke","06360",41.511343,-72.112473
"06360","Norwich","CT","Gym@Mohegan Sun","not_available","06382",41.49220029491957,-72.0883429723536
"06360","Norwich","CT","The Gym","394 N Main St","06360",41.53228,-72.056442
"06365","Preston","CT","Spying On Security In Front Of Lodge","Perimeter Loop","not_available",41.484219889608354,-72.06655767810224
"06370","Oakdale","CT","The Basement Gym","not_available","06370",41.47005429081492,-72.20045510215995
"06371","Old Lyme","CT","Anytime Fitness","50 Main St","06475",41.296289,-72.376437
"06371","Old Lyme","CT","Shoreline Health & Fitness","210 Main St","06475",41.29237798979623,-72.37438531622786
"06371","Old Lyme","CT","Mob Fit","not_available","06426",41.345302,-72.407398
"06371","Old Lyme","CT","Snap Fitness","125 Westbrook Rd","06426",41.33996833530988,-72.41441441897126
"06371","Old Lyme","CT","Upstairs Iron Works","310 Main St","06475",41.28931427001953,-72.37517547607422
"06371","Old Lyme","CT","Burbank Fitness","not_available","06357",41.30300013253296,-72.33149748496119
"06371","Old Lyme","CT","Snap Fitness","Halls road","06371",41.323211,-72.335142
"06371","Old Lyme","CT","Snap Fitness 24/7","not_available","06371",41.28493293333333,-72.34975121666666
"06371","Old Lyme","CT","Post And Main Exercise Emporium","7 N Main St","06475",41.297863,-72.37900400000001
"06375","Quaker Hill","CT","Pure Barre","903 Hartford Tpke Ste 27","06385",41.378838119601866,-72.14804924806737
"06375","Quaker Hill","CT","velocity sports performance","not_available","06385",41.39998964106786,-72.16209427157023
"06378","Stonington","CT","Fitnostics","not_available","06378",41.330704762482426,-71.92077820685827
"06379","Pawcatuck","CT","Skurv's Palace","not_available","02891",41.388906133333336,-71.82938183333333
"06379","Pawcatuck","CT","LenCo Fitness","19 High St Apt 2","02891",41.3782958984375,-71.83000183105469
"06382","Uncasville","CT","Anytime Fitness","2020 Norwich New London Tpke Unit 8","06382",41.47987,-72.10429
"06385","Waterford","CT","Matt Walker All Purpose Training","262 Boston Post Road","06385",41.34642028808594,-72.14431762695312
"06385","Waterford","CT","BBL","25-99 Kingfisher Way","06385",41.34985455,-72.13720318333333
"06385","Waterford","CT","Waterford Community Center - Fitness Room","24 Rope Ferry Rd, Waterford, CT 06385","06385",41.33830261230469,-72.13249969482422
"06401","Ansonia","CT","Griffin Hospital Employee Gym","Seymour Ave.","not_available",41.33622677915268,-73.09041467960039
"06401","Ansonia","CT","Valley YMCA","12 State St","06401",41.347251797567594,-73.07846631340755
"06401","Ansonia","CT","Cardiac Rehabilitation (Griffin Hospital)","350 Seymour Ave #2012","06418",41.3373908996582,-73.09030151367188
"06405","Branford","CT","GA Fitness","not_available","06512",41.30683143361404,-72.85242775925349
"06405","Branford","CT","Kickass","not_available","06471",41.298196827181656,-72.75305164911697
"06405","Branford","CT","StudioZ Fitness II","803 West Main St","not_available",41.27650082691974,-72.83813434826398
"06405","Branford","CT","In Shape Fitness","89 N Main St","06405",41.285041,-72.819196
"06405","Branford","CT","CT Personal Training","618 Main St","06405",41.27885055541992,-72.81768798828125
"06405","Branford","CT","Anchor Reef Clubhouse Gym","60 Maple St","06405",41.273064,-72.815614
"06405","Branford","CT","Sweat Training Studio","not_available","06405",41.304284,-72.769704
"06405","Branford","CT","Physical Fitness","1 Pinski Dr","06405",41.27563731666667,-72.85367296666666
"06405","Branford","CT","Soundview YMCA","628 E Main St","06405",41.30276456534932,-72.76016314439329
"06405","Branford","CT","Curves","869 W Main St","06405",41.276653,-72.839053
"06410","Cheshire","CT","Cheshire Fitness Zone","382 S Main St","06410",41.492674,-72.90373699999999
"06410","Cheshire","CT","Fit 30 Training","1072 S Main St","06410",41.47536849975586,-72.90582275390625
"06410","Cheshire","CT","Norm House (weight room)","not_available","06410",41.48953777546905,-72.90668347307977
"06410","Cheshire","CT","Horizon Personal Training & Nutrition","1701 Highland Ave","06410",41.549054999999996,-72.892184
"06410","Cheshire","CT","BPT Fitness Bergamo Martial Arts DBA (RJB Sports Training","272 Sandbank Road","06410",41.53545117,-72.90128077
"06410","Cheshire","CT","BE here Now Yoga & Fitness Studios","134 Elm St","06410",41.49755096435547,-72.90087127685547
"06410","Cheshire","CT","Cheshire Fitness for Women","132 Elm St","06410",41.49755859375,-72.9008560180664
"06410","Cheshire","CT","Fitness Xpress","1000-1088 S Main St","06410",41.476678942898765,-72.90576189379694
"06410","Cheshire","CT","Physique Plus","1303 Highland Ave","06410",41.53464127893516,-72.89459141021446
"06410","Cheshire","CT","The Studio - Pure Yoga","166 S Main St","06410",41.496725533617195,-72.9022479057312
"06410","Cheshire","CT","R 3 Fitness Coaching","1020 S Main St","06410",41.4766533,-72.905832
"06410","Cheshire","CT","Annalisa Studio","1320 Waterbury Rd","06410",41.52682113647461,-72.9322280883789
"06410","Cheshire","CT","BOG","Cheshire Street","06410",41.53856117217483,-72.86828114645122
"06410","Cheshire","CT","Cheshire Community YMCA","961/967 South Main St","06410",41.479091214833566,-72.90681553074411
"06410","Cheshire","CT","3E Crossfit","1701 Highland Ave #3","06410",41.54889678955078,-72.89216613769531
"06410","Cheshire","CT","Cheshire Crossfit","360 Sandbank Rd","06410",41.53641128540039,-72.90258026123047
"06410","Cheshire","CT","PTN Fitness & Spas","1029 S Main St","06410",41.476037,-72.907248
"06410","Cheshire","CT","Bergamo's Personal Training and  Martial Arts","460 W Main St","06410",41.507727,-72.911589
"06412","Chester","CT","Anytime Fitness","190 Main St","06417",41.3851713,-72.437554
"06412","Chester","CT","Cobb Fitness","not_available","06417",41.376490760834564,-72.44218338579684
"06413","Clinton","CT","Madison Racquet and Swim Club","36 Scotland Rd","06443",41.28532,-72.58298
"06413","Clinton","CT","Madison Town Gym","Campus Drive","06443",41.29642465652831,-72.57501535834706
"06413","Clinton","CT","The Barn","32 Old Nod Rd","06413",41.292609999999996,-72.54775
"06413","Clinton","CT","Funktion fitness","141 W Main St","06413",41.277908000000004,-72.541393
"06413","Clinton","CT","Snap Fitness","266 E Main St","06413",41.270666795714845,-72.50220431458933
"06415","Colchester","CT","Anytime Fitness","493 Westchester Rd","06415",41.54688,-72.41161
"06415","Colchester","CT","Banner Total Fitness","1 Banner Rd","06469",41.516944885253906,-72.46351623535156
"06416","Cromwell","CT","Anytime Fitness","51 Shunpike Rd Unit 51-27","06416",41.60605,-72.67836
"06416","Cromwell","CT","WOW! Fitness","20 Sebethe Dr","06416",41.608227762558805,-72.70668675355701
"06416","Cromwell","CT","Innovative Fitness & Wellness","20 Tuttle Pl","06457",41.594644,-72.680296
"06416","Cromwell","CT","Madison At Chestnut Gym","Town conlony","06457",41.59147819775122,-72.70309783152223
"06416","Cromwell","CT","Accelerated Fitness Cromwell","77 Berlin Rd","06416",41.601914388223925,-72.69294844783884
"06416","Cromwell","CT","elite fitness","199 Shunpike Rd","06416",41.62713537686401,-72.67674184850016
"06416","Cromwell","CT","Northwoods Gym","1101-1119 Town Ridge","06457",41.592183512569896,-72.70684989368327
"06416","Cromwell","CT","New England Athletic Club","6 Progress Dr #1","06416",41.613953415650805,-72.71052605605456
"06418","Derby","CT","The Edge Fitness Club","600 New Haven Ave","06418",41.313557892524905,-73.0557129558544
"06418","Derby","CT","Feel Good Fitness","140 Bridgeport Ave","06484",41.309661,-73.097815
"06418","Derby","CT","Gym","Wall Street","06484",41.31587,-73.095455
"06419","Killingworth","CT","Anytime Fitness","492-508 Old Toll Rd","06443",41.35951,-72.63613
"06420","Salem","CT","Anytime Fitness","24 Hartford Rd","06420",41.478702545166016,-72.26604461669922
"06422","Durham","CT","Core Club","Main Street","06422",41.484684284840206,-72.68212349352825
"06422","Durham","CT","Gym","not_available","06422",41.490018,-72.697227
"06423","East Haddam","CT","Home gym","not_available","06423",41.46293258666992,-72.38047790527344
"06423","East Haddam","CT","CrossFit High Order","7 Matthews Dr Unit 3","06423",41.46165572095874,-72.44472742080688
"06424","East Hampton","CT","CrossFit Ironworks","70 Killingworth Rd","06441",41.491746,-72.558059
"06424","East Hampton","CT","Bodyworks","3 E Hampton Rd","06447",41.630218505859375,-72.45935821533203
"06424","East Hampton","CT","Goff House","Barton Hill Rd","06424",41.57531050589298,-72.50311396339418
"06424","East Hampton","CT","Personal Training Works","not_available","06424",41.5761,-72.5093
"06437","Guilford","CT","Orangetheory Fitness","1059 Boston Post Rd","06437",41.28798557061974,-72.6848480621032
"06437","Guilford","CT","e~fitness","33 Water St","06437",41.280941009521484,-72.68328094482422
"06437","Guilford","CT","Core of Guilford","1795 Boston Post Rd, Guilford, CT 06437","06437",41.29861068725586,-72.7054672241211
"06437","Guilford","CT","Nutmeg Twisters","1 Shoreline Dr","06437",41.280391693115234,-72.65612030029297
"06437","Guilford","CT","GHS Weight Room","605 New England Rd","06437",41.312232971191406,-72.71210479736328
"06437","Guilford","CT","Pure Barre","1919 Boston Post Rd Ste 204","06437",41.30068588256836,-72.7081069946289
"06437","Guilford","CT","Quest Fitness LLC","1795 Boston Post Rd 5A","06437",41.29839964878194,-72.7055216545927
"06437","Guilford","CT","Guilford CrossFit LLC","387 Soundview Rd","06437",41.28015047650801,-72.65856823540248
"06437","Guilford","CT","Insanity Asylum Gym","not_available","06437",41.3328835594426,-72.69811539549934
"06437","Guilford","CT","Rob's Cardio Room","32 Woodland Dr","06472",41.419654846191406,-72.74652862548828
"06443","Madison","CT","The Basement","not_available","06443",41.298398,-72.609841
"06443","Madison","CT","Linda Keating Personal Training","170 Fort Path Rd, Madison, CT 06443","06443",41.28354263305664,-72.62004089355469
"06450","Meriden","CT","The Edge Fitness Club","533 S Broad St","06450",41.5096626,-72.807373
"06450","Meriden","CT","Planet Fitness","454 S Broad St","06450",41.51030615916052,-72.80805649377467
"06450","Meriden","CT","Midstate Fitness Center","not_available","06450",41.54968607018638,-72.79951603814149
"06450","Meriden","CT","Fire House Gym (61 Pratt St )","61 Pratt St","06450",41.53809356689453,-72.7985610961914
"06450","Meriden","CT","Hawthorn Suites Gym","1151 E Main St","06450",41.5251579284668,-72.76526641845703
"06451","Meriden","CT","sassy's fitness center","not_available","06451",41.534488677978516,-72.84100341796875
"06455","Middlefield","CT","Knoll Crest Fitness And Pool Center","165-307 George St","06457",41.54786624767414,-72.69207092215686
"06455","Middlefield","CT","Betty's Treadmill Of Death","100-198 Meriden Rd","06455",41.5464457,-72.70661235
"06457","Middletown","CT","Middlesex YMCA","99 Union Street","06457",41.55670644411821,-72.64685706412263
"06457","Middletown","CT","CrossFit Religion","180 Johnson St","06457",41.572599804188485,-72.6590863220091
"06457","Middletown","CT","Snap Fitness","336 Marlborough St","06480",41.56902585756316,-72.62693395379573
"06457","Middletown","CT","balls","Dora Dr, Middletown, CT 06457","06457",41.539252642705215,-72.65827231931023
"06457","Middletown","CT","CHC Gym","675 Main Street","06457",41.565025329589844,-72.65289306640625
"06457","Middletown","CT","Wow Fitness","840 Washington St","06457",41.55576047382074,-72.68199016995602
"06457","Middletown","CT","Braga Fitness Center","Silver street","06457",41.55297650963866,-72.63523311182944
"06457","Middletown","CT","Club 24 Concept Gyms","651 S Main St","06457",41.53853988647461,-72.65422821044922
"06460","Milford","CT","The Edge Fitness Club","125 Old Gate Ln","06460",41.229215620891,-73.02987963558195
"06460","Milford","CT","LA Fitness","1201 Boston Post Rd Ste 2090","06460",41.23672977327531,-73.03457391979931
"06460","Milford","CT","TITLE Boxing Club","169 Cherry Street","06460",41.22772146064996,-73.04894660529875
"06460","Milford","CT","Anytime Fitness","560 Boston Post Rd.","06477",41.25124,-73.01928
"06460","Milford","CT","TAG Personal Training","528B Boston Post Rd","06460",41.230411485074846,-73.06723594665527
"06460","Milford","CT","Spinnaker Crest gym","not_available","06460",41.21749352607027,-73.06313368783314
"06460","Milford","CT","Milford Body Therapy","318 New Haven Ave","06460",41.223569,-73.04345
"06460","Milford","CT","Fulton's Fitness","321 Boston Post Rd","06460",41.22352981567383,-73.07135772705078
"06460","Milford","CT","Oronoque Fitness Center","not_available","06614",41.24772982093405,-73.11102458447641
"06460","Milford","CT","Trilogy Of Fitness","88 Noble Ave","06460",41.21757125854492,-73.06301879882812
"06460","Milford","CT","Sikorsky Fitness Gym","6900 Main St","06614",41.25175444641595,-73.09858891038948
"06460","Milford","CT","Springhill gym","50 Rowe Ave","06461",41.211844,-73.090723
"06460","Milford","CT","The Fish Tank","Long Meadows Condo","06460",41.232327332339274,-72.99530638758053
"06460","Milford","CT","Trainer Studio Rentals","528 Boston Post Rd","06460",41.230416999999996,-73.067188
"06460","Milford","CT","Breakwater Workout Gym","Sniffens Lane","06615",41.169983,-73.114451
"06460","Milford","CT","Lawmen Weight Room","20 Lansdale Ave","06460",41.20351791381836,-73.08851623535156
"06460","Milford","CT","Bumpers Gym","daytona ave","not_available",41.203579902648926,-73.10476005077362
"06460","Milford","CT","Couture Fitness","354 Woodmont Rd","06460",41.23763403366036,-73.01449539021387
"06461","Milford","CT","RMAC Fitness","784 River Rd","06484",41.264655,-73.09374799999999
"06461","Milford","CT","inspire fitness","River Rd","not_available",41.26497736001909,-73.09094493522427
"06468","Monroe","CT","Trumbull YMCA","20 Trefoil Dr","06611",41.293816724531446,-73.2359197787506
"06468","Monroe","CT","The Gym","315 S Main St","06470",41.36327362060547,-73.2672348022461
"06468","Monroe","CT","That Which Is True","not_available","06468",41.33600616455078,-73.18082427978516
"06468","Monroe","CT","Crossfit Redzone","31 Pecks Ln","06470",41.38420104980469,-73.27877044677734
"06468","Monroe","CT","Crossfit Trumbull","100 Corporate Dr, Trumbull, CT 06611","06611",41.2948814763115,-73.2271970087184
"06468","Monroe","CT","Koko FitClub of Monroe","447 Monroe Tpke","06468",41.314396,-73.219356
"06468","Monroe","CT","New Road Fitness","126 Monroe Turnpike","06611",41.29456715032601,-73.22957396507263
"06468","Monroe","CT","Extreme Fitness Martial Arts","266 S Main St","06470",41.368940096621955,-73.27213857858384
"06470","Newtown","CT","NYA Sports & Fitness Center","4 Primrose St","06470",41.400172511681845,-73.28346012614622
"06470","Newtown","CT","Mother Russia Gym","Sugar Lane","06470",41.401845559256806,-73.31890313479808
"06470","Newtown","CT","Jeffs Gym","Riverside Road","06482",41.42716603613823,-73.27909592186177
"06470","Newtown","CT","Crossfit Hook'd","7 Turnberry Ln","06482",41.406836,-73.260007
"06471","North Branford","CT","iLoveKickboxing.com - North Branford, CT","5 Foxon Rd","06471",41.32538604736328,-72.82149505615234
"06471","North Branford","CT","iLoveKickboxing.com  - North Branford, CT","5 Foxon Road, Suite 10","06471",41.32581,-72.82145
"06471","North Branford","CT","CT Krav Maga & MMA","5 Foxon Rd Ste 10","06471",41.32581,-72.82145
"06472","Northford","CT","MB Sports Training","24 Fire Lite Pl","06472",41.39663314819336,-72.81352996826172
"06473","North Haven","CT","Healthtrax Fitness & Wellness","8 Devine St","06473",41.381255,-72.878918
"06473","North Haven","CT","North Haven Health & Racquet","100 Elm St","06473",41.38333123695808,-72.86466243804202
"06473","North Haven","CT","Ardenwood Gym","Avalon Haven Dr","06473",41.38838519620849,-72.87136816736859
"06473","North Haven","CT","Dogwoodhill Fitness Center","not_available","06518",41.39128206107299,-72.90648158718672
"06473","North Haven","CT","Core Fitness","42 State St","06473",41.389992,-72.872372
"06473","North Haven","CT","North Haven Crossfit","70 Old Broadway W","06473",41.3889439310915,-72.86851071433982
"06473","North Haven","CT","WellPoint Anthem","370 Bassett Rd","06473",41.41419356827089,-72.83320294492476
"06473","North Haven","CT","Gold's Gym","31 Bernhard Rd","06473",41.33455220223171,-72.87484239885737
"06473","North Haven","CT","CrossFit HCC - Infantry Athletics","338 State St","06473",41.3699513446875,-72.88733888719447
"06473","North Haven","CT","Results Plus Fitness, LLC","3013 Dixwell Ave","06518",41.38297381379712,-72.89985537528992
"06473","North Haven","CT","Covidien vitality center","not_available","06473",41.337626,-72.869528
"06473","North Haven","CT","CrossFit Zenith","2 Toelles Rd Unit 14","06492",41.430113306428325,-72.83808445017463
"06477","Orange","CT","Planet Fitness Orange","400 Boston Post Rd","06477",41.259840999999994,-73.008872
"06477","Orange","CT","Fighting Fitness Performance Center","not_available","06477",41.262217,-73.008059
"06477","Orange","CT","Health Care University","27 Waterview Dr","06484",41.29521179199219,-73.08319854736328
"06477","Orange","CT","Diesel Gym.","not_available","06484",41.29283,-73.080072
"06478","Oxford","CT","Ascension Performance","106 Willenbrock Rd","06478",41.46515,-73.146635
"06478","Oxford","CT","Peak Fitness","1 Klarides Village Dr","06483",41.397291922450336,-73.08441392130655
"06478","Oxford","CT","Oxford High School Gym","not_available","06478",41.38274838425496,-73.13727416806255
"06479","Plantsville","CT","Commence Fitness Personal Training and Massage Therapy","1783 Meriden-Waterbury Turnpike","06479",41.5645258,-72.90660771
"06479","Plantsville","CT","Rugged Fitness","1156 Meriden-Waterbury Tpke","06479",41.56415118576318,-72.88617610931396
"06482","Sandy Hook","CT","The Bittman Fitness Center","not_available","06482",41.413149001561514,-73.24712057495985
"06483","Seymour","CT","GDR Fitness","26 Dauria Dr","06483",41.362979888916016,-73.10782623291016
"06483","Seymour","CT","My Treadmill","not_available","06483",41.380433460173336,-73.07296167204692
"06484","Shelton","CT","Just Tumble","405 Bridgeport Ave","06484",41.294356,-73.111313
"06484","Shelton","CT","The Edge Fitness Club","862 Bridgeport Ave","06484",41.2646713,-73.1303722
"06484","Shelton","CT","FMC Gym","1 Far Mill Xing","06484",41.27363967895508,-73.11515808105469
"06484","Shelton","CT","iLoveKickboxing - Shelton, CT","702 Bridgeport Avenue","06484",41.275366,-73.122471
"06484","Shelton","CT","PhysicallyFit","702 Bridgeport Ave","06484",41.27580290289746,-73.12227395209383
"06484","Shelton","CT","Community Center Fitness Room","41 Church St","06484",41.29286575317383,-73.14684295654297
"06484","Shelton","CT","Satellite Fitness Center","2 Enterprise Dr","06484",41.2774772644043,-73.12520599365234
"06484","Shelton","CT","The Fitness Edge","Bridgeport Ave","06484",41.28755139431258,-73.10383783953925
"06484","Shelton","CT","Bio-Dynamix","3 Corporate Dr","06484",41.27738587007081,-73.13065818072306
"06484","Shelton","CT","Scinto Gym","100 Beard Sawmill Rd","06484",41.27735137939453,-73.11264038085938
"06484","Shelton","CT","Corporate Gym","4 Corporate Dr","06484",41.27724595012599,-73.13063150907858
"06484","Shelton","CT","F45 Training Shelton","801 Bridgeport Avenue","06484",41.27008795,-73.1291596
"06488","Southbury","CT","The Fitness Junction","77 Main St N Unit 103","06488",41.4787483215332,-73.21366119384766
"06488","Southbury","CT","Curves Of Southbury","Main Street","not_available",41.463579,-73.233057
"06488","Southbury","CT","CrossFit Strongtown","1432 Old Waterbury Road","06488",41.49306918,-73.16694729
"06488","Southbury","CT","Catalyst Health Fitness","100 Main St N #22","06488",41.479363,-73.210337
"06489","Southington","CT","YMCA","29 High St","06489",41.603435335973955,-72.87892545515496
"06489","Southington","CT","Anytime Fitness","825 Queen Street","06489",41.64006,-72.871738
"06489","Southington","CT","Cardio Express","342 Queen St","06489",41.62610275398097,-72.87512837195484
"06489","Southington","CT","Villari's Martial Arts Centers - Southington CT","405 Queen St","06489",41.628071882944845,-72.8730711362457
"06489","Southington","CT","Naked Cardio express","Berlin Ave, Southington, CT 06489","06489",41.60014333814705,-72.87574103905759
"06489","Southington","CT","Foresi's Individualized Training and Sports Performance Center","122 Spring St, Unit D4 & D5:  around back","06489",41.633672,-72.878161
"06489","Southington","CT","Crossfit Southington","37 W Center St","06489",41.60127315111169,-72.88225444493699
"06489","Southington","CT","iLoveKickboxing - Southington, CT","99 Executive Boulevard","06489",41.613784,-72.900505
"06489","Southington","CT","COCC Gym","100 Executive Blvd","06489",41.617254014649276,-72.89992308733191
"06489","Southington","CT","Gym","Newell Street","06489",41.64196279630096,-72.87569488779084
"06492","Wallingford","CT","Gelb Track","333 Christian St","06492",41.45529586821001,-72.8097087285996
"06492","Wallingford","CT","Tommy's Tanning","857 N Main Street Ext","06492",41.4823070506327,-72.80796865986996
"06492","Wallingford","CT","Club24","920 S Colony Rd, Wallingford, CT 06492","06492",41.4358081602738,-72.83274893890454
"06492","Wallingford","CT","YMCA West","8 N Turnpike Rd","06492",41.467924039169624,-72.83175252354643
"06492","Wallingford","CT","Quest Fitness Center","3 Sterling Dr","06492",41.484932983369085,-72.79457107148534
"06492","Wallingford","CT","Body Temple Fitness","20 N Plains Industrial Rd","06492",41.485578,-72.812424
"06492","Wallingford","CT","Faulkner Physical Therapy","101 N Plains Industrial Rd","06492",41.4798440586274,-72.82079933231836
"06492","Wallingford","CT","Maximum Fitness","47 Capital Dr","06492",41.4771614074707,-72.81729125976562
"06492","Wallingford","CT","Courtyard Marriott Gym","not_available","06492",41.48267825299462,-72.77124369109035
"06492","Wallingford","CT","Wallingford YMCA","81 S Elm St","06492",41.45130048668654,-72.8168382624155
"06492","Wallingford","CT","Club 24 Concept Gyms","920 South Colony Road","06492",41.43513488769531,-72.83222961425781
"06498","Westbrook","CT","Valley-Shore YMCA","201 Spencer Plains Rd","06498",41.29408223490174,-72.43433571425818
"06498","Westbrook","CT","Northeast Fitness Factory","172 Boston Post Rd","06498",41.2752936478779,-72.4816155330324
"06510","New Haven","CT","Yale University - Grace Hopper College","189 Elm St","06511",41.30991231508543,-72.92716979732033
"06510","New Haven","CT","Zorreando","not_available","06511",41.310509,-72.929089
"06510","New Haven","CT","New Haven Fitness","900 Chapel St","06511",41.30642994529483,-72.9264855543182
"06510","New Haven","CT","Center Court Gym","116 Court St","06511",41.30595016479492,-72.92282104492188
"06510","New Haven","CT","Gym","79 olive street","06511",41.304862223138294,-72.92071124184082
"06510","New Haven","CT","YNNH LivingWell Fitness Center","48 York St","06511",41.3047981262207,-72.9344711303711
"06510","New Haven","CT","Armstrong Fitness Center","477 Elm St","06511",41.313358306884766,-72.93690490722656
"06510","New Haven","CT","The Gym at The Study","1157 Chapel St","06511",41.308990478515625,-72.93283081054688
"06510","New Haven","CT","MPWRHouse","201 Crown St","06510",41.305511474609375,-72.92820739746094
"06510","New Haven","CT","Elm City YMCA","900 Chapel St","not_available",41.306128,-72.926624
"06510","New Haven","CT","Silliman Gym","505 College St","06511",41.31119155883789,-72.925537109375
"06510","New Haven","CT","The Union Gym","205 Church St Fl 2","06510",41.308132581172366,-72.92344517663854
"06510","New Haven","CT","Class of 1958 Fitness Center","367 Cedar St","06510",41.304611969479936,-72.9342224147184
"06511","New Haven","CT","Farnum neighborhood house  inc","162 Fillmore St, New Haven, CT 06513","06513",41.313257,-72.89958
"06511","New Haven","CT","Boys and Girls Club of America-New Haven","253 Columbus Ave","06519",41.298208236694336,-72.9334956407547
"06511","New Haven","CT","R.E.S Professional Fitness & Martial Arts LLC.","319 Peck St. Building 2, Studio H","06513",41.3164176940918,-72.89978790283203
"06511","New Haven","CT","Fitness Center, Southern Connecticut State University","501 Crescent St","06515",41.33237897674815,-72.9485007218024
"06511","New Haven","CT","Albertus Magnus College - Cosgrove Marcus Messer Athletic Center","700 Prospect St","06511",41.332637786865234,-72.92295837402344
"06511","New Haven","CT","Crossfit New Haven","1175 State St Ste 201","06513",41.316882868264535,-72.90280066218263
"06511","New Haven","CT","New Haven Strength and Fitness","1175 State St","06511",41.316280364990234,-72.90291595458984
"06511","New Haven","CT","Crossfit Science Park","310 Winchester Ave","06511",41.3224223,-72.9288108
"06511","New Haven","CT","The Fitness Haven","938 State St","06511",41.315134,-72.91090799999999
"06511","New Haven","CT","Boxing In Faith Gym","Grand ave","not_available",41.30865733330836,-72.89269526304687
"06511","New Haven","CT","Powerhouse Wrestling Gym LLC","33 Chestnut St","06511",41.30174756813343,-72.91556660439494
"06511","New Haven","CT","Long Wharf Maritime - Fitness Center","555 Long Wharf Dr Lowr Level","06511",41.297706604003906,-72.91206359863281
"06512","East Haven","CT","9Round Fitness","230 Main Street","06512",41.27740478515625,-72.87126159667969
"06512","East Haven","CT","Old East haven high School gym","Tyler Street","not_available",41.27454893030748,-72.87660060478844
"06512","East Haven","CT","SLIS Gym","120 Woodward Ave","06512",41.27252960205078,-72.90074157714844
"06512","East Haven","CT","Planet Fitness","Rt. 1","06405",41.279377832582476,-72.88775160608881
"06514","Hamden","CT","Orangetheory Fitness","2335 Dixwell Ave","06514",41.37268829345703,-72.91596984863281
"06514","Hamden","CT","LA Fitness","46 Skiff St","06517",41.37502008681688,-72.91375734248767
"06514","Hamden","CT","Rascals Gym","1647 Whitney Ave","06517",41.359617,-72.909324
"06514","Hamden","CT","Elm City Crossfit","105 Leeder Hill Dr","06517",41.3445398684535,-72.93251769372061
"06514","Hamden","CT","Beckerman Athletic Center","225 Skiff St","06517",41.37065616574507,-72.91129642325167
"06514","Hamden","CT","Elite Fitness","23 Raccio Park Rd","06514",41.39208729859825,-72.91758217468468
"06514","Hamden","CT","True Athletics - CrossFit True","850 Sherman Ave","06514",41.40009810546012,-72.91493039985764
"06514","Hamden","CT","Spinning Studio","350 Rocky Top Rd","06518",41.41497022,-72.91299029999999
"06514","Hamden","CT","The Edge Fitness Club","2300 Dixwell Ave","06514",41.371829085946196,-72.92022047433659
"06515","New Haven","CT","Jodi Fit","14 Selden St","06525",41.339308,-72.982576
"06515","New Haven","CT","Fountain Street Fitness Center","not_available","06515",41.32661340080872,-72.96707429738699
"06515","New Haven","CT","Brown Fitness","19 Hazel Ter","06525",41.33955764770508,-72.98297882080078
"06516","West Haven","CT","Whcdc Gymnasium","201 Noble St","06516",41.26220703125,-72.94466400146484
"06516","West Haven","CT","The Shop","not_available","06516",41.2619743347168,-72.95013427734375
"06516","West Haven","CT","The Gym","Sawmill Rd","not_available",41.27286654688435,-72.96432933072973
"06516","West Haven","CT","Armstrong","West Clark st","06516",41.27297,-72.9617
"06516","West Haven","CT","Fighting Arts Academy CT","16 Hamilton St","06516",41.28601837158203,-72.97429656982422
"06516","West Haven","CT","The Dojo","239 York St","06516",41.275692,-72.962062
"06524","Bethany","CT","FD Gym","not_available","06524",41.4321403503418,-72.98728942871094
"06524","Bethany","CT","CrossFit Bethany","28 Munson Rd","06524",41.44044497492185,-72.9882374076658
"06525","Woodbridge","CT","Jewish Community Center","360 Amity Rd","06525",41.35142632598292,-72.99163723438483
"06525","Woodbridge","CT","The Deathscape","not_available","06525",41.352027633360755,-72.9926367085558
"06604","Bridgeport","CT","The Edge Fitness Club","500 Kings Highway Cutoff","06824",41.159877,-73.242394
"06604","Bridgeport","CT","Orangetheory Fitness","525 Tunxis Hill Cut Off","06825",41.17801414254358,-73.24093351139797
"06604","Bridgeport","CT","75 Stone Ridge Way Gym","75 Stone Ridge Way","06824",41.161878,-73.23705799999999
"06604","Bridgeport","CT","SOSF Crossfit and Chiropractic","27 Halley Ct","06825",41.166562,-73.2294312
"06604","Bridgeport","CT","Ash Creek Fitness","3370 Fairfield Ave","06605",41.15554428100586,-73.23527526855469
"06604","Bridgeport","CT","The Little Gym","338 Commerce Dr","06825",41.166491,-73.229393
"06604","Bridgeport","CT","B.c.c Vna Building","1154 North Ave","06601",41.190833,-73.198623
"06604","Bridgeport","CT","The J Fitness","4200 Park Avenue","06604",41.21299047,-73.23075922
"06604","Bridgeport","CT","CrossFit KMK","264 Fairchild Ave","06825",41.17050552368164,-73.22886657714844
"06604","Bridgeport","CT","Pulaski Strength","123 Glenwood Ave","06610",41.2057072,-73.1882462
"06604","Bridgeport","CT","The Fairfield Edge Fitness Club","1100 Kings Hwy E","06825",41.16644287109375,-73.23474884033203
"06604","Bridgeport","CT","Hybrid Athletics","1434 State St","06605",41.170206,-73.210607
"06607","Bridgeport","CT","United Athletic Center","1300-1498 Honeyspot Rd","06615",41.16938,-73.154539
"06610","Bridgeport","CT","Miami Jim's","not_available","06824",41.19437709091782,-73.16948988219504
"06611","Trumbull","CT","The Edge Fitness Club","41 Monroe Tpke","06611",41.29062471606227,-73.23598543989851
"06611","Trumbull","CT","LA Fitness","5065 Main St","06611",41.23100352745772,-73.22436969900811
"06611","Trumbull","CT","Triple Play","25 Lindeman Dr","06611",41.231012,-73.197869
"06611","Trumbull","CT","Marriott Trumbull Gym","not_available","06611",41.235764582692525,-73.14999735725577
"06611","Trumbull","CT","Sports Zone","29 Trefoil Dr","06611",41.293427474885256,-73.23824579236042
"06611","Trumbull","CT","Snap Fitness","345 Hawley Ln","06614",41.232189763264195,-73.14924800604945
"06611","Trumbull","CT","United Healthcare Gym","48 Monroe Tpke","06611",41.29031,-73.233373
"06612","Easton","CT","Europeam Gym Manizales","Calle 58 # 23-09","not_available",41.292110443115234,-73.34343719482422
"06612","Easton","CT","SHU - Pitt Center","5151 Park Ave","06825",41.21972177879892,-73.24479885825217
"06614","Stratford","CT","Lala land","College st","06614",41.193108,-73.148279
"06614","Stratford","CT","LA Fitness","411 Barnum Avenue Cutoff","06614",41.197385908888755,-73.12368413943291
"06614","Stratford","CT","Crunch Stratford","1100 Barnum Ave","06614",41.199301,-73.133941
"06615","Stratford","CT","Aspire Fitness","99 Beardsley Ave","06615",41.188018,-73.134229
"06702","Waterbury","CT","YMCA","136 W Main St","06702",41.55792771137802,-73.04213902531724
"06702","Waterbury","CT","Exercise Room","not_available","06702",41.55282974243164,-73.04136657714844
"06702","Waterbury","CT","Courtyard Mariott Gym","not_available","06706",41.55363386266947,-73.03750403357377
"06702","Waterbury","CT","Girls Inc","1-59 Park Pl","06710",41.557968,-73.04299
"06704","Waterbury","CT","Planet Fitness","855 Lakewood Rd","06704",41.57110911136057,-73.00553799781859
"06704","Waterbury","CT","Crunch Fitness - Waterbury","939 Wolcott St","06705",41.567243,-73.00810369999999
"06704","Waterbury","CT","Mels Gym","ledgeside","06708",41.55580222606659,-73.05879235267639
"06704","Waterbury","CT","Waterbury Fitness","not_available","06705",41.569815,-73.005467
"06704","Waterbury","CT","Norm's Gym","650 Wolcott St","06705",41.55821788228762,-73.01079915232401
"06704","Waterbury","CT","Anytime Fitness","152 Chase Ave","06704",41.58215,-73.03072
"06705","Waterbury","CT","CrossFit Reckoning","1215 Meriden Rd","06705",41.5543118786802,-72.97803077948785
"06706","Waterbury","CT","Zumba Zone","Ledgeside","06708",41.549361,-73.045563
"06706","Waterbury","CT","Poundstone Performance Center","1818 Baldwin St","06706",41.528725509423595,-73.03815924218566
"06708","Waterbury","CT","Catalyst Health Fitness","930 Straits Tpke","06762",41.534974757398956,-73.08589474151408
"06708","Waterbury","CT","Crossfit Reload","27 Main St","06779",41.586370707676885,-73.083567296521
"06708","Waterbury","CT","Blast Gym","not_available","06708",41.534507628832024,-73.08571627613827
"06708","Waterbury","CT","Fitness at the Edge","1625 Straits Tpke","06762",41.554505,-73.093466
"06712","Prospect","CT","Daytona Tanning","50 Waterbury Road, Rt 69","06712",41.510794,-72.982585
"06712","Prospect","CT","The Gym at The Regency at Prospect","White Oak Dr","not_available",41.52616882324219,-72.97868347167969
"06712","Prospect","CT","Zumba With Tami","not_available","06712",41.510248,-72.981684
"06716","Wolcott","CT","Total Fitness","2 North St","06716",41.63574278354645,-72.96420693397522
"06716","Wolcott","CT","ABS Fitness","701 Wolcott Rd","06716",41.600389,-72.986278
"06755","Gaylordsville","CT","PumpUup!","not_available","06776",41.627174674792116,-73.46811200948756
"06757","Kent","CT","Gymnasium","not_available","06757",41.71422,-73.4864338
"06757","Kent","CT","W Rhythm Fitness and Wellness Studio","21 Muller Rd","06757",41.744207,-73.445725
"06759","Litchfield","CT","Zampaglione's Gym","12 Norfolk Rd","06759",41.75811004638672,-73.18778991699219
"06759","Litchfield","CT","Planet Fitness","681 Main St","06790",41.815509,-73.123868
"06759","Litchfield","CT","Karkut's Bar","142 Smith St","06790",41.8044511893843,-73.13600642002383
"06762","Middlebury","CT","Westover School","1237 Whittemore Rd","06762",41.526061999999996,-73.12278
"06762","Middlebury","CT","Ridgewood Gym","not_available","06762",41.51777426496047,-73.13706671886632
"06762","Middlebury","CT","The Club","727 Rubber Ave","06770",41.49398055141563,-73.07656280101155
"06762","Middlebury","CT","Timex Gym","555 Christian Rd","06762",41.513666,-73.149334
"06770","Naugatuck","CT","Nick's Gym - @Horrizon","151 Andrew Ave, Naugatuck, CT 06770","06770",41.48615646362305,-73.0667724609375
"06770","Naugatuck","CT","Thunder Sports & Fitness","628 New Haven Rd #4","06770",41.477970123291016,-73.046630859375
"06770","Naugatuck","CT","Naugatuck YMCA","284 Church St","06770",41.49200707615857,-73.05498024243096
"06770","Naugatuck","CT","Home Gym","Celentano Dr","06770",41.487719417968094,-73.02527705385593
"06776","New Milford","CT","Club 24","164 Danbury Rd","06776",41.5505751330016,-73.42064657264196
"06776","New Milford","CT","World Champion Taekwondo","28 CT-39","06812",41.5256311,-73.4806528
"06776","New Milford","CT","Nautilus Fitness Center","South End Plaza","not_available",41.534708,-73.425411
"06776","New Milford","CT","CROSSFIT BROOKFIELD","1087 Federal Rd Ste 7","06804",41.500277000000004,-73.416888
"06776","New Milford","CT","Phys-Ed","Still River Rd","not_available",41.538441419594136,-73.42079171420204
"06776","New Milford","CT","Felice Bartolomeo Weight Room","1 Synder Circle","06776",41.589347,-73.413547
"06776","New Milford","CT","Boys club","17 East Shore Road","06777",41.67689514160156,-73.35588073730469
"06779","Oakville","CT","World Gym","900 Main St","06779",41.59091081903051,-73.0966442367706
"06779","Oakville","CT","Planet Fitness","not_available","06779",41.60122856764782,-73.08403422539777
"06790","Torrington","CT","Villari's Martial Arts Centers - Torrington CT","915 E Main St","06790",41.8124169,-73.1016249
"06790","Torrington","CT","Club:24 Yoga","not_available","06790",41.813037,-73.098936
"06790","Torrington","CT","Energy Fitness","1000 E Main St","06790",41.81276900476973,-73.09946061211794
"06795","Watertown","CT","Get Fit Plus","not_available","06795",41.603339289537494,-73.11434471904326
"06798","Woodbury","CT","Lunge Fitness LLC","11 S Pomeraug Ave","06789",41.544889800900215,-73.20892288676987
"06801","Bethel","CT","Orangetheory Fitness","7 Eagle Rd","06810",41.41104132683784,-73.4157251160623
"06801","Bethel","CT","Teixeira MMA & Fitness","not_available","06801",41.416534,-73.390828
"06801","Bethel","CT","Teixeira MMA & Fitness","32 Stony Hill Rd","06801",41.41701,-73.39085
"06801","Bethel","CT","Training for Warriors Connecticut","11 Stony Hill Rd","06801",41.4161098,-73.400596
"06801","Bethel","CT","Pitney Bowes Danbury Fitness Center","not_available","06810",41.41337549081697,-73.417310309515
"06801","Bethel","CT","CT Impact Volleyball","7 Francis J Clarke Cir","06801",41.35933303833008,-73.42296600341797
"06801","Bethel","CT","Snap Fitness Bethel-Downtown","9 Durant Ave","06801",41.373971719289436,-73.41523541964341
"06801","Bethel","CT","Triumph Personal Training","2 Garella Rd","06801",41.41767,-73.39885
"06801","Bethel","CT","Avalon Danbury Gym","2 Mountainview Ter","06810",41.415563,-73.410263
"06801","Bethel","CT","Snap Fitness","Durant Ave","not_available",41.37399435513615,-73.41519701525479
"06801","Bethel","CT","Snap Fitness","83 Stony Hill Rd Unit 106","06801",41.41302386036649,-73.37898316476326
"06801","Bethel","CT","Max's Best Bootcamp","5 Shelter Rock Rd Ste 2 Bldg D","06810",41.39050036889544,-73.43272783669525
"06801","Bethel","CT","Crossfit203 Gym","16 Beaver Brook Rd","06810",41.40144321289427,-73.43111611979013
"06801","Bethel","CT","Sport & Wellness","17-27 Starr Rd","06810",41.41634770628276,-73.42537849531409
"06804","Brookfield","CT","Pro Body Fitness","355 Federal Rd (Del Mar Drive)","not_available",41.4526252746582,-73.4015121459961
"06804","Brookfield","CT","Energetic Kinetic Fitness LLC","34 Del Mar Dr","06804",41.45125,-73.40048
"06804","Brookfield","CT","Fitness Showrooms Superstore LLC","3 Federal Road","06804",41.43063,-73.41495
"06804","Brookfield","CT","YMCA - Greenknoll / Brookfield","2 Huckleberry Hill Rd","06804",41.452992280841734,-73.40340730161965
"06804","Brookfield","CT","Zumba Fuzion","Federal Rd","not_available",41.46114,-73.406382
"06804","Brookfield","CT","Forro Academy @ PROBody Shop Fitness","14 Del Mar Dr","06804",41.452552795410156,-73.40101623535156
"06804","Brookfield","CT","Club 24 Concept Gyms","559 Federal Rd","06804",41.46533,-73.40834
"06804","Brookfield","CT","Formfitting Fitness","265 Federal Rd","06804",41.44639205932617,-73.40332794189453
"06804","Brookfield","CT","Spirit Evolution","558 Federal Rd","06804",41.464908599853516,-73.4104232788086
"06804","Brookfield","CT","The Gym","not_available","06804",41.488604125261006,-73.40668023221828
"06807","Cos Cob","CT","Tumble Bugs","not_available","06878",41.040552586228905,-73.58737170550759
"06807","Cos Cob","CT","The Exercise Coach® of Cos Cob","237 East Putnam Ave.","06807",41.038623421125266,-73.59805526138702
"06807","Cos Cob","CT","Biosport Technologies","76 Valley Rd","06807",41.0436393705809,-73.59186783465292
"06807","Cos Cob","CT","Fit One Personal Training","11 Chapel Ln","06878",41.03301239013672,-73.58921813964844
"06807","Cos Cob","CT","The Fitness Edge","not_available","06902",41.04142780604595,-73.59237962101741
"06810","Danbury","CT","Crowne Point Gym","50 Saw Mill Rd","06810",41.37983703613281,-73.5350112915039
"06810","Danbury","CT","Boehringer Ingelheim - Fitness Center","Old Ridgebury rd","06877",41.373581,-73.512637
"06810","Danbury","CT","Crossfit Danbury","Kenosia","06810",41.380080756236055,-73.49561501545159
"06810","Danbury","CT","New York Sports Clubs","38 Mill Plain Rd","06811",41.38867420007472,-73.49835276603699
"06810","Danbury","CT","Take One Cheer Academy","not_available","06811",41.379701626906346,-73.49356431468475
"06810","Danbury","CT","Boughton Street YMCA","12 Boughton St","06810",41.39076648110613,-73.45018881385127
"06810","Danbury","CT","Fight TactiX Krav Maga & Fight Fitness,","47 West St Danbury,","06810",41.392635345458984,-73.45515441894531
"06810","Danbury","CT","Platinum Fitness","22 Kenosia Ave Ste 3","06810",41.380061,-73.495375
"06810","Danbury","CT","Snap Fitness","248A Main St","06810",41.39496612548828,-73.45340728759766
"06810","Danbury","CT","North County Lacrosse","36 Kenosia Ave","06810",41.37947082519531,-73.49417114257812
"06810","Danbury","CT","War Memorial Fitness Center","1 Memorial Dr","06810",41.385728118427416,-73.44364643096924
"06810","Danbury","CT","MJ Fitness","248B White St","06810",41.3990826,-73.4368511
"06812","New Fairfield","CT","Primetime Fitness","100 Rt. 37","06812",41.46767753542673,-73.48733425140381
"06820","Darien","CT","Equinox Darien","72 Heights Rd","06820",41.069949,-73.492532
"06820","Darien","CT","Crunch Fitness - Norwalk","770 Connecticut Ave","06854",41.09346214624255,-73.45227777957916
"06820","Darien","CT","The Bar Method","800 Post Road,","06820",41.078845,-73.468283
"06820","Darien","CT","Blue Streak Sports Training","80 Largo Dr","06907",41.091496,-73.515498
"06820","Darien","CT","WWE Gym","1241 E Main St","06902",41.059078032435856,-73.51033043135753
"06820","Darien","CT","Carozza Fitness / CrossFit Sound Beach","316 Courtland Ave","06906",41.067584000000004,-73.517517
"06820","Darien","CT","My Gym","7 Hyde St","06907",41.093788146972656,-73.51764678955078
"06820","Darien","CT","Fitness together","not_available","06820",41.06298258496445,-73.50968968859507
"06820","Darien","CT","Go Figure Studio - Darien","20 Grove St","06820",41.07571029663086,-73.47306823730469
"06820","Darien","CT","DoubleTree: Workout Facility","789 Connecticut Ave","06854",41.09158680551028,-73.45304403333762
"06820","Darien","CT","The Gym At River's Edge","85 Camp Ave","06907",41.09380568455267,-73.51593125206301
"06820","Darien","CT","NCC Gym","711-799 U.S. 1","06850",41.1001766439698,-73.45122864400706
"06820","Darien","CT","Power X Training","1078 Post Rd","06820",41.074613,-73.472292
"06820","Darien","CT","Pure Barre Darien","1958 Post Rd","06820",41.06040708032091,-73.48639676074788
"06820","Darien","CT","Parisi Speed School","72 Camp Ave","06907",41.09589385986328,-73.51560974121094
"06820","Darien","CT","Iron Resolve CrossFit","55 Crescent St","06906",41.06974167769173,-73.51801899830349
"06820","Darien","CT","New York Sports Club","1063 Hope St","06907",41.09472908288024,-73.5181344509946
"06820","Darien","CT","Gym Of Kenny","16 Morley Ln","06820",41.067102,-73.472427
"06820","Darien","CT","Joyride Cycling Studio","25 Old Kings Hwy N","06820",41.07965513120918,-73.46417491681801
"06824","Fairfield","CT","Equinox Southport","233 Old Post Rd","06890",41.1385423,-73.2867637
"06824","Fairfield","CT","Sportsplex@Fairfield","85 Mill Plain Rd","06824",41.14191699577148,-73.2668235091348
"06824","Fairfield","CT","Charged!","1275 Post Road","06824",41.1422004699707,-73.25408172607422
"06824","Fairfield","CT","JoyRide Indoor Cycling","1200 Post Rd E","06880",41.13799392294143,-73.32276900969782
"06824","Fairfield","CT","Sherpa","1555 Post Road East","06880",41.13871,-73.30963
"06824","Fairfield","CT","Crossfit Performance","85 Mill Plain Rd Ste G","06824",41.14174490835536,-73.2662725103629
"06824","Fairfield","CT","Slicktor's House","Long Lots Road","not_available",41.1477903906773,-73.31439473834281
"06824","Fairfield","CT","CYCLEBAR","85 Mill Plain Rd Ste C","06824",41.1419064,-73.2656456
"06824","Fairfield","CT","Bridgewater Gym","400 Nyala Farms Rd","06880",41.1229170702154,-73.32667733023281
"06824","Fairfield","CT","Studio 30","Post Rd East","06880",41.13849274780595,-73.30271738806826
"06824","Fairfield","CT","Gymnasium","70 North Ave","06880",41.154090881347656,-73.3313980102539
"06824","Fairfield","CT","Fairfield Sports Fitness Training","1499 Post Rd","06824",41.140804290771484,-73.25840759277344
"06824","Fairfield","CT","A Spiraling Body Studio","79 S Benson Rd","06824",41.14697265625,-73.24800872802734
"06824","Fairfield","CT","YMCA Front Desk","841 Old Post Rd","06824",41.139989,-73.251897
"06824","Fairfield","CT","Pure Barre Fairfield","1876 Black Rock Tpke","06825",41.1806975,-73.2475865
"06824","Fairfield","CT","F45 Training Fairfield USA","919 Post Rd","06824",41.145525,-73.250124
"06825","Fairfield","CT","Burn Boot Camp","1939 Black Rock Tpke","06825",41.17994,-73.24888
"06830","Greenwich","CT","YMCA of Greenwich","50 E Putnam Ave","06830",41.031972768345895,-73.62532486726106
"06830","Greenwich","CT","New York Sports Clubs","6 Liberty Way","06830",41.02860329935135,-73.62552063306799
"06830","Greenwich","CT","Boys & Girls Club of Greenwich","4 Horseneck Ln","06830",41.02029773906971,-73.6292134101569
"06830","Greenwich","CT","Gym at Greenwich Place Apartments","not_available","06830",41.013147131201784,-73.64899030925663
"06830","Greenwich","CT","GHS Fencing Gym","21 Hillside Rd","06830",41.03976,-73.610436
"06830","Greenwich","CT","Loyalty Fitness","100 Melrose Ave Ste 104","06830",41.020440420273665,-73.64078879356384
"06830","Greenwich","CT","Greenwich 24/7 Fitness","209 Bruce Park Ave","06830",41.02261734008789,-73.61937713623047
"06830","Greenwich","CT","Pure Barre","280 Railroad Ave","06830",41.02129364013672,-73.63062286376953
"06830","Greenwich","CT","AMFIT Greenwich","469 W Putnam Ave","06830",41.020136,-73.64331899999999
"06830","Greenwich","CT","Spirit Zone Too All-Star Cheerleading & Tumbling","222 Mill St","06830",41.00339066965779,-73.65719431771642
"06830","Greenwich","CT","10 minute trainer W/Tony","131 Hamilton Ave","06830",41.019437,-73.637934
"06830","Greenwich","CT","peak physique","15 hope street","not_available",41.050543,-73.616517
"06830","Greenwich","CT","Greenwich Crossfit","50 Holly Hill Ln, Greenwich, CT 06830, USA","06830",41.017403,-73.64596
"06830","Greenwich","CT","Peak 360","67 Holly Hill Ln","06830",41.0168571472168,-73.64592742919922
"06830","Greenwich","CT","Countdown Fitness","408 Greenwich Ave","06830",41.022122,-73.624425
"06830","Greenwich","CT","Pure Barre","280 Railroad Ave Ste 1","06830",41.02124115927087,-73.63068851521086
"06830","Greenwich","CT","Liberty All Star Cheer","mill st","06830",41.0033189,-73.65724
"06830","Greenwich","CT","YWCA - Greenwich","259 E Putnam Ave","06830",41.037649247639344,-73.61840509162627
"06830","Greenwich","CT","Mason Street Strength & Fitness","67 Mason Street","06830",41.030095,-73.624165
"06831","Greenwich","CT","Life Time Athletic","1 Westchester Park Dr","10604",41.02253,-73.721608
"06831","Greenwich","CT","Equinox Armonk","99 Business Park Drive","10504",41.120953,-73.70891
"06831","Greenwich","CT","Personal Training Institute","not_available","10573",41.01393349054839,-73.67117380816339
"06831","Greenwich","CT","THE GYM of Armonk","99 Business Park Dr","10504",41.120835,-73.70859899999999
"06831","Greenwich","CT","Red Oak Fitness","4 W Red Oak Ln","10604",41.0176872177298,-73.7239080345322
"06831","Greenwich","CT","Gatorade Fitness Center","700 Anderson Hill Rd","10577",41.03595009600922,-73.6919985511378
"06831","Greenwich","CT","Tudor Fitness Center","1275 King St","06831",41.074893951416016,-73.6998519897461
"06831","Greenwich","CT","A Replica of The Knicks Court In A Guy's Basement In CT","not_available","06831",41.10150922681235,-73.65764785126203
"06831","Greenwich","CT","TPT Systems Interval Training","480 Main St","10504",41.128509521484375,-73.71268463134766
"06831","Greenwich","CT","Renaissance Fitness Center","not_available","10604",41.017618,-73.718185
"06831","Greenwich","CT","Purchase MasterCard Fitness Center","2000 Purchase St","10577",41.02349553140695,-73.71439000507702
"06831","Greenwich","CT","IBM Gym","Old Post Rd","10504",41.108553,-73.722478
"06831","Greenwich","CT","Velocity Sports Performance","5 N Greenwich Rd","10504",41.124853,-73.697308
"06840","New Canaan","CT","Base Mint Gym","321 Lukes Wood Road","not_available",41.196257563776975,-73.51720255243532
"06840","New Canaan","CT","Oxygen Fitness","22 Pine St","06840",41.14537276279505,-73.49604632796789
"06840","New Canaan","CT","Infinity Fitness","70 Pine St","06840",41.1436941684335,-73.49766049501042
"06840","New Canaan","CT","Curves","69 Westchester Ave","10576",41.19014370034898,-73.55134980247426
"06840","New Canaan","CT","360 Fitness","45 Grove St","06840",41.144038800631186,-73.49947102228643
"06840","New Canaan","CT","Workout Room","Carter St.","06840",41.151977,-73.471516
"06840","New Canaan","CT","NC Mansion","not_available","06840",41.143715,-73.48794
"06840","New Canaan","CT","Fitness Together","33 East Ave","06840",41.14746639013378,-73.49073343363509
"06840","New Canaan","CT","the gym @ Dolce","32 Weed Ave, Norwalk, CT 06850","06850",41.120853424072266,-73.45916748046875
"06850","Norwalk","CT","LA Fitness","761 Main Ave","06851",41.15862089378204,-73.4214482427978
"06850","Norwalk","CT","CrossFit Norwalk","1 Muller Avenue #20","06851",41.13350123545982,-73.42585288992679
"06850","Norwalk","CT","CF Fitness Center","20 Ann Street","06854",41.10164325578558,-73.41855342442234
"06850","Norwalk","CT","200 Connecticut Avenue Gym","not_available","06854",41.10400536944574,-73.43214664583154
"06850","Norwalk","CT","Zumba Central","not_available","06850",41.14449754674944,-73.42360638216796
"06850","Norwalk","CT","Punch Kettlebell Gym","345 Main Ave","06851",41.137417,-73.425641
"06850","Norwalk","CT","The Towers Club Health & Fitness Center","901 Main Ave Fl 1","06851",41.14457259230399,-73.4289970712912
"06850","Norwalk","CT","Next Generation Fitness","698 West Ave","06850",41.115518,-73.41539300000001
"06850","Norwalk","CT","Clocktower Fitness","25 Grand St","06851",41.12507629394531,-73.42313385009766
"06850","Norwalk","CT","Norwalk YMCA","370 West Ave","06850",41.11099715155978,-73.41768439577687
"06850","Norwalk","CT","Merritt River Fitness Center","399 Main Ave","06851",41.144752502441406,-73.42756652832031
"06850","Norwalk","CT","F45 Training South Norwalk","515 West Ave","06850",41.111836,-73.416269
"06850","Norwalk","CT","Diageo Fitness Center","801 Main Ave","06851",41.143968,-73.428919
"06850","Norwalk","CT","Sono Athletic Club","87 Water St","06854",41.09682846069336,-73.41613006591797
"06850","Norwalk","CT","Avalon Norwalk Gym","26 Belden Ave","06850",41.1185281554637,-73.41775083558922
"06850","Norwalk","CT","Studio M Dance & Fitness, LLC","112 Main Street","06851",41.123272255929606,-73.41511983232152
"06850","Norwalk","CT","Akademos Fitness Center","200 Connecticut Ave","06854",41.10454559326172,-73.43193817138672
"06850","Norwalk","CT","CrossFit Norwalk","30 Muller Ave.","06851",41.1333638,-73.4256248
"06851","Norwalk","CT","The Edge Fitness Club","542 Westport Ave","06851",41.12661604079058,-73.38424782209017
"06851","Norwalk","CT","Intensity Fitness - Tennis - Dance","490 Westport Ave","06851",41.126799266856054,-73.38535044615439
"06851","Norwalk","CT","Kids U","507 Westport Ave","06851",41.128562,-73.385334
"06851","Norwalk","CT","Norden Park","10 Norden Pl","06855",41.111058364025865,-73.39307325630281
"06851","Norwalk","CT","Fitness Evolved","19 Grumman Ave","06851",41.14140701293945,-73.39796447753906
"06851","Norwalk","CT","The Edge on the treadmill","not_available","06851",41.126185,-73.384403
"06851","Norwalk","CT","Achieve Rehab & Fitness","27 Lois St","06851",41.12946078410983,-73.38551201906431
"06851","Norwalk","CT","Norwalk Fit Body Boot Camp","250 Westport Ave","06851",41.123892,-73.396219
"06851","Norwalk","CT","Sports Performance University","326 Westport Avenue","06851",41.12491989135742,-73.39327239990234
"06853","Norwalk","CT","Sono Field House","365 Dr Martin Luther King Jr Dr,","06854",41.07917532462394,-73.4281901980696
"06853","Norwalk","CT","The Treadmill","Rowayton Avenue","06853",41.07643230549701,-73.44322431015985
"06854","Norwalk","CT","IST (Integrated Sports Training)","25 Van Zant St","06855",41.10178756713867,-73.40852355957031
"06854","Norwalk","CT","Rise Up Fitness","242 East Ave","06855",41.1029361,-73.4042773
"06854","Norwalk","CT","Infernal Fitness","25 Van Zant, Norwalk, CT 06855","not_available",41.101232949999996,-73.407876
"06855","Norwalk","CT","Avalon East Norwalk Gym","8 Norden Pl","06855",41.111968994140625,-73.39301300048828
"06870","Old Greenwich","CT","The EDGE Fitness Club","1333 E Putnam Ave","06878",41.043975433005485,-73.57430396871717
"06870","Old Greenwich","CT","New York Sports Clubs","106 Commerce Rd","06902",41.0461318539781,-73.56493055820465
"06870","Old Greenwich","CT","Train Savage","82 Top Galant Rd","06906",41.03353092833383,-73.55243349143507
"06870","Old Greenwich","CT","Sportsplex","49 Brown House Rd","06902",41.041690340066076,-73.5624214964113
"06870","Old Greenwich","CT","All American Athletes","76 Progress Dr","06902",41.05380046612131,-73.56192901181957
"06870","Old Greenwich","CT","The Little Gym of Stamford","305 West Ave","06902",41.04350030845882,-73.55859326347786
"06870","Old Greenwich","CT","Hyatt Regency - Health Club","not_available","06870",41.047011440687946,-73.56738077144175
"06870","Old Greenwich","CT","Stay Fit at Hyatt","1800 E Putnam Ave","06870",41.04719161987305,-73.56747436523438
"06877","Ridgefield","CT","Results Personal Training & Fitness Center","17A Governor St","06877",41.28116218881763,-73.49738941758051
"06877","Ridgefield","CT","Club 24 Concept Gyms","901 Ethan Allen Hwy","06877",41.315354231784596,-73.47450149251804
"06877","Ridgefield","CT","Ridgefield Recreation Center","195 Danbury Rd","06877",41.30101910977184,-73.49585909070441
"06877","Ridgefield","CT","PTP of Ridgefield","105 Danbury Rd","06877",41.29286307249507,-73.49391818540529
"06877","Ridgefield","CT","Snap Fitness Gym","1 Ethan Allen Hwy","06877",41.264176462005324,-73.43979780219267
"06877","Ridgefield","CT","The Vault","not_available","06877",41.271485,-73.483348
"06877","Ridgefield","CT","Little Gym Of Ridgefield","Danbury Rd, Ridgefield, CT 06877","06877",41.2537850718345,-73.53158324276033
"06877","Ridgefield","CT","Pure Barre","86 Danbury Rd","06877",41.29069235868847,-73.49447227417386
"06880","Westport","CT","Orangetheory Fitness","645 Post Rd E","06880",41.13863881229526,-73.34341224008324
"06880","Westport","CT","Goal Physiotherapy and Sports Performance","429 Post Road East","06880",41.140366,-73.350534
"06880","Westport","CT","BodyQuest Barre Studio","580 Post Rd E","06880",41.1387217,-73.3455091
"06880","Westport","CT","Pure Barre Westport","291 Post Rd E","06880",41.14203137801658,-73.35558154539746
"06880","Westport","CT","Row House","380 Post Rd E","06880",41.1400831,-73.3526596
"06880","Westport","CT","Westport YMCA","59 Post Rd E","06880",41.14195228329337,-73.36037256448876
"06880","Westport","CT","Studio 30","275 Post Rd East","06880",41.141326904296875,-73.35596466064453
"06880","Westport","CT","Fit-EST","361 Post Rd W","06880",41.12931149052813,-73.37838216154591
"06880","Westport","CT","CrossFit Revel","35 Lois St","06851",41.129264957144066,-73.38567025323145
"06880","Westport","CT","F45 Training Westport","222 Post Road West","06880",41.1353173,-73.3724719
"06880","Westport","CT","Body Pulse","10 Bay St","06880",41.140981897816985,-73.35939968065988
"06883","Weston","CT","Wilton YMCA","404 Danbury Rd","06897",41.21149853850571,-73.42957397732742
"06897","Wilton","CT","Anytime Fitness","84 Danbury Rd","06897",41.17142,-73.41597
"06897","Wilton","CT","Wilton Family Y Training Center","not_available","06897",41.238607786393636,-73.43205456933357
"06897","Wilton","CT","The Barre Studio","22 Center At","not_available",41.193066,-73.433554
"06897","Wilton","CT","Burn Boot Camp","37 Danbury Rd","06897",41.16563,-73.41887
"06901","Stamford","CT","Row House","5 Broad St","06901",41.0551032,-73.54192809999999
"06901","Stamford","CT","The Gym At Glen","66 Glenbrook Rd","06902",41.057373046875,-73.52948760986328
"06901","Stamford","CT","The Townhouse Apartments - Fitness Center","65 Prospect St","06901",41.057753999999996,-73.536281
"06901","Stamford","CT","Gym At 800 Summer Street","800 Summer St","06901",41.058904999999996,-73.540449
"06901","Stamford","CT","Gym at Stamford Corners","1455 Washington Blvd","06902",41.05967121802544,-73.54321362390687
"06901","Stamford","CT","The Gym at The Wescott","1450 Washington Blvd","06902",41.059482036764784,-73.54381865110265
"06901","Stamford","CT","main & elm fitness club","200 Elm St","06902",41.05289840698242,-73.53121185302734
"06901","Stamford","CT","Canterbury Green Fitness Center","not_available","06901",41.05417493764055,-73.53413139831314
"06901","Stamford","CT","RBS Fitness Center","600 Washington Blvd","06901",41.04798129435998,-73.54388657871047
"06901","Stamford","CT","Stamford Superior Court","123 Hoyt St","06905",41.060423910629915,-73.5360860824585
"06901","Stamford","CT","Gym @ ParcGrove","200 Broad St","06901",41.05596160888672,-73.53440856933594
"06901","Stamford","CT","UFC Gym Stamford","81 Summer St","06901",41.05401578031168,-73.54062221510027
"06901","Stamford","CT","Ryokubi Dojo","86 Prospect St #200","06901",41.05860699999999,-73.5362683
"06901","Stamford","CT","Gym at The Windemere","300 Broad St","06901",41.055574,-73.531269
"06902","Stamford","CT","Halloween Yacht Club","10 Seaview Ave","06902",41.042229999999996,-73.52299000000001
"06902","Stamford","CT","F45 Training Stamford Harbor Point","121 Towne St","06902",41.044974,-73.534678
"06902","Stamford","CT","Park Place Fitness Center","101 Washington Blvd","06902",41.04038707997193,-73.54120811903618
"06902","Stamford","CT","Stamford Athletic Club","not_available","06905",41.06494753161844,-73.54011383168047
"06902","Stamford","CT","LA Fitness","52 6th St","06905",41.066795955516504,-73.54449335623156
"06902","Stamford","CT","The Gym At Harbor Point's Infinity Building","201 Commons Park S","06902",41.040834999999994,-73.540256
"06902","Stamford","CT","Gym","not_available","06907",41.10173317531397,-73.52765453595015
"06902","Stamford","CT","Med Fit","225 High Ridge Rd","06905",41.080360412597656,-73.54792785644531
"06903","Stamford","CT","Orangetheory Fitness","1101 High Ridge Rd","06905",41.109188079833984,-73.54698181152344
"06903","Stamford","CT","Inspire Fitness","1051 Long Ridge Rd","06903",41.10513272156969,-73.56730053474881
"06903","Stamford","CT","GE Fitness Center","800 Long Ridge Rd","06902",41.09603334153097,-73.56644368963109
"06903","Stamford","CT","ProFitness Health Solutions","5 High Ridge Park","06905",41.112266540527344,-73.54415893554688
"06905","Stamford","CT","Gym","Strawberry Hill Ave","06902",41.06401278315762,-73.53235578979022
"06905","Stamford","CT","Mill River House Gym","35-49 W Broad St","06902",41.056441545858554,-73.54695744334254
"06905","Stamford","CT","Gym @ Fountain Terrace","Strawberry Hill Ave","06905",41.06343481698622,-73.53247979820794
"06905","Stamford","CT","Zumba With Darah","123 High Ridge Rd","06905",41.07596969604492,-73.5492172241211
"06905","Stamford","CT","royal pavilion health club","60 Strawberry Hill Ave","06902",41.062320709228516,-73.53343963623047
"06905","Stamford","CT","The Training Floor","346 Hope St","06906",41.07174297248123,-73.52438671616629
"06905","Stamford","CT","Tiger Schulmann's Mixed Martial Arts","2770 Summer St.","06905",41.06959,-73.549883
"06906","Stamford","CT","Breakthru Fitness","48 Union St","06906",41.07458141876625,-73.5215112902982
"06906","Stamford","CT","Kids U","633 Hope St","06907",41.080929797790695,-73.52084601286502
