"zip","city","state","name","address","postalCode","lat","lon"
"96701","Aiea","HI","F45","not_available","96701",21.383667,-157.942383
"96701","Aiea","HI","Halawa District Park","99-795 Iwaiwa St","96701",21.373402434185444,-157.91520595550537
"96701","Aiea","HI","Camp Smith Fitness Center","not_available","not_available",21.393577058275167,-157.90946065596574
"96701","Aiea","HI","Gym","1230 Ala Kapuna Street","96819",21.36655494540502,-157.90075511251922
"96701","Aiea","HI","F45 Training Pearlridge","98-1005 Moanalua Road","96701",21.385502,-157.941744
"96701","Aiea","HI","Powerhouse Gym","98-199 Kamehameha Hwy","96701",21.380534462815007,-157.94361683320196
"96701","Aiea","HI","Wailuna Rec Center","98-1278 Kaahumanu St","not_available",21.40795987940076,-157.94889602950713
"96701","Aiea","HI","Anytime Fitness","99-084 Kauhale St","96701",21.379510999999997,-157.931879
"96701","Aiea","HI","Red Hill Fitness Center","1229 Ala Kapuna St","96819",21.36719,-157.900392
"96701","Aiea","HI","The Warehouse","98-723 Kuahao Pl","96782",21.391845703125,-157.9552764892578
"96704","Captain Cook","HI","Konawaena High School Gym","not_available","96704",19.427143,-155.90329
"96705","Eleele","HI","Kaua'i 24 Hour Gym","4350 Waialo Rd","96705",21.901424407958984,-159.58656311035156
"96705","Eleele","HI","Island Gym & Fitness","1-3491 Kaumuali’i Highway","96716",21.908453780633817,-159.59423256930123
"96706","Ewa Beach","HI","Fitness Center @ The Waterfront","5154-5172 Iroquois Ave","96706",21.32132115878149,-157.97962911105822
"96706","Ewa Beach","HI","James Campbell High School Gym","91-980 North Rd","96706",21.315569,-158.010385
"96706","Ewa Beach","HI","arkaios crossfit","94-137 Leoleo At","96797",21.37663,-158.019662
"96706","Ewa Beach","HI","Danger Room","not_available","96706",21.314666,-158.032457
"96706","Ewa Beach","HI","CrossFit House","91-1070 Pakaweli St","96707",21.330965,-158.056077
"96706","Ewa Beach","HI","Fitness 2","91-939 Puhikani St","not_available",21.33109,-158.022955
"96706","Ewa Beach","HI","NAV MAG Gym","Ewa","96707",21.326615485761923,-157.98501901669238
"96707","Kapolei","HI","Anytime Fitness","563 Farrington Hwy","96707",21.338,-158.07794
"96707","Kapolei","HI","noplace","noplac st.","96707",21.33585158901396,-158.08077335357666
"96707","Kapolei","HI","Orangetheory Fitness","590 Farrington Hwy","96707",21.3381285,-158.0800937
"96707","Kapolei","HI","Turbofire","not_available","96707",21.344107,-158.123534
"96707","Kapolei","HI","CrossFit West Oahu","2045 Lauwiliwili St #101","96707",21.322120666503906,-158.0905303955078
"96707","Kapolei","HI","Kapolei Strength & Conditioning","2045 Lauwiliwili St","96707",21.322120666503906,-158.0905303955078
"96707","Kapolei","HI","CorePower Yoga","4450 Kapolei Pkwy Ste 272","96707",21.329531796669432,-158.091535210659
"96707","Kapolei","HI","360 Strong","91-1021 Shangrila St.","96707",21.316991806030273,-158.07200622558594
"96708","Haiku","HI","Maui Fitness Club","7 Aewa Pl","96768",20.836030960083008,-156.3361358642578
"96708","Haiku","HI","Upcountry Fitness Center","810 Kokomo Rd","96708",20.914237191414593,-156.32369867808382
"96708","Haiku","HI","Anytime Fitness","24 Kiopaa St","96768",20.82198,-156.32963
"96714","Hanalei","HI","Pure Kauai","5118 Iolani Place","96722",22.22356245,-159.48357247
"96714","Hanalei","HI","Halele'a Spa & Fitness Center","5520 Ka Haku Rd","96722",22.220431597577903,-159.49728674678386
"96720","Hilo","HI","Waiakea High School Wrestling Room","not_available","96720",19.700665,-155.076074
"96720","Hilo","HI","Keaau High School Weight Room","not_available","96749",19.614012,-155.031387
"96720","Hilo","HI","Crossfit Big Island","1717 Kamehameha Ave","96720",19.722959518432617,-155.0645751953125
"96720","Hilo","HI","Hilo Armory","28 Shipman St","96720",19.72711753845215,-155.0876007080078
"96720","Hilo","HI","Curves","101 Aupuni St #147","96720",19.717422485351562,-155.0767059326172
"96720","Hilo","HI","CrossFit Hilo iron","140 Holomua St","96720",19.701953887939453,-155.06661987304688
"96720","Hilo","HI","Spencer Health & Fitness Center","Keawe St","96720",19.673896740931404,-155.0985958067347
"96725","Holualoa","HI","Fitness Center Holua Resort","Kaleopapa Str.","not_available",19.557145442016893,-155.96340898937387
"96725","Holualoa","HI","Fitness Center","78-128 Ehukai St","96740",19.559052422347918,-155.96551704874068
"96727","Honokaa","HI","Woodrose Fitness Center","45-3490 Mamane St","96727",20.074222,-155.469948
"96727","Honokaa","HI","CrossFit AllStar","not_available","96743",20.02605,-155.659755
"96729","Hoolehua","HI","Adolpho Complex","not_available","96729",21.154516184268697,-157.09233069624588
"96731","Kahuku","HI","Turtle Bay Resort Gym","57-091 Kamehameha Hwy","96731",21.69898129365931,-157.9965953588139
"96732","Kahului","HI","Maui Crossfit Extreme","not_available","96793",20.893967616727064,-156.49388667073777
"96732","Kahului","HI","War Memorial Gymnasium","700 Halia Nakoa St","96793",20.89027746062803,-156.48933282452052
"96732","Kahului","HI","Fitness 808","Ste A3, 850 Kolu Street Wailuku, HI 96793-1484","96732",20.90381882793461,-156.48794555176113
"96732","Kahului","HI","Aloha Crossfit","400 Hana Hwy","96732",20.886089324951172,-156.4547119140625
"96732","Kahului","HI","Pure Barre","70 E Kaahumanu Ave","96732",20.89101662661792,-156.46451449141904
"96732","Kahului","HI","Anytime Fitness","54 Maui Lani Pkwy Shops C, Store No. CC2","96793",20.887767791748047,-156.49278259277344
"96732","Kahului","HI","Courtyard Fitness Center","Courtyard Marriott","not_available",20.888292866598892,-156.44974076721977
"96732","Kahului","HI","CrossFit Maui","393 Lehuakona St","96732",20.882419289082197,-156.45175198640453
"96732","Kahului","HI","MPD Wailuku Station Gym","55 Mahalani St","96793",20.888133,-156.48821999999998
"96732","Kahului","HI","RAW FITNESS MAUI","800 Eha St","96793",20.9051513671875,-156.4884033203125
"96732","Kahului","HI","hi performance athletics","530 E Uahi Way","96793",20.849772,-156.48727399999999
"96734","Kailua","HI","UFC Gym - Kailua","573 Kailua Rd","96734",21.39337158203125,-157.74122619628906
"96734","Kailua","HI","Anytime Fitness","26 Hoolai St","96734",21.395088,-157.744604
"96734","Kailua","HI","MCBH Youth Center","not_available","96734",21.446821660498518,-157.75046489946314
"96734","Kailua","HI","Windward Branch YMCA Of Honolulu","1200 Kailua Rd","96734",21.38488105037366,-157.75318537898025
"96734","Kailua","HI","CorePower Yoga","629 Kailua Rd","96734",21.394064,-157.743145
"96734","Kailua","HI","Oahu Gymnastics & Ninja LLC","201 Kapa'a Quary Pl., Building 51","96734",21.3977999,-157.7703659
"96734","Kailua","HI","Zumba","41-1800 Kalanianaole Hwy","96795",21.355146,-157.731589
"96734","Kailua","HI","Semper Fit Center","G St","96734",21.443422306518624,-157.75238513946533
"96734","Kailua","HI","MCBH HITT Gym","not_available","96863",21.439508311736653,-157.74825860281996
"96738","Waikoloa","HI","The Bay Club","69-450 Waikoloa Beach Dr","96738",19.924410098453404,-155.88076671318
"96738","Waikoloa","HI","Fitness Center","69-275 Waikoloa Beach Dr","96738",19.916362248079118,-155.88542336335078
"96738","Waikoloa","HI","Hale Ola Kino","Pvt Clubhouse","96743",19.932999,-155.880294
"96738","Waikoloa","HI","Kaholo Fitness Center @ Hilton","not_available","96738",19.917242821435067,-155.88849492069036
"96738","Waikoloa","HI","The Villages At Mauna Lani Hotel Kamuela","68-1025 S Kaniku Dr Puako HI 96743 USA","not_available",19.94287091864795,-155.85663651467368
"96738","Waikoloa","HI","Mauna Lani Fitness Center","68-1400 Mauna Lani Dr","96743",19.94153091933687,-155.8624435320229
"96740","Kailua Kona","HI","CrossFit Kona","74-555 Honokohau St D-3","96740",19.67474937438965,-156.0125274658203
"96740","Kailua Kona","HI","pohaku strenght and conditioning","not_available","96740",19.644375,-155.997563
"96740","Kailua Kona","HI","Planet Fitness","75-1000 Henry St, Ste 100","96740",19.644418,-155.988313
"96740","Kailua Kona","HI","Pacific Island Fitness","74-5583 Luhia St, Ste B12","96740",19.6477322062215,-155.99847506162791
"96740","Kailua Kona","HI","The Club in Kona","75-5699 Kopiko St","96740",19.642607083362122,-155.9953888558688
"96740","Kailua Kona","HI","Kekuaokalani Gym","75-5570 Kuakini Hwy","96740-1629",19.640755590210297,-156.002290560959
"96743","Kamuela","HI","Mauna Kea Fitness Center","Mauna Kea Beach Road","96743",20.006073111942165,-155.82447849132106
"96744","Kaneohe","HI","Da Break Room@24hr Fitness Kaneohe","45 480 kaneohe bay drive","96744",21.401643233333335,-157.797353
"96746","Kapaa","HI","Fitness Center","650 Aleka Loop","96746",22.05734634399414,-159.32225036621094
"96746","Kapaa","HI","Waipouli Beach Resort Fitness Center","not_available","96746",22.060908,-159.319852
"96748","Kaunakakai","HI","Kaunakakai Gym","not_available","96748",21.091059106193853,-157.01774585505402
"96748","Kaunakakai","HI","Na Pu'uwai Fitness Center","Ulili Street","96748",21.110877968481145,-157.05526052686443
"96752","Kekaha","HI","MWR Fitness Center","Tarter Drive","96752",21.99961490399873,-159.76454292155634
"96752","Kekaha","HI","ZUMBA","4500 Akialoa Rd","96752",21.970795331958392,-159.7234332561493
"96752","Kekaha","HI","ZUMBA Class","Elepaio Rd","96752",21.96975310220426,-159.7177791595459
"96753","Kihei","HI","Powerhouse Gym","1279 S Kihei Rd #118","96753",20.74930204074001,-156.45433903404458
"96753","Kihei","HI","The Gym Maui","not_available","96753",20.7720730265838,-156.45085191870456
"96753","Kihei","HI","P90X-land","not_available","96790",20.84487974221472,-156.48697850238156
"96753","Kihei","HI","Grand Wailea Fitness Center","3900 Wailea Alanui Dr","96753",20.683693865518595,-156.44155064284297
"96753","Kihei","HI","Valley Isle Fitness","Lipoa St","95753",20.748673826068938,-156.45407710391848
"96753","Kihei","HI","South Maui Fitness","95 E Lipoa St","96753",20.748451010966956,-156.45266459392596
"96753","Kihei","HI","Aloha Kihei Crossfit","381 Huku Liʻi Pl","96753",20.773071,-156.45173
"96753","Kihei","HI","John's On The Hill Cross Fit Gym And Sunset Spot","2747 S Kihei Rd","96753",20.71057155392703,-156.4407949948773
"96753","Kihei","HI","Maui Coast Resort Gym","Above Spices","96753",20.75960585,-156.451632
"96753","Kihei","HI","Gym @ Kai Makani","Kai Makani Loop","96753",20.77307327988029,-156.45937840639778
"96753","Kihei","HI","Crossfit Kihei","300 Ohukai Rd B 101/102","96753",20.772289167420688,-156.4504789884856
"96753","Kihei","HI","The Palms at Wailea Gym","3200 Wailea Alanui Dr","96753",20.69830322265625,-156.4405517578125
"96753","Kihei","HI","Maui Yoga Path","2960 S. Kihei Road","96753",20.704911793051984,-156.44684851169586
"96756","Koloa","HI","Tidepools","1571 Poipu Rd.","96756",21.875258446976055,-159.44064756525958
"96756","Koloa","HI","Villas at Po'ipu Kai Fitness Center","not_available","96756",21.874083,-159.447447
"96756","Koloa","HI","Crossfit Poipu","2827 Poipu Rd","96756",21.88481415179376,-159.46817441213943
"96756","Koloa","HI","Ko'a Kea Fitness Center","2251 Poipu Road","not_available",21.875229276702107,-159.4574610968587
"96759","Kunia","HI","Kunia Gym","not_available","96857",21.477826155396468,-158.05229727250904
"96761","Lahaina","HI","Westin Workout at Westin Ocean Resort Villas","not_available","96761",20.938443150443316,-156.69169274600634
"96761","Lahaina","HI","Lahaina Cross Fit","118 Kupuohi St","96761",20.884508351009398,-156.67498208948635
"96761","Lahaina","HI","Sports Club Kahana","4327 Lower Honoapiilani Rd","96761",20.97134785491887,-156.67911497160352
"96761","Lahaina","HI","Honua Kai Resort Gym","130 Kai Malina Pkwy","96761",20.945639,-156.690625
"96761","Lahaina","HI","Fitness Center","1 Ritz Carlton Dr","96761",21.00154484813132,-156.65423025334076
"96761","Lahaina","HI","Westin Maui Workout","2365 Ka'anapali Parkway","not_available",20.920235023799922,-156.6954191565279
"96761","Lahaina","HI","Moana Athletic Club","200 Nohea Kai Dr","96761",20.911466683528555,-156.6905848688758
"96761","Lahaina","HI","Marriott's Maui Ocean Club Associate Fitness Center","100 Nohea Kai Dr","96761",20.915680278424734,-156.69524170831724
"96761","Lahaina","HI","Crossfit State of Mind","151 Kupuohi St","96761",20.884275436401367,-156.6766357421875
"96766","Lihue","HI","Kauai Athletic Club","4370 Kukui Grove St","96766",21.97182273864746,-159.37745666503906
"96766","Lihue","HI","Fitness and Spa Center","not_available","96766",22.01066,-159.338275
"96766","Lihue","HI","YMCA of Kauai","4477 Nuhou St","96766",21.96862030029297,-159.38816833496094
"96766","Lihue","HI","Kauai Athlethic Club In Nawiliwili","3371 Wilcox Rd #101","96766",21.95739730540606,-159.35589572665506
"96778","Pahoa","HI","Yandara Yoga Retreat - Hawaii","13-260 Pohoiki Rd","96778",19.4647014,-154.8530417
"96782","Pearl City","HI","Manana Base Gym","7200 Birch Cir","96782",21.402549743652344,-157.9794921875
"96782","Pearl City","HI","Sweaty Clam Gym","2001 Victor Wharf Access Rd","96782",21.383670806884766,-157.97218322753906
"96782","Pearl City","HI","Crossfit Pearl City","425 Kamehameha Highway","96782",21.387682111665423,-157.9575431818307
"96786","Wahiawa","HI","Martinez Physical Fitness Center","Bldg 488","not_available",21.489201189053237,-158.0540824222014
"96786","Wahiawa","HI","Wheeler Fitness Center","113 Santos Dumont Rd.","96786",21.482869791063564,-158.04048780972175
"96786","Wahiawa","HI","Sweat Factory","not_available","96786",21.491696747079786,-158.03882560283523
"96786","Wahiawa","HI","TNM Fitness","95-684 Naholoholo St","96789",21.459518,-158.010287
"96786","Wahiawa","HI","Health and Fitness Center","1554 trimble rd","96857",21.490732450733216,-158.0563633059679
"96786","Wahiawa","HI","Porter Community Gym","3601-3675 Collier St.","96786",21.49388761163576,-158.06513863674454
"96786","Wahiawa","HI","020 Fitness","111 Cali","96786",21.491507795245248,-158.0388879776001
"96789","Mililani","HI","Mililani District Park Gym","not_available","96789",21.44192437249756,-158.01925420761108
"96789","Mililani","HI","Crossfit Waipio","not_available","96797",21.4195821356487,-157.99796988895392
"96789","Mililani","HI","Oahu Crossfit","94-1388 Moaniani St #201","96797",21.416765811613057,-157.99556979993903
"96791","Waialua","HI","waialua community gym","not_available","96712",21.574806990967996,-158.12315081487995
"96792","Waianae","HI","Doom Room","not_available","96792",21.437217922222843,-158.1772511790529
"96793","Wailuku","HI","Uncle Rudy Bissen Weight Room (SAS)","1618 Lower Main St","96793",20.892269134521484,-156.49595642089844
"96793","Wailuku","HI","Hoomana Barbell . Maui Gym","1826 Kaohu Street","96793",20.884055,-156.499186
"96797","Waipahu","HI","Tripler Army Medical Center Fitness Center","not_available","96819",21.362573158603507,-157.89186524505956
"96797","Waipahu","HI","Ford Island Gym","not_available","96818",21.35947437164489,-157.96061038970947
"96797","Waipahu","HI","The Villas At Royal Kunia Gym","94-994 Eleu St","96797",21.395825,-158.029443
"96797","Waipahu","HI","ExcusesRuseless","Vitex Lane","not_available",21.358805127955357,-157.9203746498073
"96797","Waipahu","HI","Fort Shafter Physical Fitness Center","Chamberlain Rd","96819",21.34615735437127,-157.88423058197776
"96797","Waipahu","HI","Naval Station Gym","Bldg. 667","96853",21.357507018964238,-157.94094331220737
"96797","Waipahu","HI","Hickam Youth Fitness Center","O'Malley Blvd","96818",21.3438758,-157.94075074
"96813","Honolulu","HI","Planet Fitness","Center 1450 Ala Moana Blvd","96814",21.292766919623173,-157.8426155294808
"96813","Honolulu","HI","Hemmeter Fieldhouse","not_available","96822",21.304301,-157.828935
"96813","Honolulu","HI","Island Club and Spa","1177 Queen St","96814",21.29372286009994,-157.84953306131686
"96813","Honolulu","HI","Art Of Fitness","627 South St","96813",21.302009115474792,-157.8588734869206
"96813","Honolulu","HI","Lanakila Gym","1645-1709 Lanakila Ave","96817",21.32722137367556,-157.86121962888075
"96813","Honolulu","HI","CrossFit Oahu","556 Reed Ln","96813",21.302128170006696,-157.86075874990362
"96813","Honolulu","HI","Pacifica Fitness Center","not_available","96814",21.29705888233951,-157.85157310122122
"96813","Honolulu","HI","Transformations Fitness","250 Ward Ave Ste 205","96814",21.295952027461617,-157.85677671432495
"96813","Honolulu","HI","Hawai'i Indoor Running","Kawaiahao St.","not_available",21.303918523612296,-157.85178268132523
"96813","Honolulu","HI","F45 Training Ala Moana","1200 Ala Moana Blvd","96814",21.29292758,-157.853113
"96813","Honolulu","HI","Punahou Fitness & Spa","1212 Punahou St","96826",21.299562500795922,-157.8366987885891
"96813","Honolulu","HI","Kaʻahumanu Fitness Center","1887 Makuakane St","96817",21.342174530029297,-157.85491943359375
"96813","Honolulu","HI","Moana Pacific East Tower Gym","1296 Kapiolani Blvd","96814",21.295636,-157.846599
"96813","Honolulu","HI","Unyqe Fitness","745 Fort Street Mall","96813",21.3077142,-157.8634057
"96813","Honolulu","HI","Kakaako Boxing Club","922 Kaamahu Pl","96817",21.317867279052734,-157.865478515625
"96813","Honolulu","HI","Shiges Fitness","not_available","96817",21.324242317765137,-157.85874221722742
"96813","Honolulu","HI","Volcanic climbing & Fitness","1212 Punahou Street","96826",21.298917770385742,-157.8353729248047
"96813","Honolulu","HI","Villa Eaton Square rooftop gym","400 Hobron Ln, Honolulu, HI 96815","96815",21.2879263658225,-157.8359652635785
"96813","Honolulu","HI","Dream to Dance Studio","1010 N King St","96817",21.3239688873291,-157.86814880371094
"96813","Honolulu","HI","Camelot Gym","1630 Liholiho St","96822",21.306915283203125,-157.83824157714844
"96813","Honolulu","HI","Crossfit HTF","not_available","96826",21.29403824408711,-157.82624317104614
"96813","Honolulu","HI","Joda P. Derrickson,Ph.D,RDN dba Lightshine Wellness","1521 Alexander Street","96822",21.300524,-157.830102
"96813","Honolulu","HI","Kulana Hawaii Gym","677 Ala Moana Blvd Ste 107","96813",21.298096578415528,-157.86183090697915
"96813","Honolulu","HI","Crossfit Downtown Honolulu","3 Aloha Tower Dr","96813",21.3079746,-157.86440370000003
"96814","Honolulu","HI","RPW Gym","1830 Ala Moana Blvd","96815",21.2849063873291,-157.837158203125
"96814","Honolulu","HI","The Point Fitness Area","2055 Kalia Rd","96815",21.28230118705939,-157.83500469550503
"96814","Honolulu","HI","Fitness Center","1775 Ala Moana Blvd.","96815",21.28466174984363,-157.83922236553008
"96814","Honolulu","HI","Trump Gym","not_available","96815",21.283606150702887,-157.83569746879806
"96814","Honolulu","HI","Crossfit Waikiki","1777 Ala Moana Blvd.","96815",21.284032615626124,-157.83808682441645
"96814","Honolulu","HI","Ala Moana Hotel steam room","410 Atkinson Dr","96814",21.29035402772904,-157.83937454223633
"96814","Honolulu","HI","Hokua Gym","1288 Ala Moana Blvd","96814",21.292404174804688,-157.84994506835938
"96814","Honolulu","HI","Fitness Ranes","1213 S Beretania St","96814",21.30126236016145,-157.84325824612495
"96814","Honolulu","HI","Honolulu Club","932 Ward Ave","96814",21.30185510842121,-157.8505543890925
"96814","Honolulu","HI","World Gym Honolulu","1050 Queen St","96814",21.294748175968255,-157.85187410800813
"96814","Honolulu","HI","World Gym","432 Keawe St","96813",21.2996693368242,-157.8609082917332
"96814","Honolulu","HI","century center","Kalakaua Ave","not_available",21.291277043745442,-157.83531378060664
"96814","Honolulu","HI","CorePower Yoga","1170 Auahi St, Suite 180","96814",21.2935008,-157.8504553
"96815","Honolulu","HI","Penthouse Gym","2335 Kalakaua Ave","96815",21.276884885812777,-157.8276752847732
"96815","Honolulu","HI","Bally","2270 Kalakaua Ave","96815",21.278567376047487,-157.82826326671662
"96815","Honolulu","HI","Stay Fit At Hyatt","2424 Kalakaua Ave","96815",21.276270989332374,-157.82532744954884
"96815","Honolulu","HI","Waikiki Beach Marriott Fitness Center","2552 Kalakaua Ave","96815",21.274108362259533,-157.82228056013068
"96815","Honolulu","HI","Swimming Pool & Fitness@Waikiki Shore","Waikiki","not_available",21.2809,-157.831
"96815","Honolulu","HI","Orangetheory Fitness","449 Kapahulu Ave Ste 101","96815",21.27508354411632,-157.81554501456125
"96815","Honolulu","HI","Westin Workout Fitness Center","2365 Kalakaua Ave","96815",21.277206640853368,-157.82678610921994
"96815","Honolulu","HI","The Gym at Trump","223 Saratoga Rd","96815",21.279230913158035,-157.8318668429123
"96816","Honolulu","HI","YMCA","4835 Kilauea Ave","96816",21.27949248132562,-157.7838958187303
"96816","Honolulu","HI","CorePower Yoga","4211 Waialae Ave, Suite B-11","96816",21.276977943996343,-157.78637677431107
"96816","Honolulu","HI","Balance Core","1215 Center St","96816",21.282921,-157.798763
"96816","Honolulu","HI","Pure Barre","4211 Waialae Ave Ste UB-4A","96816",21.2776399,-157.786053
"96816","Honolulu","HI","Kahala Fitness","4218 Waialae Ave","96816",21.279130935668945,-157.78675842285156
"96816","Honolulu","HI","Aloha Fitness Academy","1059 12th Ave Ste A","96816",21.280897,-157.7997497
"96816","Honolulu","HI","Chi Fitness","not_available","96816",21.271387,-157.773868
"96816","Honolulu","HI","Fysiotherapie","1120 12th Ave Ste 302","96816",21.281543495787787,-157.79966645668958
"96816","Honolulu","HI","Quality Health & Fitness","1055 Kalo Pl Ste 102","96826",21.291906356811523,-157.81971740722656
"96816","Honolulu","HI","Zumba","not_available","96821",21.278349,-157.780349
"96816","Honolulu","HI","Hawaii Fit Body Bootcamp","2700 S. King Street","not_available",21.29123567086554,-157.820083326905
"96817","Honolulu","HI","Crossfit 808","220 Puuhale Rd","96819",21.325267030854405,-157.88758384291572
"96817","Honolulu","HI","Subbase","Bldg 667","96860",21.320967,-157.870463
"96817","Honolulu","HI","Terrah Dome","744 Kohou St Ste Td","96817",21.324350955624706,-157.87173583295447
"96817","Honolulu","HI","U.S. Coast Guard Gymnasium","Sand Island access rd.","96813",21.306774133989265,-157.87403903955732
"96817","Honolulu","HI","Mana Barbell","1318 Hart St Ste A","96817",21.321680068969727,-157.87791442871094
"96817","Honolulu","HI","kalihi ymca","Kalihi street","not_available",21.345341,-157.85946
"96817","Honolulu","HI","Iron Hawaiian Fitness","1727 Republican St","96819",21.324365615844727,-157.88330078125
"96818","Honolulu","HI","Aliamanu PFC","not_available","96782",21.335987071763537,-157.9080614793139
"96818","Honolulu","HI","Hickam Fitness Center","Building 1120 Vickers Avenue","96853",21.339944461388097,-157.95517446228146
"96818","Honolulu","HI","Teaching Zumba!","Pa'a St.","96819",21.345695,-157.89568
"96818","Honolulu","HI","The Star Forge","Ala Lilikoi Pl","96818",21.352599775193266,-157.911536693573
"96818","Honolulu","HI","Subase Gym","not_available","96860",21.357656143780112,-157.94086956823966
"96818","Honolulu","HI","Hawaiian Island Twisters","1151 Mapunapuna St","96819",21.347314958705237,-157.8958471242829
"96818","Honolulu","HI","RoundHouse Gym","3rd St","96818",21.349930825667176,-157.96247275912393
"96818","Honolulu","HI","Bloch Arena","915 North Rd, Bldg 161","96860",21.348041965593044,-157.94197378737556
"96821","Honolulu","HI","Honolulu Fitness Center","820 West Hind Drive","96821",21.27932757,-157.75343811
"96822","Honolulu","HI","Crossfit Kuleana","2463 S King St","96822",21.292465209960938,-157.82432556152344
"96822","Honolulu","HI","EC Fitness","2600 South King Street  Suite 205","96826",21.292169038865897,-157.82137209158645
"96822","Honolulu","HI","Maryknoll Community Center","1526 Alexander St","96822",21.300643392831137,-157.83086228261882
"96825","Honolulu","HI","Hawaii Kai Peninsula Gym","not_available","96825",21.286725175252155,-157.6993947976174
"96825","Honolulu","HI","Koko Head District Park Gym","423 Kaumakani Street","96825",21.279190063476562,-157.69293212890625
"96825","Honolulu","HI","F45 Training Hawaii Kai","377 Keahole St","96825",21.284987,-157.707414
"96825","Honolulu","HI","Zumba with Jennifer","Hawaii kai Town Center","not_available",21.283069992349642,-157.71113036571893
"96826","Honolulu","HI","Aqua Fitness Room","1850 Ala Moana Blvd","96815",21.285009384155273,-157.83657836914062
"96859","Tripler Army Medical Center","HI","Tripler AMC - Gym","1 Jarrett White Rd","96819",21.362831179798164,-157.8890009335274
