"zip","city","state","name","address","postalCode","lat","lon"
"38606","Batesville","MS","Snap Fitness","434 eagle crest shopping center","38606",34.31086203181664,-89.94079931283702
"38606","Batesville","MS","Deshea Townsend Fitness Academy","not_available","not_available",34.30942388831706,-89.9350467150704
"38610","Blue Mountain","MS","Total Body","not_available","38663",34.7324157417549,-88.94942207806832
"38611","Byhalia","MS","Conxions Gym","7164 Hacks Cross Rd","38654",34.96570587158203,-89.7938232421875
"38611","Byhalia","MS","Mike & Rhonda's House","4550 Barrone Pl","38654",34.92662709307592,-89.80302563164183
"38611","Byhalia","MS","ATC Fitness","7120 Hacks Cross Rd","38654",34.96401987305347,-89.79388372585808
"38614","Clarksdale","MS","Bear's Fitness Center","not_available","38614",34.20070142086278,-90.60709935014982
"38614","Clarksdale","MS","Snap Fitness","650 Friars Point Rd","38614",34.216331481933594,-90.57392120361328
"38632","Hernando","MS","The Club 24 Fitness Center","not_available","38632",34.822225669600584,-89.97360457713984
"38632","Hernando","MS","Hpd Gym","2601 Elm St","38632",34.821861267089844,-89.99978637695312
"38632","Hernando","MS","Club4 Hernando","2631 McIngvale Road","38632",34.821966,-89.97398179999999
"38632","Hernando","MS","Conxion","1725 Memphis St","38632",34.8355712890625,-89.99568939208984
"38637","Horn Lake","MS","Club4 Horn Lake","3828 Goodman Road","38637",34.96310954496684,-90.05772802513121
"38637","Horn Lake","MS","Balancing Beautiful Bodies","6935 Windchase Dr","38637",34.961519,-90.008459
"38637","Horn Lake","MS","Fitness Premiere","2906 Goodman Rd W","38637",34.96343231201172,-90.04142761230469
"38637","Horn Lake","MS","Edge Fitness","Church RD","38671",34.932609094332314,-89.99986363807851
"38637","Horn Lake","MS","Gym @ Civic Center","not_available","38671",34.929666,-90.00621
"38637","Horn Lake","MS","247 Fitness Clubs Inc.","1028 Goodman Rd W","38637",34.9632016,-90.0113216
"38637","Horn Lake","MS","Curves","not_available","38637",34.948713,-90.017284
"38637","Horn Lake","MS","Gym @ Civic Center Apts","4740 Highway 51 N","38671",34.929672,-90.00973499999999
"38651","Nesbit","MS","the gym.","not_available","38651",34.9107477835872,-90.04104185794463
"38651","Nesbit","MS","Gym At Church Lake","not_available","38672",34.9332635,-89.995698
"38652","New Albany","MS","Anytime Fitness","220 Starlyn Ave.","38652",34.49686,-89.03584
"38652","New Albany","MS","Baptist Healthplex","Fairfield Dr","38652",34.49579794,-89.0218188
"38654","Olive Branch","MS","Jane's Gym Fitness for Women","Goodman Rd","not_available",34.963753186993785,-89.90508095956982
"38654","Olive Branch","MS","Desoto Athletic Club","3146 Goodman Rd E","38672",34.964143822546966,-89.93447161699011
"38654","Olive Branch","MS","ConXion Gym","not_available","38654",34.952852,-89.83731
"38654","Olive Branch","MS","O.B. Family Y.M.C.A.","8555 Goodman Rd","38654",34.960899353027344,-89.83679962158203
"38654","Olive Branch","MS","Pure Barre","5338 Goodman Rd Ste 121","38654",34.9631649806084,-89.89489399864169
"38654","Olive Branch","MS","iLoveKickboxing - Southaven","5960 Getwell Rd","38672",34.94743718566677,-89.93479475026243
"38654","Olive Branch","MS","TITLE Boxing Club Olive Branch","6518 Goodman Rd","38654",34.96299781,-89.87491736
"38654","Olive Branch","MS","Olive Branch CrossFit","7300 Craft Goodman Rd Bldg 2B","38654",34.974705073612284,-89.86062981741892
"38654","Olive Branch","MS","Orangetheory Fitness","5155 Goodman Rd","38654",34.961862,-89.897578
"38655","Oxford","MS","Woody Gym","not_available","38655",34.38065957358276,-89.49875210256538
"38655","Oxford","MS","Turner Center","642 All American Dr.","38677",34.36348432684491,-89.53716945628766
"38655","Oxford","MS","YMCA of Oxford","703 N Lamar Blvd","38655",34.37381348539448,-89.51693883231806
"38655","Oxford","MS","Orangetheory Fitness","1801 Jackson Ave W","38655",34.36548614501953,-89.55425262451172
"38655","Oxford","MS","HOTWORX","916 Jackson Ave E","38655",34.366898,-89.520579
"38655","Oxford","MS","Pure Barre","265 N Lamar Blvd","38655",34.367737,-89.5189427
"38655","Oxford","MS","Anytime Fitness","2132 Jackson Ave W","38655",34.36204,-89.5602
"38655","Oxford","MS","CrossFit UDC","204 Colonnade Cv","38655",34.365848541259766,-89.55704498291016
"38655","Oxford","MS","Snap Fitness","304 Heritage Dr","38655",34.36578089316965,-89.55920616189233
"38655","Oxford","MS","Oxford Fitness Kickboxing","2146 Jackson Ave W","38655",34.362098693847656,-89.56072998046875
"38655","Oxford","MS","Snap Fitness","1903 University Ave","38655",34.3634669401629,-89.50811089762612
"38655","Oxford","MS","University Trails Gym","900 Whirlpool Dr","38655",34.35243684754214,-89.53862993602921
"38655","Oxford","MS","UDCFit","1625 Jackson Ave.","not_available",34.365981,-89.55295
"38664","Robinsonville","MS","G W Henderson Senior Rec Center","1165 Abbay St","38676",34.72002029418945,-90.37151336669922
"38668","Senatobia","MS","Curves Of Senatobia","212 E Main St","38668",34.619396,-89.961575
"38668","Senatobia","MS","Get Honeycutt Inc.","122 North Front Street","38668",34.61927032470703,-89.96491241455078
"38668","Senatobia","MS","ATC Fitness","152 Norfleet Dr","38668",34.61879748402094,-89.97441168015546
"38671","Southaven","MS","OLYMPIC Fitness Center","Goodman RD","not_available",34.96271,-89.98669
"38671","Southaven","MS","Quality Inn Fitness Center","8840 Hamilton Rd","38671",34.98954772949219,-89.99827575683594
"38671","Southaven","MS","ATC Fitness","2150 Goodman Rd E","38671",34.96337721,-89.95150423
"38671","Southaven","MS","Desoto Crossfit","478 Marathon Way Ste 5","38671",34.958125,-89.982318
"38671","Southaven","MS","Youfit Health Clubs","875 Goodman Rd E","38671",34.96107831852484,-89.97427359223366
"38671","Southaven","MS","Prize Fight MMA Academy","Marathon Way, Southaven, MS 38671","38671",34.96211869810238,-89.98765585438261
"38701","Greenville","MS","Extreme Fitness","2007 Highway 1 S","38701",33.36299514770508,-91.04150390625
"38701","Greenville","MS","YMCA of Greenville","1688 Fairgrounds Rd","38703",33.374141693115234,-91.03343200683594
"38732","Cleveland","MS","Anytime Fitness","207 N Davis Ave Ste G","38732",33.74608,-90.71704
"38732","Cleveland","MS","FitSmart Weight Loss And Training Centers","506 3rd St","38732",33.7516113370657,-90.71543499827385
"38771","Ruleville","MS","The Beacon Wellness Center","not_available","38771",33.73448181152344,-90.54558563232422
"38801","Tupelo","MS","Anytime Fitness","2421 W Main St","38801",34.25557,-88.74387
"38801","Tupelo","MS","Clarion Exercise Room","852 N Gloster St","38804",34.270965576171875,-88.71394348144531
"38801","Tupelo","MS","Tupelo High School Gymnasium","Cliff Gookin Blvd","38801",34.230871222101506,-88.76620805338278
"38801","Tupelo","MS","The Fitness Center","not_available","38801",34.21822203328874,-88.76540501582866
"38801","Tupelo","MS","Snap Fitness","549 N Coley Rd","38801",34.265066999999995,-88.773475
"38801","Tupelo","MS","Inspire Fitness and MMA","823 Harrison St","38801",34.245327,-88.7182492
"38804","Tupelo","MS","ATC Fitness Of Tupelo","4360 Mall Dr","38804",34.31371532539275,-88.70182381058736
"38821","Amory","MS","Gilmore Memorial Wellness Center","not_available","38821",33.97762680053711,-88.48577880859375
"38821","Amory","MS","Anytime Fitness","60383 Cotton Gin Port Rd","38821",33.96944,-88.45884
"38824","Baldwyn","MS","Snap Fitness","highway 45","38866",34.40395,-88.69623
"38834","Corinth","MS","Corinth Wellness","not_available","38834",34.92917221215588,-88.49654486966453
"38843","Fulton","MS","Anytime Fitness","104 Mueller Brass Rd","38843",34.249969482421875,-88.40547180175781
"38843","Fulton","MS","Anytime Fitness","104 Mueller Brass Rd.","38843",34.24941,-88.40599
"38843","Fulton","MS","CIA","not_available","38855",34.272411,-88.457683
"38851","Houston","MS","Health & Fitness Of Houston","117 Malcomb Dr","38851",33.906097412109375,-89.00155639648438
"38863","Pontotoc","MS","The Academy","Mississippi 15, Pontotoc, MS","38863",34.25533406363863,-89.01822959432339
"38863","Pontotoc","MS","Pontotoc Wellness Center","not_available","38863",34.249226,-89.00059
"38901","Grenada","MS","Snap Fitness","1234 Sunset Dr","38901",33.77469253540039,-89.82105255126953
"38901","Grenada","MS","Body 10","not_available","38901",33.76970291137695,-89.81718444824219
"38901","Grenada","MS","Anytime Fitness","1301 Sunset Dr Ste F","38901",33.77545,-89.82552
"38930","Greenwood","MS","Advanced Fitness Center","702 Highway 82 W","38930",33.512397,-90.20254200000001
"38930","Greenwood","MS","Twin Rivers Fitness Center","not_available","38930",33.53190534,-90.19755631
"38965","Water Valley","MS","Cornerstone","not_available","38965",34.14145501389676,-89.63701342801653
"38967","Winona","MS","Fatco","not_available","38967",33.482101,-89.727923
"39042","Brandon","MS","Focus Fit","5709 US-80 E","39208",32.284734,-90.041747
"39042","Brandon","MS","Snap Fitness","1149 Old Fannin Rd","39047",32.38080535815928,-90.04144902100634
"39042","Brandon","MS","University Wellness Center - Brandon","255 Mar Lyn Dr","39042",32.28327178955078,-90.03050994873047
"39042","Brandon","MS","Anytime Fitness","2155 SR-18","39042",32.273709000000004,-90.03554799999999
"39042","Brandon","MS","VIP Fitness","1139 Old Fannin Rd Ste F","39047",32.38041305541992,-90.04219055175781
"39042","Brandon","MS","Gym @ Bridgewater","500 Avalon Way","39047",32.37336349487305,-90.03650665283203
"39042","Brandon","MS","Anytime Fitness","5651 MS-25","39232",32.356383,-90.01135
"39042","Brandon","MS","The Courthouse Fitness Club","not_available","39208",32.27739452630186,-90.0406954251347
"39042","Brandon","MS","The Club","100 Professional Dr","39042",32.28135380086113,-90.02767450646735
"39042","Brandon","MS","Knockout Fitness","5319-5343 Mississippi 25","39232",32.34494786693294,-90.05241425062823
"39042","Brandon","MS","Club4 Flowood","5352 Lakeland Drive","39232",32.351653791212236,-90.03337472209012
"39046","Canton","MS","Starke Fitness","109 Dees Dr","39110",32.51469255701483,-90.10533034801483
"39046","Canton","MS","Orangetheory Fitness","111 Colony Crossing Way","39110",32.4754801,-90.1420393
"39046","Canton","MS","Champs For Christ Cheer","not_available","39110",32.517924,-90.099096
"39046","Canton","MS","Next Generation Fitness","105 Plantation Cv","39110",32.51182174682617,-90.1067123413086
"39046","Canton","MS","Holiday Inn Express Gym","not_available","39046",32.601437889890434,-90.06705148969468
"39046","Canton","MS","Excel Physical Therapy & Wellness","3425 N Liberty St","39046",32.619258,-90.035049
"39046","Canton","MS","Average Joe's Gym","140 Stratford Dr","39110",32.48173,-90.166772
"39046","Canton","MS","Fairfield Weightroom - The Knife Rack","Fairfield Dr.","not_available",32.48177243077832,-90.16106908869504
"39047","Brandon","MS","Reservior YMCA","6023 Lakeshore Park","39047",32.38832366639479,-90.03804467118063
"39047","Brandon","MS","The Courthouse Racquet Club","46 Northtown Dr","39211",32.386174708832996,-90.11093680712158
"39047","Brandon","MS","Club4 Madison","1022 Highway 51","39110",32.460933737629375,-90.11036095235528
"39047","Brandon","MS","The Club","953 Highway 51","39110",32.456413541971905,-90.11419146711926
"39047","Brandon","MS","Gym @ Sunchase Apartments","841-855 William Blvd","39157",32.404261383333335,-90.10270663333333
"39047","Brandon","MS","Fitness Center","Laurel Park Dr","39232",32.33697825311355,-90.07192341600833
"39047","Brandon","MS","steam room","not_available","39232",32.32760317127135,-90.11502670593438
"39047","Brandon","MS","Snap Fitness","7048 Old Canton Rd","39157",32.416861,-90.105692
"39047","Brandon","MS","YMCA Flowood","690 Liberty Rd","39232",32.34229199552529,-90.08581334647275
"39047","Brandon","MS","Upstairs Fitness Room","not_available","39211",32.386804,-90.110797
"39047","Brandon","MS","YMCA - Ridgeland","Avery Blvd S","39157",32.3997917175293,-90.11553955078125
"39047","Brandon","MS","Koko Fit Club","257 Ridge Way Blvd Blg M","39232",32.339667,-90.068286
"39047","Brandon","MS","My Kinect Gym","not_available","39157",32.414688,-90.100571
"39047","Brandon","MS","YMCA Flowood Indoor Soccer","624 Liberty Dr.","39232",32.34210935113737,-90.08565047167967
"39047","Brandon","MS","University Wellness Center - Lakeland","2625 Courthouse Cir","39232",32.3272101,-90.1151584
"39047","Brandon","MS","Max Nutrition","379 Ridge Way","39232",32.34014892578125,-90.06535339355469
"39047","Brandon","MS","Koko Fitclub","6923 Old Canton Rd","39157",32.411527,-90.106985
"39051","Carthage","MS","The Health Club","not_available","39051",32.73497009277344,-89.54151153564453
"39051","Carthage","MS","Anytime Fitness","303 S Van Buren Street","39051",32.73467,-89.534
"39056","Clinton","MS","Baptist Healthplex","102 Clinton Pkwy","39056",32.335943,-90.328135
"39056","Clinton","MS","Pearson Gym","not_available","39056",32.31414705703745,-90.33972218458656
"39056","Clinton","MS","Fitness Clinic","2219 Greenway Dr","39204",32.290477,-90.271415
"39056","Clinton","MS","YMCA","400 Lindale St","39056",32.338332717326395,-90.3044820296008
"39056","Clinton","MS","Anytime fitness","Clinton blvd","not_available",32.333548608399774,-90.29593275665674
"39067","Ethel","MS","Swoll's Gym","337A Hwy 12 West","39090",33.06405933258235,-89.59977000085375
"39073","Florence","MS","Anytime Fitness","5750 I-55 S","39272",32.18631,-90.25416
"39073","Florence","MS","Russell Gym","246 Green Hill Rd","39073",32.125762,-90.105507
"39073","Florence","MS","Fitness Plex","3000 Highway 49 S","39073",32.156844,-90.125399
"39073","Florence","MS","Anytime Fitness","2799 Hwy 49 S Suite E","39073",32.16439,-90.13008
"39074","Forest","MS","Snap Fitness","Highway 35","not_available",32.34074809525072,-89.48533123409165
"39110","Madison","MS","Madison HealthPlex Performance Center","501 Baptist Dr","39110",32.47073715618191,-90.13762098395596
"39110","Madison","MS","Hotworx","219 Garden Park Dr Ste 400","39110",32.46795654296875,-90.12651062011719
"39110","Madison","MS","Robot Coupe Fitness Room","264 S Perkins St","39157",32.426109313964844,-90.13670349121094
"39110","Madison","MS","The Courthouse at Cypress Lake","300 Lake Cir","39110",32.471649169921875,-90.16458892822266
"39110","Madison","MS","Pure Barre","1051 Highland Colony Pkwy Ste A","39157",32.442157,-90.149073
"39110","Madison","MS","Crossfit 601","113 W Railroad St","39157",32.42768859863281,-90.13365173339844
"39110","Madison","MS","Burn Boot Camp","2160 Main St","39110",32.46087,-90.10911
"39111","Magee","MS","Anytime Fitness","1573 US 49 S.","39111",31.86715292,-89.74140596
"39111","Magee","MS","Magee Weight Room","Magee","39111",31.87461718510671,-89.72944704910985
"39120","Natchez","MS","Perfect Fit Natchez","not_available","39120",31.550977713708015,-91.40059800998658
"39120","Natchez","MS","Natchez Total Fitness","99 Northgate Rd","39120",31.56399473129248,-91.35233769052508
"39120","Natchez","MS","Vidalia Total Fitness","not_available","71373",31.57257652282715,-91.44505310058594
"39120","Natchez","MS","Snap Fitness","Carter Street","71373",31.57308493295213,-91.45201442617794
"39120","Natchez","MS","Anytime Fitness","4012 Carter St","71373",31.573259353637695,-91.4540023803711
"39157","Ridgeland","MS","The Club at Lake Harbour","511 Lake Harbour Dr","39157",32.413558401232244,-90.1175387108107
"39157","Ridgeland","MS","Park Gym","Ring Rd","39157",32.401771545410156,-90.12949168682098
"39157","Ridgeland","MS","Quest Fitness Ridgeland","201 Ring Rd","39157",32.400418,-90.131383
"39157","Ridgeland","MS","the Trace gym","340 Arbor Dr","39157",32.408385305131205,-90.12831633976602
"39157","Ridgeland","MS","Planet Fitness","772 Lake Harbour Dr, Ste 1","39157",32.415341775072555,-90.11061446381416
"39157","Ridgeland","MS","Crunch Fitness - Ridgeland","2000 East County Line Road","39157",32.40110297,-90.10987852
"39157","Ridgeland","MS","Mississippi Crossfit","853 Wilson Dr","39157",32.406023890446114,-90.13882980498367
"39168","Taylorsville","MS","Velocity Fitness","315 Front St","39168",31.82965937303136,-89.4291615486145
"39170","Terry","MS","Courthouse Racquet & Fitness","118-130 Byram Pkwy","39272",32.18639553998207,-90.26949797816454
"39170","Terry","MS","Curves","not_available","39272",32.204367,-90.297283
"39180","Vicksburg","MS","Anytime Fitness","3403 Pemberton Square Blvd Unit C","39180",32.31366,-90.87967
"39180","Vicksburg","MS","Massenburg Memorial Athletic Center","2715 Confederate Ave","39180",32.32238006591797,-90.88201904296875
"39180","Vicksburg","MS","Fitness Works","Wisconsin rd.","39180",32.31766512736327,-90.86488596208753
"39180","Vicksburg","MS","#FuerzaChikitong","Calle 13","39180",32.199394,-90.942316
"39180","Vicksburg","MS","Vicksburg YMCA","YMCA place","39180",32.34135055541992,-90.83403778076172
"39201","Jackson","MS","JSU Walter Payton Center","833 Walter Payton Dr","39204",32.29499305515438,-90.20401927204755
"39201","Jackson","MS","King Edward Apartments Fitness Center","102 N Mill St","39201",32.300079,-90.190898
"39201","Jackson","MS","Courthouse Fitness Club - Downtown","100 E Capitol St","39201",32.302871197460675,-90.18629166343227
"39201","Jackson","MS","Baptist healthplex","Monroe St","39202",32.30031367989701,-90.19030703370518
"39201","Jackson","MS","Galloway UMC Fellowship Center","Mississippi Street","39201",32.30261147215048,-90.18289913453197
"39202","Jackson","MS","Training Room","1701 N State St","39210",32.32302171975979,-90.17959600683768
"39202","Jackson","MS","Baptist Healthplex","717 Manship St","39202",32.3138364,-90.17688179999999
"39202","Jackson","MS","Downtown YMCA","not_available","39202",32.30571006534094,-90.16377052470455
"39204","Jackson","MS","Quick Fitness","not_available","39204",32.29459762573242,-90.22852325439453
"39206","Jackson","MS","Orangetheory Fitness","120 District Blvd","39211",32.343214,-90.158755
"39206","Jackson","MS","Northeast Jackson YMCA","5060 N Hwy 55","39211",32.36817291253298,-90.14844719048978
"39206","Jackson","MS","Quest Fitness","not_available","39206",32.386089267271295,-90.20066083350318
"39206","Jackson","MS","Pure Barre","4500 I 55 N Ste 235A","39211",32.353829,-90.151201
"39206","Jackson","MS","Ntense Fitness 24/7","110 N State St, Jackson, MS 39201","39201",32.369564056396484,-90.16720581054688
"39206","Jackson","MS","The Fitness Factory Studio of Jackson","1491 Canton Mart Rd","39211",32.36533636620988,-90.14659881591797
"39206","Jackson","MS","Sunlighten Saunas Jackson","4400 Old Canton Rd","39211",32.35142135620117,-90.1512680053711
"39206","Jackson","MS","Anytime Fitness","4924 I-55 N Ste 107","39211",32.36374,-90.14944
"39208","Pearl","MS","The Club at St. Dominics","not_available","39216",32.33437018176077,-90.16520305568118
"39208","Pearl","MS","Planet Fitness","3029 Hwy 80 E","39208",32.280191,-90.119626
"39208","Pearl","MS","Fondren Fitness","2807 Old Canton Rd","39216",32.33406066894531,-90.17516326904297
"39208","Pearl","MS","Anytime Fitness","628 S Pearson Rd","39208",32.260852,-90.132209
"39208","Pearl","MS","The Club at St. Dominic's","970 Lakeland Dr","39216",32.33429,-90.165401
"39208","Pearl","MS","Anytime Fitness","655 Hwy 49 S Suites E, F, G","39218",32.23414,-90.16396
"39208","Pearl","MS","Burn Boot Camp","115 Laurel Park Cv","39232",32.33735,-90.07208
"39209","Jackson","MS","Next World Fitness","107 Bendwood Ct","39212",32.261932,-90.311943
"39209","Jackson","MS","Boxers Rebellion (Brazilian Jiu Jitsu)","332 New Market Dr","39209",32.2714729309082,-90.2885971069336
"39211","Jackson","MS","Fitness Expo","5725 Old Canton Rd","39211",32.37778687837027,-90.12154698371887
"39212","Jackson","MS","His House","Bent Tree","not_available",32.25674997,-90.30536198
"39213","Jackson","MS","MDOT Workout Zone","401 N West St","39201",32.332149,-90.183449
"39301","Meridian","MS","Club4 Meridian","4900 Poplar Springs Drive","39305",32.4103493,-88.69850989999999
"39301","Meridian","MS","Ironpig's Gym","not_available","39301",32.363138,-88.702489
"39301","Meridian","MS","Shape Up 24/7 - Gym","2210 Front St","39301",32.36259981265961,-88.69962089758933
"39301","Meridian","MS","Best Bodies of Meridian","4915 27th Pl","39305",32.410770416259766,-88.70620727539062
"39301","Meridian","MS","Best Bodies For Women","not_available","39305",32.4107,-88.706209
"39301","Meridian","MS","Anytime Fitness","2934 N Hills St","39305",32.40922,-88.70938
"39301","Meridian","MS","Snap Fitness","2405 Highway 39 N","39301",32.38409741477336,-88.68505180344147
"39301","Meridian","MS","Holiday Inn Fitness Center","100 N Frontage Rd","39301",32.36591720581055,-88.67520141601562
"39305","Meridian","MS","MWR Gym","not_available","39335",32.53640931484468,-88.65341199609544
"39322","Buckatunna","MS","Big Johnson's Weight Room","not_available","39367",31.687477461789186,-88.63225061477382
"39322","Buckatunna","MS","wayne general wellness center","Matthew Drive","39367",31.671974,-88.634352
"39323","Chunky","MS","Evil Threadmill","not_available","39323",32.292945861816406,-88.94120788574219
"39339","Louisville","MS","Anytime Fitness","534 N Church Ave","39339",33.13533,-89.05692
"39339","Louisville","MS","Red Hills Fitness and Tanning","not_available","39339",33.12519525,-89.04105914
"39350","Philadelphia","MS","Family Fitness","10251 co rd 2610","39350",32.76447643253707,-89.14727408570788
"39350","Philadelphia","MS","Vip Rehab","not_available","39350",32.75383758544922,-89.09803009033203
"39350","Philadelphia","MS","PAC","113 Lakeside Dr","39350",32.766109466552734,-89.12686157226562
"39355","Quitman","MS","The Body Shop","not_available","39355",32.03899,-88.728239
"39365","Union","MS","Payne Family Fitness","not_available","39365",32.57209087175968,-89.12197264237207
"39401","Hattiesburg","MS","Orangetheory Fitness","109 S 31st Ave","39401",31.3243465423584,-89.3365249633789
"39401","Hattiesburg","MS","Payne Center","101 College Dr","39406",31.33047223289812,-89.33664679527283
"39401","Hattiesburg","MS","CYCLEBAR","4600 Hardy St Ste 20","39402",31.322353943074006,-89.35751276669123
"39401","Hattiesburg","MS","Southern Bone And Joint","3688 Veterans Memorial Dr","39401",31.280983513568597,-89.32717373779724
"39401","Hattiesburg","MS","Get Fit","not_available","39401",31.331269,-89.35126
"39401","Hattiesburg","MS","Future Champ's Boxing Club","202 Unetta Street","39401",31.326993,-89.282365
"39401","Hattiesburg","MS","Bodybar","207 E Pine Street","39401",31.3271816138589,-89.28903981559101
"39401","Hattiesburg","MS","Parkwest Gym","12 Park Pl","39402",31.33026695251465,-89.35906219482422
"39401","Hattiesburg","MS","Crunch Fitness - Hattiesburg","4501 Hardy Street","39402",31.3277238,-89.3578156
"39401","Hattiesburg","MS","Institute For Wellness And Sports Medicine","not_available","39402",31.325885772705078,-89.36843872070312
"39401","Hattiesburg","MS","Planet Fitness","6128 US Hwy 49","39401",31.323732,-89.32855
"39401","Hattiesburg","MS","Foxgate Gym","200 Foxgate Ave","39402",31.317090999999998,-89.354136
"39401","Hattiesburg","MS","Crunch Fitness - Petal","922 Mississippi 42","39465",31.34977249999999,-89.2241736
"39401","Hattiesburg","MS","USM Athletic Center","Black and Gold Blvd","not_available",31.330013485202013,-89.33114878181416
"39401","Hattiesburg","MS","Pure Barre","163 Turtle Creek Dr Ste 180","39402",31.328798291136543,-89.37850077546312
"39401","Hattiesburg","MS","Spiers Fitness Center","5128 Old Highway 11","39402",31.30217933654785,-89.40985870361328
"39401","Hattiesburg","MS","Bazor MMA Club","1229 Highway 42, Suite 190","39465",31.35099983215332,-89.1976089477539
"39401","Hattiesburg","MS","Dr Bionic's P90X Gym","Foxgate Ave","39402",31.318626366666667,-89.35458
"39401","Hattiesburg","MS","Crossfit Hattiesburg","28 Commerical Warehouse Dr.","39402",31.335501,-89.384869
"39402","Hattiesburg","MS","Canebrake Country Club","1 Cane Dr","39402",31.328796873041938,-89.46679786258026
"39402","Hattiesburg","MS","Pure Performance g\Gym","Highway 98","39402",31.317762243267488,-89.42069324313921
"39402","Hattiesburg","MS","Anatomies","120 98 Place Blvd","39402",31.326361136626137,-89.41231268542019
"39426","Carriere","MS","Anytime Fitness","1605 Hwy. 11","39466",30.538251,-89.672925
"39426","Carriere","MS","Bodyworks Gym & Tanning Club","417 W Canal St","39466",30.526991741708095,-89.68506574630737
"39428","Collins","MS","Snap Fitness","3275 US 49","39428",31.634016967356974,-89.56006897720444
"39429","Columbia","MS","Body FX","not_available","39429",31.243856549263,-89.81236338615417
"39437","Ellisville","MS","Curves Of Ellisville","103 E Jessamine St, Ellisville, MS 39437","39437",31.603024793720827,-89.19608711274259
"39437","Ellisville","MS","Roosevelt Gym","201-299 Roosevelt St","39437",31.598621606826782,-89.20905947685242
"39437","Ellisville","MS","Spikes CrossFit","632 Country Home Road","39437",31.604384,-89.21914
"39440","Laurel","MS","Laurel Gym & Cheer","not_available","39440",31.71705899210316,-89.1519407561479
"39440","Laurel","MS","SCRMC Wellness Center","23 Mason St","39440",31.689046037433066,-89.13434263036913
"39452","Lucedale","MS","Backstreet Fitness","not_available","39452",30.92537,-88.586983
"39452","Lucedale","MS","Full Circle Fitness","not_available","39562",30.629440307617188,-88.56421661376953
"39455","Lumberton","MS","Total Fitness 24","506 S Main St","39470",30.841451,-89.53521500000001
"39474","Prentiss","MS","Dr. M. L. Arrington Fitness and Rehab Center","1110 Berry Street","39474",31.595109939575195,-89.87145233154297
"39475","Purvis","MS","Encore Rehabilitation","3688 Veterans Memorial Dr #300","39401",31.281017303466797,-89.32706451416016
"39501","Gulfport","MS","Club4 Gulfport","1355 E Pass Rd","39507",30.39663,-89.028487
"39501","Gulfport","MS","NCBC Gym - where seabees ""excercise""","not_available","39501",30.374531760525656,-89.13402490142386
"39501","Gulfport","MS","Bayou View Fitness","not_available","39560",30.35416483972868,-89.14831421439138
"39501","Gulfport","MS","Bayview Furniture","2181 Pass Rd","39507",30.400367,-89.007178
"39501","Gulfport","MS","The Nutrition Place","145 Hardy Court Shopping Ctr","39507",30.39225959777832,-89.04525756835938
"39501","Gulfport","MS","Nolan's Personal Training","not_available","39507",30.40009899949743,-89.00736649382432
"39501","Gulfport","MS","Fitness Center Hilton Garden Inn","not_available","39503",30.41586676414939,-89.07641753727098
"39501","Gulfport","MS","Bayou View Fitness","1116 Cowan Rd","39507",30.401870995132327,-89.02622209991611
"39501","Gulfport","MS","C. Apts. Gym","980 Courthouse Rd","39507",30.373814000000003,-89.084252
"39501","Gulfport","MS","Center For Health Management","15th Street","not_available",30.369483,-89.098439
"39501","Gulfport","MS","NCBC Fitness Center","5th Street","39501",30.37509816537075,-89.13399697446471
"39503","Gulfport","MS","Iron Works Gym Biloxi","220 Eisenhower Dr","39531",30.396241999999997,-88.99238100000001
"39503","Gulfport","MS","Riverchase Park Gym","Highland Ave","39503",30.454016999999997,-89.067205
"39503","Gulfport","MS","Country Hills Jogging Club","Trailwood","39503",30.476347966666665,-89.07517345
"39503","Gulfport","MS","Planet Fitness","12373 Highway 49,Suite 5","39503",30.4664156444853,-89.10235694050823
"39503","Gulfport","MS","Gulfport Crossfit","15007 Creosote Rd","39503",30.42727279663086,-89.08673095703125
"39503","Gulfport","MS","Woolmarket Elementary Gym","not_available","39532",30.470957096329904,-88.99772875311169
"39503","Gulfport","MS","Fitness Center @ The Reserve","11200 Three Rivers Rd","39503",30.446579999999997,-89.075891
"39503","Gulfport","MS","Coast Electric Gym","not_available","39556",30.403270098556455,-89.30042137611683
"39503","Gulfport","MS","CheerZone Athletics","17296 W Wortham Rd","39574",30.555218480951137,-89.12883816141488
"39503","Gulfport","MS","Bayou view fitness","not_available","39531",30.411298871040344,-88.99800717830658
"39503","Gulfport","MS","Candace's","15301-15399 Dellwood Cove","39503",30.463701166666667,-89.09835766666667
"39520","Bay Saint Louis","MS","Anytime Fitness","614 Blue Meadow Rd","39520",30.31813,-89.34754
"39520","Bay Saint Louis","MS","Wilmer Seymour Gymnasium","Blue Meadow Rd","39520",30.32031,-89.35011
"39520","Bay Saint Louis","MS","10-9 Cross Fit","10750 Mississippi 603","39520",30.32079577445984,-89.41259622573853
"39520","Bay Saint Louis","MS","Total Body Health & Fitness","546 Saint John St","39520",30.315117,-89.34501
"39520","Bay Saint Louis","MS","Fit First","not_available","39520",30.315675714790277,-89.35313028317208
"39525","Diamondhead","MS","Nautilus Plus","not_available","39525",30.37640965398069,-89.38053421665367
"39525","Diamondhead","MS","Dead End Cross Fit","17000 Kapalama Rd","39571",30.413637161254883,-89.34333801269531
"39525","Diamondhead","MS","Prestige Fitness","1059 Tina Ladner Vic Faye Rd","39571",30.40988441398883,-89.34243455658041
"39530","Biloxi","MS","YMCA","not_available","39564",30.413515865623264,-88.81795974564636
"39530","Biloxi","MS","Fitness Center @ the Isle","not_available","39530",30.391054,-88.861181
"39530","Biloxi","MS","Keesler Triangle Gym","7400-7406 Falcon St","39534",30.39970720163413,-88.92707668292287
"39530","Biloxi","MS","Keesler Health & Wellness Center","604 Chappie James Ave","39534",30.40496428498594,-88.91622833381726
"39530","Biloxi","MS","Planet Fitness","2390 Pass Rd","39531",30.40299224798628,-88.97477935756359
"39530","Biloxi","MS","Four Points Fitness Center","Four Points by Sheraton Biloxi Beach Boulevard","39530",30.394517251785345,-88.89500134691696
"39532","Biloxi","MS","Crunch Fitness - D'Iberville","10598 Diberville Boulevard","39540",30.4419745,-88.8982793
"39532","Biloxi","MS","Spin2Cycle at Home2 Suites Biloxi","3810 Promenade Pkwy","39540",30.458559036254883,-88.90057373046875
"39532","Biloxi","MS","Fitness Center - Arbor View Apartments","10480 Auto Mall Pkwy","39540",30.435990000000004,-88.898359
"39532","Biloxi","MS","DHS Gym","15625 Lamey Bridge Rd","39540",30.51070785522461,-88.93278503417969
"39532","Biloxi","MS","Tracie RockCo's Cheer & Tumble","not_available","39540",30.442095579962547,-88.89935033255621
"39532","Biloxi","MS","The Red Zone","3301B Warrior Dr","39540",30.438841843964116,-88.89305843432278
"39532","Biloxi","MS","one80 Fitness","10598 D'lverville BLvd","39540",30.442105020116895,-88.89831322918943
"39532","Biloxi","MS","Ashlee's Fitness Kickboxing Class @ ABMMA","3179 Mallett Rd Ste 22","39540",30.45652961730957,-88.88810729980469
"39532","Biloxi","MS","Anytime Fitness","4494 Popps Ferry Road Suite E","39540",30.443843841552734,-88.91529846191406
"39532","Biloxi","MS","Gracie United Biloxi","1735 Richard Dr Ste A3","39532",30.435505136847496,-88.93581680953503
"39532","Biloxi","MS","Crossfit Deep South","3301 Warrior Dr","39540",30.43907928466797,-88.89266204833984
"39532","Biloxi","MS","Tradition Family YMCA","not_available","39574",30.57509710166029,-89.05739382143035
"39553","Gautier","MS","BodyQuest Fitness and Aerobics Club","2707 Highway 90 Ste 7","39553",30.39200782775879,-88.65586853027344
"39553","Gautier","MS","Punchline Boxing Club","not_available","39553",30.408680555555556,-88.65472222222223
"39553","Gautier","MS","Gym A La Holman - Tredmill Time!","2009 Parkview Dr, Gautier, MS 39553","39553",30.461994171142578,-88.64254760742188
"39560","Long Beach","MS","Crunch Fitness - Long Beach MS","200 West Railroad Street","39560",30.3503799,-89.154674
"39560","Long Beach","MS","Long Beach Activity And Senior Center","20257 Daugherty Rd","39560",30.376302,-89.181749
"39562","Moss Point","MS","Snap Fitness","not_available","39567",30.37088966369629,-88.53807830810547
"39562","Moss Point","MS","Planet Fitness","3253 Denny Ave","39581",30.378988,-88.528507
"39562","Moss Point","MS","Curves","3529 Denny Ave","39581",30.380889892578125,-88.5246810913086
"39564","Ocean Springs","MS","Planet Fitness","2200A Bienville Blvd","39564",30.414786732171095,-88.80519991873712
"39564","Ocean Springs","MS","Flex Group Fitness","2202 Bienville Blvd","39564",30.41479215440893,-88.80503630466684
"39567","Pascagoula","MS","Fitness Zone","1201 Ingalls Ave","39567",30.35500213849126,-88.55248041073551
"39567","Pascagoula","MS","Healthquest @ Chevron Pascagoula","Pascagoula, MS 39581","39581",30.343221214071566,-88.4911682390528
"39573","Perkinston","MS","Athletic Performance Facility","Stadium Dr","39573",30.782952919207936,-89.14440309661185
"39577","Wiggins","MS","Anytime Fitness","969 Hall St","39577",30.84675,-89.14194
"39601","Brookhaven","MS","KDMC Fitness Center","300 Hwy 51","39601",31.585606514116744,-90.4560542223707
"39601","Brookhaven","MS","Snap Fitness","935 Brookway Blvd","39601",31.57862663269043,-90.4647445678711
"39601","Brookhaven","MS","The Body Shop Edge","101 Whitebrook Dr","39601",31.57565817,-90.4573275
"39601","Brookhaven","MS","Comfort Inn Gym","not_available","39601",31.579938,-90.470867
"39601","Brookhaven","MS","MS Gym of Dreams","327 Brookhaven St","39601",31.57762140758526,-90.45973062515259
"39648","Mccomb","MS","Anytime Fitness","417 Apache Dr","39648",31.25424,-90.48026
"39648","Mccomb","MS","fitness room","not_available","39648",31.224170684814453,-90.4865951538086
"39648","Mccomb","MS","FitLife SportsPlex","329 Anna Dr","39648",31.2454117,-90.4778826
"39648","Mccomb","MS","Champion Training","223 State St","39648",31.244845,-90.45331
"39648","Mccomb","MS","The Dungeon","100-198 N Railroad Blvd","39648",31.24422616,-90.45155488
"39654","Monticello","MS","Mullins Gym","not_available","39654",31.55258748576461,-90.1128071433637
"39701","Columbus","MS","Anytime Fitness","3918 US-45","39705",33.55023956298828,-88.43251037597656
"39701","Columbus","MS","New Hope YMCA","2080 Lake Lowndes Rd","39702",33.43952178955078,-88.32393646240234
"39701","Columbus","MS","Core Fitness 24/7","2414 Highway 45 N","39705",33.536281,-88.437488
"39701","Columbus","MS","Forged Training Centers","3910 US-45","39705",33.549929,-88.432467
"39701","Columbus","MS","Stark Rec Center","not_available","39701",33.49065670992778,-88.41962521419944
"39701","Columbus","MS","Relentless Mixed Martial Arts and Fitness Columbus MS","711 Alabama St","39702",33.49429,-88.37208
"39701","Columbus","MS","Iron Heart Gym","454 Wilkins Wise Rd","39705",33.52506432138074,-88.44405924349574
"39705","Columbus","MS","Columbus AFB Gym","not_available","39705",33.62956173553077,-88.44228828206143
"39735","Ackerman","MS","Round The Clock Fitness Club","not_available","39735",33.31046336871258,-89.17252727412792
"39759","Starkville","MS","OCC Cardio Room","not_available","39759",33.4425775698168,-88.81483121379851
"39759","Starkville","MS","Orangetheory Fitness","401 University Dr","39759",33.46431350708008,-88.80998229980469
"39759","Starkville","MS","Big Dawg Personal Training","112 Willow Rd","39759",33.45362854003906,-88.82734680175781
"39759","Starkville","MS","Pure Barre","87-5 Cotton Mill Rd","39759",33.45562148016576,-88.80430192509851
"39759","Starkville","MS","Club4 Starkville (Club4Fitness Starkville)","406 Mississippi 12 West","39759",33.45580244,-88.82850068
"39759","Starkville","MS","Crossgates Apts Workout Room","Stark Rd, Starkville, MS 39759","39759",33.457545622340795,-88.84796204019239
"39773","West Point","MS","Anytime Fitness","45 Airport Rd","39773",33.58491,-88.66148
