"zip","city","state","name","address","postalCode","lat","lon"
"03031","Amherst","NH","Hampshire Hills Sports & Fitness - Indoor Pools","50 Emerson Rd","03055",42.81392371590683,-71.6367259723853
"03031","Amherst","NH","The Studio At Carriage Lane","3 Carriage Ln","03110",42.91642761230469,-71.5675277709961
"03031","Amherst","NH","Hampshire Hills Studio 1","not_available","03054",42.82195,-71.559581
"03031","Amherst","NH","Gold","not_available","not_available",42.87154,-71.685146
"03031","Amherst","NH","Sky High Gymnastics","185 Elm St","03055",42.8384077,-71.6675138
"03031","Amherst","NH","Gold's Gym","195 Elm St","03055",42.83884602512241,-71.66721621996516
"03032","Auburn","NH","welliot Gym - Elliot","not_available","03103",42.94995146595255,-71.39412425107051
"03033","Brookline","NH","Crossfit Hephaestus","not_available","03038",42.7917884241416,-71.63737097381006
"03036","Chester","NH","Kickstart Fitness Personal Training","37 Fremont Rd","03873",42.93389129638672,-71.18385314941406
"03037","Deerfield","NH","Anytime Fitness","262 1st NH Turnpike Ste. 1","03261",43.19885,-71.15733
"03038","Derry","NH","CKO Kickboxing Londonderry","4 Orchard View Drive","03053",42.86364494,-71.35335238
"03038","Derry","NH","Orangetheory Fitness","30 Main St","03053",42.87263107299805,-71.3476333618164
"03038","Derry","NH","Integrity Health Coaching for Women","44 Nashua Rd","03053",42.867117,-71.348911
"03038","Derry","NH","curves for women londonderry nh","4 Orchard View Dr","03053",42.863439,-71.354241
"03038","Derry","NH","Balanced Body Fitness Gx","42 Manchester Rd","03038",42.89862060546875,-71.33771514892578
"03042","Epping","NH","The Zoo Health Club - Epping","4 Beehive Dr","03042",43.03208923339844,-71.07256317138672
"03043","Francestown","NH","The Gym","not_available","03281",43.022381,-71.752163
"03045","Goffstown","NH","Planet Fitness","553 S Mast Rd","03045",43.00098796527228,-71.51680786567879
"03045","Goffstown","NH","G&H Fitness","679 Mast Road","03824",42.99430525517979,-71.50646924972533
"03045","Goffstown","NH","Gold's Gym","64 Daniel Plummer Rd","03045",42.995868437648014,-71.52087057842114
"03045","Goffstown","NH","The Oriental Martial Arts of NH","712 Mast Rd Fl 2","03102",42.99201009999999,-71.5035618
"03045","Goffstown","NH","FitLab","Daniel Plummer Rd","not_available",42.995618,-71.52114
"03045","Goffstown","NH","The Gym at the Clubhouse at Woodland Pond","not_available","03102",43.04730021788614,-71.50540171540459
"03045","Goffstown","NH","Highwood Village Gym","Mountain Ash Ln","not_available",42.990022,-71.516575
"03045","Goffstown","NH","YMCA Allard Center","116 Goffstown Back Rd","03045",43.02107030029876,-71.53130131094288
"03047","Greenfield","NH","EMS Fitness Center","1 Vose Farm Rd","03458",42.915061950683594,-71.93826293945312
"03047","Greenfield","NH","Bond Wellness Center","458 Old Street Rd","03458",42.89352103408899,-71.94085103293331
"03048","Greenville","NH","NIX GYM","138 Turnpike Rd","03071",42.742191314697266,-71.81861114501953
"03049","Hollis","NH","Gold's Gym","522 Amherst St","03063",42.79484619000176,-71.52734806791757
"03049","Hollis","NH","Get In Shape For Women","not_available","03063",42.798225,-71.533355
"03049","Hollis","NH","EnduraFit","not_available","03049",42.743852,-71.588629
"03051","Hudson","NH","Pure Barre","112 Spit Brook Rd Ste B","03062",42.7085561,-71.458543
"03051","Hudson","NH","Anytime Fitness","77 Derry Rd","03051",42.77562,-71.44383
"03051","Hudson","NH","Orangetheory Fitness","104 Spit Brook Rd","03062",42.708299384142855,-71.45691079882754
"03051","Hudson","NH","Royal Crest Gym","Royal Crest Drive","not_available",42.71234887924083,-71.44806880691326
"03051","Hudson","NH","Golds gym","not_available","03045",42.754145967454775,-71.42782304982669
"03051","Hudson","NH","Gateway Hills Health Club","100 Innovative Way","03062",42.713094354605836,-71.4591087187916
"03051","Hudson","NH","Work Out World","300 Main St","03060",42.752487933316814,-71.4593910659803
"03051","Hudson","NH","American Fitness Center","50 Bridge St","03060",42.763782429825305,-71.44830058516578
"03051","Hudson","NH","Whitney Sauna","5-9 Grove St","03064",42.765676975250244,-71.46287798881531
"03051","Hudson","NH","Koko FitClub","225 Daniel Webster Hwy","03060",42.712398,-71.443994
"03051","Hudson","NH","Snap Fitness","290 Derry Rd","03051",42.81402587890625,-71.42254638671875
"03051","Hudson","NH","FitLab Hudson","142 Lowell Rd","03051",42.74664306640625,-71.42469024658203
"03051","Hudson","NH","NashFit","1 Oracle Dr","03062",42.710798292200764,-71.46039571149639
"03051","Hudson","NH","Gym","7-11 Dan Chan St","03060",42.70409466,-71.43859954
"03051","Hudson","NH","Atlantis Sports Club & Spa","11 Tara Blvd","03062",42.71018272283415,-71.45351829271515
"03051","Hudson","NH","Bay Ridge Gym","25 Bay Ridge Dr","03062",42.70424806780838,-71.45731209534529
"03052","Litchfield","NH","YMCA of Greater Nashua, Merrimack Branch","6 Henry Clay Dr","03054",42.80527291095128,-71.4832500822819
"03052","Litchfield","NH","Planet Fitness","105 Daniel Webster Hwy","03054",42.808409,-71.482733
"03053","Londonderry","NH","NH MEET OF CHAMPIONS","not_available","03053",42.881090092846044,-71.38827940558927
"03053","Londonderry","NH","In The Ring Fitness","42-44 Manchester Rd","03038",42.917109274461474,-71.37455988638405
"03053","Londonderry","NH","Balance Body Fitness","Crosby Ln","03053",42.84637203,-71.36368554
"03053","Londonderry","NH","Training Effects","Mohawk Dr","03053",42.84784698486328,-71.35914611816406
"03053","Londonderry","NH","The Workout Club","18 Orchard View Dr #2","03053",42.86144673917513,-71.35673980507534
"03053","Londonderry","NH","Executive Health & Sports Center","1 Highlander Way","03103",42.92567,-71.44844
"03053","Londonderry","NH","Celebrity Cheer","10 Liberty Dr","03053",42.915848,-71.362686
"03054","Merrimack","NH","Spenga Nashua","493 Amherst St","03063",42.79270935058594,-71.52186584472656
"03054","Merrimack","NH","Planet Fitness","360 Daniel Webster Hwy, Ste103","03054",42.849384,-71.494332
"03054","Merrimack","NH","Crossfit Earned","26B Columbia Cir","03054",42.85222625732422,-71.49414825439453
"03054","Merrimack","NH","Spartan Way Fitness Center","1 Spartan Way","03054",42.82381057739258,-71.5115737915039
"03054","Merrimack","NH","Gold's Gym Merrimack","515 Daniel Webster Hwy","03054",42.87185150564991,-71.49008005312832
"03054","Merrimack","NH","The Merrimack Wellness Center","2 Contra Way","03054",42.81418991088867,-71.50898742675781
"03060","Nashua","NH","z club Zumba","not_available","03060",42.76007074195431,-71.4700290608156
"03060","Nashua","NH","Best Fitness Nashua","55 Northeastern Blvd Unit 4","03062",42.737286387065055,-71.483392487313
"03060","Nashua","NH","Train 180","1 Pine Street Ext","03060",42.760582,-71.474992
"03060","Nashua","NH","AB Development","3 Progress Ave","03062",42.74258745203382,-71.49269271192496
"03060","Nashua","NH","ultimate fitness of new england","3 Pine St Exd g,","03060",42.75836181640625,-71.47306823730469
"03060","Nashua","NH","Jan C. Gym","110 Searles Rd","03062",42.714958,-71.487489
"03060","Nashua","NH","Clocktower Health Club","2 Clocktower Pl","03060",42.76066207885742,-71.47117614746094
"03060","Nashua","NH","Dynamic Strength and Conditioning","115 Northeastern Blvd","03062",42.740299,-71.492976
"03060","Nashua","NH","Clocktower health club swimming pool","Clocktower place","03060",42.76097382224264,-71.46983340574548
"03060","Nashua","NH","Results Fitness & Training Studio for Women","111 Main St","03060",42.762009,-71.466234
"03062","Nashua","NH","YMCA of Greater Nashua, Nashua Branch","24 Stadium Dr","03062",42.74706876892265,-71.50476916640386
"03062","Nashua","NH","Basement Gymin' It","not_available","03062",42.73687913647119,-71.51650203567665
"03062","Nashua","NH","Nashua Athletic Club","596 W Hollis St","03062",42.74207737072545,-71.50710196720115
"03062","Nashua","NH","Fit for Life Personal Training (Gym)","264 Main Dunstable Rd","03062",42.74121,-71.495095
"03063","Nashua","NH","Crossfit Nashua","106 Perimeter Rd","03063",42.77999915624222,-71.51933215163105
"03063","Nashua","NH","PlusOne Fitness @ FLIR Systems","9 Townsend Way, Nashua, NH 03063","03063",42.788470072494256,-71.52080874907212
"03063","Nashua","NH","Orangetheory Fitness","345 Amherst St","03063",42.7833776,-71.5032135
"03063","Nashua","NH","Somerset Swim and Fitness","2 Somerset Pkwy","03063",42.787335379726585,-71.50438116032298
"03063","Nashua","NH","Longevity Personalized Fitness Training","83 Perimeter Rd","03063",42.780677000000004,-71.517319
"03063","Nashua","NH","Active Body Studio","303 Amherst St #10","03063",42.781653,-71.497866
"03071","New Ipswich","NH","BeFit gym","Rt 124","03071",42.759476,-71.873455
"03076","Pelham","NH","Workout Club and Wellness Center","16 Pelham Rd","03079",42.77666,-71.247856
"03076","Pelham","NH","Endure-Strength-Flow","60 Lowell Rd-the Icenter","03079",42.76544718530801,-71.24869281349186
"03076","Pelham","NH","Big Hitters","14 Village Grn","03076",42.733280181884766,-71.32672119140625
"03076","Pelham","NH","Optima Sports Therapy","16 Pelham Rd Ste 2","03079",42.776585,-71.247857
"03076","Pelham","NH","Curves For Women","bridge st","03076",42.7236103,-71.31886721666666
"03076","Pelham","NH","Salem Athletic Club","16 Manor Pkwy","03079",42.78073793342175,-71.2514152812543
"03079","Salem","NH","Planet Fitness","92 Cluff Crossing Rd","03079",42.765998,-71.22068
"03079","Salem","NH","Orangetheory Fitness","236 N Broadway","03079",42.79261768662836,-71.23443461563924
"03079","Salem","NH","Get In Shape","224 N Broadway","03079",42.790552000000005,-71.233162
"03079","Salem","NH","Spicket Commons Mini-Gym","23 Hampshire Rd.","not_available",42.740581676436825,-71.20334596000001
"03079","Salem","NH","the mill then rack","97 Range Rd","03087",42.79771423339844,-71.27466583251953
"03079","Salem","NH","CrossFit Free","7 Delaware Dr #3, Salem, NH 03079","03079",42.76396278780773,-71.24144377835486
"03079","Salem","NH","F45 Training Windham NH","2 Sharon Rd","03087",42.806485,-71.261613
"03079","Salem","NH","EFX","not_available","03079",42.75255849022197,-71.2065562849625
"03087","Windham","NH","Windham Pilates Studio","46 Lowell Rd","03087",42.79063711,-71.30810289
"03087","Windham","NH","Anytime Fitness","32 Indian Rock Rd","03087",42.804888,-71.296467
"03101","Manchester","NH","YMCA of Downtown Manchester","30 Mechanic St","03101",42.992022,-71.463921
"03101","Manchester","NH","Zumba With Marianela","286-336 Commercial St","03101",42.99062045640349,-71.4683306570441
"03101","Manchester","NH","NLP Performance Training Center","31 S. Commercial St","03101",42.984938752439604,-71.46849860053558
"03101","Manchester","NH","NLP Next Level Performance","31 S Commercial St","03101",42.984732559009636,-71.46777974570047
"03101","Manchester","NH","Sauna at the YMCA","Mechanic st","not_available",42.996334715139625,-71.46446951633973
"03101","Manchester","NH","Fortitude Health and Training","775 Canal St","03101",42.99664798704233,-71.46558782331704
"03101","Manchester","NH","Cheer Gym","55 South Commercial St","03101",42.98405339458176,-71.46817555080672
"03101","Manchester","NH","Golds Gym Steam Room","not_available","03101",42.997907,-71.466249
"03101","Manchester","NH","Manchester Jazzercise Fitness Center","32 Hayward St","03103",42.979987,-71.462188
"03101","Manchester","NH","Perfect Fit Fitness Bootcamps","66 Hanover St","03101",42.991182,-71.46141300000001
"03101","Manchester","NH","Crossfit New Hampshire","540 North Commercial St","03101",42.995591,-71.46820600000001
"03101","Manchester","NH","GSCU Gym","1415 Elm St","03101",42.998363,-71.463599
"03101","Manchester","NH","Gold's Gym","89 Dow St","03101",42.99791489502987,-71.46634603256487
"03101","Manchester","NH","CrossFit New Hampshire","250 Commercial Ace. STE 1008","03101",42.989990999999996,-71.468962
"03102","Manchester","NH","Elite personal training and fitness","Second Street","03102",42.969349,-71.480259
"03102","Manchester","NH","Curves For Women","865 2nd St","03102",42.969349,-71.480259
"03102","Manchester","NH","Epub Fitness And Recreation Center","Donald Street","03102",42.975283,-71.488883
"03103","Manchester","NH","The Zoo Health Club","377 S Willow St","03103",42.966388493110586,-71.45235875933307
"03103","Manchester","NH","Gym","38 Hawthorne Dr","03110",42.94185256958008,-71.4623031616211
"03103","Manchester","NH","Workout Club","93 S Maple St","03103",42.97087573778297,-71.45370431532525
"03103","Manchester","NH","Freak Factory NE LLC","345 Cilley Rd","03103",42.97281265258789,-71.4477767944336
"03103","Manchester","NH","River Glen Gym","Bourne Dr.","03110",42.92360345077342,-71.45604597402627
"03103","Manchester","NH","Gym@Kensington","49a Technology Dr","03110",42.92465912,-71.45585578
"03103","Manchester","NH","Club Fitness","410 S River Rd","03110",42.91979180396457,-71.46037188821502
"03103","Manchester","NH","EfX Fitness","60 Rogers St","03103",42.979147,-71.449548
"03103","Manchester","NH","Strong CUBED Fitness","60 Rogers St Unit 12","03103",42.97918949459113,-71.44960641860962
"03104","Manchester","NH","Orangetheory Fitness","545 Hooksett Rd","03104",43.01505589207377,-71.4512287052706
"03104","Manchester","NH","The Workout Club","35 Hamel Drive","03104",43.01974449999999,-71.4495325
"03104","Manchester","NH","Fitness Frenzy","not_available","03104",43.00609,-71.43008
"03104","Manchester","NH","Workout Club & Wellness Center","not_available","03106",43.01968114578271,-71.44928278089952
"03106","Hooksett","NH","Express Fitness","1328 Hooksett Rd","03106",43.054958,-71.4424788
"03106","Hooksett","NH","Athletic Republic NH","311 West River Rd","03106",43.07581329345703,-71.4685287475586
"03109","Manchester","NH","Comcast Fitness Center","676 Island Pond Rd","03109",42.970924377441406,-71.41126251220703
"03110","Bedford","NH","Warrior's Soul Healing Movment","43 Constitution Dr","03110",42.9577915,-71.5016764
"03110","Bedford","NH","Training Zone","not_available","03110",42.96116265034395,-71.47960588181613
"03110","Bedford","NH","Pure Barre","79 S River Rd Ste 4","03110",42.957974777804424,-71.47629219338745
"03110","Bedford","NH","CrossFit Bedford","337 Route 101","03110",42.92314147949219,-71.53707885742188
"03110","Bedford","NH","Focus On Fitness","384 New Hampshire 101, Bedford, NH 03110","03110",42.91870211468881,-71.5428631553858
"03110","Bedford","NH","Orangetheory Fitness","121 S River Rd","03110",42.95424270629883,-71.47789764404297
"03215","Waterville Valley","NH","Waterville Valley Athletic Center","not_available","03215",43.94656009628433,-71.50561965021657
"03217","Ashland","NH","Adams Body Shop","not_available","03217",43.698114,-71.639796
"03220","Belmont","NH","LRGH Gym","87 Spring St","03246",43.528426,-71.46295
"03221","Bradford","NH","Keelin Studio for Health & Wellness","895 Route 103","03255",43.3178596496582,-72.03338623046875
"03223","Campton","NH","BVD FITNESS","1303 NH Route 175","03223",43.86310577392578,-71.6345443725586
"03224","Canterbury","NH","Concord Sports Center","2 Whitney Rd","03301",43.288174,-71.58268699999999
"03226","Center Harbor","NH","Galaxy Gym","not_available","03226",43.713968,-71.456844
"03226","Center Harbor","NH","Patty's house of fitness","Whittier Hwy","03253",43.67436403937287,-71.48197938720013
"03226","Center Harbor","NH","The Fitness Edge","not_available","03254",43.712380069635884,-71.45201693533353
"03229","Contoocook","NH","The Carriage House","not_available","03229",43.222815911081305,-71.7129135131836
"03234","Epsom","NH","Golds gym","Daniel plumber rd","03258",43.232696,-71.399676
"03234","Epsom","NH","Insanity Gym","not_available","03234",43.1836051940918,-71.36780548095703
"03235","Franklin","NH","Snap Fitness","880 Central St","03235",43.44739532470703,-71.62749481201172
"03237","Gilmanton","NH","Planet fitness","Daniel webster hwy","03220",43.4356978879107,-71.34856329442016
"03241","Hebron","NH","Ninth State Movement Complex","31 Route 25","03264",43.7714255265556,-71.7647035379833
"03241","Hebron","NH","Carpe Diem Crossfit","12 Yeaton Rd","03264",43.7703857421875,-71.75438690185547
"03242","Henniker","NH","Henniker Fitness Center","not_available","03242",43.17523919835682,-71.84245106757372
"03244","Hillsborough","NH","Wall Street Fitness","1-99 Wall St","03244",43.109546646862235,-71.90091995895314
"03246","Laconia","NH","CrossFit Juggernaut","24 Lexington Dr","03246",43.54608917236328,-71.48594665527344
"03246","Laconia","NH","Heavy Metal Gym!","not_available","03249",43.56675088031089,-71.44649107062368
"03246","Laconia","NH","The Margate Resort Health Spa","76 Lake St","03246",43.56505584716797,-71.44866180419922
"03249","Gilford","NH","Gilford Hills Tennis & Fitness Club","314 Old Lake Shore Rd","03249",43.570195,-71.407882
"03249","Gilford","NH","Gilford Youth Center","19 Potter Hill Rd","03249",43.54796214763875,-71.40468369163972
"03251","Lincoln","NH","Pollard Brook Resort Gym","not_available","03251",44.04081356599874,-71.67308121161115
"03251","Lincoln","NH","Mittersill Gym","not_available","03580",44.181019183822265,-71.71272934029268
"03253","Meredith","NH","Crossfit Nova Vita","3 Winona Rd","03253",43.639874,-71.529928
"03253","Meredith","NH","OPC Ladies Club","Old Province Common","03253",43.64152248700315,-71.51081767721045
"03253","Meredith","NH","Curves (@ Olde Province Common Plaza)","not_available","03253",43.641531,-71.510779
"03254","Moultonborough","NH","Robindel Gym","not_available","03816",43.6734100279491,-71.33677384062197
"03261","Northwood","NH","Panatones Health Club","19 Davlynn Dr","03261",43.18850326538086,-71.14493560791016
"03275","Suncook","NH","Fun Intelligent Training","30 Henniker St","03301",43.204138,-71.48853299999999
"03276","Tilton","NH","J. Jill Gym","not_available","03276",43.46079,-71.569974
"03301","Concord","NH","Sweat Emporium","not_available","03301",43.209516,-71.545148
"03301","Concord","NH","Executive wellness","Hall st","not_available",43.17094079419712,-71.53379812342257
"03301","Concord","NH","Rob's Executive Wellness","Hall Street","03301",43.180328,-71.525613
"03301","Concord","NH","LFG Gym","1 Granite Pl","03301",43.217586,-71.556771
"03301","Concord","NH","Racquet Club of Concord","10 Garvins Falls Rd","03301",43.188821813162654,-71.51324383287297
"03301","Concord","NH","Heights Community Center","22 Canterbury St.","03301",43.21466221439677,-71.5063175776083
"03301","Concord","NH","Courtyard exercise room","Courtyard","03301",43.218077389395795,-71.5364121690997
"03301","Concord","NH","One2one","2 Pillsbury St","03301",43.192752777694245,-71.53294978772209
"03301","Concord","NH","The Ward","36 Clinton St","03301",43.196865,-71.545119
"03301","Concord","NH","White Mountain Crossfit","223 S Main St","03301",43.194916527403194,-71.53039616604991
"03301","Concord","NH","Better Fit","553 Route 3A","03304",43.16389083862305,-71.51488494873047
"03301","Concord","NH","43 Degrees North Athletic Club","2 Home Ave","03301",43.18969,-71.52509
"03301","Concord","NH","Gym on three","Franklin street","03301",43.21181,-71.54569
"03301","Concord","NH","Golds Gym Sauna","330 Hall St, Concord, NH 03301","03301",43.20520556776177,-71.5317926559706
"03301","Concord","NH","Core Fitness","Hall St","03275",43.189601990001705,-71.52511314633085
"03301","Concord","NH","Golds Gym","2-98 Home Ave","03301",43.18981396705176,-71.52531607077538
"03301","Concord","NH","Holiday Inn M4J4 Gym","Holiday Inn","03301",43.209158,-71.536413
"03431","Keene","NH","Fit Nation","428 Winchester St","03431",42.91928577797144,-72.29046147840015
"03431","Keene","NH","Tomcat Gym","Beech St, Keene, NH 03431","03431",42.93673719494678,-72.271686538077
"03431","Keene","NH","Spaulding Gymnasium","Keene State College","03431",42.92591725437576,-72.28143453598022
"03431","Keene","NH","Lady of America","20 Commercial St","03431",42.931470924246106,-72.27972203537492
"03431","Keene","NH","Mom's Gym","not_available","03431",42.9444067097658,-72.24891934085026
"03431","Keene","NH","Nitro Fitness ~ Core Training For Men","149 Emerald St, Keene, NH 03431","03431",42.93077087402344,-72.28289031982422
"03431","Keene","NH","Planet Fitness","41 Ash Brook Rd","03431",42.926606,-72.301314
"03443","Chesterfield","NH","Jane The Pain's Gym","not_available","03462",42.90578484535217,-72.46084213256836
"03443","Chesterfield","NH","Arne Hansen Center (Gym)","Rt.9A","03462",42.89961029203208,-72.44747667810623
"03446","Swanzey","NH","Cheer Kingdom","not_available","03446",42.850205,-72.254661
"03452","Jaffrey","NH","Pulse Fitness for Women","82 Fitzgerald Dr","03452",42.8054313659668,-72.01026916503906
"03458","Peterborough","NH","Performance Health","301 Jaffrey Rd","03458",42.84742093896474,-71.96526914834976
"03466","West Chesterfield","NH","Supreme Fitness","1589 Putney Rd","05301",42.89624513310937,-72.55065885361637
"03561","Littleton","NH","LRH Gym","St. Johnsbury Rd.","03785",44.303388418483436,-71.7935023168618
"03570","Berlin","NH","Bodyline Fitness Gym","riverside drive","03588",44.4722553532392,-71.17666801511717
"03570","Berlin","NH","Spartans Weight Lifting Club","not_available","03570",44.473279,-71.185849
"03574","Bethlehem","NH","Rosebrook Recreation Center","not_available","03575",44.261408503184136,-71.45804669219869
"03576","Colebrook","NH","Bridge St Gym And Fitness Center","Bridge St","03576",45.00626754760742,-71.50886535644531
"03581","Gorham","NH","Gym @ Al Samar, Greens","Greens","not_available",44.2885,-71.2257
"03608","Walpole","NH","Flex Fitness","5 The Square","05101",43.134254455566406,-72.44497680664062
"03608","Walpole","NH","Greater Rock Fitness","not_available","05101",43.126780417854576,-72.44415571393147
"03740","Bath","NH","Planet Fitness","179 Central St","03785",44.14653778076172,-72.03408813476562
"03740","Bath","NH","The Railyard Raquetball Club","not_available","03785",44.14504207,-72.03276655
"03743","Claremont","NH","Twisted Fitness","23 Pleasant St","03743",43.37209272185965,-72.33866202264998
"03743","Claremont","NH","Junior Sports League","not_available","03743",43.37160110473633,-72.34196472167969
"03743","Claremont","NH","Zotto Gymnasium","Broad St","03743",43.370811775438334,-72.33584484834407
"03748","Enfield","NH","South Cove Fitness Center","not_available","03753",43.51484943692433,-72.11293845357585
"03755","Hanover","NH","Lacorte Workout Room","not_available","03755",43.705094,-72.296037
"03755","Hanover","NH","River Valley Club","33 Morgan Dr","03766",43.67767111462355,-72.26071796982856
"03755","Hanover","NH","Timberwood Commons Fitness Center","6 Timberwood Dr","03766",43.666160583496094,-72.2574691772461
"03755","Hanover","NH","Ivy Place Clubhouse Gym","30 Wolf Rd Unit 4","03766",43.66033172607422,-72.24906921386719
"03766","Lebanon","NH","CCBA","1 Taylor St","03766",43.644706495923145,-72.25033117235712
"03766","Lebanon","NH","Mom's 90x Gym","not_available","03766",43.641833,-72.247949
"03766","Lebanon","NH","Gracie Jiu-jitsu of the Upper Valley (Penthouse)","45 Hanover St","03766",43.64305877685547,-72.25379180908203
"03766","Lebanon","NH","Waynes World EFT","85 Mechanic St","03766",43.638328552246094,-72.2586898803711
"03766","Lebanon","NH","Fitness Centre","35 Labombard Rd","03766",43.656095,-72.242547
"03773","Newport","NH","Newport Recreation Department","65 Belknap Ave","03773",43.36622619628906,-72.1785659790039
"03773","Newport","NH","Newport Fitness & Spa","25 S Main St","03773",43.36435188161468,-72.17318378683069
"03784","West Lebanon","NH","Anytime Fitness","66 Benning St. Ste. 2","03784",43.6324,-72.31411
"03784","West Lebanon","NH","curves","Hartford Ave","05001",43.660683,-72.314514
"03801","Portsmouth","NH","Cycle Fierce","2454 Lafayette Rd","03801",43.03444786782188,-70.78334778416244
"03801","Portsmouth","NH","Seacoast Sports Clubs Downtown","95 Brewery Ln","03801",43.06940191147737,-70.76977077471437
"03801","Portsmouth","NH","Coastal Fitness","75 US Route 1 Byp","03904",43.09622983212883,-70.75070322563023
"03801","Portsmouth","NH","Spinnaker Point Rec Center","Spinnaker Way","03801",43.08616950192747,-70.77726838676067
"03801","Portsmouth","NH","Fletchers Fitness Center","Portsmouth Naval Shipyard","03904",43.07964863914704,-70.73148573911635
"03801","Portsmouth","NH","Perfected Heath - Personal Training and Nutrition","1 Raynes Ave","03801",43.080230712890625,-70.76343536376953
"03801","Portsmouth","NH","Planet Fitness","26 Fox Run Rd","03801",43.099159240722656,-70.80838775634766
"03801","Portsmouth","NH","Courtyard Marriott Fitness Center","1000 Market St","03801",43.082942962646484,-70.77668762207031
"03801","Portsmouth","NH","Seacoast Sports Club Greenleaf","Greenleaf Ave","03801",43.05427261009899,-70.7753424959787
"03801","Portsmouth","NH","Fitness Together - Portsmouth","767 Islington St","03801",43.06953327249237,-70.77248262590939
"03801","Portsmouth","NH","Mission Portsmouth","not_available","03801",43.06917978506308,-70.7701239834752
"03801","Portsmouth","NH","Great Bay CrossFit","32 Nimble Hill Rd","03801",43.11153793334961,-70.82198333740234
"03801","Portsmouth","NH","Gain Strength And Conditioning","West RD","not_available",43.04131571749047,-70.78012938171221
"03801","Portsmouth","NH","Balance, A Women's GYM","125 Brewery Ln","03801",43.06855010986328,-70.7697525024414
"03801","Portsmouth","NH","F45 Training South Portsmouth","2800 Lafayette Road","03801",43.0292714,-70.7900588
"03801","Portsmouth","NH","Club 27 Zumba","International Dr","not_available",43.086020854148536,-70.80737518420754
"03801","Portsmouth","NH","Pure Barre","2454 Lafayette Rd Ste 37","03801",43.035364,-70.78304
"03801","Portsmouth","NH","Core Fitness","Sheraton Harborside","not_available",43.079775,-70.760403
"03801","Portsmouth","NH","CrossFit Portsmouth","953 Islington St","03801",43.06707000732422,-70.77468872070312
"03801","Portsmouth","NH","Hybrid Fitness","29 NH Ave","03801",43.08584213256836,-70.81138610839844
"03809","Alton","NH","Alton Village fitness Gym","136 Main Street","not_available",43.45689392089844,-71.2213134765625
"03810","Alton Bay","NH","Olympia Gym & Fitness","6 Varney Rd","03894",43.587594067805874,-71.21725531790649
"03810","Alton Bay","NH","Back Bay","not_available","03894",43.58456039428711,-71.21351623535156
"03810","Alton Bay","NH","Winnipesaukee Indoor Cycling","Mill St","03894",43.584941864139125,-71.21419435584149
"03811","Atkinson","NH","The Zone Fitness Center","142 New Hampshire 111","03841-2343",42.860016105529674,-71.18181678690405
"03812","Bartlett","NH","Mountain Top Fitness Center","not_available","03838",44.13203353304646,-71.20080471038818
"03813","Center Conway","NH","Curves","230 Heath Rd","03813",43.996543884277344,-71.07837677001953
"03817","Chocorua","NH","Lakeside Physical Therapy & Fitness Center","685 White Mountain Hwy","03886",43.8614501953125,-71.20856475830078
"03820","Dover","NH","McConnell Fitness Center & Butterfield Gym","61 Locust St #124","03820",43.19291687011719,-70.87625885009766
"03820","Dover","NH","Seacoast Kettlebell","23 Horne St","03820",43.205697510211536,-70.88056960605338
"03820","Dover","NH","Perfected Health - Personal Training and Nutrition","51 Washington St","03820",43.19532775878906,-70.87335968017578
"03820","Dover","NH","Orangetheory Fitness","865A Central Ave","03820",43.2187886,-70.8806323
"03820","Dover","NH","Orthopedic and Sport Therapy Services","388 High St","03878",43.24193396165093,-70.87760110052494
"03820","Dover","NH","Everproven Training","not_available","03820",43.1957905439742,-70.87241374232163
"03820","Dover","NH","EverPrvn CrossFit","383 Central Ave Lowr Level #30","03820",43.195987701416016,-70.8738784790039
"03820","Dover","NH","EvoFit","23 Cataract Ave","03820",43.18541717529297,-70.88355255126953
"03820","Dover","NH","Wildcat Fitness","7 Mill Plaza","03824",43.135790841126486,-70.92433956673464
"03820","Dover","NH","rehab3 Center for Athletes","7 Marsh Brook Dr","03878",43.24844741821289,-70.896240234375
"03820","Dover","NH","South Side Fitness","275 Locust St","03820",43.1834331062213,-70.87635972195059
"03820","Dover","NH","Integrated Fitness Of Dover","Dover Point Rd","not_available",43.171741983333334,-70.858411
"03820","Dover","NH","Sawyer Mill Gym","1 Mill St","03820",43.179085,-70.87583599999999
"03820","Dover","NH","Nerdy Girl Fitness","453 Central Ave Ste 104","03820",43.1975213,-70.8738109
"03820","Dover","NH","Nerdy Dog Fitness","66 Third St","03820",43.198915,-70.877901
"03820","Dover","NH","Prime Time All Stars","1 Sumner Dr","03820",43.179569244384766,-70.90168762207031
"03820","Dover","NH","Joint Base Pearl Harbor-Hickam Fitness Center","Bldg 1338","03824",43.13362503051758,-70.92700958251953
"03820","Dover","NH","Iron Empire","47 Chestnut St","03820",43.19679777218429,-70.87847758105872
"03820","Dover","NH","leach brothers hockey training","Broadway","03820",43.20156223386441,-70.87183894751746
"03824","Durham","NH","Planet Fitness","calef hwy","not_available",43.083508014678955,-70.93729376792908
"03833","Exeter","NH","Elite Sports Performance","not_available","03833",42.994074,-70.967271
"03833","Exeter","NH","Ironman Fitness 88","1 Rockingham St","03833",42.980655670166016,-70.95997619628906
"03833","Exeter","NH","Elements for Women","75 Portsmouth Ave","03833",42.985076904296875,-70.93696594238281
"03833","Exeter","NH","Karate International","2 Kings Way","03833",42.99302673339844,-70.97135925292969
"03835","Farmington","NH","The Gym @ Jim's","not_available","03835",43.404158891128674,-71.08132839202881
"03835","Farmington","NH","Farmington Fitness","399 Main St","03835",43.38911819458008,-71.06450653076172
"03836","Freedom","NH","Cyr Gym","not_available","03849",43.87170448335083,-71.10598242776084
"03839","Rochester","NH","Strafford County YMCA","63 Lowell St","03867",43.28977966308594,-70.96773529052734
"03840","Greenland","NH","Studio 7","not_available","03870",43.00695519874994,-70.8065339408408
"03841","Hampstead","NH","The Fort CrossFit","4 Owens Ct","03841",42.906341552734375,-71.19061279296875
"03841","Hampstead","NH","eXtreem Cheer & Dance All Star Gym","8 Owens Ct","03841",42.90548655122022,-71.18763046542992
"03842","Hampton","NH","Vanguard Key Club","7 Lafayette Rd","03862",42.96068672165902,-70.83334941542597
"03842","Hampton","NH","Workout Anytime","45 Lafayette Rd, Ste 6","03862",42.96836944491862,-70.83373411446394
"03842","Hampton","NH","Snap Fitness","845 Lafayette Rd","03842",42.95241928100586,-70.83186340332031
"03842","Hampton","NH","Genetix","920 Lafayette Rd","03874",42.90255273460017,-70.86656108120233
"03851","Milton","NH","The 'mill","not_available","03851",43.44603558628078,-71.01767306976615
"03857","Newmarket","NH","Great Bay Athletic Club / Seacoast Sports Clubs: Great Bay","191 Exeter Rd","03857",43.05335127316519,-70.936470216829
"03858","Newton","NH","Ultimate Cheer","not_available","03858",42.843307,-71.055396
"03858","Newton","NH","Unlimited Fitness","134 Newton Rd","03865",42.83320617675781,-71.05708312988281
"03860","North Conway","NH","Cranmore Fitness Center","1 Skimobile Rd","03860",44.054499012250666,-71.11103139019737
"03867","Rochester","NH","Seacoast Fencing Club","not_available","03867",43.31017148463162,-70.99019578452871
"03869","Rollinsford","NH","Velocity Cycling Indoors","3 Front St Ste 103","03869",43.23571002992516,-70.8176365210673
"03870","Rye","NH","Curves For Women","780-824 Lafayette Rd","03842",43.0094258621561,-70.80538998796436
"03870","Rye","NH","Seacoast Strength & Conditioning","52 Lafayette Rd","03870",43.011070251464844,-70.79997253417969
"03878","Somersworth","NH","The Shop MMA","35 High Street","03878",43.2764483,-70.8454907
