"zip","city","state","name","address","postalCode","lat","lon"
"30002","Avondale Estates","GA","Tsunami Mixed Martial Arts","225 Laredo Dr Ste A","30030",33.7816771,-84.2688249
"30002","Avondale Estates","GA","Gym Of Stones","Katie Kerr","30030",33.76746732341964,-84.2737431720854
"30002","Avondale Estates","GA","Crossfit East Decatur 2.0","185 Laredo Dr","30030",33.78049087524414,-84.26812744140625
"30002","Avondale Estates","GA","Insane Fitness","not_available","30030",33.773582,-84.273842
"30002","Avondale Estates","GA","Soper Classic Muscle Gym","not_available","30032",33.76372645775276,-84.25593545793379
"30002","Avondale Estates","GA","Decatur Crossing Fitness Center","not_available","not_available",33.781536867604295,-84.2761802855939
"30004","Alpharetta","GA","LA Fitness","5530 Windward Pkwy Ste H","30004",34.088858322455614,-84.26781086750918
"30004","Alpharetta","GA","Life Time Fitness","855 North Point Pkwy","30005",34.0798149,-84.26228379999999
"30004","Alpharetta","GA","Workout Anytime","13800 Highway 9 N","30004",34.11781853833213,-84.27145311477764
"30004","Alpharetta","GA","Emeryfit","13920 Highway 9 N","30004",34.12068557739258,-84.27086639404297
"30004","Alpharetta","GA","Planet Fitness","13071 Hwy 9","30004",34.10128111879165,-84.26898004258105
"30004","Alpharetta","GA","Anytime Fitness","700 Hwy 9","30009",34.09309,-84.28789
"30004","Alpharetta","GA","Atlanta Fitness","6045 Post Rd","30040",34.17996353251184,-84.2177339447747
"30004","Alpharetta","GA","Anytime Fitness","12635 Crabapple Rd","30004",34.089105424574456,-84.34234178406122
"30004","Alpharetta","GA","Stephen Phillips | FITNESS","not_available","30075",34.08230921875106,-84.3559943521793
"30004","Alpharetta","GA","Lifetime Member Services","North Point Pkwy","30022",34.079538672666054,-84.2613196840661
"30004","Alpharetta","GA","Crossfit Alpharetta","27 S Main St","30009",34.074956,-84.294927
"30004","Alpharetta","GA","Anytime Fitness","270 Rucker Rd","30004",34.07882,-84.35668
"30004","Alpharetta","GA","Snap Fitness","488 N Main St","30009",34.088324095817214,-84.29542652457292
"30004","Alpharetta","GA","Shazzy Fitness","12850 Georgia 9, Suite 600-308","30004",34.0962401,-84.27819390000002
"30004","Alpharetta","GA","Webb Bridge Crossing Gym","not_available","30009",34.0748906158162,-84.28282523868936
"30004","Alpharetta","GA","Morris Fitness","not_available","30040",34.20210619786279,-84.22234516455491
"30004","Alpharetta","GA","A Plus Sports Performance Center","160 N Main St Ste A","30009",34.0795314,-84.2948795
"30004","Alpharetta","GA","Jason's Fit Palace","not_available","30004",34.11028151470394,-84.26544960007665
"30004","Alpharetta","GA","Atlanta Fitness","12315 Crabapple Rd","30004",34.08300557066369,-84.35526756584295
"30004","Alpharetta","GA","Kickstart Fitness","12390-b arnold mill rd. Ste 2","30075",34.0833347871405,-84.3590459473846
"30004","Alpharetta","GA","Fieldstone Fitness Center","Elder Field Dr.","30040",34.20781557338445,-84.22182987071616
"30004","Alpharetta","GA","Avalon Bay Fitness Center","18000 Masters Way","30005",34.09369914221097,-84.23374790951476
"30004","Alpharetta","GA","North Park Estates Gym","518 North Park Ln","30004",34.10393142700195,-84.26465606689453
"30005","Alpharetta","GA","Workout Anytime","1485 Peachtree Pkwy","30041",34.124738,-84.16920400000001
"30005","Alpharetta","GA","Life Time Fitness","11555 Johns Creek Pkwy","30097",34.06117829907297,-84.16700298628828
"30005","Alpharetta","GA","The Little Gym of Alpharetta","11585 Jones Bridge Rd Ste 470","30022",34.062866928362155,-84.21310713770953
"30005","Alpharetta","GA","Crossfit PPF","1595 Peachtree Pkwy Ste 104","30041",34.122707206195166,-84.16807125999357
"30005","Alpharetta","GA","Orangetheory Fitness","2615 Peachtree Parkway, Suite 230","30024",34.096414529820656,-84.17432778214699
"30005","Alpharetta","GA","CrossFit Alpharetta","4055 Old Milton Pkwy Ste 10","30005",34.06103262594269,-84.23808159398837
"30005","Alpharetta","GA","Creekstone Clement Gym","2320 S Clement Rd","30041",34.122288,-84.179812
"30005","Alpharetta","GA","Crossfit on the Move","4055 Old Milton Pkwy","30005",34.06011962890625,-84.2429428100586
"30005","Alpharetta","GA","Karstedt Gym","not_available","30041",34.12228248797772,-84.18229481359965
"30005","Alpharetta","GA","KnuckleUp Fitness","5815 Windward Pkwy Ste 100","30005",34.08755500982548,-84.2552713340797
"30005","Alpharetta","GA","LA Fitness","11720 Medlock Bridge Rd Ste 400","30097",34.0662492,-84.1699434
"30005","Alpharetta","GA","Bodyplex Alpharetta","5356 McGinnis Ferry Rd","30005",34.09183670813601,-84.20318329168751
"30005","Alpharetta","GA","Children's Sports Performance","3155 North Point Pkwy Bldg A Ste 200","30005",34.0752367,-84.2611888
"30005","Alpharetta","GA","mckesson fitness ctr","5995 Windward Pkwy Ste 1236","30005",34.08653259277344,-84.2499008178711
"30005","Alpharetta","GA","Ryder Fitness Center","6000 Windward Pkwy","30005",34.091331,-84.24979300000001
"30005","Alpharetta","GA","Addison Place Gym","not_available","30005",34.0641656205911,-84.20812984782775
"30005","Alpharetta","GA","Lifetime Cycle Studio","not_available","30022",34.07950842098463,-84.26134122104031
"30008","Marietta","GA","LA Fitness","3999 Austell Rd Ste 101","30106",33.856591241411834,-84.59842278553027
"30008","Marietta","GA","Orangetheory Fitness","1750 Powder Springs Rd Southwest","30064",33.90442023947377,-84.60645946444892
"30008","Marietta","GA","Gold's Gym","2840 E West Connector Ste 200","30106",33.86723984587846,-84.62534481963796
"30008","Marietta","GA","Gym Of Pride","1119 Travis St SW","30060",33.878814697265625,-84.58679962158203
"30008","Marietta","GA","We Train Atlanta","2222 E West Connector","30106",33.86235046386719,-84.61952209472656
"30008","Marietta","GA","Dab Performance","3045 Austell Rd SW Ste 104","30008",33.8791618347168,-84.58847045898438
"30008","Marietta","GA","Aspire Fitness","1025 East-West Connector","30106",33.85602569580078,-84.58301544189453
"30008","Marietta","GA","Fitness 19 Marietta","1812 Powder Springs Rd SW #1109","30064",33.90053640387697,-84.60674004070484
"30008","Marietta","GA","Dab Performance","3045 Austell Rd SW","30008",33.87915,-84.58847
"30008","Marietta","GA","Fitness Together","1675 Cumberland Pkwy SE","30080",33.8721828460693,-84.5481748580933
"30008","Marietta","GA","V's Fitness","not_available","30064",33.914804187020145,-84.60770900380899
"30008","Marietta","GA","Gym / Fitness","1429 Austell Rd SE","30008",33.917640000000006,-84.549865
"30008","Marietta","GA","Pure Energy Fitness","1115 Powder Springs St Ste I","30064",33.924348678055274,-84.57451433220932
"30008","Marietta","GA","Every Bodies Business","11 Landmark Ct SW","30060",33.880027770996094,-84.55386352539062
"30008","Marietta","GA","American Body Works","2615 E West Connector","30106",33.86332884751832,-84.62234346036676
"30008","Marietta","GA","curves","Powdersprings Rd","30064",33.87109897454962,-84.61849534635236
"30009","Alpharetta","GA","CrossFit North Fulton","700 Hembree Pl","30076",34.059645315718186,-84.31913046723294
"30009","Alpharetta","GA","AMLI @ Milton Park Gym","30000 Mill Creek Ave","30022",34.04933553583003,-84.27881064736418
"30009","Alpharetta","GA","Youfit Health Clubs","935 North Point Dr","30022",34.0518166,-84.282543
"30009","Alpharetta","GA","FITcity Roswell","700 Hembree Pl Ste D","30076",34.05957,-84.3198
"30009","Alpharetta","GA","Amli At Northwinds Fitness Center","32000 Gardner Dr","30009",34.064861247032674,-84.28592259923069
"30009","Alpharetta","GA","Atomic Bodies","3201 jefferson way","30005",34.05045489828587,-84.27897691726685
"30009","Alpharetta","GA","AMLI Northwinds Fitness Center","Gardner Dr","30009",34.06170074159051,-84.28940901328457
"30009","Alpharetta","GA","1165 Sanctuary Gym","1165 Sanctuary Pkwy","30009",34.0452420148667,-84.31178234951078
"30009","Alpharetta","GA","Operation Crossfit","11472 Maxwell Rd Ste C","30009",34.05968155359158,-84.30314243022428
"30009","Alpharetta","GA","Embassy Suites Fitness Center","not_available","30305",34.05051625791457,-84.28240115578116
"30009","Alpharetta","GA","Cox Mansell Gym","3755 Mansell Rd","30022",34.03649317987056,-84.29459594018809
"30011","Auburn","GA","Gym E","not_available","30019",33.99776728190681,-83.90970966995629
"30011","Auburn","GA","Pams Workout World","not_available","30548",34.07561564671931,-83.88244300058425
"30011","Auburn","GA","Crossfit Dacula","360 Franklin Dr","30019",33.987396000000004,-83.889101
"30011","Auburn","GA","Pro Dynamic Nutrition (PDN)","4313 Bond St","30548",34.073699951171875,-83.87532806396484
"30011","Auburn","GA","Body Plex Fitness","3808 Braselton Hwy","30519",34.07065963745117,-83.90106201171875
"30011","Auburn","GA","The Carter Cartel","164-170 Kilcrease Rd","30011",33.968238,-83.819699
"30011","Auburn","GA","Chiico's Gym","not_available","30680",33.96453269211811,-83.81833621004918
"30011","Auburn","GA","Anytime Fitness","1654 Atlanta Hwy","30011",34.00943,-83.85102
"30011","Auburn","GA","Work-out Room","1930 Patrick Rd","30019",34.065358,-83.897149
"30011","Auburn","GA","Gold's Gym","1250 Auburn Rd Ste 300","30019",34.035525042046224,-83.9087645459696
"30011","Auburn","GA","khaos barbell","1340 Duncan Ln","30011",33.96829861384672,-83.82952511536733
"30011","Auburn","GA","Fat Boys Fitness Center","not_available","30011",34.05698013305664,-83.8460693359375
"30011","Auburn","GA","sculpt personal fitness","3685 Braselton Hwy Ste 105","30019",34.0687141418457,-83.90214538574219
"30011","Auburn","GA","Operation Bootcamp","1669 Hamilton Mill Pkwy","30019",34.048149,-83.907146
"30012","Conyers","GA","Be The Change Fitness","not_available","30012",33.66525022583607,-84.02040590767814
"30012","Conyers","GA","siren studios","not_available","30038",33.69236755371094,-84.0879135131836
"30012","Conyers","GA","Mainstreet Gym","1501 Renaissance Dr","30012",33.68009,-83.988219
"30012","Conyers","GA","BodyTech Fitness Center","1343 Business Center Dr SW","30094",33.655037711324134,-84.02307993437161
"30012","Conyers","GA","LA Fitness","1618 Highway 138 SE","30013",33.6657,-83.9925
"30012","Conyers","GA","Be The Change Fitness","1105 West Ave SW Ste A","30012",33.668479919433594,-84.02467346191406
"30012","Conyers","GA","Fit For You, LLC","Conyers","30094",33.66798497150647,-84.01743650458229
"30013","Conyers","GA","Workout Anytime","13015 Brown Bridge Rd, Ste 530","30016",33.576875,-83.965639
"30013","Conyers","GA","Jazzercise, Atl Ga","not_available","30013",33.61538716183013,-83.97505402138243
"30013","Conyers","GA","Home gym","not_available","30016",33.6148596,-83.9233981
"30013","Conyers","GA","Prime Fitness","2202 Salem Rd SE","30013",33.631893157958984,-83.97811889648438
"30013","Conyers","GA","Conyers Fit Body Boot Camp","1820 Highway 20 SE Ste 204-208","30013",33.64225,-84.013861
"30013","Conyers","GA","Vertical Image","3565 GA-20","30013",33.57435278718914,-83.9982455631251
"30013","Conyers","GA","Fit Candy","1413 Iris Drive SE, Conyers, GA 30013","30013",33.6485481262207,-83.99813079833984
"30013","Conyers","GA","Adam's Gym","Sears Rd","30016",33.57604271,-83.94195204
"30014","Covington","GA","Planet Fitness","3173B Hwy 278 NE","30014",33.604349,-83.857662
"30014","Covington","GA","Alcovy Fitness + Wellness","not_available","30014",33.61616741234652,-83.84191789239104
"30014","Covington","GA","CrossFit UnYielding","92 Piper Dr","30014",33.57096193970109,-83.85194778442383
"30014","Covington","GA","Weight Training","not_available","30052",33.75439956594009,-83.87199336782022
"30014","Covington","GA","24/7 Fitness","10160-10176 Carlin Dr","30014",33.570809706182025,-83.8519678095882
"30014","Covington","GA","RIP:60 HQ","39-79 S Links Dr","30014",33.57028663158417,-83.84391188621521
"30014","Covington","GA","MMA Boxing & Kickboxing","4111A","30014",33.603196924902996,-83.86793006980386
"30014","Covington","GA","Gym","not_available","30054",33.68492126464844,-83.87478637695312
"30016","Covington","GA","Ola High School Basketball Gym","not_available","30252",33.445864955099566,-84.04450403340849
"30017","Grayson","GA","Orangetheory Fitness","1250 Scenic Hwy","30045",33.899501967419,-84.00489296613117
"30017","Grayson","GA","Choe's Hapkido Martial Arts Lawrenceville, Snellville & Grayson","1365 Grayson Highway","30045",33.913164,-83.970935
"30017","Grayson","GA","Pure Barre","1350 Scenic Hwy N Ste 808","30078",33.898084999999995,-84.002882
"30017","Grayson","GA","Riff's Gym","grayson manor","not_available",33.86002403290076,-83.9276343088527
"30017","Grayson","GA","Bodyplex","2445 Moon Rd","30017",33.88658,-83.947319
"30017","Grayson","GA","Fit One Personal Training Facility","1845 Grayson Hwy, 600","30017",33.898948,-83.9626392
"30017","Grayson","GA","Crunch Fitness - Snellville","1175 Scenic Highway South","30045",33.9046763,-84.0047613
"30017","Grayson","GA","iLoveKickboxing - Grayson, GA","1365 Grayson Hwy Ste 111","30045",33.91299057006836,-83.97084045410156
"30017","Grayson","GA","Workout Anytime Grayson-Loganville","2715 Loganville Hwy, Ste 710","30052",33.87960307938293,-83.93876885387505
"30017","Grayson","GA","Little Gym Of Snellville","1250 Scenic Hwy Ste 1248","30045",33.89963505151047,-84.00471704792845
"30017","Grayson","GA","Gold's Gym","2135 Main St E","30078",33.85813903808594,-84.00375366210938
"30017","Grayson","GA","Xtreme Fitness & Chiropractic","not_available","30017",33.893835,-83.954829
"30017","Grayson","GA","Fitness 19 Grayson","1121 Grayson Hwy T01","30045",33.92004345209941,-83.9727622854623
"30019","Dacula","GA","Anytime Fitness","2240 Hamilton Creek Parkway Ste 500","30019",34.07462,-83.91027
"30019","Dacula","GA","Xtreme Whitt Fitness","258 Rabbit Hill Rd","30019",33.93281315900078,-83.90876255564498
"30019","Dacula","GA","Orangetheory Fitness","2463 Hamilton Mill Pkwy","30019",34.07377243041992,-83.91568756103516
"30019","Dacula","GA","Bodyplex","not_available","30519",33.9239902935029,-83.83744936125449
"30019","Dacula","GA","Fitness 19","587 Dacula Rd","30019",34.00160598754883,-83.91070556640625
"30019","Dacula","GA","Anytime Fitness","720 Dacula Rd Ste 3A","30019",34.0029,-83.913
"30019","Dacula","GA","Team Octopus Dacula","1342 Auburn Rd","30019",34.037538,-83.91107667
"30021","Clarkston","GA","Lucky's tourture chamber","1485 Harbour Oaks Rd","30084",33.824806213378906,-84.21817779541016
"30022","Alpharetta","GA","Orangetheory Fitness","5270 Peachtree Pkwy Ste 105","30092",33.976831505445226,-84.21625112959164
"30022","Alpharetta","GA","Hard Exercise Works - Roswell","8560 Holcomb Bridge Road","30022",33.9865571,-84.273391
"30022","Alpharetta","GA","Jazzercise Alpharetta Northpoint Fitness Center","10525 Old Alabama Connector Rd","30022",34.03273938868653,-84.29336533627368
"30022","Alpharetta","GA","IMPACT Training LLC","1575 Old Alabama Rd Ste 105","30076",34.02121513406174,-84.3152197605032
"30022","Alpharetta","GA","Anytime Fitness","9945 Jones Bridge Rd","30022",34.02611,-84.25
"30022","Alpharetta","GA","Crunch Fitness - Johns Creek","6000 Medlock Bridge Rd","30022",34.03116266298531,-84.188439317791
"30022","Alpharetta","GA","Falls Of Autry Mill Clubhouse Gym","Old alabama roaf","not_available",34.02145152783536,-84.24243743637697
"30022","Alpharetta","GA","Orangetheory Fitness","8465 Holcomb Bridge Rd","30022",33.988089139095365,-84.27185975317595
"30022","Alpharetta","GA","Fiserv Fitness Center","Fiserv Campus","not_available",33.999982347373006,-84.22596278767368
"30022","Alpharetta","GA","Zumba Dance Party","Saratoga Dr","30022",34.00217575081232,-84.27735767381785
"30022","Alpharetta","GA","Stax Elite Training","9800 Medlock Bridge Rd","30097",34.0203142,-84.19048829999997
"30022","Alpharetta","GA","Anytime Fitness","8465 Holcomb Brg Rd","30022",33.98782,-84.27021
"30024","Suwanee","GA","Anytime Fitness","2615 Peachtree Industrial Blvd","30097",34.02393,-84.1396
"30024","Suwanee","GA","Old Atlanta Recreational Center","810 Nichols Rd, Suwanee, GA 30024","30024",34.10761091438662,-84.1425688802018
"30024","Suwanee","GA","LA Fitness","6025 Cumming Hwy","30518",34.12252611772583,-84.07818576133862
"30024","Suwanee","GA","LA Fitness","3455 Peachtree Industrial Blvd","30096",34.006436420946535,-84.17201523229406
"30024","Suwanee","GA","Orangetheory Fitness","5885 Cumming Hwy","30518",34.11822219587416,-84.07493993639946
"30024","Suwanee","GA","Georgia Fitness of North Gwinnett","245 Peachtree Industrial Blvd Ste 100","30518",34.069643057541455,-84.06822562445814
"30024","Suwanee","GA","Amli @ Mcginnis Ferry: Health Club","not_available","30024",34.04886763402991,-84.0848990057798
"30024","Suwanee","GA","Sugar Hill Jazzercise","4536 Georgia Highway 20","30518",34.09965189727769,-84.02139902114868
"30024","Suwanee","GA","New Gym","20 Level Creek Rd","30024",34.08641815185547,-84.07019805908203
"30024","Suwanee","GA","Body Construction","2785 Buford Hwy","30096",34.007358,-84.134099
"30024","Suwanee","GA","Turnedup Fitness","1175 Buford Hwy 117","30024",34.036242,-84.086724
"30024","Suwanee","GA","Lil' Kickers","2850 Old Atlanta Rd","30041",34.116790771484375,-84.15577697753906
"30024","Suwanee","GA","Prestige Jags Cheer & Tumble","300 Brogdon Rd","30024",34.06384785,-84.06486953
"30024","Suwanee","GA","Joe's Gym","1516 Old Peachtree Rd","30097",34.01227458333334,-84.095372
"30024","Suwanee","GA","Zumba Fitness by Choes","3020 Old Atlanta Rd","30041",34.113853454589844,-84.15515899658203
"30024","Suwanee","GA","Anytime Fitness in Buford","1328 Buford Hwy","30518",34.090954,-84.0191838
"30024","Suwanee","GA","elements Suwanee","1300 Peachtree Industrial Blvd Ste 2203","30024",34.0419807434082,-84.0949478149414
"30025","Social Circle","GA","Wyldlife Gym","not_available","30663",33.62257373855976,-83.60694291268909
"30028","Cumming","GA","Central Park","2300 Keith Bridge Rd","30040",34.24542589972708,-84.1026654743282
"30028","Cumming","GA","TNT Cheer","Keith Bridge Road","not_available",34.251848910297035,-84.05720486348078
"30028","Cumming","GA","Action Cheer and Tumble","5335 Lake Pointe Center Dr","30041",34.251548767089844,-84.05728912353516
"30028","Cumming","GA","Anytime Fitness","3545 Rowe Lane","30041",34.2594,-84.06906
"30028","Cumming","GA","Workout Anytime","2655 Freedom Pkwy, Ste 2627","30041",34.249968,-84.091654
"30028","Cumming","GA","The Gym","1 Cunningham Pt","30040",34.23442077636719,-84.16123962402344
"30028","Cumming","GA","Bounce Athletic Club","6120 GA 400N Suite A","30028",34.31570281138781,-84.06281900880315
"30028","Cumming","GA","Church Of The Good Shepherd Gym","Holtzclaw Rd","30041",34.25254765535832,-84.07035703652637
"30030","Decatur","GA","LA Fitness","1496 Church St","30030",33.79151382077446,-84.28664396380577
"30030","Decatur","GA","Fitwit Oakhurst","630 E Lake Dr","30030",33.760280154640995,-84.30833156118706
"30030","Decatur","GA","Intown Stars Gymnastics","2935 N Decatur Rd Ste B","30033",33.79327271824599,-84.27191540555725
"30030","Decatur","GA","DeKalb Medical Wellness Center","2665 North Decatur Rd","30033",33.791547535780175,-84.28330770216229
"30030","Decatur","GA","CrossFit Decatur","701 Church St","30030",33.778577933392306,-84.29438194350564
"30030","Decatur","GA","Coutyard at Marriott Gym","not_available","30339",33.776805136517204,-84.29648567623576
"30030","Decatur","GA","Snap Fitness","137 S McDonough St","30030",33.76830440247676,-84.29674731336358
"30030","Decatur","GA","Pure Barre","415 Church St","30030",33.7748304,-84.2947603
"30030","Decatur","GA","The Sweatbox","731 E College Ave Ste B","30030",33.77394946435397,-84.28362215302819
"30030","Decatur","GA","Orangetheory Fitness","319 W Ponce de Leon Ave","30030",33.77566335070964,-84.3004516519506
"30030","Decatur","GA","Fitness Center at Courtyard by Marriott Atlanta","130 Clairemont Ave","30030",33.776769,-84.297324
"30030","Decatur","GA","Talley Street Lofts Fitness Center","2630 Talley St","30030",33.77064514160156,-84.28251647949219
"30030","Decatur","GA","Intown Stars Gymnastics- Decatur","2935 N Decatur Rd","30033",33.79304885864258,-84.27161407470703
"30030","Decatur","GA","Pinnacle Fitness Center, Decatur","141 Sams St Ste B1","30030",33.77264,-84.28312
"30030","Decatur","GA","Decatur Boxing Club","137 New St","30030",33.77189782726876,-84.28514328938789
"30030","Decatur","GA","Druid Hills Golf Club Fitness Center","Ponce de leon","30306",33.78270330646318,-84.31814566351761
"30030","Decatur","GA","E L Smitness","Sycamore Dr","30030",33.77840655097179,-84.28231375963828
"30030","Decatur","GA","COREBODY Decatur","533 W Howard Ave","30030",33.76808290935195,-84.30410056132686
"30030","Decatur","GA","Clarity Fitness","1 W Court Sq Ste 100","30030",33.775127989122794,-84.29710007957792
"30030","Decatur","GA","FitWit Headquarters","138 New St","30030",33.77212905883789,-84.28411102294922
"30032","Decatur","GA","Atlanta Sports Complex","2581 Gresham Rd SE, Atlanta GA 30316","30316",33.71272187147416,-84.31173800620111
"30032","Decatur","GA","The Workout Room","AJ Joint","30032",33.7363897400373,-84.28504868384431
"30032","Decatur","GA","Ians Rec Center","kelly lake","30034",33.7169049462095,-84.2810062119189
"30033","Decatur","GA","LA Fitness","2880 N Druid Hills Rd NE","30329",33.81804083906394,-84.3108689385189
"30033","Decatur","GA","Workout Anytime Decatur","2836 Lavista Rd","30033",33.82544994099179,-84.29032559251823
"30033","Decatur","GA","Camden Gym","not_available","30329",33.838181757818354,-84.31513665250307
"30033","Decatur","GA","2924 Clairmont","2924 Clairmont Rd NE","30329",33.84164588559373,-84.31761749039251
"30033","Decatur","GA","Down Under","Council Bluff","30345",33.83055530129123,-84.30540756927094
"30033","Decatur","GA","Dekalb gym","not_available","30033",33.80044855212286,-84.26351546064973
"30033","Decatur","GA","Ladies workout express","2865 north druid hills road","30329",33.816322326660156,-84.3113784790039
"30033","Decatur","GA","The Rack Athletic Performance Center","1824 Briarwood Industrial Ct NE","30329",33.840916,-84.321275
"30033","Decatur","GA","Ladies Workout Express","2865 N Druid Hills Rd NE","30329",33.81683494695699,-84.31246527268948
"30033","Decatur","GA","Pure Barre Druid Hills","2951 N Druid Hills Rd NE","30329",33.81418167746522,-84.31167314064373
"30033","Decatur","GA","RC & GET PULSED FITNEZ","2050 Lawrenceville Hwy","30033",33.808583345518336,-84.27894633972022
"30033","Decatur","GA","Clairmont Fitness Center","1575 Clairmont Rd","30033",33.8008962132502,-84.30820842254919
"30034","Decatur","GA","Ladies Only Total Fitness","4816 Flat Shoals Pkwy","30034",33.68230056762695,-84.23120880126953
"30034","Decatur","GA","Planet Fitness","2460 Wesley Chapel Rd","30035",33.715645984280876,-84.21235360680515
"30034","Decatur","GA","Beulah Community Family Life Center","2340 Clifton Springs Rd, Decatur, GA 30034","30034",33.69778129781872,-84.29434040649637
"30034","Decatur","GA","Hope Fitness Center","not_available","30034",33.68442028989363,-84.23801308722933
"30034","Decatur","GA","Anytime Fitness","4760 Flat Shoals Pkwy.","30034",33.68116,-84.2268
"30034","Decatur","GA","Build A Beast HQ(Cardio Level)","River rd.","30032",33.67420345743757,-84.28271173893985
"30034","Decatur","GA","Total Body","not_available","30035",33.715635,-84.212019
"30034","Decatur","GA","The Dungeon","4073 Kingship Dr","30294",33.660359,-84.22609399999999
"30034","Decatur","GA","Get in Shape Boot Camp - Hope Fitness","4650 Flat Shoals Pkwy","30034",33.686073303222656,-84.23401641845703
"30034","Decatur","GA","Holmes' Gym","3877 Leprechaun Ct","30034",33.70885798069287,-84.23418809585266
"30035","Decatur","GA","LA Fitness","6088 Covington Hwy","30035",33.72463426095918,-84.16880844342954
"30035","Decatur","GA","Taddas Fitness Camp","2615 Park Central Blvd","30035",33.7104061643355,-84.1737819460387
"30035","Decatur","GA","Latik Fitness Studio","4018 Emerald Lake Dr","30035",33.71990203857422,-84.22513580322266
"30035","Decatur","GA","Ladies Only Total Fitness","6132 Covington Hwy","30058",33.724151611328125,-84.16636657714844
"30038","Lithonia","GA","Before & After Fitness Center","8052 Mall Pkwy #203","30038",33.694427490234375,-84.09644317626953
"30038","Lithonia","GA","Wesley Kensington Gym","100 Kensington Cir","30038",33.680674107119295,-84.0998035958206
"30038","Lithonia","GA","THESUPERTRAINER/BODY BEAUTIFUL PERSONAL TRAINING, LLC","5711 Hunters Chase Ct","30038",33.684327,-84.15693399999999
"30038","Lithonia","GA","Pro Fit","7342 Stonecrest Concourse","30038",33.695945739746094,-84.09192657470703
"30039","Snellville","GA","Crossfit Iconz","2073 Westside Ct Ste A","30078",33.847078299176815,-84.05237166554677
"30039","Snellville","GA","Workout Anytime","3035 Scenic Hwy S, Ste 1","30039",33.82403817866149,-84.03257822215093
"30039","Snellville","GA","Fitness 19","3555 Centerville Hwy Ste 104","30039",33.80197761945104,-84.04370504606642
"30039","Snellville","GA","The Bodymill","Casa Hardison","not_available",33.79020309448242,-84.02130889892578
"30040","Cumming","GA","LA Fitness","540 Lakeland Plz","30040",34.18513725643256,-84.14402305921321
"30040","Cumming","GA","Fowler Park Recreation Center","4110 Carolene Way","30040",34.147435976010435,-84.2105026285358
"30040","Cumming","GA","Planet Fitness","131 Merchants Sq","30040",34.187196,-84.146379
"30040","Cumming","GA","Cinema Room","Windermere Pkwy","30041",34.132677,-84.123098
"30040","Cumming","GA","PPF Crossfit","1240 Oak Industrial Ln Ste B","30041",34.158198999999996,-84.15491999999999
"30040","Cumming","GA","Anytime Fitness","515 Sawnee Corners Blvd Suite 400","30040",34.21748,-84.15247
"30040","Cumming","GA","Century Windermere Gym","3100 Preston Pointe Way","30041",34.131080627441406,-84.1109390258789
"30040","Cumming","GA","Atlanta Fitness","3775 Windermere Pkwy","30041",34.1332452,-84.1229049
"30040","Cumming","GA","Xtreme Sports Training","390 Winkler Dr","30004",34.137521,-84.238338
"30040","Cumming","GA","The dungeon","Weybridge Drive","30040",34.181908919208105,-84.25015087833413
"30040","Cumming","GA","Jeb's Gym","Bentwood Dr","not_available",34.13529,-84.097673
"30040","Cumming","GA","American Body Works","5456 Bethelview Rd","30040",34.17240905761719,-84.1889419555664
"30040","Cumming","GA","Twisters Cheer Academy","1180 Samples Industrial Dr","30041",34.161332845687866,-84.15551916666666
"30043","Lawrenceville","GA","Life Time Fitness","1823 N Brown Rd","30043",33.984247,-84.081498
"30043","Lawrenceville","GA","Gold's Gym","860 Duluth Hwy Ste 1100","30043",33.965242869332485,-84.02144009090307
"30043","Lawrenceville","GA","Anytime Fitness","1475 Buford Dr Ste 400","30043",34.00458,-83.98661
"30043","Lawrenceville","GA","Bodyetch Fitness","629 Airport Rd Ste K","30046",33.980985,-83.971447
"30043","Lawrenceville","GA","Insanity Workout Zone","Sweat St","30519",34.03879292725095,-83.96112658508493
"30043","Lawrenceville","GA","5375 Sugarloaf Gym","5375 Sugarloaf Pkwy","30043",33.96831512451172,-84.06514739990234
"30043","Lawrenceville","GA","Jackson Township Training","not_available","30043",33.96919884,-84.04735637
"30043","Lawrenceville","GA","Youfit Health Clubs","2855 Lawrenceville Suwanee Rd #500","30024",34.02618135466137,-84.04312759637838
"30043","Lawrenceville","GA","Gym @ Suwanee Station","1525 Station Center Blvd","30024",34.039699,-84.091265
"30043","Lawrenceville","GA","Fitness Builders 4 Life LLC","1200 River Overlook Dr","30043",33.97223022538161,-84.02461582613321
"30043","Lawrenceville","GA","Gym","1555 Old Peachtree Rd NW","30024",34.012672424316406,-84.09073638916016
"30043","Lawrenceville","GA","Century Riverside Fitness Center","1000 Duluth Hwy","30043",33.966373443603516,-84.03060913085938
"30043","Lawrenceville","GA","Amli @ Mcginnis Gym","4021 McGinnis Ferry Rd","30024",34.047031,-84.084998
"30043","Lawrenceville","GA","The Gym","500 Tree Creek Pkwy","30043",33.974571502608,-84.00901946501513
"30043","Lawrenceville","GA","C3 Fitness","1065 Walther Blvd","30043",33.973827820142446,-84.01639321206451
"30043","Lawrenceville","GA","Leavitt Group Fitness Room","2397 Huntcrest Way","30043",33.999683000000005,-84.06524399999999
"30043","Lawrenceville","GA","The Factory Training Facility","2505 Newpoint Pkwy","30043",33.971318789189894,-84.08690982991575
"30044","Lawrenceville","GA","LA Fitness","1625 Pleasant Hill Rd Ste 245","30096",33.94469541172844,-84.12619015539734
"30044","Lawrenceville","GA","Anytime Fitness","3153 Sugarloaf Pkwy #106","30045",33.92138,-84.0086
"30044","Lawrenceville","GA","Fit In Personal Training","4281 Wayside Ct SW","30047",33.890645,-84.115587
"30044","Lawrenceville","GA","JG Crossfit","not_available","30045",33.95232391357422,-84.04820251464844
"30044","Lawrenceville","GA","Marriott Residence Inn -Fitness Center","1760 Pineland Rd","30096",33.946458942064396,-84.13279202807412
"30044","Lawrenceville","GA","Trualliance Fitness","3555 Gwinnett Place Dr Ste 104","30096",33.956695556640625,-84.13096618652344
"30044","Lawrenceville","GA","Run Hard Play Hard Sports Performance","4281 Wayside Ct SW, Lilburn, GA 30047","30047",33.890724182128906,-84.11572265625
"30044","Lawrenceville","GA","Fitness 19","Five forks trickum road","not_available",33.901356383714365,-84.02245059355168
"30044","Lawrenceville","GA","The Torture Chamber","Casteel Ct.","30047",33.920098011074984,-84.11913796901874
"30044","Lawrenceville","GA","Kim's Gym","not_available","30044",33.95133393458224,-84.05195661119095
"30044","Lawrenceville","GA","Trap","not_available","30096",33.940067291259766,-84.1322250366211
"30044","Lawrenceville","GA","Athletes Elite Performance","not_available","30047",33.890620883973966,-84.11538500825071
"30044","Lawrenceville","GA","Home Gym","Twilight View","30044",33.89188999124661,-84.0402560665066
"30044","Lawrenceville","GA","Century Sugarloaf Fitness Center","1595 Old Norcross Rd","30046",33.954377008624945,-84.04724982670949
"30044","Lawrenceville","GA","Choe's HapKiDo Martial Arts, Karate, Kickboxing Duluth GA","1630 Pleasant Hill Road, Suite 210","30096",33.947612,-84.123201
"30044","Lawrenceville","GA","Crossfit Hyperformance","not_available","30078",33.88056564331055,-84.04723358154297
"30044","Lawrenceville","GA","Recreation ATL","754 Beaver Ruin Rd NW","30047",33.91197243546894,-84.13186433060504
"30044","Lawrenceville","GA","140 MGM Personal Training Studio","2486 Lawrenceville Hwy Ste 140","30044",33.92506408691406,-84.06487274169922
"30044","Lawrenceville","GA","Knockout Crossfit","3315 Sugarloaf Pkwy Ste 7","30044",33.921407075095985,-84.01321164788853
"30044","Lawrenceville","GA","Fit Body Boot Camp","Sugarloaf Parkway","30044",33.92577464753028,-84.01838180732598
"30044","Lawrenceville","GA","Just Fitness 4 U Express","3130 Sugarloaf Pkwy","30045",33.919980541395134,-84.00719984954095
"30044","Lawrenceville","GA","Brand Fitness Center","1255 Lakes Pkwy","30043",33.962871,-84.040814
"30045","Lawrenceville","GA","LA Fitness","600 Gwinnett Dr","30045",33.9409448,-83.9848775
"30045","Lawrenceville","GA","Ten Oaks Fitness Center","405 Philip Blvd","30046",33.969848999999996,-84.009156
"30045","Lawrenceville","GA","Just Fitness 4 U","1575 hwy 39","30044",33.927952,-84.001178
"30046","Lawrenceville","GA","Fit Body Boot Camp Sugarloaf","3370 Sugarloaf Pkwy","30044",33.9211801,-84.01774639999996
"30046","Lawrenceville","GA","Burn Boot Camp","798 Lawrenceville Suwanee Rd","30043",33.9663934,-84.0242603
"30047","Lilburn","GA","LA Fitness","5295 Stone Mountain Hwy","30087",33.82450783432329,-84.11463503522789
"30047","Lilburn","GA","Snap Fitness","375 Rockbridge Rd NW Ste 148","30047",33.883520416263316,-84.16366752891861
"30047","Lilburn","GA","Mountain Park Fitness","5385 Five Forks Trickum Rd","30087",33.84231997034949,-84.13038704431001
"30047","Lilburn","GA","Orangetheory Fitness","1227 Rockbridge Rd","30087",33.84040066046865,-84.13242095080443
"30047","Lilburn","GA","Fitness 19 Lilburn","4045 Five Forks Trickum Rd SW","30047",33.870329835021685,-84.09161702082828
"30047","Lilburn","GA","Gym at home","1405","30093",33.921397266970686,-84.14541244480908
"30047","Lilburn","GA","Termei Family Gym","86 Bailey Dr SW","30047",33.877691,-84.140411
"30047","Lilburn","GA","GIS Crossfit","1813 Pounds Rd","30087",33.82720947265625,-84.1221923828125
"30047","Lilburn","GA","Wholly Fit","5345 Five Forks Trickum Rd SW","30047",33.843113,-84.12952800000001
"30047","Lilburn","GA","Fit4U","2133 Lavista Executive Park Drive","30084",33.84663786876579,-84.11042022403753
"30047","Lilburn","GA","D Renards","not_available","30083",33.805583,-84.170399
"30047","Lilburn","GA","Action Fitness","4915 Lawrenceville Hwy NW","30047",33.891876220703125,-84.14260864257812
"30047","Lilburn","GA","Mountain park fitness","not_available","30087",33.82264849516516,-84.13207048683537
"30047","Lilburn","GA","Burn Boot Camp","1825 Rockbridge Rd","30087",33.82458,-84.12603
"30047","Lilburn","GA","Yay 4 Fitness","754 Beaver Ruin Road","30047",33.91194576,-84.13122541
"30052","Loganville","GA","Body By George","3540 Hwy. #78","30052",33.84048564737233,-83.90303636600159
"30052","Loganville","GA","Anytime Fitness","4060 Atlanta Hwy Ste 1232","30052",33.8471,-83.91106
"30052","Loganville","GA","Loganville Family Fitness","214 Jimnet Ln","30052",33.84602355957031,-83.91470336914062
"30052","Loganville","GA","Georgia Strike Zone Baseball & Softball Academy","2329 US-78 B","30052",33.82849,-83.8269399
"30052","Loganville","GA","Snap Fitness","4743 Atlanta Hwy","30052",33.83211056986997,-83.88501810743168
"30052","Loganville","GA","Simmons Fitness Center","not_available","30655",33.76542597674327,-83.80657013041288
"30052","Loganville","GA","Choe's HapKiDo Karate & Kickboxing","1004 Karlee Blvd, Suite 1","30052",33.794876,-83.863852
"30052","Loganville","GA","Gold's Gym","1090 Regency Plaza Blvd","30253",33.85547998321802,-83.97715190465671
"30052","Loganville","GA","Barn","Loganville Christian Academy","not_available",33.798379783606464,-83.86298128277679
"30055","Mansfield","GA","Slayer Dungeon","Founders Grove","not_available",33.437562,-83.670449
"30058","Lithonia","GA","Lucious Sanders Recreation Center","2484 Bruce St","30058",33.71418762207031,-84.09832763671875
"30058","Lithonia","GA","LA Fitness","6746 Covington Hwy Ste 103","30058",33.717674255371094,-84.14288330078125
"30060","Marietta","GA","Planet Fitness","3315 S Cobb Dr SE","30080",33.87358053235258,-84.52868746314107
"30060","Marietta","GA","Planet Fitness","1355 Roswell Rd, Ste 210","30062",33.952203999999995,-84.512293
"30060","Marietta","GA","Workout Anytime","800 Whitlock Ave NW","30064",33.95285587282344,-84.57771414675284
"30060","Marietta","GA","Giving Tree Yoga","1295 W Spring St SE Ste 120","30080",33.8844139,-84.5163419
"30060","Marietta","GA","Karma Fitness Studio","not_available","30080",33.884341382637515,-84.51596444491604
"30060","Marietta","GA","Workout Anytime Eastlake - Marietta","2211 Roswell Rd","30062",33.97034168110731,-84.49020549699833
"30060","Marietta","GA","Globo Gym","not_available","30060",33.936289,-84.539928
"30060","Marietta","GA","Woodpointe Fitness Center","1001 Burnt Hickory Rd NW","30064",33.95524215698242,-84.58390808105469
"30060","Marietta","GA","BAM Fitness and Nutrition","1775 Hawthorne Avenue SE","30080",33.949143,-84.49441999999999
"30060","Marietta","GA","Streamline Fitness","not_available","30067",33.938822378127554,-84.51193702309362
"30060","Marietta","GA","Step It Up Fitness Gym","Smyrna","30101",33.88744664256117,-84.52577463744628
"30060","Marietta","GA","Gym @ Aventine at Vinings","3385 Atlanta Rd SE","30080",33.87065887451172,-84.49169158935547
"30060","Marietta","GA","The Body Bar Group Fitness Studio","3246 Atlanta Rd SE Ste G","30080",33.874220819159824,-84.50175178591383
"30060","Marietta","GA","Pinnacle Fitness Center, Smyrna","1185 Concord Rd, Suite A","30080",33.877529,-84.5185957
"30060","Marietta","GA","IronHouse Fitness","2652 S Cobb Dr SE Ste G","30080",33.888587951660156,-84.53712463378906
"30060","Marietta","GA","Parkway Place Gym","1802 Parkway Pl","30067",33.938428356097994,-84.50310526681186
"30060","Marietta","GA","Marietta Mill Lofts Gym","319 Atlanta St SE","30060",33.947269,-84.547077
"30062","Marietta","GA","LA Fitness","1185 Ernest W Barrett Pkwy NW","30144",34.00008173264998,-84.58389013631236
"30062","Marietta","GA","LA Fitness","2550 Sandy Plains Rd","30066",34.01152405838652,-84.49365624011763
"30062","Marietta","GA","X3 Sports - North Marietta","700 Sandy Plains Rd Ste A13","30066",33.99637985229492,-84.52875518798828
"30062","Marietta","GA","LA Fitness","4400 Roswell Rd Ste 126","30062",33.98529862212838,-84.42280020378182
"30062","Marietta","GA","Workout Anytime","2465 Chastain Meadows Pkwy, Ste 105","30066",34.0149361440925,-84.55500116480565
"30062","Marietta","GA","Walton High School Gym","1590 Bill Murdock Rd","30062",33.99000930786133,-84.43987274169922
"30062","Marietta","GA","Student Recreation Center","1000 Chastain Rd NW","30144",34.03760290393649,-84.58198617328917
"30062","Marietta","GA","Women's Premier Fitness","4961 Lower Roswell Rd Ste A","30068",33.966220187381694,-84.40661720062027
"30062","Marietta","GA","Insanity Time!","not_available","30066",33.995255,-84.542947
"30062","Marietta","GA","Poplar Place Gym","3900 George Busbee Pkwy NW","30144",34.04644775390625,-84.57682037353516
"30062","Marietta","GA","Minister Of Muscle LLC","2986 Johnson Ferry Rd #128(Backside of building)","30062",34.0216064453125,-84.42631530761719
"30062","Marietta","GA","Life Quest Fitness","2911 George Busbee Pkwy NW Ste 50","30144",34.02435045682382,-84.56915312579834
"30062","Marietta","GA","Personal Training by Marius Voster","not_available","30068",33.966264,-84.405043
"30062","Marietta","GA","barre3 East Cobb","4475 Roswell Rd","30062",33.950131539988085,-84.41186268152397
"30062","Marietta","GA","Owls Nest","3220 Busbee Dr NW","30144",34.029884435471516,-84.56993585189748
"30062","Marietta","GA","TownPark Fitness Center","not_available","30144",34.04012490882947,-84.5671681259942
"30062","Marietta","GA","Milstead Gym","3355 George Busbee Pkwy NW","30144",34.033004999999996,-84.57051899999999
"30062","Marietta","GA","Home Gym","3339 Keenland Rd","30062",34.036768,-84.453683
"30062","Marietta","GA","Compound Fitness","3822 Roswell Rd Ste 101","30062",33.9774937,-84.440364
"30062","Marietta","GA","The Mill at Chastain Gym","3350 George Busbee Pkwy NW","30144",34.035404205322266,-84.56876373291016
"30064","Marietta","GA","Sessions Loft Gym","445 N Sessions St NW","30060",33.96218490600586,-84.5542221069336
"30064","Marietta","GA","Pure Barre","3600 Dallas Hwy SW Ste 310","30064",33.95516560421602,-84.65665235714721
"30064","Marietta","GA","City Fit","800 Whitlock Ave NW #109","30064",33.95289774038811,-84.57753485304656
"30064","Marietta","GA","The Brumby Gym","111 N Marietta Pkwy NE","30060",33.95882034301758,-84.55142974853516
"30064","Marietta","GA","Burn Boot Camp Marietta, GA","1000 Whitlock Ave Suite 150 & 160","30064",33.9533347,-84.5813353
"30066","Marietta","GA","Arylessence Exercise Room","1091 Lake Dr","30066",34.06723403930664,-84.51866912841797
"30066","Marietta","GA","Baseball Performance","838 Jamerson Rd","30066",34.067745208740234,-84.52546119689941
"30066","Marietta","GA","Fit & Fabulous Body Wraps","2501 E Piedmont Rd #142","30062",34.01126480102539,-84.49121856689453
"30066","Marietta","GA","Studio two LTF MB","not_available","30188",34.07276062336249,-84.42869591600211
"30066","Marietta","GA","Embassy Suites Fitness Center","620 Chastain Rd NW","30144",34.038073196302435,-84.56933729759523
"30066","Marietta","GA","Alta At Glenridge Springs Gym","not_available","30062",33.97833,-84.47656
"30066","Marietta","GA","Shiloh Valley Overlook","2100 Shiloh Valley Dr NW","30144",34.0026219,-84.5660926
"30066","Marietta","GA","Atlanta Extreme Warrior","3154 Johnson Ferry Rd Ste 100","30062",34.026193,-84.42381775
"30066","Marietta","GA","Cosmos Fitness - Marietta","2765 Sandy Plains Rd","30066",34.0174143,-84.49278165
"30066","Marietta","GA","One To One Health Centers","700 Sandy Plains Rd","30066",33.996362,-84.52880400000001
"30066","Marietta","GA","Ultimate Karate and Fitness","2745 Sandy Plains Rd","30066",34.0175655314669,-84.49265093452908
"30066","Marietta","GA","SwingAway Training Center","1395 Cobb Pkwy N Ste I","30062",33.98472595214844,-84.56825256347656
"30066","Marietta","GA","TD Athletics","1470 Williams Dr Ste A","30066",33.99670283777567,-84.53433928387821
"30066","Marietta","GA","Z's Gym","Get Swole","30066",34.05887554601561,-84.46069813264431
"30066","Marietta","GA","Cobb Atlanta Volleyball & Fitness","1880 W Oak Pkwy Ste 218","30062",33.992514,-84.522302
"30067","Marietta","GA","Windy Hill Athletic Club","135 Interstate North  Parkway NW","30339",33.90327761041239,-84.4669077124323
"30067","Marietta","GA","LA Fitness","1453 Terrell Mill Rd SE Ste 145","30067",33.91620195892601,-84.4677614833816
"30067","Marietta","GA","5660 Northside Gym","not_available","30328",33.91022822535722,-84.43152059275187
"30067","Marietta","GA","Barrington Mill Gym","1560 Terrell Mill Rd SE","30067",33.91249084472656,-84.47367858886719
"30067","Marietta","GA","The Villas of East Cobb","1049 Powers Ferry Rd","30067",33.92545678,-84.4684886
"30067","Marietta","GA","Wildwood Athletic Club","2300 Windy Ridge Plwy","30339",33.906529643419006,-84.45956550108988
"30067","Marietta","GA","X3 Sports - Marietta","2343 Windy Hill Rd SE","30067",33.90425982427382,-84.48606491088867
"30067","Marietta","GA","Village Fitness","1275 Powers Ferry Rd SE","30067",33.92019361112556,-84.46602860540021
"30067","Marietta","GA","aFit Bodywork","1360 Powers Ferry Rd SE Ste C400","30067",33.91856002807617,-84.46858978271484
"30067","Marietta","GA","Parkwood Place Gym","1250 Parkwood Cir SE","30339",33.902727,-84.460973
"30067","Marietta","GA","Flats at Riverwalk Gym","Atlanta Ga","30339",33.907016485854705,-84.46173525980626
"30067","Marietta","GA","Fitness Together","5575 New Northside Dr #150","30339",33.907487805819194,-84.42903414908793
"30068","Marietta","GA","Iron Clutch Fitness","1570 holcomb bridge rd suite 410","30076",33.97755885,-84.39137676
"30068","Marietta","GA","Legends Elite","4696 Johnson Ferry Road, Suite 650","30067",33.96440912487704,-84.41475062675364
"30068","Marietta","GA","Silver Creek Fitness Center","910-1014 Summit Forest Dr","30068",33.952328034663076,-84.4879649146093
"30068","Marietta","GA","CrossFit East Cobb","4696 Lower Roswell Rd Ste 700","30068",33.96441733606664,-84.41481217990693
"30068","Marietta","GA","Coffee's Gym","1800 Lower Roswell Rd, Marietta, GA 30068","30068",33.950928000000005,-84.498974
"30068","Marietta","GA","Lipscomb Gym @ Wheeler High School","375 Holt Rd NE","30068",33.95903015136719,-84.48006439208984
"30068","Marietta","GA","Fitness Together - East Cobb","1000 Johnson Ferry Rd","30068",33.97205607311119,-84.4127403435339
"30068","Marietta","GA","Curves","2211 Roswell Rd","30328",33.970706939697266,-84.48966217041016
"30068","Marietta","GA","Life Quest Fitness","4930 Davidson Rd NE","30068",33.96485562095942,-84.40778994031284
"30068","Marietta","GA","Gym","4226 Kessler Ridge Dr","30062",33.995684000000004,-84.426538
"30068","Marietta","GA","Anytime Fitness","4880 Lower Roswell Rd Ste 520","30068",33.963685999999996,-84.40811500000001
"30071","Norcross","GA","LA Fitness","6131 Peachtree Pkwy","30092",33.95168706596564,-84.23633120172845
"30071","Norcross","GA","Home Gym","Jimmy Carter Blvd.","30092",33.946165051160484,-84.24275124401376
"30071","Norcross","GA","Hilton gym","5993 Peachtree Industrial Blvd","30092",33.9527473449707,-84.22969055175781
"30071","Norcross","GA","Oakbrook North Fitness Center","not_available","30093",33.919603,-84.185682
"30071","Norcross","GA","Waykins fitness center","not_available","30071",33.91964340209961,-84.21766662597656
"30071","Norcross","GA","The Gym","Ashley Club Circle","30092",33.94859642663072,-84.25889724475566
"30071","Norcross","GA","Fitness Tri","4870 Peachtree Industrial Blvd","30071",33.9682519961014,-84.19376258051678
"30071","Norcross","GA","Fitness Together - Norcross","4790 Peachtree Industrial Blvd Ste 108","30071",33.969252000000004,-84.191024
"30071","Norcross","GA","Golds Gym Roswell","holcomb bridge rd.","30076",33.96798617353481,-84.25862466624358
"30071","Norcross","GA","American Bodyworks","Norcross, Georgia","30092",33.953972,-84.220835
"30071","Norcross","GA","LA Fitness","5050 Jimmy Carter Blvd","30093",33.91398703626946,-84.19967654921427
"30071","Norcross","GA","The Gym","3100 River Exchange Dr","30092",33.96921157836914,-84.26399993896484
"30071","Norcross","GA","Youfit Health Clubs","6000 Singleton Rd Ste 321","30093",33.90504120116938,-84.19811636209482
"30071","Norcross","GA","Parkside Vista Gym","2305 Global Forum Blvd","30340",33.91632042617358,-84.25135568017015
"30071","Norcross","GA","Golightly Fit","2685 Langford Rd #900","30071",33.951623,-84.20070600000001
"30071","Norcross","GA","The Dungeon (Gym in the basement of Waterford)","5555 Triangle Pkwy","30092",33.972354888916016,-84.2232666015625
"30071","Norcross","GA","Curves Again LLC","2730 N Berkeley Lake Rd NW","30096",33.973978,-84.159944
"30071","Norcross","GA","Curves","not_available","30092",33.976538,-84.22291856666668
"30071","Norcross","GA","tipping point crossfit","6191 Atlantic Blvd","30071",33.942370000000004,-84.231841
"30071","Norcross","GA","Extreme Performance Training Systems / ECF Gym","6689 Peachtree Industrial Blvd","30092",33.93938064575195,-84.25149536132812
"30075","Roswell","GA","LA Fitness","1045 Woodstock Rd","30075",34.06316862771818,-84.39180628156677
"30075","Roswell","GA","Reserve of Dunwoody Fitness Center","not_available","30350",33.999875832062635,-84.33862671809392
"30075","Roswell","GA","Anytime Fitness","9420 Willeo Rd","30075",34.01106,-84.37505
"30075","Roswell","GA","Waller Park Gym","250 Oak Street","not_available",34.02013391137751,-84.3536360319512
"30075","Roswell","GA","Sports Fitness Experience","925 Woodstock Rd Ste 102","30075",34.0626073,-84.3884128
"30075","Roswell","GA","The Gym","1500 Huntcliff Village Ct","30350",33.99879455566406,-84.35311889648438
"30075","Roswell","GA","Hydromassage @ Planet Fitness","not_available","30076",34.042568,-84.341698
"30075","Roswell","GA","A Step Ahead PT","930 Woodstock Rd Ste 310","30075",34.061180114746094,-84.38970184326172
"30075","Roswell","GA","River Ridge Gym","9040 Roswell Rd, Atlanta, GA 30350","30350",34.00103759765625,-84.35136413574219
"30075","Roswell","GA","Just Fitness 4U","5000 Commerce Pkwy","30076",34.0386608339822,-84.34026510154196
"30075","Roswell","GA","THE MAX Challenge of Roswell","10779 Alpharetta Hwy, 200","30076",34.0423284,-84.3396397
"30075","Roswell","GA","Fit2DMax - Roswell GA Personal Training","408 S Atlanta St #155","30075",34.00939178466797,-84.3615951538086
"30075","Roswell","GA","Gym @ The Lodge","9401 Roberts Dr","30350",34.00620632645867,-84.33677956953358
"30075","Roswell","GA","Pure Barre","1155 Woodstock Rd Ste 705","30075",34.0631664,-84.399225
"30075","Roswell","GA","CoreMatters","1144 Canton St","30075",34.02993,-84.36194
"30075","Roswell","GA","American Bodyworks","12010 Etris Rd Ste 150","30075",34.07370759606733,-84.3612709140922
"30076","Roswell","GA","LA Fitness","1475 Holcomb Bridge Rd Ste 189","30076",34.01875558635869,-84.31705482409123
"30076","Roswell","GA","Kimberly Clark Health Center","1400 Holcomb Bridge Road","30076",34.023944837886404,-84.31800694146497
"30076","Roswell","GA","CoT Dead Souls FC","Woodcliff Dr","30350",33.977698,-84.354701
"30076","Roswell","GA","The Pointe at Canyon Ridge Gym","8350 Roswell Rd","30350",33.98395538330078,-84.3542251586914
"30078","Snellville","GA","Planet Fitness","2420 Wisteria Dr SW","30078",33.85709495277604,-84.01009170046999
"30078","Snellville","GA","LA Fitness","2279 Pinehurst Rd","30078",33.87338081240567,-84.0125926469057
"30078","Snellville","GA","South Gwinnett High School","2288 Main St E","30078",33.853943092791425,-84.0097008728873
"30078","Snellville","GA","South Gwinnett Gym","South Gwinnett","30078",33.85373665039356,-84.00779548896082
"30078","Snellville","GA","Force Cheer Gym","2005 McGee Rd","30078",33.857940276289256,-84.03879967920389
"30078","Snellville","GA","Just Fitness 4U Snellville","2314 Henry Clower Blvd","30078",33.8545677080764,-84.02323062746461
"30080","Smyrna","GA","Orangetheory Fitness Smyrna","4495 W Village Way SE","30080",33.8445658,-84.4904276
"30080","Smyrna","GA","LA Fitness","2995 Cobb Pkwy SE","30339",33.88199363803423,-84.45852749557181
"30080","Smyrna","GA","Titanz Fitness & Nutrition","1834 S Cobb Industrial Blvd SE","30082",33.82714195489567,-84.49600409647817
"30080","Smyrna","GA","World Gym Smyrna-Vinings","4425 S Cobb Dr SE","30080",33.84660223427784,-84.5024755932376
"30080","Smyrna","GA","The gym","Vinings","30339",33.87627862167629,-84.47265930206926
"30080","Smyrna","GA","Workout Anytime","3100 Highlands Pkwy SE","30082",33.827587362295866,-84.49478243350556
"30080","Smyrna","GA","Pure Barre Vinings","4300 Paces Ferry Rd SE Ste 476","30339",33.8648322,-84.4664365
"30080","Smyrna","GA","Snap Fitness 24/7","3621 Vinings Slope SE","30339",33.86526530147956,-84.47264349290555
"30080","Smyrna","GA","900 Circle 75 Parkway","900 Circle 75 Pkwy SE","30339",33.887408360419585,-84.46797990998641
"30080","Smyrna","GA","West Village Clubhouse","4500 West Village Pl SE","30080",33.842428281844235,-84.49186204562515
"30080","Smyrna","GA","OPT Wellness","2997 Cumberland Blvd SE","30339",33.8817023975363,-84.4744289798664
"30080","Smyrna","GA","Riverwood 100 Gym","3350 Riverwood Pkwy SE","30339",33.878027,-84.458257
"30080","Smyrna","GA","The Views Gym","Pinhurst Dr","not_available",33.871352885066656,-84.4651953897986
"30080","Smyrna","GA","Crossfit Smyrna","5292 Oakdale Rd SE","30082",33.824646376588674,-84.49718478989463
"30082","Smyrna","GA","Magnolia Vinings Pool","2151 Cumberland Pkwy SE","30339",33.852046966552734,-84.48292541503906
"30082","Smyrna","GA","CrossFit 285","4620 S Atlanta Rd SE Ste C","30339",33.840273891252274,-84.4851444686184
"30082","Smyrna","GA","Fitness Together - Ivy Walk Vinings","Ivy Walk","not_available",33.84907,-84.493016
"30082","Smyrna","GA","The Body Firm Atlanta","3630 Oakdale Road","30080",33.84675221435487,-84.4943368434906
"30082","Smyrna","GA","Anytime Fitness","4875 Floyd Rd SW","30126",33.83583,-84.57508
"30083","Stone Mountain","GA","Kfed","forest path","30084",33.780115842819214,-84.173551
"30083","Stone Mountain","GA","D Reynards","Stone mountain-lithonia rd","not_available",33.79114,-84.165159
"30084","Tucker","GA","LA Fitness","1990 W Exchange Pl","30084",33.8423244859861,-84.24619558289736
"30084","Tucker","GA","Ava Gym","2200 Parklake Dr NE","30345",33.8505234535522,-84.24949367515134
"30084","Tucker","GA","Operation Boot Camp","3042 Flowers Rd S","30341",33.871800123947295,-84.26427017223324
"30084","Tucker","GA","Crossfit Tucker","2066 Weems Rd Bldg D","30084",33.844608306884766,-84.25090789794922
"30084","Tucker","GA","Cosmic Energy Fitness","4800 Briarcliff Rd NE Ste 250","30345",33.850020882595416,-84.25547192214522
"30084","Tucker","GA","Residency at Northlake Gym","not_available","30345",33.8507017186407,-84.24795712295247
"30084","Tucker","GA","Crossfit Tucker","2316 Main Street, Suite B","30084",33.853002787769164,-84.21440541744232
"30084","Tucker","GA","Oakwood apt gym","Jimmy Carter 1801","30093",33.8719490349257,-84.18975094698362
"30084","Tucker","GA","RockHard Fitness Gym","4369 Hugh Howell Rd","30084",33.85071563720703,-84.20953369140625
"30084","Tucker","GA","Curves","4410 Hugh Howell Rd # C-1","30084",33.85215746670138,-84.20691220493532
"30084","Tucker","GA","The GYM",".","30345",33.850754924643375,-84.24799313041196
"30084","Tucker","GA","Rock Hard Fitness","not_available","30084",33.8506891608285,-84.20933813546996
"30084","Tucker","GA","InclusiF Fitness","4401 Hugh Howell Rd","30084",33.85063171386719,-84.20945739746094
"30084","Tucker","GA","Alderwood At The Lake Gym","3200-3202 Quails Lake Village Ln","30093",33.888389700000005,-84.19597053750002
"30084","Tucker","GA","Aviara Oaks Fitness Center","not_available","30341",33.883439898490906,-84.25772943333334
"30092","Peachtree Corners","GA","Snap Fitness","4941 S Old Peachtree Rd","30092",33.968528747558594,-84.19561004638672
"30092","Peachtree Corners","GA","Anytime Fitness","3435 Medlock Bdg Rd","30092",33.969341,-84.208704
"30093","Norcross","GA","Parkway Vista Apartments","not_available","30340",33.9041838875274,-84.23671897986992
"30093","Norcross","GA","Ballys","Jimmy Carter","not_available",33.897083,-84.200401
"30093","Norcross","GA","Best Friend Park Gym/Badminton Courts","6224 Jimmy Carter Blvd","30071",33.9277004499914,-84.22091966818232
"30094","Conyers","GA","The Ridge Fitness Spot","not_available","30094",33.601082,-84.090824
"30096","Duluth","GA","The Reserve Gym","not_available","30097",33.992330520685776,-84.09778730793106
"30096","Duluth","GA","Evolve Fitness by Drey","3931 Peachtree Industrial Blvd","30096",33.98651885986328,-84.17151641845703
"30096","Duluth","GA","CrossFit JagLion","2005 Boggs Rd","30096",33.969711,-84.096746
"30097","Duluth","GA","Mad Mare CrossFit","10305 Medlock Bridge Rd Ste B4","30097",34.0322259,-84.18513469999999
"30097","Duluth","GA","Boot Camp","10305 Medlock Bridge Rd","30097",34.03231,-84.185958
"30097","Duluth","GA","24 Hour Fitness","4955 Tanners Spring Dr","30022",34.04593276977539,-84.21492004394531
"30101","Acworth","GA","Aligned Living","5340 Brookstone Dr NW Ste 112","30101",33.998627,-84.707874
"30101","Acworth","GA","iLoveKickboxing - Kennesaw, GA","2774 Cobb Parkway N, Suite 105","30152",34.02291,-84.62379
"30101","Acworth","GA","LifeQuest Fitness","3362 Acworth Summit Blvd NW","30101",34.03760730834191,-84.67734332399971
"30101","Acworth","GA","Brim Gym","not_available","30152",34.0026741027832,-84.65971374511719
"30101","Acworth","GA","Gym De Zilla","not_available","30101",34.06853060508035,-84.64952634907583
"30101","Acworth","GA","JAW'S Gym","The Blue Basement","30144",34.037835672238984,-84.60964660412158
"30101","Acworth","GA","We Are III","1600 Kennesaw Due West Rd Ste 401","30152",33.9926943217416,-84.62780181240163
"30101","Acworth","GA","Fortitude-Crossfit","4401 Baker Grove Rd NW","30101",34.06350326538086,-84.65017700195312
"30101","Acworth","GA","CrossFit Addiction","3250 Heritage Dr NW","30144",34.042852,-84.613196
"30101","Acworth","GA","CrossFit Allatoona","1305 Cedarcrest Rd Ste 123","30132",34.0220832824707,-84.7722396850586
"30101","Acworth","GA","Smith's Martial Arts Academy","1600 Kennesaw Due West Rd NW Ste 307","30152",33.99284270271454,-84.627721290213
"30101","Acworth","GA","Hybrid Impact Fitness","3425 Old 41 Hwy NW #630","30144",34.03873542544014,-84.65068754416865
"30101","Acworth","GA","Supreme K Fitness","3055 N Main St NW","30144",34.0289437,-84.62733300000002
"30101","Acworth","GA","Escalade Indoor Climbing Gym","3694 Kennesaw S Industrial Dr NW","30144",34.043744000000004,-84.614731
"30101","Acworth","GA","The Underground Gym","Picketts Ridge Ln","30101",34.05004599,-84.74204247
"30101","Acworth","GA","American Bodyworks","2851 Cobb Pkwy NW #109","30152",34.021854400634766,-84.62667083740234
"30101","Acworth","GA","Kennesaw Fit Body Boot Camp","3102 Loring Rd NW Ste 110","30152",34.030866025922286,-84.66137236316929
"30101","Acworth","GA","Walden Ridge Gym","3091 Cobb Pkwy NW","30152",34.028544000000004,-84.653699
"30101","Acworth","GA","Ellison Lake Gym","Ellison Lakes Dr","not_available",34.00057881307454,-84.60886881106349
"30102","Acworth","GA","LA Fitness","2060 Eagle Dr","30189",34.11284005840252,-84.56424298857438
"30102","Acworth","GA","Fitness 19","6424 Bells Ferry Rd #112","30189",34.11289844656064,-84.58066665882622
"30102","Acworth","GA","Structured Fitness","5558 Bells Ferry Rd","30102",34.085772,-84.574324
"30102","Acworth","GA","art & ree gym","2313 Westview Ct","30102",34.105402000000005,-84.622555
"30102","Acworth","GA","Superior Fitness","5505 Bells Ferry Rd","30102",34.08526568255869,-84.57642235194265
"30102","Acworth","GA","La Fitness","Town Lake","30101",34.110011936273935,-84.66311711827336
"30102","Acworth","GA","Brooke Mill Gym","101 Downsby Lane","30189",34.080346282740614,-84.55449936328334
"30102","Acworth","GA","R2 Total Fitness 24/7","1025 Rose Creek Dr Ste 740","30189",34.1270817,-84.5733118
"30102","Acworth","GA","Iron Clad K-9 Academy","not_available","30189",34.103807138729294,-84.57883158475602
"30102","Acworth","GA","Pure Barre","2295 Towne Lake Pkwy Ste 152","30189",34.1131541,-84.5549649
"30102","Acworth","GA","Orangetheory Fitness","200 Parkbrooke Dr","30189",34.1118245,-84.5586783
"30102","Acworth","GA","Your Body Fitness","2639 Hickory Grove Rd NW Ste 140","30101",34.065041254455934,-84.62486374417472
"30102","Acworth","GA","Axcess Fitness","2535 Hickory Grove Rd NW","30101",34.06488277067302,-84.62356879161003
"30102","Acworth","GA","Orangetheory Fitness","4391 Acworth Dallas Rd NW","30101",34.06122970581055,-84.72493743896484
"30102","Acworth","GA","Dr. Kortney Training","525 Industrial Dr","30189",34.089465999999994,-84.558437
"30103","Adairsville","GA","Workout Anytime Calhoun","Belmont Drive","30701",34.447688696497444,-84.9407958984375
"30103","Adairsville","GA","A-ville Gym","not_available","30103",34.316546,-84.942063
"30106","Austell","GA","Planet Fitness","5590 Mableton Pkwy","30126",33.81733336420943,-84.57991574889928
"30106","Austell","GA","Champion Performance Training","not_available","30168",33.813879934368096,-84.63355196241349
"30106","Austell","GA","DWT Studios","Mulberry St.","not_available",33.81284645942175,-84.63279053739001
"30106","Austell","GA","P90X with Tony!","not_available","30106",33.84658630804748,-84.60034144016772
"30106","Austell","GA","Amor Fitness and Nutrition","5900 Maxham Rd","30168",33.81111069622646,-84.61975788140177
"30106","Austell","GA","Amor Fitness & Nutrition, LLC","5900 Maxham Rd #3, Austell, GA 30168","30168",33.81100082397461,-84.61997985839844
"30107","Ball Ground","GA","Anytime Fitness","8016 Cumming Hwy Ste 301","30115",34.25262,-84.35872
"30107","Ball Ground","GA","gym Gp","not_available","30143",34.39988856479377,-84.37523554370543
"30107","Ball Ground","GA","Anytime Fitness","110 Bluffs Pkwy","30114",34.25679,-84.48173
"30107","Ball Ground","GA","gym","not_available","30107",34.32255935668945,-84.40110778808594
"30107","Ball Ground","GA","PV Gym","not_available","30114",34.28613806755724,-84.45711475749118
"30107","Ball Ground","GA","TruFitness","10150 Ball Ground Hwy","30107",34.35429235188978,-84.37841640928687
"30114","Canton","GA","Onelife Fitness - Holly Springs","4512 Holly Springs Pkwy","30115",34.14840299881058,-84.5132946968078
"30114","Canton","GA","Orangetheory Fitness","3640 Marietta Hwy","30114",34.1973665868305,-84.5092146033129
"30114","Canton","GA","Anytime Fitness","3753 Marietta Hwy #125","30114",34.19452,-84.5084
"30114","Canton","GA","CrossFit Canton","857 Hickory Flat Hwy","30115",34.22365604347051,-84.48073162689391
"30114","Canton","GA","Elite ATA Martial Arts / Formerly Canton South ATA Martial Arts","3422 Sixes Road #110","30114",34.17391973728377,-84.54867571730726
"30114","Canton","GA","Beat Time Sports Center","5101 Old Highway 5","30115",34.142391204833984,-84.50824737548828
"30114","Canton","GA","Source4 Fitness","6884 Hickory Flat Hwy","30188",34.168156,-84.414553
"30114","Canton","GA","Planet Fitness","2243 Cumming Hwy, Ste 108","30115",34.239296,-84.45405500000001
"30114","Canton","GA","Head Over Heels","755 Ash St","30114",34.18045418516147,-84.50879240776413
"30114","Canton","GA","360 Tumble And Gymnastics","110 Prominence Point Pkwy","30114",34.191974,-84.51136
"30114","Canton","GA","CrossFit Cherokee","2050 Cumming Hwy","30115",34.23427383514675,-84.45257380497281
"30114","Canton","GA","The Gym","not_available","30115",34.173910496012724,-84.4782853396716
"30114","Canton","GA","Elite Krav Maga and Fitness","3422 Sixes Road #109","30114",34.173824310302734,-84.54845428466797
"30114","Canton","GA","Workout Anytime","6232 Old Highway 5","30188",34.129697232690184,-84.49932038784027
"30114","Canton","GA","Anytime Fitness","6776 Hickory Flat Hwy","30115",34.17164,-84.41612
"30114","Canton","GA","BodyPlex Fitness","Riverstone Pkwy","30114",34.245536,-84.48565185070038
"30114","Canton","GA","American Bodyworks 24/7 Fitness","5947 Holly Springs Parkway","30188",34.13666389999999,-84.50005519999999
"30115","Canton","GA","American Body Works","5947 Holly Springs Pkwy #305","30188",34.234477209404766,-84.4525985029488
"30115","Canton","GA","Superior Healthclub Milton","980 Birmingham Rd Ste 811","30004",34.16607138017651,-84.33933549142856
"30115","Canton","GA","Colonial Grand Gym","Shiloh Road","30115",34.1866,-84.49429
"30115","Canton","GA","CrossFit Yin Yang","535 Riverstone Pkwy Ste 205","30114",34.24515151977539,-84.48365020751953
"30115","Canton","GA","River Park Gym","141 River Park Xing","30188",34.139084999999994,-84.511545
"30115","Canton","GA","KAIO FIIT","2864 E Cherokee Dr Ste D","30115",34.17403831830579,-84.41855960251615
"30116","Carrollton","GA","Onelife Fitness - Carrollton Gym","812 S Park St Ste 12","30117",33.5661387,-85.0756658
"30116","Carrollton","GA","Mandeville Loft Fitness Center","361 Lovvorn Rd","30117",33.57898712158203,-85.08908081054688
"30116","Carrollton","GA","Sportsplex Health & Athletic Club","106 Somerset Pl","30116",33.596439020495296,-85.03911348425297
"30116","Carrollton","GA","Crossfit Carrollton","not_available","30117",33.599207,-85.09493
"30116","Carrollton","GA","The Grove","912 Lovvorn Rd","30117",33.57920053931379,-85.1026403846149
"30116","Carrollton","GA","Sportsplex","Somerset place","30117",33.59660260203722,-85.03930882111729
"30116","Carrollton","GA","Club Fitness","830 Maple St","30117",33.57403635978699,-85.0847686
"30116","Carrollton","GA","Tanner Medical Center/Carrollton Walking Trail","705 Dixie St","30117",33.56957244873047,-85.0740737915039
"30116","Carrollton","GA","Zumba Class","Lakeshore Park","30117",33.599958124944365,-85.06027976105378
"30116","Carrollton","GA","The Tread","Old Harper Road","30116",33.51307843862795,-85.02997645443448
"30116","Carrollton","GA","Folds Gym","not_available","30116",33.537931,-85.062664
"30116","Carrollton","GA","East Carrollton Gym","North Lakeshore Dr","30117",33.58736886426497,-85.04492441281592
"30116","Carrollton","GA","Miss DREA'S Muscle Maker","702-706 Birkdale Blvd","30116",33.569448916666666,-85.03117025
"30120","Cartersville","GA","Cair Plus","not_available","30120",34.1698353556868,-84.79348293850626
"30120","Cartersville","GA","Fitness Center @ Hilton Garden Inn Cartersville","24 Liberty Dr","30121",34.16790603568462,-84.7815010537068
"30120","Cartersville","GA","Golds Gym","Henderson drive","30120",34.15289073736135,-84.8165528171542
"30120","Cartersville","GA","Bodyplex Fitness of Cartersville","25 Collins Dr","30120",34.19254683674389,-84.79341688372513
"30120","Cartersville","GA","Workout Anytime","608 E Main St","30121",34.17049,-84.78388
"30120","Cartersville","GA","Avonlea Fitness Center","950 E Main St","30121",34.176055908203125,-84.77271270751953
"30120","Cartersville","GA","New Crossfit Adrenaline Box","790 West Ave","30120",34.157894134521484,-84.81428527832031
"30120","Cartersville","GA","Devilrays","199 Hickory Ln","30120",34.190135,-84.789697
"30120","Cartersville","GA","Anytime Fitness","790 Euharlee Rd","30120",34.1489143371582,-84.90471649169922
"30120","Cartersville","GA","Lani's Fitness","12 S Erwin St","30120",34.16537857055664,-84.79663848876953
"30120","Cartersville","GA","Anytime Fitness","10 Slopes Dr.","30120",34.19544627,-84.79648802
"30120","Cartersville","GA","Boot Camp with LeNette","330 N. Erwin Street","30120",34.176006503027956,-84.8063691889873
"30122","Lithia Springs","GA","LS Gym","not_available","30122",33.79379064441421,-84.6556953244316
"30122","Lithia Springs","GA","Century Sweetwater Fitness Center","1100 Preston Landing Cir","30122",33.7686767578125,-84.61382293701172
"30122","Lithia Springs","GA","Elevated Fitness","965 Forest Knoll Ct","30122",33.74677658081055,-84.60585021972656
"30125","Cedartown","GA","Planet Fitness","770 N Main St","30125",34.025562,-85.248106
"30125","Cedartown","GA","Arencibia Gym","not_available","30125",34.044973,-85.257657
"30125","Cedartown","GA","Fat Busters","not_available","30173",34.13825174363055,-85.14091485235949
"30125","Cedartown","GA","Advance Rehabilatation","1108 north main stree","30125",34.03498894648396,-85.24346815391425
"30125","Cedartown","GA","Studio Fitness 24/7","224 Main St","30125",34.01244123883132,-85.2550726563013
"30125","Cedartown","GA","Advance Rehabilitation","Main street","30125",34.020251,-85.248207
"30126","Mableton","GA","Stiles Mini Gym","not_available","30126",33.795019,-84.567627
"30126","Mableton","GA","Calibre Lake Gym","not_available","30082",33.83381180001058,-84.49478702824071
"30126","Mableton","GA","Boot Camp Revolution","Nickajack Park","not_available",33.817136,-84.506494
"30126","Mableton","GA","Baby Gorillas Basement Workout Shaq","5522 Stoneybrook Ct SE","30126",33.818825,-84.516351
"30126","Mableton","GA","Lee's Basement Gym","508 vinings","30126",33.8005113671678,-84.54190461139548
"30126","Mableton","GA","24 Hour Workout","South cobb dr","30082",33.83124666276606,-84.4949099665071
"30126","Mableton","GA","Burn Boot Camp","3150 Highlands Pkwy SE","30082",33.82692,-84.49592
"30127","Powder Springs","GA","Top Flight Athletics","3403 Florence Cir","30127",33.87048,-84.701093
"30127","Powder Springs","GA","American Bodyworks","5886 Wendy Bagwell Pkwy Ste 107","30141",33.88267048614809,-84.73141007042085
"30127","Powder Springs","GA","Sculptures Fitness","6525 Hiram Douglasville Hwy","30134",33.79926681518555,-84.75592803955078
"30127","Powder Springs","GA","Workout Anytime","4400 Brownsville Rd","30127",33.84591347522311,-84.69805257964401
"30127","Powder Springs","GA","IQ Fitness","45 Darbys Crossing Dr","30141",33.9049072265625,-84.7486572265625
"30127","Powder Springs","GA","Xtreme Fitness","3893-3897 Georgia 120 Connector","30141",33.87017336108711,-84.76632083762277
"30127","Powder Springs","GA","Hammy's Heslth And Fitness","not_available","30127",33.805294,-84.73805
"30127","Powder Springs","GA","Workout Anytime Florence","922 Cox Creek Pkwy","35630",33.895953789483386,-84.7616803158102
"30127","Powder Springs","GA","Top Flight Athletics","4400 Brownsville Rd Ste 300","30127",33.84612221081051,-84.6980775120663
"30127","Powder Springs","GA","CrossFit IV","3220 Hopeland Industrial Blvd","30127",33.87468338012695,-84.70088195800781
"30127","Powder Springs","GA","Universal fitness","5886 Wendy Bagwell Pkwy","30141",33.882331,-84.731406
"30127","Powder Springs","GA","Required Fitness","3931 Mary Eliza Trce NW","30064",33.966713352899305,-84.6665318828345
"30127","Powder Springs","GA","Maxt3","5087 Dallas Hwy #100","30127",33.94093704223633,-84.70014953613281
"30127","Powder Springs","GA","Workout Anytime Princeton","200 S. Beauchamp Blvd. Ste 106","75407",33.93525827779914,-84.7261305521558
"30127","Powder Springs","GA","CROSSFIT 92","1655 Hiram-Douglasville Hwy.","not_available",33.86845179644332,-84.76413625842424
"30132","Dallas","GA","Tapout Fitness Dallas","55 E Paulding Dr Ste 108","30157",33.9577896,-84.7870614
"30132","Dallas","GA","TNT Cardio Kickboxing","107 Village Walk","30132",33.91252517700195,-84.83869934082031
"30132","Dallas","GA","The Space of Perpetual Pumps, Pains, Gains & Glory","not_available","30157",33.903349911742325,-84.81260199538328
"30132","Dallas","GA","Uchi Gym","not_available","30132",33.983009338378906,-84.80379486083984
"30132","Dallas","GA","Body Plex","not_available","30141",33.911443636124744,-84.77448709385962
"30132","Dallas","GA","Workout Anytime","92 Highland Pavilion Way","30141",33.90167762063911,-84.77375588831968
"30132","Dallas","GA","Anytime Fitness","2483 Cedarcrest Rd","30101",34.03725,-84.77472
"30132","Dallas","GA","Momentum Fitness","10175 Dallas Acworth Hwy","30132",34.027844239751936,-84.74357234755426
"30132","Dallas","GA","BodyPlex","76 Highland Pavilion Ct Ste 161","30141",33.89973,-84.770933
"30134","Douglasville","GA","Gold's Gym","8741 Hospital Dr","30134",33.7437521147139,-84.73277388461423
"30134","Douglasville","GA","LA Fitness","3020 Chapel Hill Rd","30135",33.724622028501834,-84.73198167499488
"30134","Douglasville","GA","Youfit Health Clubs","9559 Georgia Hwy 5, #401","30135",33.7234083,-84.7642582
"30134","Douglasville","GA","World Class 24 Hour Gym And Tanning","2046 Fairburn Rd","30135",33.75019664520775,-84.70957550427563
"30134","Douglasville","GA","American Bodyworks","4336 Ridge Rd","30134",33.814204945053454,-84.81894828619947
"30134","Douglasville","GA","The Highland Gym","not_available","30135",33.74641418457031,-84.71707153320312
"30134","Douglasville","GA","Motivational Fitness","7580 Owl Creek Dr","30134",33.7462437,-84.776123
"30134","Douglasville","GA","Orangetheory Fitness","2750 Chapel Hill Rd","30135",33.73102100808627,-84.7361860703148
"30134","Douglasville","GA","Madhouse Gym","5848 Bankhead Hwy","30134",33.761653900146484,-84.72589874267578
"30134","Douglasville","GA","Ray's Gym","33 Inverness Ct","30141",33.830997467041016,-84.8249740600586
"30134","Douglasville","GA","Workout Anytime","4900 Stewart Mill Rd","30135",33.724001785347845,-84.7356686918476
"30134","Douglasville","GA","primary fitness","not_available","30134",33.778849780927395,-84.74795266695298
"30134","Douglasville","GA","Beast Mode Gym","Domination Station","30134",33.798488,-84.788849
"30135","Douglasville","GA","Gold's Gym","4600 Legend Pl","30135",33.721108272835366,-84.7246472512812
"30135","Douglasville","GA","anneewakee trails workout","not_available","30213",33.68341463355571,-84.67955096856765
"30135","Douglasville","GA","CrossFit Douglasville","4040 Chapel Hill Rd Ste D","30135",33.69675085921776,-84.71480228939353
"30135","Douglasville","GA","Knuckleup Fitness","4040 Chapel Hill Rd","30135",33.71736832,-84.77290297
"30135","Douglasville","GA","Home gym!","not_available","30342",33.69997354557512,-84.70879139903205
"30135","Douglasville","GA","P90X Fitness Workout Room","5410 Mill Valley Dr","30135",33.70553970336914,-84.75225067138672
"30135","Douglasville","GA","Arcadia's Rockin' Gym","5150 Thompson Rd","30213",33.613119,-84.607023
"30135","Douglasville","GA","Boundary Water Aquatic Exercise Center","5000 Georgia Highway 92","30349",33.63536122448733,-84.66421523778504
"30135","Douglasville","GA","Golds Gym","Chapel Hill Road","30135",33.70046779097009,-84.71614510582403
"30135","Douglasville","GA","Tributary Village Activity Center","3240 Bakewell St","30135",33.71321965133871,-84.64457354297721
"30135","Douglasville","GA","Dangerous Curvez Fitness","3220","30331",33.611706843402864,-84.60956480700389
"30141","Hiram","GA","My Gym","waters Rd","30141",33.84012361379268,-84.7904813331107
"30143","Jasper","GA","Anytime Fitness","1101 Old Philadelphia Rd","30143",34.47358322143555,-84.46128845214844
"30143","Jasper","GA","Jasper Fitness","On The Side Of 515","30143",34.5013764219203,-84.43843359958169
"30143","Jasper","GA","bodyplex","hwy 515 suite 594","30143a",34.468971801143475,-84.45694256821808
"30143","Jasper","GA","BodyPlex","594 Noah Dr","30143",34.46913,-84.456918
"30144","Kennesaw","GA","LA Fitness","4200 Wade Green Rd NW Ste 300","30144",34.05573244111856,-84.59063878538738
"30144","Kennesaw","GA","Youfit Health Clubs","3895 Cherokee St NW #100","30144",34.048766,-84.6004525
"30144","Kennesaw","GA","Curves","3600 Cherokee St NW","30144",34.041872,-84.60186
"30144","Kennesaw","GA","North Georgia Barbell","kennesaw, ga","not_available",34.003059,-84.604752
"30149","Mount Berry","GA","Harbin Clinic Vitality Center","504 Redmond Rd NW","30165",34.279148179074554,-85.19556990885012
"30152","Kennesaw","GA","Pure Barre","1615 Ridenour Blvd NW Ste 205","30152",33.994623818402424,-84.5922615999591
"30152","Kennesaw","GA","Georgia Chrome Star","2070 Attic Pkwy NW Ste 102","30152",34.003475189208984,-84.60436248779297
"30152","Kennesaw","GA","Operation Boot Camp","3140 Old Hwy 41","30144",34.032575,-84.631126
"30153","Rockmart","GA","Body Vision 24/7","not_available","30153",33.99869213898367,-85.04943947243774
"30157","Dallas","GA","Toadali Fit Gym","2985 Villa Rica Hwy Ste H","30157",33.868289947509766,-84.83847045898438
"30161","Rome","GA","Planet Fitness","2507 Redmond Circle NW","30165",34.273454270603374,-85.22776446441804
"30161","Rome","GA","Rome Health Spa","not_available","30161",34.2463493347168,-85.16938018798828
"30161","Rome","GA","FIT365","not_available","30165",34.31823660705393,-85.17357938701834
"30161","Rome","GA","Velocity Fitness In Motion 515 Plaza Pl","515 Plaza Pl","not_available",34.24688848888655,-85.16801201385968
"30161","Rome","GA","Rome Athletic Club","10 John Davenport Dr NW","30165",34.26892196703986,-85.18185145168083
"30161","Rome","GA","YMCA","810 E 2nd Ave SW","30161",34.24214307053783,-85.16452200714329
"30161","Rome","GA","Revolution Fitness @ The Edge","113A Armstrong St NW","30165",34.27057246346384,-85.19647050266533
"30161","Rome","GA","Pro Performance","314 E 1st Ave","30161",34.25156021118164,-85.1747817993164
"30161","Rome","GA","SCBC Upward","Chulio Rd","30161",34.19968734021272,-85.09190372778745
"30161","Rome","GA","Workout Anytime","132 Hicks Dr SE","30161",34.254871310221304,-85.16088081347576
"30176","Tallapoosa","GA","The Fridge","not_available","30176",33.75954603510671,-85.29316819465905
"30179","Temple","GA","Personal Fitness","Rocky Branch Rd, Villa Rica, GA 30180","30180",33.72004223556191,-84.95341347058198
"30179","Temple","GA","Sta-Fit & Tan","104 W Perennial Dr","30179",33.72268779288935,-85.02878688097155
"30179","Temple","GA","Toe2Toe Fitness","not_available","30180",33.748646,-84.932378
"30179","Temple","GA","CrossFit Boiler Room","753 Industrial Blvd","30180",33.73891067504883,-84.93760681152344
"30179","Temple","GA","New Life Fitness For Women","119 S Candler St","30180",33.731459,-84.9203360080719
"30179","Temple","GA","Defkon 1 Fitness","901 S Carroll Rd","30180",33.71495720056778,-84.93632270246889
"30180","Villa Rica","GA","American Bodyworks","2416 Conners Rd","30180",33.73198563581701,-84.89477168958183
"30188","Woodstock","GA","Life Time Fitness","14200 Alabama Rd NE","30188",34.0803036,-84.4545134
"30188","Woodstock","GA","Life Time Fitness","14200 Hwy 92","30188",34.080536,-84.450809
"30188","Woodstock","GA","Lifetime Fitness Child Center","14200 Highway 92","30188",34.08042526245117,-84.45457458496094
"30188","Woodstock","GA","Alta Ridgewalk Gym","1 Elena Way","30188",34.117191314697266,-84.52103424072266
"30188","Woodstock","GA","River Ridge High School","400 Arnold Mill Rd","30188",34.116107279096326,-84.48109315877598
"30188","Woodstock","GA","NASM OnPoint Academy","110 Londonderry Court","30188",34.0852755,-84.50542279999999
"30188","Woodstock","GA","Curves","9550 Main St","30188",34.087249755859375,-84.52001953125
"30188","Woodstock","GA","Emerge Fitness at Owl Crossfit","8690 Main St","30188",34.0996325506146,-84.52001979790256
"30188","Woodstock","GA","The Gym","501 Willow Creek Ln","30188",34.083545,-84.48910699999999
"30188","Woodstock","GA","Bell Woodstock Gym","1 Sycamore Ln","30188",34.086124420166016,-84.48414611816406
"30188","Woodstock","GA","Rhythm And Fitness Studio","4796 Canton Rd","30066",34.068477630615234,-84.52081298828125
"30189","Woodstock","GA","Towne Lake Hts Gym","Buckhead Crossing","30189",34.10938358893653,-84.5413876616115
"30189","Woodstock","GA","CrossFit Etowah","8811 Highway 92","30189",34.08775,-84.542742
"30189","Woodstock","GA","Home Gym","Towne Lake Hills Drive South","30189",34.103543069946305,-84.55041646957397
"30189","Woodstock","GA","Anytime Fitness","2340 Towne Lake Pkwy","30189",34.1132,-84.55261
"30189","Woodstock","GA","Crossfit Bridgemill","Sixes Rd","30114",34.17478566148767,-84.54868083500284
"30204","Barnesville","GA","Anytime Fitness","816 College Dr","30204",33.03389,-84.15346
"30206","Concord","GA","La Salle De Sports","pedenville rd","30206",33.12940905,-84.4628643
"30213","Fairburn","GA","LA Fitness","6385 Old National Hwy","30349",33.580046556508194,-84.47173665350338
"30213","Fairburn","GA","LA Fitness","3755 Carmia Dr SW Ste 700","30331",33.656840044622896,-84.50830230084745
"30213","Fairburn","GA","20BOOTCAMP Fitness Training/Bootcamp","4255 Will Lee Road, College Park, GA 30349","30349",33.63181686401367,-84.52748107910156
"30213","Fairburn","GA","Workout Anytime","4737 Jonesboro Rd, Ste 50","30291",33.57093705489705,-84.54063605531678
"30213","Fairburn","GA","Body By Inches 24 Hr. Fitness Center","6703 Shannon Pkwy Ste 3","30291",33.5728512,-84.5402822
"30213","Fairburn","GA","Jill Miller Fitness Studio","99 Inman Street","not_available",33.575555,-84.561072
"30213","Fairburn","GA","Fit 4 Life","not_available","30291",33.56916544142068,-84.53681505660788
"30213","Fairburn","GA","Body By Inches","Shannon pkwy","not_available",33.58448511518901,-84.52937880243918
"30213","Fairburn","GA","Cambridge Faire Apartments - Fitness Center","900 Meadow Glen Pkwy","30213",33.536607000000004,-84.581861
"30213","Fairburn","GA","Welcome All Fitness Center","not_available","30349",33.64381366674736,-84.50819601737291
"30213","Fairburn","GA","WellFit You Personal Training","2410 Crest Ridge Dr","30344",33.661468505859375,-84.50084686279297
"30213","Fairburn","GA","The Gym At 2 Doors Down","5721 Sable Way","30349",33.60137939453125,-84.49472045898438
"30213","Fairburn","GA","WCCI Body Sculpting Center","2500 Burdett Rd","30349",33.59486770629883,-84.47190856933594
"30214","Fayetteville","GA","Ultimate fitness","922 Highway 85 S","30215",33.42668529966499,-84.45844841115323
"30214","Fayetteville","GA","Piedmont Wellness Center","200 J Arthur Rank Ave","30214",33.4707336,-84.5079574
"30214","Fayetteville","GA","Curves","1988 Highway 54 W Ste A","30269",33.42721176147461,-84.55644989013672
"30214","Fayetteville","GA","Crossfit Kickstart","205 Industrial Way","30215",33.44364929199219,-84.4417724609375
"30214","Fayetteville","GA","Results Fitness","535 Glynn St S","30214",33.43877729765831,-84.45577482832208
"30214","Fayetteville","GA","Maximum Output","not_available","30215",33.44797134399414,-84.47388458251953
"30214","Fayetteville","GA","Next Level Fitness","1262 Georgia 138","not_available",33.54960117720243,-84.42998101074807
"30214","Fayetteville","GA","Piedmont Fayette Rehab & Fitness Center","1250 Georgia Hwy 54","30214",33.450178,-84.508434
"30214","Fayetteville","GA","T&F Personal Training","not_available","30214",33.455440521240234,-84.4552993774414
"30214","Fayetteville","GA","Legacy Image Allstars","283 Highway 138 SW","30274",33.54338836669922,-84.40001678466797
"30214","Fayetteville","GA","IBEATALL Sports","1550 Senoia Rd","30290",33.48884963989258,-84.57798767089844
"30214","Fayetteville","GA","Fitness USA","725 Lanier Ave E","30214",33.45032264190316,-84.43776369094849
"30214","Fayetteville","GA","Pose Wellness","Banks Station 205 Banks Road","not_available",33.468376452433134,-84.44222688674927
"30214","Fayetteville","GA","World Gym","931 Glynn St N","30214",33.464565320481135,-84.4484875095602
"30214","Fayetteville","GA","Youfit Health Clubs","7531 GA-85","30274",33.549028,-84.416992
"30214","Fayetteville","GA","Maximum Capacity Crossfit","137 Bethea Rd Ste 705","30214",33.50221633911133,-84.45169067382812
"30214","Fayetteville","GA","Legacy Image Cheer gym","283 Highway 138 SW Ste C","30274",33.54338836669922,-84.40001678466797
"30214","Fayetteville","GA","Youfit","7531 Highway 85","30296",33.548851728408124,-84.41649482074767
"30215","Fayetteville","GA","World Gym","Hwy 74 Hwy 54","30269",33.369100340411585,-84.54599910077086
"30215","Fayetteville","GA","Heritage Point Club House.","Heritage Point Pkwy","30276",33.326877,-84.544841
"30215","Fayetteville","GA","Crossfit Good Life","827 Highway 74 S Ste 201","30269",33.34388373471584,-84.54372167587279
"30223","Griffin","GA","911 fitness","3350 Georgia 155, Locust Grove, GA 30248","30248",33.34247970581055,-84.17780303955078
"30223","Griffin","GA","Planet Fitness","1207 W Taylor St","30223",33.24839462270085,-84.28273397514344
"30223","Griffin","GA","Club Fitness","521 N Expressway","30223",33.25702200180932,-84.29004419239452
"30223","Griffin","GA","Tuck's Gym","360 Hamilton Blvd","30224",33.23847961425781,-84.2462387084961
"30223","Griffin","GA","Racquethause","1447 N Expressway","30223",33.27273862,-84.291602
"30223","Griffin","GA","Curves","120 Taylor St","not_available",33.246985042958485,-84.26403485893714
"30223","Griffin","GA","Muscle World Gym","Tanger blvd","not_available",33.34635491671565,-84.12100405195628
"30223","Griffin","GA","Rn Fitness","456 W Solomon St","30223",33.24840545654297,-84.2699203491211
"30224","Griffin","GA","T & T Bootcamp","not_available","30224",33.21619500374285,-84.25231712237694
"30228","Hampton","GA","Anytime Fitness","11191 Tara Blvd","30228",33.4487,-84.32696
"30228","Hampton","GA","CAO ELITE ALL STARS","not_available","30238",33.48368984149477,-84.34078382790166
"30228","Hampton","GA","destiny fitness","not_available","30253",33.472900390625,-84.21849822998047
"30228","Hampton","GA","Burnette Karate & Gym","3118 Jodeco Rd","30253",33.48297296633633,-84.21262109638094
"30228","Hampton","GA","Workout Anytime","10341 Tara Blvd","30236",33.472164,-84.338365
"30228","Hampton","GA","Snap Fitness 24-7","Tara Blvd","30228",33.4466076561428,-84.32618852941069
"30228","Hampton","GA","Second wind-Crossfit","Andover Cir.","30252",33.463935266105445,-84.25913896427825
"30228","Hampton","GA","NV AllStars","not_available","30228",33.387659,-84.282436
"30230","Hogansville","GA","CHS Large Gym","not_available","30241",33.08390808105469,-84.98966979980469
"30233","Jackson","GA","Oxygen Fitness Studio","24 S Mulberry St","30233",33.29514385,-83.96632196666667
"30233","Jackson","GA","The Gym","139 Crown Forest Dr","30252",33.432478,-84.08784
"30233","Jackson","GA","Health Fitness USA","401-535 Georgia 36","30233",33.304606622675266,-83.96024145879048
"30233","Jackson","GA","Pro Fit Pumping Iron Gym","60-62 Old Jackson Rd","30252",33.427320523472936,-84.0978997758329
"30236","Jonesboro","GA","LA Fitness","7057 Mount Zion Cir","30260",33.564708852979045,-84.32967212992736
"30236","Jonesboro","GA","Body Talk Fitness","7420 Davidson Cir E","30281",33.552562,-84.264179
"30236","Jonesboro","GA","The Gym","102 Carrington Park","30236",33.554373999999996,-84.303428
"30236","Jonesboro","GA","in hades aka sauna","not_available","30260",33.566505432128906,-84.32694244384766
"30236","Jonesboro","GA","700 Calories A Day","not_available","30273",33.59599685668945,-84.26973724365234
"30236","Jonesboro","GA","bodies unlimited","not_available","30274",33.58244323730469,-84.39383697509766
"30236","Jonesboro","GA","Carrington Park Apartments Gym","100 Carrington Park","30236",33.554373999999996,-84.303428
"30236","Jonesboro","GA","The Exercise Room","Hannover Parkway","30281",33.55497,-84.274263
"30236","Jonesboro","GA","Century Lake Fitness Center","100 Chaselake Dr","30236",33.55550765991211,-84.35887908935547
"30236","Jonesboro","GA","Muscle Beach Fitness","2300 Highway 138 E","30236",33.52762985229492,-84.31343841552734
"30236","Jonesboro","GA","Snap Fitness","1005 Brentwood Pkwy","30281",33.52693521636921,-84.26730868446963
"30236","Jonesboro","GA","PRBC Gym","9701 Poston Rd","30238",33.494393,-84.361888
"30236","Jonesboro","GA","Workout Anytime","3658 Highway 138 SE","30281",33.55185952405977,-84.27217887361506
"30236","Jonesboro","GA","CrossFit Bear Strength","9396 S Main St","30236",33.49899673461914,-84.3436279296875
"30236","Jonesboro","GA","Curves Jonesboro","9434 S Main St #1400","30236",33.498523,-84.342815
"30240","Lagrange","GA","Planet Fitness","118 Commerce Ave","30241",33.04798923711856,-85.02601097207904
"30240","Lagrange","GA","The Gym","Long Cane Rd","30240",32.95874485790546,-85.1271223402024
"30240","Lagrange","GA","Body Control Pilate Studio","220 Main St,","30240",33.036415100097656,-85.03166198730469
"30240","Lagrange","GA","KMMG Fitness Center","not_available","31833",32.91714752117575,-85.12074917296195
"30240","Lagrange","GA","gym","3206 West Point Rd","30240",33.01251983642578,-85.1072006225586
"30240","Lagrange","GA","Trevor Workout Center","not_available","30240",33.038662,-85.044355
"30240","Lagrange","GA","CrossFit LaGrange","100 Corporate Plaza Dr","30241",33.04240798950195,-85.0289077758789
"30240","Lagrange","GA","Towne Fitness","124 Main St Ste C","30240",33.037817772494876,-85.03152645751173
"30241","Lagrange","GA","United Cheerleading of LaGrange","202 S Davis Rd","30241",33.04912185668945,-84.98542022705078
"30248","Locust Grove","GA","Workout Anytime","2694 Highway 155","30248",33.36653028936122,-84.18105307394275
"30248","Locust Grove","GA","Anytime Fitness","2168 Hwy 20 W","30253",33.41299,-84.20266
"30248","Locust Grove","GA","CrossFit Clash","not_available","30248",33.36647568223997,-84.18093530796217
"30248","Locust Grove","GA","Crossfit Locust Grove","116 Park 42 Dr Ste D","30248",33.37546920776367,-84.12397003173828
"30252","Mcdonough","GA","Union Grove High School","120 E Lake Rd","30252",33.50609448460909,-84.13489475600068
"30252","Mcdonough","GA","Curves For Women","311 Olde Town Way","30252",33.431433818852035,-84.13743142089153
"30252","Mcdonough","GA","Home gym","570 Pleasant Grove Rd","30252",33.54532467898457,-84.12040608692887
"30252","Mcdonough","GA","Orangetheory Fitness","1663 Georgia 20","30252",33.477616,-84.1013622
"30252","Mcdonough","GA","Fitness:1440 McDonough","294 Racetrack Rd","30252",33.430391,-84.1346155
"30252","Mcdonough","GA","Fitness USA","390 Highway 155 S","30253",33.4197900428295,-84.15270314707035
"30253","Mcdonough","GA","LA Fitness","95 Foster Dr","30253",33.463813808852976,-84.20841731491659
"30253","Mcdonough","GA","Gold's Gym","250 Business Center Dr","30281",33.51108384692751,-84.20994183019023
"30253","Mcdonough","GA","John Grall Memorial Weightroom","166 Holly Smith Dr, McDonough, GA 30253","30253",33.42938995361328,-84.15697479248047
"30253","Mcdonough","GA","Sundance Creek Gym","Flowers Creek Dr","30253",33.44338816203818,-84.16883228783922
"30253","Mcdonough","GA","Workout Anytime","287 Jonesboro Rd","30253",33.45283804862812,-84.16791200637817
"30253","Mcdonough","GA","Atlanta Weight Loss & Wellness Associates","1445 Rock Quarry Rd","30281",33.51341,-84.23059
"30253","Mcdonough","GA","Independent Athletics","241 McDonough Pkwy","30253",33.4386415,-84.1673562
"30253","Mcdonough","GA","Anytime Iron","not_available","30281",33.48923398649251,-84.23144283724453
"30253","Mcdonough","GA","Workout Anytime Hudson Bridge / Spivey","1760 Hudson Bridge Rd","30281",33.50160640691358,-84.24461347827332
"30253","Mcdonough","GA","McDonough ATA Black Belt Academy","1332 McDonough Place","30253",33.45104828514289,-84.16709929704666
"30253","Mcdonough","GA","CrossFit Pulse","860 Dailey Mill Rd","30253",33.479007461848916,-84.18182232846742
"30259","Moreland","GA","Eliptical","not_available","30277",33.27575362,-84.67195412
"30260","Morrow","GA","Muscle World","4917 Jonesboro Rd","30297",33.619258880615234,-84.35257720947266
"30263","Newnan","GA","Atlanta Fitness","460 Newnan Crossing Byp","30263",33.384446645332915,-84.76405141577453
"30263","Newnan","GA","Orangetheory Fitness","1731 Newnan Crossing Blvd E","30265",33.37823202314544,-84.75282955288324
"30263","Newnan","GA","Polar Gym","Private Driveway, Newnan, GA 30277","30277",33.44788740964914,-84.7833040054708
"30263","Newnan","GA","Onelife Fitness","19 Millard Farmer Ind Blvd Ste A","30263",33.3974795,-84.7627084
"30263","Newnan","GA","the gym","not_available","30265",33.40043295053443,-84.73206384851318
"30263","Newnan","GA","Da House (treadmill)","129 Huntington Ct","30265",33.358009338378906,-84.70793914794922
"30263","Newnan","GA","Old Gym - Newnan HS","190 Lagrange St","30263",33.36410689629359,-84.81150453295393
"30263","Newnan","GA","Georgia Heat","137 Bledsoe Rd","30265",33.4017750729936,-84.75755286581862
"30263","Newnan","GA","Bodies Unlimited Personal Training Studios","35 Lake Ridge Dr","30263",33.40731974050343,-84.78253027069394
"30263","Newnan","GA","Atlanta Fitness Sports Club Sauna","Newnan Crossing","30263",33.38699302679465,-84.76264908175641
"30263","Newnan","GA","Calumet's Gym","21 Riva Ridge Ln","30263",33.405471999999996,-84.764707
"30263","Newnan","GA","Lofts Gym","Newnan Lofts","30263",33.377954,-84.795145
"30263","Newnan","GA","Newnan Fitness","not_available","30263",33.3746270863394,-84.8004819185549
"30263","Newnan","GA","Bodyplex","1039 Sullivan Rd","30265",33.40346,-84.70746873
"30263","Newnan","GA","NRG Fitness Center","31 Market Square Rd","30265",33.37937980363937,-84.74067955311811
"30263","Newnan","GA","Stillwood Farms Fitness Center","2050 Newnan Crossing Blvd E #R","30265",33.36589813232422,-84.7558822631836
"30263","Newnan","GA","Burn Boot Camp","21 Market Square Way","30265",33.37811,-84.74127
"30265","Newnan","GA","Bodyplex","60 Thomas Grace Annex Ln","30277",33.409675718759544,-84.67086447386971
"30265","Newnan","GA","Snap Fitness","3161 Highway 34 E","30265",33.40681943761766,-84.67878689814759
"30269","Peachtree City","GA","World Gym","1964 Highway 54 W","30269",33.42074086999025,-84.56062942475913
"30269","Peachtree City","GA","Anytime Fitness","1259 N Peachtree Pkwy","30269",33.43631,-84.59082
"30269","Peachtree City","GA","World Gym","1300 Commerce Dr","30269",33.40147833133354,-84.59582800094077
"30269","Peachtree City","GA","S5 Fitness","277 Highway 74 N Ste 101","30269",33.406593322753906,-84.60017395019531
"30269","Peachtree City","GA","ACE","115 Depot Ct","30269",33.43842371798098,-84.60609343519145
"30269","Peachtree City","GA","Peachtree City Combat Fitness","not_available","30269",33.3608305583257,-84.56355095433725
"30269","Peachtree City","GA","Pure Barre","405 City Cir Ste 1620","30269",33.3954352,-84.5904799
"30269","Peachtree City","GA","CrossFit PTC","303 Kelly Dr #8","30269",33.380036343533924,-84.57915902137756
"30269","Peachtree City","GA","Ultimate Fitness","220 Northlake Dr","30269",33.40160113265968,-84.5860400458286
"30269","Peachtree City","GA","American Bodyworks","2850 Highway 54","30269",33.396759033203125,-84.60784912109375
"30269","Peachtree City","GA","ProperPilates Studio","301 Kelly Dr Ste 3","30269",33.38157607844564,-84.57945259259031
"30269","Peachtree City","GA","Speed Sports Performance","2-144 T D K Blvd","30269",33.37023155917586,-84.5692912547008
"30269","Peachtree City","GA","Burn Boot Camp","2834 Georgia 54","30269",33.39529,-84.60523
"30269","Peachtree City","GA","Burn Boot Camp","1240 Highway 54 W","30269",33.39808,-84.5893
"30269","Peachtree City","GA","TaylorMade Gymmastics Training Center","155 Shamrock Industrial Blvd","30290",33.44497281463345,-84.60848721875539
"30273","Rex","GA","Brickz","not_available","30294",33.61144936206046,-84.24912992615275
"30274","Riverdale","GA","bodies unlimited","6604 State Route 85, Riverdale, GA 30274","30274",33.57440185546875,-84.41227722167969
"30274","Riverdale","GA","Rod's Fitness","6326 Georgia 85","30274",33.58249802123607,-84.41060101851934
"30276","Senoia","GA","Snap Fitness","27 Barnes St","30276",33.300474,-84.553495
"30277","Sharpsburg","GA","West Fayette Barbell","116 Palmetto Rd","30290",33.480413,-84.590323
"30277","Sharpsburg","GA","Workout Anytime","1520 Georgia 74 N","30290",33.48869032418573,-84.58691596984863
"30277","Sharpsburg","GA","Big Dawg Gym & Fitness","865 Senoia Rd Ste E","30290",33.47404503681079,-84.59684796533126
"30281","Stockbridge","GA","Workout Anytime","3056 Anvil Block Rd, Ste 117","30294",33.63519728281129,-84.28891287231279
"30281","Stockbridge","GA","J. P. Moseley Recreational Center","1041 Millers Mill Rd","30281",33.53725051879883,-84.16397094726562
"30281","Stockbridge","GA","Snap Fitness","115 Fairview Rd","30294",33.620045867212745,-84.23941010091873
"30281","Stockbridge","GA","CCC Gym","2500 Patrick Henry Pkwy","30253",33.499790021301365,-84.22013228555254
"30281","Stockbridge","GA","Gym Tech 4 Kids / Cheertowne Academy","175 Kendra Dr","30253",33.468919,-84.207144
"30286","Thomaston","GA","Iron Works Fitness Center","not_available","30286",32.88831050826541,-84.31546364623846
"30286","Thomaston","GA","The Wellness Center of URMC","801 W Gordon St","30286",32.885456,-84.33760961666667
"30292","Williamson","GA","Pike County High Weight Room (McElwaney's House of Muscle)","not_available","30295",33.10542829505273,-84.34486671305838
"30292","Williamson","GA","Old Middle School Gym.","not_available","30292",33.10508728027344,-84.34467315673828
"30293","Woodbury","GA","The Frank C. Ruzycki Center for Theraeputic Recreation","6135 Roosevelt Hwy","31830",32.88986587524414,-84.69052124023438
"30294","Ellenwood","GA","Fairview Recreation Center","28 Austin Rd","30281",33.607855,-84.18709100000001
"30296","Riverdale","GA","Virginia Burton Gray Recreation Center","not_available","30296",33.591264789255575,-84.4376450256813
"30297","Forest Park","GA","Multifitness","819 Forest Pkwy","30297",33.619102478027344,-84.36322021484375
"30303","Atlanta","GA","Fitness Center @ Atlanta Marriott Marquis","Peachtree Center Ave","30303",33.76144784257594,-84.38427917398388
"30303","Atlanta","GA","Student Recreation Center","101 Piedmont Ave SE","30303",33.75232496440814,-84.38432067342521
"30303","Atlanta","GA","Sheraton Atlanta Fitness Center","not_available","30303",33.760550598267905,-84.38577754619904
"30303","Atlanta","GA","Fitness Center At Omni Hotel","not_available","30313",33.75901555953395,-84.39461920122896
"30303","Atlanta","GA","Kosha's Office","125 Decatur St SE","30303",33.75190353393555,-84.38634490966797
"30303","Atlanta","GA","Sweatshop Boxing & Fitness","555 Whitehall St SW","30303",33.74305460029342,-84.40618199894428
"30303","Atlanta","GA","William-Oliver Gym","Peachtree Street NW","30303",33.754745117784864,-84.38976287841797
"30303","Atlanta","GA","Georgia State Football Equipment Room","182 Decatur street","not_available",33.74856289681945,-84.381846328652
"30303","Atlanta","GA","Pencil Factory Gym","349, Atlanta, GA","30312",33.74964087989181,-84.37871215542238
"30303","Atlanta","GA","191 Resolution Fitness","191 Peachtree St NE Ste 300","30303",33.75905810155014,-84.38753667853118
"30303","Atlanta","GA","Turner Athletic Club","@ CNN Center","30303",33.75723427794673,-84.39537148088785
"30303","Atlanta","GA","Gym @ Best Western","330 W Peachtree St NW","30308",33.763627,-84.387904
"30303","Atlanta","GA","Centennial House Fitness Center","not_available","30308",33.764444787627255,-84.39088251585078
"30303","Atlanta","GA","Fitness Room at Embassy Suites","267 Marietta St NW","30313",33.76073455810547,-84.39464569091797
"30303","Atlanta","GA","SHAPE-DAT-BODY","238 Walker St SW #14","30313",33.748321533203125,-84.40218353271484
"30303","Atlanta","GA","SNAFC Fitness center","100 Alabama St SW","30303",33.753116607666016,-84.39158630371094
"30303","Atlanta","GA","APD Gym","226 Peachtree St SW","30303",33.748043060302734,-84.3945083618164
"30303","Atlanta","GA","BodyPlex Gym","215 Peachtree St NE","30303",33.75964905558176,-84.38740739814267
"30305","Atlanta","GA","BTB Crossfit Buckhead","3209-R Maple Drive NE","30305",33.84290254708404,-84.37198737440511
"30305","Atlanta","GA","771 Lindbergh Apartments","771 Lindbergh Dr NE","30324",33.8197943,-84.3624567
"30305","Atlanta","GA","Orangetheory Fitness Atlanta Buckhead","3097 Piedmont Rd NE","30305",33.84007469118812,-84.369243242153
"30305","Atlanta","GA","Post Alexander","3410 Alexander Rd NE","30326",33.853411589606154,-84.3663960997008
"30305","Atlanta","GA","LA Fitness","3535 Peachtree Rd NE Ste 300","30326",33.851952430627406,-84.36017049662972
"30305","Atlanta","GA","AK Crossfit","764 Miami Cir NE Ste 206","30324",33.83121789898994,-84.36272679965525
"30305","Atlanta","GA","Family Life Center","2715 Peachtree Rd NE","30305",33.829623234174704,-84.38578036367224
"30305","Atlanta","GA","CYB Fitlab Gym","3098 Piedmont Rd","not_available",33.840231,-84.369973
"30305","Atlanta","GA","Third Eye Tribe","2140 Peachtree Rd NW #230","30309",33.81276321411133,-84.39360046386719
"30305","Atlanta","GA","Energym","741 Morosgo Dr NE","30324",33.823063697385464,-84.36482114781258
"30305","Atlanta","GA","Orangetheory Fitness","857 Collier Rd NW","30318",33.81017701485273,-84.41565070371988
"30305","Atlanta","GA","Forum Athletic Club","3393 Peachtree Rd NE Ste 2010","30326",33.84669515876004,-84.36176989792828
"30305","Atlanta","GA","Solcioty Fitness Buckhead","3655 Roswell Rd NE Ste 144A","30342",33.855468794246335,-84.38131432009891
"30305","Atlanta","GA","Burn Studios","3804 Roswell Rd NE","30342",33.8584486,-84.3825456
"30305","Atlanta","GA","LA Fitness","3232 Peachtree Rd NE Ste A","30305",33.8441207,-84.374043
"30305","Atlanta","GA","Total Row","3655 Roswell Rd NE #204","30342",33.855411607359834,-84.38187092510684
"30305","Atlanta","GA","Gym @ Habersham Estates","3060 Pharr Court North NW","30305",33.838555493988665,-84.38405831232446
"30305","Atlanta","GA","Post Lindbergh Gym","478 Lindbergh Pl NE","30324",33.81962760105493,-84.37174755009492
"30305","Atlanta","GA","CycleBar Buckhead","3280 Peachtree Rd NE Ste 155","30305",33.8450413,-84.3717968
"30305","Atlanta","GA","Eon @ Lindbergh Gym","2450 Camellia Ln NE","30324",33.82283187110777,-84.37136655602633
"30305","Atlanta","GA","Operation Bootcamp","Miami Circle","30324",33.83132631985589,-84.3626644099562
"30305","Atlanta","GA","BVL Gym","3235 Roswell Rd NE","30305",33.843489,-84.37843000000001
"30305","Atlanta","GA","Barry's Bootcamp","303 East Paces Ferry Rd","30305",33.83897622216703,-84.37812035060252
"30305","Atlanta","GA","Peachtree Park Gym","not_available","30309",33.8124974,-84.38471068571428
"30306","Atlanta","GA","Urban Body Fitness","500 Amsterdam Ave NE Ste R","30306",33.7891508043562,-84.36989710157764
"30306","Atlanta","GA","Pure Barre Virginia Highlands","1402 N Highland Ave NE Ste 4","30306",33.7928291,-84.352453
"30306","Atlanta","GA","Strength Lab","1874 Piedmont Road Ne, Suite 420-D","30324",33.807791905397046,-84.36728964452105
"30306","Atlanta","GA","CorePower Yoga","650 North Avenue NE, Suite S111","30308",33.7721545,-84.367116
"30306","Atlanta","GA","Virginia Highlands Fitness Center","609 Virginia Ave NE","30306",33.78112266409692,-84.36710487344111
"30306","Atlanta","GA","Emory Point","855 Emory Point Dr","30329",33.8015272,-84.3281354
"30306","Atlanta","GA","","400 Candler Street NE","30307",33.76716285918572,-84.34591435131341
"30306","Atlanta","GA","BTB Crossfit Ponce","696 Cleburne Ter NE Ste A","30306",33.77331611279516,-84.35369906849996
"30306","Atlanta","GA","Crossfit Identity","1185 Zonolite Rd NE","30306",33.806144516195616,-84.34110011168319
"30306","Atlanta","GA","Seminole Studios","675 Seminole Ave NE","30307",33.77275085449219,-84.35015106201172
"30306","Atlanta","GA","Gables Rock Springs Gym","not_available","30306",33.792583534232215,-84.34069465531502
"30306","Atlanta","GA","Snap Fitness","1799 Q2 Briarcliff Rd.","30306",33.804613797206954,-84.33572125322614
"30306","Atlanta","GA","Trinity Fitness","828 Ralph McGill Blvd NE","30306",33.768272393423096,-84.36040157943233
"30306","Atlanta","GA","BTB Boot Camp - Freedom","North Ave. and N. Highland.","30307",33.77025482193656,-84.35323702927705
"30306","Atlanta","GA","ITP Fitness","500 Amsterdam Ave NE","30306",33.789182164575905,-84.36970243537485
"30306","Atlanta","GA","Orangetheory Fitness Atlanta Emory","1627 Clifton Rd NE Ste 105","30329",33.80108304700479,-84.32827149539678
"30306","Atlanta","GA","Power Up Martial Arts","2084 Cheshire Bridge Rd NE Ste B","30324",33.8091445,-84.3612948
"30306","Atlanta","GA","Monroe Place Gym","2000 Monroe Pl NE","30324",33.810253,-84.370124
"30306","Atlanta","GA","FitWit Midtown","Virginia Ave","30306",33.78170428290789,-84.36381025802834
"30307","Atlanta","GA","Atlanta Barbell Gym","185 Sams St, Suite B","30030",33.76043709262934,-84.32307655344626
"30307","Atlanta","GA","Project: Body ATL","1 Moreland Ave SE # A","30316",33.753383,-84.349409
"30307","Atlanta","GA","Garage Time","not_available","30317",33.754112,-84.333581
"30307","Atlanta","GA","Highland Walk Gym","701 Highland Ave NE","30312",33.76114101558927,-84.36452163942634
"30307","Atlanta","GA","Gym @ IPV Lofts","245 N Highland Ave NE","30307",33.761651185709596,-84.3594651357189
"30307","Atlanta","GA","Tough Love Fitness","not_available","30312",33.75627967255038,-84.36685294666857
"30307","Atlanta","GA","AZ2 Workout Room","130 Arizona Ave NE","30307",33.75852584838867,-84.33161163330078
"30307","Atlanta","GA","Atlanta Bucks Scrum Half and 8 Man training facility","195 Arizona Ave NE","30307",33.76005554199219,-84.33063507080078
"30307","Atlanta","GA","Wall Crawler Rock Club","1522 Dekalb Ave NE #2","30307",33.7625921963955,-84.33808176932149
"30307","Atlanta","GA","X3 Sports - Inman Park","240 N Highland Ave NE","30307",33.76212326753811,-84.3598860937544
"30307","Atlanta","GA","MADabolic","661 Auburn Avenue","30312",33.756160900636345,-84.36500350560814
"30307","Atlanta","GA","Inman Quarter","299 N Highland Ave NE","30307",33.76197052001953,-84.35853576660156
"30307","Atlanta","GA","Montage O4W Fitness Center","626 Dekalb Ave SE","30312",33.753334045410156,-84.36695861816406
"30307","Atlanta","GA","Crossfit Around The Corner","1610 Hosea Williams Drive","30317",33.753685248610665,-84.33491322325557
"30308","Atlanta","GA","LA Fitness","75 5th St NW Ste E","30308",33.77739445839471,-84.38901554600235
"30308","Atlanta","GA","Orangetheory Fitness","933 Peachtree St NE Ste 939","30309",33.78036090094821,-84.38414543201509
"30308","Atlanta","GA","The Gym @Waterford","530 Piedmont Ave NE","30308",33.76899579409141,-84.38198253997183
"30308","Atlanta","GA","Renaissance Lofts Gym","120 Ralph McGill Blvd NE","30308",33.76477978504124,-84.38380471897125
"30308","Atlanta","GA","CorePower Yoga","860 Peachtree Street NE, Suite J","30308",33.7784663,-84.3854232
"30308","Atlanta","GA","Viewpoint - Fitness Center","855 Peachtree St NE","30308",33.77785686745337,-84.38354898778974
"30308","Atlanta","GA","Effect Fitness","1 Baltimore Pl NW","30308",33.76856231689453,-84.38839721679688
"30308","Atlanta","GA","AGL Gym","10 Peachtree Pl NE","30309",33.78108596801758,-84.38707733154297
"30308","Atlanta","GA","Metropolis Fitness Center","943 Peachtree St NE","30309",33.7803000008738,-84.38367086013294
"30308","Atlanta","GA","Workout Room At The Highland","375 Highland Ave NE","30312",33.760915000000004,-84.375333
"30308","Atlanta","GA","Solace Fitness Center","710 Peachtree St NE","30308",33.77406692504883,-84.38549041748047
"30308","Atlanta","GA","Loews Atlanta Hotel Fitness Center","1065 Peacetree St.","30309",33.781714976208974,-84.38375551668283
"30308","Atlanta","GA","The Fitness Center At The Renaissance Midtown","866 Peachtree","30308",33.778176,-84.387764
"30308","Atlanta","GA","CITYROW Atlanta - Midtown","805 Peachtree Street Northeast","30308",33.776458740234375,-84.38385009765625
"30308","Atlanta","GA","SkyHouse South Gym","100 6th St NE","30308",33.77747166336177,-84.38322394265681
"30308","Atlanta","GA","Spire Gym","860 Peachtree St NE","30308",33.778274264435034,-84.38503829193812
"30309","Atlanta","GA","LA Fitness","1544 Piedmont Ave NE Ste 115","30324",33.797944743736466,-84.37114397907176
"30309","Atlanta","GA","LA Fitness","261 19th St NW Ste 1140","30363",33.793432810431135,-84.39626460065669
"30309","Atlanta","GA","HEAT","500 Bishop St NW Ste A1","30318",33.792256600719284,-84.40426137385164
"30309","Atlanta","GA","Gym @ Twelve Hotel And Residences","361 17th St NW","30363",33.7916255729388,-84.3979812880442
"30309","Atlanta","GA","1010 Midtown Gym","1080 Peachtree St NE","30309",33.78353557729287,-84.38366144437242
"30309","Atlanta","GA","Art Of Wellness","401 16th St NW","30363",33.7892452071553,-84.40069860526394
"30309","Atlanta","GA","Park Central Gym","1101 Juniper St NE","30309",33.78437960430841,-84.38158458030819
"30309","Atlanta","GA","Crossfit Midtown","1122 W Peachtree St NW","30309",33.78461247716053,-84.38762502515827
"30309","Atlanta","GA","Camden Brookwood Gym","149 26th St NW","30309",33.80288186658207,-84.3970882963841
"30309","Atlanta","GA","Anytime Fitness","1375 Peachtree St NE","30309",33.7923,-84.38592
"30309","Atlanta","GA","Fowler Fitness","1264 Fowler St NW","30318",33.789322999999996,-84.393502
"30309","Atlanta","GA","1280 West Gym","1280 W Peachtree St NW","30309",33.78954470070616,-84.38886970281601
"30309","Atlanta","GA","Town View Station Fitness Center","300 Deering Rd NW","30309",33.79690933227539,-84.39582061767578
"30309","Atlanta","GA","Catalyst Fitness","2233 Peachtree Rd NE","30309",33.8150360166371,-84.39123257388407
"30310","Atlanta","GA","Effect Fitness","1995 Metropolitan Parkway","not_available",33.72084218946993,-84.40685008874647
"30310","Atlanta","GA","Dean Rusk YMCA Head Start Accademy","1076 Lucile Ave SW","30310",33.741738,-84.422954
"30310","Atlanta","GA","zumba with Glitter","448 Ralph David Abernathy Blvd SW","30312",33.7364501953125,-84.40259552001953
"30310","Atlanta","GA","The Result Factory","675 Metropolitan Pkwy SW","30310",33.736561420949776,-84.41169340146723
"30310","Atlanta","GA","Park Place Gym","not_available","30315",33.70599262975139,-84.39650237921857
"30310","Atlanta","GA","Fit Squad Studio","1240 Metropolitan Pkwy SW","30310",33.72087097167969,-84.4070053100586
"30310","Atlanta","GA","Elnora's Gym","585 Wells St SW","30312",33.74030685424805,-84.40745544433594
"30310","Atlanta","GA","Metroplex ATL","1959 Metropolitan Pkwy SW","30315",33.70106887817383,-84.41004180908203
"30310","Atlanta","GA","Torture Chamber","not_available","30311",33.72341794553654,-84.46505398300775
"30310","Atlanta","GA","Planet Fitness","854 Oak St SW","30310",33.74052810668945,-84.41641235351562
"30310","Atlanta","GA","Castleberry Point Gym","333 Nelson St SW rooftop","30313",33.751907731239136,-84.39877510070801
"30310","Atlanta","GA","LA Fitness","810 Martin Luther King Jr Dr SW","30314",33.754404,-84.413976
"30310","Atlanta","GA","Deer Lofts Gym","326 Nelson St SW","30313",33.75139617919922,-84.39825439453125
"30310","Atlanta","GA","Fit Efx","675 Metropolitan Pkwy","not_available",33.736612,-84.408699
"30311","Atlanta","GA","Adamsville Recreation Center","3201 Martin Luther King Jr Dr NW","30311",33.75385310689691,-84.49205989402478
"30311","Atlanta","GA","P90X Camp","At the intersection of Crazy Crackead St. & What W","30331",33.742073,-84.4941334
"30311","Atlanta","GA","LT's Gym","Wood Hill ln","30344",33.68711257671231,-84.46724233417686
"30312","Atlanta","GA","Crossfit Downtown Atlanta","290 Martin Luther King Jr Dr SE","30316",33.748584,-84.360001
"30312","Atlanta","GA","Grant Park Recreation Center","537 Park Ave SE","30312",33.74081372905086,-84.37097849103101
"30312","Atlanta","GA","West Inman Lofts","626 DeKalb Ave SE","30312",33.75371695491223,-84.3671538478851
"30312","Atlanta","GA","MLK Jr. Recreation Center","90 Boulevard","30312",33.756828619017064,-84.37344413964438
"30312","Atlanta","GA","Milltown Lofts Fitness Center","791 Wylie St SE","30316",33.75216883324794,-84.36123782488612
"30312","Atlanta","GA","Sung Ming Shu Dojo","465 Boulevard SE","30312",33.741954473682895,-84.36860545768484
"30312","Atlanta","GA","Noble Clay Fitness","112 Ormond St SE","30315",33.731806,-84.383961
"30313","Atlanta","GA","Campus Recreation Center (CRC)","750 North Ave NW","30318",33.77553237645792,-84.40338264185807
"30313","Atlanta","GA","GymCave","not_available","30318",33.772472,-84.404931
"30313","Atlanta","GA","935M Gym","935 Marietta St NW","30318",33.77781407875388,-84.4079857015574
"30313","Atlanta","GA","Centennial House rooftop gym","115 W Peachtree Pl NW, Atlanta, GA 30313","30313",33.76431655883789,-84.39088439941406
"30313","Atlanta","GA","Centennial Tower Athletic Club","101 Marietta St NW","30303",33.75680290998832,-84.39241793637352
"30314","Atlanta","GA","The Washington Fitness Center","870 Mayson Turner Rd NW, Atlanta, GA 30314","30314",33.755897521972656,-84.41710662841797
"30314","Atlanta","GA","Urban Perform","678 Simpson St. NW, Atlanta, GA 30314","30314",33.7634256708721,-84.40961583378244
"30315","Atlanta","GA","Snap Fitness","920 Glenwood Ave SE","30316",33.73985830581885,-84.35797283588903
"30315","Atlanta","GA","La Fitness Midtown","75 5th St NW","30308",33.68125117180241,-84.39032942453596
"30315","Atlanta","GA","Hope Street Health Club","Bill Kennedy Way","not_available",33.74023194852326,-84.3581662309358
"30315","Atlanta","GA","Hill Street Lofts Gym","1195 Milton Ter SE","30315",33.72275,-84.381026
"30315","Atlanta","GA","Boutique Body Fitness","650 Hamilton Ave SE Ste D","30312",33.726240666137656,-84.3667348734107
"30315","Atlanta","GA","Fitwit Factory","1040 Grant St SE","30315",33.726417541503906,-84.37554168701172
"30315","Atlanta","GA","Phoenix Park II","161 Georgia Ave","30312",33.73508755992699,-84.38228770557792
"30315","Atlanta","GA","McKenneys GYM","not_available","30316",33.710217,-84.34717
"30315","Atlanta","GA","The Shaker Machine","1310 E North St","not_available",33.714839935302734,-84.34949493408203
"30316","Atlanta","GA","Orangetheory Fitness","975 Memorial Dr SE","30316",33.74617004394531,-84.35543823242188
"30316","Atlanta","GA","Liv Fitness","1853 Memorial Dr SE","30317",33.74598707627112,-84.3267973041978
"30316","Atlanta","GA","Crossfit Terminus","1046 Memorial Dr SE","30316",33.74696411376103,-84.35335993766785
"30316","Atlanta","GA","OxFit East Atlanta Village","1358 Glenwood Ave SE","30316",33.7403789,-84.343154
"30316","Atlanta","GA","Claudia Fitzwater","1 Moreland Ave SE","30316",33.753409999999995,-84.349466
"30317","Atlanta","GA","Carlyle Park Gym","Carlyle Park Dr","not_available",33.75986942777076,-84.33588886619837
"30317","Atlanta","GA","EAV Barbell","530 Flat Shoals Ave SE","30316",33.739967346191406,-84.3448486328125
"30318","Atlanta","GA","The Refinery","2260 Marietta Blvd NW #108","30318",33.81708,-84.44871
"30318","Atlanta","GA","The Bar Fitness","908 Bowen St NW","30318",33.796956845397766,-84.41746904444277
"30318","Atlanta","GA","Gym @ Alexander at the District","1750 Commerce Dr NW","30318",33.80167049043436,-84.41086755466239
"30318","Atlanta","GA","Gym @ Apex Apartments","1133 Huff Rd NW","30318",33.789856956899555,-84.42509100032416
"30318","Atlanta","GA","Torq Cycle Atlanta","935 Marietta St NW Ste C","30318",33.77791389952461,-84.40877291173163
"30318","Atlanta","GA","Collier Ridge Gym","100 Noble Creek Dr NW","30327",33.81436464472818,-84.42449732086948
"30318","Atlanta","GA","Fitmode","668 11th St NW","30318",33.78291477596024,-84.40908066564346
"30319","Atlanta","GA","LA Fitness","755 Brookhaven Ave NE","30319",33.8723119354117,-84.33470587290665
"30319","Atlanta","GA","Thrive Fitness","4276 Peachtree Rd.","30319",33.8681539,-84.335538
"30319","Atlanta","GA","Concourse Athletic Club","8 Concourse Parkway","30328",33.91635648945647,-84.35588222698362
"30319","Atlanta","GA","Lynwood Recreation Center","not_available","30319",33.888336569796884,-84.34615571631753
"30319","Atlanta","GA","Villa Sonoma Gym","10 Perimeter Summit Blvd NE","30319",33.914413547881935,-84.34088520749044
"30319","Atlanta","GA","Onelife Fitness - Perimeter","1181 Hammond Dr NE","30346",33.9195838,-84.3417079
"30319","Atlanta","GA","1050 Lenox Park Gym","1050 Lenox Park Blvd NE","30319",33.85130400156195,-84.34802474956324
"30319","Atlanta","GA","Post Brookhaven Gym","Brookhaven Way NE","30319",33.86961433481805,-84.33134332302467
"30319","Atlanta","GA","AutoTrader.com Gym","3003 Summit Blvd","30319",33.91402816772461,-84.34276580810547
"30319","Atlanta","GA","Gym @ The Clairmont","3078A Clairmont Rd NE","30329",33.84845794525759,-84.31747456606644
"30319","Atlanta","GA","Metropolitan at Buckhead Gym","3200 Lenox Rd NE, Atlanta, GA 30324","30324",33.84384340633737,-84.3585122420379
"30319","Atlanta","GA","Exchange at Northhaven","2432 Johnson Ferry Rd NE","30341",33.88738250732422,-84.31600952148438
"30319","Atlanta","GA","We Train Atlanta Personal Trainer | Fitness and Nutrition","3460 Kingsboro Rd NE","30326",33.84808349609375,-84.35751342773438
"30319","Atlanta","GA","Pool @ Gables Century Center","1741 Century Circle","30345",33.847730290067815,-84.3115113388575
"30319","Atlanta","GA","Gym","5385 Peachtree Dunwoody Rd","30342",33.901846,-84.351534
"30319","Atlanta","GA","Gym @ Resurgens Plaza","945 East Paces","30326",33.84661256182048,-84.35631269401661
"30319","Atlanta","GA","Atlanta Plaza Gym","950 E Paces Ferry Rd NE","30326",33.84644415917505,-84.35767265953727
"30322","Atlanta","GA","WPEC (Woodruff PE Center) - Emory","201 Dowman Dr NE","30322",33.793508355465185,-84.32622820126754
"30322","Atlanta","GA","Egleston Gymnasium","1405 Clifton Rd NE","30322",33.793780373149076,-84.3194720921836
"30324","Atlanta","GA","LA Fitness","2201 Faulkner Road Northeast","30324",33.81297851,-84.35780932
"30324","Atlanta","GA","CorePower Yoga","2480 Briarcliff Road NE, #23","30329",33.8284145,-84.3326572
"30324","Atlanta","GA","I Love Kickboxing Atlanta Buckhead","2770 Lenox Rd NE","30324",33.830525,-84.356337
"30324","Atlanta","GA","Fitness Center at Courtyard Executive Park/Emory by Marriott","1236 Executive Park Dr NE","30329",33.829193115234375,-84.33910369873047
"30326","Atlanta","GA","SkyHouse Buckhead Pool","North Stratford Rd","30326",33.849989,-84.367498
"30326","Atlanta","GA","Mandarin Oriental Gym","not_available","30326",33.849374985384216,-84.36675027428383
"30326","Atlanta","GA","Gym @ Realm","3324 Peachtree Rd NE","30326",33.84608378802267,-84.36977236227459
"30326","Atlanta","GA","Monarch Athletic Club","3424 peachtree rd","30326",33.852020835879344,-84.3646967890551
"30326","Atlanta","GA","Gym at Meridian Buckhead","3334 Peachtree Rd NE","30326",33.847487,-84.369114
"30326","Atlanta","GA","Alexan Lenox Apartments","960 East Paces Ferry Rd NE","30326",33.84754628380373,-84.35597400177015
"30326","Atlanta","GA","JW Marriott Fitness Center","3300 Lenox Rd NE","30326",33.845672580033806,-84.3598216754135
"30326","Atlanta","GA","3630 Gym","3630 Peachtree Road","not_available",33.85456169855013,-84.35839934809282
"30326","Atlanta","GA","BCBS Fitness Center","3350 Peachtree Rd NE","30326",33.84745788574219,-84.3680419921875
"30326","Atlanta","GA","Marriott Buckhead Fitness Center","3405 Lenox Rd NE","30326",33.84807489654666,-84.35927216394533
"30326","Atlanta","GA","Grandview Gym","3481 Lakeside Dr NE","30326",33.84919472173068,-84.3573652636749
"30327","Atlanta","GA","1401 West Paces Gym","1401 West Paces","30327",33.848727649626206,-84.4321086961685
"30327","Atlanta","GA","Orange Theory Fitness Vinings","not_available","30327",33.844505,-84.42439
"30327","Atlanta","GA","Gables Mill Gym","100 Akers Ridge Dr SE","30339",33.89127847766126,-84.4513852206175
"30327","Atlanta","GA","Operation Boot Camp","140 W Wieuca Rd NW","30342",33.87529756678624,-84.38940980127575
"30327","Atlanta","GA","Turner Gym","The Westminster Schools","not_available",33.84423696943188,-84.43620286158365
"30327","Atlanta","GA","New Edge Fitness","4200 Northside Pkwy NW","30327",33.86304473876953,-84.44579315185547
"30327","Atlanta","GA","Gym at Westchester Peachtree Valley","40 Peachtree Valley Rd NE","30309",33.810829162597656,-84.3907470703125
"30327","Atlanta","GA","Fitness Center @ 1600 Parkwood","1600 Parkwood Cir SE","30339",33.900827,-84.458861
"30327","Atlanta","GA","Horizon Wildwood Gym","3300 Windy Ridge Pkwy SE","30339",33.903563046551724,-84.45685831936872
"30328","Atlanta","GA","LA Fitness","6690 Roswell Rd","30328",33.9374252755509,-84.38112317236204
"30328","Atlanta","GA","Life Time Athletic","5580 Roswell Road Northeast","30342",33.9067413,-84.3815264
"30328","Atlanta","GA","Snap Fitness","220 Sandy Springs Cir","30328",33.92499,-84.383606
"30328","Atlanta","GA","LA Fitness","1155 Mount Vernon Hwy Ste 600","30338",33.93267995307156,-84.34989037640554
"30328","Atlanta","GA","CorePower Yoga","6263 Roswell Road","30328",33.925939818290566,-84.3781341612339
"30328","Atlanta","GA","Gym @ Park Towers","795 Hammond Dr","30328",33.917522,-84.359379
"30328","Atlanta","GA","GRAVITY Studio - Sandy Springs","227 Sandy Springs Pl Ste 510","30328",33.92090563359622,-84.38260077325303
"30328","Atlanta","GA","Team Octopus Sandy Springs","6450 Roswell Rd #C","30328",33.9312413,-84.38073519999999
"30328","Atlanta","GA","UPS Corporate Gym","55 Glenlake Pkwy","30328",33.943877186111074,-84.35982921889702
"30328","Atlanta","GA","10 Glenlake South Tower Fitness Center","10 Glenlake Pkwy","30328",33.93578848372051,-84.36166840432763
"30328","Atlanta","GA","Havertys Fitness Gym","780 Johnson Ferry Rd","30342",33.90785598754883,-84.36128997802734
"30328","Atlanta","GA","The Welch Martial Art Experience","6305 Roswell Rd # 160","30328",33.9269931,-84.3778105
"30328","Atlanta","GA","Gym at Mount Vernon Flats","Mount Vernon Highway","30338",33.935678,-84.348984
"30329","Atlanta","GA","Gym at Briarcliff Apartment Homes","7000 Briarcliff Gables Cir NE","30329",33.83049774169922,-84.32505798339844
"30331","Atlanta","GA","Workout Anytime","3752 Cascade Rd SW, Ste 140","30331",33.723368721665935,-84.51133370604563
"30331","Atlanta","GA","TP Studios Gym","2769 Continental Colony Pkwy SW","30331",33.680484771728516,-84.49552154541016
"30331","Atlanta","GA","Your Trainer Will Rider","2329 ozark trail sw","30331",33.69257282223614,-84.54491388372844
"30331","Atlanta","GA","Astoria Riverside Park","6180 Riverside Dr, SW","30331",33.709034705951375,-84.59076655914221
"30331","Atlanta","GA","Fit Neighborhood","5495 Cascade Rd SW Ste 109","30331",33.73158469234379,-84.56741774287558
"30331","Atlanta","GA","Dangerous Curvez Fitness","3220 Butner Rd SW Apt 220","30331",33.66648864746094,-84.54942321777344
"30331","Atlanta","GA","WWA4","not_available","30336",33.763290769722765,-84.53197427735618
"30331","Atlanta","GA","mp","not_available","30331",33.71959472356907,-84.52441277838778
"30337","Atlanta","GA","Delta Fitness Center","GO Branch","not_available",33.656859159230194,-84.42414069298766
"30337","Atlanta","GA","A27 Delta Health Central","under Gate A27","not_available",33.64271929326037,-84.43919757270635
"30337","Atlanta","GA","Renaissance Gym","1 Hartsfield Center Pkwy","30354",33.653975439307125,-84.42694744031441
"30337","Atlanta","GA","Indocycle","3401 Norman Berry Dr Ste 146","30344",33.66275095660221,-84.42910143470567
"30337","Atlanta","GA","Olympus Gym","1001 Virginia Ave","30354",33.659205641303735,-84.4220668589635
"30337","Atlanta","GA","Delta tech ops gym","not_available","30360",33.65256683395405,-84.42023374130973
"30337","Atlanta","GA","Delta Rehab","not_available","30337",33.6447671151565,-84.44527311192734
"30337","Atlanta","GA","Gym @ Marriott Marquis","265 Peachtree Center Ave NE","30303",33.639741513098215,-84.46438772400963
"30337","Atlanta","GA","Delta TOC Gym","1775 M H Jackson Service Rd","30354",33.642462504716846,-84.41386835659131
"30337","Atlanta","GA","CrossFit Q4","3445 Dogwood Dr","30354",33.66021024154744,-84.41095232963562
"30337","Atlanta","GA","Hotel Indigo Fitness Center","Inside Hotel Indigo","30337",33.65542551160079,-84.44229534561542
"30337","Atlanta","GA","Workout Anytime Buckhead","1715 Howell Mill Rd NW Ste B1","30318",33.641994590627554,-84.44380171000566
"30337","Atlanta","GA","Holiday Inn Gym & Pool.","Airport Blvd","30337",33.65819773805225,-84.45079951109763
"30338","Atlanta","GA","Pure Barre","not_available","30338",33.94925106317066,-84.3347248885425
"30338","Atlanta","GA","CycleBar Dunwoody","4794 Ashford Dunwoody Road","30338",33.935876493147425,-84.33841735124588
"30338","Atlanta","GA","Crunch - Perimeter","4540 Olde Perimeter Way","30346",33.9298987,-84.3437703
"30338","Atlanta","GA","MJCCA Fitness Center","5340 Tilly Mill Road","30338",33.94733724882748,-84.30545138754819
"30338","Atlanta","GA","UFC Gym Atlanta, Perimeter","4745 Ashford Dunwoody Rd","30338",33.93296118133611,-84.33587840541087
"30338","Atlanta","GA","BLAST900","5471 Chamblee Dunwoody Rd","30338",33.948690023718285,-84.3335582763689
"30338","Atlanta","GA","YogaSix","5529 Chamblee Dunwoody Rd","30338",33.948936462402344,-84.33550262451172
"30338","Atlanta","GA","The Terraces South Gym","400 Perimeter Center Ter NE","30346",33.927871607566146,-84.3385648727417
"30338","Atlanta","GA","Intercontinental Hotels Group (IHG) Fitness Center","Ravinia Three","30346",33.922631034725406,-84.33404003015846
"30338","Atlanta","GA","Chateau at Dunwoody Pool","4330 Tilly Mill Road","30360",33.924628000000006,-84.282986
"30338","Atlanta","GA","Gym","100 Ashford Gables Dr","30338",33.9351692199707,-84.34129333496094
"30338","Atlanta","GA","303 Perimeter Health Club","303 Perimeter Ctr N","30346",33.928407963073866,-84.33358801925519
"30338","Atlanta","GA","The Gym At Lofts Perimeter Center","not_available","30346",33.926133993330254,-84.32884101118886
"30338","Atlanta","GA","Crown Pointe Fitness Center","1050 Crown Pointe Pkwy","30338",33.931715829507176,-84.34531863772129
"30338","Atlanta","GA","AMLI Gym","60 Perimeter Center Pl NE","30346",33.928794860839844,-84.34210968017578
"30338","Atlanta","GA","Sweat @ W Hotel Perimeter","111 Perimeter Ctr W","30346",33.92759323120117,-84.338623046875
"30338","Atlanta","GA","10 Perimeter Park Drive Gym","10 Perimeter Park Dr","30341",33.91849122352096,-84.29554607787064
"30338","Atlanta","GA","CrossFit Dunwoody","5525 Chamblee Dunwoody Rd","30338",33.949643492132175,-84.3336832523346
"30338","Atlanta","GA","State Farm Company Gym","66 Perimeter Ctr E","30346",33.92097854614258,-84.33120727539062
"30340","Atlanta","GA","Rutherford Glen Apartments","7100 Dawson Blvd","30340",33.9024476,-84.2398065
"30340","Atlanta","GA","Gym @ Encompass Digital Media","3845 Pleasantdale Rd","30340",33.89693069458008,-84.2400894165039
"30340","Atlanta","GA","BodyFitMD","6035 Peachtree Rd Ste C208","30360",33.90865118242942,-84.28841791667173
"30340","Atlanta","GA","The Paul Murphy Boxing Club","2688 King Avenue","30340",33.90327516131022,-84.27830368063736
"30340","Atlanta","GA","Biomechanics Advantage","3300 Northeast Expy NE Bldg 8","30341",33.87361526489258,-84.27816009521484
"30340","Atlanta","GA","Hype Fitness","6037 New Peachtree Rd","30340",33.90288162231445,-84.27848815917969
"30340","Atlanta","GA","CrossFit HD","3292 Laventure Dr","30341",33.88338968760046,-84.2866803526076
"30341","Atlanta","GA","Crunch Fitness - Chamblee","5508 Peachtree Industrial Blvd","30341",33.9000048,-84.3029518
"30341","Atlanta","GA","Sweet Science Fitness","6035 Peachtree Road #C-117","30360",33.90845966593157,-84.28888594402733
"30341","Atlanta","GA","CrossFit Paragon","3907 Green Industrial Way","30341",33.907263717848686,-84.29795373504224
"30341","Atlanta","GA","Elite Edge Training Center","3550 Broad St","30341",33.896856850329044,-84.30027370357196
"30341","Atlanta","GA","CFITNESSSTUDIO","4337 Buford Hwy","30341",33.86823272705078,-84.29978942871094
"30341","Atlanta","GA","Get Healthy With Sherry","3789 Admiral Dr","30341",33.9031412,-84.2998408
"30341","Atlanta","GA","Ninth Inning Baseball","3899 Green Industrial Way","30341",33.907142,-84.297612
"30341","Atlanta","GA","Bangkok Boxing","5251 Peachtree Industrial Blvd","30341",33.891324,-84.308043
"30341","Atlanta","GA","Century Peachtree Creek Fitness Center","3001 Northeast Expy NE","30341",33.865501403808594,-84.2853012084961
"30342","Atlanta","GA","Waterford Place Apartments: Gym","295 E Belle Isle Rd","30342",33.88847351074219,-84.37796020507812
"30342","Atlanta","GA","Fitness Together - North Buckhead","4840 Roswell Rd Ste E101","30342",33.88648680434316,-84.38218333481154
"30342","Atlanta","GA","NRG Personal Training Studio","4969 Roswell Rd","30342",33.89025120429932,-84.38070231148026
"30342","Atlanta","GA","Manor Gym","3554 Piedmont Road","30305",33.85066616880074,-84.38030661581078
"30342","Atlanta","GA","The Gym at One Premier Plaza","5605 Glenridge Dr","30342",33.906436920166016,-84.3639144897461
"30345","Atlanta","GA","The Row Barre","2700 Northeast Expy NE","30345",33.85758590698242,-84.29615020751953
"30345","Atlanta","GA","Century Center Gym","Building 2400","not_available",33.84768316562424,-84.31035103551783
"30345","Atlanta","GA","Seven Springs Gym","100 Ridgebrook Way NE","30345",33.85826873779297,-84.29273986816406
"30346","Atlanta","GA","Crowne Plaza Fitness Center","Crowne Plaza Ravinia Hotel","not_available",33.92206119203833,-84.34125632715818
"30346","Atlanta","GA","Gym @ Ashford Perimeter","4151 Ashford Dunwoody Rd NE","30319",33.91640090942383,-84.33689880371094
"30346","Atlanta","GA","Bell Gym","Bell Perimeter Center","not_available",33.923283,-84.334396
"30346","Atlanta","GA","Embassy Gym","1030 Crown Pointe Pkwy","30338",33.93077087402344,-84.3470230102539
"30346","Atlanta","GA","Arrive Perimeter @Gym","2000 Asbury Sq","30346",33.92771911621094,-84.33081817626953
"30346","Atlanta","GA","Pain Lab","Marriott","30346",33.91746324931869,-84.34541107643103
"30346","Atlanta","GA","Sweat Factory","31 Perimeter Ctr E #Gym","30346",33.92548508600581,-84.33341851427573
"30346","Atlanta","GA","Flex Fitness @ Axis at Perimeter","8 Perimeter Ctr E","30346",33.92646026611328,-84.33482360839844
"30346","Atlanta","GA","Gables Gym","Perimeter Center N","30346",33.93035123704573,-84.33562961213217
"30350","Atlanta","GA","Formwell Fitness","250 Northridge Rd","30350",33.9719709724524,-84.36044782212838
"30350","Atlanta","GA","WWO","95 Foal Dr","30076",33.99239730834961,-84.2922592163086
"30350","Atlanta","GA","Avalon Townhomes Gym","Winding River Dr","30350",33.994335,-84.347254
"30354","Atlanta","GA","Best Western Gym","301 N Central Ave","30354",33.654048919677734,-84.39720153808594
"30354","Atlanta","GA","Hamilton Gym","not_available","30354",33.65497053131425,-84.39494252495976
"30363","Atlanta","GA","AEIM Fitness","500 Bishop St NW, Atlanta, GA 30363","30363",33.79167556762695,-84.40453338623047
"30363","Atlanta","GA","Gym @ The Flats Apartments","450 16th St NW","30363",33.788509368896484,-84.40335845947266
"30363","Atlanta","GA","Element Gym","390 17th St NW","30363",33.79052846529778,-84.40008886092772
"30401","Swainsboro","GA","C.P.R. Fitness","203 S Circle Dr","30401",32.58708572387695,-82.32269287109375
"30401","Swainsboro","GA","RH Fitness","not_available","30401",32.574853730167845,-82.31858442178229
"30411","Alamo","GA","Trinity Fitness Center","115-125 W Oak St","31055",32.06702649593353,-82.89767146110535
"30415","Brooklet","GA","South East Bulloch Gym","not_available","30415",32.362838,-81.67852
"30415","Brooklet","GA","CrossFit Boro","1263 S&S RAILROAD BED RD","30458",32.42150412145112,-81.74765825271606
"30417","Claxton","GA","Swatkin's Power Gym","not_available","30417",32.15721969326383,-81.905329438375
"30417","Claxton","GA","Snap Fitness","214 N Duval St","30417",32.16727066040039,-81.9041976928711
"30421","Collins","GA","Anytime Fitness","125 W Brazell St","30453",32.08520157,-82.11921126
"30426","Girard","GA","High Voltage Fitness","7661","not_available",32.96807861328125,-81.76700592041016
"30427","Glennville","GA","Anytime Fitness","108 China St","30427",31.94052,-81.92669
"30427","Glennville","GA","High Cotton Gym","114 Cloverdale Rd","30427",31.955659866333008,-81.93626403808594
"30427","Glennville","GA","Bigdawg Fitness","4459 Constance Rd","31545",31.73520224,-81.9355632
"30427","Glennville","GA","24Seven Fitness","605 N Veterans Blvd","30427",31.943219767266356,-81.9257238798476
"30436","Lyons","GA","AmericInn Fitness Center","155 Mose Coleman Dr","30474",32.200895,-82.357833
"30436","Lyons","GA","Total Body Fitness","101-103 SW Broad St","30436",32.20358848571777,-82.32288479804993
"30458","Statesboro","GA","LOA Fitness For Women","not_available","30458",32.450911003660245,-81.77396536091554
"30458","Statesboro","GA","F.I.T. Statesboro","608 Northside Dr E, Statesboro, GA 30458","30458",32.461590147617954,-81.79098626458791
"30458","Statesboro","GA","N-Shape Fitness Center","715 Northside drive","30458",32.46590071730947,-81.79348502893106
"30458","Statesboro","GA","Gym at The Avenue","710 Georgia Ave","30458",32.4173469543457,-81.77497863769531
"30458","Statesboro","GA","Campus Club Gym","211 Lanier Dr","30458",32.409725189208984,-81.78174591064453
"30458","Statesboro","GA","UV G4","1000 Bermuda Run","30458",32.41474151611328,-81.77265930175781
"30458","Statesboro","GA","the weight room","10 Lester Rd, Statesboro, GA 30458","30458",32.44357681274414,-81.7636947631836
"30458","Statesboro","GA","Forest Heights Country Club","3772 Country Club Rd","30458",32.430177046099594,-81.82208661409362
"30458","Statesboro","GA","Nshape","739A Northside Dr.","30458",32.465950616020855,-81.79340290769622
"30458","Statesboro","GA","Statesboro Family YMCA","409 Clairborne Ave","30458",32.437183,-81.770546
"30458","Statesboro","GA","The Woodlands Gym","100 Woodland Dr","30458",32.427207946777344,-81.7923812866211
"30458","Statesboro","GA","180 Fitness","4A College Plz","30458",32.4347346,-81.7801715
"30458","Statesboro","GA","Snap Fitness","609 Brannen St","30458",32.43467613316751,-81.7668209411492
"30467","Sylvania","GA","Nicks personal gym","not_available","30467",32.51538029645231,-81.83464899215565
"30474","Vidalia","GA","Allbody","364 Wolfe Rd","30474",32.2197703256168,-82.41320841908698
"30474","Vidalia","GA","Anytime Fitness","603 E 1st St","30474",32.21351,-82.4074
"30501","Gainesville","GA","Georgia Mountains YMCA","2455 Howard Rd","30501",34.33276747045961,-83.78282050745952
"30501","Gainesville","GA","Fitness Forum","not_available","30506",34.35915,-83.865219
"30501","Gainesville","GA","Chattahoochee Country Club Athletic Center","3000 Club Dr","30506",34.33680725097656,-83.8642807006836
"30501","Gainesville","GA","Anytime Fitness","1500 Browns Rdg Rd Unit M1-B","30501",34.28776,-83.84246
"30501","Gainesville","GA","Gainesville Fit Club","not_available","30501",34.33353042602539,-83.84358978271484
"30501","Gainesville","GA","Average Joe Fitness Boot Camp at City Park","City Park","30501",34.310795052439985,-83.82392406463623
"30501","Gainesville","GA","Iron Beast Barbell","675 Grove St","30501",34.29364554024891,-83.8246094991588
"30501","Gainesville","GA","Fitness Center @ Hilton Garden Inn Gainesville","1735 Browns Bridge Rd","30501",34.283534154566006,-83.84504117910002
"30501","Gainesville","GA","Orangetheory Fitness","833 Dawsonville Hwy","30501",34.2974739074707,-83.85768127441406
"30501","Gainesville","GA","Fitness Forum","1210 Thompson Bridge Rd","30501",34.31788236335278,-83.8301518412064
"30501","Gainesville","GA","Anytime Fitness","1500 Browns Bridge Rd, Blue Ridge Shopping Center, Gainesville, GA 30501","30501",34.286563873291016,-83.84185028076172
"30501","Gainesville","GA","Anytime Fitness","1500 Browns Ridge Rd","30501",34.2855,-83.8252
"30501","Gainesville","GA","Planet Fitness","130 John W Morrow Jr Pkwy Ste L","30501",34.29585647583008,-83.8423843383789
"30501","Gainesville","GA","Bodyplex Gainesville","1435 Thompson Bridge Rd","30501",34.3222069,-83.834204
"30501","Gainesville","GA","East Hall Viking Weight Room","East Hall Rd","30507",34.33483856680409,-83.74188148110956
"30501","Gainesville","GA","Brenau University Gymnasium","Washington St SE","30501",34.30273126853599,-83.81881015369564
"30504","Gainesville","GA","Oakwood Family YMCA Wellness Center","4101 Railroad St","30566",34.22785949707031,-83.88381958007812
"30506","Gainesville","GA","CrossFit Dahlonega","101 Ethan Allen Dr Ste B","30533",34.441490173339844,-83.9874038696289
"30506","Gainesville","GA","Planet Fitness","78 Dawson Village Way","30534",34.363018,-84.033325
"30506","Gainesville","GA","Crossfit Max Kane","4610 Elk Ridge Ct Ste Bc","30542",34.19598853334814,-83.91381555295582
"30506","Gainesville","GA","Anytime Fitness","142 Prestige Ln Stes 400-600","30534",34.36807,-84.03447
"30506","Gainesville","GA","Pur Family Fitness","not_available","30542",34.199997804673835,-83.85905999166684
"30506","Gainesville","GA","No Excuses Gym","7035 Lighthouse Pt","30041",34.23047637939453,-84.03468322753906
"30507","Gainesville","GA","Stephens' Gym","Candler rd","not_available",34.184226,-83.760496
"30507","Gainesville","GA","Anytime Fitness","4029 Winder Hwy. Ste. 410-420","30542",34.19581491,-83.85736652
"30512","Blairsville","GA","GFZ","7064 Clarence Nichols Rd","30582",34.94001388549805,-83.88007354736328
"30512","Blairsville","GA","FLC","not_available","30512",34.8906299558611,-84.0096326012951
"30512","Blairsville","GA","CP FITPro","not_available","30582",34.967825359088124,-83.82490038871765
"30513","Blue Ridge","GA","Anytime Fitness","96 Craig St Stes 101-102","30540",34.67833,-84.47637
"30513","Blue Ridge","GA","CrossFit 30513","348 East Main","30513",34.86856335686975,-84.32171636005067
"30513","Blue Ridge","GA","Justin Time Fitness","not_available","30540",34.67718954213648,-84.47643046547232
"30513","Blue Ridge","GA","Workout Anytime","500 Highland Xing, Ste 105","30540",34.6627,-84.486726
"30513","Blue Ridge","GA","TruFitness","not_available","30513",34.868704,-84.321826
"30513","Blue Ridge","GA","Gold Gym","96 Craig St Ste 106","30540",34.67861557006836,-84.47621154785156
"30517","Braselton","GA","Crossfit Faded Glory","935 Highway 124","30517",34.09738540649414,-83.8044204711914
"30517","Braselton","GA","Reunion Athletic Club","7563 Grand Reunion Dr","30542",34.11306873898486,-83.86191068089995
"30517","Braselton","GA","Mulberry Park Gym","Bald Cypress Drive","30517",34.124702687257354,-83.82348543069824
"30517","Braselton","GA","Falls of Braselton - Gym","Fisk Falls Dr.","30517",34.11918824722751,-83.82125795340048
"30517","Braselton","GA","Karate Rx","935 Highway 124 #213","30517",34.0970233,-83.8049923
"30517","Braselton","GA","GOB Gym","not_available","30517",34.115694976385626,-83.82824056645758
"30517","Braselton","GA","Team Radosta GetFit Center","5831 Grand Reunion Dr","30548",34.119300842285156,-83.86234283447266
"30517","Braselton","GA","Anytime Fitness","5757 Old Winder Hwy","30517",34.12356,-83.82772
"30518","Buford","GA","LA Fitness","3420 Buford Dr","30519",34.07596534080628,-83.98651993483593
"30518","Buford","GA","Planet Fitness","4125 Buford Dr NE","30518",34.093821,-84.001938
"30518","Buford","GA","BONDED BY FITNESS","3589 Carter Rd Ste 107","30518",34.14765930175781,-83.9650650024414
"30518","Buford","GA","Energy Sports & Fitness Buford","1957 Buford Hwy","30518",34.106547,-84.001152
"30518","Buford","GA","Legacy Fitness Center","Lake Lanier Islands","not_available",34.160791486310444,-83.99650482542489
"30518","Buford","GA","Legacy Family Fitness","2685 Buford Hwy NE, Buford, GA 30518","30518",34.12462251451775,-83.98429243348356
"30518","Buford","GA","Team 2B FIT - Fitness Studio","3200 Woodward Crossing Blvd","30519",34.068369437786295,-83.98063443797675
"30518","Buford","GA","Fitness 1440","4949 Lanier Islands Pkwy","30518",34.14372077037662,-83.95485564587385
"30518","Buford","GA","Buford RedLine Athletics","1839 Buford Hwy Ste 200","30518",34.1031069,-84.0047693
"30518","Buford","GA","American Body Works","5608-5700 Whispering Pines","30518",34.142412543296814,-83.95410776138306
"30518","Buford","GA","Adrenaline Climbing","460 Brogdon Rd Ste 100","30024",34.07306268508589,-84.0578964133248
"30518","Buford","GA","Crunch Fitness - Buford","3740 Buford Drive","30519",34.0847917,-83.99013169999999
"30518","Buford","GA","Body By Von","not_available","30518",34.09353,-84.047322
"30518","Buford","GA","Straight Blast Gym Buford","1605 Buford Hwy Ste N","30518",34.096649169921875,-84.01057434082031
"30519","Buford","GA","Bootcamp","Fieldview Way NE","30519",34.05936370306611,-83.95499766379318
"30519","Buford","GA","Workout Anytime","7338 Spout Springs Rd","30542",34.11045434640569,-83.8771390914917
"30519","Buford","GA","Fitness 19 Braselton","1880 Braselton Hwy","30043",34.05765104110693,-83.95366008779638
"30519","Buford","GA","iLoveKickboxing - Buford","2725 Hamilton Mill Rd","30519",34.08126,-83.919797
"30519","Buford","GA","Century Mill Creek Fitness Center","2705 Mall of Georgia Blvd","30519",34.063894487079125,-83.97258281707764
"30519","Buford","GA","GeoffBuildsBodies","7433 Spout Springs Rd","30542",34.10758972167969,-83.87202453613281
"30519","Buford","GA","CrossFit GATA","3343 Pucketts Mill Rd","30519",34.08177947998047,-83.9256820678711
"30520","Canon","GA","Snap Fitness","1041 Franklin Springs St","30662",34.28470230102539,-83.12747955322266
"30520","Canon","GA","P90x Dungeon","Bryant Park Road","30662",34.30051457982087,-83.1593370437622
"30523","Clarkesville","GA","Main Street Gym","435 Jefferson St","30523",34.615026,-83.525258
"30523","Clarkesville","GA","TFS gym","not_available","30523",34.730690002441406,-83.39501190185547
"30523","Clarkesville","GA","Genesis","not_available","30525",34.861402,-83.402732
"30527","Clermont","GA","peaches gym","not_available","30564",34.464418793796014,-83.84439906976681
"30528","Cleveland","GA","Dahlonega Athletic Center","406 E Main St #B","30533",34.53464480845266,-83.97822843941682
"30528","Cleveland","GA","Recdec","not_available","30533",34.530416,-83.98510218333334
"30528","Cleveland","GA","Anytime Fitness","1801 Hwy. 129 S. Ste. A-C","30528",34.57204,-83.7626
"30528","Cleveland","GA","The Gym","Old Hwy 75 S","30528",34.52107373926001,-83.74415849852822
"30529","Commerce","GA","Fun Time Gym","1664 S Broad St","30529",34.20296096801758,-83.45642852783203
"30529","Commerce","GA","Moise Centre Sportif","38, Lathan, Rte Nle # 1","not_available",34.207149505615234,-83.47523498535156
"30531","Cornelia","GA","jazzercise","not_available","30531",34.523548,-83.52785899999999
"30531","Cornelia","GA","Anytime Fitness","275 Habersham Vlg Cir","30531",34.54087,-83.54418
"30531","Cornelia","GA","Workout Anytime","378 Habersham Hills Cir","30531",34.545716999999996,-83.54405899999999
"30533","Dahlonega","GA","Camp Merrill Gym","1 Camp Merrill","30533",34.62609100341797,-84.10636901855469
"30534","Dawsonville","GA","Bodyplex","Nordson Overlook Rd","30534",34.36298136345667,-84.04326527094524
"30534","Dawsonville","GA","Green Forest Apartment Gym","Green Forest","30534",34.35793,-84.04055
"30535","Demorest","GA","Mize Athletic Center","at Laurel Ave","30535",34.561208654766546,-83.54447965950796
"30542","Flowery Branch","GA","Bodyplex Oakwood","not_available","30566",34.22031581391721,-83.86677055713162
"30542","Flowery Branch","GA","Gym Tan Laundry","5455 Amber Cove Way","not_available",34.14009511470795,-83.86465072631836
"30542","Flowery Branch","GA","Choe's HapKiDo Martial Arts and Kickboxing Braselton, Buford, Flowery Branch","7380 Spout Springs Rd","30542",34.1080112,-83.8756495
"30546","Hiawassee","GA","Hiawassee Recreation Center","not_available","30546",34.961956519601976,-83.7626610582105
"30548","Hoschton","GA","Anytime Fitness","6055 Hwy 124 W","30680",34.10641,-83.70303
"30549","Jefferson","GA","Jefferson Fitness","1361 Washington St","30549",34.13090060026421,-83.58960628509521
"30549","Jefferson","GA","Snap Fitness","914 Lee St","30549",34.11140823364258,-83.58618927001953
"30549","Jefferson","GA","Workout 361","163 Crooked Creek Vlg","30607",34.035282135009766,-83.44932556152344
"30549","Jefferson","GA","Pollard Gym/Garage","not_available","30567",34.15858459472656,-83.67803192138672
"30549","Jefferson","GA","DCW Gym","not_available","30549",34.044687,-83.537709
"30553","Lavonia","GA","The Fitness Firm","Clear Creek Dr","30553",34.434220595109885,-83.13147469855535
"30553","Lavonia","GA","Ty Cobb Wellness Center","355 Clear Creek Pkwy","30553",34.43989562988281,-83.13195037841797
"30557","Martin","GA","Gym Nation","3384 Highway 17 Alternate","30577",34.5567,-83.2857
"30577","Toccoa","GA","ymca","not_available","30577",34.560245513916016,-83.34496307373047
"30577","Toccoa","GA","Gold's Gym","194-276 E Doyle St","30577",34.579127517040895,-83.33010859644784
"30601","Athens","GA","Orangetheory Fitness","196 Alps Rd","30606",33.957127,-83.369979
"30601","Athens","GA","Holiday Inn Express Fitness Center","513 W Broad St","30601",33.955787658691406,-83.38155364990234
"30601","Athens","GA","Crossfit South","not_available","30605",33.97051008358317,-83.38911090821021
"30601","Athens","GA","tahash studio gym","892 1/2 Hill Street","30606",33.95826811477517,-83.39544562516157
"30601","Athens","GA","Classic City Crossfit","1911 W Broad St","30606",33.95133590698242,-83.40110778808594
"30601","Athens","GA","Couture Bodies","830 Hawthorne Ave","30606",33.94699574775734,-83.39748280709345
"30601","Athens","GA","Archer on North","210 Spring Ct","30601",33.972951,-83.369036
"30601","Athens","GA","The Lodge Gym","211 North Ave","30601",33.97119140625,-83.36985778808594
"30601","Athens","GA","PPI Wellness Gym","200 Newton Bridge Rd","30607",33.984274,-83.39451899999999
"30601","Athens","GA","At Work Rehab Services","337 S Milledge Ave","30605",33.95195388793945,-83.38694763183594
"30601","Athens","GA","STUDIO Athens","675 Pulaski St","30601",33.9659538269043,-83.3826675415039
"30601","Athens","GA","Physicians Back And Neck Clinic","195 Miles St","30601",33.969173431396484,-83.39419555664062
"30601","Athens","GA","SPARC GYM","1765 Old West Broad Street Bldg 3","30606",33.95134903,-83.40489688
"30602","Athens","GA","Ramsey Student Center for Physical Activities","330 River Rd","30602",33.937618908133445,-83.37098479270935
"30602","Athens","GA","Riverbend Club Apartments","355 Riverbend Pkwy","30605",33.92553668887547,-83.36823039539769
"30605","Athens","GA","BodyPlex Athens East","1225 Cedar Shoals Dr","30605",33.92606842565183,-83.33343084326307
"30605","Athens","GA","YWCO","562 Research Dr.","30605",33.928076697031386,-83.34456821387863
"30605","Athens","GA","Freedom Fitness Training Systems","752 Weeping Willow Dr","30605",33.913976,-83.30135200000001
"30605","Athens","GA","Anytime Fitness","4050 Lexington Rd","30605",33.936709,-83.322477
"30605","Athens","GA","Gym","1054 gaines school rd","30605",33.9270036,-83.33077804
"30605","Athens","GA","The Summit Fitness Center","1035 Barnett Shoals Rd","30605",33.93157482302953,-83.34848642349243
"30605","Athens","GA","Lakeside Gym","1000 Lakeside Dr","30605",33.91444778442383,-83.37677001953125
"30606","Athens","GA","YMCA","915 Hawthorne Ave","30606",33.965349255330594,-83.41529076635948
"30606","Athens","GA","Athens Fit Body Boot Camp","3569 Atlanta Hwy","30606",33.936869,-83.455326
"30606","Athens","GA","River Club Apartments","1005 Macon Hwy","30606",33.91007510807149,-83.3963096426131
"30606","Athens","GA","CrossFit Athens","190 Ben Burton Cir","30622",33.944117,-83.478566
"30606","Athens","GA","Athens Health & Fitness","2361 W Broad St Ste 2","30606",33.94800567626953,-83.41465759277344
"30606","Athens","GA","River Club Apt. Gym","not_available","30606",33.911203,-83.396513
"30606","Athens","GA","Anytime Fitness","1260 Mars Hill Rd","30677",33.87804059044946,-83.4486937522888
"30606","Athens","GA","St. Mary's Wellness Center","2470 Daniels Bridge Rd","30606",33.9104563892409,-83.45722589554191
"30606","Athens","GA","Anytime Fitness","3190 Atlanta Hwy #1","30606",33.94225,-83.449399
"30606","Athens","GA","Gym @ Fairways at Jennings Mill","355 Jennings Mill Pkwy","30606",33.9352912902832,-83.47199249267578
"30606","Athens","GA","Aerofit","165 Coile Dr","30606",33.94383178929148,-83.45263437761984
"30606","Athens","GA","Crunch - Athens","196 Alps Road","30606",33.94434870000001,-83.4092731
"30606","Athens","GA","Planet Fitness","3658 Atlanta Hwy, Ste O","30606",33.940594,-83.457819
"30606","Athens","GA","Athens Personal Fitness","1550 Timothy Rd","30606",33.93463897705078,-83.43635559082031
"30606","Athens","GA","Cedar Creek Baptist Church","not_available","30643",33.94621443586806,-83.46721772952367
"30606","Athens","GA","Westpark Club Pool","150 Westpark Dr","30606",33.933275652947536,-83.46130466484236
"30606","Athens","GA","The Omni Club","2361 W Broad St","30606",33.94720265612347,-83.41358267590913
"30607","Athens","GA","AKF Athens Martial Arts","2415 Jefferson Rd","30607",33.972631,-83.41523000000001
"30620","Bethlehem","GA","Extreme Tumbling Training Center","not_available","30620",33.94580634273997,-83.75383100110867
"30621","Bishop","GA","CrossFit Oconee","not_available","30677",33.863645,-83.447617
"30621","Bishop","GA","Workout Now","1021 Jamestown Blvd","30677",33.865461273249124,-83.44875466193761
"30621","Bishop","GA","Workout Anytime","2061 Experiment Station Rd, Ste 501","30677",33.87128200000001,-83.44149749999997
"30622","Bogart","GA","Belfair Neighborhood Pool","not_available","30622",33.921777343567946,-83.554848315734
"30622","Bogart","GA","The Connection At Athens Gym","255 The Preserve Dr","30606",33.947146999999994,-83.44458
"30622","Bogart","GA","Burn Boot Camp","1720 Epps Bridge Pkwy","30606",33.91384,-83.44627
"30627","Carlton","GA","Body Plex Elberton","not_available","30635",34.091761170246144,-82.83435525276218
"30635","Elberton","GA","Movers And Shapers","11 Station Road","29655",34.26567459106445,-82.66622924804688
"30642","Greensboro","GA","LOOP Fitness","1093 Greensboro Rd Ste 112","31024",33.435489654541016,-83.26618194580078
"30642","Greensboro","GA","Bodyplex","106 Village Ln","31024",33.423371602936676,-83.27172741831613
"30642","Greensboro","GA","Ritz Carlton Spa","The Ritz-Carlton Lodge","30642",33.43920901153521,-83.19456863155409
"30642","Greensboro","GA","The Gym @ TC","not_available","30642",33.55056708821607,-83.20378643919867
"30650","Madison","GA","Madison Fitness Center","Eatonton hwy","30650",33.565714420908904,-83.47858428955078
"30650","Madison","GA","Up Town Fitness","183 S Main St","30650",33.59526824951172,-83.46871948242188
"30650","Madison","GA","old gym","not_available","30650",33.60681294004017,-83.4521497787334
"30655","Monroe","GA","Anytime Fitness","134 MLK Jr Blvd","30655",33.79481,-83.74475
"30655","Monroe","GA","Walton Athletic 24","1205 W Spring St","30655",33.79136313049766,-83.73297752931614
"30655","Monroe","GA","CrossFit At Monroe Mill","601 S Madison Ave","30655",33.7880489238826,-83.70657963175802
"30673","Washington","GA","Washington Total Fitness","23 E Court St, Washington, GA 30673","30673",33.73749959126986,-82.73919468475914
"30677","Watkinsville","GA","Core Blend","1410 Greensboro Hwy","30677",33.85244369506836,-83.39876556396484
"30680","Winder","GA","Anytime Fitness","217 E May St","30680",33.98212,-83.71272
"30680","Winder","GA","Workout Anytime","444 Atlanta Hwy NW, Ste 300","30680",33.99155159041084,-83.7598729133606
"30680","Winder","GA","Pump 'N Iron Gym","50 W May St","30680",33.99226760864258,-83.72591400146484
"30701","Calhoun","GA","Advanced Rehabilitation","not_available","30701",34.51306552825813,-84.92454260750806
"30701","Calhoun","GA","Fitness First","610 Red Bud Rd NE","30701",34.513421420296034,-84.93319373907644
"30701","Calhoun","GA","Results Unlimited","1263 Curtis Pkwy SE","30701",34.47565643256996,-84.9229397101325
"30701","Calhoun","GA","Resaca Gym","not_available","30735",34.579637,-84.947148
"30701","Calhoun","GA","Planet Fitness","122 Wc Bryant Pkwy","30701",34.483717,-84.944665
"30701","Calhoun","GA","Grindhouse Wrestling","111 Jones Rd","30701",34.5198974609375,-84.9317398071289
"30701","Calhoun","GA","The New You Fitness","986 N Wall St","30701",34.519429,-84.94366869999999
"30705","Chatsworth","GA","Workout Anytime Chatsworth","960 Gi Maddox Pkwy","30705",34.78185750698672,-84.79233026504515
"30705","Chatsworth","GA","Peak Fitness","1021 Riverburch Pkwy","30721",34.80095801407591,-84.94124092477199
"30705","Chatsworth","GA","Gold's Gym","816 Walnut Square Blvd","30721",34.758492,-84.93236
"30707","Chickamauga","GA","Jack Silberman's The Key to Fitness","not_available","30739",34.85133159024133,-85.25110091392197
"30707","Chickamauga","GA","Workout Anytime","106 Pearl Dr, Ste 108","30728",34.747690999999996,-85.271113
"30707","Chickamauga","GA","The KEY","96 Fieldstone Viilage Dr","30739",34.85118858542935,-85.25083482045231
"30707","Chickamauga","GA","The Great Whatley Gymnasium","not_available","30707",34.89026331332269,-85.30176360996771
"30707","Chickamauga","GA","Curves","not_available","30728",34.70469,-85.283074
"30707","Chickamauga","GA","The key fitness center","Chickamauga Recreation Association, 240 Cove Rd, Chickamauga, GA 30707","30707",34.86650466918945,-85.29487609863281
"30707","Chickamauga","GA","City Club","Main Street","30728",34.72110852897644,-85.27395746447904
"30720","Dalton","GA","The Recreation Place","510 S Tibbs Rd","30720",34.7627067565918,-84.99247741699219
"30720","Dalton","GA","855 Building","855 Abutment Rd","30721",34.759925842285156,-84.96176147460938
"30720","Dalton","GA","Planet Fitness","1515 W Walnut Ave","30720",34.75898575639331,-84.99740521363066
"30720","Dalton","GA","Crossfit Discernment","701 S Hamilton St","30720",34.76290512084961,-84.9676513671875
"30720","Dalton","GA","Gym","785 College Dr","30720",34.76525115966797,-85.00342559814453
"30720","Dalton","GA","First Presbyterian Church Rec Room","?","30720",34.79461428514615,-84.99776845052752
"30720","Dalton","GA","Wahs Body Shop","not_available","30720",34.725797,-85.006152
"30720","Dalton","GA","Tony Horton's Gym","not_available","30721",34.84196669306408,-84.96711178323467
"30721","Dalton","GA","Dalton Community Center","218 Frederick St","30720",34.773539679423564,-84.95732496726237
"30725","Flintstone","GA","Flintstone Fitness","Chatt valley rd","not_available",34.945133209228516,-85.34131622314453
"30736","Ringgold","GA","Planet Fitness","1887 Battlefield Pkwy","30742",34.9489578280058,-85.23358504781993
"30736","Ringgold","GA","Burning Bush Gym","not_available","30736",34.89727012548742,-85.21477264437175
"30736","Ringgold","GA","Absolute Fit","not_available","30742",34.945293,-85.259217
"30736","Ringgold","GA","Benefit for women","6698 Highway 41","30736",34.9190788269043,-85.12957000732422
"30736","Ringgold","GA","matt eubanks Boot Camp","not_available","30741",34.961924355904905,-85.1960961002801
"30736","Ringgold","GA","Jessie Thornton's United Karate Studio","61 Tennessee St","30736",34.916308,-85.109441
"30736","Ringgold","GA","Rock Fitness Center","2630 Pine Grove Rd","30736",34.93328674695027,-85.19302314496817
"30736","Ringgold","GA","Wave Fitness Center","135 Patterson Ave","30742",34.956823,-85.257103
"30736","Ringgold","GA","The Rock Express","2215 Battlefield Pkwy","30742",34.94501384563554,-85.22632816143323
"30736","Ringgold","GA","The Blitz Fitness","1846 Lafayette Road","30742",34.96253440887181,-85.26061561041406
"30738","Rising Fawn","GA","Genesis Gym","not_available","30752",34.86033956066936,-85.52021763134164
"30747","Summerville","GA","Fit Pit","not_available","30747",34.49098,-85.340539
"30747","Summerville","GA","Triangle Gym","Old US Highway 27","30753",34.534178,-85.30749398333333
"30802","Appling","GA","Bobby Waters gym","Patriots Park","30809",33.5199369459028,-82.22973931230614
"30802","Appling","GA","Anytime Fitness","3110 William Few Pkwy","30809",33.572818,-82.19158900000001
"30802","Appling","GA","Lori's Personal Training","not_available","30809",33.58240525910419,-82.18930511073992
"30802","Appling","GA","Riverstone Gym","600 Halton Dr","30813",33.482242584228516,-82.20462799072266
"30802","Appling","GA","Augusta Personal Training","741 Burch Creek Dr","30813",33.49686813354492,-82.24815368652344
"30802","Appling","GA","Burn Boot Camp","953 Branch Ct","30813",33.48196,-82.19383
"30808","Dearing","GA","My Workout Room","not_available","30814",33.41358222909871,-82.32339683873657
"30809","Evans","GA","Planet Fitness","222 Bobby Jones Expy","30907",33.508288266960484,-82.09180139736216
"30809","Evans","GA","Evans Rehabilitation Services","415 Town Park Blvd","30809",33.531955413860956,-82.13337481468322
"30809","Evans","GA","The Haven's Gym","303 Wave Hl","30907",33.5118293762207,-82.1090316772461
"30809","Evans","GA","Ivan's Fitness Gallery","3925 Washington Rd Ste A","30907",33.51032170494388,-82.09923337299401
"30809","Evans","GA","Anytime Fitness","4497-4 Columbia Rd.","30907",33.50801,-82.14513
"30809","Evans","GA","Orangetheory Fitness","4274 Washington Rd","30809",33.53348922729492,-82.12754821777344
"30809","Evans","GA","Ground Zero Fighting Systems","677 Industrial Park Dr","30809",33.55576087359553,-82.12022117108734
"30809","Evans","GA","Evans Fitness Club Express","3830 Washington Road, Suite # 15","30907",33.510792,-82.0877833
"30809","Evans","GA","Champion Fitness","4460 Washington Rd Ste 19","30809",33.54511260986328,-82.14434814453125
"30809","Evans","GA","Veeta D's Fit Camp","7022 Evans Town Center Blvd","30809",33.54650115966797,-82.13261413574219
"30809","Evans","GA","Quantum Fitness","4408 Evans To Locks Rd","30809",33.53975730231687,-82.12646259647266
"30809","Evans","GA","Burn Boot Camp","4515 Washington Rd","30809",33.546738,-82.147876
"30809","Evans","GA","Evans Fitness Club","3002 Allen Dr","30809",33.547420263643666,-82.13014005542661
"30809","Evans","GA","Spinning Gallery","3618 Old Petersburg Rd","30907",33.518470764160156,-82.07975769042969
"30809","Evans","GA","Athelite- Sports Training Academy","2520 Associates Way","30809",33.53177261352539,-82.13603973388672
"30809","Evans","GA","Marshall Family Y","1202 Evans Town Park","30809",33.52981130050195,-82.13311518904604
"30809","Evans","GA","Team Fit","not_available","30907",33.5070520987197,-82.13924135380908
"30813","Grovetown","GA","Gym 3","not_available","30905",33.41887123741497,-82.14936849831258
"30813","Grovetown","GA","Signal Towers gym","not_available","30909",33.43809108845125,-82.200189634852
"30813","Grovetown","GA","Gordon Fitness Center","Building 29607, Barnes Avenue","30909",33.4225756982501,-82.14062524428
"30813","Grovetown","GA","Anytime Fitness","107 E Robinson Ave","30813",33.4508,-82.19716
"30813","Grovetown","GA","Gym of death","not_available","30813",33.4507701857938,-82.19971712194693
"30815","Hephzibah","GA","Augusta South YMCA","2215 Tobacco Rd #H","30906",33.374806985667114,-82.03333799335516
"30815","Hephzibah","GA","Crossfit Hephzibah","not_available","30815",33.31764016908868,-82.08481918493595
"30815","Hephzibah","GA","Missa's Gym","not_available","30906",33.35757098124982,-81.98266325138367
"30816","Keysville","GA","Ripped Fitness","621 N Liberty St","30830",33.09068298339844,-82.01654815673828
"30817","Lincolnton","GA","redneckville gym","A","29835",33.920623779296875,-82.2485580444336
"30817","Lincolnton","GA","Lincolnton Athletic Club","347 S Washington St","30817",33.78786087036133,-82.48125457763672
"30817","Lincolnton","GA","LCMS Gym","343 Ward Ave","30817",33.793846130371094,-82.47049713134766
"30817","Lincolnton","GA","redneckville gym","not_available","29845",33.850425720214844,-82.26105499267578
"30817","Lincolnton","GA","Nike Training Club","not_available","30817",33.78581,-82.47307
"30818","Matthews","GA","Family Y (YMCA)","not_available","30833",33.22668332630637,-82.40587720074873
"30824","Thomson","GA","Family Y (YMCA)","not_available","30824",33.461156624074626,-82.50719632672453
"30824","Thomson","GA","Steel Magnolias","19 W Robert Toombs Ave","30673",33.46284766353707,-82.49838955984114
"30901","Augusta","GA","CrossFit Downtown","1348 Reynolds St","30901",33.480346000000004,-81.976816
"30901","Augusta","GA","Norman Bonner Gymnasium","not_available","30901",33.468244360744194,-81.98125084261662
"30901","Augusta","GA","Randall Carter Gymnasium @ Paine College","not_available","30904",33.470868491965355,-81.99825283427008
"30901","Augusta","GA","YMCA Downtown","945 Broad St","30901",33.476644470596064,-81.9687458474606
"30904","Augusta","GA","Oxygen Fitness Studio","375 Highland Ave","30909",33.48716230069,-82.03024924776038
"30904","Augusta","GA","Pure Barre","2907 Washington Rd Ste 202","30909",33.5135101,-82.0391812
"30904","Augusta","GA","Personal Workout Studio","3070 Damascus Rd Ste S","30909",33.4595947265625,-82.0489501953125
"30904","Augusta","GA","Kroc Center- Health & Fitness Area","1384 Greene St","30901",33.48555418721684,-81.99487898290184
"30904","Augusta","GA","Active Duty Rehab Gym","1 Freedom Way","30904",33.46455764770508,-82.02649688720703
"30907","Augusta","GA","The Family Y","3570 Wheeler Rd","30909",33.483569807004905,-82.07976153313479
"30907","Augusta","GA","Gold's Gym","596 Bobby Jones Expy","30907",33.503112344499364,-82.08574989294979
"30907","Augusta","GA","Diamond Lakes Community Center","103 Diamond Lakes Way","30904",33.510189056396484,-82.06900835037231
"30907","Augusta","GA","Anytime Fitness","341 Fury's Ferry Rd. Ste. 2","30907",33.52619,-82.07077
"30909","Augusta","GA","Projeto Fitness","Augusta Square, 3412 Wrightsboro Rd #401, Augusta, GA 30909","30909",33.46677780151367,-82.0758285522461
"31001","Abbeville","GA","NCF Gym","not_available","31001",31.86792256525523,-83.22304439895973
"31005","Bonaire","GA","Houston Lake Apartments","2350 Houston Lake Rd","31047",32.499427436862796,-83.6611339594737
"31005","Bonaire","GA","Kinetix Health Club","770 GA Highway 96","31005",32.55313224025637,-83.65819647329357
"31005","Bonaire","GA","Edge Fitness","402 GA Highway 247 S","31005",32.567577251887144,-83.59359223409892
"31008","Byron","GA","Bradford Place Gym","115 Tom Chapman Blvd","31088",32.613346099853516,-83.70642852783203
"31008","Byron","GA","Kinetix Health Club","3035 Watson Blvd","31093",32.61615900097004,-83.69284053325374
"31008","Byron","GA","Orangetheory Fitness","3030 Watson Blvd","31093",32.61893844604492,-83.69146728515625
"31008","Byron","GA","Game On Training","not_available","31008",32.645768628470464,-83.73971330945157
"31008","Byron","GA","Woodard's gym","not_available","31088",32.58354679524538,-83.71149424373176
"31008","Byron","GA","Crossfit insurgency","4993 Russell Pkwy Ste 190","31088",32.57899856567383,-83.71859741210938
"31008","Byron","GA","Tim's Total Fitness","Industrial Blvd","31008",32.649283623832275,-83.75494392587095
"31008","Byron","GA","Mobile Team Fitness International LLC","not_available","31093",32.62312926155819,-83.69781732559204
"31008","Byron","GA","Eagle Springs Exercise Facility","101 Eagle Pkwy","31028",32.62376283550742,-83.70363690648351
"31011","Chauncey","GA","Dodge Fitness Center","not_available","31023",32.2,-83.15833333333335
"31014","Cochran","GA","Snap's Fitness","not_available","31036",32.28981497485548,-83.47929275227258
"31014","Cochran","GA","Prime Time Gym","82 firehouse rd.","31036",32.28256264,-83.46522667
"31015","Cordele","GA","Fairfield Inn Gym","2001 E 16th Ave","31015",31.96082878112793,-83.74993133544922
"31015","Cordele","GA","Gemily's Gym","not_available","31015",31.967021588665773,-83.78027875601472
"31015","Cordele","GA","Impact Sports And Fitness","791-979 Greer St","31015",31.95741735786631,-83.75587747533486
"31016","Culloden","GA","Roberta Fitness","not_available","31078",32.71957112071049,-84.01031055226024
"31016","Culloden","GA","Southern Spirit Volleyball Club","Hwy 74","31016",32.860754,-84.025733
"31017","Danville","GA","Life Quest Fitness","Magnolia St","31044",32.688684461643156,-83.34497064997136
"31020","Dry Branch","GA","Geico M2 Gym","4400 Ocmulgee East Blvd","31217",32.807376861572266,-83.56622314453125
"31020","Dry Branch","GA","Robins AFB Gym & HAWC","8th St","31093",32.60462121216695,-83.57750415802002
"31020","Dry Branch","GA","GEICO Wellness Center","not_available","31217",32.80791910782909,-83.56811636141978
"31020","Dry Branch","GA","Robins Base Gym Annex","Byron St","31093",32.619593148050555,-83.59030759170572
"31021","Dublin","GA","VAMC Gym","Veterans blvd","not_available",32.537215889762905,-82.94401404582648
"31021","Dublin","GA","Crossfit DGA","not_available","31021",32.4868049621582,-82.92162322998047
"31021","Dublin","GA","Anytime Fitness","2103 Veterans Blvd","31021",32.5445,-82.95168
"31023","Eastman","GA","Dodge Fitness Inc","405 College St","31023",32.19530470000001,-83.1754502
"31023","Eastman","GA","ForwardLean Crossfit","9th Avenue","31023",32.20671198449344,-83.18712332961057
"31024","Eatonton","GA","Gym","not_available","31024",33.326656,-83.38829
"31028","Centerville","GA","Coyle gym","not_available","31216",32.65914941469488,-83.6664542215531
"31029","Forsyth","GA","The Pink Physique","not_available","31210",32.88249193218318,-83.76657837318601
"31029","Forsyth","GA","The Georgia Athletic Club","833 Patrol Rd","31029",33.03151998676358,-83.91670887379911
"31029","Forsyth","GA","Dirty South Barbell","not_available","31029",32.999198760531385,-83.88032099449383
"31029","Forsyth","GA","Tift College","300 Patrol Rd","31029",33.03813934326172,-83.9292984008789
"31030","Fort Valley","GA","Anytime Fitness","1040 Macon Rd","31069",32.46022,-83.73029
"31030","Fort Valley","GA","Tumblecheer GA","not_available","31069",32.45925521850586,-83.73438262939453
"31030","Fort Valley","GA","Full Tilt CrossFit","51 Mossy Creek Dr.","31030",32.52371600384052,-83.72242228526174
"31030","Fort Valley","GA","Destiny Fitness","1121 Ball St","31069",32.459898673673464,-83.7344326129571
"31030","Fort Valley","GA","Body Tec Fitness Club","1030 Ball St","31069",32.45879364013672,-83.73362731933594
"31032","Gray","GA","GAC","not_available","31032",32.99123595,-83.56645905
"31032","Gray","GA","Healy Point Gym","Healy Point Country Club","31211",32.93989632944356,-83.66033112788837
"31032","Gray","GA","Curves","111 Atlanta Rd","31032",33.010406494140625,-83.53433227539062
"31032","Gray","GA","Wingate Fitness Center","100 N Crest Blvd","31210",32.904842376708984,-83.69148254394531
"31032","Gray","GA","Flex Fitness","260 W Clinton St","31032",33.0054931640625,-83.54666900634766
"31032","Gray","GA","Kinetix Gym Gray Ga","4272 Gray Hwy","31032",32.99642483320675,-83.55780366651976
"31032","Gray","GA","The Cheer Factory","339 Railroad St","31032",32.991329193115234,-83.53105163574219
"31032","Gray","GA","Gym of Manchester at Wesleyan","1665 Wesleyan Dr","31210",32.91777038574219,-83.71627044677734
"31044","Jeffersonville","GA","Kinetix","not_available","31017",32.72962379095292,-83.32443849813531
"31047","Kathleen","GA","Praetorian CrossFit","208 Red Hawk Pt","31047",32.49586486816406,-83.6573486328125
"31047","Kathleen","GA","Max Fitness","112 Sutherlin Dr","31088",32.5485336,-83.66984440000002
"31052","Lizella","GA","The Gym","not_available","31220",32.82789258767938,-83.76860393870865
"31061","Milledgeville","GA","GCSU Wellnes and Rec","not_available","31061",33.10928001488944,-83.25574157810082
"31061","Milledgeville","GA","Rush Results Fitness","571 Hammock Rd NW","31061",33.09885756245225,-83.25088157535215
"31061","Milledgeville","GA","Fitness Plus","Hammock Rd","not_available",33.099165825592266,-83.25052493939127
"31061","Milledgeville","GA","Elite","284 Log Cabin Rd NE","31061",33.14342498779297,-83.24832153320312
"31061","Milledgeville","GA","Bodyplex Fitness Adventure","1850 N Columbia St","31061",33.102889,-83.251846
"31061","Milledgeville","GA","Curves","2485 N Columbia St","31061",33.112457275390625,-83.25597381591797
"31082","Sandersville","GA","Dudleys Gym","not_available","31082",33.015350341796875,-82.81562805175781
"31082","Sandersville","GA","Anytime Fitness","618 South Harris St","31082",32.97275,-82.81062
"31087","Sparta","GA","The Fieldhouse","Greensboro Hwy","31087",33.29971301382866,-82.97017341624426
"31088","Warner Robins","GA","9Round Fitness","507 Windslow Ave","29341",32.61625311,-83.68790774
"31088","Warner Robins","GA","Edge Fitness","1291 S Houston Lake Rd","31088",32.5565577436051,-83.66329537211054
"31088","Warner Robins","GA","Edge Fitness","140 Osigian Blvd","31088",32.615278979170654,-83.68725236247626
"31088","Warner Robins","GA","Curves Warner Robins","2290 Moody Rd","31088",32.58889389038086,-83.6223373413086
"31088","Warner Robins","GA","sandpiper apts gym","800 Leisure Lake Dr","31088",32.58443069458008,-83.63838195800781
"31088","Warner Robins","GA","Dino's Gym","1709 Watson Blvd","31093",32.617479189753624,-83.63416400903921
"31089","Tennille","GA","lLife Quest Fitness","392B W Trilby St","31096",32.73176574707031,-82.72286224365234
"31093","Warner Robins","GA","Body.Work.","Houston Mall","not_available",32.62058101703308,-83.64346504211426
"31201","Macon","GA","FitnessXtreme","not_available","31201",32.83775391963069,-83.62884407940277
"31201","Macon","GA","Body Evolution and Gorilla Crossfit","171 Spring St","31201",32.84263045833313,-83.63151493704221
"31201","Macon","GA","Trained By Cain Studios","419 Cherry St","31201",32.835330963134766,-83.62610626220703
"31201","Macon","GA","Macon Health Club","389 1st St","31201",32.837604803825634,-83.63052875078529
"31204","Macon","GA","Fitness Extreme","2974 Riverside Dr","31204",32.88517274113714,-83.67355276383108
"31204","Macon","GA","Pure Barre","4420 Forsyth Rd Ste 140","31210",32.868540778999666,-83.70001811162206
"31204","Macon","GA","Brighter-Day Fitness","2710 Sheraton Dr","31204",32.87654113769531,-83.66304779052734
"31204","Macon","GA","Ajs Fitness","524 Glencove Dr","31210",32.884308,-83.690523
"31204","Macon","GA","M.E. Fitness Center","Monticlair Drive","31210",32.881852745807,-83.70856213016259
"31204","Macon","GA","The Wellness Center","3797 Northside Dr","31210",32.89886141098201,-83.69277866963327
"31204","Macon","GA","Ingleside Baptist Family Life Center","834 Wimbish Rd","31210",32.88629150390625,-83.67721557617188
"31204","Macon","GA","Kev's Beachbody Health & Fitness Club","4860 Brookhaven Rd","31206",32.814640045166016,-83.71971130371094
"31204","Macon","GA","Orangetheory Fitness","4357 Forsyth Rd","31210",32.868629455566406,-83.69612884521484
"31204","Macon","GA","Planet Fitness","Rivergate Center, 245 Tom Hill Sr Blvd","31210",32.89586768688322,-83.68783042684738
"31204","Macon","GA","North Macon Crossfit","6394 Zebulon Rd","31220",32.87330320841648,-83.70889095793045
"31204","Macon","GA","Unionville Gym","2227 Mercer University Dr","31204",32.8272819519043,-83.6636734008789
"31204","Macon","GA","Bibb Co. BOE Wellness Center","2011 Riverside Dr","31204",32.856929779052734,-83.64344787597656
"31206","Macon","GA","Zumba","not_available","31206",32.78579454144462,-83.69362956234623
"31206","Macon","GA","Arnold&#39;s Gym","5580 Thomaston Rd","31220",32.83267593383789,-83.74410247802734
"31206","Macon","GA","West Club Gym","168 Steven Dr","31210",32.82651138305664,-83.72142028808594
"31206","Macon","GA","Kinetex gym","Hartley bridge rd","31216",32.74261763,-83.719199
"31206","Macon","GA","Kinetix Health Club","Houston Rd.","31216",32.74188057122181,-83.675396287609
"31210","Macon","GA","Kinetix Healthclub","5430 Bowman Rd","31210",32.92619248220476,-83.73207742280245
"31301","Allenhurst","GA","Lead The Way CrossFit","7205 US Highway 84 E","31313",31.769336700439453,-81.64335632324219
"31302","Bloomingdale","GA","RH Fitness & Tanning","not_available","31322",32.1239979504032,-81.27189925184689
"31305","Darien","GA","McIntosh County YMCA","1111 Magnolia Bluff Way SW Ste 295","31305",31.3960192,-81.4521888
"31308","Ellabell","GA","Black Creek Fitness","not_available","31308",32.165892,-81.492513
"31312","Guyton","GA","The Rhino Room","not_available","31312",32.34315858493354,-81.40389797909522
"31312","Guyton","GA","24/7 springfield","not_available","31326",32.35159872876168,-81.29253081583039
"31312","Guyton","GA","Wolffman's Sweatshop","not_available","31407",32.17582131951681,-81.25299915597112
"31313","Hinesville","GA","Planet Fitness","111 E Hendry St","31313",31.843862,-81.599516
"31313","Hinesville","GA","Liberty County Armed Services Ymca","201 Mary Lou Dr","31313",31.847666,-81.576026
"31313","Hinesville","GA","Caro Gym","Cramer Ave","31315",31.87716384081417,-81.62433394271198
"31313","Hinesville","GA","The Sweat Shop","not_available","31315",31.889356,-81.59002
"31313","Hinesville","GA","26BSB gym","not_available","31314",31.861372258122916,-81.63487539627442
"31313","Hinesville","GA","Apocalypse Training Center","1126 Kelly Dr #86","31313",31.806089401245117,-81.62417602539062
"31313","Hinesville","GA","The Columns Gym","not_available","31313",31.84968978807366,-81.65299036803768
"31313","Hinesville","GA","West Rehab & Sports Medicine","475 S Main St","31313",31.837711,-81.599159
"31313","Hinesville","GA","Hinesville Spine and Sport","740 E General Stewart Way","31313",31.854150772094727,-81.58055877685547
"31313","Hinesville","GA","Planet Fitness","147 W Hendry St","31313",31.844251,-81.599251
"31313","Hinesville","GA","87th CSSB PT Field","pt fields near gate 5","31315",31.883972331327257,-81.63119627244508
"31313","Hinesville","GA","Newman Fitness Center","W 6th St","31314",31.87082897280627,-81.61147884393036
"31313","Hinesville","GA","Fort Stewart Fire Station # 5","119 Coe Ave","31314",31.873863863271694,-81.60513075528176
"31313","Hinesville","GA","Anytime Fitness","435 EG Miles Pkwy","31313",31.84157,-81.60113100000001
"31313","Hinesville","GA","CrossFit Hinesville","1875 GA Highway 196 W","31313",31.819740449433194,-81.6427166331489
"31316","Ludowici","GA","velocity","not_available","31545",31.6180417003397,-81.91044166984113
"31316","Ludowici","GA","Anytime Fitness","348 S 1st St","31545",31.60459,-81.88867
"31322","Pooler","GA","Anytime Fitness","44 Traders Way","31322",32.13728,-81.25567
"31322","Pooler","GA","Cheer Savannah","118 Pipemakers Cir","31322",32.13148498535156,-81.2527847290039
"31322","Pooler","GA","Orangetheory Fitness","201 Blue Moon Crossing","31322",32.1146608,-81.240763
"31322","Pooler","GA","24 Seven Family Fitness","866 US Highway 80 W","31322",32.12094376149989,-81.26152209224873
"31322","Pooler","GA","F45 Training Pooler","492 Jimmy Deloach Pkwy","31407",32.165019,-81.230879
"31322","Pooler","GA","Pure Barre","461 Pooler Pkwy","31322",32.135142,-81.251186
"31322","Pooler","GA","Colonial Grand Fitness","1515 Benton Blvd","31407",32.149581,-81.247088
"31322","Pooler","GA","Preserve Back Clubhouse","Osprey Point Cir","31322",32.13899552822113,-81.2502313
"31322","Pooler","GA","The Carlyle at Godley Station Gym","385 Godley Station Blvd","31322",32.14640808105469,-81.26187896728516
"31322","Pooler","GA","Curves Pooler","Peacocks Plaza, US-80","31322",32.11768341064453,-81.25269317626953
"31322","Pooler","GA","Randalls Gym","U.S. 80, Garden City, GA 31408","31408",32.03352080210768,-81.26633455580304
"31324","Richmond Hill","GA","Anytime Fitness","10200 Ford Ave","31324",31.94510269165039,-81.30970001220703
"31324","Richmond Hill","GA","bradley point south fitness center","not_available","31419",31.980573671929022,-81.2656248265304
"31324","Richmond Hill","GA","Richmond Hill YMCA","197 Laurel St","31324",31.962295722432117,-81.32374434638639
"31324","Richmond Hill","GA","Savannah Sharks","82 Longwood Dr","31324",31.96160888671875,-81.32899475097656
"31324","Richmond Hill","GA","24/seven Fitness","not_available","31324",31.94548340248578,-81.31381176452415
"31324","Richmond Hill","GA","Jujitsu Center","3741 hwy 17 south suite 100","not_available",31.93213658,-81.3241687
"31324","Richmond Hill","GA","Richmond Hill YMCA","154 Thunderbird Dr","31324",31.962138,-81.323668
"31324","Richmond Hill","GA","Richmond Hill Spine And Sport","2451 US Highway 17 Ste B","31324",31.947159867053916,-81.3120471595515
"31326","Rincon","GA","Bodyworks Athletic Club","Rincon, GA 31326","31326",32.29243730334517,-81.2351486964485
"31326","Rincon","GA","YMCA","106 Smithfield Dr Unit A","31326",32.30636978149414,-81.23188018798828
"31326","Rincon","GA","Anytime Fitness","501 N Ridge St","31326",32.2707,-81.22811
"31326","Rincon","GA","Planet Fitness","5633 GA Hwy 21 S","31326",32.264608,-81.220364
"31326","Rincon","GA","24Seven Family Fitness And Tanning Centers","105 Commercial Dr","31326",32.25182672234153,-81.21085055853575
"31326","Rincon","GA","Rx Elite Fitness CrossFit","112 Goshen Rd","31326",32.25119400024414,-81.21285247802734
"31328","Tybee Island","GA","Tybee Island YMCA","204 5th Ave","31328",32.00763833,-80.84463
"31401","Savannah","GA","Fitness on Broughton","not_available","31401",32.07888211020431,-81.09183653470501
"31401","Savannah","GA","Strong Gym","1321 Bull St","31401",32.062743,-81.098303
"31401","Savannah","GA","Gym West Broad YMCA","1110 May St","31415",32.066341400146484,-81.10491180419922
"31401","Savannah","GA","CrossFit SteadFast","514 Berrien St","31401",32.07368289850865,-81.10062492226038
"31401","Savannah","GA","Westin Workout","1 Resort Dr","31421",32.08382034301758,-81.08521270751953
"31401","Savannah","GA","Pure Barre","10 Whitaker St","31401",32.0806945,-81.0923236
"31401","Savannah","GA","Impact Fitness","1 E Broughton St","31401",32.079620361328125,-81.09396362304688
"31401","Savannah","GA","Club stonerock","619 Montgomery St","31401",32.069642,-81.100427
"31401","Savannah","GA","PRO-FIT","539B E Liberty St","31401",32.07268955238787,-81.08670016767583
"31401","Savannah","GA","24 seven fitness","Broughton St, Savannah, GA 31401","31401",32.07814895945801,-81.0980165873657
"31401","Savannah","GA","Custom Fit Center","101-A W. Park Ave.","31401",32.064945220947266,-81.09860229492188
"31401","Savannah","GA","Mariner Grove Gym","not_available","31404",32.069538,-81.052363
"31401","Savannah","GA","24 Family Fitness","410 Broughton Street","31401",32.077477,-81.086608
"31401","Savannah","GA","PE Doctor Oliver","not_available","31405",32.05133733620144,-81.08097128038337
"31404","Savannah","GA","First City Fitness","2127 1/2 E Victory Dr","31404",32.03993545035641,-81.06334138321411
"31404","Savannah","GA","YMCA: Islands Branch","66 Johnny Mercer Blvd","31410",32.03426,-81.00511
"31404","Savannah","GA","Anytime Fitness","119 Charlotte Rd","31410",32.04157,-81.00798
"31404","Savannah","GA","Fitness Club","2164 E Victory Dr","31404",32.040543171069885,-81.06260340923349
"31404","Savannah","GA","24/7 Fitness New Location","not_available","31410",32.01523444388053,-80.98265824514523
"31404","Savannah","GA","Bootcamp Workout","Waring Dr","31404",32.04584218,-81.0852138
"31404","Savannah","GA","fit gym","140 Johnny Mercer Blvd","31410",32.01602706322109,-80.98703742027283
"31404","Savannah","GA","Memorial Health FitnessOne","4700 Waters Ave","31404",32.029986,-81.0894845
"31404","Savannah","GA","Transform Savannah","5509 Waters Ave","31404",32.02698,-81.093909
"31404","Savannah","GA","Coach Val's Tumblegym","310 Johnny Mercer Blvd","31410",32.01490578536672,-80.98259888594306
"31404","Savannah","GA","Train Me 24/7","Johnny Mercer Blvd, Savannah, GA 31410","31410",32.034896931851975,-81.01043010854417
"31404","Savannah","GA","Gym","2 Johnny Mercer Blvd","31410",32.04092788696289,-81.0195083618164
"31404","Savannah","GA","Fitness Body & Balance","2101-2139 E Victory Dr","31404",32.040083358708166,-81.06329068217762
"31404","Savannah","GA","Jeanne's Gym","Lyman Hall","not_available",32.031397518289296,-81.03471527195127
"31405","Savannah","GA","Planet Fitness","1100 Eisenhower Dr","31406",32.008124420100195,-81.099280152659
"31405","Savannah","GA","Habersham YMCA","6400 Habersham St","31405",32.0153667,-81.10967219999999
"31405","Savannah","GA","Walden Lane Fitness Room","Walden Ln","31405",32.06806045181135,-81.15613559746804
"31405","Savannah","GA","Tominac Fitness Center","314 Billy Mitchell Blvd","31409",32.02925812912153,-81.13090218921182
"31405","Savannah","GA","The Fit Lab","2011 Mills B Lane Blvd","31405",32.05346894752301,-81.13998619705126
"31405","Savannah","GA","Studio Z3 Cardio Club","not_available","31406",32.004251869466046,-81.10596943456264
"31405","Savannah","GA","Pure Barre","5521 Abercorn St Ste 500","31405",32.0248728,-81.1103564
"31405","Savannah","GA","24 7 gym","Chatham pkwy","31405",32.06912053972974,-81.19370941795479
"31405","Savannah","GA","24 Family Fitness & Tanning Center","7805 Abercorn St","31406",32.006529,-81.118112
"31405","Savannah","GA","24 7 Family Fitness","Ogeechee Rd","not_available",32.04797146,-81.16545641
"31405","Savannah","GA","Gym","150-198 E Derenne Ave","31405",32.02747005759184,-81.10648127710861
"31405","Savannah","GA","Anytime Fitness","50 Berwick Blvd Suite 160,170-180","31419",32.026699,-81.227482
"31405","Savannah","GA","CrossFit SAV","2 Mall Ct","31406",32.001766204833984,-81.10707092285156
"31406","Savannah","GA","Jenny Craig","6 Television Cir","31406",31.991437,-81.128625
"31406","Savannah","GA","SWAT Fitness","10875 Abercorn St","31419",31.98160171508789,-81.1382064819336
"31406","Savannah","GA","Nonstop Fitness","8511 Ferguson Ave","31406",31.984241263264906,-81.07570048028452
"31406","Savannah","GA","Greentree Fitness Center","10725 Abercorn St","31419",31.981359,-81.136803
"31406","Savannah","GA","Zumba Warehouse","Eisenhower","31405",32.004746,-81.100688
"31406","Savannah","GA","Alvins Gym And Tanning","37 W Fairmont Ave","31406",32.000988278354185,-81.12506553542701
"31407","Port Wentworth","GA","CRTC Gym","not_available","31408",32.124209249161225,-81.18932853627868
"31408","Savannah","GA","Garden City Gym & Stadium","160 Priscilla D Thomas Way","31408",32.10460527690073,-81.16094058867272
"31408","Savannah","GA","Gym","4000-4008 Kessler Ave","31408",32.08753265872356,-81.16133134109062
"31408","Savannah","GA","Jarrell's Boxing Gym","2801-2899 Louisville Rd","31415",32.086477216666665,-81.14052736666666
"31409","Savannah","GA","24/7 Fitness","14045 Abercorn St","31419",31.9843158,-81.17263960000001
"31409","Savannah","GA","Ranger Gym","725 Steven Douglas St","31409",32.029763561430876,-81.13443356256663
"31410","Savannah","GA","24 Hour Family Fitness Center","444 Johnny Mercer Blvd","31410",32.01769059051683,-80.97864870074243
"31419","Savannah","GA","Georgetown Woods Gym","Saint George Blvs","not_available",31.986307,-81.211141
"31501","Waycross","GA","YMCA Fitness Center","not_available","31501",31.22100927868823,-82.3454718658024
"31501","Waycross","GA","Planet Fitness","2215 Memorial Dr","31501",31.200248102224766,-82.32314229011536
"31501","Waycross","GA","SWEAT Fitness","1704 Boulevard Sq Ste A","31501",31.209714752144613,-82.33338631830559
"31501","Waycross","GA","Ware County High Schoool Gym","not_available","31503",31.198017,-82.387197
"31503","Waycross","GA","Anytime Fitness","322 Main St","31516",31.303,-82.239
"31510","Alma","GA","Anytime Fitness","1020 S Pierce St","31510",31.53038,-82.46248
"31513","Baxley","GA","Anytime Fitness","214 Central St","31513",31.76576,-82.35614
"31513","Baxley","GA","CrossFit Nuketown","184 Industrial Dr","31513",31.78169059753418,-82.34178924560547
"31520","Brunswick","GA","Planet Fitness","155 Mall Blvd","31525",31.21790242800973,-81.49066708540386
"31520","Brunswick","GA","BodyworX Studio 912, LLC","124 Chapel Crossing Rd","31525",31.22559083,-81.49467708
"31520","Brunswick","GA","The Gym at the Embassy Suites","500 Mall Blvd","31525",31.21729850769043,-81.48863220214844
"31520","Brunswick","GA","Golden Isles YMCA","144 Scranton Connector","31525",31.2183485,-81.4853845
"31520","Brunswick","GA","YMCA of Brunswick","not_available","31525",31.219815882019134,-81.48577120143132
"31520","Brunswick","GA","24 Seven","301 Mall Blvd, Brunswick, GA 31525","31525",31.215272903442383,-81.48782348632812
"31520","Brunswick","GA","Curves","3441 Cypress Mill Rd","31520",31.19514,-81.482715
"31520","Brunswick","GA","Crossfit Brunswick","147 Key Circle Dr","31520",31.200170516967773,-81.49140167236328
"31520","Brunswick","GA","Planet Fitness","167 Mall Blvd","31525",31.218025,-81.49057
"31522","Saint Simons Island","GA","Taylor Made Training Center","205 Business Center Dr","31522",31.149431228637695,-81.38768768310547
"31522","Saint Simons Island","GA","Sea Island Fitness Center","100 Cloister Dr","31561",31.181178935648898,-81.34895695624643
"31522","Saint Simons Island","GA","Saint Simons Health & Fitness Club","not_available","31522",31.16488077734596,-81.40397281631589
"31523","Brunswick","GA","Microtel Inn & Suites Fitness Center","146 Gateway Blvd","31525",31.238773345947266,-81.5006103515625
"31523","Brunswick","GA","Wynn-Ever Fitness","260 Hyde Park Commons","31523",31.141395818660158,-81.5873908996582
"31523","Brunswick","GA","Anytime Fitness","24 Canal Rd","31525",31.24496,-81.48752
"31523","Brunswick","GA","Residence Inn By Marriott Southwest Fitness Center","3701 Island","not_available",31.195822,-81.7228
"31533","Douglas","GA","Wellness center","200 Doctors Dr","31533",31.512309492939956,-82.86606179142726
"31533","Douglas","GA","Peak Physique","615 Bowens Mill Road Saw","31533",31.521255493164062,-82.87317657470703
"31533","Douglas","GA","K&R Health Club","615 Bowen's Mill Road","31533",31.521255493164062,-82.87317657470703
"31533","Douglas","GA","Fitness Center Inc The","2127 Broxton Rd","31533",31.535361,-82.85163
"31533","Douglas","GA","Anytime Fitness","1310 S. Madison Ave.","31533",31.49185,-82.84909
"31537","Folkston","GA","Anytime Fitness","3658 S 2nd St","31537",30.82519,-82.0034
"31539","Hazlehurst","GA","Anytime Fitness","124 E Jarman St Ste 7","31539",31.86368772,-82.58831239
"31539","Hazlehurst","GA","City of Hazlehurst Gym","Pat Dixon Rd.","31539",31.864030838012695,-82.60321044921875
"31547","Kings Bay","GA","SUBASE Gym","USS Daniel Boone Ave.","31558",30.790508263483986,-81.57013979187974
"31548","Kingsland","GA","Crossfit Camden","45 Chris Dr Ste A","31548",30.782001495361328,-81.63737487792969
"31548","Kingsland","GA","Lifetime Fitness","1999 Commerce Dr Ste B","31548",30.780223846435547,-81.62804412841797
"31548","Kingsland","GA","Anytime Fitness","109 Haddock Rd","31548",30.78477,-81.64666
"31548","Kingsland","GA","Gym @ Fairfield Inn","1359 East King Ave","31548",30.792323,-81.65488
"31553","Nahunta","GA","Anytime Fitness","not_available","31553",31.201902389526367,-81.98849487304688
"31558","Saint Marys","GA","Anytime Fitness","2800 Osborne Rd","31558",30.75428,-81.57967
"31562","Saint George","GA","ArOwOoD Jr PRIVATE Wii GYM","C.R. 121","32009",30.422609193872912,-82.02388934363918
"31601","Valdosta","GA","The Firm - 24 Hour Fitness","118 N Patterson St","31601",30.831233978271484,-83.27938079833984
"31601","Valdosta","GA","Anytime Fitness","1221 W 4th St","31620",30.83560892941034,-83.31301759701292
"31601","Valdosta","GA","Viking Gym","not_available","31601",30.838553,-83.326863
"31601","Valdosta","GA","Allure Women's Fitness","1515 N Ashley St","31602",30.850290298461914,-83.27999114990234
"31601","Valdosta","GA","Crunch Fitness - Valdosta","1709 Baytree Rd","31601",30.8451175,-83.32011109999999
"31601","Valdosta","GA","Lake Park YMCA","5214 Jewel Futch Rd","31636",30.67633056640625,-83.22193908691406
"31601","Valdosta","GA","Factor X Fitness","1711 Norman Dr","31601",30.841308418032625,-83.31825202050172
"31602","Valdosta","GA","Jessie's Place","not_available","31605",30.920827,-83.231049
"31602","Valdosta","GA","CrossFit Shocked","3974 Inner Perimeter Rd","31602",30.881760999999997,-83.25551899999999
"31602","Valdosta","GA","Three Oaks Apartments","3833 N Oak Street Ext","31605",30.888004302978516,-83.28983306884766
"31602","Valdosta","GA","Curves","416 Northside Dr","31602",30.872794,-83.28035899999999
"31602","Valdosta","GA","American Body Works","4510 Valnorth Dr","31602",30.899908531180664,-83.33887858605532
"31602","Valdosta","GA","The Gym","not_available","31602",30.881239944155,-83.26055535725081
"31602","Valdosta","GA","VMS Gym","110 Burton St","31602",30.86675453186035,-83.29093933105469
"31602","Valdosta","GA","Outfitters Gym","1523B Old Valdosta Road","31645",30.925473,-83.231958
"31602","Valdosta","GA","Crossfit Valdosta","4548 Valnorth Dr Ste A","31602",30.899147505276808,-83.34104901500577
"31605","Valdosta","GA","Sauna","not_available","31699",30.971084,-83.212942
"31605","Valdosta","GA","Moody Fitness And Wellness Center","Burrell St","31699",30.977203242272903,-83.20117753353382
"31605","Valdosta","GA","Anytime Fitness","3143 C N. Ashley St.","31602",30.87697,-83.29066
"31620","Adel","GA","South Georgia Fitness Center","not_available","31620",31.138110403227795,-83.4243487856034
"31632","Hahira","GA","Hahira Health And Fitness","221 W Main St","31632",30.990739822387695,-83.37442779541016
"31635","Lakeland","GA","Anytime Fitness","81 S Valdosta Rd","31635",31.039136846751614,-83.07423055171965
"31636","Lake Park","GA","Beach Kowboy Private Gym","not_available","31636",30.700549520529567,-83.20850469715506
"31639","Nashville","GA","Anytime Fitness","105 E Washington Ave","31639",31.20627,-83.24989
"31701","Albany","GA","Anytime Fitness","1555 Hwy 19 S Unit 14","31763",31.63153,-84.17488
"31701","Albany","GA","YMCA","1701 Gillionville Rd","31707",31.5816383482394,-84.19225632088387
"31701","Albany","GA","El gimnasio","not_available","31707",31.623442,-84.200967
"31701","Albany","GA","AFD Station 6","2521 Meredyth Dr","31707",31.608882,-84.211832
"31701","Albany","GA","Phoebe Putney Healthworks","311 W 3rd Ave","31701",31.59059673542484,-84.15477375477022
"31701","Albany","GA","Country Inn & Suites By Radisson, Albany, GA","2809 Nottingham Way","31707",31.62079672053462,-84.20483797788626
"31701","Albany","GA","Dual Threat Cross Training","1502 US Highway 19 S","31763",31.635866165161133,-84.17750549316406
"31705","Albany","GA","Daniels Fitness Center (Marine Base)","7958-7970 Desha Loop","31705",31.548778755649277,-84.04233257034164
"31705","Albany","GA","MARINE CORPS LOGISTICS BASE GYM","Desha Loop","31705",31.573144451964705,-84.03350929052978
"31707","Albany","GA","Tony's Fitness Group","623 N Westover Blvd","31707",31.611883606581976,-84.22399700044636
"31707","Albany","GA","American Bodyworks","2707 Dawson Rd","31707",31.619828053876528,-84.22234797148053
"31707","Albany","GA","Triples Gym","137 Margate Dr","31721",31.625995635986328,-84.24214172363281
"31709","Americus","GA","SWGA Fitness Center","not_available","31709",32.07188573758429,-84.20719302093991
"31730","Camilla","GA","Pelham Fitness","not_available","31779",31.131168962217842,-84.14596378680702
"31750","Fitzgerald","GA","Irwin County Fitness","121 N Cherry St","31774",31.594961166381836,-83.24932098388672
"31750","Fitzgerald","GA","American Bodyworks Fitzgerald","299 Benjamin H Hill Dr W","31750",31.693429946899414,-83.26412200927734
"31757","Thomasville","GA","Everett-Milton Center (YMCA)","103 S Dawson St","31792",30.83935225331168,-83.97700205824842
"31757","Thomasville","GA","Planet Fitness","14669 US Hwy 19 S","31792",30.849387,-83.946467
"31757","Thomasville","GA","Factor X Fitness","1314 E Jackson St","31792",30.851831818835198,-83.95893048739389
"31757","Thomasville","GA","Crossfit Townie","329 N Madison St","31792",30.839475631713867,-83.98383331298828
"31757","Thomasville","GA","Ymca","Remington street","31792",30.847504883333333,-83.95185885
"31757","Thomasville","GA","Fitness Zone","311 Smith Ave","31792",30.835596,-83.975829
"31757","Thomasville","GA","Anytime Fitness","2734 E. Pinetree Blvd","31792",30.85318,-83.94967
"31763","Leesburg","GA","Lee county YMCA","not_available","31763",31.718697247072654,-84.15538734514304
"31768","Moultrie","GA","Anytime Fitness","803 1st Ave SE","31768",31.17915,-83.77892
"31768","Moultrie","GA","Anytime Fitness","810 W Central Ave","31768",31.18021011352539,-83.79862976074219
"31768","Moultrie","GA","Moultrie YMCA","601 26th Ave SE","31768",31.137894366838882,-83.77780089270644
"31768","Moultrie","GA","Step N Sculpt","not_available","31768",31.138398852286194,-83.77763500710104
"31773","Ochlocknee","GA","Cairo Fitness","not_available","31773",30.97453598554364,-84.15057012864108
"31774","Ocilla","GA","Anytime Fitness","202 E 4th St","31774",31.594433000000002,-83.249031
"31781","Poulan","GA","Curves","606 S Main St","31791",31.52066993713379,-83.83611297607422
"31792","Thomasville","GA","Cairo Fitness Center","not_available","39828",30.8752578577318,-84.20791365831127
"31792","Thomasville","GA","the burn2","Metcalf Rd","not_available",30.812015397610253,-84.00555405114386
"31793","Tifton","GA","Anytime Fitness","189 Virginia Ave S","31794",31.4525,-83.5277
"31794","Tifton","GA","J&J's Weight Room","3rd Street","31794",31.45215266428209,-83.50822552292976
"31794","Tifton","GA","Curves","not_available","31794",31.45549964904785,-83.5101089477539
"31794","Tifton","GA","Agonizo Health Club","146 Love Ave","31794",31.453933715820312,-83.50983428955078
"31804","Cataula","GA","Shea's Gym","not_available","31808",32.60669708251953,-84.91764068603516
"31804","Cataula","GA","Curves","809 US-27","31808",32.617392,-84.906839
"31806","Ellaville","GA","Power Alley","58 Oglethorpe St","31806",32.237872947684785,-84.3075761676058
"31808","Fortson","GA","Max Fitness Elite","3049 Tower Rd","31909",32.560861,-84.940832
"31808","Fortson","GA","Greystone FalIs Gym","1701 Williams Ct","31904",32.57258605957031,-84.96473693847656
"31808","Fortson","GA","Bodies Fitness Studio","not_available","31909",32.570209502199056,-84.94984607752808
"31808","Fortson","GA","Lullwater Gym","8400 Veterans Pkwy","31909",32.56743621826172,-84.92626190185547
"31816","Manchester","GA","Anytime Fitness","1130 Warm Springs Hwy","31816",32.86843490600586,-84.63064575195312
"31820","Midland","GA","Greystone Farms Reserve","7401 Blackmon Road","31909",32.54484192865122,-84.89985789923135
"31820","Midland","GA","Das Gym","6615 Lemans Lane - 6648 Lemans Lane","31909",32.54501724243164,-84.9120864868164
"31820","Midland","GA","geoff's fitness center","not_available","31820",32.556804264632156,-84.82837454240641
"31820","Midland","GA","Whisperwood Gym","6363 Flat Rock Rd","31907",32.53154928239691,-84.87123201227062
"31820","Midland","GA","Lakeside Village Gym","6600 Kitten Lake Dr","31820",32.5421257019043,-84.86759948730469
"31820","Midland","GA","Anytime Fitness","7600 Schomburg Rd","31909",32.55708,-84.90488
"31820","Midland","GA","iLoveKickboxing - Columbus, GA","6516 Kitten Lake Dr., Suite E8","31820",32.5398454,-84.8677464
"31833","West Point","GA","500 Fitness","Hwy 29","not_available",32.79780335038698,-85.18290438451099
"31833","West Point","GA","Workout Anytime","3731 20th Ave","36854",32.833535,-85.176905
"31901","Columbus","GA","Impact Performance RX","1951 Veterans Pkwy","31904",32.482502000000004,-84.98820400000001
"31901","Columbus","GA","Broadway Crossing Gym","10th","31901",32.46524595,-84.99401328333333
"31901","Columbus","GA","Rankin Fitness Center Gym","Rankin","not_available",32.46533933064571,-84.99202540966097
"31901","Columbus","GA","Aflac Fitness Center @ CSC","1932 Wynnton Rd","31999",32.46732711791992,-84.96387481689453
"31901","Columbus","GA","Gym","Columbus, GA","31901",32.46239897287134,-84.99379763975251
"31901","Columbus","GA","Gym","not_available","36867",32.49321952962818,-84.99300547505779
"31901","Columbus","GA","Country club of columbus fitness center","not_available","31904",32.490104997697024,-84.96333695084274
"31901","Columbus","GA","Uncommon Athlete","1205 1st Ave Ste 103","31901",32.46922255734432,-84.9917875846017
"31901","Columbus","GA","Columbus Regional Healthcare Gym","1918-1998 Comer Ave","31901",32.480883704820776,-84.98155846210751
"31901","Columbus","GA","Eagle And Phenix Gym","1201 Front Ave","31901",32.468953427289435,-84.99545302471746
"31901","Columbus","GA","John P. Thayer YMCA","24 14th Street","31901",32.47173118262392,-84.99279006476334
"31901","Columbus","GA","Uptown Crossfit","not_available","31901",32.466984966582764,-84.99313147402384
"31901","Columbus","GA","Columbus Marriott Gym","800 Front Ave","31901",32.462388,-84.99419
"31901","Columbus","GA","Columbus High School Weight Room","not_available","31906",32.480443,-84.963745
"31901","Columbus","GA","Empire at Uptown Gym","1205 1st Ave","31901",32.468719482421875,-84.99202728271484
"31901","Columbus","GA","Insane Fitness","306 13th St","31901",32.47033223365337,-84.98866505522537
"31903","Columbus","GA","Audie Murphy Fitness Center","not_available","31905",32.39331922262003,-84.96665962959813
"31904","Columbus","GA","Pure Barre","1591 Bradley Park Dr Ste F6","31904",32.534999,-84.970886
"31904","Columbus","GA","Curves","1813 Stadium Dr","36867",32.49686813354492,-85.01644897460938
"31904","Columbus","GA","Flournoy Fitness","1100 Brookstone Centre Pkwy","31904",32.53666687011719,-84.97767639160156
"31904","Columbus","GA","Impact Performance RX","506 Manchester Expy Ste D4","31904",32.5066636,-84.9852889
"31904","Columbus","GA","All Fitness","2717 Warm Springs Rd","31904",32.503014159097184,-84.95281509298056
"31904","Columbus","GA","Orangetheory Fitness","5592 Whitesville Rd","31904",32.5227487,-84.9577887
"31904","Columbus","GA","steeple crest gym","5001 River Chase Dr","36867",32.515099676943834,-85.01448154449463
"31904","Columbus","GA","Solcioty Fitness","1627 Bradley Park Dr","31904",32.5327262878418,-84.96765899658203
"31904","Columbus","GA","Muscles Machado","2501 Old Whittlesey Rd","31909",32.54083251953125,-84.95553588867188
"31904","Columbus","GA","Crossfit Sacrifice","Bascon Ct","31909",32.55358046617287,-84.95158833194306
"31904","Columbus","GA","Hilton Gym","11th St, Columbus, GA 31901","31901",32.50885355662063,-85.00554169151971
"31904","Columbus","GA","Snap Fitness","1290 Double Churches Rd","31904",32.55551124734495,-84.97344750264908
"31905","Fort Benning","GA","RSTB Ranger Gym","Sightseeing Road","31905",32.343636714606,-84.97897316569154
"31905","Fort Benning","GA","Muscles Machado","6835 Dixie Rd","31905",32.307899475097656,-84.95109558105469
"31905","Fort Benning","GA","Smith Gym","Eckel St","31905",32.3481931437927,-84.96636496571975
"31905","Fort Benning","GA","Harmony Church Gym","Ivy Rd","31905",32.37059655391904,-84.85559437266639
"31905","Fort Benning","GA","Willowcreek Fitness","3700 Buena Vista Rd #0","31906",32.4600830078125,-84.93136596679688
"31905","Fort Benning","GA","On The Threadmill","not_available","31907",32.461576,-84.915811
"31906","Columbus","GA","CSU Fiery Abyss","Algonquin Dr","31907",32.500706964420424,-84.9427512734296
"31907","Columbus","GA","Planet Fitness","5596 Milgen Rd, Ste 300","31907",32.519789,-84.891144
"31907","Columbus","GA","Max Fitness Express","3885 Miller Rd","31909",32.52548184801765,-84.92882842598219
"31907","Columbus","GA","Max Fitness sweat box","Miller Rd","31907",32.525517447237206,-84.9276438847745
"31907","Columbus","GA","Aflac ITC Gym","25-31 Corporate Ridge Pkwy","31907",32.50035354852198,-84.87687132241355
"31907","Columbus","GA","Body Evolution","4209 Milgen Rd","31907",32.51377487182617,-84.92327117919922
"31909","Columbus","GA","Dempsey's Resolution Fitness","183 Lee Road 2087","36874",32.54093655035695,-84.9561686934259
"31909","Columbus","GA","Gold's Gym on Airport","Airport Thruway","not_available",32.52086073702916,-84.94889575091551
"31909","Columbus","GA","Diverge Fitness","6289 Veterans Pkwy.","31904",32.53778538826478,-84.95352144085447
"39817","Bainbridge","GA","Kristie's Gym","not_available","39819",30.922911796220404,-84.6308486025963
"39817","Bainbridge","GA","Anytime Fitness","1415 Tallahassee Hwy","39819",30.88616,-84.56509
"39823","Blakely","GA","Madison's","not_available","39837",31.17200066544733,-84.73356365584813
"39823","Blakely","GA","The Body Shoppe","13162 Magnolia St","39823",31.378435134887695,-84.92390441894531
"39837","Colquitt","GA","fit and firm","not_available","39845",31.042115000000003,-84.882003
"39840","Cuthbert","GA","Cuthbert Probation Gym Loft Area","not_available","39840",31.76742727230082,-84.79682070110584
"39854","Georgetown","GA","Eufaula Community Center","14 Community Drive","36027",31.917092054447924,-85.13606785658406
