"zip","city","state","name","address","postalCode","lat","lon"
"98001","Auburn","WA","Walmart Supercenter","762 Outlet Collection Way","98001",47.30165895610171,-122.24124948371039
"98001","Auburn","WA","Safeway","101 Auburn Way S","98002",47.306383724922156,-122.22756603757324
"98001","Auburn","WA","Safeway","28810 Military Rd S","98003",47.3425128,-122.3000461
"98001","Auburn","WA","Marlene's Market & Deli","2565 S Gateway Center Pl","98003",47.31693663405468,-122.29915314062417
"98001","Auburn","WA","Valley Harvest","28855 Military Rd S","98003",47.341805,-122.30169525
"98001","Auburn","WA","Grocery Outlet","102 Cross Street Se","98002",47.3040203,-122.2279876
"98001","Auburn","WA","Albertsons","4010 A St","98002",47.2728838,-122.2271082
"98001","Auburn","WA","Safeway","3520 Pacific Ave S","98047",47.27613830566406,-122.2339859008789
"98002","Auburn","WA","Fred Meyer","801 Auburn Way N","98002",47.3155968,-122.2262835
"98002","Auburn","WA","Farmers Market","1007 Auburn Way S","98002",47.29848861694336,-122.22073364257812
"98002","Auburn","WA","Main Street Market","1119 E Main St","98002",47.308523,-122.21411200000001
"98002","Auburn","WA","Mac's Mart","not_available","98092",47.270526441131466,-122.22064754314705
"98002","Auburn","WA","Mercado Latino","1807 Howard Rd","98002",47.292465,-122.212507
"98003","Federal Way","WA","Walmart Supercenter","34520 16th Ave S","98003",47.292351381718746,-122.3105105392719
"98003","Federal Way","WA","Safeway","1207 S 320th St","98003",47.3136405,-122.3179706
"98003","Federal Way","WA","H Mart","31217 Pacific Hwy S","98003",47.321783261191825,-122.31437654561263
"98003","Federal Way","WA","Walmart","1900 S 314th St","98003",47.32132560329672,-122.3093921619174
"98003","Federal Way","WA","WinCo Foods","160 SW Campus Dr.","98023",47.29240367664603,-122.33582450683761
"98003","Federal Way","WA","Trader Joe's","1758 S 320th St","98003",47.316794592691295,-122.31092748900782
"98003","Federal Way","WA","Smart Foodservice Warehouse Stores","1628 S 344th St.","98003",47.293783374915904,-122.31197035787713
"98003","Federal Way","WA","Grocery Outlet","32945 Pacific Hwy S","98003",47.306501378561606,-122.31427108527029
"98003","Federal Way","WA","Yummy Banchan","not_available","98003",47.302562271154045,-122.31337266061658
"98003","Federal Way","WA","Los Compadres Distributors, Inc.","1111 S 344th St #201","98003",47.292916,-122.319455
"98003","Federal Way","WA","Euro Food & Deli","1505 S 344th St","98003",47.293195000000004,-122.31472
"98003","Federal Way","WA","Stop Grocery","33320 Pacific Hwy S Ste 102","98003",47.302215999999994,-122.312331
"98004","Bellevue","WA","Uwajimaya","699 120th Ave NE","98005",47.61589024097899,-122.18236204502584
"98004","Bellevue","WA","Trader Joe's","416 116th Ave NE","98004",47.613516937089166,-122.18510676607066
"98004","Bellevue","WA","Whole Foods Market","888 116th Ave Ne","98004",47.61822602678986,-122.18476749430353
"98004","Bellevue","WA","QFC","10116 NE 8th St","98004",47.6186114,-122.2050367
"98004","Bellevue","WA","H-Mart","100 108th Ave NE","98004",47.61101658273165,-122.19585299491882
"98004","Bellevue","WA","Safeway","300 Bellevue Way NE","98004",47.6130438,-122.2008265
"98004","Bellevue","WA","PCC Community Markets","11615 Northeast 4th Street","98004",47.612614,-122.18489
"98004","Bellevue","WA","QFC","7823 SE 28th St","98040",47.584924767190095,-122.23269604607594
"98004","Bellevue","WA","QFC","2636 Bellevue Way NE","98004",47.63472789310711,-122.20071820545854
"98004","Bellevue","WA","Medina Green Store","not_available","98039",47.61726216169416,-122.21932687148409
"98004","Bellevue","WA","Asia Hiwave City","1075 Bellevue Way NE","98004",47.620208862181705,-122.20288038253786
"98004","Bellevue","WA","Two Sisters Olive Oil","10129 Main St","98004",47.609615999999995,-122.204844
"98005","Bellevue","WA","Safeway","1645 140th Ave NE","98005",47.62561788263012,-122.15468645095824
"98005","Bellevue","WA","Asian Food Center","14509 NE 20th St","98007",47.626712,-122.146566
"98005","Bellevue","WA","QFC","1510 145th Pl SE","98007",47.5967529,-122.148833
"98005","Bellevue","WA","Apna Bazar","2245 148th Ave NE","98007",47.63078276424844,-122.1450142846534
"98005","Bellevue","WA","Smart Foodservice Warehouse Stores","2208 136th Place Ne","98005",47.630027076812354,-122.15632983363807
"98005","Bellevue","WA","Oskoo Persian Market","not_available","not_available",47.62812427194686,-122.15450738554091
"98005","Bellevue","WA","swagath food & groceries","not_available","98007",47.62859572676691,-122.14685191710974
"98005","Bellevue","WA","Pars Market","2331 140th Ave NE","98005",47.630958557128906,-122.15424346923828
"98005","Bellevue","WA","La Espa√±ola","13433 NE 20th St","98005",47.62771987915039,-122.15985870361328
"98006","Bellevue","WA","Safeway","6911 Coal Creek Pkwy SE","98059",47.5396875,-122.167377
"98006","Bellevue","WA","Safeway","15100 SE 38th St","98006",47.5764373,-122.1380854
"98006","Bellevue","WA","Walmart","12620 Se 41st Pl","98006",47.57292188987638,-122.17207523630528
"98006","Bellevue","WA","QFC","6940 Coal Creek Pkwy SE","98059",47.5390791,-122.1648307
"98006","Bellevue","WA","QFC","3550 Factoria Blvd SE","98006",47.5788046,-122.1675351
"98006","Bellevue","WA","Jing Jing Asian Market","12402 SE 38th St","98006",47.57766681693128,-122.1729699145866
"98006","Bellevue","WA","S-Mart","5629 119th Ave SE","98006",47.552040100097656,-122.1796875
"98006","Bellevue","WA","Southgate Oriental Grocery","3900 Factoria Blvd SE","98006",47.57529527239637,-122.16864948572007
"98007","Bellevue","WA","Fred Meyer","2041 148th Ave NE","98007",47.6293555,-122.1439723
"98007","Bellevue","WA","Trader Joe's","15563 NE 24th St","98007",47.630880096157824,-122.13347482632457
"98007","Bellevue","WA","Amazon Go Grocery","2010 148th Ave N.E Ste 160","98052",47.628191,-122.142888
"98007","Bellevue","WA","Safeway","15000 NE 24th St","98052",47.6325722,-122.1402277
"98007","Bellevue","WA","Overlake Fashion Plaza","2150 148th Ave NE","98052",47.628917,-122.14141000000001
"98007","Bellevue","WA","QFC","15600 NE 8th St Ste K1","98008",47.620119,-122.1308556
"98007","Bellevue","WA","Walmart Neighborhood Market","15063 Main St","98007",47.608667683969664,-122.13978920665564
"98007","Bellevue","WA","Mayuri Bakery and Video","2560 152nd Ave NE","98052",47.63309227291177,-122.13724666210473
"98007","Bellevue","WA","Bartell Drugs","653 156th Ave NE","98007",47.616651395672285,-122.13330370453471
"98007","Bellevue","WA","India Supermarket","14625 NE 20th St","98007",47.627471071172884,-122.1447522803107
"98007","Bellevue","WA","Grocery Outlet","15625 Ne 8th Street","98008",47.616518,-122.1313498
"98007","Bellevue","WA","International Deli","15015 Main St","98007",47.60864439207115,-122.14179556785842
"98007","Bellevue","WA","International Food Bazaar - Bellevue","1331 156th Ave NE","98007",47.622096,-122.13292
"98008","Bellevue","WA","European Grocery","not_available","98008",47.617609,-122.127478
"98008","Bellevue","WA","A.G.H. Produce","900 160th Ave NE #4","98008",47.626041412353516,-122.12601470947266
"98011","Bothell","WA","QFC","14130 Juanita Dr NE","98034",47.728841,-122.2433232
"98011","Bothell","WA","QFC","18921 Bothell Way NE","98011",47.7650139,-122.2114484
"98011","Bothell","WA","Grocery Outlet","7800 Ne Bothell Way Suite 140","98028",47.7571525,-122.2364052
"98011","Bothell","WA","Safeway","14444 124th Ave NE","98034",47.7325177,-122.1740908
"98011","Bothell","WA","Smart Foodservice Warehouse Stores","18438 120th Ave","98011",47.76121772092326,-122.17558258541368
"98011","Bothell","WA","Super Lucky Food Stores","19105 Bothell Way NE","98011",47.767002000000005,-122.210903
"98011","Bothell","WA","Mucho Mas Tienda","not_available","98034",47.730174,-122.174139
"98011","Bothell","WA","Bothell Deli & Grocery","10303 Main St","98011",47.76021836,-122.2019362449646
"98011","Bothell","WA","Safeway","18221 Bothell Way NE","98011",47.76045608520508,-122.20858764648438
"98011","Bothell","WA","La Mexicana","17208 Bothell Way NE","98011",47.752542,-122.211409
"98012","Bothell","WA","Fred Meyer","12906 Bothell Everett Hwy","98208",47.8798008,-122.2089931
"98012","Bothell","WA","Safeway","20711 Bothell Everett Hwy","98012",47.8101643,-122.2055137
"98012","Bothell","WA","Central Market","15605 Main St","98012",47.856857033333334,-122.219743
"98012","Bothell","WA","Mayuri Foods and Video - Bothell","20611 Bothell Everett Hwy Ste A","98012",47.810838072792876,-122.20669984817505
"98012","Bothell","WA","Safeway","5802 134th Pl SE","98208",47.8754779,-122.1540554
"98012","Bothell","WA","Safeway [Mill Creek]","16304 Bothell Everett Hwy","98012",47.85062026977539,-122.22003173828125
"98012","Bothell","WA","QFC","926 164th St SE","98012",47.848579997980664,-122.21940279006958
"98012","Bothell","WA","Sprouts Farmers Market","13314 Bothell Everett Hwy","98012",47.8770364,-122.2142715
"98012","Bothell","WA","Albertsons","520 128th St SW","98204",47.8808041,-122.2404267
"98012","Bothell","WA","Apna Bazar","not_available","98012",47.810033680625814,-122.20865671997927
"98012","Bothell","WA","Albertsons","3322 132nd St SE","98012",47.87662165678034,-122.18711169096423
"98012","Bothell","WA","Granola's Natural Market","15506 Main St #N101","98012",47.85729497859687,-122.22061034610647
"98012","Bothell","WA","Smart Eats","15224 Main St #100","98012",47.859415999999996,-122.22068200000001
"98012","Bothell","WA","International Market","2020 Maltby Rd #8","98021",47.808811999999996,-122.20577
"98012","Bothell","WA","Stogies n Hops","526 164th St SW","98087",47.84934113561057,-122.24084627220768
"98014","Carnation","WA","IGA Carnation Market","31722 E Eugene St.","98014",47.64693398857046,-121.91608247491335
"98014","Carnation","WA","Stillwater Store","9301 Carnation Duvall Rd NE","98014",47.68252911273546,-121.9196866576243
"98014","Carnation","WA","QFC","31700 E Eugene St","98014",47.647071838378906,-121.91605377197266
"98019","Duvall","WA","QFC","23475 NE Novelty Hill Rd","98053",47.69854866830349,-122.02593434136361
"98019","Duvall","WA","Safeway","14020 Main St NE","98019",47.7265344,-121.9846624
"98019","Duvall","WA","Family Grocer","15215 brown ave ne","not_available",47.738404259389625,-121.98636747185923
"98019","Duvall","WA","Taqueria La Morelos Original Mexican Food & Grocery Store","15934 Main St NE #103","98019",47.743485,-121.985399
"98020","Edmonds","WA","QFC","22828 100th Ave W","98020",47.7913746,-122.3674061
"98020","Edmonds","WA","PCC Community Markets","9803 Edmonds Way","98020",47.7914998,-122.3660728
"98020","Edmonds","WA","Edmonds IGA Market","550 5th Ave S","98020",47.80640284083743,-122.37843339151496
"98020","Edmonds","WA","Albertsons","not_available","98346",47.80933546406984,-122.3881140397821
"98021","Bothell","WA","Fred Meyer","21045 Bothell Everett Hwy","98021",47.80754333,-122.20538333
"98021","Bothell","WA","QFC","22833 Bothell Everett Hwy","98021",47.7897669,-122.216312
"98021","Bothell","WA","Safeway","24040 Bothell Everett Hwy","98021",47.7788214,-122.2207651
"98021","Bothell","WA","PCC Natural Markets","22621 Bothell Everett Hwy","98021",47.7926586663164,-122.21449590679484
"98022","Enumclaw","WA","Safeway","152 Roosevelt Ave","98022",47.1982588,-121.9800906
"98022","Enumclaw","WA","QFC","1009 Monroe Ave","98022",47.199791353115536,-121.98960453271866
"98022","Enumclaw","WA","Brookside Grocery And Deli","32201 Kent Black Diamond Rd SE","98092",47.31253102627678,-122.09569828116575
"98022","Enumclaw","WA","Grocery Outlet","960 Roosevelt Ave","98022",47.198549,-121.99068899999999
"98022","Enumclaw","WA","Country Corner Grocery","43529 228th Ave SE","98022",47.21030230321876,-122.03770850291625
"98022","Enumclaw","WA","Rose's IGA","not_available","98321",47.159210205078125,-122.0374526977539
"98022","Enumclaw","WA","Grocery Outlet","960 Roosevelt Avenue","98022",47.198718,-121.9905822
"98023","Federal Way","WA","Fred Meyer","33702 21st Ave SW","98023",47.2979736,-122.3589487
"98023","Federal Way","WA","QFC","4101 49th Ave NE","98422",47.2938809,-122.381601
"98023","Federal Way","WA","Safeway","2109 SW 336th St","98023",47.2996937,-122.3618854
"98023","Federal Way","WA","HKM Federal Way","not_available","98023",47.282528,-122.352355
"98023","Federal Way","WA","Howards Corner","not_available","98422",47.28669,-122.381735
"98023","Federal Way","WA","Northshore Quality Produce, Meats & Seafood","35522 21st Ave SW","98003",47.28295094291864,-122.36076786820264
"98024","Fall City","WA","Farmhouse Market","33521 SE Redmond Fall City Rd","98024",47.568079719656076,-121.89189742229244
"98026","Edmonds","WA","WinCo Foods","21900 Highway 99","98026",47.80080468095284,-122.33316115791294
"98026","Edmonds","WA","Fred Meyer","4615 196th St SW Ste 175","98036",47.8219569,-122.2951643
"98026","Edmonds","WA","Trader Joe's","19715 Highway 99","98036",47.82162411762565,-122.31656936496633
"98026","Edmonds","WA","Safeway","23632 Highway 99","98026",47.7845357,-122.3439971
"98026","Edmonds","WA","99 Ranch Market","22511 Highway 99","98026",47.794914950266104,-122.33386808428678
"98026","Edmonds","WA","Walmart Neighborhood Market","17222 Highway 99","98037",47.842044771464636,-122.29931515539974
"98026","Edmonds","WA","Safeway","19500 Highway 99 Ste 110","98036",47.8221315,-122.316576
"98026","Edmonds","WA","QFC","7500 196th St SW Ste B","98036",47.8205094,-122.3346627
"98026","Edmonds","WA","G Mart","17424 Washington 99","98037",47.840915082259784,-122.29998889774487
"98026","Edmonds","WA","Sprouts Farmers Market","19630 Highway 99","98036",47.8201151,-122.3182873
"98026","Edmonds","WA","Grocery Outlet","19800 44th Avenue W","98036",47.8202938,-122.2949597
"98026","Edmonds","WA","Boo Han Oriental Market","22618 Highway 99","98026",47.79342270123688,-122.33768935358194
"98026","Edmonds","WA","Smart Foodservice Warehouse Stores","6412 204th St. Sw","98036",47.81372201544312,-122.32006859976936
"98026","Edmonds","WA","Day & Nite Foods","16715 52nd Ave W","98037",47.84747794682563,-122.30308151512679
"98026","Edmonds","WA","Star Fruits and Vegetables","19926 Highway 99 Ste C","98036",47.817725054180016,-122.31923961085798
"98026","Edmonds","WA","Waroeng Jajanan","22315 State Hig. 99","98026",47.79671461446096,-122.33315196215776
"98026","Edmonds","WA","Balkan Market","18904 Highway 99 Ste M","98036",47.827301,-122.3107
"98026","Edmonds","WA","JD's Market","4419 200th St SW","98036",47.81777465712087,-122.29375571047709
"98026","Edmonds","WA","Byblos Mediterranean Halal Arabi","20307 Highway 99 #A","98036",47.814346,-122.32021999999999
"98026","Edmonds","WA","5 Corners Grocery & Deli","8406 Bowdoin Way","98026",47.8064378457877,-122.347157
"98026","Edmonds","WA","Africa International & Grocery Store - Halal Food","18904 Washington 99","98036",47.82735174157898,-122.31067836284636
"98026","Edmonds","WA","56th Ave Market","23602 56th Ave W","98043",47.78455337365669,-122.3088323638491
"98026","Edmonds","WA","Mediterranean Foodmart","not_available","98026",47.80009809,-122.33892915
"98026","Edmonds","WA","QFC","17525 Highway 99 Ste F","98037",47.8395801,-122.2970705
"98026","Edmonds","WA","Safeway","6205 222nd St SW","98043",47.79851150512695,-122.31695556640625
"98026","Edmonds","WA","Manna Mills Natural Foods","21706 66th Ave W","98043",47.8024431690212,-122.31859304496481
"98027","Issaquah","WA","QFC","1540 NW Gilman Blvd","98027",47.5466512,-122.060476
"98027","Issaquah","WA","Safeway","735 NW Gilman Blvd","98027",47.5415923,-122.0478441
"98027","Issaquah","WA","Fred Meyer","6100 E Lake Sammamish Pkwy SE","98029",47.548349,-122.0389223
"98027","Issaquah","WA","Safeway","1451 Highlands Dr NE","98029",47.5414511,-122.0192367
"98027","Issaquah","WA","QFC","2902 228th Ave SE","98075",47.58337268853761,-122.03291955655004
"98027","Issaquah","WA","Trader Joe's","975 NW Gilman Blvd","98027",47.54360575399787,-122.05172940910929
"98027","Issaquah","WA","PCC Community Markets","1810 12th Avenue Northwest","98027",47.55145262,-122.05629544
"98027","Issaquah","WA","QFC","4570 Klahanie Dr SE","98029",47.565668000507216,-122.00336158275604
"98027","Issaquah","WA","Tiger Mountain Country Store","14331 Issaquah Hobart Rd SE","98027",47.473372905038055,-122.02443657166616
"98027","Issaquah","WA","Klahanie Shopping Center","4510-4592 Klahanie Dr SE","98029",47.564726892693386,-122.00350105762482
"98027","Issaquah","WA","Champion Outlet","not_available","98027",47.54402160644531,-122.05558776855469
"98028","Kenmore","WA","Safeway","6850 NE Bothell Way","98028",47.7589577,-122.2476204
"98028","Kenmore","WA","Rocky's Corner","15012 Juanita Dr NE","98028",47.73362714615466,-122.25695833198826
"98028","Kenmore","WA","Uplake Grocery & Deli","6016 NE Bothell Way","98028",47.75880862460449,-122.26253046688542
"98028","Kenmore","WA","Manhattan Express Grocery","16928 Juanita Dr NE","98028",47.75150466320506,-122.24974533471014
"98030","Kent","WA","Trader Joe's","12966 SE Kent-Kangley Rd","98030",47.35992840254498,-122.16603773469991
"98030","Kent","WA","Safeway","13101 SE Kent Kangley Rd","98030",47.3569681,-122.1664717
"98030","Kent","WA","Fred Meyer","10201 SE 240th St","98031",47.3863246,-122.2054997
"98030","Kent","WA","La Huerta Int'l Market","405 E Smith St","98030",47.38363,-122.229228
"98030","Kent","WA","Hong Kong Market","320 E Meeker St #102","98030",47.38138181827582,-122.23032579695378
"98030","Kent","WA","Nature's Market","26011 104th Ave SE","98030",47.368573,-122.2025
"98030","Kent","WA","Sunny Supermarket","25414 104th Ave SE","98030",47.373578873148475,-122.20088481903076
"98030","Kent","WA","Apna Bazar","10120 SE 260th St","98030",47.369265,-122.20504
"98030","Kent","WA","albertson","not_available","98002",47.38694517620403,-122.19542150070548
"98030","Kent","WA","Soltero‚Äôs Mexican Market","24202 104th Ave SE","98031",47.384876,-122.201136
"98030","Kent","WA","Saar's Super Saver Foods","not_available","98030",47.369537,-122.20074
"98031","Kent","WA","WinCo Foods","21100 91st Pl S","98031",47.41449201006805,-122.21889774655166
"98031","Kent","WA","QFC","13304 SE 240th St","98042",47.3873129,-122.163366
"98031","Kent","WA","Grocery Outlet","23910 104th Avenue Se","98031",47.3874248,-122.2006432
"98031","Kent","WA","Safeway","20830 108th Ave SE","98031",47.4152078,-122.1955206
"98031","Kent","WA","Smart Foodservice Warehouse Stores","21504 84th Ave. South","98032",47.409259561213,-122.22770997770117
"98031","Kent","WA","Grocery Outlet Bargain Market","23910 104Th Avenue Se","98031",47.387428283691406,-122.20063018798828
"98031","Kent","WA","Chandler's Bay Market & Deli","1018 Central Ave N","98032",47.39242281491939,-122.2292947769165
"98031","Kent","WA","Punjabi Market","not_available","98031",47.413698157013265,-122.19660977722414
"98031","Kent","WA","Benson Mart","20712 108th Ave SE","98031",47.41592190942397,-122.19562285722714
"98031","Kent","WA","Centra Foods","8629 S 208th St","98031",47.414519,-122.224585
"98031","Kent","WA","Pacific Market Halal","23643 104th Ave SE","98031",47.38926,-122.20318799999998
"98032","Kent","WA","Fred Meyer","25250 Pacific Hwy S","98032",47.3743524,-122.2991703
"98032","Kent","WA","Safeway","21401 International Blvd","98198",47.41001337178921,-122.29947665337022
"98032","Kent","WA","Safeway","210 Washington Ave S","98032",47.3805303,-122.2464731
"98032","Kent","WA","99 Ranch Market","18230 E Valley Hwy #100","98032",47.43869040100358,-122.22050648511198
"98032","Kent","WA","Altha's Louisiana Cajun Store & Deli","201 E. Meeker Street","98032",47.3818051,-122.2321657
"98032","Kent","WA","Mart Produce","809 W Valley Hwy","98032",47.388859000000004,-122.249559
"98032","Kent","WA","International Food Bazaar","18439 E Valley Hwy","98032",47.436747,-122.225799
"98032","Kent","WA","Grocery Outlet Bargain Market","26104 Pacific Hwy S","98032",47.3673508,-122.3025739
"98032","Kent","WA","Del*Rio Supermarkets","24811 pacific hwy s","98032",47.37875,-122.299059
"98033","Kirkland","WA","QFC","211 Parkplace Ctr","98033",47.6768892,-122.2001419
"98033","Kirkland","WA","Metropolitan Market","10611 NE 68th St","98033",47.666023282232125,-122.19726733488488
"98033","Kirkland","WA","Safeway","12519 NE 85th St","98033",47.6789146,-122.1738073
"98033","Kirkland","WA","PCC Community Markets","10718 NE 68th St","98033",47.6670402,-122.1972461
"98033","Kirkland","WA","Super 24","6402 Lake Washington Blvd NE","98033",47.66383618920316,-122.2070095597571
"98033","Kirkland","WA","Grocery Outlet","6625 132nd Avenue NE","98033",47.6657358,-122.1658524
"98033","Kirkland","WA","European Deli and Produce","8530 122nd Ave NE #B2","98033",47.680246000000004,-122.17748600000002
"98033","Kirkland","WA","Eat Local","205 Park Ln","98033",47.67625045776367,-122.20475769042969
"98033","Kirkland","WA","Relief Factor","11031 117Th PL NE","98033",47.6990493,-122.1848625
"98033","Kirkland","WA","Bargain Beverages","12110 NE 85th St","98033",47.68067,-122.179429
"98033","Kirkland","WA","QFC Grocery Pickup and Delivery","457 Central Way","98033",47.678016662597656,-122.19866943359375
"98033","Kirkland","WA","The Market on Central Way","255 Central Way","98033",47.677090758443704,-122.20390560904728
"98034","Kirkland","WA","Fred Meyer","12221 120th Ave NE","98034",47.7077946,-122.1841502
"98034","Kirkland","WA","Whole Foods Market","12501 120th Ave Ne","98034",47.71163673124393,-122.17980830375538
"98034","Kirkland","WA","Safeway","10020 NE 137th St","98034",47.7232709,-122.2062858
"98034","Kirkland","WA","Trader Joe's","12520 Totem Lake Blvd NE","98034",47.71177,-122.18181
"98034","Kirkland","WA","QFC","11224 NE 124th St","98034",47.7123531,-122.191182
"98034","Kirkland","WA","Arbat Natural Foods","12053 124th Ave NE","98034",47.706395,-122.17720600000001
"98034","Kirkland","WA","African Spice Foods","12061 124th Ave NE","98034",47.706395,-122.17720600000001
"98034","Kirkland","WA","gFoodNow","12095 124th Ave NE","98034",47.707204,-122.17661299999999
"98036","Lynnwood","WA","H-Mart","3301 184th St SW","98037",47.832839536428445,-122.27705464211438
"98036","Lynnwood","WA","Whole Foods Market","2800 Sw 196th St.","98036",47.8201124390398,-122.27203676940285
"98036","Lynnwood","WA","QFC","22803 44th Ave W","98043",47.7907169,-122.2907406
"98036","Lynnwood","WA","Albertsons","4301 212th St SW","98043",47.8076542,-122.2904178
"98036","Lynnwood","WA","Edwin's Store","18312 36th Ave W D2","98037",47.8325586,-122.2819177
"98036","Lynnwood","WA","Brier Grocery","23607 Brier Rd","98036",47.784210205078125,-122.27363586425781
"98036","Lynnwood","WA","Mera India","not_available","98036",47.821595,-122.292078
"98037","Lynnwood","WA","Fred Meyer","2902 164th St SW","98087",47.8476233,-122.2726756
"98037","Lynnwood","WA","Walmart","1400 164th St Sw","98087",47.84842895731361,-122.25306565478904
"98037","Lynnwood","WA","Manor Market","3609 164th St SW","98087",47.85183407294958,-122.28419927146237
"98038","Maple Valley","WA","QFC","22131 SE 237th St","98038",47.3882249,-122.0450903
"98038","Maple Valley","WA","Grocery Outlet","26525 Maple Valley Blk Diamond","98038",47.3636738,-122.0234029
"98038","Maple Valley","WA","Fred Meyer","26520 Maple Valley Black Diamond Rd SE","98038",47.3639475,-122.0191353
"98038","Maple Valley","WA","Safeway","26916 Maple Valley Rd","98038",47.3602762096313,-122.0183189288582
"98040","Mercer Island","WA","QFC","8421 SE 68th St","98040",47.5413675,-122.2256821
"98040","Mercer Island","WA","Safeway","9262 Rainier Ave S","98118",47.520728390715355,-122.26808658605097
"98040","Mercer Island","WA","Metropolitan Market","2755 77th Ave SE","98040",47.56315612792969,-122.22649383544922
"98040","Mercer Island","WA","Saar's Rainier Beach Market Place","9000 Rainier Ave S","98118",47.522925825043636,-122.26811302541442
"98042","Kent","WA","Fred Meyer","16735 SE 272nd St","98042",47.3564464,-122.1192494
"98042","Kent","WA","Walmart","17432 Se 270th Pl","98042",47.36084519998767,-122.10820678488525
"98042","Kent","WA","Safeway","17023 SE 272nd","98042",47.3565823404298,-122.1149186865295
"98042","Kent","WA","Foss' Grocery","16255 SE 256th St","98042",47.37222351298567,-122.12335747424626
"98045","North Bend","WA","QFC","460 E North Bend Way","98045",47.493427654197134,-121.78056027489237
"98045","North Bend","WA","Safeway","460 SW Mt Si Blvd","98045",47.4872754,-121.7913939
"98045","North Bend","WA","Snoqualmie Market","8030 Railroad Ave SE","98065",47.52849629612978,-121.82483386255478
"98052","Redmond","WA","Whole Foods Market","17991 Ne Redmond Way","98052",47.666371015013844,-122.10174816128254
"98052","Redmond","WA","QFC","8867 161st Ave NE","98052",47.68081794176011,-122.12643872883615
"98052","Redmond","WA","Fred Meyer","17667 NE 76th St","98052",47.670682,-122.104679
"98052","Redmond","WA","Trader Joe's","15932 Redmond Way","98052",47.67574509089972,-122.12789503733318
"98052","Redmond","WA","PCC Community Markets","11435 Avondale Rd NE","98052",47.7015687,-122.0933129
"98052","Redmond","WA","Safeway","17246 Redmond Way","98052",47.6719534,-122.1099573
"98052","Redmond","WA","QFC","15800 Redmond Way","98052",47.6758128822325,-122.12889166192326
"98052","Redmond","WA","Shalimar Grocery","16541 Redmond Way","98052",47.67337621420372,-122.12009278849342
"98052","Redmond","WA","Zeggys","16625 Redmond Way, STe M #172","98052",47.67257255525727,-122.11820304393768
"98052","Redmond","WA","La Superior","17024 Avondale Way","98052",47.673054,-122.11265
"98053","Redmond","WA","Metropolitan Market Sammamish","301 228th Ave SE","98074",47.60579463,-122.03594125
"98053","Redmond","WA","Safeway","630 228th Ave NE","98074",47.6152195,-122.0334793
"98053","Redmond","WA","Trader Joe's","490 228th Ave NE","98074",47.61380082297423,-122.03386748756031
"98053","Redmond","WA","Albertsons","3925 236th Ave NE","98053",47.6451729,-122.0268315
"98053","Redmond","WA","Apna Bazar","516 228th Ave NE","98074",47.614162601286544,-122.03388926172484
"98053","Redmond","WA","M & M's Quick Stop Grocery","24821 NE Redmond Fall City Rd","98053",47.63671112060547,-122.00799560546875
"98053","Redmond","WA","Sammamish Highlands","430-710 228th Ave NE","98074",47.6146983,-122.034173
"98055","Renton","WA","Fred Meyer","17801 108th Ave SE","98055",47.4430607,-122.1992216
"98055","Renton","WA","Fred Meyer","365 Renton Center Way SW","98057",47.47734738046991,-122.21904036444727
"98055","Renton","WA","Uwajimaya","501 S Grady Way","98057",47.46990967362973,-122.21240960735423
"98055","Renton","WA","Circle Food Store","2022 S Puget Dr","98055",47.462601936053524,-122.20349790616051
"98055","Renton","WA","Walmart Grocery Pickup","743 Rainier Ave S","98057",47.4724725,-122.2175725
"98056","Renton","WA","Safeway","200 S 3rd St","98057",47.4802287,-122.2143743
"98056","Renton","WA","Safeway","2725 NE Sunset Blvd","98056",47.4990134,-122.1802101
"98056","Renton","WA","Viet-Wah Asian Food Market","2820 NE Sunset Blvd","98056",47.50139791157582,-122.17828043887229
"98056","Renton","WA","Saar's Marketplace","3208 NE Sunset Blvd","98056",47.5049775029568,-122.17693336705997
"98056","Renton","WA","Grocery Outlet","2809 Ne Sunset Boulevard","98056",47.500422,-122.1795774
"98056","Renton","WA","Jalapenos","not_available","98056",47.4879996161001,-122.16615816091812
"98056","Renton","WA","Minklers Green Earth","125 Airport Way","98057",47.484737,-122.214623
"98056","Renton","WA","Oberto's factory store","Rainer Ave","98178",47.505647721389515,-122.16680967215152
"98056","Renton","WA","Why? Grocery","11449 Rainier Ave S","98178",47.499752044677734,-122.22127532958984
"98057","Renton","WA","Walmart Supercenter","743 Rainier Avenue South","98057",47.472053744125084,-122.22051338266492
"98057","Renton","WA","Smart Foodservice Warehouse Stores","230 Andover Park East","98188",47.45686670086034,-122.24944353727311
"98057","Renton","WA","Grocery Outlet","11656 68th Avenue S","98178",47.4964345,-122.2482847
"98057","Renton","WA","D K Market","720 Lind Ave SW","98057",47.473167419433594,-122.22257232666016
"98057","Renton","WA","Seafood City Pharmacy","Southcenter Mall","98188",47.459099,-122.257749
"98058","Renton","WA","Safeway","17230 140th Ave SE","98058",47.44742836573113,-122.15245218607379
"98058","Renton","WA","Albertsons","14215 SE Petrovitsky Rd","98058",47.44449434416061,-122.15184693694145
"98059","Renton","WA","QFC","4800 NE 4th St","98059",47.489883712103165,-122.15494394302368
"98059","Renton","WA","Safeway","4300 NE 4th St","98059",47.4897634,-122.1611578
"98059","Renton","WA","Albertsons","4621 NE Sunset Blvd","98059",47.503953,-122.1570019
"98065","Snoqualmie","WA","Safeway","34828 SE Douglas St","98065",47.52759032054692,-121.87370896339417
"98070","Vashon","WA","Vashon Thriftway","9740 SW Bank Rd","98070",47.44818,-122.45947
"98070","Vashon","WA","Harbor Mercantile","Vashon hwy","98070",47.389082917990336,-122.46608019041582
"98070","Vashon","WA","Vashon Market IGA","17639 100th Ave SW","not_available",47.44655990600586,-122.4622802734375
"98072","Woodinville","WA","Haggen Northwest Fresh","17641 Garden Way NE","98072",47.75575231486169,-122.15735123322702
"98072","Woodinville","WA","Safeway","19150 NE Woodinville Duvall Rd","98077",47.7561783,-122.0805101
"98072","Woodinville","WA","Maltby Food Bank","not_available","98296",47.806137,-122.116811
"98087","Lynnwood","WA","Safeway","12811 Beverly Park Rd","98087",47.8811291,-122.2808973
"98087","Lynnwood","WA","Safeway","14826 Highway 99","98087",47.8636836,-122.2840315
"98087","Lynnwood","WA","Dibbas Cookware Houseware (Halal, Halal Food)","14920 Highway 99","98087",47.86282730102539,-122.28466796875
"98087","Lynnwood","WA","Savanxay Asian Market","12717 4th Ave W","98204",47.88273,-122.238106
"98087","Lynnwood","WA","k&p market","12720 4th Ave W Ste G","98204",47.882469177246094,-122.23944854736328
"98092","Auburn","WA","Haggen","1406 Lake Tapps Pkwy E","98092",47.24307578293041,-122.20981934917359
"98092","Auburn","WA","Qfc","not_available","98390",47.250634548299544,-122.20455342868844
"98101","Seattle","WA","Whole Foods Market","2210 Westlake Ave","98121",47.61814932884114,-122.3383602862596
"98101","Seattle","WA","Amazon Go Grocery","610 E Pike St","98122",47.614239,-122.324251
"98101","Seattle","WA","H-Mart","1601 2nd Ave","98101",47.610232,-122.340227
"98101","Seattle","WA","Paris Grocery","1418 Western Ave","98101",47.60781146115116,-122.34062608026379
"98101","Seattle","WA","Sosio's Fruit and Produce","1527 Pike Pl","98101",47.60918255386754,-122.34144363406095
"98101","Seattle","WA","Belltown Market","2424 1st Ave","98121",47.61463907354598,-122.34848992634385
"98101","Seattle","WA","Alfi's Market","1830 Minor Ave","98101",47.617709446486295,-122.33149541533953
"98101","Seattle","WA","Pike Place Creamery","1531 Western Ave","98101",47.60917785187735,-122.34079324092528
"98101","Seattle","WA","Bite Square","not_available","98121",47.612759,-122.34169
"98101","Seattle","WA","Dan's Belltown Grocery","2221 3rd Ave","98121",47.614413301547785,-122.34432887956238
"98101","Seattle","WA","Plaza Select Foods Grocery","1024 Madison St","98104",47.60921083387754,-122.32561433098229
"98101","Seattle","WA","Abyssinia Market","2225 4th Ave #C","98121",47.61666793275509,-122.34520807865417
"98101","Seattle","WA","Tower 12 Cafe & Deli","2001 2nd Ave","98121",47.611748,-122.342386
"98101","Seattle","WA","Pike Grocery","1101-A Pike St","98101",47.61336464736584,-122.32901191432931
"98101","Seattle","WA","Market Fresh Fruit","1916 Pike Place Suite #12-350","98101",47.6101038,-122.3424979
"98101","Seattle","WA","Rotary Grocery","1503 Pike Pl","98101",47.608619453980275,-122.34006847268566
"98101","Seattle","WA","Essential Market","1305 4th Ave","98101",47.6081275045776,-122.3350979885558
"98101","Seattle","WA","The Mexican Grocery","1914 Pike Pl","98101",47.61005490401731,-122.34271264143982
"98101","Seattle","WA","Market Grocery & Deli","2003 1st Ave","98121",47.61122388934544,-122.342679966518
"98101","Seattle","WA","Community Grocery And Deli","415 Seneca St","98101",47.607920169503615,-122.33302324388006
"98101","Seattle","WA","City Foods","2522 5th Ave","98121",47.61664486543555,-122.34522606060396
"98101","Seattle","WA","Market Fresh","509 Olive Way","98101",47.614381071224365,-122.33457215976257
"98101","Seattle","WA","Clay's Market","815 Pike St","98101",47.612248662315125,-122.33211006224674
"98101","Seattle","WA","howell st grocery","not_available","98122",47.617953,-122.324352
"98101","Seattle","WA","Wally's Grocery","2201 2nd ave","98121",47.61368751521901,-122.34479947498633
"98101","Seattle","WA","Oriental Mart","1506 Pike Pl #509","98101",47.60891466943159,-122.34051646497167
"98101","Seattle","WA","A'Jhang Market","2237 2nd Ave","98121",47.61396082078444,-122.34554126811038
"98101","Seattle","WA","The Souk Mid-Eastern Food & Gifts","1916 Pike Pl","98101",47.610264,-122.342666
"98102","Seattle","WA","QFC","417 Broadway E","98102",47.622597,-122.321378
"98102","Seattle","WA","Safeway","1410 E John St","98112",47.6204365,-122.3130969
"98102","Seattle","WA","Hillcrest Supermarket & Deli","110 Summit Ave E","98102",47.61882052101334,-122.32502404512495
"98102","Seattle","WA","QFC","416 15th Ave E","98112",47.622723620112765,-122.31226891279215
"98102","Seattle","WA","Pete's Supermarket & Wine Shop","58 E Lynn St","98102",47.63984148993716,-122.3290809348918
"98102","Seattle","WA","King of the Hill Market","1705 E Olive Way","98102",47.61984276133224,-122.32315932616817
"98102","Seattle","WA","Summit Foods","530 Summit Ave E","98102",47.62404235198539,-122.32517594918309
"98102","Seattle","WA","Kai Market","400 Fairview Ave N","98109",47.622882490156535,-122.33422852441008
"98103","Seattle","WA","Fred Meyer","100 NW 85th St","98117",47.6915769,-122.3589797
"98103","Seattle","WA","QFC","1801 N 45th St","98103",47.6616612,-122.3362129
"98103","Seattle","WA","PCC Community Markets","600 N 34th St","98103",47.64984,-122.3509
"98103","Seattle","WA","Ken's Market","7231 Greenwood Ave N","98103",47.68152992830302,-122.35547928063635
"98103","Seattle","WA","Marketime Foods","4416 Fremont Ave N","98103",47.66053430714124,-122.3497811997662
"98103","Seattle","WA","PCC Community Markets","7504 Aurora Ave N","98103",47.68341892265674,-122.34417915344238
"98103","Seattle","WA","HT Oaktree Market","10008 Aurora Ave N","98133",47.70262532185453,-122.3432674513362
"98103","Seattle","WA","Zuma Grocery & Deli","129 NW 85th St","98117",47.690433,-122.3593
"98103","Seattle","WA","7-Eleven","4612 Stone Way N","98103",47.66272894231703,-122.34135581820297
"98104","Seattle","WA","Uwajimaya","600 5th Ave S","98104",47.59685532,-122.32686411
"98104","Seattle","WA","Whole Foods Market","1001 Broadway","98122",47.611234079246906,-122.32100727845601
"98104","Seattle","WA","Viet-Wah","1032 S Jackson St","98104",47.59947311726207,-122.31865810016942
"98104","Seattle","WA","Dong Hing Market","1001 S Jackson St","98104",47.59894252651016,-122.31940420495924
"98104","Seattle","WA","Hau Hau Market","412 12th Ave","not_available",47.59849167805258,-122.31695868853834
"98104","Seattle","WA","LV's Produce","913 S Jackson St","98104",47.59915193019729,-122.32031522851067
"98104","Seattle","WA","Acme Farms","1024 S King St","98104",47.598625,-122.31871799999999
"98104","Seattle","WA","Golden Hong Market","not_available","98104",47.597719,-122.323829
"98104","Seattle","WA","New An Dong","601 S King St","98104",47.598172,-122.32598300000001
"98104","Seattle","WA","Union Station Market","501 S Jackson St","98104",47.59904467009318,-122.32752799987793
"98104","Seattle","WA","Swiftly","83 Columbia St","98104",47.602793,-122.335709
"98105","Seattle","WA","QFC","2746 NE 45th St","98105",47.6619028,-122.2968341
"98105","Seattle","WA","Trader Joe's","4555 Roosevelt Way NE","98105",47.66273490376627,-122.3177242100707
"98105","Seattle","WA","Safeway","3020 NE 45th St","98105",47.6619,-122.2949373
"98105","Seattle","WA","Safeway","4732 Brooklyn Ave NE","98105",47.6644118,-122.3139265
"98105","Seattle","WA","UW: District Market","1315 NE Campus Pkwy","98105",47.655916081367394,-122.31368465161496
"98105","Seattle","WA","H-Mart","4216 University Way NE","98105",47.65895769658186,-122.31319932286324
"98105","Seattle","WA","Seven","2007 NE Ravenna Blvd","98105",47.669147,-122.306084
"98105","Seattle","WA","Vegan Haven","5270 University Way NE Ste B","98105",47.66842564486866,-122.31298547543764
"98105","Seattle","WA","Woori Market","4744 University Way NE","98105",47.66440992227731,-122.31300516278608
"98105","Seattle","WA","R & M Grocery Video","5510 University Way NE","98105",47.668646,-122.313347
"98105","Seattle","WA","Sunfresh Market","5501 Roosevelt Way NE","98105",47.66875076293945,-122.3176498413086
"98105","Seattle","WA","University Market","4100 Brooklyn Ave","not_available",47.65692497168015,-122.31381750373292
"98105","Seattle","WA","University Food & Beverage","4203 University Way NE","98105",47.658558,-122.31343400000002
"98106","Seattle","WA","QFC","2500 SW Barton St","98126",47.5220516,-122.3659656
"98106","Seattle","WA","Safeway","9620 28th Ave SW","98126",47.5166889,-122.3666833
"98106","Seattle","WA","AmazonFresh Pickup","2401 Utah Ave S","98134",47.57997925021742,-122.33467471000418
"98106","Seattle","WA","C&T Asian Market","9841 16th Ave SW","98106",47.514244079589844,-122.3555679321289
"98106","Seattle","WA","Mele's Market","not_available","98106",47.537505,-122.362882
"98106","Seattle","WA","Morning Star mini-mart","8855 9th Ave SW","98106",47.522980915310974,-122.34698139781422
"98106","Seattle","WA","phnom Kiev Market","not_available","98146",47.5142329543438,-122.35539268656849
"98106","Seattle","WA","Hung Long Sieu Thi White Center Supermarket","9828 15th Ave SW","98106",47.514197677300935,-122.35337954541674
"98106","Seattle","WA","West Seattle Halal Market","9405 16th Ave SW, Seattle, WA 98106","98106",47.518972,-122.355551
"98106","Seattle","WA","Delridge Deli Mart","3861 Delridge Way SW","98106",47.56860595150603,-122.36361210998514
"98106","Seattle","WA","Cheetah","3670 E Marginal Way S","98134",47.568861,-122.337797
"98106","Seattle","WA","Angkor Market","1500-1598 SW 98th St","98106",47.51561,-122.35455
"98107","Seattle","WA","Fred Meyer","915 NW 45th St","98107",47.6603041,-122.3684106
"98107","Seattle","WA","Ballard Market","1400 NW 56th St","98107",47.66993392795242,-122.3744267310249
"98107","Seattle","WA","Trader Joe's","4609 14th Ave NW","98107",47.662782575608,-122.37442671561647
"98107","Seattle","WA","QFC","5700 24th Ave NW","98107",47.6706262,-122.3872447
"98107","Seattle","WA","Safeway","1423 NW Market St","98107",47.6682798,-122.3749242
"98107","Seattle","WA","Metropolitan Market","3830 34th Ave W","98199",47.655356672641,-122.40066554137967
"98107","Seattle","WA","AmazonFresh Pickup","5100 15th Ave NW","98107",47.666113731365655,-122.37598138621458
"98107","Seattle","WA","Choice Deli & Grocery","6415 8th Ave NW","98107",47.67597963639778,-122.36595452867935
"98107","Seattle","WA","Smart Foodservice Warehouse Stores","1155 Nw Ballard Way","98107",47.66288350086776,-122.37321987678781
"98107","Seattle","WA","Sunset Hill Green Market","6405 32nd Ave NW","98107",47.67498675260451,-122.39841202642529
"98107","Seattle","WA","Bali Mart","1718 NW Market St","98107",47.66891098022461,-122.37972259521484
"98107","Seattle","WA","Iman's Deli-Market","2804 NW Market St","98107",47.668892,-122.393198
"98107","Seattle","WA","Emerson Deli & Gas","not_available","98199",47.65622783295539,-122.38428286603245
"98107","Seattle","WA","Fisherman's Green Market and Deli","1900 W Nickerson St Ste C114","98119",47.655397499219966,-122.38095449426535
"98108","Seattle","WA","Fou Lee Market","2050 S Columbian Way","98108",47.55987560431697,-122.3050134799101
"98108","Seattle","WA","Maruta Shoten","1024 S Bailey St","98108",47.54780910566793,-122.31879312295277
"98108","Seattle","WA","South Park Grocery","8909 14th Ave S","98108",47.523559000000006,-122.315351
"98108","Seattle","WA","Seattle Super Market","Columbia Way and Beacon Ave S","not_available",47.55922630231075,-122.30481377102268
"98108","Seattle","WA","Red Rose Market","5805 Airport Way S.","98108",47.55020273172289,-122.31860160827637
"98108","Seattle","WA","Stockbox South Park Grocery","8520 14th Ave S","98108",47.526693626336055,-122.31488894743622
"98108","Seattle","WA","Graham Street Grocery","2801 S Graham St","98108",47.546099,-122.29666499999999
"98108","Seattle","WA","Dominics Red Apple Market","Des Moines Memorial Dr","98108",47.51296080982042,-122.32434166047265
"98109","Seattle","WA","Metropolitan Market","100 Mercer St","98109",47.62474166417963,-122.35499191713085
"98109","Seattle","WA","QFC","500 Mercer St","98109",47.6246971,-122.3466123
"98109","Seattle","WA","District H","101 Terry Ave N","98109",47.618787,-122.33756100000001
"98109","Seattle","WA","Safeway","516 1st Ave W","98119",47.6236106,-122.3576881
"98109","Seattle","WA","Trader Joe's","1916 Queen Anne Ave N","98109",47.63655526870181,-122.35690696264973
"98109","Seattle","WA","Safeway","2100 Queen Anne Ave N","98109",47.637747,-122.35638
"98109","Seattle","WA","Lyon's Grocery","2100 Dexter Ave N","98109",47.63774751414437,-122.34352719258989
"98109","Seattle","WA","Pop In","411 1st Ave S","98104",47.623027,-122.358398
"98109","Seattle","WA","Metropolitan Market","not_available","98109",47.622431,-122.342373
"98110","Bainbridge Island","WA","Town & Country Market","343 Winslow Way E","98110",47.62439527255924,-122.51790234601764
"98110","Bainbridge Island","WA","Safeway","253 High School Rd NE","98110",47.635111963175945,-122.51969057328097
"98110","Bainbridge Island","WA","Walt's Lynwood Market","4759 LYNNWOOD","98110",47.60564808811073,-122.54788591856787
"98112","Seattle","WA","Safeway","2201 E Madison St","98112",47.618071345187026,-122.3037767632294
"98112","Seattle","WA","Montlake Blvd Market","2605 22nd Ave E","98112",47.64348038649376,-122.30391515371261
"98112","Seattle","WA","Mont's Market","2350 24th Ave E","98112",47.6401306051473,-122.3019427357346
"98112","Seattle","WA","Madison Valley Mini Mart","not_available","98112",47.62370266076768,-122.29537413615788
"98112","Seattle","WA","Valley Madison Grocery","2811 E Madison St Ste B","98112",47.62361526489258,-122.2955093383789
"98115","Seattle","WA","Whole Foods Market","1026 Ne 64th Street","98115",47.67501855519455,-122.31603903975098
"98115","Seattle","WA","Safeway","7300 Roosevelt Way NE","98115",47.68197097039437,-122.31700034471942
"98115","Seattle","WA","QFC","8400 35th Ave NE","98115",47.6899059,-122.2903932
"98115","Seattle","WA","Safeway","7340 35th Ave NE","98115",47.6826096,-122.2894321
"98115","Seattle","WA","PCC Community Markets","6514 40th Ave NE","98115",47.67602,-122.28482
"98115","Seattle","WA","PCC Community Markets","450 Northeast 71st Street","98115",47.67996,-122.32414
"98115","Seattle","WA","Wedgwood Market","6256 35th Ave NE","98115",47.67716108910927,-122.29254533942782
"98115","Seattle","WA","Morningside Market","35th and 93rd","98115",47.69519207681214,-122.29051232739823
"98115","Seattle","WA","g & f grocery","65th st ne","98115",47.676052,-122.325405
"98115","Seattle","WA","25th Market","7500 25th Ave NE","98115",47.68320362784982,-122.30056305659994
"98115","Seattle","WA","The Herbalist","2106 NE 65th St","98115",47.675967,-122.30471899999999
"98115","Seattle","WA","Huong Xua White Center Deli","9629 15th St","98115",47.698777,-122.311967
"98116","Seattle","WA","Metropolitan Market West Seattle (Admiral)","2320 42nd Ave SW","98116",47.58201235,-122.38479928
"98116","Seattle","WA","Safeway","2622 California Ave SW","98116",47.57998394678411,-122.38636578902435
"98116","Seattle","WA","PCC Community Markets - West Seattle","2749 California Ave SW","98116",47.577043,-122.386814
"98116","Seattle","WA","Trader Joe's","4545 Fauntleroy Way SW","98116",47.56187437819491,-122.38082013586265
"98116","Seattle","WA","Whole Foods Market","4755 Fauntleroy Way Sw","98116",47.5600623809524,-122.381476666667
"98116","Seattle","WA","Safeway","4754 42nd Ave SW","98116",47.55965742209878,-122.38520488904214
"98116","Seattle","WA","QFC","4550 42nd Ave SW","98116",47.5612061,-122.3848661
"98116","Seattle","WA","Pure Vapor","4801 Fauntleroy Way SW #104","98116",47.5590361,-122.3817922
"98116","Seattle","WA","West Seattle Produce Co.","not_available","98116",47.56047019280925,-122.38113149179452
"98116","Seattle","WA","Jefferson Square - West Seattle","4100 SW Edmunds St","98116",47.560016408583614,-122.38499429192771
"98117","Seattle","WA","QFC","9999 Holman Rd NW","98117",47.701888313555436,-122.36376464366913
"98117","Seattle","WA","Safeway","8340 15th Ave NW","98117",47.690136972181044,-122.37658754296801
"98117","Seattle","WA","Grocery Outlet","8700 15th Avenue Nw","98117",47.6929251,-122.37618
"98118","Seattle","WA","Safeway","3900 S Othello St","98118",47.5374346,-122.2830543
"98118","Seattle","WA","PCC Community Markets","3610 S Edmunds St","98118",47.55543,-122.27388
"98118","Seattle","WA","Safeway","3820 Rainier Ave S","98118",47.5692087,-122.2881353
"98118","Seattle","WA","Ba Mien Seafood Market","not_available","98118",47.53911603256009,-122.28302567745212
"98118","Seattle","WA","Aloha Market","7762 Beacon Ave S","98118",47.53263178479528,-122.28760567435856
"98118","Seattle","WA","Mekong Rainier Supermarket","3400 Rainier Ave S","98144",47.572854360661786,-122.29364950846309
"98118","Seattle","WA","Noah's Grocery","4700 50th Ave S","98118",47.560359000000005,-122.270407
"98118","Seattle","WA","Vientiane Asian Grocery Store","6059 Martin Luther King Jr Way S","98118",47.54638,-122.28636200000001
"98118","Seattle","WA","Phnom Penh Market","7123 Martin Luther King Jr Way S","98118",47.53783,-122.281957
"98118","Seattle","WA","Busy Bee Mini Mart","5015 Rainier Ave S","98118",47.556652,-122.284669
"98118","Seattle","WA","Solom Grocery And Deli","5100 Rainier Ave S","98118",47.55625784397125,-122.28303015232086
"98119","Seattle","WA","Whole Foods Market","2001 15th Avenue W","98119",47.6369248138683,-122.37676134677211
"98119","Seattle","WA","QFC","1600 W Dravus St","98119",47.6497683,-122.3777565
"98119","Seattle","WA","Ken's Market","2400 6th Ave W","98119",47.639630361615254,-122.36456810023742
"98119","Seattle","WA","Corner Store","2809 Thorndyke Ave W","98199",47.645170458378075,-122.38299840587864
"98122","Seattle","WA","QFC","1401 Broadway","98122",47.6138881,-122.3212413
"98122","Seattle","WA","Trader Joe's","1700 Madison St","98122",47.61573105971854,-122.30989593719539
"98122","Seattle","WA","Central Co-op","1600 E. Madison St.","98122",47.61534941517719,-122.31108746582152
"98122","Seattle","WA","Grocery Outlet","1126 Martin Luther King Jr Way","98122",47.6124193,-122.2958205
"98122","Seattle","WA","PCC Community Markets","2230 E Union St","98122",47.613125,-122.3026
"98122","Seattle","WA","Leschi Food Mart  ( Leschi Market )","103 Lakeside Ave","98122",47.60190346646864,-122.28538592643214
"98122","Seattle","WA","Yesler Grocery","1902 E Yesler Way","98122",47.601858,-122.307392
"98125","Seattle","WA","Safeway","12318 15th Ave NE","98125",47.7182875,-122.3120724
"98125","Seattle","WA","QFC","1531 NE 145th St","98155",47.73321173422376,-122.3104852437973
"98125","Seattle","WA","Fred Meyer","13000 Lake City Way NE","98125",47.7239355,-122.2918089
"98125","Seattle","WA","QFC","11100 Roosevelt Way NE","98125",47.7096598,-122.3176364
"98125","Seattle","WA","Grocery Outlet","3020 Ne 127th Street","98125",47.7216722,-122.2950102
"98125","Seattle","WA","Pakistani Indian Groceries","12323 Roosevelt Way NE","98125",47.718486,-122.31851699999999
"98125","Seattle","WA","Quick Mini Mart","12348 Lake City Way NE","98125",47.71870960093645,-122.29540333995404
"98126","Seattle","WA","Thriftway","4201 SW Morgan St","98136",47.5445367723282,-122.38641233173212
"98133","Seattle","WA","Fred Meyer","18325 Aurora Ave N","98133",47.7620261,-122.3476862
"98133","Seattle","WA","Asian Food Center","13200 Aurora Ave N","98133",47.724759945691204,-122.34369556245315
"98133","Seattle","WA","Central Market","15505 Westminster Way N","98133",47.74268100859298,-122.34945384963763
"98133","Seattle","WA","Trader Joe's","1201 N 175th St","98133",47.75506797872805,-122.34383584932269
"98133","Seattle","WA","Smart Foodservice Warehouse Stores","13102 Stone Ave","98133",47.72473211960983,-122.34196104452218
"98133","Seattle","WA","Safeway","15332 Aurora Ave N","98133",47.7409711,-122.3436026
"98133","Seattle","WA","QFC","600 NW Richmond Beach Rd","98177",47.7659550392435,-122.3641374707222
"98133","Seattle","WA","Mediterranean Oasis","15238 Aurora Ave N","98133",47.740291595458984,-122.34387969970703
"98133","Seattle","WA","Lideta Market","19828 Aurora Ave N","98133",47.773027,-122.34554399999999
"98133","Seattle","WA","Aurora Asian Market","15202 Aurora Ave N #A","98133",47.73944854736328,-122.34394073486328
"98133","Seattle","WA","New Aurora Grocery","15202 Aurora Ave N","98133",47.73944854736328,-122.34394073486328
"98133","Seattle","WA","North Park Grocery","319 N 105th St","98133",47.704147999999996,-122.34431399999998
"98133","Seattle","WA","Lupe's Tienda","15009 Aurora Ave N","98133",47.738028,-122.346106
"98133","Seattle","WA","Ukraine International Foodstore","10410 Greenwood Ave N","98133",47.704886,-122.354962
"98134","Seattle","WA","Smart Foodservice Warehouse Stores","1760 4th Ave South","98134",47.58651159917599,-122.32829819574062
"98134","Seattle","WA","Grocery Outlet Bargain Market","1702 4th Ave S","98134",47.5877746,-122.3284433
"98144","Seattle","WA","Hilltop Red Apple Market","2701 Beacon Ave S","98144",47.57917651372702,-122.31205374933707
"98144","Seattle","WA","QFC","2707 Rainier Ave S","98144",47.57916009149067,-122.29979618453399
"98144","Seattle","WA","Lam's Seafood Market","1221 S King St","98144",47.59808783998594,-122.31613529741543
"98144","Seattle","WA","Smart Foodservice Warehouse Stores","1915 21st Ave South","98144",47.585990619375416,-122.3056990649579
"98144","Seattle","WA","Quick Pack Food Mart","2616 S Jackson St","98144",47.599413639555245,-122.29784183771203
"98144","Seattle","WA","beacon hill market","2500 Beacon Ave S","98144",47.58093850714416,-122.31322336826999
"98146","Seattle","WA","Market Guadalupe","2808 Ambaum Ave SW","not_available",47.487981207368904,-122.34888219041878
"98146","Seattle","WA","Safeway","12725 1st Ave S","98168",47.48896371659953,-122.33580108130832
"98146","Seattle","WA","Castillos Supermarkets","10426 16th Ave SW","98146",47.50932284760387,-122.35478228544625
"98146","Seattle","WA","Saar's Super Saver Foods","10616 16th Ave SW","98146",47.508113631401365,-122.35437452450589
"98146","Seattle","WA","Donatelli's Market","13409 Ambaum Blvd SW","98146",47.48270034790039,-122.348876953125
"98148","Seattle","WA","QFC","17847 1st Ave S","98148",47.441747,-122.3354871
"98148","Seattle","WA","Trader Joe's","15868 1st Ave S","98148",47.460142263175115,-122.3315823213859
"98148","Seattle","WA","PCC Community Markets","15840 1st Ave S","98148",47.46102037612868,-122.3319511538418
"98148","Seattle","WA","Grocery Outlet Bargain Market","236 SW 152nd St","98166",47.46763296952221,-122.33838948138474
"98148","Seattle","WA","Wayne's Fruits & Vegetables","144 SW 152nd St","98166",47.46735,-122.335811
"98148","Seattle","WA","Al Furat Market","137 SW 153rd St","98166",47.465666999999996,-122.33536299999999
"98155","Seattle","WA","Safeway","17202 15th Ave NE","98155",47.7542707,-122.312978
"98155","Seattle","WA","Thriftway","20150 Ballinger Way NE","98155",47.77633371389906,-122.31061533591051
"98155","Seattle","WA","Albertsons","17171 Bothell Way NE","98155",47.7530626,-122.2803068
"98155","Seattle","WA","Sheridan Market","15348 Bothell Way NE","98155",47.74085,-122.288059
"98155","Seattle","WA","Indian Sweets and Spices","18002 15th Ave NE","98155",47.759551,-122.312854
"98166","Seattle","WA","Safeway","138 SW 148th St","98166",47.47174402332413,-122.33671107891496
"98166","Seattle","WA","Eat Local","810 SW 151st St","98166",47.468008000000005,-122.344916
"98166","Seattle","WA","La Canasta","13602 Ambaum Blvd SW","98166",47.4809199,-122.34799746666667
"98168","Seattle","WA","Fred Meyer","14300 1st Ave S","98168",47.4751346,-122.3318504
"98168","Seattle","WA","Saar's Super Saver Foods","3725 S 144th St","98168",47.47304,-122.28581
"98168","Seattle","WA","Allentown Superette (Grocery)","12404 42nd Ave S","98168",47.49221081203109,-122.27980613708496
"98168","Seattle","WA","Stop Buy Corner","not_available","98168",47.469025,-122.28734299999999
"98178","Seattle","WA","QFC","8421 84th ave se","98144",47.503674,-122.227877
"98188","Seattle","WA","Safeway","4011 S 164th St","98188",47.455652,-122.2824069
"98188","Seattle","WA","Lam‚Äôs Seafood","243 Minkler Blvd","98188",47.448283,-122.260268
"98188","Seattle","WA","Tienda La Barata","16526 42nd Ave South","not_available",47.45705924301209,-122.28159804846018
"98188","Seattle","WA","Tom's Finer Food","3306 S 170th St","98188",47.451382,-122.28991699999999
"98198","Seattle","WA","Safeway","27035 Pacific Hwy S","98198",47.359341,-122.3106631
"98198","Seattle","WA","ABC Grocery","22309 7th Ave S","98198",47.40154266357422,-122.32632446289062
"98198","Seattle","WA","Marina Market and Deli","22511 Marine View Dr S","98198",47.400028228759766,-122.32498168945312
"98199","Seattle","WA","Albertsons","2550 32nd Ave W","98199",47.6423873,-122.3981868
"98201","Everett","WA","Safeway","1715 Broadway","98201",47.9941771,-122.2001651
"98201","Everett","WA","Safeway","4128 Rucker Ave","98203",47.9625499,-122.2120566
"98201","Everett","WA","Smart Foodservice Warehouse Stores","2917 Cedar Street","98201",47.97826989516192,-122.19325907322956
"98201","Everett","WA","Sno-Isle Natural Foods Co-Op","2804 Grand Ave","98201",47.98042653524372,-122.21297529356445
"98201","Everett","WA","QFC","2615 Broadway","98201",47.982879,-122.2006365
"98201","Everett","WA","S & S Grocery","4030 Hoyt Ave","98201",47.963619232177734,-122.2096176147461
"98203","Everett","WA","Fred Meyer","8530 Evergreen Way","98208",47.9202385,-122.2318846
"98203","Everett","WA","Safeway","7601 Evergreen Way","98203",47.92954624468862,-122.2191671951484
"98203","Everett","WA","Los Gavilanes","209 E Casino Rd","98208",47.92259409607837,-122.22896606376645
"98203","Everett","WA","Corner Grocery","6732 Beverly Blvd","98203",47.936485290527344,-122.21102905273438
"98203","Everett","WA","Lenny's Evergreen produce","5317 Evergreen Way","98203",47.948326110839844,-122.21439361572266
"98203","Everett","WA","Monkey Market","not_available","98208",47.92063773566022,-122.1875633735744
"98203","Everett","WA","Janell's Gluten Free Market","7024 Evergreen Way","98203",47.934151,-122.22028600000002
"98203","Everett","WA","Grocery Outlet","5209 Evergreen Way","98203",47.94865798950195,-122.21308135986328
"98203","Everett","WA","Cascade Plaza","7601-7625 Evergreen Way","98203",47.9283224,-122.2198197
"98204","Everett","WA","QFC","11700 Mukilteo Speedway","98275",47.891206,-122.287544
"98204","Everett","WA","Walmart","11400 Highway 99","98204",47.89432087901932,-122.25602063444755
"98204","Everett","WA","Imran's Market","11501 Highway 99","98204",47.893778000000005,-122.25283400000001
"98204","Everett","WA","Everett Oriental Grocery","118 SE Everett Mall Way","98208",47.906877,-122.232737
"98204","Everett","WA","Tienda Chapala","9629 Evergreen Way","98204",47.910484313964844,-122.23826599121094
"98204","Everett","WA","Star Produce Fresh Fruits And Veggies","530 SW Everett Mall Way","98204",47.90407180786133,-122.2419662475586
"98204","Everett","WA","Zam Zam International Market","10330 Evergreen Way","98204",47.90514699875359,-122.24701093421996
"98208","Everett","WA","WinCo Foods","9900 19th Ave SE","98208",47.908413359970815,-122.20869798884405
"98208","Everett","WA","Walmart Supercenter","1605 Se Everett Mall Way","98208",47.91415104971558,-122.21387199327572
"98208","Everett","WA","Safeway","11031 19th Ave SE","98208",47.8973412,-122.2053876
"98208","Everett","WA","Trader Joe's","811 SE Everett Mall Way","98208",47.9108342693861,-122.22115353248726
"98208","Everett","WA","European Deli Svetlana","620 SE Everett Mall Way","98208",47.908612,-122.224034
"98208","Everett","WA","Grocery Outlet","710 SE Everett Mall Way","98208",47.909407119074544,-122.22295282124068
"98221","Anacortes","WA","Safeway","911 11th St","98221",48.5124138,-122.6117759
"98221","Anacortes","WA","The Market at Anacortes","1519 Commercial Ave","98221",48.50922215167958,-122.6120239385248
"98221","Anacortes","WA","Anacortes Food Coop","2308A Commercial Ave","98221",48.50335,-122.61306
"98221","Anacortes","WA","The Corner","7607 State Route 20","98221",48.461879216362696,-122.58226723420641
"98223","Arlington","WA","Safeway","20500 Olympic Pl NE","98223",48.1821705,-122.1276082
"98223","Arlington","WA","Walmart Supercenter","8924 Quil Ceda Blvd","98271",48.07915758169084,-122.1881007774851
"98223","Arlington","WA","Walmart Grocery Pickup and Delivery","8924 Quilceda Blvd","98271",48.0774729495624,-122.186706591176
"98223","Arlington","WA","Walmart Supercenter","4010 172nd St Ne","98223",48.15051247508904,-122.17500699836424
"98223","Arlington","WA","WinCo Foods","3947 116th St NE","98271",48.101042754907645,-122.17737180354372
"98223","Arlington","WA","Fred Meyer","9925 State Ave","98270",48.0848111,-122.1692357
"98223","Arlington","WA","Safeway","3532 172nd St NE","98223",48.15136162759264,-122.18119473771367
"98223","Arlington","WA","Haggen","3711 88th St NE","98270",48.0769430485166,-122.18050809236956
"98223","Arlington","WA","Grocery Outlet","123 East Burke Ave.","98223",48.200558,-122.126031
"98223","Arlington","WA","Smokey Point Commissary","13900 45th Ave NE","98271",48.12393217721476,-122.17086838848937
"98223","Arlington","WA","Grocery Outlet Bargain Market","123 E Burke Ave","98223",48.2007807,-122.1257316
"98223","Arlington","WA","Thrifty Food Pavilion","146 E Haller Ave","98223",48.20067028050531,-122.12591048824167
"98223","Arlington","WA","Haggen Food and Pharmacy","20115 74th Ave NE","98223",48.179150337778474,-122.13009595870972
"98223","Arlington","WA","Granite Falls IGA","115 N. Granite Ave","98252",48.08455915717228,-121.96843082145406
"98223","Arlington","WA","Fred Meyer","2609 172nd St NE","98271",48.152817999999996,-122.195102
"98223","Arlington","WA","Gourmet Dinner Spices, LLC.","8324 158th Dr NE","98258",48.07230111379211,-122.01697111129761
"98223","Arlington","WA","Smokey Point Liquor Store (Arlington & Marysville Liquor Store)","16815 Smokey Point Blvd","98223",48.14893341064453,-122.18255615234375
"98223","Arlington","WA","Grocery Outlet","9620-b State Avenue","98270",48.0831262,-122.1742886
"98225","Bellingham","WA","WinCo Foods","300 E Bellis Fair Pkwy","98226",48.78694925758202,-122.48158323950723
"98225","Bellingham","WA","Fred Meyer","1225 W Bakerview Rd","98226",48.7888911,-122.511794
"98225","Bellingham","WA","Fred Meyer","800 Lakeway Dr","98229",48.7436465,-122.4640637
"98225","Bellingham","WA","Trader Joe's","2410 James St","98225",48.76213618832183,-122.46403720182121
"98225","Bellingham","WA","Walmart","4420 Meridian St","98226",48.80156182296584,-122.4831716975925
"98225","Bellingham","WA","Haggen","210 36th St","98225",48.73261224883214,-122.4718335423131
"98225","Bellingham","WA","Community Food Co-op - Cordata","315 Westerly Rd","98226",48.79158509746455,-122.4922866636944
"98225","Bellingham","WA","Haggen","2814 Meridian St","98225",48.7679964,-122.4847638
"98225","Bellingham","WA","Community Food Co-op - Downtown","1220 N Forest St","98225",48.74749240719842,-122.47612059550885
"98225","Bellingham","WA","Grocery Outlet","1600 Ellis Street","98225",48.750886513649185,-122.47106113443708
"98225","Bellingham","WA","Haggen","1401 12th St","98225",48.718966719928915,-122.5013941526413
"98225","Bellingham","WA","Smart Foodservice Warehouse Stores","405 Ohio Street","98225",48.75554255794667,-122.47056320773632
"98225","Bellingham","WA","Netos Market & Bakery","2612 W Maplewood Ave","98225",48.775975,-122.498469
"98225","Bellingham","WA","Grocery Outlet Bargain Market","1600 Ellis St","98225",48.7508422,-122.4708431
"98225","Bellingham","WA","Fred Meyer Click List","not_available","98226",48.788598,-122.511844
"98225","Bellingham","WA","Giffords Corner Store","2404 Elm St","98225",48.762218390073315,-122.48831386597477
"98225","Bellingham","WA","Cornwall Corner Store","2230 Cornwall Ave","98225",48.760225,-122.47476499999999
"98225","Bellingham","WA","Big Lots","1650 Birchwood Ave","98225",48.77526657728599,-122.49543927976225
"98225","Bellingham","WA","West Coast Grocery","4151 Meridian St","98226",48.787267,-122.48550800000001
"98225","Bellingham","WA","Super Store","2019 Harris Ave","98225",48.720277,-122.49074
"98225","Bellingham","WA","Cost Cutter","4131 Meridian St","98226",48.79075270981997,-122.48955073026043
"98225","Bellingham","WA","Haggen","4101-4165 Cordata Pkwy","98226",48.790188316666665,-122.49150048333334
"98225","Bellingham","WA","Marine Drive Market","2901-2913 Bennett Drive","98225",48.769123,-122.52056200000001
"98226","Bellingham","WA","Silver Beach Grocery","609 Northshore Dr","98226",48.76666754924245,-122.41244719832764
"98226","Bellingham","WA","Safeway","1275 E Sunset Dr","98226",48.7745101,-122.4582087
"98226","Bellingham","WA","Whole Foods Market","1030 Lakeway Dr","98229",48.743625535736115,-122.46125265263555
"98226","Bellingham","WA","Haggen Food & Pharmacy","2900 Woburn St","98226",48.7693352,-122.4445372
"98226","Bellingham","WA","The Islander","2200 N Nugent Rd","98262",48.71824259629165,-122.68305671743792
"98226","Bellingham","WA","Haggen Food & Pharmacy","1815 Main St","98248",48.8433458,-122.5810616
"98226","Bellingham","WA","Dodsons IGA","3705 MT Baker Hwy","98247",48.84314150159238,-122.28833860442731
"98226","Bellingham","WA","Cost Cutter","1750 Labounty Dr","98248",48.84556198120117,-122.57745361328125
"98226","Bellingham","WA","Europa Foods","1863 Main St #109, Ferndale, WA 98248","98248",48.84406975379657,-122.58260588683
"98226","Bellingham","WA","Grocery Outlet","1750 Labounty Dr., Unit 101","98248",48.845286,-122.577389
"98229","Bellingham","WA","Valley Market & Deli","1945 Lake Whatcom Blvd","98229",48.71090964142511,-122.33097120590081
"98230","Blaine","WA","Edaleen Dairy Store","458 Peace Portal Dr","98230",48.99628752277696,-122.75192530349292
"98230","Blaine","WA","The Market at Birch Bay","8135 Birch Bay Square St","98230",48.9374073843412,-122.66831744275055
"98230","Blaine","WA","Cost Cutter","1733 H St #100","98230",48.993015061726105,-122.7298688477368
"98230","Blaine","WA","Birch Bay Beachwood Grocery & Deli","not_available","98230",48.90501465462482,-122.75424158154233
"98230","Blaine","WA","Sequel Naturals Inc.","1124 Fir Ave #178","98230",48.98796081542969,-122.73625946044922
"98232","Bow","WA","Shell Gas Station","Cook Rd & Hwy 99","98233",48.508553419749845,-122.33778529458047
"98232","Bow","WA","WD Foods","not_available","98233",48.515213524987665,-122.3767303435831
"98233","Burlington","WA","Fred Meyer","920 S Burlington Blvd","98233",48.4668196,-122.3337286
"98233","Burlington","WA","Smart Foodservice Warehouse Stores","150 Sharon Avenue","98233",48.469509889940404,-122.33436997957637
"98233","Burlington","WA","Haggen","757 Haggen Dr","98233",48.469242,-122.3389
"98236","Clinton","WA","The Goose Community Grocer","14485 SR 525","98260",48.00091929000046,-122.45994079358933
"98236","Clinton","WA","Ken's Korner Red Apple","11042 State Route 525 #116","98236",47.99121694523827,-122.39513892981735
"98236","Clinton","WA","Clinton Foodmart Inc","4777 Commercial St","98236",47.978916594854745,-122.35728858939818
"98237","Concrete","WA","Red Apple","44546 State Route 20","98237",48.5381125031614,-121.77681752343744
"98239","Coupeville","WA","Praire Center Red Apple Market","408 S Main St","98239",48.20786397455785,-122.68645695034937
"98239","Coupeville","WA","Port Townsend Food Co-op","414 Kearney St","98368",48.11045392320523,-122.77074534285453
"98239","Coupeville","WA","3 Sisters Market","not_available","98277",48.237232142572076,-122.72000522679215
"98239","Coupeville","WA","Aldrich's Market","940 Lawrence St","98368",48.117683,-122.760667
"98241","Darrington","WA","Darrington IGA","1090 Seeman St","98241",48.255888,-121.60359299999999
"98244","Deming","WA","Super Duper Foodstore","315 Cherry St","98295",49.000563,-122.265722
"98244","Deming","WA","Crossroads Grocery & Video","7802 Silver Lake Rd","98266",48.92452621459961,-122.07684326171875
"98245","Eastsound","WA","Orcas Island Market","469 Market St","98245",48.6952839318158,-122.90475068614953
"98245","Eastsound","WA","Orcas Village Store","10 Killebrew Lake Rd","98248",48.597846804268165,-122.94391439555916
"98247","Everson","WA","Everson Market","210 E Main St","98247",48.919543,-122.34033500000001
"98247","Everson","WA","QFC","not_available","98201",48.945872,-122.367592
"98248","Ferndale","WA","Safeway","101 - 8071 Guide Meridian Rd","98264",48.93435442120331,-122.48711035858904
"98248","Ferndale","WA","Grocery Outlet","144 Bay Lyn Drive","98264",48.9333032,-122.4861189
"98249","Freeland","WA","Payless Foods","1609 Main St","98249",48.00985212039141,-122.52847999887243
"98250","Friday Harbor","WA","King's Market","Spring Street","98250",48.53449798391351,-123.01666523427475
"98250","Friday Harbor","WA","Lopez Village Market","162 Weeks Rd","98261",48.525956522453605,-122.91272639349073
"98250","Friday Harbor","WA","Friday Harbor Marketplace","515 Market St","98250",48.5296015527451,-123.02099817616306
"98250","Friday Harbor","WA","The Company Store","230 reuben memorial drive","98250",48.608360297719464,-123.15280323553282
"98250","Friday Harbor","WA","Blossom Organic Grocery","295 VILLAGE RD","98261",48.5229645302034,-122.91302516571795
"98251","Gold Bar","WA","Gold Bar Family Grocer","1111 Croft Ave.","98251",47.85216884511778,-121.69081541456586
"98253","Greenbank","WA","Greenbank Store","25189 SR525","98253",48.099321305113556,-122.57394024725521
"98257","La Conner","WA","Pioneer Market Fresh Produce & Meats","416 Morris St","98257",48.39211198257124,-122.49208157892211
"98258","Lake Stevens","WA","Walmart Supercenter","8713 64th St Ne","98270",48.055483533225555,-122.11239097794967
"98258","Lake Stevens","WA","Safeway","717 State Route 9 NE","98258",48.003368,-122.103773
"98258","Lake Stevens","WA","Haggen Food & Pharmacy","8915 Market Pl","98258",47.998906,-122.1111972
"98258","Lake Stevens","WA","Tom Thumb Grocery","1920 S Lake Stevens Rd","98258",47.9784784948612,-122.09157059662455
"98258","Lake Stevens","WA","Jay's Market","1809 124th Ave. Northeast","98258",48.01418775426239,-122.06381192738051
"98258","Lake Stevens","WA","Mercadito Latino Los Consuegros","526B 91st Ave NE","98258",48.001282,-122.10878999999998
"98258","Lake Stevens","WA","Saar‚Äôs Super Saver Foods","303 91st","98258",47.998372,-122.107413
"98260","Langley","WA","The Star Store","201 1st St","not_available",48.040631284183036,-122.40826212697186
"98260","Langley","WA","Tyee Grocery","not_available","98282",48.089881,-122.390296
"98261","Lopez Island","WA","Islandale/Southender","3024 Mud Bay Rd","98261",48.44512,-122.860359
"98264","Lynden","WA","Food Pavilion","8130 Guide Meridian Rd","98264",48.936547947160726,-122.48328675700947
"98264","Lynden","WA","Curt Maberry Farm Inc.","697 Loomis Trail Rd","98264",48.949906,-122.5180612
"98270","Marysville","WA","Albertsons","301 Marysville Mall #60","98270",48.0507918,-122.1792882
"98270","Marysville","WA","Safeway","1258 State Ave","98270",48.0626036,-122.1745764
"98270","Marysville","WA","alberson","not_available","98270",48.042816162109375,-122.17882537841797
"98270","Marysville","WA","Boulevard Grocery","5304 Sunnyside Blvd","98270",48.05160140991211,-122.15949249267578
"98270","Marysville","WA","Fred Meyer","123 3rd St","98270",48.050904049781444,-122.17876750706145
"98270","Marysville","WA","Boulevard Grocery, Gas, and U-Haul","5304 61st St NE","98270",48.05160140991211,-122.15949249267578
"98271","Marysville","WA","Totem Grocery And Gas","105 Marine Dr NE","98271",48.03929901123047,-122.23108673095703
"98271","Marysville","WA","Priest Point Grocery & Teriyaki","1302-1306 Marine Dr NE","98271",48.03944390663455,-122.22952988228018
"98272","Monroe","WA","Fred Meyer","18805 State Route 2","98272",47.8629406,-121.9776597
"98272","Monroe","WA","Safeway","19651 State Route 2","98272",47.8600267,-121.9678042
"98272","Monroe","WA","Walmart Supercenter","19191 N Kelsey Street","98272",47.86569132170517,-121.97246654701362
"98272","Monroe","WA","Grocery Outlet","405 Butler Avenue","98272",47.8578325,-121.9666663
"98272","Monroe","WA","Vallarta","not_available","98272",47.856075,-121.97003
"98272","Monroe","WA","Roosevelt Store","not_available","98290",47.8924190998077,-122.011215090752
"98272","Monroe","WA","Red Apple Market","807 W Stevens Ave","98294",47.85826674509797,-121.83168411254883
"98272","Monroe","WA","Sky Valley Vape","371 Butler Ave","98272",47.85860061645508,-121.96794128417969
"98272","Monroe","WA","Park Place Grocery - Beer And Wine","17800-17898 162nd St SE","98272",47.850862418935655,-121.99069072566566
"98272","Monroe","WA","Work Time","19881 U.S. 2, Monroe, WA 98272","98272",47.85804748535156,-121.96444702148438
"98272","Monroe","WA","Storm Lake Grocery","Storm Lake Road","98290",47.95026716192088,-121.9742024536521
"98273","Mount Vernon","WA","Walmart Supercenter","2301 Freeway Dr","98273",48.441427800948745,-122.34539502777946
"98273","Mount Vernon","WA","Safeway","315 E College Way","98273",48.4375184,-122.3371547
"98273","Mount Vernon","WA","Big Lake Grocery","16824 LAKE VIEW BLVD","98273",48.401523,-122.24098400000001
"98273","Mount Vernon","WA","Grocery Outlet Bargain Market","1333 Riverside Dr","98273",48.4328789,-122.3355686
"98273","Mount Vernon","WA","Red Apple Market","820 Cleveland Ave","98273",48.416923,-122.33813700000002
"98273","Mount Vernon","WA","Lincoln Grocery","925 S 11th St","98274",48.415755,-122.32759698
"98273","Mount Vernon","WA","Skagit Valley Financial Associates","2204 Riverside Dr","98273",48.44055938720703,-122.33455657958984
"98273","Mount Vernon","WA","DOLE Bananas","2601 E Division St","98274",48.42227554321289,-122.30780029296875
"98273","Mount Vernon","WA","Dairy Valley Distributors, Inc","1201 S 1st St","98273",48.413643,-122.343548
"98273","Mount Vernon","WA","D&D Grocery","800 W Division St","98273",48.421665,-122.344803
"98273","Mount Vernon","WA","Grocery Outlet","1333 Riverside Drive","98273",48.43281173706055,-122.33585357666016
"98277","Oak Harbor","WA","Walmart","1250 Sw Erie St","98277",48.288550819175065,-122.6623890708593
"98277","Oak Harbor","WA","Safeway","1450 SW Erie St","98277",48.2864707,-122.6617685
"98277","Oak Harbor","WA","Whidbey Island NAS Commissary","2090 N Coral Sea Ave","98278",48.28552431936636,-122.62738130314818
"98277","Oak Harbor","WA","Saar's Marketplace Food & Drug","32199 State Route 20","98277",48.29803100707903,-122.65633767530771
"98277","Oak Harbor","WA","Haggen Fresh Food Market","31565 State Route 20 #1","98277",48.289257538047906,-122.65936553478241
"98277","Oak Harbor","WA","Commissary Sea Plane Base","2090 N Coral Sea Ave Bldg 2742","98278",48.285547527166756,-122.62738176464725
"98277","Oak Harbor","WA","Huntington's Corner Grocery","671 Brokaw Rd","98282",48.24776840209961,-122.5194091796875
"98281","Point Roberts","WA","International Marketplace","480 Tyee Dr","98281",48.98542380558893,-123.06687118434253
"98282","Camano Island","WA","QFC","27008 92nd Ave NW","98292",48.2408927,-122.3591413
"98282","Camano Island","WA","Camano Plaza IGA","370 NE Camano Dr","98282",48.22409319419464,-122.47437078415537
"98282","Camano Island","WA","Elger Bay Grocery & Gifts","1992 S ELGER BAY RD","98282",48.138894569788015,-122.46773073307033
"98282","Camano Island","WA","Tyee grocery","Se camano dr","98282",48.16216115,-122.47292863333334
"98282","Camano Island","WA","Grocery Outlet","26905 92nd Avenue N. W.","98292",48.240571,-122.355572
"98282","Camano Island","WA","Grocery Outlet Bargain Market","26905 92nd Ave NW","98292",48.2405669,-122.3558519
"98283","Rockport","WA","Skagit General Store","not_available","98283",48.67325136158476,-121.24707534824574
"98284","Sedro Woolley","WA","Food Pavilion","530 Crossroads Sq","98284",48.50544613141311,-122.248627927405
"98284","Sedro Woolley","WA","Cascade Mercantile","not_available","98284",48.52972412109375,-122.063232421875
"98290","Snohomish","WA","Fred Meyer","2801 Bickford Ave","98290",47.9437711,-122.1057549
"98290","Snohomish","WA","Haggen","1301 Avenue D","98290",47.927838,-122.096541
"98290","Snohomish","WA","Albertsons","17520 SR 9 SE","98296",47.8386622,-122.1256902
"98290","Snohomish","WA","Safeway","1119 13th St","98290",47.9260904,-122.0955213
"98292","Stanwood","WA","Haggen","26603 72nd Ave NW","98292",48.23765623239351,-122.32871623353276
"98304","Ashford","WA","Suver's General Store","30402 State Road 706 E","98304",46.75862285,-122.03117788333333
"98305","Beaver","WA","Lake Pleasant Grocery","200361 Us-101","98305",48.056281,-124.3481
"98310","Bremerton","WA","Fred Meyer","5050 State Highway 303 NE","98311",47.6097503,-122.6271298
"98310","Bremerton","WA","Safeway","1401 NE McWilliams Rd","98311",47.6205538,-122.6305031
"98310","Bremerton","WA","WinCo Foods","4969 Kitsap Way","98312",47.5682503373225,-122.68178208535755
"98310","Bremerton","WA","Grocery Outlet","3445 Wheaton Way","98310",47.5967337,-122.6310243
"98310","Bremerton","WA","Safeway","900 N Callow Ave","98312",47.569642,-122.6527513
"98310","Bremerton","WA","Midtown Market","1354 6th Street","98337",47.567484042091564,-122.64010089268952
"98310","Bremerton","WA","Bremerton NBK Commissary","Bldg. 990,NAVAL BASE KITSAP","98314-5205",47.56316035795652,-122.65084453952933
"98310","Bremerton","WA","R K Mart","2014 Harkins St","98310",47.571058,-122.616277
"98310","Bremerton","WA","The Market On Perry Ave","2901 Perry Ave","98310",47.588524,-122.615124
"98310","Bremerton","WA","Asian Market International","not_available","98312",47.567699,-122.669852
"98310","Bremerton","WA","Oriental Market","1128 Pearl St","98310",47.59815216064453,-122.6297836303711
"98310","Bremerton","WA","Little P.I.","1748 NE Riddell Rd","98310",47.607242584228516,-122.6274642944336
"98310","Bremerton","WA","Asian Market Bremerton","3721 Kitsap Way Ste 4","98312",47.569724,-122.66448999999999
"98310","Bremerton","WA","Sheridan Mini Mart","518 Sheridan Rd","98310",47.588574,-122.640653
"98310","Bremerton","WA","NBK Bremerton Commisasry","865 Barclay St.","98337",47.56307853553955,-122.65091813401905
"98310","Bremerton","WA","CJ's Evergreen General Store","1417 Park Ave","98337",47.57448068896415,-122.63027058525326
"98311","Bremerton","WA","Safeway","2890 NW Bucklin Hill Rd","98383",47.6526667,-122.6881157
"98311","Bremerton","WA","Walmart","6797 State Highway 303 Ne","98311",47.62499884440013,-122.63203084983394
"98311","Bremerton","WA","Trader Joe's","9991 Mickelberry Rd","98383",47.65521587065335,-122.68278525060303
"98311","Bremerton","WA","Asian Market","109 myhre pl nw","98383",47.66212772007512,-122.68697125049144
"98311","Bremerton","WA","Kapamilya Asian Market","7698 Central Valley Rd. NW","98311",47.632957,-122.649863
"98311","Bremerton","WA","Sweeney's Country Style Meats & Seafood","9690 Brownsville Hwy NE","98311",47.6512666,-122.6203957
"98312","Bremerton","WA","Albertsons","370 SW Sedgwick Rd","98367",47.4964005,-122.6522916
"98312","Bremerton","WA","Grocery Outlet","9451 Silverdale Way Nw","98383",47.6489019,-122.6967394
"98312","Bremerton","WA","Smart Foodservice Warehouse Stores","5011 Auto Center Blvd","98312",47.56153515405153,-122.6833342456375
"98312","Bremerton","WA","NEX mini Mart","Dowell Rd","not_available",47.586002232249655,-122.69492370600857
"98312","Bremerton","WA","Ralph's Red Apple Market","6724 Kitsap Way","98312",47.5801492031261,-122.70457513249725
"98312","Bremerton","WA","Camp Union Store","14174 NW Holly Rd","98380",47.56689200287996,-122.84401113551081
"98312","Bremerton","WA","Bear Creek Country Store & Feed","3530 NE Old Belfair Hwy","98528",47.49561568409138,-122.80452818443652
"98315","Silverdale","WA","Bangor NBK Commissary","2604 Ohio St","98315",47.68953137279662,-122.70670462566508
"98315","Silverdale","WA","NEX Package Store","2905 Sargo Cir","98315",47.688606643200714,-122.7131673204067
"98326","Clallam Bay","WA","Sunsets West Co-Op Market","not_available","98326",48.25415802001953,-124.26021575927734
"98327","Dupont","WA","Mince Mercantile","1495 Wilmington Dr Ste 160","98327",47.090816497802734,-122.64359283447266
"98328","Eatonville","WA","Elbe Grocery","54209 WA-7","98330",46.76457214355469,-122.19331359863281
"98328","Eatonville","WA","Plaza Market","203 Center St. E","98328",46.86641376651356,-122.26511402829833
"98328","Eatonville","WA","The Family Grocer","not_available","98328",46.86619185,-122.265074
"98329","Gig Harbor","WA","Island View Market","not_available","98335",47.328895610078185,-122.63255524463605
"98329","Gig Harbor","WA","Lake Katherine Village","10978 NE State Highway 104","not_available",47.39115422790114,-122.66062634205734
"98329","Gig Harbor","WA","Food Market at Key Center","9021 Key Peninsula Hwy N","98349",47.33968016321461,-122.74529264368338
"98331","Forks","WA","Thriftway","950 S Forks Ave","98331",47.941431322014424,-124.38643946125731
"98331","Forks","WA","J&P Produce","not_available","98331",47.946823,-124.385546
"98332","Gig Harbor","WA","Albertsons","11330 NW 51st Ave","98332",47.3607798,-122.6051101
"98332","Gig Harbor","WA","Finholm's","8812 N Harborview Dr # D","98332",47.339056,-122.59061100000001
"98335","Gig Harbor","WA","Fred Meyer","5502 Point Fosdick Dr","98335",47.3072548,-122.5807726
"98335","Gig Harbor","WA","Safeway","4831 Point Fosdick Dr NW","98335",47.3023058,-122.5758672
"98335","Gig Harbor","WA","Harbor Greens","5225 Olympic Dr NW","98335",47.30657728182006,-122.58280160690786
"98338","Graham","WA","Safeway","10105 224th St E","98338",47.05441646465892,-122.29668715599473
"98338","Graham","WA","Fred Meyer","22303 Mountain Hwy E","98387",47.055253981836884,-122.39727705728001
"98338","Graham","WA","Wagon Wheel Market","22321 Mountain Hwy E","98387",47.0538051263556,-122.39773807154728
"98338","Graham","WA","O.K. GROCERY","22208 Mountain Hwy E","98387",47.055082,-122.40009099999999
"98338","Graham","WA","HANDY STOP GROCERY","30323 Meridian Ave E","98338",46.98039627075195,-122.29741668701172
"98338","Graham","WA","Kapowsin Grocery","14809 Kapowsin Hwy E","98338",46.98474884033203,-122.23662567138672
"98342","Indianola","WA","Indianola Country Store","9175 NE Shore Dr","98342",47.74749801864389,-122.52588359241437
"98346","Kingston","WA","Albertsons","8196 NE Hwy 104","98346",47.8115701,-122.5406391
"98346","Kingston","WA","Kingston IGA","10978 NE State Highway 104","98346",47.80253000815175,-122.50131891525939
"98346","Kingston","WA","Kountry Korner Grocery & Deli","27099 Miller Bay Rd NE","98346",47.809325921892544,-122.5419662427766
"98354","Milton","WA","Safeway","900 Meridian E Ste 12","98354",47.248900643087254,-122.29589278538896
"98356","Morton","WA","Country Market","461 2nd St.","98356",46.55450123778815,-122.27398263226578
"98358","Nordland","WA","Fort Flager Store","not_available","98358",48.09363,-122.72174
"98359","Olalla","WA","Al's Grocery","13965 Crescent Valley Rd SE","98359",47.42175678530416,-122.54163981799816
"98360","Orting","WA","Safeway","215 Whitesell St NW","98360",47.09874254712358,-122.20957250925494
"98361","Packwood","WA","blantons market","not_available","98361",46.60848143013148,-121.66946409893863
"98362","Port Angeles","WA","Walmart Supercenter","3411 E Kolonels Way","98362",48.110821182903926,-123.36212934950875
"98362","Port Angeles","WA","Safeway","110 E 3rd St","98362",48.1161508,-123.4350329
"98362","Port Angeles","WA","Safeway","2709 E Highway 101","98362",48.105751,-123.3800397
"98362","Port Angeles","WA","Sunny Farms","261461 E Hwy 101","98382",48.07929358818271,-123.1686110710192
"98362","Port Angeles","WA","Grandview Grocery","802 S C St","98363",48.120271,-123.45748300000001
"98362","Port Angeles","WA","McPhee's Parkway Grocery","not_available","98362",48.106998443603516,-123.42426300048828
"98362","Port Angeles","WA","Big Lots","1940 E 1st St","98362",48.10553652429711,-123.40109523608623
"98362","Port Angeles","WA","Agnew Grocery","2863 Old Olympic Hwy","98362",48.105285,-123.246644
"98363","Port Angeles","WA","Shadow Mountain General Store","not_available","98363",48.085215472682755,-123.71008865376389
"98366","Port Orchard","WA","Walmart Supercenter","3497 Bethel Rd Se","98366",47.516513562421146,-122.62812773108381
"98366","Port Orchard","WA","Safeway","3355 Bethel Rd SE","98366",47.518457448242685,-122.63025572967926
"98366","Port Orchard","WA","Albertsons","1434 Olney Ave SE","98366",47.5356686,-122.6105264
"98366","Port Orchard","WA","Fred Meyer","1900 SE Sedgwick Rd","98366",47.503297499186026,-122.62979047140107
"98366","Port Orchard","WA","Grocery Outlet Bargain Market","1730 SE Mile Hill Dr Ste 100","98366",47.5339652,-122.6230141
"98366","Port Orchard","WA","Save-A-Lot","1730 Mile Hill Dr.","98366",47.532649993896484,-122.6235580444336
"98366","Port Orchard","WA","Asian General Store","585 Bethel Ave","98366",47.538606566666665,-122.62738605
"98366","Port Orchard","WA","Pjs Market","1598 Woods Rd SE","98366",47.534215,-122.56797399999999
"98366","Port Orchard","WA","Saar's Market Place","1415 Olney Ave SE","98366",47.5350709622231,-122.60779142661167
"98368","Port Townsend","WA","Safeway","442 W Sims Way","98368",48.1080976,-122.7826349
"98368","Port Townsend","WA","QFC","515 Sheridan St","98368",48.1037848,-122.7917077
"98368","Port Townsend","WA","Safeway FastShop","not_available","98368",48.1085468211803,-122.77591410122726
"98370","Poulsbo","WA","Walmart Supercenter","21200 Olhava Way Nw","98370",47.75725724,-122.6619351
"98370","Poulsbo","WA","Central Market","20148 10th Ave NE","98370",47.74634806148359,-122.63656205415617
"98370","Poulsbo","WA","Safeway","19245 10th Ave NE","98370",47.738065504101066,-122.63680539940566
"98370","Poulsbo","WA","Red Apple Market","20441 Viking Ave NW","98370",47.74834999010016,-122.65505921283321
"98371","Puyallup","WA","Fred Meyer","1100 N Meridian","98371",47.2011965,-122.2966012
"98371","Puyallup","WA","Safeway","611 S Meridian","98371",47.187011987455186,-122.29288935068098
"98371","Puyallup","WA","Puyallup Food Center","1713 W Pioneer","98371",47.19047026613265,-122.3185693742522
"98372","Puyallup","WA","Walmart Supercenter","310 31st Ave Se","98374",47.16085262835043,-122.2895662383334
"98372","Puyallup","WA","Fred Meyer","1201 Valley Ave E","98390",47.2040696,-122.2274959
"98372","Puyallup","WA","Safeway","708 Shaw Rd","98372",47.1850929,-122.2588272
"98372","Puyallup","WA","Safeway","1405 E Main","98372",47.1930933,-122.2747941
"98372","Puyallup","WA","A GROCERY","505 Meridian Ave E","98371",47.252696,-122.293117
"98372","Puyallup","WA","Mercadito Del Valle","6023 Parker Rd E","98390",47.19623967175237,-122.22098107386734
"98372","Puyallup","WA","Yolis Quality Goods","10915 Benston Dr E","98372",47.19707489013672,-122.28401947021484
"98373","Puyallup","WA","Safeway","13308 Meridian E","98373",47.1352475,-122.2950287
"98373","Puyallup","WA","Safeway","11501 Canyon Rd E","98373",47.1518519,-122.3557803
"98373","Puyallup","WA","Albertsons","11012 Canyon Rd E","98373",47.1558915,-122.3591682
"98373","Puyallup","WA","Grocery Outlet","4423 S Meridian, Ste 723","98373",47.149636,-122.2915684
"98373","Puyallup","WA","Oroweat Bread Outlet","not_available","98374",47.148698,-122.292064
"98373","Puyallup","WA","Handy Corner Food Store","8009 112th St E","98373",47.15510559082031,-122.32246398925781
"98373","Puyallup","WA","Sari Sari Store","11910 Meridian East","98373",47.14795489999999,-122.2940482
"98374","Puyallup","WA","Walmart Grocery Pickup and Delivery","16502 Meridian E","98375",47.1057677586207,-122.293438793103
"98375","Puyallup","WA","Fred Meyer","17404 Meridian E","98375",47.0987225,-122.2968509
"98375","Puyallup","WA","Safeway","5616 176th St E","98375",47.0953115,-122.3528445
"98375","Puyallup","WA","WinCo Foods","9518 176th St E","98375",47.095375524792296,-122.30097748875423
"98375","Puyallup","WA","Albertson's","16120 Meridian E","98375",47.110721588134766,-122.29835510253906
"98375","Puyallup","WA","Express Grocery","15914 94th Avenue Ct E","98375",47.11135642412407,-122.30396951819841
"98377","Randle","WA","Fischer‚Äôs Market","not_available","98377",46.53513264439761,-121.95795134535507
"98382","Sequim","WA","Walmart Supercenter","1110 W Washington St","98382",48.07911114,-123.1341648
"98382","Sequim","WA","QFC","990 E Washington St","98382",48.078462436528085,-123.08733344078064
"98382","Sequim","WA","Safeway","680 W Washington St Bldg F","98382",48.0809763,-123.1172171
"98382","Sequim","WA","Grocery Outlet","1045 W. Washington St","98382",48.076671000000005,-123.127829
"98382","Sequim","WA","Yao International Market","not_available","98382",48.08071517944336,-123.10234069824219
"98382","Sequim","WA","Longhouse Market & Deli","271020 Highway 101","98382",48.020097,-123.00325900000001
"98382","Sequim","WA","Grocery Outlet Bargain Market","1045 W Washington St","98382",48.0768342,-123.127608
"98387","Spanaway","WA","Walmart Supercenter","20307 Mountain Hwy E","98387",47.07371696,-122.4189591
"98387","Spanaway","WA","Safeway","15805 Pacific Ave S","98444",47.11305,-122.4322881
"98387","Spanaway","WA","Albertsons","104 Military Rd","98444",47.1176526,-122.4328725
"98387","Spanaway","WA","Albertsons","pacific avenue","not_available",47.11866343700404,-122.39994979756698
"98387","Spanaway","WA","Safeway","not_available","98387",47.10089556639678,-122.4332107131379
"98390","Sumner","WA","WinCo Foods","6621 166th Ave E","98390",47.19552458643664,-122.2054059219113
"98391","Bonney Lake","WA","Fred Meyer","20904 Highway 410","98391",47.166248125900566,-122.1506452572686
"98391","Bonney Lake","WA","Safeway","21301 Hwy 410","98391",47.1660742,-122.145136
"98391","Bonney Lake","WA","Walmart Supercenter","19205 State Route 410 E","98391",47.16817279493129,-122.17165237156571
"98391","Bonney Lake","WA","Grocery Outlet","18318 Sr 410 E","98391",47.1764994,-122.1846926
"98391","Bonney Lake","WA","Fred Meyer Grocery Pickup and Delivery","20901 Highway 410","98391",47.166313304751554,-122.15056177078816
"98402","Tacoma","WA","Crescent Heights Grocery","not_available","98402",47.250731,-122.434254
"98403","Tacoma","WA","Stadium Thriftway","618 N 1st St","98403",47.26382047511135,-122.44861027566971
"98403","Tacoma","WA","Stadium Grocery","124 N Tacoma Ave","98403",47.26477813720703,-122.44976806640625
"98403","Tacoma","WA","I Street Market","721 S I St","98405",47.255642,-122.449352
"98404","Tacoma","WA","JJ's Deli and Grocery","3419 McKinley Ave","98404",47.23077135,-122.420841
"98404","Tacoma","WA","Safeway","1624 72nd St E","98404",47.1903989,-122.4070475
"98404","Tacoma","WA","Grocery Outlet","1410 E 72nd Street","98404",47.1902492,-122.4098112
"98404","Tacoma","WA","El Jalapeno","1012 72nd Ave","not_available",47.191272999999995,-122.41684199999999
"98404","Tacoma","WA","Northwest Delivered Goods","1017 E 70th St","98404",47.193580627441406,-122.41600036621094
"98404","Tacoma","WA","Little Swifty's Grocery","4301 McKinley Ave","98404",47.218245,-122.420622
"98404","Tacoma","WA","Wayne's","3918 E Portland Ave","98404",47.221434,-122.408776
"98405","Tacoma","WA","Walmart Supercenter","1965 S. Union Ave","98405",47.23997548765972,-122.4788200533883
"98405","Tacoma","WA","Fred Meyer","4505 S 19th St","98405",47.2436352,-122.4972785
"98405","Tacoma","WA","Safeway","1112 S M St","98405",47.2512321,-122.455093
"98405","Tacoma","WA","19th St. Grocery & Deli","1750 S Prospect St","98405",47.243018,-122.46941499999998
"98405","Tacoma","WA","Lucky III Food Store","3601 S 12th St","98405",47.250313,-122.484128
"98405","Tacoma","WA","Stop In Grocery","901 N Proctor St","98406",47.255046,-122.489434
"98405","Tacoma","WA","Save A Lot","1105 S MLK, Jr","not_available",47.251386,-122.45118400000001
"98405","Tacoma","WA","Tacoma Food Co-op","3002 6th Ave","98406",47.255110457113474,-122.47509326740372
"98406","Tacoma","WA","Tacoma Boys","5602 6th Ave","98406",47.25520444012261,-122.51257929300095
"98406","Tacoma","WA","Safeway","2637 N Pearl St","98407",47.27279937067019,-122.51373501154376
"98406","Tacoma","WA","Metropolitan Market Tacoma","2420 N Proctor St","98406",47.26950438,-122.48981262
"98406","Tacoma","WA","Safeway","6201 6th Ave","98406",47.25651997801412,-122.52025812864304
"98406","Tacoma","WA","Grocery Outlet","6425 6th Avenue","98406",47.256203942071664,-122.52418757984205
"98406","Tacoma","WA","Safeway","2411 N Proctor St","98406",47.2695434,-122.4881592
"98406","Tacoma","WA","Big Lots","2401 N Pearl St","98406",47.2698268,-122.5144304
"98406","Tacoma","WA","Saar's","2651-2699 N Baltimore St","98407",47.25950994,-122.5142146
"98406","Tacoma","WA","Grocery Outlet Bargain Market","6425-6Th Avenue","98406",47.2565071,-122.5243928
"98406","Tacoma","WA","Big Value","2501 N Alder St","98406",47.270336,-122.477356
"98408","Tacoma","WA","Fred Meyer","7250 Pacific Ave","98408",47.1905416,-122.4351788
"98408","Tacoma","WA","Safeway","707 S 56th St","98408",47.2069236,-122.4410574
"98408","Tacoma","WA","WinCo Foods","1913 S 72nd St","98408",47.19505502654651,-122.46028198966944
"98408","Tacoma","WA","Smart Foodservice Warehouse Stores","6208 Tacoma Mall Blvd","98409",47.20067828786045,-122.46335070793387
"98408","Tacoma","WA","La Huerta","not_available","98408",47.20614776998281,-122.4331850480821
"98409","Tacoma","WA","Safeway","1302 S 38th St","98418",47.2223773,-122.4514533
"98409","Tacoma","WA","Hong Kong Supermarket","not_available","98418",47.22193611681493,-122.4437414119951
"98409","Tacoma","WA","Marlene's Market and Deli","2951 S 38th St","98409",47.222863794811886,-122.47584617084287
"98409","Tacoma","WA","Grocery Outlet","3510 S 56th Street","98409",47.20606716686163,-122.48303535561972
"98409","Tacoma","WA","Big Willy's Market","4302 S M St","98418",47.218266,-122.451089
"98409","Tacoma","WA","Grocery Outlet Bargain Market","3510 S 56th St","98409",47.2057948,-122.4828154
"98409","Tacoma","WA","SuperValu Cash & Carry","3729 S Lawrence St","98409",47.223327000000005,-122.478698
"98409","Tacoma","WA","Friendly Foods","3612 Center St","98409",47.230961,-122.48461999999999
"98418","Tacoma","WA","East Asia Market","602 S 38th St","98418",47.222576480279926,-122.4395868960978
"98422","Tacoma","WA","Browns Point General Store","6716 E Slider Dr NE","98422",47.301700921536444,-122.43485927581787
"98433","Tacoma","WA","Fort Lewis Commissary","5275 N. 14th street","98433",47.09046466571439,-122.5925673602897
"98433","Tacoma","WA","American Lake Market","Veterans Dr SW","98498",47.143704,-122.559288
"98433","Tacoma","WA","Ponders Grocery","not_available","98439",47.1362232,-122.52584335
"98438","Mcchord Afb","WA","McChord AFB Commissary","577 Lincoln Blvd","98438-1316",47.124479870270434,-122.49783442130843
"98444","Tacoma","WA","QFC","11104 Pacific Ave S","98444",47.1563418,-122.4358986
"98444","Tacoma","WA","Smart Foodservice Warehouse Stores","111 So. 112th Street","98444",47.15619036268613,-122.4327252496822
"98444","Tacoma","WA","Garfield market","406 Garfield St S","98444",47.14623530147655,-122.43754217081967
"98444","Tacoma","WA","7 Eleven","9450 Pacific Ave","98444",47.170345306396484,-122.4345703125
"98444","Tacoma","WA","McGregor's Discount Natural And Organic Food","8431 Pacific Ave","98444",47.179817,-122.433747
"98444","Tacoma","WA","Fil-am","not_available","98444",47.14226859318825,-122.43487648579972
"98444","Tacoma","WA","Valley Liquidation","9813 Pacific Ave","98444",47.16816483080795,-122.43380656229893
"98444","Tacoma","WA","Green Collar Cannabis","10422 Pacific Ave S","98444",47.1615879,-122.4346561
"98445","Tacoma","WA","Terry's Corner Store","not_available","98445",47.17982577250893,-122.41596932594139
"98465","Tacoma","WA","Fred Meyer Marketplace","6901 S 19th St","98466",47.2439428,-122.5290627
"98466","Tacoma","WA","Trader Joe's","3800 Bridgeport Way W","98466",47.22302336440817,-122.53787012534444
"98466","Tacoma","WA","Safeway","3842 Bridgeport Way W","98466",47.2216712,-122.5393458
"98466","Tacoma","WA","Whole Foods Market","3515 Bridgeport Way","98466",47.22732110651547,-122.53622974936013
"98466","Tacoma","WA","Harbor Greens","2620 Bridgeport Way W","98466",47.236261020627644,-122.53758262474085
"98466","Tacoma","WA","Veggies Northwest","1115 Regents Blvd","98466",47.239315999999995,-122.519349
"98466","Tacoma","WA","Wholefoods Market","6810 27th St W","98466",47.23518371582031,-122.52816009521484
"98467","University Place","WA","Walmart Supercenter","7001 Bridgeport Way W","98499",47.193937878384,-122.51717734975993
"98467","University Place","WA","Fred Meyer","6305 Bridgeport Way W","98467",47.2004966,-122.5293569
"98467","University Place","WA","Tacoma Boys H & L Produce","7320 Lakewood Dr W","98499",47.19092141450278,-122.50969977627254
"98498","Lakewood","WA","Albertsons","8611 Steilacoom Blvd SW","98498",47.180184,-122.5517095
"98499","Lakewood","WA","Safeway","10223 Gravelly Lake Dr SW","98499",47.1643841,-122.5185918
"98499","Lakewood","WA","Paldo World","9601 S Tacoma Way","not_available",47.169267236025796,-122.48298539034649
"98499","Lakewood","WA","Grocery Outlet","11011 Pacific Highway Sw","98499",47.1576283,-122.4887303
"98499","Lakewood","WA","Boo Han Market","9122 South Tacoma Way","98499",47.174472480461546,-122.48422093471514
"98499","Lakewood","WA","Tienda y Carniceria Los Guerreros","10515 Pacific Hwy SW Ste E","98499",47.16170669372453,-122.48362376324084
"98499","Lakewood","WA","Newlyweds Foods","not_available","98499",47.168034,-122.49666
"98499","Lakewood","WA","El Mercado Latino","10816 Pacific Hwy SW","98499",47.158983,-122.48879199999999
"98499","Lakewood","WA","Saar's Market Place","6111 Lakewood Towne Center Blvd SW","98499",47.16500736578141,-122.51897137935077
"98499","Lakewood","WA","El Super Taco Bus 5","10302 Lakeview Ave SW","98499",47.1635004,-122.4959855
"98501","Olympia","WA","Fred Meyer","555 Trosper Rd SW","98512",46.9980698,-122.9146803
"98501","Olympia","WA","Walmart Neighborhood Market","5110 Yelm Highway","98503",46.99717764829277,-122.81847550620063
"98501","Olympia","WA","Fred Meyer","700 Sleater Kinney Rd SE","98503",47.0410458,-122.8310457
"98501","Olympia","WA","Safeway","4280 Martin Way E","98516",47.0498326,-122.8295297
"98501","Olympia","WA","Ralph's Thriftway","1908 4th Ave E","98506",47.04647514574818,-122.87530234423407
"98501","Olympia","WA","Albertsons","705 Trosper Rd SW","98512",46.99843349344597,-122.91756436989999
"98501","Olympia","WA","Safeway","4700 Yelm Hwy SE","98503",46.9978379,-122.8223674
"98501","Olympia","WA","Smart Foodservice Warehouse Stores","710 Trosper Road","98512",46.99995,-122.91751
"98501","Olympia","WA","Bayview Thriftway","516 4th Ave W","98501",47.044882927970185,-122.9075091144515
"98501","Olympia","WA","Grocery Outlet","2100 Harrison Avenue Nw","98502",47.046846,-122.9269523
"98501","Olympia","WA","Olympia Food Co-op","3111 Pacific Ave SE","98501",47.04217279028959,-122.85649278760609
"98501","Olympia","WA","Spuds Produce Market Tumwater","804 79th Ave SE","98501",46.97273254394531,-122.89143371582031
"98501","Olympia","WA","Capitol Pho Market","2419 Harrison Ave NW","98502",47.0460499216301,-122.93238542113505
"98501","Olympia","WA","Albertsons","3520 Pacific Ave SE","98501",47.0427853,-122.8458988
"98501","Olympia","WA","Olympia Food Co-op","921 Rogers St NW","98502",47.053446735785855,-122.91888253606147
"98501","Olympia","WA","Safeway","520 Cleveland Ave SE","98501",47.0188684,-122.8978897
"98501","Olympia","WA","Frog Pond Grocery","2102 Capitol Way S","98501",47.030034,-122.90052299999999
"98501","Olympia","WA","Smart Foodservice Warehouse Stores","1010 Fones Road Se","98501",47.04069685414139,-122.84626715494089
"98501","Olympia","WA","G. F. Joe's","5739 Littlerock Rd SW","98512",46.99751663208008,-122.91950225830078
"98501","Olympia","WA","shop n kart","not_available","98531",47.0041803,-122.8174359
"98501","Olympia","WA","Johnsons Whistle Stop","Rich Loop SE","98501",46.96678280997203,-122.83694899876626
"98501","Olympia","WA","Walmart Grocery Pickup and Delivery","5900 Littlerock Rd Sw","98512",46.99463653564453,-122.9195556640625
"98501","Olympia","WA","Pantry","222 Capitol Way N","98501",47.0462796239719,-122.90127396583556
"98501","Olympia","WA","Pit Stop Market","1734 Boulevard Rd SE","98501",47.032834,-122.865822
"98501","Olympia","WA","Capitol Lake Grocery","511 Capitol Way S","98501",47.043765,-122.902166
"98501","Olympia","WA","Mega Foods","700 Trosper Rd SW","98512",47.00042825144716,-122.91733802133798
"98501","Olympia","WA","Harry's Market","1613 College Street","98503-2658",47.03099569767421,-122.82340854180147
"98502","Olympia","WA","Haggen Northwest Fresh","1313 Cooper Point Rd SW","98502",47.033982135349085,-122.94117990200903
"98502","Olympia","WA","Safeway","3215 Harrison Ave NW","98502",47.0454275,-122.9421357
"98502","Olympia","WA","Trader Joe's","1530 Black Lake Blvd SW","98502",47.03311610486101,-122.9381611280814
"98502","Olympia","WA","Steamboat Island Grocery","3403 Steamboat Island Rd NW","98502",47.07980913635255,-123.02111949042477
"98503","Lacey","WA","Safeway","1243 Marvin Rd NE","98516",47.0593893,-122.7660595
"98503","Lacey","WA","WinCo Foods","7540 Martin Way E","98516",47.05498693804885,-122.77970615976298
"98503","Lacey","WA","Safeway","6200 Pacific Ave SE","98503",47.0390315,-122.799949
"98503","Lacey","WA","Safeway","not_available","98503",47.02271596759983,-122.80907128774139
"98503","Lacey","WA","Grocery Outlet","8221 Martin Way E","98516",47.055194,-122.765699
"98503","Lacey","WA","Day & Night Grocery","7637 Martin Way E","98516",47.05354231817448,-122.77761340141296
"98503","Lacey","WA","Arirang Market","7940 Martin Way E","98516",47.056026547971875,-122.7702865587957
"98503","Lacey","WA","El Centenario","5718 Pacific Ave SE","98503",47.03727340698242,-122.80708312988281
"98503","Lacey","WA","K. N. Halal Market","7263 Martin Way E","98516",47.052044,-122.784079
"98506","Olympia","WA","South Bay Market & Deli","3444 South Bay Rd NE","98506",47.081144,-122.846006
"98506","Olympia","WA","Dons Ez Stop","1408 Massey Ave NE","98506",47.057528999999995,-122.88443999999998
"98506","Olympia","WA","Puget Pantry","1104 Puget St NE","98506",47.05374052642409,-122.88745363617352
"98512","Olympia","WA","Evergreen Shores Grocery","7421 Mazama St SW","98512",46.9808236,-122.9923684
"98512","Olympia","WA","Littlerock Grocery","6420 128th Ave SW","98512",46.902173,-123.019209
"98513","Olympia","WA","Walmart Grocery Pickup and Delivery","1401 Galaxy Dr Ne","98516",47.06003,-122.76897
"98520","Aberdeen","WA","Walmart Supercenter","909 E Wishkah St","98520",46.975930566168955,-123.80676604692817
"98520","Aberdeen","WA","Safeway","221 W Heron St","98520",46.9719987,-123.8186863
"98520","Aberdeen","WA","Shop'n Kart","108 S MONTESANO ST","not_available",46.88618850708008,-124.10386657714844
"98520","Aberdeen","WA","Swansons Grocery","915 Simpson Ave","98550",46.97642218655931,-123.88128658461602
"98520","Aberdeen","WA","Swansons","217 N Boone St","98520",46.970402645637144,-123.80306985936517
"98520","Aberdeen","WA","Voss Acres Produce Market","1683 Ocean Beach Rd","98536",47.11187685611487,-124.07824472799626
"98520","Aberdeen","WA","Westport Y Grocery & Deli","794 WA-105, Westport, WA 98595","not_available",46.85910525102399,-124.09861207008362
"98520","Aberdeen","WA","Middle Swansons","510 N Williams St","98520",46.97562026977539,-123.83216094970703
"98520","Aberdeen","WA","Grayland Grocery","1756 State Route 105","98547",46.81027342,-124.0938317
"98520","Aberdeen","WA","Grocery Outlet","2715 Pacific Avenue","98520",46.9728425,-123.8511622
"98520","Aberdeen","WA","Franz Bakery Outlet","203 W State St","98520",46.971508,-123.81753300000001
"98520","Aberdeen","WA","Hometown Liquidators","not_available","98550",46.97946767198389,-123.88732848616172
"98528","Belfair","WA","Safeway","23961 NE State Route 3","98528",47.4539743,-122.8226694
"98528","Belfair","WA","QFC","201 NE State Route 300","98528",47.4533332,-122.8276793
"98528","Belfair","WA","Sunshine's Fruit and Veggies","not_available","98528",47.452943,-122.824455
"98528","Belfair","WA","Sunshine's Country Store","23831 NE State Highway 3","98528",47.4526796,-122.8257171
"98531","Centralia","WA","Walmart Supercenter","1601 Nw Louisiana Ave","98532",46.67904526333779,-122.97860647604149
"98531","Centralia","WA","Safeway","1129 Harrison Ave","98531",46.72783,-122.9810218
"98531","Centralia","WA","Fullers Market","505 S Tower Ave","98531",46.7119439053604,-122.95678156391465
"98531","Centralia","WA","Grocery Outlet","1369 Nw Louisiana Avenue","98532",46.6750105,-122.9800156
"98531","Centralia","WA","Crescent Grocery","21818 Old Highway 99 SW","98531",46.77149374169863,-123.00655291592025
"98531","Centralia","WA","Shop N Kart","2100 N National Ave","98532",46.682184089578854,-122.95851302661957
"98531","Centralia","WA","Gold Street Foodmart","1325 S Gold St","98531",46.70144271850586,-122.95784759521484
"98532","Chehalis","WA","Cedar Village","206 E Walnut St","98596",46.491299281428326,-122.93557771283969
"98532","Chehalis","WA","Safeway","1100 S Market Blvd","98532",46.6547965,-122.9540053
"98532","Chehalis","WA","Adna Store","not_available","98532",46.627953,-123.05984
"98532","Chehalis","WA","Jeremy's Farm to Table","576 W Main St","98532",46.66159432435499,-122.97191001786175
"98532","Chehalis","WA","Newaukum Country Store","2988 Jackson Hwy","98532",46.616837,-122.88961
"98532","Chehalis","WA","JJ Berry Grocery","2141 Jackson Hwy","98532",46.646236419677734,-122.93640899658203
"98541","Elma","WA","Thriftway","not_available","98541",47.00104,-123.40918
"98541","Elma","WA","Satsop Grocery","PO Box 357","98583",47.00245988503411,-123.4816244791513
"98541","Elma","WA","The Dayton Store","7480 W Shelton Matlock Rd","98584",47.2268406,-123.2319755
"98541","Elma","WA","Brady Food Mart","not_available","98563",46.997230529785156,-123.51243591308594
"98541","Elma","WA","Everybody's","700 Willapa Pl","98577",46.995337175643336,-123.51849378283949
"98541","Elma","WA","Gordon's Select Market","220 W Simpson Ave","98557",47.05562769534199,-123.26756467195642
"98541","Elma","WA","Everybody's","325 S 5th St","98541",47.00115205306067,-123.4089782592803
"98548","Hoodsport","WA","IGA Market","24151 Highway 101 N","98548",47.404384316571054,-123.14202498751811
"98550","Hoquiam","WA","Ocean Shores IGA","101 E Chance A La Mer NE","98569",47.006841,-124.160481
"98550","Hoquiam","WA","Moclips store","not_available","98569",47.00326919555664,-124.15996551513672
"98563","Montesano","WA","Pick Rite Thriftway","211 E Pioneer Ave","98563",46.978831,-123.599462
"98563","Montesano","WA","C&T Food Mart","406 W Pioneer Ave","98563",46.979669,-123.604625
"98564","Mossyrock","WA","Mayfield Grocery","3429 US Highway 12","98564",46.52895736694336,-122.5553970336914
"98564","Mossyrock","WA","Smith & Son Grocery","254 State St E","98564",46.52900971628811,-122.4821781470477
"98576","Rainier","WA","Walmart Supercenter","17100 State Route 507 Se","98597",46.93467424,-122.5777831
"98576","Rainier","WA","Safeway","1109 E Yelm Ave","98597",46.9338665,-122.5940131
"98576","Rainier","WA","RAINIER GROCERY","207 Binghampton St SE","98576",46.88762283325195,-122.690673828125
"98577","Raymond","WA","Thriftway","701 Willapa Pl","not_available",46.68098068237305,-123.73855590820312
"98577","Raymond","WA","Everybody's","701 Willapa Pl","98577",46.68189973815985,-123.73827535344991
"98577","Raymond","WA","Galey's Grocery","345 State Route 6","98577",46.66862,-123.69449731
"98579","Rochester","WA","Bailey's IGA","10333 Highway 12 SW","98579",46.821279992281966,-123.10013385056189
"98580","Roy","WA","Yelm Food Co-op","308 E Yelm Ave","98597",46.940441,-122.60324299999999
"98580","Roy","WA","Outlet Express","not_available","98597",46.943794472006836,-122.60497620548372
"98584","Shelton","WA","Walmart Supercenter","100 E Wallace Kneeland Blvd","98584",47.23233003,-123.125894
"98584","Shelton","WA","Fred Meyer","301 E Wallace Kneeland Blvd","98584",47.2299854,-123.1241989
"98584","Shelton","WA","Safeway","600 W Franklin St","98584",47.2145485,-123.1066649
"98584","Shelton","WA","Spencer Lake Grocery","not_available","98584",47.27198662286342,-122.95227939634712
"98584","Shelton","WA","Jay's Farmstand","1804 Olympic Hwy N","98584",47.220532,-123.118765
"98584","Shelton","WA","Rivera's Shellfish Meat","1729 Olympic Hwy N","98584",47.21981,-123.119008
"98589","Tenino","WA","DJ's Marketplace","18203-18499 Washington 507","98589",46.819846630096436,-122.86274135112762
"98589","Tenino","WA","Dave's Thriftway","669 Sussex Ave","98589",46.85966628699398,-122.84594786609333
"98604","Battle Ground","WA","Fred Meyer","401 NW 12th Ave","98604",45.7842705,-122.5490261
"98604","Battle Ground","WA","Albertsons","2108 W Main St","98604",45.7816829,-122.5601804
"98604","Battle Ground","WA","Walmart Supercenter","1201 Sw 13th Avenue","98604",45.77217149311193,-122.54955748041881
"98604","Battle Ground","WA","Safeway","904 W Main St","98604",45.7817373,-122.5466005
"98605","Bingen","WA","Safeway","2249 Cascade Ave","97031",45.7090057,-121.5349336
"98605","Bingen","WA","Walmart","2700 Wasco St","97031",45.711964063721084,-121.53914759481107
"98605","Bingen","WA","Rosauers","1867 12th St","97031",45.695166297012925,-121.52225259096068
"98605","Bingen","WA","Harvest Market by Thriftway","77 NW Wauna","98672",45.727805019010546,-121.48207413999752
"98605","Bingen","WA","Juanita's Marketa","A St","97031",45.70012513474162,-121.52407765388489
"98605","Bingen","WA","Mercado Guadalajara","12th St","97031",45.695170257816024,-121.52393890686812
"98606","Brush Prairie","WA","WinCo Foods","11310 NE 119th St","98662",45.70904818853941,-122.5567387173257
"98606","Brush Prairie","WA","European Market & Bakery","not_available","98682",45.692345,-122.552269
"98607","Camas","WA","QFC","3505 SE 192nd Ave","98683",45.59497600001221,-122.47624039649963
"98607","Camas","WA","Safeway","3307 Evergreen Way Ste 5","98671",45.578900717121584,-122.33471827976228
"98607","Camas","WA","Safeway","800 NE 3rd Ave","98607",45.5867772,-122.399817
"98607","Camas","WA","Grocery Outlet","3308 NE 3rd Avenue","98607",45.5846702,-122.3710457
"98607","Camas","WA","Young's Deli & Grocery","419 NW 6th Ave","98607",45.585096,-122.41363799999999
"98607","Camas","WA","Natural Grocers","3311 SE 192nd Ave","98683",45.597023,-122.477425
"98610","Carson","WA","Columbia Market","450 SW Wanapa St","97014",45.665760999999996,-121.89497800000001
"98610","Carson","WA","Carson General Store","1162 Wind River Hwy","98610",45.750261891417004,-121.83416247367859
"98611","Castle Rock","WA","Cascade Select Market","204 Cowlitz St W","98611",46.27606925616067,-122.91026681853818
"98612","Cathlamet","WA","Cathlamet Market Fresh","95 Main St","98612",46.20172882080078,-123.38390350341797
"98613","Centerville","WA","Sentry Market","320 S Columbus Ave","98620",45.82014846801758,-120.82178497314453
"98617","Dallesport","WA","Fred Meyer","1215 W 6th St","97058",45.6065391,-121.1994258
"98624","Ilwaco","WA","Ilwaco Market","not_available","98624",46.309006,-124.044303
"98624","Ilwaco","WA","Okies In Naselle","not_available","98638",46.349469997751584,-123.89169650508269
"98626","Kelso","WA","Safeway","411 Three River Drive","98626",46.1409459,-122.9021108
"98626","Kelso","WA","Rocky Point Market","not_available","98626",46.16651350647012,-122.91179126223606
"98626","Kelso","WA","Smart Foodservice Warehouse Stores","2303 Talley Way","98626",46.117858,-122.89283700000001
"98629","La Center","WA","La Center Market Place","419A 4th St","98629",45.862870798048824,-122.6685860267529
"98632","Longview","WA","Fred Meyer","3184 Ocean Beach Hwy","98632",46.148796,-122.9638214
"98632","Longview","WA","Walmart Supercenter","540 7th Ave","98632",46.11968333,-122.9305473
"98632","Longview","WA","Safeway","401 W. Columbia River Hwy.","97016",46.1059696,-123.2075623
"98632","Longview","WA","Walmart Supercenter","3715 Ocean Beach Hwy 2","98632",46.15384885,-122.9834777
"98632","Longview","WA","WinCo Foods","120 Triangle Center","98632",46.143361954779444,-122.93386023700403
"98632","Longview","WA","Safeway","1227 15th Ave","98632",46.1367721,-122.9385472
"98632","Longview","WA","Safeway","2930 Ocean Beach Hwy","98632",46.1484185,-122.961106
"98632","Longview","WA","Grocery Outlet","920 Ocean Beach Hwy","98632",46.1466648,-122.928714
"98632","Longview","WA","Your Market Place","not_available","98632",46.12969,-122.938275
"98632","Longview","WA","grocery liquidator","not_available","97048",46.08975763578357,-122.93821415694617
"98632","Longview","WA","West Side Shopper","1809 Washington Way","98632",46.13647389116255,-122.94110907704521
"98632","Longview","WA","J & R Sales","215 W B St","97048",46.08985226666667,-122.93809038333333
"98632","Longview","WA","Grocery Outlet","215 West B Street","97048",46.090012,-122.9385582
"98635","Lyle","WA","Lyle Grocery Store","State Street","98635",45.69301857258824,-121.28303342215507
"98639","North Bonneville","WA","North Bonneville Food Mart","51 E Cascade Dr","98639",45.640297692780244,-121.97170615196227
"98642","Ridgefield","WA","Rosauers","101 South 47th Ave","98642",45.814729,-122.701792
"98642","Ridgefield","WA","Ridgefield Pioneer Market Place","not_available","98642",45.815409725289435,-122.74592692573354
"98660","Vancouver","WA","Safeway","408 NE 81st St","98665",45.6817079,-122.668011
"98660","Vancouver","WA","Grocery Outlet","9915 Ne Hazel Dell Avenue","98685",45.6935682,-122.6676412
"98660","Vancouver","WA","Safeway","3707 Main St","98663",45.6485737,-122.6669292
"98660","Vancouver","WA","Natural Grocers","7604 NE 5th Ave Ste 100","98665",45.67757150526498,-122.66816132491697
"98660","Vancouver","WA","Vancouver Food Co-op","1002 Main St","98660",45.62883,-122.671622
"98661","Vancouver","WA","WinCo Foods","2101 NE Andresen Rd","98661",45.6389158501106,-122.59725541417964
"98661","Vancouver","WA","Fred Meyer","7700 NE Highway 99","98665",45.6770967,-122.6631612
"98661","Vancouver","WA","Safeway","6701 E Mill Plain Blvd","98661",45.62608380711882,-122.60295466349817
"98661","Vancouver","WA","Fred Meyer","2500 Columbia House Blvd","98661",45.6200556,-122.6451058
"98661","Vancouver","WA","Safeway","6711 NE 63rd St","98661",45.6665149,-122.603505
"98661","Vancouver","WA","Walmart Neighborhood Market","2201 Grand Blvd","98661",45.63662395850031,-122.64072802607815
"98661","Vancouver","WA","Grocery Outlet","5800 NE Fourth Plain Blvd","98661",45.6427451,-122.6121936
"98661","Vancouver","WA","Minute Mart","4686-4714 NE 72nd Ave","98661",45.65732733797077,-122.5998790759419
"98661","Vancouver","WA","IGA","2109 St Johns Blvd","98661",45.64112463978306,-122.64824737695379
"98661","Vancouver","WA","S&S Mart","1904 E 33rd st","98663",45.645306,-122.651253
"98661","Vancouver","WA","Oscar's","not_available","98661",45.657078000000006,-122.63563700000002
"98661","Vancouver","WA","Walmart Neighborhood Market","7809 Ne Vancouver Plaza Dr","98662",45.64808197954431,-122.59327994522407
"98662","Vancouver","WA","Fred Meyer","7411 NE 117th Ave","98662",45.6768133,-122.551292
"98662","Vancouver","WA","Safeway","2615 NE 112th Ave","98684",45.6412317,-122.5571137
"98662","Vancouver","WA","Tola Angkor Market","11320 NE 49th St","98682",45.65780120545479,-122.55625275668932
"98662","Vancouver","WA","Smart Foodservice Warehouse Stores","10611 Ne 53rd Street","98662",45.660415075912546,-122.56392561846597
"98662","Vancouver","WA","Taste Of India Grocery","10411 NE Fourth Plain Blvd","98662",45.662586068713566,-122.56582650280976
"98662","Vancouver","WA","Safeway","9512 NE Burton Rd","98662",45.64110781437343,-122.55678176879883
"98662","Vancouver","WA","Lingonberries Market (Gluten-Free)","6300 NE 117th Ave Ste B5","98662",45.667770000000004,-122.55323600000001
"98662","Vancouver","WA","Portland Mexican Taqueria","11505 NE Fourth Plain Blvd","98662",45.66401290893555,-122.55728912353516
"98662","Vancouver","WA","Lingonberries Market","6300 NE 117th Ave","98662",45.6678796,-122.55311898333333
"98664","Vancouver","WA","Walmart Supercenter","221e Ne 104th Ave","98664",45.62305662,-122.5627182
"98664","Vancouver","WA","Fred Meyer","11325 SE Mill Plain Blvd","98684",45.6195644,-122.5564593
"98664","Vancouver","WA","Trader Joe's","305 SE Chkalov Dr","98683",45.619348296476474,-122.55308999727659
"98664","Vancouver","WA","Walmart Grocery Pickup and Delivery","221E Ne 104th Ave","98664",45.623629,-122.562958
"98665","Vancouver","WA","Walmart","9000 Ne Highway 99","98665",45.6870265717536,-122.66256135611967
"98665","Vancouver","WA","WinCo Foods","9700 NE Highway 99","98665",45.69192934605008,-122.6600315099698
"98665","Vancouver","WA","El Compadre Tienda Y Carniceria","9803 NE Highway 99","98665",45.692053,-122.656861
"98674","Woodland","WA","IGA Market","1111 Columbia Blvd","97051",45.861745,-122.80950800000001
"98674","Woodland","WA","Safeway","1725 Pacific Ave","98674",45.91257990912126,-122.7483263764043
"98674","Woodland","WA","Grocery Outlet","1325 Lewis River Rd","98674",45.909123,-122.741018
"98674","Woodland","WA","West Street Grocery","305 N 7th St","97051",45.86833968862262,-122.80749765850366
"98674","Woodland","WA","Walmart Supercenter","1486 Dike Access Rd","98674",45.92866595,-122.760759
"98675","Yacolt","WA","Walmart Supercenter","14505 Ne Fourth Plain Blvd","98682",45.67056704027256,-122.52288297068591
"98675","Yacolt","WA","Safeway","6700 NE 162nd Ave Ste 500","98682",45.67075874687174,-122.50793822203354
"98683","Vancouver","WA","Safeway","13719 SE Mill Plain Blvd","98684",45.616862994304576,-122.53119788640834
"98683","Vancouver","WA","Fred Meyer","16600 SE McGillivray Blvd","98683",45.60585725159395,-122.50151220028783
"98683","Vancouver","WA","Walmart Supercenter","430 Se 192nd Ave","98683",45.61843293885502,-122.47952402812726
"98683","Vancouver","WA","New Seasons Market","2100 SE 164th Ave","98683",45.60573818214203,-122.5051253149971
"98684","Vancouver","WA","WinCo Foods","905 NE 136th Ave","98684",45.62941446820267,-122.53200829629687
"98684","Vancouver","WA","Las Palmas","not_available","98684",45.621555,-122.505557
"98685","Vancouver","WA","Albertsons","14300 NE 20th Ave","98686",45.724501,-122.6532305
"98685","Vancouver","WA","Fred Meyer","800 NE Tenney Rd","98685",45.7208542,-122.6628696
"98685","Vancouver","WA","Wayside Market","1301 NE 134th St","not_available",45.717969273034456,-122.65779236203993
"98686","Vancouver","WA","Safeway","13023 NE Highway 99 Ste 1","98686",45.71543904118934,-122.64971160635628
"98686","Vancouver","WA","Chuck's Produce & Street Market","2302 NE 117th St","98686",45.706476825218694,-122.64847577677851
"98686","Vancouver","WA","7 Eleven","not_available","98686",45.704944,-122.644622
"98801","Wenatchee","WA","Fred Meyer","11 Grant Rd","98802",47.4071584,-120.2914463
"98801","Wenatchee","WA","Walmart Supercenter","2000 N Wenatchee Ave","98801",47.454226379605146,-120.33871451292259
"98801","Wenatchee","WA","Safeway","501 N Miller St","98801",47.4308732,-120.3240427
"98801","Wenatchee","WA","Tony's Market","1688 Grant Rd","98802",47.405499,-120.261031
"98801","Wenatchee","WA","Safeway","510 Grant Rd","98802",47.404505,-120.2810635
"98801","Wenatchee","WA","Wenatchee Natural Foods","222 N Wenatchee Ave","98801",47.427836,-120.314554
"98801","Wenatchee","WA","Smart Foodservice Warehouse Stores","200 Ferry Street","98801",47.411797,-120.30281599999999
"98801","Wenatchee","WA","Grocery Outlet","1616 North Wenatchee Avenue","98801",47.44669797131613,-120.33021928880761
"98801","Wenatchee","WA","Martin's Market Place","130 Titchenal Rd","98815",47.51923324628751,-120.45339112569184
"98801","Wenatchee","WA","Albertsons","1128 N Miller St","98801",47.4380739,-120.3261743
"98801","Wenatchee","WA","Grocery Outlet Bargain Market","1616 N Wenatchee Ave","98801",47.446744,-120.330489
"98801","Wenatchee","WA","URM Cash & Carry","not_available","98801",47.47200081143455,-120.32966279874339
"98801","Wenatchee","WA","Grocery Outlet","315 Valley Mall Parkway, #315","98802",47.409561,-120.287145
"98801","Wenatchee","WA","Top Foods","10 Grant Rd","98802",47.404685,-120.29071200000001
"98801","Wenatchee","WA","Wenatchee Petroleum Co.","601E N Wenatchee Ave","98801",47.4323616027832,-120.31627655029297
"98801","Wenatchee","WA","Plaza Super Jet","122 Okanogan Ave","98801",47.420905,-120.31441299999999
"98801","Wenatchee","WA","Food Pavillion","315 Valley Mall Pkwy","98802",47.409549,-120.287196
"98801","Wenatchee","WA","Western Market","1300 5th St","98801",47.43006134033203,-120.34565734863281
"98801","Wenatchee","WA","Food Pavilion","149 Easy Way","98801",47.4684,-120.33325384
"98812","Brewster","WA","Brewster MarketPlace","not_available","98812",48.10059493,-119.78788626666666
"98812","Brewster","WA","La Milpa","324 E Main Street","98812",48.099333,-119.779654
"98812","Brewster","WA","Los Reyes #2 - Sigue","722 W Main Ave","98812",48.099496,-119.786544
"98812","Brewster","WA","Bridgeport Plaza","1106 Columbia Ave","98813",48.010184,-119.675257
"98815","Cashmere","WA","Dryden Grocery & Hardware","6836 Dryden Ave","98821",47.541758,-120.561097
"98816","Chelan","WA","Safeway","106 W Manson Hwy","98816",47.842286,-120.0197539
"98816","Chelan","WA","Red Apple Grocier","1-77 S Quetilquasoon Rd","98831",47.88285086787021,-120.15047130867039
"98816","Chelan","WA","IGA Chelan Market","not_available","98816",47.842926,-120.023796
"98816","Chelan","WA","Walmart Supercenter","108 Apple Blossom Dr","98816",47.842603095527224,-119.98787634913893
"98816","Chelan","WA","Red Apple Market","310 W Manson Hw","98816",47.84269529384585,-120.02327664866361
"98816","Chelan","WA","Bear Foods","125 E Woodin Ave","98816",47.84002806543947,-120.01793462577034
"98822","Entiat","WA","Entiat Food Center","not_available","98822",47.67641755998009,-120.20842301046355
"98822","Entiat","WA","Entiat Food Center","2038 Entiat Way","98822",47.676441098812084,-120.20888328552245
"98823","Ephrata","WA","Walmart Supercenter","1399 Nat Washington Way","98823",47.30435271496745,-119.54065609800072
"98823","Ephrata","WA","Safeway","1150 Basin St SW","98823",47.30953254815424,-119.55852459695893
"98823","Ephrata","WA","Mom's European Food and Deli","not_available","98851",47.389383946607566,-119.48403452715877
"98823","Ephrata","WA","John's Foods","115 Daisy St","98851",47.39125306694525,-119.49741390987336
"98823","Ephrata","WA","John's Foods","115 Daisy St S","98851",47.388149,-119.48411499999999
"98823","Ephrata","WA","Grocery Outlet","1460 SW Basin Street","98823",47.3060249,-119.561527
"98826","Leavenworth","WA","Safeway","116 River Bend Dr","98826",47.5971416,-120.6454104
"98826","Leavenworth","WA","Sage Mountain Natural Foods","11734 US Highway 2","98826",47.59775924682617,-120.64859008789062
"98833","Mazama","WA","Mazama Country Store","50 Lost River Rd","98833",48.59317008022523,-120.40585313001864
"98837","Moses Lake","WA","Safeway","601 S Pioneer Way","98837",47.1304789,-119.2682898
"98837","Moses Lake","WA","Walmart Supercenter","1005 N Stratford Rd","98837",47.141350357845795,-119.27509267352282
"98837","Moses Lake","WA","WinCo Foods","960 N Stratford Rd","98837",47.14155758110257,-119.28177263347095
"98837","Moses Lake","WA","Harvest Foods","2709 W Broadway Ave","98837",47.10424358162128,-119.31002466454497
"98837","Moses Lake","WA","Potholes General Store","6897 Highway 262 SE","99344",46.9699581726421,-119.3458502996548
"98837","Moses Lake","WA","Grocery Outlet Bargain Market","1177 N Stratford Rd","98837",47.1455427,-119.277159
"98837","Moses Lake","WA","Airport Grocery Mart","6389 Patton Blvd NE","98837",47.1805305480957,-119.32213592529297
"98837","Moses Lake","WA","Carniceria y Antojitos El Primo 2","113 W 3rd St","98857",46.96797,-119.0395
"98837","Moses Lake","WA","Town & Country Market","201 S Main St","98857",46.96853874984962,-119.04089923034986
"98840","Okanogan","WA","Walmart Supercenter","902 Engh Rd","98841",48.41476413,-119.5078412
"98840","Okanogan","WA","Grocery Outlet","918 Engh Rd","98841",48.415871,-119.508074
"98840","Okanogan","WA","Safeway","607 Omache Dr","98841",48.41812920265319,-119.51058626174927
"98844","Oroville","WA","Akins Fresh Market","1000 23rd Ave","98844",48.946604,-119.436905
"98848","Quincy","WA","Akins Foods Inc.","106 F St SW","98848",47.23285494505098,-119.85557391162175
"98848","Quincy","WA","El Mercado De Quincy","not_available","98848",47.231757606171904,-119.85543681533417
"98855","Tonasket","WA","BEYERS MARKET IGA","212 Hwy 97","98855",48.719380803520544,-119.39344882965086
"98855","Tonasket","WA","Beyers CenterPlace Market","not_available","98855",48.70966339111328,-119.43617248535156
"98856","Twisp","WA","Methow Valley Thriftway","not_available","98862",48.466955,-120.175213
"98856","Twisp","WA","Hank's Harvest Foods","412 N Methow Valley Hwy","98856",48.35972108023897,-120.11863992435192
"98856","Twisp","WA","Hank's Mini Market","410 E Methow Valley Hwy","98856",48.360130310058594,-120.1177749633789
"98901","Yakima","WA","WinCo Foods","2425 Longfibre Rd","98903",46.56385040283203,-120.4931411743164
"98901","Yakima","WA","Safeway","1610 W Lincoln Ave","98902",46.602507761209374,-120.53237681401674
"98901","Yakima","WA","Wray‚Äôs Market","121 E 3rd Ave","98942",46.6509961783023,-120.5289257279099
"98901","Yakima","WA","Walmart Supercenter","1600 E Chestnut Ave","98901",46.601753090488465,-120.4798523779275
"98901","Yakima","WA","Safeway","205 N 5th Ave","98902",46.60329281520303,-120.51599046526496
"98901","Yakima","WA","Safeway","905 E Mead Ave","98903",46.5781996,-120.4894753
"98901","Yakima","WA","Fiesta Foods","1008 E Nob Hill Blvd","98901",46.58409350794762,-120.48752557488353
"98901","Yakima","WA","Grocery Outlet","2109 S 1st Street","98903",46.573061,-120.4876399
"98901","Yakima","WA","Safeway","2204 W Nob Hill Blvd Ste A","98902",46.583904091167035,-120.53917185233325
"98901","Yakima","WA","Wrays Thrifty","1020 S 3rd Ave","98902",46.585792541503906,-120.51039123535156
"98901","Yakima","WA","URM","not_available","98902",46.599116939825706,-120.51565150158076
"98901","Yakima","WA","Los Juanes","not_available","98903",46.558111,-120.519841
"98901","Yakima","WA","Bodega Yakimex","511 N 1st St","98901",46.60944366455078,-120.50908660888672
"98901","Yakima","WA","Top Foods","2203 S 1st St","98903",46.56970427953493,-120.48438032511464
"98901","Yakima","WA","DOWNTOWN SUPER FOODS","316 S 3rd St","98901",46.598015999999994,-120.50129299999999
"98901","Yakima","WA","Grocery Outlet Bargain Market","800 North Park Ctr","98942",46.66419982910156,-120.52006530761719
"98901","Yakima","WA","Smart Foodservice Warehouse Stores","1406 E Mead Ave","98903",46.57708918057467,-120.48238878121967
"98901","Yakima","WA","In And Out","421 S 16th Ave","98902",46.592678,-120.529975
"98902","Yakima","WA","Beem's Nutrition","3713 River Rd","98902",46.618346,-120.559374
"98903","Yakima","WA","Rosauers","410 S 72nd Ave","98908",46.59409586413124,-120.60589549628507
"98903","Yakima","WA","Safeway","5702 Summitview Ave","98908",46.598852262355095,-120.58501406572759
"98903","Yakima","WA","Walmart Supercenter","6600 W Nob Hill Blvd","98908",46.58316128723228,-120.59710910606572
"98903","Yakima","WA","Wray's Grocery Store","5605 Summitview Ave","98908",46.60124994375985,-120.58415119157517
"98908","Yakima","WA","Fred Meyer","1206 N 40th Ave","98908",46.6202592,-120.5633777
"98908","Yakima","WA","Wray's Thriftway","7200 W Nob Hill Blvd","98908",46.585114920836965,-120.60608611388422
"98922","Cle Elum","WA","Safeway","804 W 1st St","98922",47.1955787,-120.9539976
"98922","Cle Elum","WA","The Last Resort","14254 Salmon La Sac Road","98940",47.22440641001101,-120.97326993942261
"98926","Ellensburg","WA","Fred Meyer","201 S Water St","98926",46.9907481,-120.5517152
"98926","Ellensburg","WA","Safeway","400 N Ruby St","98926",46.9961025,-120.5429111
"98926","Ellensburg","WA","Super 1 Foods","200 E Mountain View Ave","98926",46.98400110393901,-120.54567334788231
"98926","Ellensburg","WA","Happy's Market","207 W University Way","98926",46.9998705623537,-120.54986253003065
"98926","Ellensburg","WA","18th Street Grocery & Deli","1801 N Walnut St Ste 1","98926",47.01080324787956,-120.54015869693627
"98926","Ellensburg","WA","Better Life Natural Foods","111 W 6th Ave","98926",46.997859000000005,-120.54823200000001
"98926","Ellensburg","WA","Grocery Outlet","705 North Ruby Street","98926",46.9992239,-120.5456688
"98930","Grandview","WA","Lep-Re-Kon Harvest Foods","not_available","99350",46.21695,-119.788704
"98930","Grandview","WA","Walmart Supercenter","2675 E Lincoln Ave","98944",46.31539774,-119.9859784
"98930","Grandview","WA","Safeway","610 E Wine Country Rd","98930",46.2554905,-119.8927111
"98930","Grandview","WA","Prosser Food Depot","Near Meade Ave.","99350",46.20648201098023,-119.76703809440524
"98930","Grandview","WA","Grocery Outlet","2600 Yakima Valley Highway","98944",46.3196484,-119.9849495
"98930","Grandview","WA","Grnadview Market Place","206 N Euclid St","98930",46.25903004,-119.91678035
"98944","Sunnyside","WA","Walmart Supercenter","2801 Duportail St","99352",46.25605044866373,-119.3081800041671
"98944","Sunnyside","WA","Fred Meyer","101 Wellsian Way","99352",46.2625714,-119.2858308
"98944","Sunnyside","WA","WinCo Foods","101 Columbia Point Dr","99352",46.26313077680193,-119.2647245332726
"98944","Sunnyside","WA","Safeway","613 S 6th St","98944",46.3219754,-120.014042
"98944","Sunnyside","WA","Safeway","1803 George Washington Way","99354",46.29955299271049,-119.27592145040074
"98944","Sunnyside","WA","Grocery Outlet","2901 Queensgate Dr","99352",46.2594147,-119.3113561
"98944","Sunnyside","WA","Richland Health Foods","1769 George Washington Way","99354",46.298213958740234,-119.27559661865234
"98944","Sunnyside","WA","KI-BE Market Grocery And Feed","1215 Horne Dr","99320",46.27865982055664,-119.49440002441406
"98944","Sunnyside","WA","Yoke's Fresh Market","1401 Bombing Range Rd","99353",46.28722157388033,-119.35156667104499
"98944","Sunnyside","WA","HOPSNDROPS","2675 Queensgate Dr","99352",46.25851058959961,-119.30963134765625
"98948","Toppenish","WA","Lep-Re-Kon Harvest Foods","145 1st Ave","98953",46.4042854309082,-120.26740264892578
"98948","Toppenish","WA","Safeway","711 W 1st Ave","98948",46.376331380021796,-120.3215968803566
"98950","Vantage","WA","Vantage General Store","551 Vantage Hwy","98950",46.944351,-119.99040500000001
"98951","Wapato","WA","Carniceria la barata","S. Wapato Ave","98951",46.4451720928129,-120.42122073653911
"99001","Airway Heights","WA","Yokes","not_available","99001",47.64215994887723,-117.589280993408
"99001","Airway Heights","WA","Grocery Outlet","10831 W Sr 2 Highway","99001",47.6417117,-117.561828
"99004","Cheney","WA","Safeway","2710 1st St","99004",47.5059588,-117.5673321
"99004","Cheney","WA","Yoke's Fresh Market","4 Cheney Spokane Rd","99004",47.49961202038703,-117.56381683583999
"99004","Cheney","WA","Mitchell's Harvest Foods","116 W 1st St","99004",47.48316816724112,-117.5817777597168
"99004","Cheney","WA","Grocery Outlet","2533 1st Street","99004",47.5041018,-117.5639664
"99004","Cheney","WA","Denny's Harvest Foods","215 E Highway 902","99022",47.580047607421875,-117.68150329589844
"99006","Deer Park","WA","Yokes Foods","810 S Main St","99006",47.95788223967108,-117.46940766703146
"99011","Fairchild Air Force Base","WA","Fairchild AFB Commissary","105A W Spaatz Rd","99011",47.64168370287853,-117.6367636266473
"99016","Greenacres","WA","Fred Meyer","15609 E Sprague Ave","99037",47.6584912,-117.1941541
"99016","Greenacres","WA","Walmart Supercenter","15727 E Broadway Ave","99037",47.66626462217654,-117.19162168099376
"99016","Greenacres","WA","Albertsons","1304 N Liberty Lake Rd","99019",47.6694942,-117.1034096
"99016","Greenacres","WA","Safeway","14020 E Sprague Ave","99216",47.65576369046822,-117.21613080831958
"99016","Greenacres","WA","Yoke's Fresh Market","1233 N Liberty Lake Rd","99019",47.66884472239664,-117.1067480627353
"99016","Greenacres","WA","URM","16814 E Sprague Ave","99037",47.65644427011993,-117.17868455061851
"99016","Greenacres","WA","Albertsons","13606 E 32nd Ave","99216",47.6262488,-117.2226013
"99016","Greenacres","WA","Safeway","22117 E Country Vista Dr","99019",47.66799545288086,-117.10816955566406
"99016","Greenacres","WA","Safeway","Sprague","99037",47.66141143545385,-117.11726492542962
"99016","Greenacres","WA","URM Cash & Carry","16808 E Sprague Ave","99037",47.65681838989258,-117.18080139160156
"99016","Greenacres","WA","Hico","Barker","99016",47.653472,-117.156969
"99021","Mead","WA","Yoke's","14202 N Market St","99021",47.78628322090841,-117.35138038736922
"99026","Nine Mile Falls","WA","Rosauers","5912 Highway 291","99026",47.812615337040356,-117.56215293248036
"99101","Addy","WA","Blue Creek Mercantile","1677 W Blue Creek Rd","99109",48.31819534301758,-117.82192993164062
"99109","Chewelah","WA","Safeway","10 W Colville Ave","99109",48.27973038576137,-117.7160692095913
"99111","Colfax","WA","Dusty Country Store","2-18 Dusty Rd","99143",46.80943166490562,-117.65395737101912
"99111","Colfax","WA","Shin's Asian Market","1475 S Grand Ave","99163",46.717281341552734,-117.1834716796875
"99111","Colfax","WA","Rosauers","632 N Main St","99111",46.88693068834076,-117.36376245772546
"99114","Colville","WA","Walmart Supercenter","810 North Highway","99114",48.5531602,-117.915916
"99114","Colville","WA","Grocery Outlet","980 S. Main Street","99114",48.5357273,-117.9064654
"99114","Colville","WA","Safeway","391 N Main St","99114",48.547203,-117.906535
"99115","Coulee City","WA","Coulee City Food Center","not_available","99115",47.613200293335034,-119.29647550047702
"99116","Coulee Dam","WA","Safeway","320 Midway Ave","99133",47.94158949041099,-119.00553350502832
"99116","Coulee Dam","WA","Harvest Foods","304 Mead Way","99116",47.96614078367683,-118.97683054245037
"99117","Creston","WA","Sandy's Family Foods","509 Main Ave NW","99185",47.7600485357799,-118.7108443445776
"99117","Creston","WA","Sandy's Grocery","not_available","99117",47.760533140544084,-118.57662173463724
"99122","Davenport","WA","Safeway","1220 Morgan St","99122",47.654658425076924,-118.15814077258892
"99122","Davenport","WA","Fort Spokane Store","not_available","99122",47.902494,-118.294597
"99131","Gifford","WA","Inchelium Community Store","38 Shortcut Rd","99138",48.29662052382999,-118.20555210113525
"99133","Grand Coulee","WA","The Trading Post","250 Wa-155","99155",48.13147011582577,-118.97674249112274
"99133","Grand Coulee","WA","Nespelem T. Post","not_available","99155",48.131451029350494,-118.97692437436187
"99140","Keller","WA","Keller Community Store","11611 WA-21","99140",48.07813360039011,-118.68457183241844
"99156","Newport","WA","Safeway","121 W Walnut St","99156",48.1835252,-117.0405917
"99158","Oakesdale","WA","Crossett's Food Market","100-112 1st St","99158",47.128401,-117.24247915
"99159","Odessa","WA","odessa foods","not_available","99159",47.33350972929927,-118.69316230775661
"99161","Palouse","WA","McLeod's Palouse Market","215 E Main St","99161",46.90958786010742,-117.07512664794922
"99163","Pullman","WA","Walmart Supercenter","1690 Se Harvest Dr","99163",46.71218725589771,-117.17571089493222
"99163","Pullman","WA","Dissmore's IGA","1205 N Grand Ave","99163",46.73958093839024,-117.17393009090922
"99163","Pullman","WA","Safeway","430 SE Bishop Blvd","99163",46.7158573,-117.1777739
"99163","Pullman","WA","Hillside Market","not_available","99163",46.739105224609375,-117.17509460449219
"99163","Pullman","WA","Grocery Outlet","1450 S Grand Ave","99163",46.716946,-117.179276
"99166","Republic","WA","Sanpoil Espresso","30273 E Hwy 20","99166",48.641141,-118.73278800000003
"99169","Ritzville","WA","Pretty Good Grocery","not_available","99169",47.12693357336304,-118.38047152508109
"99169","Ritzville","WA","Harvest Foods","610 W 1st Ave","99169",47.12279541347714,-118.38218513528665
"99179","Uniontown","WA","Walmart Supercenter","306 5th St","99403",46.42270523793686,-117.04895692971571
"99179","Uniontown","WA","Albertsons","400 Bridge St","99403",46.4211994,-117.0430352
"99179","Uniontown","WA","Hay's Produce","701 Bridge St","99403",46.419752,-117.04729061103424
"99201","Spokane","WA","Safeway","1616 W Northwest Blvd","99205",47.6806221,-117.4361099
"99201","Spokane","WA","My Fresh Basket","1030 W Summit Pkwy","99201",47.66259448728524,-117.42722188291893
"99201","Spokane","WA","Rosauers","1808 W 3rd Ave","99201",47.65394210843741,-117.43918846041058
"99201","Spokane","WA","Main Market Co-op","44 W Main Ave","99201",47.659250461364344,-117.41286773892804
"99201","Spokane","WA","Grocery Outlet Bargain Market","1617 W 3rd Ave","99201",47.6529258,-117.4365787
"99201","Spokane","WA","Thompson's Food Mart","not_available","99201",47.65331859917251,-117.42701828021393
"99201","Spokane","WA","Fresh Abundance","2015 N Division St","99207",47.67633775,-117.41129356
"99202","Spokane","WA","Fred Meyer","400 S Thor St","99202",47.6523359,-117.3624051
"99202","Spokane","WA","Safeway","933 E Mission Ave","99202",47.6721139,-117.3951751
"99202","Spokane","WA","URM Cash & Carry","902 E Springfield Ave","99202",47.66301020241152,-117.3961493015479
"99202","Spokane","WA","Cassano's Italian Grocery","2002 E Mission","99202",47.67166235281948,-117.3809824107049
"99202","Spokane","WA","Lorien Herbs And Natural Foods","1102 S Perry St","99202",47.645299,-117.390193
"99202","Spokane","WA","Bay Oriental Market","2022 E Sprague Ave","99202",47.656997,-117.38016699999999
"99202","Spokane","WA","fredmeyers","not_available","99202",47.66553739938807,-117.36179461771832
"99202","Spokane","WA","Jax Foods","3019 E Mission Ave","99202",47.672261999999996,-117.36636200000001
"99202","Spokane","WA","Grocery Outlet Bargain Market","4210 E Sprague Avenue","99202",47.6564246,-117.3478361
"99202","Spokane","WA","Grocery Outlet","4210 E Sprague Ave","99202",47.656351,-117.34790100000001
"99202","Spokane","WA","Internation Food Store","3015 E Mission Ave","99202",47.672261999999996,-117.36636200000001
"99202","Spokane","WA","Oriental Market","3919 E Trent Ave","99202",47.67119598388672,-117.35215759277344
"99203","Spokane","WA","Yoke‚Äôs","4235 S Cheney Spokane Rd","99224",47.61508786796437,-117.42873246831289
"99203","Spokane","WA","Super 1 Foods","830 E 29th Ave","99203",47.62718411644117,-117.39921780074599
"99203","Spokane","WA","Rocket Market","726 E 43rd Ave","99203",47.61455401386852,-117.39959949726571
"99203","Spokane","WA","Rosauers","2610 E 29th Ave","99223",47.62767646733936,-117.37325165848308
"99203","Spokane","WA","Safeway","2509 E 29th Ave","99223",47.6292685,-117.3748472
"99203","Spokane","WA","Rosauers","907 W 14th Ave","99204",47.64207722041367,-117.42495801470868
"99203","Spokane","WA","Cheney Trading Company","not_available","99224",47.61492167725644,-117.428761717599
"99204","Spokane","WA","Huckleberry‚Äôs Natural Market","926 S Monroe St","99204",47.64663116074382,-117.42671556812286
"99205","Spokane","WA","Safeway","2507 W Wellesley Ave","99205",47.69896785491462,-117.448361829247
"99205","Spokane","WA","Walmart","2301 W Wellesley Ave","99205",47.69956641373751,-117.44513852178149
"99205","Spokane","WA","Safeway","902 W Francis Ave","99205",47.716064453125,-117.42454528808594
"99205","Spokane","WA","Rosauers","1724 W Francis Ave","99205",47.71645563147505,-117.43719954633978
"99205","Spokane","WA","Yoke's Fresh Market","3321 W Indian Trail Rd,","not_available",47.71737304687182,-117.46186945682909
"99205","Spokane","WA","Natural Grocers","4603 N Division St","99207",47.69999476972839,-117.41183781986317
"99205","Spokane","WA","JB‚Äôs Foods and Bottleworks","5503 N Alberta St","99205",47.70611330769892,-117.44593285254051
"99205","Spokane","WA","trading company Store","not_available","99205",47.686771392822266,-117.46470642089844
"99206","Spokane","WA","WinCo Foods","9718 E Sprague Ave","99206",47.65582291207774,-117.27358901991101
"99206","Spokane","WA","Rosauers","10618 E Sprague Ave","99206",47.65591555082685,-117.26254040084753
"99206","Spokane","WA","Yoke's Fresh Market","9329 E Montgomery Ave","99206",47.679651058425584,-117.27935899766692
"99206","Spokane","WA","Albertsons","8851 E Trent Ave","99212",47.6818398,-117.2855816
"99206","Spokane","WA","Yoke‚Äôs Fresh Market","13014 E Sprague Ave","99216",47.655766,-117.23011799999999
"99206","Spokane","WA","Grocery Outlet","12115 E. Sprague Ave.","99206",47.6578467,-117.2417077
"99206","Spokane","WA","Barney's Harvest Foods","11205 E Dishman Mica Rd","99206",47.620265406175584,-117.25386129373682
"99206","Spokane","WA","Safeway","1441 N Argonne Rd","99212",47.670502712506625,-117.28437423706055
"99206","Spokane","WA","Trading Company","Sprague","99216",47.65629763930672,-117.22999904499166
"99206","Spokane","WA","Harvest Foods","not_available","99216",47.695592377396984,-117.20856200832382
"99206","Spokane","WA","Lieng & Phane Oriental Market","11924 E Sprague Ave","99206",47.65686798095703,-117.24392700195312
"99206","Spokane","WA","Tri-State Market Supply","10010 E Montgomery","99206",47.6790702,-117.2695471
"99207","Spokane","WA","Trader Joe's","5520 N Division St","99208",47.70877003179021,-117.40948448230932
"99207","Spokane","WA","Safeway","3919 N Market St","99207",47.6941146,-117.3669471
"99207","Spokane","WA","Yoke's Fresh Market","210 E North Foothills Dr","99207",47.68165519177932,-117.40569493270588
"99207","Spokane","WA","Asian Market","3314 N Division St","99207",47.68905922421507,-117.41073137941522
"99207","Spokane","WA","albertons","not_available","99208",47.70664645846637,-117.38030073779733
"99207","Spokane","WA","Bargain Giant","2103 E Empire Ave","99207",47.693335,-117.37863
"99207","Spokane","WA","Kiev Market","not_available","99212",47.692083000000004,-117.394694
"99208","Spokane","WA","Fred Meyer","12120 N Division St","99218",47.7674854,-117.4027607
"99208","Spokane","WA","WinCo Foods","9257 N Nevada St","99218",47.74111481107621,-117.39944464758796
"99208","Spokane","WA","Rosauer's Supermarkets","9414 N Division St","99218",47.743230985440036,-117.40966106721122
"99208","Spokane","WA","Walmart Supercenter","9212 N Colton St","99218",47.74138314353333,-117.40255101102804
"99208","Spokane","WA","Safeway","10100 N Newport Hwy","99218",47.7504597,-117.3972307
"99208","Spokane","WA","Albertsons","6520 N Nevada St","99208",47.7180114,-117.3934653
"99208","Spokane","WA","Smart Foodservice Warehouse Stores","7630 N. Division Street","99208",47.727125795587504,-117.40931198100374
"99208","Spokane","WA","Albertsons","9001 N Indian Trail Rd","99208",47.73966397062781,-117.48853059145404
"99208","Spokane","WA","Grocery Outlet","7810 N Division Street","99208",47.7289467,-117.4093015
"99212","Spokane","WA","Walmart Supercenter","5025 E Sprague Ave","99212",47.65841758089725,-117.33800489765962
"99212","Spokane","WA","Smart Foodservice Warehouse Stores","211 South McKinnon","99212",47.654818,-117.33141200000001
"99212","Spokane","WA","Bountiful Basket Pickup","not_available","99223",47.625932,-117.331764
"99217","Spokane","WA","Urm foods","not_available","99217",47.72668855001776,-117.3583778782935
"99223","Spokane","WA","Albertsons","3010 E 57th Ave","99223",47.6009132,-117.3672324
"99223","Spokane","WA","Trader Joe's","2975 East 29th Ave","99223",47.62906348602258,-117.36665123891052
"99223","Spokane","WA","Regal Street Seafood","2812 E 30th Ave","99223",47.626948999999996,-117.369634
"99224","Spokane","WA","Walmart Supercenter","1221 S Hayford Rd","99224",47.64546177381689,-117.55847350335608
"99301","Pasco","WA","Walmart Supercenter","4820 N Road 68","99301",46.271867386909705,-119.18787690365467
"99301","Pasco","WA","Walmart Grocery Pickup & Delivery","4820 Road 68","99301",46.2720073,-119.1881828
"99301","Pasco","WA","Fred Meyer","2811 W 10th Ave","99336",46.19727003170196,-119.1613894701004
"99301","Pasco","WA","Albertsons","690 Gage Blvd","99352",46.2279684,-119.2670179
"99301","Pasco","WA","WinCo Foods","4602 W Clearwater Ave","99336",46.21308082228815,-119.18220601855256
"99301","Pasco","WA","Safeway","2825 W Kennewick Ave","99336",46.20824600522536,-119.16033978760652
"99301","Pasco","WA","Yoke's Fresh Markets","4905 N Road 68","99301",46.27177650729497,-119.18300737011201
"99301","Pasco","WA","Albertsons","5204 W Clearwater Ave","99336",46.21385421628509,-119.1927753465825
"99301","Pasco","WA","Smart Foodservice Warehouse Stores","1939 Fowler Street","99352",46.23303260990498,-119.21605022572727
"99301","Pasco","WA","Supermex El Pueblo Market","420 W Lewis St","99301",46.235438330545676,-119.11829281228576
"99301","Pasco","WA","Highlands Health Foods","101 Vista Way","99336",46.210697,-119.157509
"99301","Pasco","WA","Grocery Outlet","1325 West 4th Avenue","99336",46.2052872,-119.1368982
"99301","Pasco","WA","Grocery Outlet","5710 Road 68, Suite 103","99301",46.28059,-119.18743
"99301","Pasco","WA","juanitos market","not_available","99301",46.228377,-119.111039
"99301","Pasco","WA","Golden Dragon Asian Market","4727 W Clearwater Ave","99336",46.212097,-119.184294
"99301","Pasco","WA","Albertsons","1330 N 20th Ave","99301",46.24035898563755,-119.1190789715256
"99301","Pasco","WA","East Africa Grocery & Halal","126 Vista Way","99336",46.21128,-119.15694236755371
"99301","Pasco","WA","Mid-Columbia Grocery","6409 W Court St","99301",46.23734980788029,-119.15137980814428
"99301","Pasco","WA","Euromarket","not_available","99336",46.212068,-119.162762
"99324","College Place","WA","Walmart Supercenter","1700 Se Meadowbrook Blvd","99324",46.03340047563524,-118.3836069704698
"99324","College Place","WA","Andy's Market","1117 S College Ave","99324",46.03955186369959,-118.3870034994484
"99326","Connell","WA","Lep-re-kon Harvest Foods","not_available","99326",46.65535354614258,-118.86092376708984
"99328","Dayton","WA","Dayton IGA","not_available","99328",46.3165417219317,-117.98751042455811
"99329","Dixie","WA","Dixie Grocery","not_available","99329",46.1398083334543,-118.15632021179913
"99337","Kennewick","WA","Walmart Supercenter","2720 S Quillan St","99337",46.18251965453796,-119.17640916169644
"99337","Kennewick","WA","Yoke's Fresh Market","1410 W 27th Ave","99337",46.185134183693464,-119.13898229598999
"99338","Kennewick","WA","Yoke's Fresh Market","455 Englewood Dr","99352",46.23737927407369,-119.28150791225437
"99344","Othello","WA","Walmart Supercenter","1860 E Main St","99344",46.82449601,-119.1476727
"99344","Othello","WA","La Mexicana","not_available","99344",46.82589415451788,-119.1764658363092
"99345","Paterson","WA","Tienda El Sol","not_available","97818",45.84038652821042,-119.70278131856864
"99346","Plymouth","WA","Columbia Harvest Foods","1411 6th St","97882",45.918995,-119.334975
"99346","Plymouth","WA","Harvest Foods","5th St","97882",45.91824588891237,-119.33475633992418
"99347","Pomeroy","WA","P.F. Express","1123-1127 Main St","99347",46.473945155456754,-117.59216339784385
"99361","Waitsburg","WA","Albertsons","450 N Wilbur Ave","99362",46.0765375,-118.3025008
"99361","Waitsburg","WA","Waitsburg Grocery","200 Main St","99361",46.270261,-118.15536100000001
"99362","Walla Walla","WA","Super 1 Foods","710 S 9th Ave","99362",46.05583627511305,-118.34671191031534
"99362","Walla Walla","WA","Grocery Outlet","910 South 9th Avenue","99362",46.0541414,-118.3464606
"99362","Walla Walla","WA","Safeway","215 E Rose St","99362",46.070287113041466,-118.33773942324115
"99362","Walla Walla","WA","Safeway","1600 Plaza Way","99362",46.048721,-118.3480009
"99362","Walla Walla","WA","Safeway","455 N Columbia St","97862",45.9405942,-118.3879116
"99362","Walla Walla","WA","SuperMex","not_available","97862",45.937961886060606,-118.38787343457302
"99362","Walla Walla","WA","Super 1 Foods","not_available","99362",46.056308568799636,-118.33158689680627
"99403","Clarkston","WA","Rick's Family Foods","1401 13th St","99403",46.40328310269439,-117.05840526972936
