"zip","city","state","name","address","postalCode","lat","lon"
"57004","Beresford","SD","Fiesta Foods","309 NW 13th St","57004",43.0832048831909,-96.78682178333334
"57005","Brandon","SD","Hy-Vee","1601 S Sycamore Ave","57110",43.53047989385296,-96.67281711492251
"57005","Brandon","SD","Walmart Supercenter","5521 E Arrowhead Pkwy","57110",43.541515352697644,-96.65871452620111
"57005","Brandon","SD","Fareway","3301 S Sycamore Ave","57110",43.514168,-96.672688
"57005","Brandon","SD","Sunshine Foods","117 N Splitrock Blvd","57005",43.5954714678602,-96.57377450007736
"57005","Brandon","SD","ALDI","5105 E Arrowhead Pkwy","57110",43.5432555,-96.6632215
"57005","Brandon","SD","craig@icraigjohnson.com","508 S Foss Ave","57110",43.543079,-96.65992200000001
"57005","Brandon","SD","Vape it Zone","5312 Arrowhead Pkwy.","57110",43.543935,-96.6582547
"57006","Brookings","SD","Walmart Supercenter","2233 6th St.","57006",44.31418647879098,-96.76608956453501
"57006","Brookings","SD","Hy-Vee","790 22nd Ave S","57006",44.297503,-96.770173
"57006","Brookings","SD","Hy-Vee Breakroom","at Hy-Vee","57006",44.29787884236008,-96.77032490578534
"57006","Brookings","SD","El Tapatio Mexican Store","not_available","not_available",44.31219,-96.775412
"57006","Brookings","SD","Nature's Paradise Health Foods","1455 6th St","57006",44.31182098388672,-96.77958679199219
"57013","Canton","SD","Sunshine Foods","715 E 5th St","57013",43.30059745072071,-96.58444300924326
"57018","Colton","SD","Berge's Store","301 E 4th St","57018",43.78672409057617,-96.92755889892578
"57025","Elk Point","SD","Maynards","not_available","51001",42.828674517716,-96.5594194635187
"57025","Elk Point","SD","Trading Post","117 N Union St","68770",42.56325900074297,-96.7057164422618
"57025","Elk Point","SD","Jones Foods","121 E Main St","57025",42.685953496731344,-96.68396293832635
"57028","Flandreau","SD","Maynard's Food Center","108 N Crescent","57028",44.049214,-96.59376999999999
"57029","Freeman","SD","donlan's foodland","not_available","57029",43.25932693481445,-97.41842651367188
"57029","Freeman","SD","Freeman shopping center","601-673 U.S. 81","57029",43.34917068481445,-97.42176055908203
"57029","Freeman","SD","Gemars Market","not_available","57059",43.26192574170401,-97.419369748897
"57030","Garretson","SD","Garretson Food Center","616 N Main Ave","not_available",43.71647262573242,-96.50257110595703
"57032","Harrisburg","SD","Walmart Supercenter","7821 South Minnesota Avenue","57108",43.47267492918336,-96.72952578659103
"57032","Harrisburg","SD","Fareway","300 W Willow St","57032",43.432248,-96.70576
"57033","Hartford","SD","Sunshine","118 W SD Highway 38","57033",43.631625150428526,-96.94663964127642
"57033","Hartford","SD","Sunshine Foods","118 SD-38, Hartford, SD 57033","not_available",43.61443835895611,-96.95069789886475
"57039","Lennox","SD","Sunshine Foods","217 Main St","57039",43.35371914249736,-96.89187645664111
"57042","Madison","SD","Sunshine Foods","200-298 Blanche Ave N","57042",44.006693910234816,-97.11609668543159
"57043","Marion","SD","Donlan foodland","not_available","57043",43.41625917102986,-97.26080531524087
"57046","Mission Hill","SD","Hy-Vee","2100 Broadway Ave","57078",42.89141706843717,-97.39539129821424
"57049","North Sioux City","SD","Fareway","4040 War Eagle Dr","51109",42.49456616885144,-96.46241234621517
"57053","Parker","SD","Jones' Food Center","27510 S Dakota 19","57053",43.399297228943496,-97.12105265586753
"57053","Parker","SD","Donlan's foodland","not_available","57058",43.39931864187224,-97.14080949108178
"57059","Scotland","SD","Cash Smart","510 2nd St","not_available",43.15078471735831,-97.71914005279541
"57062","Springfield","SD","dougs food center","not_available","57062",42.85535826339478,-97.89401938636563
"57064","Tea","SD","Fareway","720 E 1st St","57064",43.446944,-96.827304
"57066","Tyndall","SD","Cash Smart","1620 Main St","57066",42.99152374267578,-97.86277770996094
"57069","Vermillion","SD","Hy-Vee","525 W Cherry St","57069",42.78809636860063,-96.94052696228027
"57069","Vermillion","SD","Walmart Supercenter","1207 Princeton Ave","57069",42.791691221672956,-96.93641120272738
"57070","Viborg","SD","Jones Food Center","45593-45599 County Highway 42","57070",43.17053713909865,-97.08176685028175
"57078","Yankton","SD","Walmart Supercenter","3001 Broadway Ave","57078",42.907308983985764,-97.40068570186787
"57103","Sioux Falls","SD","Sunshine Foods","530 S 2nd Ave","57104",43.54198990944037,-96.72330775850291
"57103","Sioux Falls","SD","Hy-Vee","3020 E 10th St","57103",43.54788176039486,-96.68797159585665
"57103","Sioux Falls","SD","Franklin Food Market","711 N Cliff Ave","57103",43.55571684443229,-96.71164186907002
"57103","Sioux Falls","SD","Thanh Mai","824 E Rice St","57103",43.562415,-96.715303
"57103","Sioux Falls","SD","Nikki's La Mexicana","8th and Indiana","57104",43.547379,-96.716362
"57103","Sioux Falls","SD","Beryozka European Grocery","3301 E 26th St","57103",43.528701,-96.686038
"57103","Sioux Falls","SD","International Market","3210 E 10th St","57103",43.547657,-96.685604
"57103","Sioux Falls","SD","Mekong Asian Market","1320 N Cliff Ave","57103",43.56174087524414,-96.71097564697266
"57104","Sioux Falls","SD","Hy-Vee","2700 W 10th St","57104",43.546836,-96.762074
"57104","Sioux Falls","SD","La Tapatia","615 W 11th St","57104",43.544389,-96.734899
"57104","Sioux Falls","SD","La Michoacana","2319 W 12th St","57104",43.543532,-96.756845
"57104","Sioux Falls","SD","AFRICA MARKET","318 W 18th St Ste A","57104",43.53694170626826,-96.73079817056959
"57105","Sioux Falls","SD","Hy-Vee","3000 S Minnesota Ave","57105",43.51752068394885,-96.7288528194421
"57105","Sioux Falls","SD","ALDI","2808 S Louise Ave","57106",43.51996394033694,-96.77022278308863
"57105","Sioux Falls","SD","The Fruit Club","Western Ave","not_available",43.514381524399795,-96.75070871604795
"57105","Sioux Falls","SD","The Co-op Natural Foods","2504 S Duluth Ave","57105",43.52169355289769,-96.7334334103631
"57106","Sioux Falls","SD","Hy-Vee","1900 S Marion Rd","57106",43.52796120349212,-96.78960694583384
"57106","Sioux Falls","SD","Walmart Supercenter","3209 S Louise Ave","57106",43.51691624635714,-96.77269890956785
"57106","Sioux Falls","SD","Hy-Vee","4101 S Louise Ave","57106",43.508352841838644,-96.77361650144263
"57106","Sioux Falls","SD","Lewis Drug","5500 W 41st St","57106",43.51557227,-96.79363782
"57106","Sioux Falls","SD","Pomegranate Market","4815 S Louise Ave","57106",43.501335249021466,-96.77238065504632
"57106","Sioux Falls","SD","Hy-Vee","22nd ave","not_available",43.52819709231258,-96.78758390737661
"57107","Sioux Falls","SD","Walmart Supercenter","5200 West 60th Street North","57107",43.60336094368979,-96.78893231310285
"57108","Sioux Falls","SD","Hy-Vee","1231 E 57th St","57108",43.498611,-96.708739
"57108","Sioux Falls","SD","ALDI","600 W 85th St","57108",43.4761606,-96.73126
"57201","Watertown","SD","Walmart Supercenter","1201 29th St Se","57201",44.88751366,-97.07008325
"57201","Watertown","SD","Hy-Vee","1320 9th Ave SE","57201",44.888192,-97.093615
"57201","Watertown","SD","County Fair Food Store","2-98 2nd St NE","57201",44.90060478377955,-97.11023175942623
"57212","Arlington","SD","Plagmans","not_available","57212",44.359114796734865,-97.12941528748637
"57216","Big Stone City","SD","Berens Warehouse Groceries","Hwy 12","57252",45.22572326660156,-96.61107635498047
"57216","Big Stone City","SD","Bill's Super Value","3rd Ave","57252",45.22147818333333,-96.63423923333333
"57231","De Smet","SD","The General Store","101-149 4th St SW","57231",44.383513,-97.54922883333333
"57262","Sisseton","SD","Teal's Market","112 W Hickory St","57262",45.659248999999996,-97.05301
"57274","Webster","SD","Mikes","2-44 14th Ave E","57274",45.33238791666667,-97.529868
"57279","Wilmot","SD","Wilmot Foods, Inc.","724 Main Street","57279",45.40959844392715,-96.8568205833435
"57301","Mitchell","SD","Walmart Supercenter","1101 E Spruce St","57301",43.685129969898114,-98.00986657885304
"57301","Mitchell","SD","County Fair Food Store","1305 W Havens Ave","57301",43.70156530483498,-98.04258498176839
"57301","Mitchell","SD","County Fair Food & Fuel","1012 W Havens Ave","57301",43.70230057756598,-98.03863885996093
"57301","Mitchell","SD","Coborns","1800 N Main St","57301",43.727317012212445,-98.02391363921737
"57301","Mitchell","SD","Rob's Short Stop","215 N. Burr St.","57301",43.710708000000004,-98.01876999999999
"57301","Mitchell","SD","Mitchell Farmers Market","500 N Main St","57301",43.71397018432617,-98.025390625
"57313","Armour","SD","Krulls Market","709 1st St,","57106",43.31766442269215,-98.34490738250719
"57315","Avon","SD","Ron's Market","not_available","57315",43.003883361816406,-98.06019592285156
"57325","Chamberlain","SD","Al's Oasis","1000 E SD Highway 16","57365",43.80330654381072,-99.38197016716003
"57325","Chamberlain","SD","Chamberlain Food Center","501-599 E King Ave","57325",43.80771455,-99.32515832
"57349","Howard","SD","Rusty's Food Store, Inc.","East Hwy 34","57349",44.00769675735093,-97.51991207418587
"57350","Huron","SD","Walmart Supercenter","2791 Dakota Ave S","57350",44.33300662887061,-98.21714870886771
"57350","Huron","SD","Coborns","2150 Dakota Ave S","57350",44.34044639406216,-98.21244642147037
"57350","Huron","SD","Mely's Mexican Store","256 Kansas Ave SE","57350",44.363726,-98.212343
"57350","Huron","SD","Fair city foods","not_available","57350",44.36723572878544,-98.21297131308701
"57366","Parkston","SD","Parkston Food Center","709 W SD Highway 44","57366",43.38720703125,-97.99698638916016
"57376","Tripp","SD","Cash Smart","307 S Main St","57376",43.22078318168669,-97.9657530784607
"57380","Wagner","SD","Wagner Super Foods","not_available","57380",43.081269767045384,-98.29372822273169
"57380","Wagner","SD","Buche's","401 W SD Highway","57380",43.08122634887695,-98.29871368408203
"57401","Aberdeen","SD","Kessler's Food & Liquor","621 6th Ave SE","57401",45.45983214560614,-98.47840808865787
"57401","Aberdeen","SD","Kens Super Fair","2101-2199 4th Ave SE","57401",45.46023030597614,-98.45821054904201
"57401","Aberdeen","SD","Walmart Supercenter","3820 7th Ave Se","57401",45.45634123373699,-98.43632104416965
"57401","Aberdeen","SD","Dulce's Hispanic Store And Restaurant","1111 6th Ave SW","57401",45.459183,-98.50466
"57401","Aberdeen","SD","Bargain Mart","not_available","57401",45.46719595293619,-98.48836905057712
"57430","Britton","SD","Kens Food Fair","756 7th St, Britton, SD 57430","57430",45.79263687133789,-97.75152587890625
"57445","Groton","SD","Ken's Super Fair Foods","South Dakota 37","57445",45.457290375373944,-98.10307108152078
"57452","Java","SD","Stoick's Food Center","not_available","57472",45.50687026977539,-100.03239440917969
"57469","Redfield","SD","Super Value","101-199 U.S. 212","57469",44.87732112407684,-98.51913571357727
"57501","Pierre","SD","Walmart Supercenter","1730 N Garfield Ave","57501",44.38019535058091,-100.31176536518772
"57501","Pierre","SD","Lynn's Dakotamart","120 W Sioux Ave","57501",44.36796909623676,-100.35518951449252
"57501","Pierre","SD","Infinity Natural Health","Pierre Mall","57501",44.3793351300707,-100.31744702023313
"57501","Pierre","SD","Sutley's","955 E Sioux","57501",44.362034751063355,-100.34404146968625
"57501","Pierre","SD","Pierre","500 W Sioux Ave","57501",44.370134,-100.35878100000001
"57533","Gregory","SD","Buches","not_available","57533",43.22861485912869,-99.43382856611208
"57559","Murdo","SD","Murdo Family Foods","not_available","57559",43.886513,-100.7131
"57580","Winner","SD","Winner Super Foods","1128 E 7th St","57580",43.371341705322266,-99.84195709228516
"57580","Winner","SD","Winner Food Center","817 W 2nd St","57580",43.37646766170974,-99.86875713821966
"57601","Mobridge","SD","Merkel's Foods","not_available","57601",45.5366096496582,-100.43372344970703
"57626","Faith","SD","Lynn's Dakotamart","123 Main Street","57626",45.02267074584961,-102.03839874267578
"57642","Mc Laughlin","SD","Moser Jack and Jill","Main St","57642",45.81822836708034,-100.81002901802921
"57656","Timber Lake","SD","Country Market","not_available","57656",45.43042940006097,-101.07414797175174
"57701","Rapid City","SD","Walmart Supercenter","100 Stumer Rd","57701",44.03388574893639,-103.21797174448531
"57701","Rapid City","SD","Walmart Supercenter","1200 N Lacrosse St","57701",44.09850481941474,-103.19886707329347
"57701","Rapid City","SD","Safeway","730 Mountain View Rd","57702",44.0799657,-103.2507727
"57701","Rapid City","SD","Timmons Market","747 Timmons Blvd #A","57703",44.07724543104256,-103.14999877484739
"57701","Rapid City","SD","Safeway","2120 Mount Rushmore Rd","57701",44.06500066666348,-103.23092138876478
"57701","Rapid City","SD","Family Thrift Center","1516 E Saint Patrick St","57703",44.0685961035155,-103.19020447326167
"57701","Rapid City","SD","Family Fare Supermarket","751 Mountain View Rd","57702",44.07886503833095,-103.25367280099776
"57701","Rapid City","SD","Breadroot Natural Foods Cooperative","130 Main St","57701",44.083386,-103.21358599999999
"57701","Rapid City","SD","Main Street Market","333 Omaha St #2","57701",44.082005,-103.222679
"57701","Rapid City","SD","Family Fare Supermarket","1516 E St Patrick St","57703",44.068049,-103.190056
"57701","Rapid City","SD","Wild Strawberry Market","2120 W Main St #3","57702",44.082012,-103.254586
"57701","Rapid City","SD","Benjas Mexican Store","710 N Lacrosse St","57701",44.090558,-103.200934
"57701","Rapid City","SD","Asian Grocery","1012 E North St","57701",44.087785391106756,-103.19389343261719
"57701","Rapid City","SD","Prairie Market","11 New York St","57701",44.08402726816781,-103.21536834160193
"57701","Rapid City","SD","Oriental Market","2330 W Main St","57702",44.08239076952935,-103.25833082199097
"57701","Rapid City","SD","black hills regional food bank","not_available","57701",44.09237587299915,-103.21134000532133
"57701","Rapid City","SD","Timmons Market","not_available","57703",44.07721,-103.150017
"57702","Rapid City","SD","Krull's Market","531 main st","not_available",43.93472214726273,-103.56732217082772
"57702","Rapid City","SD","Johnson Siding General Store","12300 W Highway 44","57702",44.0839729309082,-103.43851470947266
"57702","Rapid City","SD","BJ's Country Market","7215 Black Hawk Rd.","57718",44.15375918548941,-103.31040597469989
"57702","Rapid City","SD","Country Store","408 1st St","not_available",43.89586049182091,-103.41862564519101
"57702","Rapid City","SD","Haggars","8031 Stagestop Rd","57718",44.197668746776685,-103.35152634738265
"57702","Rapid City","SD","Xochils Mexican Store","632 Main St, Black Hills National Forest, Hill City, SD 57745","57745",43.92598369475306,-103.57755089581255
"57703","Rapid City","SD","Yesway Grocery Store","not_available","57719",44.115517,-103.110408
"57706","Ellsworth Afb","SD","Ellsworth AFB Commissary","2649 Lemay Blvd","57706",44.14793482539008,-103.07821396317556
"57706","Ellsworth Afb","SD","J & L Market","520 N Ellsworth Rd","57719",44.134149,-103.06959499999999
"57717","Belle Fourche","SD","Lynn's Dakotamart","600 National St","57717",44.66231553212889,-103.85166205729027
"57717","Belle Fourche","SD","Lueders Food Center","40 5th Ave","57717",44.678523999999996,-103.854834
"57718","Black Hawk","SD","Elk Creek Valley Market","15003 Sturgis Rd","57769",44.224467808923094,-103.38049682076904
"57730","Custer","SD","Lynn's Dakotamart","800 Mount Rushmore Rd","57730",43.76740043713248,-103.59517296007112
"57730","Custer","SD","Custer Country Market","444 Mount Rushmore Rd","57730",43.76598160625811,-103.60035814537433
"57732","Deadwood","SD","Lynn's Dakotamart","145 Glendale Dr","57754",44.35121853346623,-103.77733224110216
"57735","Edgemont","SD","Edgemont Community Grocery","502 2nd Ave","57735",43.29967498779297,-103.8255844116211
"57744","Hermosa","SD","Pops Grocery","30 N Ferguson St","57744",43.84001691563848,-103.1871051268941
"57747","Hot Springs","SD","Sonny Superfoods","801 Jensen Hwy","57747",43.42351288454354,-103.46525811373306
"57747","Hot Springs","SD","Lynn's Dakotamart","505 S 6th St","57747",43.427669,-103.46987299999999
"57747","Hot Springs","SD","Pirates Pub & Convenience Store","28298 Angostura Rd","57747",43.304073333740234,-103.3808364868164
"57752","Kyle","SD","Kyle Grocery","2061 BIA Highway 2","57752",43.42035424825911,-102.17750787734984
"57770","Pine Ridge","SD","Buche Foods","not_available","57770",43.025229,-102.555652
"57783","Spearfish","SD","Walmart Supercenter","2825 1st Ave","57783",44.47841557315894,-103.80958178014541
"57783","Spearfish","SD","Safeway","1606 North Ave","57783",44.5003111,-103.8580747
"57783","Spearfish","SD","Lueders Food Center","146 E Hudson St","57783",44.489737,-103.856735
"57783","Spearfish","SD","Good Earth Natural Foods","638 Main St","57783",44.489703615188056,-103.85883706142332
"57785","Sturgis","SD","Lynn's Dakotamart","1111 Lazelle St","57785",44.416360710193636,-103.51206708853117
"57785","Sturgis","SD","Back To Nature","14th St","57785",44.417853355407715,-103.52918028831482
"57785","Sturgis","SD","Grocery Mart","2216 Junction Ave","57785",44.39995140020742,-103.50856337064977
"57790","Wall","SD","Wall Food Center","103 S. Blvd.","57790",43.988666,-102.242314
