"zip","city","state","name","address","postalCode","lat","lon"
"46001","Alexandria","IN","Harvest Market","1212 N Park Ave","46001",40.27370070833152,-85.67200879192889
"46001","Alexandria","IN","Harvest Frankton","1108 E Clyde St","46044",40.219991,-85.765787
"46001","Alexandria","IN","Horner's Midtown Market","302 N Harrison St","46001",40.264678,-85.674784
"46011","Anderson","IN","Ricker's Convenience Store","1700 N Main St","46051",40.076522557889525,-85.848418236772
"46011","Anderson","IN","The 311","not_available","not_available",40.10196398656176,-85.7186373602158
"46011","Anderson","IN","Payless","2809 Nichol Avenue","46013",40.10020026665549,-85.71893692016602
"46011","Anderson","IN","Marsh","Nichol Ave","not_available",40.102053,-85.730675
"46011","Anderson","IN","The Three One One","2810 Nichol Ave, Anderson, IN 46011","46011",40.10255813598633,-85.71857452392578
"46011","Anderson","IN","Bauer's Market","not_available","46051",40.068092248850014,-85.84843111530783
"46011","Anderson","IN","Marsh Supermarkets","Nichol Ave.","46011",40.09775741747561,-85.73040414075416
"46012","Anderson","IN","Harvest Market","scatterfield rd","46012",40.107635063883485,-85.65230617260194
"46012","Anderson","IN","Marsh","not_available","46016",40.09655129537612,-85.67317732903231
"46012","Anderson","IN","Pay Less Grocery Pickup and Delivery","1845 N Scatterfield Rd","46012",40.132911682128906,-85.66028594970703
"46012","Anderson","IN","Harvest Market","205 Federal Dr","46017",40.11191174663718,-85.60165458288598
"46013","Anderson","IN","Walmart Supercenter","2321 Charles St","46013",40.064362908943004,-85.64992289665962
"46013","Anderson","IN","Meijer","6610 S Scatterfield Rd","46013",40.0486502,-85.6498556
"46013","Anderson","IN","ALDI","1428 E 53rd St","46013",40.06273740987097,-85.66144108772278
"46013","Anderson","IN","Marsh Supermarkets","815 E 53rd St","46013",40.06019973754883,-85.66912078857422
"46013","Anderson","IN","Gordon Food Service Store","2110 E 53rd St","46013",40.06225750186475,-85.65079534601028
"46013","Anderson","IN","Los Compadres","3764 Columbus Ave.","46013",40.076763,-85.666625
"46013","Anderson","IN","Meijer","6610 Scatterfield Rd","46013",40.0489687,-85.6519125
"46013","Anderson","IN","Pay Less Grocery Pickup and Delivery","3050 Meridian St","46016",40.08557389403329,-85.67837467974829
"46013","Anderson","IN","Pay Less Grocery Pickup and Delivery","1900 Applewood Center Dr","46013",40.05759079047655,-85.65649518796809
"46013","Anderson","IN","Harvest Supermarket","3205 Columbus Ave","46013",40.08811867521195,-85.66814678968048
"46030","Arcadia","IN","Cicero Market","99 South Peru","46034",40.13116524340549,-86.01304946684493
"46032","Carmel","IN","Meijer","1424 W Carmel Dr","46032",39.9735781,-86.1528477
"46032","Carmel","IN","Walmart Supercenter","2001 E 151st St","46033",40.006348532453366,-86.12432539484851
"46032","Carmel","IN","Market District","11505 N Illinois St","46032",39.9520579,-86.1636908
"46032","Carmel","IN","Kroger","1217 S Rangeline Rd","46032",39.9629427,-86.125691
"46032","Carmel","IN","Kroger","not_available","46077",39.94291020056976,-86.23648202318383
"46032","Carmel","IN","ALDI","14620 Greyhound Plz","46032",40.0011002660331,-86.12930551932556
"46032","Carmel","IN","Whole Foods Market","14598 Clay Terrace Blvd.","46032",39.99944271368381,-86.13107039362602
"46032","Carmel","IN","The Fresh Market","2490 E 146th St,","46033",40.00167715006898,-86.11834116588236
"46032","Carmel","IN","ALDI","10584 Workout Way","46032",39.94001020143081,-86.23899583158004
"46032","Carmel","IN","Bhaarat International Foods","1780 E 116th St","46032",39.957191467285156,-86.12454223632812
"46032","Carmel","IN","Earth Fare","1392 S Rangeline Rd","46032",39.95810691319226,-86.12751424536452
"46032","Carmel","IN","Harvest Fresh Market & Delicatessen","12770 Horseferry Rd","46032",39.97292396753646,-86.19553833203805
"46032","Carmel","IN","Kroger Grocery Pickup and Delivery","10679 N Michigan Rd","46077",39.942935943603516,-86.23643493652344
"46032","Carmel","IN","Mini-mart","not_available","46032",39.960306,-86.126205
"46033","Carmel","IN","Kroger","14800 Hazel Dell Xing","46062",40.003288290218265,-86.06807470321655
"46033","Carmel","IN","Kroger","7272 Fishers Crossing Dr","46038",39.9585463,-86.0413629
"46033","Carmel","IN","Bombay Bazaar","not_available","46038",39.955716036021435,-86.04307498183573
"46033","Carmel","IN","Fresh Thyme Farmers Market","14727 Fresh Thyme Market Dr","46033",40.0019168,-86.1067166
"46033","Carmel","IN","Al Basha Restaurant & Grocery","11321 Village Square Ln","46038",39.95173522851505,-86.04060872185168
"46033","Carmel","IN","Walmart Grocery Pickup and Delivery","8300 E 96th St","46037",39.929657,-86.023254
"46034","Cicero","IN","Harbour Market","20825 Hague Rd","46062",40.0903011503563,-86.03389464145121
"46036","Elwood","IN","Needler's Fresh Market","1515 S State Road 37","46036",40.26431,-85.817123
"46036","Elwood","IN","Harvest Market","not_available","46036",40.28710647016939,-85.84151819741054
"46037","Fishers","IN","Kroger","11700 Olio Rd","46037",39.9595924,-85.9222347
"46037","Fishers","IN","Walmart Neighborhood Market","9354 Ambleside Drive","46038",39.98075749945725,-86.00165229134375
"46037","Fishers","IN","Kroger","9799 E 116th St","46037",39.9551446,-85.9963101
"46037","Fishers","IN","Murray’s Cheese Shop","not_available","46037",39.959853,-85.9223
"46037","Fishers","IN","Fresh Thyme Farmers Market","11481 E 116th St","46037",39.9568339,-85.9608439
"46037","Fishers","IN","ALDI","9774 E 116th St","46037",39.95946353691717,-85.9960108927528
"46038","Fishers","IN","Earth Fare","13145 Levinson Ln","46060",39.99348522326768,-85.93135647115037
"46038","Fishers","IN","Desi Bazar","14350 Mundy Dr #200","46060",39.9970588684082,-86.00241088867188
"46039","Forest","IN","Waddells IGA","125 E Main St","46979",40.41704559326172,-86.27107238769531
"46040","Fortville","IN","Strough's IGA","624 N Madison St","46040",39.93960682367031,-85.84386815044024
"46041","Frankfort","IN","Walmart Supercenter","2460 E Wabash St","46041",40.28081875,-86.47851515
"46041","Frankfort","IN","Ruler Foods","1451 E Wabash St","46041",40.276444,-86.495928
"46041","Frankfort","IN","Schultz IGA","610 Walnut Ave","46041",40.27969621885652,-86.51849612171007
"46041","Frankfort","IN","ALDI","2465 E Wabash St","46041",40.278041169588626,-86.47970728956807
"46041","Frankfort","IN","Main Street Market","2021 E Wabash St","46041",40.27772,-86.48839
"46052","Lebanon","IN","Kroger","2420 N Lebanon St","46052",40.0695109,-86.4745546
"46052","Lebanon","IN","Meijer","6650 Whitestown Pkwy","46077",39.951332552969056,-86.34303331375122
"46052","Lebanon","IN","Walmart Supercenter","2440 N Lebanon St","46052",40.071799161420216,-86.47962545645183
"46052","Lebanon","IN","Railer's IGA","118 E North St","46052",40.04960485667298,-86.46728648149815
"46052","Lebanon","IN","ALDI","2465 N Lebanon St","46052",40.072788574773995,-86.47294812285054
"46052","Lebanon","IN","Marsh","2154-2260 Indiana 39","46052",40.05606634998665,-86.47329121872878
"46052","Lebanon","IN","IGA","not_available","46147",39.928583453903585,-86.62547208971627
"46055","Mccordsville","IN","Meijer","6939 W Broadway","46055",39.885709041904256,-85.93529433832578
"46055","Mccordsville","IN","Meijer Gas Station","6939 W. Broadway","46055",39.88691,-85.938072
"46060","Noblesville","IN","Meijer","17000 Mercantile Blvd","46060",40.03532008540364,-85.9914493560791
"46060","Noblesville","IN","Walmart Supercenter","16865 Clover Rd","46060",40.033847036970535,-85.99848516198446
"46060","Noblesville","IN","Kroger","172 Logan St","46060",40.0497056,-86.0196961
"46060","Noblesville","IN","ALDI","16971 Clover Rd","46060",40.0358292,-85.9974763
"46060","Noblesville","IN","El Rancho Authentic Mexican Grocery","723 10th street","46060",40.0361054,-86.0008287
"46060","Noblesville","IN","isle 12","not_available","46060",40.03332286641186,-85.99857986029588
"46060","Noblesville","IN","All Local","863 Conner St","46060",40.045318603515625,-86.01387786865234
"46062","Noblesville","IN","Kroger","17447 Carey Rd","46074",40.041229,-86.1058075
"46064","Pendleton","IN","Needlers Market","3015 US 36","46064",40.00031,-85.73098
"46069","Sheridan","IN","Railers IGA","203 S Main St","46069",40.13675417731745,-86.22044620614618
"46074","Westfield","IN","Kroger","150 W 161st St","46074",40.0219229536725,-86.16145312786102
"46077","Zionsville","IN","Gordon Food Service Store","3620 Bethany Rd","46268",39.914735545983056,-86.22306883335114
"46077","Zionsville","IN","Zionsville Olive Oil","31 E Pine St","46077",39.9499313,-86.2609604
"46106","Bargersville","IN","Kroger","5961 N State Road 135","46143",39.562024,-86.155675
"46107","Beech Grove","IN","Kroger","5350 E Thompson Rd","46237",39.6966819,-86.0779033
"46107","Beech Grove","IN","Walmart Supercenter","4650 S Emerson Ave","46203",39.69982805127226,-86.08468349009654
"46107","Beech Grove","IN","Beech Grove Meat Market","423 Main St","46107",39.721483,-86.086779
"46107","Beech Grove","IN","Yollie's Oriental Market","not_available","46107",39.721761,-86.088294
"46107","Beech Grove","IN","Safeway Foods","1800 Albany St","46107",39.72221755981445,-86.1037826538086
"46112","Brownsburg","IN","Kroger","905 N Green St","46112",39.8545491,-86.3908454
"46112","Brownsburg","IN","Walmart Supercenter","400 W Northfield Dr","46112",39.85892470606867,-86.39639826234354
"46113","Camby","IN","Walmart Supercenter","8191 Upland Bnd","46113",39.642293760928645,-86.3283871160716
"46113","Camby","IN","Meijer","10509 Heartland Blvd","46113",39.638807,-86.3357508
"46118","Clayton","IN","Fraberg's IGA","490 N Chestnut St","46157",39.5854046987735,-86.47997744912196
"46118","Clayton","IN","Monrovia Dairyland","not_available","46157",39.579113596208906,-86.47966040346525
"46118","Clayton","IN","Clayton Food Mart","4888 Iowa St","46118",39.689062,-86.52316938
"46120","Cloverdale","IN","Cataract General Store","2799 S Cataract Rd","47460",39.427403862731936,-86.81681948803639
"46120","Cloverdale","IN","Cataract Lake Grocery","10710 Boat Dock Rd","47868",39.44628906151063,-86.86948396372088
"46122","Danville","IN","Walmart Supercenter","1894 Ridge Avenue","46122",39.75910576740069,-86.48937145289125
"46122","Danville","IN","Walmart Neighborhood Market","900 West Main Street","46168",39.69964940251124,-86.41670605855755
"46122","Danville","IN","Kroger","785 E Main St","46122",39.75686168151124,-86.50926859692845
"46123","Avon","IN","Walmart Supercenter","9500 E Us Highway 36","46123",39.76612639352943,-86.35501090720919
"46123","Avon","IN","Meijer","10841 E US Highway 36","46123",39.7619469,-86.3296882
"46123","Avon","IN","Kroger","108 N Avon Ave","46123",39.7646573,-86.4020799
"46123","Avon","IN","Aldi","9779 E US Highway 36","46123",39.7612112,-86.3499375
"46123","Avon","IN","Banana Barracks","not_available","46123",39.778987,-86.367404
"46123","Avon","IN","Giant Supermarket Mayasari Mall","Mayasari Mall Ground floor","46123",39.7710249,-86.3883506
"46123","Avon","IN","Back In Time Natural Foods","7900 U.S. 36 (Rockville Rd)","46123",39.76413182319565,-86.38309497072495
"46124","Edinburgh","IN","JAY C","15801 N Us Highway 31","not_available",39.32101106055947,-85.86398413585992
"46124","Edinburgh","IN","Jay C Food","15801 N US Highway 31","46124",39.34299369770841,-85.97363279022835
"46130","Fountaintown","IN","Needler’s Fresh Market","5802 W US Highway 52","46163",39.72645950317383,-85.91165924072266
"46131","Franklin","IN","Meijer","2390 N Morton St","46131",39.50547591542832,-86.07330014929175
"46131","Franklin","IN","Kroger","2200 Independence Dr","46143",39.584052394717645,-86.10285727310838
"46131","Franklin","IN","Kroger Marketplace","940 N Morton St","46131",39.488893666484415,-86.0667910347193
"46131","Franklin","IN","Walmart Supercenter","2125 N Morton St","46131",39.50233093423012,-86.06687197718833
"46131","Franklin","IN","Main Street Market","US 31","46131",39.492573530446336,-86.06339705447438
"46131","Franklin","IN","Enedina Mexican Market","50 S US Highway 31","46184",39.54924126319857,-86.08725786209106
"46131","Franklin","IN","Kroger Grocery Delivery and Pickup","970 N Morton St","46131",39.4888156,-86.0671908
"46135","Greencastle","IN","Walmart Supercenter","1750 Indianapolis Rd","46135",39.644240788194736,-86.82356623999884
"46135","Greencastle","IN","Kroger","821 Indianapolis Rd","46135",39.6454699,-86.8476063
"46135","Greencastle","IN","ALDI","65 Putnam Plaza","46135",39.647697862618365,-86.82821944355965
"46140","Greenfield","IN","Walmart Supercenter","1965 N State St","46140",39.8125579,-85.76723814
"46140","Greenfield","IN","Kroger","1571 N State St","46140",39.80606758859601,-85.76677680015564
"46140","Greenfield","IN","ALDI","1780 Muskegon Ln","46140",39.80979701988435,-85.77229142189026
"46142","Greenwood","IN","Meijer","150 Marlin Dr","46142",39.614255389685816,-86.16201639175415
"46142","Greenwood","IN","Kroger","3100 Meridian Parke Dr","46142",39.618724,-86.1599691
"46142","Greenwood","IN","Walmart Supercenter","882 S. State Road 135","46143",39.60285310948732,-86.16224481844202
"46142","Greenwood","IN","Gordon Food Service","US 31 south","46142",39.627259057027985,-86.12181733390456
"46142","Greenwood","IN","Meijer","150 S Marlin Dr","46142",39.614282,-86.161959
"46142","Greenwood","IN","Walker Hatchery","1275 W Main St","46142",39.609928131103516,-86.14289093017578
"46142","Greenwood","IN","Hampton's Market","4800 W Smith Valley Rd Ste A","46142",39.60559995227961,-86.19353519869452
"46142","Greenwood","IN","ALDI","300 S State Road 135","46142",39.61126147821986,-86.15939185785572
"46143","Greenwood","IN","Walmart Supercenter","1133 No. Emerson Road","46143",39.634396417620245,-86.07997118014
"46143","Greenwood","IN","Aldi","1595 US31 S","46143",39.5945313135169,-86.10194899522412
"46143","Greenwood","IN","Walmart Grocery Pickup","1133 N Emerson Ave","46143",39.63414275,-86.08273
"46143","Greenwood","IN","Earth Fare","2110 E Country Line Rd","46227",39.635873106593586,-86.12414442338348
"46143","Greenwood","IN","Desi Bazar","not_available","46143",39.61554535,-86.08503023333333
"46150","Manilla","IN","on the way mart","not_available","46173",39.57255627505898,-85.6218679311586
"46151","Martinsville","IN","Walmart Supercenter","410 Grand Valley Blvd","46151",39.41803625372777,-86.4063094455323
"46151","Martinsville","IN","Kroger","1600 S Ohio St","46151",39.41203583764923,-86.4256408811707
"46151","Martinsville","IN","Save-A-Lot","1209 S Main St","46151",39.416024426941945,-86.42803546842926
"46158","Mooresville","IN","Kroger","530 S Indiana St","46158",39.604924,-86.3767883
"46158","Mooresville","IN","Value Market","243 E High St","46158",39.60964106340354,-86.36824897048275
"46160","Morgantown","IN","Needmore Groceries","State Road 45","47448",39.26124513217142,-86.33989664361988
"46168","Plainfield","IN","Walmart Supercenter","2373 E Main St","46168",39.71213882,-86.36764526
"46168","Plainfield","IN","Meijer","400 N Dan Jones Rd","46168",39.71266,-86.383539
"46168","Plainfield","IN","Kroger","1930 E Main St","46168",39.7120437,-86.3755286
"46168","Plainfield","IN","Aldi","2382 E Main St","46168",39.71490250109997,-86.36765465140343
"46168","Plainfield","IN","Dairyland Food Market","119 E Main St","46168",39.70317840576172,-86.4010238647461
"46168","Plainfield","IN","Meijer Pharmacy","400 Dan Jones Rd","46168",39.7134064,-86.3831209
"46173","Rushville","IN","Kroger","202 S Main St","46173",39.6058869,-85.4431614
"46173","Rushville","IN","Save-A-Lot","1542 N Main St","46173",39.62430316109231,-85.44400212646634
"46176","Shelbyville","IN","Walmart Supercenter","2500 Progress Pkwy","46176",39.52695243850907,-85.74280178180278
"46176","Shelbyville","IN","Kroger","1601 E Michigan Rd","46176",39.5177006,-85.7545855
"46176","Shelbyville","IN","ALDI","2695 E Range Rd","46176",39.52513644340218,-85.74381709098822
"46176","Shelbyville","IN","Mickey's T-Mart","Harrison St","46176",39.51771730220065,-85.776447330815
"46201","Indianapolis","IN","Kroger","4445 E 10th St","46201",39.7794924,-86.0932068
"46201","Indianapolis","IN","Save-A-Lot","3739 E Washington","46201",39.76760087108219,-86.1027922586251
"46201","Indianapolis","IN","Denise Scarbrough","746 N Riley Ave","46201",39.7781981,-86.0863352
"46201","Indianapolis","IN","Kroger","680 Twin Aire Dr","46203",39.7577275,-86.1146366
"46201","Indianapolis","IN","Walmart Grocery Pickup","3240 Southwestern","46953",39.7589361066886,-86.1113441683029
"46201","Indianapolis","IN","2 Amigos Mexican Grocery","Southeastern Avenue","46201",39.76069456008361,-86.11267476583241
"46201","Indianapolis","IN","Pogue's Run Grocer","2828 E 10th St","46201",39.781467796689164,-86.11567239111383
"46201","Indianapolis","IN","Safeway","E. 16th Street","not_available",39.789091787878306,-86.08384008279423
"46202","Indianapolis","IN","Kroger","227 W Michigan St","46204",39.7740862,-86.1625522
"46202","Indianapolis","IN","Needler's Fresh Market","320 N New Jersey St","46204",39.77176790582918,-86.15166941585073
"46202","Indianapolis","IN","Whole Foods Market","320 E. Market St.","46204",39.76842642039289,-86.15223593023596
"46202","Indianapolis","IN","Kroger","524 E 16th St","46202",39.7892516,-86.1480999
"46202","Indianapolis","IN","Angelo's Truck and Railroad Salvage","201 S College Ave","46202",39.763808,-86.145349
"46202","Indianapolis","IN","Amberson Coffee & Grocer","401 S College Ave","46203",39.760756,-86.14568
"46202","Indianapolis","IN","Advantage Sales And Marketing","W Rockville Road","46224",39.77060500275956,-86.17789713861328
"46202","Indianapolis","IN","U-Relish Farms","222 E Market St","46204",39.768641525053724,-86.15349267308066
"46203","Indianapolis","IN","Walmart Neighborhood Market","3805 S Keystone Ave","46227",39.711119598947185,-86.11966666441757
"46203","Indianapolis","IN","Kroger","4202 S East St","46227",39.70531851782693,-86.15077257156372
"46203","Indianapolis","IN","Aldi","2955 Madison Ave","46225",39.7231816,-86.1495478
"46203","Indianapolis","IN","El Ranchito","601 E Hanna Ave","46227",39.70777907159883,-86.14589322079858
"46203","Indianapolis","IN","Tex-Mex Supermarket","1104 S East St","46225",39.75212989804587,-86.1500933050858
"46203","Indianapolis","IN","Save-A-Lot","3819 S East St","46227",39.71083979645727,-86.14775298834002
"46203","Indianapolis","IN","Tienda Morelos","3817 S East St","46227",39.71035385131836,-86.14759063720703
"46203","Indianapolis","IN","Bud's Supermarket","1260 Shelby St","46203",39.750137971144134,-86.14032267295627
"46203","Indianapolis","IN","Safeway","2176 Shelby St","46203",39.73793679278492,-86.14011324550168
"46203","Indianapolis","IN","Kroger","Keystone Ave","not_available",39.69887698,-86.12288128
"46205","Indianapolis","IN","Save A Lot","2930 E 38th St","46218",39.82602,-86.11196
"46205","Indianapolis","IN","Tienda La Esperanza","2132 E 52nd St","46205",39.84793,-86.124678
"46205","Indianapolis","IN","Double 8 Foods","555 Fairfield Ave","46205",39.81794,-86.14808199999999
"46205","Indianapolis","IN","Safeway","2435 N Sherman Dr","46218",39.802947897866815,-86.10178470611571
"46205","Indianapolis","IN","Double 8 Foods","4565 N College Ave","46205",39.839351654052734,-86.14483642578125
"46208","Indianapolis","IN","Walmart Neighborhood Market","5555 Michigan Road","46228",39.85337492155952,-86.19285350881431
"46208","Indianapolis","IN","Safeway Foods","5602 N Illinois St","46208",39.85422259467818,-86.15964010005992
"46208","Indianapolis","IN","Under The Sun Discount Market","3802 N Illinois St","46208",39.825026,-86.159474
"46208","Indianapolis","IN","Double 8 Foods","2907 Dr Martin Luther King Jr St","46208",39.808638,-86.172658
"46208","Indianapolis","IN","Cleo’s Bodega","not_available","46208",39.800892,-86.170178
"46208","Indianapolis","IN","Double 8 Foods","3902 N Illinois St","46208",39.82652545946534,-86.1595943570137
"46214","Indianapolis","IN","Kroger","8150 Rockville Rd","46214",39.7656902,-86.306046
"46214","Indianapolis","IN","GetGo Gas Station","8249 Rockville Rd","46214",39.76347430445414,-86.30703633837219
"46216","Indianapolis","IN","Harrison Village Commissary","9702 E 59th St","46216",39.86404864073865,-85.99663255527682
"46216","Indianapolis","IN","Fort Ben Farmers Market","9230 Memorial Park Drive","46216",39.858219146728516,-86.00532531738281
"46217","Indianapolis","IN","Kroger","1330 W Southport Rd","46217",39.6650376,-86.1826389
"46217","Indianapolis","IN","Kroger","3361 Kentucky Ave","46221",39.7144292,-86.2351237
"46217","Indianapolis","IN","John's Poultry co","5501 S Harding St, Indianapolis, IN 46217","46217",39.685264000000004,-86.186554
"46217","Indianapolis","IN","Buck's Brothers Sunoco IGA Super Market","3015 S Meridian St","46217",39.722144835759664,-86.15763180385112
"46217","Indianapolis","IN","Tienda Mexicana","not_available","46217",39.705064,-86.158842
"46218","Indianapolis","IN","Safeway","2828 N Emerson Ave","46218",39.80800247192383,-86.08638000488281
"46219","Indianapolis","IN","Aldi","6691 E Washington St","46219",39.7707781,-86.052084
"46219","Indianapolis","IN","Taqueria Guanajuato","3110 N Shadeland Ave","46226",39.81325710628968,-86.04623618130265
"46219","Indianapolis","IN","Save-A-Lot","5940 E 10th St","46219",39.781936556853715,-86.0652915858949
"46219","Indianapolis","IN","Extreme Dollar Plus","not_available","46201",39.771017,-86.064324
"46219","Indianapolis","IN","Kroger Grocery Delivery and Pickup","7101 E 10th St","46219",39.78076392910797,-86.04185342788702
"46219","Indianapolis","IN","Crossroad Dairy/ Kroger","400 S Shortridge Rd","46219",39.765216003620374,-86.04178408296607
"46219","Indianapolis","IN","La Campos","6150 E 25th St","46219",39.80345,-86.06059
"46219","Indianapolis","IN","Kim's Oriental Grocery","8710 E 21st St","46219",39.797122,-86.014255
"46220","Indianapolis","IN","Meijer","5550 N Keystone Ave","46220",39.85338163337609,-86.12429650143895
"46220","Indianapolis","IN","Walmart Supercenter","7325 N Keystone Ave","46240",39.88747379209468,-86.11950735538345
"46220","Indianapolis","IN","Kroger","2629 E 65th St","46220",39.8752647,-86.1192307
"46220","Indianapolis","IN","Fresh Thyme Farmers Market","6301 N College Ave #101","46220",39.87076202058893,-86.14567637443548
"46220","Indianapolis","IN","Kroger","5810 E 71st St","46220",39.8845542,-86.0689056
"46220","Indianapolis","IN","Kroger","6220 Guilford Ave","46220",39.8687874,-86.1437417
"46220","Indianapolis","IN","ALDI","5235 N Keystone Ave","46220",39.8486934,-86.121056
"46220","Indianapolis","IN","The Fresh Market","5415 N College Ave,","46220",39.85133069494433,-86.14573105518758
"46220","Indianapolis","IN","Walmart Neighborhood Market","5500 Fall Creek Parkway","not_available",39.854153217458,-86.08453536977063
"46220","Indianapolis","IN","Good Earth Natural Food Co","6350 Guilford Ave","46220",39.871578304961155,-86.14312856322886
"46220","Indianapolis","IN","Sakura Mart","2450 E 71st St","46220",39.883598,-86.1212
"46220","Indianapolis","IN","Walmart Neighborhood Market","5550 Fall Creek Parkway N Dr.","46226",39.85261534106871,-86.08601331710814
"46220","Indianapolis","IN","GFS","not_available","46256",39.86745061570603,-86.13739011025152
"46221","Indianapolis","IN","Walmart Neighborhood Market","4837 Kentucky Avenue","46221",39.695881173494115,-86.26681322016697
"46221","Indianapolis","IN","Kroger","5173 W Washington St","46241",39.7527103,-86.24661
"46221","Indianapolis","IN","ALDI","3859 W Washington St","46241",39.758901684925405,-86.22790485620499
"46221","Indianapolis","IN","Crescent Market","1205 High school road","not_available",39.749564,-86.26803199999999
"46221","Indianapolis","IN","Los Patios Mexican Store","4899 Kentucky Ave","46221",39.69417,-86.26902
"46221","Indianapolis","IN","Safeway","2108 W Morris St","46221",39.75127029418945,-86.1971664428711
"46221","Indianapolis","IN","Save-A-Lot","1223 S High School Rd","46241",39.7492,-86.2686
"46221","Indianapolis","IN","Carnicerias Campos Supermarket","1223 West Washington","46241",39.74845603069843,-86.26497286817148
"46222","Indianapolis","IN","Saraga International Grocery","3605 Commercial Dr","46222",39.81819944743927,-86.2276098552945
"46222","Indianapolis","IN","Kroger","2630 W Michigan St","46222",39.7757946,-86.2046307
"46222","Indianapolis","IN","International Foods","4863 38th St","not_available",39.823035,-86.242513
"46222","Indianapolis","IN","Safeway","3008 Kessler Blvd North Dr","46222",39.810314589191854,-86.21156905443523
"46222","Indianapolis","IN","Abarrotes Mi Pueblo","2124 W Washington St","46222",39.766431,-86.19769699999999
"46222","Indianapolis","IN","Saigon Restaurant","4760 W 38th St","46254",39.82436280273747,-86.23965378426155
"46222","Indianapolis","IN","Lee Supermarket","2660 Lafayette Rd","46222",39.803959000000006,-86.215673
"46222","Indianapolis","IN","ALDI","3540 Commercial Dr","46222",39.81997675713737,-86.22886404076434
"46222","Indianapolis","IN","Great Mart Oriental Market","W. 30th St.","46222",39.81556209646096,-86.23769496161397
"46222","Indianapolis","IN","El Michoacano","not_available","46222",39.816427025492,-86.23898479246165
"46224","Indianapolis","IN","Kroger","5718 Crawfordsville Rd","46224",39.7992737,-86.2612069
"46224","Indianapolis","IN","Walmart Neighborhood Market","5835 W. 10th St","46224",39.778627359954875,-86.26317069620198
"46224","Indianapolis","IN","Taqueria el Maguey","5629 W 38th St","46254",39.82232734510604,-86.26043473027636
"46224","Indianapolis","IN","Grace Variety Store","5320 West 10th Street","not_available",39.77786581055613,-86.25542230797268
"46224","Indianapolis","IN","Zacatecs II","5437 W. 34th Street","not_available",39.81607683225408,-86.25457923349842
"46224","Indianapolis","IN","Tienda Morelos","5 Beachway Dr","46224",39.76556024185173,-86.26152674136031
"46226","Indianapolis","IN","Save-A-Lot","8101 Pendleton Pike","46226",39.8371,-86.023348
"46226","Indianapolis","IN","Kroger","6108 E 46th St","46226",39.8423172,-86.062314
"46226","Indianapolis","IN","Walmart Neighborhood Market","8010 E 38th St","46226",39.827799451060805,-86.02617379539817
"46226","Indianapolis","IN","Wonder Bread Outlet","not_available","46219",39.83352666654686,-86.04480184762853
"46226","Indianapolis","IN","ALDI","6845 Massachusetts Ave","46226-5651",39.824605604054206,-86.05024337768555
"46226","Indianapolis","IN","A & I Variety Meats & Produce","8939 E 38th St","46226",39.824513,-86.012509
"46227","Indianapolis","IN","Kroger","5911 Madison Ave","46227",39.6804065,-86.1293561
"46227","Indianapolis","IN","Fresh Thyme Farmers Market","8750 US 31 S","46227",39.6385194,-86.1308074
"46227","Indianapolis","IN","Walmart Supercenter","7245 Us 31 S","46227",39.66010686,-86.14189982
"46227","Indianapolis","IN","Saraga International Grocery","2308 E Stop 11 Rd","46227",39.65097714716564,-86.12174764495721
"46227","Indianapolis","IN","Tienda Morelos","not_available","46227",39.65123385648903,-86.12052172344032
"46227","Indianapolis","IN","Natures Pharm","8215 US 31 S","46227",39.64650286412147,-86.13404492879351
"46227","Indianapolis","IN","Chinland Grocery Store","south 135","46227",39.65035766915272,-86.12090956475146
"46228","Indianapolis","IN","My grocery spot","not_available","46228",39.85349496115932,-86.22395127145491
"46229","Indianapolis","IN","Walmart Supercenter","10617 E Washington St","46229",39.77407335191879,-85.97678471884147
"46229","Indianapolis","IN","Meijer","11351 E Washington St","46229",39.7748476,-85.9637896
"46229","Indianapolis","IN","Kroger","10450 E Washington St","46229",39.7763303,-85.9819619
"46229","Indianapolis","IN","ALDI","9989 E Washington St","46229",39.7732113,-85.9909961
"46231","Indianapolis","IN","Gordon Food Service Store","8805 Rockville Rd","46234",39.763633463194104,-86.31762627733939
"46234","Indianapolis","IN","Fresh Thyme Farmers Market","9040 Rockville Rd","46234",39.7655491,-86.3227804
"46235","Indianapolis","IN","Walmart Supercenter","10735 Pendleton Pike","46236",39.85895139,-85.97610659
"46235","Indianapolis","IN","Kroger","11101 Pendleton Pike","46236",39.8620255,-85.9706489
"46235","Indianapolis","IN","ALDI","10325 Pendleton Pike","46236",39.85632592615387,-85.98326460289286
"46235","Indianapolis","IN","Taquerias Superior","3702 N Mitthoefer Rd","46235",39.82512283325195,-85.99241638183594
"46235","Indianapolis","IN","Kay and J Shopping Services","11348 Roundwood Ct","46235",39.828921,-85.964742
"46236","Indianapolis","IN","Kroger","9835 Fall Creek Rd","46256",39.8978532,-85.9937131
"46236","Indianapolis","IN","Needler's Fresh Market","11625 Fox Rd","46236",39.901100158691406,-85.9608154296875
"46237","Indianapolis","IN","Kroger","8745 S Emerson Ave","46237",39.6393775,-86.0806655
"46237","Indianapolis","IN","Meijer","5325 E Southport Rd","46237",39.6635235,-86.0773902
"46237","Indianapolis","IN","Target","4850 E Southport Rd","46237",39.66784634927834,-86.08418632453544
"46237","Indianapolis","IN","Aldi","6835 S Emerson Ave","46237",39.6677004,-86.0805121
"46237","Indianapolis","IN","Condo","Carriage Corner","46237",39.68965500519091,-86.06117736408763
"46239","Indianapolis","IN","Sports 'n Moore","not_available","46239",39.70460243580038,-86.01014670430409
"46240","Indianapolis","IN","Whole Foods Market","1300 E. 86th St.","46240",39.914078422920156,-86.13724618427581
"46240","Indianapolis","IN","Kroger","1365 E 86th St","46240",39.9114631,-86.1379191
"46240","Indianapolis","IN","Trader Joe's","5473 E 82nd St","46250",39.90410095742983,-86.07534071240428
"46240","Indianapolis","IN","Fresh Thyme Farmers Market","4225 East 82nd St","46250",39.90625090198777,-86.0950335860253
"46240","Indianapolis","IN","ALDI","5151 E 82nd St","46250",39.9041748046875,-86.08143615722656
"46240","Indianapolis","IN","ALDI","1440 E 86th St","46240",39.9140081,-86.1354738
"46240","Indianapolis","IN","HercuLean Meal Prep","3832 E 82nd St","46240",39.910495000000004,-86.101161
"46250","Indianapolis","IN","One World Market","8456 Castleton Corner Dr.","46250",39.91054852942039,-86.07343719118118
"46250","Indianapolis","IN","Asia Mart 中华超市","6103 E 86th St","46250",39.91184350308571,-86.06204407348244
"46250","Indianapolis","IN","Tienda Morelos","9546 Allisonville Rd","46250",39.925623121047906,-86.06903442925145
"46250","Indianapolis","IN","Gordon Food Service Store","9540 Masters Rd","46250",39.92675204618249,-86.0468143621565
"46250","Indianapolis","IN","Golden Mon Mart","5862 E 82nd St","46250",39.905995000000004,-86.06768100000001
"46250","Indianapolis","IN","Superior Supermercado","not_available","46250",39.90724068,-86.05909003333333
"46250","Indianapolis","IN","Kroger","7451 N Shadeland Ave","46250",39.889518,-86.043867
"46254","Indianapolis","IN","Meijer","5349 Pike Plaza Rd","46254",39.826556,-86.251519
"46254","Indianapolis","IN","Walmart Supercenter","4545 Lafayette Rd","46254",39.83847610487711,-86.24462493755819
"46254","Indianapolis","IN","Guanajuato","5210 W Pike Plaza Rd","46254",39.83315698940043,-86.24827239408869
"46254","Indianapolis","IN","Georgetown Market","4375 Georgetown Rd","46254",39.834818751068035,-86.24387055291818
"46254","Indianapolis","IN","Superior Supermarkets","6250 W 38th St","46254",39.82515214929731,-86.26864682618395
"46254","Indianapolis","IN","Laxmi Food","5190 W Pike Plaza Rd","46254",39.834251403808594,-86.24850463867188
"46254","Indianapolis","IN","Gordon Food Service Store","4574 Lafayette Rd","46254",39.83733497422177,-86.24940276145935
"46254","Indianapolis","IN","Save-A-Lot","3898 Lafayette Rd","46254",39.82690930366516,-86.238897
"46254","Indianapolis","IN","ALDI","4470 Lafayette Rd","46254",39.83586101791887,-86.247718334198
"46254","Indianapolis","IN","El Toro","4060 N High School Rd","46254",39.82905578613281,-86.27104949951172
"46256","Indianapolis","IN","Meijer","8375 E 96th St","46256",39.92570044368553,-86.02034750678285
"46259","Indianapolis","IN","Kroger Marketplace","8130 E Southport Rd","46259",39.66883685925845,-86.02136065348736
"46259","Indianapolis","IN","Mike's Midway Grocery","7737 Shelbyville Rd","46259",39.65224751929195,-86.03044495861417
"46259","Indianapolis","IN","Dinner Bell Market","not_available","46259",39.65570068359375,-85.96820831298828
"46260","Indianapolis","IN","Kroger","2550 Lake Circle Dr","46268",39.9136495,-86.2053892
"46260","Indianapolis","IN","Fresh Thyme Farmers Market","2342 W 86th St","46260",39.9135301,-86.2019512
"46260","Indianapolis","IN","Baobab African Market","7031 Michigan Rd","46268",39.882414000000004,-86.206988
"46268","Indianapolis","IN","Walmart Supercenter","3221 W 86th St","46268",39.909818658751085,-86.2168249227611
"46268","Indianapolis","IN","Trader Joe's","2902 W 86th St","46268",39.912312136915226,-86.21248782153985
"46268","Indianapolis","IN","Kroger","5025 W 71st St","46268",39.8808204,-86.2460254
"46268","Indianapolis","IN","Save A Lot","7177 Michigan Rd","46268",39.884052000000004,-86.20845200000001
"46268","Indianapolis","IN","ALDI","8404 Michigan Rd","46268",39.907238,-86.2219876
"46268","Indianapolis","IN","El Gigante","not_available","46268",39.88631288953864,-86.20861548312027
"46303","Cedar Lake","IN","La Gaviota Supermercado","10800 W 133rd Ave","46303",41.377562,-87.465213
"46303","Cedar Lake","IN","County Market","133rd Ave","46303",41.377265,-87.45185
"46303","Cedar Lake","IN","Strack & Van Til","9605 Lincoln Plaza","not_available",41.3753568306003,-87.45140224295689
"46304","Chesterton","IN","Strack & Van Til Food Market","1600 Pioneer Trl","46304",41.59496783618778,-87.04410643455546
"46304","Chesterton","IN","Zip Food Store","not_available","46368",41.60145431402528,-87.07697908552505
"46304","Chesterton","IN","Myers Superstore","Route 6","46368",41.60737568233077,-87.0752037965978
"46304","Chesterton","IN","Save A Lot","392 W US Hwy 6","46385",41.5503154,-87.1421081
"46307","Crown Point","IN","Meijer","611 W Lincoln Hwy","46410",41.467669495993846,-87.34548211097717
"46307","Crown Point","IN","Walmart Supercenter","2936 E 79th Ave","46410",41.47362579867269,-87.30079971978067
"46307","Crown Point","IN","Strack & Van Til","10851 Broadway","46307",41.42204405498846,-87.33320551294847
"46307","Crown Point","IN","ALDI","845 N Superior Dr","46307",41.42464441030302,-87.33765945599771
"46307","Crown Point","IN","ALDI","10 W Lincoln Hwy","46410",41.47159124038967,-87.33773552239438
"46307","Crown Point","IN","Gordon Food Service Store","1601 West 81st Ave","46410",41.47018819792146,-87.3557913627084
"46307","Crown Point","IN","Wise Way","10839 Randolph St","46307",41.42150465412977,-87.23722625378934
"46307","Crown Point","IN","Meijer","611 US 30","46410",41.4699488,-87.3414728
"46307","Crown Point","IN","Strack & Van Til","200 W Franciscan Dr","46307",41.39945321875606,-87.36728274327491
"46307","Crown Point","IN","Ultra Foods","not_available","46410",41.451892052514,-87.36169107173548
"46307","Crown Point","IN","Patz's Market","800 County Square Plz","46341",41.33123779296875,-87.20185089111328
"46310","Demotte","IN","Tysen's Grocery","325 N Halleck St","46310",41.205241695572695,-87.19802066778288
"46310","Demotte","IN","Save-A-Lot","5916 E State Rd 10","46310",41.14549680038063,-87.2773341018023
"46311","Dyer","IN","Walt's Finer Foods","not_available","46311",41.509274654510705,-87.51965193508165
"46312","East Chicago","IN","Strack & Van Til","4725 Indianapolis Blvd","46312",41.628072680341454,-87.47957318702768
"46312","East Chicago","IN","Fresh County Market","2121 E Columbus Dr","46312",41.63859410836463,-87.44605076164163
"46312","East Chicago","IN","La Super Mexicana","616 W Chicago Ave","46312",41.629574,-87.47914200000001
"46319","Griffith","IN","Strack & Van Til","9632 Cline Ave","46322",41.538372196657,-87.43348239444508
"46319","Griffith","IN","ALDI","5995 W Ridge Rd","46408",41.548441547406235,-87.4071541428566
"46319","Griffith","IN","Highland Fresh Produce","3311 45th St","46322",41.53792190551758,-87.44853210449219
"46319","Griffith","IN","Stop And Shop","45thh","46322",41.53673931833836,-87.44025194190067
"46319","Griffith","IN","Ultra Foods","6010 W Ridge Rd","46408",41.55084136411831,-87.40962695871593
"46320","Hammond","IN","Strack & Van Til","115 Sibley St","46320",41.62044751189922,-87.52265864753808
"46320","Hammond","IN","Walmart Supercenter","1100 5th Ave","46320",41.69293290414985,-87.51954641676525
"46320","Hammond","IN","Food 4 Less","1724 165th St","46320",41.593870026269315,-87.48678088188171
"46320","Hammond","IN","Strack & Van Til","1836 Calumet Ave","46394",41.68012709538807,-87.50888755429492
"46320","Hammond","IN","Aldi's","4415 Calumet Ave","46327",41.63331898868807,-87.50787487844718
"46320","Hammond","IN","ALDI","6518 Columbia Ave","46320",41.59445390070358,-87.50149951146341
"46320","Hammond","IN","Food for less","not_available","46320",41.60053865883983,-87.52106441956387
"46320","Hammond","IN","Pete's Fresh Foods","4400-4498 Hohman Ave","46327",41.631794571876526,-87.51718640327454
"46320","Hammond","IN","Mark's Produce","1450 S Indianapolis Boulevard","not_available",41.686245224295924,-87.50696437383372
"46320","Hammond","IN","Lapalma","2040 Indianapolis Blvd","46394",41.67672,-87.496703
"46320","Hammond","IN","Walmart Supercenter","7850 Cabela Dr","46324",41.59384757,-87.48509752
"46320","Hammond","IN","El Ranchito","not_available","46394",41.676693,-87.490971
"46320","Hammond","IN","Hammond Fresh Market","304 Gostlin St","46327",41.631698,-87.518176
"46320","Hammond","IN","Lyko's European Food","1419 119th St","46394",41.679562,-87.49493100000001
"46321","Munster","IN","Strack & Van Til","12 Ridge Rd","46321",41.562680200652174,-87.52488530479798
"46321","Munster","IN","The Little Store","8926-8934 White Oak Ave","46321",41.54597520681107,-87.49430698137391
"46322","Highland","IN","Meijer","10138 Indianapolis Blvd","46322",41.5283876,-87.4741871
"46322","Highland","IN","Gordon Food Service Store","10420 Indianapolis Blvd","46322",41.52428657967189,-87.47255980968475
"46322","Highland","IN","Fresh Mart","2156 45th St","46322",41.53696060180664,-87.47705841064453
"46322","Highland","IN","South Side Bantam Foods","8836 Kennedy Ave","46322",41.552409961370024,-87.46188461780548
"46322","Highland","IN","Macc Asian Store","9521 Sir James Court","46322",41.54056877684212,-87.47128230401897
"46322","Highland","IN","Meijer","10138 Indianapolis","46322",41.528296,-87.474327
"46322","Highland","IN","Korean Mart","not_available","46322",41.56607911185777,-87.46080571392461
"46323","Hammond","IN","Strack & Van Til","2635 169th St","46323",41.58912918970299,-87.46465023191224
"46323","Hammond","IN","ALDI","7925 Indianapolis Blvd","46324",41.5711018,-87.4747877
"46323","Hammond","IN","Save-A-Lot","3446 169th St","46323",41.58707809448242,-87.44499206542969
"46323","Hammond","IN","Save-A-Lot","3450 169Th St","46323",41.576493393208565,-87.45075737483243
"46324","Hammond","IN","La Milpa Fruteria","1919 169th St","46324",41.588658,-87.482486
"46324","Hammond","IN","Healthy Horizons","7634 Indianapolis Blvd","46334",41.585659,-87.481328
"46341","Hebron","IN","Freezer Beef","936 S 350 W","46341",41.3017708,-87.13191909999999
"46342","Hobart","IN","Walmart Supercenter","6087 Us Highway 6","46368",41.54804045698633,-87.17841057629967
"46342","Hobart","IN","Meijer","6050 US-6","46368",41.5528518,-87.1810343
"46342","Hobart","IN","Strack & Van Til","999 W Old Ridge Rd","46342",41.53932507105862,-87.27175797881712
"46342","Hobart","IN","Strack & Van Til","7760 E Ridge Rd","46342",41.55279089877656,-87.2455559287293
"46342","Hobart","IN","ALDI","5761 US Highway 6","46368",41.549591750120534,-87.19194173812866
"46342","Hobart","IN","Strack & Van Til","Ridge","46342",41.53576772302992,-87.20337475339696
"46342","Hobart","IN","Strack's","Hobart, IN","46342",41.552486938366954,-87.24547525696012
"46342","Hobart","IN","Meijer","6050 US-Hwy 6","46368",41.5505576,-87.1809726
"46347","Kouts","IN","Save-A-Lot","175 N Main St","46347",41.31998060240338,-87.02713860489472
"46348","La Crosse","IN","save A Lot","not_available","46348",41.29804229736328,-86.89702606201172
"46350","La Porte","IN","Meijer","5150 Franklin St","46360",41.6752039,-86.8898358
"46350","La Porte","IN","Al's Supermarket","3535 Franklin St","46360",41.68816853766601,-86.89586877822876
"46350","La Porte","IN","Walmart Supercenter","5780 Franklin St","46360",41.66701705989158,-86.88824681848119
"46350","La Porte","IN","Al's Supermarket","1002 N Karwick Rd","46360",41.73403536645269,-86.8570850722948
"46350","La Porte","IN","Walmart Supercenter","333 Boyd Blvd","46350",41.62215201628443,-86.69293713238477
"46350","La Porte","IN","ALDI","5102 Franklin St","46360",41.675575469131395,-86.89301277806408
"46350","La Porte","IN","Eastside Fresh Meat & Produce","4666 W US Highway 20","46350",41.69038772583008,-86.79019165039062
"46350","La Porte","IN","Kroger","55 Pine Lake Shop Ctr","46350",41.61469395270115,-86.72629359743814
"46350","La Porte","IN","Meijer","5150 S Franklin St","46360",41.674516,-86.893019
"46350","La Porte","IN","ALDI","1234 State Rd 2","46350",41.59968298235879,-86.73323571681982
"46350","La Porte","IN","Mexican Store","Lincoln Way","46350",41.597859837936284,-86.72800973644418
"46350","La Porte","IN","Save-A-Lot","3830 S Franklin St","46360",41.68421775425038,-86.89352551179498
"46350","La Porte","IN","Al's Supermarket","1340 W Indiana Hwy 2","46350",41.59949686332572,-86.73451815866159
"46350","La Porte","IN","Ludwig Fish & Produce","711 Washington St","46350",41.61318,-86.722408
"46350","La Porte","IN","Al's Supermarket","702 E Lincolnway","46350",41.6179823188097,-86.705835327921
"46350","La Porte","IN","Hacienda San Marcos","1105 W. SR 2","46350",41.60125949095935,-86.73269391059875
"46350","La Porte","IN","Rustan's Fresh","G/F Paseo Center","46350",41.6003501,-86.7254304
"46350","La Porte","IN","Barney's Westside Market","1602 I St","46350",41.593295,-86.72975600000001
"46350","La Porte","IN","Charles City","2005 Michigan BLVD","46360",41.709225,-86.8731789
"46350","La Porte","IN","KROGER","#55 Pine Lake S. C.","not_available",41.5698165,-86.7538833
"46350","La Porte","IN","Kroger Grocery Pickup and Delivery","55 Pine Lake Ave","46350",41.61410903930664,-86.72744750976562
"46350","La Porte","IN","Petti's Grocery","929 E Michigan Blvd","46360",41.71405,-86.889647
"46350","La Porte","IN","Save-A-Lot","3830 Franklin St","46360",41.68428039550781,-86.89338684082031
"46350","La Porte","IN","Super Save Foods","2303 E Michigan Blvd","46360",41.707997,-86.871003
"46356","Lowell","IN","Strack And Van Til","2080 E Commercial Ave","46356",41.28937487912785,-87.3927164456643
"46356","Lowell","IN","ALDI","1720 E Commercial Ave","46356",41.289216471350755,-87.39868001779541
"46356","Lowell","IN","Strack and Van Til","Route 2","46356",41.29005641875762,-87.4094041927864
"46356","Lowell","IN","Strack & Vantil","not_available","46356",41.28938893334432,-87.3923836568056
"46360","Michigan City","IN","Dollar General","244 Dunes Plz","46360",41.678401947021484,-86.89952087402344
"46368","Portage","IN","Town & Country Food Market","6046 Central Ave","46368",41.57721105534645,-87.18101588829286
"46368","Portage","IN","Zip Food Stores","6759 Melton Rd","46368",41.59850311279297,-87.15437316894531
"46368","Portage","IN","Sav A Lot South Haven","not_available","46385",41.549805,-87.141543
"46368","Portage","IN","Al's Supermarket","392 West US 6","46385",41.549808792376425,-87.14202407543362
"46368","Portage","IN","San Jose's Fresh Market","6333 Central Ave","46368",41.57546771132636,-87.17018615440355
"46373","Saint John","IN","Strack & Van Til","9825 Wicker Ave","46373",41.44074338241961,-87.46834927333833
"46373","Saint John","IN","Aldi","9921 Earl Dr","46373",41.438330988626724,-87.46734023094177
"46375","Schererville","IN","Whole Foods Market","199 Us Highway 41","46375",41.51940221342721,-87.47056001090215
"46375","Schererville","IN","Strack & Van Til","1515 U.S. 41","46375",41.49452198790781,-87.46906600387273
"46375","Schererville","IN","Walmart","1555 Us Highway 41","46375",41.492776623935924,-87.46805317270329
"46375","Schererville","IN","Aldi","795 Deer Creek Dr","46375",41.4998594312685,-87.4734878540039
"46383","Valparaiso","IN","Meijer","405 Porters Vale Boulevard","46383",41.470536,-87.016091
"46383","Valparaiso","IN","Strack & Van Til Food Market","2800 Calumet Ave","46383",41.493330718215695,-87.0447893061914
"46383","Valparaiso","IN","Walmart Supercenter","2400 Morthland Dr","46383",41.455304033328865,-87.03364197193562
"46383","Valparaiso","IN","ALDI","2906 Laporte Ave","46383",41.46884324264064,-87.02523171901703
"46383","Valparaiso","IN","Town & Country Food Market","1605 Calumet Ave","46383",41.48341866162825,-87.05329887411756
"46383","Valparaiso","IN","Tarimoro GTO Fresh Market","908","46384",41.47684937293782,-87.04585806503152
"46383","Valparaiso","IN","El Salto Grocery","Lincolnway","46383",41.478157974944835,-86.99794899144803
"46383","Valparaiso","IN","Markev Produce","5308 N Calumet Ave","46383",41.517173,-87.034353
"46385","Valparaiso","IN","Strack & Van Til Food Market","U.S. 30","46385",41.46260965949085,-87.08761253141536
"46391","Westville","IN","Old Time Foods","56 S. Flynn Road","46391",41.54056167602539,-86.89796447753906
"46392","Wheatfield","IN","Save-A-Lot","3944 W State Rd 10","46392",41.18807312993185,-87.12053542954466
"46392","Wheatfield","IN","Tysen's Family Grocery","3908 W State Road 10","46392",41.18838119506836,-87.12019348144531
"46402","Gary","IN","Save More","921 Broadway","46402",41.59452644798485,-87.33679353100906
"46402","Gary","IN","Professional Trades International","504 Broadway Suite 425","46312",41.6017577,-87.3375346
"46402","Gary","IN","7-11","801-899 N Cline Ave","46319",41.604120958279374,-87.33214671166206
"46403","Gary","IN","Miller K Market","5019 E Dunes Hwy","46403",41.596193333486106,-87.27712211599103
"46403","Gary","IN","B & D Beach Mart","925 North Shelby Street","46403",41.618450160668274,-87.23681509494781
"46404","Gary","IN","Fresh County Market","2255 Arthur St.","46404",41.572026759317616,-87.36007300579561
"46405","Lake Station","IN","Tarimoro GTO 2","4294 Central Ave","46405",41.574884000000004,-87.231951
"46405","Lake Station","IN","Carimoro GTO Fresh Market - Lake Station, In","not_available","46405",41.574891,-87.232141
"46405","Lake Station","IN","Central Market","3232 Central Ave","46405",41.57435117187485,-87.2438309818716
"46406","Gary","IN","Supermercado Jalisco","6200 W 25th Ave","46406",41.573822021484375,-87.413330078125
"46408","Gary","IN","ALDI","3311 Grant St","46408",41.55847552345544,-87.35440850257868
"46408","Gary","IN","Strack's","not_available","46342",41.52260658300043,-87.38374022681846
"46410","Merrillville","IN","Strack & Van Til","6001 Broadway","46410",41.508852820985226,-87.33523170799492
"46410","Merrillville","IN","Ruler Foods","6110 Broadway","46410",41.50683227663473,-87.34018707605742
"46410","Merrillville","IN","El Pueblito","6635 Broadway","46410",41.49808120727539,-87.33558654785156
"46410","Merrillville","IN","Save A Lot","5420 S Broadway","46410",41.520313,-87.337496
"46506","Bremen","IN","Rentown Country Store","1533 3rd Rd","46506",41.43293025355813,-86.08871988625913
"46506","Bremen","IN","Pine Hill Discount Grocer","1001-1999 5th Rd","46506",41.40504686033815,-86.09403219190875
"46506","Bremen","IN","Woodies Supermarket","Bowen Ave.","46506",41.4468068226971,-86.15561942314238
"46507","Bristol","IN","Harding's Friendly Market","300 E Elkhart St","46507",41.719964845388745,-85.81448394159649
"46510","Claypool","IN","Allen's Country Market","201 E Main St","46539",41.173518,-86.034704
"46511","Culver","IN","Park N Shop","North Lake Shore Drive","46511",41.22451675092978,-86.41592630087312
"46514","Elkhart","IN","Walmart Supercenter","175 Country Road #6 West","46514",41.72219144616332,-85.97884347328792
"46514","Elkhart","IN","Kroger","901 Johnson St","46514",41.6946583570438,-85.96748569608962
"46514","Elkhart","IN","Walmart Supercenter","30830 Old Us 20","46514",41.68694366654192,-86.05827636452135
"46514","Elkhart","IN","ALDI","2810 Emerson Dr","46514",41.725049362414126,-85.98030209541321
"46514","Elkhart","IN","Martin's Supermarket","555 E Jackson Blvd","46516",41.68784645838598,-85.96441057534942
"46514","Elkhart","IN","Gordon Food Service Store","2700 Cassopolis St","46514",41.722226678669784,-85.97185850143433
"46516","Elkhart","IN","Meijer","4522 Elkhart Rd","46526",41.6258656,-85.9094781
"46516","Elkhart","IN","Smith's Food Mart","not_available","46516",41.66461161232412,-86.06066082814208
"46516","Elkhart","IN","Save A Lot","1708 S Nappanee St","46516",41.672165,-86.00125899999999
"46516","Elkhart","IN","Kroger","130 W Hively Ave","46517",41.6614643,-85.9664738
"46516","Elkhart","IN","Save-A-Lot","1708 Nappanee St","46516",41.67166771727681,-86.0018692731382
"46516","Elkhart","IN","Asia Market","3405 S Main St","46517",41.64872741699219,-85.93858337402344
"46526","Goshen","IN","Kroger","209 Chicago Ave","46526",41.5872966,-85.8446167
"46526","Goshen","IN","Walmart Supercenter","2304 Lincolnway E","46526",41.55686184,-85.78841686
"46526","Goshen","IN","ALDI","2036 Lincolnway E","46526",41.559727904817095,-85.793137550354
"46526","Goshen","IN","Walmart Supercenter","4024 Elkhart Rd","46526",41.618600722222595,-85.8995462244603
"46526","Goshen","IN","Maple City Market","314 S Main St","46526",41.582921994769414,-85.8341512229542
"46526","Goshen","IN","ALDI","2815 County Home Rd","46526",41.62391218021975,-85.90575656513465
"46526","Goshen","IN","Gutierrez Bakery","122 Main St","46526",41.58562909344841,-85.83399832248688
"46526","Goshen","IN","Martins Side Door Deli","1527 Bashor Rd","46528",41.59584934319541,-85.85644864372061
"46526","Goshen","IN","Save-A-Lot","1401 College Ave","46526",41.56676494062569,-85.81491990558422
"46528","Goshen","IN","Harding's","510 S Main St","46540",41.66770385547482,-85.70521644556736
"46528","Goshen","IN","Forks County Line Store","508 E Warren St","46540",41.67653548190008,-85.69850964791469
"46528","Goshen","IN","Mishler's General Store","65730 IN-13","46543",41.541709,-85.694538
"46528","Goshen","IN","Double R Grocery","65730 State Road 13","46543",41.54521177440952,-85.69307903572083
"46530","Granger","IN","Walmart Supercenter","316 Indian Ridge Blvd","46545",41.71434653,-86.18158579
"46530","Granger","IN","Target","155 E University Dr","46530",41.71797863052472,-86.17633202893757
"46530","Granger","IN","ALDI","210 W Douglas Rd","46545",41.70992954169815,-86.18200957775116
"46530","Granger","IN","Fresh Thyme Farmers Market","5518 Grape Rd","46545",41.7101526,-86.1859837
"46530","Granger","IN","Gordon Food Service Store","5440 N Main St","46545",41.71021387198767,-86.17879629135132
"46530","Granger","IN","Martin's Wine & Spirit Shoppe","not_available","46530",41.72684628375951,-86.1753503191055
"46530","Granger","IN","Apple Valley Natural & Organic Foods","5618 Grape Rd","46545",41.71099995896388,-86.18456984793089
"46534","Knox","IN","Five Star","1209 S Heaton St","46534",41.28533216408315,-86.62209607988427
"46534","Knox","IN","Save A Lot","2580 S US Highway 35","46534",41.2650138,-86.6192976
"46534","Knox","IN","Save-A-Lot","2580 S US Hwy 35","46534",41.33994293,-86.62077332
"46534","Knox","IN","Save-A-Lot","2580 U.S. 35","46534",41.264989028053755,-86.6196404933239
"46538","Leesburg","IN","Lance's New Market","207 W South St","46555",41.3242456293113,-85.69807790509329
"46538","Leesburg","IN","Jones Food Market","101-117 Van Buren St","46538",41.33188169860957,-85.8503754953887
"46544","Mishawaka","IN","Meijer","3610 Bremen Hwy","46544",41.6275378,-86.1741479
"46544","Mishawaka","IN","Kroger","906 S Merrifield Ave","46544",41.6536419,-86.1657212
"46544","Mishawaka","IN","Save a Lot Food Store","1240 S Byrkit St","46544",41.651497,-86.157036
"46545","Mishawaka","IN","Meijer","5020 Grape Rd","46545",41.70659787331948,-86.18553669766698
"46545","Mishawaka","IN","Whole Foods Market","4230 Grape Road","46545",41.698935488863874,-86.18626128454953
"46545","Mishawaka","IN","Kroger","2330 Hickory Rd","46545",41.6814525,-86.1956594
"46545","Mishawaka","IN","Milan Indo-Pak Grocery Store","615 West Edison Road","46545",41.6940992,-86.19124469999997
"46545","Mishawaka","IN","Save-A-Lot","3601 E Edison Rd Suite A","46615",41.695415000000004,-86.198227
"46545","Mishawaka","IN","Almadina Groceey Store","4213 Grapl","46545",41.69881,-86.18811
"46550","Nappanee","IN","Nappanee Country Store","10571 N Sr 19","46550",41.38431954993779,-86.00103697175086
"46550","Nappanee","IN","Stettas Discount Grocer","13192-13498 N 950 W","46550",41.42574727535248,-86.02915048599243
"46550","Nappanee","IN","L & M Foods, L.L.C.","10581 N State Road 19","46550",41.384391873459144,-86.00129842758179
"46550","Nappanee","IN","Rite Choice","1303 E Market St","46550",41.44195,-85.985561
"46556","Notre Dame","IN","Martin's Supermarket","1302 Elwood Ave","46628",41.69302444606187,-86.26995303278443
"46556","Notre Dame","IN","Portage Meat & Market","Elwood Ave","46628",41.693644,-86.268847
"46563","Plymouth","IN","Walmart Supercenter","2505 N Oak Dr","46563",41.36371279904502,-86.33027107769718
"46563","Plymouth","IN","ALDI","2170 N Oak Dr","46563",41.36094692171693,-86.3276012317965
"46563","Plymouth","IN","Jaime's Grocery","116 E Garro St","46563",41.340747585895855,-86.30829334259033
"46563","Plymouth","IN","Kroger Grocery Pickup and Delivery","2001 N Michigan St","46563",41.358497619628906,-86.31370544433594
"46563","Plymouth","IN","Mac's Market & Grocery","2083 Michigan RD [US-31]","46537",41.44878712092734,-86.31019705927963
"46565","Shipshewana","IN","E&S Sales","1267 N SR 5","46565",41.658512896148586,-85.57916526145542
"46565","Shipshewana","IN","Forks County Line Store","7900 E North Village Dr","46565",41.684118649839526,-85.5782417292367
"46565","Shipshewana","IN","Shipshe General Store","not_available","46565",41.678382,-85.581172
"46567","Syracuse","IN","Lance's New Market","726 S Huntington St","46567",41.41497815694007,-85.7463623416354
"46567","Syracuse","IN","Asia Market","not_available","46567",41.44453430175781,-85.76567077636719
"46571","Topeka","IN","Save-A-Lot","126 North Main St","46571",41.54049620157884,-85.53918051051683
"46574","Walkerton","IN","Koontz Lake Market","not_available","46574",41.416733460262016,-86.49007694752035
"46580","Warsaw","IN","Meijer","1200 US-30","46580",41.2602632,-85.841494
"46580","Warsaw","IN","ALDI","945 N. Parker Street","46582",41.2479855,-85.8217963
"46580","Warsaw","IN","Warsaw health food store","not_available","46580",41.23780027035196,-85.83945804161793
"46580","Warsaw","IN","International Foods","2208 E Winona Ave","46580",41.23322,-85.82869
"46580","Warsaw","IN","Sherman & Lins","1900 E Winona Ave","46580",41.2341133,-85.83126783370972
"46580","Warsaw","IN","Owen's Grocery Pickup and Delivery","2211 E Center St","46580",41.23907470703125,-85.82722473144531
"46582","Warsaw","IN","Walmart Supercenter","2501 Walton Blvd","46582",41.27163344261483,-85.85633467255032
"46601","South Bend","IN","Purple Porch Co-op","123 N Hill St","46617",41.67729535954594,-86.24316112662437
"46601","South Bend","IN","Save-A-Lot","310 S Chapin St","46601",41.67291771272125,-86.26086724005874
"46601","South Bend","IN","Saigon Market Oriental Food","not_available","46601",41.67760670185089,-86.252329
"46601","South Bend","IN","Bamber's Superette","1145 Mishawaka Ave","46615",41.66694036410213,-86.23303575387195
"46601","South Bend","IN","Save A Lot","310 Chapin St","46601",41.672847,-86.260504
"46613","South Bend","IN","Dents For Cents","1905 Goodson Ct","46613",41.656765,-86.218519
"46614","South Bend","IN","Walmart Supercenter","700 W Ireland Rd","46614",41.6263252670685,-86.25764379170771
"46614","South Bend","IN","Kroger","1217 E Ireland Rd","46614",41.63046807302218,-86.23207032680511
"46614","South Bend","IN","Aldi","202 E Ireland Rd","46614",41.62851536481083,-86.2487268447876
"46619","South Bend","IN","Martin's Supermarket","525 S Mayflower Rd","46619",41.67050759509076,-86.32378578186035
"46619","South Bend","IN","Kroger","4526 W Western Ave","46619",41.6702354,-86.311144
"46619","South Bend","IN","Martin's Super Market","4401 W Western Ave","46619",41.67264646661788,-86.3082162001428
"46628","South Bend","IN","Meijer","3600 Portage Ave","46628",41.72635485715973,-86.2856957467011
"46628","South Bend","IN","Walmart Supercenter","3701 Portage Rd","46628",41.72761207912874,-86.29278127971737
"46628","South Bend","IN","ALDI","not_available","46628",41.72020721435547,-86.28814697265625
"46628","South Bend","IN","ALDI","N Bendix Dr","46628",41.72427078004863,-86.28855849473767
"46628","South Bend","IN","Stanz Foodservice, Inc.","1840 Commerce Dr","46628",41.700145,-86.30592299999999
"46637","South Bend","IN","Pay 'N Pakit","not_available","46637",41.758022699931594,-86.25033699260753
"46637","South Bend","IN","The Pop Shop","50510 Indiana State Route 933","46637",41.760033306396494,-86.25064078952563
"46701","Albion","IN","Albion Village Foods","not_available","46701",41.390639016913866,-85.42434619631835
"46703","Angola","IN","Meijer","2990 N Wayne St","46703",41.6690993,-84.9976409
"46703","Angola","IN","Walmart Supercenter","2016 N Wayne St","46703",41.66151946710359,-84.99586945192061
"46703","Angola","IN","Bunch's Shop Rite Market","9001-9199 Toledo St","46776",41.73200346309166,-85.16226798528683
"46703","Angola","IN","ALDI","1806 N Wayne St","46703",41.65674168119544,-84.99852508306503
"46703","Angola","IN","village foods","120","46737",41.73066598100823,-84.91528860269163
"46703","Angola","IN","Fremont Village Foods","104 S Wayne St","46737",41.73025473,-84.933218
"46703","Angola","IN","Diederich's Discount Foods","not_available","46703",41.636109,-85.013232
"46703","Angola","IN","Ahoprite","not_available","46737",41.717350006103516,-84.93582153320312
"46703","Angola","IN","American Made Shopper","2012 N Wayne St","46703",41.66033935546875,-84.99887084960938
"46706","Auburn","IN","Walmart Supercenter","505 Touring Dr","46706",41.36307275,-85.08006121
"46706","Auburn","IN","Kroger","1005 W 7th St","46706",41.364527420878005,-85.07240027194712
"46706","Auburn","IN","The Olive Twist","203 N Main St.","46706",41.3675819,-85.0561477
"46706","Auburn","IN","Save-A-Lot","1014 W 7th St","46706",41.3680063,-85.0732179
"46706","Auburn","IN","ALDI","207 Touring Dr","46706",41.36522543921831,-85.07912973873317
"46711","Berne","IN","Community Markets","1056 US 27 North","46711",40.66730600423543,-84.95616405202409
"46714","Bluffton","IN","Walmart Supercenter","2100 N Main St","46714",40.77300188,-85.16738892
"46714","Bluffton","IN","Kroger","1555 S Harrison Plz","46714",40.7203248,-85.1675039
"46714","Bluffton","IN","A Harvest of Health Nutrition & Wellness Center","760 N Main St","46714",40.75062681601453,-85.16872243314062
"46721","Butler","IN","Kaiser's Supermarket","521 W Main St","46721",41.430257435273695,-84.88573305753388
"46723","Churubusco","IN","more for less","not_available","46723",41.231529235839844,-85.32302856445312
"46723","Churubusco","IN","Egolf's IGA","609 S Main St","46723",41.224086049321386,-85.3165954982894
"46725","Columbia City","IN","Walmart Supercenter","402 W Plaza Dr","46725",41.170566604394516,-85.49678350072962
"46725","Columbia City","IN","ALDI","551 N Line St","46725",41.16818771786319,-85.49351602792746
"46725","Columbia City","IN","Kroger","621 Country Side Dr","46725",41.17176952941122,-85.48193156719208
"46730","Corunna","IN","Albright's Quality Meats","111 N Bridge St","46730",41.43774001523497,-85.1471845695512
"46733","Decatur","IN","Walmart Supercenter","1700 S 13th St","46733",40.80894196882349,-84.94025059928383
"46733","Decatur","IN","Kroger","929 S 13th St","46733",40.81957552338122,-84.93602603679392
"46733","Decatur","IN","Scott's Food & Pharmacy","1013 S 13th St","46733",40.81959361896849,-84.93643833689676
"46733","Decatur","IN","Community Markets","230 E Monroe St","46733",40.831002,-84.920547
"46741","Grabill","IN","A & M","not_available","46788",41.24007372356677,-84.90840848842095
"46741","Grabill","IN","Save-A-Lot","13325 State St","46741",41.213165999999994,-84.973345
"46741","Grabill","IN","Grabill Country Store","not_available","46741",41.21380683317689,-84.9731874517972
"46742","Hamilton","IN","Hamilton Village Foods","3890 E Bellefontaine Rd","46742",41.53428268432617,-84.91474914550781
"46750","Huntington","IN","Walmart Supercenter","2800 Wal Mart Dr","46750",40.89898481540116,-85.51612337281783
"46750","Huntington","IN","ALDI","450 Frontage Rd","46750",40.90149982216247,-85.50778001546854
"46750","Huntington","IN","Owen's Grocery Pickup and Delivery","2718 Guilford St","46750",40.90021514892578,-85.50721740722656
"46750","Huntington","IN","Kroger Clicklist Pickup","not_available","46750",40.900109,-85.508917
"46750","Huntington","IN","Hoosier Foods","155-199 High St","46783",40.96122014584764,-85.3726368392529
"46755","Kendallville","IN","Walmart Supercenter","2501 E North St","46755",41.44726578501015,-85.22453838157197
"46755","Kendallville","IN","Kroger","310 W North St","46755",41.45288530270028,-85.27178049087524
"46755","Kendallville","IN","main N Mexico","109 S Main St","46755",41.44358444213867,-85.26533508300781
"46755","Kendallville","IN","Save-A-Lot","811 E North St","46755",41.453224,-85.25324499999999
"46755","Kendallville","IN","Miller's Super Valu","Kelly St","not_available",41.495115365861636,-85.37698393337058
"46761","Lagrange","IN","Tienda Santa Cruz","not_available","46761",41.644388,-85.418252
"46767","Ligonier","IN","K&J's Bent and Dent","10818 N 700 W","46767",41.50770568847656,-85.55757141113281
"46767","Ligonier","IN","OWENS","903 Lincolnway S","not_available",41.45655878770494,-85.52354705370776
"46774","New Haven","IN","Meijer","10301 Maysville Rd","46835",41.1337868,-85.0126876
"46774","New Haven","IN","Walmart Supercenter","10420 Maysville Rd","46835",41.12844757,-85.00749707
"46774","New Haven","IN","Kroger","6300 E State Blvd","46815",41.0998585,-85.0590272
"46774","New Haven","IN","Kroger","821 Lincoln Hwy","46774",41.07067079999999,-85.0179215
"46774","New Haven","IN","Kroger Grocery Pickup and Delivery","821 Lincoln Hwy W","46774",41.06909942626953,-85.04090118408203
"46774","New Haven","IN","Meijer","10301 SR 37 Hwy","46835",41.1303746,-85.0116726
"46774","New Haven","IN","Krogers","St Joe Rd","46835",41.1164716109085,-85.05029912645355
"46777","Ossian","IN","Community Markets","410 N Metts St","46777",40.88321101535287,-85.1645682596226
"46783","Roanoke","IN","Kroger Marketplace","5727 Coventry Lane","46804",41.03411115345636,-85.2593270096441
"46783","Roanoke","IN","Kroger Grocery Delivery and Pickup","5725 Coventry Ln","46804",41.034121999999996,-85.259394
"46787","South Whitley","IN","Whitley Mid Town Market","not_available","46787",41.09005625670862,-85.62843865398304
"46795","Wolcottville","IN","Wolcottville  IGA","SR 9","46795",41.53220613480744,-85.36695786137365
"46797","Woodburn","IN","Woodburn Meats & Produce","4422 Bull Rapids Rd","46797",41.12570849999999,-84.8544069
"46802","Fort Wayne","IN","Trader Joe's","4110 W Jefferson Blvd","46804",41.070777,-85.196121
"46802","Fort Wayne","IN","George's International Market","2021 Broadway","46802",41.067396876251344,-85.15153358839528
"46802","Fort Wayne","IN","Save-A-Lot","1840 Bluffton Rd","46809",41.051742480977985,-85.16279365012129
"46802","Fort Wayne","IN","ALDI","4466 Illinois Rd.","46804",41.0755248,-85.1996037
"46802","Fort Wayne","IN","Big C's","not_available","46809",41.05193356666667,-85.1604752
"46802","Fort Wayne","IN","Geary Foods","not_available","46802",41.057498931884766,-85.18013000488281
"46802","Fort Wayne","IN","Perfection Bakery Outlet","Pearl Street","not_available",41.080166978360424,-85.14474352740982
"46802","Fort Wayne","IN","saigon oriental grocery","not_available","46807",41.052394,-85.13776
"46803","Fort Wayne","IN","Dilgard Food Service","840 Hayden St","46803",41.07188034057617,-85.12569427490234
"46804","Fort Wayne","IN","Meijer","5909 Illinois Rd","46804",41.0728144,-85.2171413
"46804","Fort Wayne","IN","Walmart Supercenter","1710 Apple Glen Blvd","46804",41.07034807059189,-85.20225317898155
"46804","Fort Wayne","IN","Kroger","10230 Chestnut Plaza Dr","46814",41.0761643,-85.2761696
"46804","Fort Wayne","IN","Gordon Food Service Store","5507 Illinois Rd","46804",41.07354414022932,-85.2119243144989
"46804","Fort Wayne","IN","The Fresh Market","6306 W Jefferson Blvd,","46804",41.058575582137074,-85.22336886945975
"46804","Fort Wayne","IN","Taj Food & Gift","not_available","46804",41.05796033407011,-85.22529691114866
"46805","Fort Wayne","IN","ALDI","4750 Coldwater Rd","46825",41.12161,-85.134842
"46805","Fort Wayne","IN","Kroger","4120 N Clinton St","46805",41.11527,-85.1292808
"46805","Fort Wayne","IN","Fresh Thyme Farmers Market","4320 Coldwater Rd","46805",41.1175038,-85.1344281
"46805","Fort Wayne","IN","Pio Market","1225 E State Blvd","46805",41.096897999999996,-85.122687
"46805","Fort Wayne","IN","Woo's Oriental Grocery","504 Noble Dr","46825",41.119167,-85.13351
"46805","Fort Wayne","IN","Fort Wayne Halal Meat and Grocery","2326 Hobson Rd","46805",41.09810650657732,-85.09825971018292
"46805","Fort Wayne","IN","Health Food Shoppe","3515 N Anthony Blvd","46805",41.1083205,-85.1167339
"46805","Fort Wayne","IN","Chan's Asian Grocery","1009 Coliseum Blvd E, Fort Wayne, IN 46805","46805",41.11812538862623,-85.12624088055895
"46805","Fort Wayne","IN","ALDI","3802 Lima Rd","46805",41.11120706703563,-85.14276826262746
"46805","Fort Wayne","IN","Lake Avenue Market","1732 Lake Ave","46805",41.089420000000004,-85.115635
"46806","Fort Wayne","IN","Kroger","218 E Pettit Ave","46806",41.0363534,-85.1343233
"46806","Fort Wayne","IN","El Paraiso Supermarket","not_available","46806",41.04814898761007,-85.09591676531333
"46806","Fort Wayne","IN","Summit Market","Lafayette St","46806",41.03609955149204,-85.13142811991682
"46808","Fort Wayne","IN","Kroger","1125 W State Blvd","46808",41.09500244695325,-85.15746474266047
"46808","Fort Wayne","IN","Three Rivers Food Co-Op & Natural Grocery","1612 Sherman Blvd","46808",41.089464150422046,-85.15320671912846
"46808","Fort Wayne","IN","Save-A-Lot","1551 Goshen Ave","46808",41.100871000000005,-85.162871
"46809","Fort Wayne","IN","Kroger","7008 Bluffton Rd","46809",41.0181523,-85.1698782
"46809","Fort Wayne","IN","Artemis International Inc","3711 Vanguard Dr #A","46809",40.998509,-85.184815
"46816","Fort Wayne","IN","Walmart Supercenter","7502 Southtown Crossing Blvd","46816",41.01442583,-85.11970997
"46816","Fort Wayne","IN","ALDI","7325 S Anthony Blvd","46816",41.0180795,-85.1113956
"46816","Fort Wayne","IN","Save-A-Lot","3310 E Paulding Rd","46816",41.031447,-85.09458
"46818","Fort Wayne","IN","Meijer","6309 Lima Rd","46818",41.1378362,-85.1659139
"46818","Fort Wayne","IN","Walmart Supercenter","10105 Lima Rd","46818",41.17622309980126,-85.16885740742966
"46818","Fort Wayne","IN","Dave Hill's Market","West Washington Center","46818",41.12972148892313,-85.18210520695177
"46818","Fort Wayne","IN","Gordon Food Service Store","5831 Cross Creek Blvd","46818",41.13188205989526,-85.16616582870483
"46818","Fort Wayne","IN","ALDI","10007 Lima Rd","46818",41.17357651334493,-85.16855299472803
"46818","Fort Wayne","IN","CUSTOM QUALITY MEATS","3227 Carroll Rd","46818",41.189166,-85.18703199999999
"46825","Fort Wayne","IN","Kroger","6002 Saint Joe Center Rd","46835",41.13306508609356,-85.06511227454206
"46825","Fort Wayne","IN","Kroger Marketplace","601 E DuPont Rd","46825",41.179617339284825,-85.13346617276056
"46825","Fort Wayne","IN","Walmart Supercenter","5311 Coldwater Rd","46825",41.12840717,-85.13773441
"46825","Fort Wayne","IN","Earth Fare","704 E DuPont Rd","46825",41.17725538028947,-85.13301720754157
"46825","Fort Wayne","IN","Magadoo Asian Grocery","5945 N Clinton St","46825",41.1351318359375,-85.12155151367188
"46825","Fort Wayne","IN","Fort Wayne Custom Rx","414 E DuPont Rd","46825",41.177781,-85.136224
"46901","Kokomo","IN","Meijer","2301 E Markland Ave","46901",40.4753515,-86.1009185
"46901","Kokomo","IN","Kroger","2821 S Washington St","46902",40.4540798,-86.131083
"46901","Kokomo","IN","Walmart Supercenter","1920 E Markland Ave","46901",40.47886353,-86.10397339
"46901","Kokomo","IN","Casey's General Store","3016 S Webster St","46902",40.45021725002694,-86.13581550149743
"46901","Kokomo","IN","Kroger","605 N Dixon Rd","46901",40.491443,-86.1669903
"46901","Kokomo","IN","Gordon Food Service Store","1745 E Havens St","46901",40.49389411565205,-86.10859751701355
"46901","Kokomo","IN","Kokomo Asia Mart","not_available","46902",40.46306,-86.113
"46901","Kokomo","IN","Eternal Prosperity Oriental Market","439 E Lincoln Rd","46902",40.45492172241211,-86.12548065185547
"46901","Kokomo","IN","Hulce's","not_available","46936",40.477917,-85.967277
"46901","Kokomo","IN","ALDI","1381 S Reed Rd","46902",40.4703918,-86.10865179999999
"46901","Kokomo","IN","Save-A-Lot","1303 E Morgan","46901",40.50493258976194,-86.11446842061453
"46902","Kokomo","IN","The Sunspot Natural Market","S. R. 31","46902",40.44275895171021,-86.12583004670707
"46910","Akron","IN","Viking Foods","113 E Rochester","46910",41.039004999999996,-86.02759300000001
"46923","Delphi","IN","Wallmann's","123 E Franklin St","46923",40.587517999999996,-86.67389
"46923","Delphi","IN","Save A Lot","523 W Monroe St","46923",40.58482516093139,-86.67890500204938
"46923","Delphi","IN","Stephan's IGA","13 W Walnut St","46929",40.54877593472974,-86.52409684060287
"46928","Fairmount","IN","Horners Supermarket","201 N Main St","46928",40.4166242,-85.6510045
"46933","Gas City","IN","Lance's New Market","1025 E Main St","46933",40.488862437551234,-85.59389889257088
"46947","Logansport","IN","ALDI","4129 E Market St","46947",40.756376244665745,-86.30978331731058
"46947","Logansport","IN","Little Mexican Grocery","not_available","46947",40.758630661496966,-86.36434346067838
"46947","Logansport","IN","Walmart Grocery Pickup","240 Mall Rd","46947",40.76243,-86.3168825
"46947","Logansport","IN","Ruler Foods","3047 E Market St","46947",40.757172784047086,-86.32891418864784
"46947","Logansport","IN","MainStreet Market","824 N 3rd St","46947",40.7585563659668,-86.36923217773438
"46947","Logansport","IN","Marsh Supemarket","315 North third street","46947",40.75834524752068,-86.36941546870865
"46947","Logansport","IN","D & R Fruit Market","931 W Market St","46947",40.752717508047645,-86.38281123427481
"46947","Logansport","IN","Marsh","315 14th St","46947",40.75570251904462,-86.35256453497419
"46952","Marion","IN","ALDI","2007 S Western Ave","46953",40.5434134285842,-85.67269966768549
"46952","Marion","IN","New Market","not_available","46953",40.54611,-85.67264511
"46952","Marion","IN","Ruler Foods","1129 N Baldwin Ave","46952",40.57353617492391,-85.67736709821075
"46952","Marion","IN","Formerly Lance's New Market","829-899 N Western Ave","46952",40.568292784362505,-85.67680314071802
"46953","Marion","IN","Meijer","3820 S Western Ave","46953",40.5215245,-85.676448
"46970","Peru","IN","Kroger","930 W Main St","46970",40.7459517,-86.0960646
"46970","Peru","IN","Marsh","300 S Broadway","46970",40.747089,-86.06436598333333
"46970","Peru","IN","Save A Lot","25 Broadway Plz","46970",40.7629398,-86.0724739
"46970","Peru","IN","Save-A-Lot","25 Broadway Plaza","46970",40.76277705580138,-86.07270078376685
"46970","Peru","IN","ALDI","970 W Main St","46970",40.7461881056722,-86.09770506620407
"46975","Rochester","IN","Walmart Supercenter","2395 Main St","46975",41.050391883173305,-86.21503829956055
"46975","Rochester","IN","Kroger Grocery Pickup and Delivery","2040 Peace Tree Vlg","46975",41.05233813053816,-86.22092395362333
"46975","Rochester","IN","Save A Lot","2318 E State Road 14","46975",41.063159,-86.18248
"46975","Rochester","IN","Save-A-Lot","2318 Hwy 14 E","46975",41.06282006496433,-86.18253901704557
"46992","Wabash","IN","Kroger","1309 N Cass St","46992",40.81583543597135,-85.83373279885558
"46992","Wabash","IN","Walmart Supercenter","1601 No. Cass St","46992",40.819061000917486,-85.83546844622
"46992","Wabash","IN","Main Street Market","950 N Cass St","46992",40.80888366699219,-85.83385467529297
"46992","Wabash","IN","Sav-a-Lot","not_available","46992",40.809757232666016,-85.82779693603516
"46996","Winamac","IN","Sanders Foods","858 N Plymouth Rd","46996",41.060279846191406,-86.60228729248047
"47001","Aurora","IN","Walmart Supercenter","100 Sycamore Estates Dr","47001",39.080004910815276,-84.88932200787845
"47001","Aurora","IN","Kroger","880 W Eads Pkwy","47025",39.0847732,-84.8778659
"47001","Aurora","IN","ALDI","938 Green Blvd","47001",39.07701717803261,-84.89519954232782
"47001","Aurora","IN","I.G.A.","not_available","47018",39.01659759536599,-85.05604399173734
"47001","Aurora","IN","Family Dollar","1162 Decatur St, Aurora, IN 47001","47001",39.047874450683594,-84.89398193359375
"47001","Aurora","IN","IGA Supersaver","not_available","47025",39.09567,-84.864668
"47001","Aurora","IN","Tandys IGA","not_available","47001",39.0549,-84.89976346492767
"47006","Batesville","IN","Kroger","1034 State Road 229","47006",39.3121719,-85.2147598
"47012","Brookville","IN","Brookville IGA","11153 US Highway 52","47012",39.40964607168225,-85.01002486251576
"47012","Brookville","IN","Save-A-Lot","11143 US Highway 52","47012",39.40919494628906,-85.00948333740234
"47012","Brookville","IN","Save A Lot","11143 US 52","47012-9670",39.40912,-85.00976
"47020","Florence","IN","Warsaw Hometown IGA","201 Roberta Dr","41095",38.78692626953125,-84.8916244506836
"47024","Laurel","IN","Pavey's Grocery","19108 US Highway 52","47030",39.449119567871094,-85.13897705078125
"47031","Milan","IN","Jay C Food Store","807 N Warpath Dr","47031",39.13128156187278,-85.12865245342249
"47037","Osgood","IN","Jay C Food","711 S Buckeye","47037",39.12356005131814,-85.28696984052652
"47037","Osgood","IN","Milan jay-c","not_available","47037",39.17776870727539,-85.31304931640625
"47040","Rising Sun","IN","Tandy's IGA Foodliner","524 N High St","47040",38.95564270019531,-84.85023498535156
"47042","Versailles","IN","Pat's Bulk Food","not_available","47042",39.008721,-85.286741
"47043","Vevay","IN","Supervalu","705 E Main St","47043",38.7524299621582,-85.05774688720703
"47102","Austin","IN","Austin Supermarket","not_available","47102",38.7454197406385,-85.80679709931347
"47111","Charlestown","IN","Jay C Food","9501 County Road 403","47111",38.45347669424359,-85.67315643582265
"47111","Charlestown","IN","Skylight Country Store","not_available","40026",38.428218841552734,-85.53126525878906
"47111","Charlestown","IN","Goshen Store","US 42","40026",38.40263328227025,-85.5898008409855
"47112","Corydon","IN","Walmart Supercenter","2363 Highway 135 Nw","47112",38.23518743486555,-86.13069794975888
"47112","Corydon","IN","Jay C Food","389 Old Capital Plz NW","47112",38.227030467559075,-86.13458275794983
"47112","Corydon","IN","Bargain Buys Groceries","827 E Chestnut St","47112",38.208396911621094,-86.11507415771484
"47112","Corydon","IN","Cowboys Food Store","3010 Highway 135 NE","47112",38.2451286315918,-86.12723541259766
"47112","Corydon","IN","Save a lot","not_available","40108",38.22098,-86.14745
"47115","Depauw","IN","Maxines","Main St","47145",38.34153918213552,-86.27401597851973
"47118","English","IN","Jay C Food Store","663 E State Road 64","47118",38.352030890409864,-86.45009833853692
"47118","English","IN","JAY C","201 South High St.","not_available",38.367391856668455,-86.53077367267605
"47119","Floyds Knobs","IN","Kroger","200 New Albany Plz","47150",38.305269756472974,-85.83800287577105
"47119","Floyds Knobs","IN","Walmart Supercenter","2910 Grant Line Rd","47150",38.31933467699884,-85.81866160616448
"47119","Floyds Knobs","IN","Jay C Food","815 Highlander Point Dr","47119",38.3175718,-85.8993676
"47119","Floyds Knobs","IN","Kroger","3400 Grant Line Rd","47150",38.3288931,-85.8179773
"47119","Floyds Knobs","IN","ALDI","3118 Grant Line Rd","47150",38.324350574667946,-85.8186024427414
"47126","Henryville","IN","IGA","100-298 Penn St","47126",38.54005158678804,-85.76474459901549
"47129","Clarksville","IN","Walmart Supercenter","1351 Veterans Pkwy","47129",38.3317484662615,-85.75887490235824
"47129","Clarksville","IN","Meijer","4222 Charlestown Rd","47150",38.349203965155,-85.79316973686217
"47129","Clarksville","IN","Kroger","305 E Lewis and Clark Pkwy","47129",38.310991,-85.7705038
"47129","Clarksville","IN","Mexico City 2","not_available","47129",38.333477,-85.760553
"47129","Clarksville","IN","Rainbow Blossom New Albany","3003 Charlestown Xing","47150",38.35064840642178,-85.7959744175317
"47129","Clarksville","IN","Anna's Oriental Food Store","426 Kopp Ln","47129",38.2970968367485,-85.75895681405112
"47129","Clarksville","IN","Gordon Food Service Store","1060 Veterans Pkwy","47129",38.32469709386171,-85.76511549996354
"47129","Clarksville","IN","Harvest House","1406 Eastern Blvd","47129",38.30862045288086,-85.76946258544922
"47129","Clarksville","IN","Save-A-Lot","2626 Portland Ave","40212",38.27100694267578,-85.79037644849825
"47129","Clarksville","IN","OG'z Family Store","1615 Spring St Ste B","47130",38.2875958,-85.7498808
"47130","Jeffersonville","IN","Meijer","2750 Allison Ln","47130",38.32322627814087,-85.70905413445615
"47130","Jeffersonville","IN","Kroger","1027 Jeffersonville Commons Dr","47130",38.3345782,-85.7118727
"47130","Jeffersonville","IN","The Fresh Market","1805 Rudy Ln,","40207",38.27928881117562,-85.63796463761649
"47130","Jeffersonville","IN","ALDI","Hwy 62","47130",38.334673826828386,-85.72426187357041
"47130","Jeffersonville","IN","On Time Taxi N.A.","410 Jefferson St","47130",38.28024,-85.72615
"47130","Jeffersonville","IN","Meijer","2750 Allison Lane","47130",38.322286,-85.7125264
"47130","Jeffersonville","IN","Silver Creek Leather Co , LLC","5035 Keystone Blvd","47130",38.3078,-85.7359
"47130","Jeffersonville","IN","Save-A-Lot","1017 10th St","47130",38.28924214288754,-85.73006848877932
"47130","Jeffersonville","IN","ALDI","3131 E 10th St","47130",38.32703811400828,-85.71291725446827
"47130","Jeffersonville","IN","Thornton's Quick Cafe and Market","Court Ave","47130",38.28208772736161,-85.72512363757332
"47135","Laconia","IN","Save-A-Lot","2320-1 Bypass Rd","40108",37.99895859,-86.16941071
"47135","Laconia","IN","Kroger Grocery Pickup and Delivery","568 Bypass Rd","40108",37.98224639892578,-86.16300964355469
"47141","Marysville","IN","Jones Store","not_available","47141",38.55370883284658,-85.58582752096697
"47150","New Albany","IN","Kroger","2710 W Broadway","40211",38.248774,-85.7968753
"47150","New Albany","IN","Kroger","3165 S 2nd St","40208",38.2025501,-85.7613643
"47150","New Albany","IN","Kroger","2864 Charlestown Rd","47150",38.3321787,-85.7982038
"47150","New Albany","IN","Kroger","4211 S 3rd St","40214",38.1946953,-85.7647308
"47150","New Albany","IN","Cash Saver","3044 Wilson Ave","40211",38.22551850438429,-85.80709694175728
"47150","New Albany","IN","Kroger","520 N 35th St","40212",38.2710236,-85.8054476
"47150","New Albany","IN","5 Star Halal Meat & Grocery Store","310 W Woodlawn Ave","40214",38.18158,-85.76697355
"47150","New Albany","IN","O and S Asian Market","1800 Berry Blvd","40215",38.196447,-85.796114
"47150","New Albany","IN","440 Market","440 West Market Street","40202",38.255307,-85.758344
"47150","New Albany","IN","Save-A-Lot","1804 Dixie Hwy","40210",38.22419738769531,-85.79267120361328
"47150","New Albany","IN","Save-A-Lot","2614 Charlestown Rd.","47150",38.315093994140625,-85.80464935302734
"47150","New Albany","IN","KROGER","3400 Grantline Rd.","not_available",38.2936897,-85.8475723
"47150","New Albany","IN","Save-A-Lot","624 State St","47150",38.28832818737115,-85.82507729530333
"47161","New Salisbury","IN","Thriftway","not_available","47161",38.316939075084704,-86.09777816122062
"47164","Palmyra","IN","Allen's Market","900 Coleman Street","47164",38.40875095,-86.10875486666667
"47165","Pekin","IN","Newlon's Store","11 W State Road 60","47165",38.50530179095658,-86.0170576692142
"47167","Salem","IN","Walmart Supercenter","1309 E Hackberry Street","47167",38.614471435546875,-86.0858383178711
"47167","Salem","IN","Morgan Foods","not_available","47167",38.63759466880053,-86.01560778841865
"47167","Salem","IN","Save A Lot","1110 W Mulberry St","47167",38.60905014765248,-86.11556405773432
"47167","Salem","IN","Ruler Foods","805 S Main St","47167",38.5967935624867,-86.10207751398775
"47167","Salem","IN","Jay C Food","601 S Main St","47167",38.59899184340857,-86.1019617319107
"47170","Scottsburg","IN","Walmart Supercenter","1618 W Mcclain Ave","47170",38.687102641515686,-85.79537022938169
"47170","Scottsburg","IN","Jay C Food","400 N Gardner St","47170",38.69131605668224,-85.78114494684087
"47170","Scottsburg","IN","Save-A-Lot","130 West McClain Ave","47170",38.68647258008051,-85.77232884041965
"47172","Sellersburg","IN","Jay C Food","7605 Highway 311","47172",38.38296946375112,-85.76946363558199
"47201","Columbus","IN","Walmart Supercenter","2025 Merchant Mile","47201",39.19616972464099,-85.94624742491573
"47201","Columbus","IN","Kroger","3060 N National Rd","47201",39.227921,-85.9020763
"47201","Columbus","IN","Jay C Food","4290 W Jonathan Moore Pike","47201",39.2011354,-85.9723687
"47201","Columbus","IN","Walmart Supercenter","735 Whitfield Dr","47201",39.206564999534535,-85.8792782979466
"47201","Columbus","IN","Save-A-Lot","2540 Eastbrook Plz","47203",39.224317,-85.89423000000001
"47201","Columbus","IN","Oriental Market","1643 N National Rd","47201",39.216449,-85.882627
"47201","Columbus","IN","La Guanajuato Grocery And Restaurant","2710 State Street","47201",39.193208177865316,-85.89251339435577
"47201","Columbus","IN","Marsh","not_available","47203",39.25078502393046,-85.87858837347221
"47201","Columbus","IN","Mel’s Country Market","not_available","47201",39.06184,-86.042843
"47201","Columbus","IN","Mi Tierra","1461 Central Ave","47201",39.213295,-85.90378299999999
"47201","Columbus","IN","Aldi","1505 N National Rd","47201",39.21513259869819,-85.8811166882515
"47203","Columbus","IN","McQueen's Grocery","Mill Street","not_available",39.13586789256517,-85.81276470078521
"47220","Brownstown","IN","Jay C Food","908 W Commerce St","47220",38.87939350594286,-86.05404058100021
"47220","Brownstown","IN","Jay C Food","901 Bloomington Rd","47220",38.880210876464844,-86.05253601074219
"47230","Deputy","IN","Gaffney's Country Store","14261-14351 Main St","47230",38.79397121666667,-85.65138551666666
"47240","Greensburg","IN","Walmart Supercenter","790 Greensburg Commons Ctr","47240",39.35996503272735,-85.47524430997187
"47240","Greensburg","IN","ALDI","1700 N Lincoln St","47240",39.3530387824607,-85.47884970903397
"47240","Greensburg","IN","Needler's Fresh Market","736 W Main St","47240",39.33711242675781,-85.49435424804688
"47240","Greensburg","IN","Main Street Market","Main St, Greensburg, IN 47240","47240",39.33714329804508,-85.49466676409462
"47243","Hanover","IN","Pride Family Market","266 W Lagrange Rd","47243",38.71515655517578,-85.4786376953125
"47250","Madison","IN","Walmart Supercenter","567 Ivy Tech Dr","47250",38.78369127548354,-85.3777607529921
"47250","Madison","IN","Kroger","525 E Clifty Dr","47250",38.781535655355064,-85.37897765636444
"47250","Madison","IN","ALDI","202 Franks Dr","47250",38.77614723127222,-85.3855973482132
"47250","Madison","IN","Save A Lot","258 US-421","40447",38.7444404,-85.375483
"47250","Madison","IN","Sav a lot north vernon","not_available","47265",38.738769100025,-85.37817907121969
"47250","Madison","IN","Ruler Foods","120 E 2nd St","47250",38.73481246129145,-85.37927163558197
"47265","North Vernon","IN","Jay C Food","2325 N Highway 3","47265",39.01953795284985,-85.64239203929901
"47265","North Vernon","IN","Walmart Supercenter","2410 N State Hwy 3","47265",39.01997764,-85.63798459
"47265","North Vernon","IN","Save A Lot","1357 N State St","47265",39.012051,-85.63867900000001
"47265","North Vernon","IN","Walmart Grocery Pickup","2410 N State Highway 3","47265",39.0201703,-85.6375455
"47274","Seymour","IN","Walmart Supercenter","1600 E Tipton St","47274",38.955852319590974,-85.86431610310325
"47274","Seymour","IN","Jay C Food","1541 E Tipton St","47274",38.95920470522757,-85.86428852395329
"47274","Seymour","IN","Jay C Food","1181 W Tipton St","47274",38.95209817136195,-85.90244836824941
"47274","Seymour","IN","Jay C Food","Box 1410","47274",38.957207,-85.889205
"47274","Seymour","IN","ALDI","1710 E Tipton St","47274",38.95732309853643,-85.86182355880737
"47274","Seymour","IN","Jay C Food","900 A Ave E","47274",38.926761627197266,-85.90413665771484
"47274","Seymour","IN","Save-A-Lot","1107 West Town Plaza","47274",38.952720551103035,-85.90032479394159
"47302","Muncie","IN","Walmart Supercenter","1501 E 29th St","47302",40.15773460113159,-85.36911052357263
"47302","Muncie","IN","Pay Less Super Market","715 S Tillotson Ave","47304",40.18736738890765,-85.42140388095095
"47302","Muncie","IN","ALDI","3221 S Madison St","47302",40.16430738454916,-85.38256108760834
"47302","Muncie","IN","Selma Pantry","not_available","47383",40.188262730159366,-85.29386618059365
"47302","Muncie","IN","midstate concessions","not_available","47302",40.16794967651367,-85.35693359375
"47302","Muncie","IN","MainStreet Market","3705 S Madison St","47302",40.15967276718867,-85.38166522979736
"47302","Muncie","IN","Main Street Market","3700 S Madison St","47302",40.159481048583984,-85.38115692138672
"47303","Muncie","IN","Walmart Supercenter","4801 W Clara Ln","47304",40.21738919,-85.44075966
"47303","Muncie","IN","Meijer","6260 W McGalliard Rd","47304",40.22129692230504,-85.45888066291809
"47303","Muncie","IN","Ruler Foods","3500 N Morrison Rd","47304",40.220807444487455,-85.44137656688696
"47303","Muncie","IN","Fresh Thyme Farmers Market","505 W McGalliard Rd","47303",40.2178296,-85.3913766
"47303","Muncie","IN","ALDI","210 W. McGalliard Rd","47303",40.21940318433085,-85.3879187940426
"47303","Muncie","IN","Main Street Market","3910 W Bethel Ave","47304",40.22140426977547,-85.43227824442813
"47303","Muncie","IN","Health Foods","not_available","47303",40.218719797156474,-85.37687803381365
"47303","Muncie","IN","MainStreet Market","1301 E McGalliard Rd","47303",40.218421970966496,-85.37194211503176
"47303","Muncie","IN","mainstreet market","Burlington Drive","47303",40.228416442871094,-85.35600280761719
"47303","Muncie","IN","ALDI","3580 N Tillotson Ave","47304",40.221216999999996,-85.416382
"47303","Muncie","IN","Pay Less Grocery Pickup and Delivery","1500 W McGalliard Rd","47304",40.22040182903112,-85.40456021288013
"47304","Muncie","IN","D&D Discount Grocery","2125 N Cammack St","47304",40.212371826171875,-85.49532318115234
"47327","Cambridge City","IN","Cutshaw's Market","W. Front Sr.","47327",39.813772516587534,-85.17068753139688
"47331","Connersville","IN","Walmart Supercenter","4200 Western Ave","47331",39.68349959590365,-85.13676295713624
"47331","Connersville","IN","Kroger","516 W 30th St","47331",39.6730653,-85.1348864
"47331","Connersville","IN","Marsh","2200 N Park Rd","47331",39.660560607910156,-85.12715911865234
"47331","Connersville","IN","Kroger","N Grand Ave","47331",39.664688738339,-85.13440144562277
"47331","Connersville","IN","Save-A-Lot","3100 Virginia Ave","47331",39.672575,-85.130835
"47334","Daleville","IN","Save-A-Lot","2301 N Priority Way","47396",40.212499,-85.553376
"47348","Hartford City","IN","Needler's Fresh Market","1711 N Walnut St","47348",40.46590805053711,-85.37091064453125
"47348","Hartford City","IN","Ecowater Systems Of Hartford City","413 W Water St","47348",40.450065,-85.372
"47348","Hartford City","IN","Save-A-Lot","1817 North Walnut","47348",40.46683970490222,-85.37091214582247
"47348","Hartford City","IN","Main Street Market","N Walnut St, Hartford City, IN 47348","47348",40.46507972920387,-85.37071533313954
"47348","Hartford City","IN","Bil's Grocery","Jefferson St","47348",40.44941221933567,-85.36398651333876
"47348","Hartford City","IN","Coffels Family Market","575 N Main Street","47359",40.54899016702762,-85.28000036378326
"47348","Hartford City","IN","Bil's Grocery Store","not_available","47338",40.380120580054644,-85.36958055357049
"47354","Losantville","IN","Losantville Discount Grocery","not_available","47354",40.023723,-85.190365
"47354","Losantville","IN","Losantville Discount Grocery","US Highway 35","47354",40.0254020690918,-85.19285583496094
"47356","Middletown","IN","Harvest Market","locust street","not_available",40.05403021099031,-85.5349955673048
"47361","Mount Summit","IN","Summit Mart","101 W Main St","47361",40.004452998669436,-85.38530726490875
"47362","New Castle","IN","Kroger","120 S Memorial Dr","47362",39.9298403,-85.3799815
"47362","New Castle","IN","Walmart Supercenter","3167 S State Road 3","47362",39.886710354826754,-85.38853682091192
"47362","New Castle","IN","ALDI","107 S Memorial Dr","47362",39.930196278986934,-85.38359484295142
"47362","New Castle","IN","Harvest Supermarket","1712 Broad St","47362",39.93138012177668,-85.36353578218745
"47362","New Castle","IN","Main Street Market","2915 S 14th St","47362",39.90372270576871,-85.36117236088386
"47362","New Castle","IN","Lanzer Ron Soft Water","1301 S 14th St","47362",39.918531,-85.367146
"47371","Portland","IN","Walmart Supercenter","950 W Votaw St","47371",40.44058841379541,-84.99021249743953
"47371","Portland","IN","Main Street Market","218 W Lincoln Ave","47371",40.44832992553711,-84.97118377685547
"47374","Richmond","IN","Meijer","2507 Chester Blvd","47374",39.8683787,-84.8863692
"47374","Richmond","IN","Kroger","3701 National Rd E","47374",39.8294774,-84.8511921
"47374","Richmond","IN","Walmart Supercenter","3601 E Main St","47374",39.82690480895148,-84.85327274954393
"47374","Richmond","IN","Needler's Fresh Market","not_available","47374",39.825954,-84.90849
"47374","Richmond","IN","Save-A-Lot","3775 National Rd E","47374",39.829151,-84.848407
"47374","Richmond","IN","B & D Grocery Outlet","440 S 9th St","47374",39.82207786666667,-84.89039
"47374","Richmond","IN","ALDI","4401 National Rd E Ste 1","47374",39.8297963,-84.8417022
"47384","Shirley","IN","Websters Market","Main Street","47384",39.892353072995135,-85.57499885559747
"47390","Union City","IN","Save-A-Lot","380 W Deerfield Rd","47390",40.21277103401301,-84.81273735408963
"47394","Winchester","IN","Walmart Supercenter","950 E Greenville Pike","47394",40.163047312783355,-84.96550841897441
"47394","Winchester","IN","ALDI","930 E Greenville Pike","47394",40.164914,-84.966193
"47401","Bloomington","IN","Kroger","1175 S College Mall Rd","47401",39.1537182,-86.4952427
"47401","Bloomington","IN","Kroger","528 S College Ave","47403",39.1599011,-86.5357462
"47401","Bloomington","IN","Kroger","4025 S Old State Road 37","47401",39.1202031,-86.5295435
"47401","Bloomington","IN","Fresh Thyme Farmers Market","2812 E 3rd St","47401",39.16320983907908,-86.49626975516436
"47401","Bloomington","IN","ALDI","2813 E 3rd St","47401",39.16535186767578,-86.49598693847656
"47401","Bloomington","IN","Bloomingfoods","3220 E 3rd St","47401",39.163955607582444,-86.49127154645197
"47401","Bloomington","IN","Bloomingfoods","316 W 6th St","47404",39.16778439646819,-86.53714102970939
"47401","Bloomington","IN","Bloomingfoods Market & Cafe","614 E Second Steet","47401",39.161185310769405,-86.52644114040862
"47401","Bloomington","IN","Apna Bazaar","not_available","47401",39.163064,-86.500934
"47401","Bloomington","IN","Saraga Oriental Market","1305 S College Mall Rd","47401",39.152679443359375,-86.4975814819336
"47401","Bloomington","IN","10th Street Market","not_available","47408",39.17168372705361,-86.51058131843439
"47401","Bloomington","IN","Krazy Joe's","9365 S Chapel Hill Rd","47436",39.006065368652344,-86.43133544921875
"47401","Bloomington","IN","365 by Whole Foods Market","2894 E 3rd St","47401",39.164074,-86.495132
"47401","Bloomington","IN","Olive Market","2610 E 10th St","47408",39.17097091674805,-86.50198364257812
"47401","Bloomington","IN","Sahara Mart","106 E 2nd St","47401",39.16135483028275,-86.53317741150353
"47401","Bloomington","IN","Mother Hubbard's Cupboard","1100 W Allen St","47403",39.155928,-86.545621
"47401","Bloomington","IN","Bloomingfoods Downtown","419 E Kirkwood Ave","47408",39.16706707057841,-86.52906799331119
"47401","Bloomington","IN","Luckys Market","2424 S Walnut St","47401",39.137671694154506,-86.53148356580809
"47403","Bloomington","IN","Walmart Supercenter","3313 W State Rd 45","47403",39.14201571175921,-86.57967123880678
"47403","Bloomington","IN","Kroger","500 S Liberty Dr","47403",39.162607,-86.5805952
"47403","Bloomington","IN","Menards","1285 S Liberty Dr","47403",39.15855269604323,-86.5747227568354
"47403","Bloomington","IN","Aldi","2035 S Liberty Dr","47403",39.14712766922397,-86.57622724771505
"47403","Bloomington","IN","La Bonita","2503 W. 3rd St.","not_available",39.16451871615914,-86.5660849277999
"47404","Bloomington","IN","Kroger","1825 N Kinser Pike","47404",39.18760668310005,-86.54009482209017
"47404","Bloomington","IN","IGA","4681 W Richland Plaza Dr","47404",39.21728628420103,-86.5947348783863
"47404","Bloomington","IN","Fresh Thyme Farmers Market","3600 W 3rd St","47404",39.1661386,-86.5795467
"47404","Bloomington","IN","La Bonita Restaurant & Market","1709 N College Ave","47404",39.1814839,-86.5346591
"47404","Bloomington","IN","Molly's Foods Unique Inc","3001 N Smith Pike","47404",39.202163,-86.583519
"47408","Bloomington","IN","Lakeside IGA","6050 E SR 45","47408",39.21101079223938,-86.46199587828872
"47421","Bedford","IN","Walmart Supercenter","3200 John Williams Blvd","47421",38.8656949595234,-86.51495922708416
"47421","Bedford","IN","Aldis","John Williams Blvd","47421",38.867973,-86.51802
"47421","Bedford","IN","Jay C Food","2631 16th St","47421",38.86237162830884,-86.50858461856842
"47421","Bedford","IN","Price Less IGA","510 N St","47421",38.87402138604326,-86.49007215229615
"47421","Bedford","IN","ALDI","908 Constitution Ave","47421",38.86857700030383,-86.51765792150769
"47421","Bedford","IN","Ruler Foods","1240 W Main St","47446",38.7309982,-86.4831152
"47421","Bedford","IN","Jay C Food","1307 W Main St","47446",38.73220443725586,-86.48355102539062
"47421","Bedford","IN","Ruler Foods","624 16th St","47421",38.8606775,-86.4792007
"47424","Bloomfield","IN","Freedom Country Store","not_available","47471",39.16164517622353,-86.93144057487392
"47424","Bloomfield","IN","Ruler Foods","360 E Main St","47424",39.0273833,-86.933704
"47432","French Lick","IN","Jay C Food Store","8276 W State Road 56","47469",38.5629617,-86.6139886
"47441","Linton","IN","Walmart Supercenter","2251 E State Highway 54","47441",39.03668687738087,-87.1305090305127
"47441","Linton","IN","Save-A-Lot","209 S Main St","47441",39.031095210003244,-87.16611673678857
"47441","Linton","IN","Angell's","1600 A St NE","47441",39.04007,-87.144325
"47448","Nashville","IN","Country Store","not_available","47448",39.155658850234744,-86.23040184107298
"47448","Nashville","IN","IGA","30 Hawthorne Dr","47448",39.20163821757877,-86.23994138174479
"47448","Nashville","IN","Need More Grocery","4823 State Road 45","47448",39.25563,-86.34059
"47452","Orleans","IN","Save-A-Lot","401 SW 1st St","47454",38.55130885817553,-86.47042720717427
"47452","Orleans","IN","Walmart Supercenter","735 N Gospel St","47454",38.56521181487719,-86.46736020885915
"47454","Paoli","IN","Campesino","635 W County Road 550 S, Greenfield, IN 47454","47454",38.476722717285156,-86.47257995605469
"47460","Spencer","IN","Walmart","823 W State Highway 46","47460",39.291051269708355,-86.78441929139412
"47460","Spencer","IN","Babbs SuperValu","459 W Morgan St","47460",39.28734258763217,-86.76801837847005
"47460","Spencer","IN","Babbs","not_available","47460",39.28742492490984,-86.76768612278862
"47460","Spencer","IN","Save A Lot","42 Bob Babbs Dr","47460",39.28872169763534,-86.78448976395443
"47501","Washington","IN","Walmart Supercenter","1801 S State Road 57","47501",38.631865677371096,-87.18372505279635
"47501","Washington","IN","Save-A-Lot","307 E National Hwy","47501",38.651885986328125,-87.17134857177734
"47501","Washington","IN","Save A Lot","300 SE 21st St","47501",38.65457032082631,-87.15076078484915
"47501","Washington","IN","IGA","900 W National Hwy","47501",38.652183532714844,-87.18660736083984
"47501","Washington","IN","Jay C Food","20 Cherry Tree Plaza","47501",38.651920606312494,-87.15307413635475
"47501","Washington","IN","Jay C Food","20 Cherry Tree Plz","475014501",38.65061950683594,-87.15438842773438
"47520","Cannelton","IN","Walmart Supercenter","730 Us Highway 66 E","47586",37.92848524,-86.75365576
"47520","Cannelton","IN","Bill's IGA","290 Hawes Blvd.","42348",37.89632586140574,-86.75386687876384
"47520","Cannelton","IN","Cash Saver","1416 20th St","47586",37.961631774902344,-86.75359344482422
"47520","Cannelton","IN","Save-A-Lot","213 East Highway 66","47586",37.93214823795093,-86.75579309463501
"47523","Dale","IN","Holiday Foods","not_available","47579",38.12145072924903,-86.91046440663415
"47523","Dale","IN","Holiday Foods & Grocery","12 N Kringle Pl","47579",38.11915588378906,-86.92444610595703
"47532","Ferdinand","IN","Holiday Foods","not_available","47532",38.23257897781309,-86.8626701098804
"47542","Huntingburg","IN","IGA","312 E 12th St","47542",38.30645131022018,-86.95591682480642
"47542","Huntingburg","IN","Holiday Foods","851 3rd Ave","47546",38.37791980781761,-86.91441373135913
"47542","Huntingburg","IN","Iga","300-398 W 500 S","47542",38.30675554135124,-86.95609925960578
"47546","Jasper","IN","Walmart Supercenter","4040 N Newton St","47546",38.42704123188031,-86.93544688053812
"47546","Jasper","IN","IGA","750 W 2nd St","47546",38.38900630972612,-86.939859987894
"47546","Jasper","IN","Ruler Foods","155 E 30th St","47546",38.41467456945828,-86.93631420230219
"47546","Jasper","IN","Save A Lot","not_available","47546",38.396138825504266,-86.93137208812131
"47546","Jasper","IN","Grounded","323 West South Street","47546",38.3894251402836,-86.9436834637146
"47553","Loogootee","IN","Jay C Food","PO Box 162","47553",38.56401,-86.905299
"47553","Loogootee","IN","Ruler Foods","600 W Broadway St","47553",38.67049215708042,-86.91555619239807
"47553","Loogootee","IN","IGA","500 W Broadway St","47553",38.67165648994305,-86.91513776779175
"47553","Loogootee","IN","Dutch Pantry","13014 N 1100 E","47562",38.84571345289763,-86.95936527000195
"47553","Loogootee","IN","Jay C Food Store","309 W Main St","47562",38.84210665051547,-86.99392810469362
"47553","Loogootee","IN","Crane NSWC Commissary","300 HIGHWAY 361","47522-5001",38.86652374267578,-86.8212890625
"47567","Petersburg","IN","Jay C Food","323 W Main St","47567",38.48341793273275,-87.29210348459674
"47567","Petersburg","IN","Jay C Food","Highway 57 Box 276","475670276",38.38498809807082,-87.21537889395884
"47581","Shoals","IN","Jay C Food Store","201 S High St","47581",38.6650942,-86.7919779
"47586","Tell City","IN","Noble's IGA","1516 Payne St.","47586",37.9635227968508,-86.76748487589572
"47586","Tell City","IN","Noble's IGA Foodliner #7113","1535 10th St","47586",37.963401794433594,-86.76724243164062
"47586","Tell City","IN","SAFEWAY","12TH ST S","98405",37.95530700683594,-86.76451873779297
"47586","Tell City","IN","IGA","1501-1599 10th St","47586",37.96376545,-86.76733641666667
"47591","Vincennes","IN","Walmart Supercenter","650 Kimmell Rd","47591",38.66273659048668,-87.50504063393187
"47591","Vincennes","IN","Jay C Food","1400 Washington Ave","47591",38.6822565,-87.5145411
"47591","Vincennes","IN","Save-A-Lot","1015 S 15th St","47591",38.662978249671106,-87.53161330959817
"47601","Boonville","IN","Walmart Grocery Pickup","1115 American Way","47601",38.04928639,-87.30554
"47601","Boonville","IN","International Bazaar","7844 W SR 66","47630",37.9310863,-87.3513175
"47601","Boonville","IN","IGA Buy•Low","930 N Cypress","47601",38.0472,-87.28669
"47601","Boonville","IN","Bargainyown Grocery","not_available","47601",38.045989,-87.304182
"47601","Boonville","IN","Boonville Sav U Mor IGA","220 S 2nd St","47601",38.04819985242936,-87.27544680354751
"47610","Chandler","IN","Aldi Food Market","6434 Oak Grove Rd","47715",37.9919148,-87.4731547
"47610","Chandler","IN","Kempers Market","424 N State St","47610",38.04662939471531,-87.36813068389893
"47615","Grandview","IN","Troyer Foods","1311 Main St","47615",37.94222640991211,-86.98011779785156
"47615","Grandview","IN","Crossroads IGA","8090 US Highway 60 W","42351",37.926368713378906,-86.88977813720703
"47620","Mount Vernon","IN","McKims IGA","1320 Main St","47620",37.942103663660234,-87.89674511734788
"47620","Mount Vernon","IN","Naerae's Natural Foods","601 E 4th St","47620",37.933956146240234,-87.88973999023438
"47630","Newburgh","IN","Walmart Supercenter","8599 High Pointe Dr","47630",37.97840839843935,-87.40724669785567
"47630","Newburgh","IN","Ruler Foods","7844 W. State Road 66","47630",37.9779996,-87.3939226
"47630","Newburgh","IN","Schnucks","8301","47630",37.974842,-87.4017
"47630","Newburgh","IN","IGA Buy•Low","3888 SR-261","47630",37.9783985346678,-87.38933635263031
"47630","Newburgh","IN","Wesselman's Newburgh","Hwy 261 Newburgh Plaza","47630",37.96305435384838,-87.39725947380066
"47635","Rockport","IN","Circle K","Jl.Jamuju Nomer 127","42375",37.817238666100636,-87.24437207947581
"47635","Rockport","IN","IGA","509 Main St","47635",37.88367933104289,-87.0499699431338
"47639","Haubstadt","IN","Ho Fo","515 S 8th Ave","47639",38.20038986206055,-87.56553649902344
"47648","Fort Branch","IN","Holiday Foods","107 S McCreary St","47648",38.24744268664831,-87.57985857637846
"47660","Oakland City","IN","Buehlers","122 W Morton St","47660",38.333377838134766,-87.34810638427734
"47670","Princeton","IN","Walmart Supercenter","2700 W Broadway St","47670",38.35749975,-87.60518344
"47670","Princeton","IN","Save-A-Lot","1410 W Broadway","47670",38.35589236735069,-87.5835459597189
"47670","Princeton","IN","IGA","2005 W Broadway St","47670",38.35389903210364,-87.59240173912166
"47670","Princeton","IN","Ruler Foods","1503 W. Broadway St.","47670",38.3536250813837,-87.58490163067108
"47670","Princeton","IN","Jay C Food","1500 W Broadway St","476701107",38.353547,-87.585981
"47710","Evansville","IN","Walmart Neighborhood Market","2500 N. First Avenue","47710",38.002530931930124,-87.57545199759043
"47710","Evansville","IN","Schnucks Evansville N.","3700 N 1st Ave","47710",38.0120161,-87.5759579
"47710","Evansville","IN","Buehler's IGA","4635 N 1st Ave","47710",38.020835629454005,-87.57248665229467
"47710","Evansville","IN","Ruler Foods","4624 N 1st Ave","47710",38.02110526653162,-87.57544085394329
"47710","Evansville","IN","RULER Foods","First Ave","47710",37.9883741055063,-87.57916008021391
"47710","Evansville","IN","Wesselman's","not_available","47710",37.98773713668488,-87.57758711088027
"47710","Evansville","IN","Royal Wesselman's","1200 N Fulton Ave","47710",37.98848241275574,-87.58118652561848
"47711","Evansville","IN","Meijer","2622 Menards Dr","47715",38.0005428,-87.4959867
"47711","Evansville","IN","Aihua Oriental Market","1917 N Green River Rd","47715",37.99286823211486,-87.49304159584825
"47711","Evansville","IN","Ruler Foods","2040 E Morgan Ave","47711",37.992607316288336,-87.5271588563919
"47711","Evansville","IN","Buehler's IGA","2220 E Morgan Ave","47711",37.99229491068595,-87.52156835276307
"47711","Evansville","IN","Save-A-Lot","500 Diamond Ave","47711",38.00005023932094,-87.55685298929835
"47711","Evansville","IN","Save A Lot","500 E Diamond Ave","47711",38.0004305,-87.5567825
"47711","Evansville","IN","Iga","not_available","47711",37.992424,-87.521869
"47711","Evansville","IN","Lake Side Commons","not_available","47715",37.992665,-87.493847
"47711","Evansville","IN","Iwataya Japanese Grocery","8401 N Kentucky Ave","47725",38.05515670776367,-87.54363250732422
"47711","Evansville","IN","Las Americas II Mexican Grocery","1320 N Green River Rd","47715",37.988468170166016,-87.49346160888672
"47711","Evansville","IN","Healthsmart Foods, Inc.","1325 Newton Ave","47715",37.9893659,-87.496686
"47711","Evansville","IN","Farm Boy Food Services","2761 N Kentucky Ave","47711",38.005996,-87.545913
"47711","Evansville","IN","Wesselman's Weinbach","2026 Center Dr","47711",37.978364866734296,-87.5278180927281
"47711","Evansville","IN","Old Weber Foods","7811 Baumgart Rd","47725",38.0498868227005,-87.54132091999054
"47712","Evansville","IN","Walmart Supercenter","335 S Red Bank Rd","47712",37.97303951742155,-87.63639677821467
"47712","Evansville","IN","Schnucks Evansville W.","4500 W Lloyd Expy","47712",37.976244,-87.6304153
"47712","Evansville","IN","Aldi Food Market","214 S Rosenberger Ave","47712",37.9762228,-87.6264003
"47712","Evansville","IN","Save-A-Lot","409 S Barker Ave","47712",37.97172400508889,-87.61030197143555
"47712","Evansville","IN","IGA Buy•Low","4851 W Lloyd Expy","47712",37.97840964246789,-87.63359079183067
"47712","Evansville","IN","Save-A-Lot","229 S Green St","42420",37.83478546142578,-87.59300994873047
"47712","Evansville","IN","Sav a Lot West","Barker Ave","47712",37.97841862146047,-87.63369326889989
"47712","Evansville","IN","Wesselman's West Side","700 N Sonntag Ave","47712",37.98392350757562,-87.60859745806282
"47713","Evansville","IN","Wesselman's Supermarkets","535 Lincoln Ave","47713",37.969537,-87.55739799999999
"47714","Evansville","IN","Simpson Super Market","1365 Covert Ave","47714",37.95463528602086,-87.53933186396517
"47714","Evansville","IN","Walmart Neighborhood Market","3430 Taylor Ave","47714",37.95803015168318,-87.50875095981421
"47714","Evansville","IN","Wonder Bread Bakery Outlet","1915 Covert Ave","47714",37.95511,-87.530922
"47714","Evansville","IN","Price Less Foods","1550 Vann Ave","47714",37.956790924072266,-87.51080322265625
"47715","Evansville","IN","Target","6625 E Lloyd Expy","47715",37.975407,-87.47071
"47715","Evansville","IN","Walmart Supercenter","401 N Burkhardt Rd","47715",37.98006601069722,-87.47242365435741
"47715","Evansville","IN","Schnucks","3501 N Green River Rd","47715",38.0095435,-87.4896031
"47715","Evansville","IN","Crossroads IGA","5401 E Lloyd Expressway","47715",37.97618,-87.48404
"47715","Evansville","IN","Fresh Thyme Market","1121 Hirschland Road","47715",37.9871711,-87.4710083
"47715","Evansville","IN","The Fresh Market","6401 E Lloyd Expy,","47715",37.97390771305483,-87.47366116424308
"47715","Evansville","IN","Ruler Foods","730 S Green River Rd","47715",37.9665730869503,-87.49034285545349
"47715","Evansville","IN","Fresh Thyme Market","N Burkhardt Rd","47715",38.011492,-87.473886
"47715","Evansville","IN","Schnucks Evansville","5000 Washington Ave","47715",37.963124,-87.4910133
"47725","Evansville","IN","Schnucks Darmstadt","600 E Boonville New Harmony Rd","47725",38.0958041,-87.5532349
"47802","Terre Haute","IN","Meijer","5600 E New Margaret Dr","47803",39.44258138848734,-87.32990384101868
"47802","Terre Haute","IN","Walmart Supercenter","2399 S State Road 46","47803",39.43871197,-87.33624458
"47802","Terre Haute","IN","Kroger","4714 S US Highway 41","47802",39.4087641,-87.4084838
"47802","Terre Haute","IN","Walmart Supercenter","5555 S Us Hwy #41","47802",39.39954394100372,-87.4054160641508
"47802","Terre Haute","IN","Fresh Thyme Farmers Market","4428 S US Highway 41","47802",39.41406283096523,-87.41241665216876
"47802","Terre Haute","IN","Oriental Market","not_available","47802",39.439471,-87.41406
"47802","Terre Haute","IN","Riley Food Mart","6349 South Washington Avenue","47871",39.38974,-87.29904
"47802","Terre Haute","IN","ALDI","2322 S State Road 46","47803",39.4382778,-87.3323384
"47802","Terre Haute","IN","Aldi","5501 S US Highway 41","47802",39.4002669,-87.4032856
"47803","Terre Haute","IN","Kroger","2650 Wabash Ave","47803",39.4729328,-87.3771665
"47803","Terre Haute","IN","Baesler's Market","2900 Poplar St","47803",39.463341991816556,-87.37429386782874
"47803","Terre Haute","IN","Kroger","2140 Fort Harrison Rd","47804",39.5075402,-87.3845605
"47803","Terre Haute","IN","Webers Maple Syrup","920 Ridge Rd","47803",39.47403197,-87.3352212
"47803","Terre Haute","IN","Page's Market","2600 Lafayette Ave","47805",39.51864242553711,-87.3785171508789
"47803","Terre Haute","IN","Save-A-Lot","1800 E Ft Harrison Ave","47805",39.50612259,-87.32296753
"47803","Terre Haute","IN","Save-A-Lot","1800 Fort Harrison Rd","47804",39.507076263427734,-87.38995361328125
"47832","Bloomingdale","IN","peachys","not_available","47872",39.88300979093254,-87.22725250632874
"47834","Brazil","IN","Walmart","2150 E National Ave","47834",39.53119474222058,-87.10094489131507
"47834","Brazil","IN","Kroger","100 Forest Park Plz","47834",39.52472679806793,-87.11471021175379
"47834","Brazil","IN","Page's Food Store","120 S Forest Ave","47834",39.5223327661885,-87.124461190894
"47841","Clay City","IN","Wabash Clay Custom Meat","not_available","47841",39.263118,-87.123942
"47842","Clinton","IN","Walmart","1795 E State Road 163","47842",39.656521760606125,-87.43088320174775
"47842","Clinton","IN","Clinton IGA","1047 Western Ave","47842",39.659396534066886,-87.4107027053833
"47842","Clinton","IN","Save-A-Lot","1801 E State Rd 163","47842",39.655824460259474,-87.4295843869091
"47872","Rockville","IN","Rockville IGA","1221 N Lincoln Rd","47872",39.77573776245117,-87.23546600341797
"47872","Rockville","IN","Scott Pet Products Inc.","1543 N US Highway 41","47872",39.790584564208984,-87.23527526855469
"47879","Shelburn","IN","Shelburn IGA","not_available","47879",39.184855701805986,-87.39798358732293
"47882","Sullivan","IN","Walmart","757 W Wolfe St","47882",39.10127569752365,-87.42410279327147
"47882","Sullivan","IN","Baesler's Market","not_available","47882",39.09277545329915,-87.41390288901391
"47882","Sullivan","IN","Save-A-Lot","230 W Wall St","47882",39.0966205834784,-87.41092479115757
"47882","Sullivan","IN","Angell's Food Center","277 S Section St","47882",39.09263229370117,-87.40911865234375
"47885","West Terre Haute","IN","West Vigo IGA","901-999 W National Ave","47885",39.46432203333333,-87.4548829
"47901","Lafayette","IN","R&M Market","1007 Main St","47901",40.41886901855469,-86.88548278808594
"47901","Lafayette","IN","City Foods Co-op","632 Main St","47901",40.419385999999996,-86.889898
"47904","Lafayette","IN","ALDI","957 Sagamore Pkwy S","47905",40.405791250438284,-86.85655295848846
"47904","Lafayette","IN","Pay Less Grocery Pickup and Delivery","2200 Greenbush St","47904",40.433162689208984,-86.87039184570312
"47904","Lafayette","IN","La Fiesta Produce & Market","608 Sagamore Pkwy N","47904",40.423458099365234,-86.858642578125
"47904","Lafayette","IN","Save A Lot","2200 Elmwood Ave","47904",40.430546,-86.87140600000001
"47904","Lafayette","IN","La Chiquita","Sagamore Parkway","47904",40.431628,-86.858608
"47905","Lafayette","IN","Target","3630 South St","47905",40.41956036648737,-86.84763308698832
"47905","Lafayette","IN","Meijer","4901 State Road 26 E","47905",40.415552,-86.812349
"47905","Lafayette","IN","Walmart Supercenter","4205 Commerce Dr","47905",40.41377379,-86.82724714
"47905","Lafayette","IN","Walmart Supercenter","2347 Veterans Memorial Pkwy S","47909",40.36514099851473,-86.85935835824155
"47905","Lafayette","IN","Gordon Food Service Store","200 Park East Blvd","47905",40.41552131394908,-86.82968660569661
"47905","Lafayette","IN","Fresh Thyme Farmers Market","220 S Creasy Ln","47905",40.4126946,-86.8396696
"47905","Lafayette","IN","Fresh Thyme Farmers Market","2410 N. Salisbury Street, Suite 100","47906",40.4519922,-86.91380629999999
"47905","Lafayette","IN","ALDI","210 Sagamore Pkwy W","47906",40.4536968,-86.9089546
"47905","Lafayette","IN","Needler's Fresh Market","2250 Teal Rd","47905",40.3964412,-86.8700987
"47905","Lafayette","IN","D&R Market","105 N Creasy Ln","47905",40.41930424506382,-86.83836070544729
"47905","Lafayette","IN","La Village Food Mart","208 South St","47906",40.42401118122135,-86.90750587165657
"47905","Lafayette","IN","La Plaza","2108 Veterans Memorial Pkwy S","47909",40.36753845214844,-86.87071990966797
"47905","Lafayette","IN","Sunspot Natural Market","500 Sagamore Pkwy W","47906",40.454153171931864,-86.91215990677513
"47905","Lafayette","IN","Nature's Pharm","3500 State Road 38 E #105","47905",40.400176365952866,-86.85461626899817
"47905","Lafayette","IN","Pay Less Grocery Pickup and Delivery","2513 Maple Point Dr","47905",40.38904571533203,-86.84535217285156
"47906","West Lafayette","IN","Meijer","2636 US 52","47906",40.47000027172838,-86.95680856704712
"47906","West Lafayette","IN","Walmart Supercenter","2801 Northwestern Ave","47906",40.45737088399405,-86.93334838101171
"47906","West Lafayette","IN","Hana Market Inc.","3457 Bethel Dr","47906",40.46698307216883,-86.95477005687891
"47906","West Lafayette","IN","Asia Market","2400 Yeager Rd","47906",40.452236508850305,-86.92420810620249
"47906","West Lafayette","IN","Fellure Foods","9150 W 500 N","47906",40.49160437668119,-87.0778898707732
"47906","West Lafayette","IN","La Perla Tapatia","2801 Klondike Rd Ste B","47906",40.4575277028225,-86.9613790512085
"47918","Attica","IN","Food Basket","500 State Road 28 E","47993",40.29563,-87.290454
"47923","Brookston","IN","R&M Food Market Brookston","247 N Prairie St","47923",40.609635771378855,-86.86805963516235
"47928","Cayuga","IN","iga","not_available","47928",39.952362060546875,-87.43731689453125
"47932","Covington","IN","IGA Plus","301 Third St.","47932",40.14377003852684,-87.39930852818568
"47933","Crawfordsville","IN","Walmart Supercenter","1835 S Us Highway 231","47933",40.013092338892605,-86.90773015507403
"47933","Crawfordsville","IN","Kroger","1660 Crawfordsville Square Dr","47933",40.0218311,-86.9009966
"47933","Crawfordsville","IN","Dollar General","400 W Market St","47933",40.04302996493568,-86.90676631168891
"47933","Crawfordsville","IN","Kroger","1440 Darlington Ave","47933",40.0480359,-86.8781766
"47933","Crawfordsville","IN","County Market Express","451 E South Blvd","47933",40.02399365412573,-86.89497179797696
"47933","Crawfordsville","IN","Save A Lot","541 E South Blvd","47933",40.023992,-86.894741
"47933","Crawfordsville","IN","Hudsons Grocery","not_available","47990",40.088369860819135,-87.06505314198705
"47944","Fowler","IN","Fowler IGA","501 S Grant Ave","47944",40.61356172,-87.31450508333333
"47946","Francesville","IN","Curts IGA","not_available","47946",40.98500980352762,-86.8807729627658
"47951","Kentland","IN","Murphy's Food King","302 E Dunlap St","47951",40.77030216466308,-87.44478152238426
"47952","Kingman","IN","Red and White","not_available","47952",39.967598232580855,-87.27794179248242
"47960","Monticello","IN","Kroger","916 N Main St","47960",40.75697342724877,-86.76677942276001
"47960","Monticello","IN","Walmart Supercenter","1088 W Broadway St","47960",40.74763320147898,-86.78138138691854
"47960","Monticello","IN","rcs corner cupvoard","not_available","47960",40.76282878611827,-86.7684469267152
"47977","Remington","IN","IGA","115 E Division St","47977",40.76548139205948,-87.14878118095211
"47978","Rensselaer","IN","Walmart","905 S College Ave","47978",40.92391957112399,-87.15379046407286
"47978","Rensselaer","IN","Save A Lot","396 S College Ave","47978",40.92947838537795,-87.1569446615477
"47978","Rensselaer","IN","R&M Food Market","240 Kellner St.","not_available",40.93653865,-87.15361391666667
"47978","Rensselaer","IN","la fiesta market","not_available","47978",40.941178857806236,-87.21082703606895
"47987","Veedersburg","IN","coal creek country store","not_available","47987",40.08264140342843,-87.24838616060578
"47987","Veedersburg","IN","Veedersburg Food Basket","300 N Main St","47987",40.114339231823124,-87.26251533332275
