"zip","city","state","name","address","postalCode","lat","lon"
"55006","Braham","MN","Mike's Discount Foods","146 Main St S","55006",45.724131,-93.171145
"55006","Braham","MN","Mike's Discount.  146 Main St. South.  Braham, Minnesota","146 Main St. South","55006",45.72389221191406,-93.17131805419922
"55008","Cambridge","MN","Walmart Supercenter","2101 2nd Ave Se","55008",45.57174252407178,-93.20179376007218
"55008","Cambridge","MN","Cub Foods","100 Opportunity Blvd N","55008",45.57414515971208,-93.20264875888824
"55008","Cambridge","MN","City Center Market","122 Buchanan St N","55008",45.57357924835204,-93.22096172424476
"55008","Cambridge","MN","Coborn's","209 6th Ave NE","55040",45.4914211,-93.236064
"55008","Cambridge","MN","ALDI","160 Balsam St N","55008",45.5737693,-93.1980814
"55008","Cambridge","MN","Cub Food Cambridge","not_available","not_available",45.56154560225884,-93.20278249351749
"55008","Cambridge","MN","Riverside Market","400 E Dual Blvd","55040",45.49339073259463,-93.24126213404888
"55009","Cannon Falls","MN","Econofoods","425 Main St W","55009",44.50651046832307,-92.90723512922384
"55009","Cannon Falls","MN","Family Fare Supermarket","425 Main Street West","55009",44.50618362426758,-92.90705871582031
"55013","Chisago City","MN","Natural Foods","not_available","55013",45.37272,-92.89336
"55013","Chisago City","MN","Lindstrom Foods","30703 Lincoln Rd","55045",45.39237594604492,-92.85602569580078
"55014","Circle Pines","MN","Walmart Supercenter","4369 Ball Road Ne","55014",45.15978957079675,-93.16000730741763
"55014","Circle Pines","MN","Cub Foods","4205 Pheasant Ridge Dr NE","55449",45.16309,-93.162149
"55014","Circle Pines","MN","ALDI","10216 Lexington Ave NE","55014",45.15415919046762,-93.16410541534424
"55014","Circle Pines","MN","Festival Foods","9101 S Highway Dr","55014",45.13716619102657,-93.16882960392222
"55014","Circle Pines","MN","Walmart Grocery Pickup","4369 Ball Rd Ne","55014",45.1566735597268,-93.1593009718441
"55016","Cottage Grove","MN","Hy-Vee","7280 E Point Douglas Rd S","55016",44.83080175765723,-92.95812973521643
"55016","Cottage Grove","MN","Walmart Supercenter","9300 East Point Douglas Rd S","55016",44.810390670267616,-92.91863174767512
"55016","Cottage Grove","MN","Cub Foods","8690 E Point Douglas Rd S","55016",44.81832727349667,-92.92983055114746
"55016","Cottage Grove","MN","ALDI","9010 Jamaica Ave S","55016",44.81873076643666,-92.9321946821824
"55016","Cottage Grove","MN","Ashland Ave Grocery","1210 Laurel Ave","55071",44.836119000000004,-92.985203
"55016","Cottage Grove","MN","El Sol","7155 80th St S","55016",44.83259201049805,-92.9616470336914
"55019","Dundas","MN","Cub Foods","2423 Highway 3 S","55057",44.4323783,-93.1872236
"55019","Dundas","MN","ALDI","611 Stafford Rd N","55019",44.42988408080725,-93.19195479154581
"55021","Faribault","MN","Hy-Vee","1920 Grant St NW","55021",44.295304,-93.297027
"55021","Faribault","MN","Walmart Supercenter","150 Western Ave Nw","55021",44.289608294093384,-93.3058160236501
"55021","Faribault","MN","Family Fare Supermarket","601 Division Street South","55057",44.453712463378906,-93.15922546386719
"55021","Faribault","MN","fareway","430 2nd Ave NW","55021",44.295501,-93.272391
"55021","Faribault","MN","ALDI","300 Park Ave NW","55021",44.29365489920864,-93.29380766318536
"55021","Faribault","MN","Just Food Co-Op","516 Water St S","55057",44.4545243760693,-93.16190854660202
"55021","Faribault","MN","Taran Grocery & Deli","not_available","55021",44.293741,-93.268947
"55024","Farmington","MN","Hy-Vee","16150 Pilot Knob Rd","55044",44.7148702635195,-93.17584495976165
"55024","Farmington","MN","Cub Foods","7435 179th St W","55044",44.69261812226977,-93.21487426757818
"55025","Forest Lake","MN","Walmart Supercenter","200 12th St Sw","55025",45.27707388286741,-93.0013291181774
"55025","Forest Lake","MN","ALDI","289 12th St SW","55025",45.2763360086149,-92.99698233604431
"55033","Hastings","MN","Walmart Supercenter","1752 No. Frontage","55033",44.74041039055894,-92.89220288599964
"55033","Hastings","MN","Cub Foods","1729 Market Blvd","55033",44.73684939402368,-92.89194166660309
"55033","Hastings","MN","Coborn's","225 33rd St W","55033",44.713359999999994,-92.84482795337294
"55033","Hastings","MN","Ptacek's IGA","1005 Eagle Ridge Dr","54021",44.76244354248047,-92.78921508789062
"55037","Hinckley","MN","Daggett's Foods IGA","104 1st Street NE","55037",46.01654271802602,-92.9417153514408
"55037","Hinckley","MN","Wayne's Foods Plus","7413 Main St","54830",46.00678890434122,-92.3643107490339
"55037","Hinckley","MN","Wayne's IGA","not_available","54893",45.87282515663435,-92.36511185306122
"55038","Hugo","MN","Festival Foods","14775 Victor Hugo Blvd N","55038",45.164767248115474,-93.01533078794557
"55038","Hugo","MN","Natures Medicine Works LLC","14089 Jardin Ave N","55038",45.154363000000004,-93.01901
"55041","Lake City","MN","Fiesta Foods","not_available","55041",44.44746447392133,-92.2643651987659
"55041","Lake City","MN","Paul & Fran's Grocery","410 2nd St","54759",44.44002005342476,-92.14723780952761
"55042","Lake Elmo","MN","Kowalski's Market - Oak Park Heights","5801 Neal Ave N","55082",45.03328644846843,-92.84460506807724
"55044","Lakeville","MN","Walmart Supercenter","20710 Keokuk Ave","55044",44.65017524675746,-93.2971835464733
"55044","Lakeville","MN","Cub Foods","17756 Kenwood Trl","55044",44.69251515736434,-93.28094780445099
"55044","Lakeville","MN","Target","18275 Kenrick Ave","55044",44.68383534477818,-93.29074105663139
"55044","Lakeville","MN","Cub Foods","20250 Heritage Dr","55044",44.6591514,-93.2515472
"55044","Lakeville","MN","ALDI","11542 207th St","55044",44.64857864379883,-93.29932403564453
"55046","Lonsdale","MN","Mackenthun's Foods","not_available","55046",44.48089235802628,-93.41812678819865
"55046","Lonsdale","MN","Fred's IGA Foods","750 Ash St NE","55046",44.4808872027731,-93.41812350517498
"55051","Mora","MN","Coborn's","710 Frankie Ln","55051",45.86850194113956,-93.29104012268448
"55051","Mora","MN","chris' food center, pine city","Hwy 61","55063",45.8255729675293,-93.4273452758789
"55051","Mora","MN","Healthy Living Organic Market","not_available","55051",45.875679,-93.297004
"55056","North Branch","MN","County Market","5418 Saint Croix Trl","55056",45.511010646167385,-92.99891412888033
"55060","Owatonna","MN","ALDI","2414 Hoffman Dr","55060",44.096207723577685,-93.25752139091492
"55060","Owatonna","MN","Walmart Supercenter","1130 W Frontage Rd","55060",44.09777364955608,-93.24973359663556
"55060","Owatonna","MN","Hy-Vee","1620 S Cedar Ave","55060",44.067359,-93.228643
"55060","Owatonna","MN","Cash Wise Foods","495 W North St","55060",44.0923697,-93.2361762
"55060","Owatonna","MN","Fareway","831 S Oak Ave","55060",44.07662897156025,-93.2272537087302
"55060","Owatonna","MN","El Alfarero Mexican Treats LLC","2625 Hoffman Dr NW","55060",44.09492,-93.25989
"55063","Pine City","MN","Walmart Supercenter","950 11th St Sw","55063",45.81764637,-92.97729911
"55066","Red Wing","MN","Walmart Supercenter","295 Tyler Rd S","55066",44.563107353868276,-92.58223603722305
"55066","Red Wing","MN","ALDI","160 Tyler Road N.","55066",44.57018298634383,-92.58669823408127
"55066","Red Wing","MN","Simple Abundance","318 Bush St","55066",44.564659034215985,-92.53341880866101
"55066","Red Wing","MN","Buchanan Grocery","512 Buchanan St","55066",44.559865,-92.552235
"55066","Red Wing","MN","Riverbend Market Co-op","not_available","55066",44.56557988473421,-92.53581307740944
"55066","Red Wing","MN","Family Fare Supermarket","615 Main St","55066",44.56421661376953,-92.537353515625
"55068","Rosemount","MN","Cub Foods","15350 Cedar Ave","55124",44.72642075250151,-93.2159873843193
"55068","Rosemount","MN","Aldi","14995 S Robert Trl","55068",44.73232026145992,-93.1289486750029
"55068","Rosemount","MN","Fresh Thyme Farmers Market","14880 Florence Trail","55124",44.734650637204496,-93.20555359125137
"55068","Rosemount","MN","Cub Foods","3784 150th St W","55068",44.7301203,-93.1423629
"55068","Rosemount","MN","Durango Market","6670 150th St W","55124",44.731411,-93.201211
"55069","Rush City","MN","Rush City Foods","1201-1225 W 4th St","55069",45.684940338134766,-92.98162841796875
"55069","Rush City","MN","Rush City Foods","not_available","55069",45.67983391972176,-92.98087089834802
"55070","Saint Francis","MN","County Market","23122 Saint Francis Blvd NW","55070",45.38894180042469,-93.36959958767866
"55070","Saint Francis","MN","St Francis Foods","3210 Bridge St NW","55070",45.38625,-93.348198
"55072","Sandstone","MN","Chris' Food Center","not_available","55072",46.12483405099304,-92.86976853444591
"55074","Shafer","MN","Dick's Fresh Market","112 chieftan","54020",45.32013227769889,-92.7042798577019
"55075","South Saint Paul","MN","Aldi Food Market","6520 Cahill Ave","55076",44.8543128,-93.0435781
"55075","South Saint Paul","MN","Holiday","6976 Cahill Ave","55076",44.84836594842698,-93.042445595777
"55075","South Saint Paul","MN","Holiday","1040 Concord St S","55075",44.87332457283882,-93.02961422555684
"55075","South Saint Paul","MN","Knowlan's Fresh Foods","255 13th Ave S","55075",44.88838181297747,-93.04953967769471
"55075","South Saint Paul","MN","La Merced Super Mercado","not_available","55075",44.864078521728516,-93.03945922851562
"55076","Inver Grove Heights","MN","Cub Foods","7850 Cahill Ave","55076",44.83532460909599,-93.04113954305649
"55076","Inver Grove Heights","MN","Walmart","9165 Cahill Ave","55076",44.81680979504052,-93.04062158016038
"55076","Inver Grove Heights","MN","Super Stop Gas","7030 Cahill Ave","55076",44.847737,-93.042097
"55077","Inver Grove Heights","MN","Aldi","1414 Mendota Rd","55077",44.88208657568183,-93.07896941900253
"55082","Stillwater","MN","Hy-Vee","7180 10th St N","55128",44.964793,-92.960462
"55082","Stillwater","MN","Cub Foods","7191 10th St N","55128",44.9619272,-92.9608896
"55082","Stillwater","MN","Cub Foods","1801 Market Dr","55082",45.03918788639669,-92.83815801143646
"55082","Stillwater","MN","Walmart Supercenter","5815 Norell Ave N","55082",45.03401924597859,-92.8306136609305
"55082","Stillwater","MN","ALDI","13747 60th St N","55082",45.0352705,-92.8259708
"55082","Stillwater","MN","Wild Boar Bar and Grill Oakdale","950 Helena Ave N","55128",44.961387022763226,-92.95581068079134
"55082","Stillwater","MN","Len's Family Foods","101 Owens St N","55082",45.05499077132172,-92.82026839585593
"55082","Stillwater","MN","Nutrition Revolution","200 Chestnut St.","not_available",45.05565252509765,-92.80703343652966
"55092","Wyoming","MN","Bruce's Foods","26501-26599 Felton Ave","55092",45.33338750182643,-92.99747801354117
"55101","Saint Paul","MN","Lawson Convenience","380 Saint Peter St","55102",44.94547607559441,-93.0958752680668
"55101","Saint Paul","MN","Ferndale Market","512 Robert St N","55102",44.95111715101138,-93.09398174285889
"55101","Saint Paul","MN","Max Mart","516 Rice St","55103",44.957139,-93.105627
"55101","Saint Paul","MN","LUNDS P ENFIELD DWTN ST PAUL","115 10th St E","55101",44.951759338378906,-93.09503936767578
"55101","Saint Paul","MN","Eisenberg's Market","Jackson & 10th Street","55101",44.951962,-93.09271899999999
"55102","Saint Paul","MN","Mississippi Market","622 Selby Ave","55104",44.94638603691041,-93.12636925158435
"55102","Saint Paul","MN","Cooper's Market","633 7th St W","55102",44.93442331043257,-93.11714290938443
"55102","Saint Paul","MN","Oxendale's Market West Saint Paul","374 Bernard St W","55118",44.9156937,-93.10079999999999
"55102","Saint Paul","MN","R.C. Dick's","not_available","55118",44.91609764227766,-93.10116013744093
"55103","Saint Paul","MN","Dragon Star Oriental Foods","633 Minnehaha Ave W","55104",44.96330863013475,-93.1269056304131
"55103","Saint Paul","MN","Aldi","1134 University Ave W","55104",44.95545727976742,-93.14857944846153
"55103","Saint Paul","MN","Double Dragon Foods","121 Maryland Avenue West","55117",44.97784305243864,-93.10513166687574
"55103","Saint Paul","MN","Shuang Hur Supermarket","654 University Ave W","55104",44.95546670901679,-93.12782431695571
"55103","Saint Paul","MN","Sun Foods","554 University Ave W","55103",44.95537785039548,-93.12406433271312
"55103","Saint Paul","MN","Kamp's Food Market","1059 Western Ave N","55117",44.97347508451259,-93.11639891467287
"55103","Saint Paul","MN","Ha Tien Grocery Store","353 University Ave W","55103",44.955950923991345,-93.1150880224055
"55103","Saint Paul","MN","Star Ocean","1211 Pierce Butler Rte","55104",44.967409,-93.15075300000001
"55103","Saint Paul","MN","Star Oriental Market","800 University Ave W","55104",44.95539474487305,-93.13436889648438
"55103","Saint Paul","MN","Phil-Oriental Food","789 University Ave W","55104",44.956057,-93.133442
"55103","Saint Paul","MN","Ashama Grocery Meat Market","804 University Ave W","55104",44.95576500892639,-93.12649548053741
"55103","Saint Paul","MN","Speedy Food Shop","not_available","55117",44.97098412902663,-93.1281497941963
"55104","Saint Paul","MN","Cub Foods","1440 University Ave W","55104",44.9528234,-93.1608178
"55104","Saint Paul","MN","Whole Foods Market","1575 Selby Avenue","55104",44.94676989061541,-93.16641819546972
"55104","Saint Paul","MN","Hampden Park Co-op","928 Raymond Ave","55114",44.9691651401049,-93.19774366223223
"55104","Saint Paul","MN","Kim's Oriental Market","689 Snelling Ave N","55104",44.96187422245406,-93.167306778304
"55104","Saint Paul","MN","Co-op Partners Warehouse","746 Vandalia St","55114",44.96327895033575,-93.18757701333863
"55104","Saint Paul","MN","Minnehaha Food Market","not_available","55104",44.96293778095677,-93.1768598898322
"55104","Saint Paul","MN","Jasons Dry Ice Inc","2103 Charles Ave","55114",44.961142109752245,-93.18725410508922
"55104","Saint Paul","MN","merkato Grocery Store","1900 University Ave W","55104",44.956915,-93.180947
"55104","Saint Paul","MN","Ugaso Grocery","2420 University Ave W","55114",44.964148888264056,-93.19868981838226
"55105","Saint Paul","MN","Kowalski's Market","1261 Grand Ave","55105",44.940270007892494,-93.1536391268813
"55105","Saint Paul","MN","Trader Joe's","484 Lexington Pkwy S","55105",44.92666644919934,-93.14600373606763
"55105","Saint Paul","MN","Oxendale's Market","1326 Randolph Ave","55105",44.926886206947096,-93.15612056097855
"55105","Saint Paul","MN","Widmers","1936 Saint Clair Ave","55105",44.93415797130183,-93.18219514990513
"55105","Saint Paul","MN","Wicked Food Company","1342 Grand Avenue","55105",44.9398494,-93.1571033
"55106","Saint Paul","MN","Cub Foods","1177 Clarence St","55106",44.9764054337263,-93.04478734731674
"55106","Saint Paul","MN","Walmart Supercenter","1644 Robert St S","55118",44.89684585578204,-93.07786734059513
"55106","Saint Paul","MN","Aldi Food Market","2005 Suburban Ave","55119",44.95054775059669,-93.01573689391262
"55106","Saint Paul","MN","Cub Foods","2197 Old Hudson Rd","55119",44.9521809,-93.007554
"55106","Saint Paul","MN","Ha Tien Grocery Market","1959 Suburban Ave","55119",44.95033163178458,-93.0173401487005
"55106","Saint Paul","MN","Mississippi Market","740 7th St E","55106",44.959424454349545,-93.07031989752757
"55106","Saint Paul","MN","Super USA","not_available","55106",44.97823600461803,-93.05383680288571
"55106","Saint Paul","MN","La Palma Supermercado","not_available","55101",44.96059095688372,-93.07709866701273
"55106","Saint Paul","MN","Super Mex Market","1200 Robert St S Ste B","55118",44.909888,-93.080139
"55106","Saint Paul","MN","La Guadalupana","178 Cesar Chavez St","55107",44.929421000000005,-93.077849
"55106","Saint Paul","MN","Joyful African Market","1628 White Bear Ave N","55106",44.990679,-93.024261
"55106","Saint Paul","MN","Sunshine Market","1658 7th St E","55106",44.966530999999996,-93.030591
"55106","Saint Paul","MN","Sun World Supermarket","Arcade St","55106",44.968105,-93.06515
"55106","Saint Paul","MN","Danielâ€™s Grocery","1684 Robert St S","55118",44.894779205322266,-93.07852172851562
"55106","Saint Paul","MN","Max Mart","962 Burr St","55130",44.970304999999996,-93.07965300000001
"55106","Saint Paul","MN","Supermercado Loma Bonita","800 White Bear Ave N","55106",44.96543,-93.025
"55108","Saint Paul","MN","Tim & Tom's Speedy Market","2310 Como Ave","55108",44.98172820869807,-93.19508423942149
"55108","Saint Paul","MN","Shanghai Market","1546 Como Ave","55108",44.977026,-93.16544
"55108","Saint Paul","MN","PRIME FRESH PRODUCE LLC","2554 Como Ave Ste 3","55108",44.9870301,-93.2062252
"55108","Saint Paul","MN","Steichen's Complete Food Market","not_available","55108",44.979297,-93.174073
"55109","Saint Paul","MN","Cub Foods","2390 White Bear Ave N","55109",45.014327385482574,-93.01697552204132
"55109","Saint Paul","MN","Cub Foods","1920 Buerkle Rd","55110",45.0388434,-93.020922
"55109","Saint Paul","MN","Borchert's Meat Market","1344 Frost Ave","55109",44.99893,-93.04382
"55109","Saint Paul","MN","ALDI","3000 White Bear Ave N","55109",45.0320723297834,-93.01663551013917
"55109","Saint Paul","MN","Mo's Tropical Market","not_available","55109",45.015343,-93.00942
"55109","Saint Paul","MN","Silver Lake Market","17th Avenue","55109",45.02095,-92.990167
"55110","Saint Paul","MN","Kowalski's Market","4391 Lake Ave S","55110",45.07414276352527,-93.01707635096984
"55110","Saint Paul","MN","Cub Foods","1059 Meadowland Drive","55127",45.081161189519364,-93.05793821811676
"55110","Saint Paul","MN","Lunds & Byerlys","4630 Centerville Road","55110",45.081451416015625,-93.05491638183594
"55110","Saint Paul","MN","Festival Foods","2671 County Road E E","55110",45.05079389893967,-92.9874011525702
"55110","Saint Paul","MN","Fresh Thyme Farmers Market","955 County Road E E","55127",45.0522371,-93.0620575
"55110","Saint Paul","MN","Flicker Meat Company","2002 1/2 County Road E","55110",45.04989961409266,-93.01597581602762
"55110","Saint Paul","MN","Aldi","750 Wildwood Rd","55115",45.049607354863944,-92.9806262254715
"55110","Saint Paul","MN","ALDI","not_available","55110",45.06190414408512,-93.04468411131356
"55112","Saint Paul","MN","Cub Foods","2600 Rice Creek Rd","55112",45.08296985418341,-93.220793902874
"55112","Saint Paul","MN","Cub Foods","3930 Silver Lake Rd","55421",45.0400084,-93.2220592
"55112","Saint Paul","MN","Cub Foods","3717 Lexington Ave N","55126",45.0530726,-93.1485894
"55112","Saint Paul","MN","Aldi","2537 County Hwy 10 NE","55112",45.1066995,-93.2099205
"55112","Saint Paul","MN","Rainbow","not_available","55112",45.07684525890767,-93.17394091145613
"55112","Saint Paul","MN","Sam's Foods","2408 Co. Rd. I","55112",45.10789489746094,-93.20328521728516
"55113","Saint Paul","MN","Cub Foods","100 W County B Rd","55117",45.0050557,-93.1036746
"55113","Saint Paul","MN","Lunds & Byerlys Roseville","1601 County Road C W","55113",45.022018720412206,-93.1701274683027
"55113","Saint Paul","MN","Walmart Supercenter","1960 Twin Lakes Parkway","55113",45.02158917133021,-93.18360794863153
"55113","Saint Paul","MN","Cub Foods","2100 Snelling Ave N","55113",45.0042201002422,-93.16394448280334
"55113","Saint Paul","MN","Cub Foods","1201 Larpenteur Ave W","55113",44.9935873,-93.1504087
"55113","Saint Paul","MN","ALDI","2350 Rice St","55113",45.01152117865581,-93.10525349003228
"55113","Saint Paul","MN","ALDI","2005 Twin Lakes Pkwy","55113",45.02267355844574,-93.18525195121765
"55113","Saint Paul","MN","ALDI","1161 Larpenteur Ave W","55113",44.9925772,-93.1491477
"55113","Saint Paul","MN","Double Dragon Foods","Rice Street","not_available",45.011864197449206,-93.1074145552147
"55113","Saint Paul","MN","Max Mart","2815 Rice St","55113",45.02553066444422,-93.10689483928684
"55116","Saint Paul","MN","Lunds & Byerlys","2128 Ford Pkwy","55116",44.91705393274922,-93.19058615137541
"55116","Saint Paul","MN","ALDI","2481 7th St W","55116",44.901878356933594,-93.17060089111328
"55116","Saint Paul","MN","Ethio Market","not_available","55116",44.91111111111111,-93.14833333333334
"55116","Saint Paul","MN","kiev foods","2509 7th St W","55116",44.902386,-93.17103399999999
"55118","Saint Paul","MN","Cub Foods","2001 Robert St S","55118",44.8855616,-93.0831846
"55119","Saint Paul","MN","Knowlan's Super Market","2720 Stillwater Rd E","55119",44.98439664261007,-92.98602018744208
"55119","Saint Paul","MN","In N Out Market","2727 Minnehaha Ave E","55119",44.96362813222479,-92.98515114324276
"55121","Saint Paul","MN","Hy-Vee","1500 Central Park Commons Dr","55121",44.836072,-93.170223
"55121","Saint Paul","MN","Lunds & Byerlys Eagan","1299 Promenade Pl","55121",44.835961895279276,-93.15820247327879
"55121","Saint Paul","MN","Walmart","1360 Town Centre Dr","55123",44.82874277519468,-93.16271194347074
"55121","Saint Paul","MN","Cub Foods","1276 Town Centre Dr","55123",44.831691252072545,-93.16049785944409
"55121","Saint Paul","MN","ALDI","1550 Quarry Rd.","55122",44.8342133,-93.1752635
"55121","Saint Paul","MN","Desi Foods","not_available","55123",44.83083429649669,-93.15899264868392
"55121","Saint Paul","MN","Hy-Vee","505 Hope Dr","55121",44.841468811035156,-93.16118621826172
"55122","Saint Paul","MN","Kowalski's Markets","1646 Diffley Road","55122",44.803396425649076,-93.18676466497779
"55122","Saint Paul","MN","Cub Foods","1940 Cliff Lake Rd","55122",44.795194478940594,-93.20351243019104
"55122","Saint Paul","MN","Minsk Market","3920 Cedar Grove Pkwy","55122",44.81457028070858,-93.2110350988544
"55122","Saint Paul","MN","India Bazaar","not_available","55122",44.805749,-93.194785
"55123","Saint Paul","MN","Cub Foods","1020 Diffley Rd","55123",44.803981,-93.1414213
"55124","Saint Paul","MN","Walmart Supercenter","7835 150th St W","55124",44.73411931621139,-93.22522043041494
"55124","Saint Paul","MN","Apple Valley Square","7500-7600 West 150th Street","55124",44.7297085,-93.2200401
"55124","Saint Paul","MN","Mantra Bazaar","14809 Granada Ave","55124",44.734194,-93.221898
"55125","Saint Paul","MN","Cub Foods","8432 Tamarack Vlg","55125",44.939521617836455,-92.9357099533081
"55125","Saint Paul","MN","Trader Joe's","8960 Hudson Rd. Ste. 801","55125",44.94607751537185,-92.92302293079905
"55125","Saint Paul","MN","Lunds & Byerlys","7050 Valley Creek Plz","55125",44.92650174187029,-92.96329580585788
"55125","Saint Paul","MN","Whole Foods Market","305 Radio Drive","55125",44.94314285654909,-92.9305169300884
"55125","Saint Paul","MN","Kowalski's Market","8505 Valley Creek Rd","55125",44.918509709259375,-92.93276720539751
"55125","Saint Paul","MN","Aldi Supermarket","8472 Tamarack Bay","55125",44.9382681,-92.9360957
"55125","Saint Paul","MN","United Noodles","7730 Hudson Rd","55125",44.94778060913086,-92.9493637084961
"55125","Saint Paul","MN","Asian Mart","7152 Newbury Pl","55125",44.89376,-92.96305
"55125","Saint Paul","MN","Tailor Made Nutrition","8160 Coller Way","55125",44.937776,-92.940389
"55126","Saint Paul","MN","Trader Joe's","1041 Red Fox Rd","55126",45.05788252385269,-93.14449726137788
"55126","Saint Paul","MN","Kowalski's Market","441 Highway 96 W","55126",45.08077932643491,-93.11943733176855
"55126","Saint Paul","MN","Fresh and Natural Foods","1075 Highway 96 W","55126",45.08043573164395,-93.14635378413523
"55127","Saint Paul","MN","Walmart Supercenter","850 East County Rd E","55127",45.04924199635734,-93.06361282083617
"55129","Saint Paul","MN","Walmart Supercenter","10240 Hudson Rd","55129",44.946202314977995,-92.89710360231146
"55129","Saint Paul","MN","Jerry's Foods","7760 Hargis Parkway","55129",44.88811576,-92.94830708
"55301","Albertville","MN","Coborn's Superstore","5698 La Centre Ave","55301",45.23390211150556,-93.66085863558197
"55302","Annandale","MN","The Marketplace","660 Elm St E","55302",45.25861239007432,-94.11243124839385
"55303","Anoka","MN","Coborn's","7900 Sunwood Dr NW","55303",45.23464700000002,-93.46837800000003
"55303","Anoka","MN","Cub Foods","12900 Riverdale Dr NW","55448",45.2055976278691,-93.36207659558573
"55303","Anoka","MN","Walmart","13020 Riverdale Dr Nw","55448",45.20690633902715,-93.36136351926913
"55303","Anoka","MN","Aldi","3410 Northdale Blvd NW","55448",45.20586265961188,-93.35290209220148
"55303","Anoka","MN","Mike's Discount Foods","516 E River Rd","55303",45.189783361268184,-93.38287808215436
"55303","Anoka","MN","County Market","13735 Round Lake Blvd NW","55304",45.22098753719502,-93.35643637260972
"55303","Anoka","MN","El Rinconcito Mexican Groceries","not_available","55303",45.203786965955004,-93.40037973985305
"55303","Anoka","MN","Lakewinds Co-Op","1917 2nd Ave","55303",45.197292,-93.389684
"55304","Andover","MN","Walmart Supercenter","1851 Bunker Lake Blvd Nw","55304",45.22125801116943,-93.31253569148107
"55304","Andover","MN","Festival Foods","2218 Bunker Lake Blvd NW","55304",45.218844381281826,-93.32215699173453
"55304","Andover","MN","Aldi - Blaine","12913 Central Ave NE","55434",45.205866439174706,-93.23285153726829
"55305","Hopkins","MN","Trader Joe's","11220 Wayzata Blvd","55305",44.97323738454996,-93.42280732731012
"55305","Hopkins","MN","Lunds & Byerlys","13081 Ridgedale Dr","55305",44.9684907,-93.4468605
"55305","Hopkins","MN","Whole Foods Market","1001 Plymouth Road","55305",44.97373711980719,-93.44544062546072
"55305","Hopkins","MN","Lunds & Byerlys","11400 Highway 7","55305",44.93370556870347,-93.42543326055244
"55305","Hopkins","MN","ALDI","11100 Cedar Lake Rd","55305",44.9531517,-93.419342
"55305","Hopkins","MN","Driskill's Downtown Market","25 11th Ave N","55343",44.92519797643763,-93.413374224201
"55305","Hopkins","MN","European Delicacies","11044 Cedar Lake Rd","55305",44.95314,-93.41771
"55306","Burnsville","MN","Lunds & Byerlys Burnsville","401 County Road 42 E","55306",44.73896396892821,-93.27008259665084
"55306","Burnsville","MN","Asian Mart","not_available","55337",44.738877,-93.261537
"55308","Becker","MN","Food Pride","not_available","55308",45.39691165396932,-93.88214356403904
"55308","Becker","MN","Jubilee Foods","13400 1st St","55308",45.39714050292969,-93.8818588256836
"55309","Big Lake","MN","Cub Foods","216 W 7th St","55362",45.3003121,-93.8002808
"55309","Big Lake","MN","Coborns Superstore","711 Rose Dr","55309",45.3338578,-93.73507
"55309","Big Lake","MN","Supermercado Panaderia","not_available","55362",45.301962,-93.796164
"55311","Maple Grove","MN","Whole Foods Market","12201 Elm Creek Blvd N","55369",45.09132776629385,-93.43538557218463
"55311","Maple Grove","MN","Cub Foods","8150 Wedgwood Ln N","55369",45.1027943,-93.4477956
"55311","Maple Grove","MN","Hy-Vee","18755 70th Way N","55311",45.0827931,-93.51752440000001
"55311","Maple Grove","MN","Walmart Supercenter","9451 Dunkirk Ln N","55311",45.12600916073798,-93.49418337378303
"55311","Maple Grove","MN","Trader Joe's","12105 Elm Creek Blvd N","55369",45.092034707154916,-93.43409760809358
"55311","Maple Grove","MN","Lunds & Byerlys","12880 Elm Creek Blvd N","55369",45.09612196486789,-93.44401049462249
"55311","Maple Grove","MN","Aldi","9610 Grove Cir N","55369",45.1297499933678,-93.4820236341784
"55311","Maple Grove","MN","Euro Gourmet","13670 Grove Dr","55311",45.104595,-93.453148
"55313","Buffalo","MN","Walmart Supercenter","1315 Highway 25 N","55313",45.18951634,-93.87730638
"55313","Buffalo","MN","Walmart Supercenter","9320 Cedar St","55362",45.28434079734691,-93.8024896871823
"55313","Buffalo","MN","Cub Foods","1008 Highway 55 E","55313",45.16993745379859,-93.85858030665986
"55313","Buffalo","MN","ALDI","9400 Cedar St","55362",45.286700876119575,-93.80205139517784
"55313","Buffalo","MN","Kwik Trip","not_available","55373",45.085553,-93.732662
"55316","Champlin","MN","Cub Foods","8600 114th Ave N","55316",45.16057257796738,-93.38919909330798
"55316","Champlin","MN","Aldi","11620 Theatre Dr N","55316",45.16502292124141,-93.39256525039679
"55317","Chanhassen","MN","Lunds & Byerlys","800 W 78th St","55317",44.86321051597761,-93.5414888122407
"55317","Chanhassen","MN","Cub Foods","7900 Market Blvd","55317",44.86019236772826,-93.53912651538849
"55317","Chanhassen","MN","ALDI","551 W 78th St","55317",44.86135972135755,-93.53527311264327
"55317","Chanhassen","MN","Lakewinds Natural Foods","435 Pond Promenade","55317",44.85751488263772,-93.53186109009579
"55317","Chanhassen","MN","Idly Dosai International Market","406 W 78th St (next Door To Chanhassen Domino's)","55317",44.8626525,-93.5312998
"55318","Chaska","MN","Hy-Vee","1451 Adams St S","55379",44.778461463478095,-93.53784932093869
"55318","Chaska","MN","Cub Foods","200 Pioneer Trl","55318",44.8294779,-93.5980521
"55318","Chaska","MN","Cooper's County Market","710 N Walnut St","55318",44.79142555838844,-93.60038248003268
"55318","Chaska","MN","ALDI","1110 Hazeltine Blvd","55318",44.83430862426758,-93.60116577148438
"55318","Chaska","MN","Los Ranchos Mercado","590 Marschall Rd","55379",44.7977180480957,-93.52751922607422
"55318","Chaska","MN","Steep & Brew Coffee Section At Cooper's","not_available","55318",44.79186248779297,-93.60081481933594
"55318","Chaska","MN","Master Supplements","1600 Arboretum Blvd #202","55386",44.859371185302734,-93.6594467163086
"55319","Clear Lake","MN","Coborn's Superstore","705 County Road 75 NW","55320",45.41561385865094,-94.05228079139835
"55319","Clear Lake","MN","Midtown Foods","not_available","55987",45.50375,-94.06708333333333
"55321","Cokato","MN","The Marketplace","310 Cokato St W","55321",45.07970926301285,-94.19442523141014
"55322","Cologne","MN","Mackenthun's","753 Marketplace Dr","55387",44.83673736533375,-93.79935135611596
"55322","Cologne","MN","Mackenthun's Supermarket","851 Marketplace Dr","55387",44.836346999999996,-93.799669
"55322","Cologne","MN","ALDI","10620 10th St W","55387",44.83974865194875,-93.7943109474287
"55324","Darwin","MN","Walmart Supercenter","2301 East Frontage Road","55355",45.12073808,-94.49075701
"55325","Dassel","MN","Red Rooster Foods","not_available","55325",45.08094222004481,-94.30858104311929
"55328","Delano","MN","Coborns","1400 Babcock Blvd E","55328",45.03704573233108,-93.76847477546312
"55328","Delano","MN","Market Place Foods","310 Lewis Ave S","55388",44.96117228066192,-93.84885054630402
"55329","Eden Valley","MN","Valley Meats & Grocery","395 State St N","55329",45.32572127139761,-94.54656442077693
"55330","Elk River","MN","Walmart Supercenter","18185 Zane St Nw","55330",45.2999331,-93.5489367
"55330","Elk River","MN","Coborn's","19425 Evans St NW","55330",45.32343032160792,-93.55952194355723
"55330","Elk River","MN","Cub Foods","19216 Freeport Avenue","55330",45.3179337,-93.5641135
"55330","Elk River","MN","Aldi","19620 Holt St NW","55330",45.32711948344761,-93.56343672440744
"55330","Elk River","MN","Olive A Day Plus More","305 Jackson Ave NW","55330",45.3033388,-93.5676632
"55330","Elk River","MN","Coborn's","15700 88th St. NE","55330",45.27881,-93.57311
"55331","Excelsior","MN","Kowalski's Market","440 Water Street","55331",44.90058071197233,-93.56933948146641
"55331","Excelsior","MN","Cub Foods","23800 Highway 7","55331",44.8933164,-93.5815364
"55331","Excelsior","MN","Lunds & Byerlys","3333 Shoreline Dr","55392",44.934232694903976,-93.60879722051557
"55336","Glencoe","MN","Coborn's Superstore","2211 11th St E","55336",44.771511067023,-94.13260686871718
"55336","Glencoe","MN","The Health Nut Pantry","1234 Greeley Ave N","55336",44.771881103515625,-94.15283203125
"55336","Glencoe","MN","Hy-Vee","3225 10th St E","55336",44.770267486572266,-94.14866638183594
"55337","Burnsville","MN","Cub Foods","300 E Travelers Trl","55337",44.77721699043343,-93.27482030556894
"55337","Burnsville","MN","Festival Foods","401 W 98th St","55420",44.8253924226963,-93.2858399806657
"55337","Burnsville","MN","Cub Foods","1750 County Road 42 W","55337",44.74784127460261,-93.300603062562
"55337","Burnsville","MN","Valley Natural Foods Co-op","13750 County Road 11","55337",44.75457470401826,-93.24894313585952
"55337","Burnsville","MN","Saigon Asian Food Market","1996 Highway 13","55337",44.789321,-93.246997
"55337","Burnsville","MN","ALDI","1294 Co Rd 42 W","55337",44.7479185,-93.2955973
"55337","Burnsville","MN","Groceries Of The Orient","3101 13 W","55337",44.77501649902271,-93.31869085997963
"55337","Burnsville","MN","Aldi","1451 Riverwood Dr","55337",44.78562948885414,-93.25447440147406
"55337","Burnsville","MN","Walmart Grocery Pickup and Delivery","12200 River Ridge Blvd","55337",44.78114700317383,-93.28557586669922
"55337","Burnsville","MN","WORKINESH SPICE BLENDS INC.","3451 W Burnsville Pkwy Ste 102","55337",44.7467783,-93.322082
"55337","Burnsville","MN","Dollar Zone","9805 Nicollet Ave S","55420",44.825468,-93.277961
"55337","Burnsville","MN","Rong Market","14109 Irving Ave S","55337",44.74844,-93.297863
"55337","Burnsville","MN","Paradise Market","1309 Highway 13 E","55337",44.78328,-93.25605999999999
"55337","Burnsville","MN","Florida Oriental Market","1705 State Highway 13 E","55337",44.785545,-93.25052
"55337","Burnsville","MN","Medina Halal Market","13765 Nicollet Ave","55337",44.754345,-93.27713299999999
"55337","Burnsville","MN","Super Mercado Olmeca","1927 W Burnsville Pkwy","55337",44.75559616088867,-93.3060531616211
"55340","Hamel","MN","ALDI","100 Westfalen Trail","55340",45.0424344,-93.5242557
"55343","Hopkins","MN","Shanghai Market Oriental Foods","8450 Excelsior Blvd","55343",44.9261286934903,-93.386407714506
"55343","Hopkins","MN","Creative Resources Agency LLC","1208 5th St S","55343",44.916565,-93.41611499999999
"55343","Hopkins","MN","La Bamba - Mexican Style Bakery And Groceries","4 Shady Oak Rd S","55343",44.923885345458984,-93.42754364013672
"55343","Hopkins","MN","Paradise Market","1619 Mainstreet","55343",44.924562282011884,-93.42130436773368
"55343","Hopkins","MN","Blake Grocery & Deli","108 Blake Rd N","55343",44.92639057729376,-93.38589607867132
"55343","Hopkins","MN","Bay Island LLC","11311 K Tel Dr","55343",44.915525,-93.423359
"55344","Eden Prairie","MN","Cub Foods","8015 Den Rd","55344",44.8589932,-93.4212666
"55344","Eden Prairie","MN","Walmart Supercenter","12195 Singletree Ln","55344",44.856124836043605,-93.43198631781831
"55344","Eden Prairie","MN","Lunds & Byerlys","970 Prairie Center Dr","55344",44.86492411195662,-93.44243575240797
"55344","Eden Prairie","MN","ALDI","8595 Columbine Rd","55344",44.8480841,-93.4394673
"55344","Eden Prairie","MN","Jerry's Foods","9625 Anderson Lakes Pkwy","55344",44.836829,-93.400856
"55344","Eden Prairie","MN","Poornanand Foods","8773 Columbine Rd","55344",44.844823999999996,-93.44127399999999
"55344","Eden Prairie","MN","India Market","not_available","55344",44.852622,-93.430078
"55344","Eden Prairie","MN","Lunds food holdings","7752 Mitchell Rd","55344",44.863521575927734,-93.46015930175781
"55344","Eden Prairie","MN","Shaklee Independent Distributor - Mary Riley Porter","14255 Towers Ln","55347",44.848871,-93.458508
"55345","Minnetonka","MN","Cub Foods","4801 County Road 101","55345",44.916037,-93.5013628
"55345","Minnetonka","MN","Lunds & Byerlys","14400 Excelsior Blvd","55345",44.90633226201982,-93.4634709125764
"55345","Minnetonka","MN","Lakewinds Natural Foods","17501 Minnetonka Blvd","55345",44.94159055724673,-93.50089835458881
"55345","Minnetonka","MN","Shaghai Market","Excelsior Blvd.","not_available",44.89909,-93.488146
"55346","Eden Prairie","MN","Kowalski's Market","16500 W 78th St","55346",44.86342222410293,-93.48646095388243
"55349","Howard Lake","MN","Grandpa Ittels Sausage Company","704 6th St","55349",45.060508728027344,-94.06932830810547
"55349","Howard Lake","MN","Howard Lake Foods","not_available","55349",45.06032989127983,-94.07067111045454
"55350","Hutchinson","MN","Walmart Supercenter","1300 Highway 15 S","55350",44.87171601923956,-94.37826258795832
"55350","Hutchinson","MN","Econofoods","205 Washington Ave","55350",44.893035888671875,-94.36566162109375
"55350","Hutchinson","MN","Cash Wise Foods","1020 Highway 15 S","55350",44.877475445275074,-94.3786712353229
"55350","Hutchinson","MN","Cash Wise","not_available","55350",44.880737557196795,-94.40747175365068
"55350","Hutchinson","MN","ALDI","1320 Highway 15 S","55350",44.8704134,-94.3781845
"55352","Jordan","MN","Coborn's","1010 Enterprise Dr E","56011",44.6218032,-93.746231
"55352","Jordan","MN","Mazopiya A Natural Food Store","2571 Credit Union Dr","55372",44.7313183,-93.46789179999999
"55353","Kimball","MN","Gohmann's Foods","not_available","55353",45.316351,-94.299614
"55354","Lester Prairie","MN","Prairie Market","not_available","55354",44.88481521606445,-94.04198455810547
"55355","Litchfield","MN","Econofoods","951 E Frontage Rd","55355",45.12296947328025,-94.50789662851044
"55356","Long Lake","MN","Harvest Moon Co-Op","2380 W Wayzata Blvd (Old Hwy 12)","55356",44.98981285276284,-93.58352065712579
"55359","Maple Plain","MN","Jubilee Foods","2131 Commerce Blvd","55364",44.93903455709986,-93.66782281738418
"55359","Maple Plain","MN","Maple Plain Family Center","1500 Howard Ave","55359",45.00531513692576,-93.64897792621764
"55369","Osseo","MN","Deans Super Market","304 Central Ave","55369",45.119732576790476,-93.40185299996493
"55371","Princeton","MN","Walmart Supercenter","300 21st Ave N","55371",45.57267186330952,-93.60169237140364
"55371","Princeton","MN","Coborn's","1100 7th Ave S","55371",45.5560701,-93.5813224
"55371","Princeton","MN","ALDI","1911 5th St. N.","55371",45.5744363,-93.6033039
"55372","Prior Lake","MN","Hy-Vee","6150 Egan Dr","55378",44.747999928161455,-93.35727581921874
"55372","Prior Lake","MN","Cub Foods","14075 Highway 13 S","55378",44.74862294284848,-93.37745368480682
"55372","Prior Lake","MN","Fresh Thyme Farmers Market","14100 Highway 13 S","55378",44.748258,-93.3824874
"55372","Prior Lake","MN","Lunds & Byerlys","16731 Highway 13 S","55372",44.706607913740356,-93.4288866581318
"55372","Prior Lake","MN","Aldi","5785 Egan Dr","55378",44.74563801092398,-93.3536262886355
"55374","Rogers","MN","Cub Foods","13855 Rogers Dr","55374",45.2062531,-93.5514922
"55374","Rogers","MN","The Marketplace","900 Central Ave E","55376",45.21111159423814,-93.6484921361765
"55375","Saint Bonifacius","MN","Mackenthuns Meats & Deli Inc","4275 County Road 92","55375",44.9011,-93.7475
"55378","Savage","MN","Asian Direct Oriental Market","4215 Highway 13 W","55378",44.77839325534711,-93.33318414629362
"55378","Savage","MN","Super Mercado La Loma","not_available","55378",44.778127000000005,-93.333173
"55379","Shakopee","MN","Walmart Supercenter","8101 Old Carriage Ct","55379",44.77919487,-93.4168059
"55379","Shakopee","MN","Cub Foods","1198 Vierling Dr E","55379",44.7798360018608,-93.50958466529846
"55379","Shakopee","MN","ALDI","7845 Old Carriage Ct","55379",44.77610631708745,-93.41918057421935
"55379","Shakopee","MN","A & P Oriental Market","1345 Vierling Dr, Shakopee, MN 55379","55379",44.77569270317878,-93.49400651472095
"55391","Wayzata","MN","Hy-Vee","16705 County Road 24","55447",45.01981735356158,-93.49267303661412
"55391","Wayzata","MN","Cub Foods","3550 Vicksburg Ln N","55447",45.021179603249244,-93.47906649112701
"55391","Wayzata","MN","Lunds & Byerlys Wayzata","1151 Wayzata Blvd E","55391",44.97233368345432,-93.50028349567454
"55391","Wayzata","MN","Lunds & Byerlys","3455 Vicksburg Ln N","55447",45.01995984622258,-93.48475705251012
"55391","Wayzata","MN","Fresh Thyme Farmers Market","15760 32nd Ave N","55447",45.0175666,-93.480194
"55391","Wayzata","MN","India Corner","not_available","55447",44.99149107741773,-93.4819803611524
"55391","Wayzata","MN","Lunds & Byerlys Kitchen","250 Superior Blvd","55391",44.9694770152644,-93.50774908565673
"55395","Winsted","MN","SuperValu Foods","not_available","55395",44.96346,-94.048868
"55401","Minneapolis","MN","Whole Foods Market","222 Hennepin Avenue","55401",44.98230973290324,-93.26932137148417
"55401","Minneapolis","MN","Trader Joe's","721 Washington Ave S","55415",44.97714244287047,-93.25783695410964
"55401","Minneapolis","MN","Lunds & Byerlys","25 University Ave SE","55414",44.98766879999999,-93.2549978
"55401","Minneapolis","MN","Downtown Market & Deli","150 2nd Ave S","55401",44.98236075861069,-93.26466039273551
"55401","Minneapolis","MN","Zuccaro's Produce","360 10th Ave N","55401",44.989689491202206,-93.28189197766393
"55401","Minneapolis","MN","The Fish Guys","301 Royalston Ave","55405",44.98096720971622,-93.28369741829758
"55401","Minneapolis","MN","The E-Group Inc","110 N 5th St Fl 6","55403",44.9810843,-93.27415119999999
"55402","Minneapolis","MN","Minneapolis Farmers' Market - Thursday","Nicollet Mall","55402",44.97605678069147,-93.27276369441128
"55402","Minneapolis","MN","Kettle","Cub Foods 3620 Texas Ave S. St. Louis Park","55415",44.976338,-93.266868
"55403","Minneapolis","MN","Lunds & Byerlys","1201 Hennepin Ave","55403",44.97446484590276,-93.28080124160833
"55403","Minneapolis","MN","Net Supermarket","1845 Nicollet Ave","55403",44.964431,-93.277488
"55403","Minneapolis","MN","3rd Street Market","not_available","55404",44.965597,-93.272873
"55403","Minneapolis","MN","Oak Grove Grocery","218 Oak Grove St","55403",44.96643478651518,-93.28221062356532
"55403","Minneapolis","MN","Clinton Market","1930 Clinton Ave","55404",44.962981,-93.271957
"55404","Minneapolis","MN","United Noodles and UniDeli","2015 E 24th St","55404",44.9579970508322,-93.24226797147831
"55404","Minneapolis","MN","Aldi","1311 E Franklin Ave","55404",44.9625511,-93.2555238
"55404","Minneapolis","MN","Midwest Market","2000 Portland Ave","55404",44.962379,-93.268013
"55404","Minneapolis","MN","M & M Grocery Store","2109 Nicollet Ave","55404",44.961622,-93.277452
"55404","Minneapolis","MN","First Quality Market","2655 Nicollet Ave","55408",44.95406,-93.277525
"55404","Minneapolis","MN","Truong Thang Market","2520 Nicollet Ave","55404",44.95668411254883,-93.27838897705078
"55404","Minneapolis","MN","East Village Market","1431 11th Ave S","55404",44.96720466789545,-93.25793050004773
"55404","Minneapolis","MN","Hai Nguyen Supermarket","Nicollet","55404",44.958502,-93.2783
"55404","Minneapolis","MN","West Bank Grocery","not_available","55454",44.96937493545835,-93.24714517546602
"55404","Minneapolis","MN","Gulet Deli & Grocery","912 E 24th St","55404",44.959739685058594,-93.26026916503906
"55404","Minneapolis","MN","Truong Thanh Grocery","2550 Nicollet Ave","55404",44.956355,-93.278402
"55404","Minneapolis","MN","Shabelle Ethiopian Grocery Store","2233 East Franklin Ave","55406",44.962490191842384,-93.23813438415527
"55404","Minneapolis","MN","Shega","2111 E Franklin Ave","55404",44.96242141723633,-93.24172973632812
"55405","Minneapolis","MN","Kowalski's Market","2440 Hennepin Ave","55405",44.9578383374002,-93.29584613856683
"55405","Minneapolis","MN","ALDI","2601 Lyndale Ave.","55408",44.955366,-93.28762390000001
"55405","Minneapolis","MN","Loon Grocery","2501 Lyndale Ave S","55405",44.957194086951475,-93.28762315782892
"55405","Minneapolis","MN","Bryn Mawr Market","412 Cedar Lake Rd S","55405",44.9735698414234,-93.30882672598167
"55405","Minneapolis","MN","Penn-Wood Market","2125 Glenwood Ave","55405",44.98122045567351,-93.30834987255211
"55405","Minneapolis","MN","Los Amigos","2746 Blaisdell Ave","55408",44.952158000000004,-93.280251
"55405","Minneapolis","MN","Quick Shop #2","2801 Grand Ave S","55408",44.951817,-93.283978
"55406","Minneapolis","MN","Cub Foods","4601 Snelling Avenue South","55406",44.9187499,-93.2163461
"55406","Minneapolis","MN","Longfellow Market","3815 E Lake St","55406",44.94812603672629,-93.21711056432034
"55406","Minneapolis","MN","Reidy's Market","3904 42nd Ave S","55406",44.932319704583776,-93.21301835038203
"55406","Minneapolis","MN","Cub Foods","2850 26th Ave S","55406",44.95144142308278,-93.23580355974627
"55406","Minneapolis","MN","Seward Co-op Grocery & Deli","2601 East Franklin Avenue","55406",44.962539,-93.234272
"55406","Minneapolis","MN","Dokken's Superette","2809 E 42nd St","55406",44.926702,-93.23170400000001
"55406","Minneapolis","MN","ALDI","2929 27th Avenue South","55406",44.950251553603486,-93.23435783386229
"55406","Minneapolis","MN","Aldi Food Market","2100 E Lake St","55407",44.9485482,-93.2418215
"55406","Minneapolis","MN","Flag Foods","2820 42nd Street","not_available",44.927065,-93.23128047
"55407","Minneapolis","MN","Lake & Park Grocery","not_available","55407",44.94844721823833,-93.26510842437459
"55407","Minneapolis","MN","Cup Foods","3759 Chicago Ave","55407",44.93429450911496,-93.26225817203522
"55407","Minneapolis","MN","Bergan's Supervalu Foods","4715 Cedar Ave S","55407",44.91743436957085,-93.24704697394677
"55407","Minneapolis","MN","Super Mercado La Mexicana","1518 E Lake St","55407",44.94861459937752,-93.25267157688049
"55407","Minneapolis","MN","Super Mercado Morelia","1417 E Lake St","55407",44.948161999999996,-93.25404300000001
"55407","Minneapolis","MN","One Stop","3159 Chicago Ave","55407",44.944874,-93.262363
"55407","Minneapolis","MN","Sam's Market","1532 E 35th St","55407",44.93978,-93.25218100000001
"55407","Minneapolis","MN","The Produce Exchange","920 E Lake St","55407",44.948769090269614,-93.26073380956475
"55407","Minneapolis","MN","Main Street Market","3653 Chicago Ave","55407",44.936111,-93.26225
"55407","Minneapolis","MN","Lake & Park Foods","700 E Lake St","55407",44.948516845703125,-93.26480102539062
"55407","Minneapolis","MN","Durdur Bakery and Grocery","1552 E Lake St","55407",44.948648999999996,-93.25161
"55407","Minneapolis","MN","MoreValu","2747 Bloomington Ave","55407",44.95212,-93.252197
"55407","Minneapolis","MN","Anishinabe R. T. Produce","1841 E Lake St","55407",44.948186,-93.246381
"55407","Minneapolis","MN","Tony's Market","3500 Chicago Ave","55407",44.939355,-93.262845
"55408","Minneapolis","MN","Uptown Cub","1104 Lagoon Ave","55408",44.949765598459855,-93.29381167888647
"55408","Minneapolis","MN","Lunds & Byerlys","1450 W Lake St","55408",44.94874708795879,-93.30024126860602
"55408","Minneapolis","MN","Seward Co-op Friendship Store","317 E 38th St","55409",44.934007888876444,-93.27258380325192
"55408","Minneapolis","MN","Shuang Hur","2710 Nicollet Ave","55408",44.95320753576921,-93.27811672049538
"55408","Minneapolis","MN","Guse Green Grocer","4600 Bryant Ave S","55419",44.91944807373868,-93.29102334159319
"55408","Minneapolis","MN","Sunshine Foods","3300 4th Ave S","55408",44.943038,-93.27046899999999
"55408","Minneapolis","MN","Bill's Imported Foods","721 W Lake St","55408",44.94840831857772,-93.2891211784232
"55408","Minneapolis","MN","Good Grocer","112 E Lake St","55408",44.948576851007374,-93.27561322889545
"55408","Minneapolis","MN","Community Halal & Grocery","343 E Lake St","55408",44.9481086730957,-93.27076721191406
"55408","Minneapolis","MN","Nicollet Halal Market","2805 Nicollet Ave","55408",44.951614,-93.27744399999999
"55408","Minneapolis","MN","Valerie's Carniceria","3149 Nicollet Ave","55408",44.9448724933584,-93.2784325507009
"55408","Minneapolis","MN","Super Elite Groceries","324 W 33rd St","55408",44.943113000000004,-93.28411
"55408","Minneapolis","MN","Bryant Avenue Market","3200 Bryant Ave S","55408",44.944132202864914,-93.29048416371971
"55408","Minneapolis","MN","CK Food & Fuel","4751 Nicollet Ave","55419",44.91630172729492,-93.27758026123047
"55408","Minneapolis","MN","Valley Tobacco & Convenience Store","309 W Lake St","55408",44.948195,-93.283404
"55408","Minneapolis","MN","Casablanca Foods","3246 Nicollet Ave","55408",44.942425958124254,-93.28002104150053
"55408","Minneapolis","MN","Minnesota Food Market","201W Lake St","55408",44.94326311122309,-93.27961004470274
"55408","Minneapolis","MN","Sullivan's Supervalu","30 W Lake St","55408",44.94943854578336,-93.28068381126127
"55408","Minneapolis","MN","Best Food Market","3756 Nicollet Ave","55409",44.93437,-93.27842199999999
"55408","Minneapolis","MN","Kyle's Market","826 W 36th St","55408",44.93778765660913,-93.29063392063556
"55408","Minneapolis","MN","General Store @ WFHM","2701 Wells Fargo Way","55467",44.95341110229492,-93.27030944824219
"55410","Minneapolis","MN","Lunds & Byerlys","6228 Penn Ave S","55423",44.889663260629874,-93.30931109039197
"55410","Minneapolis","MN","ALDI","6310 Penn Ave S","55423",44.88876471120177,-93.30940446476234
"55410","Minneapolis","MN","Lunds & Byerlys","3945 W 50th St","55424",44.91186436476382,-93.33097054543978
"55410","Minneapolis","MN","Linden Hills Co-op","3815 Sunnyside Ave","55410",44.922055473456034,-93.32857240681605
"55410","Minneapolis","MN","Clancey's Meats & Fish","4307 Upton Ave S","55410",44.92435082592574,-93.31468027664101
"55410","Minneapolis","MN","Broders' Cucina Italiana","2308 W 50th St","55410",44.91243998587379,-93.30917081131008
"55410","Minneapolis","MN","Byerley's","not_available","55435",44.8890882156404,-93.32263907203932
"55411","Minneapolis","MN","Bangkok Market","3100 Lyndale Ave N","55411",45.012282,-93.287424
"55411","Minneapolis","MN","Cub Foods","701 W Broadway Ave","55411",44.99819280636321,-93.28866183757782
"55411","Minneapolis","MN","Wirth Cooperative Grocery Store","1835 Penn Ave N","55411",44.998598,-93.308425
"55411","Minneapolis","MN","greater lake country food bank","not_available","55411",44.986274,-93.287366
"55411","Minneapolis","MN","Dukarani Food Processing Inc","822 Oliver Ave N","55411",44.9868274,-93.3067376
"55411","Minneapolis","MN","Get Happy Oriental Food, Inc.","1507 Lowry Ave N","55411",45.01290526743191,-93.29851627349854
"55411","Minneapolis","MN","ALDI","3120 Penn Ave N","55411",45.0126583,-93.3080319
"55411","Minneapolis","MN","Oriental Supermarket","2425 W Broadway Ave","55411",45.005741,-93.311673
"55412","Minneapolis","MN","North Market","4414 Humboldt Ave N","55412",45.035753,-93.29808100000001
"55412","Minneapolis","MN","Guy-Am Grocery","4539 Lyndale Ave N","55412",45.03776321779715,-93.28769525976959
"55412","Minneapolis","MN","Northside Food Market","3539 Lyndale Avenue North","not_available",45.01909285890144,-93.28802890516258
"55413","Minneapolis","MN","Sentyrz Liquor & Supermarket","1612 2nd St NE","55413",45.004906248722016,-93.26631445808171
"55413","Minneapolis","MN","Shanghai Wholesale","not_available","55413",44.99618589878082,-93.20884466171265
"55413","Minneapolis","MN","Joe's Market","1828 Como Ave SE","55414",44.9877124606124,-93.22579623635794
"55413","Minneapolis","MN","Little India International Market","1835 Central Ave NE","55418",45.00719418473952,-93.24725175847631
"55413","Minneapolis","MN","Patel Groceries","not_available","55418",45.00711681,-93.246985
"55414","Minneapolis","MN","Fresh Thyme Farmers Market","24 30th Ave SE","55414",44.9710453,-93.2141142
"55414","Minneapolis","MN","Mill City Market","1020 Washington Ave S","55415",44.97586063834832,-93.25393664033642
"55414","Minneapolis","MN","Baladna Food","801 4th St SE","55414",44.9838752746582,-93.24372863769531
"55414","Minneapolis","MN","House Of Hanson","433 14th Ave SE","55414",44.981279878839956,-93.2352879201321
"55414","Minneapolis","MN","Maxwell's Grocery","SE 8th Ave, Minneapolis, MN 55414","55414",44.98387365669523,-93.24405411020825
"55416","Minneapolis","MN","Cub Foods","5370 W 16th St","55416",44.9682511,-93.3488193
"55416","Minneapolis","MN","Whole Foods Market","3060 Excelsior Blvd","55416",44.947695976802486,-93.32196730491717
"55416","Minneapolis","MN","Lunds & Byerlys","3777 Park Center Blvd","55416",44.934965131571246,-93.34748553428217
"55416","Minneapolis","MN","Fresh Thyme Farmers Market","4840 Excelsior Blvd","55416",44.9327201,-93.3426789
"55416","Minneapolis","MN","Trader Joe's","4500 Excelsior Blvd","55416",44.93465116153583,-93.33758038526338
"55416","Minneapolis","MN","J.R Watkins","1822 Dakota Ave S","55416",44.965053999999995,-93.361089
"55416","Minneapolis","MN","Cedar Commons","3040-3070 Excelsior Blvd","55416",44.94744586525859,-93.32136869430542
"55417","Minneapolis","MN","Oxendale's Market","5025 34th Ave S","55417",44.91154900000001,-93.22246059999999
"55417","Minneapolis","MN","Kowalski's Market","5615 Chicago Ave","55417",44.90085820278267,-93.26251894911184
"55417","Minneapolis","MN","Nokomis Market","3319 E 54th St","55417",44.905402914348095,-93.22329718070776
"55418","Minneapolis","MN","Eastside Food Co-op","2551 Central Ave NE","55418",45.014522705881475,-93.24689702622749
"55418","Minneapolis","MN","Casa de Food Excelente","3137 Garfield St NE","55418",45.02516555786133,-93.23291015625
"55418","Minneapolis","MN","Lowry Food Market","Lowry Ave","55412",45.01448392868042,-93.26584696769714
"55419","Minneapolis","MN","Cub Foods","5937 Nicollet Ave","55419",44.8951649,-93.277217
"55419","Minneapolis","MN","Kowalski's Market","5327 Lyndale Ave S","55419",44.90566166253396,-93.2879481785372
"55420","Minneapolis","MN","Cub Foods","8421 Lyndale Ave S","55420",44.8508237,-93.2850703
"55420","Minneapolis","MN","Walmart Supercenter","700 American Blvd E","55420",44.86087282553829,-93.26493867481958
"55420","Minneapolis","MN","Tbs Mart","7836 Portland Ave S","55420",44.86078888039494,-93.26898481835043
"55420","Minneapolis","MN","Kwik Market","7940 Nicollet Ave S","55420",44.858616999999995,-93.278911
"55420","Minneapolis","MN","Super USA","431 American Blvd E","55420",44.859365000000004,-93.269741
"55420","Minneapolis","MN","Chan Oriental Market","9016 Lyndale Ave S","55420",44.83966064453125,-93.28875732421875
"55421","Minneapolis","MN","Columbia Market","4901-4999 University Ave NE","55421",45.05740393277338,-93.26271615703565
"55421","Minneapolis","MN","ALDI Market","5025 Central Ave NE","55421",45.0597637,-93.2461976
"55421","Minneapolis","MN","watermelons for sledgehammer practice","4387 tyler st ne","55421",45.04760244636813,-93.23349952697754
"55421","Minneapolis","MN","Brains grocers","4367 tyler st ne","55421",45.04742052302703,-93.23341369628906
"55421","Minneapolis","MN","4945 central ave","4945 Central Ave NE","55421",45.05849838256836,-93.24684143066406
"55421","Minneapolis","MN","Pooja Foods","not_available","55421",45.05033971082243,-93.24930258337132
"55421","Minneapolis","MN","Mike's Discount Foods","905 45th Ave NE","55421",45.05033120961482,-93.24838147160605
"55421","Minneapolis","MN","dead fruit and animals","4357 tyler st ne","55421",45.047935485839844,-93.23300170898438
"55421","Minneapolis","MN","rainbones foods","4467 tyler st ne","55421",45.04878493398209,-93.23336005210876
"55422","Minneapolis","MN","Lunds & Byerlys","5725 Duluth St","55422",44.99860002927107,-93.35254643013164
"55422","Minneapolis","MN","Hy-Vee","3505 Bottineau Blvd.","55422",45.01951006448324,-93.32773210725288
"55422","Minneapolis","MN","Cub Foods","5301 36th Ave N","55422",45.01930831249485,-93.34679335355759
"55422","Minneapolis","MN","Almsted's Fresh Market","4200 Douglas Dr N","55422",45.03282629766588,-93.35975091925688
"55423","Minneapolis","MN","ALDI","860 W 78th St","55423",44.8630125,-93.2910732
"55423","Minneapolis","MN","Asian Direct Oriental Market","607 E 77th St","55423",44.863575073754234,-93.26759255735921
"55423","Minneapolis","MN","Viridiana Bakery","6500 Nicollet Ave","55423",44.884477000000004,-93.277363
"55423","Minneapolis","MN","Kwik Way Foods","7701 Portland Ave","55423",44.86349105834961,-93.26758575439453
"55423","Minneapolis","MN","Short Stop Market","7034 Cedar Ave S","55423",44.875039,-93.24839300000001
"55423","Minneapolis","MN","Galaxy Food and Video","7128 Chicago Ave","55423",44.87351607047703,-93.26319288114229
"55423","Minneapolis","MN","Groceries Of The Orient","7520 Lyndale Ave S","55423",44.866454,-93.288873
"55425","Minneapolis","MN","Hana Asian Market","1716 E Old Shakopee Rd","55425",44.836692,-93.249076
"55425","Minneapolis","MN","Mega Market","8904 Old Cedar Ave S","55425",44.842363,-93.248194
"55426","Minneapolis","MN","Cub Foods","3620 Texas Ave S","55426",44.93772485827142,-93.38330093090917
"55426","Minneapolis","MN","ALDI","8950 Highway 7","55426",44.9376451,-93.3929137
"55426","Minneapolis","MN","YESmart","8140 Minnetonka Blvd","55426",44.94877142720839,-93.39358011737501
"55426","Minneapolis","MN","Fruit & Fish","10 Nathan Ln N","55441",44.979185304842915,-93.40957515564229
"55426","Minneapolis","MN","Namaste Plaza","not_available","55426",44.949944,-93.38216700000001
"55426","Minneapolis","MN","Yes Mart","Minnetonka Blvd","55426",44.94974850948717,-93.38330711089553
"55426","Minneapolis","MN","The Company Store","9019-9235 Betty Crocker Dr","55426",44.97710352061474,-93.39755922160569
"55426","Minneapolis","MN","Euro Gourmet","8032 Minnetonka Blvd","55426",44.94989029441783,-93.3821375530415
"55427","Minneapolis","MN","Morey's Seafood International LLC","742 Decatur Ave N","55427",44.987179,-93.391989
"55427","Minneapolis","MN","Coborn's Delivers","3440 Winpark Dr","55427",45.01918691631612,-93.37729920792391
"55428","Minneapolis","MN","Hy-Vee","8200 42nd Ave N","55427",45.03493844237865,-93.38403582572937
"55428","Minneapolis","MN","Cub Foods","7555 W Broadway Ave","55428",45.09180781379147,-93.3794492483139
"55428","Minneapolis","MN","ALDI","5620 W Broadway Ave","55428",45.0553739,-93.3650719
"55428","Minneapolis","MN","African Foods & Gifts","117 Willow Bnd","55428",45.05372,-93.36664669999999
"55428","Minneapolis","MN","La Favorita","not_available","55428",45.06921677294088,-93.36766835552152
"55428","Minneapolis","MN","Thriftway-Foods","5715 W Broadway Ave","55428",45.05659103393555,-93.36810302734375
"55428","Minneapolis","MN","Happy Cow","7480 Lakeland Ave N","55428",45.091109,-93.380558
"55428","Minneapolis","MN","Jack's Fuel","7200 Bass Lake Rd","55428",45.05500030517578,-93.37133026123047
"55429","Minneapolis","MN","Cub Foods","3245 County Road 10","55429",45.058616882451055,-93.3235010656972
"55429","Minneapolis","MN","Bass Lake Oriental Grocery","not_available","55429",45.054704,-93.351203
"55429","Minneapolis","MN","Sun Foods","6350 Brooklyn Blvd","55429",45.07039725988701,-93.3265274820942
"55429","Minneapolis","MN","Sankofa Food Mart","6930 Brooklyn Blvd","55429",45.080970764160156,-93.33590698242188
"55430","Minneapolis","MN","Walmart Supercenter","1200 Shingle Creek Crossing","55430",45.0568530912234,-93.31663412047558
"55430","Minneapolis","MN","Value Food Market","6800 Humboldt Ave N","55430",45.07887649536133,-93.2993392944336
"55431","Minneapolis","MN","Cub Foods","10520 France Ave S","55431",44.812373692030384,-93.33086907863617
"55431","Minneapolis","MN","Trader Joe's","4270 W 78th St","55435",44.859222635583215,-93.3325286408942
"55431","Minneapolis","MN","Fresh Thyme Farmers Market","2100 W 80 1/2 St","55431",44.85813900222593,-93.30673992633825
"55431","Minneapolis","MN","Bharat Bazaar","8098 Morgan Cir S","55431",44.856910705566406,-93.30487060546875
"55432","Minneapolis","MN","Walmart Supercenter","8450 University Ave Ne","55432",45.12166043938472,-93.26524234366713
"55432","Minneapolis","MN","Cub Foods","250 57th Ave NE","55432",45.07005416510716,-93.26676428318024
"55432","Minneapolis","MN","Bob's Produce Ranch","7620 University Ave NE","55432",45.10767112210071,-93.26522272356817
"55432","Minneapolis","MN","Mike's Discount Foods","230 Osborne Rd NE","55432",45.10633269407355,-93.26612009193603
"55432","Minneapolis","MN","Hy-Vee","8155 Hwy 65 Northeast","55432",45.11514693360571,-93.23987245559692
"55432","Minneapolis","MN","Seoul Foods","1071 Moore Lake Dr E","55432",45.080972982441274,-93.2412163366229
"55432","Minneapolis","MN","Bosnian Supermarket","6237 University Ave NE","55432",45.08129316944628,-93.26278436193579
"55433","Minneapolis","MN","Hy-Vee","9409 Zane Ave N","55443",45.12622004060802,-93.35914649698715
"55433","Minneapolis","MN","Cub Foods","9655 Colorado Ln N","55445",45.1313469394914,-93.36054772138596
"55433","Minneapolis","MN","Aldi","8800 Springbrook Dr NW","55433",45.1306138,-93.2717871
"55433","Minneapolis","MN","Cub Foods","2050 Northdale Blvd NW","55433",45.17996786817452,-93.31848803227331
"55434","Minneapolis","MN","Cub Foods","585 Northtown Dr NE","55434",45.12549735568507,-93.2568910870213
"55434","Minneapolis","MN","Walmart Supercenter","11505 Ulysses St Ne","55434",45.17982852928129,-93.2388375214253
"55434","Minneapolis","MN","Cub Foods","12595 Central Ave NE","55434",45.2000883,-93.2322227
"55434","Minneapolis","MN","Cub Foods","10881 University Ave NE","55434",45.16727900387192,-93.26413571834564
"55434","Minneapolis","MN","ALDI","10985 Ulysses St NE #200","55434",45.170533016477954,-93.23640116693963
"55435","Minneapolis","MN","Cub Foods","6775 York Ave S","55435",44.88037229252089,-93.31984519958496
"55435","Minneapolis","MN","Whole Foods Market","7401 France Ave S.","55435",44.867676813821326,-93.32816597903931
"55435","Minneapolis","MN","Lunds & Byerly's Edina","7171 France Ave S","55435",44.873297086281006,-93.32795157566248
"55436","Minneapolis","MN","Jerry's Foods","5125 Vernon Ave S","55436",44.91004847,-93.35457213
"55437","Minneapolis","MN","Lunds & Byerlys","5159 W 98th St","55437",44.824256576617934,-93.34919055684186
"55441","Minneapolis","MN","Cub Foods","10200 6th Ave N","55441",44.98683980054263,-93.4098789248128
"55441","Minneapolis","MN","Arkady's Market","3435 Highway 169 N #A","55441",45.02023696899414,-93.40149688720703
"55441","Minneapolis","MN","Fresh & Natural Foods","4234 Lancaster Ln N","55441",45.032108306884766,-93.4050521850586
"55442","Minneapolis","MN","Cub Foods","4445 Nathan Ln N","55442",45.03549459307161,-93.40951011346078
"55443","Minneapolis","MN","Festival Foods","8535 Edinburgh Center Dr","55443",45.109700968931826,-93.30631224319845
"55443","Minneapolis","MN","Golden Lion Supermarket","8600 Edinburgh Center Dr","55443",45.11176340544199,-93.30504933339745
"55443","Minneapolis","MN","Aldi","7600 Brooklyn Blvd","55443",45.09308799039232,-93.3533256373812
"55445","Minneapolis","MN","Walmart Supercenter","8000 Lakeland Ave N","55445",45.100356145366554,-93.38574913594879
"55445","Minneapolis","MN","Asian Pacific Oriental Foods","7982","not_available",45.09549737899098,-93.37562763986035
"55449","Minneapolis","MN","Cub","4255 Pheasant Ridge Dr NE","55449",45.16680145263672,-93.18965911865234
"55603","Finland","MN","Stony River Cafe","9375 Highway 1","55607",47.61717224121094,-91.35648345947266
"55604","Grand Marais","MN","Cook County Whole Foods Co-op","20 E 1st St","55604",47.75044180716252,-90.33217264119563
"55604","Grand Marais","MN","Gene's Foods IGA","431 East Highway 61","55604",47.75394287791442,-90.32713996717779
"55604","Grand Marais","MN","Johnson's Foods","5 E Highway 61","55604",47.751616999999996,-90.332822
"55604","Grand Marais","MN","Cook County Whole Foods Co-op","E. 1st St.","55604",47.74743179373695,-90.36972558145837
"55615","Tofte","MN","tofte general store","not_available","55615",47.57688077692621,-90.8306685711945
"55616","Two Harbors","MN","Super One Foods","802 11th St","55616",47.027195467113984,-91.68033784499399
"55616","Two Harbors","MN","Ehlers Store","Old 13","not_available",47.1741082,-91.4182887
"55705","Aurora","MN","Zup's Food Market","16 E 3rd Ave S","55705",47.52450942993164,-92.23626708984375
"55707","Barnum","MN","Market Place Foods","not_available","55767",46.449959347527496,-92.76718658193164
"55707","Barnum","MN","TJ Country Corner","2751 Market St,mahtowa,mn,55707","55707",46.57399446036487,-92.63328109857102
"55708","Biwabik","MN","Super One","not_available","55708",47.533176,-92.34421
"55709","Bovey","MN","Walmart Supercenter","100 Se 29th St","55744",47.201613981611764,-93.52629058853526
"55709","Bovey","MN","Super One Foods","503 NW 4th St","55744",47.23646926879883,-93.53569793701172
"55709","Bovey","MN","ALDI","85 SE 13th St","55744",47.21785201361009,-93.52720946073532
"55709","Bovey","MN","Super One Foods","2410 S Pokegama Ave","55744",47.20731008708818,-93.52640748023987
"55709","Bovey","MN","Bobs Country Market","100 2nd St","55709",47.295326232910156,-93.42029571533203
"55709","Bovey","MN","4 Seasons Market","100 Cotton Dr","55721",47.289188385009766,-93.41917419433594
"55709","Bovey","MN","The Lake + Co. Shop","403 NW 1st Ave","55744",47.23603057861328,-93.53022003173828
"55710","Britt","MN","Walmart Supercenter","8580 Rock Ridge Dr","55768",47.522855205640354,-92.59094181900107
"55710","Britt","MN","Super One","1111 17th St S","55792",47.50969509556671,-92.55061181759085
"55710","Britt","MN","Natural Harvest Food Co-op","505 3rd St N","55792",47.52606774834035,-92.53964549979047
"55710","Britt","MN","ALDI","1414 S 12th Ave","55792",47.5108419,-92.5535563
"55710","Britt","MN","Falkowski Super Market","831 14th St N","55792",47.535406,-92.54740799999999
"55712","Bruno","MN","Duquette General Store","not_available","55712",46.369672766857754,-92.55552537174555
"55718","Carlton","MN","Woodland foods","500 3rd St","55718",46.667064,-92.423861
"55719","Chisholm","MN","Jubilee Foods","not_available","55719",47.488440000000004,-92.881674
"55719","Chisholm","MN","Smoke Depot","18 W Lake St","55719",47.489186,-92.879273
"55720","Cloquet","MN","Walmart Supercenter","1308 Highway 33 S","55720",46.7033900902548,-92.45302788625403
"55720","Cloquet","MN","Super One Foods","707 Highway 33 S #13","55720",46.71214740488808,-92.46375523743461
"55720","Cloquet","MN","ALDI","131 Big Lake Rd","55720",46.7132453918457,-92.46451568603516
"55723","Cook","MN","Zup's Food Market","not_available","55723",47.848453505642354,-92.68602763252512
"55723","Cook","MN","Side Lake Store","not_available","55781",47.66445273064889,-93.01522988073225
"55725","Crane Lake","MN","Kroger","not_available","55725",48.239792433333335,-92.41083783333333
"55731","Ely","MN","Northwoods Grocers","N 13th Ave E","55731",47.903054019681996,-91.84799910003467
"55734","Eveleth","MN","IGA","602 Fayal Rd","55734",47.460227966308594,-92.5361328125
"55734","Eveleth","MN","Paul's Market & Catering","623 Garfield St","55734",47.466501,-92.535511
"55746","Hibbing","MN","Super One Foods","1101 E 37th St","55746",47.408450659588866,-92.92625620831157
"55746","Hibbing","MN","Walmart Supercenter","12080 Highway 169 W","55746",47.3978676683117,-92.96012112964047
"55769","Nashwauk","MN","Fred's","not_available","55769",47.379700797610525,-93.16657005178972
"55802","Duluth","MN","Super One Foods","15 S 13th Ave E","55802",46.79838471146387,-92.08209594978354
"55802","Duluth","MN","Super One Foods","2230 E 5th St","54880",46.7053437008348,-92.04814848363446
"55802","Duluth","MN","Super One Foods","1515 Oakes Ave #2","54880",46.71979542009229,-92.10705582472107
"55802","Duluth","MN","Whole Foods Co-op","610 E 4th St","55805",46.79573438004634,-92.09407117672676
"55802","Duluth","MN","Les's Grocery","2920 N 21st St","54880",46.71365136822671,-92.1212498089728
"55803","Duluth","MN","Walmart Supercenter","4740 Mall Dr","55811",46.81785118288492,-92.18376466118328
"55803","Duluth","MN","Woodland Marketplace","4020 Woodland Ave","55803",46.85075533048228,-92.08121461035917
"55803","Duluth","MN","Mount Royal Fine Foods","1600 Woodland Ave","55803",46.82106618391239,-92.07241704599141
"55803","Duluth","MN","Super One Foods","5698 Miller Trunk Hwy","55811",46.851709748376386,-92.28004379690343
"55803","Duluth","MN","Super One Foods","5928 E Superior St","55804",46.83786619727827,-92.0105802156371
"55803","Duluth","MN","Super One Foods","1316 W Arrowhead Rd","55811",46.82147196956606,-92.09770287655175
"55803","Duluth","MN","Homecroft Foods","4849 Howard Gnesen Rd","55803",46.86157989501953,-92.11170959472656
"55806","Duluth","MN","Whole Foods Co-op Denfeld","4426 Grand Ave","55807",46.746721907058685,-92.15712707265901
"55807","Duluth","MN","Super One Foods","5300 Bristol St","55807",46.737092588918735,-92.16466503096784
"55807","Duluth","MN","Save-A-Lot","not_available","55807",46.737257078172966,-92.16783936752039
"55808","Duluth","MN","1234","950 86th ave w","55808",46.693224971675356,-92.20928192138672
"55810","Duluth","MN","Target","1902 Miller Trunk Hwy","55811",46.808581752772746,-92.16827599335375
"55810","Duluth","MN","ALDI","1724 Mall Dr","55811",46.80580334360197,-92.1662127202377
"55810","Duluth","MN","Super One Foods","5401 Burning Tree Rd","55811",46.81028706228644,-92.17058578348063
"55811","Duluth","MN","Cub Foods","615 W Central Entrance","55811",46.80338267861691,-92.14653432369232
"55901","Rochester","MN","Walmart Supercenter","3400 55th St Nw","55901",44.07732573641674,-92.51198716043461
"55901","Rochester","MN","Target","3827 Marketplace Dr NW","55901",44.06312849202443,-92.50307873844257
"55901","Rochester","MN","Hy-Vee","1315 6th St NW","55901",44.0299654,-92.4812505
"55901","Rochester","MN","Hy-Vee","4221 W Circle Dr NW","55901",44.065926051418884,-92.52656158072568
"55901","Rochester","MN","Hy-Vee","500 37th St NW","55901",44.059885,-92.469606
"55901","Rochester","MN","ALDI","2215 Commerce Dr NW","55901",44.04727698215141,-92.52010692928913
"55901","Rochester","MN","19th St Bridge","Highway 52 N","55901",44.043522159479664,-92.49012088184497
"55901","Rochester","MN","Fresh Thyme Farmers Market","40 17th Ave SW","55902",44.0230455,-92.4868985
"55901","Rochester","MN","Silver Lake Foods","1402 Broadway Ave N","55906",44.037941,-92.4611192
"55901","Rochester","MN","Lee Market","not_available","55906",44.032123,-92.447912
"55901","Rochester","MN","Super Market El Gallo #1","not_available","55901",44.04797213070019,-92.49144976969664
"55901","Rochester","MN","Just Rite Supermarket","211 6th Ave SW","55902",44.021260999999996,-92.47180300000001
"55901","Rochester","MN","Saigon Far East Market","3918 18th Ave NW","55901",44.064011,-92.48852
"55901","Rochester","MN","International Spice & Grocery","125 E Center St","55904",44.02358063304243,-92.46059954166412
"55901","Rochester","MN","Asian Food Market","1010 7th St NW","55901",44.030944,-92.478117
"55901","Rochester","MN","Sunny Market Grocery","1139 2nd St SW","55902",44.021838,-92.480533
"55901","Rochester","MN","Dagigg Group LLC","1500 First Ave NE, 111B","55906",44.0382039,-92.4624779
"55901","Rochester","MN","Rochester Produce","2112 2nd St SW","55902",44.02108876137455,-92.49582767486572
"55902","Rochester","MN","Target","4611 Maine Ave SE","55904",43.95388278699816,-92.46390461151107
"55902","Rochester","MN","Hy-Vee","500 Crossroads Drive","55902",44.00531634,-92.47020888
"55902","Rochester","MN","Trader Joe's","1200 16th St SW","55902",44.000660094295306,-92.48091247835383
"55902","Rochester","MN","Natural Grocers","1507 Greenview Dr SW","55902",44.00316988212287,-92.48720497838671
"55902","Rochester","MN","Aldi Food Market","1201 Broadway Ave S Ste 220","55904",44.0058947,-92.4658634
"55902","Rochester","MN","Rice-n-Spice","not_available","55904",44.014035,-92.462379
"55902","Rochester","MN","Vape it Zone","838 S Broadway","55904",44.014035,-92.462379
"55902","Rochester","MN","Walmart Grocery Pickup and Delivery","25 25th St Se","55904",43.98552,-92.461217535147
"55904","Rochester","MN","Cub Foods","1021 15th Ave SE","55904",44.00949207999448,-92.444549202919
"55904","Rochester","MN","Gluten Free Cupboard","1833 3rd Ave SE","55904",43.994879,-92.459007
"55912","Austin","MN","ALDI","1700 17th St NW","55912",43.6819775,-92.9961626
"55912","Austin","MN","Walmart Supercenter","1000 18th Ave Nw","55912",43.687522146518205,-92.98721528263378
"55912","Austin","MN","Hy-Vee","1307 18th Ave NW","55912",43.683065237552384,-92.98976719379425
"55912","Austin","MN","Jim's SuperValu","not_available","55912",43.668310056245154,-92.95957578385752
"55912","Austin","MN","African Food Market","113 4th Street","55912",43.669754,-92.97393
"55917","Blooming Prairie","MN","Supervalue","not_available","55917",43.86469076065066,-93.04779286267478
"55921","Caledonia","MN","Quillins","510 Vista Dr","55921",43.63869475,-91.50242193333334
"55922","Canton","MN","M&M's Knick Knacks","13086 Co Hwy 23","55922",43.543842,-91.90596
"55923","Chatfield","MN","Sunshine Foods","237 Main St N","55923",43.84908,-92.193753
"55923","Chatfield","MN","Yoder's Discount Grocery","13576 Keller Dr","55972",43.9078483581543,-92.01123046875
"55932","Elgin","MN","Bennett's Food Center","247","55964",44.165016,-92.21962
"55939","Harmony","MN","Harmony IGA","not_available","55939",43.554076,-92.010977
"55943","Houston","MN","Root River Market","119 E Cedar St","55943",43.763484000000005,-91.567805
"55946","Kenyon","MN","Fred's Market Place Foods","not_available","55946",44.273515,-92.985322
"55947","La Crescent","MN","Festival Foods","30 Copeland Ave","54603",43.821888234133866,-91.24826436583926
"55947","La Crescent","MN","Quillin's","201 Sky Harbour Dr","54603",43.859876627568525,-91.2633485554483
"55947","La Crescent","MN","People's Food Co-op","315 5th Ave S","54601",43.80921329249448,-91.24979211262105
"55947","La Crescent","MN","Quillin's IGA","24 S Walnut St","55947",43.82889938354492,-91.3043441772461
"55947","La Crescent","MN","Quillins Grocery Store","not_available","55947",43.82907707332946,-91.30428759320424
"55947","La Crescent","MN","Quillin's","Main St","55947",43.828985595236986,-91.30427771508
"55947","La Crescent","MN","bread outlet","66 Colpand avenue","54603",43.82481002807617,-91.24916076660156
"55949","Lanesboro","MN","Community Grounds Market","201 Parkway Ave N","not_available",43.72212219238281,-91.97721099853516
"55949","Lanesboro","MN","Parkway Market And Coffeehouse","201 Parkway Ave N","55949",43.72212219238281,-91.97721099853516
"55949","Lanesboro","MN","A101 Peterson","peterson","not_available",43.78569,-91.83644
"55951","Le Roy","MN","main street market","Main St, Le Roy, MN 55951","55951",43.509926,-92.50393100000001
"55962","Peterson","MN","Rushford IGA","not_available","55971",43.8073126289799,-91.75267668112639
"55963","Pine Island","MN","Island Market","201 N Main St","55963",44.203545,-92.645752
"55964","Plainview","MN","Lannings Food Center","215 1st St SW","55964",44.16279983520508,-92.1668472290039
"55965","Preston","MN","Preston Foods","105 Filmore ST W","not_available",43.670415860778256,-92.08226571759072
"55975","Spring Valley","MN","Sunshine Foods","501 N Park Dr","55975",43.699212,-92.397211
"55976","Stewartville","MN","Fareway Foods","2012 2nd Ave NE #2","55976",43.87119659098315,-92.48482099919235
"55981","Wabasha","MN","Scheel's SuperValu","221Hiawatha Dr W","55981",44.378097,-92.036858
"55983","Wanamingo","MN","buckstop Grocery And Liquor","not_available","55983",44.29612558079973,-92.7871304092702
"55987","Winona","MN","Walmart Supercenter","955 Frontenac Dr","55987",44.033051952045916,-91.61761776658867
"55987","Winona","MN","Hy-Vee","1475 W Service Dr","55987",44.047051,-91.67842
"55987","Winona","MN","Midtown Foods","E 5th St.","55987",44.050288399068364,-91.63556475351305
"55987","Winona","MN","Bluff Country Co-op","121 W 2nd St","55987",44.0537579573456,-91.6384255267358
"56001","Mankato","MN","Walmart Supercenter","1881 E Madison Ave","56001",44.16476515,-93.95070171
"56001","Mankato","MN","ALDI Food Market","1621 Madison Ave","56001",44.166466,-93.9624719
"56001","Mankato","MN","Hy-Vee","2010 Adams St","56001",44.17150955815767,-93.94539683200004
"56001","Mankato","MN","Cub Foods","1800 Madison Ave","56001",44.1687654,-93.9554439
"56001","Mankato","MN","Hy-Vee","410 S Riverfront Dr","56001",44.165863,-94.006635
"56001","Mankato","MN","Cub Foods","1200 S Riverfront Dr","56001",44.1604641,-94.0170196
"56001","Mankato","MN","Mocol's Supermarket","1001 N Broad St","56001",44.17461395263672,-93.99153137207031
"56001","Mankato","MN","Bar Khadle International Grocery","709 S Front St","56001",44.16109185667555,-94.00899589061737
"56001","Mankato","MN","Hindi Store","2156 Hoffman Rd","56001",44.15618896484375,-93.97132873535156
"56007","Albert Lea","MN","Hy-Vee","2708 Bridge Ave","56007",43.684324,-93.357481
"56007","Albert Lea","MN","Walmart Supercenter","1550 Blake Ave","56007",43.66399535414595,-93.3258670899322
"56007","Albert Lea","MN","MarketPlace Foods","1619 W Main St","56007",43.644525,-93.387869
"56007","Albert Lea","MN","Beef Jerky Outlet","2319 Leland Dr","56007",43.664864,-93.32753
"56007","Albert Lea","MN","Hyvee","not_available","56007",43.60928501880439,-93.34555017244776
"56013","Blue Earth","MN","Walmart","1210 Giant Dr","56013",43.65298221391045,-94.09699002955114
"56013","Blue Earth","MN","Rainbow Food Coop","103 S Main St","56013",43.638501720881024,-94.10226691911839
"56027","Elmore","MN","Elmore Food Center","not_available","56027",43.511047056485594,-94.08800660102216
"56031","Fairmont","MN","Hy-Vee","907 S State St","56031",43.644868,-94.445804
"56031","Fairmont","MN","Walmart Supercenter","1250 Goemann Rd","56031",43.681940202961336,-94.44486558437347
"56031","Fairmont","MN","Fareway Grocery Store","400-598 S State St","56031",43.648955,-94.448185
"56031","Fairmont","MN","Fairway","not_available","56031",43.64250191666667,-94.44807768333334
"56055","Lake Crystal","MN","Kevin's Market","334 N Main St","56055",44.10408601218483,-94.21512278815058
"56057","Le Center","MN","La Guadalupana Store","10 E Minnesota St","56057",44.38960647583008,-93.73126983642578
"56057","Le Center","MN","Radermacher's Fresh Market","110 S Lexington Ave","56057",44.387899,-93.733469
"56058","Le Sueur","MN","Hy-Vee","1002 Old Minnesota Ave","56082",44.337159,-93.950718
"56058","Le Sueur","MN","Radermacher's Fresh Market","125 N Main St","56058",44.462187797567026,-93.91440259119945
"56062","Madelia","MN","Sunshine Foods","7 E Main St","56062",44.05096549205528,-94.41657369282633
"56069","Montgomery","MN","Fred's IGA","not_available","56069",44.442439,-93.582114
"56071","New Prague","MN","Coborn's","1101-1521 Minnesota 19","56071",44.541926126329756,-93.55424462328325
"56071","New Prague","MN","Hy-Vee","200 10th Ave SE","56071",44.54197311401367,-93.56253814697266
"56071","New Prague","MN","Coborn's","200 Alton Ave SE","56071",44.541740000000004,-93.55420500000001
"56071","New Prague","MN","peace center","not_available","56071",44.546942,-93.57315200000001
"56072","New Richland","MN","Wagner Foods","100-198 Broadway Ave S","56072",43.89329071666667,-93.49413818333333
"56073","New Ulm","MN","Walmart Supercenter","1720 Westridge Rd","56073",44.32792523,-94.5049005
"56073","New Ulm","MN","Cash Wise Foods","1220 Westridge Rd","56073",44.328046465644476,-94.49038984035082
"56073","New Ulm","MN","Hyvee","2015 South Broadway Street","56073",44.29340663,-94.43930469
"56073","New Ulm","MN","Hy-Vee","2015 S Broadway St","56073",44.293440999999994,-94.43925300000001
"56073","New Ulm","MN","Cashwise Food","not_available","56073",44.328263445244424,-94.4895555643521
"56073","New Ulm","MN","New Ulm Community Market and Cooperative","526 S Minnesota St","56073",44.30726,-94.454077
"56073","New Ulm","MN","ALDI","2101 N Highland Ave","56073",44.32723450349139,-94.4980857860719
"56081","Saint James","MN","Food Pride","not_available","56081",43.98063633797578,-94.63262855184917
"56082","Saint Peter","MN","Family Fresh Market","612 S Minnesota Ave","56082",44.32162114642719,-93.96049083629038
"56082","Saint Peter","MN","St. Peter Food Co-op & Deli","228 W Mulberry St","56082",44.3226507639433,-93.95975319683609
"56082","Saint Peter","MN","LeCenter Radermacher's","not_available","56058",44.32159109488255,-93.96064619237272
"56082","Saint Peter","MN","The African Market","429 S Minnesota Ave","56082",44.32240676879883,-93.95803833007812
"56082","Saint Peter","MN","La Mexicana Market & Restaurant","215 S Minnesota Ave","56082",44.324318,-93.956517
"56085","Sleepy Eye","MN","Becker's Supervalu","114 Vernon Ave","56266",44.415409088134766,-94.9275131225586
"56093","Waseca","MN","Hy-Vee","1230 North State Street","56093",44.08984102,-93.50531862
"56093","Waseca","MN","Walmart Supercenter","2103 State St N","56093",44.0974058,-93.51003744
"56093","Waseca","MN","Cash Wise Foods","1230 State St N","56093",44.090702,-93.505242
"56096","Waterville","MN","Davis market place","not_available","56096",44.218854893444096,-93.5675908056016
"56098","Winnebago","MN","Marketplace foods","not_available","56098",43.7665341897565,-94.1653465581173
"56101","Windom","MN","Latinos Oreo","925 3rd Ave","56101",43.8661,-95.116038
"56101","Windom","MN","Ok, Boss Asian Food & Grocery","not_available","56101",43.866613,-95.117299
"56101","Windom","MN","Hy-Vee","192 10th St","56101",43.867342,-95.114525
"56122","Chandler","MN","Country Discount Market","not_available","56122",43.92887496948242,-95.94813537597656
"56123","Currie","MN","Alfa Mart","Jagoan II","56123",44.0927956,-95.5827334
"56143","Jackson","MN","Sunshine Foods","908 Highway 71 N","56143",43.627288818359375,-94.99092102050781
"56159","Mountain Lake","MN","Maynards Food Center","not_available","56159",43.951813,-94.93592
"56164","Pipestone","MN","Coborn's","1106 8th St SW","56164",43.99308750631508,-96.33177738812724
"56172","Slayton","MN","Key Ingredients For Health","2505 Maple Ave","56172",43.989189611994114,-95.75348319327969
"56187","Worthington","MN","Hy-Vee","1235 Oxford St","56187",43.6327219880141,-95.59585435461486
"56187","Worthington","MN","Walmart Supercenter","1055 Ryans Rd","56187",43.63650920678189,-95.60184182769794
"56187","Worthington","MN","Fareway","1028 Ryans Rd","56187",43.634346,-95.6012469358401
"56187","Worthington","MN","Sara Lee Outlet","1716 Oxford St, Worthington, MN 56187","56187",43.630950927734375,-95.58567810058594
"56201","Willmar","MN","Walmart Supercenter","700 19th Ave Se","56201",45.10147486,-95.03540187
"56201","Willmar","MN","Walmart Grocery Pickup & Delivery","700 19th Ave SE","56201",45.100793,-95.035261
"56201","Willmar","MN","Teal's Market","301 Highway 23 Ste 3","56288",45.224895028402905,-94.94057016447647
"56201","Willmar","MN","ALDI","495 19th Ave SE","56201",45.10408059436401,-95.03833651542664
"56201","Willmar","MN","Cub Foods","2201 1st St S","56201",45.1013256,-95.0409326
"56201","Willmar","MN","Hostess - Interstate Brands","not_available","56201",45.1235206459537,-95.02750301251788
"56201","Willmar","MN","Jahnke Foods","300 South Hwy 23","56288",45.22483483443325,-94.94074306637336
"56209","Atwater","MN","Verns","not_available","56209",45.136818271218814,-94.78639631368542
"56215","Benson","MN","DoMat's Grocery","not_available","56215",45.3112312892423,-95.61162343205801
"56223","Clarkfield","MN","Family Foods","920 10th St","56223",44.79015283996741,-95.80414271870308
"56225","Clinton","MN","Bonnie's Hometown Grocery","not_available","56225",45.460301,-96.436033
"56229","Cottonwood","MN","Dollar General","3106 Co Hwy 10","56229",44.61659240722656,-95.66458892822266
"56232","Dawson","MN","Jubilee Foods","not_available","56256",45.010481,-96.194506
"56241","Granite Falls","MN","Almich market","not_available","56241",44.805534,-95.55238100000001
"56241","Granite Falls","MN","Economart","1340 9th St","56241",44.805660247802734,-95.55217742919922
"56258","Marshall","MN","Walmart Supercenter","1221 E Main St","56258",44.43247693565713,-95.76704500533043
"56258","Marshall","MN","Hy-Vee","900 E Main St","56258",44.437593,-95.778488
"56258","Marshall","MN","Mexican Grocery Store","not_available","56258",44.447462,-95.790416
"56258","Marshall","MN","County Fair","405 Country Club Dr","56258",44.44104262386718,-95.795252972
"56258","Marshall","MN","ALDI","1400 Boyer Dr","56258",44.4299711384442,-95.76972832638933
"56265","Montevideo","MN","Twisted Vape Shop","546 Southwest 1st Street","56265",44.9397755,-95.7221967
"56265","Montevideo","MN","Walmart Grocery Pickup","3001 E Highway 7","56265",44.94912,-95.69147
"56265","Montevideo","MN","Coburn's","not_available","56265",44.961895,-95.748928
"56265","Montevideo","MN","Coborn's","1409 E Highway 7","56265",44.952661,-95.709726
"56267","Morris","MN","Willie's","not_available","56267",45.588695021279854,-95.91497968188601
"56277","Olivia","MN","Terry's Market","1002 W Lincoln Ave","56277",44.77699279785156,-94.99148559570312
"56278","Ortonville","MN","Berens Warehouse Groceries","Hwy 12","57252",45.22572326660156,-96.61107635498047
"56278","Ortonville","MN","Hartman's Supervalu","149 1st St NW","56278",45.305611999999996,-96.44782
"56278","Ortonville","MN","Bill's Super Value","3rd Ave","57252",45.22147818333333,-96.63423923333333
"56283","Redwood Falls","MN","Walmart Supercenter","1410 E Bridge St","56283",44.539992008153234,-95.0883037839253
"56284","Renville","MN","Maynards Food Center","not_available","56284",44.790524470966,-95.21651623173415
"56301","Saint Cloud","MN","Cash Wise Foods","113 Waite Ave S","56387",45.5512657,-94.2153549
"56301","Saint Cloud","MN","Walmart Supercenter","3601 2nd St South","56301",45.55052077,-94.20140923
"56301","Saint Cloud","MN","Viet-Tien International Market & Deli","311 3rd St NE","56387",45.55902066851535,-94.20813500221136
"56301","Saint Cloud","MN","Lunds & Byerlys","2510 W Division St","56301",45.55210846919136,-94.18871667521177
"56301","Saint Cloud","MN","Coborn's Superstore","900 Cooper Ave S","56301",45.55048943404072,-94.1762427460327
"56301","Saint Cloud","MN","Fresh Thyme Farmers Market","50 2nd St S","56387",45.54856036623062,-94.21546953372956
"56301","Saint Cloud","MN","ALDI","256 2nd St S","56387",45.54850540552279,-94.22054261653291
"56301","Saint Cloud","MN","Thao Market","not_available","56301",45.545491663471715,-94.19386505397766
"56301","Saint Cloud","MN","Granite City Jobbing","2731 Clearwater Rd","56301",45.5244447,-94.159467
"56301","Saint Cloud","MN","Natureway Foods","84 33rd Ave S, St Cloud, MN 56301","56303",45.55116653442383,-94.1976318359375
"56301","Saint Cloud","MN","Grocery Clearance Center","506 Division St","56387",45.55320358276367,-94.22317504882812
"56301","Saint Cloud","MN","Von Hanson's Meats","105 Waite Avenue North","56387",45.555460728715595,-94.21414181968383
"56301","Saint Cloud","MN","cobrns","not_available","56303",45.551978232836056,-94.1497034342342
"56301","Saint Cloud","MN","Save-A-Lot","3316 W Division St","56301",45.55186027370467,-94.19891974968064
"56303","Saint Cloud","MN","Walmart Supercenter","21 County Road 120","56377",45.59246295,-94.18811837
"56303","Saint Cloud","MN","Coborn's (Coborn's Marketplace)","1725 Pine Cone Rd S","56377",45.59595573932963,-94.22524174603268
"56303","Saint Cloud","MN","Coborn's Superstore - Sauk Rapids","110 1st St S","56379",45.58741517131767,-94.16379312360044
"56303","Saint Cloud","MN","Walmart Grocery Pickup and Delivery","21 County Road 120","56303",45.592735290527344,-94.18824005126953
"56303","Saint Cloud","MN","Good Earth Food Co-op","2010 Veterans Dr","56303",45.5646891,-94.1816746
"56303","Saint Cloud","MN","Coborns","2118 8th St N","56303",45.564951084334595,-94.18347853609795
"56304","Saint Cloud","MN","Cash Wise Foods","1001 4th St SE","56304",45.56373754434085,-94.13832803095693
"56307","Albany","MN","Amby's Foods","122 8th St","56307",45.631205524908815,-94.57383155822754
"56307","Albany","MN","Swany White Flower Mills","206 2nd St SE","56331",45.661945,-94.688942
"56308","Alexandria","MN","Cub Foods","2612 S Broadway St","56308",45.86465489116125,-95.37878663870282
"56308","Alexandria","MN","Elden's Food Fair","707 3rd Ave E","56308",45.88994026153583,-95.36768979972142
"56308","Alexandria","MN","Walmart Supercenter","4611 State Highway 29 S","56308",45.84877983,-95.38309235
"56308","Alexandria","MN","ALDI","600 50th Ave W","56308",45.84496555,-95.38549862
"56308","Alexandria","MN","Miltona Grocery","233 Main St","56354",46.043836,-95.292035
"56312","Belgrade","MN","Jim's Corner Grocery","101 Central Ave N","56316",45.500932893896895,-95.12465000152588
"56312","Belgrade","MN","L And L Foods","not_available","56312",45.45377194784969,-95.00511453929344
"56315","Brandon","MN","JC's Market","not_available","56315",45.96387085536805,-95.5987843941682
"56320","Cold Spring","MN","Teals Market","201 2nd Ave S","56320",45.453267899753705,-94.42669002487
"56329","Foley","MN","Coborn's","161 Glen St","56329",45.663187792694956,-93.91954041062593
"56329","Foley","MN","coburn's Foley","not_available","56329",45.662668470926796,-93.88464652859646
"56334","Glenwood","MN","Tom's Food Pride","not_available","56334",45.64998512176135,-95.39112777147656
"56338","Hillman","MN","Rj's Meats","36929 MN-27","56338",46.076466,-93.89444
"56342","Isle","MN","Teals Market","365 Main St.","56342",46.137823179191436,-93.47143402352651
"56345","Little Falls","MN","Walmart Supercenter","15091 18th St Ne","56345",45.97981207,-94.33669185
"56345","Little Falls","MN","Coborn's","1101 2nd Ave NE","56345",45.97747327135745,-94.3444810527352
"56345","Little Falls","MN","ALDI","14986 18th St NE","56345",45.978981018066406,-94.33379364013672
"56345","Little Falls","MN","Camp Ripley PX","E Exchange Rd","56345",46.09397726074145,-94.34446341908931
"56345","Little Falls","MN","Gosch's","not_available","56475",46.08951056309656,-94.50055979624443
"56347","Long Prairie","MN","save superstore","not_available","56347",45.96099686368984,-94.86490220490542
"56347","Long Prairie","MN","Coborn's","645 Lake St S","56347",45.96418107273095,-94.86724155547739
"56352","Melrose","MN","Coborn's","105 E Main St","56352",45.675323370612624,-94.81255310185242
"56353","Milaca","MN","Teal's Market","235 2nd Ave SW","56353",45.75331149949044,-93.6521614991279
"56360","Osakis","MN","osakis family foods","59 West Main Street","not_available",45.867764,-95.15370300000001
"56360","Osakis","MN","Jim's Home Quality Foods","59 West Main","56360",45.86787740437098,-95.15359893812098
"56362","Paynesville","MN","Teal's Market","970 W Highway 23","56362",45.370895,-94.73053
"56364","Pierz","MN","Pierz Foods","227-299 Main St N","56364",45.983065223897896,-94.10513755127663
"56364","Pierz","MN","Smudeâ€™s Sunflower Oil","500 Centennial Dr","56364",45.970317,-94.114215
"56368","Richmond","MN","Plantenbergs Food Pride","132 Main St W","56368",45.45414333943542,-94.52047239964615
"56374","Saint Joseph","MN","Coborn's","1500 Elm St E","56374",45.56808275542124,-94.29722682209012
"56374","Saint Joseph","MN","Minnesota Street Market","27 W Minnesota St","not_available",45.56467330758781,-94.31907080153196
"56377","Sartell","MN","Coborn's","707 1st Ave N","56377",45.63112924398447,-94.20789444907382
"56378","Sauk Centre","MN","Walmart Supercenter","205 12th St S","56378",45.72123429611489,-94.94658937464695
"56378","Sauk Centre","MN","Coborn's","214 12th St S","56378",45.724932824314756,-94.94806932670542
"56378","Sauk Centre","MN","Wonder Hostess Bakey Outlet","not_available","56378",45.724246,-94.954207
"56381","Starbuck","MN","toms food pride starbuck","not_available","56381",45.613183,-95.531885
"56401","Brainerd","MN","Walmart Supercenter","7295 Glory Rd","56425",46.342447231566034,-94.24951422406622
"56401","Brainerd","MN","Cub Foods","14133 Edgewood Dr","56425",46.35581039611289,-94.24680858850473
"56401","Brainerd","MN","Super One","7895 Excelsior Rd","56425",46.35379185164366,-94.23553441611939
"56401","Brainerd","MN","Cub Foods","417 8th Ave NE","56401",46.363244314725115,-94.18009400367731
"56401","Brainerd","MN","Super One Foods","101 E Main St","56441",46.48275746617532,-93.95030143553008
"56401","Brainerd","MN","ALDI","14620 Dellwood Dr","56425",46.36399037896194,-94.24257448534775
"56401","Brainerd","MN","Garrison Family Foods","27336-27374 Monroe St","56450",46.295462329559825,-93.82568940181609
"56401","Brainerd","MN","Crow Wing Food Co-op","720 Washington St","56401",46.35802860292955,-94.19792604770394
"56431","Aitkin","MN","Paulbeck's County Market","171 Red Oak Dr","56431",46.51533806430634,-93.70904728891765
"56433","Akeley","MN","Super One Foods","701 Michigan Ave W","56484",47.100368102170286,-94.58603406556595
"56435","Backus","MN","Godfreys","not_available","56435",46.83546505241285,-94.5016284651418
"56437","Bertha","MN","Corner Super Market","not_available","56437",46.26656584698348,-95.06601392649753
"56452","Hackensack","MN","Mark's Market","300 Minnesota 371","56452",46.93337432764347,-94.51932326598653
"56452","Hackensack","MN","Countryside Co-op","not_available","56452",46.9244270324707,-94.52240753173828
"56461","Laporte","MN","Laporte Grocery","20 Main St E","56461",47.214481,-94.752623
"56464","Menahga","MN","Chuck's Country Foods","not_available","56464",46.75551735,-95.09855097
"56466","Motley","MN","motely Two Rivers Grocery","not_available","56466",46.32637023925781,-94.64785766601562
"56466","Motley","MN","Two Rivers Super Market","17 Beaulieu St W","56466",46.337056,-94.646413
"56467","Nevis","MN","Northwind Grocery","200 Main Street","56467",46.964882483333334,-94.84224965
"56470","Park Rapids","MN","Hugos Family Marketplace","101 4th St E","56470",46.919097744859,-95.0579712785632
"56470","Park Rapids","MN","Walmart Supercenter","1303 Charles St","56470",46.9247273,-95.0337367
"56470","Park Rapids","MN","Coborn's","209 1st St W","56470",46.92262396497795,-95.06173070430981
"56472","Pequot Lakes","MN","Pequot Lakes SuperValu","not_available","56472",46.595961693769056,-94.31324072915126
"56472","Pequot Lakes","MN","Hy Vee","34988 County Road 39","56472",46.66023635864258,-94.1981201171875
"56479","Staples","MN","Ernie's","1200-1298 1st Ave NE","56479",46.35396415541461,-94.78195550724917
"56479","Staples","MN","Johns famiLy food","not_available","56479",46.369167,-94.796696
"56481","Verndale","MN","Walmart Supercenter","100 Juniper Ave","56482",46.45297295604975,-95.12689995696294
"56481","Verndale","MN","Casey's General Store","304 Jefferson St N","56482",46.444157231534646,-95.1338562976472
"56481","Verndale","MN","Russ Davis Wholesale","not_available","56482",46.44378614288284,-95.12921196393089
"56501","Detroit Lakes","MN","Walmart Supercenter","1583 Highway 10 W","56501",46.8257904456997,-95.87781144122266
"56501","Detroit Lakes","MN","The Fresh Place","310 Highway 10 E","56501",46.80880590402736,-95.84008622458248
"56501","Detroit Lakes","MN","Manna Food Co-op","105 Barbara Ave","56501",46.825538429148736,-95.83425521850586
"56514","Barnesville","MN","Barnesville Grocery Store","not_available","56514",46.65274833262563,-96.4185992071488
"56515","Battle Lake","MN","Larry's Foods","102 Gilbertson Street West","56515",46.279960599825415,-95.71452004789576
"56515","Battle Lake","MN","The Market","S Lake Ave.","56515",46.281285,-95.714437
"56520","Breckenridge","MN","Walmart Supercenter","1625 Commerce Dr","58075",46.28389023803973,-96.62966879361217
"56520","Breckenridge","MN","Econofoods","259-399 State Highway 127","58075",46.26197319576132,-96.61667291810272
"56520","Breckenridge","MN","Econo Foods","not_available","58075",46.26982873110888,-96.61242182959134
"56529","Dilworth","MN","Walmart Supercenter","415 34th St N","56529",46.88176436141632,-96.72291758077905
"56529","Dilworth","MN","Aldi","833 34th St N","56529",46.88476102917511,-96.72464440763406
"56535","Erskine","MN","Toupin's","not_available","56535",47.69805106232805,-96.14156523600312
"56535","Erskine","MN","Groceries Plus","not_available","56556",47.66374480597487,-96.01216348855127
"56537","Fergus Falls","MN","Walmart Supercenter","3300 State Highway 210 W","56537",46.29201091666376,-96.12423068044733
"56537","Fergus Falls","MN","ALDI","1802 W Lincoln Ave","56537",46.2867388,-96.1044416
"56537","Fergus Falls","MN","Service Food","321 W Lincoln Ave","56537",46.28303131922604,-96.07935185002393
"56537","Fergus Falls","MN","Meadow Farm Foods","23064 County Highway 1","56537",46.305131,-96.00796
"56540","Fertile","MN","mosher's Food 4 Life","not_available","56540",47.53628995047553,-96.28086211215482
"56542","Fosston","MN","Palubicki's Foods & Deli","107 Kaiser Ave N","56542",47.57741267583857,-95.75350661584467
"56547","Glyndon","MN","Old 52 General Store","23 Main St","56580",46.777954179352776,-96.6509393697695
"56551","Henning","MN","B & D Foods","Douglas Ave","56551",46.321014270861234,-95.44464703238647
"56554","Lake Park","MN","Jeff's Food Center","2048 2nd St","56554",46.88396072387695,-96.09536743164062
"56554","Lake Park","MN","Jeff's Food","2042 2nd St","56554",46.88434228827785,-96.0952023805123
"56560","Moorhead","MN","Hornbacher's","2510 Broadway N","58102",46.91031732932205,-96.78915972023776
"56560","Moorhead","MN","Hornbacher's","1532 32nd Ave S","58103",46.8314452362843,-96.80310985289236
"56560","Moorhead","MN","Cash Wise Foods","1401 33rd St S","58103",46.8590939,-96.8335879
"56560","Moorhead","MN","Cash Wise Foods","3300 Highway 10 E","56560",46.877954167805235,-96.72777515211487
"56560","Moorhead","MN","Cash Wise Foods","4907 Timber Pkwy S","58104",46.8064211,-96.8310151
"56560","Moorhead","MN","Hornbachers","101 11th St S","56560",46.873078663972336,-96.76424783928678
"56560","Moorhead","MN","Hornbacher's","950 40th Ave S","56560",46.833798,-96.7653936
"56560","Moorhead","MN","Hornbacher's Express","1433 University Dr S","58103",46.8583386,-96.7993448
"56560","Moorhead","MN","Sunmart","2855 27th St S","58103",46.833608147289894,-96.82174637746552
"56560","Moorhead","MN","Tochi Products","1101 2nd Ave N","58102",46.878586,-96.796329
"56560","Moorhead","MN","Lotus Blossom","2750 Main Ave","58103",46.87551435267151,-96.82406422453691
"56560","Moorhead","MN","Cash Wise Service Counter","not_available","58103",46.85745620727539,-96.83522033691406
"56560","Moorhead","MN","Asian American Market","1015 Main Ave","58103",46.87505179628957,-96.79484164928203
"56560","Moorhead","MN","Family Fare Supermarket","724 North University Drive","58102",46.8841241,-96.7992791
"56560","Moorhead","MN","Everyday Mart","707 10th St N","58102",46.88380432128906,-96.79357147216797
"56572","Pelican Rapids","MN","Larry's Super Market","1007 South Broadway","56572",46.558908279054265,-96.08217033897715
"56573","Perham","MN","Dean's Country Market","211 Market Drive","56573",46.58488749767866,-95.57242501929458
"56573","Perham","MN","North Central Garlic of Minnesota","38490 428th St","56573",46.58017349243164,-95.68688201904297
"56573","Perham","MN","Service Food","250 E Main St","56573",46.592868,-95.57118
"56584","Twin Valley","MN","Garbergs","148-198 1st St SW","56584",47.25959436,-96.25902429
"56601","Bemidji","MN","Lueken's Village Foods","1171 Paul Bunyan Dr NW","56601",47.49272968170764,-94.89682109017079
"56601","Bemidji","MN","Walmart Supercenter","2025 Paul Bunyan Dr Nw","56601",47.49684151451263,-94.90857284949985
"56601","Bemidji","MN","Lueken's Village Foods","609 Washington Ave S","56601",47.45539695113315,-94.86496000961758
"56601","Bemidji","MN","Marketplace Food & Drug","2000 Paul Bunyan Dr NW","56601",47.49306972325224,-94.90796836435136
"56601","Bemidji","MN","Teal's Market","604 Lyle Chisholm Dr","56633",47.38170711371362,-94.61258728794165
"56628","Bigfork","MN","Kocian's Family Market","402 Rajala Mill Rd","56628",47.74212916054937,-93.65634243195831
"56629","Birchdale","MN","Cloverleaf Grocery","5970 Hwy 11","P0W 1E0",48.632355525186526,-93.83405685424805
"56630","Blackduck","MN","Blackduck Family Food","288 Frontage Rd","56630",47.726586,-94.553282
"56630","Blackduck","MN","Northome Grocery","not_available","56661",47.87182991547724,-94.28112955888392
"56634","Clearbrook","MN","Bakkens Fairway Market","33 Main St S","56634",47.694053000000004,-95.428384
"56636","Deer River","MN","U-Save Foods","115 Main Ave E","56636",47.332512,-93.791161
"56636","Deer River","MN","Northern Star Foods","3 Main Street","56636",47.333507,-93.794172
"56649","International Falls","MN","Safeway Canada","417 Scott St.","P9A 1H3",48.60960006765384,-93.39088736406093
"56649","International Falls","MN","County Market","1907 Valley Pine Cir","56649",48.58770751953125,-93.43963623046875
"56649","International Falls","MN","M&M Food Market","130 Second St E","P9A 1M5",48.6122007484421,-93.3991297997594
"56649","International Falls","MN","Safeway Fort Frances","417 Scott St","P9A 1H3",48.60964,-93.391354
"56649","International Falls","MN","Our Country Pantry","4314 County Road 91","56649",48.5539665222168,-93.44410705566406
"56649","International Falls","MN","SuperOne","not_available","56649",48.59922334324937,-93.41939545800341
"56655","Longville","MN","Tabaka's Super Valu","5007 State Highway 84 NE","56655",46.98572293761446,-94.21105405488721
"56670","Redby","MN","Red Lake Nation Foods","15550 Chippewa Ave","56670",47.879012,-94.917812
"56671","Redlake","MN","Red Lake Foods/Gas/Laundry","Hwy 1 main","56671",47.876532460471935,-95.02200826883593
"56672","Remer","MN","Holters","not_available","56672",47.05633122380188,-93.91577890980848
"56673","Roosevelt","MN","Dougs Supermarket","718-798 Main Ave NE","56763",48.908962925340155,-95.31812514690871
"56701","Thief River Falls","MN","Walmart Supercenter","1755 Highway 59 S","56701",48.11223936005678,-96.1500876798146
"56701","Thief River Falls","MN","Hugo's","135-599 S Pennington Ave","56701",48.11509071010505,-96.17724291581393
"56701","Thief River Falls","MN","Hugo's","not_available","56701",48.016593,-96.322852
"56713","Argyle","MN","L&R Foods","not_available","56713",48.33331760415354,-96.81905473347234
"56716","Crookston","MN","Walmart Garden Center","1930 Sahlstrom Dr","56716",47.791576,-96.607311
"56716","Crookston","MN","Hugo's Family Marketplace","1310 University Ave","56716",47.78486072886538,-96.60973979359309
"56721","East Grand Forks","MN","Target","3601 32nd Ave S","58201",47.88721543786896,-97.08019065572377
"56721","East Grand Forks","MN","Walmart Supercenter","2551 32nd Ave S","58201",47.88751398,-97.06459522
"56721","East Grand Forks","MN","Hugo's","1750 32nd Ave S","58201",47.890241662409096,-97.05310503260189
"56721","East Grand Forks","MN","Hugo's","1315 S Columbia Rd","58201",47.9083544363547,-97.06490868189559
"56721","East Grand Forks","MN","Hugo's","1925 13th Ave N","58203",47.93183906012577,-97.05460391201166
"56721","East Grand Forks","MN","Natural Grocers","1901 32nd Ave S","58201",47.88838149822136,-97.05530028856644
"56721","East Grand Forks","MN","Hugo's","1631 S Washington St","58201",47.904455178075224,-97.04430784620794
"56721","East Grand Forks","MN","Hugo's","306 14th St NE","56721",47.9389773270875,-97.01620978098592
"56721","East Grand Forks","MN","Toucan International Market","1826 S Washington St","58201",47.90234816557345,-97.04878261009503
"56721","East Grand Forks","MN","Hamro Asian Market","1375 S Columbia Rd Ste C","58201",47.907712,-97.064775
"56721","East Grand Forks","MN","Hornbacher's","2771 32nd Ave S","58201",47.887591018175,-97.0687768013886
"56728","Hallock","MN","Farmers Store","not_available","56728",48.77555441281958,-96.94601729915625
"56728","Hallock","MN","Family Foods","County Road 27","56735",48.859264428447254,-96.80407294068063
"56732","Karlstad","MN","Pasar Srago","Jl. ByPass Klaten","56732",48.5586169,-96.45305119999999
"56734","Lake Bronson","MN","Bronson Market","not_available","56734",48.73551,-96.663734
"56751","Roseau","MN","U-Save Foods (SuperOne)","503 3rd Ave (Hwy 11)","56751",48.848228454589844,-95.76849365234375
"56751","Roseau","MN","U-Save","not_available","56751",48.84757150321186,-95.76959223042783
"56757","Stephen","MN","Kelly's Country Market","not_available","56757",48.449890642155914,-96.87413802045813
"56762","Warren","MN","Dales Foods","not_available","56762",48.19559097290039,-96.77384948730469
