"zip","city","state","name","address","postalCode","lat","lon"
"03902","Cape Neddick","ME","Village Food Market","230 Main St","03907",43.24927183259172,-70.59963832982531
"03903","Eliot","ME","Walmart","2200 Woodbury Ave","03801",43.10119900338779,-70.80946936876389
"03903","Eliot","ME","Trader Joe's","45 Gosling Rd","03801",43.09374203808143,-70.8013301156611
"03903","Eliot","ME","ALDI","2024 Woodbury Ave","03801",43.09541350604413,-70.79659892477038
"03903","Eliot","ME","India Bazaar","not_available","not_available",43.094199,-70.792854
"03903","Eliot","ME","Groceries on the go","167 State Rd","03904",43.099484620298774,-70.74490369183303
"03903","Eliot","ME","Rising Tide Natural Foods","165 State Rd","03904",43.09918499984941,-70.74487586041151
"03904","Kittery","ME","Portsmouth Health Food Center","151 Congress St","03801",43.07591687327961,-70.76064613808445
"03904","Kittery","ME","The View at Pepperrell Cove","88 Pepperrell Rd","03905",43.0830729,-70.70338389999999
"03904","Kittery","ME","Portsmouth NSY Commissary","167 Beaumont St","03804",43.08049138060584,-70.73373889869902
"03906","North Berwick","ME","Shaw's","1364 Main St","04073",43.41368958045993,-70.74410954116956
"03906","North Berwick","ME","Willow Brooke Farms","381 High St","03906",43.3310246,-70.7355281
"03909","York","ME","Oceanside Store - Long Sands Beach","not_available","03909",43.16403566755851,-70.61889969284248
"04002","Alfred","ME","Goodwin Mills General Store","480 Goodwins Mills Rd","04002",43.508054040538866,-70.5819728988138
"04002","Alfred","ME","Alfred Country Store","3 Saco Rd","04002-3400",43.476417080054226,-70.71694360958288
"04002","Alfred","ME","B & J's Vapes","898 Main St #105","04073",43.43956,-70.77577
"04002","Alfred","ME","Hannaford","not_available","04073",43.428,-70.77783
"04002","Alfred","ME","Hannafords, waterboro, Me","not_available","04061",43.57092205946918,-70.67675255402175
"04005","Biddeford","ME","Market Basket","220 Mariner Way #4005","04005",43.472204033992654,-70.51311586823854
"04005","Biddeford","ME","Shaw's","4 Scammon St Ste 10","04072",43.50235888246322,-70.44916183958492
"04005","Biddeford","ME","Walmart Grocery Pickup & Delivery","50 Boulder Way","04005",43.47467803955078,-70.49932861328125
"04005","Biddeford","ME","Landry's Shop n Save","2 Cascade Rd","04064",43.52243644501875,-70.37890777298342
"04005","Biddeford","ME","Cummings Market","RT.35","04094",43.40555754995354,-70.5650867041402
"04005","Biddeford","ME","Red Rocket Gas and Grocery","141 Saco Ave","04064",43.513465999999994,-70.389269
"04005","Biddeford","ME","New Morning Natural Foods","230 Main St","04005",43.493937510262654,-70.45676598569621
"04005","Biddeford","ME","Alltown","613 US-1","04074",43.5940369,-70.3275766
"04005","Biddeford","ME","AZ's","not_available","04064",43.514683842659,-70.37875592708588
"04009","Bridgton","ME","Food City","295 Main St","04009",44.053761377192295,-70.70063382601013
"04010","Brownfield","ME","Brownfield Country Market","1 Birch Ln","04010",43.96204412129585,-70.90441745764537
"04011","Brunswick","ME","Walmart Supercenter","15 Tibbetts Dr","04011",43.90773391723633,-69.90827178955078
"04011","Brunswick","ME","Shaw's","147 Bath Rd","04011",43.9076675,-69.9255413
"04011","Brunswick","ME","Vegetable Corner","Harpswell neck road","04079",43.8228547612791,-69.96405034920326
"04011","Brunswick","ME","Morning Glory Natural Foods","60 Maine St","04011",43.91729451927553,-69.96650148809195
"04015","Casco","ME","Bob's Place","not_available","04015",43.94181996575256,-70.54707600197024
"04020","Cornish","ME","Call's Shop 'n Save","not_available","04020",43.80278460264432,-70.82314939863899
"04027","Lebanon","ME","Market Basket","96 Milton Rd","03868",43.34133823742122,-70.9753014952484
"04032","Freeport","ME","Shaw's","200 Lower Main St","04032",43.84511535019364,-70.11832603815492
"04032","Freeport","ME","Royal River Natural Foods","443 Route 1","04032",43.83510084098559,-70.12618923919149
"04037","Fryeburg","ME","Center Lovell Market","not_available","04016",44.175528953019544,-70.89364319125951
"04037","Fryeburg","ME","Bea's Marketplace","14 Portland St","04037",44.01638,-70.97928
"04037","Fryeburg","ME","Thriftway","not_available","04037",44.0198178835905,-70.96444558369022
"04038","Gorham","ME","Hannaford Supermarket","71 Colonial Drive","04084",43.72970545814782,-70.54447605276437
"04038","Gorham","ME","Sawyer's Market","not_available","04062",43.739151,-70.425968
"04038","Gorham","ME","Yogurt Aisle","not_available","04038",43.72079977321327,-70.51600462025841
"04038","Gorham","ME","The C Store","37 College Ave","04038",43.68232497755719,-70.44703892509122
"04039","Gray","ME","Gray Shop 'N Save","35 Portland Rd","04039",43.88071,-70.32797
"04039","Gray","ME","Gray Supermarket","not_available","04039",43.88066024,-70.32856493
"04043","Kennebunk","ME","Big Apple","6 Western Ave","04046",43.36042670575845,-70.47916365963356
"04043","Kennebunk","ME","New Morning Natural Foods","3 York St","04043",43.38410319760444,-70.54440799149828
"04043","Kennebunk","ME","Garden Street Market","1 Garden St","04043",43.3861191187685,-70.54192543029785
"04046","Kennebunkport","ME","Bradbury Brothers Market","167 Main St","04014",43.37226449765032,-70.43903070721062
"04048","Limerick","ME","Limerick Supermarket","54 Central Ave","04048",43.69857864372463,-70.78017039897016
"04050","Long Island","ME","Hannigan's Island Market","76 Island Ave","not_available",43.656493955875725,-70.19824797903043
"04055","Naples","ME","Umbrella Factory","693 Roosevelt Trail","04055",43.96999669953737,-70.59277405857719
"04056","Newfield","ME","Hilltop Boilers Maple Syrup","157 Elm St","04095",43.65890884399414,-70.84864807128906
"04062","Windham","ME","Walmart Supercenter","30 Landing Rd","04062",43.8379474,-70.44392824
"04062","Windham","ME","Shaw's","770 Roosevelt Trail","04062",43.835823,-70.4442507
"04062","Windham","ME","Country Kitchen Bakery Outlet","669 Roosevelt Trl","04062",43.82704544067383,-70.43399047851562
"04073","Sanford","ME","Walmart Supercenter","1930 Main St","04073",43.40079813112447,-70.70073978696291
"04073","Sanford","ME","Little Yellow Store","586 Quarry Rd","04090",43.33797836303711,-70.70494842529297
"04074","Scarborough","ME","Walmart Supercenter","500 Gallery Blvd","04074",43.622864,-70.343025
"04074","Scarborough","ME","Rosemont West End","40 Pine St","04102",43.65161250629597,-70.2680139163133
"04074","Scarborough","ME","Shaw's","417 Payne Rd","04074",43.62001168100521,-70.35041937940605
"04074","Scarborough","ME","Hong Kong Market","945 Congress St","04102",43.653795,-70.279221
"04074","Scarborough","ME","Joe's Smoke Shop","665 Congress St","04101",43.65328050114031,-70.26626989230115
"04074","Scarborough","ME","Lois' Natural Marketplace","152 US Route 1","04074",43.59718898519107,-70.3234407642613
"04074","Scarborough","ME","Sonny's Variety","935 Congress St","04102",43.65380748163211,-70.27885437011719
"04074","Scarborough","ME","Save-A-Lot","268 St John St","04102",43.652331,-70.279495
"04074","Scarborough","ME","Hannaford Supermarkets","145 Pleasant Hill Rd","04074",43.59975569627048,-70.29829502105711
"04074","Scarborough","ME","Shaw's","180 Waterman Dr","04106",43.63760757446289,-70.25509643554688
"04074","Scarborough","ME","Vespucci's","Danforth St.","not_available",43.64790331036713,-70.26637597571546
"04074","Scarborough","ME","Al-Amin Halaal Market","St. John St","not_available",43.65339127150781,-70.2791592527646
"04074","Scarborough","ME","Maine Lobster Now","58 City Line Dr","04102",43.64891044,-70.32292633
"04074","Scarborough","ME","Highland Avenue Greenhouse and Farm Market","109 Highland Ave","04074",43.58799579999999,-70.30572889999999
"04076","Shapleigh","ME","One Earth","191 Emery Mills Rd","04076",43.49434280395508,-70.845703125
"04088","Waterford","ME","Springer's General Store","1218 Waterford Rd","04088",44.20707702636719,-70.6844253540039
"04090","Wells","ME","Wells Super Food Market","not_available","04090",43.32111654680829,-70.58073406549472
"04090","Wells","ME","Iga","Well Center","04090",43.32146083897865,-70.58106088122616
"04090","Wells","ME","Wells corner shopping center","Post rd","04090",43.32129709042915,-70.58091206571028
"04092","Westbrook","ME","Market Basket","90 Rock Row","04092",43.677284,-70.331848
"04092","Westbrook","ME","Shaw's","31 Main St","04092",43.67952741310283,-70.33097921611437
"04092","Westbrook","ME","Makara's Market","1104 Brighton Ave","04102",43.67510986328125,-70.32512664794922
"04092","Westbrook","ME","Register #10","7 Hannaford Dr","04092",43.6760139465332,-70.35514831542969
"04092","Westbrook","ME","Tigris Market","11 Bridge St","04092",43.676876,-70.366299
"04095","West Newfield","ME","Country Goods & Groceries","3400 Province Lake Rd.","03830",43.642642974853516,-70.97946166992188
"04101","Portland","ME","Whole Foods Market","2 Somerset St","04101",43.663284962100605,-70.25866425696665
"04101","Portland","ME","Trader Joe's","87 Marginal Way","04101",43.66192821228901,-70.26428360673688
"04101","Portland","ME","Portland Food Co-op","290 Congress St","04101",43.6612343653,-70.25288246901405
"04101","Portland","ME","Stonewall Kitchen","182 Middle St","04101",43.657610701395214,-70.25483603914371
"04101","Portland","ME","Hilltop Superette","135 Congress St","04101",43.665633,-70.248507
"04101","Portland","ME","Maine's Pantry","1 Union Wharf","04101",43.65481333,-70.25387333
"04101","Portland","ME","Veranda Asian Market","not_available","04103",43.671709377662864,-70.28446509305562
"04101","Portland","ME","Discount Halal Market","44 Washington Ave","04101",43.664704,-70.25209
"04101","Portland","ME","Halah Market","61 Washington Ave","04101",43.665495,-70.251557
"04102","Portland","ME","Shaw's","1364 Congress St","04102",43.65750623203772,-70.2977049350738
"04103","Portland","ME","Shaw's","91 Auburn St","04103",43.7024144693878,-70.28802752494806
"04103","Portland","ME","Greenlaw Home","135 Regan Ln","04103",43.705619,-70.298769
"04105","Falmouth","ME","Shaws Falmouth","251 US Route 1","04105",43.72388956896758,-70.23065164565205
"04105","Falmouth","ME","Hannaford Supermarket","65 Gray Rd","04105",43.7341968,-70.2944295
"04105","Falmouth","ME","Walmart","206 Us Rt 1","04105",43.72021522941008,-70.23472705678157
"04105","Falmouth","ME","Waldo's General Store","178 US Route 1","04105",43.71463343358302,-70.23392957494185
"04105","Falmouth","ME","Shaw's","251 US Hwy 1","04105",43.7238145,-70.2303527
"04106","South Portland","ME","Drama Creek","not_available","04106",43.637495790328956,-70.2509285870156
"04106","South Portland","ME","Smaha's Legion Square Market","101 Ocean St","04106",43.638585,-70.2534503
"04107","Cape Elizabeth","ME","IGA","Ocean House Road","04107",43.59290950034023,-70.22731492971447
"04210","Auburn","ME","Walmart Supercenter","100 Mount Auburn Ave","04210",44.11776539729851,-70.23799398717918
"04210","Auburn","ME","Shaw's","27 E Ave","04240",44.0861947,-70.1999198
"04210","Auburn","ME","Bourques","550 Sabattus st","not_available",44.102688,-70.181768
"04210","Auburn","ME","Shaw's","600 Center St","04210",44.1240196,-70.2268218
"04210","Auburn","ME","Borque's","Pine Street","04240",44.09865951884874,-70.20573581713218
"04210","Auburn","ME","Save-A-Lot","10 East Ave","04240",44.085857289139106,-70.20446563622417
"04210","Auburn","ME","Wonder Hostess","not_available","04210",44.081999811694644,-70.2536416664315
"04210","Auburn","ME","Union Market","159 Oak St","04240",44.10211628333333,-70.21251118333333
"04216","Andover","ME","Andover General Store And Diner","not_available","04216",44.635355,-70.750449
"04217","Bethel","ME","Shop N Save","8 High St.","04217",44.40712356567383,-70.79093170166016
"04217","Bethel","ME","Bethel Hannaford","Main st","04217",44.406949235103404,-70.78975064712934
"04220","Buckfield","ME","Tiltons Market","11 Turner St","04220",44.289248469446434,-70.36479634144133
"04220","Buckfield","ME","Food city","1355 Auburn Rd #5","04282",44.26924133300781,-70.26719665527344
"04222","Durham","ME","Kitty Korner Store","not_available","04252",44.00217533111572,-70.05733078
"04224","Dixfield","ME","Walmart Supercenter","258 River Rd","04257",44.53864671096789,-70.517173560232
"04236","Greene","ME","IGA","432-460 Maine 100","04236",44.1841654571267,-70.16252732984537
"04239","Jay","ME","Food City","main st","04254",44.4766731262207,-70.19293975830078
"04256","Mechanic Falls","ME","Hannaford Supermarket","50 Pigeon Hill Rd","04256",44.07816,-70.415581
"04256","Mechanic Falls","ME","Future foods","5 Depot Square","04256",44.11201858520508,-70.39392852783203
"04258","Minot","ME","Minot Country Store","174 Minot Ave","04258",44.085723876953125,-70.32144165039062
"04260","New Gloucester","ME","The Penny Store","not_available","04260",43.91739472,-70.25039
"04268","Norway","ME","Save-A-Lot","179 Main St Suite 1","04281",44.215689000000005,-70.521264
"04268","Norway","ME","Save A Lot","179 Main St","04281",44.215689000000005,-70.521264
"04268","Norway","ME","Fare Share Market","443 Main St","04268",44.21383734,-70.54297941
"04270","Oxford","ME","Walmart Supercenter","1240 Main St","04270",44.1732157,-70.51259773
"04285","Weld","ME","Pasar Mini Nigella","The Weld","04285",44.70243598772116,-70.41307151397675
"04294","Wilton","ME","Walmart Supercenter","615 Wilton Rd","04938",44.63021341951083,-70.15831803232054
"04294","Wilton","ME","Ron's Market","144 High St","04938",44.670516,-70.148114
"04294","Wilton","ME","Tranten's","180 Main St","04938",44.670393,-70.150631
"04294","Wilton","ME","Food City","2-10 Post Office Ln","04294",44.58933942506122,-70.23023134965284
"04294","Wilton","ME","Big Lots","634 Wilton Rd (us 2)","04938",44.62679127137671,-70.15607834416295
"04294","Wilton","ME","Save-A-Lot","654 Wilton Rd","04938",44.62632369995117,-70.15762329101562
"04330","Augusta","ME","Walmart Supercenter","201 Civic Center Dr","04330",44.34362021600323,-69.78979917435971
"04330","Augusta","ME","IGA","Route 27","not_available",44.22876460529554,-69.76471782767949
"04330","Augusta","ME","Shaw's","150 Western Ave","04330",44.31158969647432,-69.79479613932199
"04330","Augusta","ME","Harvest Time Natural Foods","not_available","04330",44.310391334597576,-69.79171663808779
"04330","Augusta","ME","Farmingdale Seafoods","546 Maine Ave","04344",44.257303,-69.775535
"04345","Gardiner","ME","Fuller's Market","not_available","04345",44.213427,-69.83019628
"04348","Jefferson","ME","Hussey's General Store","510 Ridge Rd","04363",44.3103024,-69.5809948
"04348","Jefferson","ME","Country Corners Grocery","184 Main St","04353",44.261531829833984,-69.55713653564453
"04348","Jefferson","ME","Jefferson Market","242 Waldoboro Road","04348",44.20043885707855,-69.45418238639832
"04352","Mount Vernon","ME","Day's General Store","182 Main St.","04918",44.52920798435221,-69.88835632092804
"04354","Palermo","ME","Tobey's Grocery","1408 Maine Route 3","04358",44.41109326884069,-69.48560490868854
"04358","South China","ME","Hannaford Supermarket","Windsor rd.","not_available",44.49507798351573,-69.48996818098637
"04401","Bangor","ME","Walmart Supercenter","900 Stillwater Ave","04401",44.83989506,-68.74845028
"04401","Bangor","ME","Shaw's","353 Main St","04401",44.7942273,-68.7761665
"04401","Bangor","ME","Walmart Supercenter","24 Walton Dr","04412",44.774705161956604,-68.73271750192704
"04401","Bangor","ME","Save-A-Lot","87 S Main St","04412",44.79347782227958,-68.76778278849898
"04401","Bangor","ME","Danforth's Down Home Supermarket","2402 U.S. 2","04401",44.80500427074476,-68.90228027291924
"04401","Bangor","ME","Paradis Shop 'n Save","397 N Main St","04412",44.7995074,-68.7538254
"04401","Bangor","ME","Bangor ANGB Commissary","99 Pesch Cir Ste 420","04401",44.81810267662431,-68.82031517470357
"04411","Bradley","ME","Hilltop Market","not_available","04473",44.904483521198266,-68.66322702592862
"04411","Bradley","ME","Thriftway Food Center","153 Park St","04473",44.894998078596764,-68.65819715425116
"04416","Bucksport","ME","Tozier's Bucksport Variety","127 Main Street","04416",44.574087318395264,-68.79904663560967
"04416","Bucksport","ME","Snowman's Grocery","11-95 Duck Cove Rd","04472",44.571592130459486,-68.76288964585854
"04421","Castine","ME","T & C Grocery","12 Water St.","04421",44.38758089101836,-68.79701972007751
"04426","Dover Foxcroft","ME","Tradewinds Market","55 Park St Ste 2","04463",45.25836792965428,-68.98666596010297
"04426","Dover Foxcroft","ME","Save A Lot","1090 W Main St","04426",45.1810196,-69.2573617
"04426","Dover Foxcroft","ME","Will's Shop'n Save","22 North St","04426",45.18502524492215,-69.23125367540423
"04426","Dover Foxcroft","ME","Save A Lot","not_available","04426",45.1336111678896,-69.23916496651682
"04426","Dover Foxcroft","ME","Shaw's","1073 W Main St","04426",45.183177,-69.2579
"04427","Corinth","ME","Whitney's Family Supermarket","689 Main Street","04427",44.98297282030919,-69.00293695224711
"04427","Corinth","ME","Tradewinds Marketplace","689 MainSt.","04427",44.99723121666667,-69.02012273333334
"04430","East Millinocket","ME","Lounsbury","not_available","04430",45.62343770966554,-68.56832870260914
"04441","Greenville","ME","Indian Hill Shop 'n Save","148 Moosehead Lake Rd","04441",45.4495079207165,-69.59038036219177
"04443","Guilford","ME","IGA","Walter Street","04443",45.169611,-69.377428
"04457","Lincoln","ME","Walmart","250 W Broadway","04457",45.356041017889744,-68.52509570130958
"04457","Lincoln","ME","Steaks N Stuff","14 Mechanic St","04457",45.36347961425781,-68.50284576416016
"04457","Lincoln","ME","Tops Market","Military Rd","not_available",45.4349144277254,-68.46135360992574
"04460","Medway","ME","Lennies Superette","not_available","04460",45.612963216666664,-68.54715356666667
"04462","Millinocket","ME","Save-A-Lot","820 Central St","04462",45.656161,-68.68988
"04468","Old Town","ME","Bell's Orono IGA","6 Stillwater Ave","04473",44.90584818308851,-68.69052888051833
"04468","Old Town","ME","Alton Grocery","not_available","04468",45.02281,-68.72528299999999
"04530","Bath","ME","Brackett's Market","185 Front St","04530",43.915029763948375,-69.8140322805327
"04530","Bath","ME","Shaw's","1 Chandler Dr","04530",43.9090593,-69.8287707
"04530","Bath","ME","Georgetown Country Store","769 Five Islands Rd","04548",43.80548669702368,-69.75673388892379
"04535","Alna","ME","Alna Store","2 Dock Rd","04535",44.09991378625814,-69.61454629898071
"04537","Boothbay","ME","Southport General Store","443 Hendricks Hill Rd","04576",43.8234764,-69.6773812
"04537","Boothbay","ME","rising tide organic Market","not_available","04538",43.851654052734375,-69.63082122802734
"04543","Damariscotta","ME","Rising Tide Community Market","323 Main St","04543",44.031065646585624,-69.52442408739368
"04543","Damariscotta","ME","Main Street Grocery","not_available","04543",44.031504,-69.523992
"04547","Friendship","ME","Reilly's and Son Grocery","not_available","04563",43.970116,-69.295864
"04554","New Harbor","ME","C E Reilly & Sons grocery","not_available","04554",43.8733000355804,-69.50090513045355
"04578","Wiscasset","ME","Shaw's","670 Bath Rd","04578",43.9731203,-69.7092462
"04578","Wiscasset","ME","Huber's Market","Rt 1","not_available",43.99441481599338,-69.68657861665764
"04605","Ellsworth","ME","Walmart Supercenter","17 Myrick St","04605",44.52471267873156,-68.39305681291853
"04605","Ellsworth","ME","Shaw's","175 High St","04605",44.53463444089496,-68.41313928365707
"04605","Ellsworth","ME","Trade Winds Market","15 South St","04614",44.40670960506859,-68.59722223035178
"04605","Ellsworth","ME","Blue Hill Co-op","70 South Street","04614",44.415748,-68.580669
"04605","Ellsworth","ME","shop n save","not_available","04609",44.42462921142578,-68.34909057617188
"04605","Ellsworth","ME","Friends & Family Market","390 State St","04605",44.55986671221693,-68.43682050704956
"04606","Addison","ME","4 corners Shop N Save","not_available","04643",44.64329167489026,-67.76233903766222
"04607","Gouldsboro","ME","A & B Naturals Inc.","101 Cottage St","04609",44.38888094581397,-68.21210338719673
"04607","Gouldsboro","ME","Winter Harbor Food Service/IGA","101 Main St","04693",44.3944501979804,-68.08517217636108
"04619","Calais","ME","Tradewind's Shop 'n Save","85 South St.","04619",45.175644922112845,-67.27723338845541
"04619","Calais","ME","Hannaford","361 South St","04619",45.1753044128418,-67.27567291259766
"04619","Calais","ME","Walmart Supercenter","379 South St","04619",45.17487133461459,-67.27831256919852
"04627","Deer Isle","ME","Harbor View Store","5 Atlantic Ave.","04681",44.15578079223633,-68.66287231445312
"04627","Deer Isle","ME","The Galley","North Deer Isle Road (Rt 15)","04616",44.23868116920546,-68.68017196655273
"04645","Isle Au Haut","ME","Isle Au Haut General Store","not_available","04645",44.072207,-68.639526
"04649","Jonesport","ME","Manaford's Market","not_available","04649",44.53674253452978,-67.62344938944982
"04649","Jonesport","ME","IGA","Main Street","04649",44.53129999987281,-67.60575548293853
"04652","Lubec","ME","Lyon's  IGA","82 Washington St","04652",44.85741424560547,-66.99009704589844
"04652","Lubec","ME","McFadden's Grocery","259 County Rd","04652",44.841064453125,-67.01487731933594
"04660","Mount Desert","ME","Sawyer's Market","344 Main St","04679",44.279875,-68.326136
"04668","Princeton","ME","Princeton Food Mart","123 Main Street","04668",45.22116664402159,-67.56505510100942
"04694","Baileyville","ME","Woodland Thriftway","not_available","04694",45.14093,-67.38568
"04730","Houlton","ME","Walmart","17 Ludlow Rd","04730",46.14241178,-67.8424974
"04730","Houlton","ME","Hannaford Supermarket","33 Ludlow Rd","04730",46.14215442408745,-67.84540683031082
"04730","Houlton","ME","Hannaford Supermarket","not_available","04730",46.14218,-67.844718
"04730","Houlton","ME","Andy's Houlton Foodliner IGA","132 North St","not_available",46.1378288269043,-67.84114837646484
"04732","Ashland","ME","Ashland Food Mart","not_available","04732",46.62730624353018,-68.38937517801847
"04736","Caribou","ME","Shop N Save","114 High St","04736",46.86092401228533,-68.00878765507038
"04736","Caribou","ME","Save-A-Lot","42 Skyway Plaza","04736",46.87302619943607,-68.00441073037238
"04740","Easton","ME","Easton Square","Station Rd","not_available",46.641658248096384,-67.91241645812988
"04740","Easton","ME","Country Farms Market","not_available","04740",46.64162063598633,-67.9122085571289
"04741","Estcourt Station","ME","Marché Richelieu - Alimentation J.P. Labonté & Fils","451 Rue Principale","G0L 1J0",47.45395004771648,-69.153533577919
"04742","Fort Fairfield","ME","Hillside IGA","207 Main St","04742",46.76951098799823,-67.8251440823078
"04743","Fort Kent","ME","Paradis Shop'n Save","62 W Main St Ste 101","04743",47.2496703,-68.5940699
"04743","Fort Kent","ME","Marché Bonichoix","1976 Rue Commerciale","E7A 1A9",47.2434149,-68.6992764
"04743","Fort Kent","ME","John's Shurfine","182 Market St","04743",47.24843195089848,-68.57761145696819
"04743","Fort Kent","ME","Off The Grid Market Place","26 Market St","04743",47.25709915161133,-68.58753967285156
"04745","Frenchville","ME","Paradis Shop'n Save Supermarkets (Paradis Shop'n Save)","58 Main St","04756",47.355094,-68.347581
"04745","Frenchville","ME","Gary Babin's Grocery","not_available","04772",47.24336242675781,-68.31580352783203
"04747","Island Falls","ME","Oakfield Thriftway","40 River Road","04763",46.09851837158203,-68.16034698486328
"04747","Island Falls","ME","Jerry's Food Store","not_available","04747",46.00911,-68.26542
"04750","Limestone","ME","Mike's Family Market","5 Main St","04750",46.91223975697627,-67.82591924071312
"04756","Madawaska","ME","La p'tite Boucherie","632 rue St-François","E3V 1H3",47.358017701616944,-68.35892704550649
"04758","Mars Hill","ME","Mars Hill IGA","not_available","04735",46.518043,-67.881298
"04769","Presque Isle","ME","Walmart Supercenter","781 Main St","04769",46.69755235,-68.01341297
"04769","Presque Isle","ME","Graves Shop And Save","not_available","04769",46.69929202452365,-68.01236786265373
"04769","Presque Isle","ME","Steaks N Stuff","60","04769",46.68289308791929,-68.02012883250468
"04769","Presque Isle","ME","Save A Lot","76 Parsons St","04769",46.689138,-68.018847
"04769","Presque Isle","ME","Star City IGA","247 Main St","04769",46.676169,-68.017636
"04774","Saint Francis","ME","Les Marchés Tradition","35 Principale Nord","G0R 3X0",46.9606851,-69.7797669
"04774","Saint Francis","ME","Marché Tradition - Coop de St-Pamphile","35 Rte Principale N","G0R 3X0",46.960133,-69.777172
"04785","Van Buren","ME","Marché Bonichoix","746 rue Principale","E7E 2H7",47.1624524,-67.9246108
"04785","Van Buren","ME","Marché Bonichoix","746 Rue Principale","E7E 2H7",47.1624524,-67.9246108
"04841","Rockland","ME","Walmart Supercenter","55 Thomaston Commons Way","04861",44.091594683175444,-69.1377497555351
"04841","Rockland","ME","Shaw's","235 Camden St","04841",44.12400908389487,-69.09738421440125
"04841","Rockland","ME","Main Street Markets","435 Main St","04841",44.105078246116086,-69.10919718502035
"04841","Rockland","ME","#inLineAtHannaford","75 Maverick St","04841",44.1175422668457,-69.10578918457031
"04841","Rockland","ME","Rockland Food Service","195 Park St","04841",44.101831,-69.12126
"04841","Rockland","ME","Good Tern Natural Foods","750 Main St","04841",44.1121429054382,-69.10678383612104
"04843","Camden","ME","French & Brawn","1 Elm St","04843",44.209794882930666,-69.06503484082533
"04843","Camden","ME","Bleecker & Greer","not_available","04856",44.180085,-69.080807
"04858","South Thomaston","ME","Thomaston Grocery","193 Main St","04861",44.079280853271484,-69.18199157714844
"04862","Union","ME","The Common Market","not_available","04862",44.212177694222184,-69.27408244746593
"04901","Waterville","ME","Hannaford Supermarket","190 JFK Plz","04901",44.54035089083133,-69.65181559324259
"04901","Waterville","ME","Uncle Dean's Good Groceries","80 Grove St","04901",44.53875524566053,-69.64747964874807
"04901","Waterville","ME","Hannaford To Go","not_available","04901",44.540634,-69.651634
"04901","Waterville","ME","Walmart Grocery Pickup","80 Waterville Commons Dr","04901",44.568382,-69.645515
"04901","Waterville","ME","Shaw's","251 Kennedy Memorial Dr","04901",44.544598,-69.6671975
"04901","Waterville","ME","Village Market","95 Main St","04937",44.5840950012207,-69.59903717041016
"04901","Waterville","ME","Save-A-Lot","20 W Concourse","04901",44.54973450096438,-69.63172051442085
"04901","Waterville","ME","Save-A-Lot","20 Concourse W","04901",44.549913000000004,-69.63233100000001
"04912","Athens","ME","Athens Corner Store","8 Main Street","04912",44.923954010009766,-69.67362213134766
"04915","Belfast","ME","Swan Lake Grocery","979 Swan Lake Ave","04915",44.520748138427734,-68.99807739257812
"04927","Clinton","ME","Tradewinds Market","153 Hinckley Rd","04927",44.63922119140625,-69.52317810058594
"04927","Clinton","ME","Dick's Market","Main St, Clinton, ME 04927","04927",44.64012538987992,-69.5249552196899
"04928","Corinna","ME","Pl Country Market","Rte 7","04930",44.99572484745982,-69.27996812158634
"04930","Dexter","ME","Hannaford Supermarket","37 Church St","04930",45.02581111661654,-69.28866058588028
"04930","Dexter","ME","Buds Shop & Save Dexter","15-19 Church St","04930",45.025735986840985,-69.28883652578388
"04936","Eustis","ME","Équipements D'Érablière Bhr Inc","70 ch Lachance","G0Y 1A0",45.6593283,-70.7582182
"04936","Eustis","ME","Pines Market","975 The Arnold Trl","04936",45.19156715570943,-70.46306201180887
"04938","Farmington","ME","Douin's Market","150 Mercer Rd","04955",44.63735040898046,-70.00086631267462
"04938","Farmington","ME","Beal's General Store","44 N Main St","04983",44.810333251953125,-70.21944427490234
"04943","Hartland","ME","Moose Lake Market","67 Main Street","not_available",44.882728576660156,-69.45166778564453
"04945","Jackman","ME","Mountain Country Supermarket","554 Main St","04945",45.63197708129883,-70.26246643066406
"04945","Jackman","ME","Intermarché","2650 25e Avenue","G0M 1Y0",46.21393392199869,-70.48019576761921
"04945","Jackman","ME","IGA","188, Route 204","G0R 1Y0",46.26676,-70.33232
"04945","Jackman","ME","Metro Lac Etchemin","1575 Route 277","G0R 1S0",46.40389823855672,-70.52647858858107
"04945","Jackman","ME","Centre Commercial Coop","Rue de la Coop","G0R 1Y0",46.40644296484733,-70.35094483704225
"04945","Jackman","ME","IGA Coop de Ste-Justine","188 204 Rte","G0R 1Y0",46.405884,-70.353186
"04945","Jackman","ME","Metro Lac Etchemin","1575 277 Rte","G0R 1S0",46.404124887681675,-70.52645534277133
"04945","Jackman","ME","Marché Richelieu Alimentation Louis-Jacques Poulin","190 chemin des Bois-Francs","G0M 1M0",46.17811437048671,-70.35820484161377
"04947","Kingfield","ME","Mountainside Grocery","not_available","04947",45.07861025295636,-70.3142883321447
"04950","Madison","ME","Walmart Grocery Pickup","60 Fairgrounds Mkt Pl","04976",44.780327,-69.730849
"04953","Newport","ME","Walmart Supercenter","1573 Main St","04965",44.83744679445845,-69.29382444687664
"04953","Newport","ME","Buds Shop 'n Save (Hannaford)","44 Moosehead Trl","04953",44.83884798563428,-69.28582354453283
"04953","Newport","ME","Endless Herbs","134 Main St","04953",44.83523941040039,-69.27639770507812
"04964","Oquossoc","ME","IGA","2185 Main St","04970",44.95451083609757,-70.63806446865246
"04964","Oquossoc","ME","Oquossoc Grocery","not_available","04970",44.966180982703825,-70.77330320095862
"04964","Oquossoc","ME","The Farmer's Daughter","Rangeley, ME","04970",44.96517930727102,-70.77230086413284
"04966","Phillips","ME","Edmund's Market","Dodge Road","04966",44.81897499,-70.34329713
"04967","Pittsfield","ME","Bud's Shop 'N Save","101 Somerset Plz","04967",44.786593075360734,-69.39875717830945
"04974","Searsport","ME","Toziers","not_available","04974",44.458483311729566,-68.92610391701568
"04976","Skowhegan","ME","George's Banana Stand","121 North Ave","04976",44.77504164494338,-69.71889032006057
"04988","Unity","ME","Edwards","not_available","04988",44.61283400343591,-69.33879021297484
