"zip","city","state","name","address","postalCode","lat","lon"
"27006","Advance","NC","Lowes Foods","2501 Lewisville Clemmons Rd","27012",36.02997278892249,-80.38094327902591
"27006","Advance","NC","Publix Super Market","not_available","27012",36.040182596282314,-80.38876994706061
"27006","Advance","NC","Walmart Neighborhood Market","3633 Clemmons Road","27012",36.02129018146632,-80.38039868562412
"27006","Advance","NC","Harris Teeter","4150 Clemmons Rd","27012",36.01977165608385,-80.40715348874718
"27006","Advance","NC","Lowes Foods","Hwy 801 North, Suite 258","27006",36.01016787617152,-80.44277648038972
"27006","Advance","NC","Food Lion","not_available","not_available",36.010344674236975,-80.40055060607625
"27006","Advance","NC","grocery store","1024 Glen Day Dr","27012",35.97451584689718,-80.3908896446228
"27011","Boonville","NC","Heffner's Land Of Food","not_available","27055",36.13444626740432,-80.6657539673444
"27011","Boonville","NC","D&J Galaxy","403 E Main St","27011",36.23242505810787,-80.70054669481695
"27012","Clemmons","NC","Walmart Grocery Pickup & Delivery","4550 Kester Mill Rd","27103",36.067539,-80.33674
"27012","Clemmons","NC","Food Lion","Hwy 150","27127",35.962659691385255,-80.29322636674362
"27012","Clemmons","NC","Mediterasia","368Trenwest Drive #1","not_available",36.07994094785808,-80.29760707332088
"27012","Clemmons","NC","Food lion","Stratford","not_available",36.03081951341452,-80.31087841041575
"27012","Clemmons","NC","A&S Natural Health","not_available","27103",36.07012176513672,-80.3357925415039
"27012","Clemmons","NC","El Jacal","not_available","27104",36.0793674835834,-80.33488013128802
"27012","Clemmons","NC","Om Indian Grocery","1575 Hanes Mall Blvd","27103",36.0698,-80.335575
"27013","Cleveland","NC","IGA","11735 Statesville Blvd","27013",35.728726,-80.69395899999999
"27016","Danbury","NC","Priddy's General Store","2121 Sheppard Mill Rd","27016",36.422153,-80.17186600000001
"27017","Dobson","NC","Walmart Supercenter","2241 Rockford St","27030",36.47251346645674,-80.61855816231386
"27017","Dobson","NC","Walmart Supercenter","548 Cc Camp Rd","28621",36.27620978,-80.83292674
"27017","Dobson","NC","Lowes Foods","715 W Independence Blvd","27030",36.4993369833114,-80.61847186843207
"27017","Dobson","NC","Supermercado La Lupita Inc.","121 S Crutchfield St","27017",36.394591,-80.723093
"27017","Dobson","NC","Snows strawberries","not_available","27017",36.368983,-80.710881
"27017","Dobson","NC","ALDI","1215 State St","27030",36.47779083251953,-80.61934661865234
"27017","Dobson","NC","Save-A-Lot","1328 Carter St","27030",36.47926337236224,-80.60342741308074
"27018","East Bend","NC","East Bend Shoprite","Hwy 67","not_available",36.214821338653564,-80.5044275522232
"27021","King","NC","Lowes Foods","614 S Main St #G","27021",36.266469893193836,-80.3623319997156
"27021","King","NC","Walmart Grocery Pickup and Delivery","204 Ingram Dr","27021",36.2642,-80.3658
"27023","Lewisville","NC","Walmart Neighborhood Market","5175 Brookberry Park Avenue","27104",36.09379661660001,-80.36741731231223
"27023","Lewisville","NC","Harris Teeter","5365 Robinhood Village Dr","27106",36.122512673051126,-80.36823395995108
"27023","Lewisville","NC","Lowes Foods","177 Lowes Foods Dr","27023",36.101462738284404,-80.4119411976694
"27023","Lewisville","NC","lowe's foods Lewisville, NC","not_available","27023",36.11645481801041,-80.41480557213241
"27025","Madison","NC","Walmart Supercenter","6711 Nc Highway 135","27027",36.419801273097576,-79.93566636192865
"27025","Madison","NC","Ingles","Walnut Cove S/C, US 311/Plant St","27052",36.28093575618224,-80.14471687714106
"27025","Madison","NC","ALDI","819 S. Maine St.","27284",36.38898,-79.97422
"27025","Madison","NC","Walmart Grocery Pickup","6711 NC Highway 135","27027",36.4201136,-79.9357095
"27028","Mocksville","NC","Walmart Supercenter","261 Cooper Creek Dr","27028",35.92718163163841,-80.58797392717493
"27028","Mocksville","NC","Carter's Country Store","3267-3325 U.S. 601","27028",35.976415,-80.62232216666666
"27028","Mocksville","NC","Tienda Acapulco","207 Avon St","27028",35.895604,-80.56535
"27028","Mocksville","NC","Food Lion","not_available","27028",35.916209350343635,-80.62783256368392
"27028","Mocksville","NC","Food Lion","not_available","27028I",35.90419875496081,-80.55066753922311
"27030","Mount Airy","NC","Just Save","632 South Key Street","27041",36.37930674068327,-80.47780176430217
"27030","Mount Airy","NC","Hemmings Superette","not_available","27030",36.534463286512086,-80.55246870131586
"27030","Mount Airy","NC","Food Lion","not_available","27041",36.3828239440918,-80.44776153564453
"27030","Mount Airy","NC","Save-A-Lot","1468 S Hwy 52","27030",36.519,-80.6251
"27030","Mount Airy","NC","Eddie's Zip Food","449 Merita Street Suite 100","27030",36.50763364204457,-80.6260438948006
"27040","Pfafftown","NC","Food Lion","not_available","27106",36.161183,-80.343034
"27051","Walkertown","NC","Lowes Foods","5180 Reidsville Rd","27051",36.16337608032453,-80.13717392248584
"27055","Yadkinville","NC","Lowes Foods","948 S State St","27055",36.116951260549016,-80.6610735719182
"27101","Winston Salem","NC","5 Star International Market","3015 Waughtown St","27107",36.07714080810547,-80.1790771484375
"27101","Winston Salem","NC","Kingz Downtown Grocery","418 N Liberty St","27101",36.098956,-80.245254
"27101","Winston Salem","NC","W. R. Vernon Produce Company","1035 N Cherry St","27101",36.107267,-80.250052
"27101","Winston Salem","NC","Asian Grocery","880 Peters Creek Pkwy","27103",36.0783805847168,-80.25907135009766
"27101","Winston Salem","NC","Gamma Foods","3015 Waughtown Road","27107",36.078218,-80.180751
"27101","Winston Salem","NC","311 Meat & Produce Market","2325 New Walkertown Rd","27101",36.13533937440584,-80.16259172738809
"27101","Winston Salem","NC","Washington Perk & Provision Company","301 W 4th St","27101",36.09819245572242,-80.24730785752116
"27101","Winston Salem","NC","Compare Foods","3015 Waughtown Road","not_available",36.078841,-80.180994
"27101","Winston Salem","NC","Abasto","2900 Lowery Sreet","27101",36.09967135064871,-80.19049405026243
"27101","Winston Salem","NC","Keur Seringne Mortada Mbacke Grocery","515 N Liberty St","27101",36.10048294067383,-80.24497985839844
"27103","Winston Salem","NC","Walmart Supercenter","3475 Parkway Village Ct","27127",36.02748536707474,-80.26283211218244
"27103","Winston Salem","NC","Harris Teeter","150 Grant Hill Lane","27104",36.08380077657155,-80.34662565923188
"27103","Winston Salem","NC","Trader Joe's","252 South Stratford Road","27103",36.09294915115413,-80.28184813200627
"27103","Winston Salem","NC","Harris Teeter","2281 Cloverdale Ave","27103",36.091066199775376,-80.27571597802074
"27103","Winston Salem","NC","Lidl","3315 Sides Branch Road","27127",36.03232624,-80.26126517
"27103","Winston Salem","NC","Walmart Neighborhood Market","180 Harvey Street","27103",36.085976205804,-80.29415570648823
"27103","Winston Salem","NC","Harris Teeter","420-22 S Stratford Rd","27103",36.09035949817903,-80.28562517380895
"27103","Winston Salem","NC","ALDI","2715 Peters Creek Pkwy","27127",36.0542125139689,-80.2584461943934
"27103","Winston Salem","NC","Wake Forest Grocery","1002 medical center blvd","27012",36.08938991950772,-80.26772260665894
"27103","Winston Salem","NC","jojo grocery winston salem","1000 medical center blvd","27012",36.09048232705974,-80.27042627334593
"27103","Winston Salem","NC","Food Lion","not_available","27127",36.068698941935935,-80.25730145509527
"27103","Winston Salem","NC","Oriental Oasis","1347 Lockland Ave","27103",36.071257,-80.264368
"27104","Winston Salem","NC","Lowes Foods","3372 Robinhood Rd.","27106",36.11499437374927,-80.31416888662196
"27104","Winston Salem","NC","Publix","34 Miller St","not_available",36.09499693524365,-80.27549541934903
"27104","Winston Salem","NC","Harris Teeter","1955 N Peacehaven Rd","27106",36.11789120308624,-80.31108246541594
"27104","Winston Salem","NC","Whole Foods Market","41 Miller St","27104",36.09445769395271,-80.27399426640845
"27104","Winston Salem","NC","The Fresh Market","3285 Robinhood Rd","27106",36.115691,-80.311403
"27104","Winston Salem","NC","Buie’s Market","749 N Avalon Rd","27104",36.111357,-80.284433
"27105","Winston Salem","NC","Harris Teeter","2835 Reynolda Rd","27106",36.145576718184415,-80.29878750549403
"27105","Winston Salem","NC","Lidl (Fairlawn)","2445 Fairlawn Court","27106",36.14367975,-80.29239746
"27105","Winston Salem","NC","Walmart Supercenter","320 E Hanes Mill Rd","27105",36.19215085522129,-80.27418628327425
"27105","Winston Salem","NC","Lowes Foods","2890 Reynolda Rd","27106",36.1431585749825,-80.29976954013905
"27105","Winston Salem","NC","ALDI","5622 Hanes Mill Rd","27105",36.17383753440865,-80.27846114477143
"27105","Winston Salem","NC","Walmart Neighborhood Market","5039 University Pkwy","27106",36.160789617046184,-80.2772233832729
"27105","Winston Salem","NC","Tienda Mexicana","6033 University Pkwy","27105",36.190871,-80.27725600000001
"27105","Winston Salem","NC","Lowes Foods","200 Summit Square Blvd","27105",36.18459064247581,-80.2720516767796
"27105","Winston Salem","NC","Grocery Shopping with Kids","not_available","27330",36.16460048795786,-80.21540880203247
"27107","Winston Salem","NC","Foodlion","not_available","27107",36.025306025882635,-80.16307881790235
"27127","Winston Salem","NC","Lowes Foods","5034 Peters Creek Pkwy","27127",36.00308773471938,-80.26453542600437
"27127","Winston Salem","NC","Washington Perk","228 W Acadia Ave","27127",36.071185288787355,-80.24392852839908
"27203","Asheboro","NC","Walmart Supercenter","1226 E Dixie Dr","27203",35.69249269837183,-79.78946491609996
"27203","Asheboro","NC","Lowes Foods","737 W Dixie Dr","27205",35.686674502854224,-79.8254990014172
"27203","Asheboro","NC","ALDI","1318 E Dixie Dr","27203",35.696430007071996,-79.78773436170968
"27203","Asheboro","NC","Just Save","372 N Fayetteville St","27203",35.71066045302478,-79.81151596457005
"27203","Asheboro","NC","S&L Natural Foods","1528 Zoo Pkwy","27205",35.686353999999994,-79.81040300000001
"27203","Asheboro","NC","Phillips Brothers Country Hams, Inc.","1523 S Fayetteville St","27205",35.686024,-79.81615
"27205","Asheboro","NC","Fresh Cuts Butcher & Seafood","157 N Broad St","27341",35.542193,-79.780274
"27209","Biscoe","NC","Walmart Supercenter","201 Montgomery Xing","27209",35.35773594,-79.79783938
"27209","Biscoe","NC","fruteria lupita","101 railroad street","27209",35.357935,-79.780597
"27209","Biscoe","NC","Food King","not_available","27209",35.3574333190918,-79.79741668701172
"27214","Browns Summit","NC","Penny Saver Food Market","not_available","27405",36.14752271686027,-79.75388929253575
"27214","Browns Summit","NC","Banana Mountain","Food Lion Hicone Rd.","27405",36.15134488239299,-79.71158301808522
"27215","Burlington","NC","Walmart Supercenter","3141 Garden Rd","27215",36.07136844,-79.49843497
"27215","Burlington","NC","Harris Teeter","2727 S. Church St","27215",36.08192925091734,-79.48352384930838
"27215","Burlington","NC","Lowes Foods","1191 University Dr","27215",36.07769880353231,-79.52881459188735
"27215","Burlington","NC","ALDI","1801 S Church St","27215",36.08494210344888,-79.46009874343872
"27215","Burlington","NC","La Sierra","not_available","27217",36.100911,-79.429916
"27215","Burlington","NC","West Webb Curb Market & Grill","825 W Webb Ave","27217",36.102674,-79.447688
"27215","Burlington","NC","Bellemont Foodstore","not_available","27215",36.020624176391664,-79.44477223636554
"27215","Burlington","NC","Burlington Co-op","268 E Front St","27215",36.092466,-79.43503
"27215","Burlington","NC","Super G Mart","2210 W Webb Ave","27217",36.11022186279297,-79.46832275390625
"27217","Burlington","NC","Lowes Foods","1020 Mebane Oaks Rd","27302",36.074113376319026,-79.27542205934223
"27217","Burlington","NC","Walmart Supercenter","530 S Graham Hopedale Rd","27217",36.091542040938116,-79.40387813304795
"27233","Climax","NC","Foodlion","5500 Liberty Rd","27233",35.96651962,-79.70065225
"27235","Colfax","NC","The Budding Artichoke","2301 Sandy Ridge Road","27265",36.073137,-79.999675
"27239","Denton","NC","Lowes Foods","17525 S. Highway 109","27239",35.63785293524573,-80.10617463909867
"27243","Efland","NC","Efland Supermarket","3419 US Highway 70 W","27243",36.08153661854933,-79.1682266246212
"27248","Franklinville","NC","Just Save Foods","135 Brady St Ext, Ramseur Plaza Shopping Center","27316",35.7384437,-79.65607460000001
"27253","Graham","NC","Walmart Supercenter","1318 Mebane Oaks Rd","27302",36.06700766045734,-79.27305848978148
"27253","Graham","NC","Just Save","807 South Main Street, Crescent Square","27253",36.0570246,-79.4004805
"27253","Graham","NC","tienda flores","Main St","27253",36.051079,-79.398601
"27253","Graham","NC","I Love Coupons!","not_available","27253",35.957392,-79.334691
"27260","High Point","NC","Walmart Supercenter","2628 S Main St","27263",35.9255305626496,-79.98901845644075
"27260","High Point","NC","Walmart Supercenter","2710 N Main St","27265",35.99440502552868,-80.02867936415667
"27260","High Point","NC","Publix Super Market","2005 N. Main Street","27262",35.98148482630964,-80.02435370589342
"27260","High Point","NC","Harris Teeter","265 Eastchester Dr Suite 121","27262",35.98425464405099,-80.01915952894372
"27260","High Point","NC","Snack Corner","not_available","27260",35.953354,-79.98312
"27260","High Point","NC","ALDI","2651 S Main St","27263",35.927303314208984,-79.9854507446289
"27260","High Point","NC","Asian Oriental Market","1229 S Main St. Suit 104","27260",35.9432105,-80.0012394
"27260","High Point","NC","Charlie Grocery","306","not_available",35.984051,-79.974632
"27260","High Point","NC","Southside Food Market Grocery Store","810 S Main St","27260",35.946959,-80.004103
"27260","High Point","NC","Fruit & Vegetable Market","2619 S Main St","27263",35.927636,-79.98546400000001
"27260","High Point","NC","Merita","not_available","27262",35.95028,-80.017328
"27260","High Point","NC","Save-A-Lot","131 Greensboro Rd","27260",35.98141,-79.979523
"27260","High Point","NC","Save A Lot","2826 S Main St","27263",35.922841,-79.98368599999999
"27260","High Point","NC","Alounemay Oriental Market","3136 E Kivett Dr Ste 112","27260",35.96243355056619,-79.94476130126137
"27263","High Point","NC","Walmart Neighborhood Market","10250 S Main St","27263",35.89829786317731,-79.945833548649
"27263","High Point","NC","Lowes Foods","10106 S Main St","27263",35.90017919038919,-79.94825007482355
"27263","High Point","NC","Walmart Grocery Pickup","10250 S. Main St.","27263",35.9001019216928,-79.9468811393525
"27265","High Point","NC","Walmart Neighborhood Market","4102 Precision Way","27265",36.02880969829247,-79.96454071344705
"27265","High Point","NC","Earth Fare","not_available","27265",36.033705,-79.956843
"27265","High Point","NC","ALDI","3306 N Main St","27265",36.0038651,-80.0366066
"27265","High Point","NC","Harris Teeter","not_available","27409",36.077913808197444,-79.96042554098537
"27265","High Point","NC","Lowes Foods","Olivers crossing","27127",36.02741,-80.003834
"27265","High Point","NC","food lion","3935 Brian Jordan Pl","27265",36.0330810546875,-79.96183013916016
"27278","Hillsborough","NC","Walmart Supercenter","501 Hampton Pointe B","27278",36.0564892,-79.08546925
"27278","Hillsborough","NC","Harris Teeter","1800 Martin Luther King Jr Blvd","27514",35.968353,-79.058586
"27278","Hillsborough","NC","Harris Teeter","3457 Hillsborough Road","27705",36.019096,-78.948538
"27278","Hillsborough","NC","Harris Teeter","1817 Martin Luther King Jr Pkwy","27707",35.95993431844263,-78.95911153021537
"27278","Hillsborough","NC","The Fresh Market","4215 University Dr, Ste A3","27707",35.96270216520171,-78.95873630740483
"27278","Hillsborough","NC","Weaver Street Market","228 S Churton St Ste 100","27278",36.073343638094826,-79.09960608416588
"27278","Hillsborough","NC","Li Ming's Global Mart","3400 Westgate Dr","27707",35.96599148481062,-78.96254818552549
"27278","Hillsborough","NC","Spice Bazaar","4125 Durham Chapel Hill Blvd","27707",35.96806233999147,-78.95994851204942
"27278","Hillsborough","NC","Los Lago Meat Market #2","not_available","27278",36.086,-79.100234
"27278","Hillsborough","NC","Oriental Supermarket","3738 Durham Chapel Hill Blvd #D","27707",35.971573,-78.953277
"27278","Hillsborough","NC","La Marqueta","not_available","27705",36.032381,-78.982042
"27278","Hillsborough","NC","Latinos Mart","3156 Hillsborough Rd","27705",36.017506,-78.940445
"27278","Hillsborough","NC","University Station Market","4317 US 70 West","27705",36.046011,-79.023294
"27278","Hillsborough","NC","Mang’s Asian Supermarket","4600 Durham Chapel Hill Blvd","27707",35.962477,-78.978363
"27282","Jamestown","NC","Harris Teeter","5710-W West Gate City Boulevard","27407",36.01676512070815,-79.8974954897722
"27282","Jamestown","NC","Lowes Foods","1236 Guilford College Rd","27282",36.040381806061475,-79.9206047283786
"27284","Kernersville","NC","Walmart Supercenter","1130 S Main St","27284",36.10960104956371,-80.1022967825398
"27284","Kernersville","NC","Harris Teeter","971 S Main St","27284",36.10762356756647,-80.0948819428859
"27284","Kernersville","NC","ALDI","819 S Main St Ste D","27284",36.11003054682675,-80.08684114382959
"27284","Kernersville","NC","Walmart Neighborhood Market","1035 Beesons Field Drive","27284",36.087755439065376,-80.1015156337041
"27284","Kernersville","NC","Lowes Foods","2205 Oak Ridge Rd","27310",36.173907726135084,-79.99159223500195
"27288","Eden","NC","Walmart Supercenter","304 E Arbor Ln","27288",36.4884025,-79.73490715
"27288","Eden","NC","Save A Lot","640 S Van Buren Rd","27288",36.491524,-79.739227
"27292","Lexington","NC","Walmart Supercenter","160 Lowes Blvd","27292",35.79434515699157,-80.25960901600462
"27292","Lexington","NC","Walmart Neighborhood Market","90 W Us Highway 64","27295",35.83396085625185,-80.27582219926659
"27292","Lexington","NC","Aldi","101 N Talbert Blvd","27292",35.8153664,-80.2450025
"27292","Lexington","NC","Conrad & Hinkle","6 N. Main Steet","27292",35.8245301,-80.2534156
"27292","Lexington","NC","Save-A-Lot","292 N Talbert Blvd","27292",35.819493636602296,-80.23835853986476
"27292","Lexington","NC","Amish Bulk Foods","not_available","27292",35.82362,-80.255467
"27292","Lexington","NC","Compare foods","S Main St, Lexington, NC 27292","27292",35.81752,-80.26203000000001
"27292","Lexington","NC","Food Lion","Highway 8","27292",35.72638,-80.245271
"27299","Linwood","NC","J.E.M. Foods, Inc.","9733 S NC Highway 150","27299",35.7575319,-80.4016693
"27301","Mc Leansville","NC","Stump's Perfect Portions","4013 Cornerrock Dr","27406",36.050237,-79.71171899999999
"27306","Mount Gilead","NC","Food King!","not_available","27306",35.21363,-80.001817
"27312","Pittsboro","NC","Walmart","12500 US 15-501 N","27517",35.858792666410245,-79.08147189610919
"27312","Pittsboro","NC","Harris Teeter","88 Chatham Downs Dr","27517",35.83101203444225,-79.08685920805381
"27312","Pittsboro","NC","Lowes Foods","11312 US Hwy 15-501","27514",35.84479834273306,-79.08975525052887
"27312","Pittsboro","NC","Chatham Marketplace","480 Hillsboro St","27312",35.72712866728335,-79.17528073488978
"27312","Pittsboro","NC","Walmart Grocery Pickup and Delivery","12500 Us 15 501 N","27517",35.8591595,-79.0813753
"27312","Pittsboro","NC","Piggly Wiggly","400 East St","27312",35.71963926840553,-79.17072560821785
"27317","Randleman","NC","Walmart Supercenter","1021 High Point St","27317",35.819933590265954,-79.82304960217597
"27320","Reidsville","NC","Walmart Supercenter","1624 Nc #14 Highway","27320",36.38421988,-79.66681123
"27320","Reidsville","NC","Lowes Foods","5820 N Church St","27455",36.2173532576784,-79.78695687845845
"27320","Reidsville","NC","McCollum's Hardware & Grocery","10475 US 158","27320",36.277793884277344,-79.76728057861328
"27320","Reidsville","NC","the Beer Den","not_available","27455",36.217277,-79.786957
"27320","Reidsville","NC","Lowes Foods","1537 Freeway Dr","27320",36.339313741468786,-79.69445836153628
"27325","Robbins","NC","Just Save Foods","131 NC Hwy 705, Robbins Towne Centre","27325",35.43262867652425,-79.58686172023772
"27330","Sanford","NC","Walmart Supercenter","3310 Nc Highway 87 S","27332",35.443113537372604,-79.13024279327367
"27330","Sanford","NC","Lowes Foods","818 Spring Ln","27330",35.488652795162274,-79.19430274257388
"27330","Sanford","NC","Piggly Wiggly","2413 S Horner Blvd","27330",35.45975119077143,-79.14727642825399
"27330","Sanford","NC","foodlion","not_available","27332",35.403084646806306,-79.10214339885995
"27330","Sanford","NC","La Cumplidora","Horner Blvd.","not_available",35.470462,-79.170589
"27330","Sanford","NC","Save-A-Lot","1946 S Horner St","27330",35.463709,-79.15270600000001
"27330","Sanford","NC","Save-a-lot#24689","2512 Lee Ave","27332",35.455534,-79.15288199999999
"27330","Sanford","NC","ALDI","2903 S Horner Blvd","27332",35.454486,-79.137238
"27330","Sanford","NC","Piggly Wiggly","301 N Main St","27505",35.461563,-79.058231
"27330","Sanford","NC","Produce Lady","3401 Lemon Springs Rd","27332",35.436745,-79.16588399999999
"27330","Sanford","NC","Tortilleria Rosita","2972 Industrial Dr","27332",35.448065,-79.14704
"27330","Sanford","NC","Save A Lot","1946 S Horner Blvd","27330",35.463709,-79.15270600000001
"27344","Siler City","NC","Walmart Supercenter","14215. U.s. Highway 64 West","27344",35.73233139607422,-79.42839713887388
"27344","Siler City","NC","Piggly Wiggly","522 W Raleigh St.","27344",35.719544,-79.470004
"27344","Siler City","NC","Loma Bonita","214 M L King Jr Blvd","27344",35.721075,-79.461215
"27344","Siler City","NC","Siler City Pharmacy","202 E Raleigh St","27344",35.723245,-79.461898
"27350","Sophia","NC","Country Mart","not_available","27370",35.842705,-79.939
"27357","Stokesdale","NC","Bi-Rite","8632 US Highway 158","27357",36.24486930784982,-79.98861135127521
"27360","Thomasville","NC","Walmart Supercenter","1585 Liberty Dr Ste 1","27360",35.85562535,-80.06643334
"27360","Thomasville","NC","ALDI","1033 Randolph St, Suite 1A","27360",35.8649962,-80.0701214
"27360","Thomasville","NC","Just Save","1418 National Hwy","27360",35.91970602155392,-80.05907064655068
"27360","Thomasville","NC","2 Toros Meat Market","not_available","27360",35.889067,-80.071905
"27360","Thomasville","NC","Ingles","1122 Randolph St","27360",35.85768224135254,-80.07424163505905
"27360","Thomasville","NC","Lidl","1147 Randolph Street","27360",35.85652038,-80.07202923
"27360","Thomasville","NC","Discount Grocery","13 Boyles St","27360",35.879733,-80.09612
"27371","Troy","NC","Food King","not_available","27371",35.359257460626665,-79.89420356440438
"27376","West End","NC","Lowes Foods","266 Central Park Avenue","28374",35.20509303504847,-79.48064516115116
"27376","West End","NC","Harris Teeter","305 Ivey Ln","28374",35.20556627921966,-79.48439465867902
"27401","Greensboro","NC","Mcgee St Mini Market","115 mcgee st.","27401",36.068465593796276,-79.79104134565223
"27401","Greensboro","NC","THE NFL","E Market St","27401",36.08054154269865,-79.76757264450771
"27401","Greensboro","NC","Hi-Mart","not_available","27401",36.072935,-79.79148
"27403","Greensboro","NC","Whole Foods Market","3202 West Friendly Avenue","27408",36.08560295313221,-79.834298525786
"27403","Greensboro","NC","Bestway Grocery","2113 Walker Ave","27403",36.068700664758786,-79.82759116451712
"27403","Greensboro","NC","Andy's Pantry Food Mart","1301 Grove St","27403",36.053108,-79.812599
"27403","Greensboro","NC","Amazon Locker - Greensboro","3202 W Friendly Ave","27408",36.085589,-79.834193
"27403","Greensboro","NC","Save-A-Lot","429 W Meadowview","27407",36.037851,-79.80176999999999
"27405","Greensboro","NC","Walmart Garden Center","2107 Pyramid Village Blvd","27405",36.10923733639619,-79.75670016571304
"27405","Greensboro","NC","Harris Teeter","401 Pisgah Church Rd","27455",36.13082726544834,-79.79585212800502
"27405","Greensboro","NC","Nie's American Oriental Market","1602 McKnight Mill Rd","27405",36.116842999999996,-79.762999
"27405","Greensboro","NC","Save-A-Lot","3111 Yanceyville St","27405",36.11466,-79.77719599999999
"27406","Greensboro","NC","Walmart Neighborhood Market","3605 High Point Rd","27407",36.03892281310298,-79.84900435755901
"27406","Greensboro","NC","Walmart Supercenter","121 W Elmsley St","27406",36.00213213451744,-79.79940966737972
"27406","Greensboro","NC","Walmart Neighborhood Market","1050 Alamance Church Rd","27406",36.040206,-79.770768
"27406","Greensboro","NC","ALDI","4222 W Gate City Blvd","27407",36.036971209010055,-79.86351639032364
"27406","Greensboro","NC","Li Ming's Global Mart","3703 W Gate City Blvd","27407",36.03833645470268,-79.85092519450876
"27406","Greensboro","NC","Dynasty International Food and Gift","4103 Spring Garden St","27407",36.066384,-79.867773
"27406","Greensboro","NC","Dong Phuong Oriental Foods","3738 Farmington Dr","27407",36.036217,-79.857534
"27406","Greensboro","NC","Madina Market","4645 W Market St","27407",36.068492,-79.866558
"27406","Greensboro","NC","Koh Hyang Market","4711 W Gate City Blvd Ste B","27407",36.02912139892578,-79.86805725097656
"27406","Greensboro","NC","ALDI","2920 Randleman Rd","27406",36.0159048,-79.8056246
"27406","Greensboro","NC","Latin Asian Farmer's Market","4711 W Gate City Blvd","27407",36.029196999999996,-79.86782600000001
"27407","Greensboro","NC","Walmart Supercenter","4424 W Wendover Ave","27407",36.05721778,-79.9003458
"27407","Greensboro","NC","Super G Mart","4927 W Market St","27407",36.06693519772114,-79.87531225887597
"27407","Greensboro","NC","Indu Convenient Store","not_available","27407",36.068152,-79.87389
"27407","Greensboro","NC","Om groceries- Indian and Pakistani","4405 Landview Dr Ste C","27407",36.056515,-79.897633
"27407","Greensboro","NC","Super Desi Bazaar","1315 Bridford Pkwy","27407",36.051722999999996,-79.90088100000001
"27407","Greensboro","NC","Abierto Carniceria el Mercadito","103 Muirs Chapel Rd","27410",36.070372791755034,-79.8694700185163
"27408","Greensboro","NC","Harris Teeter","3330 W Friendly Ave","27410",36.088055370726686,-79.83799358876392
"27408","Greensboro","NC","Harris Teeter","2639 Lawndale Dr","27408",36.10342172054904,-79.82098756571767
"27408","Greensboro","NC","Sprouts Farmers Market","3357 Battleground Ave","27410",36.1207133,-79.84604279999999
"27408","Greensboro","NC","The Fresh Market","3712 Lawndale Dr,","27455",36.11925,-79.8287
"27408","Greensboro","NC","Earth Fare","2965 Battleground Ave","27408",36.11413191577117,-79.83641806242764
"27408","Greensboro","NC","Hairy Peter","not_available","27408",36.103481,-79.821093
"27409","Greensboro","NC","Harris Teeter","701 Francis King Street","27410",36.088864431158115,-79.89089941771263
"27409","Greensboro","NC","Walmart Neighborhood Market","5611 W. Friendly Avenue","27410",36.08805569341577,-79.88629373387742
"27409","Greensboro","NC","ALDI","1507 New Garden Rd","27410",36.1107428,-79.8831528
"27409","Greensboro","NC","Lowes Foods","1581 New Garden Rd","27410",36.11406521551936,-79.88141017521514
"27409","Greensboro","NC","The Fresh Market","1560 Highwoods Blvd,","27410",36.11137,-79.879397
"27409","Greensboro","NC","Lowes Foods","6310 Old Oak Ridge Rd Ste G","27410",36.128360276329246,-79.93359748365434
"27409","Greensboro","NC","Harris Teeter Perishable","430 N Chimney Rock Rd","27410",36.094311,-79.920574
"27410","Greensboro","NC","Walmart Supercenter","3738 Battleground Ave","27410",36.13529462003407,-79.85610417325223
"27410","Greensboro","NC","Harris Teeter","1605 New Garden Rd","27410",36.118390023136705,-79.8758995662877
"27410","Greensboro","NC","Trader Joe's","3721 Battleground Ave.","27410",36.13127899169922,-79.85782623291016
"27501","Angier","NC","Food Lion","1361 S Raleigh St","27501",35.49623,-78.738911
"27501","Angier","NC","Carlie C's IGA","333 N Raleigh St","27501",35.512165966787144,-78.74147220962406
"27502","Apex","NC","Walmart Supercenter","3151 Apex Peakway","27502",35.71476046087298,-78.84311309175148
"27502","Apex","NC","Harris Teeter","940 US Highway 64 W","27523",35.74561,-78.82196
"27502","Apex","NC","Publix","1441 Kelly Road","27502",35.737470907458466,-78.89371802474544
"27502","Apex","NC","Harris Teeter","750 West Williams St","27502",35.737829339017125,-78.863055325049
"27502","Apex","NC","Lowes Foods","5400 Apex Peakway","27502",35.737332800822486,-78.86610661710016
"27504","Benson","NC","Carlie C's IGA","604 S Wall St","27504",35.377713300105306,-78.55322262100933
"27504","Benson","NC","Carlie C's","607 E Cumberland St","28334",35.30439835278246,-78.60533533227158
"27504","Benson","NC","Carlie D'a IGA","not_available","28334",35.31278991699219,-78.6199722290039
"27504","Benson","NC","El Paisa Latin Foods","302 Wellons St","27524",35.4447,-78.426293
"27504","Benson","NC","Carlie C's IGA","1203 N Ellis Ave","28334",35.32082607806049,-78.60749336190436
"27504","Benson","NC","Save-A-Lot","1915 W Cumberland","28334",35.316871,-78.629864
"27504","Benson","NC","Edwards food store","6050 U.S. 301","27524",35.44700241088867,-78.42253875732422
"27508","Bunn","NC","Food Lion","not_available","27882",35.95401186159407,-78.20223629366266
"27510","Carrboro","NC","Harris Teeter","310 N Greensboro St","27510",35.91227502810648,-79.07118811050287
"27510","Carrboro","NC","Weaver Street Market","101 E Weaver St","27510",35.9110116037387,-79.07158062764539
"27510","Carrboro","NC","Mikyin's Asian Market","104 NC 54","27510",35.916920613534955,-79.09631956751123
"27511","Cary","NC","Harris Teeter","1151 Tryon Village Dr","27518",35.74668232610359,-78.7432681349681
"27511","Cary","NC","Walmart Supercenter","2010 Kildaire Farm Rd","27518",35.73696057116533,-78.7822146539399
"27511","Cary","NC","Trader Joe's","1393 Kildaire Farm Rd","27511",35.75867477519291,-78.78158642773505
"27511","Cary","NC","Lowes Foods","930 High House Rd","27513",35.7881422844916,-78.82692480376501
"27511","Cary","NC","Harris Teeter","2080 Kildaire Farm Rd","27518",35.73545108692358,-78.78032603347069
"27511","Cary","NC","Harris Teeter","885 Walnut St","27511",35.774908179373874,-78.76486595528766
"27511","Cary","NC","Whole Foods Market","102B New Waverly Place","27518",35.73740938893197,-78.77751526672859
"27511","Cary","NC","Grand Asia Market","1253 Buck Jones Rd","27606",35.765133589489395,-78.74022699073888
"27511","Cary","NC","Lowes Foods","6430 Tryon Rd","27518",35.74552115117256,-78.76162679932176
"27511","Cary","NC","ALDI","1315 Kildaire Farm Rd","27511",35.7604937692984,-78.78183186085357
"27511","Cary","NC","Harris Teeter","1273 NW Maynard Rd","27513",35.78535,-78.81192
"27511","Cary","NC","Patel Brothers","802 E Chatham St","27511",35.79138205788385,-78.76355864418797
"27511","Cary","NC","Toyo Shokuhin","748 E Chatham St Ste L","27511",35.79164041471227,-78.7652428077495
"27511","Cary","NC","Today Asia Market","1207 Kildaire Farm Rd","not_available",35.763718,-78.781862
"27511","Cary","NC","VOM FASS Waverly Place","316 Colonades Way Ste 209","27518",35.73919677734375,-78.77859497070312
"27511","Cary","NC","La Bonita","not_available","27511",35.790478,-78.76076
"27511","Cary","NC","Golden Hex","1246 NW Maynard Rd","27513",35.785407,-78.810204
"27511","Cary","NC","A & S International Market","663 Cary Towne Blvd","27511",35.77523402610863,-78.76646838192761
"27511","Cary","NC","Super Grocery & Halal Meat","748 E Chatham St","27511",35.791484999999994,-78.765259
"27511","Cary","NC","La Nueva","111 E Chatham St Ste A","27511",35.787512,-78.780592
"27513","Cary","NC","Publix","1020 Bradford Plaza Way","27519",35.793107151956804,-78.84517817223217
"27513","Cary","NC","H Mart","1961 High House Rd","27519",35.78921460859898,-78.84871678252114
"27513","Cary","NC","Harris Teeter","270 Grande Heights Drive","27513",35.805287606576705,-78.78088535345212
"27513","Cary","NC","Walmart Neighborhood Market","3560 Davis Dr","27560",35.81827567630984,-78.8453660628358
"27513","Cary","NC","Walmart Neighborhood Market","973 N Harrison Ave","27513",35.801879,-78.785129
"27513","Cary","NC","ALDI","2303 NW Maynard Rd","27513",35.8028263,-78.7862323
"27513","Cary","NC","The Fresh Market","3655 SW Cary Pkwy,","27513",35.782041,-78.838095
"27513","Cary","NC","Sangam Mart","10300 Chapel Hill Rd","27560",35.832778000000005,-78.827309
"27513","Cary","NC","Earth Fare","951 Morrisville Pkwy","27560",35.80967812293552,-78.81741078538118
"27513","Cary","NC","Capri Flavors","1012 Morrisville Pkwy","27560",35.809886187816765,-78.82228323008647
"27513","Cary","NC","Kadhambam Spices","3516 Davis Dr","27560",35.817108154296875,-78.84732818603516
"27513","Cary","NC","VGS of Morrisville","128 Morrisville Square Way","27560",35.819698333740234,-78.82901763916016
"27513","Cary","NC","Fulton Market","not_available","27519",35.789109,-78.848525
"27513","Cary","NC","CapriFlavors, Italian Market","867 Bass Pro Ln","27513",35.83068,-78.770894
"27514","Chapel Hill","NC","Village Plaza","73-109 S Elliott Rd","27514",35.9344223802254,-79.02765154838556
"27514","Chapel Hill","NC","Trader Joe's","1800 E Franklin St","27514",35.93655307675289,-79.02455133934814
"27514","Chapel Hill","NC","Whole Foods Market","81 South Elliot Rd","27514",35.934468,-79.027756
"27514","Chapel Hill","NC","Harris Teeter","116 West Barbee Chapel Rd","27517",35.90630098870379,-79.0105454205425
"27514","Chapel Hill","NC","Harris Teeter","2110 S Estes Dr","27514",35.929117218134444,-79.02655174986387
"27514","Chapel Hill","NC","The Fresh Market","1200A Raleigh Rd,","27517",35.90801430892852,-79.02584733087365
"27514","Chapel Hill","NC","Classic Silver Wok Gourmet Inc.","7 Mariakakis Plz","27514",35.93469602097016,-79.0242612361908
"27514","Chapel Hill","NC","RelayFoods.com - UNC Wellness at Meadowmont Pick-Up","100 Sprunt St","27517",35.908387,-79.009399
"27514","Chapel Hill","NC","Tienda Hispana","not_available","27516",35.91135,-79.062763
"27514","Chapel Hill","NC","Mediterranean Market","414 W Franklin St","27516",35.911456,-79.060955
"27514","Chapel Hill","NC","Franklin Street Market","167 E Franklin St","not_available",35.91417420546575,-79.05340598578492
"27516","Chapel Hill","NC","Weaver Street Market","716 Market St","27516",35.88027187534176,-79.06597326700252
"27518","Cary","NC","Publix","3480 Kildaire Farm Rd","not_available",35.704906775296664,-78.79687127269968
"27518","Cary","NC","Harris Teeter","3430 Ten Ten Rd","27518",35.7022447770444,-78.79252227796908
"27518","Cary","NC","Food Lion","8745 Holly Springs Rd","27539",35.69305419921875,-78.77323913574219
"27519","Cary","NC","Wegmans","not_available","27560",35.829198,-78.850632
"27519","Cary","NC","Walmart Supercenter","1001 Shiloh Glenn Dr","27560",35.86699040938342,-78.84653396347164
"27519","Cary","NC","Harris Teeter","4093 Davis Dr","27560",35.83543321631924,-78.85796799300503
"27519","Cary","NC","Harris Teeter","98 Cornerstone Dr","27519",35.790278414670134,-78.85188445330887
"27519","Cary","NC","Harris Teeter","7145 O'Kelly Chapel Rd","27519",35.844001010082636,-78.88780293895375
"27519","Cary","NC","Whole Foods Market","5055 Arco Street","27519",35.83377572682778,-78.88252279887227
"27519","Cary","NC","Harris Teeter","10140 Green Level Church Rd","27519",35.821011170253065,-78.90112274297654
"27519","Cary","NC","Walmart Neighborhood Market","2750 Nc 55 Hwy","27519",35.78643878948033,-78.86976767120794
"27519","Cary","NC","Food Lion","3609 Davis Dr","27560",35.8220606354481,-78.84920623900287
"27519","Cary","NC","Lidl","2741 NC 55 Hwy","27519",35.78565216064453,-78.87311553955078
"27519","Cary","NC","ALDI","1770 W. Williams St.","27523",35.75935061854047,-78.87487828731537
"27519","Cary","NC","ALDI","225 Dogwood Tree Ln","27519",35.82397779813156,-78.900867918254
"27519","Cary","NC","RTP Subzi Mandi","1004 Lower Shiloh Way","27560",35.865119199251126,-78.84721069065502
"27519","Cary","NC","Suvidha Indo Pak","3735 Davis Dr","27560",35.8336793525933,-78.85568088788136
"27519","Cary","NC","Green Level Groceries","738 Slash Pine Dr","27519",35.830704,-78.909065
"27520","Clayton","NC","Walmart Supercenter","5141 Nc Highway 42 W","27529",35.60821046252976,-78.55514782215728
"27520","Clayton","NC","Walmart Supercenter","805 Town Center Boulevard","27520",35.66217819174526,-78.49730606281716
"27520","Clayton","NC","Lowes Foods","11711 Hwy 70 W","27520",35.655064735331855,-78.47696955647557
"27520","Clayton","NC","Food Lion","not_available","27520",35.567236166956135,-78.53243475359159
"27520","Clayton","NC","C.E. Barnes Store","13769-13785 State Road 1003","27591",35.69211180207938,-78.37314930145295
"27520","Clayton","NC","Food lion","50 Neuse River Pkwy","27527",35.691897170038196,-78.42628356475117
"27521","Coats","NC","Carlie C's IGA","379 N McKinley St","27521",35.41313553248861,-78.67316946072825
"27524","Four Oaks","NC","Walmart Supercenter","1299 N Brightleaf Blvd","27577",35.52273589903518,-78.30928445643475
"27524","Four Oaks","NC","Town Market","1504-1714 U.S. 70 Alt","27576",35.510000699290316,-78.25121726985194
"27524","Four Oaks","NC","Meyers Community Mart","4277-4345 U.S. 70","27576",35.4816413618096,-78.23531367796073
"27526","Fuquay Varina","NC","Walmart Supercenter","7016 Gb Alford Hwy","27540",35.636468497587444,-78.8327463706497
"27526","Fuquay Varina","NC","Harris Teeter","1371 E. Broad Street","27526",35.5926610740297,-78.77072911583497
"27526","Fuquay Varina","NC","ALDI","1375 N Main St","27526",35.59265273292982,-78.7758149282763
"27526","Fuquay Varina","NC","Walmart Supercenter","1051 E Broad St","27526",35.59441841653239,-78.78100494922633
"27526","Fuquay Varina","NC","Lowes Foods","112 Bass Lake Rd","27540",35.65386853949934,-78.82459931116531
"27526","Fuquay Varina","NC","Food Lion","not_available","27526",35.62544773380199,-78.7986318827615
"27526","Fuquay Varina","NC","Kroger","1371 E Broad St","27526",35.595497131347656,-78.77583312988281
"27527","Clayton","NC","Harris Teeter","67 Crossroads Way","27527",35.655717325781886,-78.34754527334566
"27527","Clayton","NC","The Grocery Bag","4879 NC Highway 42 E","27527",35.65409077375356,-78.34478873908871
"27529","Garner","NC","Lowes Foods","1845 Aversboro Rd","27529",35.68554898245381,-78.61591284333612
"27529","Garner","NC","Lowes Foods","7281 NC Highway 42","27603",35.591949266948305,-78.60114452099087
"27529","Garner","NC","Don Lee's Grocery","13718 NC 50 Hwy N","27592",35.55778813657174,-78.59525618632716
"27529","Garner","NC","Foodies Fixin Finder","not_available","27529",35.6048281434861,-78.56751300290568
"27529","Garner","NC","A&C Supermarket","not_available","27603",35.736638,-78.650805
"27530","Goldsboro","NC","Harris Teeter","2120 Wayne Memorial Dr","27534",35.3960210763843,-77.9631484826099
"27530","Goldsboro","NC","Seymour Johnson AFB Commissary","1310 Edwards St","27534",35.358359767117435,-77.95943117306264
"27530","Goldsboro","NC","Walmart Supercenter","2908 Us Highway 70 W","27530",35.431419709369564,-78.06185893535701
"27530","Goldsboro","NC","Stoney Creek Grocery","not_available","27534",35.445131,-77.957686
"27530","Goldsboro","NC","Carlie C's IGA","1805 Wayne Memorial Dr","27534",35.39600370836585,-77.97191473674738
"27530","Goldsboro","NC","Piggly Wiggly","202 Dr Donnie H Jones Jr Blvd","27569",35.468189,-78.159151
"27530","Goldsboro","NC","Piggly Wiggly","Lionel","27530",35.380023,-77.985089
"27530","Goldsboro","NC","Save-A-Lot","211 N Berkeley Blvd","27534",35.373219,-77.951851
"27530","Goldsboro","NC","Heritage Farms General Store and Pork Outlet","145 Arrington Bridge Rd","27530",35.350984999999994,-78.014985
"27530","Goldsboro","NC","Walmart Grocery Pickup","1002 N Spence Ave","27534",35.3861532521104,-77.9476215051766
"27530","Goldsboro","NC","Rosewood Foodliner","805 Rosewood Rd","27530",35.413242,-78.071527
"27534","Goldsboro","NC","Walmart Neighborhood Market","1144 Tommys Rd","27534",35.41433334350586,-77.93846893310547
"27534","Goldsboro","NC","Walmart Neighborhood Market","4350 Us 70 Hwy East","27534",35.345137907418795,-77.9165814159739
"27534","Goldsboro","NC","Tommy's Food Mart","3426 Wayne Memorial Dr","27534",35.415524,-77.93782399999999
"27534","Goldsboro","NC","Food Lion","219 NC 111 Hwy S","27534",35.3419189453125,-77.91690826416016
"27534","Goldsboro","NC","Health Habit Natural Foods","606 N Spence Ave","27534",35.379184,-77.945637
"27536","Henderson","NC","Walmart Supercenter","200 N Cooper Dr","27536",36.334113384414835,-78.44285775459278
"27536","Henderson","NC","ALDI","160 Dabney Rd","27537",36.33869986013674,-78.44076187377442
"27536","Henderson","NC","Compare Foods","1141 E Andrews Ave","27536",36.322072999999996,-78.386697
"27536","Henderson","NC","Spring Valley Grocery","not_available","27537",36.358,-78.38928
"27536","Henderson","NC","SupplyLine Country Market","235 Raleigh Rd","27536",36.3186257844996,-78.41053765534944
"27537","Henderson","NC","Greystone Food Hut","not_available","27536",36.33955,-78.353134
"27539","Apex","NC","Harris Teeter","5277 Sunset Lake Rd","27540",35.66656579212369,-78.7967138008081
"27541","Hurdle Mills","NC","Peaches Store","hwy 49 burlington rd.","27541",36.3684743642807,-79.02150392532349
"27542","Kenly","NC","Piggly Wiggly","607 W 2nd St","27542",35.599656,-78.127945
"27545","Knightdale","NC","Walmart","7106 Knightdale Blvd","27545",35.796305650924495,-78.49085822601417
"27545","Knightdale","NC","Lowes Foods","3001 Widewaters Pkwy","27545",35.7952444122635,-78.50527438822334
"27545","Knightdale","NC","Paul Lee's Cash Grocery","7301 Poole Rd","27610",35.75463983532909,-78.51662997885019
"27545","Knightdale","NC","BJ's Grocery Store","3317 Rolesville Rd","27591",35.84810256958008,-78.4459228515625
"27546","Lillington","NC","Carlie C's IGA","711 W Front St","27546",35.401239103899606,-78.82769666296664
"27546","Lillington","NC","Carlie C'a IGA","not_available","27546",35.4044181273502,-78.82252971447969
"27549","Louisburg","NC","Just Save","115 S Bickett Blvd","27549",36.095863760494176,-78.29534165382393
"27549","Louisburg","NC","justsave","not_available","27549",36.0955696105957,-78.29476928710938
"27549","Louisburg","NC","Walmart Supercenter","705 Retail Way","27549",36.083607475042754,-78.31986261591581
"27549","Louisburg","NC","Moss Foods","812 S Bickett Blvd","27549",36.084419,-78.31328
"27549","Louisburg","NC","Bass Bros. & IGA FoodlinerFoodliner","not_available","27856",35.96102256479061,-78.05659258483183
"27549","Louisburg","NC","Farmers Foods","Shannon Village","27549",36.09558641910553,-78.29594492912292
"27560","Morrisville","NC","Harris Teeter","4221 Corners Parkway","27617",35.9192513936802,-78.78824549160761
"27560","Morrisville","NC","Walmart Supercenter","10050 Glenwood Ave","27617",35.91253207893967,-78.77830475142673
"27560","Morrisville","NC","Lowes Foods","8100 Brier Creek Pkwy","27617",35.910225835921466,-78.78573472823646
"27560","Morrisville","NC","Pan Asia Market","8741 Brier Creek Pkwy #102","27617",35.902801513671875,-78.78801727294922
"27560","Morrisville","NC","Earth Fare","10341 Moncreiffe Rd","27617",35.89976007778329,-78.79216854840945
"27565","Oxford","NC","Walmart Supercenter","1015 Lewis St","27565",36.28020916,-78.60312756
"27565","Oxford","NC","Just Save","116 Granville Street","27565",36.300199,-78.584194
"27572","Rougemont","NC","Twins Meat Market","not_available","27583",36.27711549774438,-78.94933850067142
"27573","Roxboro","NC","Walmart Supercenter","1049 Durham Rd Ste A","27573",36.37640267321029,-78.98478222391445
"27573","Roxboro","NC","Just Save","816 N Madison Blvd","27573",36.406502304215095,-78.97634067521943
"27573","Roxboro","NC","IGA Grocery","1124 N Main St","27573",36.411297,-78.970959
"27573","Roxboro","NC","Walmart Grocery Pickup","1049 Durham Rd","27573",36.377025082608,-78.9827545806904
"27576","Selma","NC","IGA","212 N Pollock St","27576",35.537612,-78.282938
"27587","Wake Forest","NC","Walmart Supercenter","8000 Town Dr.","27616",35.86988392646771,-78.5652677429193
"27587","Wake Forest","NC","Walmart Supercenter","2114 S Main St","27587",35.95155568,-78.53488684
"27587","Wake Forest","NC","Harris Teeter","1432 Brogden Woods Dr","27587",35.990632924244316,-78.69397173982831
"27587","Wake Forest","NC","Whole Foods Market","8710 Six Forks Rd","27615",35.89920916534662,-78.65028244359317
"27587","Wake Forest","NC","Harris Teeter","9600 Falls of Neuse Rd","27615",35.90517357625573,-78.60093767350446
"27587","Wake Forest","NC","Harris Teeter","3638 Rogers Road","27587",35.94472045749186,-78.5046723171035
"27587","Wake Forest","NC","Harris Teeter","7400 Creedmoor Rd","27615",35.887011689692024,-78.67817307774442
"27587","Wake Forest","NC","Lowes Foods","9600 Strickland Rd","27615",35.90292065415088,-78.65586056661816
"27587","Wake Forest","NC","Publix","1030 Forestville Road","27587",35.94604162516498,-78.50774030060914
"27587","Wake Forest","NC","Lowes Foods","932 Gateway Commons Cir","27587",35.96725443412494,-78.49546524895254
"27587","Wake Forest","NC","Lowes Foods","8440 Louisburg Rd Ste 110","27616",35.893487281697865,-78.50969096510269
"27587","Wake Forest","NC","Harris Teeter","14520 John Rex Blvd","27614",35.94712998801032,-78.54340572478175
"27587","Wake Forest","NC","ALDI","2132 S Main St","27587",35.9484039,-78.5355184
"27587","Wake Forest","NC","Food Lion","161 Crenshaw Corners Dr","27587",35.970294,-78.552944
"27587","Wake Forest","NC","Harris Teeter","8345 Creedmoor Road","27613",35.900843,-78.682234
"27587","Wake Forest","NC","Sprouts Farmers Market","9414 Falls Of Neuse Rd, Ste 120","27615",35.90118970813442,-78.60254287719727
"27587","Wake Forest","NC","Harris Teeter","13686 Capital Blvd","27587",36.00533724113137,-78.51858258647106
"27587","Wake Forest","NC","Lowes Foods","12524 Capital Blvd","27587",35.98590423578571,-78.53287030329996
"27587","Wake Forest","NC","Falls Dam Country Store","not_available","27587",35.93988829649472,-78.58004384304735
"27587","Wake Forest","NC","Six Forks Marathon Grocery&Fuel","11716 Six Forks Rd","27614",35.9452543270165,-78.64106792406585
"27587","Wake Forest","NC","Kroger","8345 Creedmoor Rd","27613",35.900943756103516,-78.68222045898438
"27587","Wake Forest","NC","D-stew's Realm","Aka Outside Kroger","not_available",35.892903,-78.626685
"27587","Wake Forest","NC","Country Corner Grocery","604 Jones Dairy Rd","27587",35.96043322493401,-78.48553605915804
"27587","Wake Forest","NC","The Grain Mill Cooperative Grocery","230 South Main Street","27587",35.977996826171875,-78.51266479492188
"27587","Wake Forest","NC","RelayFoods.com - Lifepointe Church Pick-Up","9500 Durant Rd","27614",35.89952087402344,-78.572021484375
"27587","Wake Forest","NC","Jenny Craig","6300 Creedmoor Rd","27612",35.871577,-78.678275
"27589","Warrenton","NC","Just Save","307 E Macon St","27589",36.396516999999996,-78.15173100000001
"27591","Wendell","NC","Walmart Supercenter","841 E Gannon Ave","27597",35.83138787525641,-78.29673206099717
"27591","Wendell","NC","Compare Foods","Gannon ave.","27597",35.821760999999995,-78.32283699999999
"27601","Raleigh","NC","Weaver Street Market","404 W Hargett St","27603",35.778576,-78.645805
"27601","Raleigh","NC","Royal Confectionary","434 Fayetteville St","27601",35.7747083902359,-78.639968
"27601","Raleigh","NC","Pine State Grocery","Lane St","not_available",35.784168,-78.627758
"27601","Raleigh","NC","Hannah's Stop and Shop","219 S Wilmington St","27601",35.777793,-78.637904
"27603","Raleigh","NC","Harris Teeter","500 Oberlin Road","27605",35.79145178149602,-78.66240431886821
"27603","Raleigh","NC","Whole Foods Market","3540 Wade Ave","27607",35.80226541910203,-78.68626504655157
"27603","Raleigh","NC","Publix","417 W Peace St Ste 100","27603",35.788246154785156,-78.64453125
"27603","Raleigh","NC","Walmart Supercenter","4500 Fayetteville Rd","27603",35.71898915530092,-78.65916684629676
"27603","Raleigh","NC","Harris Teeter","8101 Fayetteville Rd","27526",35.66362088588459,-78.69966017500445
"27603","Raleigh","NC","The Fresh Market","400 Woodburn Rd,","27605",35.789598,-78.658642
"27603","Raleigh","NC","Harris Teeter","5563 Western Blvd","27606",35.78430546626457,-78.72058991468633
"27603","Raleigh","NC","Target","2512 Hillsborough St","27607",35.788206,-78.668787
"27603","Raleigh","NC","Larry's Supermarket","2041 Milburnie Rd","27610",35.788407,-78.612804
"27603","Raleigh","NC","International Foods","Chapanoke Rd","27603",35.73434909587177,-78.65342881397629
"27603","Raleigh","NC","Carlie C's IGA","1514 Garner Station Blvd","27603",35.72552343890061,-78.65541579394598
"27603","Raleigh","NC","grocries","not_available","27610",35.7561584,-78.6173285
"27603","Raleigh","NC","Nur Mediterranean Deli & Market","2233 Avent Ferry Rd","27606",35.77782602878661,-78.67522999653804
"27603","Raleigh","NC","Save-A-Lot","1610 Martin Luther King Jr Dr","27610",35.76717483914527,-78.61478936673333
"27603","Raleigh","NC","NC State Wolf Village C-Store","2730 Wolf Village Way","27607",35.787750244140625,-78.68504333496094
"27603","Raleigh","NC","Brian's Dairy Aisle","3926 Western Blvd, Raleigh, NC 27606","27606",35.786014556884766,-78.6927719116211
"27603","Raleigh","NC","Save A Lot","1610 Martin Luther King Jr Blvd","27610",35.7685982,-78.6133589
"27603","Raleigh","NC","Lidl","not_available","27690",35.782802,-78.700007
"27603","Raleigh","NC","R & H Produce Inc","1117 Agriculture St Ste 2","27603",35.76586151123047,-78.6640625
"27603","Raleigh","NC","El Toro Supermarket","3605 Junction Blvd","27603",35.73087157252401,-78.65726811700347
"27604","Raleigh","NC","Midtown East","1105 Mercantile Drive","27609",35.828899,-78.6214608
"27604","Raleigh","NC","Wegmans","1200 Wake Towne Dr","27609",35.82086035707725,-78.62079156524827
"27604","Raleigh","NC","Walmart Supercenter","1725 New Hope Church Rd","27609",35.83709325,-78.60849859
"27604","Raleigh","NC","Walmart Supercenter","4431 New Bern Ave","27610",35.80049077349861,-78.56027656610878
"27604","Raleigh","NC","Trader Joe's","3000 Wake Forest Rd","27609",35.82344308473875,-78.62151341209704
"27604","Raleigh","NC","Harris Teeter","120-100 St. Albans Dr","27609",35.83690437596656,-78.63837333152257
"27604","Raleigh","NC","Lidl","4308 Wake Forest Rd","27609",35.83992691438968,-78.61104565325918
"27604","Raleigh","NC","ALDI","2900 Sunrise Valley Pl","27610",35.79385257804136,-78.54718465098813
"27604","Raleigh","NC","Carlie C's IGA of Wilder's Grove","4111 New Bern Ave","27610",35.8004113007845,-78.56625428830498
"27604","Raleigh","NC","ALDI","4031 Wake Forest Rd","27609",35.83646788913895,-78.61507818864084
"27604","Raleigh","NC","El Mandado","not_available","27604",35.83531648488218,-78.57958877655197
"27604","Raleigh","NC","International Foods","2215 New Hope Church Rd","27604",35.83614089865917,-78.60093967490779
"27604","Raleigh","NC","Buffaloe Grocery","5700 Buffaloe Rd","27616",35.83686065673828,-78.5436782836914
"27604","Raleigh","NC","El Mandado","2950 E Millbrook Rd","27604",35.848746,-78.581916
"27604","Raleigh","NC","Quê Hu'o'ng Oriental Market","3312 Capital Blvd","27604",35.82439783236731,-78.58558734979566
"27604","Raleigh","NC","Trawick Convenience Store","2816 Trawick Rd","27604",35.819478000000004,-78.59036400000001
"27604","Raleigh","NC","Caspian International Food Mart","2907 Brentwood Rd","27604",35.819638,-78.596939
"27604","Raleigh","NC","Asian Supper Market","2832 Capital Blvd","27604",35.81794357299805,-78.59657287597656
"27604","Raleigh","NC","Pueblo Market","not_available","27609",35.840922605008565,-78.60891429146712
"27604","Raleigh","NC","Kim Anh Oriental Market","3901-159 Capital Blvd","27604",35.834891,-78.585533
"27604","Raleigh","NC","Rainbow Food Mart","2400 Crabtree Blvd","27604",35.805578000000004,-78.611851
"27604","Raleigh","NC","Interfood Plaza Latina","1689 N Market Dr","27609",35.840041,-78.607334
"27607","Raleigh","NC","Harris Teeter","2051 W Millbrook Rd","27612",35.85717816413243,-78.67977248795144
"27607","Raleigh","NC","Harris Teeter","3201-123 Edwards Mill Rd","27612",35.825542919337416,-78.70701354512467
"27607","Raleigh","NC","Harris Teeter","2603 Glenwood Ave Suite 101","27608",35.815667479577165,-78.66059451291584
"27607","Raleigh","NC","Kim's Asian Market","6014 Duraleigh Rd","27612",35.860669941898784,-78.71228814125061
"27607","Raleigh","NC","Harmony Farms Natural Foods","5653 Creedmoor Rd","27612",35.85952018768986,-78.68163520860598
"27607","Raleigh","NC","La Tiendita Market","6010B Duraleigh Rd","27612",35.860383,-78.71226899999999
"27609","Raleigh","NC","Harris Teeter","6024 Falls of the Neuse Rd","27609",35.86573940976497,-78.61861575989143
"27609","Raleigh","NC","The Fresh Market","6325 Falls of Neuse Rd,","27615",35.868741,-78.622605
"27609","Raleigh","NC","Polonez Polish Market NC","5440 Atlantic Springs Rd Ste 103","27616",35.856693267822266,-78.59728240966797
"27612","Raleigh","NC","Walmart","6600 Glenwood Ave","27612",35.861897127498274,-78.70696582688662
"27612","Raleigh","NC","Lowes Foods","8201 Rowlock Way","27613",35.88596497238104,-78.7376703506323
"27613","Raleigh","NC","Publix","9640 Leesville Rd.","27613",35.905759077913466,-78.72726856423918
"27613","Raleigh","NC","Harris Teeter","13210 Strickland Rd","27613",35.90881503142225,-78.72579410467054
"27615","Raleigh","NC","ALDI","6101 Capital Blvd","27616",35.868846868469056,-78.5831201728821
"27701","Durham","NC","Harris Teeter","2107 Hillsborough Rd","27705",36.009692588207756,-78.92374400121486
"27701","Durham","NC","Whole Foods Market","621 Broad St","27705",36.00710026746175,-78.92057216923266
"27701","Durham","NC","King's Red & White","305 E Club Blvd","27704",36.01978240210119,-78.88959834609271
"27701","Durham","NC","Compare Foods","2000 Avondale Dr","27704",36.018075998882985,-78.88664649832005
"27701","Durham","NC","Save A Lot","812 Liberty St","27701",35.99218,-78.886619
"27701","Durham","NC","Compare Foods","1207 University Dr.","27701",35.9850034844365,-78.90984970911045
"27701","Durham","NC","Al-Taiba Market","1008 W Chapel Hill St","27701",35.99713134765625,-78.91571807861328
"27701","Durham","NC","Shops at Erwin Mill","737 9th St","27705",36.009785426488556,-78.92263233661652
"27701","Durham","NC","Los Primos Supermarket","1109 E Main St","27701",35.988116,-78.887855
"27701","Durham","NC","TROSA Grocery","2104 Angier Ave","27703",35.981497992455246,-78.87804663919785
"27701","Durham","NC","Food World","401 E Lakewood Ave","27707",35.986954,-78.899103
"27703","Durham","NC","Walmart Supercenter","1525 Glenn School Rd","27704",36.02834857713483,-78.84353696665744
"27703","Durham","NC","Carlie C's","3729 Wake Forest Rd","27703",35.982145128485286,-78.82209292492871
"27703","Durham","NC","cozarts","not_available","27704",36.01908697078263,-78.85359479087775
"27703","Durham","NC","Compare Foods","1001 N. Miami Blvd.","27703",35.993347861232074,-78.86784206695155
"27703","Durham","NC","La Plaza Latina","3801 Wake Forest Rd #118","27703",35.981788635253906,-78.82058715820312
"27704","Durham","NC","Harris Teeter","5116 N. Roxboro Street","27704",36.069153,-78.906827
"27704","Durham","NC","Harris Teeter","1802 North Pointe Drive","27705",36.029762268066406,-78.92060852050781
"27704","Durham","NC","La Superior Taqueria y Carniceria","3325 N Roxboro St","27704",36.03351557069349,-78.891662297668
"27705","Durham","NC","Harris Teeter","1501 Horton Rd","27705",36.05662411335589,-78.93100346005635
"27705","Durham","NC","La Loma Bakery","2908 Hillsborough Rd","27705",36.015378000000005,-78.934712
"27707","Durham","NC","Walmart Supercenter","5450 New Hope Commons Dr","27707",35.95460687672157,-78.99868274297125
"27707","Durham","NC","Sprouts Farmers Market","105 W North Carolina 54","27713",35.909655,-78.938889
"27707","Durham","NC","Harris Teeter","202 NC Hwy 54","27713",35.912543,-78.936125
"27707","Durham","NC","Harris Teeter","1125 W NC Highway 54 Suite 310","27707",35.91803132375937,-78.95879384806156
"27707","Durham","NC","Kroger","202 W NC Highway 54","27713",35.912635803222656,-78.9361343383789
"27713","Durham","NC","Target","8210 Renaissance Pkwy","27713",35.903255,-78.956406
"27713","Durham","NC","ALDI","7906 NC Highway 751","27713",35.900572828381094,-78.9601148741076
"27713","Durham","NC","Shilla Oriental Market","2107 Allendown Dr","27713",35.89910653932286,-78.89529307355767
"27801","Rocky Mount","NC","Walmart Supercenter","1511 Benvenue Rd","27804",35.97784952327338,-77.81218352174629
"27801","Rocky Mount","NC","Piggly Wiggly","418 Thomas","27804",35.94605300234946,-77.79943049934407
"27801","Rocky Mount","NC","Aldi","1237 Jeffreys Rd","27804",35.9772113,-77.8062383
"27801","Rocky Mount","NC","Williams Foods","615 N Church St","27804",35.951044,-77.792938
"27801","Rocky Mount","NC","Piggly Wiggly","940 Raleigh Rd","27802",35.931926000000004,-77.813117
"27801","Rocky Mount","NC","Corner Stop","not_available","27801",35.87913277878968,-77.72477276159479
"27804","Rocky Mount","NC","Harris Teeter","3679 Sunset Ave","27804",35.96286594028922,-77.85223953679623
"27804","Rocky Mount","NC","Smith's Red & White","3635 N Halifax Rd","27804",36.013030804936015,-77.85670110699151
"27804","Rocky Mount","NC","Walmart Supercenter","1205 Eastern Ave","27856",35.96960096843034,-77.93403777130456
"27805","Aulander","NC","Walmart Supercenter","2150 Us 13 South","27910",36.263391,-76.966686
"27805","Aulander","NC","Piggly Wiggly","1339 Memorial Dr E","27910",36.275028228759766,-76.97423553466797
"27806","Aurora","NC","piggly wiggly","not_available","27806",35.30145534871925,-76.7885022441001
"27807","Bailey","NC","Piggly Wiggly","12536 Sanford St","27807",35.77904711995752,-78.12012373133454
"27817","Chocowinity","NC","Piggly Wiggly","not_available","27889",35.534175872802734,-77.02190399169922
"27817","Chocowinity","NC","Rufus'","not_available","27817",35.51543911317055,-77.11529355824824
"27817","Chocowinity","NC","Smith's Food Pride","981 NC Hwy 33","27817",35.514869689941406,-77.11763763427734
"27817","Chocowinity","NC","S & K Market","800 Carolina Ave","27889",35.552955,-77.059023
"27818","Como","NC","Just Save","851 W Main St","27855",36.44109344482422,-77.11430358886719
"27822","Elm City","NC","Walmart Supercenter","2500 Forest Hills Rd W","27893",35.73371052,-77.94943957
"27822","Elm City","NC","Harris Teeter","3401 Raleigh Road Pkwy W Suite 10A","27896",35.74099643160287,-77.962941725602
"27822","Elm City","NC","Lidl","3520 Raleigh Road Parkway West","27896",35.7450921,-77.9636036
"27822","Elm City","NC","Walmart Neighborhood Market","2700 Ward Blvd","27893",35.75248011042716,-77.92920124399669
"27822","Elm City","NC","Aldi","2106 Forest Hills Rd W","27893",35.72891220306713,-77.95068293809891
"27822","Elm City","NC","Fred's Food Club","3005 Tarboro St SW","27893",35.71956694309218,-77.95372327483982
"27822","Elm City","NC","Piggly Wiggly","509 S Parker St","27822",35.80217742919922,-77.86241912841797
"27822","Elm City","NC","Save A Lot","4000 Ward Blvd Ste B","27893",35.7386718,-77.9052289
"27822","Elm City","NC","Handy mart!","Horton Blvd.","not_available",35.717366999999996,-77.95184
"27822","Elm City","NC","Save-A-Lot","4000-B Ward Blvd","27894",35.73891,-77.905066
"27822","Elm City","NC","Piggly Wiggly","1220 churchill ave","27893",35.71891918099792,-77.93642008849127
"27822","Elm City","NC","Sunbeam Discount Bakery Store","3100 Downing St SW","27893",35.70779,-77.95222
"27822","Elm City","NC","Food Lion","2801 Ward Blvd Ste 3H","27893",35.755223261730336,-77.92871042630456
"27822","Elm City","NC","Foodlion","Lipscomb rd","27893",35.715485356409715,-77.93180655470212
"27823","Enfield","NC","Just Save Foods","707 S McDaniel St","27823",36.171871185302734,-77.67181396484375
"27828","Farmville","NC","foodlion","not_available","27828",35.61329777271176,-77.59377823044795
"27831","Garysburg","NC","Walmart Supercenter","251 Premier Blvd","27870",36.428154203354545,-77.63380922976033
"27831","Garysburg","NC","Food Lion","175 Roanoke Ave","27870",36.47040713865837,-77.65049504706145
"27831","Garysburg","NC","Save-A-Lot","1160 Julian R Allsbrook Hwy","27870",36.43653704374941,-77.64185509178925
"27831","Garysburg","NC","Gaston Market","136 Roanoke Rapids Road","27832",36.498817443847656,-77.64358520507812
"27831","Garysburg","NC","Reser's Fine Foods","11251 NC Highway 903","27839",36.36068360798038,-77.66167984390803
"27831","Garysburg","NC","Piggly Wiggly","136 Roanoke Rapids Rd","27832",36.498707,-77.643551
"27831","Garysburg","NC","Just Save","33 Becker Drive","27870",36.44106463085024,-77.63078525565321
"27831","Garysburg","NC","Tobacco & Vape Shop","1611 Julian R Allsbrook Hwy","27870",36.4326952,-77.6356468
"27831","Garysburg","NC","B & J's Cash & Carry","418 Becker Dr","27870",36.440445,-77.63504
"27834","Greenville","NC","Walmart Supercenter","210 Greenville Blvd Sw","27834",35.57712589244862,-77.38723808959854
"27834","Greenville","NC","Harris Teeter","2120 E Fire Tower Rd","27858",35.56688749353209,-77.34902285719974
"27834","Greenville","NC","Harris Teeter","3040 Evans St","27834",35.58101680054825,-77.38281826162438
"27834","Greenville","NC","Walmart Grocery Pickup and Delivery","4600 E. 10th St","27858",35.580506,-77.306007
"27834","Greenville","NC","Walmart Neighborhood Market","3801 S. Memorial Drive","28590",35.55943438599773,-77.40480714798177
"27834","Greenville","NC","ALDI","4515 E 10th St","27858",35.582216,-77.30609
"27834","Greenville","NC","Publix","not_available","27858",35.588124015583816,-77.37027842935386
"27834","Greenville","NC","Walmart Neighborhood Market","2830 Gateway Drive","27834",35.60710491347343,-77.43140114440628
"27834","Greenville","NC","Aldi","655 S Square Dr","28590",35.5558879,-77.4044408
"27834","Greenville","NC","Walmart Neighborhood Market","1826 E. Arlington Blvd","27858",35.56701548110326,-77.35789320967932
"27834","Greenville","NC","Piggly Wiggly","2105 Dickinson Ave","27834",35.60001164810737,-77.39202391057837
"27834","Greenville","NC","Lidl","1800 East Fire Tower Road","27858",35.56466333,-77.35848989
"27834","Greenville","NC","The Fresh Market","950 Criswell Dr, Ste 111","27834",35.56637353640756,-77.40589567127299
"27834","Greenville","NC","Fred's Food Club","4299 NC 11 S","28590",35.54500492528855,-77.4041737711671
"27834","Greenville","NC","Save-A-Lot","1701 Dickinson Ave","27834",35.602909,-77.387798
"27834","Greenville","NC","tropicana","not_available","27834",35.632306,-77.37831
"27834","Greenville","NC","Karolina Express Grocery Delivery","3805 E Vancroft Cir Unit B4","28590",35.56202697753906,-77.4130630493164
"27834","Greenville","NC","Lowes Foods","3160 Evans St","27834",35.57297845520042,-77.38345214490204
"27850","Littleton","NC","Piggly Wiggly","234 Hwy 158 E","27850",36.43707002124702,-77.90588009351595
"27852","Macclesfield","NC","Piggly Wiggly","205 S First St","27864",35.78978194917997,-77.63810521206926
"27852","Macclesfield","NC","macclesfield grocery","104 East edgecombe street","27852",35.752028,-77.671088
"27856","Nashville","NC","Just Save","721 E Washington St","27856",35.97087423425598,-77.95466673871066
"27856","Nashville","NC","Piggly Wiggly","731 E Washington St","27856",35.970467,-77.954971
"27860","Pantego","NC","Acre Station","not_available","27865",35.596864705616724,-76.82322509077379
"27883","Stantonsburg","NC","PIggly Wiggly","102 Moyton Ave","27883",35.60976372577065,-77.81756070402561
"27886","Tarboro","NC","Walmart Supercenter","110 River Oaks Dr","27886",35.88352126,-77.5460246
"27886","Tarboro","NC","Piggly Wiggly","not_available","27886",35.91117035263055,-77.54374051731027
"27889","Washington","NC","Walmart Supercenter","570 Pamlico Plz","27889",35.56019550656831,-77.06341421123331
"27889","Washington","NC","Food Lion","851 Washington Square Mall","27889",35.55923843383789,-77.05745697021484
"27892","Williamston","NC","Walmart Supercenter","1529 Washington St","27892",35.83445239804799,-77.06399320732112
"27892","Williamston","NC","Piggly Wiggly","712 Washington St","27892",35.84462290453308,-77.06004479088263
"27892","Williamston","NC","Sal's Corner Store","not_available","27892",35.862901084041034,-77.06329054180543
"27909","Elizabeth City","NC","Walmart Supercenter","101 Tanglewood Pkwy N","27909",36.29563099380193,-76.29788433711843
"27909","Elizabeth City","NC","Food Lion","683 S Hughes Blvd","27909",36.2910012,-76.2527227
"27909","Elizabeth City","NC","ALDI","3805 Conlon Way","27909",36.29439163208008,-76.29251098632812
"27909","Elizabeth City","NC","SoHo Organic Market","406 S Griffin St Ste E","27909",36.296696999999995,-76.233766
"27915","Avon","NC","Surf's Up Seafood Market","41838 Nc 12 Hwy","27915",35.33489090863057,-75.50688138120665
"27920","Buxton","NC","Dollar tree","not_available","27920",35.265063731894216,-75.52060426597404
"27924","Colerain","NC","The Country Store II","Rocky Hock Rd","not_available",36.19546961779084,-76.71286048434669
"27924","Colerain","NC","Food Lion","not_available","27932",36.19554175696267,-76.71309725291172
"27925","Columbia","NC","Mark's Supermarket","not_available","27928",35.872824053334334,-76.39669336285343
"27927","Corolla","NC","Harris Teeter","601 Currituck Clubhouse Dr","27927",36.30287784844441,-75.80606551363202
"27943","Hatteras","NC","Burrus Red and White","57196 Kohler Drive","27943",35.219922048312995,-75.69059131147006
"27948","Kill Devil Hills","NC","Harris Teeter","2012 South Croatan Hwy","27948",35.99276054377814,-75.65133386084133
"27948","Kill Devil Hills","NC","Publix Super Market","1530 N Croatan Hwy","27948",36.02746732106987,-75.67109162916336
"27949","Kitty Hawk","NC","Walmart Supercenter","5400 N Croatan Hwy Ste 100","27949",36.09665253958264,-75.72076536054148
"27949","Kitty Hawk","NC","Harris Teeter","5400 North Croatan Hwy #A","27949",36.0975879383297,-75.71947564912077
"27949","Kitty Hawk","NC","Wink's","Highway 12","27949",36.087249424176925,-75.70364080413187
"27954","Manteo","NC","Great Valu Markets","226 US Highway 64 E","27954",35.91551971435547,-75.67577362060547
"27954","Manteo","NC","Piggly Wiggly","Hwy 64","27954",35.90388040613568,-75.67317897216073
"27959","Nags Head","NC","The Fresh Market","5000 S Croatan Hwy, Ste 5000","27959",35.938666779548825,-75.6169818387836
"27960","Ocracoke","NC","The Variety Store","950 Irvin Garrish Hwy","27960",35.10786502568672,-75.97524451783684
"27960","Ocracoke","NC","The Community Store","294 Irving Garrish Hwy","27960",35.11392610541342,-75.98299327530808
"27962","Plymouth","NC","Piggly Wiggly","not_available","27962",35.86007802883246,-76.73766802641425
"27972","Salvo","NC","Waves Market","26006 Highway 12","27982",35.56166487316597,-75.46865522737308
"28001","Albemarle","NC","Walmart Supercenter","781 Leonard Ave","28001",35.34019274641017,-80.17588355810153
"28001","Albemarle","NC","Harris Teeter","817 N First St","28001",35.3615716430229,-80.19990849116635
"28001","Albemarle","NC","Food Lion Grocery Store","2000 US Highway 52 N","28001",35.388013688894475,-80.19412032353142
"28001","Albemarle","NC","Ingle's","636 NC 24 27 Byp E","28001",35.34259832235796,-80.17178324770272
"28001","Albemarle","NC","ALDI","1920 Troy Road","28001",35.34808050107245,-80.16371389967556
"28001","Albemarle","NC","Save-A-Lot","720 NC Hwy 24 - 27 Bypass East","28001",35.306699,-80.268455
"28001","Albemarle","NC","Midway Salvage","not_available","28001",35.344791412353516,-80.1512451171875
"28001","Albemarle","NC","ALDI","1920 E Main St","28001",35.34780377,-80.16375884
"28012","Belmont","NC","Walmart Supercenter","701 Hawley Ave","28012",35.25574759365641,-81.03583921153847
"28012","Belmont","NC","Harris Teeter","905 South Point Rd.","28012",35.22442510843347,-81.0362566315439
"28012","Belmont","NC","Aldi","6402 W Wilkinson Blvd","28012",35.25150278377756,-81.04583254675163
"28012","Belmont","NC","Earley Realty Inc.","6243 S New Hope Rd","28012",35.174688,-81.054467
"28012","Belmont","NC","Asian Market","505 Woodlawn St","28012",35.273065,-81.052371
"28012","Belmont","NC","Bi-Lo","6507 Wilkinson Boulevard","not_available",35.25400544781282,-81.0421681141953
"28016","Bessemer City","NC","Flowers Discount Bakery Store","not_available","28016",35.28831481933594,-81.24415588378906
"28016","Bessemer City","NC","Ingles","1250 Gastonia Highway","28086",35.28143072861868,-81.23979591426198
"28018","Bostic","NC","Ingles","S Church St.","not_available",35.321953874342114,-81.88160555832677
"28018","Bostic","NC","Food Lion","668 S Broadway St","28043",35.31797711363437,-81.85852233705025
"28021","Cherryville","NC","Walmart Grocery Pickup","2505 Lincolnton Hwy","28021",35.401024,-81.34047
"28023","China Grove","NC","Billy Asian Market","2350 US-29 S","28023",35.54398,-80.597782
"28023","China Grove","NC","Food Lion","1408 N Main St","28023",35.5778078,-80.5659897
"28023","China Grove","NC","Groceries Online Deliveries","not_available","28023",35.56103515625,-80.5948257446289
"28023","China Grove","NC","Som See","not_available","28088",35.544002532958984,-80.5978012084961
"28023","China Grove","NC","Tortilleria carniceria y Abarrotes","1403 N Main St","28081",35.514045,-80.61425200000001
"28023","China Grove","NC","Acapulco Abarrotes Y Carniceria","not_available","28083",35.51354252,-80.61014808
"28025","Concord","NC","Harris Teeter","1245 Concord Parkway North Suite 1","28025",35.432564068494436,-80.60554927302736
"28025","Concord","NC","Walmart Supercenter","2420 Supercenter Dr Ne","28083",35.46284291913004,-80.59442678924798
"28025","Concord","NC","Walmart Supercenter","150 Concord Commons Pl Sw","28027",35.38956836,-80.62300307
"28025","Concord","NC","Walmart Supercenter","1876 Main St W","28097",35.25642549739552,-80.457268967117
"28025","Concord","NC","ALDI","600 S Cannon Blvd","28083",35.485988784131735,-80.61186879873276
"28025","Concord","NC","Aldi","961 Concord Pkwy S","28027",35.3924415357696,-80.62103769401801
"28025","Concord","NC","Bi-Lo","595 Warren Coleman Blvd","28025",35.382791003569686,-80.58074612862751
"28025","Concord","NC","Save-A-Lot","940 S Cannon Blvd","28083",35.48269263121482,-80.61266015888708
"28025","Concord","NC","El Paisano Mexican Store","not_available","28025",35.405930517843196,-80.5883860578993
"28027","Concord","NC","Walmart Supercenter","5825 Thunder Rd","28027",35.37846612960579,-80.72489189008826
"28027","Concord","NC","Trader Joe's","1820 E Arbors Dr","28262",35.33651281354496,-80.75480540822984
"28027","Concord","NC","Publix","5015 George Liles Pkwy","28027",35.39642968883564,-80.66088564079362
"28027","Concord","NC","Harris Teeter","358 George W. Liles Pkwy NW","28027",35.41198761614282,-80.66360243209797
"28027","Concord","NC","Harris Teeter","9900 Poplar Tent Rd Suite 124","28027",35.41873941581432,-80.74317752030227
"28027","Concord","NC","Lidl","8930 Christenbury Pkwy","28027",35.3767018094033,-80.73210397488951
"28027","Concord","NC","Walmart Neighborhood Market","11530 N Tryon St","28262",35.33436279444386,-80.71269026102972
"28027","Concord","NC","Walmart Neighborhood Market","3905 Concord Parkway S","28027",35.36662760062217,-80.66628968838303
"28027","Concord","NC","Harris Teeter","11124 Renaissance Dr","28036",35.44223200735159,-80.7622881429636
"28027","Concord","NC","Earth Fare","8885 Christenbury Pkwy","28027",35.374651442980515,-80.733911779496
"28027","Concord","NC","ALDI","600 north cannon blvd","28083",35.50249099731445,-80.60885620117188
"28027","Concord","NC","Willow Oaks Crossing","4995-5015 Weddington Rd NW","28027",35.396108132050976,-80.66130995750433
"28027","Concord","NC","RiceN'Spice","104-E","28027",35.401,-80.760122
"28031","Cornelius","NC","Whole Foods Market","9129 Sam Furr Rd.","28078",35.44374697599544,-80.8715562119317
"28031","Cornelius","NC","Harris Teeter","7715 Regency Lake Dr","28078",35.4435139829544,-80.89574677404195
"28031","Cornelius","NC","Harris Teeter","9759 Sam Furr Rd","28078",35.44420974738319,-80.86209201301845
"28031","Cornelius","NC","Harris Teeter","19815 North Cove Rd","28031",35.47777746484168,-80.89381399216246
"28031","Cornelius","NC","Publix","8311 Magnolia Estates Dr","28031",35.47544081531266,-80.88921645778431
"28031","Cornelius","NC","Harris Teeter","21720 Catawba Avenue","28031",35.48007937074208,-80.85582195144092
"28031","Cornelius","NC","Harris Teeter","431 Peninsula Dr","28036",35.500880479959825,-80.86016366585092
"28031","Cornelius","NC","The Fresh Market","20623 Torrence Chapel Rd,","28031",35.48579241871562,-80.87765011992818
"28031","Cornelius","NC","Healthy Home Market","261 Griffith St","28036",35.502126178828725,-80.84975596785131
"28034","Dallas","NC","Walmart Grocery Pickup","1300 Dallas Cherryville Rd","28034",35.315940000000005,-81.196857
"28034","Dallas","NC","Ingle's","715 W Trade St","28034",35.314951430835194,-81.18522454477495
"28036","Davidson","NC","Lowes Foods 225","11124 Renaissance Blvd","28036",35.519373,-80.78672909
"28036","Davidson","NC","Coddle Creek Grocery","Hwy. 3","not_available",35.49009613567007,-80.76523120506018
"28037","Denver","NC","Walmart Supercenter","7131 Highway #73","28037",35.45131891,-81.00189686
"28037","Denver","NC","Publix","not_available","28037",35.44837191411891,-80.99348767577567
"28037","Denver","NC","Harris Teeter","149 Cross Center Drive","28037",35.44375523756823,-80.99583530922453
"28037","Denver","NC","ALDI Grocery Delivery","7208 NC 73 Hwy","28037",35.44747023174649,-81.00376305216696
"28037","Denver","NC","Bargain Center Discount Groceries","3825 Highway 16","28037",35.532337,-81.031874
"28037","Denver","NC","Walmart Grocery Pickup","7131 Highway 73","28037",35.44955886,-81.00286837
"28043","Forest City","NC","Walmart Supercenter","197 Plaza Dr","28043",35.33508435,-81.89834019
"28043","Forest City","NC","ALDI","1916 US Hwy 74","28043",35.33793856840792,-81.89982533454895
"28043","Forest City","NC","Save-A-Lot","1639 US Hwy 74A Bypass","28160",35.341766357421875,-81.90699005126953
"28043","Forest City","NC","J's Salvage","524 Withrow Rd","28043",35.342518,-81.897058
"28043","Forest City","NC","Food Lion","not_available","28160",35.354960945741965,-81.93129733779489
"28052","Gastonia","NC","Walmart Supercenter","223 N Myrtle School Rd","28052",35.26091368,-81.22563824
"28052","Gastonia","NC","Compare Foods","not_available","28052",35.257527175857824,-81.22743498876406
"28052","Gastonia","NC","Save-A-Lot","814 Franklin Blvd","28052",35.26322849676145,-81.19544202485721
"28054","Gastonia","NC","Walmart Supercenter","3000 E Franklin Blvd","28056",35.26148917,-81.12451755
"28054","Gastonia","NC","Harris Teeter","3350 Robinwood Rd","28054",35.21655697453211,-81.15860417486192
"28054","Gastonia","NC","Walmart Neighborhood Market","not_available","28054",35.24328425743254,-81.12463180792388
"28054","Gastonia","NC","Lidl","951 East Hudson Boulevard","28054",35.23188443,-81.17167231
"28054","Gastonia","NC","Bi-Lo","2601 S New Hope Rd","28056",35.240101233712,-81.12330663825965
"28054","Gastonia","NC","Publix","1949 Hoffman Rd","28054",35.225054,-81.132973
"28054","Gastonia","NC","ALDI","3201 E Franklin Blvd","28056",35.25980966122808,-81.13109524198455
"28054","Gastonia","NC","Aldi","2108 Union Rd","28054",35.2343378,-81.1694571
"28054","Gastonia","NC","Lowes Foods","401 Cox Rd","28054",35.264014286652575,-81.13506885401696
"28054","Gastonia","NC","Bi-lo","2204 Union Rd","28054",35.23897190220694,-81.1552902467795
"28054","Gastonia","NC","Walmart Grocery Pickup","2324 S New Hope Rd","28054",35.2422463,-81.1248621
"28054","Gastonia","NC","Lowes Foods","1751 Neal Hawkins Rd","28056",35.215822624981286,-81.16867688964365
"28073","Grover","NC","Lowery's country store","2003 S Post Rd","28152",35.23198318481445,-81.5163803100586
"28075","Harrisburg","NC","Lowes Foods","4445 Hwy 49 S","28075",35.320943763712826,-80.6509503573699
"28075","Harrisburg","NC","Harris Teeter","9641 Brookdale Drive","28215",35.28318757499951,-80.6695179991325
"28075","Harrisburg","NC","ALDI","3891 Main St","28075",35.324036851170625,-80.6435376405716
"28075","Harrisburg","NC","Publix","not_available","28075",35.32064794910809,-80.64606614284034
"28075","Harrisburg","NC","Harris Teeter","12190 University City Blvd","28075",35.31562423706055,-80.67436981201172
"28078","Huntersville","NC","Walmart Supercenter","11145 Bryton Town Center Dr","28078",35.37098026719614,-80.82808510029028
"28078","Huntersville","NC","Publix","9815 Rose Commons Dr","28078",35.40816121263568,-80.86402955647577
"28078","Huntersville","NC","Harris Teeter","9925 Rose Commons Dr","28078",35.40880020762104,-80.86171570572718
"28078","Huntersville","NC","Food Lion","13108 Eastfield Rd","28078",35.384767481889796,-80.78443654326273
"28078","Huntersville","NC","Tesh's Grocery","9000 Hambright Rd","28078",35.384793972350174,-80.88336981024027
"28078","Huntersville","NC","Harris Teeter","5810 Highland Shoppes Dr","28269",35.371657776507625,-80.78331352409431
"28078","Huntersville","NC","Aldi","5817 Prosperity Church Rd","28269",35.3724221,-80.7862138
"28078","Huntersville","NC","ALDI","14126 S. Statesville Rd.","28078",35.4093421,-80.8529098
"28078","Huntersville","NC","Earth Fare","14021 Boren St","28078",35.40418239766295,-80.86648359666651
"28078","Huntersville","NC","Lowes Food","7036","28269",35.372107423309515,-80.80726906774233
"28078","Huntersville","NC","Bi-low","not_available","28078",35.40803739700512,-80.86277555572212
"28079","Indian Trail","NC","Walmart Supercenter","2101 Younts Rd","28079",35.07848756,-80.65038269
"28079","Indian Trail","NC","Publix","6828 Matthews Mint Hill Rd","28227",35.17067374653691,-80.6598792207505
"28079","Indian Trail","NC","Publix","5132 Old Charlotte Hwy","28110",35.04777492208704,-80.64237756115895
"28079","Indian Trail","NC","Harris Teeter","6610 Old Monroe Rd","28079",35.047630404212036,-80.64850927200986
"28079","Indian Trail","NC","Harris Teeter","7800 Stevens Mill Rd","28104",35.1403637929261,-80.62371781911291
"28079","Indian Trail","NC","Harris Teeter","7036 Brighton Park Dr","28227",35.17242607641201,-80.66107877801262
"28079","Indian Trail","NC","ALDI","8000 Blair Rd Unit B","28227",35.1803943,-80.6463692
"28079","Indian Trail","NC","Harris Teeter","15080-P Idlewild Rd","28104",35.12229725712438,-80.65383780699918
"28079","Indian Trail","NC","ALDI","5704 W Highway 74","28079",35.06325758956539,-80.6348995940516
"28079","Indian Trail","NC","Lidl","14600 East Independence Boulevard","28079",35.07554875,-80.65386202
"28079","Indian Trail","NC","Citgo","Sikes Mill Rd","28110",35.097844077771654,-80.54810135775868
"28079","Indian Trail","NC","ALDI Grocery Delivery","8000 Blair Rd","28227",35.180192319024236,-80.64632989357506
"28081","Kannapolis","NC","Camp Wesley Grocery","3320 Deal Rd","28115",35.54435729980469,-80.72036743164062
"28083","Kannapolis","NC","Peoples Produce & General Store","Old Salisbury-Concord Rd.","not_available",35.495133,-80.54920971393585
"28086","Kings Mountain","NC","Walmart Neighborhood Market","1011 Shelby Road","28086",35.238399,-81.362307
"28086","Kings Mountain","NC","Ingles Grocery Store","2111 Shelby Rd","28086",35.24373819089567,-81.40535550920892
"28086","Kings Mountain","NC","Rhodesdale Farm","1811 Shelby Rd","28086",35.237947999999996,-81.387016
"28086","Kings Mountain","NC","Walmart Grocery Pickup","1011 Shelby Rd","28086",35.2394541747503,-81.3634432039055
"28090","Lawndale","NC","Honeys","9580 w hwy 10","28168",35.567894676717394,-81.48034441553219
"28092","Lincolnton","NC","Ingles","2130 E Main St","28092",35.478169681441294,-81.2202340776518
"28092","Lincolnton","NC","Walmart Supercenter","306 N Generals Blvd","28092",35.48361859131245,-81.24086993553934
"28092","Lincolnton","NC","Bi-Lo","Hillside Drive","28092",35.46674513395038,-81.26921813858854
"28092","Lincolnton","NC","ALDI","529 N Generals Blvd","28092",35.49305827096709,-81.24712721274591
"28092","Lincolnton","NC","Bi-Lo","427 N Generals Blvd","28092",35.46974459378485,-81.25443497313208
"28092","Lincolnton","NC","Fresh Air Galaxy","719 E Main St","28650",35.572738,-81.202892
"28092","Lincolnton","NC","ALDI","Generals Blvd","not_available",35.42983313504422,-81.21699282375657
"28092","Lincolnton","NC","Food Lion","not_available","28092",35.479857145704855,-81.22728436477288
"28104","Matthews","NC","Walmart Supercenter","1830 Galleria Blvd","28270",35.13884053802846,-80.73226701309748
"28104","Matthews","NC","Harris Teeter","1811 Matthews Township Pkwy","28105",35.125223995494174,-80.70948513222591
"28104","Matthews","NC","Harris Teeter","1621 N Sardis Rd","28270",35.14040907871467,-80.73858849615718
"28104","Matthews","NC","Publix","3110 Fincher Farm Rd","28105",35.08233900718665,-80.72967570028885
"28104","Matthews","NC","Whole Foods Market","7221 Waverly Walk Ave","28277",35.0531878931049,-80.76751622834645
"28104","Matthews","NC","Harris Teeter","5920 Weddington-Monroe Rd","28104",35.00007255269615,-80.69966122813764
"28104","Matthews","NC","Harris Teeter","3100 Weddington Rd","28105",35.08299112579457,-80.73253009155854
"28104","Matthews","NC","Super G Mart","7323 E Independence Blvd","28227",35.162503968193036,-80.73812265467487
"28104","Matthews","NC","Harris Teeter","1351 Chestnut Ln","28104",35.06863461501099,-80.70042943229859
"28104","Matthews","NC","The Fresh Market","10828 Providence Rd, Ste 100","28277",35.06187573876787,-80.77139467653161
"28104","Matthews","NC","ALDI","555 W John St","28105",35.120841,-80.7288949
"28104","Matthews","NC","Harris Teeter","13639 Providence Rd","28104",35.023797414448154,-80.76126508822689
"28104","Matthews","NC","New Asia Market","4400 Potter Rd","28104",35.08505091965165,-80.69759854302428
"28104","Matthews","NC","Harris Teeter","10616 Providence Rd","28277",35.065790433589505,-80.77185305986693
"28104","Matthews","NC","Charlotte Beef Jerky Outlet","8020 Providence Rd Ste 400","28277",35.098231,-80.780529
"28104","Matthews","NC","Zba","E. Independence blvd","28105",35.136645,-80.713986
"28104","Matthews","NC","Bi-lo","Mckee rd","28270",35.079659153035934,-80.74296731383251
"28104","Matthews","NC","Harris Teeter","5939 Weddington-Monroe Rd","28104",35.00167036,-80.71238101
"28104","Matthews","NC","The South African Food Shop","11229 E Independence Blvd Ste H","28105",35.118674,-80.696404
"28104","Matthews","NC","Corporate Caterers Charlotte","1544 Matthews Mint Hill Rd","28105",35.11895215,-80.69644889
"28104","Matthews","NC","E-Z Mart","8438 Monroe Rd","28212",35.154144287109375,-80.74766540527344
"28105","Matthews","NC","Harris Teeter","5706 Wyalong Dr","28227",35.173088798209015,-80.70897955473063
"28110","Monroe","NC","Walmart Supercenter","2406 W Roosevelt Blvd","28110",35.013387155448335,-80.56419699233159
"28110","Monroe","NC","ALDI","1404 W Roosevelt Blvd","28110",34.997194172072625,-80.54368436336523
"28110","Monroe","NC","Food Lion","250 N M L King Jr Blvd","28110",34.98603873709268,-80.57805835537896
"28110","Monroe","NC","Save-A-Lot","419 E Franklin St","28112",34.98107529,-80.5422287
"28110","Monroe","NC","Food Lion #0507","2118 W Roosevelt Blvd","28110",35.007657,-80.558122
"28110","Monroe","NC","Bi-Lo","1642 Dickerson Blvd","28110",35.00122468654729,-80.56719381332805
"28114","Mooresboro","NC","Ingles Market","214 N Main St.","28017",35.2552616156735,-81.6659965419433
"28115","Mooresville","NC","Walmart Supercenter","169 Norman Station Blvd","28117",35.58955202,-80.85549005
"28115","Mooresville","NC","Aldi","132 E Plaza Dr","28115",35.58780390603598,-80.83577223502743
"28115","Mooresville","NC","Walmart Neighborhood Market","966 East Iredell","28115",35.577598649119686,-80.79184850089297
"28115","Mooresville","NC","Tienda Y Carniceria Mi Tierrita","Hwy.150","not_available",35.594105,-80.8546
"28115","Mooresville","NC","Save-A-Lot","615 N Main St","28115",35.5859680175781,-80.8030319213867
"28115","Mooresville","NC","Walmart Grocery Pickup","966 East Iredell Avenue","28115",35.577911376953125,-80.79268646240234
"28117","Mooresville","NC","Harris Teeter","118 Argus Ln","28117",35.60267230181616,-80.89511780621666
"28117","Mooresville","NC","Lowe's Foods","125 Stucomb Ln","28117",35.587065958339096,-80.87214160011428
"28117","Mooresville","NC","Lowes Foods","125 Center Square Dr","28117",35.58707046508789,-80.87229919433594
"28117","Mooresville","NC","Lowe's Foods Beer Den","not_available","28117",35.587033,-80.872179
"28117","Mooresville","NC","Harris Teeter","134-H Town Center Drive","28117",35.585625811222656,-80.87550634399213
"28117","Mooresville","NC","Josh's Farmers Market","189 Williamson Rd","28117",35.59068,-80.87214
"28117","Mooresville","NC","the brawley market","792 Brawley School Rd","28117",35.57849450305664,-80.88611639010811
"28120","Mount Holly","NC","Harris Teeter","4701 Smith Farm Road","28216",35.327980041503906,-80.94037628173828
"28120","Mount Holly","NC","Walmart Supercenter","9820 Callabridge Ct","28216",35.32915931990671,-80.94539889714608
"28120","Mount Holly","NC","Food Lion","9115 Samlen Ln Apt 200","28214",35.30459356427023,-80.96538283832508
"28120","Mount Holly","NC","Bi-Lo #413","2924 Mt Holly Huntersville Rd","28214",35.31940211939187,-80.95188489456665
"28120","Mount Holly","NC","Bi-Lo","421 S Highway 27","28164",35.35494852035206,-81.09028346051099
"28128","Norwood","NC","Chips Lake Stop","653 Pee Dee Ave","28128",35.23438389329265,-80.12113430797454
"28134","Pineville","NC","Target","9531 South Blvd","28273",35.10786130375025,-80.87897565547492
"28134","Pineville","NC","Aldi","10629 Park Rd","28210",35.09206964829805,-80.86860179901123
"28134","Pineville","NC","Patel Brothers","Centrum Pkwy","28134",35.08799748646305,-80.87748535691246
"28134","Pineville","NC","India Grocers","509 South Blvd","not_available",35.09022150395801,-80.88610306933566
"28134","Pineville","NC","Gs Food Mart","1339 Sharon Rd W","28210",35.11930346460303,-80.87995940019891
"28134","Pineville","NC","Mexicali","10403 Park Rd, Charlotte, NC 28210","28210",35.09373332447231,-80.8668474778473
"28134","Pineville","NC","The Baby Grocery Store","10225 Park Rd","28210",35.09497503509069,-80.86501859237636
"28134","Pineville","NC","El Tabasqueno","Park Rd","not_available",35.090056,-80.869153
"28135","Polkton","NC","Rayfields","NC Highway 109 south, Wadesboro, NC","28119",34.92109879005814,-80.12118809455656
"28139","Rutherfordton","NC","Bi-lo","not_available","28139",35.36141298996903,-81.94174251313824
"28144","Salisbury","NC","Walmart Supercenter","323 S Arlington St","28144",35.65549038,-80.46607178
"28144","Salisbury","NC","Harris Teeter","850 Jake Alexander Blvd W","28144",35.668114668817026,-80.49752883759531
"28144","Salisbury","NC","Aldi","920 Jake Alexander Blvd W","28147",35.66951505431256,-80.49884722398019
"28144","Salisbury","NC","Aldi","115 Avalon Dr","28146",35.649371761240474,-80.45733332633972
"28144","Salisbury","NC","ALDI","1985 Old Union Church Rd","28146",35.680347999999995,-80.405148
"28144","Salisbury","NC","Foodlion","not_available","28159",35.68442837959486,-80.46425244753544
"28150","Shelby","NC","Ingles","1818 W Dixon Blvd","28152",35.29612579146474,-81.57252397624835
"28150","Shelby","NC","Walmart Supercenter","705 E Dixon Blvd","28152",35.27686633523251,-81.52951713590876
"28150","Shelby","NC","ALDI","413 Earl Rd","28150",35.27785278222935,-81.53522193431854
"28150","Shelby","NC","Friendly's","514 W Grover St","28150",35.303001403808594,-81.55219268798828
"28150","Shelby","NC","Harris Teeter","1145 E Marion St","28150",35.29668102475735,-81.51372641208783
"28150","Shelby","NC","South Mountain Farms Food Outlet","Lafayette Street","not_available",35.283865999999996,-81.54131600000001
"28150","Shelby","NC","Save-A-Lot","310 W Dixon Blvd","28152",35.281537,-81.547784
"28150","Shelby","NC","Ingles","not_available","28152",35.273697962169436,-81.52581456235401
"28150","Shelby","NC","Ingles","1305 Fallston Rd","28150",35.31981395853179,-81.51870701538357
"28152","Shelby","NC","Ingles","1523 S Post Rd","28152",35.243678492862,-81.50902477585541
"28152","Shelby","NC","Hallelujah Acres Health Food Store","900 S Post Rd","28152",35.260738735760654,-81.50350953521699
"28152","Shelby","NC","Tony's SIP And Chip","104 James Love School Rd","28152",35.263542891690925,-81.55997740728445
"28170","Wadesboro","NC","IGA","805 Camden Rd","28170",34.957609999999995,-80.082801
"28170","Wadesboro","NC","Walmart Supercenter","2004 Us Highway 74 W","28170",34.98035327,-80.10390031
"28173","Waxhaw","NC","Harris Teeter","8157 Kensington Dr","28173",34.95415495901952,-80.7592609387858
"28173","Waxhaw","NC","Walmart Neighborhood Market","2520 Cuthbertson Road","28173",34.95834601037092,-80.75655172069565
"28173","Waxhaw","NC","Harris Teeter","6271 Carolina Commons Dr","29707",34.93681828598155,-80.83811362542815
"28173","Waxhaw","NC","ALDI","2909 Providence Rd S","28173",34.9610252,-80.760437
"28202","Charlotte","NC","Target","900 Metropolitan Ave Ste 2","28204",35.214366246906664,-80.83426983589956
"28202","Charlotte","NC","Harris Teeter","325 W 6th St","28202",35.23123079157049,-80.84395564078687
"28202","Charlotte","NC","Whole Foods Market","400 East Stonewall St.","28202",35.221300537717596,-80.84621079927176
"28202","Charlotte","NC","Cash Lady","not_available","28202",35.226659074719926,-80.84190633686568
"28203","Charlotte","NC","Harris Teeter","2717 South Blvd.","28209",35.2003238516259,-80.86602773655584
"28203","Charlotte","NC","Publix - South End","2222 South Blvd","28203",35.20636818051561,-80.86248834203087
"28203","Charlotte","NC","Harris Teeter","1227 East Blvd","28203",35.203561828757856,-80.84513041921973
"28203","Charlotte","NC","The Fresh Market","1408 East Blvd, Ste C","28203",35.20023054815066,-80.8443521810109
"28203","Charlotte","NC","Berrybrook Farm","1257 East Blvd","28203",35.20231,-80.84479
"28203","Charlotte","NC","Clean Eatz","not_available","28203",35.212619,-80.859297
"28204","Charlotte","NC","Harris Teeter","1704 Central Ave","28205",35.21992895680456,-80.81032646449337
"28204","Charlotte","NC","Trader Joe's","1133 Metropolitan Ave","28204",35.21160846824355,-80.83546836626202
"28204","Charlotte","NC","Bacon Section at Plaza Mid HT","Central Av","not_available",35.21942,-80.810231
"28204","Charlotte","NC","Healthy Home Market","1330 Central Ave","28205",35.22030600556428,-80.81575520437953
"28205","Charlotte","NC","Walmart Supercenter","3850 E Independence Blvd","28205",35.19956048596566,-80.7764124479677
"28205","Charlotte","NC","ALDI","4006 Connection Point Blvd","28212",35.18527733263246,-80.76141471736298
"28205","Charlotte","NC","US Foods CHEF'STORE","3304 Eastway Dr","28205",35.21117056346371,-80.78325162773463
"28205","Charlotte","NC","Compare foods","3600 N Sharon Amity Rd","28205",35.207477953933676,-80.75745415189388
"28205","Charlotte","NC","Harvey's Supermarket","4430 The Plaza","28215",35.24873,-80.77959200000001
"28205","Charlotte","NC","Asian Market","not_available","28215",35.248783,-80.779994
"28205","Charlotte","NC","Giant Penny","3330 The Plaza","28205",35.241463,-80.794999
"28205","Charlotte","NC","Save-A-Lot","4537 The Plaza","28215",35.252132,-80.778707
"28205","Charlotte","NC","Sav/Way Foods","4459 Central Ave","28205",35.21423,-80.76832900000001
"28205","Charlotte","NC","Pasta & Provisions","1528 Providence Rd","28207",35.18650460235368,-80.82188785119268
"28205","Charlotte","NC","Saveway","not_available","28205",35.21460723876953,-80.76311492919922
"28205","Charlotte","NC","International Grocery & Halal Meat","5309 E Independence Blvd Ste G","28212",35.187355041503906,-80.7576904296875
"28205","Charlotte","NC","food lion","Eastway drive","not_available",35.18684387207031,-80.77587890625
"28205","Charlotte","NC","Superior Supermarket","6129 Plaza  Road","28215",35.2520930564351,-80.74960815846244
"28205","Charlotte","NC","Plaza Seafood and Grocery","2519 The Plaza","28205",35.235659000000005,-80.804604
"28205","Charlotte","NC","Compare Foods","5610 E. Independence Blvd.","28212",35.18273162841797,-80.75720977783203
"28205","Charlotte","NC","Central Oriental","2920 Central Ave","28205",35.217751616428615,-80.79451443676031
"28205","Charlotte","NC","Compare Foods","3122 Eastway Dr","28205",35.213199615478516,-80.78302764892578
"28205","Charlotte","NC","Lucky Oriental","3201 N Sharon Amity Rd","28205",35.203948974609375,-80.76049041748047
"28205","Charlotte","NC","La Unica Supermercado","not_available","28212",35.186998,-80.757482
"28206","Charlotte","NC","Compare Foods","N. Tryon","28205",35.257738486833006,-80.79365434150682
"28206","Charlotte","NC","Paso's Supermarket","1401 Oaklawn Ave","28206",35.247328,-80.843941
"28206","Charlotte","NC","New Century Grocery & Food","4500 N Tryon St","28213",35.25710666394626,-80.79186941079568
"28206","Charlotte","NC","Afriyie Central Market","4108 N Tryon St Ste D","28206",35.256848,-80.796477
"28206","Charlotte","NC","Beny's Mart","2103 N Graham St, Charlotte, NC 28206","28206",35.249341680618464,-80.82859883523996
"28206","Charlotte","NC","Liberty Food Mart","not_available","28213",35.267922999999996,-80.79423
"28206","Charlotte","NC","KP Express Mart","2634 Statesville Ave","28206",35.256465000000006,-80.835497
"28206","Charlotte","NC","Wayne's Super Market","2050 N Graham St","28206",35.246663,-80.82950500000001
"28206","Charlotte","NC","International Supermarket","4520 N Tryon St","28213",35.25596848841502,-80.79184203499007
"28206","Charlotte","NC","Red Ball Grocery","not_available","28206",35.253438,-80.825898
"28207","Charlotte","NC","Harris Teeter","1015 Providence Rd","28207",35.19576114570855,-80.82659833601195
"28208","Charlotte","NC","Walmart Supercenter","3240 Wilkinson Blvd","28208",35.22651944849465,-80.89431811993956
"28208","Charlotte","NC","Harvey's Supermarket","1620 Ashley Rd","28208",35.240012,-80.898051
"28208","Charlotte","NC","Jp Food To Go","not_available","28214",35.24298064463241,-80.93798056182167
"28208","Charlotte","NC","Sardy's Convenience Store","2311 West Blvd","28208",35.211141999999995,-80.90008399999999
"28208","Charlotte","NC","ALDI Grocery Delivery","2526 Freedom Dr","28208",35.23704171096354,-80.88029428282073
"28208","Charlotte","NC","Thomasboro Grocery","235 Bradford Dr","28208",35.259557,-80.897643
"28209","Charlotte","NC","Harris Teeter","5030 Park Rd.","28209",35.16131594352974,-80.84941246560068
"28209","Charlotte","NC","Aldi","5550 Old Pineville Rd","28217",35.16443281871088,-80.87879553437233
"28209","Charlotte","NC","Harris Teeter","4101 Park Rd","28209",35.17547256768015,-80.85020924872447
"28209","Charlotte","NC","Los Reyes Supermarket","5934 South Blvd","not_available",35.153484999999996,-80.876746
"28209","Charlotte","NC","Payal Indian Grocery","6233 South Blvd","28217",35.151106,-80.87531800000001
"28209","Charlotte","NC","Mas X Menos","4805 South Blvd","28217",35.173432,-80.875412
"28210","Charlotte","NC","Harris Teeter","8538 Park Rd","28210",35.11640731841453,-80.85787252164451
"28210","Charlotte","NC","Harris Teeter","6701 Morrison Blvd","28211",35.152948303403385,-80.82543981727373
"28210","Charlotte","NC","Walmart Neighborhood Market","8322 Pineville Matthews Rd","28226",35.09002199225414,-80.8594430469129
"28210","Charlotte","NC","Whole Foods Market","6610 Fairview Rd","28210",35.14751261963071,-80.83007642282878
"28210","Charlotte","NC","Harris Teeter","4100 Carmel Rd","28226",35.11690981839916,-80.82432164729696
"28210","Charlotte","NC","Compare Supermarket","818 E Arrowood Rd","28217",35.13613705019232,-80.87827560225426
"28210","Charlotte","NC","Supermercado El Rey","6300 South Blvd","28217",35.1495223456068,-80.87675018656186
"28210","Charlotte","NC","Earth Fare","721 Governor Morrison St Ste 110","28211",35.15720717831052,-80.82429140527398
"28210","Charlotte","NC","SAM&apos;S MART # 24","7833 South Blvd","28273",35.128269,-80.87625
"28210","Charlotte","NC","Atlantic Supermarket","6407 South Blvd","not_available",35.14709942502359,-80.87597748464044
"28211","Charlotte","NC","Publix-Cotswold","4425 Randolph Rd","28211",35.17756149072566,-80.79964803536208
"28211","Charlotte","NC","The Fresh Market","4207 Providence Rd","28211",35.156504,-80.794822
"28211","Charlotte","NC","A & S Natural Health","7816 Fairview Rd","28226",35.14692,-80.808615
"28211","Charlotte","NC","Royal Mart","Jenkins Dr.","28212",35.2040497228905,-80.74403897846649
"28212","Charlotte","NC","Walmart Neighborhood Market","8800 East W T Harris Blvd","28227",35.20068790875801,-80.7269736100024
"28212","Charlotte","NC","Aldi","6454 Albemarle Rd","28212",35.201279028289676,-80.73444977402687
"28212","Charlotte","NC","Harvey's Supermarket","6320 Albemarle Rd","28212",35.20203118349196,-80.73773520277585
"28213","Charlotte","NC","Walmart Supercenter","7735 N Tryon St","28262",35.29528121721206,-80.75812683890648
"28213","Charlotte","NC","Harris Teeter","8600 University City Blvd","28213",35.29655259230032,-80.73855870490866
"28213","Charlotte","NC","Patel Brothers","8109 University City Blvd","28213",35.29487152674695,-80.75089671124172
"28213","Charlotte","NC","Antojitos La Espiga","5025 N Tryon St Ste 104","28213",35.2586369,-80.782037
"28215","Charlotte","NC","Walmart","9101 Albemarle Rd","28227",35.21306615140867,-80.68855350749527
"28215","Charlotte","NC","Compare Foods","3116 Milton Rd","28215",35.23587283933045,-80.73725624374393
"28216","Charlotte","NC","Just Save","5300 Sunset Rd","28269",35.306554,-80.8408062
"28216","Charlotte","NC","ALDI","4120 Sunset Rd","28216",35.3040889,-80.8592161
"28217","Charlotte","NC","Publix","8120 S Tryon St","28273",35.145819288264185,-80.92963795622668
"28217","Charlotte","NC","Compare Food Express","201 W Arrowood Rd","28217",35.13442121650679,-80.89309945456833
"28217","Charlotte","NC","Walmart Grocery Pickup and Delivery","8180 S Tryon St","28273",35.146574,-80.934057
"28217","Charlotte","NC","Atlantic supermarket","South Blvd","not_available",35.16244639707994,-80.89638403226357
"28217","Charlotte","NC","Atlantic International Supermarket","not_available","28217",35.178573495057954,-80.89263484877678
"28217","Charlotte","NC","Kim Anh Oriental Grocery & Gifts","3615 Whitehall Park Dr","28273",35.152413,-80.951136
"28226","Charlotte","NC","Trader Joe's","6418 Rea Rd","28277",35.078522279864885,-80.81764172501417
"28226","Charlotte","NC","Walmart","3209 Pineville Matthews Rd","28226",35.097298517473895,-80.78212951686344
"28226","Charlotte","NC","Harris Teeter","7852 Rea Rd","28277",35.06034247547205,-80.81639543429412
"28226","Charlotte","NC","Harris Teeter","3333 Pineville-Matthews Rd","28226",35.09669231250155,-80.78486600507902
"28226","Charlotte","NC","The Fresh Market","7625 Pineville-Matthews Rd","28226",35.086529,-80.848564
"28226","Charlotte","NC","Harris Teeter","7823 Colony Road","28226",35.1063522334379,-80.80673197614864
"28226","Charlotte","NC","Earth Fare","12235 N Community House Rd","28277",35.06918176290871,-80.84113561488812
"28262","Charlotte","NC","Harris Teeter","2720 West Mallard Creek Church Rd","28262",35.341295831132335,-80.76522630664311
"28262","Charlotte","NC","Save A Lot","2800 W Sugar Creek Rd","28262",35.301801,-80.801188
"28262","Charlotte","NC","Cochran Commons","2700-2800 W Mallard Creek Church Rd","28262",35.3411944,-80.7653714
"28262","Charlotte","NC","Bharat Bazaar","3509 David Cox Rd Ste M","28269",35.3338623046875,-80.79217529296875
"28262","Charlotte","NC","Yogi Indian Food And Spice","not_available","28262",35.31651446255437,-80.74026102682524
"28269","Charlotte","NC","Harris Teeter","8445 Davis Lake Pkwy","28269",35.33422892100655,-80.81409263743313
"28273","Charlotte","NC","Harris-Teeter #3","4821 Berewick Town Center Dr","28278",35.16063076544849,-80.9727975964271
"28273","Charlotte","NC","Publix","12810 S Tryon St","28273",35.10485853855583,-80.98779367477658
"28273","Charlotte","NC","Harris Teeter","13000 South Tryon St","28278",35.10319400699507,-80.99040565859859
"28273","Charlotte","NC","Aldi","10710 S Tryon St","28273",35.11986266084702,-80.95604023556007
"28273","Charlotte","NC","Berewick Town Center","not_available","28278",35.160914,-80.973204
"28273","Charlotte","NC","Earth Fare","14124 Steele Creek Rd","28273",35.101680608789444,-80.99183839355123
"28273","Charlotte","NC","Bi-Lo","12810 S Tryon St (Hwy 49)","28273",35.104480086897915,-80.98759958824552
"28277","Charlotte","NC","Harris Teeter","15007 John J. Delaney Dr","28277",35.05318343424042,-80.84867001789884
"28277","Charlotte","NC","Walmart Supercenter","10048 Charlotte Hwy","29707",35.01098542686391,-80.84956539352105
"28277","Charlotte","NC","Publix at Ballantyne Town Center","11222 Providence Road West","28277",35.04269277161482,-80.8491368849788
"28277","Charlotte","NC","Harris Teeter","9720 Rea Rd","28277",35.036405011279,-80.80651742684182
"28277","Charlotte","NC","Lidl","9990 Charlotte Hwy","29707",35.00919145333518,-80.85238489877132
"28277","Charlotte","NC","Sprouts Farmers Market","15121 Ballancroft Pkwy, Ste A","28277",35.04027455299019,-80.84682762622833
"28277","Charlotte","NC","Sushi Counter","11222 Providence Rd W","not_available",35.042605,-80.84959599999999
"28277","Charlotte","NC","Camfield Corners","not_available","28277",35.05328164392245,-80.8151169380491
"28278","Charlotte","NC","Walmart Supercenter","1151 Stonecrest Blvd","29708",35.046651925879374,-80.9936227442773
"28278","Charlotte","NC","Publix","928 Gold Hill Rd","29708",35.06252466652839,-80.96410526195932
"28278","Charlotte","NC","Harris Teeter","867 Stockbridge Dr","29708",35.06180858610754,-80.99435502098049
"28278","Charlotte","NC","Aldi","3665 Vandora Springs Rd","29708",35.05200503677222,-80.99128067493433
"28278","Charlotte","NC","Food Lion","825 Crossroads Plz","29708",35.05919647216797,-80.9906005859375
"28278","Charlotte","NC","A&S Natural Health","1741 Gold Hill Rd","29708",35.06010055541992,-80.99299621582031
"28301","Fayetteville","NC","Harris Teeter","2800 Raeford Rd","28303",35.046901321149896,-78.92308533427266
"28301","Fayetteville","NC","Save-A-Lot","3447 Ramsey St","28311",35.106754302978516,-78.87998962402344
"28301","Fayetteville","NC","Healthwise Natural Foods","3620 Ramsey St","28311",35.10876618552086,-78.87752593324464
"28301","Fayetteville","NC","Village Mart","not_available","28303",35.043288,-78.922917
"28301","Fayetteville","NC","Carlie C's IGA","2738 Bragg Blvd","28303",35.07383424214065,-78.92567198640131
"28301","Fayetteville","NC","V Point","447 Murchison Rd","28301",35.062188,-78.888008
"28301","Fayetteville","NC","Walmart Neighborhood Market","3421 Murchison Rd","28311",35.0984001159668,-78.91832733154297
"28301","Fayetteville","NC","Apple Crate Natural Market Raeford","2711 Raeford Rd","28303",35.045275125814925,-78.9228100529857
"28303","Fayetteville","NC","The Fresh Market","230 Glensford Dr,","28314",35.065768567228204,-78.96231382856314
"28303","Fayetteville","NC","Publix","Raeford Rd","28303",35.04647841166768,-78.93122666229587
"28303","Fayetteville","NC","Walmart Neighborhood Market","970 Strickland Bridge Road","28304",35.04010056642897,-78.99888898929045
"28303","Fayetteville","NC","Walmart Supercenter","1550 Skibo Rd","28303",35.08164098615431,-78.95665675206227
"28303","Fayetteville","NC","Sprouts Farmers Market","2810 Freedom Parkway Dr","28314",35.0575341,-78.9699011
"28303","Fayetteville","NC","ALDI","4920 Raeford Rd","28304",35.043575319223876,-78.95941189150108
"28303","Fayetteville","NC","Super Compare Foods","155 Bonanza Dr","28303",35.080563660100246,-78.98995367251091
"28303","Fayetteville","NC","Fort Bragg South Commissary","1017 Canopy Ln","28310",35.103306074371204,-79.0142347299899
"28303","Fayetteville","NC","Charlie C's Iga","700 S Reilly Rd","28314",35.06372183203065,-79.01616695099554
"28303","Fayetteville","NC","Sun Asian Super Market","404 Santa Fe Dr","28303",35.090094243705046,-78.98163908216416
"28303","Fayetteville","NC","Walmart Grocery Pickup","901 S 401 Bypass Hwy","28352",35.0443394,-78.976245
"28303","Fayetteville","NC","Mediterranean Mart","5924 Cliffdale Rd","28314",35.059810999999996,-78.971531
"28303","Fayetteville","NC","Kim Chi Chib Asian Market","194 Starpoint Dr","28303",35.08778188945289,-79.00894629988152
"28303","Fayetteville","NC","Youn Oriental Food Store","205 Hope Mills Rd","28304",35.041207,-78.960668
"28303","Fayetteville","NC","Aldi's","not_available","28314",35.04737394948319,-78.93488744995891
"28303","Fayetteville","NC","Carolina Grown, Fayetteville, NC","221 Tallywood Shopping Ctr","28303",35.046268463134766,-78.93243408203125
"28304","Fayetteville","NC","Walmart Supercenter","7701 S Raeford Rd","28304",35.02550168,-79.05332474
"28304","Fayetteville","NC","Walmart Supercenter","2820 Gillespie St.","28306",35.00292758224402,-78.903408259842
"28304","Fayetteville","NC","ALDI","7640 S Raeford Rd","28304",35.0283038,-79.0509961
"28304","Fayetteville","NC","Carlie C's IGA","1790 Owen Dr","28304",35.02891551421112,-78.93091530949042
"28304","Fayetteville","NC","Grocery Store","not_available","28304",35.014736,-78.977165
"28304","Fayetteville","NC","Pan's Thai Market","817 Hope Mills Rd","28304",35.03454,-78.96045600000001
"28306","Fayetteville","NC","Walmart Supercenter","3030 N Main St","28348",34.98063471475543,-78.9646484652241
"28306","Fayetteville","NC","Harris Teeter","3050 Traemoor Village Dr","28306",34.98257499192109,-79.01399234416427
"28306","Fayetteville","NC","Walmart Neighborhood Market","4220 Legion Road","28348",34.98311799000701,-78.93231629783934
"28306","Fayetteville","NC","Carlie C's IGA","3501 N Main St","28348",34.97632811471723,-78.95030624503579
"28306","Fayetteville","NC","Apple Crate Natural Market Camden Rd.","5430 Camden Road Ste 103","28306",34.9862784012354,-78.9641163491473
"28306","Fayetteville","NC","Kinlaw Supermarket","1802 Sapona Rd","28312",35.03906799685436,-78.84442287687577
"28307","Fort Bragg","NC","Airborne PX","Ardens St","28310",35.13211235889117,-79.02541062444814
"28307","Fort Bragg","NC","Walmart Supercenter","670 Lillington Hwy","28390",35.17437388746299,-78.96626661013083
"28307","Fort Bragg","NC","Shoppette","4401 Reilly St.","28307",35.124129034414665,-78.99440525677316
"28307","Fort Bragg","NC","Fort Bragg North Commissary","3571 Butner Rd","28307-5000",35.15751881882855,-78.97414946787147
"28307","Fort Bragg","NC","Meat Dept","not_available","28307",35.157273,-78.973969
"28307","Fort Bragg","NC","Aunt's Oriental Grocery","102 Yadkin Road","28303",35.14043177048993,-79.0079148467638
"28311","Fayetteville","NC","Walmart Supercenter","4601 Ramsey St","28311",35.12384725460827,-78.88274025585686
"28311","Fayetteville","NC","Sun Asian Supermarket","not_available","28311",35.1271698,-78.8775959
"28311","Fayetteville","NC","ALDI","5201 Ramsey St","28311",35.13096952685524,-78.87893781065941
"28312","Fayetteville","NC","Carroll's IGA","7431 Clinton Rd","28391",35.0144330803711,-78.69421723368389
"28312","Fayetteville","NC","Strickland's Grocery","7030 Maxwell Rd","28391",35.06212724579141,-78.6967946818204
"28312","Fayetteville","NC","Gavin's IGA","3745 Dunn Rd","28312",35.09632570791452,-78.78460945110267
"28314","Fayetteville","NC","Walmart Neighborhood Market","8660 Cliffdale Road","28314",35.05458819100114,-79.0641166334761
"28315","Aberdeen","NC","Lowes Foods","1740 Old Morganton Rd","not_available",35.17398894610874,-79.41883713179433
"28315","Aberdeen","NC","Walmart Supercenter","250 Turner St","28315",35.16000576150288,-79.42417432140405
"28315","Aberdeen","NC","ALDI","1500 N Sandhills Blvd","28315",35.151698618639166,-79.41646679087062
"28315","Aberdeen","NC","Harris Teeter","11109 US 15-501 HWY","28315",35.1560461526027,-79.41668404000312
"28315","Aberdeen","NC","The Fresh Market","155 Beverly Ln,","28387",35.17728280572313,-79.42893334482297
"28315","Aberdeen","NC","Rosita's Tortillas","1317 N Sandhills Blvd","28315",35.149758,-79.42093
"28315","Aberdeen","NC","IGA Fresh Foods","750 SW Broad St","28387",35.169129,-79.400958
"28315","Aberdeen","NC","foodlion","not_available","28315",35.16330833270397,-79.47231382569316
"28315","Aberdeen","NC","VALENTUS BY TERESA","298 Porlock Way","28376",35.02421951293945,-79.32637786865234
"28315","Aberdeen","NC","Food Lion","Us1","not_available",35.15125720097288,-79.43285988552805
"28320","Bladenboro","NC","Bo's Food Store","Village Street","28320",34.5431457450098,-78.79824568681576
"28320","Bladenboro","NC","Inmans IGA","Hwy 410 & 120 3rd St.","28332",34.65729904174805,-78.72734069824219
"28326","Cameron","NC","Walmart Supercenter","2800 Nc Highway 24-87","28326",35.24453,-79.02337
"28326","Cameron","NC","Piggly Wiggly","3373 US 1 Hwy","28394",35.25817904970373,-79.28079764229278
"28326","Cameron","NC","Mt Pleasant Groceries","4584 Lobelia Rd","28394",35.198826000000004,-79.163825
"28327","Carthage","NC","Harris Teeter","400 Mill Creek Rd","28327",35.22682244068051,-79.39620616409964
"28328","Clinton","NC","Walmart Supercenter","1415 Sunset Ave","28328",34.988513750139255,-78.35208373874137
"28328","Clinton","NC","Piggly Wiggly","1111 Sunset Ave","28328",34.992061614990234,-78.34123229980469
"28328","Clinton","NC","Piggly Wiggly","332 Northeast Blvd","28328",35.009549,-78.316874
"28334","Dunn","NC","Walmart Supercenter","590 E Jackson Blvd","28339",35.32162427,-78.64786627
"28337","Elizabethtown","NC","Walmart","1347 W Broad St","28337",34.631049719653014,-78.61978772343161
"28337","Elizabethtown","NC","Goldston's Red and White","not_available","28337",34.635682315747566,-78.48465955121088
"28337","Elizabethtown","NC","Piggly Wiggly","Hwy 701","not_available",34.78554375,-78.3949612
"28337","Elizabethtown","NC","Fresh Foods IGA","302 S Poplar Street","28337",34.6263015,-78.6085734
"28337","Elizabethtown","NC","Goldston's Red and White","1589 Lake Rd.","28337",34.630524228125,-78.50182056427002
"28338","Ellerbe","NC","Food King","not_available","28338",35.0693811156768,-79.76148958911448
"28341","Faison","NC","Piggly Wiggly","N Breazeale Ave","28365",35.203281,-78.065991
"28341","Faison","NC","Piggly Wiggly","not_available","28341",35.114665,-78.137026
"28345","Hamlet","NC","Food Lion Grocery Store","2124 Fayetteville Rd Ste B","28379",34.94947485093858,-79.74337949241941
"28345","Hamlet","NC","Walmart Supercenter","720 E Us Highway 74","28379",34.91362823115098,-79.73880724666897
"28345","Hamlet","NC","Food King","305 E Washington St","28379",34.939910999999995,-79.771897
"28345","Hamlet","NC","Merita","not_available","28379",34.913177,-79.731286
"28345","Hamlet","NC","Mill Rd. Grocery","500 Mill Rd","28379",34.912741,-79.75433199999999
"28345","Hamlet","NC","Save-A-Lot","1305 E Broad Ave","28379",34.921756744384766,-79.74714660644531
"28345","Hamlet","NC","ALDI","Hwy. 74 East","28379",34.91660711004995,-79.73399841869121
"28345","Hamlet","NC","Piggly Wiggly","105 W Hamlet Ave","28345",34.88700485229492,-79.69776916503906
"28349","Kenansville","NC","Jacksons IGA","304 S Main St.","28349",34.961769104003906,-77.96436309814453
"28352","Laurinburg","NC","Walmart Supercenter","901 Us Highway 401 S","28352",34.76205953381291,-79.48366172890073
"28352","Laurinburg","NC","Big Lots","1664 S Main St Ste B","28352",34.75313287832836,-79.4752630100021
"28352","Laurinburg","NC","Save A Lot","900 S 401 Bypass Hwy","28352",34.7635762,-79.4794408
"28352","Laurinburg","NC","Carlie C's","1688 S Main St","28352",34.75273,-79.477486
"28352","Laurinburg","NC","H.H. Drive In and Catering Inc.","201 W Martin Luther King Jr.","28364",34.73634,-79.35149
"28352","Laurinburg","NC","Piggly Wiggly","104 S Patterson St","28364",34.73559,-79.350421
"28352","Laurinburg","NC","Save-A-Lot","900 US Hwy 401 S","28352",34.76364899,-79.47986603
"28352","Laurinburg","NC","Wylies IGA","not_available","29570",34.66718822829601,-79.55298736864547
"28352","Laurinburg","NC","Save-A-Lot","1681 S Main St","28352",34.752657,-79.476141
"28352","Laurinburg","NC","Piggly Wiggly","229 E Church St","28352",34.772746999999995,-79.460953
"28356","Linden","NC","Three-D Trading Post","10461 Ramsey St","28356",35.254925,-78.791154
"28358","Lumberton","NC","Walmart Supercenter","5070 Fayetteville Rd","28358",34.66435515,-79.00565704
"28358","Lumberton","NC","Bos","Pine Street","28358",34.62413,-79.003734
"28358","Lumberton","NC","Walmart Neighborhood Market","2503 West 5th Street","28358",34.62465286254883,-79.04255676269531
"28358","Lumberton","NC","Stocks Food Store","1010 E 2nd St","28358",34.61721,-78.995587
"28358","Lumberton","NC","Big Lots","2750C N Roberts Ave","28358",34.646272481330286,-79.01015084414558
"28358","Lumberton","NC","Save-A-Lot","4301 Fayetteville Rd","28358",34.650849,-78.998226
"28358","Lumberton","NC","Merita Bread Outlet","not_available","28358",34.616912154604584,-78.98943127766702
"28358","Lumberton","NC","Walmart Neighborhood Market","2985 E Elizabethtown Rd","28358",34.635807037353516,-78.98358917236328
"28358","Lumberton","NC","Aldi","3725 Fayetteville Rd","28358",34.64399252921475,-78.99885267019272
"28358","Lumberton","NC","Fresh Foods IGA","1733 Roberts Avenue","28358",34.6305872,-78.9930304
"28358","Lumberton","NC","Sav-A-Lot","Fayeteville Rd","28358",34.65076328543539,-78.99837538273182
"28358","Lumberton","NC","Lowes Foods","5021 Fayetteville Rd","28358",34.667716852228025,-79.0010837520468
"28358","Lumberton","NC","Bo's Food Store","1765 N Roberts Ave","28358",34.63029098510742,-78.9922103881836
"28360","Lumberton","NC","Walmart Supercenter","930 Highway 711 East","28372",34.67045394538699,-79.18318777592411
"28360","Lumberton","NC","Trinity Frozen Foods, LLC","6064 Deep Branch Road","28372",34.64782539999999,-79.174583
"28365","Mount Olive","NC","Walmart Supercenter","308 Nc Highway 55 W","28365",35.211025136805425,-78.07130244077604
"28365","Mount Olive","NC","Walmart Grocery Pickup","308 NC Highway 55 W","28365",35.2105947,-78.0717899
"28372","Pembroke","NC","natural choices health food store","not_available","28372",34.67404630079985,-79.1869180515936
"28372","Pembroke","NC","Bo's Food Store","506 Union Chapel Rd","not_available",34.684721,-79.18773
"28372","Pembroke","NC","Piggly Wiggly","300 3rd Street","28372",34.675594329833984,-79.1900634765625
"28376","Raeford","NC","Walmart Supercenter","4545 Fayetteville Rd","28376",35.0094686574442,-79.175234505693
"28376","Raeford","NC","Hardin's Food Store","7600 Philippi Church Rd","28376",34.99231136249071,-79.06509865788658
"28376","Raeford","NC","Heritage Village Shoppette","Nathaniel Green, Bldg #302","not_available",34.99213,-79.153882
"28376","Raeford","NC","Fresh Foods IGA","302 S Poplar Street","28376",34.9809995,-79.2241997
"28376","Raeford","NC","Bo's Food Store","240 S Main St","28376",34.976484,-79.224864
"28376","Raeford","NC","Bo's Food Store","not_available","28376",34.993770599365234,-79.21920776367188
"28377","Red Springs","NC","Piggly Wiggly","210 E 4th Ave","28377",34.814281,-79.181263
"28382","Roseboro","NC","Piggly Wiggly","315 Hwy 24","28382",34.95518148429038,-78.50697040557861
"28384","Saint Pauls","NC","Piggly Wiggly","326 S 5th St","28384",34.80422592163086,-78.9783706665039
"28384","Saint Pauls","NC","Walmart Neighborhood Market","120 S Odom Street","28384",34.80765475482675,-78.98682832717896
"28384","Saint Pauls","NC","Bo's Food Stores","406 E Broad St","28384",34.80567415331671,-78.96709851582149
"28390","Spring Lake","NC","Super Compare Foods","not_available","28390",35.18189,-78.984604
"28398","Warsaw","NC","Piggly Wiggly","107 S Pine St","28398",34.99928103089014,-78.0912689416114
"28401","Wilmington","NC","Walmart Supercenter","1112 New Pointe Blvd","28451",34.21050924006998,-78.02332636892163
"28401","Wilmington","NC","Harris Teeter","2021 Old Regent Way","28451",34.219286495812675,-78.01899496206852
"28401","Wilmington","NC","Navassa Mini Mart","not_available","28451",34.252122,-77.99903
"28401","Wilmington","NC","Everybody's Supermarket","1022 Greenfield St, Wilmington, NC 28401","28401",34.217041015625,-77.9345703125
"28401","Wilmington","NC","Farmin' On Front","143 N Front St","28401",34.237742,-77.94958299999999
"28401","Wilmington","NC","Piggly Wiggly","112 Village Rd NE","28451",34.23477053285434,-77.99722002275195
"28401","Wilmington","NC","M and M Mini Mart - Ann Market","702 Ann St","28401",34.232112884521484,-77.94004821777344
"28401","Wilmington","NC","Front Street Grocery","20 S Front St","28401",34.23463439941406,-77.94886016845703
"28401","Wilmington","NC","ALDI","9410 Ploof Rd SE","28451",34.21507156242681,-78.01871180534363
"28403","Wilmington","NC","Lowes Foods","341 S College Rd","28403",34.23437572554896,-77.87210125643882
"28403","Wilmington","NC","Harris Teeter","1940 Eastwood Rd","28403",34.221233403768444,-77.8220720806519
"28403","Wilmington","NC","Trader Joe's","1437 S College Rd","28403",34.210710532627424,-77.88590418767293
"28403","Wilmington","NC","Walmart Supercenter","5226 Sigmon Rd","28403",34.24228597999461,-77.87439639540835
"28403","Wilmington","NC","Harris Teeter","6805 Parker Farm Rd","28405",34.23615251580751,-77.830912413286
"28403","Wilmington","NC","Harris Teeter","820 S College Rd","28403",34.21993643273723,-77.88554378089644
"28403","Wilmington","NC","Harris Teeter","3501 Oleander Drive #18","28403",34.216693073630765,-77.90290099407797
"28403","Wilmington","NC","The Fresh Market","1060 International Dr,","28405",34.239741387240215,-77.82980763281668
"28403","Wilmington","NC","Harris Teeter","2800 S College Rd","28412",34.19673244257204,-77.88999095199216
"28403","Wilmington","NC","Whole Foods Market","3804 Oleander Drive","28403",34.21402783621871,-77.90105355743013
"28403","Wilmington","NC","Saigon Market","831 S Kerr Ave","28403",34.22175598144531,-77.88542175292969
"28403","Wilmington","NC","Lowes Foods","805 Pine Grove Dr","28409",34.20010124684194,-77.87104459451467
"28403","Wilmington","NC","Saigon Market Oriental Grocery","4507 Franklin Ave","28403",34.23879069646441,-77.88857933090436
"28403","Wilmington","NC","Los Portales","912 S Kerr Ave","28403",34.218671,-77.887637
"28403","Wilmington","NC","Earth Fare","943 Military Cutoff Rd","28405",34.244212326037335,-77.82680846116068
"28403","Wilmington","NC","La Huerta","830 S Kerr Ave","28403",34.22093428,-77.88669347763062
"28403","Wilmington","NC","Surfside Express Delivery","2002 Eastwood Rd Ste 106B","28403",34.22168079622706,-77.82035487298162
"28403","Wilmington","NC","Grand Asia Matket","not_available","28403",34.22941,-77.878739
"28403","Wilmington","NC","Reserve food mart","3114 Market St","28403",34.239670000000004,-77.904775
"28403","Wilmington","NC","Asian Life Market","4302 Market St","28403",34.241599,-77.89114000000001
"28405","Wilmington","NC","Walmart Supercenter","8035 Market Street","28411",34.295761993437395,-77.7983536069616
"28405","Wilmington","NC","Harris Teeter","8260 Market St","28411",34.29826203624033,-77.79036521448073
"28405","Wilmington","NC","Lowes Foods","2316 N College Rd","28405",34.28914074110227,-77.8697251719109
"28405","Wilmington","NC","ALDI","7954 Market St","28411",34.2898063659668,-77.80025482177734
"28405","Wilmington","NC","Aldi","Market St","28411",34.285144,-77.806749
"28409","Wilmington","NC","Lowes Foods","5309 Carolina Beach Rd","28412",34.142283742849784,-77.89393474897041
"28409","Wilmington","NC","Walmart Supercenter","5135 Carolina Beach Rd","28412",34.14627761744276,-77.89720151575439
"28409","Wilmington","NC","ALDI","3701 S College Rd","28412",34.1749818,-77.8904039
"28411","Wilmington","NC","Foodlion","200 Military Cutoff Rd, Wilmington, NC 28405","28405",34.33601387797268,-77.86404819357352
"28412","Wilmington","NC","Harris Teeter","5920 Carolina Beach Rd","28412",34.124796185373654,-77.90204803001058
"28420","Ash","NC","Walmart Supercenter","4540 Main St. B 3079","28470",33.983072494166535,-78.3736497207838
"28420","Ash","NC","Randy's Meat Center","5850 Ocean Hwy.","not_available",33.95341382637503,-78.45974760623606
"28420","Ash","NC","Lowes Foods","5051 Main St","28470",33.96624745009428,-78.39255997617619
"28420","Ash","NC","Hills","not_available","28470",33.96826720453276,-78.39080253461033
"28423","Bolton","NC","Piggly Wiggly","Riegelwood Shpg Cntr-Hwy 87 N","28456",34.375164,-78.281783
"28425","Burgaw","NC","Walmart Supercenter","908 Nc Highway 53 East","28425",34.563018798828125,-77.9179458618164
"28425","Burgaw","NC","Piggly Wiggly","103 S Dudley St","28425",34.550423937161284,-77.92893851271005
"28428","Carolina Beach","NC","Publix","not_available","28428",34.044108,-77.895576
"28428","Carolina Beach","NC","Sea Merchants","257 Cape Fear Blvd","28428",34.034083031361305,-77.89585109765864
"28428","Carolina Beach","NC","Carolina Beach Mini Mart","901 Carolina Beach Ave N","28428",34.0449104309082,-77.88799285888672
"28429","Castle Hayne","NC","Fresh Foods IGA","5601 Castle Hayne Rd","28429",34.35323,-77.901348
"28431","Chadbourn","NC","Piggly Wiggly","Strawberry Blvd","28431",34.33159064490896,-78.82503318288761
"28432","Clarendon","NC","Tabor City IGA","7 Live Oak Dr.","28463",34.15319263606951,-78.86556993967294
"28435","Currie","NC","Piggly Wiggly","not_available","28456",34.33983961127104,-78.22486925571297
"28443","Hampstead","NC","Publix Grocery Store","not_available","28445",34.450446,-77.564277
"28443","Hampstead","NC","IGA Surf City","106 S. Topsail Dr","28445",34.426055642065855,-77.54582400378806
"28443","Hampstead","NC","Harris Teeter","203 Alston Blvd","28443",34.45117541369566,-77.60499852371842
"28443","Hampstead","NC","Walmart Neighborhood Market","420 Fun Center Dr","28443",34.44811559761724,-77.56441861702099
"28443","Hampstead","NC","Lowes Foods","17230 US Highway 17 N","28443",34.39241042877416,-77.6779033136782
"28443","Hampstead","NC","Hilltop Grocery & Service Station","21170 US Highway 17 N","28443",34.43423136832437,-77.63139826148797
"28443","Hampstead","NC","Walmart Grocery Pickup","420 Fun Center Drive","28443",34.4479044,-77.5642704
"28445","Holly Ridge","NC","Friendly Mart","1707 N New River Dr","28445",34.44266128540039,-77.51895904541016
"28451","Leland","NC","Lowes Foods","1152 E Cutlar Crossing","28451",34.20152278884002,-78.04730147515485
"28458","Rose Hill","NC","Walmart Supercenter","5625 S Nc 41 Hwy","28466",34.73975098,-77.96968527
"28460","Sneads Ferry","NC","Food Lion","rt 50","28445",34.530086570864285,-77.38621357195147
"28461","Southport","NC","Maritime Market","8 Maritime Way","28461",33.85888146750822,-77.98404028327124
"28461","Southport","NC","Walmart Supercenter","1675 N Howe St","28461",33.94305420072348,-78.03211272023434
"28461","Southport","NC","Lowes Foods Southport","5011 Southport Crossing Way","not_available",33.9556543,-78.0507658
"28461","Southport","NC","Lowes Foods","5011 Southport Crossing Way","28461",33.972660064697266,-78.05611419677734
"28461","Southport","NC","Lowes Foods","4961 Long Beach Rd SE","28461",33.951902108712076,-78.04925737146647
"28462","Supply","NC","Holden Beach General Store","483-485 Ocean Blvd W","28462",33.91117215781132,-78.29910513452698
"28463","Tabor City","NC","Loris IGA","3030 Broad Street","29569",34.05055821730385,-78.89516426520234
"28463","Tabor City","NC","Mount Vernon Farm Market & The Nut House","4008 Highway 366","29569",33.947343,-78.867428
"28463","Tabor City","NC","Publics","Coney Drive","29568",33.98418045043945,-78.7419662475586
"28467","Calabash","NC","Lowes Foods","111 Pavilion Dr","29566",33.89085019798947,-78.59196049068143
"28467","Calabash","NC","Lowe's Food Of Little River","not_available","29566",33.89115,-78.5917
"28469","Ocean Isle Beach","NC","Publix","not_available","28469",33.9042434422197,-78.43881075502752
"28472","Whiteville","NC","Walmart Supercenter","200 Columbus Corners Dr","28472",34.3026974,-78.72413029
"28472","Whiteville","NC","Whiteville IGA","not_available","28472",34.337789,-78.690851
"28472","Whiteville","NC","Big Lots","28 Whites Crossing Ln","28472",34.30446370609786,-78.7207717668648
"28480","Wrightsville Beach","NC","Robert's Grocery","32 Lumina Ave N","28480",34.2091327939937,-77.79497906204364
"28501","Kinston","NC","piggly wiggly","2407 N Herritage St","28501",35.286464091333144,-77.58865559033569
"28501","Kinston","NC","Piggly Wiggly","407 E New Bern Rd","28504",35.241190370331594,-77.57845376856824
"28501","Kinston","NC","Tropicana Supermarket","not_available","28530",35.372868,-77.440265
"28501","Kinston","NC","henderson's food center","not_available","28501",35.265734,-77.576197
"28501","Kinston","NC","piggly wiggly","mclewain st.","not_available",35.26696512297685,-77.57960872027955
"28501","Kinston","NC","Healthabit Natural Foods","601 N Queen St","28501",35.266518,-77.580718
"28501","Kinston","NC","Piggly Wiggly","6927 S Highland Blvd","28530",35.37274169921875,-77.44039154052734
"28504","Kinston","NC","Walmart Supercenter","4101 W Vernon Ave","28504",35.26445489,-77.64638906
"28504","Kinston","NC","Aldi","4120 W Vernon Ave","28504",35.26059649798167,-77.64512836933142
"28504","Kinston","NC","Piggly Wiggly","2240 US Hwy 258","28504",35.29663516348682,-77.64706876606421
"28504","Kinston","NC","Piggly Wiggly","2715 Hwy 11-55","28504",35.223768167067995,-77.64312333981408
"28504","Kinston","NC","Piggly Wiggly","2240 Hwy 258 N","28504",35.29722595214844,-77.64753723144531
"28504","Kinston","NC","Family Dollar","2046 Hwy 258 N","28504",35.29202733920086,-77.64675378799438
"28510","Arapahoe","NC","Belangia's Super Market","8434 NC Highway 306 S","28510",35.02085494995117,-76.82512664794922
"28510","Arapahoe","NC","Belangeo's","not_available","28510",35.0103645324707,-76.81842803955078
"28516","Beaufort","NC","Piggly Wiggly","1500 Live Oak St","28516",34.724611310249415,-76.64601912326867
"28516","Beaufort","NC","Piggly Wiggly","not_available","28571",35.03259,-76.692125
"28516","Beaufort","NC","Big Daddy Wesley's Grocery","317 Cedar St","28516",34.721140000000005,-76.66288399999999
"28516","Beaufort","NC","Coastal Community Market","606 Broad St","28516",34.7180410948372,-76.66137533067494
"28516","Beaufort","NC","Taylor's Creek Grocery","525 Front St","28516",34.716055,-76.663669
"28516","Beaufort","NC","G & R Grocery","not_available","28579",34.761461583209105,-76.5274028747026
"28516","Beaufort","NC","Town 'n Country","1100 Broad Street Ext","28571",35.03584289550781,-76.6912612915039
"28516","Beaufort","NC","Billy's","1016 Island Rd","28531",34.694390999999996,-76.558269
"28518","Beulaville","NC","Whaley's","906 E Main St","28518",34.921196,-77.76389300000001
"28518","Beulaville","NC","Jacksons IGA","614 W Main St.","28518",34.925278999999996,-77.77896
"28529","Grantsboro","NC","Piggly Wiggly","not_available","28529",35.13984439456612,-76.84411366676146
"28529","Grantsboro","NC","Walmart Supercenter","11233 B Nc 55 Hwy","28529",35.14123060929938,-76.83674812316895
"28532","Havelock","NC","Walmart Supercenter","566 Us Highway 70 W","28532",34.9141609984522,-76.93711570156849
"28532","Havelock","NC","Cherry Point MCAS Commissary","Roosevelt Blvd","28533-0033",34.89911395251656,-76.9084305937884
"28532","Havelock","NC","Food Lion","not_available","28532",34.8866526017134,-76.91581964492798
"28532","Havelock","NC","Foodlion","Hey 70","28532",34.859450216666666,-76.90477076666667
"28539","Hubert","NC","Walmart Supercenter","1109 W Corbett Ave","28584",34.699493,-77.14935
"28539","Hubert","NC","Walmart Grocery Pickup and Delivery","1109 W Corbett Avenue","28584",34.700962,-77.148645
"28539","Hubert","NC","Matsuya Oriental Market","1537 Freedom Way","28539",34.708800333364316,-77.27072551553526
"28539","Hubert","NC","Piggly Wiggly","715 W Corbett Ave","28584",34.69330410386668,-77.13191079487036
"28540","Jacksonville","NC","Walmart Supercenter","561 Yopp Rd","28540",34.75179327056133,-77.46407132989756
"28540","Jacksonville","NC","Walmart Supercenter","2025 N Marine Blvd","28546",34.77938525,-77.39274437
"28540","Jacksonville","NC","Publix Gateway Marketplace","2001 Marlin Dr","28546",34.79585,-77.40816
"28540","Jacksonville","NC","Walmart Neighborhood Market","4250 Western Boulevard","28546",34.800692989838296,-77.41542378633845
"28540","Jacksonville","NC","Lowes Foods of Jacksonville","2421 Gum Branch Rd","28540",34.8000851,-77.4415009
"28540","Jacksonville","NC","New River MCAS Commissary","PSC Box 21006 AS4055 Curtis Rd","28545",34.72298675111666,-77.45875105194867
"28540","Jacksonville","NC","ALDI","4150 Western Blvd","28546",34.7986702,-77.4129681
"28540","Jacksonville","NC","ALDI","2721 Richlands Hwy","28540",34.753929,-77.460732
"28540","Jacksonville","NC","Piggly Wiggly","2960 Richlands Hwy","28540",34.75605125275711,-77.46960646107475
"28540","Jacksonville","NC","Aldi","581 Yopp Road","28540",34.7545051574707,-77.46453857421875
"28540","Jacksonville","NC","Express Errands","2501 Onslow Dr","28540",34.763075,-77.418591
"28540","Jacksonville","NC","FOOD LION","2040 Maplehurst Rd.Ste13","28540",34.753875922039676,-77.43170844009532
"28540","Jacksonville","NC","Food Lion","not_available","28546",34.78452788867348,-77.39419622703672
"28540","Jacksonville","NC","Piggly Wiggly","1040 Henderson Drive","28540",34.77931001812564,-77.42310281100669
"28540","Jacksonville","NC","Food Lion","24","28540",34.79035871666667,-77.498147
"28540","Jacksonville","NC","New Bridge Organic Market","708 New Bridge St","28540",34.74949424591261,-77.42291577067508
"28544","Midway Park","NC","Rocky Run Stop ""Mart""","not_available","28544",34.74120171875563,-77.31907924751125
"28546","Jacksonville","NC","Oriental Market","211D Western Blvd","28546",34.75098,-77.38086640834808
"28547","Camp Lejeune","NC","Camp Lejeune MCB Commissary","1230 Holcomb Blvd","28547",34.67329781794092,-77.3389294136404
"28551","La Grange","NC","Piggly Wiggly","414 Kingold Blvd Ste C","28580",35.453481,-77.688933
"28551","La Grange","NC","Homepride","402 Kingold Blvd","28580",35.453599,-77.688074
"28551","La Grange","NC","Food Lion","108 Greenwood Sq","28580",35.43964385986328,-77.66385650634766
"28554","Maury","NC","Half and half grocery","not_available","28554",35.48102906193588,-77.58468686291653
"28557","Morehead City","NC","Harris Teeter","5000 US Hwy 70 Suite 100","28557",34.73601191434931,-76.79268256702035
"28557","Morehead City","NC","Walmart Supercenter","300 Nc Highway 24","28557",34.735189260767875,-76.81143032350288
"28557","Morehead City","NC","Lowes Foods","2900 Arendell St #2","28557",34.72677078992487,-76.73929883644877
"28560","New Bern","NC","Harris Teeter","3565 M L King Jr Blvd","28562",35.097137451171875,-77.10057067871094
"28560","New Bern","NC","Walmart Supercenter","3105 Dr M L King Jr Blvd","28562",35.10155670298325,-77.08666742708522
"28560","New Bern","NC","Harris Teeter","2032 Waterscape Way","28562",35.034128088272446,-77.01259584146464
"28560","New Bern","NC","Walmart Grocery Pickup and Delivery","3105 M L King Jr Blvd","28562",35.10092544555664,-77.0866470336914
"28560","New Bern","NC","Piggly Wiggly","1208 Simmons St","28560",35.11466056322708,-77.07387685775757
"28560","New Bern","NC","Walmart Grocery Pickup","2915 Neuse Blvd","28560",35.1258937119371,-77.0873577664023
"28560","New Bern","NC","ALDI","3550 M L King Jr Blvd","28562",35.097999572753906,-77.10224151611328
"28560","New Bern","NC","Piggly Wiggly","1415 Tatum Dr","28560",35.11104,-77.0676
"28570","Newport","NC","Walmart Neighborhood Market","6645 Highway 70","28570",34.7758473216491,-76.87254970251837
"28570","Newport","NC","IGA","not_available","28570",34.73467423144278,-76.8605609113352
"28570","Newport","NC","Red and White","3009 Market St","28570",34.786768,-76.857573
"28570","Newport","NC","Zombie Store","not_available","28512",34.68750762939453,-76.89408874511719
"28572","Pink Hill","NC","IGA","s. kinston blvd.","28572",35.05680394996742,-77.74644029948142
"28574","Richlands","NC","Walmart Supercenter","349 Kinston Highway","28574",34.90836335597073,-77.56718375536485
"28574","Richlands","NC","Piggly Wiggly","NC Hwy 258","28574",34.89888527276121,-77.54953167662325
"28584","Swansboro","NC","Publix","not_available","28594",34.66216909238179,-77.05209281512377
"28584","Swansboro","NC","Lowes Foods","321 Wb McLean Dr","28584",34.69149519097237,-77.06667047415
"28586","Vanceboro","NC","Kite's Grocery","not_available","28586",35.30013958856545,-77.15263660021962
"28601","Hickory","NC","Lowes Foods","3010 N Center St","28601",35.771936926530806,-81.32783680261628
"28601","Hickory","NC","Walmart Neighborhood Market","2415 Springs Road Ne","28601",35.75264737578594,-81.28897244218619
"28601","Hickory","NC","Walmart Supercenter","4780 Hickory Blvd","28630",35.78103051,-81.39434695
"28601","Hickory","NC","Walmart Pick Up","not_available","28630",35.781464,-81.39513
"28601","Hickory","NC","Publix","36 29th Ave NE","28601",35.76927170388662,-81.32852521527818
"28601","Hickory","NC","Lowes Foods","9441 NC Highway 127","28601",35.81652276112765,-81.30416616285854
"28601","Hickory","NC","Walmart Neighborhood Market","483 Hwy 70 Sw","28602",35.71956119401782,-81.34788824631396
"28601","Hickory","NC","Lowes Foods","260 14th Ave NE","28601",35.75095361123653,-81.33404201279932
"28601","Hickory","NC","Health Hut","2432 N Center St","28601",35.764144,-81.331221
"28601","Hickory","NC","Las Isabeles Tienda & Taqueria","not_available","28602",35.73069586358681,-81.34249019922471
"28601","Hickory","NC","VLife CBD","283 2nd Ave SE","28602",35.729764,-81.33233489999999
"28601","Hickory","NC","Fair Value Granite Falls","not_available","28638",35.84064042881552,-81.40932924814703
"28601","Hickory","NC","Fresh Air Galaxy","2515 Springs Rd NE","28601",35.75445986512462,-81.2842450165241
"28601","Hickory","NC","Save-A-Lot","573 US Highway 70 SW","28602",35.72068786621094,-81.35014343261719
"28601","Hickory","NC","Mattie's Pantry","not_available","28601",35.7434129636064,-81.2944764984224
"28601","Hickory","NC","Fairvalue","31 Pinewood Rd","28630",35.810199,-81.43316
"28601","Hickory","NC","Vinai Asian-International Market","1221 16th St NE","28601",35.743037,-81.30448100000001
"28601","Hickory","NC","Tienda Y Carniceria El Paraiso","1205 16th St NE","28601",35.743037,-81.30448100000001
"28601","Hickory","NC","Lowes Foods","1405 29th Avenue Dr NE","28601",35.76719934641785,-81.30556318440794
"28601","Hickory","NC","Merchants Distributors","5005 Alex Lee Blvd","28603",35.7731276,-81.3866504
"28602","Hickory","NC","Walmart Supercenter","2525 Us Highway 70 Se","28602",35.70299708,-81.28724098
"28602","Hickory","NC","Lowes Foods","2631 S NC 127 Hwy","28602",35.6925436413606,-81.35789505754656
"28602","Hickory","NC","Food Lion","2380 W NC 10 Hwy","28658",35.64653626079491,-81.26722012678955
"28602","Hickory","NC","ALDI","1545 8th Street Dr SE","28602",35.7066873,-81.3109205
"28602","Hickory","NC","Advent Grocery","3631-3641 State Road 1124","28602",35.67263172404362,-81.43741824869063
"28602","Hickory","NC","Merita","not_available","28658",35.696082,-81.277421
"28604","Banner Elk","NC","Lowes Foods","4000 NC Highway 105 S","28604",36.11779188664327,-81.83566702262988
"28605","Blowing Rock","NC","Blowing Rock Market","8 Fairway 11 Ct.","28605",36.13403821715237,-81.67824716679465
"28607","Boone","NC","Publix","not_available","28607",36.19951960497772,-81.6614576251212
"28607","Boone","NC","Walmart Supercenter","200 Watauga Village Dr","28607",36.1973318577357,-81.65946194084304
"28607","Boone","NC","Ingles Market","2575 Highway 105","28607",36.20526459712687,-81.69702154837846
"28607","Boone","NC","Harris Teeter","240 Shadowline Dr","28607",36.20197387059919,-81.65963191413537
"28607","Boone","NC","Lowes Foods","267 New Market Ctr","28607",36.21960856022137,-81.6610456722082
"28607","Boone","NC","Earth Fare","178 W King St","28607",36.21690733474094,-81.67624993693346
"28607","Boone","NC","Be Natural Market","273 Boone Heights Dr","28607",36.20151138305664,-81.65705108642578
"28607","Boone","NC","Los Tres Reyes Mexican Store","282 Highway 105 Ext","28607",36.21377142228412,-81.66883868635136
"28609","Catawba","NC","Buffalo Shoals Supermarket","2887 Buffalo Shoals Rd","28658",35.605728206432964,-81.11448174863064
"28610","Claremont","NC","Lowes Foods","3035 Centennial Blvd","28610",35.72044599740846,-81.15497480249863
"28612","Connelly Springs","NC","Xieng Khouang Market Place","1569 US 70 W","28690",35.7474365234375,-81.59927368164062
"28612","Connelly Springs","NC","Johnson Foods","Summers Rd","not_available",35.729129056853495,-81.62141738896537
"28612","Connelly Springs","NC","Food Lion","1555 E Union St","28655",35.75418767,-81.65492417
"28612","Connelly Springs","NC","ALDI","528 W Fleming Dr","28655",35.73296639572183,-81.68999075889587
"28612","Connelly Springs","NC","La Esperanza","not_available","28655",35.73959668333333,-81.68471168333333
"28613","Conover","NC","Walmart Supercenter","201 Zelkova Ct Nw","28613",35.72690027,-81.2105298
"28613","Conover","NC","Walmart Neighborhood Market","1818 Northwest Blvd.","28658",35.68084455221824,-81.23033157444287
"28613","Conover","NC","Carniceria El Caporal","831 Conover Blvd W","28613",35.69480514526367,-81.23902893066406
"28613","Conover","NC","Walmart Grocery Pickup","1818 Northwest Blvd","28658",35.6804207134979,-81.2294695239477
"28621","Elkin","NC","Combs Butcher Shop","not_available","28621",36.242677,-80.84962
"28623","Ennice","NC","Bottomley Evergreens & Farms, Inc.","6460 Glade Valley Rd","28623",36.500302000000005,-80.976488
"28625","Statesville","NC","Walmart Supercenter","1116 Crossroads Dr","28625",35.81044512,-80.86954161
"28625","Statesville","NC","ALDI","125 N Pointe Blvd","28625",35.815386032678425,-80.8788167558123
"28625","Statesville","NC","Publix","118 Venture Ln","28625",35.81804185909537,-80.87822592433007
"28625","Statesville","NC","Ingles","3233 Taylorsville Hwy","28625",35.79709390872977,-80.94000270849561
"28625","Statesville","NC","Compare Foods","not_available","28677",35.78309588965889,-80.90982886125862
"28625","Statesville","NC","AC's Yummy Jerky, LLC","130 Bradley Farm Rd","28625",35.810548,-80.91740899999999
"28625","Statesville","NC","Save-A-Lot","805 N Center St","28677",35.796833,-80.90129
"28625","Statesville","NC","Statesville Wholesale Meat Distributors","1881 Old Wilkesboro Rd","28625",35.8104,-80.91721
"28625","Statesville","NC","Foodlion Broad St Statesville, NC","E. Broad St","28625",35.80786682485257,-80.8413711571847
"28625","Statesville","NC","Jones Grocery","1156 E Memorial Hwy","28634",35.918593,-80.721091
"28625","Statesville","NC","Bi-Lo","1911 E Broad St","28625",35.791670350385516,-80.85139714727428
"28625","Statesville","NC","K. Oriental Market","116 Signal Hill Dr","28625",35.792251,-80.85539200000001
"28625","Statesville","NC","Market Basket Food Stores Inc.","5119 Taylorsville Hwy","28678",35.855723430749116,-81.03431601626811
"28625","Statesville","NC","Harmony Galaxy","3235 Harmony Hwy","28634",35.950343,-80.773464
"28630","Granite Falls","NC","Fairvalue Lenoir","2025 Morganton Blvd SW","28645",35.895398,-81.562009
"28630","Granite Falls","NC","Fair Value","128 Fairway Shopping Ctr","28638",35.847399,-81.4978749
"28630","Granite Falls","NC","Walmart Neighborhood Market","2794 Hickory Boulevard","28638",35.85889434814453,-81.48332214355469
"28630","Granite Falls","NC","Market Basket #24","1494 Cajah Mountain Rd","28638",35.82973205932131,-81.50123752991296
"28630","Granite Falls","NC","Ingles","2630 Connelly Springs Rd","not_available",35.80344921222576,-81.53159813052436
"28630","Granite Falls","NC","Tienda Latina","not_available","28645",35.88949203491211,-81.52415466308594
"28630","Granite Falls","NC","Just Save","1208 Hickory Blvd SW","28645",35.896884045451195,-81.52292096266488
"28630","Granite Falls","NC","foodlion","Springs Rd","28601",35.8467264765765,-81.48547633139675
"28635","Hays","NC","foodlion","not_available","28697",36.27169738192336,-81.1663113913554
"28640","Jefferson","NC","Ingles","60 Ashemont Dr","28694",36.38078138666498,-81.48865506423596
"28640","Jefferson","NC","Walmart Supercenter","1489 Mount Jefferson Rd","28694",36.38973177,-81.48132122
"28640","Jefferson","NC","Lowes Foods","247 Mount Jefferson State Park Rd","28694",36.398064,-81.478585
"28645","Lenoir","NC","ALDI","205 Wilkesboro Blvd NE","28645",35.91610584301339,-81.52121275663376
"28645","Lenoir","NC","Walmart Supercenter","935 Blowing Rock Blvd","28645",35.92835023391264,-81.52937246568978
"28655","Morganton","NC","Walmart Supercenter","G120 Morganton Heights Blvd","28655",35.727073615870644,-81.70462535418606
"28655","Morganton","NC","Ingles","120 Carbon City Rd","28655",35.737510105837224,-81.71525959961971
"28655","Morganton","NC","Walmart Neighborhood Market","1001 N Green Street","28655",35.75339337030531,-81.7171744700693
"28655","Morganton","NC","Lee's Oriental Market","902 W Union","28655",35.735941,-81.71050699999999
"28655","Morganton","NC","Yang's Supermarket","815 W Fleming Dr","28655",35.733684893836376,-81.70864284038544
"28655","Morganton","NC","lake james neighborhood store","5763 Benfield Landing Rd","28761",35.732728,-81.86471999999999
"28657","Newland","NC","Ingles","955 Cranberry St #B","28657",36.10142135620117,-81.93133544921875
"28657","Newland","NC","Lowes Foods","211 River Road","28657",36.03996844420063,-81.89660742952262
"28657","Newland","NC","Ingles","145 Greenwood Rd","28777",35.91488683278813,-82.07488626877259
"28657","Newland","NC","Ingles","NC 194 at Vale Rd.","28657",36.087907204648424,-81.94104356125712
"28657","Newland","NC","Lowes Foods","227 Ash St","28657",36.08366394042969,-81.92652893066406
"28657","Newland","NC","Shimson's Wholesale","Newland","28657",36.0873484,-81.9273362
"28659","North Wilkesboro","NC","Walmart Supercenter","1801 Us Highway 421","28697",36.148339506816576,-81.19455913987807
"28659","North Wilkesboro","NC","Lowes Foods","1834 Winkler St","28697",36.15138004823567,-81.19478570826664
"28659","North Wilkesboro","NC","Just Save","340 Sparta Road","28659",36.20073110926467,-81.1532699855926
"28659","North Wilkesboro","NC","ALDI","1915 US Highway 421","28697",36.1484784,-81.199421
"28659","North Wilkesboro","NC","Nine Asian & African Grocery Store, LLC.","303 S Cherry St","28697",36.141684,-81.15993
"28659","North Wilkesboro","NC","Save A Lot","not_available","28659",36.199467275056826,-81.14867788771764
"28659","North Wilkesboro","NC","Save-A-Lot","202 North View Blvd","28659",36.199891,-81.152055
"28659","North Wilkesboro","NC","Lowes Foods","310 Wilkesboro Ave","28659",36.15596389770508,-81.14334869384766
"28659","North Wilkesboro","NC","Save A Lot","202 Northview Plz","28659",36.184391021728516,-81.148681640625
"28659","North Wilkesboro","NC","Brushy Mountain IGA","2759 Statesville Rd","28659",36.138976,-81.102041
"28673","Sherrills Ford","NC","Publix","not_available","28682",35.584675,-80.98912
"28675","Sparta","NC","Betty’s Dollar Mart","235 N Main St","28675",36.507514,-81.124013
"28675","Sparta","NC","Lowes Foods","665 S Main St","28675",36.500483,-81.110644
"28681","Taylorsville","NC","Walmart Supercenter","901 Nc Highway 16 S","28681",35.90862206,-81.17716312
"28681","Taylorsville","NC","Mays Meats","541 E Main Ave","28681",35.922151,-81.166035
"28681","Taylorsville","NC","Walmart Grocery Pickup","901 NC Highway 16 S","28681",35.9090973,-81.1759556
"28681","Taylorsville","NC","Market Basket Galaxy #101","84 Westgate Dr","28681",35.91998291015625,-81.18665313720703
"28704","Arden","NC","Ingles","1865 Hendersonville Rd","28803",35.50001108111315,-82.52387881278992
"28704","Arden","NC","Publix","Hendersonville Road","28803",35.50468591767508,-82.52255557338685
"28704","Arden","NC","Ingles","301 Long Shoals Rd","28704",35.47987840221358,-82.54947655932754
"28704","Arden","NC","ALDI","330 Airport Rd","28704",35.45075215630002,-82.52890927116391
"28704","Arden","NC","Ingles","2901 Hendersonville Rd","28732",35.441171356268065,-82.50616550445557
"28704","Arden","NC","Walmart Grocery Pickup & Delivery","60 Airport Rd","28704",35.456323,-82.523452
"28704","Arden","NC","Earth Fare","1856 Hendersonville Rd","28803",35.500993819190214,-82.52155086599737
"28704","Arden","NC","New York Butcher Shoppe","200 Julian Shoals Dr Ste 10","28704",35.47932663664485,-82.54450127843472
"28704","Arden","NC","Grocery Outlet","3957 Hendersonville Rd","28732",35.42835754203769,-82.50244948166085
"28704","Arden","NC","Go Grocery","not_available","28803",35.49926671835087,-82.52136091403281
"28705","Bakersville","NC","Samir's #11 (Gateway Market)","441 Crimson Laurel Way","28705",36.010123,-82.15334200000001
"28705","Bakersville","NC","Gateway Market","hwy 226","28705",36.01050325,-82.14722428333333
"28711","Black Mountain","NC","Ingles","550 NC-9","28711",35.60881293865128,-82.32121109962463
"28711","Black Mountain","NC","Frisbee's","196 E Main St","28762",35.630446861303604,-82.17834549375729
"28711","Black Mountain","NC","Bi-Lo Foods","205 NC Highway 9","28711",35.615354331252476,-82.31785751751129
"28711","Black Mountain","NC","Hopey & Co.","3018 US 70 Hwy","28711",35.60828473703956,-82.35078359898998
"28711","Black Mountain","NC","Country Food Store","700 Montreat Rd","28711",35.626024,-82.321151
"28711","Black Mountain","NC","trout lily","not_available","28730",35.534648259799575,-82.38195141181102
"28712","Brevard","NC","Ingles","710 N Broad St","28712",35.24069847923266,-82.72697000294569
"28712","Brevard","NC","Walmart","177 Forest Gate Dr","28768",35.277237682980335,-82.703623368114
"28712","Brevard","NC","Bi-Lo","41 Forest Gate Dr","28768",35.27494130241908,-82.7037709809365
"28712","Brevard","NC","Food Matters Market","not_available","28712",35.25283592915864,-82.72109612984154
"28712","Brevard","NC","Sav Mor","985 rosmsm highwsy","not_available",35.241914,-82.752823
"28713","Bryson City","NC","Ingles","615 Hwy 19 S","28713",35.41952556442789,-83.45284111638777
"28713","Bryson City","NC","IGA","345 Main St","28713",35.428798,-83.443434
"28714","Burnsville","NC","Efflers Grocery","not_available","28714",35.769823,-82.185035
"28714","Burnsville","NC","Ingles","400 E Ushy 19e Bypass","28714",35.914416819723684,-82.29084065046334
"28715","Candler","NC","Ingles","159 Smokey Park Hwy","28806",35.565077503404666,-82.62920668861575
"28715","Candler","NC","Publix","not_available","28715",35.5448342,-82.6806872
"28715","Candler","NC","Bi-Lo","Smoky Park hwy","28715",35.553167285892556,-82.64402891057803
"28715","Candler","NC","Flash Foods","US Hwy #19 South","31763",35.5477386,-82.6528113
"28716","Canton","NC","Frank's Grocery","6783 Cruso Rd","28716",35.46890442192889,-82.87798292278742
"28716","Canton","NC","Ingles","630 Champion Dr","28716",35.551134976801606,-82.84943442734533
"28716","Canton","NC","go grocery","257 Waynesville Plz","28786",35.50034485606604,-82.98319577078802
"28716","Canton","NC","Food City","Ashville Hwy","not_available",35.53466796875,-82.8231201171875
"28716","Canton","NC","Ingles Market","201 Barber Blvd","28786",35.50481414794922,-82.9869384765625
"28716","Canton","NC","sav-more foods","not_available","28716",35.499203216666665,-82.98499281666666
"28716","Canton","NC","SaveuMore","165-271 Vance St","28786",35.50070615,-82.98007113333334
"28716","Canton","NC","Bi-Lo","366 Russ Ave","28786",35.49894945399066,-82.98468814253707
"28716","Canton","NC","Sav-Mor Foods","83 Plaza Loop","28716",35.533413,-82.863322
"28717","Cashiers","NC","Ingles","3718 U.S. 64","28717",35.12023219669038,-83.08801417071749
"28719","Cherokee","NC","Food Lion","not_available","28719",35.52437,-83.27851
"28721","Clyde","NC","Publix","124 Frazier St","28786",35.504150390625,-82.99344635009766
"28721","Clyde","NC","Teague's Grocery and Café","130 Soco Rd","28751",35.52167296,-83.03047708
"28721","Clyde","NC","Hillbilly Grocery","not_available","28751",35.516391,-83.085606
"28722","Columbus","NC","IGA","370 S Trade St","28782",35.20349167517722,-82.2380954134979
"28722","Columbus","NC","Bi-Lo","Hwy 108","28722",35.261153283333336,-82.18255385
"28723","Cullowhee","NC","Walmart Supercenter","210 Walmart Plz","28779",35.36152483239287,-83.20393198591502
"28723","Cullowhee","NC","Ingles","32 Webster Rd","28779",35.35252260444125,-83.20193033631132
"28723","Cullowhee","NC","Harold's Supermarket","80 W Sylva Shopping Area","28779",35.372166,-83.24224
"28723","Cullowhee","NC","Flowers Foods","not_available","28779",35.37605920419866,-83.2132853759318
"28723","Cullowhee","NC","Sav-Mor","120 Charles St","28779",35.3814811706543,-83.20902252197266
"28726","East Flat Rock","NC","Ingles","1607 Spartanburg Hwy","28731",35.289878182038414,-82.43009983739272
"28729","Etowah","NC","Ingles","6400 Brevard Rd","28729",35.317110552450174,-82.58976917228203
"28730","Fairview","NC","Ingles","225 Charlotte Hwy","28803",35.55047195557583,-82.47271299362183
"28731","Flat Rock","NC","Harris Teeter","636 Spartanburg Hwy","28792",35.3086755474646,-82.45521744201433
"28731","Flat Rock","NC","The Fresh Market","223 Greenville Hwy","28792",35.30749705994256,-82.46009408395176
"28731","Flat Rock","NC","Publix","635 Greenville Hwy","28739",35.30584,-82.45869499999999
"28731","Flat Rock","NC","ALDI","110 Duncan Hill Rd","28792",35.33229124060374,-82.44978413747049
"28731","Flat Rock","NC","Grocery Outlet","115b four seasons blvd","not_available",35.334967999999996,-82.449611
"28731","Flat Rock","NC","Sav Mor","1047 Fleming St","28791",35.32467389909706,-82.4660814139283
"28731","Flat Rock","NC","Ingles","not_available","28792",35.32643541764342,-82.42818604915333
"28731","Flat Rock","NC","Feelin' Great","825 Spartanburg Hwy","28792",35.305566,-82.451411
"28731","Flat Rock","NC","Hendersonville Community Co-op","60 S Charleston Ln","28792",35.305309,-82.448689
"28732","Fletcher","NC","Walmart Supercenter","1636 Hendersonville Rd","28803",35.513398840794885,-82.52416484543423
"28732","Fletcher","NC","Ingles","3338 Boylston Hwy","28759",35.39982500909736,-82.57179379463196
"28732","Fletcher","NC","Charlie's on the Creek","Hoopers creek rd","28732",35.43938136808726,-82.4590678644435
"28732","Fletcher","NC","Publix Deli","1830 Hendersonville Rd","28803",35.505191802978516,-82.52294921875
"28734","Franklin","NC","Ingles","not_available","28734",35.18086232451452,-83.35569090789163
"28734","Franklin","NC","Walmart Supercenter","273 Commons Drive","28734",35.1663604,-83.3649369
"28734","Franklin","NC","Bi-Lo","149 Macon Plaza Dr","28734",35.17401898674962,-83.36161267981858
"28734","Franklin","NC","Old Ingles","100-120 Maple St","28734",35.178925789497555,-83.38693638482387
"28734","Franklin","NC","Mountain Energy","111 Highlands Rd","28734",35.185454,-83.370533
"28734","Franklin","NC","Ingles #132","4501 Hwy 441 Bypass","28734",35.180944523528176,-83.3558022684103
"28734","Franklin","NC","Walmart Grocery Pickup","273 Commons Dr","28734",35.1663203,-83.3647475
"28739","Hendersonville","NC","Ingles","1980 Asheville Hwy","28791",35.336667315983725,-82.4712860584259
"28739","Hendersonville","NC","Ingles","1741 Brevard Rd","28791",35.32185447662368,-82.49072728666769
"28741","Highlands","NC","Mountain Fresh Grocery","521 E Main St.","28741",35.05173881129088,-83.19515590795014
"28741","Highlands","NC","Bryson's Food Store","103 Highlands Rd.","not_available",35.05167873582795,-83.20212255332251
"28746","Lake Lure","NC","Ingles Market","276 NC Highway 9","28746",35.4108470002252,-82.1981424519748
"28752","Marion","NC","Ingles Supermarket","625 W Henderson St","28752",35.67623505403362,-82.0135527962531
"28752","Marion","NC","Walmart Grocery Pickup","2875 Sugar Hill Rd","28752",35.647735595703125,-82.02982330322266
"28752","Marion","NC","West Court Food Center","W. Court Street","28752",35.681572286232885,-82.015282754432
"28752","Marion","NC","Go Grocery","2-84 Bradley St","28752",35.69608147150588,-82.02488991923634
"28752","Marion","NC","Bi-Lo","500 N Main St","28752",35.68870788129597,-82.01354258766702
"28752","Marion","NC","Walmart Supercenter","2514 Halltown Rd","28777",35.87059809,-82.04439836
"28752","Marion","NC","JB's Galaxy Food Center","1178-1378 E Court St","28752",35.69337678882456,-81.98992953555233
"28753","Marshall","NC","Publix","165 Weaver Blvd","28787",35.7058,-82.567879
"28753","Marshall","NC","Walmart Supercenter","25 Northridge Commons Pkwy","28787",35.703418924629254,-82.57880328056329
"28753","Marshall","NC","Ingles","140 Weaver Blvd","28787",35.702500468322356,-82.5667941570282
"28753","Marshall","NC","ALDI","58 Weaver Blvd","28787",35.7027454,-82.5638178
"28753","Marshall","NC","Ingles","5580 US 25/70 Hwy","28753",35.813046997640456,-82.67116933651212
"28754","Mars Hill","NC","Ingles","Carl Eller Rd","28754",35.82430684249999,-82.54338795777191
"28754","Mars Hill","NC","Tj's Mountain Market","506 Carl Eller Road","28754",35.821799,-82.540398
"28771","Robbinsville","NC","Ingles","297 main st","28771",35.32385296309808,-83.80171365346929
"28778","Swannanoa","NC","Ingles Market","2299 US 70 Hwy","28778",35.597786731658005,-82.40785717964172
"28779","Sylva","NC","TopCat's / AlleyCat's","3275 US 441 South","28779",35.33609781477283,-83.2534051196063
"28786","Waynesville","NC","Walmart Supercenter","135 Town Center Loop","28786",35.46674401,-83.00920423
"28786","Waynesville","NC","Ingles","1670 Brown Ave","28786",35.47005618379421,-83.00561261981224
"28787","Weaverville","NC","Ingles Markets","499 Weaverville Rd","28804",35.67282038345795,-82.58034467697144
"28787","Weaverville","NC","CVS pharmacy","471 Weaverville Rd","28804",35.671836607986805,-82.58283733548981
"28787","Weaverville","NC","Dickies Superstore","310 Weaverville Hwy","28804",35.66369736520233,-82.58118466894169
"28787","Weaverville","NC","Dickie's Half Price Foods","310 Weaverville Rd","28804",35.659459000000005,-82.58144300000001
"28791","Hendersonville","NC","The Grocery Stop","4700 Asheville Hwy","28791",35.378857,-82.502776
"28792","Hendersonville","NC","Walmart Supercenter","250 Highlands Square Dr","28792",35.34919170811048,-82.43746888731802
"28792","Hendersonville","NC","Ingles","3643 Howard Gap Rd","28792",35.34885190693081,-82.42989579527541
"28801","Asheville","NC","Harris Teeter","136 Merrimon Ave","28801",35.60379610030228,-82.5539451931823
"28801","Asheville","NC","Earth Fare","66 Westgate Pkwy","28806",35.59259879337778,-82.57526003563225
"28801","Asheville","NC","Trader Joe's","120 Merrimon Ave","28801",35.60302675202353,-82.5534388227214
"28801","Asheville","NC","Whole Foods Market","70 Merrimon Ave","28801",35.60198341977631,-82.5544977868967
"28801","Asheville","NC","French Broad Food Co-op","90 Biltmore Ave","28801",35.59177088829822,-82.55083337419607
"28803","Asheville","NC","Target","115 River Hills Rd","28805",35.57315308812421,-82.52195737925975
"28803","Asheville","NC","Walmart Supercenter","125 Bleachery Blvd","28805",35.577103722154,-82.5159903115934
"28803","Asheville","NC","Whole Foods Market","4 S. Tunnel Rd.","28805",35.5824376243575,-82.5231398677588
"28803","Asheville","NC","Ingles","780 Hendersonville Rd","28803",35.544361408542855,-82.53104567527771
"28803","Asheville","NC","The Fresh Market","1378 Hendersonville Rd, Ste H","28803",35.522692123778214,-82.52856958313552
"28803","Asheville","NC","ALDI","480 Swannanoa River Rd","28805",35.5775271,-82.511436
"28803","Asheville","NC","Ingles","669 Haywood Rd","28806",35.5787364838669,-82.59093757077542
"28803","Asheville","NC","Hopey & Co.","121 Sweeten Creek Road","28801",35.56267061860928,-82.52777101775847
"28803","Asheville","NC","Amazing Savings","121 Sweeten Creek Rd","28803",35.562957,-82.527592
"28804","Asheville","NC","Ingles","575 New Leicester Hwy","28806",35.614482469352374,-82.631596326828
"28804","Asheville","NC","The Fresh Market","944 Merrimon Ave,","28804",35.630491,-82.553922
"28804","Asheville","NC","Sav-Mor Foods","842 Merrimon Ave","28804",35.62803983082726,-82.5537010470395
"28805","Asheville","NC","Ingles","1141 Tunnel Rd","28805",35.5855200362098,-82.4879264831543
"28805","Asheville","NC","Foreign Affairs Oriental Market","611 A Tunnel Rd","28805",35.58634,-82.50988
"28805","Asheville","NC","Grocery Outlet","1380 Tunnel Rd","28805",35.584446,-82.467625
"28806","Asheville","NC","Ingles","863 Brevard Rd","28806",35.53055858816684,-82.60738134384155
"28806","Asheville","NC","Yz Asian Market","not_available","28806",35.588211,-82.59845200000001
"28806","Asheville","NC","Ingles","7 New Leicester Hwy","28806",35.58795433080611,-82.59715676307678
"28806","Asheville","NC","Aldi","1344 Patton Ave","28806",35.58293137739275,-82.60438799858088
"28806","Asheville","NC","West Village Market and Deli","771 Haywood Rd","28806",35.57853479871938,-82.59405379672849
"28806","Asheville","NC","Sav Mor","891-905 Patton Ave","28806",35.58805536042119,-82.58747618777318
"28806","Asheville","NC","Grocery Outlet","121 New Leicester Hwy","28806",35.592814000000004,-82.60591600000001
"28901","Andrews","NC","Vital Vittles","Old us 64","not_available",35.199575,-83.847385
"28901","Andrews","NC","Ingles","not_available","28901",35.20239321522211,-83.8356440913896
"28904","Hayesville","NC","Ingles","US 64","28904",35.03336339777218,-83.81642133105456
"28904","Hayesville","NC","Lee's Country Store","not_available","28904",34.9988551065388,-83.75597793654646
"28905","Marble","NC","Ingles","2060 US 19","28906",35.105523390977595,-84.00637930694971
"28905","Marble","NC","Walmart Supercenter","2330 Us 19","28906",35.10937711,-84.00747299
"28905","Marble","NC","Sav-A-Lot","not_available","28906",35.103671932383754,-84.01463807646506
"28905","Marble","NC","Save-A-Lot","1240 Andrews Rd","28906",35.103906,-84.01397
