"zip","city","state","name","address","postalCode","lat","lon"
"20105","Aldie","VA","Harris Teeter","42415 Ryan Rd","20148",38.98585828207772,-77.53550717372306
"20105","Aldie","VA","Harris Teeter","42015 Village Center Plaza #110","20105",38.93956892974011,-77.54891005538681
"20105","Aldie","VA","ShipMyBasket","not_available","20105",38.9577,-77.6038
"20106","Amissville","VA","Hutagalung shop","Jln H. M. Jhoni No. 113 / sda","20128",38.75,-77.9599999
"20109","Manassas","VA","Target","9900 Sowder Village Sq","20109",38.73954034114904,-77.53281354904173
"20109","Manassas","VA","Walmart Supercenter","8386 Sudley Rd","20109",38.77152661116762,-77.50717777579462
"20109","Manassas","VA","Safeway","12821 Braemar Village Plz","20136",38.749735,-77.5714499
"20109","Manassas","VA","Lidl","11782 Sudley Manor Dr","20109",38.78397142496679,-77.520920161694
"20109","Manassas","VA","Giant","8025 Sudley Rd","20109",38.7826149,-77.5104253
"20109","Manassas","VA","Aldi","not_available","20110",38.78003401666667,-77.48010018333333
"20109","Manassas","VA","Global Food","10320 Festival Ln","20109",38.778548082374485,-77.50456607335079
"20109","Manassas","VA","Healthway Natural Foods","10778 Sudley Manor Dr","20109",38.788307189941406,-77.51710510253906
"20109","Manassas","VA","Bristow Vapes & Smoke","10985 Nokesville Rd","20110",38.738741999999995,-77.526481
"20109","Manassas","VA","El Mejor Supermercado","not_available","not_available",38.783708,-77.510623
"20109","Manassas","VA","La Tiendita Ventura","not_available","20111",38.78212,-77.472814
"20109","Manassas","VA","El Barrio Grocery","9644 Grant Ave","20110",38.74567435191384,-77.47415485359132
"20109","Manassas","VA","Africa Supermarket","10963 Lute Ct","20109",38.800105,-77.522966
"20109","Manassas","VA","ALDI","10294 Portsmouth Rd","20109",38.77951404603646,-77.50569862564589
"20109","Manassas","VA","Food Lovers Market","9255 Center St","20110",38.750417,-77.475771
"20109","Manassas","VA","Rivera's Factory","10953 Lute Ct","20109",38.800259999999994,-77.522155
"20109","Manassas","VA","7-Eleven","7869 Sudley Rd","20109",38.785871,-77.511728
"20110","Manassas","VA","Harris Teeter","10060 Market Circle","20110",38.73936316531943,-77.45259908517248
"20110","Manassas","VA","Walmart Supercenter","9401 Liberia Ave","20110",38.752702932793596,-77.44857241385593
"20110","Manassas","VA","Giant Foods","10100 Dumfries Rd","20110",38.7377605,-77.4751647
"20110","Manassas","VA","H Mart","8819 Centreville Rd","20110",38.76277077122787,-77.45799277747875
"20110","Manassas","VA","ALDI","9714 Liberia Ave","20110",38.74628704289358,-77.45164887746802
"20110","Manassas","VA","New Grocery & Halal Meat","Commerce Ct","not_available",38.760329,-77.460288
"20110","Manassas","VA","Mexico Lindo","8630 Mathis Ave","20110",38.768243,-77.45682
"20111","Manassas","VA","The General Store","main st","20124",38.780573080675,-77.38705416164858
"20111","Manassas","VA","Clear Waterworks LLC","10614 Lake Jackson Dr","20111",38.721838,-77.44729000000001
"20111","Manassas","VA","The Corner Grocer","8487 Euclid Ave","20111",38.77031326293945,-77.44436645507812
"20112","Manassas","VA","Harris Teeter","12745 Galveston Ct","20112",38.679907014690464,-77.36341619240609
"20112","Manassas","VA","Super Giant","5469 Mapledale Plaza","22193",38.66204389436017,-77.36702620983124
"20112","Manassas","VA","Oak Hill General Store","12203 Kahns Rd","20112",38.687657,-77.420057
"20112","Manassas","VA","Shops at County Center","12623-12901 Galveston Ct","20112",38.6796231,-77.3637574
"20115","Marshall","VA","Walmart Supercenter","700 James Madison Hwy","20186",38.697430686628664,-77.78921242253213
"20115","Marshall","VA","Giant","41 W Lee Hwy","20186",38.7300708,-77.7916151
"20115","Marshall","VA","Harris Teeter","530 Fletcher Dr","20186",38.72740647638817,-77.79555163504625
"20115","Marshall","VA","Safeway","189 W Lee Hwy","20186",38.73056249154019,-77.79712915420532
"20115","Marshall","VA","Gentle Harvest","8372 W Main St","20115",38.86501,-77.85778
"20117","Middleburg","VA","Safeway","12 W Washington St","20117",38.969127316481654,-77.7367563844382
"20119","Catlett","VA","HEB Dripping Springs","598 E. Hwy. US 290","77901",38.59380348491965,-77.71092027425765
"20120","Centreville","VA","Wegmans","14361 Newbrook Dr","20151",38.87785674261817,-77.44363551956067
"20120","Centreville","VA","Walmart Supercenter","13059 Fair Lakes Parkway","22033",38.85458814832634,-77.39649930640856
"20120","Centreville","VA","Walmart Supercenter","4368 Chantilly Shopping Center Dr","20151",38.88873103814335,-77.44310847585135
"20120","Centreville","VA","Giant","13043 Lee Jackson Memorial Hwy","22033",38.8791043,-77.3989473
"20120","Centreville","VA","Giant","14125 Saint Germain Dr","20121",38.8361551,-77.4381822
"20120","Centreville","VA","Trader Joe's","14100 Lee Hwy","20120",38.83997736050195,-77.43263854736664
"20120","Centreville","VA","Giant","5740 Union Mill Rd","20124",38.83436746386479,-77.41381466388697
"20120","Centreville","VA","Lotte Plaza","13955 Metrotech Dr","20151",38.895206273928316,-77.42657616156919
"20120","Centreville","VA","Lotte Plaza Market","5900 Centreville Crest Ln","20121",38.83782727019008,-77.43559515846475
"20120","Centreville","VA","H Mart","13818 Braddock Rd","20121",38.83764068973332,-77.42768052244884
"20120","Centreville","VA","ALDI","13920 Lee Jackson Memorial Hwy","20151",38.8940732,-77.4276233
"20120","Centreville","VA","Giant","5615 Stone Rd","20120",38.854017071538976,-77.44926542043686
"20120","Centreville","VA","India Bazaar","13959 Metrotech Dr","20151",38.895455,-77.428595
"20120","Centreville","VA","Good Fortune Supermarket","5111 Westfields Blvd","20120",38.867571999999996,-77.44677800000001
"20120","Centreville","VA","The Field at Commonwealth","14335-14350 Newbrook Dr","20151",38.87761841293296,-77.44394687815497
"20120","Centreville","VA","Grand Village","not_available","20120",38.86731288664466,-77.44854927062988
"20120","Centreville","VA","Gmart","13065 Fair Lakes Shopping Ctr","22033",38.85396194458008,-77.39972686767578
"20120","Centreville","VA","Cho Binh Duong","13830 Lee Hwy #18","20120",38.839924888146875,-77.42588996887207
"20120","Centreville","VA","Park N Shop","13830 Lee Hwy","20120",38.838978,-77.434902
"20120","Centreville","VA","Citimart","14631 Lee Hwy","20121",38.834494,-77.454312
"20129","Paeonian Springs","VA","Paeonian Grocery and Gourmet","40602 Charles Town Pike","20129",39.149444580078125,-77.61665344238281
"20132","Purcellville","VA","Harris Teeter","105 Purcellville Gateway Dr","20132",39.13648738832397,-77.69421616273601
"20132","Purcellville","VA","Giant Food","1000 E Main St","20132",39.13558618094574,-77.70027458667755
"20132","Purcellville","VA","Shop And Save","not_available","20132",39.137045,-77.706732
"20132","Purcellville","VA","Healthway Natural Foods","PO Box 129","20134",39.13650281838006,-77.71621523962318
"20132","Purcellville","VA","Ailment Store","19198 State Route 719","20132",39.08488690853119,-77.78660416603088
"20132","Purcellville","VA","Hill Tom Market","36929 Charles Town Pike","20132",39.19920690420404,-77.7260232635169
"20135","Bluemont","VA","Bluemont General Store","33715 Snickersville Tpke","20135",39.11108574385544,-77.83428519072763
"20136","Bristow","VA","Harris Teeter","10438 Bristow Center Dr","20136",38.73264453833029,-77.54968949402668
"20147","Ashburn","VA","Wegmans","45131 Columbia Pl","20166",39.00697754979784,-77.44002975543631
"20147","Ashburn","VA","Lidl","21285 Coopers Hawk Drive","20148",39.0278561778111,-77.5124610951255
"20147","Ashburn","VA","Harris Teeter","20070 Ashbrook Commons Plaza Suite 151","20147",39.06039199465986,-77.47090638470831
"20147","Ashburn","VA","Giant Food","44110 Ashburn Shopping Plz","20147",39.0445673,-77.4739241
"20147","Ashburn","VA","Trader Joe's","44755 Brimfield Dr","20147",39.05046162962692,-77.45253080099766
"20147","Ashburn","VA","Harris Teeter","43300 Southern Walk Plaza Suite 130","20148",39.00846783778637,-77.50286890436377
"20147","Ashburn","VA","Giant Food","43670 Greenway Corporate Dr","20147",39.0093597,-77.4915717
"20147","Ashburn","VA","Giant","43330 Junction Plz","20147",39.03686339303936,-77.50122115015984
"20147","Ashburn","VA","Whole Foods Market","19800 Belmont Chase Dr","20147",39.0684768947504,-77.48434058086374
"20147","Ashburn","VA","Harris Teeter","19350 Winmeade Dr","20176",39.080919674984166,-77.49586789072265
"20147","Ashburn","VA","Lotte Plaza","43930 Farmwell Hunt Plz Ste 100","20147",39.02308252619709,-77.48072902957176
"20147","Ashburn","VA","Patel Brothers","not_available","20147",39.029415,-77.486374
"20147","Ashburn","VA","Harris Teeter","42780 Creek View Plaza","20147",39.043357840567914,-77.52150700192199
"20147","Ashburn","VA","Aldi","43150 Broadlands Center Plz","20148",39.02692704837952,-77.50857174396515
"20147","Ashburn","VA","All Indian Groceries & Gifts","not_available","20164",39.003849,-77.43151
"20147","Ashburn","VA","Mediterranean Market","21760 Beaumeade Cir #133","20147",39.016841888427734,-77.45673370361328
"20147","Ashburn","VA","In & Out Market","21735 Shellhorn Rd Ste 100","20147",39.015220642089844,-77.49340057373047
"20147","Ashburn","VA","Loudoun International Foods","22034 Shaw Rd #113","20164",39.003597,-77.431401
"20147","Ashburn","VA","Giant","Litton Hall","20155",39.02239990234375,-77.52000427246094
"20147","Ashburn","VA","Global Food","43761 Parkhurst Plz","20147",39.029354720233364,-77.48694523954312
"20148","Ashburn","VA","606 Asian Market","23520 Overland Dr","20166",38.96206283569336,-77.49698638916016
"20151","Chantilly","VA","Giant Food","2425 Centreville Road","20171",38.95039960950868,-77.40798564603855
"20151","Chantilly","VA","Giant - Franklin Farm","13330 Franklin Farm Rd","20171",38.90874244748181,-77.40652978420263
"20151","Chantilly","VA","Phil Asian Food Mart","14511 Lee Jackson Memorial Hwy","20151",38.90027946,-77.448714
"20151","Chantilly","VA","Bismillah Halal","not_available","20151",38.90311813354492,-77.45006561279297
"20151","Chantilly","VA","SPICE WORLD Indian Groceries & Movies","14404 Chantilly Crossing Ln","20151",38.897492,-77.443064
"20152","Chantilly","VA","Walmart Supercenter","24635 Dulles Landing Drive","20166",38.93593087805844,-77.52337107204802
"20152","Chantilly","VA","Giant Food","25050 Riding Plz Ste 100","20152",38.9246332,-77.5205648
"20152","Chantilly","VA","ALDI","24330 Liberty Harvest Ct","20166",38.9439322,-77.5197915
"20152","Chantilly","VA","Indian Mart","24630 Dulles Landing Dr","20166",38.93622970581055,-77.5199203491211
"20155","Gainesville","VA","Wegmans","8297 Stonewall Shops Sq","20155",38.784331118923134,-77.65278339385986
"20155","Gainesville","VA","Walmart Supercenter","6530 Trading Sq","20169",38.81838727815856,-77.64506285737878
"20155","Gainesville","VA","Giant","5581 Merchants View Sq","20169",38.8449135,-77.638447
"20155","Gainesville","VA","Giant Food","7575 Linton Hall Rd","20155",38.79301998273739,-77.60828018188477
"20155","Gainesville","VA","Harris Teeter","13901 Heathcote Blvd","20155",38.80806311976088,-77.61160060125573
"20155","Gainesville","VA","Mayhugh's Store","9580 Greenwich Rd","20181",38.749175,-77.64893599999999
"20158","Hamilton","VA","Paige's Pit Stop","not_available","20158",39.150963,-77.625496
"20164","Sterling","VA","Walmart Supercenter","45415 Dulles Crossing Plz","20166",39.02295356339611,-77.42867972336734
"20164","Sterling","VA","Harris Teeter","21399 Epicerie Plaza","20164",39.02396296787523,-77.39632035333211
"20164","Sterling","VA","ALDI","21031 Tripleseven Rd","20165",39.03496124017026,-77.40754365921026
"20164","Sterling","VA","Safeway","30 Pidgeon Hill Dr","20165",39.0389302,-77.4115768
"20164","Sterling","VA","Safeway","22350 S Sterling Blvd","20164",38.99752862708507,-77.40896522998804
"20164","Sterling","VA","Giant","21000 Southbank St Ste 150","20165",39.0343228,-77.3955904
"20164","Sterling","VA","Giant","21800 Towncenter Plz #226","20164",39.01351107981982,-77.37324625253677
"20164","Sterling","VA","Cocos Food International Market","46900 Cedar Lake Plz","20164",39.01811821113254,-77.3768755801534
"20164","Sterling","VA","El Mercadito Hispano II","250 S Sterling Blvd","20164",38.999111,-77.406373
"20170","Herndon","VA","Harris Teeter","11806 Spectrum Center","20190",38.96567426849421,-77.35489927789354
"20170","Herndon","VA","Safeway","413 Elden St","20170",38.9671494,-77.376625
"20170","Herndon","VA","Trader Joe's","11958 Killingsworth Ave","20194",38.967394678178636,-77.35912119228456
"20170","Herndon","VA","Giant","1450 Northpoint Village Ctr","20194",38.979411,-77.3502631
"20170","Herndon","VA","Sprouts Farmers Market","494 Elden St, Ste 110","20170",38.9693407,-77.37712309999999
"20170","Herndon","VA","Balducci's Food Lover's Market","1871 Fountain Drive","20190",38.95951660899218,-77.35667392709843
"20170","Herndon","VA","MOM's Organic Market","424 Elden St","20170",38.96999874351696,-77.37476123885487
"20170","Herndon","VA","Madina Market","376 Elden St","20170",38.969052000000005,-77.374211
"20170","Herndon","VA","Fresh World","1070 Elden St","20170",38.966611877275284,-77.39710993215502
"20170","Herndon","VA","H Mart","1228 Elden St","20170",38.962534,-77.400449
"20170","Herndon","VA","Lotte Market","490 Elden St","20170",38.969684,-77.376997
"20170","Herndon","VA","Indo-Pak Spices","not_available","20170",38.969931,-77.37481692359562
"20170","Herndon","VA","Bestway Supermarket","Elden St","20170",38.970453000000006,-77.382653
"20170","Herndon","VA","Apsara","313 Sunset Park Dr","20170",38.95772695447367,-77.37390776933852
"20171","Herndon","VA","Harris Teeter","12960 Highland Crossing Dr","20171",38.94947547587035,-77.39517919091377
"20171","Herndon","VA","Safeway","2304 Hunters Woods Plz","20191",38.9357728,-77.3622989
"20171","Herndon","VA","Giant Food","2551 John Milton Dr","20171",38.92681489779921,-77.3749440908432
"20171","Herndon","VA","Reston Safety","not_available","20191",38.9351616,-77.35854875000001
"20175","Leesburg","VA","Wegmans","101 Crosstrail Blvd SE","20175",39.08901176090405,-77.52178944125562
"20175","Leesburg","VA","Giant Food","61 Catoctin Cir NE","20176",39.1114416,-77.5531128
"20175","Leesburg","VA","Giant Food","635 Potomac Station Dr NE","20176",39.098062,-77.5262126
"20175","Leesburg","VA","Safeway","437 S King St","20175",39.1090089,-77.5687386
"20175","Leesburg","VA","Leesburg Deli Market","7","20176",39.11867410970757,-77.58077144622803
"20175","Leesburg","VA","For Goodness Sake Natural Foods","108 D South St SE","20175",39.112617,-77.56319599999999
"20175","Leesburg","VA","Walmart Supercenter","19360 Compass Creek Parkway","20175",39.11663562264027,-77.54017929808697
"20190","Reston","VA","Whole Foods Market","11660 Plaza America Dr","20190",38.951876165924986,-77.34909713161011
"20190","Reston","VA","Maryland and Virginia Milk Producers Cooperative Association, Incorporated","1985 Isaac Newton Sq W Ste 200","20190",38.951774,-77.339039
"20191","Reston","VA","Safeway","11120 South Lakes Dr","20191",38.9396256,-77.3299031
"22003","Annandale","VA","Safeway","7414 Little River Tpke","22003",38.8322593,-77.2005659
"22003","Annandale","VA","H Mart","7885 Heritage Dr","22003",38.825993829145276,-77.21394411626454
"22003","Annandale","VA","Giant Food","7137 Columbia Pike","22003",38.8305981968268,-77.19199061393738
"22003","Annandale","VA","Giant Food","6980 Braddock Rd","22003",38.8132019,-77.1854808
"22003","Annandale","VA","ALDI","7006 Columbia Pike","22003",38.8346704,-77.1875222
"22003","Annandale","VA","Ginger & Spice Market","6548A Little River Tpke","22312",38.822852900241784,-77.1612866981063
"22003","Annandale","VA","Healthway","4113 John Marr Dr","22003",38.832828000000006,-77.188313
"22003","Annandale","VA","Naz Foods Halal Meat & Grocery","4231 Markham St","22003",38.832782,-77.197259
"22015","Burke","VA","Safeway","9525 Braddock Rd","22032",38.8166007,-77.2753919
"22015","Burke","VA","H Mart","9550 Burke Rd","22015",38.79553137645548,-77.27224275833773
"22015","Burke","VA","Walmart","6000 Burke Commons Rd","22015",38.78866759023172,-77.3000773748887
"22015","Burke","VA","Giant Food","8970 Burke Lake Rd","22151",38.80939548593797,-77.25452363491058
"22015","Burke","VA","Safeway","5727 Burke Centre Pkwy","22015",38.7998451,-77.3212126
"22015","Burke","VA","Giant Food","6011 Burke Centre Pkwy","22015",38.78754670735968,-77.2969776391983
"22015","Burke","VA","Safeway","9596 Old Keene Mill Rd","22015",38.7784663,-77.2753049
"22025","Dumfries","VA","Walmart Supercenter","17041 Jefferson Davis Hwy","22026",38.581439866267914,-77.30825798308003
"22025","Dumfries","VA","Lidl","16601 Dumfries Rd","22025",38.59334399529258,-77.33306181602522
"22025","Dumfries","VA","ALDI","17010 Jefferson Davis Hwy","22026",38.5825815,-77.3108162
"22025","Dumfries","VA","Shoppers Food Market","4174 Fortuna Center Plz","22025",38.59665241182332,-77.33207434415812
"22026","Dumfries","VA","Denise Lockhart's Grocery Service","18351 Sharon Rd","22172",38.549113,-77.326705
"22030","Fairfax","VA","Wegmans","11620 Monument Dr","22030",38.85131817230798,-77.34759546958685
"22030","Fairfax","VA","Walmart Supercenter","11181 Lee Hwy","22030",38.850305077557856,-77.33198721761819
"22030","Fairfax","VA","Whole Foods Market","4501 Market Commons Dr","22033",38.857963677470124,-77.37733334268847
"22030","Fairfax","VA","Safeway","12200 Fairfax Towne Ctr","22033",38.8663426226795,-77.36882704502932
"22030","Fairfax","VA","H Mart","11200 Fairfax Blvd","22030",38.857605,-77.33204
"22030","Fairfax","VA","99 Ranch Market 大華超級市場","10780 Fairfax Blvd","22030",38.856362,-77.3162
"22030","Fairfax","VA","Giant Food","10653 Braddock Rd","22032",38.8253434,-77.3155455
"22030","Fairfax","VA","Trader Joe's","9464 Main St","22031",38.84239271308433,-77.27064867740869
"22030","Fairfax","VA","Safeway","10350 Willard Way","22030",38.8486331,-77.3024865
"22030","Fairfax","VA","Harris Teeter","3905 Fair Ridge Dr","22033",38.8729446204895,-77.37395931641356
"22030","Fairfax","VA","ALDI","11001 Lee Hwy Ste G","22030",38.85206405236798,-77.32364684343344
"22030","Fairfax","VA","Shoppers Food Market","9622 Main St","22031",38.845032124435924,-77.27398475463099
"22030","Fairfax","VA","ALDI","13033 Fair Lakes Shopping Ctr","22033",38.85637706827343,-77.39146217541104
"22030","Fairfax","VA","Giant Food","9400 Fairfax Boulevard","22031",38.86561584472656,-77.27106475830078
"22030","Fairfax","VA","India Bazaar","10980 Fairfax Blvd","22030",38.853397369384766,-77.32344055175781
"22030","Fairfax","VA","Patel Brothers","11116 Lee Hwy","22030",38.852443,-77.329048
"22030","Fairfax","VA","Earth Fare","11052 Lee Hwy","22030",38.853278329498785,-77.32712030598708
"22030","Fairfax","VA","Americana Grocery","10807 Main St","22030",38.851265999999995,-77.321659
"22030","Fairfax","VA","Virginia Abc Store","Fairfax Blvd","22030",38.86219,-77.29495
"22030","Fairfax","VA","Point 50","10334 Fairfax Blvd","22030",38.86053162146297,-77.30215698480606
"22030","Fairfax","VA","Roberta's Natural Foods","9424 Main St","22031",38.842273999999996,-77.270412
"22030","Fairfax","VA","Alrafedain Market","3212 Old Pickett Rd","22031",38.86371994018555,-77.27449035644531
"22030","Fairfax","VA","Amity Halal meat & Grocery","10372 Fairfax Blvd","22030",38.860434000000005,-77.303791
"22031","Fairfax","VA","Safeway","3043 Nutley St","22031",38.87136869663907,-77.2609436392122
"22031","Fairfax","VA","MOM's Organic Market","8298 Glass Alley","22031",38.87377693441763,-77.23101466363909
"22031","Fairfax","VA","Great Wall Supermarket (大中華)","2982 Gallows Rd","22042",38.869571339832746,-77.2288994442435
"22031","Fairfax","VA","Namaste Market","2929 Gallows Rd","22042",38.871471,-77.226661
"22039","Fairfax Station","VA","Giant Food","7501 Huntsman Blvd","22153",38.7520017,-77.2643434
"22039","Fairfax Station","VA","Giant Food","8941 Ox Rd","22079",38.7155309,-77.2623737
"22041","Falls Church","VA","Trader Joe's","5847 Leesburg Pike","22041",38.85082555432543,-77.13227033192355
"22041","Falls Church","VA","Harris Teeter","6351 Columbia Pike","22041",38.835975838154816,-77.15581115968057
"22041","Falls Church","VA","ALDI","5725 Columbia Pike","22041",38.8500473,-77.1263845
"22041","Falls Church","VA","Giant Food","3480 S Jefferson St","22041",38.8496338,-77.118767
"22041","Falls Church","VA","Megamart Express","not_available","22204",38.856174,-77.113005
"22041","Falls Church","VA","Duangrat's Oriental Food Mart","5888 Leesburg Pike","22041",38.85393542945133,-77.13445249726989
"22041","Falls Church","VA","Oriental Supermarket","5001 Columbia Pike","22204",38.855937,-77.11346800000001
"22041","Falls Church","VA","88 Oriental Market","6035 Leesburg Pike","22041",38.855345,-77.139801
"22041","Falls Church","VA","Aphrodite Greek Imports","5886 Glen Forest Dr","22041-2309",38.85399393,-77.13447332382202
"22041","Falls Church","VA","Family Market","5820 Seminary Rd","22041",38.847585,-77.127554
"22041","Falls Church","VA","Lacey Grocery","3716 Lacy Blvd","22041",38.842839,-77.132517
"22041","Falls Church","VA","Culmore Supermarket","6019 Leesburg Pike","22041",38.854834999999994,-77.13894
"22041","Falls Church","VA","Tobacco King Of Vape, CBD, Kratom","5520 Leesburg Pike SUITE# A","22041",38.8484674,-77.1231354
"22041","Falls Church","VA","Cherry Grocery","5601 Seminary Rd Ste 3N","22041",38.845708,-77.122102
"22042","Falls Church","VA","H Mart","8103 Lee Hwy","22042",38.87441681059801,-77.22528656873982
"22042","Falls Church","VA","ALDI","8100A Arlington Blvd","22042",38.86636893652556,-77.22558796405792
"22042","Falls Church","VA","Giant Food","7235 Arlington Blvd","22042",38.864639721054544,-77.19559818506241
"22042","Falls Church","VA","Safeway","7397 Lee Hwy","22042",38.87502621581196,-77.19865009191386
"22042","Falls Church","VA","Graham Center","Graham Road","22042",38.86501546551012,-77.19573480529634
"22042","Falls Church","VA","Troika Gastronom","157 Hillwood Ave Ste A","22046",38.87943181001395,-77.17181627365025
"22042","Falls Church","VA","Magruders","Graham Rd","not_available",38.86687910519451,-77.19348873845294
"22042","Falls Church","VA","La Miguelana","not_available","22042",38.876325,-77.191925
"22042","Falls Church","VA","Bestway","3109 Graham Rd","22042",38.86549,-77.193697
"22043","Falls Church","VA","Harris Teeter","301 West Broad","22046",38.88380327700674,-77.17371263365715
"22043","Falls Church","VA","Giant Food","1230 W Broad St","22046",38.8949712,-77.188856
"22043","Falls Church","VA","Trader Joe's","7514 Leesburg Turnpike","22043",38.90433438078478,-77.20398740671003
"22043","Falls Church","VA","Whole Foods Market","7511 Leesburg Pike","22043",38.902949592737066,-77.2046592206364
"22043","Falls Church","VA","Safeway","1688 Anderson Rd","22102",38.9226264,-77.2019119
"22043","Falls Church","VA","ALDI","155 Hillwood Ave","22046",38.879718647973036,-77.17201697668645
"22044","Falls Church","VA","Eden Center","6751 Wilson Blvd","22044",38.873561019134556,-77.15415000915527
"22044","Falls Church","VA","Giant Food","6360 Seven Corners Ctr","22044",38.8680932,-77.1505391
"22044","Falls Church","VA","Safeway","6118 Arlington Blvd","22044",38.869712028839295,-77.14451016501698
"22044","Falls Church","VA","Vietnam Supermarket","6609 Wilson Blvd","22044",38.873818,-77.15144699999999
"22044","Falls Church","VA","Cho Saigon","6763 Wilson Blvd","22044",38.87284851074219,-77.1534652709961
"22060","Fort Belvoir","VA","Wegmans","7905 Hilltop Village Center Dr","22315",38.742820709402686,-77.16097354888916
"22060","Fort Belvoir","VA","Fort Belvoir Commissary","6020 Gorgas Rd Bldg 2302","22060",38.72125551908453,-77.14693085648558
"22060","Fort Belvoir","VA","Fort Belvoir North Post EXPRESS","6095 Gorgas Rd","22060",38.72081270273412,-77.15250593228038
"22066","Great Falls","VA","Safeway","9881 Georgetown Pike","22066",38.9961484,-77.2876296
"22079","Lorton","VA","Wegmans","14801 Dining Way","22191",38.6309690818551,-77.28945315621219
"22079","Lorton","VA","Walmart Supercenter","14000 Worth Ave","22192",38.64828967875192,-77.29666930562546
"22079","Lorton","VA","Shoppers Food Market","9409 Lorton Market St","22079",38.702799194646474,-77.21939475850382
"22079","Lorton","VA","ALDI","6001 Kingstowne Village Pkwy","22315",38.76820373535156,-77.13958740234375
"22079","Lorton","VA","Giant Food","8074 Rolling Rd","22153",38.7397537,-77.2134798
"22079","Lorton","VA","Lorton Marketplace","9409-9457 Lorton Market St","22079",38.702944,-77.2205347
"22079","Lorton","VA","MOM's Organic Market","14470 Smoketown Rd","22192",38.63845814770227,-77.29983353875343
"22079","Lorton","VA","Global Foods","13813 Foulger Sq","22192",38.65506488221796,-77.3023465015358
"22079","Lorton","VA","Kababayan Filipino Gourmet","13840 Smoketown Rd","22192",38.6530762550738,-77.30547200583871
"22079","Lorton","VA","Todos Supermarket","14428 Jefferson Davis Hwy","22191",38.651037143210644,-77.25621988577491
"22079","Lorton","VA","Safeway","2205 Old Bridge Rd","22192",38.67737123400608,-77.28125904852732
"22079","Lorton","VA","ALDI","13782 Smoketown Rd","22192",38.6527778,-77.3065694
"22079","Lorton","VA","Handy Dandy Market","13316 Occoquan Rd","22191",38.662736841329995,-77.2534585649914
"22079","Lorton","VA","Star Food Mart","13580 Jefferson Davis Highwat","22191",38.65817,-77.249977
"22079","Lorton","VA","Global food warehouse","14823","not_available",38.67416779385621,-77.27237309393043
"22079","Lorton","VA","Potomac Vape","2713 Potomac Mills Circle","22192",38.639726,-77.29813
"22079","Lorton","VA","Safeway","not_available","22192",38.651702331911196,-77.29863742991738
"22079","Lorton","VA","Kumasi Supermarket","14790 Jefferson Davis Hwy","not_available",38.632332,-77.272086
"22079","Lorton","VA","Saratoga Shopping Center","8040-8092 Rolling Rd","22153",38.739152685771906,-77.21370511137587
"22079","Lorton","VA","La azteca latina","not_available","22193",38.628118894424844,-77.30127419881948
"22079","Lorton","VA","ALDI","13291 Gordon Blvd","22191",38.664074,-77.2481249
"22079","Lorton","VA","Tobacco King of Vape, CBD, Kratom","2898 DALE BLVD, SUITE# 101","22193",38.628098,-77.299966
"22079","Lorton","VA","Tobacco King Of Vape, CBD, Kratom","13273 Worth Avenue","22192",38.65008,-77.293974
"22079","Lorton","VA","Price Rite of Woodbridge, VA","Market at Opitz Crossing","22191",38.6327266,-77.2743532
"22101","Mc Lean","VA","Giant Food","1454 Chain Bridge Rd","22101",38.9327885,-77.1801518
"22101","Mc Lean","VA","Balducci's Food Lover's Market","6655 Old Dominion Dr","22101",38.93106396309652,-77.17428758312906
"22101","Mc Lean","VA","Safeway","4701 Sangamore Rd","20816",38.9500438,-77.1192358
"22101","Mc Lean","VA","Safeway","1330 Chain Bridge Rd","22101",38.9393685,-77.1759885
"22101","Mc Lean","VA","Safeway","6244 Old Dominion Dr","22101",38.9208477,-77.1503367
"22101","Mc Lean","VA","CVS pharmacy","1452 Chain Bridge Rd","22101",38.9329815227741,-77.17988016929802
"22101","Mc Lean","VA","Russian Gourmet","1396 Chain Bridge Rd","22101",38.936428,-77.17660500000001
"22102","Mc Lean","VA","Whole Foods Market","1635 Boro Place","22102",38.924832,-77.233269
"22102","Mc Lean","VA","Walmart Supercenter","1500 B Cornerside Blvd","22182",38.93001423384721,-77.24493876346553
"22102","Mc Lean","VA","Nourish Market","8100 Old Dominion Dr","22102",38.95220616924992,-77.22494242811432
"22124","Oakton","VA","Giant Food","2932 Chain Bridge Rd","22124",38.88398448814609,-77.30005413293839
"22134","Quantico","VA","Quantico MCB Commisary","3400 Russell Rd","22134",38.519874006404514,-77.34991836798616
"22134","Quantico","VA","DECA Commisary","Russell Rd","not_available",38.51983158388318,-77.34992966266321
"22150","Springfield","VA","Trader Joe's","6394 Springfield Plaza","22150",38.78153774624388,-77.18945860862732
"22150","Springfield","VA","Giant Food","6426 Springfield Plz","22150",38.7798427,-77.1901499
"22150","Springfield","VA","LA Mart","6711 Bland St","22150",38.7809566191564,-77.18242221233102
"22150","Springfield","VA","Fresh World International Supermarket","6901 Hechinger Dr","22151",38.79487593789821,-77.18378204757131
"22150","Springfield","VA","ALDI","Commerce St","22150",38.7834559707584,-77.1840435618169
"22150","Springfield","VA","Manila Oriental","7026 Commerce St","22150",38.782979297145694,-77.18756348629614
"22150","Springfield","VA","Desi Bazar","Springfield Pz","22150",38.7834906878663,-77.18375716243315
"22150","Springfield","VA","Phuoc Hoa Asian Market","6975 Hechinger Dr","22151",38.795357,-77.184862
"22150","Springfield","VA","ALDI","6129 Backlick Rd","22150",38.7836854,-77.1839561
"22150","Springfield","VA","Thai Shop","not_available","22150",38.77337,-77.186639
"22150","Springfield","VA","El Mercado La Colonia","6971 Hechinger Dr","22151",38.795357,-77.184862
"22150","Springfield","VA","La Latina Market","7010 Commerce St","22150",38.783142,-77.187529
"22150","Springfield","VA","Deli Mall Cafe","6553 Loisdale Ct","22150",38.77523217964293,-77.17793507382875
"22150","Springfield","VA","Dong Nam #1 Supermarket","7040 Spring Garden Dr","22150",38.772372999999995,-77.185828
"22151","Springfield","VA","Lotte Plaza Market","5204 Port Royal Rd","not_available",38.810312309271694,-77.22293664729105
"22152","Springfield","VA","Whole Foods Market","8402 Old Keene Mill Rd","22152",38.77989436420878,-77.23479885713579
"22152","Springfield","VA","Giant Food","8320 Old Keene Mill Rd","22152",38.7808876,-77.2321887
"22152","Springfield","VA","Jummah Bazaar Of Springfield","6353 Rolling Rd","22152",38.778599022022625,-77.23205340374409
"22180","Vienna","VA","Giant Food","359 Maple Ave E","22180",38.9053632651142,-77.25804135203362
"22180","Vienna","VA","Whole Foods Market","143 Maple Ave East","22180",38.90255767294655,-77.26303234994003
"22180","Vienna","VA","The Fresh Market","150 Branch Rd SE,","22180",38.905879731313604,-77.2572387927766
"22180","Vienna","VA","Thai Asian Food Market","350 Maple Ave W","22180",38.89661407470703,-77.27070617675781
"22180","Vienna","VA","Cocoa Vienna, LLC","311 Tapawingo Rd SE","22180",38.898112,-77.24945500000001
"22180","Vienna","VA","Assal Market","120 Maple Ave E","22180",38.905144135346426,-77.26140216356228
"22180","Vienna","VA","House of Vape","141 Church St NW","22180",38.90132522583008,-77.26793670654297
"22191","Woodbridge","VA","EZway Mart","2904 Ashdale Plaza","22193",38.6281,-77.300449
"22192","Woodbridge","VA","Giant","12445 Hedges Run Dr","22192",38.68604993296842,-77.31124699115753
"22192","Woodbridge","VA","Giant Food","4309 Dale Blvd","22193",38.64591948091621,-77.339426279068
"22192","Woodbridge","VA","Safeway","4215 Cheshire Station Plz","22193",38.6452993,-77.3333381
"22192","Woodbridge","VA","Safeway","4240 Merchant Plz","22192",38.6747661,-77.3349351
"22192","Woodbridge","VA","Tobacco King Of Vape, CBD, Kratom","4315 DALE BLVD SUITE# A","22193",38.6469262,-77.3393072
"22201","Arlington","VA","Harris Teeter","600 North Glebe Rd","22203",38.87663476510075,-77.10978627204895
"22201","Arlington","VA","Whole Foods Market","2700 Wilson Blvd","22201",38.88909416608205,-77.09124222223295
"22201","Arlington","VA","Giant Food","3450 Washington Blvd","22201",38.8859233,-77.1031965
"22201","Arlington","VA","Trader Joe's","1109 N Highland St","22201",38.88664,-77.094678
"22201","Arlington","VA","MOM's Organic Market","1901 N Veitch St","22201",38.89655375197181,-77.08618301417395
"22201","Arlington","VA","Safeway","3713 Lee Hwy","22207",38.8963982,-77.1056725
"22201","Arlington","VA","Giant Food","3115 Lee Hwy","22201",38.896863461676965,-77.0959809422493
"22201","Arlington","VA","The Italian Store","3123 Lee Hwy","22201",38.89665053332292,-77.09658751305236
"22201","Arlington","VA","Randolph Deli & Grocery","4001 9th St N","22203",38.881478,-77.108471
"22201","Arlington","VA","Glebe Market","300 N Glebe Rd","22203",38.873999150665725,-77.10558569312812
"22201","Arlington","VA","La Union Grocery","4308 Lee Hwy","22207",38.89681727259238,-77.11352420235956
"22201","Arlington","VA","Lincoln Market","850 N Randolph St","22203",38.88045883178711,-77.10945129394531
"22201","Arlington","VA","Aladdin Halal Market","Columbia Pike","not_available",38.886446,-77.096474
"22201","Arlington","VA","European Food Import Export","2700 N Pershing Dr","22201",38.88045170479377,-77.09074527025223
"22201","Arlington","VA","Latin Market Express","2724 Washington Blvd","22201",38.880275,-77.090636
"22201","Arlington","VA","Basket Savings","1220 N Fillmore St","22201",38.887009,-77.093075
"22201","Arlington","VA","7- eleven","3510 Wilson Blvd","22201",38.8822021484375,-77.10124969482422
"22202","Arlington","VA","Giant Food","2901-11 S Glebe Rd","22206",38.845728381491206,-77.06872165203094
"22202","Arlington","VA","Whole Foods Market","520 12th Street South","22202",38.86295097826099,-77.05479688232414
"22202","Arlington","VA","Harris Teeter","900 Army Navy Dr","22202",38.86493315693872,-77.062028616286
"22202","Arlington","VA","Harris Teeter","3600 S Glebe Rd","22202",38.84215244159326,-77.05169556786383
"22202","Arlington","VA","MOM's Organic Market","3831 Mt Vernon Ave","22305",38.840999031809396,-77.06293358610147
"22202","Arlington","VA","Lidl","South Clark Street Suite 100 3500","22202",38.8436417393153,-77.0519714101089
"22202","Arlington","VA","Tower Foods","1600 S Eads St","22202",38.85873794555664,-77.05408477783203
"22202","Arlington","VA","Al Salam Market","4112 Mount Vernon Ave","22305",38.843687,-77.064871
"22202","Arlington","VA","Mercadito Ramos 3","4102 Mount Vernon Ave","22305",38.843687,-77.064871
"22202","Arlington","VA","Convience Store","not_available","22202",38.86288914915318,-77.05251395037854
"22203","Arlington","VA","Safeway","5101 Wilson Blvd","22205",38.878008,-77.1233071
"22203","Arlington","VA","Fiesta Oriental Market","4815 1st St N","22203",38.867671027913985,-77.11714085327007
"22203","Arlington","VA","Plaza Market","85 N Glenn Rd","not_available",38.868697,-77.098851
"22204","Arlington","VA","Giant Food","2501 9th Rd S","22204",38.8638077,-77.0840826
"22204","Arlington","VA","Fort Myer Commissary","523 Carpenter Rd.","22211",38.86960793235245,-77.07693318831807
"22204","Arlington","VA","Bangkok 54 Restaurant & Bar","2919 Columbia Pike","22204",38.862586089801916,-77.08765641289804
"22204","Arlington","VA","Bangkok 54 Oriental Market","2927 Columbia Pike","22204",38.8624671188504,-77.08772655247799
"22204","Arlington","VA","Tobacco King Of Vape, CBD, Kratom","1609 S Glebe Rd","22204",38.8561156,-77.0887778
"22204","Arlington","VA","Aladdin Halal Market","2524 Columbia Pike","22204",38.862857818603516,-77.08447265625
"22204","Arlington","VA","Harris Teeter","954 South George Mason","22204",38.86091995239258,-77.1027603149414
"22205","Arlington","VA","Westover Market","5863 Washington Blvd","22205",38.88554624160807,-77.14136269684445
"22206","Arlington","VA","Harris Teeter","4250 Campbell Ave","22206",38.8412864385979,-77.09007783535377
"22206","Arlington","VA","Safeway","3526 King St","22302",38.827875,-77.0892984
"22206","Arlington","VA","The Fresh Market","3680 King St,","22302",38.82908075200419,-77.09232228406974
"22206","Arlington","VA","ALDI","4602 Kenmore Ave","22304",38.8292461,-77.1094289
"22206","Arlington","VA","Arlington Food Assistance Center (AFAC)","2708 S Nelson St","22206",38.8435782611319,-77.08925793220806
"22206","Arlington","VA","Griffin Market","2500 N Van Dorn St","22302",38.832759,-77.099756
"22207","Arlington","VA","Harris Teeter","2425 N. Harrison St","22207",38.89691450030031,-77.1378870475913
"22207","Arlington","VA","Safeway","2500 N Harrison St","22207",38.8970708,-77.1393101
"22207","Arlington","VA","India A-1 Grocery","4815A Lee Hwy","22207",38.89695,-77.125834
"22209","Arlington","VA","Safeway","1525 Wilson Blvd","22209",38.8951679,-77.0748574
"22209","Arlington","VA","Fort Myer Market","1210 Fort Myer Dr","22209",38.88835022644349,-77.07578687961146
"22209","Arlington","VA","Prospect Market","1400 14th St N","22209",38.88985061645508,-77.07302856445312
"22209","Arlington","VA","Balducci's High Noon Food Lover's Market","1100 Wilson Blvd","22209",38.89458084106445,-77.06997680664062
"22301","Alexandria","VA","Giant","621 E Glebe Rd","22305",38.8321871,-77.0501449
"22301","Alexandria","VA","ALDI","425 E Monroe Ave","22301",38.8207876,-77.0536774
"22302","Alexandria","VA","Harris Teeter","4641 Duke St","22304",38.81272759101937,-77.11208340612019
"22302","Alexandria","VA","ALDI","4580 Duke St","22304",38.8116155,-77.1108517
"22303","Alexandria","VA","La Latina Market","5838 N Kings Hwy Ste C","22303",38.789836,-77.077063
"22303","Alexandria","VA","Bestway Supermercado","5695 Telegraph Rd","22303",38.79704259581256,-77.08058308456899
"22303","Alexandria","VA","Elizabeth Grocery Inc.","6138 N Kings Hwy Ste B","22303",38.78368,-77.078849
"22303","Alexandria","VA","El Eden Supermercardo","6222 Richmond Hwy","not_available",38.78338168150668,-77.07741481950251
"22304","Alexandria","VA","Fair Price Supermarket","5703C Edsall Rd","22304",38.808104,-77.13109200000001
"22304","Alexandria","VA","Giant Food","6200 Little River Tpke","22312",38.8185911,-77.1399951
"22304","Alexandria","VA","LA Mart","5730 Edsall Rd","22304",38.806949615478516,-77.13182067871094
"22304","Alexandria","VA","Safeway","299 S Van Dorn St","22304",38.8101614,-77.1336048
"22304","Alexandria","VA","New Grand Mart","6255 Little River Tpke","22312",38.817202037690215,-77.14302030533008
"22304","Alexandria","VA","African Grocery & Meat Market","6243 Little River Tpke","22312",38.816656,-77.142876
"22304","Alexandria","VA","Hadi international halal meat & spices","640 S Pickett St","22304",38.804025,-77.13180600000001
"22304","Alexandria","VA","Main Street Market","171 Somervelle St","22304",38.809523,-77.116618
"22304","Alexandria","VA","Kenbeth International (Weyone Foods)","510 S Van Dorn St Unit C-D","22304",38.806365,-77.1318706
"22305","Alexandria","VA","Food Star","not_available","22305",38.83700515016505,-77.0618954191947
"22305","Alexandria","VA","Streets Market & Cafe","3801 Mount Vernon Ave","22305",38.83343413367017,-77.06006927076378
"22305","Alexandria","VA","Sunrise Market","3314 Jefferson Davis Hwy","22305",38.835275,-77.051957
"22305","Alexandria","VA","Mia's Market","3122 Mount Vernon Ave","22305",38.8340950012207,-77.0606460571289
"22305","Alexandria","VA","Food Star","206 W Glebe Rd","22305",38.836604,-77.062405
"22306","Alexandria","VA","Giant Food","6800 Richmond Hwy","22306",38.7708179,-77.0838364
"22306","Alexandria","VA","Walmart","5885 Kingstowne Blvd","22315",38.76980434311702,-77.13612015584734
"22306","Alexandria","VA","Walmart Supercenter","6303 Richmond Hwy","22306",38.780103992477045,-77.07667962544073
"22306","Alexandria","VA","Shoppers Food Market","7660 Richmond Hwy","22306",38.7511414,-77.0854814
"22306","Alexandria","VA","Safeway","1624 Belle View Blvd","22307",38.7762479,-77.0604825
"22306","Alexandria","VA","Giant Food","5870 Kingstowne Ctr","22315",38.7729798,-77.1371956
"22306","Alexandria","VA","Walmart","7910 Richmond Hwy","22306",38.74321129159105,-77.08715334467892
"22306","Alexandria","VA","Safeway","6130 Rose Hill Dr","22310",38.78411591990327,-77.12245837607043
"22306","Alexandria","VA","ALDI","8256 Richmond Hwy","22309",38.7343405,-77.1002896
"22306","Alexandria","VA","Safeway","7900 Fort Hunt Rd","22308",38.743546792380606,-77.0575971977542
"22306","Alexandria","VA","Asia Bazaar","7864 Richmond Hwy","22306",38.744236,-77.085378
"22306","Alexandria","VA","Todos Market","7849B Richmond Hwy","22306",38.74327850341797,-77.08402252197266
"22306","Alexandria","VA","MegaMart Supermarket","8228 Richmond Hwy","22309",38.735106,-77.098513
"22306","Alexandria","VA","Tobacco & Vape Palace","6440 Richmond Hwy","22306",38.777190000000004,-77.080626
"22309","Alexandria","VA","Safeway","8646 Richmond Hwy","22309",38.7243402,-77.1214052
"22309","Alexandria","VA","Bestway Supermercado","8457 Richmond Hwy","22309",38.72637,-77.110574
"22309","Alexandria","VA","Las Margaritas","8512 Richmond Hwy","22309",38.727042,-77.113072
"22309","Alexandria","VA","Rorer's Produce","8515 Richmond Hwy","22309",38.726308,-77.112941
"22310","Alexandria","VA","Safeway","5980 Kingstowne Towne Ctr","22315",38.7698447,-77.1413503
"22310","Alexandria","VA","Food To Go","5601A General Washington Dr","22312",38.79923629760742,-77.16256713867188
"22314","Alexandria","VA","Whole Foods Market","1700 Duke St","22314",38.804328254457225,-77.05990193337611
"22314","Alexandria","VA","Harris Teeter","735 N. Saint Asaph St","22314",38.8127301547477,-77.04403803460596
"22314","Alexandria","VA","Trader Joe's","612 N Saint Asaph St","22314",38.81116749218027,-77.04475015179548
"22314","Alexandria","VA","Giant Food","3131 Duke St","22314",38.80899001087712,-77.08418726921087
"22314","Alexandria","VA","Safeway","500 S Royal St","22314",38.7997381,-77.0445131
"22314","Alexandria","VA","Balducci's","600 Franklin St","22314",38.79805759017737,-77.04806866888583
"22314","Alexandria","VA","The Super Store","1204 S Washington St","22314",38.79257845349795,-77.04891591726752
"22401","Fredericksburg","VA","Walmart Supercenter","1800 Carl D Silver Pkwy","22401",38.30646295821917,-77.51350282419668
"22401","Fredericksburg","VA","Wegmans","2281 Carl D Silver Pkwy","22401",38.312698249826404,-77.50868563811098
"22401","Fredericksburg","VA","Giant","1245 Jefferson Davis Hwy","22401",38.30674698705127,-77.48183816671371
"22401","Fredericksburg","VA","Fiesta Supermarket","104 Olde Greenwich Dr","22408",38.271367,-77.48264499999999
"22405","Fredericksburg","VA","Giant","35 Town and Country Dr","22405",38.309196,-77.4281625
"22405","Fredericksburg","VA","Walmart Supercenter","125 Washington Square Plz","22405",38.28476805,-77.43825347
"22405","Fredericksburg","VA","Aldi","5099 Jefferson Davis Hwy Ste C","22408",38.2551224,-77.5007399
"22405","Fredericksburg","VA","Weis Markets","282 Deacon Rd","22405",38.327102000000004,-77.438347
"22405","Fredericksburg","VA","Weis Markets","10871 Tidewater Trl","22408",38.256248,-77.42705500000001
"22405","Fredericksburg","VA","Selecto's","not_available","22408",38.265577,-77.496297
"22405","Fredericksburg","VA","Kickshaw's","101 Williams Dr","22405",38.326464,-77.376108
"22405","Fredericksburg","VA","Shaklee Distributor","231 N Randolph Rd (Publish)","22405",38.3273109,-77.4013403
"22406","Fredericksburg","VA","Walmart Supercenter","11 Village Pkwy","22406",38.37022132,-77.52921761
"22406","Fredericksburg","VA","Giant","550 Celebrate Virginia Pkwy","22406",38.3597309,-77.5216446
"22406","Fredericksburg","VA","Walmart Neighborhood Market","14 N Stafford Complex Center","22556",38.476873,-77.47287800000001
"22406","Fredericksburg","VA","Weis Markets","905 Garrisonville Rd","22556",38.4677918,-77.46226373
"22406","Fredericksburg","VA","CVS pharmacy","902 Garrisonville Rd","22554",38.46945138813855,-77.46042735455504
"22406","Fredericksburg","VA","Aldi","1030 Warrenton Rd","22406",38.3637323,-77.5207594
"22407","Fredericksburg","VA","Walmart Supercenter","10001 Southpoint Pkwy","22407",38.23683734,-77.50836499
"22407","Fredericksburg","VA","Publix","9601 Jefferson Davis Hwy","22407",38.21911118460285,-77.50619183509161
"22407","Fredericksburg","VA","Giant","5701 Plank Rd","22407",38.2931315,-77.566366
"22407","Fredericksburg","VA","Weis Markets","9801 Courthouse Rd","22553",38.233249848693205,-77.55743412073646
"22407","Fredericksburg","VA","Weis Markets","4153 Plank Rd","22407",38.290466,-77.533325
"22407","Fredericksburg","VA","Giant Food","10346 Courthouse Rd","22553",38.2450374,-77.5289205
"22407","Fredericksburg","VA","Weis Markets","7100 Salem Fields Blvd","22407",38.262665999999996,-77.580024
"22407","Fredericksburg","VA","ALDI","4173 Plank Rd","22407",38.2907534,-77.5342707
"22407","Fredericksburg","VA","Chewning's Grocery","9100 Courthouse Rd","22553",38.20143,-77.58951400000001
"22407","Fredericksburg","VA","5-Mile Intl. Market","6322 Five Mile Centre Park","22407",38.288156,-77.554671
"22432","Burgess","VA","Olin-Fox Farms Store","15017 Northumberland Hwy","22432",37.88371658325195,-76.34648895263672
"22435","Callao","VA","The Health Nut","not_available","22435",37.96520233154297,-76.5572280883789
"22435","Callao","VA","Callao Supermarket","35 Northumberland Hwy","22435",37.9692708970021,-76.55938097268633
"22443","Colonial Beach","VA","Great Valu Markets","3895 James Monroe Hwy","22443",38.2282600402832,-76.98190307617188
"22448","Dahlgren","VA","Dahlgren NSF Commissary","6196 Jenkins Rd","22448",38.326127861462865,-77.03925691691748
"22454","Dunnsville","VA","Walmart Supercenter","1660 Tappahannock Blvd","22560",37.90454871865463,-76.86389548343249
"22469","Hague","VA","The Buoy","5718 Sandy Point Rd","22488",38.05330276489258,-76.60961151123047
"22469","Hague","VA","The Country Store","3550 Oldhams Rd","not_available",37.97705110351341,-76.6607831662651
"22473","Heathsville","VA","Land and Sea Farm Market","191 Bow Wood Dr","22473",37.80972567140023,-76.3778272387757
"22482","Kilmarnock","VA","Walmart Supercenter","200 Old Fairgrounds Way","22482",37.727146217302234,-76.38583691781022
"22482","Kilmarnock","VA","Great Valu Markets","81 Irvington Road","22482",37.71499252319336,-76.36832427978516
"22482","Kilmarnock","VA","Tri-Star Supermarket","81 Irvington Rd","22482",37.70907680624578,-76.3819474815158
"22485","King George","VA","Walmart Supercenter","16375 Merchant Ln","22485",38.35119788533089,-77.0568426917732
"22485","King George","VA","Food Lion","7188-7198 Kings Hwy","22807",38.289151376959744,-77.21947874118531
"22503","Lancaster","VA","Urbanna Market","335 Virginia St.","23175",37.63624196486347,-76.57902002334595
"22508","Locust Grove","VA","Walmart Supercenter","2533 Germanna Hwy","22508",38.37167299,-77.76880758
"22551","Spotsylvania","VA","Fluzy's","not_available","23117",38.10531234741211,-77.88937377929688
"22554","Stafford","VA","Walmart Supercenter","217 Garrisonville Rd","22554",38.471338304693944,-77.41751344307619
"22554","Stafford","VA","Giant Food","317 Worth Ave","22556",38.4770668,-77.417038
"22554","Stafford","VA","ALDI","263 Garrisonville Rd","22554",38.47309310687011,-77.4195236527786
"22554","Stafford","VA","Shoppers Food Market","1505 Stafford Market Pl","22556",38.47079545318898,-77.41123171183062
"22554","Stafford","VA","Weis Markets","2612 Jefferson Davis Hwy","22554",38.44940185546875,-77.40011596679688
"22556","Stafford","VA","Rock Hill Honey Bee Farms","45 Pinto Ln","22556",38.506601,-77.542349
"22560","Tappahannock","VA","Watts and Sons Supermarket","6563 Richmond HWY","23115",37.829183019379684,-76.94299596659448
"22572","Warsaw","VA","Food Lion Grocery Store","4665 Richmond Rd","22572",37.96307522103572,-76.77725431893225
"22601","Winchester","VA","Walmart Supercenter","2350 S Pleasant Valley Rd","22601",39.15634412672571,-78.17208017715492
"22601","Winchester","VA","food maxx","1107 Berryville Ave","22601",39.183805,-78.141911
"22601","Winchester","VA","Sharp Shopper. 802 Berryville Ave Winchester Va","802 Berryville Ave","22601",39.187255859375,-78.14628601074219
"22601","Winchester","VA","Sharp Shopper Grocery Outlet","not_available","22601",39.186956524577155,-78.1465296676651
"22601","Winchester","VA","Shop N Save","707 Fort Collier Rd","22601",39.187414000000004,-78.143893
"22601","Winchester","VA","Harvest Moon","3113 Valley Ave","22601",39.142788,-78.192412
"22601","Winchester","VA","Shenk Food","not_available","22602",39.13840103149414,-78.20118713378906
"22602","Winchester","VA","Walmart Supercenter","501 Wal Mart Dr","22603",39.19367214933612,-78.20576626617775
"22602","Winchester","VA","ALDI","221 Kernstown Commons Blvd","22602",39.11822357886337,-78.19617480039591
"22602","Winchester","VA","Martin's Food","240 Elizabeth Dr","22655",39.0835139,-78.2029595
"22602","Winchester","VA","Walmart Supercenter","201 Maranto Manor Dr","22602",39.08377737773499,-78.15014338396288
"22602","Winchester","VA","Gradens Supermarket","Wardensville Pike","not_available",39.07317340973384,-78.3716927758144
"22602","Winchester","VA","Shop 'N Save","380 Fairfax Pike","22655",39.07891845703125,-78.2041015625
"22602","Winchester","VA","Shop ‘N Save","159 Grocery Ave","22602",39.16862,-78.119859
"22603","Winchester","VA","Crossroads Grocery","119 Cedar Grove Rd","22603",39.245243562633696,-78.2019620022751
"22611","Berryville","VA","Shop ‘N Save","409 McNeil Dr","22611",39.158782958984375,-77.97991180419922
"22630","Front Royal","VA","Walmart Supercenter","10 Riverton Commons Dr","22630",38.96039808265545,-78.18794513816465
"22630","Front Royal","VA","Martin's","409 South St","22630",38.9107017,-78.1884738
"22630","Front Royal","VA","ALDI","134 Riverton Commons Dr","22630",38.963888655427944,-78.18675756454462
"22630","Front Royal","VA","Middle town market n more","7607","not_available",39.028559159580986,-78.26966933945438
"22630","Front Royal","VA","Shop ' n Save","260 Remount Rd","22630",38.90895462036133,-78.18306732177734
"22630","Front Royal","VA","Monterey Service Station","6087 John Marshall Hwy","22642",38.909664,-78.07595400000001
"22637","Gore","VA","Farmers Daughter Market and Butcher","2908 Northwestern Pike","26711",39.297316,-78.431671
"22637","Gore","VA","Gore store","305 Gore Rd","22637",39.264012,-78.330763
"22644","Maurertown","VA","Farm fresh Produce","703 N. Main St","22664",38.89138412475586,-78.49787902832031
"22652","Fort Valley","VA","Walmart Supercenter","461 W Reservoir Rd","22664",38.869609247654495,-78.53038265550384
"22654","Star Tannery","VA","Star Market","not_available","22654",39.074138,-78.441644
"22654","Star Tannery","VA","Kerr's Grocery, Hardware, Auto Parts & Car Wash","Wardensville Pike","26851",39.08654969750825,-78.58679100026418
"22701","Culpeper","VA","Martin's","15371 Montanus Dr","22701",38.4836288,-77.9654399
"22701","Culpeper","VA","Safeway","309 Southgate Shopping Ctr","22701",38.4628,-78.00198
"22701","Culpeper","VA","Walmart Supercenter","801 James Madison Hwy","22701",38.48091943747293,-77.97372564294446
"22701","Culpeper","VA","Culpeper Colonnade","15295-15371 Montanus Dr","22701",38.483434419423396,-77.96541094779968
"22701","Culpeper","VA","Toliver's Country Store","not_available","22737",38.555772,-78.05827
"22701","Culpeper","VA","El Nopal","215 E Culpeper St","22701",38.472129821777344,-77.99468994140625
"22701","Culpeper","VA","Native Harvest Market","101 Duke St","22701",38.49227837892879,-77.99246411690996
"22701","Culpeper","VA","Aldi","15179 Montanus Dr","22701",38.48715287249397,-77.96863631175256
"22701","Culpeper","VA","Weis Markets","505 Culpeper Town Sq","22701",38.47921371459961,-77.98905944824219
"22712","Bealeton","VA","Berry Good Farm","6062 Dwyer Ln","22712",38.538053999999995,-77.756466
"22715","Brightwood","VA","Brightwood General Store","Brightwood","22715",38.42093,-78.19516
"22727","Madison","VA","Syria Mercantile","not_available","22743",38.388244666666665,-78.2484312
"22801","Harrisonburg","VA","Walmart Supercenter","171 Burgess Road","22801",38.434888394809036,-78.85264932197727
"22801","Harrisonburg","VA","Walmart Neighborhood Market","1942 Port Republic Road","22801",38.4052619934082,-78.86344909667969
"22801","Harrisonburg","VA","Martin's Food Market","2035 E Market St","22801",38.4237606,-78.8411178
"22801","Harrisonburg","VA","Walmart Supercenter","2160 John Wayland Hwy","22801",38.432092538687534,-78.91042100775472
"22801","Harrisonburg","VA","ALDI","1990 Country Club Rd","22802",38.4286273,-78.8395001
"22801","Harrisonburg","VA","Bridgewater Iga","not_available","22812",38.38908167541188,-78.96816154485991
"22801","Harrisonburg","VA","Kroger","1790 E Market St","22801",38.4318463,-78.8409816
"22801","Harrisonburg","VA","Cargill Company Store","2205 S Main St","22801",38.422607,-78.89383
"22801","Harrisonburg","VA","Friendly City Food Co-op","150 E Wolfe St","22802",38.45167199644455,-78.86636936921748
"22801","Harrisonburg","VA","Sharp Shopper","2475 S Main St Ste A","22801",38.420245957490074,-78.8959986483402
"22801","Harrisonburg","VA","Red Front Supermarket","667 Chicago Avenue","22802",38.458107330957056,-78.87420390693133
"22801","Harrisonburg","VA","Save and Prosper","1060 Virginia Ave","22802",38.46318,-78.869134
"22801","Harrisonburg","VA","Great Valu Markets","519 N Main St","22812",38.389244079589844,-78.96846008300781
"22801","Harrisonburg","VA","Sue's Super Nutrition","3036 S Main St, Harrisonburg, VA 22801","22801",38.411493,-78.901519
"22802","Harrisonburg","VA","Mayland Market","not_available","22815",38.57476806640625,-78.74311065673828
"22810","Basye","VA","Lost River General Store","not_available","26812",38.91483414855485,-78.78373827091582
"22812","Bridgewater","VA","257 Grocery","6939 Briery Branch Rd","22821",38.432655334472656,-79.08284759521484
"22815","Broadway","VA","Walmart Supercenter","375 S Main Street","22853",38.63013815954137,-78.77559020929942
"22815","Broadway","VA","The Co-operative, The Broadway","The Broadway","22815",38.614112,-78.796756
"22815","Broadway","VA","New Market Grocery","9466 S Congress St","22844",38.645752,-78.672703
"22815","Broadway","VA","Walmart Grocery Pickup","375 S Main St","22853",38.6310075675676,-78.7772818918919
"22815","Broadway","VA","Broadway Supermarket","241 W. Lee St.","22815",38.61931907510097,-78.8011199982387
"22815","Broadway","VA","Ventura Grocery Store","9445-9495 S Congress St","22844",38.646328999999994,-78.672475
"22824","Edinburg","VA","Save-A-Lot","5836 Main St","22842",38.74883,-78.64029000000001
"22827","Elkton","VA","Greene Great Valu","8271 Spotswood Trl","22973",38.29823,-78.443096
"22827","Elkton","VA","Valley Grocery (Chiefy's)","Stewart Ave","22827",38.4018481876048,-78.6196231842041
"22835","Luray","VA","Walmart Supercenter","1036 Us Highway 211 W","22835",38.66203279884882,-78.49388000592515
"22835","Luray","VA","Farmer's Foods","8 E Luray Shopping Ctr","22835",38.664724,-78.44613100000001
"22835","Luray","VA","Shopper’s Value","not_available","22835",38.664862,-78.446798
"22841","Mount Crawford","VA","Super Save Market","51 Franklin St","24486",38.284484,-78.914778
"22901","Charlottesville","VA","Harris Teeter","975 Emmet St","22903",38.04991968771048,-78.50408053861833
"22901","Charlottesville","VA","Walmart Supercenter","975 Hilton Heights Rd","22901",38.097142795786205,-78.46646447681991
"22901","Charlottesville","VA","Whole Foods","not_available","22901",38.059601,-78.488921
"22901","Charlottesville","VA","Kroger","1159 Emmet St N","22903",38.0535515,-78.5007388
"22901","Charlottesville","VA","Kroger","1904 Emmet St N","22901",38.05976369236022,-78.49159368347014
"22901","Charlottesville","VA","Trader Joe's","2025 Bond St.","22901",38.06305169964294,-78.49150359804878
"22901","Charlottesville","VA","Whole Foods Market","1797 Hydraulic Road","22901",38.05982630259692,-78.4891438318337
"22901","Charlottesville","VA","Kroger","1980 Rio Hill Ctr","22901",38.0890562,-78.4736295
"22901","Charlottesville","VA","Harris Teeter","159 Community St","22911",38.12731666305378,-78.4433940005172
"22901","Charlottesville","VA","Big Lots","590 Branchlands Blvd","22901",38.07343637037798,-78.47864104617815
"22901","Charlottesville","VA","Reid Super-Save Market","600 Preston Ave","22903",38.03499553272699,-78.48589542070458
"22901","Charlottesville","VA","Foods of All Nations","2121 Ivy Rd","22903",38.043353023032694,-78.51216312505652
"22901","Charlottesville","VA","Integral Yoga Natural Foods","923 Preston Ave","22903",38.03888063401426,-78.48967720145895
"22901","Charlottesville","VA","Asian Market","1417 Emmet St N Ste B","22903",38.056398,-78.496866
"22901","Charlottesville","VA","Latino Market Charlottesville","380 Greenbrier Dr","22901",38.07149176807194,-78.48536660660102
"22901","Charlottesville","VA","C'ville Oriental","143 Zan Rd","22901",38.064056396484375,-78.48839569091797
"22901","Charlottesville","VA","RelayFoods.com (West of Boar's Head Inn Pickup)","2851 Ivy Rd","22903",38.05125045776367,-78.5457992553711
"22901","Charlottesville","VA","RelayFoods.com (Darden Pickup)","100 Darden Blvd","22903",38.05259323120117,-78.5145034790039
"22901","Charlottesville","VA","Rebecca's Natural Foods","1141 Emmet St. S","22903",38.05305587331858,-78.50101754388056
"22901","Charlottesville","VA","Mercado World Foods","900 Gardens Blvd","22901",38.084696531295776,-78.47086787223816
"22901","Charlottesville","VA","Market Street Wineshop Uptown","305 Rivanna Plaza Dr Ste 102","22901",38.0913518,-78.46897919999999
"22902","Charlottesville","VA","Wegmans","100 Wegmans Way","22902",38.00894235015678,-78.5003881506967
"22902","Charlottesville","VA","Giant","1900 Abbey Rd","22911",38.0296826,-78.4459252
"22902","Charlottesville","VA","Market Street Market","400 East Market St","22902",38.03080910828847,-78.47873562396285
"22902","Charlottesville","VA","Afghan Grand Market","323 W Main St","22903",38.03073501586914,-78.48606872558594
"22902","Charlottesville","VA","Found Market Co.","not_available","22902",38.023811,-78.470049
"22902","Charlottesville","VA","Charlottesville Oriental Food Market","206 Carlton Rd","22902",38.02327346801758,-78.46895599365234
"22902","Charlottesville","VA","Blue Ridge Country Store","518 E Main St","22902",38.02970083087974,-78.47803811097555
"22902","Charlottesville","VA","620 Market","not_available","24590",37.97423378192389,-78.45405505248287
"22902","Charlottesville","VA","Lucky 7","801 East Market St","22902",38.030027494041896,-78.47584666492689
"22903","Charlottesville","VA","Harris Teeter","545 Radford Ln Building A","22903",38.05081893768092,-78.68234793410386
"22903","Charlottesville","VA","Crozet Great Valu","5728 Three Notched Rd","22932",38.069593824706594,-78.69762052884383
"22903","Charlottesville","VA","Great Value","240","22932",38.06950544769093,-78.69773970902921
"22903","Charlottesville","VA","Harris Teeter","not_available","22943",38.03551803814616,-78.73935699462889
"22920","Afton","VA","Walmart Neighborhood Market","1211 W Broad St Ste A","22980",38.07226,-78.895338
"22920","Afton","VA","waynesboro fruit and produce","Arch Ave, Waynesboro, VA 22980","22980",38.06711237735551,-78.88757584008978
"22920","Afton","VA","Waynesboro Maters","not_available","22980",38.06692641603788,-78.88739897244768
"22920","Afton","VA","Kroger Grocery Pickup and Delivery","245 Arch Ave","22980",38.06558648994458,-78.88834185471072
"22922","Arrington","VA","Lovingston IGA","not_available","22949",37.76055365968723,-78.8729500142541
"22922","Arrington","VA","Williams Grocery","439 Williamstown Rd, Shipman, VA 22971","22971",37.673899,-78.832933
"22923","Barboursville","VA","Walmart Supercenter","135 Stoneridge Dr","22968",38.23576743496425,-78.37267428016274
"22923","Barboursville","VA","Ruckersville Food Store","13793 Spotswood Trl","22968",38.238552,-78.38712199999999
"22923","Barboursville","VA","D's Market","5515 Spotswood Trl","22923",38.171531677246094,-78.27889251708984
"22939","Fishersville","VA","Walmart Supercenter","116 Lucy Ln","22980",38.06761577934534,-78.93319628958172
"22942","Gordonsville","VA","Walmart Supercenter","164 Camp Creek Pkwy","22942",37.97754694418347,-78.20895700767797
"22963","Palmyra","VA","E. W. Thomas Grocery","13027 James Madison Hwy","22963",37.85634336036406,-78.26902332609095
"22963","Palmyra","VA","Fork Union Community Market","4312 James Madison Hwy, Fork Union, VA 23055","23055",37.75716781616211,-78.2671890258789
"22963","Palmyra","VA","Food Lion Parking Lot","264 Turkeysag Trl","22963",37.905204,-78.342727
"22980","Waynesboro","VA","Sharp Shopper","2800A W Main St","22980",38.08163138642833,-78.92941060109182
"23002","Amelia Court House","VA","Aldi's","not_available","23083",37.294014,-78.10039
"23002","Amelia Court House","VA","Chesterfield Berry Farm Market","20800 Hull Street Rd","23120",37.39535140991211,-77.79132843017578
"23005","Ashland","VA","Walmart Supercenter","145 Hill Carter Pkwy","23005",37.755210703381934,-77.45994336495784
"23005","Ashland","VA","Walmart Neighborhood Market","9714 Sliding Hill Rd","23005",37.69330068937413,-77.43934330132869
"23005","Ashland","VA","Publix","5400 Wyndham Forest Dr","23059",37.68377069524304,-77.58701254815256
"23005","Ashland","VA","Food Lion","Washington Hwy","23005",37.76100310892722,-77.47067823883175
"23005","Ashland","VA","Cross Brothers Grocery Store","107 S Railroad Ave","23005",37.758576,-77.480958
"23005","Ashland","VA","RRS Foodservice","201 Haley Rd","23005",37.771081,-77.463329
"23027","Cartersville","VA","Country Corner","1942 Cartersville Rd","23027",37.658776,-78.12449699999999
"23039","Crozier","VA","Taylor's Country Market","1535 River Rd W","23039",37.636891999999996,-77.797309
"23040","Cumberland","VA","Marions Bi-rite","not_available","23040",37.49723492289606,-78.24346227744714
"23059","Glen Allen","VA","Kroger","11895 W Broad St","23233",37.6528736,-77.6254717
"23059","Glen Allen","VA","Publix","not_available","23059",37.67519612804313,-77.4628826605101
"23059","Glen Allen","VA","Lidl","12151 W Broad St","23233",37.658572,-77.635481
"23059","Glen Allen","VA","Publix - Shoppes at Crossridge","10250 Staples Mill Rd","23060",37.657023713326524,-77.52555169249446
"23059","Glen Allen","VA","ALDI","12390 W Broad St","23233",37.6621569159324,-77.64397155092621
"23059","Glen Allen","VA","Glen Allen Market","Mountain Road","23059",37.66550696148946,-77.5057731619058
"23059","Glen Allen","VA","RelayFoods","4470 Cox Rd","23060",37.65810775756836,-77.5768814086914
"23059","Glen Allen","VA","Glen Allen Service Center","not_available","23060",37.665973,-77.50660500000001
"23059","Glen Allen","VA","ghetto kitty","not_available","23233",37.66218735753676,-77.62842223862414
"23059","Glen Allen","VA","RelayFoods.com (Snagajob -- Innsbrook Pickup)","4880 Cox Rd","23060",37.67031,-77.569788
"23060","Glen Allen","VA","Kroger","9480 W Broad St","23294",37.64112924505895,-77.55515098571783
"23060","Glen Allen","VA","Walmart Supercenter","11400 West Broad Street Road","23060",37.65239786,-77.60926723
"23060","Glen Allen","VA","Trader Joe's","11331 W Broad St","23060",37.649210592373144,-77.60706150161707
"23060","Glen Allen","VA","Publix","9645 W Broad St","23060",37.640431,-77.562856
"23060","Glen Allen","VA","Whole Foods Market","11173 West Broad Street","23060",37.64776964063176,-77.59940812923925
"23060","Glen Allen","VA","Publix","3460 Pump Rd","23233",37.64882612466404,-77.61553129062547
"23060","Glen Allen","VA","Tom Leonard's Farmer's Market","4150 Tom Leonard Dr","23060",37.651639872851206,-77.5993931916631
"23060","Glen Allen","VA","ALDI","8951 Staples Mill Rd","23228",37.63758238570727,-77.51098147255846
"23060","Glen Allen","VA","Costco Membership Desk","9650 W Broad St","23060",37.642655283383384,-77.56033056578275
"23060","Glen Allen","VA","Maharajah Market","3851 Springfield Rd","23294",37.642431,-77.559042
"23060","Glen Allen","VA","Kroger Grocery Pickup and Delivery","9000 Staples Mill Road","23228",37.63721,-77.514401
"23061","Gloucester","VA","Walmart Supercenter","6819 Walton Ln","23061",37.400290256229574,-76.52769644317615
"23061","Gloucester","VA","Dutton's Grocery","Davenport Rd","23061",37.477536,-76.617087
"23061","Gloucester","VA","ALDI","7176 George Washington Memorial Hwy","23061",37.3964805,-76.5267486
"23063","Goochland","VA","Parrish Grocery","not_available","23065",37.775387750578346,-77.89735784976091
"23075","Henrico","VA","Shoppers Value Foods","50 S Airport Dr","23075",37.537325,-77.321789
"23079","Jamaica","VA","Russian Gormet","not_available","23079",37.737335205078125,-76.66950988769531
"23084","Kents Store","VA","FERNCLIFF MARKET","3542 Three Notch Rd","23093",37.933544200950294,-78.1095346573202
"23093","Louisa","VA","Miller's Market","20 mineral ave","23117",38.00492994309099,-77.90861876624585
"23093","Louisa","VA","Farmer's Food","502 East Main St","23093",38.01869916378783,-77.99086947545713
"23110","Mattaponi","VA","Shacklefords Country Store","1364 Centerville Rd","23156",37.54978561401367,-76.73504638671875
"23111","Mechanicsville","VA","Walmart Supercenter","5001 Nine Mile Rd","23223",37.544710029842754,-77.3642604748711
"23111","Mechanicsville","VA","Walmart Supercenter","7430 Bell Creek Rd","23111",37.61315032,-77.35538213
"23111","Mechanicsville","VA","Kroger","6335 Mechanicsville Tpke","23111",37.6148776,-77.3194995
"23111","Mechanicsville","VA","Publix Mechanicsville","6603 Mechanicsville Turnpike","23111",37.611333,-77.336423
"23111","Mechanicsville","VA","ALDI","7003 Mechanicsville Tpke","23111",37.6110214,-77.3366819
"23111","Mechanicsville","VA","Hanover Village","7047 Mechanicsville Tpke","23111",37.61057687625662,-77.33823269605631
"23111","Mechanicsville","VA","Kroger","9351 Atlee Rd","23116",37.6516395,-77.4018582
"23111","Mechanicsville","VA","Save-A-Lot","3808 Mechanicsville Tpke","23223",37.579140331035454,-77.39613691743513
"23111","Mechanicsville","VA","Save-A-Lot","5174 Nine Mile Rd","23223",37.549822999999996,-77.358581
"23111","Mechanicsville","VA","Tobacco And Vapor Zone","7340 Bell Creek Rd","23111",37.60483932495117,-77.3526382446289
"23111","Mechanicsville","VA","International Market","3602 Mechanicsville Turnpike","23223",37.5746495,-77.3981942
"23111","Mechanicsville","VA","Personal Chef To Go","7140 Mechanicsville Tpke","23111",37.611793,-77.34548000000001
"23112","Midlothian","VA","The Fresh Market","4600 Commonwealth Centre Pkwy,","23112",37.418879115586144,-77.63338242412757
"23112","Midlothian","VA","Kroger","14101 Midlothian Tpke","23113",37.5046005,-77.6636734
"23112","Midlothian","VA","Walmart Supercenter","12200 Chattanooga Plz","23112",37.43144366508908,-77.62113288756693
"23112","Midlothian","VA","Wegmans","12501 Stone Village Way","23113",37.50281,-77.62443
"23112","Midlothian","VA","Publix","13700 Hull Street Rd","23112",37.41007058001963,-77.65604183599052
"23112","Midlothian","VA","Walmart Supercenter","900 Walmart Way","23113",37.504578941121544,-77.62999976431445
"23112","Midlothian","VA","Publix","7300 Hull Street Road","23832",37.401199605154304,-77.70854383899844
"23112","Midlothian","VA","Walmart Supercenter","14501 Hancock Village St","23832",37.401104613616866,-77.67296473682977
"23112","Midlothian","VA","Kroger","13201 Rittenhouse Dr","23112",37.415775153493755,-77.63905249174947
"23112","Midlothian","VA","Publix","200 Charter Colony Pkwy","23114",37.50361633300781,-77.66079711914062
"23112","Midlothian","VA","ALDI","12431 Hull Street Rd","23112",37.428592342912815,-77.620929479599
"23112","Midlothian","VA","ALDI","7500 Harpers Green Way","23832",37.39727783203125,-77.71041870117188
"23112","Midlothian","VA","Europa","not_available","23112",37.405226,-77.673481
"23112","Midlothian","VA","Food Lion","not_available","23832",37.38423346031909,-77.65550002235013
"23112","Midlothian","VA","American West","11818 Murray Olds","23236",37.50169395302102,-77.61833002597794
"23113","Midlothian","VA","Kroger","3001 Polo Pkwy","23113",37.5259672,-77.6085214
"23113","Midlothian","VA","Lidl","1311 Mall Drive","23235",37.5112483,-77.60541869
"23113","Midlothian","VA","Publix","2015 Huguenot Rd","23235",37.519996643066406,-77.61295318603516
"23113","Midlothian","VA","The Fresh Market","1200 Huguenot Rd,","23113",37.50885465258602,-77.61383853060376
"23113","Midlothian","VA","ALDI","1670 Mall Dr","23235",37.519898,-77.606715
"23113","Midlothian","VA","ALDI","14381 Winterview Pkwy","23113",37.506468,-77.667449
"23113","Midlothian","VA","RelayFoods.com (ACAC Midlothian Pickup)","11621 Robious Station Cir","23113",37.52219448510253,-77.61878878255138
"23139","Powhatan","VA","Walmart Supercenter","1950 Anderson Hwy","23139",37.51400528,-77.77599789
"23139","Powhatan","VA","Grub Kitty II","not_available","23139",37.51573705672332,-77.79038271174446
"23139","Powhatan","VA","food Lion In Powhatan","1982-2130 Anderson Hwy","23139",37.53995379156958,-78.09523505569507
"23150","Sandston","VA","Chuck's Supermarket","390 E Williamsburg Rd","23150",37.52067824469449,-77.30242788791656
"23150","Sandston","VA","John Supermarket","not_available","23150",37.52643447164278,-77.30843244615251
"23173","Richmond","VA","RelayFoods.com (University of Richmond Pickup)","Crenshaw Way","23226",37.5741066412824,-77.54538774490356
"23185","Williamsburg","VA","Harris Teeter","1470 Quarterpath Rd","23185",37.24846825043433,-76.68612933870412
"23185","Williamsburg","VA","Publix","4660 Monticello Ave","23188",37.27229640791355,-76.75851630384086
"23185","Williamsburg","VA","Harris Teeter","4511 John Tyler Highway","23185",37.25182,-76.763816
"23185","Williamsburg","VA","Trader Joe's","5000 Settlers Market Blvd","23188",37.277027411644376,-76.74766429295975
"23185","Williamsburg","VA","Walmart Neighborhood Market","4670 Casey Blvd","23188",37.27555353088961,-76.75090916324004
"23185","Williamsburg","VA","The Fresh Market","5231 Monticello Ave","23188",37.27539517359588,-76.74739312904265
"23185","Williamsburg","VA","Fort Eustis Commissary","1382 Lee Blvd","23604",37.157029569831536,-76.57794197896203
"23185","Williamsburg","VA","Earth Fare","208 Monticello Ave","23185",37.28226894604806,-76.72242572967752
"23185","Williamsburg","VA","ALDI","1504 Richmond Rd","23185",37.2901618,-76.7250663
"23185","Williamsburg","VA","Martin's Customer Service Desk","not_available","23188",37.276522236870356,-76.75543783545987
"23185","Williamsburg","VA","Injoy Whole Foods","1 Ensign Spence","23185",37.24308371543884,-76.66751682758331
"23188","Williamsburg","VA","Walmart Supercenter","731 E Rochambeau Dr","23188",37.3454772639401,-76.73755212067003
"23188","Williamsburg","VA","Harris Teeter","6485 Centerville Rd","23188",37.33917804555837,-76.75706083240102
"23188","Williamsburg","VA","Farm Fresh","115 Norge Ln","23188",37.372923994353016,-76.77301079034805
"23219","Richmond","VA","Shockoe Valley Market","18th St","23223",37.53625271720361,-77.42444733670524
"23219","Richmond","VA","Clay Market","not_available","23219",37.544576,-77.43943399999999
"23219","Richmond","VA","Davis Market","301 N. Madison St.","not_available",37.5460761423498,-77.44583404239513
"23219","Richmond","VA","Goshen Market","826 W Broad St","23220",37.55030967238271,-77.44942942207916
"23219","Richmond","VA","Stella’s Grocery","109 E Grace St","23219",37.543781,-77.44165
"23219","Richmond","VA","Pick Market","16 E Broad St","23219",37.545683000000004,-77.44133000000001
"23219","Richmond","VA","Franklin Supermarket","1711 E Franklin St","23223",37.533821,-77.427335
"23219","Richmond","VA","Shockoe Market","1802 E Main St","23223",37.53295241923536,-77.427508095422
"23220","Richmond","VA","Whole Foods Market","2024 W Broad St","23220",37.557842,-77.461533
"23220","Richmond","VA","ALDI","927 Myers St","23230",37.5632881,-77.4685256
"23220","Richmond","VA","Strawberry Street Market","415 Strawberry St","23220",37.555631721633574,-77.46674746259936
"23220","Richmond","VA","Sunny Food Market","2700 W Cary St","23220",37.55117993853234,-77.47513141436227
"23220","Richmond","VA","Nick's International Foods","2413 Westwood Ave","23230",37.57435,-77.481674
"23220","Richmond","VA","Neighborhood Market","2606 Chamberlayne Ave","23222",37.567116598039846,-77.44481563568115
"23220","Richmond","VA","Kroger Grocery Pickup and Delivery","901 N Lombardy St","23220",37.55558776855469,-77.45417785644531
"23220","Richmond","VA","Relay Foods","1601 Roseneath Rd","23230",37.570440999999995,-77.472087
"23220","Richmond","VA","Reams Market","W Cary St","23220",37.55111,-77.47529
"23220","Richmond","VA","Oaxaca","N Sheppard St","23221",37.559824,-77.473869
"23220","Richmond","VA","RelayFoods.com (Fox Elementary Pickup)","2300 Hanover Ave","23220",37.554664611816406,-77.46798706054688
"23220","Richmond","VA","Cary St. Mini Mart","not_available","23220",37.54549931861412,-77.45736061084489
"23220","Richmond","VA","Scott’s Market","1400 Roseneath Rd","23230",37.56922,-77.474781
"23221","Richmond","VA","Kroger","3507 W Cary St","23221",37.5544698,-77.4880228
"23221","Richmond","VA","Publix","not_available","23225",37.53453318710415,-77.52463009801666
"23221","Richmond","VA","The Fresh Market","10 N Nansemond St, Ste B","23221",37.55714676098596,-77.48628143584997
"23221","Richmond","VA","Ellwood Thompson's","4 N Thompson St","23221",37.55736840932339,-77.48852234112094
"23222","Richmond","VA","Community supermarket","1915 Mechanicsville Tpke","23223",37.552968,-77.410954
"23222","Richmond","VA","King's Food Market","4 E Laburnum Ave","23222",37.58563,-77.43454399999999
"23223","Richmond","VA","Farm Fresh","2320 E Main St","23223",37.53034517934847,-77.42196188138223
"23223","Richmond","VA","Kroger","4816 S Laburnum Ave","23231",37.5198122,-77.3519564
"23223","Richmond","VA","Target","4521 S Laburnum Ave","23231",37.53133125311735,-77.35663533210754
"23223","Richmond","VA","Publix","not_available","23231",37.52550717303434,-77.351855635643
"23223","Richmond","VA","Market At 25th","1330 N 25th St","23223",37.5409695,-77.4104346
"23223","Richmond","VA","RelayFoods.com (Rockett's Landing Pickup)","E Main","23231",37.51776589183034,-77.41451475439226
"23223","Richmond","VA","Cheech Mart","2400 Jefferson Ave","23223",37.535205,-77.416604
"23223","Richmond","VA","Chimbo Mart","515 Chimborazo Blvd","23223",37.53083386918587,-77.40677557792331
"23223","Richmond","VA","Blue Wheeler Grocery","3120 E Marshall St","23223",37.53053372765735,-77.41102370624908
"23224","Richmond","VA","South of the James Market","New Kent Ave","23225",37.520754829257,-77.47498512268066
"23224","Richmond","VA","Super Fresh","4338 Hull Street Rd","23224",37.50075089964813,-77.47725399423257
"23224","Richmond","VA","Market Place #5 Convenience Store","2517 Hull St","23224",37.5138053894043,-77.45589447021484
"23224","Richmond","VA","Save A Lot","441 E Belt Blvd","23224",37.504901000000004,-77.474278
"23224","Richmond","VA","Kings Supermarket","2102 Keswick Ave","23224",37.504560999999995,-77.440141
"23224","Richmond","VA","Save-A-Lot","441 E Belt Ave","23224",37.50468063354492,-77.47456359863281
"23224","Richmond","VA","Hanguk Oriental Stire","1807 Broad Rock Blvd","23224",37.49066,-77.471325
"23224","Richmond","VA","Richmond Oriental Market","431 E Belt Blvd","23224",37.504718,-77.475112
"23224","Richmond","VA","Gene's Supermarket","2500 Jefferson Davis Hwy","23224",37.492028000000005,-77.44426999999999
"23224","Richmond","VA","Shreeji Food Market","429 E Belt Blvd","23224",37.504718,-77.475112
"23224","Richmond","VA","The Atlas Exchnage","715 E 4th St","23224",37.518798828125,-77.43186950683594
"23224","Richmond","VA","RelayFoods.com (Corrugated Box Building Pickup)","201 W 7th St","23224",37.52526467043086,-77.44181156158447
"23224","Richmond","VA","S & S Food Mart","2001 Jeff Davis Hwy","23234",37.49601171931248,-77.44365508304384
"23225","Richmond","VA","Kroger Marketplace","7000 Tim Price Way","23225",37.4987847,-77.5261759
"23225","Richmond","VA","Walmart Supercenter","2410 Sheila Ln","23225",37.53236074,-77.53257751
"23225","Richmond","VA","New Grand Mart","7415 Midlothian Tnpke.","not_available",37.49888080843581,-77.53304167191686
"23225","Richmond","VA","ALDI","7319 Forest Hill Ave","23225",37.53651893856518,-77.53141611814493
"23225","Richmond","VA","Fresh To Frozen","7801 Midlothian Tpke","23235",37.49748899008343,-77.54071025971527
"23226","Richmond","VA","Kroger","1601 Willow Lawn Dr Ste 1","23230",37.5804197,-77.4992377
"23226","Richmond","VA","Libbie Market","400 Libbie Ave","23226",37.588585465656465,-77.5284714184828
"23226","Richmond","VA","Kroger","1510 Eastridge Rd","23229",37.6035662,-77.5614721
"23226","Richmond","VA","Walmart Supercenter","6920 Forest Avenue","23230",37.60297421797319,-77.52231577888405
"23226","Richmond","VA","Publix - Village Shopping Center","7035 Three Chopt Rd","23226",37.591102,-77.532284
"23226","Richmond","VA","The Fresh Market","1527 N Parham Rd,","23229",37.6042241469146,-77.56355043796631
"23226","Richmond","VA","ALDI Food Market","1776 N Parham Rd","23229",37.6095177911444,-77.56463213122014
"23226","Richmond","VA","Walmart Supercenter","1504 N Parham Rd","23229",37.6038301714042,-77.56556071534503
"23226","Richmond","VA","Tan-A Asian Supermarket","6221 W Broad St","23230",37.5952415076802,-77.51043931678495
"23226","Richmond","VA","ALDI","6295 W Broad St","23230",37.595792,-77.5130927
"23226","Richmond","VA","Bodega Latina","6003 W Broad St","23230",37.59278106689453,-77.50777435302734
"23226","Richmond","VA","Far East Grocery","6317 Rigsby Rd","23226",37.595904,-77.514843
"23226","Richmond","VA","The Coco Market","6420 Horsepen Rd","23226",37.59507751464844,-77.51701354980469
"23226","Richmond","VA","Happy Mart International Supermarket","6006 W Broad St","23230",37.59379959106445,-77.50735473632812
"23226","Richmond","VA","Kroger Grocery Pickup and Delivery","1601 Willow Lawn Dr","23230",37.581791,-77.4979378
"23227","Richmond","VA","Walmart Supercenter","7901 Brook Rd","23227",37.63132054613908,-77.45659873498664
"23227","Richmond","VA","Walmart Neighborhood Market","5221 Brook Road","23227",37.60347285358057,-77.45372079117628
"23227","Richmond","VA","welmart","not_available","23228",37.6355094909668,-77.46251678466797
"23227","Richmond","VA","Nuttall's Market","4010 MacArthur Ave","23227",37.588802,-77.458504
"23228","Henrico","VA","Lidl","9101 Hermitage Road","23228",37.62607054239568,-77.50392909260732
"23228","Henrico","VA","Laxmi Palace Indian Grocery Store","3423 Old Parham Rd","23294",37.62897055564453,-77.53556395264873
"23228","Henrico","VA","Taj Halal Grocery","8715 W Broad St","23294",37.62782877872764,-77.53381990551013
"23228","Henrico","VA","El Paraiso","4034 Crockett St","23228",37.61523167858557,-77.49907975361671
"23228","Henrico","VA","El Amanecer Latino","8410 Staples Mill Rd","23228",37.62692822672584,-77.50554813701031
"23228","Henrico","VA","2 Fish and 5 Loaves Global Market","8121 W Broad St","23294",37.6281951,-77.53439940000001
"23228","Henrico","VA","Bhavani Cash & Carry","8400 W Broad St","23294",37.632315999999996,-77.538342
"23229","Henrico","VA","Kroger","1356 Gaskins Rd","23238",37.6068692,-77.5919946
"23229","Henrico","VA","Publix","2250 John Rolfe Pkwy","23233",37.62239382942219,-77.62397404838006
"23231","Henrico","VA","register 2","not_available","23836",37.35210418701172,-77.36093139648438
"23234","Richmond","VA","Walmart Neighborhood Market","5700 Hopkins Road","23234",37.442841906512655,-77.473773554917
"23234","Richmond","VA","Walmart Grocery Pickup","7000 Iron Bridge Rd","23234",37.41804,-77.50232
"23234","Richmond","VA","Hyundai Market","7218 Hull Street Rd Ste A","23235",37.47254943847656,-77.52798461914062
"23234","Richmond","VA","Asain Market","not_available","23224",37.472663458615486,-77.52778985567545
"23234","Richmond","VA","Taj Mahal Grocery","7104 Hull Street Rd","23235",37.472930908203125,-77.52580261230469
"23234","Richmond","VA","Walmart Grocery Pickup","5700 Hopkins Rd","23234",37.4436125029614,-77.4730291936029
"23235","Richmond","VA","Trader Joe's","3000 Stony Point Rd","23235",37.538508,-77.564075
"23235","Richmond","VA","Good Foods Grocery","3062 Stony Point Rd","23235",37.53715442263635,-77.565881977887
"23235","Richmond","VA","RelayFoods.com (Bon Air Pickup)","8725 Quaker Ln","23235",37.52413558959961,-77.56092071533203
"23235","Richmond","VA","Thai Asian Grocery","not_available","23235",37.50741,-77.583117
"23235","Richmond","VA","Kroger Grocery Pickup and Delivery","2821 Hicks Rd","23235",37.461734771728516,-77.5484619140625
"23236","Richmond","VA","MARTIN'S","10001 Hull Street Rd","23236",37.44218885439461,-77.57951349020004
"23237","Richmond","VA","Kroger Grocery Pickup and Delivery","10800 Iron Bridge Rd","23831",37.36733267830097,-77.50195230575139
"23237","Richmond","VA","Country View Market","not_available","23237",37.39755630493164,-77.52045440673828
"23308","Bloxom","VA","just ice mappsville","not_available","23407",37.845558166503906,-75.56697082519531
"23314","Carrollton","VA","Walmart Supercenter","6111 Jefferson Ave","23605",37.02179291779668,-76.44842512885022
"23314","Carrollton","VA","Asia Grocery","not_available","23605",37.023250206028955,-76.44737502456186
"23320","Chesapeake","VA","Walmart Supercenter","1521 Sams Cir","23320",36.77284282007706,-76.24936858950491
"23320","Chesapeake","VA","Kroger Marketplace","1653 Sentinel Dr","23320",36.7782753,-76.2532104
"23320","Chesapeake","VA","Harris Teeter","1216 Greenbrier Parkway","23320",36.76977422910292,-76.23012954353348
"23320","Chesapeake","VA","Harris Teeter","4540 Princess Anne Rd Suite 117","23462",36.806914062097235,-76.13256705594479
"23320","Chesapeake","VA","Walmart Supercenter","2021 Lynnhaven Pkwy","23456",36.79380773,-76.12246798
"23320","Chesapeake","VA","Harris Teeter","5060 Ferrell Parkway","23464",36.794092197233425,-76.16895564593509
"23320","Chesapeake","VA","Walmart Neighborhood Market","475 Kempsville Road","23320",36.74364834919953,-76.22560415915297
"23320","Chesapeake","VA","Harris Teeter","1400 Kempsville Road","23320",36.764773,-76.202308
"23320","Chesapeake","VA","Farmer's International Market","not_available","23453",36.795718,-76.099216
"23320","Chesapeake","VA","Walmart Neighborhood Market","1832 Kempsville Road","23464",36.780897011931216,-76.18949345964573
"23320","Chesapeake","VA","Food Lion","1920 Centerville Tpke","23464",36.777977,-76.1899602
"23320","Chesapeake","VA","ALDI","1436 Kempsville Rd","23464",36.7950946,-76.1747908
"23320","Chesapeake","VA","ALDI","1269 Cedar Rd","23322",36.71844021405779,-76.28722786903376
"23320","Chesapeake","VA","Delicate Oriental Grocery","5394 Kempsriver Dr","23464",36.800693957898964,-76.17887819067862
"23320","Chesapeake","VA","Food Lion","Holland Road","not_available",36.791518,-76.109898
"23320","Chesapeake","VA","Skazka Eastern European Market","1309 Fordham Dr","23464",36.79979705810547,-76.17561340332031
"23320","Chesapeake","VA","Fresh World International Supermarket","2029 Lynnhaven Pkwy","23456",36.79081215436058,-76.12225845763466
"23320","Chesapeake","VA","Nicks Oriental Express Grocery","1949 Lynnhaven Pkwy","23453",36.795152,-76.11953100000001
"23320","Chesapeake","VA","Kroger Food & Pharmacy","975 Providence Square Shopping Center","not_available",36.80575469087851,-76.16806860765114
"23320","Chesapeake","VA","Gmart","1505 Lynnhaven Pkwy","23453",36.796630859375,-76.09949493408203
"23320","Chesapeake","VA","ALDI","1256 Executive Blvd","23320",36.7672511,-76.2364037
"23320","Chesapeake","VA","Mary's Seafood & Meat Market","1512 Lynnhaven Parkway","not_available",36.79436438289772,-76.11979510971403
"23321","Chesapeake","VA","Harris Teeter","3249 Tyre Neck Rd","23703",36.86212441271013,-76.39412675471559
"23321","Chesapeake","VA","Harris Teeter","3575 Shoulder Hill Bridge Rd","23435",36.86068941143595,-76.46567096598066
"23321","Chesapeake","VA","Walmart Supercenter","2448 Chesapeake Square Ring Rd","23321",36.829971074749125,-76.41784947041066
"23321","Chesapeake","VA","Big Lots","4300 Portsmouth Blvd","23321",36.823191,-76.422811
"23321","Chesapeake","VA","ALDI","5811 High St W","23703",36.8602246,-76.3939027
"23321","Chesapeake","VA","ALDI","4107 Portsmouth Blvd","23321",36.8218445,-76.4115327
"23321","Chesapeake","VA","Rey's Oriental Store","6087 High St W","23703",36.860749,-76.39875699999999
"23321","Chesapeake","VA","La Familia Market Tienda Mexicana","3115 Western Branch Blvd","23321",36.8620719909668,-76.40223693847656
"23322","Chesapeake","VA","Walmart Supercenter","201 Hillcrest Pkwy","23322",36.65393693591018,-76.2334802677012
"23322","Chesapeake","VA","Kroger","309 Battlefield Blvd S","23322",36.7149031,-76.2375611
"23322","Chesapeake","VA","Walmart Supercenter","632 Grassfield Pkwy","23322",36.720931538649616,-76.30893915147927
"23322","Chesapeake","VA","Harris Teeter","237 Hanbury Rd East","23322",36.68600951563504,-76.22516951486638
"23322","Chesapeake","VA","Walmart Neighborhood Market","673 Cedar Road","23322",36.709498337173116,-76.26405980263952
"23322","Chesapeake","VA","Kroger Grocery Pickup and Delivery","1464 Mount Pleasant Rd","23322",36.71649488270658,-76.18805243035766
"23322","Chesapeake","VA","Peake Mart","4500 Old Battlefield Blvd S","23322",36.561323,-76.201265
"23324","Chesapeake","VA","Murry's","2753 Campostella Rd","23324",36.8152961730957,-76.25981140136719
"23336","Chincoteague Island","VA","Steve's Mini Market","not_available","23336",37.927770239121216,-75.35544827957463
"23336","Chincoteague Island","VA","Fresh Pride","6277 Cleveland St","23336",37.93318506061222,-75.37703669504506
"23350","Exmore","VA","Fresh Pride","2625 Lankford Hwy","23350",37.53950881958008,-75.82185363769531
"23405","Machipongo","VA","Quail Cove Farms","12435 Machipongo Ln","23405",37.40524,-75.901175
"23410","Melfa","VA","Walmart Supercenter","26036 Lankford Hwy","23418",37.68619079,-75.72344922
"23430","Smithfield","VA","Far Eastern Food","not_available","23608",37.129209,-76.539473
"23430","Smithfield","VA","Hearn's General Store","841 W Main St","23430",36.973883,-76.648933
"23430","Smithfield","VA","Kroger Grocery Pickup and Delivery","1282 Smithfield Plz","23430",36.95564863681955,-76.60354223153935
"23430","Smithfield","VA","Save-A-Lot","14339 Warwick Blvd","23602",37.127235999999996,-76.537483
"23434","Suffolk","VA","Walmart Supercenter","1200 N Main St","23434",36.74664261,-76.58127842
"23434","Suffolk","VA","Kroger","1401 N Main St","23434",36.749482124967116,-76.585682025795
"23434","Suffolk","VA","ALDI","1920 N Main St","23434",36.7574348449707,-76.58442687988281
"23434","Suffolk","VA","Fresh Pride","569 E Constance Rd","23434",36.73885365211274,-76.56914169456816
"23434","Suffolk","VA","flowers discount bakery store","1101 Proctor St, Suffolk, VA 23434","23434",36.74812223542612,-76.55384958364465
"23434","Suffolk","VA","Arthur's General Store","3118 Kings Hwy","23435",36.82345052935876,-76.50262945686956
"23434","Suffolk","VA","Bennetts Creek Shopping Center","3201 Bridge Rd","23435",36.86369705200195,-76.48542785644531
"23435","Suffolk","VA","Kroger Marketplace","1017 University Blvd","23435",36.8722412,-76.4204787
"23435","Suffolk","VA","Walmart Supercenter","6259 College Dr","23435",36.88276775492793,-76.42871983929894
"23435","Suffolk","VA","Lidl","1001 Community Drive","23435",36.87297175,-76.4382618
"23440","Tangier","VA","Daley's Grocery","Main Ridge Rd","23440",37.82837,-75.992271
"23451","Virginia Beach","VA","Harris Teeter","2800 Arctic Ave","23451",36.85600176399382,-75.9813621387945
"23451","Virginia Beach","VA","Walmart Supercenter","546 First Colonial Road","23451",36.84732889010364,-76.01918805256273
"23451","Virginia Beach","VA","Kroger","3330 Virginia Beach Blvd","23452",36.8437961,-76.0883634
"23451","Virginia Beach","VA","Walmart Supercenter","657 Phoenix Dr","23452",36.82373049,-76.07077376
"23451","Virginia Beach","VA","Whole Foods Market","1800 Laskin Road","23454",36.85071777494865,-76.02799749957092
"23451","Virginia Beach","VA","Trader Joe's","503 Hilltop Plaza","23454",36.848879240311405,-76.02473038335836
"23451","Virginia Beach","VA","Walmart Neighborhood Market","3201 Holland Rd","23453",36.79249861167565,-76.0824460500236
"23451","Virginia Beach","VA","Kroger","1800 Republic Rd","23454",36.8521405,-76.0280011
"23451","Virginia Beach","VA","Lidl","3248 Holland Rd","23453",36.79804354733383,-76.08291675334408
"23451","Virginia Beach","VA","Oceana NAS Commissary","1304 Oceana Blvd","23454",36.79661850822546,-75.99829628457648
"23451","Virginia Beach","VA","Harris Teeter","3333 Virginia Beach Blvd Suite 101","23452",36.84106435136352,-76.08670279019344
"23451","Virginia Beach","VA","ALDI","929 First Colonial Rd","23454",36.856739201412545,-76.0266015632169
"23451","Virginia Beach","VA","Quick Food Mart","1905 Atlantic Ave","23451",36.849711,-75.975774
"23451","Virginia Beach","VA","The Fresh Market","744 Hilltop North Shopping Center","23451",36.852635944959786,-76.01978218791164
"23451","Virginia Beach","VA","Heritage Natural Market","984 Laskin Rd # A","23451",36.8577957,-75.9902323
"23451","Virginia Beach","VA","Ichiban","867 S Lynnhaven Rd","23452",36.811946,-76.07418299999999
"23451","Virginia Beach","VA","farmfresh","not_available","23454",36.813447332590975,-76.08706517748865
"23451","Virginia Beach","VA","All Island Grocery","3420 Holland Rd","23452",36.806467,-76.09003100000001
"23451","Virginia Beach","VA","Teddy's Health Food Market","3701 Pacific Ave","23451",36.865208401945736,-75.98070569714838
"23451","Virginia Beach","VA","Tidewater Convenience, Inc.","3089 Brickhouse Ct","23452",36.84135055541992,-76.07807922363281
"23451","Virginia Beach","VA","metro market","not_available","23452",36.806467,-76.09003100000001
"23451","Virginia Beach","VA","American Asian Food Market","315 N Great Neck Rd","23454",36.842675114070914,-76.04889733466302
"23451","Virginia Beach","VA","Quick Mart","1091 Norfolk Ave Ste 218","23451",36.83767795066281,-75.99834537996604
"23451","Virginia Beach","VA","The Heritage","984 Laskin Rd","23451",36.85786056518555,-75.98993682861328
"23451","Virginia Beach","VA","The Teet","2800 Arctic Avenue","not_available",36.85575866699219,-75.98133850097656
"23451","Virginia Beach","VA","Harris Teeter","2110 N. Great Neck Square","23454",36.90489,-76.06936
"23452","Virginia Beach","VA","Kroger Marketplace","3901 Holland Rd","23452",36.813259407985385,-76.11105771968141
"23452","Virginia Beach","VA","The Fresh Market","4588 Virginia Beach Blvd, Ste 106","23462",36.846012857003345,-76.13582368922795
"23452","Virginia Beach","VA","Harris Teeter","1069 Independence Blvd.","23455",36.872702,-76.135747
"23452","Virginia Beach","VA","Fortune Supermarket","Timberlake Shopping Center","not_available",36.81925639905689,-76.12234339987324
"23452","Virginia Beach","VA","Farm Fresh","799 Chimney Hill Shopping Ctr","23452",36.8114959,-76.0994561
"23452","Virginia Beach","VA","ALDI","764 Chantry Dr","23452",36.811652,-76.0944469
"23452","Virginia Beach","VA","ALDI","332 Thalia Rd","23452",36.8441228,-76.1200067
"23452","Virginia Beach","VA","Walmart Neighborhood Market","2864 Virginia Beach Boulevard","23452",36.845294955364686,-76.07128995141552
"23452","Virginia Beach","VA","Euro","178-B Boggs Ave","23452",36.83642578125,-76.11691284179688
"23453","Virginia Beach","VA","Harris Teeter","2476 Nimmo Parkway","23456",36.7547172913909,-76.06473876276411
"23454","Virginia Beach","VA","Walmart Supercenter","1149 Nimmo Pkwy","23456",36.7596879,-76.00916862
"23454","Virginia Beach","VA","Harris Teeter","2105 Princess Anne Rd Suite 100","23456",36.75166195074153,-76.01170584406137
"23454","Virginia Beach","VA","Food Lion","1615 General Booth Blvd","23454",36.78485228919553,-76.00214935890705
"23454","Virginia Beach","VA","Harris Teeter","2129 General Booth Blvd.","23454",36.768148,-76.01568
"23454","Virginia Beach","VA","ALDI","1577 General Booth Blvd #101A","23454",36.78704071044922,-76.00067138671875
"23455","Virginia Beach","VA","Kroger","4625 Shore Dr","23455",36.9029918,-76.1307583
"23455","Virginia Beach","VA","Grand Mart","649 Newtown Rd","23462",36.861773761235355,-76.17413273324443
"23455","Virginia Beach","VA","Little Creek Navphibase Commissary","1180 Amphibious Dr","23459",36.90986416186914,-76.14385825462925
"23455","Virginia Beach","VA","ALDI","4803 Shore Dr","23455",36.9036631,-76.1371853
"23455","Virginia Beach","VA","Hana Asian Market/Hanaro Restaurant","4885 N Witchduck Rd","23455",36.856943657914755,-76.14379405975342
"23455","Virginia Beach","VA","Halal Grocery","not_available","23502",36.854214,-76.19447
"23455","Virginia Beach","VA","Murry's Best Wings & Subs (murry,s best  wings  &  subs)","1011 Kempsville Rd #A","23502",36.855861250602764,-76.19507583711118
"23456","Virginia Beach","VA","JR FOOD MART #53","1756 Sandbridge Rd","23456",36.745765280473364,-75.99461412571218
"23456","Virginia Beach","VA","Handler Unlimited (Sassy Hot Sauce)","1705 Indian River Rd","23456",36.719446000000005,-76.001458
"23456","Virginia Beach","VA","DIRECT FOODS OF OCEANA","2217 Huckleberry Trl","23456",36.760341,-76.021755
"23462","Virginia Beach","VA","Wegmans","4721 Virginia Beach Blvd","23462",36.84228094172619,-76.1401341347377
"23462","Virginia Beach","VA","Kroger","975 Providence Sq Shopping Ctr","23464",36.8121733,-76.1678765
"23462","Virginia Beach","VA","Four Seasons Oriental Grocery","311 Kellam Rd","23462",36.845019033891674,-76.14262415401886
"23462","Virginia Beach","VA","E Mart","4876 Princess Anne Rd","23462",36.822018,-76.150573
"23462","Virginia Beach","VA","Asia Grocery","5444 Virginia Beach Blvd","23462",36.851463,-76.168949
"23462","Virginia Beach","VA","Holiday Food Store","5301 Princess Anne Rd","23462",36.828786,-76.16927199999999
"23462","Virginia Beach","VA","Kempsville Plaza Shopping Center","5277 Princess Anne Rd","23462",36.82752250695054,-76.16763844015105
"23462","Virginia Beach","VA","Atlantic Dominion Distributors","5400 Virginia Beach Blvd","23462",36.850941,-76.16678399999999
"23462","Virginia Beach","VA","Walmart Grocery Pickup and Delivery","4821 Virginia Beach Blvd.","23462",36.8435722222222,-76.14299
"23464","Virginia Beach","VA","Lidl","6196 Providence Rd","23464",36.81235247848294,-76.20743120004482
"23502","Norfolk","VA","Walmart Supercenter","1170 N Military Hwy","23502",36.86270865,-76.20830038
"23502","Norfolk","VA","Walmart Neighborhood Market","3350 E Princess Anne Road","23502",36.86326371025081,-76.24607542939891
"23502","Norfolk","VA","ALDI","1050 N Military Hwy","23502",36.858306884765625,-76.2091064453125
"23502","Norfolk","VA","Fresh Pride","6226 Sewells Point Rd","23513",36.892749,-76.23854399999999
"23502","Norfolk","VA","Piggly Wiggly","4630 E Princess Anne Rd","23502",36.86753078256135,-76.23137099017151
"23502","Norfolk","VA","Nikko's Tindahan","3586 N Military Hwy","23518",36.89244882576988,-76.22095381510016
"23503","Norfolk","VA","Harris Teeter","179 West Ocean View Ave.","23503",36.954771,-76.253407
"23503","Norfolk","VA","Norfolk NAVSTA Commissary","1588 Mall Dr","23511",36.94290661172377,-76.31117251324582
"23503","Norfolk","VA","Freddie's Seafood And Oriental Store","103 Mapleshade Ave","23505",36.93061243835725,-76.31746204447445
"23504","Norfolk","VA","Fresh Pride","not_available","23504",36.85370860060335,-76.27897684641319
"23504","Norfolk","VA","Save A Lot","720 Church St","23510",36.853318,-76.278414
"23505","Norfolk","VA","Walmart Supercenter","7530 Tidewater Dr","23505",36.91222515118689,-76.25362515449524
"23505","Norfolk","VA","Harris Teeter","7550 Granby St","23505",36.91400890653478,-76.2711526241138
"23505","Norfolk","VA","Tokyo Market","7516 Granby","not_available",36.91476719826858,-76.27264735709916
"23505","Norfolk","VA","Kroger","205 E Little Creek Rd","23505",36.915016,-76.2682081
"23505","Norfolk","VA","Westside Produce & Provisions","5015 Colley Ave","23508",36.889089,-76.295459
"23505","Norfolk","VA","Tokyo Market","7608 little creek rd","23505",36.91728618671461,-76.28854751586914
"23507","Norfolk","VA","Harris Teeter","1320 Colonial Ave","23517",36.864774668521115,-76.29276351677422
"23507","Norfolk","VA","ALDI","730 W 21st St","23517",36.87045264415377,-76.2941545903006
"23507","Norfolk","VA","The Fresh Market","924 W 21st St,","23517",36.87211204399088,-76.298416950569
"23508","Norfolk","VA","P.O.D. Market - Village","4108 Monarch Way","23508",36.884299,-76.300453
"23508","Norfolk","VA","Taj Bazar","4408 Colley Ave","23508",36.884788513183594,-76.29462432861328
"23508","Norfolk","VA","P.O.D. Market - Quad","1425 Old Dominion Univ","23529",36.88680272969675,-76.31031932387215
"23510","Norfolk","VA","The Market","not_available","23510",36.851804,-76.290078
"23510","Norfolk","VA","Shady Grove Marketplace","501 Botetourt St","23510",36.85272775068564,-76.29606180536557
"23513","Norfolk","VA","Health Day","7637 Gifford St","23518",36.913956,-76.232734
"23518","Norfolk","VA","Walmart Neighborhood Market","1720 E Little Creek Rd","23518",36.918190673298085,-76.22833390683641
"23518","Norfolk","VA","Save-A-Lot","2314 E Little Creek Rd","23518",36.916141049599,-76.21915340423584
"23518","Norfolk","VA","Mercy's Restaurant","7824 Gifford St","23518",36.915921000000004,-76.232232
"23601","Newport News","VA","Walmart Neighborhood Market","11214 Jefferson Ave","23601",37.06140277114841,-76.46554184552001
"23601","Newport News","VA","Harris Teeter","12404 Warwick Blvd","23606",37.06849649911895,-76.49190638220132
"23601","Newport News","VA","ALDI","11975 Jefferson Ave","23606",37.0960699,-76.489444
"23601","Newport News","VA","Omareen Afro Caribbean Grocery","5011 Mercury Blvd","23605",37.023643493652344,-76.43596649169922
"23601","Newport News","VA","Health Trail Natural Foods","10848 Warwick Blvd","23601",37.040953,-76.468757
"23602","Newport News","VA","Walmart Supercenter","12401 Jefferson Ave","23602",37.11925231453923,-76.50740471953547
"23602","Newport News","VA","Kroger Food & Drug","5007-2 Victory Blvd","23693",37.113633,-76.4667753
"23602","Newport News","VA","Walmart Supercenter","2601 Geo. Washington Mem. Hwy","23693",37.11928824208982,-76.45897197824348
"23602","Newport News","VA","Whole Foods Market","12090 Jefferson Ave.","23606",37.10380981715327,-76.489778198837
"23602","Newport News","VA","The Fresh Market","12131 Jefferson Ave","23602",37.10742792399281,-76.49678336986679
"23602","Newport News","VA","Trader Joe's","12551 Jefferson Ave","23602",37.12793320164145,-76.51702892697976
"23602","Newport News","VA","Farm Fresh","353 Chatham Dr","23602",37.12228116637145,-76.51387722822619
"23602","Newport News","VA","Uncle's Farm","13633 Warwick Blvd","23602",37.118351000000004,-76.523971
"23602","Newport News","VA","E Mart","13276 Warwick Blvd","23602",37.11363525337708,-76.51749184938673
"23602","Newport News","VA","Tindahan","621 Stoney Creek Ln Ste 1","23608",37.143218,-76.520512
"23602","Newport News","VA","Yorgo Food Mart Bland And Jefferson","not_available","23602",37.120468898430765,-76.5258898573714
"23602","Newport News","VA","ALDI","549 Bland Blvd","23602",37.126212,-76.5166454
"23602","Newport News","VA","International foodmart","13270 Warwick Blvd","23602",37.11357498168945,-76.51734924316406
"23602","Newport News","VA","Tokyo Market Bliss","not_available","23693",37.103083375618795,-76.45838452950207
"23605","Newport News","VA","Save-A-Lot","4902 W Mercury Blvd","23666",37.02505733091556,-76.43426709933412
"23607","Newport News","VA","Piggly wiggly","3101 Jefferson Ave","23607",36.984595,-76.425377
"23607","Newport News","VA","Night & Day Market","2209 Wickham Ave","23607",36.983017,-76.412339
"23607","Newport News","VA","Save A Lot","2201 Kecoughtan Rd","23661",37.002884,-76.37963
"23607","Newport News","VA","Fresh Pride","2309 Jefferson Ave","23607",36.980499267578125,-76.42133331298828
"23607","Newport News","VA","OTG-Pine Supermarket","not_available","23607",36.993371451205746,-76.39723587901392
"23607","Newport News","VA","M&T Market","not_available","23661",37.0048712736209,-76.37498666470978
"23651","Fort Monroe","VA","Food Lion","608 Mercury Blvd.","23663",37.0215005,-76.3194034
"23662","Poquoson","VA","Aisle 4","not_available","23662",37.12592315673828,-76.3978042602539
"23663","Hampton","VA","Save-A-Lot","1933 East Pembroke Ave","23663",37.040378000000004,-76.308596
"23665","Hampton","VA","Langley AFB Commissary","51 Spaatz Dr","23665",37.07421103720803,-76.36235232509324
"23665","Hampton","VA","Adams Thai market","2708 N Armistead Ave","23666",37.063801,-76.385542
"23666","Hampton","VA","Walmart Supercenter","1900 Cunningham Dr","23666",37.04081382199487,-76.3796891121787
"23666","Hampton","VA","Walmart Neighborhood Market","117 Marketplace Drive","23666",37.036955058765685,-76.40332005035377
"23666","Hampton","VA","Kroger","2190 Coliseum Dr","23666",37.04973999536263,-76.39018495398466
"23666","Hampton","VA","ALDI","1980 Saville Row","23666",37.041149,-76.3828662
"23666","Hampton","VA","Kroger Grocery Pickup and Delivery","1050 W Mercury Blvd","23666",37.04451370239258,-76.3831558227539
"23669","Hampton","VA","Harris Teeter","227 Fox Hill Road","23669",37.05768966674805,-76.32778930664062
"23669","Hampton","VA","Mega Mart","not_available","23669",37.010249,-76.35266700000001
"23669","Hampton","VA","Hampton Oriental Market","1123 N King St","23669",37.044748999999996,-76.349024
"23692","Yorktown","VA","Kroger Grocery Pickup and Delivery","6500 George Washington Mem Hwy Ste C","23692",37.17302745925216,-76.47258434538249
"23701","Portsmouth","VA","Walmart Supercenter","1098 Fredrick Blvd","23707",36.82895948,-76.34143543
"23701","Portsmouth","VA","Farm Fresh","4000 Victory Blvd","23701",36.811268937248684,-76.35328531265259
"23701","Portsmouth","VA","Kroger Marketplace","1301 Frederick Blvd","23707",36.82770096458164,-76.33638106555463
"23701","Portsmouth","VA","Murry's Steak House Grocery Store","3120 High St","23707",36.835769,-76.340351
"23702","Portsmouth","VA","Portsmouth NNSY Commissary","Scott Center Annex","23709",36.808863750541775,-76.31132249101206
"23702","Portsmouth","VA","Save-A-Lot","3816 George Washington Hwy","23702",36.8053894,-76.32609558
"23702","Portsmouth","VA","Save-A-Lot","3815 George Washington Hwy","23702",36.80867775680005,-76.31917538078712
"23801","Fort Lee","VA","Fort Lee Commissary","400 Shop Rd","23801",37.25283732341895,-77.32893556582687
"23801","Fort Lee","VA","Ordnance Troop Store/Barbershop","Bldg.18020, Edgewood Rd","23801",37.25114470996095,-77.35078024862914
"23803","Petersburg","VA","Walmart Supercenter","3500 S Crater Rd","23805",37.17967059892003,-77.3672104053093
"23803","Petersburg","VA","Walmart Supercenter","671 Southpark Blvd","23834",37.246070956654485,-77.38734037054431
"23803","Petersburg","VA","Publix","3007 Boulevard","23834",37.26896482686867,-77.41073465519767
"23803","Petersburg","VA","Save-A-Lot","2001-2003 S Crater Rd","23805",37.20513267050493,-77.38189874752607
"23803","Petersburg","VA","ALDI","465 Charles H Dimmock Pkwy","23834",37.25260475354538,-77.38264605402941
"23803","Petersburg","VA","food lion","not_available","23803",37.18378448486328,-77.45789337158203
"23803","Petersburg","VA","the Organic Garden","2102 Boulevard","23834",37.259228791047846,-77.41168438764025
"23803","Petersburg","VA","Produce Center","5812 Boydton Plank Rd","23803",37.192534,-77.472443
"23803","Petersburg","VA","Archers Grocery & Garage","Hickory Rd","23803",37.271959349898054,-77.54104770549004
"23824","Blackstone","VA","Walmart Supercenter","1451 S Main St","23824",37.06120036,-78.00500297
"23831","Chester","VA","Walmart Supercenter","12000 Iron Bridge Rd","23831",37.35052653,-77.48339653
"23831","Chester","VA","Kroger","12726 Jefferson Davis Hwy","23831",37.351918836336566,-77.41482317447662
"23831","Chester","VA","ALDI","11100 Iron Bridge Rd","23831",37.36317995395276,-77.4995102151297
"23831","Chester","VA","Lidl","11701 Iron Bridge Rd","23831",37.354054368405194,-77.49273222122429
"23836","Chester","VA","Randolph Market","300 N 6th Ave","23860",37.30372086628099,-77.29310851657624
"23836","Chester","VA","Save-A-Lot","206 Cavalier Square","23860",37.29092971219843,-77.29499996670593
"23837","Courtland","VA","Walmart Supercenter","1500 Armory Dr","23851",36.66915773,-76.95469376
"23840","Dewitt","VA","Wallace's Super Market","not_available","23872",36.981478027079696,-77.71647236613964
"23841","Dinwiddie","VA","Route 1 Country Store","13723 Boydton Plank Rd","23841",37.081971,-77.581827
"23842","Disputanta","VA","Fresh Pride","277 S County Dr","23890",37.03416853995061,-77.08912345056513
"23847","Emporia","VA","Walmart Supercenter","303 Market Dr","23847",36.70699211740262,-77.54501504224093
"23847","Emporia","VA","Piggly Wiggly","338 School St","23847",36.68650986811678,-77.54427235409254
"23847","Emporia","VA","Merita Bread Outlet","not_available","23847",36.6757898367472,-77.54978651499722
"23866","Ivor","VA","Great Value","608 South County Dr","23888",36.97491234104656,-76.99136652513542
"23866","Ivor","VA","The Country Store","Rocky Hock Rd","not_available",36.973416,-76.9670524
"23881","Spring Grove","VA","Food Lion","4320 Westgate Dr","23842",37.209228,-77.046124
"23901","Farmville","VA","Walmart Supercenter","1800 Peery Dr","23901",37.27870900240827,-78.4015575534176
"23901","Farmville","VA","Pineview Bulk Food And Deli","395 Raines Tavern Rd","23901",37.37255859375,-78.4146957397461
"23917","Boydton","VA","Walmart Supercenter","315 Furr St","23970",36.711512,-78.10563996
"23922","Burkeville","VA","A & J Produce","not_available","23930",37.18659858320796,-78.14103518051772
"23924","Chase City","VA","Food Lion","1113 N Main Street","23924",36.81147384643555,-78.46360778808594
"23936","Dillwyn","VA","Farmers Food","not_available","23936",37.544898026011346,-78.4653121805236
"23936","Dillwyn","VA","Reid Market","16660 Oak St","23936",37.54480743408203,-78.4654541015625
"23944","Kenbridge","VA","Food Depot","501A Main St","23944",36.96247100830078,-78.13534545898438
"23959","Phenix","VA","daubenspects","not_available","23959",37.04867035341214,-78.75624114819094
"24012","Roanoke","VA","Walmart Supercenter","4524 Challenger Ave","24012",37.325424353658754,-79.87326049962927
"24012","Roanoke","VA","Walmart Neighborhood Market","4950 Plantation Rd.","24019",37.32198276744886,-79.9355950260318
"24012","Roanoke","VA","Kroger","3970 Valley Gateway Blvd","24012",37.3130168,-79.8801684
"24012","Roanoke","VA","Walmart Supercenter","4807 Valley View Blvd Nw","24012",37.30102876749108,-79.96051578988788
"24012","Roanoke","VA","ALDI","1521 Hershberger Rd NW","24012",37.316011203564635,-79.96135801076883
"24012","Roanoke","VA","Kroger","5050 Rutgers St NW","24012",37.31746784270484,-79.96488581335426
"24012","Roanoke","VA","Kroger","7223 Williamson Rd","24019",37.3453264,-79.9549459
"24012","Roanoke","VA","Walmart Neighborhood Market","2141 Dale Ave","24013",37.27321945318531,-79.90988127573617
"24012","Roanoke","VA","La Bodeguita Hispana","5225 Williamson Rd","24012",37.32177357516485,-79.95402796443744
"24012","Roanoke","VA","Oriental Market","3637 Williamson Rd NW","24012",37.30466,-79.945015
"24012","Roanoke","VA","Hong Kong Market","not_available","24012",37.31560134887695,-79.96051788330078
"24012","Roanoke","VA","Super Dollar Discount Foods","1090 Bypass Road","24179",37.27606191887037,-79.8840775852981
"24012","Roanoke","VA","Caniceria Lily","1525 Williamson Rd NE","24012",37.286097999999996,-79.93270799999999
"24012","Roanoke","VA","Walmart Neighborhood Market","3419 Orange Ave Ne","24012",37.30076217651367,-79.89198303222656
"24012","Roanoke","VA","Tienda El Sol Latino","4102B Plantation Rd NE","24012",37.31354968916846,-79.93335146611355
"24012","Roanoke","VA","Monterey Market","800-898 Columbia St","24019",37.31218846666667,-79.92363978333333
"24014","Roanoke","VA","Kroger","614 Brandon Ave SW","24015",37.255998527164294,-79.95618672717677
"24014","Roanoke","VA","Kroger","4488 Electric Rd","24018",37.2331308,-79.976578
"24014","Roanoke","VA","The Fresh Market","2207 Colonial Ave SW,","24015",37.2548026303118,-79.95728168042893
"24014","Roanoke","VA","Walmart Supercenter","5350 Clearbrook Village Ln","24014",37.20656521777673,-79.95058707173732
"24014","Roanoke","VA","Roanoke Natural Foods Co-Op","1319 Grandin Rd SW","24015",37.26524524722208,-79.97725968923156
"24014","Roanoke","VA","Earth Fare","2203 Franklin Rd SW","24014",37.251988343372375,-79.95364924357023
"24014","Roanoke","VA","Tinnell's Finer foods","2205 Crystal Spring Ave SW","24014",37.24855352836651,-79.94668079478231
"24014","Roanoke","VA","Food Lion","4350 Franklin Rd SW","24014",37.22160339355469,-79.96612548828125
"24014","Roanoke","VA","Community Grocery","124 Elm Ave SW","24016",37.266635,-79.943508
"24014","Roanoke","VA","Mick Or Mack","Windsor ave","24015",37.26560308518048,-79.97566092078834
"24017","Roanoke","VA","Melrose Stop Mart","3458 Melrose Ave NW","24017",37.292646000000005,-79.994295
"24017","Roanoke","VA","Save-A-Lot","4142 Melrose Ave NW","24017",37.29458999633789,-80.00558471679688
"24017","Roanoke","VA","Kroger","3631 Peters Creek Rd NW","24019",37.3239526,-79.9935705
"24018","Roanoke","VA","Kroger","1925 Electric Rd","24153",37.2644656,-80.0349271
"24018","Roanoke","VA","Kroger","4404 Brambleton Ave","24018",37.2240411,-80.0121786
"24018","Roanoke","VA","Kroger","3971 Brambleton Ave","24018",37.23310888887995,-80.00907450914383
"24018","Roanoke","VA","Rainbowl Restaurant","4710 Starkey Rd","24018",37.221900939941406,-79.98529815673828
"24018","Roanoke","VA","Ambika Indian House of Spices","not_available","24018",37.22353217950856,-80.01188955342359
"24019","Roanoke","VA","Hanging Rock Xpress Stop","1798 Thompson Memorial Dr","24153",37.32746983175857,-80.04190400696096
"24055","Bassett","VA","Walmart Supercenter","976 Commonwealth Blvd","24112",36.694287233333334,-79.901274
"24055","Bassett","VA","Save A Lot","2698 Virginia Ave","24078",36.717362,-79.908778
"24055","Bassett","VA","Kroger Grocery Pickup and Delivery","240 Commonwealth Blvd W","24112",36.69786834716797,-79.8779525756836
"24055","Bassett","VA","Aker Supermarket","2213 Oak Level Rd, Bassett, VA 24055","24055",36.751061,-79.955159
"24055","Bassett","VA","ALDI","388 Commonwealth Blvd W","24112",36.698031801882344,-79.89109139254771
"24055","Bassett","VA","Farmers Foods","624 Northside Dr","24112",36.70402908325195,-79.87265014648438
"24055","Bassett","VA","Kroger","2718 U.S. 58 Business","24112",36.65270233154297,-79.87567901611328
"24060","Blacksburg","VA","Kroger","903 University City Blvd","24060",37.2355028,-80.4349788
"24060","Blacksburg","VA","Kroger","1322 S Main St","24060",37.216691,-80.4025992
"24060","Blacksburg","VA","Oasis World Market","1411 S Main St","24060",37.21594778030819,-80.39995073119657
"24060","Blacksburg","VA","Hilltop Grocery","7881-7951 Virginia Ave","24128",37.30342036419174,-80.52883888432605
"24060","Blacksburg","VA","Hethwood Market","820 Heather Dr","24060",37.22149725295312,-80.44827859172278
"24060","Blacksburg","VA","NRV One Stop","not_available","24060",37.234683,-80.421478
"24060","Blacksburg","VA","Eats Natural Foods","708 N Main St","24060",37.23520492583893,-80.42051449846646
"24073","Christiansburg","VA","Walmart Supercenter","2400 N Franklin St","24073",37.16080894330612,-80.42540834069216
"24073","Christiansburg","VA","Kroger","555 N Franklin St","24073",37.1360548,-80.4120159
"24073","Christiansburg","VA","ALDI","2265 N. Franklin St.","24073",37.1605476,-80.4207475
"24073","Christiansburg","VA","Food City","1701 Tyler Ave","24141",37.119747161865234,-80.5313949584961
"24073","Christiansburg","VA","Wades Foods","510 Roanoke St","24073",37.131100308885124,-80.39724943615728
"24083","Daleville","VA","Kroger","72 Kingston Dr","24083",37.3965186,-79.910448
"24084","Dublin","VA","Walmart Supercenter","5225 Alexander Rd","24084",37.08384116,-80.69360667
"24084","Dublin","VA","Food City","1400 Bob White Blvd","24301",37.052095,-80.748976
"24084","Dublin","VA","Walmart Supercenter","7373 Peppers Ferry Blvd","24141",37.15223184027519,-80.58473451181867
"24084","Dublin","VA","Kroger","7480 Lee Hwy","24141",37.1418913,-80.580545
"24084","Dublin","VA","Food Lion","7327 Peppers Ferry Blvd","24141",37.14971160888672,-80.58462524414062
"24084","Dublin","VA","Wades","200 W Main St","24084",37.10431967746717,-80.6872266323482
"24085","Eagle Rock","VA","Walmart Supercenter","313 Thacker Ave","24426",37.76789580990586,-79.99121585048451
"24090","Fincastle","VA","Thriftway","5408-5444 Lee Hwy","24175",37.417635,-79.875419
"24091","Floyd","VA","Slaughter's Supermarket","110 Laurel Branch Rd. NW","24091",36.908484,-80.34042
"24093","Glen Lyn","VA","Corner Market Rich Creek","not_available","24147",37.383183,-80.82276
"24101","Hardy","VA","Kroger","80 Westlake Rd","24101",37.1182573,-79.719386
"24101","Hardy","VA","Food Lion 983","13400 Booker T Washington Hwy","24121",37.1199836730957,-79.71253967285156
"24112","Martinsville","VA","Global Food And Nuts","N A","24148",36.603615,-79.837983
"24120","Meadows Of Dan","VA","Meadows of Dan Food Market","2609 Jeb Stuart Hwy","24120",36.735409999999995,-80.407767
"24120","Meadows Of Dan","VA","Poor Farmer's Market","2616 Jeb Stuart Hwy","24120",36.73492529486238,-80.407791445415
"24124","Narrows","VA","Walmart Supercenter","201 Greasy Ridge Rd","24739",37.360299948883195,-81.04425982499325
"24124","Narrows","VA","Grants","101-157 Oakvale Rd","24740",37.37307296141321,-81.07376982295344
"24124","Narrows","VA","Kroger","1229 Stafford Dr","24740",37.3607524,-81.0952052
"24124","Narrows","VA","Walmart Supercenter","160 Kinter Way","24134",37.32898685105778,-80.70880466445186
"24124","Narrows","VA","Sterling Grocery Company","312 South 2nd Street","24740",37.3687146,-81.086108
"24124","Narrows","VA","Save-A-Lot","1055 Stafford Dr","24740",37.36289978027344,-81.09381103515625
"24127","New Castle","VA","Food Country Usa","not_available","24127",37.50351,-80.11049
"24127","New Castle","VA","Mick-or-Mack IGA","302 Market St","not_available",37.5042839050293,-80.11090850830078
"24148","Ridgeway","VA","Woody's Supermarket","644 Morehead Ave","24148",36.57478,-79.85300600000001
"24151","Rocky Mount","VA","Kroger","400 Old Franklin Tpke Ste 110","24151",37.011568,-79.8658207
"24151","Rocky Mount","VA","Walmart Supercenter","550 Old Franklin Tpke","24151",37.014101478023164,-79.86432529238746
"24153","Salem","VA","Walmart Supercenter","1851 W Main St","24153",37.28948452758474,-80.08863290043658
"24153","Salem","VA","Kroger","1477 W Main St","24153",37.2904479,-80.0829391
"24153","Salem","VA","Kroger","161 Electric Rd","24153",37.2964983,-80.0288871
"24162","Shawsville","VA","Alley's Country Store","1790 Alleghany Spring Rd","24162",37.1314021,-80.26418989999999
"24171","Stuart","VA","Lowes Foods","not_available","24171",36.63927105013729,-80.24434842115296
"24171","Stuart","VA","Walmart Supercenter","19265 Jeb Stuart Hwy","24171",36.63892800809236,-80.2446740515212
"24171","Stuart","VA","Lowes Foods","301 S Main St Ste D","24171",36.63391010009148,-80.26845423392635
"24179","Vinton","VA","Kroger","915 Hardy Rd","24179",37.27182443637112,-79.88707152893767
"24201","Bristol","VA","Walmart Supercenter","21531 Market Center","24202",36.634384,-82.124824
"24201","Bristol","VA","Food City","1320 Euclid Ave","24201",36.60045115087014,-82.19386993875978
"24201","Bristol","VA","ALDI","720 Cabela Drive","24202",36.630387,-82.1440071
"24201","Bristol","VA","Walmart Grocery Pickup & Delivery","13245 Lee Hwy","24202",36.63443374633789,-82.1248779296875
"24201","Bristol","VA","Food City","100 Bonham Rd","24202",36.6307100892449,-82.13203694169674
"24201","Bristol","VA","Kroger Grocery Pickup and Delivery","31 Midway St","24201",36.59641647338867,-82.21484375
"24201","Bristol","VA","Price Less Foods","2012 Lee Hwy","24201",36.625451,-82.161691
"24202","Bristol","VA","Discount Food","17146 Lee Hwy","24202",36.66855,-82.05976
"24210","Abingdon","VA","Walmart Supercenter","16032 Fifteen Mile Boulevard","24211",36.71448358142901,-81.92784183462578
"24210","Abingdon","VA","Food City","396 Towne Center Dr","24210",36.701362041954624,-81.97745746674013
"24210","Abingdon","VA","Food Country","Main Street","24210",36.715567262266255,-81.95926425598762
"24210","Abingdon","VA","Food Country","Hwy 19","24210",36.7220797388097,-82.01456416146706
"24216","Appalachia","VA","Food City","603 Wood Ave E","24219",36.86934366425383,-82.77272656559197
"24216","Appalachia","VA","Save A Lot","27 Callahan Ave","24216",36.907090000000004,-82.782195
"24221","Blackwater","VA","Save A Lot","102 US 58","24277",36.7012518,-82.9894281
"24224","Castlewood","VA","Food City Gas 'N Go","16410 Wise St.","24283",36.90483443279275,-82.31562588360744
"24225","Cleveland","VA","Walmart Supercenter","1050 Regional Park Rd","24266",36.9007221723553,-82.04440368079504
"24225","Cleveland","VA","Food City","159 Pittston Road","24266",36.90114794688347,-82.05925529858298
"24225","Cleveland","VA","Save-A-Lot","832 E Main St","24266",36.903002,-82.061739
"24225","Cleveland","VA","Save-A-Lot","1718 E Main St","24266",36.905998,-82.050361
"24230","Coeburn","VA","Walmart Supercenter","780 Commonwealth Dr","24273",36.9565136851655,-82.60262927278143
"24230","Coeburn","VA","Food City","207 Woodland Dr SW","24293",36.97564503201496,-82.5928371425924
"24230","Coeburn","VA","Grocery Outlet","700 Highway 58 E","24273",36.94110107421875,-82.60230255126953
"24230","Coeburn","VA","Ingles","not_available","24273",36.940857142651204,-82.6029934879036
"24230","Coeburn","VA","Food City","501 Front Street West","24230",36.940941746369525,-82.48543544797297
"24230","Coeburn","VA","Save-A-Lot","175 Plaza Rd SW","24293",36.97137451,-82.59679413
"24230","Coeburn","VA","Price Less Foods","109 Laurel Ave","24230",36.943281,-82.47096
"24230","Coeburn","VA","Payless Supermarket","305 Church Street Northeast","24293",36.9781578396291,-82.5774596868264
"24230","Coeburn","VA","Pay Less IGA","305 Church St","24293",36.978317,-82.577215
"24230","Coeburn","VA","Foodland","main ave","24279",37.11788640024666,-82.59842535079777
"24236","Damascus","VA","Food City","736 N Beaver Dam Ave","24236",36.640842804482546,-81.79880313137343
"24243","Dryden","VA","Food City","930 East Morgan Ave.","24277",36.762847361235664,-83.01478687749115
"24243","Dryden","VA","Save-A-Lot","Highway 58","24277",36.773228,-82.980091
"24244","Duffield","VA","Food Country USA","not_available","24244",36.71064099845396,-82.79714826949606
"24251","Gate City","VA","IGA Grocery Store","us 23","24290",36.606945002105284,-82.5694247690364
"24251","Gate City","VA","Food City","3004 US Highway 23 North","24290",36.629381142461725,-82.55104510164998
"24251","Gate City","VA","Thriftway","not_available","24251",36.64402237,-82.56825446666667
"24251","Gate City","VA","food lion","not_available","24290",36.63013115670028,-82.56326678277331
"24251","Gate City","VA","McGee's Grocery","2391 Yuma Rd","24251",36.614653999999994,-82.607069
"24256","Haysi","VA","Velocity Market","197 Elkhorn Creek Rd","41522",37.29508773842401,-82.36316610837319
"24263","Jonesville","VA","Walmart Supercenter","468 Trade Center Ln","24263",36.72533806,-83.10287934
"24263","Jonesville","VA","Save a lot","not_available","24277",36.74319076538086,-83.05441284179688
"24273","Norton","VA","Save-A-Lot","1420 Park Ave Nw","24273",36.931622999999995,-82.642386
"24279","Pound","VA","Save-A-Lot","11 Freedom Ln","41537",37.1712989807129,-82.6356582641602
"24281","Rose Hill","VA","Super Dollar","not_available","24281",36.668754726387064,-83.37464790997436
"24311","Atkins","VA","Walmart","1193 N Main St","24354",36.84573145,-81.50059462
"24311","Atkins","VA","Food City","910 N Main St","24354",36.841046637262856,-81.50601321024301
"24314","Bastian","VA","Walmart Supercenter","4001 College Ave","24605",37.23792105351538,-81.25435309872013
"24314","Bastian","VA","Bluefield Tobacco & Vape","529 Commerce Dr","24605",37.2392847,-81.2517327
"24315","Bland","VA","Food City","1000 Leatherwood Ln","24605",37.24288274717499,-81.2405007291309
"24315","Bland","VA","Kroger","3032 E Cumberland Rd","24701",37.25204849243164,-81.20552062988281
"24319","Chilhowie","VA","Food City","145 W Lee Hwy","24319",36.79863545732181,-81.6834698374558
"24333","Galax","VA","Walmart Supercenter","1140 E Stuart Dr","24333",36.69229412932215,-80.88157535185358
"24333","Galax","VA","Food City","995-A East Stuart Drive","24333",36.67782708379208,-80.89597962987014
"24333","Galax","VA","Horton's Supermarket","not_available","24333",36.644422999999996,-80.919477
"24333","Galax","VA","Grants Supermarket","544 E Stuart Dr","24333",36.67412185668945,-80.91390991210938
"24333","Galax","VA","Hershberger's Country Market","not_available","24343",36.742478999999996,-80.772896
"24340","Glade Spring","VA","Food Country","not_available","24340",36.79161590194724,-81.76595655909071
"24348","Independence","VA","Food City","568 E Main St","24348",36.61991882324219,-81.14318084716797
"24354","Marion","VA","Sugar Grove Food Mart","5225 Sugar Grove HWY","24375",36.779196999999996,-81.407428
"24360","Max Meadows","VA","Food Country USA #18","675 Fort Chiswell Rd","24360",36.930209000000005,-80.943352
"24366","Rocky Gap","VA","Grants Supermarket","Bluefield Ave","24701",37.267342,-81.228849
"24366","Rocky Gap","VA","Kroger","140 Majestic Pl","24701",37.2982559,-81.2538318
"24366","Rocky Gap","VA","Grant’s Supermarket","not_available","24701",37.298292,-81.254055
"24368","Rural Retreat","VA","Food Country","Main St","24368",36.902320861816406,-81.27191925048828
"24382","Wytheville","VA","Walmart Supercenter","345 Commonwealth Dr","24382",36.95652226521579,-81.09911334621744
"24382","Wytheville","VA","Super Dollar","not_available","24382",36.975364796286335,-81.04170933182317
"24382","Wytheville","VA","Super Dollar Discount Foods","130 W Lee Hwy","24382",36.94583511352539,-81.0897445678711
"24382","Wytheville","VA","Evansham Square Shopping Plaza","1155 N 4th St","24382",36.955563,-81.095566
"24382","Wytheville","VA","4th Street Market","395 N 4th St","24382",36.950034,-81.087486
"24401","Staunton","VA","Walmart Supercenter","1028 Richmond Avenue C.","24401",38.13474699020611,-79.04801675189596
"24401","Staunton","VA","ALDI","113 George Cochran Pkwy","24401",38.1308938,-79.0409893
"24401","Staunton","VA","Cranberry's Grocery & Eatery","7 S New St","24401",38.14933433356724,-79.07142387521795
"24401","Staunton","VA","New Hope Grocery","New Hope-Crimora Rd","22980",38.19335641133788,-78.91857246218551
"24401","Staunton","VA","Kroger Grocery Pickup and Delivery","850 Statler Blvd","24401",38.13969039916992,-79.06668853759766
"24416","Buena Vista","VA","Walmart Supercenter","1233 N Lee Hwy","24450",37.80545972541105,-79.40989815150746
"24416","Buena Vista","VA","Kroger","422 E Nelson St","24450",37.7807352,-79.4364015
"24422","Clifton Forge","VA","Kroger","1618 Main St","24422",37.81649493133696,-79.80911717571871
"24430","Craigsville","VA","CRAIGSVILLE IGA","139 W. Craig St.","24430",38.07963643976483,-79.37939072621955
"24439","Goshen","VA","Millboro Mercantile & Grocery","30462 Mountain Valley Rd","24460",37.996088,-79.622247
"24442","Head Waters","VA","Stonewall Gtocery","not_available","24433",38.335973,-79.490737
"24445","Hot Springs","VA","Valley Supermarket","not_available","24445",38.00575613956729,-79.81987739997174
"24445","Hot Springs","VA","The Duck Inn","4 main st","24445",37.99960369395915,-79.83199132486682
"24450","Lexington","VA","Layne's Country Store","not_available","24555",37.697151425463794,-79.47481861438354
"24501","Lynchburg","VA","Walmart Supercenter","3227 Old Forest Rd","24501",37.41082143285925,-79.2101724737263
"24501","Lynchburg","VA","Walmart Supercenter","3900 Wards Rd","24502",37.353389009510146,-79.18545522495788
"24501","Lynchburg","VA","Kroger","7805 Timberlake Rd","24502",37.3539384,-79.2270216
"24501","Lynchburg","VA","The Fresh Market","3901 Old Forest Rd, Ste A","24501",37.39770813159836,-79.22307990963569
"24501","Lynchburg","VA","Kroger","2012 Wards Rd","24502",37.3749046,-79.1839303
"24501","Lynchburg","VA","ALDI","2617 Lakeside Dr","24501",37.39542558308034,-79.22742247581488
"24501","Lynchburg","VA","Hill City Wholesale","1711 16th St","24501",37.401355,-79.151783
"24501","Lynchburg","VA","Indo Pak Grocery","2126 Wards Rd","24502",37.373503,-79.1826
"24501","Lynchburg","VA","Taste of India Grocery","not_available","24501",37.40164,-79.158574
"24501","Lynchburg","VA","Miles Food Markets","5634 Campbell Hwy","24501",37.35399768133751,-79.10974803692683
"24501","Lynchburg","VA","Long Mountain Grocery","21 Red House Rd","24588",37.27583,-79.089701
"24501","Lynchburg","VA","Super Dollar Discount Foods","7701 Timberlake Rd","24502",37.35458755493164,-79.22347259521484
"24501","Lynchburg","VA","Mi Mexico","not_available","24502",37.37915800004388,-79.2014024668833
"24501","Lynchburg","VA","Fresh Air Natural Foods","2264 Lakeside Dr","24501",37.39927673339844,-79.21390533447266
"24501","Lynchburg","VA","Favored Flavors - Gourmet Specialty Shop","3405 Candlers Mountain Rd","24502",37.4148,-79.14213
"24501","Lynchburg","VA","Los Compadres Mexican Store","not_available","24551",37.35292724667513,-79.22925213096678
"24501","Lynchburg","VA","La Tienda","4895 Fort Ave","24502",37.380581,-79.182777
"24502","Lynchburg","VA","Walmart Neighborhood Market","22088 Timberlake Rd","24502",37.32265293891655,-79.25325307860996
"24502","Lynchburg","VA","Walmart Neighborhood Market","16807 Forest Rd","24551",37.365543572140886,-79.26216081039094
"24502","Lynchburg","VA","Gravesmill","Forest Rd","not_available",37.37795005231242,-79.24798102103951
"24502","Lynchburg","VA","Tienda Xpress","18243 Forest Rd","24502",37.380123138427734,-79.24671936035156
"24503","Lynchburg","VA","Kroger","4119 Boonsboro Rd","24503",37.4426096,-79.2043021
"24503","Lynchburg","VA","Food Lion Grocery Store","4925 Boonsboro Rd","24503",37.44658489220317,-79.21860068253108
"24517","Altavista","VA","Walmart Supercenter","125 Clarion Rd","24517",37.14313137872273,-79.26935965858375
"24517","Altavista","VA","Vista Food","610 Pittsylvania Ave","24517",37.110945,-79.28756164
"24522","Appomattox","VA","Kroger","7789 Richmond Hwy","24522",37.36596232540581,-78.84453983620915
"24522","Appomattox","VA","Walmart Supercenter","505 Oakville Rd","24522",37.36590422030917,-78.84085015341209
"24522","Appomattox","VA","Food Lion","not_available","24522",37.36518270091577,-78.84718643402124
"24523","Bedford","VA","Walmart Supercenter","1126 E Lynchburg Salem Tpke","24523",37.32528112,-79.49716643
"24523","Bedford","VA","The Well","1750 Independence Blvd","24523",37.34636763123535,-79.50293785762456
"24523","Bedford","VA","Elba Butcher Shoppe","not_available","24523",37.333076,-79.52347
"24523","Bedford","VA","Vista Foods","Washington Street","24523",37.33413554636072,-79.5192123136689
"24531","Chatham","VA","Old Dutch Super Market","not_available","24531",36.83262648707985,-79.39542317854219
"24540","Danville","VA","Walmart Supercenter","515 Mount Cross Rd","24540",36.59661654805186,-79.43019986838533
"24540","Danville","VA","Walmart Neighborhood Market","not_available","24540",36.62748874059837,-79.39927671636353
"24540","Danville","VA","ALDI","3465 Riverside Dr","24541",36.582381062596994,-79.42791223526001
"24540","Danville","VA","Big Lots","142 Executive Dr","24541",36.59325408935547,-79.43074035644531
"24540","Danville","VA","Piggly wiggly","South Boston RD","24540",36.580577312084785,-79.34387011605807
"24540","Danville","VA","Mill's Grill & Grocery","8481 Mount Cross Rd","24540",36.657985645150205,-79.52906455048691
"24540","Danville","VA","Tierra santa","115A","24540",36.59027611954806,-79.42019763432785
"24540","Danville","VA","Walmart Neighborhood Market","211 Nor Dan Dr Unit 1010","24540",36.621883779669474,-79.41120594776294
"24540","Danville","VA","Old dutch","North main st","not_available",36.618356,-79.38252800000001
"24540","Danville","VA","south ridge grocery","130 South Ridge St.","24541",36.58538818359375,-79.3944320678711
"24540","Danville","VA","Old Dutch","500-510 Upper St","24541",36.590121388435364,-79.39494252204895
"24540","Danville","VA","Save-A-Lot","703 Piney Forest Rd","24540",36.61143899420736,-79.40690699547744
"24551","Forest","VA","Kroger","15069 Forest Rd","24551",37.364429679818905,-79.29478148720538
"24558","Halifax","VA","Walmart Supercenter","3471 Old Halifax Rd","24592",36.73515862850328,-78.91070404587568
"24558","Halifax","VA","Supply Line Discounts","1190 Bill Tuck Hwy","24592",36.68842985462792,-78.88656121551666
"24558","Halifax","VA","Blue Ribbon Market","Main st","24558",36.76486752850618,-78.92864465271091
"24558","Halifax","VA","Farmer's Foods","2229 Wilborn Ave","24592",36.71201255652112,-78.91492566298973
"24572","Madison Heights","VA","Walmart Supercenter","197 Madison Heights Sq","24572",37.46177330460711,-79.1166984398689
"24602","Bandy","VA","Grant's Supermarket","629 East Riverside Drive","not_available",37.13377500772351,-81.49688249426977
"24605","Bluefield","VA","Save-A-Lot","Sr 20 At Us 52","24701",37.314444,-81.262606
"24609","Cedar Bluff","VA","Walmart Supercenter","13320 G.c. Peery Hwy","24637",37.06574221425205,-81.73218207593283
"24609","Cedar Bluff","VA","Food City","1135 Claypool Hill Mall Rd","24609",37.067784549673455,-81.75677387169273
"24609","Cedar Bluff","VA","Walmart Grocery Pickup","13320 G.C. Peery Hwy","24637",37.065436,-81.731763
"24614","Grundy","VA","Walmart Supercenter","1179 Riverview St","24614",37.277911693060986,-82.10176555764367
"24614","Grundy","VA","Food City","18765 Riverside Drive","24656",37.237189799084184,-82.10409296476338
"24614","Grundy","VA","Super Dollar","101 Edgewater Dr.","24614",37.277996025383366,-82.09700305785378
"24614","Grundy","VA","Save-A-Lot","13413 Riverside Dr","24631",37.221046447753906,-82.03103637695312
"24635","Pocahontas","VA","Dearborn heights","24715","24715",37.337762,-81.336966
