"zip","city","state","name","address","postalCode","lat","lon"
"37013","Antioch","TN","Kroger","6690 Nolensville Pike","37027",36.0002312,-86.6913802
"37013","Antioch","TN","Walmart Supercenter","5824 Nolensville Pike","37211",36.04194225093604,-86.70965909957886
"37013","Antioch","TN","Kroger","2284 Murfreesboro Pike","37217",36.088656,-86.6471543
"37013","Antioch","TN","Aldi","1911 Ransom Pl","37217",36.088124027207996,-86.65080772479996
"37013","Antioch","TN","Kroger","463 W Sam Ridley Pkwy","37167",35.9832525,-86.5511717
"37013","Antioch","TN","Kroger","5319 Mount View Rd","37013",36.0494831,-86.6472632
"37013","Antioch","TN","Publix","10638 Concord Rd","37027",35.997098687398484,-86.69153735793013
"37013","Antioch","TN","Kroger","5145 Murfreesboro Rd","37086",36.0215998,-86.5765368
"37013","Antioch","TN","Publix","3532 Murfreesboro Pike","37013",36.05325461735858,-86.61513317603708
"37013","Antioch","TN","Compton's Foodland","2811 Smith Springs Rd","37217",36.088904347237694,-86.60954744103196
"37013","Antioch","TN","Walmart Supercenter","3035 Hamilton Church Rd","37013",36.06107838514381,-86.62890272379796
"37013","Antioch","TN","King Market, Laos Thai Cafe","1801 Antioch Pike","37013",36.071024988754935,-86.6850311239213
"37013","Antioch","TN","Kroger (Nashboro Village)","not_available","37013",36.07424767154079,-86.66548775592392
"37013","Antioch","TN","Save-A-Lot","1113 Murfreesboro Pike","37217",36.125828000000006,-86.711062
"37013","Antioch","TN","Publix","3404 Towneship Rd","37013",36.069047,-86.609641
"37013","Antioch","TN","Lavergne Super Mercado","not_available","not_available",36.019949230009495,-86.55627602687895
"37013","Antioch","TN","Walmart Grocery Pickup and Delivery","5511 Murfreesboro Road","37086",36.01293182373047,-86.54701232910156
"37013","Antioch","TN","Foodtown Super Mercado","Cane Ridge Road","not_available",36.03714303953477,-86.66193227675585
"37013","Antioch","TN","International Market","2615 Murfreesboro Pike","37217",36.072776960312055,-86.63794768980371
"37013","Antioch","TN","Save-A-Lot","5154 Murfreesboro Rd","37086",36.01967371530314,-86.57661319460671
"37013","Antioch","TN","Nittaya Oriental Market","331 Waldron Rd","37086",36.01172637939453,-86.59335327148438
"37013","Antioch","TN","Trim Healthy Mama Store","not_available","37211",36.086563,-86.69958
"37013","Antioch","TN","El Pueblito Super Mercado","948 Richards Rd","37013",36.068844,-86.68324
"37013","Antioch","TN","Kroger Grocery Pickup and Delivery","463 Sam Ridley Pkwy W","37167",35.98309206777634,-86.55082860589107
"37015","Ashland City","TN","Walmart Supercenter","1626 Highway 12 S","37015",36.24804413476333,-87.03272008237694
"37015","Ashland City","TN","Cash Saver #75","not_available","37015",36.26691815978948,-87.05904908235976
"37015","Ashland City","TN","H G Hills","2581-2583 Tennessee 49","37146",36.39741161783293,-87.03163001677854
"37015","Ashland City","TN","The Village Market Place","6323 U.S. 41 Alternate","37146",36.393763,-87.022757
"37015","Ashland City","TN","H G Hills -Ashland City","795 S Main St","37015",36.26722914346596,-87.0587750342771
"37022","Bethpage","TN","Price Less Foods","5716 Austin Peay Hwy","37186",36.554311,-86.224188
"37025","Bon Aqua","TN","Lyles' Foods Valu Plus","not_available","37025",35.93772119832664,-87.29392810255317
"37025","Bon Aqua","TN","Valu-Plus","9592 Highway 46","37025",35.93783,-87.29408
"37026","Bradyville","TN","Kroger","9025 HWY 64","not_available",35.711358,-86.200695
"37027","Brentwood","TN","Kroger","210 Franklin Rd #100","37027",36.03172126541775,-86.78776190082851
"37027","Brentwood","TN","Whole Foods Market","1566 West McEwen Drive","37067",35.934392831490236,-86.82488331093963
"37027","Brentwood","TN","Publix","15544 Old Hickory Blvd","37211",36.04076250093481,-86.74145502718085
"37027","Brentwood","TN","Kroger","5713 Edmondson Pike","37211",36.0391811,-86.7454053
"37027","Brentwood","TN","Publix","101 Creekside Xing","37027",36.037259034298835,-86.79883465983491
"37027","Brentwood","TN","Kroger","5771 Nolensville Pike","37211",36.04639466734211,-86.71524345874786
"37027","Brentwood","TN","Kroger Food & Drug","2020 Mallory Ln","37067",35.9506927,-86.8165173
"37027","Brentwood","TN","Walmart Supercenter","3600 Mallory Ln","37067",35.93895223709498,-86.81959969474208
"37027","Brentwood","TN","Publix","8105 Moores Ln","37027",35.96378806208133,-86.80218931388023
"37027","Brentwood","TN","The Fresh Market","235 Franklin Rd,","37027",36.03098511875422,-86.79089567220771
"37027","Brentwood","TN","Walmart Neighborhood Market","5531 Edmondson Pike","37211",36.04196510508084,-86.74531325305756
"37027","Brentwood","TN","Peartree Village","210 Franklin Rd","37027",36.0320722,-86.7876925
"37027","Brentwood","TN","Kroger","595 Hillsboro Rd, Ste 305","37064",35.9329589241158,-86.88016982392577
"37027","Brentwood","TN","Dollar General Market","5445 Nolensville Pike","37211",36.0494335224526,-86.71508595299245
"37027","Brentwood","TN","Publix","2020 Fieldstone Pkwy","37069",35.9643072289713,-86.88315186513195
"37027","Brentwood","TN","Grassland Foodland","not_available","37069",35.99590297088307,-86.88610535593311
"37027","Brentwood","TN","Kroger Grocery Pickup and Delivery","210 Franklin Rd Ste 100","37027",36.03209995097565,-86.78723128155985
"37027","Brentwood","TN","Spice Of India","not_available","37067",35.95952574,-86.80145
"37027","Brentwood","TN","Japanese Food & Specialties","15130 Old Hickory Blvd","37211",36.045806884765625,-86.71633911132812
"37030","Carthage","TN","Walmart Supercenter","125 Myers St","37030",36.24528579320556,-85.93918504307456
"37030","Carthage","TN","Sav-Way","372-376 Cookeville Hwy","37030",36.24054323428785,-85.9518024386894
"37030","Carthage","TN","Sav-Way Grocery","not_available","37030",36.266537,-85.95793
"37030","Carthage","TN","Save-A-Lot","551 Industrial Dr","37030",36.26230621,-85.95806122
"37030","Carthage","TN","Save-A-Lot","203 Industrial Dr","37030",36.26014558987552,-85.95463622535638
"37033","Centerville","TN","Save-A-Lot","105 Progress Center Plaza","37033",35.82366943359375,-87.43575286865234
"37033","Centerville","TN","Save-A-Lot","105 Progress Center","37033",35.798401,-87.436782
"37033","Centerville","TN","Save A Lot","700 Highway 100","37033",35.7981363,-87.4366294
"37033","Centerville","TN","Chappell's Hometown Foods #8","1795 Hwy 100","37033",35.83567810058594,-87.43189239501953
"37033","Centerville","TN","Save-A-Lot","700 Hwy 100","37033",35.74428177,-87.47289276
"37034","Chapel Hill","TN","Rex's Foodland","not_available","37034",35.61239242551309,-86.70067413682483
"37036","Charlotte","TN","Murphy's Cee Bee","3426 Highway 48 N","37036",36.17120134155195,-87.34687970391174
"37037","Christiana","TN","Good food service market place (GFS)","465 north thompson ane","37129",35.73993026836256,-86.45569964470894
"37040","Clarksville","TN","Kroger","110 Dover Crossing Rd","37042",36.552897,-87.3979092
"37040","Clarksville","TN","Kroger","2100 Lowes Dr","37040",36.5751301,-87.3067971
"37040","Clarksville","TN","Walmart Supercenter","3050 Wilma Rudolph Blvd","37040",36.59457550458735,-87.29062499416202
"37040","Clarksville","TN","Publix","not_available","37043",36.52232,-87.23475
"37040","Clarksville","TN","Fort Campbell Commissary","2606 Indiana Ave","42223",36.639917523911784,-87.45250151315444
"37040","Clarksville","TN","Walmart Supercenter","2315 Madison St","37043",36.50934939,-87.26986491
"37040","Clarksville","TN","Aldi","1646 Fort Campbell Blvd","37042",36.57692345911753,-87.41050675104084
"37040","Clarksville","TN","Kroger","1489 Madison St","37040",36.5208536,-87.3298786
"37040","Clarksville","TN","Walmart Neighborhood Market","216 Dover Road","37042",36.54953957155346,-87.39619100175658
"37040","Clarksville","TN","Walmart Supercenter","1680 Fort Campbell Blvd","37042",36.58023866157014,-87.41243822599799
"37040","Clarksville","TN","Publix","1771 Madison St","37043",36.51518352827038,-87.31309410622848
"37040","Clarksville","TN","Walmart Neighborhood Market","408 Tiny Town Road","37042",36.634354885858826,-87.42249597942352
"37040","Clarksville","TN","Kroger","Madison street","37043",36.520619842992204,-87.28004456645749
"37040","Clarksville","TN","Publix","1490 Tiny Town Rd","37042",36.62542824522444,-87.37224607722385
"37040","Clarksville","TN","Hilltop Supermarket","400 Highway 149","37040",36.468373388674976,-87.38972015675066
"37040","Clarksville","TN","Price Less IGA","1151 Fort Campbell Blvd","37042",36.554722,-87.39474200000001
"37040","Clarksville","TN","Piggly wiggly","3441Fort Campbell Blvd","37042",36.64015197753906,-87.43494415283203
"37040","Clarksville","TN","Chico Mercado","640 Providence Blvd","37042",36.5493,-87.38091
"37040","Clarksville","TN","Walmart Neighborhood Market","2551 Whitfield Road","37040",36.58187484741211,-87.33518981933594
"37040","Clarksville","TN","Mimi Asian Food Market","not_available","37042",36.563081,-87.40227900000001
"37040","Clarksville","TN","Food Mart 1","1950 Fort Campbell Blvd","37042",36.59171208,-87.41655443
"37042","Clarksville","TN","101st Vapors LLC","1685 Ford Campbell Blvd A","37042",36.581716,-87.409989
"37042","Clarksville","TN","Save-A-Lot","1037 S Riverside Dr","37040",36.511085510253906,-87.36516571044922
"37042","Clarksville","TN","Worldmart International Marketplace","1681 Fort Campbell Blvd","37042",36.577572,-87.408667
"37042","Clarksville","TN","ALDI","1570 Fort Campbell Blvd.","37042",36.57154833,-87.40669333
"37043","Clarksville","TN","Dollar General Market","1945 Madison St Ste B","37043",36.51622757906372,-87.29850114783925
"37043","Clarksville","TN","TNGrass Fed Beef","311 Williams rd","not_available",36.45618378766574,-87.150931217461
"37043","Clarksville","TN","The Silver Cow & Co.","110 Fairview Ln","37040",36.56726837158203,-87.30790710449219
"37043","Clarksville","TN","Saffire Vapor Retail Store","3075 Wilma Rudolph Blvd","37040",36.59542689,-87.2864099
"37046","College Grove","TN","Sewell's","Eagleville, TN","37060",35.72870270249101,-86.6436851894969
"37046","College Grove","TN","Sip-n-Scoop","8731 Horton Hwy","37046",35.786125,-86.6769
"37049","Cross Plains","TN","Piggly Wiggly","not_available","37049",36.548470191595634,-86.69384657500596
"37050","Cumberland City","TN","Piggly Wiggly","3611 W Main St","37061",36.31632485416462,-87.71298878390456
"37055","Dickson","TN","Walmart Supercenter","175 Beasley Dr","37055",36.06021129084484,-87.38091428165916
"37055","Dickson","TN","Kroger","143 Henslee Dr","37055",36.0771202,-87.3715843
"37055","Dickson","TN","ALDI","781 Highway 46 S","37055",36.049268269907444,-87.36201927827096
"37055","Dickson","TN","Kroger Dickson Clicklist","not_available","37055",36.077583,-87.37165
"37055","Dickson","TN","Chappell's Cee Bee","691 Highway 70 E","37055",36.076202249618234,-87.36465521787245
"37055","Dickson","TN","Chappell's Cee Bee","990 Pomona Rd","37055",36.03314620572498,-87.35167733941991
"37055","Dickson","TN","ALDI","3758","37211",36.07152274804692,-87.37863287218912
"37055","Dickson","TN","Save-A-Lot","540 Hwy 46 S","37055",36.05940746613858,-87.37446829265215
"37055","Dickson","TN","LP Shanks","901 Pomona Rd","37055",36.03321797,-87.34901274
"37058","Dover","TN","Piggly Wiggly","not_available","37058",36.480348,-87.891328
"37058","Dover","TN","Save-A-Lot","1320 Donelson Pkwy","37058",36.48059844970703,-87.8833999633789
"37061","Erin","TN","Save-A-Lot","11225 S Main St","37178",36.310406516539175,-87.77383265639627
"37062","Fairview","TN","Walmart Supercenter","7100 Hopgood Rd","37062",35.9627853794295,-87.13931605055274
"37062","Fairview","TN","Publix","7014 City Center Way","37062",35.97330222186856,-87.1306405632979
"37062","Fairview","TN","Food Saver","2080 Fairview Blvd","37062",35.980961,-87.12321999999999
"37062","Fairview","TN","Publix","not_available","37062",35.98155163333333,-87.11412845
"37064","Franklin","TN","Kroger","4726 Traders Way","37179",35.7846179,-86.914911
"37064","Franklin","TN","Walmart Supercenter","4959 Main St","37174",35.77301680280404,-86.91891480889726
"37064","Franklin","TN","Kroger","1203 Murfreesboro Road","37064",35.9174069,-86.8313823
"37064","Franklin","TN","Publix","1400 Liberty Pike Ste 200","37067",35.92477868850399,-86.7953598182769
"37064","Franklin","TN","Publix","4935 Main St","37174",35.77500870641395,-86.91775611108147
"37064","Franklin","TN","Kroger","3054 Columbia Ave","37064",35.893678758346496,-86.88098521563006
"37064","Franklin","TN","Publix","5021 Hughes Xing","not_available",35.86344363484764,-86.84302963265297
"37064","Franklin","TN","Sprouts Farmers Market","1010 Murfreesboro Rd, Ste 194","37064",35.9156317,-86.8383733
"37064","Franklin","TN","Kroger","411 Whitman St","37064",35.9289078,-86.9184869
"37064","Franklin","TN","ALDI","4917 Main St","37174",35.7764173,-86.9174834
"37064","Franklin","TN","Publix","1021 Riverside Dr","37064",35.91254241369935,-86.82884083207102
"37064","Franklin","TN","Aldi","209 S Royal Oaks Blvd","37064",35.91201971868701,-86.83184444904333
"37064","Franklin","TN","Mi Pueblito","503 Liberty Pike","37064",35.9294311,-86.8525602
"37064","Franklin","TN","Kroger Click List","not_available","37064",35.91738,-86.830664
"37066","Gallatin","TN","Walmart Supercenter","1112 Nashville Pike","37066",36.37654052,-86.47644144
"37066","Gallatin","TN","Kroger Marketplace","2011 Nashville Pike","37066",36.3436494,-86.5258017
"37066","Gallatin","TN","Kroger","845 Nashville Pike","37066",36.3779437,-86.4654592
"37066","Gallatin","TN","Publix","1483 Nashville Pike","37066",36.35989323608368,-86.49599249724008
"37066","Gallatin","TN","ALDI","571 Village Green Dr","37066",36.3780032,-86.4743124
"37066","Gallatin","TN","H.G. Hill Market","31east","37066",36.389514308558965,-86.45114023392811
"37066","Gallatin","TN","Station Camp Market","2059 Long Hollow Pike","37066",36.382223201861706,-86.55764900395202
"37066","Gallatin","TN","Save-A-Lot","351 E Main St","37066",36.389840017501115,-86.4393385970778
"37066","Gallatin","TN","hg hill","Main St","37066",36.389661121661085,-86.45106119388954
"37066","Gallatin","TN","Krogers","1095 Long Hollow Pike","37066",36.3856086730957,-86.49022674560547
"37066","Gallatin","TN","Smuggling Sausage At Krogers","not_available","37066",36.366616,-86.519031
"37067","Franklin","TN","Saffire Vapor Retail Store","9200 Carothers Pkwy #102","37067",35.96030044555664,-86.80109405517578
"37069","Franklin","TN","Kroger","8141 State Highway 100","37221",36.04332593190358,-86.95652425289154
"37069","Franklin","TN","Publix","8028 Highway 100","37221",36.046845160563265,-86.9520986267776
"37072","Goodlettsville","TN","Kroger","123 Northcreek Blvd","37072",36.3263008,-86.6983918
"37072","Goodlettsville","TN","Walmart Supercenter","2232 Gallatin Pike","37115",36.3087951165447,-86.6864544996864
"37072","Goodlettsville","TN","Publix","460 Long Hollow Pike","37072",36.331399472030235,-86.69885944624687
"37072","Goodlettsville","TN","Tony's Foodland","5529 Clarksville Pike","37080",36.28050233169213,-86.8761517296099
"37072","Goodlettsville","TN","Crossroads IGA","2127 Highway 41 S","37073",36.4098318,-86.7871139
"37072","Goodlettsville","TN","Gordon Food Service Store","317 Bluebird Dr","37072",36.30058132188005,-86.70195781754235
"37072","Goodlettsville","TN","Holt's Hometown Foods","1778 Hwy 41-S","37152",36.39700412884362,-86.77058177727227
"37072","Goodlettsville","TN","El Rodeo Mercado Latino","1408 Gallatin Pike N, Metropolitan Government, TN 37115","37115",36.281837463378906,-86.70731353759766
"37072","Goodlettsville","TN","HG  Hill","Dickerson Road","37072",36.28781188173749,-86.74602949396841
"37072","Goodlettsville","TN","Indian Mart","707 Rivergate Pkwy","37072",36.305389,-86.705472
"37072","Goodlettsville","TN","Bishop’s Storehouse","19 Industrial Park Dr","37075",36.305707,-86.637692
"37072","Goodlettsville","TN","Home Storage Center","not_available","37075",36.305681,-86.63751
"37072","Goodlettsville","TN","Bill Martin's CB Foods","2543 Highway 41 S","37073",36.42734705978825,-86.80468670865253
"37072","Goodlettsville","TN","H G Hill","212 Goodlettsville Plz","37072",36.31408990240831,-86.71193763613701
"37073","Greenbrier","TN","Walmart Supercenter","3360 Tom Austin Hwy","37172",36.48398411,-86.88776054
"37073","Greenbrier","TN","Kroger","2600 Memorial Blvd","37172",36.488441,-86.8633975
"37073","Greenbrier","TN","ALDI","3438 Tom Austin Hwy","37172",36.48652054504028,-86.88455412885406
"37073","Greenbrier","TN","ALDI","Tom Austin Hwy","37172",36.451649,-86.898785
"37074","Hartsville","TN","Piggly Wiggly","McMurry Blvd","not_available",36.39810512176797,-86.16085144836802
"37075","Hendersonville","TN","Kroger","1010 Glenbrook Way","37075",36.33309780019848,-86.62112018441896
"37075","Hendersonville","TN","Kroger","237 E Main St","37075",36.30768370278748,-86.60075897972138
"37075","Hendersonville","TN","Walmart Supercenter","204 No. Anderson Lane","37075",36.322541150951835,-86.59563567810724
"37075","Hendersonville","TN","Aldi","217 Indian Lake Blvd Ste 700","37075",36.32164,-86.601637
"37075","Hendersonville","TN","Publix","110 Indian Lake Blvd","37075",36.30977881482183,-86.60498648546495
"37075","Hendersonville","TN","Piggly Wiggly","1437 Robinson Rd.","37138",36.25601738649665,-86.65363208513399
"37075","Hendersonville","TN","Saffire Vapor Retail Store","206 Indian Lake Blvd #10","37075",36.31771071,-86.60033769
"37075","Hendersonville","TN","H. G. Hill Grocery","215 W Main St","37075",36.30400085449219,-86.61895751953125
"37075","Hendersonville","TN","Cash Saver #11","213 W Main St","37075",36.30425178224823,-86.61911256373891
"37075","Hendersonville","TN","H.G. Hill Market","1439 Robinson Rd","37138",36.256195068359375,-86.65364074707031
"37075","Hendersonville","TN","Priceless Foods","1806 Glen Oaks Blvd","37075",36.32396282500291,-86.61900959825111
"37076","Hermitage","TN","Kroger","5544 Old Hickory Blvd","37076",36.18175951961256,-86.60486251115799
"37076","Hermitage","TN","Publix","4670 Lebanon Pike","37076",36.216929225873706,-86.593331461167
"37076","Hermitage","TN","Publix","665 S Mount Juliet Rd","37122",36.16130822173734,-86.51291798837781
"37076","Hermitage","TN","Walmart Supercenter","4424 Lebanon Pike","37076",36.21655209589361,-86.60051367921808
"37076","Hermitage","TN","Kroger","4400 Lebanon Pike","37076",36.216449,-86.6039243
"37076","Hermitage","TN","Aldi","4751 Lebanon Pike","37076",36.214269173049345,-86.59173511349309
"37076","Hermitage","TN","Walmart Supercenter","300 Pleasant Grove Rd Ste 600","37122",36.17872998196854,-86.51971116252341
"37076","Hermitage","TN","Kroger","4120 N Mount Juliet Rd","37122",36.2293199,-86.5157479
"37076","Hermitage","TN","Latino Market","3455 Lebanon Pike","37076",36.19094967842102,-86.62466526031494
"37076","Hermitage","TN","super mercado","4000 Lebanon Rd","not_available",36.19623022647899,-86.62264781164467
"37076","Hermitage","TN","Price Less IGA","4331 Old Hickory Blvd","37138",36.217254638671875,-86.62562561035156
"37076","Hermitage","TN","Elle's Place","2544 Somerset Dr","37217",36.084462,-86.633759
"37076","Hermitage","TN","El Rodeo (mercado latino carniceria)","Lebanon Pike","37076",36.1909343100541,-86.62479418254652
"37079","Indian Mound","TN","Indian Mound Grocery","not_available","37079",36.50000631300889,-87.68974504476087
"37082","Kingston Springs","TN","Finch's Country Store","438 Highway 70","37143",36.10006332397461,-87.04904174804688
"37082","Kingston Springs","TN","Pegram Valu Plus","542 Highway 70","37143",36.103486012588036,-87.05545485019684
"37082","Kingston Springs","TN","pegram supermarket","not_available","37143",36.10340118408203,-87.05536651611328
"37083","Lafayette","TN","Macon One Stop","not_available","37083",36.497271000000005,-85.989274
"37083","Lafayette","TN","Walmart Grocery Pickup","419 Highway 52 Byp W","37083",36.5207929341959,-86.0366634232286
"37083","Lafayette","TN","Piggly Wiggly","Scottsville Road","37083",36.53175735473633,-86.02952575683594
"37083","Lafayette","TN","Save-A-Lot","415 Hwy 52 Bypass East","37083",36.518364,-86.01906
"37083","Lafayette","TN","Save A Lot","415 Highway 52 Byp E","37083",36.519221,-86.0152471
"37086","La Vergne","TN","Publix","661 President Pl","37167",35.98020429140216,-86.55509597093976
"37086","La Vergne","TN","Walmart Supercenter","570 Enon Springs Rd E","37167",35.9713456563333,-86.4957890604343
"37086","La Vergne","TN","Aldi","407 S Lowry St","37167",35.97163433168776,-86.50783963882071
"37086","La Vergne","TN","Kee&Noi, Oriental Grocery","not_available","37167",35.994467,-86.527583
"37086","La Vergne","TN","Dollar General","112 Charter Pl","37086",35.991281765610694,-86.59654914442669
"37087","Lebanon","TN","Walmart Supercenter","615 S Cumberland St","37087",36.1917526139174,-86.29174055436364
"37087","Lebanon","TN","Publix","1703 W Main St","37087",36.22313251933737,-86.34545151493488
"37087","Lebanon","TN","Kroger","1418 W Main St Ste A","37087",36.2144627,-86.3309403
"37087","Lebanon","TN","Als Food Value","1006 N Cumberland St","37087",36.22459996893609,-86.29098976465437
"37087","Lebanon","TN","ALDI","108 Circle Dr","37087",36.18950962293884,-86.29755914211273
"37087","Lebanon","TN","Guadalajara Taqueria y Carcineria","1028 W Main St","37087",36.21112823486328,-86.31599426269531
"37087","Lebanon","TN","Cash Saver #16","not_available","37087",36.21168147770336,-86.28545637506036
"37087","Lebanon","TN","Save-A-Lot","325 N Cumberland","37087",36.21191165,-86.28987189
"37087","Lebanon","TN","Demeter’s Common","228 W. Main St. Ste E Ste E","37087",36.207977294921875,-86.29444885253906
"37087","Lebanon","TN","Save A Lot","325 N Cumberland St","37087",36.2117711,-86.2894089
"37090","Lebanon","TN","Three Forks Marketplace","Sparta Pike","37184",36.097783728031054,-86.13297178870373
"37090","Lebanon","TN","Griffin's Market and Deli","14280 Central Pike","37122",36.133758544921875,-86.41520690917969
"37091","Lewisburg","TN","Kroger","301 S Ellington Pkwy","37091",35.4432614,-86.7728626
"37091","Lewisburg","TN","Walmart Supercenter","1334 No. Ellington P","37091",35.47075623601609,-86.7914813956118
"37091","Lewisburg","TN","Food Lion","1399 Coble Dr","37091",35.463328233333336,-86.78248526666667
"37091","Lewisburg","TN","Save-A-Lot","1770 Mooresville Hwy","37091",35.454612731933594,-86.81844329833984
"37091","Lewisburg","TN","Fruteria Latina","635 2nd Ave N","37091",35.457365,-86.787896
"37091","Lewisburg","TN","Legal Marijuana Head Shop-buy marijuana online","112 Southview Dr","37091",35.42684555053711,-86.79305267333984
"37096","Linden","TN","Food Giant","123 E School St","37096",35.6174466537104,-87.83776417953592
"37096","Linden","TN","Heath's Cee Bee Grocery","334 S Main St","37097",35.767528425693165,-87.78484439585847
"37101","Mc Ewen","TN","Chappell's Food Store","Hwy 70","37101",36.10503075409365,-87.62485876212084
"37101","Mc Ewen","TN","Save-More","not_available","37185",36.08806,-87.7409
"37110","Mcminnville","TN","Walmart Supercenter","915 N Chancery St","37110",35.69902412981723,-85.78788938895546
"37110","Mcminnville","TN","Kroger","1410 Sparta St","37110",35.6933,-85.747556
"37110","Mcminnville","TN","Warehouse Discount Groceries","not_available","37110",35.696117,-85.78007
"37110","Mcminnville","TN","Big Lots","231 Northgate Dr","37110",35.70005154942875,-85.78359430803869
"37110","Mcminnville","TN","Foodland Plus","835 Smithville Hwy","37110",35.696005308954376,-85.78099628956875
"37110","Mcminnville","TN","Newtown Foodland","2694 Nashville Hwy","37110",35.69654083251953,-85.81537628173828
"37110","Mcminnville","TN","Save-A-Lot","231 Northgate Ste 216","37110",35.70011902,-85.78327179
"37110","Mcminnville","TN","Variedades Mexican Store","400 Skyline Dr","37110",35.705632,-85.771211
"37115","Madison","TN","Kroger","3410 Gallatin Pike","37216",36.2101188,-86.7324397
"37115","Madison","TN","Kroger","200 Gallatin Pike S","37115",36.2619921,-86.7141247
"37115","Madison","TN","Walmart Neighborhood Market","109 Gallatin Pike N","37115",36.26394362073796,-86.71361877270091
"37115","Madison","TN","Garden Fresh Food Market","800 Madison Sq","37115",36.254861,-86.717623
"37115","Madison","TN","Aldi","135 Gallatin Pike S","37115",36.2616707,-86.71153310000001
"37115","Madison","TN","Asian Market","3117 Gallatin Pike","37216",36.205867,-86.73727199999999
"37115","Madison","TN","Save-A-Lot","1134 Gallatin Pike S","37115",36.250431013905185,-86.72054269764516
"37115","Madison","TN","Save-A-Lot","2622 Gallatin Pike E","37216",36.1979275,-86.74103558063507
"37115","Madison","TN","Rio Mart","not_available","37216",36.212542,-86.721072
"37115","Madison","TN","Walmart Grocery Pickup","3458 Dickerson Pike","37207",36.2471846153846,-86.7567230769231
"37115","Madison","TN","Piggly Wiggly","3611 Gallatin Pike","37216",36.212635999999996,-86.732548
"37115","Madison","TN","The Peach Truck","900 East Trinity Lane","37207",36.2042398,-86.74925449999999
"37122","Mount Juliet","TN","Kroger","401 S Mount Juliet Rd Ste 200","37122",36.16480235346415,-86.51197462698366
"37122","Mount Juliet","TN","Publix","11207 Lebanon Rd","37122",36.232571814617025,-86.5143664744455
"37122","Mount Juliet","TN","Aldi","315 N Mount Juliet Rd","37122",36.17616727889004,-86.51178181171423
"37122","Mount Juliet","TN","Capital City Market","11190 Lebanon Rd","37122",36.23057174682617,-86.51299285888672
"37127","Murfreesboro","TN","Walmart Supercenter","140 Joe B Jackson Parkway","37127",35.77528685053468,-86.39973908060777
"37127","Murfreesboro","TN","Walmart Supercenter","2900 S Rutherford Blvd","37130",35.83134048134615,-86.34654504709765
"37127","Murfreesboro","TN","Kroger","2946 S Church St","37127",35.7905929,-86.4018891
"37127","Murfreesboro","TN","Kroger","1622 Middle Tennessee Blvd","37130",35.8313336357136,-86.37604655977593
"37127","Murfreesboro","TN","Publix","1731 S Rutherford Blvd Ste S","37130",35.81281032616271,-86.36838664409252
"37127","Murfreesboro","TN","Sengsavang Oriental Market","730 Middle Tennessee Blvd","37129",35.827945709228516,-86.40006256103516
"37127","Murfreesboro","TN","WT's Market / Phillips 66","106 Barfield Crescent Rd","37128",35.786383958857485,-86.40114276717085
"37127","Murfreesboro","TN","Hostess Bread Store","not_available","37130",35.836827,-86.37582686
"37127","Murfreesboro","TN","Save-A-Lot","750 Jessica St","37130",35.83308366873316,-86.37678752507591
"37127","Murfreesboro","TN","Price Less IGA","3060 S Church St","37127",35.78490712213307,-86.40234468760883
"37127","Murfreesboro","TN","Dolly Madison/Merita Bread Store","903 Mercury Blvd","37130",35.836892999999996,-86.375652
"37128","Murfreesboro","TN","Kroger","2449 Old Fort Pkwy","37128",35.8437263,-86.4416132
"37128","Murfreesboro","TN","Kroger","canon lane trail","37128",35.8402795265002,-86.44299857895193
"37128","Murfreesboro","TN","Walmart Supercenter","2000 Old Fort Pkwy","37129",35.84998010275773,-86.42801487551132
"37128","Murfreesboro","TN","Kroger","4432 Veterans Pkwy","37128",35.8448042,-86.4921581
"37128","Murfreesboro","TN","Kroger","1776 W Northfield Blvd","37129",35.871392405802226,-86.41562392702326
"37128","Murfreesboro","TN","Walmart Neighborhood Market","1153 Fortress Blvd","37128",35.866848486565424,-86.46449644534377
"37128","Murfreesboro","TN","Publix","2650 New Salem Hwy","37128",35.812365528106454,-86.45772943562301
"37128","Murfreesboro","TN","Walmart Neighborhood Market","2478 New Salem Highway","37128",35.813942327185636,-86.44724418747799
"37128","Murfreesboro","TN","Aldi","640 Robert Rose Dr","37129",35.8539213,-86.4320239
"37128","Murfreesboro","TN","Publix","4175 Franklin Rd","37128",35.84253559249612,-86.4718864284658
"37128","Murfreesboro","TN","Publix","Franklin Rd/Victory station","37129",35.86211915608842,-86.41353766781812
"37128","Murfreesboro","TN","CVS pharmacy","2398 New Salem Hwy.","37128",35.81406402391788,-86.44485156355648
"37128","Murfreesboro","TN","Paksé Market- Oriental Groceries","490 Saint Andrews Dr","37128",35.84148213752833,-86.44615552708608
"37128","Murfreesboro","TN","G f s","not_available","37129",35.85627746582031,-86.44074249267578
"37129","Murfreesboro","TN","Walmart Supercenter","2012 Memorial Blvd","37129",35.878312265089704,-86.38304849554234
"37129","Murfreesboro","TN","Publix","3415 Memorial Blvd","37129",35.912067678954514,-86.38561243874624
"37129","Murfreesboro","TN","Kroger","2325 Memorial Blvd","37129",35.8865819,-86.3839127
"37129","Murfreesboro","TN","Sprouts Farmers Market","143 Wendelwood Dr","37129",35.8802648,-86.3866682
"37129","Murfreesboro","TN","Publix","1640 Lee Victory Pkwy","37167",35.94130712752222,-86.52753969067751
"37129","Murfreesboro","TN","Jr's Foodland","323 E Main St","37130",35.84579343853833,-86.38786295690574
"37129","Murfreesboro","TN","ALDI","3267 Memorial Blvd","37129",35.905574350952314,-86.3846068295046
"37130","Murfreesboro","TN","Kroger","2050 Lascassas Pike","37130",35.8728316,-86.3522661
"37130","Murfreesboro","TN","Supermarket","Uhh","37130",35.85587,-86.37009
"37130","Murfreesboro","TN","Kroger","Old lascassas hwy","37130",35.860025371000994,-86.357135283076
"37130","Murfreesboro","TN","Neighborhood market","1208 E Northfield Blvd","37130",35.872605608604026,-86.36888602444076
"37130","Murfreesboro","TN","Middle Tennessee Super Market","2820 Middle Tennessee Blvd","37130",35.855606,-86.369934
"37130","Murfreesboro","TN","Food Lion","2061 Lascassas Pike","37130",35.87382125854492,-86.35578155517578
"37130","Murfreesboro","TN","The greenery","Church St","37129",35.84614901575527,-86.3914987216989
"37135","Nolensville","TN","ALDI","7117 Southpoint Parkway","37027",35.994983,-86.68686
"37148","Portland","TN","Kroger","510 Highway 76","37188",36.46990898286353,-86.66625125967644
"37148","Portland","TN","Walmart Supercenter","225 Wilkinson Ln","37188",36.472932482312025,-86.67764819964988
"37148","Portland","TN","HG Hills","not_available","37148",36.58571821534062,-86.55620208307343
"37148","Portland","TN","Walmart Grocery Pickup and Delivery","222 Wilkinson Ln","37188",36.472713470458984,-86.6775894165039
"37148","Portland","TN","HG Hill","112 W Knight St","37148",36.575012577245744,-86.51517698517328
"37148","Portland","TN","Food Lion","Hwy 109N","37148",36.503142,-86.498797
"37148","Portland","TN","Al's Foodland","2910 Highway 31 W #A","37188",36.460449751290454,-86.66219506698062
"37160","Shelbyville","TN","Walmart Supercenter","1880 N Main St","37160",35.51320532475832,-86.45229285429
"37160","Shelbyville","TN","Kroger","1010 N Main St","37160",35.497335,-86.4566356
"37160","Shelbyville","TN","Depot Street","not_available","37160",35.48242238953589,-86.45969475622668
"37160","Shelbyville","TN","Save-A-Lot","126 S Cannon Blvd","37160",35.4815788269043,-86.46485137939453
"37160","Shelbyville","TN","Piggly Wiggly","874 Union St","37160",35.49661497846943,-86.47279884605912
"37166","Smithville","TN","Walmart Supercenter","515 W Broad St","37166",35.955041674384894,-85.82980705839176
"37166","Smithville","TN","Save-A-Lot","509 S Congress Blvd","37166",35.95588684,-85.81201172
"37167","Smyrna","TN","Food Lion","564 Nissan Dr","37167",35.98508071899414,-86.49526977539062
"37172","Springfield","TN","H.G. Hills","519 Memorial Blvd","37172",36.507206,-86.882451
"37172","Springfield","TN","Westside Supermarket","not_available","37172",36.503194,-86.901893
"37172","Springfield","TN","Crackerboy Seasonings","4499 Benson Road","37172",36.6176087,-86.9090689
"37174","Spring Hill","TN","Kroger","4900 Port Royal Rd","37174",35.741484,-86.8921556
"37174","Spring Hill","TN","Super Kroger","2015-2023 Big Oak Dr","37174",35.786731742844,-86.89203974512425
"37174","Spring Hill","TN","Publix Spring Hill","4935","not_available",35.76282131304555,-86.91794191297028
"37183","Wartrace","TN","Walmart Supercenter","2111 N Jackson St","37388",35.389692283098334,-86.23974388071801
"37183","Wartrace","TN","Publix","not_available","37388",35.37997,-86.22705
"37183","Wartrace","TN","Kroger","1905 N Jackson St Ste 500","37388",35.3852393,-86.2358409
"37183","Wartrace","TN","ALDI","2014 N Jackson St","37388",35.3900611,-86.2362538
"37185","Waverly","TN","Walmart Supercenter","275 Walton Dr","37185",36.08406363,-87.83236983
"37185","Waverly","TN","Kent's Cee Bee","109-199 Simpson St","37185",36.08412172020572,-87.78409847721666
"37185","Waverly","TN","Waverly Cashsaver","211 Waverly Plz","37185",36.08552932739258,-87.7992935180664
"37187","White Bluff","TN","Chappell's Cee Bee","2005 Highway 47 N","37187",36.109046936035156,-87.22777557373047
"37190","Woodbury","TN","Dollar General Market","1003 W Main St","37190",35.82468401928429,-86.08538783908973
"37190","Woodbury","TN","Save-A-Lot","950 S Mccrary","37190",35.81282358925052,-86.06539860616324
"37190","Woodbury","TN","Piggly Wiggly","not_available","37190",35.827361,-86.081453
"37201","Nashville","TN","H.G. Hill Urban Market","415 Church St","37219",36.163554120475744,-86.77949203885876
"37203","Nashville","TN","Publix Capitol View","1010 Dr Martin L King Jr Blvd","37203",36.16325378417969,-86.7895278930664
"37203","Nashville","TN","Whole Foods Market","1202 Broadway","37203",36.1565175,-86.7876375
"37203","Nashville","TN","The Turnip Truck Urban Fare","321 12th Ave S","37203",36.1526179391734,-86.7850139244437
"37203","Nashville","TN","Piggly Wiggly","2900 West End Ave","37203",36.14442006515258,-86.81338223582691
"37203","Nashville","TN","Tennessee Oriental Market","401-419 11th Ave N","37203",36.162368059158325,-86.7908924818039
"37203","Nashville","TN","Global Market Oriental Foods","918 Vine St","37203",36.147560119628906,-86.77330780029297
"37203","Nashville","TN","Global Market","not_available","37203",36.147791,-86.773614
"37203","Nashville","TN","Eddie's CeeBee","109 Lafayette St","37210",36.14834213256836,-86.76173400878906
"37203","Nashville","TN","International Market","Belmont Blvd.","not_available",36.13250165386916,-86.78901849314227
"37204","Nashville","TN","Walmart Supercenter","2421 Powell Ave","37204",36.110958103440815,-86.768953612366
"37204","Nashville","TN","Kroger","2201 21st Ave S","37212",36.130165002554605,-86.80248230695724
"37204","Nashville","TN","Kroger","2615 Franklin Pike","37204",36.1199226,-86.7771759
"37204","Nashville","TN","Osbornes","3116 Belmont Blvd","37212",36.117597147831944,-86.79695488397881
"37205","Nashville","TN","Kroger","2131 Abbott Martin Rd","37215",36.1056803,-86.8184638
"37205","Nashville","TN","Publix","4324 Harding Pike","37205",36.126581790394106,-86.84738627713487
"37205","Nashville","TN","Whole Foods Market","4021 Hillsboro Pike","37215",36.10328024062463,-86.81856746157099
"37205","Nashville","TN","Kroger","7087 Highway 70 S","37221",36.073071358573166,-86.91950976848602
"37205","Nashville","TN","Trader Joe's","90 White Bridge Rd","37205",36.1308444249148,-86.8521210396746
"37205","Nashville","TN","Walmart Supercenter","7044 Charlotte Pike","37209",36.13175400038822,-86.90749834012875
"37205","Nashville","TN","Publix","6614 Charlotte Pike","37209",36.14009111360732,-86.88268982131657
"37205","Nashville","TN","Kroger","4560 Harding Pike","37205",36.1239257,-86.850561
"37205","Nashville","TN","ALDI","405 American Rd","37209",36.14497087342286,-86.87402085231042
"37205","Nashville","TN","ALDI","7035 Highway 70 S","37221",36.0750107,-86.9176388
"37205","Nashville","TN","K&S World Market","5861 Charlotte Pike","37209",36.14738753515384,-86.86377782573825
"37205","Nashville","TN","The Produce Place","4000 Murphy Rd","37209",36.140853695026564,-86.83314827430118
"37205","Nashville","TN","Jack's Market","4421 Murphy Rd","37209",36.14093331689334,-86.8398178488767
"37205","Nashville","TN","The Hill Center at Nashville West","not_available","37209",36.13972968825033,-86.88233019718318
"37205","Nashville","TN","Cho A Dong: Asia Market","5837 Charlotte Pike","37209",36.14777755737305,-86.86260986328125
"37205","Nashville","TN","Mi Favorita Super Mercado","6317 Charlotte Pike","37209",36.14505147478619,-86.87187911670249
"37206","Nashville","TN","The Turnip Truck Natural Market","970 Woodland St","37206",36.17659832147094,-86.75189535992381
"37206","Nashville","TN","Kroger","711 Gallatin Ave","37206",36.1844743,-86.7467785
"37206","Nashville","TN","ALDI","615 Gallatin Ave","37206",36.1832883,-86.7475518
"37206","Nashville","TN","Roy's Meat Service","605 S 19th St","37206",36.16859683564228,-86.73746548280337
"37206","Nashville","TN","Bill Martins","not_available","37206",36.173011016984326,-86.75079253491343
"37206","Nashville","TN","Bill Martin Corner Foods","S 11 Street","not_available",36.17433454996967,-86.75027172785987
"37206","Nashville","TN","Shelby CB Foods","608 Shelby Ave","37206",36.168270111083984,-86.7593765258789
"37207","Nashville","TN","Kroger","800 Monroe St","37208",36.1758569,-86.7942737
"37207","Nashville","TN","Save-A-Lot","2400 Clarksville Pike","37208",36.185417,-86.816018
"37207","Nashville","TN","HG Hills Food Store","3109 Dickerson Pike","37207",36.229624,-86.758752
"37207","Nashville","TN","Piggly Wiggly","2317 Dickerson Pike","37207",36.20780353721651,-86.76725417721728
"37207","Nashville","TN","Piggly Wiggly","921 Dickerson Pike","37207",36.188484,-86.772798
"37207","Nashville","TN","Hills Food Stores","not_available","37207",36.22963786125183,-86.75925850868225
"37207","Nashville","TN","S & A Discount Tobacco Cntr","1705 Jenkins St","37208",36.180144,-86.798521
"37207","Nashville","TN","Reshas Bi-Rite","not_available","37208",36.18140106651771,-86.81659882990157
"37207","Nashville","TN","Trinity Lane Market","1905 Meridian St","37207",36.205448,-86.765563
"37208","Nashville","TN","Kroger","3930 Clarksville Pike","37218",36.2098477,-86.837724
"37209","Nashville","TN","Trader Joe's","3909 Hillsboro Pike","37215",36.105090059558705,-86.81548662491294
"37209","Nashville","TN","Kroger","5705 Charlotte Pike","37209",36.148724,-86.8604389
"37209","Nashville","TN","Publix","Annex Avenue","37209",36.15451580073494,-86.87528306689191
"37209","Nashville","TN","Nashville Cash and Carry","5001 Charlotte Pike","37209",36.151782974696246,-86.84755378022456
"37209","Nashville","TN","Save-A-Lot","5404 Charlotte Ave","37209",36.152119793987104,-86.8534887513869
"37209","Nashville","TN","Hunter’s Food Store","3910 Clarksville Hwy","37218",36.208786718786754,-86.83924293683972
"37210","Nashville","TN","Kroger","61 E Thompson Ln","37211",36.1098319,-86.7251573
"37210","Nashville","TN","Chico's Mercado","849 Briley Pkwy","37217",36.13593292236328,-86.6996078491211
"37211","Nashville","TN","Walmart Supercenter","4040 Nolensville Pike","37211",36.08181201,-86.72562361
"37211","Nashville","TN","Aldi","3758 Nolensville Pike","37211",36.09028741546894,-86.73231438563562
"37211","Nashville","TN","Osborne's Bi-Rite","3302 Nolensville Pike","37211",36.10150539026027,-86.73983979190551
"37211","Nashville","TN","K&S World Market","4225 Nolensville Pike","37211",36.0753056262897,-86.72545087021483
"37211","Nashville","TN","Fresh & Fresh Internaional Market","3905 Nolensville Pike","37211",36.085913,-86.730145
"37211","Nashville","TN","Patel Brothers Indian Grocery","4043 Nolensville Pike Ste B","37211",36.081643955505136,-86.72731675831155
"37211","Nashville","TN","Patel Brothers","4043 Nolensville Pike","37211",36.08159124998142,-86.72723005635949
"37211","Nashville","TN","Sulav","4647 Nolensville Pike","37211",36.068579,-86.720262
"37211","Nashville","TN","Apna Bazaar","3808 Nolensville Pike","37211",36.08760261074245,-86.7297683569735
"37211","Nashville","TN","Supernercado La Reyna","3755 Nolensville Pike","37211",36.091590881347656,-86.7363052368164
"37211","Nashville","TN","Piggly Wiggly","5127 Nolensville Pike","37211",36.05786263597363,-86.7169339871834
"37214","Nashville","TN","Publix Super Market at The Crossings","2324 Lebanon Pike","37214",36.17062336927959,-86.68370097149769
"37214","Nashville","TN","Kroger","143 McGavock Pike","37214",36.170990260580034,-86.67876287366198
"37217","Nashville","TN","Linbar Super Mercado","237 Linbar Drive","37211",36.081891175732814,-86.70950600769793
"37221","Nashville","TN","Publix","7604 Highway 70 S","37221",36.07820836602792,-86.94576728621769
"37221","Nashville","TN","Sprouts Farmers Market","7620 Highway 70 S","37221",36.080056,-86.94898
"37302","Apison","TN","Village Market","4881 Taylor Circle","37363",35.04889718481821,-85.04906083582442
"37303","Athens","TN","Walmart Supercenter","1815 Decatur Pike","37303",35.45284380726079,-84.63125227861786
"37303","Athens","TN","Ingles Market","917 Decatur Pike","37303",35.44732789394812,-84.61207101363959
"37303","Athens","TN","Food City","not_available","37303",35.440105,-84.59417
"37303","Athens","TN","Piggly Wiggly","17619 State Highway 58 N","37322",35.520076751708984,-84.79083251953125
"37303","Athens","TN","BiLo","not_available","37331",35.34170635402719,-84.51970661042344
"37303","Athens","TN","Save-A-Lot","424 S White St","37303",35.43566131591797,-84.58936309814453
"37303","Athens","TN","Piggly Wiggly","740 N Tennessee Ave","37331",35.3272592505618,-84.52362431911135
"37306","Belvidere","TN","Ashley's Family Market","8791 David Crockett Pkwy W","37306",35.120681,-86.195891
"37307","Benton","TN","Benton IGA","6063-6091 Tennessee 33","37307",35.16900981968852,-84.65705824330678
"37309","Calhoun","TN","Piggly Wiggly","not_available","37310",35.275971000000006,-84.764551
"37309","Calhoun","TN","Eric's IGA Marketplace","Hiwassee St","37310",35.283720841541296,-84.76038010411452
"37310","Charleston","TN","Publix Super Market at Mouse Creek Crossing","635 Paul Huff Pkwy NW","37312",35.20981143936326,-84.8609907928741
"37310","Charleston","TN","Food City","255 Ocoee Crossings","37312",35.193635544747785,-84.855379568939
"37310","Charleston","TN","Cooke's Food Store","3425 Keith St NW","37312",35.19008406896613,-84.8654156195394
"37310","Charleston","TN","Walmart Grocery Pickup and Delivery","4495 Keith St Nw","37312",35.201751708984375,-84.84845733642578
"37310","Charleston","TN","ALDI","305 Paul B. Huff Parkway","37312",35.2055009958025,-84.85241900074347
"37310","Charleston","TN","ALDI","not_available","37323",35.197340251291294,-84.85161353665666
"37310","Charleston","TN","Fresh n' Low","not_available","37312",35.21534951802754,-84.88099069137952
"37311","Cleveland","TN","Walmart Supercenter","2300 Treasury Dr Se","37323",35.1256000633296,-84.86868147751085
"37311","Cleveland","TN","Save-A-Lot","122 Keith St SW","37311",35.161338935289265,-84.88466839179459
"37311","Cleveland","TN","Fresh N' Low","2010 Broomfield Rd SE","37323",35.13065719604492,-84.8594741821289
"37311","Cleveland","TN","Abundant Living Organic Foods","855 Keith St NW","37311",35.166778564453125,-84.88178253173828
"37311","Cleveland","TN","sym Glass","symGLASS 2195 Varnell Road,","37311",35.122600895839184,-84.92542147636414
"37311","Cleveland","TN","Food Lion","2641 Appalachian Highway","37323",35.1300789144609,-84.87536072731018
"37311","Cleveland","TN","Eric's IGA","850 Wildwood Ave, Cleveland, TN 37311","37311",35.150732,-84.870977
"37311","Cleveland","TN","Carniceria Loa","203 Keith St","37311",35.16440963745117,-84.8830795288086
"37311","Cleveland","TN","Bargin Barn","222 Grove Ave SW","37311",35.161441802978516,-84.88655090332031
"37311","Cleveland","TN","Grocery Store","2310 McGrady Dr SE, Cleveland, TN 37323","37323",35.12986373901367,-84.86626434326172
"37311","Cleveland","TN","Super Saver","2221 Spring Place Rd SE","37323",35.130116,-84.853671
"37311","Cleveland","TN","fresh n low on springplace rd","Springplace Rd","37323",35.131145341093,-84.8589793905673
"37317","Copperhill","TN","IGA","not_available","30559",34.988166769221664,-84.36972770087017
"37317","Copperhill","TN","Piggly Wiggly","225 Main St","37317",35.033817,-84.385283
"37321","Dayton","TN","Walmart Supercenter","3034 Rhea County Hwy","37321",35.460148817539995,-85.04414112861518
"37321","Dayton","TN","Bi-Lo","440 Market St","37321",35.48238448999893,-85.02424270004788
"37321","Dayton","TN","Shop-Rite","not_available","37321",35.509659914813895,-85.00139406621643
"37321","Dayton","TN","Save-A-Lot","4285 Rhea City Hwy","37321",35.473859000000004,-85.03282800000001
"37321","Dayton","TN","UGO","4009 Rhea County Hwy","37321",35.471115999999995,-85.036345
"37323","Cleveland","TN","Fresh N' Low","116 White Water Dr","37361",35.12832260131836,-84.71892547607422
"37323","Cleveland","TN","Calfee's General Store","2889 Waterlevel Hwy","37323",35.14891052246094,-84.83982849121094
"37324","Decherd","TN","Walmart Supercenter","2675 Decherd Blvd","37398",35.21760168,-86.10336925
"37324","Decherd","TN","Kroger","1840 Decherd Blvd","37324",35.2045496,-86.0921912
"37324","Decherd","TN","united grocery outlet","not_available","37324",35.209845583867136,-86.09411676527628
"37324","Decherd","TN","Save-A-Lot","2327 Decherd Blvd","37324",35.213775634765625,-86.09845733642578
"37327","Dunlap","TN","Walmart Supercenter","16773 Rankin Ave","37327",35.38605373,-85.38176937
"37327","Dunlap","TN","Save-A-Lot","442 State Route 8 Suite A","37327",35.40012741,-85.3837204
"37327","Dunlap","TN","Save-A-Lot","1320 S Hwy 28","37397",35.275215,-85.460451
"37327","Dunlap","TN","Save-A-Lot","407  New Hwy 8","37327",35.39879926155415,-85.38058439562815
"37327","Dunlap","TN","Save A Lot","442 State Route 8 Ste A","37327",35.3989814,-85.3807378
"37330","Estill Springs","TN","Lighthouse Grocery","106 E Lauderdale St","37388",35.361826,-86.207751
"37330","Estill Springs","TN","Lighthouse Grocery","106 E Lincoln St","37388",35.363096999999996,-86.208557
"37330","Estill Springs","TN","Tokyo Mart","not_available","96913",35.325603,-86.042626
"37330","Estill Springs","TN","Save-A-Lot","373 W Lincoln St","37388",35.35913754158099,-86.21527644771014
"37334","Fayetteville","TN","Walmart Supercenter","1224 Huntsville Hwy","37334",35.13670229681473,-86.56501536160695
"37334","Fayetteville","TN","Save A Lot","301 College St W","37334",35.1528981,-86.5727997
"37334","Fayetteville","TN","Save-A-Lot","301 W College St","37334",35.15278785761873,-86.57317176011396
"37334","Fayetteville","TN","Marker Dollar General","Huntsville Hwy","not_available",35.119241,-86.571535
"37334","Fayetteville","TN","Piggly Wiggly","not_available","37334",35.0753738727935,-86.57173279131976
"37334","Fayetteville","TN","Gerald's Foodland","College Street","37334",35.15202430856818,-86.57223544955175
"37338","Graysville","TN","Midway Grocery","1108 Lee Pike","37379",35.31066167,-85.11284833
"37341","Harrison","TN","Bi-Lo","8634 Hwy 58","37341",35.1694885658315,-85.07575277679413
"37341","Harrison","TN","Food City","8634 TN-58","37341",35.169725855062694,-85.0755500793457
"37343","Hixson","TN","Publix","5928 Hixson Pike Ste 112","37343",35.147747840924914,-85.2070994345743
"37343","Hixson","TN","Walmart Neighborhood Market","3901 Hixson Pike Suite 181","37415",35.114929498418974,-85.26244194424422
"37343","Hixson","TN","Walmart Supercenter","5764 Highway 153","37343",35.153272527280215,-85.2458035877408
"37343","Hixson","TN","Food City","8530 Hixson Pike","37343",35.19868454627875,-85.15930473804474
"37343","Hixson","TN","Walmart Neighborhood Market","7636 Middle Valley Rd","37343",35.18733532263222,-85.18986159984208
"37343","Hixson","TN","ALDI","5510 Highway 153","37343",35.1436539,-85.2474981
"37343","Hixson","TN","Bi-Lo","Hixson Pike","37343",35.19903483645537,-85.15934433867506
"37343","Hixson","TN","Save-A-Lot","6925 Middle Valley Rd","37343",35.174522399902344,-85.20580291748047
"37343","Hixson","TN","Food Lion","3901 Hixson Pike","37415",35.11442184448242,-85.26274871826172
"37343","Hixson","TN","Earth Fare","5414 Hixson Pike","37343",35.14139655287697,-85.22989589684693
"37347","Jasper","TN","Walmart Supercenter","525 Kimball Crossing Dr","37347",35.04021696090134,-85.68271524062163
"37347","Jasper","TN","Ingles","4785 Main St","37347",35.07506030988482,-85.61873207289493
"37347","Jasper","TN","Kirkpatrick's Foodland","100 N Cedar Ave","37380",35.01529800420073,-85.70261192356327
"37350","Lookout Mountain","TN","The Mountain Market","124 N Watauga Ln","37350",34.99196915250984,-85.35443276413913
"37352","Lynchburg","TN","Woodard's Bi Rite","1415 Main St","37352",35.268088368290684,-86.3891583461747
"37352","Lynchburg","TN","Redd's Grocery","Chestnut Ridge Rd, Lynchburg, Moore County, TN 37352","37352",35.26933318520181,-86.3252694160849
"37354","Madisonville","TN","Food City #620","2120 Highway 411","37885",35.57769686713288,-84.27378277696708
"37354","Madisonville","TN","Walmart Supercenter","4525 Highway 411","37354",35.51273427037056,-84.3613135162368
"37354","Madisonville","TN","Walmart Supercenter","935 State Hwy 11 South","37874",35.583526781459405,-84.47555839976285
"37354","Madisonville","TN","Ingles","4629 Highway 411","37354",35.51015141718324,-84.36550706365566
"37354","Madisonville","TN","Ingles","904 S Main St","37874",35.58713371705919,-84.4747324304187
"37354","Madisonville","TN","Save-A-Lot","112 Wayman Rd","37354",35.540658353257705,-84.32943243896997
"37354","Madisonville","TN","Stephens Grocery and Hardware","5532 Highway 68","37354",35.466374584147864,-84.37297212609255
"37354","Madisonville","TN","Save-A-Lot","406 S Main St","37874",35.596778869628906,-84.46636962890625
"37355","Manchester","TN","Walmart Supercenter","2518 Hillsboro Blvd","37355",35.45292581649772,-86.04738674039078
"37355","Manchester","TN","Arnold AFB Commisary","125 Von Karman Rd","37389-2600",35.38395823926273,-86.03208175061711
"37355","Manchester","TN","Jacks Produce","not_available","37355",35.48268108745341,-86.08671855707493
"37355","Manchester","TN","Piggly Wiggly Express","811 W Lincoln","not_available",35.369318,-86.199423
"37355","Manchester","TN","Save-A-Lot","1224 Hillsboro Blvd","37355",35.4714020465454,-86.07608456823175
"37363","Ooltewah","TN","Walmart Supercenter","2020 Gunbarrel Rd Ste 250","37421",35.03020422456812,-85.15259042160416
"37363","Ooltewah","TN","Publix","8644 E Brainerd Rd","37421",34.99956171807758,-85.13380061012859
"37363","Ooltewah","TN","Walmart Neighborhood Market","8101 East Brainerd Rd","37421",35.0050504677211,-85.14925197515423
"37363","Ooltewah","TN","Walmart Supercenter","5588 Little Debbie Pkwy","37363",35.08104073,-85.06306171
"37363","Ooltewah","TN","Food City","7804 E Brainerd Rd","37421",35.00815407039257,-85.15443078968256
"37363","Ooltewah","TN","The Fresh Market","2288 Gunbarrel Rd, Ste 124","37421",35.038585,-85.149296
"37363","Ooltewah","TN","Food City","1667 Ooltewah Ringgold Rd","37363",34.99801107676205,-85.0964617008632
"37363","Ooltewah","TN","Publix","5958 Snow Hill Rd Ste 168","37363",35.09046296526227,-85.06452141206594
"37363","Ooltewah","TN","ALDI","2020 Gunbarrel Rd #154","37421",35.033097,-85.151436
"37363","Ooltewah","TN","Earth Fare","1814 Gunbarrel Rd Ste 100","37421",35.02378820470417,-85.15609442528506
"37363","Ooltewah","TN","Food City","9213 Lee Hwy","37363",35.08614543947347,-85.06141797892167
"37363","Ooltewah","TN","European Market","4921 Ooltewah Ringgold Rd","37363",35.058719635009766,-85.06761169433594
"37363","Ooltewah","TN","Green Pond Grocery","9823 Dallas Hollow Rd","37379",35.2397005851036,-85.15265325872704
"37363","Ooltewah","TN","Tropical Produce","9413 Apison Pike","37363",35.06089782714844,-85.06690979003906
"37363","Ooltewah","TN","European Market","2265 Gunbarrel Rd","37421",35.037913,-85.152192
"37363","Ooltewah","TN","ALDI","5974 Elementary Way","37363",35.08230972660975,-85.05990184333314
"37363","Ooltewah","TN","Fresco Foods","not_available","30741",35.0045194147094,-85.12411822775235
"37367","Pikeville","TN","Save-A-Lot","1391 US 127 Bypass","37367",35.615136185738294,-85.18982701275746
"37367","Pikeville","TN","Piggly Wiggly","not_available","37367",35.61087371281546,-85.18826848502111
"37374","Sequatchie","TN","Save-A-Lot","840 Main St","37387",35.25806902151995,-85.72528897441143
"37377","Signal Mountain","TN","Walmart Supercenter","501 Signal Mountain Rd","37405",35.09433934800082,-85.33113034324165
"37377","Signal Mountain","TN","Food City","3901 Dayton Blvd","37415",35.119608418499894,-85.291119090499
"37377","Signal Mountain","TN","Food City","3600 Hixson Pike","37415",35.10630492615119,-85.27171070567493
"37377","Signal Mountain","TN","Food City","703 Signal Mountain Rd","37405",35.098359780671096,-85.32896826709593
"37377","Signal Mountain","TN","Pruetts","1210 Taft Hwy","37377",35.138781970570705,-85.32856091712188
"37377","Signal Mountain","TN","ALDI","637 Mundy St","37405",35.0978685,-85.3258394
"37377","Signal Mountain","TN","Save-A-Lot","2101 Dayton Blvd","37415",35.09205513290944,-85.31041826322355
"37379","Soddy Daisy","TN","Walmart Supercenter","9334 Dayton Pike","37379",35.23460313282542,-85.1993927095791
"37379","Soddy Daisy","TN","Food City","10161 Old Dayton Pike","37379",35.255561162006316,-85.18335711442477
"37380","South Pittsburg","TN","Save-A-Lot","13205 Hwy 28","37397",35.192118,-85.521465
"37381","Spring City","TN","Piggly Wiggly","not_available","37381",35.692256927490234,-84.86449432373047
"37385","Tellico Plains","TN","Save-A-Lot","9170 Hwy 68","37385",35.36934822147458,-84.30325944815048
"37402","Chattanooga","TN","Carniceria LOA #7","1500 Broad St","37408",35.037136,-85.310838
"37402","Chattanooga","TN","Buehlers Market","Market","not_available",35.051291635352165,-85.30973664534956
"37403","Chattanooga","TN","UTC Place C3 Store","818 University St","37403",35.043853759765625,-85.30046844482422
"37404","Chattanooga","TN","Walmart Neighborhood Market","4150 Ringgold Road","37412",34.99616790579493,-85.24572355101503
"37404","Chattanooga","TN","Food City","3715 Ringgold Rd","37412",35.000985497125825,-85.25729529753424
"37404","Chattanooga","TN","Food City","1600 E 23rd St","37404",35.02024476755775,-85.28862382714208
"37404","Chattanooga","TN","Famous Market & Tobacco Outlet","1301 Greenslake Rd","37412",34.991365,-85.25265
"37404","Chattanooga","TN","Belle Fresh Market","3660 Ringgold Rd","37412",35.0012803,-85.25885579999999
"37404","Chattanooga","TN","asian market","6933 Lee Hwy, Chattanooga, TN 37421","37421",34.99752448017897,-85.25316309363534
"37404","Chattanooga","TN","Oriental Supermarket","not_available","37412",35.00109512,-85.258751
"37404","Chattanooga","TN","Big Daddy's","3901 Dodds Ave","37407",34.99733,-85.28365699999999
"37404","Chattanooga","TN","Rogers Supermarket","main street","37408",35.028081,-85.286664
"37404","Chattanooga","TN","Save-A-Lot","3936 Ringgold Rd","37412",34.99743972664104,-85.2520511436028
"37404","Chattanooga","TN","Tortillería La Reyna","not_available","37411",35.024093,-85.248218
"37404","Chattanooga","TN","Wonder Bakery Thriftshop","3450 Ringgold Rd","37412",35.0052490234375,-85.26168060302734
"37404","Chattanooga","TN","Carniceria La Guatemalteca","not_available","37404",35.01767599142178,-85.27831241950919
"37405","Chattanooga","TN","Publix","400 N Market St","37405",35.06540404431392,-85.30839383720759
"37405","Chattanooga","TN","Whole Foods Market","301 Manufacturers Rd","37405",35.063317219465375,-85.31433502681729
"37405","Chattanooga","TN","Food Lion","321 Browns Ferry Rd","37419",35.031194,-85.36375799999999
"37405","Chattanooga","TN","Food Lion","not_available","37419",35.02535206546312,-85.34431676013094
"37405","Chattanooga","TN","Bi Lo","Signal Mountain Road","37405",35.08209807870212,-85.32796068738253
"37406","Chattanooga","TN","Walmart Neighborhood Market","4110 Shallowford Rd","37411",35.04230471358125,-85.22045557911483
"37409","Chattanooga","TN","Walmart Supercenter","3550 Cummings Hwy","37419",35.01581747450949,-85.37625704029892
"37409","Chattanooga","TN","Food City","3801 Tennessee Ave","37409",35.01003237650336,-85.32642873061712
"37409","Chattanooga","TN","Amman Market","5603 st elmo ave","37",34.986665,-85.33233299999999
"37409","Chattanooga","TN","O'Dells Grocery And Deli","3031 Cummings Hwy","37419",35.020285,-85.367161
"37409","Chattanooga","TN","Mountain Valley Market","Tennessee Ave.","37405",35.01124138,-85.32674749
"37411","Chattanooga","TN","Walmart Supercenter","490 Greenway View Dr","37411",35.0088234805251,-85.20528340330644
"37411","Chattanooga","TN","ALDI","5706 Lee Hwy","37421",35.0180035114795,-85.20446149248608
"37411","Chattanooga","TN","Bi-Lo","Brainerd Road","37412",35.01306952659466,-85.22902872445722
"37411","Chattanooga","TN","Sabor Latino","4931 Brainerd Rd","37411",35.012445,-85.226175
"37411","Chattanooga","TN","Bi-Lo","4011 Brainerd Rd","not_available",35.01868725572401,-85.23858867824808
"37412","Chattanooga","TN","Bi Lo","Ringgold  Rd","37412",35.00165861368373,-85.1918459491818
"37412","Chattanooga","TN","Sunny's","1706 Keeble St","37412",34.986082,-85.223121
"37412","Chattanooga","TN","Bilo","6725 Ringgold Rd","37412",34.99065592997141,-85.19764040109474
"37412","Chattanooga","TN","Balkan Foods","5611 Ringgold Rd # 120, Chattanooga, TN 37412","37412",34.99256,-85.225462
"37412","Chattanooga","TN","Bi-Lo","6725 Ringgold Rd #113","37412",34.99089050292969,-85.19673156738281
"37415","Chattanooga","TN","Food City","4510 Highway 58","37416",35.08400170322765,-85.19763941509021
"37416","Chattanooga","TN","United Grocery Outlet","not_available","37416",35.086896,-85.18860500000001
"37416","Chattanooga","TN","Food Lion","4404 Oakwood Dr","37416",35.091435,-85.182115
"37421","Chattanooga","TN","Food City","6951 Lee Hwy","37421",35.044592208387485,-85.16394348568261
"37421","Chattanooga","TN","Desi Brothers","6500 Lee Hwy","37421",35.034627,-85.17776500000001
"37421","Chattanooga","TN","Save-A-Lot","6901 Lee Hwy","37421",35.043055062687024,-85.16677858457538
"37421","Chattanooga","TN","D's Tropical Food Mart","6227 Lee Hwy","37421",35.032318115234375,-85.1845474243164
"37601","Johnson City","TN","Kroger","112 Sunset Dr","37604",36.344357,-82.3790906
"37601","Johnson City","TN","Walmart Supercenter","2915 W Market St","37604",36.30916189217332,-82.4040135197569
"37601","Johnson City","TN","Walmart Supercenter","3111 Browns Mill Rd","37604",36.359373968466244,-82.3984560235859
"37601","Johnson City","TN","Kroger","1805 W State of Franklin Rd","37604",36.3001517,-82.3802888
"37601","Johnson City","TN","Food City","920 N State of Franklin Rd","37604",36.32435825378858,-82.3924941835714
"37601","Johnson City","TN","Natural Foods Market","3211 Peoples St","37604",36.344089000000004,-82.400869
"37601","Johnson City","TN","Food City","2120 S Roan St #100","37601",36.30207066362956,-82.3378975408911
"37601","Johnson City","TN","ALDI","1400 W Market St","37604",36.3140422,-82.3814908
"37601","Johnson City","TN","Earth Fare","1735 W State of Franklin Rd","37604",36.300631310054115,-82.3776957633495
"37601","Johnson City","TN","Hometown IGA #482","1948 South Roan St.","37601",36.304710388183594,-82.34036254882812
"37601","Johnson City","TN","Milligan grocery","Milligan hwy","37601",36.298118591308594,-82.30067443847656
"37601","Johnson City","TN","Hometown I.G.A.#482","1950 S Roan St","37601",36.3046875,-82.34050750732422
"37601","Johnson City","TN","Food Lion","1429 East Main Street","37601",36.32454,-82.33107782
"37601","Johnson City","TN","The Fresh Market","421 N State of Franklin Rd, Ste 200","37604",36.30994644204471,-82.38731746623341
"37601","Johnson City","TN","Galilee Mediterranean Grocery","Paul's Mall #6","37604",36.3410758972168,-82.37490844726562
"37601","Johnson City","TN","Food City","not_available","37659",36.31205995586545,-82.3661852324247
"37601","Johnson City","TN","Snider's Super Foods","not_available","37604",36.3418918,-82.3768383
"37601","Johnson City","TN","Hometown IGA","1113 N Roan St","37601",36.324003000000005,-82.362098
"37615","Johnson City","TN","Ingles Market","4470 N Roan St","37615",36.38525845571161,-82.4086658355762
"37615","Johnson City","TN","Food City","125 Judge Gresham Rd","37615",36.41702451434213,-82.47056249349161
"37615","Johnson City","TN","Food City","4307 N Roan St","37615",36.37911217359364,-82.40899161290439
"37615","Johnson City","TN","Black Sheep Market Discount Grocery","742 Gray Station Rd","37615",36.416038513183594,-82.47615051269531
"37616","Afton","TN","Walmart Supercenter","3755 E Andrew Johnson Hwy","37745",36.187118125184725,-82.76021032800567
"37616","Afton","TN","Food City","2755 E Andrew Johnson Hwy","37745",36.182445982113514,-82.77646477103812
"37616","Afton","TN","Ingles","2845 E Andrew Johnson Hwy","37745",36.18238578315284,-82.7744690119478
"37616","Afton","TN","Publix Supermarket","2315 E Andrew Johnson Hwy","37745",36.180237,-82.78230500000001
"37616","Afton","TN","ALDI","3800 E Andrew Johnson Hwy","37745",36.1838727,-82.759639
"37616","Afton","TN","Food Lion","not_available","37745",36.179818,-82.7821961
"37616","Afton","TN","Food City","905 Snapps Ferry Rd","37745",36.171770467698316,-82.81516474095748
"37616","Afton","TN","Save More Foods","100-198 Bob Smith Blvd","37745",36.17804131860864,-82.7948938469923
"37617","Blountville","TN","Food City","1921 Highway 394","37617",36.525131896613445,-82.3136457736045
"37618","Bluff City","TN","Food City","5970 Hwy 11E","37686",36.42598646571732,-82.3189233505481
"37620","Bristol","TN","Walmart Supercenter","220 Century Blvd","37620",36.54522207142338,-82.23523559296103
"37620","Bristol","TN","Food City","1317 Virginia Ave","37620",36.57967519986652,-82.16629321785484
"37620","Bristol","TN","Food City","1320 Euclid Ave","24201",36.60045115087014,-82.19386993875978
"37620","Bristol","TN","Food City","1430 Volunteer Pkwy","37620",36.55890831039871,-82.21400925355336
"37620","Bristol","TN","Kroger Grocery Pickup and Delivery","31 Midway St","24201",36.59641647338867,-82.21484375
"37620","Bristol","TN","Save Alot","1109-1111 Bluff City Hwy","37620",36.5594882,-82.20532357692719
"37641","Chuckey","TN","Mountain View Bulk Foods","7730 Erwin Hwy","37641",36.15089212937864,-82.65820673373392
"37642","Church Hill","TN","Walmart Supercenter","2500 W Stone Dr","37660",36.556857722304876,-82.60261871579243
"37642","Church Hill","TN","Food City","731 Highway 11 W","37642",36.52685094403819,-82.68604451225256
"37643","Elizabethton","TN","Walmart Supercenter","1001 Over Mountain Dr","37643",36.34901573921484,-82.24484643495623
"37643","Elizabethton","TN","Ingles Supermarket","not_available","37643",36.34885365032295,-82.23731577236768
"37643","Elizabethton","TN","Food City","920 Broad St","37643",36.351614680935384,-82.2093946643216
"37643","Elizabethton","TN","Save-A-Lot","135 W Elk Ave","37643",36.35057067871094,-82.22623443603516
"37643","Elizabethton","TN","GO","701 W Elk Ave","37643",36.35136413574219,-82.23748016357422
"37643","Elizabethton","TN","Big Lots","791 W Elk Ave","37643",36.35108664878929,-82.23926254897606
"37643","Elizabethton","TN","Brown's Grocery & Hardware","613 Highway 321","37658",36.285219,-82.160168
"37643","Elizabethton","TN","IGA #482","1936-1998 S Roan St","37604",36.332044707662796,-82.20388468320795
"37650","Erwin","TN","Walmart Supercenter","110 Rocky Bottom Dr","37692",36.18809107077581,-82.3729056127716
"37650","Erwin","TN","Food City","not_available","37650",36.148893,-82.418112
"37650","Erwin","TN","Price Less Foods","1609 Jackson Love Hwy","37650",36.12640433,-82.4300065
"37650","Erwin","TN","Mary's Kountry Kitchen & Produce","1112 N Main Ave","37650",36.15735034480891,-82.40428447723389
"37659","Jonesborough","TN","Food City","500 Forest Dr","37659",36.30251442913408,-82.46060709794419
"37659","Jonesborough","TN","Ingles","1200 W Jackson Blvd","37659",36.29526287297523,-82.49316425280193
"37659","Jonesborough","TN","Food City 640","500","38659",36.26511640459009,-82.48761480705622
"37660","Kingsport","TN","Walmart Neighborhood Market","750 Lynn Garden Dr","37660",36.562568547507446,-82.56727782868225
"37660","Kingsport","TN","Walmart Supercenter","3200 Ft Henry Drive","37664",36.50889159051682,-82.51877637785103
"37660","Kingsport","TN","Food City","1205 N Eastman Rd","37664",36.530432521974184,-82.52794144331983
"37660","Kingsport","TN","Food City","300 Clinchfield St","37660",36.55169554264728,-82.56580157212132
"37660","Kingsport","TN","Food City","1911 Moreland Dr","37663",36.48948053153785,-82.50745250379697
"37660","Kingsport","TN","Kroger","1664 E Stone Dr","37660",36.5484982,-82.5155902
"37660","Kingsport","TN","Ingles","4335 Fort Henry Dr","37663",36.48162987579698,-82.49483390154941
"37660","Kingsport","TN","Price Less Foods","1328 S John B Dennis Hwy","37660",36.50635142534398,-82.55495552040018
"37660","Kingsport","TN","ALDI","2617 E Stone Dr","37660",36.54897630949524,-82.49288581349185
"37660","Kingsport","TN","Price Less Foods","3006 N John B Dennis Hwy","37660",36.571796,-82.50735
"37660","Kingsport","TN","foodcity","not_available","37664",36.54013958397545,-82.52100155007048
"37660","Kingsport","TN","Oakwood Market","4118 Fort Henry Dr","37663",36.48402786254883,-82.50301361083984
"37660","Kingsport","TN","McCoys Salvage Grocery","2969 N John B Dennis Hwy","37660",36.571647,-82.505873
"37660","Kingsport","TN","Discount Grocery","not_available","37660",36.56927711033579,-82.50120721324879
"37660","Kingsport","TN","Save-A-Lot","1401 E Stone Dr","37660",36.548689021693185,-82.52502557061523
"37683","Mountain City","TN","Price Less Foods","220 Pioneer Village Dr","37683",36.46379852294922,-81.80223846435547
"37683","Mountain City","TN","Food Country USA","100 E Main St","37683",36.47451840850877,-81.80313223755168
"37701","Alcoa","TN","Walmart Supercenter","1030 Hunters Crossin","37701",35.77132948,-83.99121881
"37701","Alcoa","TN","Kroger","244 S Hall Rd","37701",35.7635544,-83.9716039
"37701","Alcoa","TN","Aldi","836 Louisville Rd","37701",35.77347972133497,-83.9896000997851
"37701","Alcoa","TN","Food City","121 N Hall Rd","37701",35.76715058336041,-83.9739530529055
"37701","Alcoa","TN","Save-A-Lot","227 S Hall Rd","37701",35.76485695662855,-83.97041361891044
"37701","Alcoa","TN","United Grocery Outlet","148 S Calderwood St","37701",35.761652000000005,-83.979742
"37705","Andersonville","TN","Walmart Supercenter","150 Tanner Ln","37716",36.16952254287002,-84.0869360200847
"37705","Andersonville","TN","Weigel's","2409 N Charles G. Seivers Blvd","37716-6708",36.169626966678045,-84.07861042496822
"37705","Andersonville","TN","Shop 4 Less","Tennessee 61 Scenic","37828",36.18641107830551,-84.06049704499097
"37705","Andersonville","TN","Archer's Food Center, Inc.","68 W Norris Rd","37828",36.19643959883341,-84.0711438795267
"37709","Blaine","TN","Blaine IGA","Rutledge Pike","not_available",36.15280720169178,-83.70514257744831
"37711","Bulls Gap","TN","Yoder's Country Market","15275 W Andrew Johnson Hwy","37711",36.234366103036734,-83.06550509729423
"37714","Caryville","TN","Walmart Supercenter","2824 Appalachian Hwy","37757",36.335801350175,-84.17868081592353
"37714","Caryville","TN","Food City","2221 Jacksboro Pike","37766",36.34703643686396,-84.15960673197853
"37714","Caryville","TN","ShopRite","Lake City, TN","37769",36.22067907399179,-84.15775717069837
"37714","Caryville","TN","Big Lots","2500 Jacksboro Pike Ste 1","37757",36.34156360098477,-84.16967758235813
"37714","Caryville","TN","Save-A-Lot","2010 Jacksboro Pike Suite 2","37766",36.35238838969051,-84.15626316114401
"37716","Clinton","TN","Kroger","1550 Oak Ridge Tpke","37830",36.01291832780169,-84.26789032380543
"37716","Clinton","TN","Walmart Supercenter","373 S Illinois Ave","37830",36.00827553765697,-84.25356887994742
"37716","Clinton","TN","Food City","1199 Oak Ridge Tpke","37830",36.017454771288925,-84.24811847260753
"37716","Clinton","TN","Food City","506 S Charles G Seivers Blvd","37716",36.091525599119834,-84.13986049797585
"37716","Clinton","TN","IGA Priceless","691 Emory Valley Rd","37830",36.02058103795678,-84.22738041145587
"37716","Clinton","TN","Weigel's","7444 Clinton Hwy","37849",36.01907390362141,-84.0517832995218
"37716","Clinton","TN","Food City","7350 Clinton Hwy","37849",36.01764394147426,-84.0473793676914
"37716","Clinton","TN","United Grocery Outlet #36","1115 N Charles G Seivers Blvd","37716",36.117642,-84.115533
"37716","Clinton","TN","United Grocery Outlet","1990 Oak Ridge Tpke","37830",36.003027016666664,-84.28944211
"37716","Clinton","TN","Panda Produce & Asian Grocery","101 Jefferson Ave","37830",36.008264,-84.282479
"37716","Clinton","TN","dollar market","not_available","37849",36.02269103917828,-84.0480652826899
"37716","Clinton","TN","Grocery outlet","not_available","37716",36.117740631103516,-84.11626434326172
"37716","Clinton","TN","Save-A-Lot","512 Clinch Ave","37716",36.08364486694336,-84.13121795654297
"37716","Clinton","TN","Ingle's Grocery","Clinch Ave.","not_available",36.09157295485557,-84.13107577650058
"37716","Clinton","TN","ALDI","111 Woodland Trce E","37830",36.00413986842158,-84.24735770390726
"37721","Corryton","TN","Midway IGA","7345 Tazewell Pike","37721",36.117497705872786,-83.85487453324869
"37724","Cumberland Gap","TN","Harrogate IGA","not_available","37752",36.582333626409905,-83.65626950837151
"37725","Dandridge","TN","Food City","123 US-70","37725",36.016684717714575,-83.42576622962952
"37738","Gatlinburg","TN","Food City","1219 E Parkway","37738",35.72659144729302,-83.48045903723026
"37738","Gatlinburg","TN","Food City","3625 Parkway","37863",35.78416004142749,-83.55076209482813
"37738","Gatlinburg","TN","Bearland Grill & General Store","305 Historic Nature Trl","37738",35.707981,-83.517239
"37738","Gatlinburg","TN","Food City","not_available","37738",35.72523145695316,-83.5088502750237
"37742","Greenback","TN","Countryside Market","5550-5598 Tennessee 33","37801",35.66661783263678,-84.09989693126533
"37743","Greeneville","TN","Food City","509 Asheville Hwy","37743",36.147439367475975,-82.8459560642504
"37743","Greeneville","TN","Food Country","6766 W Andrew Johnson Hwy","37818",36.18632507324219,-82.93409729003906
"37743","Greeneville","TN","Save-A-Lot","249 W Summer St Hwy 11","37743",36.16312011666667,-82.83546
"37743","Greeneville","TN","Greenville Farm Market","703 Crum St","37743",36.16044998168945,-82.8209457397461
"37748","Harriman","TN","Kroger","1820 Roane State Hwy","37748",35.8920794,-84.5507008
"37748","Harriman","TN","Food City","1130 S Roane St","37748",35.91819666182945,-84.57300054196467
"37748","Harriman","TN","Food City","1000 Ladd Landing Blvd","37763",35.88526631620626,-84.49672492813633
"37748","Harriman","TN","UGO","not_available","37748",35.916841186270055,-84.56285000532536
"37748","Harriman","TN","Save-A-Lot","1225 S Roane St","37748",35.91646745287195,-84.57497983342992
"37754","Heiskell","TN","Walmart Supercenter","7550 Norris Fwy","37938",36.08876485281716,-83.9384677290581
"37754","Heiskell","TN","Kroger Marketplace","not_available","37754",36.099257,-84.032041
"37756","Huntsville","TN","Scenic Foods","not_available","37756",36.40334776726592,-84.43784394908877
"37756","Huntsville","TN","scenic foods","7352 Baker Hwy","37756",36.386418020052616,-84.42561890271098
"37760","Jefferson City","TN","Walmart Supercenter","630 E Broadway Blvd","37760",36.12860736170738,-83.46821881356226
"37760","Jefferson City","TN","Food City","1507 Odell Ave","37760",36.11720029445774,-83.48693426391917
"37763","Kingston","TN","Food City","not_available","37763",35.82256193795496,-84.48671351537067
"37764","Kodak","TN","Food City","2946 Winfield Dunn Pkwy","37764",35.963783405567256,-83.59221339225769
"37766","La Follette","TN","IGA","1221 Jacksboro Pike","37766",36.366792,-84.13536500000001
"37770","Lancing","TN","IGA","1014 Main St","37887",36.102202,-84.588891
"37770","Lancing","TN","Save-A-Lot","3910 Morgan County Hwy","37887",36.10637408908102,-84.59433003700774
"37770","Lancing","TN","Darnell Food Market","not_available","37887",36.102372809946125,-84.58910088362973
"37771","Lenoir City","TN","Ingles","404 U.S. 321","37771",35.80210479018486,-84.26259625208007
"37771","Lenoir City","TN","Food City","300 Market Dr","37771",35.81937908211926,-84.26891877029782
"37771","Lenoir City","TN","UGO","not_available","37772",35.79910673066933,-84.25442268478345
"37771","Lenoir City","TN","ALDI","725 Highway 321 N","37771",35.811675,-84.262651
"37771","Lenoir City","TN","Walmart Supercenter","911 Highway 321 N","37771",35.822006804277905,-84.2648350130527
"37774","Loudon","TN","Dollar General","not_available","37774",35.732298124019636,-84.36394211526975
"37777","Louisville","TN","Kroger","9501 S Northshore Dr","37922",35.8622729055564,-84.0691958359983
"37777","Louisville","TN","Publix Super Market at Northshore Town Center","2010 Town Center Blvd","37922",35.860311891578974,-84.07624990065409
"37777","Louisville","TN","Food City","2135 E Broadway Ave","37804",35.780823536560106,-83.95124385503948
"37777","Louisville","TN","The Market at Washington + High","Washington st","not_available",35.86183233333333,-84.07005266666667
"37777","Louisville","TN","Sav-A-Lot","Broadway Baptist Daycare, 2329 E Broadway Ave, Maryville, TN 37804","37804",35.78551483154297,-83.94862365722656
"37779","Luttrell","TN","Food City","4344 Maynardville Hwy","37807",36.25291532502895,-83.79366185929523
"37779","Luttrell","TN","The Winery at Seven Springs Farm","1474 Highway 61 E","37807",36.251454635667294,-83.75544394232787
"37801","Maryville","TN","Walmart Supercenter","2410 Us Highway 411 S","37801",35.71507522595656,-84.01323347235089
"37801","Maryville","TN","Kroger Marketplace","507 Foothills Plz","37801",35.7413629,-83.994273
"37801","Maryville","TN","Food City","1610 W Broadway Ave","37801",35.73848224871106,-83.98915317576906
"37801","Maryville","TN","Kroger Clicklist Pickup","not_available","37801",35.741173,-83.99296
"37801","Maryville","TN","Food City","1715 W Broadway Ave","37801",35.73622131347656,-83.99345397949219
"37801","Maryville","TN","Food Lion","1857-1899 U.S. 411","37801",35.731089624411354,-83.99715480985252
"37801","Maryville","TN","Erics Super","11 Ports","not_available",35.72956575063423,-83.97706406370348
"37811","Mooresburg","TN","D & R Market","10710 Highway 11 W","37811",36.34428024291992,-83.22970581054688
"37813","Morristown","TN","Walmart Supercenter","475 Crockett Trace Dr","37813",36.213803647365864,-83.25552204868156
"37813","Morristown","TN","Food City","301 Jaybird Rd","37814",36.23611150656236,-83.24324316064437
"37813","Morristown","TN","Walmart Supercenter","4331 W. Andrew Johnson Highway","37814",36.19075446488935,-83.35726890009306
"37813","Morristown","TN","Food City","2181 W Andrew Johnson Hwy","37814",36.205003294343946,-83.3221932933447
"37813","Morristown","TN","Food City","451 S Cumberland St","37813",36.210097797504346,-83.28941391895762
"37813","Morristown","TN","ALDI","154 W Pin Ln","37814",36.19288467812336,-83.36177385833258
"37813","Morristown","TN","Walmart Neighborhood Market","1997 Buffalo Trail","37814",36.236717224121094,-83.28241729736328
"37813","Morristown","TN","Food City","1570 Buffalo Trl","37814",36.230665159436036,-83.28792592572555
"37813","Morristown","TN","Food City","4100 Cool Springs Road","37814",36.23624038696289,-83.24343872070312
"37813","Morristown","TN","Price Less Foods","1707 E Andrew Johnson Hwy","37814",36.22565841674805,-83.27400207519531
"37813","Morristown","TN","Save-A-Lot","3004 W Andrew Johnson","37814",36.201244,-83.33676700000001
"37813","Morristown","TN","Ingles","521 N Haun Dr","37814",36.22530688488576,-83.26476634129949
"37813","Morristown","TN","Food City","1105 E Morris Blvd","37813",36.21708679199219,-83.28043365478516
"37813","Morristown","TN","Nick's Market","501 s. Cumberland avenue","37813",36.209513,-83.28907199999999
"37813","Morristown","TN","Ingles","3980 W Andrew Johnson Hwy","37814",36.19782832437243,-83.35361000071964
"37813","Morristown","TN","Walmart Neighborhood Market","1757 W Andrew Johnson Hwy","37814",36.20634078979492,-83.3154296875
"37821","Newport","TN","Food City","181 Western Plaza Way","37821",35.97216282322897,-83.20620059967041
"37821","Newport","TN","Food City","1212 State St","37890",36.107008,-83.281145
"37821","Newport","TN","Walmart Supercenter","1075 Cosby Hwy","37821",35.94390346,-83.21094739
"37821","Newport","TN","Food City","416 Eastern Plaza Shopping Ctr","37821",35.96658502853322,-83.18177555237537
"37821","Newport","TN","Newport Bargain Barn","296 Highway 25 E","37821",35.98503073530965,-83.21919012640494
"37821","Newport","TN","Save A Lot","1043 Cosby Hwy","37821",35.944798,-83.208827
"37821","Newport","TN","The Mustard Seed","not_available","37821",35.963531494140625,-83.19477844238281
"37821","Newport","TN","Price Less Foods","208 W Broadway","37821",35.968314,-83.197857
"37821","Newport","TN","Fords Cruz Thru","581 W Broadway","37821",35.97138595581055,-83.21157836914062
"37825","New Tazewell","TN","Walmart","432 S Broad St","37825",36.43915245593608,-83.60885091531043
"37825","New Tazewell","TN","Food City","1410 N Broad St","37879",36.448405,-83.577322
"37825","New Tazewell","TN","Fresh N' Low","917 Main St","37825",36.44585037231445,-83.58634948730469
"37825","New Tazewell","TN","new tazewell produce","not_available","37879",36.44403290155515,-83.59770512678938
"37825","New Tazewell","TN","Ingle's Market","Broad Street","37825",36.42572265,-83.6284273
"37830","Oak Ridge","TN","Kroger Marketplace","189 Brooklawn St","37934",35.8804784,-84.1567411
"37830","Oak Ridge","TN","Publix Super Market at Turkey Creek","11656 Parkside Dr","37934",35.89342459750703,-84.17030903245907
"37830","Oak Ridge","TN","The Fresh Market","11535 Kingston Pike,","37934",35.880758,-84.165091
"37830","Oak Ridge","TN","Food City","11501 Hardin Valley Rd","37932",35.93102600612686,-84.18643586283487
"37830","Oak Ridge","TN","Food City","508 E Tri County Blvd","37840",36.03628362632909,-84.330880079271
"37830","Oak Ridge","TN","Kroger Clicklist Farragut","not_available","37934",35.879334,-84.157154
"37830","Oak Ridge","TN","Saffire Vapor Retail Store","11521 Parkside Dr","37934",35.89786435,-84.16990632
"37841","Oneida","TN","Walmart Supercenter","19740 Alberta St","37841",36.51401123287381,-84.50650085703124
"37841","Oneida","TN","Save-A-Lot","20475 Alberta St","37841",36.523433685302734,-84.50001525878906
"37849","Powell","TN","Kroger","6702 Clinton Hwy","37912",36.00875048071994,-84.02363866567612
"37849","Powell","TN","Ingles","430 E Emory Rd","37849",36.048809277269534,-83.9960532318994
"37849","Powell","TN","Walmart Supercenter","6777 Clinton Hwy","37912",36.00569555,-84.0262558
"37849","Powell","TN","Food City","5078 Clinton Hwy","37912",36.0046650053811,-83.97559471832321
"37849","Powell","TN","Ingles","215 Cedar Ln","37912",36.01520671731474,-83.96923619603089
"37849","Powell","TN","Kroger","234 E Emory Rd","37849",36.04458236694336,-84.00309753417969
"37849","Powell","TN","ALDI","2801 Schaad Rd","37921",36.0040586,-84.0230693
"37849","Powell","TN","Saffire Vapor Retail Store","5543 Clinton Hwy","37912",36.004761,-83.9849532
"37854","Rockwood","TN","Walmart Supercenter","1102 No. Gateway Ave","37854",35.88017540524595,-84.657472964349
"37854","Rockwood","TN","Gateway IGA","not_available","37854",35.87178694792899,-84.68185378386025
"37857","Rogersville","TN","Walmart Supercenter","4331 Highway 66 S","37857",36.39682935,-83.01870346
"37857","Rogersville","TN","Food City","1287 E Main St","37857",36.41547130997217,-82.99015931287818
"37857","Rogersville","TN","Save-A-Lot","420 Park Blvd Suite 6","37857",36.41871643066406,-82.99282836914062
"37857","Rogersville","TN","Super Dollar Discount Foods","4017 Highway 66 S #3","37857",36.394737243652344,-83.01364135742188
"37857","Rogersville","TN","United Grocery Outlet","921 E Main St","37857",36.413102,-82.99531999999999
"37862","Sevierville","TN","Walmart Supercenter","1414 Parkway","37862",35.83844817871261,-83.57364577322774
"37862","Sevierville","TN","Kroger","702 Winfield Dunn Pkwy","37876",35.8794877,-83.5745481
"37862","Sevierville","TN","Kroger","220 Wears Valley Rd","37863",35.8045096,-83.5815589
"37862","Sevierville","TN","Publix","2656 Parkway","37863",35.80282038580528,-83.5761032910679
"37862","Sevierville","TN","Walmart Neighborhood Market","1185 Dolly Parton Pkwy","37862",35.86246404687632,-83.5299374369694
"37862","Sevierville","TN","Harry & David","1645 Parkway #650","37862",35.83139939706214,-83.56892379039122
"37862","Sevierville","TN","Food City","741 Dolly Parton Pkwy","37862",35.86362411202245,-83.55033849937331
"37862","Sevierville","TN","Food City","3064 Teaster Lane","37863",35.79230880737305,-83.56233978271484
"37862","Sevierville","TN","Amish Creations And Country Market","1256-1298 Parkway","37862",35.844132,-83.57009599999999
"37862","Sevierville","TN","Foodcity","not_available","37863",35.78808625246477,-83.57245414391411
"37862","Sevierville","TN","Food Lion","not_available","37862",35.870981895567546,-83.57176760831574
"37862","Sevierville","TN","ALDI","538 Winfield Dunn Pkwy","37876",35.87666190722031,-83.57330378412729
"37862","Sevierville","TN","Rivera's Market","Veterans Boulevard","37863",35.794104,-83.544141
"37862","Sevierville","TN","Smokey Mountain Grocery","4104 Wears Valley Rd","37862",35.70553207397461,-83.67142486572266
"37865","Seymour","TN","Walmart Supercenter","7420 Chapman Hwy","37920",35.91155595145493,-83.84408092850832
"37865","Seymour","TN","Kroger","10721 Chapman Hwy","37865",35.87711940234275,-83.77436757087708
"37865","Seymour","TN","Food City","7323 Chapman Hwy","37920",35.90420596412005,-83.83808781245365
"37865","Seymour","TN","Food City","11503 Chapman Hwy","37865",35.86911312415846,-83.75586090805807
"37865","Seymour","TN","Pioneer Market","8119 Chapman Hwy","37920",35.90070343017578,-83.82300567626953
"37871","Strawberry Plains","TN","Price Less Foods","522 Andrew Johnson Hwy","37871",36.03769996777,-83.72148513793945
"37871","Strawberry Plains","TN","Food City","7510 Asheville Hwy","37924",36.01995906370564,-83.77835422398879
"37876","Sevierville","TN","Food City","not_available","37876",35.882192,-83.460561
"37882","Townsend","TN","IGA Supermarket","225 Clearwater Dr","37882",35.67980871387382,-83.74266114184275
"37902","Knoxville","TN","Corner Market on 13th ( aka Firedogs)","310 13th St","37916",35.96169593207226,-83.92828780436724
"37902","Knoxville","TN","Aisle Nine","112 S Central St","37902",35.96989346208897,-83.91829078009616
"37902","Knoxville","TN","The Market","504 S Gay St","37902",35.96509590903611,-83.91818778388733
"37909","Knoxville","TN","Trader Joe's","8001 Kingston Pike","37919",35.92733702154031,-84.045852088939
"37909","Knoxville","TN","Whole Foods Market","6730 Papermill Dr Nw","37919",35.93324190783185,-84.01568040793286
"37909","Knoxville","TN","The Fresh Market","4475 Kingston Pike","37919",35.941849,-83.978415
"37909","Knoxville","TN","Kroger","4918 Kingston Pike","37919",35.9396638,-83.9846356
"37909","Knoxville","TN","ALDI","5220 Kingston Pike","37919",35.9371487,-83.9895739
"37909","Knoxville","TN","Food City","5941 Kingston Pike","37919",35.934005669996544,-84.00072370485512
"37909","Knoxville","TN","Farm Fresh Produce","3619 Sutherland","not_available",35.946889,-83.979699
"37909","Knoxville","TN","Kroger Clicklist","not_available","37919",35.940261,-83.984717
"37909","Knoxville","TN","Dollar General","2419 Amherst Road","37921",35.96270751953125,-84.04279327392578
"37909","Knoxville","TN","Asian Market","8027 Kingston Pike","37919",35.926422119140625,-84.04647827148438
"37909","Knoxville","TN","Dae Do Oriental Mart","7819 Montvue Center Way","37919",35.925811767578125,-84.04226684570312
"37909","Knoxville","TN","Kroger Express at Walgreens","121 N Northshore Dr, 865 588 6755","37919",35.93369429468087,-84.00324799786233
"37909","Knoxville","TN","Oriental Super Mart","3300 Lebanon St.","not_available",35.944965,-83.982128
"37909","Knoxville","TN","Earth Fare","140 N Forest Park Blvd","37919",35.94234357111216,-83.98193069841005
"37909","Knoxville","TN","Ebisu Asian Market","7819 Montvue Rd NW","37919",35.925596779134885,-84.04297624487384
"37909","Knoxville","TN","Consider It Done","7126 Ashburton Dr","37909",35.951747999999995,-84.033214
"37909","Knoxville","TN","foodcity","Deane Hill","37909",35.948585510253906,-84.02798461914062
"37912","Knoxville","TN","Food City","5801 Western Ave","37921",35.980553657685846,-84.01633423276769
"37912","Knoxville","TN","Walmart Neighborhood Market","3120 Mckamey Road","37921",35.976307651800404,-84.01123259485738
"37912","Knoxville","TN","Lonsdale Market","3222 Rudy St","37921",35.990909,-83.95315699999999
"37912","Knoxville","TN","Walmart Grocery Pickup","3120 McKamey Road","37921",35.97622299194336,-84.01126861572266
"37914","Knoxville","TN","Kroger","4414 Asheville Hwy","37914",36.0041493,-83.8646258
"37914","Knoxville","TN","Save-A-Lot","3850 Holston Dr","37914",35.998535,-83.87704599999999
"37914","Knoxville","TN","Dollar General","not_available","37914",35.98723602294922,-83.89288330078125
"37914","Knoxville","TN","Super Dollar Discount Foods","4302 Asheville Hwy","37914",36.003698,-83.866349
"37916","Knoxville","TN","Publix Super Market at University Commons","2429 University Commons Way","37916",35.95010797043263,-83.93943252613312
"37916","Knoxville","TN","Presidential Court Grocery","not_available","37916",35.952292,-83.9346832
"37917","Knoxville","TN","Three Rivers Market","1100 N Central St","37917",35.981284287231524,-83.92810570052089
"37917","Knoxville","TN","Walmart Supercenter","3051 Kinzel Way","37924",36.03122441241161,-83.8670552609307
"37917","Knoxville","TN","Kroger","2217 N Broadway St","37917",35.9930322,-83.9215827
"37917","Knoxville","TN","The Village Mercantile","not_available","37917",36.015074,-83.920991
"37917","Knoxville","TN","Pratt's Country Store","3100 Tazewell Pike","37918",36.02758233065589,-83.92246009192138
"37917","Knoxville","TN","Food City","4805 N Broadway St","37918",36.02510577461274,-83.92849214367119
"37917","Knoxville","TN","Save-A-Lot","2003 N Broadway","37917",35.99087297916412,-83.92159938812256
"37917","Knoxville","TN","Kroger Express at Walgreens","5006 N Broadway St, 865 688 1812","37918",36.03023316095162,-83.9283494717165
"37917","Knoxville","TN","Save A Lot","2003 N Broadway St","37917",35.9909877,-83.9224078
"37918","Knoxville","TN","Kroger","5201 N Broadway St","37918",36.0327072,-83.9315185
"37918","Knoxville","TN","Food City","7202 Maynardville Hwy.","37807",36.08074686740589,-83.92498558283567
"37918","Knoxville","TN","Ingles","7220 Norris Fwy","37918",36.08361494566542,-83.9294252908699
"37918","Knoxville","TN","ALDI","5416 Millertown Pike","37924",36.03441619873047,-83.86830139160156
"37918","Knoxville","TN","Food City","2712 Loves Creek Rd","37924",36.03618536671978,-83.86935949652823
"37918","Knoxville","TN","ALDI","4109 E Emory Rd","37938",36.0842799,-83.9340753
"37918","Knoxville","TN","ingeles","not_available","37918",36.06253168619763,-83.92439354984717
"37918","Knoxville","TN","Grocery Outlet","6021 Chapman Highway","not_available",36.0704331690371,-83.92582812947946
"37918","Knoxville","TN","ALDI","Emory Rd.","37918",36.08550393040247,-83.92046302217217
"37919","Knoxville","TN","Food City","284 Morrell Rd","37919",35.923972324984796,-84.03236840713404
"37919","Knoxville","TN","Walmart Supercenter","8445 Walbrook Dr","37923",35.92686438964359,-84.06267531241893
"37919","Knoxville","TN","Butler & Bailey Market","7513 S Northshore Dr","37919",35.90508854938387,-84.02007099071413
"37919","Knoxville","TN","Sunrise Supermarket","8509 Kingston Pike","37919",35.92253508275375,-84.06364372226648
"37919","Knoxville","TN","Turkish Market","8078 Kingston Pike Ste 121","37919",35.923669,-84.050158
"37919","Knoxville","TN","International Food Market","1645 Downtown West Blvd","37919",35.922067999999996,-84.052622
"37919","Knoxville","TN","Food City","2939 Alcoa Hwy","37920",35.91142654418945,-83.9557876586914
"37919","Knoxville","TN","Apna Bazaar","8078 Kingston Pike #155","37919",35.92390821177691,-84.04977142810822
"37919","Knoxville","TN","Taqueria Y Tied Latina Lid Paisanos","8078 Kingston Pike #151","37919",35.91978,-84.068311
"37920","Knoxville","TN","Kroger","4409 Chapman Hwy","37920",35.9326778,-83.9065599
"37920","Knoxville","TN","Food City","1950 Western Ave","37921",35.96630262169451,-83.94323629153801
"37920","Knoxville","TN","Grocery Outlet","4425 Chapman Hwy.","37920",35.934835,-83.906814
"37920","Knoxville","TN","Kroger Express at Walgreens","4001 Chapman Hwy, 865 573 0081","37920",35.93713785399095,-83.90856256258297
"37920","Knoxville","TN","Meth Mart","not_available","37920",35.92730356793115,-83.92225764969704
"37920","Knoxville","TN","Food City","4580 Chapman Hwy","37920",35.931705474853516,-83.90226745605469
"37922","Knoxville","TN","Walmart Supercenter","10900 Parkside Dr","37934",35.90027043903898,-84.1475641758327
"37922","Knoxville","TN","Kroger Marketplace","9225 Kingston Pike","37922",35.9135437,-84.0890731
"37922","Knoxville","TN","Ingles","11817 Kingston Pike","37934",35.874745964963346,-84.17779684601945
"37922","Knoxville","TN","Aldi","110 Moss Grove Blvd","37922",35.909925685766304,-84.09027145074106
"37922","Knoxville","TN","Benefit Your Life","10420 Kingston Pike","37922",35.89799796346546,-84.12858356812285
"37922","Knoxville","TN","Earth Fare","10903 Parkside Dr","37934",35.90309582632549,-84.14656603019142
"37922","Knoxville","TN","Gordon Food Service Store","9312 Kingston Pike","37922",35.910029801826305,-84.09239172935486
"37922","Knoxville","TN","International Delicacies","8807 Kingston Pike","37923",35.917216173523784,-84.07513940433523
"37922","Knoxville","TN","GFC","not_available","37922",35.91653228942854,-84.0885094520954
"37923","Knoxville","TN","Food City","9565 Middlebrook Pike","37931",35.94829387556158,-84.11298288133135
"37923","Knoxville","TN","Kroger","9161 Middlebrook Pike","37923",35.9426268,-84.0936378
"37923","Knoxville","TN","Clicklist","not_available","37923",35.942357,-84.093692
"37923","Knoxville","TN","Kroger Express at Walgreens","9200 Middlebrook Pike, 865 531 0033","37931",35.941719937882176,-84.09548750693557
"37923","Knoxville","TN","Far East Market","9111 Executive Park Dr","37923",35.921470642089844,-84.0864486694336
"37931","Knoxville","TN","Ingles","7466 Oak Ridge Hwy","37931",35.9832747189348,-84.09536920472033
"38001","Alamo","TN","Food Rite","not_available","38001",35.78452491666667,-89.10445338333334
"38001","Alamo","TN","Food Rite","344 S Bells St","38001",35.77970127952406,-89.11700364314561
"38002","Arlington","TN","Walmart Supercenter","8400 Highway 64","38133",35.20686566084076,-89.78276772405898
"38002","Arlington","TN","Kroger","9025 Highway 64","38002",35.2025791,-89.7618926
"38002","Arlington","TN","Kroger","11635 Highway 70","38002",35.292857067236945,-89.67388361692429
"38002","Arlington","TN","Kroger","5995 Stage Rd","38134",35.2024567,-89.8631916
"38002","Arlington","TN","Kroger","2942 Kirby Whitten Rd","38134",35.2067367,-89.8383448
"38002","Arlington","TN","Sprouts Farmers Market","9050 Highway 64, Ste A","38002",35.205921510824155,-89.76135045289993
"38002","Arlington","TN","Kroger","7615 US Highway 70","38133",35.22957631718041,-89.80792174382884
"38002","Arlington","TN","Walmart Neighborhood Market","6520 Memphis Arlington Rd","38135",35.22798782013482,-89.84686165299983
"38002","Arlington","TN","Memphis NSA Commissary","5722 Integrity Dr","38054",35.3294418754852,-89.86742237526146
"38002","Arlington","TN","ALDI - Barlett","2867 Kirby Whitten Rd","38134",35.20373858576107,-89.84163598855957
"38002","Arlington","TN","Family Dollar","9109 Us 64","38016",35.204254,-89.75895
"38002","Arlington","TN","Sams Club","Convington pike","not_available",35.21049948605825,-89.88213700026235
"38002","Arlington","TN","Easy Way Produce","5905 Stage Rd","38134",35.203975,-89.86663
"38002","Arlington","TN","Dollar General","765 Hwy 70 E","38002",35.32267,-89.628619
"38002","Arlington","TN","Schnuck's","2942 N Stage Plz","38134",35.2065544128418,-89.85530090332031
"38002","Arlington","TN","Quick & Easy Discount Grocery","not_available","38016",35.19922080748849,-89.75465912040913
"38002","Arlington","TN","Super Suppers","2965 N Germantown Rd","38133",35.206887,-89.79343399999999
"38002","Arlington","TN","Kroger Grocery Pickup and Delivery","9025 US Hwy 64","38002",35.2025791,-89.7618926
"38004","Atoka","TN","Kroger","11630 Highway 51 S","38004",35.440925184597766,-89.79076855182238
"38006","Bells","TN","Walmart Supercenter","1100 S Dupree Ave","38012",35.58696873,-89.23872778
"38006","Bells","TN","Save-A-Lot","81 Bank Dr","38012",35.59466338435538,-89.24032477538958
"38006","Bells","TN","Ruler Foods","323 E Main St","38012",35.594668,-89.258522
"38008","Bolivar","TN","Maxwells Big Star","not_available","38008",35.25747901088459,-88.98524396745023
"38008","Bolivar","TN","Walmart Supercenter","1604 W Market St","38008",35.27914777,-89.0250765
"38011","Brighton","TN","Walmart Supercenter","201 Lanny Bridges Ave","38019",35.54559470346649,-89.66483901257008
"38011","Brighton","TN","Save-A-Lot","843 US HWY 51","38019",35.55641174,-89.65499878
"38016","Cordova","TN","Kroger","1675 N Germantown Pkwy","38016",35.1709958,-89.7949859
"38016","Cordova","TN","Kroger","1230 N Houston Levee Rd","38018",35.1587011,-89.7259643
"38016","Cordova","TN","Aldi","1610 N Germantown Pkwy","38016",35.16938068647458,-89.79207760314245
"38016","Cordova","TN","Super Target","1156-1162 Whitten Rd","38018",35.15628189521193,-89.83381948010069
"38016","Cordova","TN","Shelby Market","6882 Macon Rd","38134",35.16716003417969,-89.83386993408203
"38017","Collierville","TN","Kroger","240 New Byhalia Rd","38017",35.0472831,-89.6873842
"38017","Collierville","TN","Kroger","3685 S Houston Levee Rd","38017",35.0480953,-89.7355362
"38017","Collierville","TN","Walmart Supercenter","560 W Poplar Ave","38017",35.04787935677209,-89.68106341953695
"38017","Collierville","TN","The Fresh Market","9375 Poplar Ave,","38138",35.06296478698959,-89.75014128986747
"38017","Collierville","TN","Sprouts Farmers Market","3150 Village Shops Dr, # 105","38138",35.063386958114705,-89.7572010755539
"38017","Collierville","TN","ALDI","523 W Poplar Ave","38017",35.045436,-89.680203
"38017","Collierville","TN","Chef Shuttle","366 New Byhalia Road, Suite 4A","38017",35.0501229,-89.6872085
"38018","Cordova","TN","Walmart Supercenter","577 N Germantown Pkwy","38018",35.14069938,-89.79778886
"38018","Cordova","TN","Kroger","676 N Germantown Pkwy","38018",35.1432025,-89.7931989
"38018","Cordova","TN","India Import","7845 Trinity Rd Ste 104","38018",35.14075,-89.801442
"38019","Covington","TN","Kroger","951 Highway 51 N","38019",35.57927778277424,-89.64438039066863
"38019","Covington","TN","Save-A-Lot","843 Highway 51 N","38019",35.57611846923828,-89.64530944824219
"38024","Dyersburg","TN","Walmart Supercenter","2650 Lake Rd","38024",36.06340417309843,-89.39232184198795
"38024","Dyersburg","TN","Foodrite 52","120 E Highway 77","38059",36.12186167127534,-89.26210237270884
"38024","Dyersburg","TN","Kroger","2525 Lake Rd","38024",36.0632465,-89.3969047
"38024","Dyersburg","TN","Save-A-Lot","1480 Hwy 51 Bypass","38024",36.05281921378323,-89.36606554350142
"38024","Dyersburg","TN","West Tennessee Vapors","865 Hwy 51 Bypass N","38024",36.0578183,-89.3971573
"38039","Grand Junction","TN","Highway 57 Grocery","not_available","38039",35.050876,-89.185436
"38040","Halls","TN","Walmart Supercenter","628 Highway 51 N","38063",35.76101929013843,-89.54315891582301
"38040","Halls","TN","Country Mart","436 S Church St","38040",35.870391845703125,-89.39555358886719
"38040","Halls","TN","Town & Country","not_available","38049",35.870375641965204,-89.39598296094428
"38052","Middleton","TN","Food Giant","not_available","38052",35.042724609375,-88.89476013183594
"38053","Millington","TN","Walmart Supercenter","8445 Us Highway 51 N","38053",35.35754063800925,-89.89690536359262
"38053","Millington","TN","Walmart Supercenter","3950 Austin Peay Hwy","38128",35.23240712239132,-89.89435644548989
"38053","Millington","TN","ALDI","3176 Austin Peay Hwy","38128",35.21147262768526,-89.91756901144987
"38053","Millington","TN","St.Elmo Market","2860 Saint Elmo Ave","38127",35.23383,-89.96839399999999
"38053","Millington","TN","Kroger","8039 US Highway 51 N","38053",35.346513727402595,-89.90694203097257
"38053","Millington","TN","The Butcher's Shop","not_available","38127",35.212736,-90.030471
"38053","Millington","TN","Kroger","2632 Frayser Blvd","38127",35.2218588,-89.9759973
"38053","Millington","TN","Save-A-Lot","3465 Austin Peay Hwy","38128",35.22027587890625,-89.91130065917969
"38053","Millington","TN","Save-A-Lot","1776 Frayser Blvd","38127",35.21832,-90.004561
"38053","Millington","TN","Save A Lot","7775 US Highway 51 N","38053",35.3388362,-89.9136784
"38053","Millington","TN","SuperLo Foods","3327-3357 N Watkins St","38127",35.216493,-90.004713
"38053","Millington","TN","Supalo Foods","n. watkins","38127",35.2201891,-90.00342015
"38053","Millington","TN","Save-A-Lot","7775 HWY 51 N","38053",35.338635752284,-89.91345799502074
"38053","Millington","TN","Kroger Grocery Pickup and Delivery","3860 Austin Peay Hwy","38128",35.23137283325195,-89.89570617675781
"38060","Oakland","TN","Walmart Supercenter","105 Chickasaw Ridge Dr","38060",35.22639626432496,-89.52227335571736
"38060","Oakland","TN","Kroger","7265 Highway 64","38060",35.2310172,-89.5142433
"38063","Ripley","TN","E.W James & Sons","286 S Washington St","38063",35.74079132080078,-89.53831481933594
"38063","Ripley","TN","Save-A-Lot","435 S Washington","38063",35.73117448924267,-89.5436659770737
"38068","Somerville","TN","Food Rite","not_available","38068",35.242227822546,-89.35876675968528
"38068","Somerville","TN","Save-A-Lot","Highway 64 East","38068",35.24176658678469,-89.33745522728978
"38103","Memphis","TN","Cordelia's Market","737 Harbor Bend Rd","38103",35.16110818483465,-90.0537212011652
"38103","Memphis","TN","Superlo On The Go","552 S Main St","38103",35.132320404052734,-90.05862426757812
"38103","Memphis","TN","Jack's Food","84 N Main St","38103",35.147421369623835,-90.05196965053214
"38103","Memphis","TN","Sunshine Food & Drink","not_available","38126",35.12761306762695,-90.03689575195312
"38103","Memphis","TN","Kroger","Shelby","not_available",35.1494,-90.046826
"38103","Memphis","TN","Gribble's Sundry","1375 Nicholas St","38107",35.179092,-90.03759699999999
"38103","Memphis","TN","Lit Equipment and Supplies","309 Union","38103",35.14120588862206,-90.04686815635817
"38103","Memphis","TN","City Market Groceries & Deli","66 S Main St","38103",35.14321782715771,-90.05332443491724
"38104","Memphis","TN","Kroger","1759 Union Ave","38104",35.135069092525896,-90.00367011068425
"38104","Memphis","TN","Kroger","1366 Poplar Ave","38104",35.1451187,-90.0149543
"38104","Memphis","TN","The Fresh Market","2145 Union Ave, Ste 110","38104",35.13382686428367,-89.98983658978469
"38104","Memphis","TN","Cash Saver","1620 Madison Ave","38104",35.13826223975181,-90.00727630664007
"38104","Memphis","TN","Viet Hoa Food Market","40 N Cleveland St","38104",35.13997402685635,-90.01607072212371
"38104","Memphis","TN","Kwik Shop","6 S Cooper St","38104",35.136199951171875,-89.98978424072266
"38104","Memphis","TN","Mid-Town Mini Mart","643 N McLean Blvd","38107",35.155154332197874,-89.99736487355914
"38104","Memphis","TN","Foodtown Grocery","458 Buntyn St","38111",35.11968391743718,-89.97126370224576
"38104","Memphis","TN","Glenview Ice","1362 E McLemore Ave","38106",35.115997314453125,-90.01654052734375
"38104","Memphis","TN","Fresh Market Parking Lot","not_available","38104",35.133736,-89.990022
"38106","Memphis","TN","Kroger","1977 S 3rd St","38109",35.093408381126245,-90.05695939064026
"38106","Memphis","TN","Mr. JJ Supermart","Fields Ave.","38109",35.1048069,-90.06750939999999
"38106","Memphis","TN","Save-A-Lot","1817 S Third St","38109",35.09805241083271,-90.05665281674045
"38106","Memphis","TN","Save A Lot","1817 S 3rd St","38109",35.097667,-90.057847
"38106","Memphis","TN","C & s grocery & market","3189 Brooks Rd","38116",35.065793,-90.029047
"38106","Memphis","TN","Jackson's Grocery & Market","1940 Warren St","38106",35.102198123931885,-90.01362025737762
"38107","Memphis","TN","Toarmina Grocery and Market","1486 Chelsea Ave","38108",35.173275,-90.007724
"38107","Memphis","TN","King's Grocery and Deli","1701 Jackson Ave","38107",35.160553,-90.001288
"38108","Memphis","TN","Stephersons","3942 Macon Rd","38122",35.162749,-89.929402
"38108","Memphis","TN","Save-A-Lot","3240 Jackson Ave","38122",35.166195,-89.95314300000001
"38108","Memphis","TN","louie and sue super market","not_available","38108",35.17456468144462,-89.96123268971797
"38109","Memphis","TN","Pop's Grocery & Deli","642 E Shelby Dr","38109",35.021249,-90.042383
"38109","Memphis","TN","Maxi Foods","4082 S 3rd St, Memphis, TN 38109","38109",35.0365104675293,-90.07080841064453
"38109","Memphis","TN","Save-A-Lot","4696 S US Hwy 61","38109",35.01996,-90.087582
"38109","Memphis","TN","Gordin's Butcher Shoppe","4082 S 3rd St","38109",35.03635,-90.07066999999999
"38111","Memphis","TN","Kroger","3444 Plaza Ave","38111",35.130533671557224,-89.94802745338563
"38111","Memphis","TN","ALDI","2877 Lamar Ave","38114",35.09093955162147,-89.96737764046884
"38111","Memphis","TN","Gordin's Foods & Butcher Shoppe","1781 S Prescott St","38111",35.08330728412103,-89.95510792897483
"38111","Memphis","TN","Mediterranean Market","Park","38111",35.10772209148619,-89.94397648618505
"38111","Memphis","TN","Mediterranean Grocery Inc","3561 Park Ave","38111",35.107446,-89.94407700000001
"38111","Memphis","TN","Garys Market","2240 Pendleton St","38114",35.084089131478656,-89.97148254870615
"38111","Memphis","TN","La Isla Tienda Hispana","not_available","38111",35.086962,-89.93098
"38111","Memphis","TN","Sam's Highland Z-Market","628 S Highland St","38111",35.11447970561278,-89.9454767391952
"38111","Memphis","TN","Melrose Market","2636 Park Ave","38114",35.108445,-89.97429
"38111","Memphis","TN","Save-A-Lot","3941 Park Ave","38111",35.106370818939986,-89.93174614959885
"38111","Memphis","TN","La Fiesta SuperMarket #4","1308 Getwell Rd","38111",35.09585189819336,-89.93049621582031
"38112","Memphis","TN","Lit Jr","2965 Summer Ave","38112",35.149249926906265,-89.96266643110543
"38112","Memphis","TN","Save-A-Lot","516 Tillman St","38112",35.146198167649,-89.9603381156921
"38114","Memphis","TN","Superlo Foods","2269 Lamar Ave","38114",35.10567092895508,-89.98779296875
"38114","Memphis","TN","Save-A-Lot","2258 Lamar Ave","38114",35.10704949920748,-89.98669019691478
"38114","Memphis","TN","Piggly Wiggly","not_available","38118",35.07798566666666,-89.96154355
"38114","Memphis","TN","Piggly Wiggly","not_available","38114",35.07688859233582,-89.9835698633862
"38115","Memphis","TN","Kroger","2835 Kirby Rd","38119",35.071561299774785,-89.84370819273927
"38115","Memphis","TN","Walmart Neighborhood Market","2856 Hickory Hill Rd","38115",35.070123930786195,-89.86302325725912
"38115","Memphis","TN","Farmer's Market","6616 Winchester Rd","38115",35.050745011085844,-89.84285563448918
"38115","Memphis","TN","Superlo Foods","6532 Winchester Rd","38115",35.05087039016431,-89.84519230683073
"38115","Memphis","TN","Kroger","3830 Hickory Hill Rd","38115",35.04417313625602,-89.86534415841828
"38115","Memphis","TN","ALDI","2765 S Perkins Rd","38118",35.0730528,-89.9062593
"38115","Memphis","TN","Piggly Wiggly","Perkins","not_available",35.07411759289931,-89.90609962129344
"38115","Memphis","TN","Old Piggly Wiggly","American way","not_available",35.077189207077026,-89.89244341850281
"38115","Memphis","TN","Piggly Wiggly","Perkins Rd.","not_available",35.06423568725586,-89.90669250488281
"38115","Memphis","TN","Mega Foods","3151 S Mendenhall Rd","38115",35.063229,-89.887039
"38115","Memphis","TN","VH Foods","3565 Riverdale Rd","38115",35.052331,-89.83153
"38116","Memphis","TN","Walmart Supercenter","5255 Elvis Presley Blvd","38116",35.00510214,-90.02716876
"38116","Memphis","TN","Kroger","1212 E Shelby Dr","38116",35.02266248995697,-90.02337813377386
"38116","Memphis","TN","ALDI","4013 Elvis Presley Blvd.","38116",35.03843210172671,-90.02473632353984
"38116","Memphis","TN","CashSaver Cost Plus Food Outlet","4049 Elvis Presley Blvd","38116",35.038149,-90.026163
"38116","Memphis","TN","Monte's Market","4514 Millbranch Rd","38116",35.025715999999996,-90.007836
"38116","Memphis","TN","ALDI","4056 Elvis Presley Blvd","38116",35.03815314,-90.02424181
"38117","Memphis","TN","Sprouts Farmers Market","576 S Perkins Rd","38117",35.1155724,-89.9064348
"38117","Memphis","TN","Kroger","799 Truse Pkwy","38117",35.1098768,-89.8942134
"38117","Memphis","TN","Whole Foods Market","5014 Poplar Avenue","38117",35.11333311198683,-89.89418350692789
"38117","Memphis","TN","Superlo Foods","4744 Spottswood Ave","38117",35.11353642133664,-89.90456035837222
"38117","Memphis","TN","Kroger","540 S Mendenhall Rd","38117",35.11638742733848,-89.89420429633361
"38117","Memphis","TN","The Fresh Market","835 S White Station Rd,","38117",35.108506130419485,-89.8896570972894
"38117","Memphis","TN","ALDI - Summer Ave","4720 Summer Ave.","38122",35.1487693,-89.9041213
"38117","Memphis","TN","Cooper's Neighborhood Supermarket","4571 Quince Rd","38117",35.09158041474023,-89.90943192546474
"38117","Memphis","TN","Super Suppers","4730 Poplar Ave","38117",35.11564636230469,-89.90396118164062
"38118","Memphis","TN","Easy-Way Distribution Center","4545 S Mendenhall Rd","38141",35.023669,-89.88216899999999
"38118","Memphis","TN","Kroger","4075 American Way","38118",35.07531293888246,-89.92794921578958
"38118","Memphis","TN","Marvin’s Hot Kitchen Deli & Grocery","3700 Lamar Ave","38118",35.064269,-89.940356
"38118","Memphis","TN","Omega Express","3454 Winchester Rd","38118",35.052714,-89.948392
"38118","Memphis","TN","Destiny Organics Group Memphis","4280 Concorde Rd","38118",35.031025,-89.911774
"38118","Memphis","TN","Save-A-Lot","4679 Knight Arnold Rd","38118",35.06124496459961,-89.90782165527344
"38118","Memphis","TN","Piggly Wiggly","not_available","38115",35.077191,-89.907296
"38119","Memphis","TN","Kroger","7735 Farmington Blvd","38138",35.0937795,-89.8056281
"38119","Memphis","TN","Trader Joe's","2130 Exeter Rd.","38138",35.09096818072632,-89.80139167023941
"38119","Memphis","TN","Kroger","7942 Winchester Rd","38125",35.050058,-89.7979799
"38119","Memphis","TN","Kroger","6660 Poplar Ave","38138",35.1003842,-89.8410984
"38119","Memphis","TN","Whole Foods Market","7825 U.S. Highway 72","38138",35.08897409796357,-89.80223987602251
"38119","Memphis","TN","ALDI - Winchester","7520 Winchester Rd","38125",35.0511779,-89.8123509
"38119","Memphis","TN","Walmart Grocery Pickup and Delivery","7525 Winchester Rd","38125",35.05036,-89.81247
"38119","Memphis","TN","Christopher Trading Co Llc","2198 Judicial Dr","38138",35.0890998840332,-89.81282043457031
"38119","Memphis","TN","PVM Foods, Inc","1661 International Place Dr Ste 400","38120",35.1032407,-89.8488647
"38119","Memphis","TN","G. W. Palmer & Co., Inc.","1080 W Rex Rd","38119",35.102124,-89.87201100000001
"38122","Memphis","TN","Kroger","4264 Summer Ave","38122",35.1502644,-89.9181698
"38122","Memphis","TN","Great China Food Market","5131 Summer Ave","38122",35.1518793735274,-89.88937821726641
"38122","Memphis","TN","Memphis Cash & Carry","5246 Summer Ave","38122",35.156946999999995,-89.888471
"38122","Memphis","TN","High Point Grocery","469 High Point Ter","38122",35.14458331530501,-89.93743718424258
"38122","Memphis","TN","Casa Perez","not_available","38122",35.148939,-89.89830500000001
"38122","Memphis","TN","Cash Saver Cost Plus Food Outlet","729 N White Station Rd","38122",35.15067912618293,-89.88912189548645
"38122","Memphis","TN","Save-A-Lot","5110 Summer Ave","38122",35.151920717228315,-89.89091924200183
"38122","Memphis","TN","Amco Mini Mart","872 Isabelle St","38122",35.155604,-89.93488
"38122","Memphis","TN","Montesi's Supermarket","3362 Summer Ave","38122",35.14988506144437,-89.94920432567596
"38125","Memphis","TN","Kroger","4770 Riverdale Rd","38141",35.0183815,-89.829046
"38125","Memphis","TN","Walmart Neighborhood Market","6990 E Shelby Dr","38125",35.0219248907447,-89.83047040278095
"38125","Memphis","TN","Balaji Super Market","3810 Hacks Cross Rd Ste 104","38125",35.0446122203085,-89.79478899245146
"38125","Memphis","TN","super Z market","4215 Hacks Cross Rd, Memphis, TN 38125","38125",35.032531,-89.796442
"38125","Memphis","TN","ALPHA BALDE","4915 Old Stone Cove","38125",35.0141439,-89.8029576
"38133","Memphis","TN","Walmart Supercenter","6727 Raleigh Lagrange Road","38133",35.17630736528129,-89.83912427668817
"38134","Memphis","TN","Click List For Kroger","stage rd","38134",35.185986,-89.8679
"38134","Memphis","TN","Barakat's","5782 Raleigh Lagrange Rd","38134",35.18314,-89.870553
"38134","Memphis","TN","Teyeb Internation Food Mart","not_available","38134",35.180931,-89.871183
"38141","Memphis","TN","Dollar General","6636 E Shelby Dr","38141",35.020915,-89.841943
"38201","Mc Kenzie","TN","Save-A-Lot","15730 N Highland","38201",36.12760054142333,-88.51104200901264
"38201","Mc Kenzie","TN","E.W James & Sons","160 Main St S","38201",36.12589221881553,-88.51636298155469
"38201","Mc Kenzie","TN","Save A Lot","15730 Highland Dr","38201",36.1275815,-88.51052
"38221","Big Sandy","TN","Big Sandy Supermarket","13870 Highway 69A","38221",36.23438,-88.089911
"38222","Buchanan","TN","Lakeview Grocery","Highway 79","38222",36.438224,-88.09189599999999
"38230","Greenfield","TN","Piggly Wiggly","124 W Main St","38316",36.067294,-88.81209
"38233","Kenton","TN","Food Rite","425 S Poplar St","38233",36.19827064443221,-89.01029612522369
"38237","Martin","TN","Walmart Supercenter","134 Courtright Rd","38237",36.35481051412122,-88.88371202333482
"38237","Martin","TN","Save-A-Lot","4200 Skyhawk Pkwy","38237",36.32716369628906,-88.86749267578125
"38237","Martin","TN","E.W. James Grocery","933 University St","38237",36.351898999999996,-88.881916
"38237","Martin","TN","Ruler Foods","144 University Plz","38237",36.34792600057242,-88.87830018997192
"38242","Paris","TN","Walmart Supercenter","1210 Mineral Wells Ave","38242",36.28160117160798,-88.30857557537122
"38242","Paris","TN","Kroger","1059 Mineral Wells Ave","38242",36.2876271,-88.308478
"38242","Paris","TN","Lakeway IGA","2601 E Wood St","38242",36.320526555853576,-88.27584587126226
"38242","Paris","TN","Save-A-Lot","1031-B Mineral Wells","38242",36.28876823533512,-88.31080935912877
"38242","Paris","TN","Abarotes Lucero","106-144 Tyson Ave","38242",36.30101225,-88.30960331666667
"38242","Paris","TN","Yoder's Country Store","75 Anderson Rd","38242",36.293670654296875,-88.42395782470703
"38242","Paris","TN","E.W James & Sons","1301 W Wood St","38242",36.3026008605957,-88.34349822998047
"38242","Paris","TN","Save A Lot","1031B Mineral Wells Ave","38242",36.2887582,-88.3105219
"38253","Rives","TN","E.W James & Sons","510 E Harper St","38260",36.33888470187305,-89.15984899076892
"38261","Union City","TN","Walmart Grocery Pickup","1601 W Reelfoot Ave","38261",36.4127547048287,-89.0776152295777
"38261","Union City","TN","Save-A-Lot","1314 Nailling Dr","38261",36.42568142999483,-89.04060697836803
"38301","Jackson","TN","Walmart Supercenter","2196 Emporium Dr","38305",35.668486331793474,-88.85204970190343
"38301","Jackson","TN","Walmart Supercenter","2171 S Highland Ave","38301",35.55104979020381,-88.81060398440005
"38301","Jackson","TN","Kroger","41 Stonebrook Pl","38305",35.68840236166829,-88.85823186021298
"38301","Jackson","TN","Kroger","941 N Parkway","38305",35.65191874880429,-88.82734724492377
"38301","Jackson","TN","Save-A-Lot","1654 Highland","38301",35.643325,-88.82853
"38301","Jackson","TN","Community Grocery And Bbq","not_available","38305",35.67925994121929,-88.74446895843796
"38301","Jackson","TN","Riverside grocery","not_available","38301",35.580179,-88.83842
"38301","Jackson","TN","Al Huda International market","903 Hollywood Dr","38301",35.62490463256836,-88.83602142333984
"38301","Jackson","TN","Food Giant","2596 Christmasville Rd","38305",35.67467221964833,-88.78369878784092
"38301","Jackson","TN","Save-A-Lot","903-4 Hollywood","38301",35.62482966906748,-88.83670257402576
"38301","Jackson","TN","Save A Lot","903-4 Hollywood Dr","38301",35.6247378,-88.8361252
"38301","Jackson","TN","ALDI","6 Stonebridge Blvd","38305",35.67148026049282,-88.85226963558205
"38305","Jackson","TN","Kroger","35 W University Pkwy","38305",35.696925,-88.8313022
"38305","Jackson","TN","Save-A-Lot","235 US Highway 45 W","38343",35.768943786621094,-88.85035705566406
"38310","Adamsville","TN","Piggly wiggly","not_available","38327",35.22607614821875,-88.31783546352237
"38310","Adamsville","TN","Piggly Wiggly","not_available","38310",35.23538120790061,-88.38764970645302
"38311","Bath Springs","TN","C&C Supermarket","not_available","38311",35.44346,-88.125581
"38320","Camden","TN","Walmart Supercenter","2200 Highway 641 N","38320",36.08834105233218,-88.10824959746243
"38320","Camden","TN","Cash Saver","204 W Main St","38320",36.059383392333984,-88.10797119140625
"38320","Camden","TN","Brewer's Grocery","754 Highway 641 S","38320",36.045310974121094,-88.11585998535156
"38320","Camden","TN","Save-A-Lot","147 Hwy 641 N","38320",36.061059107048905,-88.11622739227822
"38320","Camden","TN","Save A Lot","147 Highway 641 N","38320",36.0611472,-88.116821
"38329","Decaturville","TN","Johnson's","not_available","38329",35.59516119525826,-88.11586981614539
"38330","Dyer","TN","Food Rite","705 S Main St","38330",36.060225695979504,-88.98738891157709
"38334","Finger","TN","Sweet Lips Grocery","Sweet Lips Rd","not_available",35.408837,-88.522706
"38340","Henderson","TN","Piggly Wiggly","539 W Main St","38340",35.43355923072597,-88.64881136748939
"38340","Henderson","TN","Save-A-Lot","129 Whitley","38340",35.43543243,-88.64673615
"38340","Henderson","TN","Big Star","410 E Main St","38340",35.440994278752996,-88.63270797498745
"38340","Henderson","TN","Save A Lot","129 Whitley Ave","38340",35.4359775,-88.6478289
"38340","Henderson","TN","Save-A-Lot","402 W Main St","38340",35.439056223407306,-88.65052076899096
"38340","Henderson","TN","Save A Lot","129 Whitley Ave, Henderson, TN 38340","38340",35.43600082397461,-88.64790344238281
"38343","Humboldt","TN","Walmart Supercenter","2716 N Central Ave","38343",35.84105567,-88.91278267
"38343","Humboldt","TN","Cash Saver","2160 N Central Ave","38343",35.83541488647461,-88.91365814208984
"38343","Humboldt","TN","Save-A-Lot","2419 N Central Ave","38343",35.831886291503906,-88.91624450683594
"38344","Huntingdon","TN","Walmart Supercenter","180 Veterans Dr N","38344",35.99770756641721,-88.43764682060404
"38344","Huntingdon","TN","Save A Lot","20522 Main St E","38344",36.0038609,-88.4133491
"38344","Huntingdon","TN","Save-A-Lot","20522 E Main St","38344",36.004062259898745,-88.41427957213688
"38344","Huntingdon","TN","Cash Saver","20150 Main St E","38344",36.0025634765625,-88.4192886352539
"38351","Lexington","TN","Walmart Supercenter","547 W Church St","38351",35.65466610193432,-88.4114082153495
"38351","Lexington","TN","Food Giant","128 W Church St","38351",35.65368058615397,-88.39641265624711
"38351","Lexington","TN","Foodland","Highway 114","38374",35.522640228271484,-88.24968719482422
"38351","Lexington","TN","Piggly Wiggly","not_available","38374",35.52267,-88.249167
"38351","Lexington","TN","Save-A-Lot","421 S Broad St","38351",35.641337595793736,-88.40173435736148
"38356","Medon","TN","Grantham's 100 Grocery","12095 TN-100","38381",35.365628,-88.965792
"38358","Milan","TN","Walmart Supercenter","15427 S First St","38358",35.876081837719525,-88.74783475389954
"38358","Milan","TN","Save-A-Lot","6042 S First","38358",35.90665338755981,-88.75176041995593
"38358","Milan","TN","Ruler Foods","5024 S 1st St","38358",35.91066944683155,-88.75137923180148
"38358","Milan","TN","Save A Lot","6042 S 1st St","38358",35.9068035,-88.7514912
"38363","Parsons","TN","Food Giant","411 Tennessee Ave","38363",35.657440780200574,-88.12787086786138
"38363","Parsons","TN","Save-A-Lot","1182 E Main St","38363",35.646359000000004,-88.106737
"38372","Savannah","TN","Kroger","775 Pickwick St","38372",35.2163852,-88.2446266
"38372","Savannah","TN","Walmart Supercenter","175 Ji Bell Ln","38372",35.22475494,-88.21502138
"38372","Savannah","TN","Pen-E-Pinchers","70 Harbert Dr","38372",35.225868225097656,-88.22569274902344
"38372","Savannah","TN","Save-A-Lot","225 Water St","38372",35.2222838862918,-88.24536191688766
"38375","Selmer","TN","Walmart Supercenter","1017 Mulberry Ave","38375",35.13970120379272,-88.57360043403524
"38375","Selmer","TN","Food Giant","407 Mulberry Ave","38375",35.163902282714844,-88.58659362792969
"38382","Trenton","TN","Food Rite","not_available","38382",35.96589207208701,-88.94270522992842
"38401","Columbia","TN","Walmart Supercenter","2200 Brookmeade Dr","38401",35.59850605,-87.05215318
"38401","Columbia","TN","Kroger","1202 S James Campbell Blvd","38401",35.6015745,-87.0621127
"38401","Columbia","TN","Kroger","845 Nashville Hwy","38401",35.630538,-87.0274602
"38401","Columbia","TN","Piggly Wiggly","Trotwood Ave","38401",35.59980593331432,-87.07741265556886
"38401","Columbia","TN","Harris Foodland","not_available","38401",35.61470853119606,-87.04298838714534
"38401","Columbia","TN","Columbia Health Foods","106 W 7th St","38401",35.6150994,-87.0347197
"38401","Columbia","TN","Means Cash Saver","1005 Carmack Blvd","38401",35.611358642578125,-87.0347671508789
"38401","Columbia","TN","Save-A-Lot","112 E James Campbell Blvd","38401",35.5880241394043,-87.0385971069336
"38401","Columbia","TN","1824 General Store","106 N Main St","38474",35.53449630737305,-87.20661926269531
"38401","Columbia","TN","Tietgen's Cee Bee Foods","807 N Main St","38474",35.54694366455078,-87.1994857788086
"38401","Columbia","TN","ALDI","311 S James Campbell Blvd","38401",35.59005717424317,-87.04816034654868
"38401","Columbia","TN","Piggly Wiggly","179 River Rd","38401",35.626836864049054,-87.03243964241223
"38450","Collinwood","TN","Piggly Wiggly","not_available","38450",35.17127990722656,-87.74112701416016
"38456","Ethridge","TN","Walmart Supercenter","2130 N Locust Ave","38464",35.2734884011124,-87.31598596062541
"38456","Ethridge","TN","Marshalls Gtocery","not_available","38456",35.31928503299675,-87.29591188602187
"38462","Hohenwald","TN","Walmart Supercenter","612 E Main St","38462",35.557437760009726,-87.5288227487038
"38462","Hohenwald","TN","Save-A-Lot","539 E Main St","38462",35.55737154089934,-87.53374425245177
"38462","Hohenwald","TN","Power's Food Town","W Linden","38462",35.54949,-87.55378
"38464","Lawrenceburg","TN","Kroger","1700 N Locust Ave","38464",35.26206386309098,-87.32227832078934
"38464","Lawrenceburg","TN","Superama","not_available","38464",35.24826,-87.326846
"38464","Lawrenceburg","TN","Save-A-Lot","1608 N Locust St Ste A","38464",35.25984764099121,-87.32334852218628
"38464","Lawrenceburg","TN","Save A Lot","1608 N Locust Ave Ste A","38464",35.259984,-87.3227866
"38464","Lawrenceburg","TN","Save-A-Lot","1608 N Locust Ave","38464",35.25979232788086,-87.32283020019531
"38469","Loretto","TN","Tiegen's Super Rama","HWY 43","not_available",35.08527803978381,-87.43065536719558
"38478","Pulaski","TN","Sav-A-Lot","223 Village Sq","38478",35.20022964477539,-87.02816009521484
"38478","Pulaski","TN","Walmart Supercenter","1655 W College St","38478",35.20203701267568,-87.06012580823526
"38478","Pulaski","TN","Johnson's Foodtown","414 Mill St","38478",35.19774645520853,-87.03981757164001
"38478","Pulaski","TN","Davis & Eslick","115 E Washington St","38478",35.20080400406653,-87.02926775232633
"38478","Pulaski","TN","Cee Bee Store","511 S 1st St","38478",35.1941718946386,-87.03285528907575
"38485","Waynesboro","TN","Save-A-Lot","527 Highway 64 W","38485",35.311398,-87.776323
"38485","Waynesboro","TN","EW James & Son","not_available","38485",35.32337188720703,-87.76060485839844
"38485","Waynesboro","TN","Cash Saver","213 Woods Memorial BLVD.","38485",35.323634076004495,-87.76021976311175
"38501","Cookeville","TN","Walmart Supercenter","768 S Jefferson Ave","38501",36.14501722934029,-85.49784681975503
"38501","Cookeville","TN","Publix","not_available","38501",36.14118980451995,-85.5106899891924
"38501","Cookeville","TN","Kroger","445 S Jefferson Ave","38501",36.154199,-85.5017678
"38501","Cookeville","TN","Aldi","442 S Jefferson Ave","38501",36.1536774,-85.4998586
"38501","Cookeville","TN","IGA","1010 N Washington Ave","38501",36.17595066888082,-85.49720780459066
"38501","Cookeville","TN","Saffire Vapor Retail Store","512 S Willow Ave","38501",36.15378924,-85.51312219
"38501","Cookeville","TN","Save-A-Lot","116 S Willow Ave","38501",36.16067248703606,-85.51169196243845
"38506","Cookeville","TN","Walmart Supercenter","589 W Main St","38506",36.18562142145023,-85.4595469056443
"38506","Cookeville","TN","Algood Main Street Market","Main Street","38506",36.188388274925174,-85.45326904629914
"38541","Allons","TN","Brown's Shop Rite","Celina Hwy, Allons, TN 38541","38541",36.45905250079908,-85.3578632020002
"38549","Byrdstown","TN","B & K Bi-Rite","Highway 111","38549",36.556666666666665,-85.14709453333333
"38551","Celina","TN","Save-A-Lot","5290 Burkesville Hwy","38551",36.54146576,-85.49172211
"38551","Celina","TN","Save-A-Lot","5920 Burkesville Highway","38551",36.545709,-85.4626
"38551","Celina","TN","Scott's Bestway","804 E Lake Ave","38551",36.546926,-85.493588
"38553","Clarkrange","TN","Swafford & Sons IGA","6870 S York Hwy","38553",36.186849,-85.02168
"38555","Crossville","TN","Walmart Supercenter","168 Obed Plz Ste 108","38555",35.983338448693495,-85.03604661869049
"38555","Crossville","TN","Kroger","265 Highland Sq","38555",35.9584732,-85.0456466
"38555","Crossville","TN","Food City","1114 West Ave","38555",35.957089376441864,-85.03830417053443
"38555","Crossville","TN","Food City","141 Town Centre Dr","38571",36.000699313618775,-84.92132898561283
"38555","Crossville","TN","Under The Sun Natural Foods","not_available","38555",35.954059884925414,-85.04945469112242
"38555","Crossville","TN","Save-A-Lot","229 Interstate Dr","38555",35.97949883688361,-85.01826570584711
"38555","Crossville","TN","Food Lion","Genesis Square","38555",35.954669610774225,-85.03143793830088
"38555","Crossville","TN","UGO","23-101 Woodmere Mall","38555",35.95697203333334,-85.03048172
"38555","Crossville","TN","Dollar General Market","1259 Miller Ave Apt 104","38555",35.94364988235921,-85.03416458606095
"38555","Crossville","TN","Caruther's Grocery","not_available","38572",35.90623092651367,-85.07186889648438
"38555","Crossville","TN","Under The Sun Natural Foods","1398 West Ave","38555",35.95985794067383,-85.04063415527344
"38556","Jamestown","TN","Walmart Supercenter","539 E Central Ave","38556",36.4258811556411,-84.92245380957468
"38556","Jamestown","TN","Save-A-Lot","406 North Main Street","38556",36.409385,-84.93393
"38556","Jamestown","TN","Save-A-Lot","407 N Main St","38556",36.43216485763622,-84.93466942606814
"38562","Gainesboro","TN","Save-A-Lot","705 S Grundy-Quarles Hwy","38562",36.338281,-85.655876
"38570","Livingston","TN","Brown's Shop Rite","2109 Celina Hwy, Livingston, TN 38570","38570",36.42591857910156,-85.3321304321289
"38570","Livingston","TN","Jerry's IGA","800 Overton Plz","38570",36.38062286376953,-85.33235168457031
"38570","Livingston","TN","Save-A-Lot","1032 E Main St","38570",36.388868684662455,-85.30575784705098
"38571","Crossville","TN","Save A Bunch Grocery","Sparta Hwy","38571",35.972946925169005,-85.16110863605043
"38574","Monterey","TN","Monterey Foods","not_available","38574",36.144971000000005,-85.271316
"38574","Monterey","TN","Save-A-Lot","201 Elmore","38574",36.145129,-85.262458
"38583","Sparta","TN","Walmart Supercenter","202 Sam Walton Dr","38583",35.92910954493062,-85.48958500088612
"38583","Sparta","TN","Save-A-Lot","179 Mose Dr","38583",35.94242477416992,-85.48593139648438
"38583","Sparta","TN","Floyds Hometown Foods","bockman way","38583",35.9336070595261,-85.47815463065325
"38583","Sparta","TN","Food Lion","281 N Spring St","38583",35.941038,-85.47456899999999
"38583","Sparta","TN","KROGER","207 West Towne Plaza","not_available",35.95176720221516,-85.4452511901919
"38585","Spencer","TN","Save-A-Lot","15391 State Route 111","38585",35.748435974121094,-85.4579849243164
