"zip","city","state","name","address","postalCode","lat","lon"
"30002","Avondale Estates","GA","Your Dekalb Farmers Market","3000 E Ponce de Leon Ave","30030",33.786804303442594,-84.27000271834832
"30002","Avondale Estates","GA","Walmart Supercenter","3580 Memorial Dr","30032",33.75699358624673,-84.26831469225732
"30004","Alpharetta","GA","Kroger","12870 State Highway 9","30004",34.09620065882692,-84.27775652722624
"30004","Alpharetta","GA","Walmart Supercenter","5200 Windward Pkwy","30004",34.093924330041155,-84.27470286415236
"30004","Alpharetta","GA","Publix","13800 Highway 9 N Ste E","30004",34.117095117957845,-84.27103468347627
"30004","Alpharetta","GA","Kroger","5665 Atlanta Hwy","30004",34.1453482,-84.2503155
"30004","Alpharetta","GA","Kroger","12460 Crabapple Rd","30004",34.0852648,-84.3572185
"30004","Alpharetta","GA","Walmart Supercenter","5455 Atlanta Hwy","30004",34.150456955819614,-84.2498140506857
"30004","Alpharetta","GA","Publix","11800 Haynes Bridge Rd Ste B","30009",34.0729977679204,-84.2940529940199
"30004","Alpharetta","GA","Publix","270 Rucker Rd","30004",34.07899772352195,-84.35736122025847
"30004","Alpharetta","GA","Publix","4900 Atlanta Hwy","30004",34.15922887377643,-84.2393512743233
"30004","Alpharetta","GA","Publix","980 Birmingham Rd Ste 100","30004",34.167364552770934,-84.33116245424077
"30004","Alpharetta","GA","Suvidha International Market","670 N Main St","30009",34.093082427978516,-84.28762817382812
"30004","Alpharetta","GA","Aldi","12990 Highway 9 N Ste 107","30004",34.099809,-84.2721745
"30004","Alpharetta","GA","International Gourmet Food","5925 Atlanta Hwy Ste 600","30004",34.138853,-84.247462
"30004","Alpharetta","GA","Natural Food Warehouse","113 Main St","30004",34.093305,-84.287143
"30004","Alpharetta","GA","Parking Lot: Publix","not_available","30004",34.07867585361907,-84.357371
"30004","Alpharetta","GA","Madurai Foods","12872 Highway 9 N Ste 250","30004",34.09591503052553,-84.2763345299208
"30004","Alpharetta","GA","Kroger","12101-12197 Alpharetta Hwy","30004",34.08164216081146,-84.29464562581418
"30005","Alpharetta","GA","Publix","4305 State Bridge Rd","30022",34.05753288247838,-84.23476408453686
"30005","Alpharetta","GA","Walmart Supercenter","2395 Peachtree Pkwy","30041",34.10007570471937,-84.17426607379637
"30005","Alpharetta","GA","Kroger","3651 Peachtree Pkwy","30024",34.0693927,-84.1660736
"30005","Alpharetta","GA","Publix","5180 McGinnis Ferry Rd","30005",34.09310212171426,-84.2067586844628
"30005","Alpharetta","GA","Kroger","1595 Peachtree Pkwy","30041",34.122357,-84.1692291
"30005","Alpharetta","GA","Kroger","11877 Douglas Rd","30005",34.0703986,-84.2074502
"30005","Alpharetta","GA","Sprouts Farmers Market","3630 Peachtree Pkwy, #99","30024",34.07018945099973,-84.1707241018525
"30005","Alpharetta","GA","Lidl","2985 Peachtree Parkway","30024",34.0914472,-84.16817811
"30005","Alpharetta","GA","Publix","11585 Jones Bridge Rd Ste 500","30022",34.06256110223599,-84.21337261201256
"30005","Alpharetta","GA","Golden Key European Food & Deli","2569 Peachtree Pkwy","30041",34.097721099853516,-84.17570495605469
"30005","Alpharetta","GA","Cherians","2255 Peachtree Pkwy","30041",34.1054634566314,-84.1761280671297
"30005","Alpharetta","GA","Spices Hut","4150 Old Milton Pkwy","30005",34.06056385678873,-84.23775268141247
"30005","Alpharetta","GA","Sprout's","not_available","not_available",34.069974735500146,-84.1702796287324
"30005","Alpharetta","GA","Coisas Do Brasil","4055 Old Milton Pkwy","30005",34.06043223826649,-84.24278634671369
"30008","Marietta","GA","Walmart Supercenter","1133 Ew Connector Sw","30106",33.85580925564409,-84.58687398568281
"30008","Marietta","GA","Walmart Supercenter","6520 Earnest Barrett Parkway","30064",33.86752152481128,-84.6359732755131
"30008","Marietta","GA","Kroger","1690 Powder Springs Rd SW","30064",33.9084636,-84.6028119
"30008","Marietta","GA","Publix","1750 Powder Springs Rd SW","30064",33.90351089137633,-84.60651910022871
"30008","Marietta","GA","Aldi","1260 Powder Springs St","30064",33.922484447589746,-84.57876473665243
"30008","Marietta","GA","Lidl","2641 Powder Springs Road Southwest","30064",33.86799747,-84.62875726
"30008","Marietta","GA","Walmart Neighborhood Market","2909 Austell Rd Sw Suite 100","30008",33.88252816978352,-84.58708234015234
"30008","Marietta","GA","Austell International Farmers Market","3565 Austell Rd SW Ste 1033","30008",33.86565066770503,-84.59271026897532
"30008","Marietta","GA","Food Depot","1355 East-West Connector","30008",33.85654050130641,-84.59434333388643
"30008","Marietta","GA","Dollar General","250 Windy Hill Rd SE","30060",33.893623,-84.552418
"30008","Marietta","GA","Food Depot","not_available","30060",33.89410251882598,-84.55231428510336
"30008","Marietta","GA","Faith Tropical Food Mare","2202 Austell Rd SW","30008",33.899959,-84.571568
"30008","Marietta","GA","Foodlion","not_available","30349",33.86354113835704,-84.56356118710684
"30008","Marietta","GA","Le Marche Market","796 Sandtown Rd SW","30008",33.93358767732489,-84.55601110558092
"30008","Marietta","GA","J & E Food Store Caribbean Market and Cuisine","2674 Austell Rd SW Ste F","30008",33.88877487182617,-84.58352661132812
"30008","Marietta","GA","Food Depot","1167 Powder Springs St","not_available",33.923974900240694,-84.57311
"30008","Marietta","GA","Hoang Long Oriental Market","331 Pat Mell Road","30060",33.902613,-84.543402
"30009","Alpharetta","GA","Whole Foods Market","2800 Old Milton Parkway","30009",34.0693701917659,-84.27832073505074
"30009","Alpharetta","GA","Walmart Supercenter","970 Mansell Rd","30076",34.04497519752736,-84.3335910113115
"30009","Alpharetta","GA","Global Food and Nuts","11235 Alpharetta Hwy Ste 111","30076",34.05441867259012,-84.32902662500116
"30009","Alpharetta","GA","İstanbul Bazaar Alpharetta","11760 Haynes Bridge Rd","30009",34.068615,-84.294239
"30009","Alpharetta","GA","Carniceria Y Panaderia Bodega Market","not_available","30076",34.0551888263832,-84.32985879748267
"30009","Alpharetta","GA","Whole Foods Market Regional Office - South","1180 Upper Hembree Rd","30076",34.066666602824974,-84.32526115506124
"30011","Auburn","GA","Kroger","505 Dacula Rd","30019",34.0012254,-83.9057717
"30011","Auburn","GA","Ingles","1211 Auburn Road","30019",34.03266743212852,-83.90923591766239
"30011","Auburn","GA","Publix","831 Auburn Rd","30019",34.03122524301523,-83.8868039461077
"30011","Auburn","GA","ALDI","3565 Braselton Hwy","30019",34.06865621635855,-83.90899167226053
"30011","Auburn","GA","Ingles","1520 Atlanta Hwy","30011",34.010716871466855,-83.83839158550592
"30011","Auburn","GA","UC Produce Stand","not_available","30019",34.050264,-83.908881
"30012","Conyers","GA","Walmart Supercenter","8424 Mall Parkway","30038",33.69481538615694,-84.08473672893254
"30012","Conyers","GA","Publix","1591 Highway 20 NE","30012",33.68430962132382,-83.99841821950919
"30012","Conyers","GA","Pure Gas Station (One Stop)","4034 Highway 20 NE","30012",33.75106430053711,-83.98575592041016
"30012","Conyers","GA","Publix","not_available","30012",33.664814715730195,-84.02939478223027
"30012","Conyers","GA","Publix","Hwy 20","30012",33.772494239097064,-84.0114208653353
"30012","Conyers","GA","Piggly Wiggley","1203 West Ave SW","30012",33.66577911376953,-84.02782440185547
"30012","Conyers","GA","Kroger","1745 Highway 138 SE","30013",33.669769636840726,-83.98662204288117
"30013","Conyers","GA","Walmart Supercenter","1436 Dogwood Dr Se","30013",33.652785568312325,-83.9971530630166
"30013","Conyers","GA","Kroger","3700 Salem Rd","30016",33.59410264175401,-83.96823763847351
"30013","Conyers","GA","Publix","13015 Brown Bridge Rd","30016",33.57691172393352,-83.96484468051779
"30013","Conyers","GA","Walmart Supercenter","4200 Salem Rd","30016",33.57709407960943,-83.95939541699167
"30013","Conyers","GA","Food Depot","2300 Salem Rd SE","30013",33.628431582669855,-83.97673771408888
"30013","Conyers","GA","Ingles Market","2455 Salem Rd SE","30013",33.62292942885867,-83.97736375584606
"30013","Conyers","GA","Publix","2159 Highway 20 SE","30013",33.63440826823497,-84.01657476895954
"30013","Conyers","GA","Kroger","1745 GA-138 SE","30013",33.64376848348877,-84.0169894695282
"30013","Conyers","GA","ALDI","not_available","30094",33.63771516879075,-84.01642228365412
"30013","Conyers","GA","ALDI","1794 GA Hwy 138","30013",33.63747137839153,-84.01656031608582
"30014","Covington","GA","Walmart Supercenter","10300 Industrial Blvd Ne","30014",33.61102149889152,-83.82995959715551
"30014","Covington","GA","Ingles","not_available","30014",33.603352004739776,-83.87820630432289
"30014","Covington","GA","Kroger","3139 Highway 278 NE","30014",33.604447,-83.858579
"30014","Covington","GA","Ingles","9176 U.S. 278 NE","30014",33.59756907349293,-83.83225226503644
"30014","Covington","GA","Food Depot","1094-1096 Access Rd","30014",33.604486580325236,-83.8745998125368
"30014","Covington","GA","Ingles","not_available","31064",33.375911,-83.824397
"30014","Covington","GA","Bells Discount Grocery","not_available","30016",33.583833436954244,-83.91314252819322
"30014","Covington","GA","Ingles","walt stephens rd","30016",33.421520590782166,-83.87422621250153
"30014","Covington","GA","Baileys Food Pride","5890 Salem Rd","30016",33.557292693554096,-83.92250061035156
"30014","Covington","GA","ALDI","11152 Highway 142 N","30014",33.60753597012688,-83.82670685648918
"30016","Covington","GA","Kroger","5341 Highway 20 S","30016",33.549163,-84.0155172
"30016","Covington","GA","Dollar General","HWY 20","30016",33.53117920319954,-84.02637454509313
"30017","Grayson","GA","Kroger","910 Athens Hwy","30052",33.859642,-83.9546585
"30017","Grayson","GA","Publix","2715 Loganville Hwy","30052",33.87953910475497,-83.93831903044854
"30017","Grayson","GA","Kroger","1911 Grayson Hwy","30017",33.8971044,-83.9618618
"30017","Grayson","GA","Sprouts Farmers Market","1250 Scenic Hwy, #1704","30045",33.9003809,-84.0039003
"30017","Grayson","GA","Aldi","1225 Scenic Hwy","30045",33.901281258784,-84.00591249873287
"30017","Grayson","GA","Ingles Market","1050 Grayson Hwy","30045",33.9227158730656,-83.97231646093203
"30019","Dacula","GA","Kroger","2700 Braselton Hwy","30019",34.0514348,-83.9304315
"30019","Dacula","GA","Publix","720 Dacula Rd","30019",34.003134580520936,-83.9123711506848
"30019","Dacula","GA","Publix","2463 Hamilton Mill Pkwy","30019",34.073888580054955,-83.91569357080351
"30019","Dacula","GA","Publix","2380 Old Peachtree Rd","30019",34.0317290307086,-83.9499978528723
"30019","Dacula","GA","Got Milk?","not_available","30519",34.045943,-83.934584
"30021","Clarkston","GA","Super Fresh Foods","not_available","30021",33.81950564320446,-84.22849579500584
"30021","Clarkston","GA","Food mart","4212 E Ponce de Leon Ave","30021",33.810726165771484,-84.23951721191406
"30021","Clarkston","GA","Pac a Sac","not_available","30033",33.82279200113509,-84.25418608948932
"30021","Clarkston","GA","marias african market","4910 Memorial Dr","30083",33.789761999999996,-84.231697
"30021","Clarkston","GA","Yeshi Food Mart","3902 E Ponce de Leon Ave","30021",33.80393,-84.247669
"30021","Clarkston","GA","Thriftown","926 Montreal Rd","30021",33.810190503072945,-84.24219320534533
"30021","Clarkston","GA","Clarkston Food Market","927 N Indian Creek Dr","30021",33.803859,-84.238417
"30021","Clarkston","GA","Al-Salam Grocery & Smoke Shop","3711 N Decatur Rd, Decatur, GA 30032","30032",33.785249,-84.243027
"30021","Clarkston","GA","Publix","not_available","30083",33.7890671090575,-84.21822296820181
"30022","Alpharetta","GA","Kroger","8465 Holcomb Bridge Rd Ste 2000","30022",33.9872377,-84.2692744
"30022","Alpharetta","GA","Kroger","10945 State Bridge Rd","30022",34.0495248,-84.2227592
"30022","Alpharetta","GA","Kroger","2300 Holcomb Bridge Rd","30076",34.0050047,-84.2946901
"30022","Alpharetta","GA","Trader Joe's","5185 Peachtree Pkwy","30092",33.97898292387667,-84.2198354060636
"30022","Alpharetta","GA","Kroger","3000 Old Alabama Rd","30022",34.0230983,-84.2716144
"30022","Alpharetta","GA","Publix","5805 State Bridge Rd","30097",34.017829310145174,-84.18793251871527
"30022","Alpharetta","GA","Publix","9925 Haynes Bridge Rd","30022",34.02305913865862,-84.26800494527109
"30022","Alpharetta","GA","Ingles","5075 Peachtree Pkwy","30092",33.98543516739077,-84.21400050607991
"30022","Alpharetta","GA","The Fresh Market","3005 Old Alabama Rd","30022",34.02086414066384,-84.27251212555824
"30022","Alpharetta","GA","ALDI","10955 Jones Bridge Rd","30022",34.0454959,-84.221639
"30022","Alpharetta","GA","Lidl","5270 Peachtree Pkwy","30092",33.974334716796875,-84.23844146728516
"30022","Alpharetta","GA","Natural Foods Warehouse","6000 Medlock Bridge Pkwy","30022",34.03159109692318,-84.1877757799222
"30022","Alpharetta","GA","Jai Hind","5725 State Bridge Road","30097",34.020843505859375,-84.1927261352539
"30022","Alpharetta","GA","Ingles Grocery Store","not_available","30096",34.017564548681904,-84.19298439558042
"30024","Suwanee","GA","Kroger","3455 Peachtree Industrial Blvd","30096",34.0057774,-84.1726185
"30024","Suwanee","GA","Publix","3245 Peachtree Pkwy Ste A","30024",34.084277257652836,-84.15949536666821
"30024","Suwanee","GA","Publix","2750 Buford Hwy","30096",34.007287477949504,-84.1302087682105
"30024","Suwanee","GA","Walmart Supercenter","3245 Lawrenceville Suwanee Rd","30024",34.036931419576824,-84.05054254993307
"30024","Suwanee","GA","Publix","3120 Mathis Airport Pkwy","30024",34.11090952524819,-84.15415595173431
"30024","Suwanee","GA","Publix","7780 McGinnis Ferry Rd","30024",34.05704329493058,-84.12913524625044
"30024","Suwanee","GA","Kroger","2121 Lawrenceville Suwanee Rd","30024",34.0034937,-84.0382623
"30024","Suwanee","GA","Kroger","400 Peachtree Industrial Blvd","30024",34.0639201,-84.0724599
"30024","Suwanee","GA","Publix","5885 Cumming Hwy","30518",34.11870433052579,-84.07525586137835
"30024","Suwanee","GA","Publix","1000 Peachtree Industrial Blvd","30024",34.05025775691312,-84.08904724593502
"30024","Suwanee","GA","Kroger","6001 Cumming Hwy","30518",34.1216888,-84.0769402
"30024","Suwanee","GA","Patel Brothers Indian Groceries","3230 Caliber St","30024",34.083587,-84.164227
"30024","Suwanee","GA","Sprouts Farmers Market","2220 Peachtree Industrial Blvd, Ste 200","30097",34.0200287,-84.1200628
"30024","Suwanee","GA","The Fresh Market","1500 Peachtree Industrial Blvd, Ste 300","30024",34.037490893553326,-84.09968623579098
"30024","Suwanee","GA","Suvidha Indo-Pak Grocery","Peachtree Parkway","30097",34.07740553096976,-84.1625026211165
"30024","Suwanee","GA","Super H Mart","2700 Lawrenceville Suwanee Rd","30024",34.022276562861535,-84.04428801018145
"30024","Suwanee","GA","Assi Plaza","1291 Old Peachtree Rd NW","30024",34.00458562957253,-84.08357714250856
"30024","Suwanee","GA","Provisions On Main","3107 Main St","30096",34.002948,-84.144776
"30024","Suwanee","GA","ALDI","1165 Peachtree Industrial Blvd","30024",34.0481726,-84.0948324
"30024","Suwanee","GA","Quality Foods","not_available","30518",34.09662273468268,-84.01610461372262
"30025","Social Circle","GA","Freshway Market","Hwy. 11","30025",33.67489322955101,-83.7092667291294
"30025","Social Circle","GA","neighbors market","not_available","30663",33.62644521237837,-83.61222920515213
"30028","Cumming","GA","Walmart Supercenter","3655 Browns Bridge Rd","30028",34.26682467689674,-84.08731218324154
"30028","Cumming","GA","Publix","3480 Keith Bridge Rd","30041",34.25809173427533,-84.07167299044885
"30028","Cumming","GA","Kroger","2655 Freedom Pkwy","30041",34.2510007,-84.0908794
"30028","Cumming","GA","Kroger","2325 Bethelview Rd","30040",34.2384213,-84.1931029
"30028","Cumming","GA","Ingles","2835 Keith Bridge Rd","30041",34.253796642026,-84.08867362590381
"30028","Cumming","GA","Publix","12424 Cumming Hwy","30115",34.23698217772448,-84.29059967318477
"30028","Cumming","GA","Wilkes Meat Market & Deli","5515 Bannister Rd","30028",34.3002081,-84.1534454
"30030","Decatur","GA","Kroger","2875 N Decatur Rd","30033",33.791907,-84.2733783
"30030","Decatur","GA","Walmart Supercenter","2525 N Decatur Rd","30033",33.79237045735935,-84.28875878895786
"30030","Decatur","GA","Publix","2155 N Decatur Rd","30033",33.78977957904606,-84.30473058051886
"30030","Decatur","GA","Kroger","3479 Memorial Dr","30032",33.7521126,-84.2696315
"30030","Decatur","GA","Whole Foods Market","1555 Church St.","30033",33.79260563900729,-84.28404956203002
"30030","Decatur","GA","Kroger","720 Commerce Dr","30030",33.7783165,-84.2932209
"30030","Decatur","GA","Aldi","3480 Memorial Dr","30032",33.7540203478635,-84.27081763744354
"30030","Decatur","GA","First Oriental Market","2774 E Ponce de Leon Ave","30030",33.77853109971516,-84.27703902770992
"30030","Decatur","GA","Alkaline Junkie","230 East Ponce De Leon, st Ponce","30030",33.7767002,-84.293476
"30030","Decatur","GA","J's Food Mart","747 E College Ave #B","30030",33.774069,-84.283067
"30030","Decatur","GA","Big T's Supermarket","3354 Memorial Dr","30032",33.751289,-84.274384
"30030","Decatur","GA","Umi Vapes","2765 E College Ave","30030",33.7748819,-84.2767081
"30030","Decatur","GA","Savi Provisions","180 W Ponce de Leon Ave Ste A","30030",33.775430803152275,-84.29834831640602
"30032","Decatur","GA","Publix","2235 Glenwood Ave SE","30316",33.73897877566626,-84.31311480252975
"30032","Decatur","GA","Walmart Supercenter","2427 Gresham Rd Se","30316",33.71888373310349,-84.31259133968167
"30032","Decatur","GA","Family Guy","4100 Covington Hwy","30032",33.75440216064453,-84.23432159423828
"30032","Decatur","GA","Georgetown food market","4055 Covington Hwy","30032",33.75473,-84.236316
"30032","Decatur","GA","Wayfield Foods, Inc.","1757 Columbia Dr","30032",33.73944,-84.253608
"30032","Decatur","GA","palm tree grocery","3363 Glenwood Rd","30032",33.738399505615234,-84.28070831298828
"30032","Decatur","GA","Food Value","2112 Candler Rd","30032",33.72893142700195,-84.28073120117188
"30033","Decatur","GA","Publix","3870 N Druid Hills Rd","30033",33.81118888383319,-84.27447107950573
"30033","Decatur","GA","Publix","2969 N Druid Hills Rd NE","30329",33.8138325420531,-84.3109272744988
"30033","Decatur","GA","ALDI","1669 Scott Boulevard","30033",33.79587013961339,-84.2852689153442
"30033","Decatur","GA","Kroger","3959 Lavista Rd Ste A","30084",33.84333492206805,-84.25583481788635
"30033","Decatur","GA","Kroger","2205 Lavista Rd NE","30329",33.8157937,-84.3141618
"30033","Decatur","GA","Sprouts Farmers Market","2551 Blackmon Dr","30033",33.793924861090225,-84.2874231934548
"30033","Decatur","GA","Patel Brothers Grocery","1711 Church St","30033",33.797515475896574,-84.28120585142233
"30033","Decatur","GA","Cherians","751 Dekalb Industrial Way","30033",33.798994309661424,-84.27880482226827
"30033","Decatur","GA","Corporate square garden market","Corporate square blvd","30329",33.81466614929395,-84.31191826459711
"30033","Decatur","GA","Talar's Market","2495 Lawrenceville Hwy","30033",33.81960436313046,-84.2647783756911
"30034","Decatur","GA","Kroger","4919 Flat Shoals Pkwy","30034",33.67910397305761,-84.22851379495114
"30034","Decatur","GA","Publix","3649 Flakes Mill Rd","30034",33.67995130321889,-84.23147157265916
"30034","Decatur","GA","Aldi","4900 Flat Shoals Pkwy","30034",33.68148787415006,-84.2280176281929
"30034","Decatur","GA","Big Bear Supermarket","2849 Candler Rd","30034",33.706107281436864,-84.2735105752945
"30034","Decatur","GA","Wayfield Foods, Inc.","2532 Bouldercrest Rd SE","30316",33.687278747558594,-84.30941772460938
"30034","Decatur","GA","Formaggio","3165 Sherwood Oaks Ct","30034",33.6919461,-84.21851509999999
"30035","Decatur","GA","Kroger","1232 S Hairston Rd","30088",33.7594246,-84.1953954
"30035","Decatur","GA","Kroger","2385 Wesley Chapel Rd","30035",33.7180841,-84.2172964
"30035","Decatur","GA","Little Giant Farmer's Market","2440 Wesley Chapel Rd","30035",33.71656090503857,-84.21345908862487
"30038","Lithonia","GA","Publix","3045 Panola Rd","30038",33.69858144197027,-84.17371390065853
"30038","Lithonia","GA","Food Depot","not_available","30038",33.68001948111376,-84.17691690180513
"30038","Lithonia","GA","Walmart Supercenter","5401 Fairington Rd","30038",33.70072882209575,-84.16745038208192
"30038","Lithonia","GA","Publix","2880 Highway 212 SW","30094",33.617428359346476,-84.08100145337646
"30038","Lithonia","GA","Publix","Panola","not_available",33.648468,-84.193809
"30039","Snellville","GA","Walmart Supercenter","3435 Centerville Hwy","30039",33.80745625,-84.04637575
"30039","Snellville","GA","Publix","3550 Centerville Hwy Ste 201","30039",33.802456701506095,-84.04102846371266
"30039","Snellville","GA","Kroger","3035 Scenic Hwy S","30039",33.8251895,-84.0334205
"30039","Snellville","GA","Kroger","Hwy 124- Centerville","not_available",33.81382666964358,-84.04175295397016
"30039","Snellville","GA","Aldi","3340 Centerville Hwy","30039",33.81089965177084,-84.0417234675715
"30039","Snellville","GA","City Farmers Market","4002 Stone Mountain Hwy (US 78 / GA 10)","30039",33.83638,-84.06809399999999
"30039","Snellville","GA","Lidl","3821 Stone Mountain Highway","30039",33.84131607,-84.06371177
"30039","Snellville","GA","Roger","not_available","30039",33.834722222222226,-84.08527777777778
"30039","Snellville","GA","Kroger Grocery Pickup and Delivery","3035 Scenic Hwy S Ste 19","30039",33.826019287109375,-84.0322494506836
"30040","Cumming","GA","Kroger","5550 Bethelview Rd","30040",34.1699129658154,-84.1855169294018
"30040","Cumming","GA","Publix","580 Atlanta Rd","30040",34.18693922797616,-84.13908023249775
"30040","Cumming","GA","Walmart Supercenter","1500 Market Place Blvd","30041",34.18393027044313,-84.12935263673162
"30040","Cumming","GA","Publix","1735 Buford Hwy","30041",34.163681659274154,-84.11486926433474
"30040","Cumming","GA","Publix","5475 Bethelview Rd","30040",34.1741884244111,-84.18691005589004
"30040","Cumming","GA","Ingles","6055 Bethelview Rd","30040",34.16315555571313,-84.17405310143117
"30040","Cumming","GA","Ingles","1070 Buford Rd","30041",34.174501149332556,-84.1295414438952
"30040","Cumming","GA","Sprouts Farmers Market","530 Lakeland Plaza","30040",34.18409363067877,-84.1437023878097
"30040","Cumming","GA","ALDI","Buford Highway","30041",34.16140185867641,-84.11608489118085
"30040","Cumming","GA","Carniceria Hernandez","310 Veterans Memorial Blvd","30040",34.20297140888461,-84.13974930271361
"30040","Cumming","GA","Ingles Market","436 Canton Rd","30040",34.21606951628782,-84.15094167617507
"30040","Cumming","GA","La Rosita's Tienda","Atlanta hwy","not_available",34.211439,-84.136196
"30040","Cumming","GA","Ingles Checkout","not_available","30040",34.200271,-84.150326
"30040","Cumming","GA","Earth Fare","3140 Ronald Reagan Blvd","30041",34.151860583352544,-84.17759424738807
"30043","Lawrenceville","GA","Kroger","6555 Sugarloaf Pkwy","30097",33.9979645,-84.0898661
"30043","Lawrenceville","GA","Kroger","1475 Buford Dr","30043",34.0049609,-83.9864855
"30043","Lawrenceville","GA","Walmart Supercenter","630 Collins Hill Rd","30046",33.97149278284695,-83.99661846560873
"30043","Lawrenceville","GA","Publix","2380 Buford Dr Ste 201","30043",34.036469813098336,-83.98981868691045
"30043","Lawrenceville","GA","Publix","1030 Old Peachtree Rd NW","30043",33.99870458152575,-84.06817442661787
"30043","Lawrenceville","GA","Kroger","2100 Riverside Pkwy","30043",33.9666078,-84.0336346
"30043","Lawrenceville","GA","Publix","911 Duluth Hwy","30043",33.96926893254775,-84.02365998375636
"30043","Lawrenceville","GA","Aldi","996 Duluth Hwy","30043",33.9681691,-84.028231
"30043","Lawrenceville","GA","Suwanee Bazaar","#10","30024",34.028012,-84.043649
"30043","Lawrenceville","GA","kroger Break Room","not_available","30043",34.00535337240476,-83.9872527688567
"30043","Lawrenceville","GA","Monterrey","1043 Bailing Rd","30043",33.97188186645508,-84.03697204589844
"30044","Lawrenceville","GA","Walmart Supercenter","1550 Scenic Hwy N","30078",33.88656169,-84.00812602
"30044","Lawrenceville","GA","Kroger","4155 Lawrenceville Hwy NW","30047",33.90484,-84.1211081
"30044","Lawrenceville","GA","Publix","3370 Sugarloaf Pkwy","30044",33.92166418761043,-84.01800257794687
"30044","Lawrenceville","GA","Kroger","1670 Scenic Hwy SW","30078",33.88295731069692,-84.00790750980377
"30044","Lawrenceville","GA","Walmart Supercenter","4004 Lawrenceville Hwy Nw","30047",33.90322899698092,-84.11041016770834
"30044","Lawrenceville","GA","Walmart Neighborhood Market","3059 Lawrenceville Hwy","30044",33.92207865388583,-84.08529642989252
"30044","Lawrenceville","GA","Kroger","950 Herrington Rd","30044",33.9404471,-84.0829267
"30044","Lawrenceville","GA","Publix","1625 Pleasant Hill Rd Ste 200","30096",33.943567773049715,-84.12791122619123
"30044","Lawrenceville","GA","Mega Mart","2100 Pleasant Hill Rd","30096",33.95947516502403,-84.12606089131957
"30044","Lawrenceville","GA","Walmart Supercenter","1400 Lawrenceville Hwy","30044",33.936537557195706,-84.02550264943777
"30044","Lawrenceville","GA","Kroger","3050 Five Forks Trickum Rd SW","30047",33.884664952285156,-84.06063153818856
"30044","Lawrenceville","GA","Publix","4850 Sugarloaf Pkwy","30044",33.95424366631265,-84.0551478846882
"30044","Lawrenceville","GA","Assi Plaza","1630 Pleasant Hill Rd","30096",33.94716033695705,-84.12369789892404
"30044","Lawrenceville","GA","Super Mercado 3 Hermanos","2500-2598 Cruse Rd NW","30044",33.941793674915324,-84.07776440179352
"30044","Lawrenceville","GA","ALDI","396 Pleasant Hill Rd NW","30047",33.90795301795868,-84.1109894999181
"30044","Lawrenceville","GA","Carniceria Viva Jalisco","3130 Sugarloaf Pkwy Ste 700","30045",33.920177,-84.00727
"30044","Lawrenceville","GA","Desi Bazar & Halal Meat","not_available","30044",33.937515000000005,-84.087987
"30044","Lawrenceville","GA","Sweet Water Grocery","2930 Old Norcross Rd #700","30096",33.95243453979492,-84.10348510742188
"30044","Lawrenceville","GA","Super Mercado Jalisco #5","104 Peasant hill rd.","not_available",33.909367,-84.11237
"30044","Lawrenceville","GA","Apna Bazaar","3085 Breckinridge Blvd","30096",33.95760954470694,-84.11212459545646
"30044","Lawrenceville","GA","Las Tarascas Latino Super Market","2369 Lawrenceville Hwy","30044",33.92770004272461,-84.06063842773438
"30044","Lawrenceville","GA","Ingles Market","1154 Lawrenceville Hwy","30046",33.93815431640612,-84.01704230989863
"30044","Lawrenceville","GA","Kroger Deli","not_available","30047",33.904813,-84.120713
"30045","Lawrenceville","GA","Kroger","455 Grayson Hwy","30046",33.93863852702502,-83.98259201646056
"30045","Lawrenceville","GA","Publix","930 New Hope Rd","30045",33.93459455356987,-83.9567249988877
"30045","Lawrenceville","GA","Euro Gourmet Foods","488 Gwinnett Dr #A","30046",33.94276507048424,-83.99165425773549
"30045","Lawrenceville","GA","Super Mercado Jalisco","not_available","30045",33.93612215239222,-83.97884152656358
"30045","Lawrenceville","GA","Istanbul International Food","3130 Sugarloaf Pkwy","30045",33.91960906982422,-84.00700378417969
"30045","Lawrenceville","GA","Stella Market European Food Store","Scenic Hwy","not_available",33.94355182140926,-83.99100335339305
"30045","Lawrenceville","GA","Dollar Shoppe","455 Grayson Highway Suite 111","30046",33.938556,-83.984891
"30047","Lilburn","GA","Kroger","1227 Rockbridge Rd","30087",33.8411895,-84.1330127
"30047","Lilburn","GA","Walmart Supercenter","1825 Rockbridge Rd","30087",33.82453514,-84.12542582
"30047","Lilburn","GA","Publix","4045 Five Forks Trickum Rd SW","30047",33.87037690599304,-84.09268669079802
"30047","Lilburn","GA","Publix","375 Rockbridge Rd NW","30047",33.883231868699426,-84.16350036315468
"30047","Lilburn","GA","Ingles","650 Rockbridge Rd SW","30047",33.857455943166784,-84.14039082875951
"30047","Lilburn","GA","Food Depot","Tech Drive","30093",33.914646360343326,-84.16496201409674
"30047","Lilburn","GA","el jalisco market","not_available","30093",33.911803970827336,-84.16309923838377
"30047","Lilburn","GA","Ike's tropical market","1241 Indian Trail Lilburn Rd","30093",33.914188385009766,-84.16265869140625
"30047","Lilburn","GA","Hachem Food Mart","5329 Lawrenceville Hwy NW","30047",33.8656,-84.0725
"30047","Lilburn","GA","Main Street Market","Main St Lilburn","30047",33.885619,-84.134553
"30047","Lilburn","GA","Akshar Grocery","Rockbridge Rd, Lilburn, GA","30047",33.88474131193488,-84.16527301977528
"30052","Loganville","GA","Kroger","4753 Atlanta Hwy","30052",33.83116165716373,-83.88427376747131
"30052","Loganville","GA","Walmart Supercenter","4221 Atlanta Hwy","30052",33.841106101130606,-83.91094548290579
"30052","Loganville","GA","Publix","4325 Atlanta Hwy","30052",33.83957180015282,-83.90768219739923
"30052","Loganville","GA","Ingles Supermarket","4565 Atlanta Hwy","30052",33.8336156300152,-83.89761240786093
"30052","Loganville","GA","ALDI","370 Athens Hwy","30052",33.85151942920482,-83.92619779924644
"30052","Loganville","GA","Corner's Edge Butcher Shoppe","3981 Atlanta Hwy Ste 8/9","30052",33.84742736816406,-83.91402435302734
"30055","Mansfield","GA","Blackwell's Marketplace","4420 County Road 213","30055",33.52043,-83.71473
"30055","Mansfield","GA","Blackwell's Grocery","hwy 11","not_available",33.51805346408612,-83.73478622953589
"30058","Lithonia","GA","Kroger","6678 Covington Hwy","30058",33.7187271,-84.1445
"30058","Lithonia","GA","Aldi Food Market","6650 Covington Hwy","30058",33.71830278982098,-84.14678826928139
"30058","Lithonia","GA","Wayfield Foods, Inc.","2636 Max Cleland Blvd","30058",33.71144862404143,-84.1082414107522
"30058","Lithonia","GA","Walmart Neighborhood Market","6152 Covington Hwy","30058",33.72427167660685,-84.16494766261145
"30060","Marietta","GA","Kroger","3240 S Cobb Dr SE","30080",33.875132848029864,-84.53365581037883
"30060","Marietta","GA","Publix Super Market at Jonquil Plaza","2955 Atlanta Rd SE","30080",33.8817120043172,-84.51235468609357
"30060","Marietta","GA","Walmart Supercenter","1785 Cobb Pkwy S","30060",33.90974683925083,-84.48907542379126
"30060","Marietta","GA","Kroger","1000 Whitlock Ave NW","30064",33.953167,-84.5810781
"30060","Marietta","GA","Walmart Supercenter","210 Cobb Pkwy S","30060",33.946203182853715,-84.5211513548615
"30060","Marietta","GA","Kroger","2100 Roswell Rd Ste 2140","30062",33.96745963514034,-84.48798697461461
"30060","Marietta","GA","Cobb International Farmers Market","2350 Spring Rd SE","30080",33.88262622257095,-84.487526775492
"30060","Marietta","GA","Tomato Japanese Grocery","2086 Cobb Pkwy SE","30067",33.901593843713364,-84.48749414877
"30060","Marietta","GA","Food Depot","681 S Marietta Pkwy SE","30060",33.94413159821328,-84.53228761522135
"30060","Marietta","GA","ALDI","2125 Roswell Rd NE, Suite 30","30062",33.9676194,-84.4913873
"30060","Marietta","GA","Dong Bang Oriental Grocery","380 White Ave SE","30060",33.943053000000006,-84.517688
"30060","Marietta","GA","Gantts Grocery","not_available","30067",33.93022627118132,-84.49350427144788
"30060","Marietta","GA","Carniceria Ar Hermanos","1368 Atlanta Rd SE","30060",33.919106,-84.54248
"30060","Marietta","GA","Grocery Store","not_available","30319",33.87139760745488,-84.48805576302091
"30060","Marietta","GA","Marietta Health Foods","1522 Roswell Rd","30062",33.951171216666665,-84.50745201666666
"30060","Marietta","GA","Brito Supermarket 5","1991 S Cobb Dr SE","30060",33.90446853637695,-84.54106903076172
"30060","Marietta","GA","Al Marwa","1482 Roswell Road New","30062",33.95051669220355,-84.50849817068773
"30062","Marietta","GA","Walmart Supercenter","2795 Chastain Meadows Pkwy","30066",34.018927748118585,-84.55669971024015
"30062","Marietta","GA","Kroger","3595 Canton Rd","30066",34.03863661062438,-84.53091520073491
"30062","Marietta","GA","Publix","3605 Sandy Plains Rd Ste 200","30066",34.03825019973897,-84.46272705769917
"30062","Marietta","GA","Kroger","4880 Lower Roswell Rd","30068",33.9649011,-84.409241
"30062","Marietta","GA","Publix","4401 Shallowford Rd","30075",34.028029684332246,-84.4210678546294
"30062","Marietta","GA","Publix","1050 E Piedmont Rd Ste 130","30062",33.97627682627232,-84.47863921425017
"30062","Marietta","GA","Walmart Supercenter","3100 Johnson Ferry Rd","30062",34.02343757451204,-84.42304701659565
"30062","Marietta","GA","Kroger","2960 Shallowford Rd","30066",34.03484233092819,-84.46670517330858
"30062","Marietta","GA","Publix","50 Barrett Pkwy Ste 1000","30066",34.016452597632636,-84.54939143396915
"30062","Marietta","GA","Trader Joe's","4250 Roswell Road NE","30062",33.98323092406469,-84.42643840329751
"30062","Marietta","GA","Publix","1860 Sandy Plains Rd","30066",33.99404662775566,-84.50931806295648
"30062","Marietta","GA","Publix","4290 Bells Ferry Rd NW","30144",34.055244985088876,-84.55432533938558
"30062","Marietta","GA","Publix","1100 Johnson Ferry Rd","30068",33.977125431416276,-84.41496101285965
"30062","Marietta","GA","Walmart Neighborhood Market","3101 Roswell Road","30062",33.98062345571205,-84.4630149990016
"30062","Marietta","GA","Whole Foods Market","1311 Johnson Ferry Road Ne","30068",33.98096180115735,-84.4274199416305
"30062","Marietta","GA","Kroger","3162 Johnson Ferry Rd","30062",34.0260745,-84.4223286
"30062","Marietta","GA","Sprouts Farmers Market","4101 Roswell Rd, Ste 700","30062",33.981919449789466,-84.43247437477118
"30062","Marietta","GA","GreenWise Market Marietta","3460 Sandy Plains Rd NE","not_available",34.0332498,-84.46489220000001
"30062","Marietta","GA","Aldi","860 Cobb Pl Blvd. NW","30144",34.00991879722926,-84.570592045784
"30062","Marietta","GA","Good Nutrition","1205 Johnson Ferry Rd #111","30068",33.9770352,-84.4192054
"30062","Marietta","GA","Anamika Indo-Pak Groceries","440 Ernest W Barrett Pkwy NW 50","30144",34.013317,-84.56359
"30062","Marietta","GA","Wantan International Grocery","Mall Boulevard Northwest","30144",34.010868,-84.56435
"30064","Marietta","GA","Kroger","4150 Macland Rd","30127",33.903363,-84.6748122
"30064","Marietta","GA","Publix","2500 Dallas Hwy SW Ste 300","30064",33.948229898778784,-84.6256254128473
"30064","Marietta","GA","Kroger","3600 Dallas Hwy SW","30064",33.9551668,-84.6563298
"30064","Marietta","GA","Sprouts Farmers Market","3805 Dallas Hwy SW, Suite 200","30064",33.95013743390776,-84.66292440891266
"30064","Marietta","GA","Publix","3721 New Macland Rd Ste 300","30127",33.8640511891063,-84.67441450665868
"30064","Marietta","GA","Warehouse Groceries Food Center","not_available","30127",33.875253,-84.66561
"30066","Marietta","GA","Publix","4750 Alabama Rd NE Ste 107","30075",34.065750470770055,-84.42337314608497
"30066","Marietta","GA","ALDI","Hwt 92","30066",34.06889381422799,-84.52103871216757
"30066","Marietta","GA","Caribbean Grocery Store","Near 401-593 Roberts Ct","30144",34.01022160185403,-84.56105922124169
"30066","Marietta","GA","Quick Thrift Food Store","Barrett Pkwy","not_available",34.0131129189093,-84.54888554245628
"30066","Marietta","GA","Suvidha Indo Pak Groceries","not_available","30066",34.020647,-84.556459
"30067","Marietta","GA","Publix","6300 Powers Ferry Rd","30339",33.905311845584556,-84.42770476740402
"30067","Marietta","GA","Publix","2900 Delk Rd SE Ste 1150","30067",33.9231949111742,-84.4667675662376
"30067","Marietta","GA","Kroger","1122 Powers Ferry Rd SE","30067",33.922988800635345,-84.46987376378269
"30067","Marietta","GA","Sope Creek Crossing","2900 Delk Rd SE","30067",33.92283283950021,-84.46672618389124
"30067","Marietta","GA","Life Grocery","1453 Roswell Rd","30062",33.950749,-84.51017
"30068","Marietta","GA","Sam's Paradise Vape & CBD","2200 Roswell Rd, Suite 140","30062",33.96999,-84.48783
"30068","Marietta","GA","Lidl","1205 Johnson Ferry Rd","30068",33.9774284362793,-84.41943359375
"30071","Norcross","GA","Publix","3200 Holcomb Bridge Rd","30092",33.95200719204997,-84.23260915097214
"30071","Norcross","GA","Publix","7736 Spalding Dr","30092",33.968211037592454,-84.26077022915737
"30071","Norcross","GA","ALDI","6135 Peachtree Pkwy","30092",33.9525938,-84.2358058
"30071","Norcross","GA","Tomato Japanese Grocery","7124 Peachtree Industrial Blvd","30071",33.93069290327629,-84.26340326759927
"30071","Norcross","GA","Hong Kong Supermarket","5494 Jimmy Carter Blvd","30093",33.90878358193271,-84.20471952302678
"30071","Norcross","GA","Taaj Kabob & Grill","6385 Spalding Dr Ste B","30092",33.968976,-84.258375
"30071","Norcross","GA","Super Mercado Jalisco","2175 Beaver Ruin Rd","30071",33.935016999999995,-84.18377199999999
"30071","Norcross","GA","Taqueria Carniceria And Pelayo","5275 Hwy 23","30071",33.950395,-84.198049
"30071","Norcross","GA","Sai Fresh Foods","not_available","30071",33.969189424472205,-84.1914552227223
"30071","Norcross","GA","Carniceria La Potosina","1461 Pirkle Rd","30093",33.90781299213597,-84.19253131140127
"30071","Norcross","GA","Super Mercado Jalisco","6200 Buford Hwy","30071",33.93111183614692,-84.22422347420543
"30071","Norcross","GA","Plaza Latina","5735 Buford Hwy","30071",33.940372467041016,-84.21026611328125
"30071","Norcross","GA","Jakarta Market","4500 Satellite Blvd Ste 1280","30096",33.942126,-84.160438
"30071","Norcross","GA","Active Sports Supplements LLC","6080 McDonough Dr, Ste D","30093",33.909385681152344,-84.20772552490234
"30071","Norcross","GA","Spices House","5775 Jimmy Carter Blvd","30071",33.916887,-84.208061
"30071","Norcross","GA","Pubix","not_available","30092",33.944342239048254,-84.2332385373754
"30075","Roswell","GA","Kroger","570 E Crossville Rd","30075",34.0398894,-84.3453171
"30075","Roswell","GA","Publix","8725 Roswell Rd Ste G","30350",33.99423099006586,-84.34962800567331
"30075","Roswell","GA","Kroger","900 Marietta Hwy","30075",34.0039361,-84.3893405
"30075","Roswell","GA","Publix","885 Woodstock Rd Ste 100","30075",34.06094889095981,-84.38564284449164
"30075","Roswell","GA","Trader Joe's","635 W Crossville Rd","30075",34.05920651438986,-84.3800304821063
"30075","Roswell","GA","The Fresh Market","1125 Woodstock Rd, Ste 400","30075",34.06416549792477,-84.395601350896
"30075","Roswell","GA","Sprouts Farmers Market","10800 Alpharetta Hwy, Ste C410","30076",34.044301,-84.3423999
"30075","Roswell","GA","Aldi","600 Mansell Rd","30076",34.039587170369174,-84.34750724324658
"30075","Roswell","GA","Carniceria 3 Hermanos","1027 Alpharetta St","30075",34.02714694073085,-84.35819290105636
"30075","Roswell","GA","Ali Baba","11060 Alpharetta Hwy","30076",34.049158,-84.340373
"30075","Roswell","GA","ALDI","Mansell Rd","30076",34.00629899951782,-84.33806174775481
"30076","Roswell","GA","Publix","1425 Market Blvd Ste 600","30076",34.017867283870366,-84.31966891434332
"30076","Roswell","GA","Minas Emporium","8610 Roswell Rd Ste 690","30350",33.99146087252617,-84.35318075594016
"30078","Snellville","GA","Publix","1905 Scenic Hwy N Ste 4000","30078",33.87701728112748,-84.01470225658663
"30078","Snellville","GA","Walmart Neighborhood Market","2912 W Main St","30078",33.85324094047621,-84.0337874815007
"30080","Smyrna","GA","Publix","2451 Cumberland Pkwy SE","30339",33.863048731069256,-84.47837262853542
"30080","Smyrna","GA","Publix","4480 S Cobb Dr SE","30080",33.84315353452815,-84.50428969920995
"30080","Smyrna","GA","Kroger","4715 S Atlanta Rd SE","30339",33.838849,-84.4817342
"30080","Smyrna","GA","Sprouts Farmers Market","4330 East-West Connector","30082",33.8421961,-84.5010846
"30080","Smyrna","GA","ALDI","2589 Spring Rd SE","30080",33.8839305,-84.4773695
"30080","Smyrna","GA","Goodness Grocery","4300 W Village Way","30080",33.844242685911425,-84.49078150539891
"30080","Smyrna","GA","malincho Grocery","2800 Spring Dr SE","30080",33.88423488279925,-84.47401699131768
"30082","Smyrna","GA","Kroger","4875 Floyd Rd SW","30126",33.8353449,-84.574155
"30082","Smyrna","GA","Publix","5015 Floyd Rd SW","30126",33.8329749838027,-84.57463108922676
"30082","Smyrna","GA","Aldi","5020 Floyd Rd SW","30126",33.83178996839255,-84.57668334245682
"30082","Smyrna","GA","Publix","not_available","30126",33.82525180383627,-84.57638449896423
"30083","Stone Mountain","GA","Walmart Supercenter","5935 Memorial Dr","30083",33.799460644624936,-84.19504486318893
"30083","Stone Mountain","GA","Stop ans Save Convenience Store","5444 Rockbridge Rd","30083",33.79067555644145,-84.17242224715909
"30083","Stone Mountain","GA","True World Foods","4554 Stonegate Industrial Blvd #A","30083",33.821822,-84.201546
"30084","Tucker","GA","Kroger","3559 Chamblee Tucker Rd","30341",33.8840304,-84.2477452
"30084","Tucker","GA","Publix","4422 Hugh Howell Rd","30084",33.85183953034905,-84.20630708529903
"30084","Tucker","GA","Kroger","4357 Lawrenceville Hwy","30084",33.855088,-84.2070431
"30084","Tucker","GA","Walmart Supercenter","4375 Lawrenceville Hwy","30084",33.85612217107072,-84.20569953783686
"30084","Tucker","GA","Walmart Supercenter","4975 Jimmy Carter Blvd","30093",33.894960285982336,-84.19436317806233
"30084","Tucker","GA","Publix Pharmacy","Hugh Howell Rd","30084",33.851623,-84.211295
"30084","Tucker","GA","Walmart Neighborhood Market","3201 Tucker Norcross Rd","30084",33.88351798692007,-84.21873808279601
"30084","Tucker","GA","Publix","2162 Henderson Mill Rd NE","30345",33.847406972416316,-84.2567901645372
"30084","Tucker","GA","ALDI","4135 Lavista Rd","30084",33.8455959835734,-84.24861596664414
"30084","Tucker","GA","Mediterranean Bakery","3362 Chamblee Tucker Rd","30341",33.88675145286141,-84.25516113169667
"30084","Tucker","GA","talpa","4664 Jimmy Carter Blvd, Norcross, GA 30093","30093",33.886540097664934,-84.19331905782738
"30084","Tucker","GA","Milk Jug","3988 Lawrenceville Hwy","30084",33.85020240742162,-84.21803812307682
"30084","Tucker","GA","Briarcliff La Vista","4000-4012 Lavista Rd","30084",33.84696606904095,-84.25511598587036
"30084","Tucker","GA","Super Mercado El Tapatio","4142 Jimmy Carter Blvd","30093",33.869851000000004,-84.189561
"30084","Tucker","GA","BAPS Shayona","460 Rockbridge Rd NW","30047",33.88547985355456,-84.16471472282126
"30084","Tucker","GA","Mercado Del Pueblo","3201 Tucker Norcross RD","not_available",33.883171269032154,-84.22012199290037
"30084","Tucker","GA","Food Depot","4612-4654 Britt Rd","30093",33.88467128506705,-84.1939693736918
"30084","Tucker","GA","D & F Marketing Inc.","4305 Lynburn Dr","30084",33.854651000000004,-84.213359
"30087","Stone Mountain","GA","Publix","380 N Deshong Rd","30087",33.78575418742022,-84.10059152085866
"30093","Norcross","GA","Kroger","6050 Singleton Rd","30093",33.9034686,-84.1995245
"30093","Norcross","GA","Aldi Food Market","5345 Jimmy Carter Blvd Ste C2","30093",33.9040221,-84.2046811
"30093","Norcross","GA","Al Hamrah","895 Indian Trail Lilburn Rd NW","30047",33.90519548066363,-84.15550583864392
"30096","Duluth","GA","Kroger","3093 Steve Reynolds Blvd","30096",33.960471729273614,-84.14370507001883
"30096","Duluth","GA","Walmart Supercenter","2635 Pleasant Hill Rd","30096",33.97034209,-84.14995193
"30096","Duluth","GA","Super H Mart","2550 Pleasant Hill Rd","30096",33.96952350301238,-84.14330748385942
"30096","Duluth","GA","Great Wall Supermarket (大中華)","2300 Pleasant Hill Rd","30096",33.96353550483943,-84.13524293418273
"30096","Duluth","GA","Publix","3870 Peachtree Industrial Blvd","30096",33.98772512976788,-84.16888242698617
"30096","Duluth","GA","Whole Foods Market","5945 State Bridge Rd","30097",34.013192626171126,-84.18383006453534
"30096","Duluth","GA","Zion Market","2336 Pleasant Hill Rd","30096",33.96409689290769,-84.13785762208809
"30096","Duluth","GA","Aldi","2618 Pleasant Hill Rd","30096",33.971256488930266,-84.14725498126245
"30096","Duluth","GA","Cherians International Fresh Market","3890 Satellite Blvd","30096",33.95292663574219,-84.14263153076172
"30096","Duluth","GA","zTAO Marketplace","3875 Venture Dr","30096",33.951778411865234,-84.14158630371094
"30097","Duluth","GA","Super H Mart","10820 Abbotts Bridge Rd","30097",34.0453028351024,-84.17811705566825
"30101","Acworth","GA","Kroger","8876 Dallas Acworth Hwy","30132",34.0107552,-84.7530418
"30101","Acworth","GA","Publix","80 Seven Hills Blvd","30132",34.02964521738692,-84.77849223541199
"30101","Acworth","GA","Publix","3507 Baker Rd NW Ste 300","30101",34.07478763349873,-84.65194725040439
"30101","Acworth","GA","Kroger","1720 Mars Hill Rd NW","30101",33.9956149,-84.704607
"30101","Acworth","GA","Walmart Supercenter","3826 Cobb Pkwy Nw","30101",34.04857106321207,-84.69797141828653
"30101","Acworth","GA","Kroger","3330 Cobb Pkwy NW Ste 200","30101",34.036186051604346,-84.67706459985493
"30101","Acworth","GA","Publix","2774 Cobb Pkwy NW Ste 201","30152",34.023182526434546,-84.62375689583915
"30101","Acworth","GA","Publix","1727 Mars Hill Rd NW","30101",33.997395728453476,-84.70771222281908
"30101","Acworth","GA","Publix","2090 Baker Rd NW","30144",34.049175868773006,-84.610567893722
"30101","Acworth","GA","Publix","6110 Cedarcrest Rd NW","30101",34.06398845729262,-84.72623112438595
"30101","Acworth","GA","Walmart Supercenter","3105 Cobb Pkwy Nw","30152",34.02877489148594,-84.6584314799088
"30101","Acworth","GA","Aldi Grocery Store","3076 Cobb Pkwy NW","30152",34.030318194386986,-84.65067073702812
"30101","Acworth","GA","Ingles","5055 Cherokee St","30101",34.076966883153275,-84.67798094474246
"30101","Acworth","GA","stanky leg","not_available","30152",33.99427648293997,-84.66231522242315
"30101","Acworth","GA","Pantry","not_available","30102",34.076036,-84.612974
"30102","Acworth","GA","Kroger","2295 Towne Lake Pkwy","30189",34.1126486,-84.5553383
"30102","Acworth","GA","Publix","4430 Wade Green Rd NW Ste 100","30144",34.06165668347542,-84.59071925053797
"30102","Acworth","GA","Walmart Supercenter","6435 Bells Ferry Rd","30189",34.1128753,-84.58367532
"30102","Acworth","GA","Publix","4403 Towne Lake Pkwy","30189",34.12724631185696,-84.57115932575904
"30102","Acworth","GA","Kroger","6199 Highway 92","30102",34.090197,-84.5850265
"30102","Acworth","GA","aldi","2014 Eagle Dr","30189",34.11321708635698,-84.56716016697214
"30102","Acworth","GA","Lidl","6421 Bells Ferry Rd","30189",34.1260986328125,-84.56510162353516
"30106","Austell","GA","Food Depot","3030 Bankhead Highway","30168",33.798094506744555,-84.64102404207564
"30106","Austell","GA","Food Depot","not_available","30106",33.84873580932617,-84.59334564208984
"30106","Austell","GA","Carniceria La Mexicana #2","6200 Mableton Pkwy SW","30126",33.801984000000004,-84.56865
"30107","Ball Ground","GA","Kroger","8020 Cumming Hwy","30115",34.2524512,-84.3580125
"30107","Ball Ground","GA","Publix","1451 Riverstone Pkwy","30114",34.25265037213578,-84.47555612463967
"30107","Ball Ground","GA","Walmart Supercenter","1550 Riverstone Pkwy","30114",34.25556792866708,-84.46177548920753
"30107","Ball Ground","GA","Foothills IGA Market","70 Foothills Pkwy","30148",34.41367399832362,-84.28191305758685
"30108","Bowdon","GA","Piggly Wiggly","105 Bowdon Center","30108",33.54009054428482,-85.25212922477455
"30108","Bowdon","GA","value foods bowdon","not_available","30108",33.53684518632884,-85.25215223089947
"30108","Bowdon","GA","Value Foods","Hwy 46","30108",33.5399931,-85.2693946
"30110","Bremen","GA","Ingles Market","2865 Music Mill Rd","30110",33.694529251006266,-85.15104796003884
"30110","Bremen","GA","Walmart Supercenter","404 Hwy 27 No. Bypas","30110",33.70812514677339,-85.162931182879
"30110","Bremen","GA","Piggly Wiggly","368 Carrollton St","30113",33.80196762084961,-85.18791961669922
"30110","Bremen","GA","Bremen Food & Clothing Bank","180 Helton Rd","30110",33.72786,-85.09016
"30110","Bremen","GA","Save-A-Lot","511 Alabama Ave","30110",33.715650566730474,-85.1431533426426
"30114","Canton","GA","Kroger","6766 Hickory Flat Hwy","30115",34.1714003,-84.4162925
"30114","Canton","GA","Publix","3760 Sixes Rd Ste 110","30114",34.1788841124242,-84.54928820511972
"30114","Canton","GA","Walmart Grocery Pickup and Delivery","2200 Holly Springs Parkway","30115",34.18199920654297,-84.5040512084961
"30114","Canton","GA","Publix","6175 Hickory Flat Hwy Ste 140","30115",34.17771807910794,-84.41831652419242
"30114","Canton","GA","Kroger","5339 Old Highway 5","30188",34.14152361389405,-84.50386034091935
"30114","Canton","GA","Publix","6236 Holly Springs Pkwy","30188",34.13011358067651,-84.49921488349615
"30114","Canton","GA","Kroger","4045 Marietta Hwy","30114",34.1929473,-84.5073489
"30114","Canton","GA","Publix","15 Laurel Canyon Village Circle Suite 118","30114",34.2715313841536,-84.50310601369289
"30114","Canton","GA","Publix","120 Prominence Point Pkwy","30114",34.1917223745597,-84.51145729097406
"30114","Canton","GA","Ingles","Riverplace, 108 Riverstone Pkwy","30114",34.24292999785538,-84.49124435798336
"30114","Canton","GA","Kroger Grocery Pickup and Delivery","5341 Old Highway 5","30188",34.14147372709557,-84.50386631150637
"30114","Canton","GA","Waleska Super Thrift","not_available","30183",34.314228,-84.549975
"30114","Canton","GA","Page & Son Grocery","not_available","30114",34.20341221666666,-84.50644868333333
"30114","Canton","GA","Ingles","not_available","30143",34.235248665553044,-84.3646762538418
"30114","Canton","GA","Harvest Moon Natural Market","3725 Sixes Rd #103","30114",34.17451095581055,-84.54949188232422
"30114","Canton","GA","ALDI","553 Riverstone Pkwy","30114",34.24577220990796,-84.48594287799091
"30116","Carrollton","GA","Walmart Supercenter","1735 S Highway 27","30117",33.54318311922125,-85.07452011108398
"30116","Carrollton","GA","Kroger Marketplace","1355 S Park St","30117",33.55305916908214,-85.07503509521484
"30116","Carrollton","GA","Publix","1109 S Park St Ste 600","30117",33.560526527723134,-85.07504062315783
"30116","Carrollton","GA","ALDI","1495 S Highway 27","30117",33.550069,-85.074493
"30116","Carrollton","GA","Food Depot #36","1004 Bankhead Hwy","30117",33.59447644412595,-85.0444075673216
"30116","Carrollton","GA","Ingles Market","1124 N Park St","30117",33.59963961134626,-85.08048864122192
"30116","Carrollton","GA","Foodlion","not_available","30117",33.56239365659393,-85.09570537181249
"30116","Carrollton","GA","The Farmer's Cupboard","401 Rome St","30117",33.5824762,-85.07380675
"30116","Carrollton","GA","Kroger","100-198 Georgia 1","30117",33.57516935580853,-85.07846917202619
"30116","Carrollton","GA","Save-A-Lot","505 Bankhead Hwy","30117",33.585350036621094,-85.0583724975586
"30117","Carrollton","GA","Food Depot","180 Maple Xing","30117",33.56360931967728,-85.11362808374847
"30120","Cartersville","GA","Ingles Market","825 West Ave","30120",34.157142120076635,-84.81865913369131
"30120","Cartersville","GA","Kroger Marketplace","125 Main Street Market Pl SE","30121",34.17158240221911,-84.77668170155312
"30120","Cartersville","GA","Walmart Supercenter","101 Market Place Blvd","30121",34.20282615816278,-84.78796381722073
"30120","Cartersville","GA","Publix","300 Cherokee Pl","30121",34.17312287368795,-84.78389898449402
"30120","Cartersville","GA","Ingles Market","1070 Joe Frank Harris Pkwy","30120",34.19567022826633,-84.79113130267223
"30120","Cartersville","GA","ALDI","500 Rowland Springs Rd","30121",34.177389,-84.785
"30120","Cartersville","GA","Krobar","not_available","30121",34.17152,-84.776799
"30122","Lithia Springs","GA","Walmart Supercenter","1100 Thornton Rd","30122",33.77435980628006,-84.60169129301417
"30122","Lithia Springs","GA","Publix","2675 Lee Rd","30122",33.73499118113689,-84.66853212111833
"30122","Lithia Springs","GA","Kroger","630 Thornton Rd","30122",33.7897718,-84.6200665
"30122","Lithia Springs","GA","Ingles","Fairburn Rd.","30135",33.74558975425773,-84.69675845799024
"30122","Lithia Springs","GA","Super Mi Pueblo","411 Maxham Rd Ste 600","30168",33.79671825627043,-84.62113408102039
"30125","Cedartown","GA","Walmart Supercenter","1585 Rome Hwy","30125",34.04629459,-85.23910046
"30125","Cedartown","GA","Kroger","730 N Main St","30125",34.0246838001995,-85.24894352910225
"30125","Cedartown","GA","Penny Pinchers","not_available","30125",34.01048278808594,-85.25633239746094
"30125","Cedartown","GA","Sav-a-lot","554 N Main St","30125",34.021915435791016,-85.25074768066406
"30125","Cedartown","GA","kroger","Cedartown Hwy","not_available",34.08163300776732,-85.22626781375644
"30126","Mableton","GA","Publix","1025 Veterans Memorial Hwy SE Ste 400","30126",33.80560795316074,-84.52544008146235
"30127","Powder Springs","GA","Walmart Supercenter","3615 Marietta Hwy","30157",33.935272505861896,-84.73054029444138
"30127","Powder Springs","GA","Walmart Supercenter","4166 Jimmy Lee Smith Pkwy","30141",33.89112922452193,-84.75900257718536
"30127","Powder Springs","GA","Publix","5100 Dallas Hwy","30127",33.941781357524235,-84.70347261718072
"30127","Powder Springs","GA","Food Depot","Hwy 92","30127",33.79876268245578,-84.75637528679444
"30127","Powder Springs","GA","Kroger","4400 Brownsville Rd","30127",33.84563031214854,-84.69834894575501
"30127","Powder Springs","GA","Food Depot","6525 Hiram Douglasville Hwy","30134",33.79926681518555,-84.75592803955078
"30127","Powder Springs","GA","Food Lion","6525 Hiram","30134",33.798816514388186,-84.75607146384091
"30127","Powder Springs","GA","ALDI","5746 Wendy Bagwell Pkwy","30141",33.8842641,-84.7345784
"30132","Dallas","GA","Publix","51 E Paulding Dr","30157",33.958534435938866,-84.78778233581535
"30132","Dallas","GA","Kroger","455 Nathan Dean Blvd","30132",33.9109087,-84.8228587
"30132","Dallas","GA","Ingles","270 Merchants Sq","30132",33.90950252475362,-84.80045774700109
"30134","Douglasville","GA","Kroger","8501 Hospital Dr","30134",33.7494709,-84.7322709
"30134","Douglasville","GA","Walmart Supercenter","7001 Concourse Pkwy","30134",33.73238364,-84.7570861
"30134","Douglasville","GA","Kroger","4815 Ridge Rd","30134",33.8185552,-84.8128619
"30134","Douglasville","GA","Aldi Food Market","2990 Chapel Hill Rd","30135",33.72429847352922,-84.73338000852891
"30134","Douglasville","GA","Believe And Achieve Delivery Service","1334 Rocky Ridge Blvd","30134",33.73237991333008,-84.76695251464844
"30134","Douglasville","GA","La Montaña Supermercado","Fairburn Rd.","30134",33.75142693519592,-84.72456693649292
"30134","Douglasville","GA","La Montaña Carniceria y Taqueria","5823 Fairburn Rd Ste C","30134",33.7515866191969,-84.72483
"30134","Douglasville","GA","Publix","lee rd","30135",33.734728636000575,-84.71600732817488
"30134","Douglasville","GA","Sam's Club","not_available","30134",33.73832076939166,-84.73113537666708
"30134","Douglasville","GA","h & h mart","not_available","30274",33.731575,-84.768115
"30134","Douglasville","GA","Russell Sales and Marketing LLC","12461 Veterans Memorial Hwy Ste 586","30134",33.7425995,-84.7775685
"30135","Douglasville","GA","Kroger","3251 Highway 5","30135",33.7194216,-84.765865
"30135","Douglasville","GA","Publix","5370 Highway 92","30213",33.61230637838724,-84.61001627201904
"30135","Douglasville","GA","Kroger","3875 Chapel Hill Rd","30135",33.6998526,-84.718422
"30135","Douglasville","GA","Publix","3316 Highway 5","30135",33.71475538775365,-84.76622419148948
"30135","Douglasville","GA","Food Depot","not_available","30135",33.70656150372708,-84.7779645825797
"30135","Douglasville","GA","Publix","4300 Chapel Hill Rd","30135",33.68878285771425,-84.71496114739423
"30135","Douglasville","GA","Shops at Hampton Oaks","7580 Springbox Dr","30213",33.640068902729794,-84.63774936441808
"30143","Jasper","GA","Walmart Supercenter","1100 Old Philadelphia Rd","30143",34.47579699045171,-84.4604361397319
"30143","Jasper","GA","Kroger","115 Bill Wigington Pkwy","30143",34.46682656644933,-84.46208520304853
"30143","Jasper","GA","Georgia Delivers","2558 Pleasant Hill Rd","30175",34.504961,-84.521756
"30144","Kennesaw","GA","Kroger","3895 Cherokee St NW","30144",34.04871,-84.6029776
"30144","Kennesaw","GA","Whole Foods Market","1300 Ernest Barrett Parkway","30144",33.99766848518044,-84.5894846074236
"30144","Kennesaw","GA","Publix","1635 Old 41 Hwy NW","30152",33.99367200221201,-84.5991206886566
"30153","Rockmart","GA","Walmart Supercenter","1801 Nathan Dean Byp","30153",34.01298931366667,-85.03041990777557
"30153","Rockmart","GA","Ingles","1100 Nathan Dean Byp","30153",34.00904812016219,-85.0409591322371
"30153","Rockmart","GA","Yorkville market","not_available","30157",33.928,-84.996509
"30153","Rockmart","GA","Triangle Foods","Rockmart, GA","30153",34.011369783226904,-85.04397569657333
"30157","Dallas","GA","Publix","7953 Villa Rica Hwy","30157",33.809093834389145,-84.88649981418276
"30157","Dallas","GA","Food Depot","2985 Villa Rica Hwy Ste G","30157",33.868305600764394,-84.84037202093224
"30157","Dallas","GA","Publix Supermarket","East Paulding drive","30157",33.842222222222226,-84.97888888888889
"30161","Rome","GA","Walmart Supercenter","2510 Redmond Cir Nw","30165",34.275068812117674,-85.23013003412474
"30161","Rome","GA","Kroger","1476 Turner McCall Blvd SW","30161",34.2486968,-85.1635146
"30161","Rome","GA","Publix Super Market at Charles Hight Square","435 Turner McCall Blvd NE","30165",34.261561345728445,-85.17766365701203
"30161","Rome","GA","Walmart Supercenter","825 Cartersville Hwy Se","30161",34.22102479,-85.1309469
"30161","Rome","GA","ALDI","836 Turner McCall Blvd SW","30161",34.25966180812662,-85.16724274323678
"30161","Rome","GA","Save-A-Lot","2527 Redmond Dr","30165",34.272131745579685,-85.22786572034758
"30161","Rome","GA","Kroger","Martha Berry Blvd.","30165",34.258405520313374,-85.16944123483681
"30161","Rome","GA","Save A Lot","2527 Redmond Cir NW","30165",34.2722024,-85.2277029
"30161","Rome","GA","La Mexicana Supermarket","not_available","30165",34.271687,-85.22741998776804
"30161","Rome","GA","J's Salvage Grocery","1301 Shorter Ave SW","30165",34.267826080322266,-85.2103042602539
"30176","Tallapoosa","GA","Piggly Wiggly","1-139 Dewey St","30176",33.743713,-85.28273659
"30179","Temple","GA","Walmart Supercenter","600 Carrollton Villa Rica Hwy","30180",33.7199663063849,-84.93511461101723
"30179","Temple","GA","Publix","2000 Mirror Lake Blvd","30180",33.733368824902264,-84.89919821492606
"30179","Temple","GA","Ingles","488 Carrollton St","30179",33.72332275888208,-85.02675703659528
"30179","Temple","GA","Ingles Market","98 Highway 61 Connector","30180",33.72713498622255,-84.9386039780406
"30179","Temple","GA","Super Foods","261 Sage St","30179",33.737351866666664,-85.0327
"30179","Temple","GA","Ingles","not_available","30180",33.73707359816842,-84.99893120504893
"30179","Temple","GA","Kroger","ridge road","30180",33.75179456666667,-84.93100708333333
"30188","Woodstock","GA","Walmart Supercenter","12182 Highway 92","30188",34.08457832395635,-84.48132884548306
"30188","Woodstock","GA","Publix","12165 Highway 92","30188",34.08941116108765,-84.48401784355775
"30188","Woodstock","GA","Kroger","12050 Highway 92 Ste 112","30188",34.0867053,-84.4863511
"30188","Woodstock","GA","Baxter Grocery","14865 Highway 92","30188",34.07774329323848,-84.43929947151587
"30188","Woodstock","GA","Aldi","200 W Village Dr","30188",34.08838619655308,-84.46920857594705
"30188","Woodstock","GA","Sam's Paradise Vape & CBD","14865 Highway 92 Suite 5","30188",34.077740722865386,-84.43886876106262
"30189","Woodstock","GA","Sprouts Farmers Market","1430 Towne Lake Pkwy","30189",34.10619593868002,-84.54003497958183
"30204","Barnesville","GA","Ingles Supermarket","Hwy 18","30204",33.044459817544194,-84.17218932349327
"30204","Barnesville","GA","Flash Foods","771 US Hwy # 341","30204",33.03876681739178,-84.16410125693342
"30204","Barnesville","GA","Giant Mart","not_available","30204",33.052574,-84.161237
"30204","Barnesville","GA","Dollar General","not_available","30233",33.176646949233835,-84.01932674012836
"30204","Barnesville","GA","Sweet Basil Farms","898 Johnstonville Rd","30204",33.077613830566406,-84.09003448486328
"30204","Barnesville","GA","Red & White Food Store","Main St.","not_available",33.11709213256836,-84.19615936279297
"30204","Barnesville","GA","food depot","not_available","30224",33.052465251374514,-84.15902962535861
"30205","Brooks","GA","Kate's Mercantile","not_available","30205",33.29016589810934,-84.45914451347544
"30213","Fairburn","GA","Publix","3730 Carmia Dr SW Ste 200","30331",33.65619973224598,-84.51078007336898
"30213","Fairburn","GA","Walmart Supercenter","6149 Old National Hwy","30349",33.58721260064573,-84.4716085419991
"30213","Fairburn","GA","Kroger","4550 Jonesboro Rd","30291",33.5664406,-84.5374612
"30213","Fairburn","GA","Kroger","6055 Old National Hwy","30349",33.5902074,-84.4704369
"30213","Fairburn","GA","Walmart Supercenter","4735 Jonesboro Rd","30291",33.57234752,-84.54179049
"30213","Fairburn","GA","Young's Super Market","3840 Stonewall Tell Rd","30349",33.65059456135868,-84.59450103883239
"30213","Fairburn","GA","Food Depot","80 NW Broad St","30213",33.56828623976855,-84.57960253408545
"30213","Fairburn","GA","Super Value Supermarket","2467 herschel road","30337",33.63568222847273,-84.47025566738378
"30213","Fairburn","GA","Piggly Wiggly","506 Center St","30268",33.519459000000005,-84.669285
"30213","Fairburn","GA","Kansato Mart","5157 Old National Hwy","30349",33.6147113,-84.4735798
"30213","Fairburn","GA","Town & Country Food Mart","3391 Fairburn Rd SW","30331",33.66355597874918,-84.52368063798514
"30213","Fairburn","GA","South East Meats","4185","30032",33.566466268479296,-84.52149952181092
"30213","Fairburn","GA","Wayfield Foods, Inc.","3435 Roosevelt HWY.","30349",33.62272014249774,-84.50142703125019
"30213","Fairburn","GA","ALDI","4670 Jonesboro Rd","30291",33.569373988685,-84.54318973739346
"30214","Fayetteville","GA","Kroger","805 Glynn St S Ste 117","30214",33.4327651,-84.4584484
"30214","Fayetteville","GA","Walmart Supercenter","125 Pavilion Pkwy","30214",33.481254225324214,-84.44310818475063
"30214","Fayetteville","GA","Publix","108 Pavilion Pkwy","30214",33.4787458349002,-84.43851863691641
"30214","Fayetteville","GA","Publix","130 Peachtree East Shopping Ctr #4","30269",33.42355102978163,-84.55715122180744
"30214","Fayetteville","GA","Publix","840 Glynn St S","30214",33.43079782151886,-84.4550322480444
"30214","Fayetteville","GA","Kroger","134 Banks Xing","30214",33.4691085,-84.448665
"30214","Fayetteville","GA","Eden Fresh","12160 County Line Rd","30215",33.42665744593646,-84.40135100418834
"30214","Fayetteville","GA","Aldi","1060 Highway 85 N","30214",33.4724268,-84.4446435
"30214","Fayetteville","GA","Little Giant Farmer's Market","7535 Highway 85","30274",33.54948652680406,-84.4169042392395
"30214","Fayetteville","GA","Ingles","135 Highway 92 S","30215",33.42837297001392,-84.45534316264609
"30214","Fayetteville","GA","Food Depot","200 Banks Sta","30214",33.46781096732378,-84.44498601201417
"30214","Fayetteville","GA","el progresso #5","Hwy 85","30274",33.53267928500738,-84.4179615679189
"30215","Fayetteville","GA","Publix","1200 Highway 74 S Ste 20","30269",33.34266505732785,-84.53659196620427
"30217","Franklin","GA","Flash Foods","1825 Franklin Pkwy","30217",33.27765655517578,-85.0998764038086
"30220","Grantville","GA","Ingles","1890 E Main St","30230",33.162308743976205,-84.87212867198966
"30220","Grantville","GA","Ingles Correct Location","Hogansville, GA","30230",33.173269282093365,-84.90163871831365
"30222","Greenville","GA","Food Lion","487 Hwy N","30263",33.047555,-84.719578
"30222","Greenville","GA","Piggly Wiggly","567 S Talbotton St","30222",33.02608108520508,-84.71238708496094
"30223","Griffin","GA","Kroger","1524 Georgia Highway 16 W","30223",33.24561,-84.2940187
"30223","Griffin","GA","Walmart Supercenter","1569 N Expressway","30223",33.27255156858432,-84.29630064581367
"30223","Griffin","GA","Easy Shop Supermarket","375 N 13th St","30223",33.25383760008859,-84.27401053963015
"30223","Griffin","GA","Kroger","100 Spalding Vlg","30223",33.24800109863281,-84.24762725830078
"30223","Griffin","GA","Food Depot","1227 Taylor","30223",33.24780451309629,-84.28254238602528
"30223","Griffin","GA","Phillips Food Pride","not_available","30223",33.2537981212467,-84.26304234143038
"30223","Griffin","GA","ALDI","1418 Georgia Highway 16 W","30223",33.2467061,-84.2883342
"30224","Griffin","GA","Ingles","1735 Zebulon Rd","30224",33.194805535207394,-84.2862344067772
"30224","Griffin","GA","Publix - Lovejoy","Highway 19/41","not_available",33.21300415,-84.15103751
"30228","Hampton","GA","Kroger","10375 Tara Blvd","30236",33.4723078,-84.3382241
"30228","Hampton","GA","Walmart Supercenter","11465 Tara Blvd","30250",33.44254322,-84.32496071
"30228","Hampton","GA","ALDI","11499 Tara Blvd","30250",33.44180239045355,-84.32287931442261
"30228","Hampton","GA","Publix","11155 Tara Blvd","30228",33.449743361883165,-84.32721257430546
"30228","Hampton","GA","Snapper Food of Choice","10159 Tara Blvd","30236",33.477646,-84.338625
"30233","Jackson","GA","Walmart Supercenter","4949 Bill Gardner Pkwy","30248",33.35791332144236,-84.12040353395257
"30233","Jackson","GA","Ingles","4920 Bill Gardner Pkwy","30248",33.35263871914594,-84.11883107603484
"30233","Jackson","GA","Publix","920 Highway 81 E","30252",33.437028266753536,-84.12133812904356
"30233","Jackson","GA","Ingles","1101-1137 W 3rd St","30233",33.29365293654949,-83.98472733487067
"30233","Jackson","GA","Grocery Store","not_available","30252",33.43787384033203,-84.12020111083984
"30233","Jackson","GA","Piggly Wiggly","1010 E 3rd St","30233",33.293861389160156,-83.95509338378906
"30236","Jonesboro","GA","Walmart Supercenter","6065 Jonesboro Rd","30260",33.58969991,-84.33959229
"30236","Jonesboro","GA","Kroger","5664 Jonesboro Rd","30260",33.5999775,-84.3370299
"30236","Jonesboro","GA","Kroger","3618 Highway 138 SE","30281",33.550301,-84.2713876
"30236","Jonesboro","GA","Publix","2035 Mount Zion Rd","30260",33.561953990245506,-84.32463509966912
"30236","Jonesboro","GA","Ingles","3701 Walt Stephens Rd","30281",33.52926705455569,-84.27277985635142
"30236","Jonesboro","GA","Kroger","8059 Tara Blvd","30236",33.5342498,-84.3667526
"30236","Jonesboro","GA","Wayfield Foods, Inc","8777 Tara Blvd","30236",33.515981002479755,-84.36473356377242
"30236","Jonesboro","GA","Little Giant Farmer's Market","399 Upper Riverdale Rd","30236",33.5823857288338,-84.380031413494
"30236","Jonesboro","GA","Lidl","8155 Tara Blvd","30236",33.530373,-84.364252
"30236","Jonesboro","GA","Food Depot","760 Morrow Rd","30297",33.59086453914642,-84.3648236989975
"30236","Jonesboro","GA","ALDI","615 North Ave","30236",33.5341018042861,-84.36979115009308
"30236","Jonesboro","GA","Food Depot","6459 Highway 42","30273",33.57627099203486,-84.28083314661264
"30236","Jonesboro","GA","Carneceria Garcia 2","30 Highway 138 W","30281",33.554658,-84.260447
"30236","Jonesboro","GA","El Granero Taqueria","not_available","30297",33.60016179580872,-84.37846917248977
"30236","Jonesboro","GA","Carniceria Y Tienda El Progresso","not_available","30236",33.550589305824126,-84.36906035970662
"30236","Jonesboro","GA","Walmart Grocery Pickup and Delivery","5600 N Henry Blvd","30281",33.5528974439189,-84.2587602399562
"30236","Jonesboro","GA","Savealot Food Stores","2324 Lake Harbin Rd","30260",33.583160400390625,-84.31433868408203
"30236","Jonesboro","GA","adelita","not_available","30260",33.56908416748047,-84.31333923339844
"30240","Lagrange","GA","Walmart Supercenter","803 New Franklin Rd","30240",33.06002649622626,-85.0309406321066
"30240","Lagrange","GA","ALDI","427 New Franklin Rd","30240",33.05131730481591,-85.02950727939606
"30240","Lagrange","GA","Walmart Neighborhood Market","955 Lafayette Parkway","30241",33.03996630759491,-85.01223261849172
"30240","Lagrange","GA","Publix","139 Commerce Ave","30241",33.050518747667056,-85.02415288032213
"30240","Lagrange","GA","Kroger","203 Commerce Ave Ste A","30241",33.050715122464034,-85.02183349462939
"30240","Lagrange","GA","Discount Grocery","1625-1651 Whitesville Rd","30240",33.012006222017334,-85.02905285812577
"30240","Lagrange","GA","Givron's Food","not_available","31833",32.9319124396255,-85.14425736111426
"30240","Lagrange","GA","Food depot","Hogansville rd","30241",33.06340237,-85.02730744
"30240","Lagrange","GA","ribits","not_available","30240",33.00071716308594,-85.13790893554688
"30240","Lagrange","GA","Piggly Wiggly","1861 Roanoke Rd","30240",33.03192751048825,-85.07028961579432
"30241","Lagrange","GA","Food Center","not_available","30241",33.040394,-84.964986
"30248","Locust Grove","GA","Publix","2730 Highway 155","30248",33.36581184698578,-84.18108331561038
"30248","Locust Grove","GA","Publix","2158 Highway 20 W","30253",33.41351449717471,-84.20215685144693
"30252","Mcdonough","GA","Kroger","5900 East Lake Pkwy","30253",33.5061099261313,-84.14358827734401
"30252","Mcdonough","GA","Food Depot","2600 Highway 138 E","30281",33.5835056152436,-84.15067090765648
"30252","Mcdonough","GA","Food Depot","not_available","30253",33.432686049949425,-84.14457278267618
"30253","Mcdonough","GA","Walmart Supercenter","1400 Hudson Bridge Rd","30281",33.50727842885444,-84.23516795431875
"30253","Mcdonough","GA","Kroger","301 Jonesboro Rd","30253",33.45265013956083,-84.16959848630523
"30253","Mcdonough","GA","Walmart Supercenter","135 Willow Ln","30253",33.43263711841457,-84.18483878832566
"30253","Mcdonough","GA","Publix","909 Eagles Landing Pkwy Ste 300","30281",33.51075366676933,-84.21977928463463
"30253","Mcdonough","GA","Kroger","1750 Hudson Bridge Rd","30281",33.502951,-84.2439898
"30253","Mcdonough","GA","Aldi Food Market","450 Jonesboro Rd","30253",33.458269198454886,-84.17294383049017
"30260","Morrow","GA","Lake City International Farmers Market","5226 Jonesboro Rd","30260",33.61272024141653,-84.34791402969691
"30260","Morrow","GA","Hong Phat Market","5300-5372 Georgia 54","30260",33.61065812183579,-84.34719306106572
"30263","Newnan","GA","Kroger","1751 Newnan Crossing Blvd E","30265",33.3773244,-84.7521408
"30263","Newnan","GA","Walmart Supercenter","1025 Highway 34 E","30265",33.393877221409106,-84.74363801659679
"30263","Newnan","GA","Publix","1111 Lower Fayetteville Rd","30265",33.37426908549089,-84.75273108709126
"30263","Newnan","GA","Publix","1688-1736 Lower Fayetteville Rd","30265",33.37919200364479,-84.72776826458019
"30263","Newnan","GA","Little Giant Farmer's Market","not_available","30263",33.399726256741964,-84.79385557997173
"30263","Newnan","GA","Publix","370 Bullsboro Dr","30263",33.3958658302318,-84.7638089917932
"30263","Newnan","GA","Kroger","48 Bullsboro Dr","30263",33.38479792333934,-84.7876524925232
"30263","Newnan","GA","ALDI","1064 Highway 34 E","30265",33.39859982123679,-84.74460438655115
"30263","Newnan","GA","Oriental Marketplace","1485 Highway 34 E Ste 3C","30265",33.398633448415204,-84.73132942359337
"30263","Newnan","GA","Simply Natures Pure LLC","8 The Grn Ste 8069","19901",33.4112512,-84.7939123
"30263","Newnan","GA","5 Points Grocery","East Newnan Rd","Ga",33.36340021022972,-84.77954348849181
"30265","Newnan","GA","Kroger","3150 Highway 34 E","30265",33.40939995811942,-84.67951023762305
"30265","Newnan","GA","Publix","100 Glenda Trce","30265",33.41027899381359,-84.68768360268504
"30265","Newnan","GA","Flash Foods","3096 Highway 34 E","30265",33.40858177898949,-84.68198319899771
"30265","Newnan","GA","Hall's Grocery","not_available","30277",33.45266229849514,-84.65702345139036
"30268","Palmetto","GA","Fern's Market","not_available","30268",33.51715,-84.733783
"30268","Palmetto","GA","D J's Grocery II","504 Main St","30268",33.50872802734375,-84.67157745361328
"30269","Peachtree City","GA","Walmart Supercenter","2717 Highway 54","30269",33.400918726791126,-84.60006469685844
"30269","Peachtree City","GA","Kroger","1101 N Peachtree Pkwy","30269",33.4390197,-84.5887828
"30269","Peachtree City","GA","Kroger","564 Crosstown Dr","30269",33.3769829,-84.5642334
"30269","Peachtree City","GA","ALDI","2709 Highway 54","30269",33.39768826715334,-84.59826707839966
"30269","Peachtree City","GA","The Fresh Market","100 N Peachtree Pkwy,","30269",33.40914755009693,-84.56903383103953
"30269","Peachtree City","GA","Sprouts Farmers Market","2015 E Highway 54","30269",33.4194924,-84.5602983
"30269","Peachtree City","GA","Kroger Grocery Pickup and Delivery","1017 N Peachtree Pkwy","30269",33.44067693837442,-84.58970035478724
"30269","Peachtree City","GA","La Mexicana","332 Willow Bend Rd","30269",33.3991465237134,-84.58686163767413
"30274","Riverdale","GA","Walmart Supercenter","7050 Highway 85","30274",33.56269165871536,-84.41090488697905
"30274","Riverdale","GA","Kroger","7125 Highway 85","30274",33.5604164,-84.4157531
"30274","Riverdale","GA","Super H Mart","6335 Highway 85","30274",33.582775711084466,-84.4123694642863
"30274","Riverdale","GA","Food Depot","514 Valley Hill Rd SE","30274",33.57335911476014,-84.41060279188241
"30274","Riverdale","GA","Sunbeam Discount Bakery Store","GA85","30274",33.57292880085648,-84.41193962684308
"30276","Senoia","GA","Williams Grocery","not_available","30276",33.224163,-84.574439
"30276","Senoia","GA","Crooks Marketplace","5 Broad St","30276",33.29712418502365,-84.55452949771349
"30276","Senoia","GA","Williams Store","3749-3783 Georgia 74","30276",33.22623136920805,-84.57168102264404
"30277","Sharpsburg","GA","Publix","1512 Highway 74 N","30290",33.48823170099221,-84.58666733614068
"30281","Stockbridge","GA","Publix","250 E Atlanta Rd","30281",33.55484526145047,-84.23273516362129
"30281","Stockbridge","GA","Ingles","100 Fairview Rd","30294",33.621766697317426,-84.2373870119073
"30281","Stockbridge","GA","Walmart Supercenter","2940 Anvil Block Rd","30294",33.63611801061008,-84.29310059411748
"30281","Stockbridge","GA","Kroger","101 Fairview Rd","30294",33.6196806,-84.2390964
"30281","Stockbridge","GA","Food Depot","not_available","30281",33.54372469666896,-84.23400382870203
"30281","Stockbridge","GA","Aldi","5420 N Henry Blvd","30281",33.5510362132277,-84.25505697727203
"30281","Stockbridge","GA","Publix","East atlanta rd","30281",33.574706567556596,-84.21255641352813
"30286","Thomaston","GA","Walmart Supercenter","855 N Church St","30286",32.91271901296686,-84.33357774623997
"30286","Thomaston","GA","Ingles","not_available","30286",32.90496553845357,-84.32851304908853
"30286","Thomaston","GA","Flash Foods","1501 Highway 19 N","30286",32.93507373598874,-84.33414789588612
"30288","Conley","GA","Commissary","N E Ave","not_available",33.62426829319226,-84.32856559753418
"30290","Tyrone","GA","India Stop Shop","54 Carriage Oaks Dr","30290",33.48963928222656,-84.58386993408203
"30293","Woodbury","GA","Ingles Market","10771-11263 Georgia 74","30293",32.98497643356224,-84.57277140974155
"30297","Forest Park","GA","Market Grocery Co.","7th St","30297",33.619664649458485,-84.3887932120475
"30297","Forest Park","GA","Piggly Wiggly","4769 Jonesboro Rd","30297",33.625423431396484,-84.35570526123047
"30297","Forest Park","GA","Brito Supermarket","5000 Old Dixie Hwy","30297",33.618163,-84.382773
"30297","Forest Park","GA","carniceria garcia 1","4325 Jonesboro Rd","30297",33.63580206789464,-84.35970138780232
"30297","Forest Park","GA","Peachy's Peaches","not_available","30354",33.644041098696725,-84.39971944802052
"30303","Atlanta","GA","Intown Market","349 Decatur St SE","not_available",33.750025456312116,-84.37691880213258
"30303","Atlanta","GA","northside grocery","48 Northside Dr SW","30313",33.75364685058594,-84.40249633789062
"30303","Atlanta","GA","Dixie News","13 Decatur St SE","30303",33.753868103027344,-84.38935089111328
"30303","Atlanta","GA","Bilo","not_available","30313",33.76258850097656,-84.39457702636719
"30303","Atlanta","GA","Farmer's Basket Peachtree Center","not_available","30303",33.76154830876982,-84.38777384732936
"30305","Atlanta","GA","Whole Foods Market","77 West Paces Ferry Rd Nw","30305",33.84081268544798,-84.38153543219023
"30305","Atlanta","GA","Kroger","2452 Morosgo Way NE","30324",33.8226543,-84.3659963
"30305","Atlanta","GA","Kroger","3330 Piedmont Rd NE","30305",33.8455304,-84.3744744
"30305","Atlanta","GA","Trader Joe's","3183 Peachtree Rd","30305",33.84093326253034,-84.37483913388071
"30305","Atlanta","GA","Publix","2365 Peachtree Rd NE","30305",33.820636706182164,-84.38660508005509
"30305","Atlanta","GA","Publix","2900 Peachtree Rd NW","30305",33.83495327385137,-84.38326123789497
"30305","Atlanta","GA","Publix","2020 Howell Mill Rd NW Ste A","30318",33.8100301164922,-84.41445376544075
"30305","Atlanta","GA","ALDI","3221 Peachtree Rd NE Ste 101","30305",33.8409643,-84.3731649
"30305","Atlanta","GA","The Fresh Market","2099 Peachtree Rd NW","30309",33.81216990221935,-84.39177338705258
"30305","Atlanta","GA","Powers Ferry Square","3714 Roswell Rd NE","30342",33.85776057982644,-84.3828535079956
"30305","Atlanta","GA","Main Street Market Deli","546 Main St NE","30324",33.822632563438326,-84.36932273396536
"30306","Atlanta","GA","Kroger","725 Ponce de Leon Ave NE","30306",33.771643,-84.3633882
"30306","Atlanta","GA","Whole Foods Market","650 Ponce De Leon Ave Ne","30308",33.7750564038243,-84.36608201998715
"30306","Atlanta","GA","Trader Joe's","931 Monroe Dr","30308",33.77962484449945,-84.36798914378377
"30306","Atlanta","GA","Publix","1001 Ponce de Leon Ave NE","30306",33.77317202875259,-84.35435329818934
"30306","Atlanta","GA","Kroger","1799 Briarcliff Rd NE","30306",33.8041017,-84.3362562
"30306","Atlanta","GA","Candler Park Market","1642 McLendon Ave NE","30307",33.764944498584654,-84.33357064846263
"30306","Atlanta","GA","Sprouts Farmers Market","1845 Piedmont Ave NE, Ste 500","30324",33.806575913051525,-84.36618939047554
"30306","Atlanta","GA","Sevananda Natural Foods","467 Moreland Ave NE","30307",33.767236754533556,-84.34879959438645
"30307","Atlanta","GA","Kroger","1225 Caroline St NE","30307",33.75606575259488,-84.34807218605783
"30307","Atlanta","GA","Savi Urban Market","287 Elizabeth St NE","30307",33.76232335433332,-84.35789963508273
"30307","Atlanta","GA","Family Food Store","69 Mayson Ave NE","30307",33.754029286148715,-84.33841100274958
"30308","Atlanta","GA","Publix","950 W Peachtree St NW","30309",33.78034577770856,-84.38877808929804
"30308","Atlanta","GA","Publix","595 Piedmont Ave NE","30308",33.77017323211678,-84.38134903277874
"30308","Atlanta","GA","710 Peachtree Grocery","not_available","30308",33.77425478166149,-84.3846587668737
"30308","Atlanta","GA","Peachtree Superette","75 Ponce de Leon Ave NE","30308",33.772009000000004,-84.384281
"30308","Atlanta","GA","Tommy Grocery","620 Peachtree St NE","30308",33.771565,-84.38561899999999
"30308","Atlanta","GA","L & M Foodmart","785 Argonne Ave NE","30308",33.77604293823242,-84.37739562988281
"30309","Atlanta","GA","Kroger","1700 Monroe Dr NE","30324",33.800515,-84.3726958
"30309","Atlanta","GA","Whole Foods Market","22 14th Street Nw","30309",33.78625343516656,-84.3886915145786
"30309","Atlanta","GA","Publix","1544 Piedmont Ave NE","30324",33.79924546363932,-84.37163683756378
"30309","Atlanta","GA","Publix","1380 Atlantic Dr NW Ste 14135","30363",33.79269206269792,-84.39750971682365
"30309","Atlanta","GA","Darlington Grocery","2025 Peachtree Rd NE","30309",33.80977502598447,-84.39201255535104
"30309","Atlanta","GA","E Z Mart","1545 Northside Dr NW","30318",33.797142028808594,-84.40741729736328
"30309","Atlanta","GA","1 Healthy Drink - RhodiGandha","170 Peachtree Street Northeast","30303",33.78715331,-84.38335012
"30309","Atlanta","GA","EZ Mart","Northside Drive","not_available",33.79703949730782,-84.40769009457291
"30310","Atlanta","GA","Kroger","590 Cascade Ave SW","30310",33.7374553,-84.4335873
"30310","Atlanta","GA","Westview Corner Grocery","1562 Ralph David Abernathy Blvd SW","30310",33.743937,-84.438763
"30310","Atlanta","GA","Wayfield Foods","1901 Metropolitan Pkwy SW","30315",33.703460693359375,-84.41001892089844
"30310","Atlanta","GA","Big Bear Foods","683 Joseph E Lowery Blvd SW","30310",33.736575896999,-84.41812947214204
"30310","Atlanta","GA","Hardy's Market","516 Lee St SW","30310",33.740891999999995,-84.413285
"30310","Atlanta","GA","Super Giant","1788-1854 Delowe Dr","30311",33.705643961128025,-84.45688409894922
"30310","Atlanta","GA","Save-A-Lot","854 Oak St","30310",33.73995513146017,-84.4161430722204
"30310","Atlanta","GA","Fort McPherson Commissary","329 Walker Dr","not_available",33.7048492228769,-84.43161407834005
"30310","Atlanta","GA","Big 4 discount supermarket","1003 McDaniel St SW","30310",33.727565000000006,-84.401923
"30311","Atlanta","GA","Kroger","3425 Cascade Rd SW","30311",33.72427942898051,-84.49911117553711
"30311","Atlanta","GA","Kroger","3030 Headland Dr SW","30311",33.6871066,-84.4878563
"30311","Atlanta","GA","Wayfield Foods, Inc.","2020 Headland Dr","30344",33.688125258772004,-84.45493095479713
"30311","Atlanta","GA","Publix","not_available","30344",33.68594462261634,-84.4557871770026
"30311","Atlanta","GA","Wayfield Grocery","3050 MLK JR DR SW ATLANTA GA 30311","30311",33.75047,-84.48599
"30311","Atlanta","GA","Wayfield Foods, Inc","3050 Martin Luther King Jr Dr SW Ste H","30311",33.75058334311722,-84.48661905288343
"30312","Atlanta","GA","Kroger","800 Glenwood Ave SE","30316",33.7424158,-84.3602101
"30312","Atlanta","GA","Little's Food Store","198 Carroll St SE","30312",33.749207218728074,-84.36804343962571
"30312","Atlanta","GA","Carver Neighborhood Market","1297 Jonesboro Rd SE","30315",33.719011,-84.385274
"30312","Atlanta","GA","Third St. Goods","not_available","30315",33.725266,-84.3773
"30314","Atlanta","GA","Walmart Supercenter","835 Martin Luther King Jr Drive Nw","30314",33.755673155030024,-84.41390350788798
"30314","Atlanta","GA","Your Supermarket","766 Joseph E Boone Blvd NW","30314",33.763298,-84.412463
"30314","Atlanta","GA","Shopper's Supermarket","735 Joseph E Boone Blvd NW","30314",33.763702392578125,-84.41142272949219
"30315","Atlanta","GA","Kroger","1160 Moreland Ave SE","30316",33.7223797,-84.3478375
"30315","Atlanta","GA","Walmart Supercenter","844 Cleveland Avenue","30344",33.67859509998037,-84.41657715737257
"30315","Atlanta","GA","Kroger","2685 Metropolitan Pkwy SW","30315",33.6828334,-84.4091471
"30315","Atlanta","GA","Aldi","1461 Moreland Ave SE","30316",33.71372259078732,-84.35020164416528
"30315","Atlanta","GA","Attic Close Out","1251 Custer Ave SE","30316",33.715562,-84.3487427
"30315","Atlanta","GA","Piggly Wiggly","not_available","30316",33.720397999999996,-84.350432
"30315","Atlanta","GA","Super Giant Foods","1432 Moreland Ave SE","30316",33.712154388427734,-84.3482666015625
"30315","Atlanta","GA","Piggly Wiggly","230 Cleveland Ave SW","30315",33.67965866112728,-84.3963004335726
"30315","Atlanta","GA","GNT Foods","874 Cleveland Ave","30344",33.680834000000004,-84.417797
"30316","Atlanta","GA","Publix","905 Memorial Dr SE","30316",33.745663,-84.357185
"30316","Atlanta","GA","Discount Food Market","886 Bouldercrest Dr SE","30316",33.730498444682176,-84.33571449498768
"30316","Atlanta","GA","East Atlanta Supermarket","1358 Glenwood Ave SE","30316",33.740384000000006,-84.34316700000001
"30316","Atlanta","GA","GBG Market","2033 Hosea L Williams Dr SE","30317",33.751071,-84.321362
"30318","Atlanta","GA","Kroger","1715 Howell Mill Rd NW","30318",33.80175542237779,-84.41253753038836
"30318","Atlanta","GA","Walmart Supercenter","1801 Howell Mill Rd Nw","30318",33.80300323,-84.41211641
"30318","Atlanta","GA","Publix","Bolton Rd.","30318",33.819666303723146,-84.45060154062435
"30318","Atlanta","GA","Super Giant Food","2176 Donald L Hlwl Pkwy NW","30318",33.775560999999996,-84.45701
"30318","Atlanta","GA","Pic N Pay","Donald lee hollowell pkwy","30318",33.77057104934618,-84.46747807672547
"30318","Atlanta","GA","Hardy's Meat Market & Fresh Produce","Lee St.","30310",33.796453614032046,-84.41247824125578
"30318","Atlanta","GA","M Street Corner Market","950 Marietta st","not_available",33.77728356452913,-84.40843043778646
"30318","Atlanta","GA","Elephant Grocers","2194 Marietta Blvd NW","30318",33.814634999999996,-84.442862
"30318","Atlanta","GA","Kroger","South Atlanta Rd","not_available",33.81668477543417,-84.45020485866455
"30319","Atlanta","GA","Walmart Supercenter","1871 Chamblee Tucker Rd","30341",33.88877585852561,-84.310952239771
"30319","Atlanta","GA","Whole Foods Market","5001 Peachtree Boulevard","30341",33.885099407367754,-84.31429311985629
"30319","Atlanta","GA","Kroger","3871 Peachtree Rd NE","30319",33.8564685,-84.3449999
"30319","Atlanta","GA","Publix","1100 Hammond Dr Ste 300","30328",33.91973643684718,-84.35254237396596
"30319","Atlanta","GA","Publix","104 Town Blvd NE Ste A100","30319",33.870076165321166,-84.33472232916111
"30319","Atlanta","GA","Kroger","3855 Buford Hwy NE","30329",33.8553124,-84.3136295
"30319","Atlanta","GA","Publix","3435 Ashford Dunwoody Rd NE","30319",33.89066662437509,-84.32496811260341
"30319","Atlanta","GA","CT Farmers Market","3317 Buford Hwy NE #410","30329",33.841852907602934,-84.32584916107706
"30319","Atlanta","GA","Aldi","3963 Buford Hwy NE","30345",33.85804479943647,-84.3103963136673
"30319","Atlanta","GA","Mexikroger","not_available","30329",33.85479775576454,-84.31470320544484
"30319","Atlanta","GA","Carniceria Hispana","3259 Buford Hwy NE","30329",33.8422737121582,-84.32872009277344
"30319","Atlanta","GA","G Mart","3345 Buford Hwy NE","30329",33.843196868896484,-84.32769012451172
"30319","Atlanta","GA","Kroger","2036 Johnson Ferry Rd NE","30319",33.89453575266684,-84.33042438360644
"30324","Atlanta","GA","Brighten Park","2470-2490 Briarcliff Rd NE","30329",33.8274512,-84.3323859
"30324","Atlanta","GA","Publix","2325 Cheshire Bridge Rd NE","30324",33.818220522930105,-84.34939204523512
"30324","Atlanta","GA","Lidl","Briarcliff Road NE 2480","30329",33.827934,-84.333246
"30324","Atlanta","GA","Mercado Acapulco y Taqueria","2179 Cheshire Bridge Rd NE","30324",33.814349,-84.353091
"30324","Atlanta","GA","Whole Foods Market","2111 Briarcliff Rd NE","30329",33.815909,-84.333548
"30326","Atlanta","GA","Publix","3535 Peachtree Rd NE","30326",33.851034830733646,-84.35976471677975
"30327","Atlanta","GA","Kroger","3300 Cobb Pkwy SE Ste 100","30339",33.8718435,-84.4578149
"30327","Atlanta","GA","Publix","1250 W Paces Ferry Rd NW","30327",33.848429216019966,-84.42822605352153
"30327","Atlanta","GA","Whole Foods Market","3535 Northside Parkway","30327",33.85028205947959,-84.42954005964054
"30327","Atlanta","GA","Rich Brands, Llc","4760 Merlendale Dr","30327",33.88717269897461,-84.39047241210938
"30328","Atlanta","GA","Kroger","227 Sandy Springs Pl","30328",33.9202831,-84.3814473
"30328","Atlanta","GA","Publix","7525 Roswell Rd","30350",33.96089823540125,-84.36431991119075
"30328","Atlanta","GA","Whole Foods Market","5930 Roswell Rd","30328",33.918090215798536,-84.37961178064018
"30328","Atlanta","GA","Trader Joe's","6277 Roswell Road NE","30328",33.926247668005686,-84.37847910289233
"30328","Atlanta","GA","Publix","6615 Roswell Rd","30328",33.93543000397128,-84.37788405275731
"30328","Atlanta","GA","ALDI","6336 Roswell Rd","30328",33.92805855259034,-84.38038587570185
"30328","Atlanta","GA","Bakkal International Foods","5690 Roswell Rd","30342",33.910304641377735,-84.3788273730462
"30328","Atlanta","GA","Carniceria Los Pinos","6342 Roswell Rd","30328",33.92841481014655,-84.38011051334477
"30328","Atlanta","GA","Tower News","795 Hammond Dr","30328",33.91744773659396,-84.35990890991972
"30331","Atlanta","GA","Publix","3695 Cascade Rd SW","30331",33.724600245453615,-84.50843523550772
"30331","Atlanta","GA","Walmart Supercenter","1105 Research Center Atlanta Drive Sw","30331",33.728371509344846,-84.50773243774465
"30331","Atlanta","GA","Walmart Grocery Pickup and Delivery","1105 Research Center Atlanta D","30331",33.728179,-84.507963
"30337","Atlanta","GA","Wayfield Foods","3465 Main St","30337",33.66088180389718,-84.4475255064712
"30337","Atlanta","GA","Hojeij Branded Foods","6000 N Terminal Pkwy","30320",33.641667205088126,-84.44305830474462
"30337","Atlanta","GA","Corner Market","3332 Colville Ave","30354",33.663286,-84.41813499999999
"30337","Atlanta","GA","Main Street Grocery","not_available","30337",33.661949157714844,-84.4471664428711
"30337","Atlanta","GA","El Progreso #2","1720 Vesta Ave","30337",33.667499337699205,-84.4456781254846
"30338","Atlanta","GA","Walmart Supercenter","4725 Ashford Dunwoody Rd","30338",33.93298870961559,-84.33372375504726
"30338","Atlanta","GA","Target","100 Perimeter Center Pl NE","30346",33.93032607874254,-84.34167232881134
"30338","Atlanta","GA","Kroger","4498 Chamblee Dunwoody Rd","30338",33.9227545,-84.315829
"30338","Atlanta","GA","Publix","5550 Chamblee Dunwoody Rd","30338",33.95064794194596,-84.3376049982595
"30338","Atlanta","GA","Kroger","2090 Dunwoody Club Dr","30350",33.9607412,-84.3010718
"30338","Atlanta","GA","The Fresh Market","5515 Chamblee Dunwoody Rd,","30338",33.948304391358235,-84.33523340479351
"30338","Atlanta","GA","Lidl","2480 Mount Vernon Rd","30338",33.958608,-84.301925
"30338","Atlanta","GA","Atlantis Natural Foods & Cafe","2488 Mount Vernon Rd","30338",33.95868682861328,-84.3016128540039
"30338","Atlanta","GA","Shaklee Distributor - Cre Nicole","541 10th St NW","30318",33.94413,-84.2824
"30338","Atlanta","GA","Dunwoody Hall","5500-5550 Chamblee Dunwoody Rd","30338",33.9506492,-84.3376541
"30338","Atlanta","GA","Williamsburg at Dunwoody","2458-2484 Jett Ferry Rd","30338",33.9584512,-84.3035186
"30338","Atlanta","GA","Atlantis Natural Foods  and  Cafe","2458 Jett Ferry Rd, Suites 230 and 240","30338",33.9668,-84.3249
"30338","Atlanta","GA","Bharath Groceries","4719 Ashford Dunwoody Rd","30338",33.9321403503418,-84.33236694335938
"30340","Atlanta","GA","Super H Mart","6035 Peachtree Rd Ste B","30360",33.90811007029896,-84.2878044200648
"30340","Atlanta","GA","Chicago Supermarket","5263 Buford Hwy NE","30340",33.89546322973721,-84.28137004442993
"30340","Atlanta","GA","Hoa Binh Supermarket","4897 Buford Hwy","30341",33.884439528916566,-84.28741208117677
"30340","Atlanta","GA","Leon International Foods","4000 Pleasantdale Rd Ste A","30340",33.898319244384766,-84.24519348144531
"30340","Atlanta","GA","Carniceria Hispana #1","5079 Buford Hwy NE","30340",33.890552786672856,-84.28514635737895
"30340","Atlanta","GA","Won Won Lobster Market","5269 Buford Hwy NE","30340",33.896064,-84.280862
"30340","Atlanta","GA","Mexican Supermarket","not_available","30360",33.92976995317861,-84.26898140581929
"30340","Atlanta","GA","Java Indonesian Food Mart","5090 Buford Hwy NE Ste 111","30340",33.891455,-84.285852
"30340","Atlanta","GA","Oriental Food Mart","5091 Buford Hwy NE","30340",33.890827681796246,-84.28490988433444
"30340","Atlanta","GA","Bengal Store And Halal Meat","not_available","30341",33.88490734214325,-84.28791199392742
"30340","Atlanta","GA","Viet Tofu","4897 Buford Hwy #125","30341",33.88400258319653,-84.28735839427922
"30340","Atlanta","GA","International Food Store","3651 Shallowford Rd NE","30340",33.89577865600586,-84.28492736816406
"30340","Atlanta","GA","Family Food Store","3252 Shallowford Rd NE","30341",33.882963000000004,-84.285543
"30340","Atlanta","GA","Grocery Plus","5398 Buford Highway NE","30340",33.899517,-84.278547
"30341","Atlanta","GA","Publix","2562 Shallowford Rd NE","30345",33.86267361748772,-84.28782889548653
"30341","Atlanta","GA","Dinho Supermarket of Atlanta","5379 New Peachtree Rd","30341",33.8903348686828,-84.30013439926806
"30341","Atlanta","GA","Mercado Fresco","4166 Buford Hwy NE","30345",33.86239000918915,-84.3083932255441
"30341","Atlanta","GA","Chamblee Food Mart","3250-3252 Chamblee Dunwoody Rd","30341",33.891321999999995,-84.292117
"30341","Atlanta","GA","Bailey International","3900 Green Industrial Way","30341",33.906886,-84.298994
"30341","Atlanta","GA","supermarket latino","Shallowford Rd","30341",33.863991943903955,-84.28401539082063
"30341","Atlanta","GA","talpa","not_available","30345",33.867451639903464,-84.30083372498738
"30342","Atlanta","GA","Kroger","4920 Roswell Rd","30342",33.889787,-84.3833923
"30342","Atlanta","GA","The Fresh Market","4405 Roswell Rd NE,","30342",33.87452189583569,-84.38033110483923
"30342","Atlanta","GA","Sprouts Farmers Market","4600 Roswell Rd, Unit A100","30342",33.881451,-84.380934
"30342","Atlanta","GA","Publix","4279 Roswell Rd NE Ste 300","30342",33.871097303190176,-84.37964447653314
"30344","Atlanta","GA","Piggly Wiggly","3100 Washington Rd","30344",33.67047518913606,-84.46116870758064
"30344","Atlanta","GA","Carniceria Garcia #3","1802 Washington Rd","30344",33.675533,-84.44772900000001
"30349","Atlanta","GA","Wayfield Foods, Inc.","5432 River Station Blvd.","30349",33.60723950118821,-84.4445250651601
"30349","Atlanta","GA","Aldi","5820 Riverdale Rd","30349",33.596486,-84.4279667
"30349","Atlanta","GA","Kom Pong Thom Market","5298 Riverdale Rd","30349",33.61054659390032,-84.43510223372624
"30360","Atlanta","GA","Walmart Neighborhood Market","5025 Winters Chapel Rd","30360",33.942200818669136,-84.27004699635549
"30401","Swainsboro","GA","Walmart Supercenter","414 S Main St","30401",32.588146,-82.330518
"30401","Swainsboro","GA","Harvey's Supermarket","202 S Main St","30401",32.59496656960006,-82.33323282137077
"30401","Swainsboro","GA","Pinetucky Country Meats","not_available","30401",32.596482,-82.33639
"30411","Alamo","GA","Harvey's Supermarket","120 W Oak St","31055",32.07025943165572,-82.90795582589567
"30411","Alamo","GA","Flash Foods","104 East Spring St.","30411",32.1336535,-82.7840314
"30411","Alamo","GA","Flash Foods","805 W. Oak St.","31055",32.06929472535294,-82.908055664382
"30411","Alamo","GA","Piggly Wiggly","Golden Isles Hwy","31055",32.06560714572929,-82.89402951846263
"30415","Brooklet","GA","Ken's IGA","102 US Hwy 80","30415-6108",32.3844580108032,-81.66086725672567
"30415","Brooklet","GA","Save A Lot","1870 Northside Dr E","30458",32.4299967,-81.7337164
"30415","Brooklet","GA","Coastal Meats LLC","23452 US Highway 80 E Ste B","30461",32.429508209228516,-81.74429321289062
"30417","Claxton","GA","Food Fresh","Claxton, GA 30417","30417",32.169711325667066,-81.90047275200581
"30421","Collins","GA","Stewarts IGA","not_available","30453",32.084929248114356,-82.1159211305709
"30421","Collins","GA","Harvey's Supermarket","246 S Main St","30453",32.078259,-82.110415
"30421","Collins","GA","Coffee","246 S Main St, Reidsville, GA 30453","30453",32.078311920166016,-82.11042785644531
"30425","Garfield","GA","Twin City Grocery","not_available","30471",32.58465308249936,-82.15898423176787
"30426","Girard","GA","Jenkins IGA","Charles Perry Ave","30456",32.97663497924805,-81.76272583007812
"30427","Glennville","GA","Piggly Wiggly","312 S Veterans Blvd","30427",31.933151245117188,-81.93089294433594
"30427","Glennville","GA","Glennville Iga","not_available","30427",31.947285,-81.928882
"30428","Glenwood","GA","Flash Foods","101 West 2nd Ave.","30428",32.18127549312816,-82.66537754615152
"30434","Louisville","GA","Flash Foods","Rt. 1 Box 201","30434",33.03135881081081,-82.41903335135135
"30436","Lyons","GA","Reedy Creek Meat Company","204 Washington St","30474",32.216324,-82.402866
"30436","Lyons","GA","Thriftway Galaxy Food Store","178 S Victory Dr","30436",32.1995908,-82.3277909
"30436","Lyons","GA","Walmart Supercenter","3109 E 1st St","30474",32.20301814,-82.36239806
"30436","Lyons","GA","Save A Lot","619A E 1st St","30474",32.2135836,-82.4062316
"30436","Lyons","GA","Bilo","Broadfoot Blvd","30474",32.21173928424713,-82.40072993250402
"30436","Lyons","GA","Flash Foods","201 Smith St","30474",32.212657913122385,-82.40265651356714
"30436","Lyons","GA","Save-A-Lot","619-A  E First St","30474",32.2145462,-82.40618134
"30439","Metter","GA","Bi-Lo","155 S Leroy St","30439",32.39627407770687,-82.0583200801911
"30439","Metter","GA","DR Grocery","not_available","30439",32.393680555555555,-82.05006944444445
"30442","Millen","GA","BiLo","not_available","30442",32.80356994950412,-81.94002205608177
"30445","Mount Vernon","GA","Piglet","not_available","30445",32.178388457698624,-82.59651122443701
"30445","Mount Vernon","GA","Thriftway Galaxy Grocery #2","Railroad Ave","30445",32.17556494692813,-82.59456853723373
"30445","Mount Vernon","GA","Flash Foods","110 West Spring St.","30445",32.1816057858307,-82.60388026443522
"30457","Soperton","GA","Flash Foods","7905 Metter Rd","30457",32.379519255044926,-82.59382417779042
"30457","Soperton","GA","Pinetucky Country Meats","412 Second St","30457",32.381575,-82.58916
"30458","Statesboro","GA","Walmart Supercenter","147 Northside Dr E","30458",32.434202625475585,-81.76042826241387
"30458","Statesboro","GA","Walmart Neighborhood Market","349 Brampton Ave","30458",32.411445305532204,-81.76858017983578
"30458","Statesboro","GA","Aldi Statesboro","not_available","30458",32.429915,-81.758512
"30458","Statesboro","GA","Bi-Lo","Northside Dr","30458",32.437312218458054,-81.76294638679626
"30458","Statesboro","GA","Flash Foods","12440 Hwy 301 West","30458",32.416603174477636,-81.79867235639479
"30458","Statesboro","GA","Food World","620 Fair Rd","30458",32.43139098456929,-81.77890770525678
"30458","Statesboro","GA","Save A Lot","1519 Streetsboro Plz","44241",32.438151,-81.782834
"30474","Vidalia","GA","Harveys","301 W 1st St","30474",32.21877137870002,-82.41684880995132
"30474","Vidalia","GA","Flash Foods","101 North St E","30474",32.22449493408203,-82.40855407714844
"30501","Gainesville","GA","Kroger","1931 Jesse Jewell Pkwy SE","30501",34.3153063,-83.7981682
"30501","Gainesville","GA","Publix","879 Dawsonville Hwy","30501",34.296657330517796,-83.85941177929443
"30501","Gainesville","GA","Publix","1236 Thompson Bridge Rd","30501",34.31908349277589,-83.8307961409448
"30501","Gainesville","GA","Walmart Supercenter","400 Shallowford Rd Nw","30504",34.29202386690456,-83.85012251706402
"30501","Gainesville","GA","Kroger","3630 Thompson Bridge Rd","30506",34.3732749,-83.8699673
"30501","Gainesville","GA","Walmart Neighborhood Market","2892 Browns Bridge Rd","30504",34.280148353725096,-83.87553593552566
"30501","Gainesville","GA","Walmart Neighborhood Market","1435 Thompson Bridge Rd","30501",34.322005591270646,-83.83445465830721
"30501","Gainesville","GA","Ingles","3320 Thompson Bridge Rd","not_available",34.35829119253665,-83.8615724808677
"30501","Gainesville","GA","J & J Foods","1075 Jesse Jewell Pkwy SW","30501",34.2888014963867,-83.83381637631422
"30501","Gainesville","GA","Food Lion","not_available","30504",34.279956,-83.874931
"30501","Gainesville","GA","Dollar Wise","528 Bradford St SW","30501",34.29569625854492,-83.82420349121094
"30501","Gainesville","GA","El Mercadito","1870 Atlanta Rd","30504",34.25970925899677,-83.84604057788093
"30501","Gainesville","GA","Tadmore Food Mart","2988 Gillsville Hwy","30507",34.26610218333333,-83.74268375
"30501","Gainesville","GA","Piggly Wiggly","3008 Harmony Church Rd","30507",34.265830993652344,-83.74287414550781
"30501","Gainesville","GA","J & J Foods","2500 Limestone Pkwy","30501",34.33035130093035,-83.80583245523144
"30501","Gainesville","GA","Los Carrillo","2033 Spring Rd","30504",34.282745361328125,-83.85310363769531
"30501","Gainesville","GA","Supermercado El Maguey","1282 Industrial Blvd","30501",34.27195,-83.838727
"30501","Gainesville","GA","Grocery Mama","not_available","32607",34.2554606430796,-83.84188413619995
"30501","Gainesville","GA","Aldi","834B Dawsonville Hwy","30501",34.2982021,-83.8546019
"30501","Gainesville","GA","Super Mercado Carrillo's 2","503 Atlanta Hwy","30501",34.28007125854492,-83.83930206298828
"30501","Gainesville","GA","Carniceria Tapatia","1500 Browns Bridge Rd","30501",34.286563873291016,-83.84185028076172
"30501","Gainesville","GA","Supermercado Yurira","1830 Atlanta Rd","30504",34.26065563658472,-83.84521724016642
"30501","Gainesville","GA","Supermercado Los 3 Hermanos","2121 Athens Hwy","30507",34.281044702943355,-83.78489792346954
"30504","Gainesville","GA","Walmart Supercenter","3875 Mundy Mill Rd","30566",34.23132833426647,-83.87450722904298
"30504","Gainesville","GA","ALDI","3640 Mundy Mill Rd Ste 132","30504",34.229572894065825,-83.86687753027377
"30504","Gainesville","GA","Angel De Bebe","1637 Atlanta Rd","30504",34.268008,-83.840511
"30504","Gainesville","GA","Supermercado Carrillo","730 Pearl Nix Pkwy","30501",34.28457154744992,-83.83136901780856
"30506","Gainesville","GA","Publix","3446 Winder Hwy","30542",34.218154522854704,-83.86289872067502
"30506","Gainesville","GA","Kroger","4025 Winder Hwy","30542",34.1963516,-83.8574751
"30506","Gainesville","GA","Clermont IGA","not_available","30527",34.4458029404217,-83.80513610184038
"30507","Gainesville","GA","Ingles","4260 Winder Hwy","30542",34.18928469737648,-83.85875335599809
"30512","Blairsville","GA","Walmart Supercenter","2257 Hwy 515","30512",34.863901000261684,-83.99822751982352
"30512","Blairsville","GA","Ingles","43 Georgia 515","30512",34.88211723848139,-83.95744622844074
"30512","Blairsville","GA","Save-A-Lot","100A Butternut Crossing","30512",34.87576935186483,-83.97126111300905
"30512","Blairsville","GA","Save A Lot","117 Murphy Highway","30513",34.9016668,-83.9293748
"30512","Blairsville","GA","Bi-Lo","not_available","30512",34.87030159114429,-83.96234471036882
"30513","Blue Ridge","GA","Ingles","5679 Appalachian Hwy","30513",34.87872235163219,-84.29945400302383
"30513","Blue Ridge","GA","Walmart Supercenter","97 Commerce Drive","30513",34.87708034598416,-84.32550264680219
"30513","Blue Ridge","GA","Walmart Supercenter","88 Highland Xing","30540",34.65654799871476,-84.48847405883983
"30513","Blue Ridge","GA","IGA","not_available","30559",34.988166769221664,-84.36972770087017
"30513","Blue Ridge","GA","Save-A-Lot","2672 E First St","30513",34.858258666666664,-84.3284945
"30513","Blue Ridge","GA","Discount Bakery Store","not_available","30513",34.84287609296068,-84.33550904173254
"30513","Blue Ridge","GA","IGA Groceries","243-347 Georgia 5","30555",34.97334729275449,-84.31588496733951
"30513","Blue Ridge","GA","piggly wiggly","not_available","37326",34.950646100550046,-84.38518223507543
"30517","Braselton","GA","Publix","2095 Highway 211 NW","30517",34.10281255552213,-83.81249346423124
"30518","Buford","GA","Walmart Supercenter","3795 Buford Dr","30519",34.08868977377797,-83.99000875071599
"30518","Buford","GA","Publix","4840 Golden Pkwy","30518",34.14208517699822,-83.95103486280861
"30518","Buford","GA","Carniceria Sonja","Main Street","30518",34.12152058462418,-84.00369989606503
"30518","Buford","GA","Supermercado La Amistad","1330 Peachtree Industrial Blvd","30518",34.10640037801379,-84.02950319820202
"30519","Buford","GA","Walmart Supercenter","3250 Sardis Church Rd","30519",34.07817364645607,-83.92181475719812
"30519","Buford","GA","Kroger","7380 Spout Springs Rd","30542",34.1075658,-83.8753551
"30519","Buford","GA","Publix","7334 Spout Springs Rd","30542",34.110785688737,-83.8767273056995
"30519","Buford","GA","Kroger","3300 Hamilton Mill Rd","30519",34.0932031,-83.9374912
"30519","Buford","GA","Clearwater crossing","not_available","30542",34.1069450378418,-83.8748550415039
"30520","Canon","GA","Bi-Lo","1041 Franklin Springs St","30662",34.283922651003984,-83.12797052213828
"30520","Canon","GA","Dills Food City","701 Cook St.","30662",34.28367447165573,-83.12268278674
"30521","Carnesville","GA","Piggly Wiggly","9205 Lavonia Rd","30521",34.36797332763672,-83.24095153808594
"30523","Clarkesville","GA","Walmart Supercenter","1455 Highway 441 S","30525",34.859522575427775,-83.40439467430089
"30523","Clarkesville","GA","Ingles #428","199 E Louise St","30523",34.60363992874763,-83.51790153564897
"30523","Clarkesville","GA","Old Sautee Store","Helen, GA","30571",34.683995953475616,-83.67406539722258
"30525","Clayton","GA","Ingles","176 U.S. 441","30525",34.8801068848994,-83.39422824904204
"30525","Clayton","GA","Piggly Wiggly","not_available","30537",34.977661795475434,-83.3828158722809
"30525","Clayton","GA","Andy’s Market","207 Rickman St","30525",34.878441,-83.393256
"30528","Cleveland","GA","Ingles","55 Helen Hwy","30528",34.60319583638857,-83.76500929485184
"30528","Cleveland","GA","Walmart Supercenter","260 Donald E Thurmond Pkwy","30528",34.578850341224054,-83.7590069707401
"30528","Cleveland","GA","Walmart Supercenter","270 Walmart Way","30533",34.538616733728055,-83.97275616606335
"30528","Cleveland","GA","Betty's Country Store","not_available","30545",34.7018215189564,-83.73403253615447
"30528","Cleveland","GA","IGA","271 E Kytle St","30528",34.59587925,-83.75801827
"30528","Cleveland","GA","Fresh N' Low","406 E Main St","30533",34.535667419433594,-83.978515625
"30528","Cleveland","GA","J&J Foods","not_available","30533",34.53477069721443,-83.97838683170177
"30529","Commerce","GA","Walmart Supercenter","30983 Highway 441 S","30529",34.247747675315715,-83.45680497364452
"30529","Commerce","GA","Ingles Market","100 High St.","30529",34.180519984726466,-83.44057604490706
"30529","Commerce","GA","Quality Foods","3185 Maysville Rd","30529",34.20802096100518,-83.48011064526263
"30529","Commerce","GA","Presto Food Store","2595 N Broad St","30529",34.20830222,-83.470974
"30529","Commerce","GA","Ingles","220 Highway 334","30530",34.180212,-83.440487
"30531","Cornelia","GA","Walmart Supercenter","250 Furniture Dr","30531",34.536335,-83.53202
"30531","Cornelia","GA","Ingles","199 Habersham County Shopping Ctr","30531",34.510648902438085,-83.54340039631832
"30531","Cornelia","GA","Mini Asian Market","757 Clarkesville St.","30531",34.519915000000005,-83.528712
"30531","Cornelia","GA","Quality Foods","195 Quality Foods Shopping Ctr","30531",34.51072625164507,-83.54652062058449
"30533","Dahlonega","GA","Camp Merrill Commissary","1 Camp Merrill","30533",34.62609100341797,-84.10636901855469
"30534","Dawsonville","GA","Kroger Marketplace","378 Marketplace Pkwy","30534",34.3502544,-84.0536964
"30534","Dawsonville","GA","Walmart Supercenter","98 Power Center Dr","30534",34.35507534875009,-84.04202964197604
"30534","Dawsonville","GA","Publix","145 Forest Blvd Ste 100","30534",34.35191321523483,-84.04503922753908
"30534","Dawsonville","GA","Foodlion","not_available","30534",34.41743134955464,-84.1120803532038
"30534","Dawsonville","GA","Walmart Grocery Pickup","156 Power Center Dr","30534",34.354955,-84.041709
"30534","Dawsonville","GA","Ingles","118 S 400 Center Ln","30534",34.36366723036917,-84.03994133155774
"30538","Eastanollee","GA","Walmart Grocery Pickup","3886 Highway 17 S","30538",34.5504589717201,-83.2814978183523
"30542","Flowery Branch","GA","Publix","5900 Spout Springs Rd","30542",34.17662520187767,-83.91182835271064
"30542","Flowery Branch","GA","THIS & THAT VARIETY STORE","756 ATLANTA HIGHWAY B","30542",34.1929764,-83.90420379999999
"30546","Hiawassee","GA","Ingles","94 N Main St","30546",34.95011768720998,-83.756810791994
"30546","Hiawassee","GA","Save A Lot","236 N Main St","30546",34.9515599,-83.7587717
"30548","Hoschton","GA","Publix","6055 Highway 124 W","30548",34.10689708347741,-83.7035238359505
"30549","Jefferson","GA","Ingles","285 N Broad St","30680",34.003640013216035,-83.70537408760136
"30549","Jefferson","GA","Kroger","1685 Old Pendergrass Rd","30549",34.1218056,-83.6069741
"30549","Jefferson","GA","Aldi","not_available","30549",34.123405,-83.607061
"30549","Jefferson","GA","ALDI","1718 Old Pendergrass Rd","30549",34.124481201171875,-83.60765838623047
"30549","Jefferson","GA","Piggly Wiggly","415 Lee St","30549",34.115001,-83.579983
"30549","Jefferson","GA","Bell's Supermarket","1325 Washington St","30549",34.13036025,-83.58885883333333
"30553","Lavonia","GA","Dill's Food City","12260 Augusta Rd","30553",34.42929301254394,-83.10605650427594
"30553","Lavonia","GA","Lavonia Foods","13365 Jones St","30553",34.442526,-83.11444241666666
"30554","Lula","GA","Lula Grocery","not_available","30554",34.38691936957663,-83.66848992638732
"30577","Toccoa","GA","Ingles","100 Ayers Dr","30577",34.57005390615883,-83.30410520963905
"30577","Toccoa","GA","Quality Foods","Big A Rd","not_available",34.56579078189155,-83.30239629569256
"30577","Toccoa","GA","Quality Foods","S Big A Rd","30577",34.557654,-83.341217
"30577","Toccoa","GA","Save A Lot","575 Collins St Big A Shopping Cente","30577",34.5720596,-83.3117938
"30577","Toccoa","GA","Save-A-Lot","575 Collins Street","30577",34.570965,-83.313762
"30577","Toccoa","GA","Save-A-Lot","575 Collins St Big A Shopping Center","30577",34.57153468015194,-83.31271035447632
"30601","Athens","GA","Kroger","191 Alps Rd","30606",33.9472876,-83.4077731
"30601","Athens","GA","Kroger Marketplace","700 Highway 29 N","30601",33.9959378,-83.3333694
"30601","Athens","GA","Piggly Wiggly","484 North Ave","30601",33.97583542235055,-83.36368296223365
"30601","Athens","GA","The Fresh Market","196 Alps Rd, Ste 50","30606",33.94684042098411,-83.41002003434942
"30601","Athens","GA","Ingles Market","9151 Highway 29 South","30646",34.028564739965894,-83.31591059414511
"30601","Athens","GA","Los Amigos","109 Rowe Rd","30601",33.97352,-83.391936
"30601","Athens","GA","Daily Groceries Co-Op","523 Prince Ave","30601",33.960756147337506,-83.38589380229554
"30601","Athens","GA","Supermercado y Carniceria La Costa de Jalisco","not_available","30601",33.961586,-83.383925
"30601","Athens","GA","J.C. Food Store","1323 W Hancock Ave","30606",33.955591,-83.39445
"30601","Athens","GA","4 Tigers Supermarket","401 North Ave, Gateway Shopping Center, Athens, GA 30601","30601",33.97690963745117,-83.36477661132812
"30601","Athens","GA","Los Compadres","395-D","30607",33.99455417799435,-83.3809082798247
"30601","Athens","GA","Los Compadres","1380 Prince Ave","30606",33.963739000000004,-83.40078299999999
"30601","Athens","GA","Carniseria Costa De Jalisco 2","140 Barber St","30601",33.961529,-83.383868
"30601","Athens","GA","All American Food Store","1880 Highway 29 N","30601",34.02107238769531,-83.3203353881836
"30602","Athens","GA","Fooks Foods","Milledge Ave","30606",33.924021,-83.380085
"30605","Athens","GA","Walmart Supercenter","4375 Lexington Rd","30605",33.93411406542475,-83.3091425763997
"30605","Athens","GA","Earth Fare","1689 S Lumpkin St","30606",33.937617560598454,-83.38696399395576
"30605","Athens","GA","Kroger","2301 College Station Rd","30605",33.92166262877572,-83.34389238941452
"30605","Athens","GA","Publix","1860 Barnett Shoals Rd","30605",33.92473426293902,-83.34165252490108
"30605","Athens","GA","ALDI","1055 Gaines School Rd","30605",33.92719650268555,-83.33702850341797
"30606","Athens","GA","Walmart Supercenter","1911 Epps Bridge Pkwy","30606",33.91952327467259,-83.44509383347267
"30606","Athens","GA","Publix","3620 Atlanta Hwy","30606",33.94050371094231,-83.45572027538668
"30606","Athens","GA","Kroger","1720 Epps Bridge Pkwy","30606",33.91314650141631,-83.44640584322406
"30606","Athens","GA","Trader Joe's","1850 Epps Bridge Pkwy","30606",33.915741744506285,-83.44324715515347
"30606","Athens","GA","pj nart","not_available","30606",33.94117,-83.430115
"30606","Athens","GA","Bell's Food Stores","995 Hawthorne Ave","30606",33.97025414885378,-83.41363396162224
"30606","Athens","GA","Ingles Market","3190 Atlanta Hwy","30606",33.94164159140518,-83.45006390705692
"30606","Athens","GA","Walmart Neighborhood Market","3130 Atlanta Hwy","30606",33.94325275737866,-83.44450322072849
"30606","Athens","GA","Aldi","3400 Atlanta Hwy","30606",33.9401366,-83.4524814
"30606","Athens","GA","Doorway Deliveries","not_available","30677",33.91980587440071,-83.44556093215942
"30620","Bethlehem","GA","Publix","916 Loganville Hwy Ste 200","30620",33.94343477512132,-83.75453705290467
"30621","Bishop","GA","Publix","2061 Experiment Station Rd","30677",33.87164252183164,-83.44114663495802
"30621","Bishop","GA","Bell's Food Store","2061 Hog Mountain Rd","30677",33.87397003173828,-83.4387435913086
"30621","Bishop","GA","Williams' Produce","3060 Macon Hwy","30677",33.771866,-83.427958
"30624","Bowman","GA","Rays Food Store","14 Broad St.","30624",34.20445314289166,-83.03105812294275
"30627","Carlton","GA","Walmart","955 Elbert St","30635",34.092150752167804,-82.84563035450881
"30627","Carlton","GA","Ingles","901 Elbert St","30635",34.09657446859282,-82.8451909107847
"30627","Carlton","GA","Save-A-Lot","890 Elbert St","30635",34.099754333496094,-82.84890747070312
"30629","Comer","GA","Food Lane","East Sunset Ave","30629",34.06325,-83.123422
"30630","Crawford","GA","Bell's Food Store","740 Athens Rd","30648",33.88407318666723,-83.12269613752439
"30631","Crawfordville","GA","Ingles","110 Ann Denard Dr","30673",33.72957938025442,-82.71735571969423
"30631","Crawfordville","GA","Bi-Lo","136 Washington Plz","30673",33.72605197335538,-82.71890654504067
"30642","Greensboro","GA","Publix","6350 Lake Oconee Pkwy Ste 106","30642",33.45602026831404,-83.24486734110465
"30642","Greensboro","GA","Ingles","1480 Broad st","30642",33.58033517928913,-83.1682476495216
"30643","Hartwell","GA","Walmart Supercenter","1572 Anderson Hwy","30643",34.350339601032836,-82.90472938582003
"30643","Hartwell","GA","L&J Hardware","not_available","30643",34.4454104034992,-82.92394383941203
"30650","Madison","GA","Flash Foods","2030 Eatonton Rd","30650",33.55268836433234,-83.47319107523633
"30650","Madison","GA","Ingles","1441 Eatonton Rd","30650",33.57392197697886,-83.47849006357852
"30650","Madison","GA","Walmart Supercenter","1681 Eatonton Rd","30650",33.56595930602791,-83.47997493967675
"30650","Madison","GA","Farmview Market","2610 Eatonton Rd","30650",33.540065,-83.461163
"30655","Monroe","GA","Walmart Supercenter","2050 W Spring St","30655",33.7982206065834,-83.74254476664525
"30655","Monroe","GA","Quality Foods","W Spring St.","30655",33.79528045654297,-83.72502136230469
"30666","Statham","GA","Dollar General Market","1895 Atlanta Hwy Se","30666",33.9650173517898,-83.59905105973831
"30673","Washington","GA","Terrys IGA","not_available","30673",33.735988,-82.739416
"30680","Winder","GA","Walmart Supercenter","440 Atlanta Hwy N.w.","30680",33.9908504,-83.75680246
"30680","Winder","GA","ALDI","160 W May St","30680",33.994006875172914,-83.73290172437919
"30680","Winder","GA","Publix","17 Monroe Hwy Ste A","30680",33.97930136275205,-83.71385421073609
"30680","Winder","GA","Big H","not_available","30680",33.99025754089991,-83.71255807379654
"30680","Winder","GA","Quality Foods","208 N Broad St","30680",33.99847412109375,-83.71312713623047
"30680","Winder","GA","Walmart Grocery Pickup","440 Atlanta Hwy N.W.","30680",33.990029,-83.756707
"30701","Calhoun","GA","Walmart Supercenter","450 W Belmont Dr","30701",34.48005257939753,-84.94548562332295
"30701","Calhoun","GA","Kroger","136 W Belmont Dr","30701",34.4781274,-84.9375845
"30701","Calhoun","GA","Paisano's Taco House","803 S Wall St","30701",34.487653,-84.946081
"30701","Calhoun","GA","ALDI","647 Hwy 53","30701",34.471873422448546,-84.92429664418034
"30701","Calhoun","GA","Piggly Wiggly","444 Red Bud Rd NE","30701",34.51313018798828,-84.94005584716797
"30701","Calhoun","GA","Food City","225 Lovers Lane","30701",34.49635696411133,-84.9306411743164
"30701","Calhoun","GA","Iconic vape","374 S. Petemont Street Suite C","30701",34.502587,-84.9510542
"30701","Calhoun","GA","Ingles","not_available","30701",34.47465915204915,-84.92980087860559
"30701","Calhoun","GA","Piggly Wiggly","444 Red Bud Road Sequoyah Shopping Ctr","30701",34.501513,-84.952742
"30705","Chatsworth","GA","Walmart Supercenter","2545 E Walnut Ave","30721",34.76724225495292,-84.92989093318333
"30705","Chatsworth","GA","Delray Farms Fresh Market","2518 E Walnut Ave","30721",34.763992174507415,-84.92888648835888
"30705","Chatsworth","GA","Ingles","964 Gi Maddox Pkwy","30705",34.78118076652118,-84.7906291238339
"30705","Chatsworth","GA","Super Saver","99 Georgia 286","30705",34.82561334287347,-84.76523078737262
"30705","Chatsworth","GA","ALDI","2210 E Walnut Ave","30721",34.76206153418305,-84.93146584199167
"30705","Chatsworth","GA","Bi-Lo","502 Gi Maddox Pkwy","30705",34.784437418591814,-84.77320101054471
"30705","Chatsworth","GA","Dollar General Market","40 3rd Avenue West","30724",34.82404327392578,-84.76531219482422
"30705","Chatsworth","GA","Andrew & Brady's Lard Store","not_available","30710",34.86205640726257,-84.94354922940741
"30705","Chatsworth","GA","Bilo","not_available","30705",34.784573,-84.78336
"30705","Chatsworth","GA","Save-A-Lot","2604 E Walnut Ave","30721",34.7668342590332,-84.92672729492188
"30705","Chatsworth","GA","Save-A-Lot","500 S 3rd Ave","30705",34.75247573852539,-84.76791381835938
"30705","Chatsworth","GA","Shop-Rite","920 N 3rd Ave","30705",34.77839660644531,-84.76874542236328
"30705","Chatsworth","GA","Fresh N' Low","99 Hwy 286","30705",34.826009,-84.7654202
"30705","Chatsworth","GA","Carniceria Latina","2002 Murray Ave","30721",34.7657470703125,-84.93714904785156
"30707","Chickamauga","GA","Walmart Supercenter","2625 No. Hwy 27","30728",34.74619936201794,-85.27325123101075
"30707","Chickamauga","GA","Food City (Mission Ridge)","820 Mission Ridge Rd","30741",34.91688405398362,-85.31205603321933
"30707","Chickamauga","GA","Food City","311 N Main St","30728",34.70949669369896,-85.28267208016324
"30707","Chickamauga","GA","Chappellll’s Food Valu","321 W Patton St","30728",34.70460891723633,-85.28604888916016
"30707","Chickamauga","GA","Bi-Lo","not_available","30728",34.70971794247593,-85.28286001694396
"30707","Chickamauga","GA","Melon Patch Restaurant and Farmers Market","2697 Johnson Rd","30707",34.886268615722656,-85.29100799560547
"30707","Chickamauga","GA","Shop Rite Supermarket","202 Thomas Ave","30707",34.87324142456055,-85.2899169921875
"30707","Chickamauga","GA","Shop Rite","Chickamauga Ave","30707",34.873312,-85.290268
"30720","Dalton","GA","Kroger","1365 W Walnut Ave","30720",34.75893953414959,-84.99404302214779
"30720","Dalton","GA","Kroger","1205 N Glenwood Ave","30721",34.79208734262455,-84.96379536618952
"30720","Dalton","GA","Walmart Supercenter","815 Shugart Rd","30720",34.78688899625431,-84.99888847369249
"30720","Dalton","GA","Shop Rite","3507 Chattanooga Rd","30755",34.8419189453125,-85.04757690429688
"30720","Dalton","GA","Walmart Neighborhood Market","98 W Walnut Ave","30720",34.762319083101204,-84.96871321603129
"30720","Dalton","GA","Walmart Grocery Pickup","98 West Walnut Ave","30720",34.7624397277832,-84.96913146972656
"30720","Dalton","GA","The Green Spot","306-398 W Emery St","30720",34.76576068788871,-84.97073621908541
"30720","Dalton","GA","Tres Hermanos Groceries, LLC","1985 Crow Valley Road","30720",34.823079,-85.002281
"30720","Dalton","GA","United Grocery Outlet","918 N Glenwood Ave","30721",34.785234035550815,-84.96298638153742
"30720","Dalton","GA","Food City","1287 Cleveland Hwy","30720",34.79618105892156,-84.96345075305518
"30720","Dalton","GA","garcia market","not_available","30720",34.79475021362305,-84.98590087890625
"30720","Dalton","GA","Food City","Walnut Ave","30720",34.76091,-84.992401
"30720","Dalton","GA","Harrys","Hwy 201","30755",34.877951979294394,-84.98905464048495
"30720","Dalton","GA","Save-A-Lot","2604 E Walnut Ave","30720",34.76105118,-85.00348663
"30721","Dalton","GA","la Michoacana","not_available","30721",34.773860931396484,-84.96001434326172
"30736","Ringgold","GA","Walmart Supercenter","3040 Battlefield Pkwy","30742",34.93736913,-85.21602191
"30736","Ringgold","GA","Ingles Supermarket","5044 Alabama Hwy","30736",34.917861000717664,-85.12522047600004
"30736","Ringgold","GA","Publix Super Market At Boynton Ridge Plaza","3775 Battlefield Parkway","30736",34.937977562919755,-85.20401314724216
"30736","Ringgold","GA","Food City","531 Battlefield Pkwy","30742",34.95545449653488,-85.2568422287751
"30736","Ringgold","GA","Food City","150 Highway 41","30736",34.984107971191406,-85.1877670288086
"30736","Ringgold","GA","Walmart Neighborhood Market","1155 Battlefield Pkwy","30742",34.95447667618131,-85.2446365835439
"30736","Ringgold","GA","ALDI","1999 Battlefield Pkwy","30742",34.94808,-85.232278
"30736","Ringgold","GA","Ingles","not_available","30736",34.90889923671496,-85.12534420896824
"30736","Ringgold","GA","Sara Lee Bread","not_available","30741",34.97939645537667,-85.21420616837446
"30736","Ringgold","GA","Sunny's","1706 Keeble St","37412",34.986082,-85.223121
"30736","Ringgold","GA","Food Lion","226 Pine Hill Dr","30741",34.960693359375,-85.26209259033203
"30736","Ringgold","GA","H and M Herbs  and  Vitamins","1140 Battlefield Pkwy","30742",34.9521439,-85.24555299999997
"30736","Ringgold","GA","Save-A-Lot","2911 Lafayette Rd","30742",34.94715345305979,-85.25830304283564
"30738","Rising Fawn","GA","Ingles","not_available","30752",34.868257377119114,-85.51135493184174
"30738","Rising Fawn","GA","Food Lion","4645 Georgia 136","30752",34.8691313,-85.52525127
"30747","Summerville","GA","Walmart Supercenter","13427 Highway 27","30753",34.52158324082842,-85.31642754157835
"30747","Summerville","GA","Ingles","416 GA 114","30747",34.47581934750198,-85.34783634425396
"30747","Summerville","GA","Save-A-Lot","11610 Us 27","30747",34.471548,-85.302068
"30747","Summerville","GA","Save-A-Lot","11610 N Hwy 27","30747",34.498151547233334,-85.33169561284944
"30747","Summerville","GA","Save-A-Lot","11610 Highway 27","30747",34.49882125854492,-85.33135986328125
"30802","Appling","GA","Kroger Marketplace","435 Lewiston Rd","30813",33.4892029,-82.201704
"30802","Appling","GA","Walmart Supercenter","5010 Steiner Way","30813",33.481646126419626,-82.1958502586678
"30802","Appling","GA","Publix","5119 Washington Rd","30809",33.5731929698092,-82.19322450694176
"30802","Appling","GA","ALDI","3020 Gateway Blvd","30813",33.478226,-82.199439
"30803","Avera","GA","Hometown Market","not_available","30810",33.23524,-82.595031
"30803","Avera","GA","Hodgin's Country Market","115 Warren St","30810",33.235267639160156,-82.59526824951172
"30805","Blythe","GA","KJ's IGA","not_available","30815",33.31322486686527,-82.09427558066206
"30805","Blythe","GA","Patterson IGA","not_available","32557",33.333473205566406,-82.10594177246094
"30808","Dearing","GA","Harlem IGA","305 W Milledgeville Rd","30814",33.41579818725586,-82.31859588623047
"30808","Dearing","GA","IGA","300-304 U.S. 278","30814",33.41569418190002,-82.31811440236778
"30809","Evans","GA","Publix","403 Furys Ferry Rd","30907",33.530065493015506,-82.07333007649754
"30809","Evans","GA","Kroger","4355 Washington Rd","30809",33.5416733,-82.1324979
"30809","Evans","GA","Kroger","4115 Columbia Rd","30907",33.509518347727656,-82.10812276535512
"30809","Evans","GA","Walmart Supercenter","4469 Washington Rd","30809",33.54580437717243,-82.14201002837527
"30809","Evans","GA","Walmart Neighborhood Market","3851 Evans To Locks Road","30907",33.551393741697645,-82.08853520497289
"30809","Evans","GA","Aldi","227 Bobby Jones Expy","30907",33.5064142530893,-82.0926787306189
"30809","Evans","GA","Publix","4274 Washington Rd","30809",33.53359302763052,-82.12738994668703
"30809","Evans","GA","Seoul Oriental Food Market","not_available","30907",33.506516667181884,-82.13996932359589
"30809","Evans","GA","Earth Fare","368 Furys Ferry Rd Ste 3","30907",33.52571262033833,-82.07317222396881
"30813","Grovetown","GA","Fort Gordon Commissary","37200 3rd Avenue","30905",33.410013652581796,-82.13690484598787
"30813","Grovetown","GA","Walmart Neighborhood Market","5303-a Wrightsboro Rd","30813",33.4542217398754,-82.2076571030634
"30813","Grovetown","GA","Walmart Neighborhood Market","300 South Belair Rd","30907",33.4936548054966,-82.13641442242375
"30813","Grovetown","GA","IGA","100 Harlem Grovetown Rd","30813",33.455339148446406,-82.20325641249559
"30813","Grovetown","GA","Walmart Grocery Pickup","5303 Wrightsboro Rd","30813",33.455443,-82.207958
"30815","Hephzibah","GA","Walmart Neighborhood Market","3697 Windsor Spring Rd","30815",33.378447549471645,-82.0728983551771
"30815","Hephzibah","GA","Bi-Lo","2512 Tobacco Rd","30815",33.375476770880326,-82.0738860886102
"30815","Hephzibah","GA","Bi-lo","Peach Orchard Rd","not_available",33.39051975272246,-82.02847596258373
"30815","Hephzibah","GA","Augusta IGA","3355 Deans Bridge Rd","30906",33.420266999999996,-82.078761
"30815","Hephzibah","GA","Kim's Oriental Market","not_available","30906",33.419906,-82.035507
"30815","Hephzibah","GA","Divine Health Water 4U Inc","2636 Tobacco Rd Ste B","30815",33.3802221,-82.09076219999997
"30816","Keysville","GA","Walmart Supercenter","1500 N Liberty St","30830",33.107192976784454,-82.02435207916886
"30816","Keysville","GA","Harvey's Supermarket","263 S Liberty St","30830",33.08142852783203,-82.00906372070312
"30817","Lincolnton","GA","Bell's","110 N Peachtree St","30817",33.792755139341374,-82.47673260942702
"30818","Matthews","GA","Jet Food Store","not_available","30833",33.20824398778792,-82.39261150360107
"30818","Matthews","GA","Ingles","633 North Main St. NE","30833",33.219195371759476,-82.37930006950826
"30821","Norwood","GA","Piggly Wiggly","441 Legion Dr","30828",33.400654,-82.655985
"30821","Norwood","GA","Gurley's IGA","604 Legion Dr.","30828",33.40092086791992,-82.6591796875
"30824","Thomson","GA","Walmart Supercenter","2205 Harrison Rd Se","30824",33.48147272,-82.50126536
"30824","Thomson","GA","Thomson IGA","336 W Hill St","30824",33.46202087402344,-82.50480651855469
"30824","Thomson","GA","Old WinnDixie","not_available","30824",33.45938491821289,-82.47882843017578
"30824","Thomson","GA","OpenLeaf CBD","1259 Washington Road","30824",33.4902969,-82.5057259
"30824","Thomson","GA","Bi-Lo Grocery","Washington Rd.","30824",33.48299145916825,-82.50613109642569
"30901","Augusta","GA","OpenLeaf CBD - Augusta, GA","224 8th Street","30901",33.4744665,-81.9656681
"30901","Augusta","GA","Laney Supermarket","843 Laney Walker Blvd","30901",33.463785,-81.973232
"30901","Augusta","GA","Du Jour Fine Foods","1128 Broad St","30901",33.476829528808594,-81.97199249267578
"30901","Augusta","GA","Pauls IGA","2 Greene St","30901",33.466815999999994,-81.949438
"30901","Augusta","GA","the west end market and bakery","1808 Broad St","30904",33.48425721702883,-81.99361535675902
"30904","Augusta","GA","Kroger","2801 Washington Rd","30909",33.511809600000014,-82.02943070858987
"30904","Augusta","GA","Bi-Lo","2803 Wrightsboro Rd","30909",33.47043608344334,-82.03674518798721
"30904","Augusta","GA","Publix","2816 Washington Rd","30909",33.508213981673336,-82.03106589845127
"30904","Augusta","GA","Bilo","1600 Gordon Hwy","30906",33.44047409367389,-82.01304938955296
"30904","Augusta","GA","New York Butcher Shoppe","465 Highland Ave","30909",33.48645442832466,-82.03068058895491
"30904","Augusta","GA","Harvey's Supermarket","1631 Gordon Hwy","30906",33.440895080566406,-82.01526641845703
"30904","Augusta","GA","The Fresh Market","2701 Washington Rd, Ste 12","30909",33.50948,-82.0223
"30906","Augusta","GA","Walmart Supercenter","3209 Deans Bridge Rd","30906",33.42406578,-82.0631036
"30906","Augusta","GA","KNIGHT'S MEAT OUTLET","3087 Deans Bridge Rd","30906",33.426941,-82.05126
"30906","Augusta","GA","Kroger","3128 Deans Bridge Rd","30906",33.42431157168123,-82.05512862985168
"30906","Augusta","GA","Save A Lot","2728 Peach Orchard Rd","30906",33.421625,-82.01888000000001
"30906","Augusta","GA","Korean Oriental Foods And Gifts","3082 Deans Bridge Rd","30906",33.426582,-82.05066500000001
"30907","Augusta","GA","Walmart Supercenter","260 Bobby Jones Expy","30907",33.5045131903583,-82.08627743172276
"30907","Augusta","GA","Sprouts Farmers Market","630 Crane Creek Dr","30907",33.49665010554306,-82.07883150872703
"30907","Augusta","GA","Asian Choice","404 Shartom Dr","30907",33.515695,-82.054486
"30907","Augusta","GA","Jinlong Oriental Market","592 Bobby Jones Expy","30907",33.502950465883174,-82.08717702698681
"30909","Augusta","GA","Walmart Supercenter","3338 Wrightsboro Road","30909",33.466868069782635,-82.07027165519533
"31001","Abbeville","GA","Piggly Wiggly","not_available","31001",31.992537,-83.300235
"31001","Abbeville","GA","Piggly Wiggly","1211 Main Street","31079",31.951316,-83.453273
"31001","Abbeville","GA","Snipes","not_available","31079",31.950581597703955,-83.45335348444496
"31005","Bonaire","GA","Kroger","774 Highway 96","31005",32.55253975071003,-83.65946198480486
"31005","Bonaire","GA","Publix","510 GA-247","31005",32.546253,-83.59582
"31005","Bonaire","GA","Food Lion","2607 Moody Rd","31088",32.574249288635556,-83.62496749596637
"31006","Butler","GA","Piggly Wiggly","not_available","31006",32.553627014160156,-84.23853302001953
"31008","Byron","GA","Kroger","3094 Watson Blvd","31093",32.6186974,-83.6952135
"31008","Byron","GA","Walmart Neighborhood Market","3009 Russell Parkway","31088",32.580512913973585,-83.69612635832915
"31008","Byron","GA","Publix","6015 Watson Blvd","31008",32.61282420964838,-83.71447340476324
"31008","Byron","GA","Flash Foods","3211 Hwy 247 Connector","31008",32.61395695338437,-83.7412991929275
"31008","Byron","GA","Freshway Market","233 GA Highway 49 S","31008",32.64477350021311,-83.7619138326085
"31008","Byron","GA","Giant Foods","202 Hwy. 49","31008",32.64954,-83.759969
"31008","Byron","GA","ALDI","3003 Watson Blvd","31093",32.61655083346362,-83.6914028303454
"31008","Byron","GA","Flash Foods","105 Hwy. 49 South","31008",32.65092688599842,-83.75700819086956
"31008","Byron","GA","Giant Market","202 Georgia 49","31008",32.64976468,-83.75942261666667
"31012","Chester","GA","Chester Food Mart","not_available","31012",32.39484691198866,-83.15382778644562
"31014","Cochran","GA","Walmart Supercenter","366 Hwy 26 East","31014",32.40062314253946,-83.33650127289653
"31014","Cochran","GA","Harvey's Supermarket of Hawkinsville","10 Surrey Plz","31036",32.2898703865308,-83.47965269770667
"31014","Cochran","GA","Dollar General Market","280 E Dykes St","31014",32.39634907327202,-83.34276270155496
"31014","Cochran","GA","Flash Foods","167 Broad St","31036",32.28124440402652,-83.47425967475749
"31014","Cochran","GA","Harvey's Supermarket of Cochran","140 W Dykes St","31014",32.38482568838531,-83.35828458621921
"31014","Cochran","GA","Flash Foods","303 S.E. 2nd Street","31014",32.387091570656864,-83.35590096321356
"31015","Cordele","GA","Walmart Supercenter","1215 E 16th Ave","31015",31.96405231,-83.76216941
"31015","Cordele","GA","cordele supermarket","not_available","31015",31.95427131652832,-83.78551483154297
"31015","Cordele","GA","Striplings General Store","2346 GA 300 S","31015",31.860424292991205,-83.90980311617564
"31015","Cordele","GA","Harvey's Supermarket","1011 E 16th Ave","31015",31.9640401352403,-83.76629451578546
"31015","Cordele","GA","Save-A-Lot","1101 E 16th Ave","31015",31.964191349469786,-83.76409309570603
"31015","Cordele","GA","Striplings General Stote","2289 GA Highway 300 S","31015",31.860469818115234,-83.91000366210938
"31019","Dexter","GA","Flash Foods","258 Main Street","31019",32.43362045288086,-83.05952453613281
"31019","Dexter","GA","garry","Hwy 117","31075",32.398802313280704,-82.99252828812673
"31020","Dry Branch","GA","Robins AFB Commisary","923 Macon St","31098",32.59717729665641,-83.58445021905659
"31020","Dry Branch","GA","Cjs supermarket","Hwy 49","31217",32.81893598333333,-83.5242319
"31021","Dublin","GA","Friendly Gus Travel Center","Campground Rd","31021",32.482812740327915,-82.89604976628365
"31021","Dublin","GA","Flash Foods","2180 441 S","31021",32.48994500047118,-82.93271936057306
"31021","Dublin","GA","Walmart Supercenter","2423 Us Highway 80 W","31021",32.55070196,-82.97175407
"31021","Dublin","GA","Flash Foods","2100 Veterans Blvd","31021",32.54143920389794,-82.95482139551551
"31021","Dublin","GA","Flash Foods","405 Soperton Ave","31027",32.54452934701177,-82.86699367108177
"31021","Dublin","GA","Kroger Grocery Pickup and Delivery","1100 Hillcrest Pkwy","31021",32.54439626922786,-82.93755011033392
"31021","Dublin","GA","Southern Family Market","613 Central Dr","31027",32.54859757005953,-82.87696188404703
"31021","Dublin","GA","Tim's Farm Market","not_available","31027",32.549886,-82.876323
"31021","Dublin","GA","Dublin Foods","not_available","31021",32.547736,-82.909538
"31021","Dublin","GA","Harvey's Supermarket","1945 Veterans Blvd","31021",32.541072845458984,-82.94396209716797
"31023","Eastman","GA","Walmart Supercenter","1099 Indian Dr","31023",32.179226684733834,-83.17978620529175
"31023","Eastman","GA","Harvey's Supermarket of Eastman","6327 Oak St","31023",32.207908630371094,-83.1915512084961
"31023","Eastman","GA","Murphy USA","1545 Indian Dr","31023",32.17981791304592,-83.18039210073321
"31023","Eastman","GA","Flash Foods","99 Main St","31060",32.020729064941406,-83.0632095336914
"31023","Eastman","GA","Cashsaver","not_available","31023",32.194586,-83.175713
"31023","Eastman","GA","Flash Foods","504 College St.","31023",32.200910030753704,-83.16944059262823
"31023","Eastman","GA","Flash Foods","200 Oak St","31023",32.197059631347656,-83.17804718017578
"31023","Eastman","GA","Piggly Wiggly","215 5th Ave","31023",32.196407318115234,-83.17919158935547
"31023","Eastman","GA","Flash Foods","1000 5th Ave., N.E.","31023",32.1898626,-83.1874187
"31024","Eatonton","GA","Ingle's","754 Monticello Rd","31024",33.32049947043323,-83.41168355199193
"31024","Eatonton","GA","Walmart Supercenter","201 Walmart Dr","31024",33.29569470277792,-83.38865696341402
"31024","Eatonton","GA","Flash Foods","3056 N Columbia St","31061",33.18429910212807,-83.29087372204081
"31024","Eatonton","GA","Piggly Wiggly","not_available","31024",33.328532,-83.388972
"31028","Centerville","GA","Walmart Supercenter","2720 Watson Blvd","31093",32.62096437,-83.67300252
"31028","Centerville","GA","Flash Foods","2699 Watson Blvd","31093",32.61771315155386,-83.66849825935897
"31028","Centerville","GA","Base Exchange","not_available","31098",32.61864771065014,-83.68361541942535
"31028","Centerville","GA","Marghie's Asian Marketplace","1100 Carl Vinson Pkwy","31088",32.64402205191267,-83.6606271691197
"31028","Centerville","GA","British Pantry","100 N Houston Lake Blvd","31028",32.620189923558584,-83.683303911743
"31029","Forsyth","GA","Walmart Supercenter","5955 Zebulon Rd","31210",32.882524865347314,-83.76002268541387
"31029","Forsyth","GA","Kroger","5928 Zebulon Rd","31210",32.87850109762848,-83.76028386776284
"31029","Forsyth","GA","Walmart Supercenter","180 N Lee St","31029",33.042121783638855,-83.94316891481279
"31029","Forsyth","GA","Ingles","260 Tift College Dr","31029",33.03588939842052,-83.92757916060644
"31029","Forsyth","GA","Piggly Wiggly","not_available","31029",33.038937,-83.93734
"31030","Fort Valley","GA","Walmart Supercenter","1009 Saint Patricks Dr","31069",32.47236567523799,-83.73925114686205
"31030","Fort Valley","GA","Flash Foods","201 Marshallville Rd","31069",32.446184795099306,-83.75305467227257
"31030","Fort Valley","GA","Kroger","1367 Sam Nunn Blvd","31069",32.46729550712813,-83.74143509197893
"31030","Fort Valley","GA","Harvey's Supermarket","202 Vineville St","31030",32.55947074369702,-83.8855280520752
"31030","Fort Valley","GA","Flash Foods","401 Camellia Blvd","31030",32.562255859375,-83.88240051269531
"31030","Fort Valley","GA","El Paizano","not_available","31030",32.562255859375,-83.89292907714844
"31030","Fort Valley","GA","Red and White Grocery Store","112 Camellia Blvd","31057",32.45758056640625,-83.94091796875
"31030","Fort Valley","GA","Flash Foods","1114 Macon Rd","31069",32.460867,-83.730457
"31030","Fort Valley","GA","Flash Foods","740 Bluebird Blvd","31030",32.56832937735652,-83.8742914708679
"31030","Fort Valley","GA","Flash Foods","1417 Sam Nunn Blvd","31069",32.469273082854635,-83.74206829644287
"31031","Gordon","GA","Flash Foods","116 Main St","31031",32.88269240077083,-83.3325727925943
"31031","Gordon","GA","Piggly Wiggly","not_available","31031",32.88350182660637,-83.33314184140572
"31032","Gray","GA","Ingles","261 W Clinton St","31032",33.004031856724815,-83.54534400916738
"31032","Gray","GA","Flash Foods","Hwy 22 East","31032",33.01478749865744,-83.52190618225832
"31032","Gray","GA","Flash Foods","283 W Clinton St","31032",33.003481744693076,-83.54738794215264
"31032","Gray","GA","Harvey's Supermarket","208 W Clinton St","31032",33.00770864226921,-83.54263792905965
"31044","Jeffersonville","GA","Piggly Wiggly","59 Magnolia St N","31044",32.688419342041016,-83.34613037109375
"31047","Kathleen","GA","Publix","1114 GA Highway 96","31047",32.547321095199834,-83.69225728667982
"31047","Kathleen","GA","Publix","275 Perry Pkwy","31069",32.472974155095066,-83.70585279259467
"31052","Lizella","GA","Giant Foods","not_available","31008",32.8046136,-83.7907321
"31054","Mc Intyre","GA","Flash Foods","107 Railroad St","31054",32.84594788532765,-83.1944313649779
"31061","Milledgeville","GA","Walmart Supercenter","2592 N Columbia St","31061",33.11646917054616,-83.26503613292383
"31061","Milledgeville","GA","Kroger","2809 N Columbia St","31061",33.1532915,-83.2728928
"31061","Milledgeville","GA","Flash Foods","1935 N Jefferson St NE","31061",33.10912663405561,-83.23141581755854
"31061","Milledgeville","GA","Johnnie Mcdade Grocery","not_available","31061",33.058924,-83.215609
"31061","Milledgeville","GA","ALDI","1978 N Columbia St","31061",33.1073428,-83.2541809
"31061","Milledgeville","GA","Flash Foods","166 Hwy. # 49 South","31061",33.07012939453125,-83.25977325439453
"31061","Milledgeville","GA","Martin's IGA","355 Allen Memorial Dr SW","31061",33.055030822753906,-83.2392349243164
"31061","Milledgeville","GA","Piggly Wiggly","North Columbia Street","31061",33.094579316098205,-83.24076286666589
"31061","Milledgeville","GA","Flash Foods","600 N Jefferson St NE","31061",33.08974075317383,-83.22801971435547
"31061","Milledgeville","GA","Flash Foods","1200 Vinson Hwy SE","31061",33.066463,-83.219753
"31063","Montezuma","GA","Harvey's Supermarket","506 Spaulding Rd","31063",32.29469575477977,-84.01851089737447
"31064","Monticello","GA","Ingles","2340 GA Highway 16 W","31064",33.30411184373199,-83.70473710989316
"31064","Monticello","GA","Monticello Family Foods","3 Short Street","31064",33.30276200760737,-83.68493735790253
"31068","Oglethorpe","GA","Piggly Wiggly","101 South Macon Street","31068",32.29468952165312,-84.05911414417918
"31068","Oglethorpe","GA","ALDI","not_available","31068",32.297935485839844,-84.0625991821289
"31082","Sandersville","GA","IGA","not_available","31082",32.97215435114791,-82.81004755227154
"31082","Sandersville","GA","Harvey's Supermarket","306 S Harris St","31082",32.978821,-82.81209799999999
"31082","Sandersville","GA","Walmart Supercenter","1308 S Harris St","31082",32.95206346,-82.81126841
"31088","Warner Robins","GA","Walmart Supercenter","502 Booth Rd","31088",32.59029212539999,-83.61239734820684
"31088","Warner Robins","GA","Flash Foods","1242 Russell Pkwy","31088",32.594480910068604,-83.65008547252182
"31088","Warner Robins","GA","Food Depot","2203 Watson Blvd","31093",32.61602997526279,-83.65984072953408
"31088","Warner Robins","GA","Kroger","115 Russell Pkwy","31088",32.5921976940299,-83.62559214995599
"31088","Warner Robins","GA","Flash Foods","1880 Russell Pkwy","31088",32.59324901816989,-83.66775276513421
"31088","Warner Robins","GA","Flash Foods","1941 Watson Blvd","31093",32.617865342417275,-83.64533250175178
"31088","Warner Robins","GA","Sav A Lot Food Store","Watson Blvd","not_available",32.616782,-83.63866614
"31088","Warner Robins","GA","The Tiki Hut Vapes","340 Corder Road Ste B","31088",32.61233938917409,-83.65309953689575
"31089","Tennille","GA","Flash Foods","213 N. Marcus","31096",32.73107937957812,-82.72000247068085
"31089","Tennille","GA","Piggly Wiggly","not_available","31096",32.731518340907975,-82.72245649993515
"31091","Unadilla","GA","Flash Foods","1045 Pine St","31091",32.249499045630785,-83.74225097193042
"31093","Warner Robins","GA","Walmart Neighborhood Market","515 N Houston Rd","31093",32.62530507312843,-83.6425533497305
"31093","Warner Robins","GA","Flash Foods","10136 Hawkinsville Rd","31093",32.65958068080649,-83.61819518425087
"31093","Warner Robins","GA","Giant Foods","580 N Davis Dr","31093",32.63356018066406,-83.61219024658203
"31201","Macon","GA","Kroger","660 North Ave","31211",32.8504535,-83.6260134
"31201","Macon","GA","Flash Foods","997 Gray Hwy","31211",32.854270102341765,-83.61810813102247
"31201","Macon","GA","Save-a-lot#581","not_available","31211",32.854961,-83.619792
"31201","Macon","GA","Family Supermarket","2965 Houston Ave","31206",32.80812454223633,-83.64834594726562
"31201","Macon","GA","Flash Foods","1194 Forsyth St","31201",32.835997990523886,-83.64008365811272
"31204","Macon","GA","Kroger","220 Tom Hill SR Blvd","31210",32.89878620366305,-83.69137735697228
"31204","Macon","GA","Kroger","4650 Forsyth Rd","31210",32.8732696,-83.7097318
"31204","Macon","GA","My Store","Pio Nono Ave, Macon, GA 31204","31204",32.822112,-83.66314100000001
"31204","Macon","GA","Kroger","4628 Presidential Pkwy","31206",32.8191983,-83.7110526
"31204","Macon","GA","The Fresh Market","4357 Forsyth Rd","31210",32.86871608119196,-83.69644260971134
"31204","Macon","GA","ALDI","4501 Log Cabin Dr","31204",32.8214914,-83.7106867
"31204","Macon","GA","Publix","195 Tom Hill SR Blvd","31210",32.89722285273163,-83.68740730162975
"31204","Macon","GA","Village Marketplace","2381 Ingleside Ave","not_available",32.853881,-83.656762
"31204","Macon","GA","Piggly Wiggly","pio nono ave.","31206",32.8076763238271,-83.65765111188895
"31204","Macon","GA","Flash Foods","3391 Mercer University Dr","31204",32.8212606127939,-83.6891543133423
"31204","Macon","GA","Save A Lot","1538 Eisenhower Pkwy","31206",32.81316375732422,-83.66800689697266
"31204","Macon","GA","Flash Foods","3889 Vineville Ave","31204",32.862922998446535,-83.68854857433762
"31206","Macon","GA","Kroger","4321 Hartley Bridge Rd","31216",32.74502800747833,-83.71357262134552
"31206","Macon","GA","Shoppers Value Foods","not_available","31206",32.83291,-83.74486
"31206","Macon","GA","El Carnaval Latin Food Store and Restaurant","4009 Pio Nono Ave","31206",32.79262729160766,-83.66907154415416
"31206","Macon","GA","Flash Foods","5602 Thomaston Rd","31220",32.834273006325354,-83.74595113707545
"31206","Macon","GA","Flash Foods","4700 Hartley Bridge Rd","31216",32.74360827992822,-83.72551787803495
"31206","Macon","GA","Piggly Wiggly","1425 Rocky Creek Rd","31206",32.7911491394043,-83.66967010498047
"31206","Macon","GA","Food Lion","5580 Thomaston Rd","31220",32.83267593383789,-83.74410247802734
"31206","Macon","GA","Food Depot","not_available","31216",32.74767,-83.673134
"31206","Macon","GA","Rocky Creek Foods","2595 Rocky Creek Rd","31206",32.78761383151603,-83.70719203329165
"31206","Macon","GA","Belle Foods","1410 Rocky Creek Rd","31206",32.78976058959961,-83.6697998046875
"31206","Macon","GA","Flash Foods","4313 Pio Nono Ave","31206",32.78513511017391,-83.66592719805885
"31210","Macon","GA","Publix","5451 Bowman Rd","31210",32.92477115877102,-83.7355485621859
"31211","Macon","GA","Walmart Supercenter","1401 Gray Hwy","31211",32.863295379014694,-83.61087432100122
"31211","Macon","GA","C&J's Supermarket","101 GA Highway 49","31211",32.874488830566406,-83.55669403076172
"31211","Macon","GA","Marghie's Asian Market","950 Carl Vinson Parkway","not_available",32.867389,-83.633203
"31211","Macon","GA","Harvey's Supermarket","1605 Shurling Dr","31211",32.86016236071774,-83.59468730556219
"31216","Macon","GA","Save-A-Lot","7595 Industrial Hwy","31216",32.704164,-83.666522
"31217","Macon","GA","C&J's Supermarket","2901 Jeffersonville Rd","31217",32.8410185,-83.5739735
"31302","Bloomingdale","GA","Publix Blue Moon Crossing","101 Blue Moon Crossing","31322",32.07944448305563,-81.28456009777267
"31305","Darien","GA","Piggly Wiggly","5214 US Hwy 17","31305",31.466498,-81.439077
"31308","Ellabell","GA","Ken's IGA","not_available","31308",32.19752678529151,-81.43870584398026
"31308","Ellabell","GA","Piggly Wiggly","8524 US Highway 280 E","31308",32.1632,-81.4954
"31312","Guyton","GA","Harveys Supermarket","1451 GA Highway 21 S","31329",32.351768996406236,-81.29060915117356
"31312","Guyton","GA","Ken's IGA","97 Springfield Ave","31312",32.33058601371755,-81.3933268234451
"31313","Hinesville","GA","Kroger","555 W Oglethorpe Hwy","31313",31.8358309,-81.597452
"31313","Hinesville","GA","Walmart Supercenter","751 W Oglethorpe Hwy","31313",31.82611023946106,-81.60123385346522
"31313","Hinesville","GA","Walmart Neighborhood Market","1422 W Oglethorpe Hwy Ste A","31313",31.796477029602485,-81.60573622751302
"31313","Hinesville","GA","Flash Foods","463 W Oglethorpe Hwy","31313",31.839270650979188,-81.59549324170285
"31313","Hinesville","GA","Walmart Neighborhood Market","801-a East General Stewart Way","31313",31.851387311747715,-81.57938495889205
"31313","Hinesville","GA","Flash Foods","725 Oglethorpe Hwy","31313",31.851302,-81.58216
"31313","Hinesville","GA","Fort Stewart Commissary","200 Vilseck Rd Bldg 421","31314",31.870013500792595,-81.60871148195032
"31313","Hinesville","GA","Park's Korean Market","W General Screven Way","31313",31.851243471871463,-81.60599254265273
"31313","Hinesville","GA","AAFES (Class Six)","Johnny Cochran Rd","31314",31.862113015919192,-81.61258496216885
"31313","Hinesville","GA","Commissary","On base","31315",31.829515097403103,-81.61950149892205
"31313","Hinesville","GA","Farmer's Natural Foods","not_available","31313",31.841457978890492,-81.60993736780985
"31313","Hinesville","GA","Save-A-Lot","519a W Oglethorpe Hwy","31313",31.83730221047159,-81.5968407701206
"31313","Hinesville","GA","Flash Foods","1025 W Oglethorpe Hwy","31313",31.813512719087253,-81.60248557724223
"31313","Hinesville","GA","Walmart Grocery Pickup","801-A East General Stewart Way","31313",31.85322,-81.57977
"31313","Hinesville","GA","Korean Grocery Store","Walden St","31313",31.827110290527344,-81.61871337890625
"31316","Ludowici","GA","Walmart Supercenter","1100 N 1st St","31545",31.616108005322367,-81.87201449415295
"31316","Ludowici","GA","Harvey's Supermarket","955 S 1st St","31545",31.603553219459094,-81.90588197357317
"31316","Ludowici","GA","Flash Foods","111 Sunset Blvd","31545",31.620345431472263,-81.90219085041478
"31316","Ludowici","GA","Flash Foods","Hwy. 301 & Main St.","31316",31.713288164880392,-81.74620768403771
"31316","Ludowici","GA","Ludowici IGA","Macon Street","31316",31.714941124540342,-81.74376064242821
"31316","Ludowici","GA","Flash Foods","310 N 1st St","31545",31.609265357325537,-81.88243163848824
"31316","Ludowici","GA","341 Market","150 Highway 341","not_available",31.610171,-81.919971
"31316","Ludowici","GA","Piggly Wiggly","not_available","31545",31.608539581298828,-81.88678741455078
"31321","Pembroke","GA","Harvey's Grocery Store","Pembroke, GA 31321","31321",32.13689265760645,-81.63199211091559
"31321","Pembroke","GA","Harvey's Supermarket","540 W Bacon St","31321",32.13691288333333,-81.63221066666667
"31322","Pooler","GA","Walmart Supercenter","160 Pooler Pkwy","31322",32.1436732494368,-81.24398052729963
"31322","Pooler","GA","Bi-Lo","1042 US Highway 80 W","31322",32.1229545474162,-81.26638069987371
"31322","Pooler","GA","Publix","467 Pooler Pkwy","31322",32.13532613067448,-81.25150208029305
"31322","Pooler","GA","Flash Foods","1080 US Highway 80 E","31322",32.10743713378906,-81.22871398925781
"31322","Pooler","GA","Indian store","125 Foxfield Way","31322",32.14398130997454,-81.24844415836101
"31322","Pooler","GA","ALDI","152 Traders Way","31322",32.14035496480311,-81.25334292335464
"31322","Pooler","GA","foodlion","U.S. 80, Pooler, GA 31322","31322",32.09067629390943,-81.26036079703353
"31324","Richmond Hill","GA","Walmart Supercenter","14030 Abercorn St","31419",31.9809042602058,-81.17369616915758
"31324","Richmond Hill","GA","Publix","12800 GA Highway 144","31324",31.909803346718643,-81.2784565922022
"31324","Richmond Hill","GA","Publix","11701 Abercorn St","31419",31.981616920709175,-81.15194301819083
"31324","Richmond Hill","GA","Kroger","53 Exchange St","31324",31.9561855,-81.3202725
"31324","Richmond Hill","GA","ALDI","14070 Abercorn St","31419",31.981159210205078,-81.17587280273438
"31324","Richmond Hill","GA","Europe Grocery","not_available","31324",31.947015,-81.314221
"31326","Rincon","GA","Publix","7936 GA Highway 21","not_available",32.221575241490896,-81.1939438787074
"31326","Rincon","GA","Kroger Market Place","476 Columbia ave","31326",32.275070295448465,-81.23168834012108
"31326","Rincon","GA","Walmart Supercenter","434 S Columbia Ave","31326",32.27432630267481,-81.22615467548547
"31326","Rincon","GA","Flash Foods","7430 Augusta Rd","31047",32.20013304105156,-81.19689946214594
"31326","Rincon","GA","Kroger","461 S Columbia Ave","31326",32.2749285,-81.2317798
"31328","Tybee Island","GA","IGA Tybee Market","1111 Butler Ave","31328",31.998744420925096,-80.84687830542711
"31331","Townsend","GA","Piggly Wiggly","not_available","31331",31.531744238091182,-81.4281587105291
"31401","Savannah","GA","Kroger","311 E Gwinnett St","31401",32.0661071,-81.0925013
"31401","Savannah","GA","Brighter Day","1102 Bull St","31401",32.064788502503134,-81.0970491073985
"31401","Savannah","GA","Hong Tan Oriental Grocery","816 Pennsylvania Ave","31404",32.056721,-81.061698
"31401","Savannah","GA","Polks Fresh Market","530 E Liberty St","31401",32.073421478271484,-81.08743286132812
"31401","Savannah","GA","Serenity House Tea Society & Shoppe","141 Bull St","31401",32.076603999999996,-81.089964
"31401","Savannah","GA","chu's","not_available","31401",32.06309921963251,-81.10213320272116
"31401","Savannah","GA","Foodfresh","not_available","30417",32.07527777777778,-81.09861111111111
"31404","Savannah","GA","Kroger","495 Johnny Mercer Blvd","31410",32.0159978,-80.9768846
"31404","Savannah","GA","Whole Foods Market","1815 E. Victory Drive","31404",32.04339101206114,-81.07136077184026
"31404","Savannah","GA","Walmart","4725 Us Highway 80 E","31410",32.042031528478304,-81.00390214351366
"31404","Savannah","GA","Publix","4717 US Highway 80 E Ste B","31410",32.0419210347602,-81.00702734003977
"31404","Savannah","GA","Publix","155 Johnny Mercer Blvd","31410",32.01395324129473,-80.98708360185388
"31404","Savannah","GA","Kroger","1900 E Victory Dr, Suite 12","31404",32.0454358,-81.0677176
"31404","Savannah","GA","Nam-Chau Oriental Food Market","Water Ave","not_available",32.025084,-81.094913
"31404","Savannah","GA","Bi-Lo","2142 E Victory Dr","31404",32.04106322808177,-81.06264350770132
"31405","Savannah","GA","Kroger Marketplace","318 Mall Blvd Ste 100","31406",32.0057605,-81.1124439
"31405","Savannah","GA","Kroger","5720 Ogeechee Rd","31405",32.0270937,-81.2255919
"31405","Savannah","GA","Jones Red & White","3310 Ogeechee Rd","31405",32.054544855383675,-81.13658529280652
"31405","Savannah","GA","Publix","5500 Abercorn St Ste 2","31405",32.02423506273899,-81.10856986402482
"31405","Savannah","GA","Jones Red & White Food Market","4607 Habersham St","31405",32.035592743510406,-81.10317036508445
"31405","Savannah","GA","The Fresh Market","5525 Abercorn St,","31405",32.02469303675009,-81.11143117737392
"31405","Savannah","GA","Hunter AAF Commissary","89 Haley Ave","31409",32.02494746960167,-81.12351174626869
"31405","Savannah","GA","Sav A Lot","not_available","31406",32.00805602133294,-81.09914813935218
"31405","Savannah","GA","Save-A-Lot","1100 Eisenhower Dr","31406",32.006788,-81.098561
"31405","Savannah","GA","Shivam Indian Grocery","46-98 W Montgomery Cross Rd","31406",31.99810028076172,-81.11990356445312
"31405","Savannah","GA","Coastal Coffee & Equipment","104 C Central Jct Blvd","31405",32.055234,-81.129307
"31406","Savannah","GA","Walmart Supercenter","1955 E Montgomery Xrd","31406",31.98691486104398,-81.08244131943867
"31406","Savannah","GA","Kroger","7 Diamond Cswy","31406",31.9568452,-81.0983333
"31406","Savannah","GA","Publix","6 Westridge Rd","31411",31.940404608149606,-81.05038610764048
"31406","Savannah","GA","Walmart Neighborhood Market","10530 Abercorn St","31419",31.98371198859945,-81.13136043459617
"31408","Savannah","GA","Piggly Wiggly - Garden CIty","Augusta Rd","not_available",32.10530326808193,-81.15325052330785
"31408","Savannah","GA","Shyam Food Market","Bay Street","31415",32.089858,-81.124364
"31415","Savannah","GA","Chu's","1336 W Bay St","31415",32.087899,-81.115412
"31419","Savannah","GA","Walmart Supercenter","6000 Ogeechee Rd","31419",31.999614717907807,-81.25772773474411
"31501","Waycross","GA","Walmart Supercenter","2425 Memorial Dr","31503",31.19772946266545,-82.32151814520537
"31501","Waycross","GA","Kroger","1606 Memorial Dr","31501",31.2073037,-82.3391866
"31501","Waycross","GA","Flash Foods","1712 Memorial Dr","31501",31.20691071969261,-82.33752995040925
"31501","Waycross","GA","Flash Foods","2307 Plant Ave","31501",31.230060986684094,-82.33378557871208
"31501","Waycross","GA","Walmart Neighborhood Market","1630 Plant Ave","31501",31.22041935138343,-82.34657904558678
"31501","Waycross","GA","Flash Foods","1974 Central Ave","31503",31.213802406773556,-82.32690524272964
"31501","Waycross","GA","Richard ware ave Elletson flats","Richard ware","not_available",31.261354,-82.3173745
"31501","Waycross","GA","Harvey's Supermarket","510 Tebeau St","31501",31.21255241395982,-82.36040508452268
"31501","Waycross","GA","Flash Foods","2476 Minnesota Ave","31503",31.18697738647461,-82.39297628402471
"31501","Waycross","GA","Harvey's Supermarket","1312 Plant Ave","31501",31.21765373919886,-82.34934532852154
"31501","Waycross","GA","Flash Foods","1401 Tebeau St","31501",31.22283660588374,-82.35429230588628
"31501","Waycross","GA","Flash Foods","701-799 N Augusta Ave","31503",31.22397368493221,-82.38785552936821
"31501","Waycross","GA","Flash Foods","1913 State St","31501",31.2358887,-82.370624
"31501","Waycross","GA","Flash Foods","505 Reynolds St.","31501",31.206815719604492,-82.35466003417969
"31503","Waycross","GA","Piggly wiggly","not_available","31516",31.2965145111084,-82.25314331054688
"31503","Waycross","GA","Flash Foods","114 Gordon St","31516",31.306447738935315,-82.2418114735522
"31503","Waycross","GA","Flash Foods","931 Main St","31516",31.296435415808123,-82.22841788229644
"31503","Waycross","GA","Flash Foods","4095 Jamestown Rd","31503",31.269530243614465,-82.38321550367101
"31503","Waycross","GA","Flash Foods","Hwy  84 & Keller St.","31516",31.30652574,-82.24743666666667
"31510","Alma","GA","Harveys Supermarket","1108 S Pierce St","31510",31.52716281222644,-82.4613082408905
"31510","Alma","GA","Flash Foods","402 S Pierce St","31510",31.538848876953125,-82.46206665039062
"31510","Alma","GA","IGA","not_available","31510",31.530942255153985,-82.46328877350902
"31510","Alma","GA","Flash Foods","938 S Pierce St","31510",31.53885944649411,-82.46226795058074
"31513","Baxley","GA","Flash Foods","640 S Main St","31513",31.76978874206543,-82.35264587402344
"31513","Baxley","GA","Harvey's Supermarket","106 E Parker St","31513",31.776981353759766,-82.34671020507812
"31513","Baxley","GA","Walmart Supercenter","980 W Parker St","31513",31.78556368,-82.36503057
"31516","Blackshear","GA","Piggly Wiggly","not_available","31557",31.40233,-82.11143
"31516","Blackshear","GA","Flash Foods","6497 US Highway 84","31557",31.38773518022026,-82.13971629521889
"31518","Bristol","GA","Thornton Grocery","9549 GA Highway 203","31560",31.556060791015625,-82.12529754638672
"31520","Brunswick","GA","Publix","171 Village At Glynn Pl Ste 100","31525",31.213537814985248,-81.48216586857575
"31520","Brunswick","GA","Walmart Supercenter","150 Altama Connector","31525",31.21325270715991,-81.48594812289927
"31520","Brunswick","GA","Walmart Neighborhood Market","11 Glynn Plaza","31520",31.193645344049155,-81.48713563044798
"31520","Brunswick","GA","Winn-Dixie","5420 New Jesup Hwy","31523",31.226007632118975,-81.52587120838578
"31520","Brunswick","GA","Winn-Dixie","1941 Glynn Ave.","31520",31.159793322549028,-81.4789402271265
"31520","Brunswick","GA","Save-A-Lot","72 Altama Village Dr","31525",31.204389572143555,-81.48426818847656
"31520","Brunswick","GA","Save-A-Lot","72 Altama Village Dr","31520",31.21260071,-81.47584534
"31520","Brunswick","GA","Winn-Dixie","4404 Altama Ave","31520",31.19190662891004,-81.48480446797163
"31520","Brunswick","GA","Adam's Market","1700 Norwich St","31520",31.152814,-81.49223
"31522","Saint Simons Island","GA","Harris Teeter","600 Sea Island Rd Suite 23","31522",31.183448121699023,-81.37995710381784
"31522","Saint Simons Island","GA","Winn-Dixie","220 Retreat Vlg","31522",31.158239057357367,-81.39123523496856
"31522","Saint Simons Island","GA","Island Natural Market","203 Longview Plz","31522",31.1626544,-81.3881573
"31523","Brunswick","GA","Winn-Dixie","285 Hyde Park Commons","31523",31.141220954887764,-81.5869845223231
"31523","Brunswick","GA","Winn-Dixie","341 Venture Dr","31525",31.248112596051016,-81.50651693344116
"31523","Brunswick","GA","Flash Foods","160 Millennium Blvd","31525",31.2457131882894,-81.50409957167648
"31523","Brunswick","GA","Flash Foods","127 Flash Foods Rd. PE","31525",31.135525372842206,-81.572291917085
"31523","Brunswick","GA","Snappy Foods","not_available","31523",31.272880066480543,-81.56434240238633
"31523","Brunswick","GA","Flowers Discount Bakery Store","Rt 341, New Jesup Hwy","not_available",31.240647246082364,-81.53974515053706
"31527","Jekyll Island","GA","Jekyll Grocery IGA","591 N Beachview Dr","31527",31.06405792131634,-81.4046337881617
"31527","Jekyll Island","GA","Flash Foods","50 Ben Forston Parkway","31527",31.04804039001465,-81.4147720336914
"31533","Douglas","GA","Walmart Supercenter","1450 Bowens Mill Rd Se","31533",31.485497,-82.848351
"31533","Douglas","GA","Flash Foods","101 Baker Hwy E","31533",31.501644651417447,-82.85001890166657
"31533","Douglas","GA","Harvey's Supermarket","901 Ward St W","31533",31.509850946129315,-82.86091627021727
"31533","Douglas","GA","Harvey's Supermarket","813 Peterson Ave S","31533",31.499121451155414,-82.85154946851023
"31533","Douglas","GA","Mickey's Food Store","740 Peterson Ave N","31533",31.515666616208893,-82.85056114196777
"31533","Douglas","GA","Save A Lot","802 Peterson Ave S","31533",31.4989503,-82.8501249
"31533","Douglas","GA","Save-A-Lot","802 S Peterson Ave","31533",31.498573878253936,-82.85012949561253
"31533","Douglas","GA","Flash Foods","1716 Peterson Ave N","31533",31.525439014862474,-82.85012949561253
"31537","Folkston","GA","Winn-Dixie","550969 US Highway 1","32046",30.673361959632114,-81.90218918008225
"31537","Folkston","GA","Harvey's Supermarket","3606 Second St S","31537",30.824565887451172,-82.00298309326172
"31537","Folkston","GA","Flash Foods","1116 Kingsland Dr","31537",30.835859298706055,-81.98548889160156
"31537","Folkston","GA","Flash Foods","310 W. Main St.","31537",30.831209182739258,-82.00994873046875
"31537","Folkston","GA","Hilliard Meats","not_available","32046",30.683188201892005,-81.91195554631952
"31537","Folkston","GA","Flash Foods","600 Bowery Ln.","31537",30.853689193725586,-82.01660919189453
"31537","Folkston","GA","Flash Foods","551758 North US Hwy 1","32046",30.69130704465058,-81.91768181256886
"31539","Hazlehurst","GA","Harveys","not_available","31539",31.86139062049855,-82.60517345959012
"31539","Hazlehurst","GA","Piggly Wiggly","32 S Tallahassee St","not_available",31.865249928977985,-82.60051784254237
"31539","Hazlehurst","GA","Flash Foods","100 E Jarman St","31539",31.865062489181785,-82.58904717096196
"31539","Hazlehurst","GA","Walmart Supercenter","136 E Jarman St","31539",31.86240125,-82.58638014
"31539","Hazlehurst","GA","Flash Foods","316 Hwy. # 341 South","31549",31.9474192,-82.7077697
"31539","Hazlehurst","GA","Flash Foods","Rt. 4 Box 777","31539",31.8167104,-82.5926958
"31547","Kings Bay","GA","Kings Bay NSB Commissary","1209 USS Daniel Boone Ave Bldg 1037","31547",30.792814802279878,-81.5702620727746
"31547","Kings Bay","GA","NEX Mini Mart","USS Daniel Boone Ave","31558",30.793973311741862,-81.57369218233734
"31548","Kingsland","GA","Publix","1601 GA Highway 40 E","31548",30.78414998570249,-81.63386943920477
"31548","Kingsland","GA","Walmart Supercenter","6586 Ga Highway 40 E","31558",30.77847384,-81.61955595
"31548","Kingsland","GA","Winn-Dixie","1390 E Boone Street","31548",30.78510930367114,-81.6482574910105
"31548","Kingsland","GA","Flash Foods","790 East King Ave.","31548",30.800491937653486,-81.6810891445092
"31548","Kingsland","GA","Flash Foods","1321 GA Highway 40 E","31548",30.789855264040686,-81.65459484113954
"31548","Kingsland","GA","Flash Foods","490 South Lee St.","31548",30.79481083354231,-81.68974553773361
"31548","Kingsland","GA","Kings Bay NSB Commissary","BLDG 1237","31558",30.80340991936793,-81.60669374118797
"31548","Kingsland","GA","Flash Foods","5480 Highway # 17","31548",30.789176,-81.6880235
"31548","Kingsland","GA","Kingsland Grocery","Hwy 17","not_available",30.794462008303604,-81.68953856534506
"31548","Kingsland","GA","Green Cedar #9","1371 Lakes Blvd.","31548",30.789354595858473,-81.65206281810653
"31548","Kingsland","GA","Flash Foods","1211 E King Ave","31548",30.792592845519007,-81.66268275874593
"31548","Kingsland","GA","Act Natural Health Foods","695 Kingsbay Rd","31558",30.783463524638616,-81.6131647969862
"31550","Manor","GA","Richards","not_available","31634",31.0757205,-82.6499536
"31553","Nahunta","GA","Flash Foods","102 West Cleveland St.","31553",31.20244026184082,-81.98297882080078
"31553","Nahunta","GA","Flash Foods","113 North Main St.","31553",31.2025203704834,-81.98268127441406
"31554","Nicholls","GA","Taylor Auction & Realty","11343 GA Highway 32 E","31554",31.517675,-82.6579246
"31558","Saint Marys","GA","Winn Dixie","2714 Osborne Rd","31558",30.753679658313043,-81.57885120158565
"31558","Saint Marys","GA","Flash Foods","2500 Osborne Rd","31558",30.75064799219371,-81.57258169449644
"31560","Screven","GA","IGA Screven Ga","not_available","31560",31.48662287141726,-82.01643248825468
"31562","Saint George","GA","Canaday's Grocery","13048 Florida Ave","31562",30.52276,-82.03736
"31565","Waverly","GA","Woodbine Grocery","not_available","31569",30.960420827605347,-81.71826069499056
"31601","Valdosta","GA","Walmart Supercenter","340 Norman Dr","31601",30.82653505,-83.31916475
"31601","Valdosta","GA","Publix","1741 Gornto Rd","31601",30.845741641017003,-83.32324532538924
"31601","Valdosta","GA","Flash Foods","511 St. Augustine Rd.","31601",30.834701777761058,-83.31247341030321
"31601","Valdosta","GA","Flash Foods","1266 Lakes Blvd","31636",30.680358731764375,-83.22107931137832
"31601","Valdosta","GA","Winn-Dixie","1105 Madison Hwy","31601",30.817541482380513,-83.27406505933592
"31601","Valdosta","GA","Flash Foods","1720 Gornto Rd","31601",30.846760656974247,-83.32474887550958
"31601","Valdosta","GA","Flash Foods","1800-1802 N Ashley St","31602",30.854630641027462,-83.28107595382113
"31601","Valdosta","GA","Walmart","1798 Gornto Rd","31601",30.846827217143815,-83.30563901575617
"31601","Valdosta","GA","Stan's Quality Meats","not_available","31601",30.833323163688227,-83.28369934686626
"31601","Valdosta","GA","Harveys","Bemiss Rd","31602",30.85952718284342,-83.27931041450138
"31601","Valdosta","GA","Harvey's Supermarket","1715 Norman Dr","31601",30.84185028076172,-83.31822204589844
"31601","Valdosta","GA","Save-A-Lot","808 Madison Hwy","31601",30.82124164895143,-83.27498931789702
"31602","Valdosta","GA","Publix Super Market at Perimeter Park","3330 Inner Perimeter Rd","31602",30.88122022634836,-83.28508310983993
"31602","Valdosta","GA","Walmart Supercenter","3274 Inner Perimeter Rd","31602",30.88113737,-83.28750276
"31602","Valdosta","GA","Winn-Dixie","3200 N Ashley St","31602",30.87529624003708,-83.29333948317887
"31602","Valdosta","GA","Flash Foods","425 Northside Dr","31602",30.871918941445117,-83.27809453010559
"31602","Valdosta","GA","Walmart Grocery Pickup","4196 Bemiss Road","31601",30.915939331054688,-83.2566909790039
"31602","Valdosta","GA","Winn-Dixie # 65","4036 Bemiss Rd","31605",30.910498106885523,-83.2622511906289
"31602","Valdosta","GA","dollar general","not_available","31602",30.872114288105852,-83.27979643787472
"31602","Valdosta","GA","Las Banderas Mexican Store","2903 N Patterson St","31602",30.87156867980957,-83.29052734375
"31602","Valdosta","GA","Asian Mart","not_available","31605",30.920441,-83.253712
"31602","Valdosta","GA","Flash Foods","3480 Bemiss Rd","31605",30.889559143784016,-83.27128968178928
"31602","Valdosta","GA","American Dream Nutrition","1911 Bancroft Rd","31602",30.868749,-83.2583839
"31602","Valdosta","GA","Flash Foods","4109 Bemiss Rd","31605",30.91116014522964,-83.26315112981513
"31605","Valdosta","GA","Moody AFB Commissary","4333 George St","31699",30.974780283379587,-83.2075365179204
"31620","Adel","GA","Walmart Supercenter","351 Alabama Road","31620",31.133185908313507,-83.4399704336876
"31620","Adel","GA","Dorsey's Supermarket","201-215 Brookside Dr","31620",31.138287,-83.416877
"31620","Adel","GA","Piggly Wiggly","714 W 4th St","31620",31.134446,-83.433042
"31620","Adel","GA","Harvey's Supermarket","400 W 4th St","31620",31.136705,-83.428393
"31622","Alapaha","GA","Alapaha Grocery Store","not_available","31622",31.381583,-83.222431
"31625","Barney","GA","Flash Foods","11596 Adel Hwy","31638",30.946376253201464,-83.49891567078738
"31626","Boston","GA","Vape Boss","13035 Us Highway 319 N","31757",30.8806339,-83.9320393
"31632","Hahira","GA","Harvey's Supermarket","775 GA Highway 122 W","31632",30.989960921698398,-83.38179314523478
"31634","Homerville","GA","Harveys Supermarket","528 N Church St","31634",31.04377,-82.749855
"31635","Lakeland","GA","Harvey's Supermarket","75 S Valdosta Rd","31635",31.035912178668895,-83.07299875607846
"31635","Lakeland","GA","Piggly Wiggly Lakeland","not_available","31635",31.035742,-83.072823
"31636","Lake Park","GA","Winn-Dixie","1060 Lakes Blvd","31636",30.681272574917514,-83.21721976997006
"31636","Lake Park","GA","IGA","not_available","31648",30.712766537477087,-83.02953376370239
"31639","Nashville","GA","Flash Foods","519 S Davis St","31639",31.201026947773087,-83.2514921575066
"31639","Nashville","GA","Harvey's Supermarket","207 McPherson St","31639",31.204938038326993,-83.24811193669385
"31642","Pearson","GA","Circle K","610-616 N Main St","31642",31.298259488952894,-82.85308055117542
"31642","Pearson","GA","Harvey's Supermarket","1016 Main St S","31642",31.306504538304196,-82.84962460909917
"31642","Pearson","GA","Piggly Wiggly","not_available","31642",31.306608,-82.849553
"31643","Quitman","GA","Harvey's Supermarket","1207 W Screven St","31643",30.78587447157787,-83.571719585154
"31643","Quitman","GA","Stans","not_available","31643",30.782234,-83.559868
"31701","Albany","GA","Walmart Neighborhood Market","2586 N Slappey Blvd","31701",31.613475268800137,-84.17457190837547
"31701","Albany","GA","Flash Foods","624 Holly Dr","31705",31.528698507354136,-84.11616252951416
"31701","Albany","GA","Harveys Supermarket","1511 Radium Springs Rd","31705",31.550515,-84.138274
"31701","Albany","GA","Mike's Country Store","1629 Philema Rd S","31701",31.63719367980957,-84.10739135742188
"31701","Albany","GA","Tommy Mc's","2357 Lake Park Dr","31707",31.602807998657227,-84.20889282226562
"31701","Albany","GA","Harvey's Supermarkets","1032 W Gordon Ave","31701",31.567759966822642,-84.17557745361374
"31701","Albany","GA","Flash Foods","2447 N Slappey Blvd","31701",31.611435863079553,-84.17619224548774
"31701","Albany","GA","Mike's Country Store","Philema Road","31763",31.63353028617706,-84.16861595630469
"31701","Albany","GA","Flash Foods","230 E Oglethorpe Blvd","31705",31.574853897094727,-84.14273071289062
"31701","Albany","GA","Flash Foods","1701 E Oglethorpe Blvd","31705",31.571321487426758,-84.10726928710938
"31701","Albany","GA","Harvey's","1553 US Highway 19 S","31763",31.632089815213376,-84.17521073827885
"31701","Albany","GA","Winn-Dixie","200 E Oakridge Dr","31705",31.551586999999998,-84.13988
"31701","Albany","GA","Harveys Supermarket","2310 N Slappey Blvd","31701",31.60808761341324,-84.1749014460226
"31701","Albany","GA","Harveys","not_available","31701",31.580000388018302,-84.1767484546653
"31701","Albany","GA","Flash Foods","2336 Liberty Expy SE","31705",31.465289552118655,-84.11743628197262
"31701","Albany","GA","Sav-a-lot","301 S Slappey Blvd","31701",31.573530197143555,-84.1773452758789
"31701","Albany","GA","Homerun Foods","hwy 19","31763",31.6292703,-84.176521
"31705","Albany","GA","Walmart Supercenter","262 Cordele Rd","31705",31.578631364110983,-84.08717876987697
"31705","Albany","GA","Harveys","2425 Sylvester Rd","31705",31.57595856828714,-84.08998116265414
"31705","Albany","GA","Winn-Dixie","2418 Sylvester Rd","31705",31.573134646795495,-84.09024554718333
"31705","Albany","GA","Albany MCLB Commissary","814 Radford Blvd","31704",31.550237128039896,-84.0474278402507
"31707","Albany","GA","Walmart Supercenter","2825 Ledo Rd","31707",31.624483655467717,-84.2136938849879
"31707","Albany","GA","Walmart Neighborhood Market","108 S Westover Blvd","31707",31.58420676316991,-84.21846675878326
"31707","Albany","GA","Harvey's","2800 Old Dawson Rd","31707",31.612665357045564,-84.21788716441972
"31707","Albany","GA","Publix","2715 Dawson Rd","31707",31.62103445911706,-84.22358416401791
"31707","Albany","GA","Big Lots","2525 Dawson Rd","31707",31.612023000000004,-84.2121056183853
"31707","Albany","GA","Flash Foods","2825 Old Dawson Rd","31707",31.61396204819495,-84.22433109199763
"31707","Albany","GA","Harvey's Supermarket","2527","31707",31.612944369008073,-84.21206744855027
"31707","Albany","GA","Flash Foods","2701 Gillionville Rd","31721",31.58621554221812,-84.21996983739382
"31709","Americus","GA","Walmart Supercenter","1711 E Lamar St","31709",32.06040718504931,-84.20180003026273
"31709","Americus","GA","Rubo's Grocery","not_available","31719",32.084413,-84.244736
"31709","Americus","GA","Flash Foods","1533 S Lee St","31709",32.052013901097325,-84.22579297527875
"31709","Americus","GA","Winn-Dixie","1208 Crawford St","31709",32.075116052369694,-84.21680307418988
"31709","Americus","GA","Save-A-Lot","204 Manhattan St","31709",32.072148996816274,-84.21469751828378
"31709","Americus","GA","Flash Foods","1101 Crawford St","31709",32.07347291506281,-84.21715085102589
"31714","Ashburn","GA","Piggly Wiggly","not_available","31714",31.70574116907861,-83.65132856004097
"31719","Americus","GA","Brownlee's Grocery & Market","1146 U.S. 19","31719",32.15202331542969,-84.2682876586914
"31721","Albany","GA","Publix","US Hwy 19","31763",31.64233200552479,-84.26922345022406
"31730","Camilla","GA","Piggly Wiggly","Railroad St.","31779",31.123265845845854,-84.15291161124335
"31730","Camilla","GA","Walmart Supercenter","165 Us Highway 19 S","31730",31.235600317975322,-84.19917791810171
"31730","Camilla","GA","Harveys Supermarket","not_available","Ga",31.23897,-84.19533
"31730","Camilla","GA","Winn Dixie","129 US Highway 19 N","31730",31.23334312438965,-84.19859313964844
"31730","Camilla","GA","Snipe's Finer Foods","West oakland avenue","31730",31.23265,-84.209053
"31730","Camilla","GA","Harvey's Supermarket","68 N Scott St","31730",31.233623504638672,-84.21112060546875
"31730","Camilla","GA","Flash Foods","2369 US Highway 19 NE","31779",31.13381004333496,-84.1410903930664
"31730","Camilla","GA","Flash Foods","195 South Blvd","31730",31.22534397352486,-84.21176612377167
"31738","Coolidge","GA","W. D. Willis Grocery","Patten - Coolidge Road","31778",30.962987140315438,-83.79136053683942
"31744","Doerun","GA","Piggly Piggly Express","not_available","31744",31.31958902255769,-83.91666672015789
"31750","Fitzgerald","GA","Walmart Supercenter","120 Benjamin H Hill Dr W","31750",31.69025829134899,-83.24811510749487
"31750","Fitzgerald","GA","Flash Foods","603 N Grant St","31750",31.720908,-83.252627
"31750","Fitzgerald","GA","Piggly Wiggly","415 N Irwin Ave","31774",31.599010467529297,-83.2483139038086
"31750","Fitzgerald","GA","Piggly Wiggly","172 Ocilla Hwy","31750",31.700349807739258,-83.25040435791016
"31750","Fitzgerald","GA","Harvey's Supermarket","220 W Central Ave","31750",31.714310951120197,-83.25678171926413
"31750","Fitzgerald","GA","Flash Foods","802 N Irwin Ave","31774",31.604227,-83.250742
"31757","Thomasville","GA","Publix at Park Place","13775 US Highway 19 S","31792",30.83752181888354,-83.94652630140062
"31757","Thomasville","GA","Harvey's Supermarket","1404 E Jackson St","31792",30.852440377988895,-83.95661409722133
"31757","Thomasville","GA","Walmart Supercenter","15328 Us Highway 19 S","31757",30.85991564100944,-83.94510247280384
"31757","Thomasville","GA","Flash Foods","2267 E. Pinetree","31792",30.85123746556763,-83.9499868936354
"31757","Thomasville","GA","Flash Foods","15329 US 19 S","31792",30.858202365662837,-83.94777233095002
"31757","Thomasville","GA","Hendrick's IGA","523 W Jackson St","31792",30.831941999999998,-83.983707
"31757","Thomasville","GA","Harvey's Supermarket","306 Smith Ave","31792",30.836063385009766,-83.97545623779297
"31757","Thomasville","GA","Flash Foods","408 S Broad St","31792",30.8409108,-83.9833523
"31757","Thomasville","GA","AGFgroupsplc.com","411 Lester St","31792",30.82794999999999,-83.981675
"31763","Leesburg","GA","Publix","1212 US Highway 19 S","31763",31.655597437471375,-84.17494866023866
"31763","Leesburg","GA","Leesburg Iga","216 Walnut Ave S","31763",31.723822846200335,-84.17233468973441
"31763","Leesburg","GA","Flash Foods","274 US Hwy 19 S","31763",31.719165660537175,-84.1729239105519
"31768","Moultrie","GA","Publix","not_available","31768",31.186823,-83.759557
"31768","Moultrie","GA","Walmart Supercenter","641 Veterans Pkwy S","31788",31.170291577592266,-83.75812291656726
"31768","Moultrie","GA","Harvey's Supermarket","1209 1st Ave SE","31768",31.179384231567383,-83.77325439453125
"31768","Moultrie","GA","Oxley's","not_available","31788",31.172998965490894,-83.76062418962735
"31768","Moultrie","GA","Winn-Dixie","103 Talmadge Dr","31768",31.177912236184167,-83.77222083529048
"31768","Moultrie","GA","Save-A-Lot","205 6th St SE","31768",31.177558,-83.780805
"31773","Ochlocknee","GA","IGA GROCERY","E Railroad St","31779",30.974401831626892,-84.05384302139282
"31773","Ochlocknee","GA","George's IGA Food Mart","4054 N Main St","31773",30.977453231811523,-84.05733489990234
"31781","Poulan","GA","Flash Foods","404 E Franklin St","31791",31.53011502846197,-83.83176544159664
"31781","Poulan","GA","Piggly Wiggly","101-199 Thompson St","31791",31.5301265412002,-83.82458877918822
"31781","Poulan","GA","harveys supermarket","not_available","31781",31.511255264282227,-83.75615692138672
"31789","Sumner","GA","Dean Tucker Farms Produce, Inc.","781 College St","31789",31.509906768798828,-83.730712890625
"31792","Thomasville","GA","Walmart Supercenter","361 8th Ave Ne","39828",30.88670757,-84.20365662
"31792","Thomasville","GA","Piggly Wiggly","Highway 84","not_available",30.88921805652955,-84.20905121818569
"31792","Thomasville","GA","Flash Foods","1405 W Jackson St","31792",30.81662605484385,-84.00068198846577
"31792","Thomasville","GA","Harveys Supermarket","1000 1st Ave NE","39828",30.876861572265625,-84.1946029663086
"31792","Thomasville","GA","Sun Stop Market","1150 US 84","39828",30.888819,-84.208725
"31792","Thomasville","GA","IGA","not_available","39828",30.884221725981337,-84.21408878614328
"31792","Thomasville","GA","Walmart Grocery Pickup","361 8th Ave NE","39828",30.8855664727209,-84.2044392368854
"31792","Thomasville","GA","Cairo IGA","20 2nd Ave SE, Cairo, GA 39828","39828",30.874820709228516,-84.20699310302734
"31793","Tifton","GA","Walmart Supercenter","1830 Us Highway 82 W","31793",31.44334945,-83.54266098
"31793","Tifton","GA","Flash Foods","802 7th St W","31794",31.450259562890707,-83.52569082620855
"31793","Tifton","GA","Publix Super Market Plaza at Tifton","620 Virginia Ave N","31794",31.4627385827207,-83.52851019043366
"31793","Tifton","GA","Flash Foods","1002 8th St W","31794",31.463109335020075,-83.52698984902962
"31793","Tifton","GA","Harveys Supermarket","2201 US Highway 41 N","31794",31.475232236658247,-83.5186556115166
"31793","Tifton","GA","Save A Lot","121 Virginia Ave S","31794",31.4533164,-83.5258857
"31793","Tifton","GA","Save a lot","not_available","31794",31.47230839488083,-83.52607017904346
"31793","Tifton","GA","Harvey's Supermarket","Central Ave","31794",31.45123,-83.512614
"31794","Tifton","GA","Walmart Neighborhood Market","1810 Tift Ave N","31794",31.471607639439114,-83.50098609924315
"31803","Buena Vista","GA","J's IGA","126 E 6th Ave","31803",32.31782435366138,-84.51584222250676
"31803","Buena Vista","GA","Eagle Foods","1062 GA Highway 41 N","31803",32.33413314819336,-84.52708435058594
"31804","Cataula","GA","Billy's IGA Super Market","3740 US Highway 27","31804",32.64939929966772,-84.87381767857646
"31805","Cusseta","GA","Coleman's Grocery","159 U.S. 280","31805",32.3032112121582,-84.78605651855469
"31811","Hamilton","GA","Save-A-Lot","Highway 27 South","42653",32.847206115722656,-84.8444595336914
"31815","Lumpkin","GA","Piggly Wiggly","not_available","31825",32.08666965932931,-84.67319860095832
"31816","Manchester","GA","Food Outlet","not_available","31816",32.86805498018072,-84.63122265358642
"31820","Midland","GA","Walmart Neighborhood Market","7400 Blackmon Rd","31909",32.552178395254074,-84.89628825398178
"31820","Midland","GA","Publix","7600 Schomburg Rd","31909",32.55767649540755,-84.90512244987492
"31820","Midland","GA","Walmart Supercenter","6475 Gateway Road","31909",32.538109554457336,-84.87692933127371
"31820","Midland","GA","Sai Indian Groceries","6243-6261 Flat Rock Rd","31907",32.53682111,-84.87057064
"31822","Pine Mountain","GA","Supervalu Food Store","not_available","31822",32.86479218243921,-84.85385851817868
"31824","Preston","GA","Adams Food Center","not_available","31824",32.06560045910472,-84.53764091791037
"31833","West Point","GA","Kroger","1401 S Gilmer Ave","36863",32.8558013,-85.1912308
"31833","West Point","GA","Walmart Supercenter","3501 20th Ave","36854",32.83563092,-85.17881517
"31901","Columbus","GA","Piggly Wiggly","1359 13th St","31901",32.47147102386482,-84.9720385335469
"31901","Columbus","GA","Flowers foods","not_available","31904",32.48967376162084,-84.97141468127603
"31901","Columbus","GA","Piggly Wiggly","Brown Ave","31906",32.464059000000006,-84.960237
"31903","Columbus","GA","Walmart Grocery Pickup and Delivery","3515 Victory Drive","31903",32.4234007692308,-84.9469776923077
"31903","Columbus","GA","Piggly Wiggly","1807 S Lumpkin Rd","31903",32.420043592039555,-84.95092779884847
"31903","Columbus","GA","Piggy Wiggly","144-298 Playa Del Ray Dr","31906",32.44601735318528,-84.93049296928663
"31903","Columbus","GA","Sam`s Food","709 Fort Benning Rd","31903",32.436636,-84.940764
"31903","Columbus","GA","Wynn Dixie","not_available","31903",32.413150009031895,-84.95286465560385
"31903","Columbus","GA","Winn Dixie","South Lumpkin","not_available",32.39516500118688,-84.9496173907721
"31903","Columbus","GA","Phenix Food Locker","not_available","31907",32.444974949879494,-84.9244663444427
"31903","Columbus","GA","International Fine Foods","not_available","31905",32.37585,-84.923221
"31904","Columbus","GA","Walmart Supercenter","2801 Airport Thruway","31909",32.52226475,-84.94910411
"31904","Columbus","GA","Walmart Supercenter","3700 Hwy 280/431 N.","36867",32.50046686,-85.04321976
"31904","Columbus","GA","Publix","1639 Bradley Park Dr Ste 600","31904",32.53411738927162,-84.96685268436462
"31904","Columbus","GA","ALDI","6301 Veterans Pkwy","31909",32.5359229,-84.9567384
"31904","Columbus","GA","Publix","5408 Summerville Rd Ste 200","36867",32.52098942951562,-85.02830138631043
"31904","Columbus","GA","Walmart Neighborhood Market","1042 Manchester Expy","31904",32.50646755187874,-84.97764493200721
"31904","Columbus","GA","Piggly Wiggly","1837 Stadium Dr","36867",32.49648185768872,-85.01737604660029
"31904","Columbus","GA","Winn-Dixie","6770 Veterans Pkwy","31909",32.54292666621587,-84.95187288375729
"31904","Columbus","GA","The Fresh Market","1591 Bradley Park Dr, Ste B","31904",32.53445884504801,-84.97022696658335
"31904","Columbus","GA","Piggly Wiggly","4916 River Rd","31904",32.51169874573516,-84.98211140161854
"31904","Columbus","GA","Smart Grocery","1912 Manchester Expressway","31904",32.5077,-84.964
"31904","Columbus","GA","Walmart Grocery Pickup and Delivery","5448 Whittlesey Blvd Ste B","31909",32.54124450683594,-84.94840240478516
"31904","Columbus","GA","Save-A-Lot","4217 Hamilton","31904",32.504294306343034,-84.97257968616702
"31904","Columbus","GA","Fresh Vitamins","5408 Summerville Rd","36867",32.521270751953125,-85.0281982421875
"31904","Columbus","GA","ALDI","3670 Marketplace Dr","36867",32.496768,-85.043993
"31904","Columbus","GA","Don's Fine Foods","4th Ave.","36867",32.48326452,-85.00117592
"31904","Columbus","GA","Terry's Grocery","9209 Lee Road 246","36877",32.509432689076384,-85.07396482014005
"31905","Fort Benning","GA","Fort Benning Commisary","8150 Marne Rd","31905",32.372714544211945,-84.92033148479742
"31905","Fort Benning","GA","Walmart Neighborhood Market","4909 Buena Vista Rd","31907",32.46847961053602,-84.91020305590183
"31905","Fort Benning","GA","Winn-Dixie","1100 Hunt Ave","31907",32.46867636748002,-84.91520768421836
"31905","Fort Benning","GA","Oriental Food and Gift Center","3656 Buena Vista RÐ","not_available",32.461164000000004,-84.930965
"31905","Fort Benning","GA","Piggly wiggly","not_available","36867",32.47133085069304,-85.00001214845334
"31905","Fort Benning","GA","Marvin’s Market","318 General Colin Powell Pkwy","36869",32.451865,-85.002709
"31905","Fort Benning","GA","Save-A-Lot","3360 Buena Vista Rd","31906",32.455695,-84.937599
"31906","Columbus","GA","Publix","3201 Macon Rd Ste 201","31906",32.48248398959244,-84.94415135471102
"31907","Columbus","GA","Publix","5435 Woodruff Farm Rd","31907",32.51969177761659,-84.89350194867683
"31907","Columbus","GA","Winn-Dixie","4231 Macon Rd","31907",32.49136219366957,-84.91886850272303
"31907","Columbus","GA","Piggly Wiggly","5850 Moon Rd","31909",32.52949696583243,-84.92448270320892
"31907","Columbus","GA","German Groceries & Deli","4475 Warm Springs Rd","31909",32.522139,-84.917193
"31907","Columbus","GA","Winn-Dixie","5750 Milgen Rd","31907",32.523226005842105,-84.88738788823593
"39817","Bainbridge","GA","Walmart Supercenter","500 E Alice St","39819",30.889873461040015,-84.57065206260518
"39817","Bainbridge","GA","Winn-Dixie","915 E Shotwell St","39819",30.904727886306983,-84.56430506444204
"39817","Bainbridge","GA","Harveys","not_available","39817",30.90477008077378,-84.54876783575865
"39817","Bainbridge","GA","Dixie Dandy Market","1015 Dothan Rd","39817",30.91520118713379,-84.58942413330078
"39819","Bainbridge","GA","Harris Teeter","21399 Epicerie Plz","20164",30.76143801977774,-84.7533631324768
"39819","Bainbridge","GA","Sunny's Grocery And Deli","7848 County Road 374","39845",30.809165,-84.85404369999999
"39819","Bainbridge","GA","The Grocery Store","35 Jefferson St","32324",30.703954451570482,-84.8461047001183
"39823","Blakely","GA","Piggly Wiggly","119 E Church St","36319",31.293228,-85.110125
"39823","Blakely","GA","Harvey's Supermarket","12246 Columbia St","39823",31.37447738647461,-84.93756866455078
"39823","Blakely","GA","Piggly Wiggly","113 N Main St","39823",31.379539,-84.935496
"39823","Blakely","GA","Mike’s Country Store","not_available","39837",31.172382,-84.736958
"39823","Blakely","GA","Wilkin's IGA","Main Street","39837",31.172779,-84.736904
"39837","Colquitt","GA","Piggly Wiggly","not_available","39845",31.029619216918945,-84.88021087646484
"39840","Cuthbert","GA","Piggly Wiggly","800 Blakely St","39840",31.769010543823242,-84.78900146484375
"39842","Dawson","GA","Harvey's Supermarket","279 S Main St","39842",31.771732330322266,-84.4476547241211
"39842","Dawson","GA","Piggly Wiggly","433 Rountree Dr.","39842",31.769458983948176,-84.44893575531499
"39846","Edison","GA","West IGA","not_available","39846",31.55868908041534,-84.73420902370462
"39851","Fort Gaines","GA","Robo's","not_available","39851",31.612639,-85.049566
