"zip","city","state","name","address","postalCode","lat","lon"
"01001","Agawam","MA","Pajers","400 Cooper St","01001",42.078713,-72.6303
"01001","Agawam","MA","Big Y World Class Market","503 Memorial Ave","01089-4026",42.09466065881667,-72.60459573229849
"01001","Agawam","MA","Geissler's Supermarket","830 Suffield St","01001",42.06073732496384,-72.63306189126273
"01001","Agawam","MA","Price Rite of W. Springfield","1106 Union Street","01089",42.095101393947175,-72.60719638828829
"01001","Agawam","MA","O-Mi Oriental Grocery","1096 Main St","01103",42.099886,-72.585882
"01001","Agawam","MA","Milano's","988 Main St","01103",42.098785,-72.58434100000001
"01002","Amherst","MA","Atkins Farms Country Market","1150 West St","01002",42.319061,-72.529275
"01002","Amherst","MA","Big Y World Class Market","175 University Dr","01002-2298",42.368406416390044,-72.53485593541461
"01002","Amherst","MA","Atkins Farm Market","113 Cowls Rd","01002",42.414497,-72.52935
"01005","Barre","MA","Barre Foods, Inc.","596 Summer St","01005",42.40904035,-72.09831231666666
"01007","Belchertown","MA","Checkers Marketplace","33 State St","01007",42.27234997583831,-72.41037356330263
"01013","Chicopee","MA","medina's supermarket","2705 Main St","01107",42.115415000000006,-72.605962
"01013","Chicopee","MA","Save-A-Lot","655 Liberty","01104",42.121331,-72.583223
"01013","Chicopee","MA","Cedar's Food Mart and Grill","405 Armory St","01104",42.120608000000004,-72.585624
"01013","Chicopee","MA","CTown Supermarkets","13 Cabot St","01040",42.19801114927317,-72.60404124855995
"01013","Chicopee","MA","Union Mart Convinence Store Smoke Shop","457 Granby Rd","01013",42.1580617,-72.5985403
"01013","Chicopee","MA","Hanks Variety","100 granby rd","01013",42.155021047502316,-72.60696105164135
"01013","Chicopee","MA","Aldi","903 Riverdale St","01089",42.12855181377486,-72.62463668801924
"01013","Chicopee","MA","Tedeschi Food Shops","201 Exchange St","01013",42.148552,-72.609523
"01013","Chicopee","MA","Shop Smart","not_available","not_available",42.172979999999995,-72.599148
"01013","Chicopee","MA","Save-A-Lot","235 South St","01040",42.1958007538742,-72.62130926270186
"01020","Chicopee","MA","Walmart Supercenter","591 Memorial Dr","01020",42.17279061,-72.57420096
"01020","Chicopee","MA","Price Rite of Chicopee","1600 Memorial Drive","01020",42.200492261281134,-72.57375932601059
"01020","Chicopee","MA","Big Y World Class Market","650 Memorial Dr","01020-5053",42.174336408469905,-72.57978044179998
"01020","Chicopee","MA","Aldi","505 Memorial Dr","01020",42.171009749501465,-72.57555351422525
"01020","Chicopee","MA","Big Y Support Center","2145 Roosevelt Ave","01104-1650",42.14009089887078,-72.54714665153068
"01020","Chicopee","MA","Mykonos GR.","687 James St","01020",42.20003730000001,-72.5674807
"01020","Chicopee","MA","1st Oriental Grocery","147 Broadway St","01020",42.154081,-72.580104
"01020","Chicopee","MA","Hellmart","not_available","01020",42.17294106193709,-72.5741663071149
"01026","Cummington","MA","The Old Creamery","not_available","01026",42.46422868291404,-72.90530783363678
"01027","Easthampton","MA","Big Y World Class Market","136 North King Street Route 5","01060",42.340694342040415,-72.64223764968153
"01027","Easthampton","MA","Walmart","180 N King St","01060",42.34147319695259,-72.64344738620974
"01027","Easthampton","MA","Big Y World Class Market","10 College Highway RT 10","01073",42.25326231947967,-72.69900487336832
"01027","Easthampton","MA","Cornucopia Foods","150 Main St","01060",42.31815425341718,-72.63069242600999
"01027","Easthampton","MA","Big E's Supermarket","11 Union St","01027",42.27011519931702,-72.67184726897956
"01027","Easthampton","MA","River Valley Market","330 N King St","01060",42.34762291927308,-72.64324238514288
"01027","Easthampton","MA","Cooper's Corner","31 Main St","01062",42.33504729337457,-72.66819566581918
"01027","Easthampton","MA","State Street Fruit Store","51 State St","01060",42.319426906716906,-72.63419839474963
"01028","East Longmeadow","MA","Big Y World Class Market","441 N Main St","01028-1804",42.07979766365191,-72.52804879537928
"01028","East Longmeadow","MA","Armatas","not_available","01028",42.075013,-72.521345
"01030","Feeding Hills","MA","Cebu Store","not_available","01030",42.066698,-72.675722
"01035","Hadley","MA","Walmart","337 Russell St","01035",42.35467143201697,-72.55283081805538
"01035","Hadley","MA","Maple Farm Foods","10 S Maple St","01035",42.35382196191737,-72.5507102538028
"01035","Hadley","MA","Trader Joe's","375 Russell St","01035",42.357875328897585,-72.5495029819647
"01035","Hadley","MA","ALDI Food Market","354 Russell St","01035",42.35971889177679,-72.55363018650814
"01035","Hadley","MA","Whole Foods Market","327 Russell St","01035",42.35332709912066,-72.55566534054576
"01035","Hadley","MA","Kim’s Oriental Market","111 Russell St","01035",42.341814,-72.593958
"01035","Hadley","MA","International Food Market","Russell Street","not_available",42.344672,-72.578287
"01035","Hadley","MA","Tran's World Food Market","50 Russell st","not_available",42.34033135431625,-72.60484689546907
"01036","Hampden","MA","Village Food Mart","43 Somers Rd","01036",42.05598492090705,-72.43923470721758
"01040","Holyoke","MA","King Mart","westfield road","not_available",42.186716,-72.650024
"01054","Leverett","MA","Village co-op","not_available","01054",42.49426104679519,-72.46955597323993
"01056","Ludlow","MA","Randall's Farm & Greenhouse","631 Center St","01056",42.18019515336712,-72.47197537942613
"01056","Ludlow","MA","Save-A-Lot","459 Main St","01151",42.155892,-72.490061
"01056","Ludlow","MA","Big Y World Class Market","433 Center St","01056-2863",42.16857670068698,-72.4832912621302
"01056","Ludlow","MA","M&A Produce","2 White St.","01056",42.16656809466163,-72.48150495688031
"01057","Monson","MA","Adams Hometown Market","115 Main St,","01057",42.09911401007672,-72.31587409973145
"01069","Palmer","MA","Big Y World Class Market","1180 Thorndike Street Rt 32","01069",42.17400125688143,-72.32425085291129
"01069","Palmer","MA","Walmart Supercenter","352 Palmer Rd","01082",42.237904799392616,-72.27951630248552
"01069","Palmer","MA","Village Market and Deli","2240 Main St","01092",42.2123515,-72.2399713
"01071","Russell","MA","Four Mile Country Store","Russell Rd/ Rt 20","not_available",42.147940000000006,-72.81360600000001
"01073","Southampton","MA","Heron Bay MarketPlace","Middle Road","not_available",42.200505,-72.705728
"01075","South Hadley","MA","Big Y World Class Market","44 Willimansett St","01075-3062",42.22260590404536,-72.57081498412788
"01077","Southwick","MA","Big Y World Class Market","195 College Hwy","01077-9438",42.02513677954094,-72.78796148937636
"01082","Ware","MA","Big Y World Class Market","148 West St","01082-1448",42.25450998946339,-72.25206534443976
"01083","Warren","MA","Alltown","1300 Main St","01083",42.21519714256547,-72.20551801387296
"01085","Westfield","MA","Walmart Supercenter","141 Springfield Rd","01085",42.10801668690514,-72.70799561614209
"01085","Westfield","MA","Big Y World Class Market","1 E Silver St","01085-4407",42.11261990867745,-72.74660851350706
"01085","Westfield","MA","Big Y World Class Market","475 E Main St","01085-3312",42.1119491625366,-72.72311101939368
"01085","Westfield","MA","FRESHco Food Market","1029 North Rd","01085",42.17732238769531,-72.69096374511719
"01085","Westfield","MA","Price Rite of Westfield","303 E. Main Street","01085",42.11309657367732,-72.72669256620294
"01085","Westfield","MA","Polish Shop","not_available","01085",42.12055657355189,-72.74393204018654
"01089","West Springfield","MA","The Head Shop","524 Main St","01089",42.101953,-72.609551
"01089","West Springfield","MA","Madni Food Mart","470 Main St","01089",42.102373,-72.61035799999999
"01095","Wilbraham","MA","Big Y World Class Market","2035 Boston Rd","01095-1103",42.14865717919203,-72.4714691016705
"01104","Springfield","MA","Tedeschi Food Shops","376 Boston Rd","01109",42.129589107138216,-72.52894444053709
"01104","Springfield","MA","Big Y World Class Market","1090 Saint James Ave","01104-1459",42.13733308903397,-72.5714225437377
"01104","Springfield","MA","Mason Food Mart","89 Wilbraham Rd, Springfield, MA 01109","01109",42.111407,-72.560897
"01104","Springfield","MA","NSA Supermarket","790 State St","01109",42.1116943359375,-72.56527709960938
"01104","Springfield","MA","Imperial Super Grocery","1072 State St","01109",42.11444854736328,-72.55551147460938
"01104","Springfield","MA","Save A Lot","1060 Wilbraham Rd","01109",42.1165399,-72.5252892
"01105","Springfield","MA","Food Zone","355 Belmont Ave","01108",42.088145926627384,-72.56417085274956
"01105","Springfield","MA","Saigon Market","306 Belmont Ave","01108",42.087583,-72.566343
"01105","Springfield","MA","Tedeschi Food Shops","266 Belmont Ave","01108",42.087809,-72.56809200000001
"01106","Longmeadow","MA","Armata's","901 Shaker Rd","01106",42.03357548046729,-72.55395305222571
"01106","Longmeadow","MA","Big Y World Class Market","802 Williams St","01106-2054",42.056033096755264,-72.55542672181048
"01108","Springfield","MA","Inter Produce","679 White St","01108",42.083531,-72.543132
"01108","Springfield","MA","Friendly Mart","154-158 Island Pond Rd","01118",42.09762,-72.55103000000001
"01109","Springfield","MA","Price Rite of Springfield","633 Boston Rd.","01119",42.133497,-72.522269
"01118","Springfield","MA","Big Y World Class Market","300 Cooley St","01128-1801",42.095677741867135,-72.50021716686473
"01119","Springfield","MA","Walmart Supercenter","1105 Boston Rd","01119",42.13663287460958,-72.50728435905322
"01119","Springfield","MA","Fresh Acres Market","1941 Wilbraham Rd","01129-1822",42.11386617861814,-72.49716815210775
"01119","Springfield","MA","5 Star Supermarket","780 Boston Rd","01119",42.136932,-72.51859
"01119","Springfield","MA","Aldi","1284 Boston Rd","01119",42.1411818,-72.5010474
"01201","Pittsfield","MA","market 32","555 Hubbard Ave","01201",42.466586224171266,-73.19621359899193
"01201","Pittsfield","MA","Price Chopper","495 Pittsfield Rd","01240",42.405859,-73.266212
"01201","Pittsfield","MA","Walmart","555 Hubbard Ave Ste 12","01201",42.46529473022836,-73.1985951442288
"01201","Pittsfield","MA","Stop & Shop","1 Dan Fox Dr","01201",42.4092907,-73.2646631
"01201","Pittsfield","MA","Big Y World Class Market","200 West St","01201-5862",42.4484002290237,-73.25907680446284
"01201","Pittsfield","MA","ALDI","898 Crane Ave","01201",42.4677926,-73.2063127
"01201","Pittsfield","MA","Whorle's","East Street","01201",42.455050365635955,-73.20736959705127
"01201","Pittsfield","MA","Berkshire Organics","813 Dalton Division Rd","01226",42.43002010495659,-73.196758057818
"01201","Pittsfield","MA","Asian Int'l Market","375","01201",42.453860136811805,-73.25247487524659
"01201","Pittsfield","MA","Harry's Supermarket","37 Elm St","01201",42.44634246826172,-73.2421875
"01201","Pittsfield","MA","Price Rite of Pittsfield","457 Dalton","01201",42.4500845,-73.2453824
"01201","Pittsfield","MA","Harrys Supetmarket","not_available","1201",42.4671112507191,-73.25146267868666
"01220","Adams","MA","Big Y World Class Market","1 Myrtle St","01220",42.62031648037031,-73.11897695837425
"01223","Becket","MA","Becket Country Store","389-743 Main St","01223",42.27854888228095,-73.059638600373
"01226","Dalton","MA","Dalton General Store","not_available","01226",42.4869929515946,-73.15209477115317
"01226","Dalton","MA","Price Rite Marketplace","457 Dalton Ave","01201",42.473697662353516,-73.16621398925781
"01230","Great Barrington","MA","Big Y World Class Market","700 Main St Rt 7","01230",42.18066792531849,-73.36568483185204
"01230","Great Barrington","MA","Price Chopper","300 Stockbridge Rd","01230",42.210159,-73.344071
"01230","Great Barrington","MA","Berkshire Food Co-op","34 Bridge Street","01230",42.1928555,-73.36119769999999
"01237","Lanesborough","MA","Jiminy Peak Country Store","37 Corey Rd","01237",42.55654492285968,-73.29212581207835
"01238","Lee","MA","Big Y World Class Market","10 Pleasant St","01238-1317",42.2958792674485,-73.24031549544742
"01238","Lee","MA","Loeb's Foodtown","42 Main St","01240",42.35816048361934,-73.28409929306255
"01247","North Adams","MA","Walmart Supercenter","1415 Curran Memorial Hwy","01247",42.664396806768615,-73.11036248951987
"01247","North Adams","MA","Big Y World Class Market","45 Veterans Memorial Dr","01247-2359",42.70095874603715,-73.11081517257088
"01247","North Adams","MA","Walmart Grocery Pickup","1415 Curran Hwy","01247",42.6645562756753,-73.1079160719929
"01267","Williamstown","MA","Wild Oats Market","320 Main St","01267",42.703692110118844,-73.18681351892329
"01267","Williamstown","MA","Store At Five Corners","2486-2498 Green River Rd","01267",42.660546819492744,-73.24108196604826
"01267","Williamstown","MA","Elderberry Springs Farm, LLC","806 Taconic Trl","12138",42.745859,-73.30824
"01301","Greenfield","MA","Food City","250 Avenue A","01376",42.60487336641719,-72.56083898768901
"01301","Greenfield","MA","Big Y World Class Market","237 Mohawk Trail Route 2","01301",42.58720508395017,-72.62571757362582
"01301","Greenfield","MA","Fosters","not_available","01301",42.596231426091045,-72.60936135041207
"01301","Greenfield","MA","The Barn","95 River St","01301",42.583338,-72.611577
"01301","Greenfield","MA","Stop And Shop","French King Hwy.","01301",42.59243102871919,-72.61146417372593
"01342","Deerfield","MA","Savage's Market","470 Greenfield Rd","01342",42.533741,-72.603107
"01360","Northfield","MA","Mim's Market","60 Main St","01360",42.69302097041337,-72.45714766747585
"01364","Orange","MA","Walmart Supercenter","555 E Main St","01364",42.5882062147367,-72.2843607548568
"01370","Shelburne Falls","MA","Mccusker's Market","3 State St","01370",42.603640999999996,-72.741718
"01370","Shelburne Falls","MA","Keystone Market","not_available","01370",42.603854,-72.738783
"01373","South Deerfield","MA","Garden City Market","not_available","01373",42.47790015112117,-72.6083456365312
"01420","Fitchburg","MA","Walmart","301 Massachusetts Ave","01462",42.594706939173825,-71.75892030541593
"01420","Fitchburg","MA","Market Basket","399 John Fitch Hwy","01420",42.58132302932242,-71.77507585631388
"01420","Fitchburg","MA","Market Basket","90 Water St","01420",42.580322915634575,-71.79398290760624
"01420","Fitchburg","MA","Michelle's Variety Store","938 Water St","01420",42.56596,-71.78139200000001
"01420","Fitchburg","MA","Tedeschi Food Shops","158 Main St","01453",42.531643,-71.756774
"01420","Fitchburg","MA","Deli Counter at Market Basket","Water St","01420",42.58014909753241,-71.79376470393437
"01420","Fitchburg","MA","Market Basket","John Fitch Hwy.","not_available",42.55924614630661,-71.77528313782571
"01420","Fitchburg","MA","Tedeschi Food Shops","782 N Main St","01453",42.556149,-71.770927
"01420","Fitchburg","MA","Romano's Market","138 Harvard St","01420",42.57578789999999,-71.7867823
"01420","Fitchburg","MA","Market Kitchen at Market Basket","Water Street","01420",42.57844251099454,-71.79307550136494
"01420","Fitchburg","MA","Tedeschi's","15 Main St","01420",42.58197220368518,-71.79119818226795
"01430","Ashburnham","MA","Alltown","6 Gardner Road","01430",42.6087939,-71.9423786
"01430","Ashburnham","MA","Ashburnham Market Place","50 Main St","01430",42.636702,-71.90972099999999
"01432","Ayer","MA","Shaw's","760 A Boston Rd","01450",42.57987894536596,-71.52396261692041
"01432","Ayer","MA","Alltown Fresh","28 Harvard Rd","01432",42.5492506,-71.5710508
"01432","Ayer","MA","Ayer Shop N' Save","22 Fitchburg Rd","01432",42.57026205562095,-71.59598887682417
"01432","Ayer","MA","Chung Ge Oriental Market","210 W Main St","01432",42.55430603027344,-71.60530853271484
"01440","Gardner","MA","Walmart Supercenter","677 Timpany Blvd","01440",42.55092873303795,-71.99434545837013
"01440","Gardner","MA","Price Chopper","560 Main St","01440",42.5694,-71.985651
"01440","Gardner","MA","Stop & Shop","Timpany Plaza/Rt. 68","01440",42.56943432228496,-71.99658513384966
"01440","Gardner","MA","Tedeschi Food Shops","403 Parker St","01440",42.574954,-72.007048
"01440","Gardner","MA","Bonks market","193 Pine Street","not_available",42.560668532709364,-71.94736139643031
"01450","Groton","MA","Shaw's Supermarket","119 boston rd","not_available",42.606363201085664,-71.54429475959458
"01450","Groton","MA","Donelan's Supermarket","250 Main St","01450",42.60939496254424,-71.57947709235707
"01453","Leominster","MA","Market Basket","71 Sack Blvd","01453",42.530204437506825,-71.74496919392294
"01453","Leominster","MA","Walmart Supercenter","11 Jungle Rd","01453",42.49190072369599,-71.72964158397984
"01453","Leominster","MA","ALDI","241 New Lancaster Rd","01453",42.49322676132257,-71.72856152057648
"01453","Leominster","MA","Alltown","280 New Lancaster Rd","01453",42.49369944079877,-71.72679403868186
"01453","Leominster","MA","Tedeschi Food Shops","766 Central St","01453",42.501907569119346,-71.74550929319437
"01460","Littleton","MA","Market Basket","301 Constitution Ave","01460",42.55290270186202,-71.47720052079586
"01460","Littleton","MA","Donelan's Supermarket","236 Great Rd","01460",42.54344862778449,-71.46698387711069
"01460","Littleton","MA","Tedeschi Food Shops","12 Jennifer St","01460",42.54484939575195,-71.47425079345703
"01460","Littleton","MA","Market Basket","300 Constitution Ave","not_available",42.5626,-71.4969
"01463","Pepperell","MA","Donelan's Supermarket","75 Main St","01463",42.66533990916149,-71.58386248589294
"01473","Westminster","MA","Vincent's Country Store","109 Main St","01473",42.545968613650125,-71.91339212376124
"01475","Winchendon","MA","Central Supermarket IGA","49 Central St","01475",42.681204,-72.047557
"01501","Auburn","MA","Walmart Supercenter","742 Main St","01537",42.171117203521234,-71.87887005383654
"01501","Auburn","MA","Shaw's","368 Southbridge St","01501",42.2057413,-71.8379649
"01501","Auburn","MA","Park 'n Shop","711 Southbridge St","01501",42.18244859085656,-71.86007759367739
"01501","Auburn","MA","Forsbergs","850 Southbridge St","01501",42.17684,-71.87394
"01503","Berlin","MA","Market Basket","8 Highland Cmn E","01749",42.39372452170884,-71.59380848410854
"01503","Berlin","MA","Balance Rock Farm","104 Highland St","01503",42.394983,-71.63176700000001
"01506","Brookfield","MA","TipTop Country Store","8 Central St","01506",42.215225,-72.100641
"01507","Charlton","MA","XtraMart","93 Southbridge Rd","01537",42.16258214567585,-71.89977047218018
"01510","Clinton","MA","Shaw's","1175 Main St","01510",42.43405290478948,-71.6837286711052
"01510","Clinton","MA","Sam's Quick Stop LLC","175 Sterling St","01510",42.422933,-71.693555
"01518","Fiskdale","MA","Micknuck's Fresh Marketplace","570 Main St","01518",42.11626332138203,-72.11352825162763
"01518","Fiskdale","MA","Sams Food Store And Gas","Sturbridge Rd","01010",42.11118247439163,-72.09451662612126
"01520","Holden","MA","Big Y World Class Market","160 Reservoir Street Rt 31","01520",42.34427045461632,-71.86238896737581
"01521","Holland","MA","Holland Market","130 Mashapaug Rd","01521",42.056676,-72.16067199999999
"01524","Leicester","MA","Walmart Supercenter","20 Soojian Dr","01524",42.251146250524094,-71.93722227662211
"01527","Millbury","MA","Market 32","21 Galaxy Pass","01590",42.15998296783637,-71.7331771492526
"01527","Millbury","MA","Walmart Supercenter","25 Tobias Boland Way","01607",42.23339113876392,-71.79107738469597
"01527","Millbury","MA","Goretti's Supermarket","1 Providence St","01527",42.19460935130489,-71.75987619546926
"01527","Millbury","MA","Price Chopper","564 SW Cutoff","01607",42.213444,-71.79793
"01527","Millbury","MA","XtraMart","100 Worcester Providence Tpke","01527",42.19199944960789,-71.77096377341525
"01527","Millbury","MA","Pinoy Republic","545 SW Cutoff","01607",42.211265999999995,-71.796849
"01527","Millbury","MA","XtraMart","27 Worcester Providence Tpke","01590",42.1742926,-71.7534665
"01527","Millbury","MA","XtraMart","157 MA-146 N","01590",42.161169,-71.7372713
"01532","Northborough","MA","Wegmans","9102 Shops Way","01532",42.291100030604426,-71.6712142047134
"01532","Northborough","MA","Walmart Supercenter","200 Otis St","01532",42.284890584887066,-71.65585899365297
"01532","Northborough","MA","Desi Market","954-1010 Boston Worcester Turnpike","01545",42.28067355134056,-71.67440656645454
"01532","Northborough","MA","Northborough Crossing","6102-9102 Shops Way","01532",42.2918963,-71.6728775
"01532","Northborough","MA","XtraMart","183 Turnpike Rd","01581",42.28494150560292,-71.6201493364085
"01532","Northborough","MA","Simple Enough Natural Foods","18 Lyman Street","01581",42.28211,-71.60705
"01534","Northbridge","MA","Shaw's","1177 Providence Rd","01588",42.125693022615415,-71.64819180965424
"01534","Northbridge","MA","Highland Farms","2-12 Johnston Ave","01588",42.11315453052521,-71.65671586990356
"01540","Oxford","MA","Market Basket","95 Sutton Ave","01540",42.114031376336044,-71.85122312658022
"01543","Rutland","MA","Honey Farms #84","87 Main St","01543",42.376073042187464,-71.93437160030264
"01543","Rutland","MA","Rutland Marketplace","Pommogussett Road","01543",42.37833088561148,-71.95591162202872
"01545","Shrewsbury","MA","Whole Foods Market","193 Boston Turnpike Road","01545",42.275545499552585,-71.74665783455896
"01545","Shrewsbury","MA","Trader Joe's","77 Boston Turnpike","01545",42.27547123471909,-71.75078955236377
"01545","Shrewsbury","MA","Shaw's","50 Boston Turnpike Rd","01545",42.2718039,-71.7525326
"01545","Shrewsbury","MA","Price Chopper","731 Boston Tpke","01545",42.278303,-71.696528
"01545","Shrewsbury","MA","Patel Brothers","504 Boston Tpke","01545",42.276597447794735,-71.71886638143009
"01545","Shrewsbury","MA","Price Chopper","380 Maple Ave, Shrewsbury, MA 01545","not_available",42.277198791503906,-71.7370376586914
"01545","Shrewsbury","MA","India Food And Gift","264 Boston Tpke","01545",42.275240000000004,-71.740403
"01550","Southbridge","MA","Big Bunny Market","942 Main St","01550",42.082474638508344,-72.04838650816812
"01550","Southbridge","MA","Big Y World Class Market","505 E Main St","01550-2929",42.06941282235668,-72.00923429122861
"01550","Southbridge","MA","Shaw's","178 Main St","01566",42.0978568,-72.0710433
"01550","Southbridge","MA","Paoletti's","not_available","01566",42.09284975385787,-72.06769161169696
"01562","Spencer","MA","Big Y World Class Market","62 W Main St","01562-2644",42.23349290813829,-72.01395154547015
"01562","Spencer","MA","Price Chopper","2-30 Pleasant St","01562",42.245073,-71.993755
"01564","Sterling","MA","Appletown Market","9 Main St","01564",42.43666329630703,-71.76168770772372
"01566","Sturbridge","MA","Walmart","100 Charlton Rd","01566",42.12770839773054,-72.06021737999012
"01569","Uxbridge","MA","BJ's Wholesale Club","869 Quaker Hwy","01569",42.01755116874552,-71.60179163767602
"01570","Webster","MA","Price Chopper","2 Worcester Rd","01570",42.061409,-71.862996
"01570","Webster","MA","Shaw's","82 Worchester Rd","01570",42.07001912952206,-71.86642169952393
"01570","Webster","MA","Shaw's","82 Worcester Rd","01570",42.07199906765465,-71.86573518383705
"01571","Dudley","MA","Park 'n Shop","10 Airport Rd","01571",42.04204236573352,-71.91327409327485
"01571","Dudley","MA","Yankee Breads and Pastries","265 W Main St","01571",42.03529532537945,-71.92144260479836
"01581","Westborough","MA","Roche Bros Supermarket","1100 Union St","01581",42.269822750485716,-71.60854646326204
"01581","Westborough","MA","Ron's Store","not_available","01581",42.288678,-71.577796
"01583","West Boylston","MA","Walmart","137 W Boylston St","01583",42.355522153802376,-71.78292841476156
"01583","West Boylston","MA","Market 32","72 Pullman St","01606",42.32461093135442,-71.79656534975122
"01583","West Boylston","MA","Wonder Bakery Thrift Store","215 W Boylston St","01583",42.34874,-71.785333
"01588","Whitinsville","MA","Walmart Supercenter","100 Valley Pkwy","01588",42.107449534524264,-71.7001393489148
"01602","Worcester","MA","Big Y World Class Market","100 Mayfield St","01602-3528",42.259217638384904,-71.82646919069879
"01602","Worcester","MA","Price Chopper","221 Park Ave","01609",42.270999,-71.81507
"01602","Worcester","MA","Ed Hyder's Mediterranean Marketplace","408 Pleasant St","01609",42.26326879572114,-71.81617494689155
"01602","Worcester","MA","Living Earth","232 Chandler St","01609",42.26121554343936,-71.82009624952347
"01602","Worcester","MA","Tedeschi Food Shops","973 Main St","01603",42.24903855206989,-71.82411670388166
"01603","Worcester","MA","Shaw's","68 Stafford St","01603",42.2414047,-71.84215
"01603","Worcester","MA","Shaw's","64 Stafford St","01603",42.241657422615525,-71.84245914764045
"01603","Worcester","MA","Foodworks","Stafford St","not_available",42.23945617675781,-71.84443664550781
"01603","Worcester","MA","Artichoke Food Co-Op","805 Main St","01610",42.256054999999996,-71.811904
"01603","Worcester","MA","San Miguel Grocery","Canterbury St","01603",42.24647080025062,-71.81608479713161
"01603","Worcester","MA","asia mini mart","118 Cambridge St","01603",42.243219,-71.82637
"01603","Worcester","MA","Santiagos Market","Main St","01608",42.24837969909089,-71.82577912993666
"01604","Worcester","MA","D'errico's Market","141 E Central St","01605",42.264646,-71.789046
"01604","Worcester","MA","Honey Farms #20","98 Millbury St","01610",42.25263295680637,-71.79928658924256
"01604","Worcester","MA","George Floyd Mini Mart","687 Millbury St","01607",42.23837661743164,-71.7979965209961
"01604","Worcester","MA","Tedeschi Food Shops","104 Belmont St","01605",42.271915783488424,-71.79251696225516
"01604","Worcester","MA","Honey Farms #15","64-66 Vernon St","01610",42.24990795440447,-71.79506421089172
"01604","Worcester","MA","Price Chopper","29 Sunderland Rd","01604",42.247168,-71.772701
"01604","Worcester","MA","Paper & Provisions Warehouse","85 Green St","01604",42.257907,-71.798064
"01605","Worcester","MA","Shaw's","14 W Boylston St","01605",42.28857227625526,-71.80651395917721
"01605","Worcester","MA","Price Rite of Worcester","117 Gold Star Blvd","01606",42.29157943491492,-71.80382633192391
"01605","Worcester","MA","Sam's Club #6649","301 Barber Ave","01606",42.29417454888216,-71.79721273109642
"01605","Worcester","MA","Aldi","500 Lincoln St","01605",42.2954284,-71.7740191
"01605","Worcester","MA","stop n save","147 Highland St","01609",42.27073,-71.808809
"01605","Worcester","MA","Honey Farms","105 highland street","01609",42.27096841881781,-71.80642546504926
"01606","Worcester","MA","Quaffy On demand Delivery","96 E Mountain St","01606",42.320156,-71.785438
"01608","Worcester","MA","Compare Foods Of Worcester","664 main st","01610",42.25919039641485,-71.80601980974583
"01610","Worcester","MA","Price Rite of Southbridge St.","542 Southbridge Street","01610",42.2473468,-71.8087556
"01610","Worcester","MA","canal grocery & deli","155 Millbury St","01610",42.251411,-71.79988
"01612","Paxton","MA","Ten West Market","10 West St","01612",42.31145,-71.928289
"01701","Framingham","MA","Wegmans","1245 Worcester St","01760",42.302122002109755,-71.38561629643041
"01701","Framingham","MA","Walmart","121 Worcester Rd","01701",42.300547665080046,-71.39928065272282
"01701","Framingham","MA","Whole Foods Market","575 Worcester Rd","01701",42.29861153815212,-71.42125438028484
"01701","Framingham","MA","Trader Joe's","659 Worcester Rd","01701",42.298944407163816,-71.42491422942868
"01701","Framingham","MA","Bazaar-west Supermarket","not_available","01701",42.30029204614453,-71.43185499343413
"01701","Framingham","MA","Indian Food and Spices","855 Worcester Rd","01701",42.300111498254935,-71.4321624564791
"01701","Framingham","MA","Anthony's Olde Colonial Market","not_available","01752",42.35108806657745,-71.48808683293255
"01701","Framingham","MA","Stop & Shop","1483-1599 Boston Worcester Turnpike","01701",42.294134840575374,-71.46427820616896
"01701","Framingham","MA","Old Connecticut Path","235 Old Connecticut Path","01701",42.30595533644178,-71.40100568543852
"01701","Framingham","MA","ALDI","321 Speen St","01760",42.30400104012027,-71.37959367063982
"01702","Framingham","MA","Seabra","22 Beaver St.","01702",42.27784548998591,-71.40848484757109
"01702","Framingham","MA","Farmers Ram Market","5 Homer Ave","01721",42.25951385498047,-71.46370697021484
"01702","Framingham","MA","Cris Market","not_available","01702",42.280113,-71.39949
"01702","Framingham","MA","Tedeschi Food Shops","431 Waverly St","01702",42.276388398220476,-71.4171134092705
"01720","Acton","MA","Donelan's","248 Great Rd","01720",42.493933214017616,-71.41732662284987
"01720","Acton","MA","Roche Brothers","387 Massachusetts Ave","01720",42.47501443818347,-71.44922792109759
"01720","Acton","MA","Trader Joe's","145 Great Rd","01720",42.482845602905556,-71.41483537776254
"01720","Acton","MA","Acton Plaza","371 Massachusetts Ave","01720",42.474609375,-71.44940948486328
"01720","Acton","MA","South Acton Village Market","128-136 Main St","01720",42.461067,-71.455214
"01720","Acton","MA","Tedeschi Food Shops","75 Great Rd","01720",42.47737159531362,-71.41127243156821
"01720","Acton","MA","West Concord Supermarket","not_available","01742",42.456579,-71.39315972
"01721","Ashland","MA","Market Basket","49 Pond St","01721",42.256926028065564,-71.42769216915855
"01721","Ashland","MA","Shaw's","301 Pond St","01721",42.2410596,-71.4331098
"01730","Bedford","MA","Whole Foods Market","170 Great Rd","01730",42.490703174901334,-71.27304786965946
"01730","Bedford","MA","Hanscom AFB Commissary","1709 Building A-Griffiss St.","01731-6290",42.46287156614838,-71.28689078645385
"01740","Bolton","MA","Country Cupboard","476 Main St #3","01740",42.43007010482373,-71.58889465482325
"01740","Bolton","MA","Tedeschi Food Shops","28 Cox St","01749",42.39894186238498,-71.56811228299806
"01742","Concord","MA","Donelan's Supermarket of Lincoln","145 Lincoln Rd","01773",42.41498472113838,-71.32564183711979
"01742","Concord","MA","Crosby's Marketplace","211 Sudbury Rd","01742",42.45425109292209,-71.35615308646058
"01742","Concord","MA","lincoln Farmers Market","not_available","01773",42.4147834777832,-71.32473754882812
"01742","Concord","MA","Farfalle Italian Market","26 Concord Xing","01742",42.455853000000005,-71.357607
"01747","Hopedale","MA","Shaw's","93 Prospect St","01757",42.1388858,-71.5334608
"01747","Hopedale","MA","Big Y World Class Market","7 Medway Rd","01757-2902",42.148632681040475,-71.50268343522066
"01747","Hopedale","MA","Hopedale Mart","405 South Main St","01747",42.10314,-71.503958
"01747","Hopedale","MA","Tedeschi Food Shops","49 Main St","01757",42.143044307141,-71.51637627853697
"01748","Hopkinton","MA","Price Chopper","167 W Main St","01748",42.20962210344729,-71.55153274078154
"01748","Hopkinton","MA","Water Fresh Farms","151 Hayden Rowe St","01748",42.210280871269106,-71.51266805793949
"01749","Hudson","MA","Walmart Supercenter","280 Washington St","01749",42.37321540407079,-71.55960338853
"01749","Hudson","MA","Shaw's","201 Washington St","01749",42.38031530003407,-71.56906547145928
"01749","Hudson","MA","Specialized Plastics Incorporated","567 Main St","01749",42.390944,-71.505348
"01752","Marlborough","MA","Price Chopper","240 E Main St","01752",42.35321321,-71.53482073
"01752","Marlborough","MA","Marlborough Super Buffet","771 Boston Post Rd E","01752",42.34978537430334,-71.4994956509511
"01752","Marlborough","MA","Tedeschi Food Shops","87 Chestnut St","01752",42.347288,-71.56026700000001
"01752","Marlborough","MA","Guatemala Market","518 Lincoln St","01752",42.344352,-71.56232299999999
"01754","Maynard","MA","Russell's Convenience Store","193 Main St","01754",42.43042582458136,-71.46085735845638
"01754","Maynard","MA","Tedeschi Food Shops","5 Waltham St","01754",42.43097415,-71.46233558
"01757","Milford","MA","Stop & Shop","Medway Rd","01757",42.14979486616289,-71.48734166835142
"01757","Milford","MA","Aldi Food Market","225 E Main St","01757",42.15047335515563,-71.49816087106956
"01757","Milford","MA","Stop & Shop","126 Medway Rd","01757",42.15029506339247,-71.48765831590481
"01760","Natick","MA","Roche Bros","150 W Central St","01760",42.28162396155483,-71.37700309123203
"01760","Natick","MA","Donelan's Market","not_available","01778",42.317345416147404,-71.36245970110384
"01760","Natick","MA","Fells market","326 Weston Rd","02482",42.30596764067919,-71.31368910013965
"01760","Natick","MA","Tedeschi Food Shops","54-58 E Central St","01760",42.28495248415706,-71.34202761464121
"01775","Stow","MA","Shaw's","155 Great Rd","01775",42.43478873293289,-71.48698300123215
"01775","Stow","MA","Applefielf Farm","773-809 Great Rd","01775",42.435561418533325,-71.53799593448639
"01776","Sudbury","MA","Whole Foods Market","536 Boston Post Road","01776",42.36145260791254,-71.4317920104624
"01776","Sudbury","MA","Shaw's","509 Boston Post Rd","01776",42.3591598,-71.4298039
"01776","Sudbury","MA","Shaw's","not_available","01776",42.399261317296634,-71.43533701189463
"01776","Sudbury","MA","Sudbury Farms","439 Boston Post Rd","01776",42.36007020823045,-71.42310505213165
"01801","Woburn","MA","Market Basket","310 Mishawum Rd","01801",42.503593,-71.132006
"01801","Woburn","MA","Shaw's","180A Cambridge St","01803",42.5112071,-71.1981968
"01801","Woburn","MA","Whole Foods Market","400 Cambridge Rd","01801",42.46048066627846,-71.16363386226422
"01801","Woburn","MA","Super Stop & Shop","2 Elm St","01801",42.4998615,-71.1598396
"01801","Woburn","MA","E-Z Indian Grocery","walnut st","01801",42.480626,-71.150687
"01801","Woburn","MA","China Merchandise International Market","Cambridge St","not_available",42.500012,-71.194006
"01801","Woburn","MA","6 Star Market","170 Main St","01801",42.473031,-71.14993199999999
"01801","Woburn","MA","hello brother","not_available","01803",42.51031,-71.201705
"01801","Woburn","MA","David's Log Co","361 Woburn St","02420",42.450479,-71.196922
"01801","Woburn","MA","Foodland","120 Cambridge St","01803",42.500012,-71.194006
"01803","Burlington","MA","H Mart","3 Old Concord Rd","01803",42.472811982012225,-71.20876066957402
"01803","Burlington","MA","Wegmans","53 3rd Ave","01803",42.487212627341044,-71.22578434478963
"01803","Burlington","MA","Market Basket","26 Middlesex Tpke","01803",42.470714925838344,-71.20868194062476
"01803","Burlington","MA","Trader Joe's","51 Middlesex Turnpike","01803",42.47329533978956,-71.21148807741555
"01810","Andover","MA","Market Basket","350 Winthrop Ave #10","01845",42.68459997115708,-71.13646899619886
"01810","Andover","MA","Whole Foods Market","40 Railroad St.","01810",42.66117864117762,-71.14476893602662
"01810","Andover","MA","Market Basket Perishable DC","340 Ballardvale St","01810",42.6062333171459,-71.16182377032159
"01810","Andover","MA","Stop And Shop North Andover Ma","not_available","01845",42.67263512301065,-71.1218944573423
"01810","Andover","MA","America's Food Basket","73 Winthrop Ave","01843",42.6894913,-71.15103470000001
"01810","Andover","MA","Hookah Outlet","8 S Broadway","01843",42.70002051851991,-71.16423200859833
"01810","Andover","MA","Market Basket","1 Grocery Way","01843",42.682254791259766,-71.14994049072266
"01810","Andover","MA","Hernandez Market","47 Loring St","01843",42.699568,-71.146455
"01810","Andover","MA","Tedeschi Food Shops","3 Beacon St","01843",42.69004440307617,-71.1737289428711
"01810","Andover","MA","Tedeschi Food Shops","208 S Broadway","01843",42.69384002685547,-71.16159057617188
"01810","Andover","MA","Market Basket","Abbott St","01810",42.65024807129835,-71.13982200622559
"01810","Andover","MA","Shin Shin Oriental Grocery Store","615 S Union St","not_available",42.68638229370117,-71.15332794189453
"01821","Billerica","MA","Market Basket","199 Boston Rd","01862-2328",42.58055967926401,-71.28877816809168
"01821","Billerica","MA","Market Basket","496 Boston Rd","01821",42.55520657304256,-71.26223203525508
"01821","Billerica","MA","Market Basket","700 Boston Rd","01821",42.53946955582971,-71.24374055950028
"01821","Billerica","MA","Alltown","1 Republic Rd","01862",42.557832315263816,-71.29873129127738
"01821","Billerica","MA","Tedeschi Food Shops","1 Bridle Rd","01821",42.55784127061008,-71.28508280789971
"01824","Chelmsford","MA","Market Basket","288 Chelmsford St","01824",42.613743557319204,-71.33190402966085
"01824","Chelmsford","MA","Walmart","66 Parkhurst Rd","01824",42.622866531594944,-71.3609492201851
"01824","Chelmsford","MA","M&H Oriental Food Store","1-19 Summer St","01824",42.59386544353741,-71.3490334169785
"01824","Chelmsford","MA","Tedeschi Food Shops","210 Boston Rd","01824",42.57960839318111,-71.33931471446277
"01824","Chelmsford","MA","Angkor Thom Market","not_available","01851",42.625763168667454,-71.3215151544307
"01826","Dracut","MA","Market Basket","1235 Bridge St","01850",42.66463673670683,-71.30250160669037
"01826","Dracut","MA","7-Eleven","494 Bridge St","01850",42.65178857889536,-71.30314457469278
"01826","Dracut","MA","Dracut Convenience Store","26 Pleasant St","01826",42.663016,-71.325751
"01830","Haverhill","MA","Market Basket","34 Plaistow Rd","03865",42.82262096207091,-71.10591914190191
"01830","Haverhill","MA","Shaw's","4 Plaistow Rd","03865",42.8159773,-71.105884
"01830","Haverhill","MA","Walmart","58 Plaistow Rd","03865",42.8254604321049,-71.11056586909805
"01830","Haverhill","MA","Market Basket","2 Water St #2","01830",42.77568326552672,-71.0747959579035
"01830","Haverhill","MA","Market Basket","285 Lincoln Ave","01830",42.763878782866655,-71.03776215150258
"01830","Haverhill","MA","Aldi","9 Plaistow Rd","03865",42.81751491765137,-71.10050618648529
"01830","Haverhill","MA","Tedeschi Food Shops","89-93 Lafayette Square","01832",42.777736,-71.089105
"01830","Haverhill","MA","Gluten Free For You and Me","322 Groveland St","01830",42.816035732718035,-71.10352314970402
"01830","Haverhill","MA","Tedeschi Food Shops","5-7 Dudley St","01830",42.784455,-71.077928
"01830","Haverhill","MA","Kwik Stop Convenience","25 Washington Sq Ste A","01830",42.774158,-71.082851
"01832","Haverhill","MA","Market Basket","400 Lowell Ave #1","01832",42.774302218852235,-71.11387681081528
"01832","Haverhill","MA","The New Market Basket at Westgate Plaza","not_available","01832",42.774274922078085,-71.1138758607161
"01833","Georgetown","MA","Crosby's Marketplace","62 Central St","01833",42.721586106946816,-70.99179314655233
"01840","Lawrence","MA","Market Basket","700 Essex St #5","01841",42.70219833373705,-71.17227370203852
"01840","Lawrence","MA","Jacqueline’s Grocery Store","334 Lowell St","01841",42.704875,-71.173254
"01841","Lawrence","MA","La fruteria supermarket","Manchester st","01841",42.71299503437689,-71.17669000539858
"01841","Lawrence","MA","Stop Quick","12 Haverhill St","01844",42.704149,-71.19103
"01841","Lawrence","MA","Javier Market","311 marston street","not_available",42.71274345021709,-71.13830954642674
"01844","Methuen","MA","Market Basket","69 Center Street","03079",42.778854,-71.22982
"01844","Methuen","MA","Walmart","70 Pleasant Valley St","01844",42.74282628728353,-71.1649968960664
"01844","Methuen","MA","Market Basket","265 S Broadway","03079",42.762067240959404,-71.21317419883341
"01844","Methuen","MA","Market Basket","167 S Broadway","03079",42.767415506579674,-71.21738216206994
"01844","Methuen","MA","Market Basket","186 Haverhill St","01844",42.705272680912685,-71.20139113807743
"01844","Methuen","MA","McKinnon's Market & Super Butcher Shop","236 N Broadway","03079",42.79143258798715,-71.23449689401136
"01844","Methuen","MA","Aldi","541 S Broadway","03079",42.7418563,-71.1971652
"01844","Methuen","MA","Xpect Grocery & Deep Discount Stores","436 Broadway","01844",42.73640823364258,-71.19600677490234
"01844","Methuen","MA","Tedeschi","not_available","03079",42.782359,-71.22789651666666
"01844","Methuen","MA","Michael's Market","8 Stiles Rd","03079",42.774761181898796,-71.25044183858286
"01844","Methuen","MA","Crompton Sales, Inc.","60 Danton Dr","01844",42.726006,-71.210613
"01844","Methuen","MA","UHEN HEH Grocery","326 S Broadway","03079",42.7332431,-71.2008361
"01844","Methuen","MA","Hassey's Grocery And Mediterranean food","not_available","01844",42.72616195678711,-71.1407699584961
"01844","Methuen","MA","Happy Daze, LLC","224 N Broadway Suite D13","03079",42.7897962,-71.2337316
"01850","Lowell","MA","La Vecina Meat Market","479 Market St","01854",42.646533000000005,-71.316283
"01851","Lowell","MA","Market Basket","11 Wood St","01851",42.63422027181752,-71.35612781160927
"01851","Lowell","MA","Tedeschi Food Shops","220 Appleton St","01852",42.63941444888089,-71.31314285055862
"01851","Lowell","MA","Pailin City","Branch St","01851",42.637614,-71.321287
"01851","Lowell","MA","Khmer Angkor Market","37 Branch St","01851",42.637946,-71.322614
"01851","Lowell","MA","Hong Kong Supermarket","Westford Street","01851",42.635261,-71.326676
"01851","Lowell","MA","Market Basket On The Boulevard","not_available","01854",42.640717,-71.35986
"01852","Lowell","MA","Market Basket","10 Main St","01876",42.63147279176,-71.27200099948446
"01852","Lowell","MA","Market Basket","331 Fletcher St","01854",42.64426187538632,-71.31981335530922
"01852","Lowell","MA","Batambang Market International Foods","125 Church St","01852",42.64072036743164,-71.30523681640625
"01852","Lowell","MA","Tedeschi Food Shops","970 Gorham St","01852",42.628684172937895,-71.30765976051971
"01852","Lowell","MA","Tedeschi Food Shops","103 Rogers St","01852",42.63767454826343,-71.29936880698901
"01860","Merrimac","MA","Merrimac Town Market","2-28 School St # 2-288","01860",42.833951,-71.002593
"01863","North Chelmsford","MA","Tedeschi Food Shops","60 Brookside Rd","01886",42.614433,-71.411215
"01864","North Reading","MA","Walmart","72 Main St","01864",42.57050927575395,-71.1125681518898
"01864","North Reading","MA","Convenience Plus","not_available","01864",42.565319864746726,-71.1079390713093
"01864","North Reading","MA","Tedeschi Food Shops","236 Main Street","01864",42.588626861572266,-71.11640930175781
"01864","North Reading","MA","Pepperidge Farm","221 Main Street","not_available",42.588218688964844,-71.11486053466797
"01864","North Reading","MA","Peapod Reading","Main Street","01864",42.59248388243224,-71.11694484789683
"01867","Reading","MA","Market Basket","1 General Way","01867",42.51876952332676,-71.09749826668525
"01867","Reading","MA","Stop & Shop","25 Walkers Brook Drive","01867",42.518872867978175,-71.09614491462708
"01867","Reading","MA","Calareso's Fruit Stand","122 Main St","01867",42.50615449269132,-71.10411265065828
"01867","Reading","MA","Professor's Market","505 Main St","01867",42.52232845467359,-71.10278606414795
"01867","Reading","MA","Pamplemousse Reading","26 Haven St","01867",42.522521999999995,-71.10668199999999
"01867","Reading","MA","Market Basket","not_available","01880",42.517065971088364,-71.09018224677747
"01867","Reading","MA","Alternative Food Co-op","357 Main St","02879",42.50406265258789,-71.07125091552734
"01876","Tewksbury","MA","Walmart Supercenter","333 Main St","01876",42.62296601655967,-71.26877466018871
"01876","Tewksbury","MA","Market Basket","1900 Main St","01876",42.590709483486926,-71.20224557257536
"01879","Tyngsboro","MA","Flints Market & Liquors","150 Westford Rd","01879",42.65360641479492,-71.43177032470703
"01879","Tyngsboro","MA","Indian Basket","150 Westford Rd #6","01879",42.654217,-71.431574
"01880","Wakefield","MA","Shaw's","134 Water St","01880",42.5027417,-71.064297
"01880","Wakefield","MA","The Farmland","415 Main St","01880",42.50249260448912,-71.07004818029633
"01880","Wakefield","MA","Shaw's","128-150 Massachusetts 129","01880",42.51570492675446,-71.06933729534977
"01880","Wakefield","MA","Tedeschi Food Shops","377 Lowell St","01880",42.51745743176637,-71.06458404415582
"01886","Westford","MA","Whole Foods Market","160 Littleton Road","01886",42.567996754338566,-71.42072557214095
"01886","Westford","MA","Market Basket","6 Cornerstone Sq","01886",42.56584833317977,-71.42610950692215
"01886","Westford","MA","Tedeschi Food Shops","103 Main St","01886",42.585651,-71.426226
"01886","Westford","MA","Towne Convenience","221 Groton Rd","01886",42.611601,-71.456508
"01887","Wilmington","MA","Market Basket","260 Main St","01887",42.55521086874021,-71.17875475894597
"01887","Wilmington","MA","Sunrise Market","327 Main St","01887",42.550315999999995,-71.177092
"01901","Lynn","MA","Price Rite","395 Lynnway","01901",42.457301508860596,-70.95204096537061
"01901","Lynn","MA","Price Rite of Lynn","395 Lynnway & Sheppard St.","01901",42.457533,-70.9520283
"01902","Lynn","MA","Super Stop & Shop","35 Washington St","01904",42.4698052,-70.9589524
"01902","Lynn","MA","Tedeschi Food Shops","210 Lewis St","01902",42.465925044966006,-70.93618326055524
"01902","Lynn","MA","Compare Supermercado","2A Adams Street Ext","01902",42.47481155395508,-70.93941497802734
"01904","Lynn","MA","Lynn Street Mini Mart","270 Lynn St.","01960",42.49849129990187,-70.95399856567383
"01904","Lynn","MA","Boston Street Variety","337 Boston St","01905",42.466945,-70.963643
"01905","Lynn","MA","Market Basket","40 Federal St.","01901",42.46322728962244,-70.96752903651466
"01905","Lynn","MA","Walmart","780 Lynnway","01905",42.44920519828166,-70.96160894027875
"01905","Lynn","MA","Lincoln Ave Market","84 Lincoln Ave","01906",42.454919,-70.990184
"01905","Lynn","MA","Tedeschi Food Shops","548 Summer St","01905",42.45845031738281,-70.96987915039062
"01905","Lynn","MA","New Market","551 Summer St","01905",42.458715999999995,-70.970423
"01905","Lynn","MA","Tedeschi Food Shops","625 Boston St","01905",42.46383285522461,-70.97628784179688
"01906","Saugus","MA","Walmart Supercenter","770 Broadway","01906",42.472177296392594,-71.02372860069163
"01906","Saugus","MA","Shops at Saugus","334 Broadway-Route 1","01906",42.484769347157524,-71.01770102977753
"01906","Saugus","MA","Trader Joe's","358 Broadway","01906",42.483820531225696,-71.01821614213671
"01906","Saugus","MA","Big Y World Class Market","357 Broadway","01906",42.48808445644424,-71.01879899953343
"01906","Saugus","MA","Common Market","not_available","02176",42.45521676976235,-71.0521420856215
"01906","Saugus","MA","Quarrystone Convenience","10 Overlook Ridge Dr","02148",42.438333,-71.021693
"01906","Saugus","MA","White Hen Pantry","not_available","01906",42.465548515319824,-71.00601732730865
"01907","Swampscott","MA","Whole Foods Market","331 Paradise Rd","01907",42.47934233131446,-70.90522389113168
"01913","Amesbury","MA","Shaw's","45 Storey Ave","01950",42.820177,-70.904346
"01913","Amesbury","MA","Market Basket","25 Storey Ave","01950",42.820993502642416,-70.90273032726336
"01915","Beverly","MA","Shaw's","71 Dodge St","01915",42.5771004,-70.8884328
"01915","Beverly","MA","Whole Foods Market","150 Brimbal Ave","01915",42.573455810546875,-70.87955474853516
"01915","Beverly","MA","Henry's Market","588 Cabot St","01915",42.571714766186155,-70.89362352619769
"01915","Beverly","MA","One Stop","311 Cabot St","01915",42.5529325371195,-70.87835139479797
"01915","Beverly","MA","Tedeschi Food Shops","52 Cabot St","01915",42.543167,-70.88362
"01915","Beverly","MA","Super Stop & Shop","Route 1","01960",42.570029275085474,-70.89296651745187
"01915","Beverly","MA","Woodbery Food Market","157 Essex St","01915",42.560153,-70.870289
"01915","Beverly","MA","North Beverly Food Mart","enon street","01915",42.572382493639296,-70.8929549059864
"01923","Danvers","MA","Market Basket","139 Endicott St","01923",42.55082839743411,-70.93242404075262
"01923","Danvers","MA","Walmart","55 Brooksby Village Way","01923",42.55463531897802,-70.9675284936481
"01923","Danvers","MA","Market Basket","230 S Main St","01949",42.58015088804176,-70.9980738092665
"01923","Danvers","MA","Trader Joe's","300 Andover St","01960",42.54929531618715,-70.95681214348106
"01923","Danvers","MA","Big Y World Class Market & Pharmacy","637 Lowell St","01960",42.551353281926964,-71.00179993179022
"01923","Danvers","MA","Tedeschi Food Shops","598 Lowell St","01960",42.548352011028726,-70.99176490895962
"01923","Danvers","MA","The Butchery - Danvers","182 North St","01923",42.596574,-70.9597618
"01923","Danvers","MA","Shaw's","210 Andover","01960",42.543338,-70.942207
"01923","Danvers","MA","Wholesale Market","9 Bourbon St","01960",42.546652,-70.978822
"01930","Gloucester","MA","Market Basket","101 Gloucester Ave","01930",42.62179114659314,-70.65662774505162
"01930","Gloucester","MA","Gloucester Crossing","Gloucester Crossing","01930",42.622744966677914,-70.65620476435438
"01930","Gloucester","MA","Shaw's","127 Eastern Ave","01930",42.622758958813996,-70.63986094328357
"01930","Gloucester","MA","Shaw's","7 Railroad Ave","01930",42.61649265730459,-70.66544115543365
"01930","Gloucester","MA","Little River Mart","not_available","01930",42.60998875,-70.707759
"01938","Ipswich","MA","Market Basket","225 Newburyport Tpke","01969",42.708056889982615,-70.90606720686979
"01938","Ipswich","MA","Shaw's","146 High St","01938",42.689919718436414,-70.85342109203339
"01938","Ipswich","MA","Ipswich Natural Foods","3 Short St","01938",42.68454,-70.84372
"01940","Lynnfield","MA","Whole Foods Market","427 Walnut Street","01940",42.5144224656762,-71.03206340823202
"01940","Lynnfield","MA","Old Towne Market","8 Post Office Sq","01940",42.514599,-71.013902
"01944","Manchester","MA","Crosby's Marketplace","3 Summer St","01944",42.574281218190386,-70.76994277257377
"01945","Marblehead","MA","Crosby's Market Marblehead","118 Washington St #5","01945",42.504302407442296,-70.84941026438841
"01945","Marblehead","MA","Marblehead Community Store","Beacon St","01945",42.514152,-70.858268
"01945","Marblehead","MA","Crosby's Supermarket","125 Canal St","01970",42.509943138911204,-70.89520971215336
"01945","Marblehead","MA","Tedeschi Food Shops","72 Loring Ave","01970",42.500484122147576,-70.89658943040205
"01945","Marblehead","MA","Milk  & Honey Green Grocer","32 Church St","01970",42.52260628570009,-70.89525472974817
"01945","Marblehead","MA","New Market","not_available","01970",42.528599,-70.889876
"01949","Middleton","MA","Richdale Convenience","27 South Main St.","not_available",42.593994140625,-71.01566314697266
"01949","Middleton","MA","Richdale","Middleton, MA 01949","01949",42.584717961896175,-71.00677867615623
"01949","Middleton","MA","Your CBD Store - Middleton, MA (Your CBD Store Middleton MA)","2 N Main St #6","01949",42.5952392,-71.0161758
"01950","Newburyport","MA","Richdale Food Store","26 State St","01950",42.80999644446244,-70.87055596781377
"01950","Newburyport","MA","Black Duck Convenience Store","50 Water St","01950",42.810010918838564,-70.8657380053862
"01951","Newbury","MA","Tendercrop Farm","108 High Rd","01951",42.78665327883775,-70.85116502308236
"01952","Salisbury","MA","Market Basket","380 Lafayette Rd","03874",42.886565398571264,-70.86881991752418
"01960","Peabody","MA","Market Basket","227 Highland Ave","01970",42.50439344995816,-70.9202930858848
"01960","Peabody","MA","Shaw's","11 Traders Way","01970",42.5018556,-70.9213629
"01960","Peabody","MA","Shaw's","114-128 Essex Center Dr","01960",42.5397339,-70.9488969
"01960","Peabody","MA","Stop & Shop","19 Howley St","01960",42.52342360645468,-70.91714233160019
"01960","Peabody","MA","D&R Market","54 Foster St","01960",42.524056896347275,-70.92856780988878
"01960","Peabody","MA","Town Variety","116 Central St","01960",42.534081,-70.92858100000001
"01960","Peabody","MA","Tedeschi Food Shops","115 Main St","01960",42.52366030688085,-70.92232802088162
"01970","Salem","MA","Walmart","450 Highland Ave","01970",42.49420480666104,-70.93486318180533
"01970","Salem","MA","Nicole's Food Store","406 Essex St","01970",42.51849941993205,-70.90529191391278
"01970","Salem","MA","Filipino Variety Store","430 Essex St","01970",42.516081,-70.906122
"01982","South Hamilton","MA","HAMILTON CONVENIENCE","178 Bay Rd","01982",42.61201376270865,-70.87344472158973
"01982","South Hamilton","MA","Crosby's Marketplace","15 Walnut","01982",42.609885702068865,-70.86921268697913
"01985","West Newbury","MA","West Newbury Food Mart","275 Main St","01985",42.794878000000004,-70.995981
"01985","West Newbury","MA","Super Stop & Shop","100 Macy St","01913",42.812654564186175,-70.9530632996017
"02019","Bellingham","MA","Walmart","250 Hartford Ave","02019",42.11592951199131,-71.46454437680198
"02019","Bellingham","MA","Market Basket","274 Hartford Ave","02019",42.11610343606724,-71.4622115268535
"02019","Bellingham","MA","Whole Foods Market","255 Hartford Ave","02019",42.11154889527974,-71.46144752135487
"02019","Bellingham","MA","Bellingham Grocery","1-3 Mechanic St","02019",42.08892258947262,-71.47558175482988
"02019","Bellingham","MA","Hilltop Farms","201 Pulaski Blvd","02019",42.02123496590228,-71.49361122519689
"02021","Canton","MA","Wegmans","169 University Ave","02090",42.206522862339355,-71.15429679152368
"02021","Canton","MA","Super Stop & Shop","278 Washington St","02072",42.1383336,-71.1003244
"02021","Canton","MA","Shaw's","95 Washington St","02021",42.1400964,-71.1447395
"02021","Canton","MA","Tedeschi Food Shops","2160 Washington St","02021",42.19137562433661,-71.1184361200138
"02021","Canton","MA","Canton Market","569 Washington St","02021",42.152929,-71.146551
"02025","Cohasset","MA","Shaw's","739 Chief Justice Cushing Hwy","02025",42.22198305630113,-70.80517084928942
"02025","Cohasset","MA","Tedeschi Food Shops","337 Gannett Rd","02066",42.2193930583671,-70.7838537994505
"02025","Cohasset","MA","All Good Things Health Food Store","not_available","02025",42.241057601944334,-70.80505899598451
"02025","Cohasset","MA","Tedeschi Food Shops","340 Rockland St","02043",42.25954818725586,-70.84587860107422
"02025","Cohasset","MA","Tedeschi Food Shops","52 S Main St","02025",42.240471,-70.80145300000001
"02026","Dedham","MA","Whole Foods Market","300 Legacy Place","02026",42.232598570610094,-71.17781845831739
"02026","Dedham","MA","Super Stop & Shop","160 Providence Hwy","02026",42.25871070403436,-71.16802275180817
"02026","Dedham","MA","Star Market","795 Providence Hwy","02026",42.2383296,-71.1793107
"02026","Dedham","MA","Lambert's Rainbow Market","220 Providence Highway","02090",42.21841782929544,-71.18048794659619
"02026","Dedham","MA","Star Market","75 Spring St","02132",42.2787365,-71.1633094
"02026","Dedham","MA","Greek International Food Market","5204 Washington St","02132",42.260871702120824,-71.15714023479768
"02026","Dedham","MA","Star's at West Roxbury","75-77 Spring St","02132",42.27875351731515,-71.16327568894121
"02026","Dedham","MA","Tedeschi Food Shops","7 Spring St","02132",42.278345099429785,-71.16061520982994
"02026","Dedham","MA","Tedeschi Food Shops","77 Cedar St","02026",42.24087663241909,-71.1552244561942
"02026","Dedham","MA","Wolcott general Store","169 Wolcott Sq","02136",42.237626122462906,-71.13252459562148
"02030","Dover","MA","Dover Market","18 Springdale Ave","02030",42.24475142304729,-71.28184350879363
"02030","Dover","MA","Roche Bros","377 Chestnut St","02492",42.27389282234027,-71.23794008905276
"02032","East Walpole","MA","Walmart Supercenter","550 Providence Hwy","02081",42.142437401921335,-71.21468697375569
"02032","East Walpole","MA","Euroguild (Schaller & Weber)","397 High Plain St","02081",42.140708923339844,-71.22024536132812
"02035","Foxboro","MA","Trader Joe's","350 Patriot Place","02035",42.086937726698125,-71.26965727784653
"02035","Foxboro","MA","Shaw's","780 S Main St","02067",42.0938971,-71.2202541
"02035","Foxboro","MA","Shaw's","390 West St","02048",42.0254727,-71.2327943
"02035","Foxboro","MA","JAK's Corner Store","79 Summer St","02035",42.055276,-71.20229599999999
"02035","Foxboro","MA","Tedeschi Food Shops","242 Chauncy St","02048",42.029921,-71.230306
"02035","Foxboro","MA","Shaw's","not_available","02048",42.01828631345651,-71.22840339537069
"02035","Foxboro","MA","S&S Grocery Back Room","Back","02048",42.03255369172662,-71.23677991998221
"02035","Foxboro","MA","The Country Store","212 North St","02035",42.10212159113814,-71.25942121854267
"02038","Franklin","MA","Big Y World Class Market","348 E Central St","02038-1357",42.07916209327717,-71.38058135079802
"02038","Franklin","MA","Shaw's","255 E Central St","02038",42.0814283,-71.386444
"02038","Franklin","MA","Tedeschi Food Shops","533 W Central St","02038",42.08997711122724,-71.41922025049702
"02038","Franklin","MA","Star Market (Franklin)","221 E Central Street","02038-1315",42.08071958838288,-71.38862151718575
"02038","Franklin","MA","Dacey's Market","Lincoln st","not_available",42.103248199999996,-71.395768
"02038","Franklin","MA","Devitas Market","198 E Central St","02038",42.08043161923428,-71.3888307462834
"02038","Franklin","MA","Tedeschi Food Shops","664 Union St","02038",42.06706654175205,-71.39835092211024
"02043","Hingham","MA","Trader Joe's","5 Essington Drive","02043",42.24898353399687,-70.92356869658951
"02043","Hingham","MA","Fruit Center Marketplace","79 Water St","02043",42.2448729366898,-70.88344218026363
"02043","Hingham","MA","Whole Foods Market","94 Derby St","02043",42.17904587067512,-70.90813015264736
"02043","Hingham","MA","The Fresh Market","11 Essington Dr","02043",42.249938355464,-70.92105792659659
"02043","Hingham","MA","Big Y World Class Market","10 Washington St","02061-1749",42.17241271022953,-70.88402123432223
"02043","Hingham","MA","Tedeschi Food Shops","34 Whiting St","02043",42.175090999999995,-70.88810699999999
"02043","Hingham","MA","Tedeschi Food Shops","185 Lincoln St","02043",42.249417571180444,-70.90436948474482
"02043","Hingham","MA","Tedeschi Food Shops","181 South St","02043",42.241362006863454,-70.89702013609912
"02043","Hingham","MA","Harvest Trading Group Inc.","61 Accord Park Dr","02061",42.166678999999995,-70.883711
"02045","Hull","MA","The Village Market","not_available","02045",42.281733,-70.872886
"02045","Hull","MA","Riddles Supermart","Nantasket Ave","not_available",42.28213269267488,-70.87330857289129
"02045","Hull","MA","Tedeschi Food Shops","672 Nantasket Ave","02045",42.29200744628906,-70.87883758544922
"02048","Mansfield","MA","Roche Bros","175 Mansfield Ave","02766",41.98218659515068,-71.2090544886616
"02048","Mansfield","MA","Roche Brothers Super Market","not_available","02766",41.975637428762745,-71.20274480675045
"02050","Marshfield","MA","Star Market","1 Snow Rd","02050",42.0897889,-70.7074422
"02050","Marshfield","MA","The Village Market","Front Street","not_available",42.1940401919651,-70.72634358939243
"02050","Marshfield","MA","Rexhame General Store","Ocean St","02050",42.101517,-70.676375
"02050","Marshfield","MA","Roache Brothers (Marshfiled)","Route 139","not_available",42.105645118309226,-70.73987213680387
"02050","Marshfield","MA","Tedeschi Food Shops","774 Plain St","02050",42.10661961995061,-70.74798349055948
"02050","Marshfield","MA","Roche Bros","605 Plain St","02050",42.10415256166549,-70.74065085225237
"02052","Medfield","MA","Italian Groceria","258 Main St","02052",42.19390205251777,-71.29021850437917
"02052","Medfield","MA","Shaw's","230 Main St","02052",42.1944106,-71.2880403
"02053","Medway","MA","Shaw's","65 Main St","02053",42.15201,-71.4036733
"02054","Millis","MA","Roche Bros","6 Milliston Rd","02054",42.16723819427,-71.35439689102901
"02054","Millis","MA","Tedeschi Food Shops","127 Exchange St","02054",42.16979368107014,-71.35955601603156
"02056","Norfolk","MA","Tedeschi (Norfolk)","Rt. 1A","not_available",42.094522105503586,-71.29457525118428
"02056","Norfolk","MA","Tedeschi Food Shops","206 Dedham St","02056",42.09130838962334,-71.2988382065483
"02056","Norfolk","MA","One Cup Coffee","224 Dedham St","02056",42.09025918449993,-71.30029761280203
"02056","Norfolk","MA","Elite Food Company Business Trust","148 Main St","02056",42.119834,-71.3258819
"02061","Norwell","MA","Trader Joe's","1775 Washington St","02339",42.14452168675144,-70.84384324187074
"02061","Norwell","MA","Shaw's","35 Columbia Rd","02339",42.1172297,-70.8236197
"02061","Norwell","MA","TD's Deli","2103 Washington St","02339",42.15676831583144,-70.84996341638394
"02061","Norwell","MA","Good Health Natural Foods","219 Columbia Road (Rt 53)","02339",42.11316028490044,-70.81783000084464
"02061","Norwell","MA","Tedeschi Food Shops","228 Columbia Rd","02339",42.11301665758804,-70.8166317642592
"02062","Norwood","MA","Shaw's","134 Nahatan St","02062",42.19138000000001,-71.1956610932541
"02062","Norwood","MA","roache brothers","Westwood, MA","02090",42.201307239359544,-71.19972808516825
"02062","Norwood","MA","Sabb's Market","1001 Boston Providence Tpke","02062",42.17756271362305,-71.19273376464844
"02062","Norwood","MA","Big Y World Class Market","434 Walpole St","02062-3093",42.1786225679147,-71.22052904961805
"02062","Norwood","MA","Shiva Bazzar","111 Lenox St","02062",42.192409000000005,-71.19795500000001
"02067","Sharon","MA","Big Y World Class Market","1111 Providence Hgwy","02081",42.1392393666852,-71.22040512594788
"02067","Sharon","MA","Sharon Center","17 Post Office Square","02067",42.123599,-71.178837
"02067","Sharon","MA","Tedeschi Food Shops","68 Pond St","02067",42.12124400649102,-71.17770489029441
"02067","Sharon","MA","Quick Stop","2139 Central St","02072",42.13374874246413,-71.14152439807451
"02072","Stoughton","MA","Walmart","700 Oak St","02301",42.098441423671716,-71.05661462321501
"02072","Stoughton","MA","Page's Grocery","458 Pearl St","02072",42.136759041787464,-71.11276717718025
"02072","Stoughton","MA","Tedeschi Food Shops","871 Washington St","02072",42.121639,-71.101833
"02072","Stoughton","MA","Price Rite of Stoughton","666 Washington Street","02072",42.1280469,-71.100613
"02072","Stoughton","MA","Express- Mart","96 Ryan Rd","02072",42.108944,-71.089822
"02072","Stoughton","MA","Tedeschi Food Shops","474 Market St","02370",42.13564155973701,-71.10061338142137
"02072","Stoughton","MA","Tedeschi Food Shops","17 Pearl St","02301",42.088510775512376,-71.06474449963318
"02081","Walpole","MA","Super Stop & Shop","565 Main St","02081",42.1569905,-71.241766
"02093","Wrentham","MA","Super Stop & Stop","109 Taunton St","02762",42.035237472839356,-71.31132781505585
"02108","Boston","MA","Whole Foods Market","181 Cambridge St","02114",42.3617322300514,-71.0658743599199
"02108","Boston","MA","Roche Bros Downtown Crossing","8 Summer St","02110",42.35536343310697,-71.06011730142201
"02108","Boston","MA","Deluca's Market","11 Charles St","02114",42.356398758510885,-71.06957718431953
"02108","Boston","MA","Boston Mart","40 Court St","02108",42.358563000000004,-71.059432
"02108","Boston","MA","Lambert's @  Old South Meeting House","334 Washington Street","02110",42.35668182373047,-71.05885314941406
"02109","Boston","MA","Golden Goose Market","179 Commercial St","02109",42.36287041143274,-71.05173809712694
"02109","Boston","MA","Salumeria Italiana","151 Richmond St","02109",42.36353174948493,-71.05455445224243
"02109","Boston","MA","Garden Halal Meat","96 Blackstone St","02109",42.361504,-71.05641
"02109","Boston","MA","Safeway","not_available","02113",42.362576,-71.055611
"02109","Boston","MA","Tedeschi Food Shops","177 State St","02109",42.35937477133794,-71.05321392300263
"02109","Boston","MA","Nona's Market","292 North St","02113",42.363754,-71.05181
"02111","Boston","MA","Whole Foods Market","348 Harrison Ave","02118",42.345303933303185,-71.06306112744167
"02111","Boston","MA","C Mart 2 Supermarket","109 Lincoln St","02111",42.351675,-71.058425
"02111","Boston","MA","C Mart Supermarket","692 Washington St","02111",42.35127315746087,-71.06222338811817
"02111","Boston","MA","See Sun Market","25 Harrison Ave","02111",42.351962,-71.061458
"02111","Boston","MA","Delight Corner","34 Oxford St","02111",42.351477,-71.060233
"02111","Boston","MA","Sun Sun Company","18 Oxford St","02111",42.351892,-71.060236
"02111","Boston","MA","A Goodmarket","not_available","02111",42.351749,-71.061357
"02114","Boston","MA","Star Market","90 Causeway St","02114",42.3656907,-71.0616024
"02114","Boston","MA","Star Market","not_available","02114",42.365385,-71.06116
"02115","Boston","MA","Whole Foods Market","15 Westland Ave","02115",42.34370323368195,-71.08701634951515
"02115","Boston","MA","Whole Foods Market","1028 Beacon Street","02446",42.34602139925642,-71.10815126412336
"02115","Boston","MA","Star Market","33 Kilmarnock St","02215",42.343843,-71.100081
"02115","Boston","MA","Trader Joe's","899 Boylston St","02115",42.3484765348499,-71.08410179615021
"02115","Boston","MA","Wollaston's","360 Huntington Ave","02115",42.33996802766827,-71.09046162818461
"02115","Boston","MA","Symphony Market","291 Huntington Ave","02115",42.34155141196667,-71.08655907431135
"02115","Boston","MA","Tropical Foods - Dudley Square","2101 Washington St","02119",42.332983431911956,-71.08198831205509
"02115","Boston","MA","Fuentes Market","680 Parker St","02120",42.33233821331863,-71.0967816283468
"02115","Boston","MA","Marlboro Market","45 Massachusetts Ave","02115",42.34999069820264,-71.08907913697571
"02115","Boston","MA","College convenience","Huntington Ave","02115",42.341776566151125,-71.08622928873783
"02115","Boston","MA","Symphony Mart","1130 Boylston St","02215",42.34683791454963,-71.08918758064142
"02115","Boston","MA","Wollaston's","460 Parker St","02115",42.3373283551931,-71.0922099381835
"02115","Boston","MA","Pena's","1055 Tremont Street","not_available",42.336509704589844,-71.08599853515625
"02115","Boston","MA","City Convenience","702 Commonwealth Ave","02215",42.34976319735158,-71.10472058287098
"02115","Boston","MA","San Antonio Snacks by Tom's Snacks","939 Boylston St","02115",42.34827423095703,-71.08502197265625
"02115","Boston","MA","Foodbasket","563 columbus ave","not_available",42.34102692269673,-71.0813685091423
"02115","Boston","MA","Daily Table","2201 Washington St","02119",42.331107,-71.0831
"02115","Boston","MA","C-Store (MassART/Wentworth)","600 Huntington Ave Rear","02115",42.336151123046875,-71.09724426269531
"02115","Boston","MA","City Convenience","541 Commonwealth Ave","02215",42.348843184210345,-71.09692405504936
"02116","Boston","MA","Star Market","53 Huntington Ave","02199",42.3480536,-71.0789553
"02116","Boston","MA","C-Mart (Herald St)","50 Herald St","02118",42.346210625118275,-71.0647745933079
"02116","Boston","MA","Siena Farms","106 Waltham St","02118",42.34389050233135,-71.0712991405878
"02116","Boston","MA","New York Marts","1102 Washington St","02118",42.34419769172883,-71.06563033593335
"02116","Boston","MA","Tremont Variety","283 Tremont St","02116",42.349649,-71.06558000000001
"02116","Boston","MA","Extra Virgin Olio by Madge & Louie's","20 Holyoke St","02116",42.3446044921875,-71.0781021118164
"02116","Boston","MA","New York Mart","Washington Street","not_available",42.34375120765866,-71.06506228978795
"02116","Boston","MA","Tedeschi Food Shops","717 Boylston St","02116",42.3494054295568,-71.07988034976617
"02118","Boston","MA","Foodie's Urban Market","1421 Washington St","02118",42.34085651293667,-71.07053164676688
"02118","Boston","MA","Mass Food Market","603 Massachusetts Ave","02118",42.337079411750096,-71.07782164445392
"02118","Boston","MA","Tremont Drug","610 Tremont St","02118",42.342560999999996,-71.073719
"02118","Boston","MA","Syrian Grocery","270 Shawmut Ave","02118",42.343072,-71.06869
"02118","Boston","MA","Food Lion","123 E. Newmarket Square","not_available",42.33036422729492,-71.0681381225586
"02118","Boston","MA","Samuel Holmes Inc","25 Food Mart Rd","02118",42.335904,-71.063167
"02119","Roxbury","MA","Hillside Market","80 Hillside St","02120",42.329613993479065,-71.1025871801569
"02119","Roxbury","MA","Davey's Supermarket","not_available","02119",42.324175,-71.073982
"02119","Roxbury","MA","La Plazita","Dudley Street","02119",42.32521057128906,-71.07525634765625
"02119","Roxbury","MA","Save-A-Lot","330 Martin Luther King Blvd","02119",42.31948986602665,-71.08230748399632
"02119","Roxbury","MA","Browns market","31 Leyland St","02125",42.320831298828125,-71.07106018066406
"02119","Roxbury","MA","Save-A-Lot","330 Martin Luther King Jr Blvd","02119",42.33028412,-71.0898056
"02121","Dorchester","MA","stop & Shop","460 Blue Hill Ave","02121",42.3092281,-71.0813612
"02121","Dorchester","MA","Dallo's halal meat and grocery","not_available","02121",42.30318832397461,-71.07894897460938
"02122","Dorchester","MA","Star Market","45 William T Morrissey Blvd","02125",42.318706,-71.0503173
"02122","Dorchester","MA","Super Stop & Shop","545 Freeport St","02122",42.29273088652068,-71.04894340038305
"02122","Dorchester","MA","The Daily","not_available","02125",42.311815,-71.053785
"02122","Dorchester","MA","Tedeschi Food Shops","320 Neponset Ave","02122",42.288454719108884,-71.04712325190457
"02122","Dorchester","MA","America's Food Basket","500 GENEVA AVE","02122",42.298872,-71.062183
"02122","Dorchester","MA","Truong Thinh Super Market","1300-1306 Dorchester Ave","02122",42.306193,-71.059062
"02122","Dorchester","MA","America's Food Basket","576 Washington Street","02124",42.2914983,-71.0713794
"02122","Dorchester","MA","Phu Cuong","1051 Dorchester Ave","02125",42.310022,-71.057347
"02122","Dorchester","MA","Tedeschi Food Shops","1420 Dorchester Ave","02122",42.30275766095247,-71.05954963423105
"02122","Dorchester","MA","america's food basket","217 Bowdoin St","02122",42.305498,-71.067465
"02122","Dorchester","MA","Lucky Super Market","1161 Dorchester Ave","02125",42.311065673828125,-71.05793762207031
"02122","Dorchester","MA","New Store on the Block","845 Dorchester Ave","02125",42.32174937899294,-71.05685337037247
"02122","Dorchester","MA","Tedeschi Food Shops","1580 Dorchester Ave","02122",42.29707229182735,-71.06055013806102
"02122","Dorchester","MA","Rain International","825 E 1180 S Ste 310","84003",42.317962,-71.054943
"02122","Dorchester","MA","Fair Foods","421 Bowdoin St","02122",42.310425,-71.062
"02122","Dorchester","MA","Marina Bay Marketplace","333 Victory Rd","02171",42.29962158203125,-71.02801513671875
"02122","Dorchester","MA","NSA Supermarket","500 Geneva Ave","02122",42.29887390136719,-71.06217956542969
"02122","Dorchester","MA","DJ Market & Deli","120 Boston St","02125",42.325466999999996,-71.05885500000001
"02122","Dorchester","MA","Brothers Supermarket II","776 Dudley St","02125",42.317509,-71.06568
"02122","Dorchester","MA","Tedeschi Food Shops","566 Dorchester Ave","02127",42.330229846421396,-71.05669595391433
"02122","Dorchester","MA","Euromart","808 Dorchester Ave","02125",42.323417,-71.0566520690918
"02122","Dorchester","MA","Greenhills Irish Bakery","780 Adams St","02124",42.28333954232168,-71.0556706775255
"02124","Dorchester Center","MA","Star Market","4 River St","02124",42.2718903,-71.0698356
"02124","Dorchester Center","MA","Ortiz Grocery","1300 Blue Hill Ave","02126",42.279259,-71.092893
"02124","Dorchester Center","MA","Ada's Tropical","118 Norfolk St","02124",42.28881155215752,-71.07584855577318
"02124","Dorchester Center","MA","America's Food Basket","926 CUMMINS HIGHWAY","02126",42.2682837,-71.0946488
"02126","Mattapan","MA","Baby Nat's Fruitland","American Legion Highway","not_available",42.28533161441638,-71.10987718717831
"02126","Mattapan","MA","Price Rite Of Hyde Park","870 River Street","02136",42.26246105307134,-71.10794794122478
"02126","Mattapan","MA","Hyde Park Market","853 River St","02136",42.26287841796875,-71.10826873779297
"02126","Mattapan","MA","Save A Lot","650 American Legion Hwy","02131",42.28441952790475,-71.11108995553136
"02126","Mattapan","MA","Shops At Riverwood","not_available","02126",42.263032553550744,-71.10781141065488
"02127","South Boston","MA","Foodie's Urban Market","230 W Broadway","02127",42.33978563466408,-71.05191777875895
"02127","South Boston","MA","Tedeschi Food Shops","555 E Broadway","02127",42.33555847571031,-71.0416690084274
"02127","South Boston","MA","Three D's Convenience Store","249 E St","02127",42.33567810058594,-71.0515365600586
"02127","South Boston","MA","Tedeschi Food Shops","405 W Broadway","02127",42.33761779400785,-71.04632798065751
"02127","South Boston","MA","Bell's Market","not_available","02127",42.332610789701434,-71.05127759751737
"02128","East Boston","MA","Market Basket","170 Everett Ave","02150",42.3961369851057,-71.04237983220675
"02128","East Boston","MA","Shaw's","246 Border St","02128",42.3763539,-71.0406285
"02128","East Boston","MA","Bella's Market","75 Maverick Sq","02128",42.369815826416016,-71.03854370117188
"02128","East Boston","MA","Shaw's Supermarket","Route 16","02128",42.38783598818567,-71.01720286670738
"02128","East Boston","MA","El Tio Supermarket","25-33 Meridian St","02128",42.37105178833008,-71.03868103027344
"02128","East Boston","MA","diana's","not_available","02067",42.370075742675446,-71.03182879644349
"02128","East Boston","MA","Restaurant Depot","253 Williams St","02150",42.39476013183594,-71.04568481445312
"02128","East Boston","MA","La Esquina Supermarket","184 Bremen St","02128",42.37328715108443,-71.0344579267477
"02128","East Boston","MA","Tedeschi Food Shops","8 Washington Ave","02150",42.39300152163891,-71.03386593859953
"02128","East Boston","MA","Mi Tierra Market","not_available","02128",42.37202662170995,-71.03910094165884
"02129","Charlestown","MA","Whole Foods Market","27 Austin St","02129",42.375511467008394,-71.06597642037609
"02129","Charlestown","MA","Store 24","1 1st Ave","02129",42.37528610229492,-71.05447387695312
"02129","Charlestown","MA","Tedeschi Food Shops","1 1st Ave Ste 34","02129",42.37500793510658,-71.05444871430322
"02130","Jamaica Plain","MA","Whole Foods Market","413 Centre Street","02130",42.32134404966824,-71.11087333548096
"02130","Jamaica Plain","MA","City Feed & Supply","672 Centre St","02130",42.312242877354514,-71.11416259615608
"02130","Jamaica Plain","MA","Happy Market","not_available","02130",42.30551,-71.11452
"02130","Jamaica Plain","MA","One Stop Market","321 Cypress St","02445",42.324736,-71.12168100000001
"02130","Jamaica Plain","MA","Tedeschi Food Shops","4196 Washington St","02131",42.287044525146484,-71.12710571289062
"02130","Jamaica Plain","MA","Green Street Supermarket","186 Green St","02130",42.310121,-71.105742
"02130","Jamaica Plain","MA","Henry's Market","892 South St","02131",42.28846687658068,-71.13449200451485
"02130","Jamaica Plain","MA","Kurkman's Market Co","227 Cypress St","02445",42.32743977339634,-71.12465191575545
"02130","Jamaica Plain","MA","Tedeschi Food Shops","606 Centre St","02130",42.3101809331462,-71.11520985896223
"02131","Roslindale","MA","Village Market","26 Corinth St","02131",42.28617026134119,-71.12945797708502
"02131","Roslindale","MA","Tony's Market","4253 Washington St","02131",42.28578032977848,-71.12914758453267
"02131","Roslindale","MA","Tavarez Grocery","not_available","02301",42.2699664,-71.1188335
"02132","West Roxbury","MA","Roche Bros","1800 Centre St","02132",42.28652441112345,-71.15206021285358
"02134","Allston","MA","Trader Joe's","748 Memorial Dr","02139",42.358130669206766,-71.11501157283783
"02134","Allston","MA","Star Market","1065 Commonwealth Ave","02215",42.3524836,-71.1235312
"02134","Allston","MA","Stop & Shop","60 Everett St","02134",42.3565449,-71.1400401
"02134","Allston","MA","Whole Foods Market","340 River St","02139",42.36119491911849,-71.11401233784142
"02134","Allston","MA","Trader Joe's","199 North Harvard Street","02134",42.3633439875157,-71.12994385534071
"02134","Allston","MA","Hong Kong Supermarket","152 Brighton Ave","02134",42.35268839243452,-71.12563128490287
"02134","Allston","MA","The Abbot","1-30 Brattle St","02138",42.3730149,-71.1199284
"02134","Allston","MA","John's Market","75 Linden St","02134",42.35248947143555,-71.13040924072266
"02134","Allston","MA","Father & Son Market","1437 Commonwealth Ave","02135",42.34885046683493,-71.1401639927293
"02134","Allston","MA","Tedeschi Food Shops","509 Cambridge St","02134",42.353482098759976,-71.13824862208799
"02134","Allston","MA","TJ Convenience Store","not_available","02446",42.350072,-71.12619000000001
"02134","Allston","MA","Mayfair Foods","506 Cambridge St","02134",42.35327234637776,-71.1378337562521
"02134","Allston","MA","Buick Street Market & Cafe","10 Buick St","02215",42.352084674311776,-71.11569948571058
"02134","Allston","MA","Tommy's Value","47 Mount Auburn St","02138",42.37129442072,-71.11665173226945
"02134","Allston","MA","Shaw's","370 Western Ave","02135",42.3615837097168,-71.137451171875
"02134","Allston","MA","Mirim Oriental Groceries","152 Harvard Ave","02134",42.35163704293627,-71.131661355808
"02134","Allston","MA","Night Star Convenience","63 Harvard Ave","02134",42.35413216950321,-71.13242364117649
"02134","Allston","MA","Berezka International Food","1215 Commoneralth Avenue","not_available",42.35063885022988,-71.13069116193874
"02135","Brighton","MA","Whole Foods Market","15 Washington Street","02135",42.34284140327906,-71.14053133332975
"02135","Brighton","MA","The Butcherie","428 Harvard St","02446",42.345753838458734,-71.12757606506032
"02135","Brighton","MA","Baystate Food Shop","1418 Beacon St","02446",42.341136872160895,-71.12601515507272
"02135","Brighton","MA","Kiki's Kwik-Mart","236 Faneuil St","02135",42.35281319050757,-71.1596466560697
"02135","Brighton","MA","Arax Market","585 Mount Auburn St","02472",42.370450803184376,-71.15909630278917
"02135","Brighton","MA","Lee's Supermarket","1583 Commonwealth Ave","02135",42.34410869134533,-71.14299449671321
"02135","Brighton","MA","Tedeschi Food Shops","241 Market St","02135",42.35465914354198,-71.15030555532883
"02135","Brighton","MA","Brighton Super Market","572 Washington St","02135",42.3501629199174,-71.1649006680945
"02135","Brighton","MA","Store 24","Cleveland Circle","not_available",42.33807,-71.14869
"02135","Brighton","MA","Johnny D's Fruit & Produce","381 Washington St","02135",42.34923933059231,-71.15437556998664
"02135","Brighton","MA","Faneuil Street Market","243 Faneuil St","02135",42.352915509465824,-71.1602151809595
"02135","Brighton","MA","428 Harvard Street","428 Harvard Street Brookline","not_available",42.345638275146484,-71.12774658203125
"02135","Brighton","MA","Tedeschi Food Shops","1912 Beacon St","02135",42.33650319627018,-71.14868894310406
"02135","Brighton","MA","Huntington Markets","Commonwealth Ave","not_available",42.34063352269486,-71.15217855108926
"02135","Brighton","MA","Massis Bakery","569 Mount Auburn St","02472",42.370148,-71.16013199999999
"02135","Brighton","MA","Wildflower Pantry","575 Washington St","not_available",42.350318908691406,-71.16497039794922
"02136","Hyde Park","MA","Shaw's","1377 Hyde Park Ave","02136",42.2517869,-71.1260898
"02136","Hyde Park","MA","America's Food Basket","942 HYDE PARK AVE","02136",42.26714,-71.12076
"02136","Hyde Park","MA","Tedeschi Food Shops","695 Truman Hwy","02136",42.25242589711972,-71.11867810088168
"02136","Hyde Park","MA","Chop Chop Meat Market","1260 Hyde Park Ave","02136",42.255527,-71.123903
"02136","Hyde Park","MA","Tedeschi Food Shops","1187 Hyde Park Ave","02136",42.264173387232205,-71.12575893988608
"02138","Cambridge","MA","Star Market","49 White St","02140",42.3899605,-71.1177592
"02138","Cambridge","MA","Whole Foods Market","200 Alewife Brook Pkwy","02138",42.3893404934402,-71.1416529040607
"02138","Cambridge","MA","Star Market","275 Beacon St","02143",42.383607541522075,-71.11179025503588
"02138","Cambridge","MA","Trader Joe's","211 Alewife Brook Pkwy","02138",42.39005559077854,-71.14351819688
"02138","Cambridge","MA","Star Market","699 Mt Auburn St","02138",42.3753531,-71.1490626
"02138","Cambridge","MA","Bfresh","not_available","02144",42.39514025801544,-71.12191036214368
"02138","Cambridge","MA","Savenor's Market","92 Kirkland St","02138",42.37796816532324,-71.10746081841103
"02138","Cambridge","MA","City Market","1691 Massachusetts Ave","02138",42.38279,-71.1193
"02138","Cambridge","MA","Sarah's Market","200 Concord Ave","02138",42.38226796432716,-71.13108658968478
"02138","Cambridge","MA","Ferro's Foodtown","336 Rindge Ave","02140",42.393693,-71.13776700000001
"02138","Cambridge","MA","Harvard Market","1627 Cambridge St","02138",42.37490686047654,-71.10933932272174
"02138","Cambridge","MA","Fresh Pond Market","not_available","02138",42.381162476885706,-71.13847893935429
"02138","Cambridge","MA","Belmont Convenience Store","62 Concord Ave","02478",42.39106535367101,-71.16003447004115
"02138","Cambridge","MA","Gourmet Grocery Store","1868 Massachusetts Ave","02140",42.387902830824565,-71.11947478486462
"02138","Cambridge","MA","Stop & Shop","240 Elm St","02144",42.39493942260742,-71.12211608886719
"02138","Cambridge","MA","Star's at Cambridge","699 Mount Auburn St","02138",42.3753829,-71.1488863
"02138","Cambridge","MA","Broadway Marketplace","468 Broadway","02138",42.3739812758174,-71.11298089990055
"02138","Cambridge","MA","Somerville Quickstop","not_available","02143",42.390438,-71.107967
"02138","Cambridge","MA","Walden Spa & Food Market","272 Walden St","02138",42.385821,-71.13154899999999
"02138","Cambridge","MA","Verma's Market","896 Massachusetts Ave","02139",42.36796951293945,-71.10845184326172
"02139","Cambridge","MA","Whole Foods Market","45 Beacon Street","02143",42.37587944643724,-71.10318421812849
"02139","Cambridge","MA","Whole Foods Market","115 Prospect St","02139",42.367936923162006,-71.10225355308789
"02139","Cambridge","MA","Pearl Street Market","87 Pearl St","02139",42.362685,-71.105034
"02139","Cambridge","MA","Albert’s Market","638 Cambridge St","02141",42.37198288752632,-71.08706293098977
"02139","Cambridge","MA","LaVerde's Market","84 Massachusetts Ave","02139",42.35893696499295,-71.09429553172271
"02139","Cambridge","MA","Tedeschi Food Shops","321 Broadway","02139",42.36953411590908,-71.1010652335678
"02139","Cambridge","MA","Tite's Tropical","not_available","02139",42.366457000000004,-71.100655
"02139","Cambridge","MA","Al-Hoda Market","304 Prospect St","02139",42.372731,-71.098388
"02139","Cambridge","MA","Fresh Mart","222B Broadway","02139",42.3663444519043,-71.09410858154297
"02139","Cambridge","MA","Fernando's Fish Market","Cambridge street","02139",42.37312974850797,-71.09661193222357
"02139","Cambridge","MA","Inman Square Supermarket","1343 Cambridge St","02139",42.373822,-71.09998900000001
"02140","Cambridge","MA","Tufts Convenience","734 Broadway","02144",42.40020855253952,-71.11362913997822
"02140","Cambridge","MA","Tedeschi Food Shops","4 College Ave","02144",42.39687980864534,-71.12215031705152
"02140","Cambridge","MA","VIP Convenience Store","2362 Massachusetts Ave","02140",42.396330999999996,-71.129468
"02140","Cambridge","MA","J & K Han A Rum Oriental Market","2376 Massachusetts Ave","02140",42.396699,-71.129879
"02141","Cambridge","MA","Star Market","14 Mcgrath Hwy","02143",42.3741242,-71.0840175
"02141","Cambridge","MA","Twin City Plaza","14-22 McGrath Hwy","02143",42.3740253913369,-71.0862797498703
"02142","Cambridge","MA","Brothers Marketplace","1 Broadway","02142",42.362537,-71.083354
"02143","Somerville","MA","Market Basket","400 Somerville Ave","02143",42.3811702826033,-71.10133779474623
"02143","Somerville","MA","Reliable Market","45 Union Sq","02143",42.37986095169272,-71.0963543583389
"02143","Somerville","MA","Aggies Place","69 Pearl St","02145",42.384671000000004,-71.08394
"02143","Somerville","MA","Amigos Grocery Store","86 Broadway","02145",42.38694,-71.08219799999999
"02143","Somerville","MA","Little India","438 Somerville Ave","02143",42.3811972226545,-71.10196141911341
"02143","Somerville","MA","Tedeschi Food Shops","90 Washington St","02143",42.38108038902283,-71.085903
"02143","Somerville","MA","Deano's Pasta Shop","15 Garfield Ave","02145",42.3897705078125,-71.08551788330078
"02143","Somerville","MA","Mini Mart Food Store","65 Summer St","02143",42.384254455566406,-71.10005950927734
"02143","Somerville","MA","Neighborhood Produce","not_available","02145",42.391649,-71.09962
"02143","Somerville","MA","Taj Mahal Desi Bazaar","274 Broadway","02145",42.3912467956543,-71.09159088134766
"02144","Somerville","MA","Whole Foods Market","2151 Mystic Valley Parkway","02155",42.41730616394417,-71.12655325826994
"02144","Somerville","MA","Ebisuya Market","65 Riverside Ave","02155",42.41764209868572,-71.1076738268894
"02144","Somerville","MA","Campus Mini-Mart","not_available","02155",42.41110132170311,-71.12115172969537
"02144","Somerville","MA","Tedeschi Food Shops","133 Main St","02155",42.415206913257535,-71.11079451932949
"02144","Somerville","MA","Neighborhood Produce","691 Broadway","02144",42.399907,-71.111977
"02145","Somerville","MA","Trader Joe's","145 Middlesex Ave","02145",42.395542295748776,-71.08240538828657
"02145","Somerville","MA","Central Convenience Store","460 Mystic Ave","02145",42.39568,-71.090068
"02145","Somerville","MA","Food Mart","350 Broadway","02145",42.393257,-71.09524499999999
"02145","Somerville","MA","Natural Grocery","150 A Medford Street","02145",42.396316999999996,-71.10334300000001
"02145","Somerville","MA","Shivalic","Broadway","02145",42.39259428973889,-71.09341451116688
"02148","Malden","MA","Super Stop & Shop","99 Charles St","02148",42.4245681,-71.0711517
"02148","Malden","MA","Super 88 Market","118 Commercial St","02148",42.42166543421244,-71.07457257162686
"02148","Malden","MA","India Bazaar","not_available","02148",42.426773,-71.067202
"02148","Malden","MA","El Vale De La Sultana","716 Broadway","02149",42.414989,-71.048591
"02148","Malden","MA","Skeevy Corner Store","375 Salem St","02148",42.430943,-71.054836
"02148","Malden","MA","Hong Kong Supermarket","Commercial St","02148",42.421678351601585,-71.07480877820385
"02148","Malden","MA","Tasty Mind Corporation","75 Cedar St","02148",42.4298306,-71.0761777
"02149","Everett","MA","Tedeschi Food Shops","511 Broadway","02149",42.40909409399019,-71.05360813395588
"02149","Everett","MA","Tedeschi Food Shops","188 Chelsea St","02149",42.40395201838239,-71.04783664498837
"02149","Everett","MA","Fleet Fruit Wholesale","not_available","02150",42.395478999999995,-71.048503
"02149","Everett","MA","Tedeschi Food Shops","2029 Revere Beach Pkwy","02149",42.40337018684512,-71.05517066137588
"02149","Everett","MA","La Belle Jacmelienne","189 main st","not_available",42.407323,-71.06189499999999
"02149","Everett","MA","Tedeschi Food Shops","280 Main St","02149",42.41045637803282,-71.06271566645309
"02149","Everett","MA","Tedeschi Food Shops","178 Washington Ave","02150",42.398364,-71.03134
"02149","Everett","MA","Travers Fruit Company Inc.","16 New England Produce Ctr","02150",42.39709983390494,-71.05177574854888
"02151","Revere","MA","Market Basket","275 Squire Rd","02151",42.427203120713735,-71.01084080742336
"02151","Revere","MA","sayar food market, inc","3 Everett St","02151",42.410146800677126,-71.00087577589333
"02151","Revere","MA","New Deal Fruit Inc.","920 Broadway","02151",42.41983841789049,-71.00577096028704
"02151","Revere","MA","Angkor Wat","not_available","02151",42.407688,-70.995212
"02151","Revere","MA","Marjan Halal Market","1559 N Shore Rd","02151",42.406704,-70.994155
"02151","Revere","MA","Tedeschi Food Shops","191-193 Shirley Ave","02151",42.40752661208576,-70.9937840597231
"02151","Revere","MA","One Stop Convenience","345 Revere St","02151",42.418324,-70.997411
"02151","Revere","MA","Price Rite of Revere","255 Squire Road","02151",42.42638896157804,-71.0113984011158
"02152","Winthrop","MA","Winthrop Marketplace","35 Revere St","02152",42.38198874694301,-70.98115755516002
"02155","Medford","MA","Wegmans","3850 Mystic Valley Pkwy","02155",42.40672027109745,-71.0921627561769
"02155","Medford","MA","Fellsway Plaza","630-760 Fellsway","02155",42.4074545,-71.085653
"02155","Medford","MA","Stop & Shop","760 Fellsway","02155",42.4083524,-71.0858389
"02155","Medford","MA","Aldi Food Market","630 Fellsway","02155",42.4070298,-71.0836605
"02155","Medford","MA","Medford","61 Locust St","02155",42.408018453546546,-71.09407676227113
"02155","Medford","MA","Christo's Fruit Market","200 Massachusetts Ave","02474",42.405468,-71.142374
"02169","Quincy","MA","Star Market","130 Granite St","02169",42.2447575,-71.0048738
"02169","Quincy","MA","Stop & Shop","65 Newport Ave","02171",42.2711696,-71.0266694
"02169","Quincy","MA","Walmart","301 Falls Blvd","02169",42.23651180002444,-70.98666449044974
"02169","Quincy","MA","Kam Man Food","219 Quincy Ave","02169",42.240618560096806,-70.99170204258967
"02169","Quincy","MA","99 Ranch Market","475 Hancock St","02171",42.270899,-71.023369
"02169","Quincy","MA","Roche Bros.","101 Falls Blvd","02169",42.23793765569512,-70.98442395913865
"02169","Quincy","MA","Good Fortune Supermarket","226 Quincy Ave","02169",42.241490515353306,-70.99093874922525
"02169","Quincy","MA","Good Health Natural Foods","1627 Hancock St","02169",42.2425929191566,-71.00397014591785
"02169","Quincy","MA","C-Mart","Hayward Street","02171",42.271569,-71.025528
"02169","Quincy","MA","South Shore India Market","226 Quincy Ave (Rte 53)","02184",42.22877156885748,-70.97089816710786
"02169","Quincy","MA","Adams Shore Super Market","494 Sea St","02169",42.261593,-70.98005699999999
"02169","Quincy","MA","Tedeschi Food Shops","259 Bridge St","02191",42.242523387712716,-70.95504802280541
"02169","Quincy","MA","India Mart","85 Quincy Ave","02169",42.243029,-70.997132
"02169","Quincy","MA","DB Mart","200 Sea St","02169",42.26159643630008,-70.99306973497865
"02169","Quincy","MA","Tedeschi Food Shops","650 Adams St","02169",42.25581779968921,-71.03251109507019
"02169","Quincy","MA","Apollo Food Group LLC","2 Heritage Dr Ste 501","02171",42.27574157714844,-71.03787994384766
"02169","Quincy","MA","Safy Market","421 Hancock St, Quincy, MA 02171","02171",42.272908,-71.025121
"02169","Quincy","MA","Almaeedeh Halal & Middle Eastern Groceries","690 Hancock St","02170",42.267672,-71.015612
"02169","Quincy","MA","Sunshine Fruit","52 Franklin St","02169",42.24259522686136,-71.00396394532915
"02169","Quincy","MA","Mignosa Fruit Basket","148 Granite St","02169",42.24561841515761,-71.0056700748848
"02169","Quincy","MA","Shun Xing Products","not_available","02170",42.266478,-71.020434
"02169","Quincy","MA","Tedeschi Food Mart","1-99 Raymond St","02169",42.250075936317444,-70.99367380142212
"02169","Quincy","MA","Ginseng & Herb","291","02169",42.240508,-70.991815
"02169","Quincy","MA","M&M","not_available","02191",42.242985,-70.95076
"02176","Melrose","MA","Shaw's","34 Essex St","02176",42.456256,-71.0660111
"02176","Melrose","MA","Whole Foods Market","880 Main Street","02176",42.46481190249495,-71.06226369200043
"02176","Melrose","MA","RD's Deli & Market","Franklin St.","02176",42.46897506713867,-71.06826782226562
"02184","Braintree","MA","Shaw's","125 Pearl St","02184",42.2011446,-71.0002494
"02184","Braintree","MA","Tedeschi Food Shops","671 North St","02368",42.18123789981952,-71.03162626842902
"02184","Braintree","MA","shaww","not_available","02184",42.20771789550781,-70.99398040771484
"02186","Milton","MA","Tedeschi Food Shops","98 Houston Ave","02186",42.258772785612464,-71.08913815813962
"02186","Milton","MA","Tedeschi Food Shops","590 Randolph Ave","02186",42.24828319378052,-71.06916716672909
"02188","Weymouth","MA","Shaw's","610 Middle St","02189",42.2025927,-70.9432765
"02188","Weymouth","MA","Walmart","740 Middle St","02188",42.199574343136035,-70.94472817484866
"02188","Weymouth","MA","Stop & Shop","700 Middle St","02188",42.2002681,-70.944073
"02188","Weymouth","MA","Tedeschi Food Shops","425 Washington St","02188",42.20907,-70.95854
"02189","East Weymouth","MA","Super Stop & Shop","Middle St","not_available",42.21716496572785,-70.93371504629837
"02190","South Weymouth","MA","Whole Foods Market","35 Pleasant Street","02190",42.1718983683821,-70.9537760132427
"02190","South Weymouth","MA","Tedeschi Food Shops","1039 Main St","02190",42.16910156792214,-70.95591942862578
"02190","South Weymouth","MA","Weymouth Food Mart","not_available","02190",42.146622,-70.954293
"02191","North Weymouth","MA","Tedeschi Food Shops","11 Sea St","02191",42.24203034588346,-70.94455290920688
"02210","Boston","MA","Trader Joe's","44 Thomson Place","02210",42.35113125,-71.047538125
"02215","Boston","MA","Trader Joe's","1317 Beacon St","02446",42.34211574757216,-71.12089984301193
"02215","Boston","MA","Allium Market","1330 Beacon St","02446",42.3422049,-71.1219081
"02215","Boston","MA","Madras Masala","191 Harvard St","02446",42.339472,-71.120813
"02215","Boston","MA","Brookline Superette","18 Pleasant St","02446",42.343139,-71.120328
"02301","Brockton","MA","Market Basket","Westgate Drive","02301",42.09324303820609,-71.05239732978913
"02301","Brockton","MA","Shaw's","641 Belmont St","02301",42.0721926,-71.0457781
"02301","Brockton","MA","Save-A-Lot","240 E Ashland St","02302",42.09731244298533,-71.00933251083158
"02301","Brockton","MA","ALDI","544 Westgate Dr","02301",42.09224757913329,-71.05100065469742
"02301","Brockton","MA","Price Rite of Brockton","21 Torrey and West Street","02301",42.07501322901372,-71.04419093948297
"02301","Brockton","MA","Alves Grocery","North Main Street","02301",42.091091,-71.01957900000001
"02301","Brockton","MA","Tedeschi Food Shops","443 Crescent St","02302",42.08019375635352,-71.00230873695553
"02301","Brockton","MA","Tedeschi Food Shops","446 E Ashland St","02302",42.09833,-70.99962
"02301","Brockton","MA","Tedeschi Food Shops","145 N Quincy St","02302",42.11504216240321,-70.9991379377799
"02301","Brockton","MA","Bravo Supermarkets","1650 Main Street","02301",42.05298196667844,-71.010310649995
"02301","Brockton","MA","Tedeschi Food Shops","665 Washington St","02375",42.04300403594971,-71.07845842838287
"02301","Brockton","MA","Tedeschi Food Shops","304 Belmont St","02301",42.077860778817495,-71.0321593918479
"02302","Brockton","MA","Shaw's","715 Crescent St","02302",42.0786261,-70.9909111
"02302","Brockton","MA","Tedeschi Food Shops","563 Centre St","02302",42.08533811131781,-70.99625718454692
"02302","Brockton","MA","Lamberts Rainbow Fruit","826 Crescent St","02302",42.08167587329527,-70.98499081847444
"02322","Avon","MA","Walmart Supercenter","30 Memorial Dr","02322",42.121297164867414,-71.03082732996947
"02322","Avon","MA","Shaws (Stoughton)","South main st","not_available",42.147991802782805,-71.04170681091577
"02324","Bridgewater","MA","Roche Bros.","20 Broad St","02324",41.9948525608528,-70.97235693159769
"02324","Bridgewater","MA","Tedeschi Food Shops","169 Spring St","02324",41.9911481025639,-70.96801789349126
"02324","Bridgewater","MA","Tedeschi Food Shops","622 N Main St","02767",41.939316674581,-71.05300645868881
"02324","Bridgewater","MA","Tedeschi Food Shops","785 Bedford St","02324",41.96753014761422,-70.97368654745854
"02330","Carver","MA","Shaw's","100 N Main St","02330",41.9238186,-70.8070279
"02332","Duxbury","MA","Brothers Marketplace - Duxbury","46 Depot St","02332",42.025052,-70.684613
"02332","Duxbury","MA","Self Scan","not_available","02364",42.00763241693352,-70.73174128254364
"02332","Duxbury","MA","Big Y World Class Market","182 Summer St","02364-1277",42.011654358412386,-70.73521700376034
"02332","Duxbury","MA","Seafood","160 Summer St","02364",42.007965087890625,-70.73220825195312
"02333","East Bridgewater","MA","Tedeschi Food Shops","52 Bedford St","02333",42.03238706282111,-70.95820200969149
"02338","Halifax","MA","Walmart Supercenter","295 Plymouth St","02338",41.99710385941959,-70.84577772268052
"02338","Halifax","MA","Tedeschi Food Shops","377 Plymouth Street","02338",41.993837114736486,-70.84752552421979
"02341","Hanson","MA","Shaw's","476 Liberty St","02341",42.066332139801005,-70.87263646786596
"02341","Hanson","MA","Tedeschi Food Shops","12 Monponsett St","02341",42.042471676694404,-70.85433141278675
"02343","Holbrook","MA","Tedeschi Food Shops","31 N Franklin St","02343",42.155327,-71.008178
"02343","Holbrook","MA","Holbrook Food Mart","855 S Franklin St","02343",42.12706756591797,-71.0094985961914
"02346","Middleboro","MA","Trucchi's","438 W Grove St","02346",41.896527853929726,-70.95089918049077
"02346","Middleboro","MA","Cirellis","not_available","02346",41.90676965391259,-70.95563487377372
"02346","Middleboro","MA","Trader Joe's","30 Commerce Blvd","02346",41.90696716308594,-70.95624542236328
"02347","Lakeville","MA","Walmart Supercenter","36 Paramount Dr","02767",41.90390770534168,-71.03297215096755
"02351","Abington","MA","Walmart","777 Brockton Ave","02351",42.09564406578198,-70.96886285822173
"02351","Abington","MA","The Abington Community Center","375 centre","02370",42.10966229438782,-70.93040585517883
"02351","Abington","MA","Stop & Shop Peapod Pickup","not_available","02351",42.11083971147758,-70.92759633537437
"02351","Abington","MA","Tedeschi Food Shops","945 Bedford St","02351",42.130167720945394,-70.9497008949985
"02356","North Easton","MA","Shaw's","690 Depot St","02356",42.02438,-71.116334
"02356","North Easton","MA","Big Y World Class Market","25 Robert Dr","02375",42.02553398139648,-71.14205680382798
"02356","North Easton","MA","Tedeschi Food Shops","285 Washington St","02356",42.06699543161703,-71.08810246060898
"02356","North Easton","MA","Tedeschi Food Shops","11 Columbus Ave","02356",42.060224,-71.10324
"02359","Pembroke","MA","Pudding Brook Pantry","260-300 Washington St","02359",42.094970069435746,-70.7938589164904
"02359","Pembroke","MA","Tedeschis","not_available","02050",42.103477617913775,-70.80327628064062
"02360","Plymouth","MA","Walmart Supercenter","15 Tobey Rd","02571",41.7796,-70.7482
"02360","Plymouth","MA","Market Basket","1 Factory Outlet Rd","02532",41.77110805786971,-70.54606979794345
"02360","Plymouth","MA","Walmart Supercenter","300 Colony Place Rd","02360",41.955352129345556,-70.7177782037146
"02360","Plymouth","MA","The Market at Pinehills","6 Purchase St","02360",41.87827726044495,-70.60051094669655
"02360","Plymouth","MA","Shaw's","2260 State Rd","02360",41.8208513,-70.5510163
"02360","Plymouth","MA","ALDI","2419 Cranberry Hwy Ste E","02571",41.77886481092672,-70.74427127838135
"02360","Plymouth","MA","Big Lots","90 Shops At 5 Way","02360",41.92816197057231,-70.65030475159818
"02360","Plymouth","MA","Alltown Fresh","22 Long Pond Rd","02360",41.93280792236328,-70.65695190429688
"02360","Plymouth","MA","Mayflower Market","164 South St","02360",41.9386541,-70.6567362
"02360","Plymouth","MA","ALDI","246 Colony Place Rd","02360",41.9506322,-70.7164088
"02360","Plymouth","MA","Common Sense Food Market","53 Main St","02360",41.956933,-70.663951
"02360","Plymouth","MA","Perry's Market","200 Standish Ave","02360",41.970575,-70.685257
"02360","Plymouth","MA","Healthy Appetites","Long Pond Rd","02360",41.931824,-70.65780600000001
"02360","Plymouth","MA","Tedeschi Food Shops","78 Summer St","02364",41.999353766441345,-70.73074758052826
"02360","Plymouth","MA","stop n shop","Huttleston Ave, Fairhaven, MA","02719",41.77018928180802,-70.55999701277685
"02360","Plymouth","MA","Tedeschi Food Shops","2302 State Rd","02360",41.81820722619579,-70.55177830600914
"02360","Plymouth","MA","Shaw's at Plymouth","2260 Route 3A State Road","02360",41.82102863452141,-70.55042473610223
"02360","Plymouth","MA","Tedeschi Food Shops","15 Main Street Ext","02360",41.955329169116354,-70.66358958619593
"02368","Randolph","MA","Shaw's","121 Memorial Pkwy","02368",42.1638028,-71.0454855
"02368","Randolph","MA","Americas’s Food Basket","300 N Main St","02368",42.16738510131836,-71.04480743408203
"02368","Randolph","MA","The Variety Store","not_available","02368",42.16516885863228,-71.05664526223362
"02368","Randolph","MA","Saigon Market","north main street","02368",42.187377583325315,-71.05748096375282
"02370","Rockland","MA","Tedeschi Food Shops","268 Union St","02370",42.129622814332514,-70.9157677289217
"02370","Rockland","MA","Tedeschi Food Shops","14 Howard St","02370",42.12322351000012,-70.90848080939865
"02379","West Bridgewater","MA","Market Basket","352 W Center St","02379",42.01536460284836,-71.03274364036122
"02379","West Bridgewater","MA","Trucchi's Supermarkets","53 E Center St","02379",42.020845048785496,-71.00305587673938
"02379","West Bridgewater","MA","TD's Deli","397 West Center Street","02379",42.01664733886719,-71.03447723388672
"02379","West Bridgewater","MA","Market Basket","Rt 106","02379",42.03073014827474,-71.03086535820117
"02382","Whitman","MA","Tedeschi Food Shops","643 Washington St","02382",42.082516570920504,-70.93772671757064
"02420","Lexington","MA","Wilson Farm","10 Pleasant St","02421",42.427373449597475,-71.20668091472457
"02420","Lexington","MA","Trader Joe's","1427 Massachusetts Ave","02476",42.425236525874475,-71.18837589472777
"02420","Lexington","MA","Peter Pan Superette","2 Park Ave","02474",42.425688,-71.18181899999999
"02421","Lexington","MA","Star Market","1070 Lexington St","02452",42.4121553,-71.2345274
"02421","Lexington","MA","Wagon Wheel","927 Waltham St","02421",42.41779065523793,-71.23186734536124
"02421","Lexington","MA","Shaws Produce Department","not_available","02451",42.412861,-71.233939
"02445","Brookline","MA","Star Market","1 Boylston St","02467",42.3236959,-71.1668639
"02445","Brookline","MA","Putterham Market","189 Grove St","02467",42.303558349609375,-71.15219116210938
"02445","Brookline","MA","curds&co","288 Washington St","02445",42.33328817593522,-71.11945582727513
"02445","Brookline","MA","Shaw's Supermarket","9 Boylston","not_available",42.323827438892216,-71.1655620871185
"02451","Waltham","MA","Market Basket","1265 Main St","02451",42.38100193682358,-71.26273393505274
"02451","Waltham","MA","Hannaford Supermarket","55 Russell St","02453",42.3757897,-71.2446194
"02451","Waltham","MA","India Bazaar Market","315 Moody St","02453",42.370728927849356,-71.23722610897806
"02451","Waltham","MA","Brothers Marketplace","1 Moody St","02453",42.375565,-71.23795600000001
"02451","Waltham","MA","Quick Stop Variety","607 Main St","02452",42.3766975402832,-71.23512268066406
"02451","Waltham","MA","Kevs Kwik Mart","909 Main St","02451",42.376490999999994,-71.248012
"02452","Waltham","MA","Francis Food Mart","1084 Belmont St","02472",42.382264,-71.197949
"02453","Waltham","MA","Whole Foods Market","647 Washington St","02458",42.35414842233056,-71.19991373024193
"02453","Waltham","MA","Russo's","560 Pleasant St","02472",42.36639538445411,-71.21037365735565
"02453","Waltham","MA","Shaw's","130 River St","02453",42.3691283,-71.2211043
"02453","Waltham","MA","Patel Brothers","425 Moody St","02453",42.36884043692912,-71.23731669196832
"02453","Waltham","MA","Village Market","588 South St","02453",42.36055466318895,-71.26163596748779
"02453","Waltham","MA","New Apna Bazaar","395 Moody St","02453",42.369144,-71.237605
"02453","Waltham","MA","Grocery Garrison","not_available","02453",42.3702969,-71.2265601
"02453","Waltham","MA","Tedeschi Food Shops","612 Washington St","02458",42.35394769719214,-71.1985402872766
"02453","Waltham","MA","Moody Spa","811 Moody St","02453",42.362491999999996,-71.239271
"02453","Waltham","MA","Tedeschi Food Shops","591 Moody St","02453",42.36598585247508,-71.23860324838745
"02453","Waltham","MA","Chapin Grocery","220 River St","02453",42.371369,-71.224665
"02458","Newton","MA","Tedeschi Food Shops","164 Main St","02472",42.36768444953818,-71.18817114775231
"02459","Newton Center","MA","Wegmans","200 Boylston St","02467",42.318557689696554,-71.17531366310648
"02459","Newton Center","MA","Whole Foods Market","916 Walnut St","02461",42.330110381930325,-71.20643306364198
"02459","Newton Center","MA","Baza Foods","30 Tower Rd","02464",42.31041868230637,-71.21546786893715
"02459","Newton Center","MA","Tedeschi Food Shops","98-100 Winchester St","02461",42.316641,-71.208471
"02460","Newtonville","MA","Trader Joe's","1121 Washington St","02465",42.349736772717904,-71.21948666799855
"02460","Newtonville","MA","Star Market","33 Austin St","02460",42.35071398521264,-71.2090141837325
"02466","Auburndale","MA","Star Market","2040 Commonwealth Ave","02466",42.3467438,-71.2447416
"02466","Auburndale","MA","Auburndale Market","345 Auburn St","02466",42.346765937232654,-71.24774337755652
"02472","Watertown","MA","Sophia's Greek Pantry","265 Belmont St","02478",42.37689274107001,-71.1628883917819
"02472","Watertown","MA","Handy Spa Convenience Store","243 Belmont St","02478",42.3769675,-71.16166609999999
"02472","Watertown","MA","EC Shaw","356 Main St","02472",42.369679999999995,-71.192141
"02472","Watertown","MA","Francis Food Mart","Belmont St","02472",42.37571060657501,-71.18264615535736
"02474","Arlington","MA","Whole Foods Market","808 Massachusetts Avenue","02476",42.416432295263284,-71.15963078803696
"02478","Belmont","MA","Star Market","535 Trapelo Rd","02478",42.3882653,-71.1911076
"02478","Belmont","MA","Belmont Food Pantry","450 Concord Ave, Belmont, MA 02478","02478",42.39601135253906,-71.17736053466797
"02481","Wellesley Hills","MA","Roche Brothers","184 Linden St","02482",42.300945010959175,-71.2924822990331
"02481","Wellesley Hills","MA","Whole Foods Market","442 Washington Street","02482",42.302492233340224,-71.2856462475431
"02481","Wellesley Hills","MA","Trader Joe's","958 Highland Ave","02494",42.29276402618242,-71.23483314105442
"02481","Wellesley Hills","MA","roche bros","184 Linden St, Wellesley, MA 02482","02482",42.30094528198242,-71.29238891601562
"02492","Needham","MA","Sudbury Farms","1177 Highland Ave","02494",42.28649836879951,-71.23562479849522
"02493","Weston","MA","Omni Foods","39 Center Street","not_available",42.36680345640084,-71.30049250012117
"02532","Buzzards Bay","MA","Gray Gables Market","not_available","02532",41.73602860941275,-70.61227707737186
"02535","Chilmark","MA","Chilmark Store","7 State Rd","02535",41.34198656252116,-70.7450007937996
"02535","Chilmark","MA","Alley's General Store","1045 State Rd","02575",41.38194949291982,-70.67466249011377
"02536","East Falmouth","MA","Walmart","137 Teaticket Hwy","02536",41.56089657255435,-70.59441545850316
"02536","East Falmouth","MA","Shaw's","137 Tea Ticket Hwy","02536",41.561901,-70.59389
"02536","East Falmouth","MA","Windfall Market","77 Scranton Ave","02540",41.551506701912196,-70.60372352600098
"02536","East Falmouth","MA","The Produce Stand","402 N Falmouth Hwy","02556",41.638904,-70.616826
"02536","East Falmouth","MA","Stop and Shop","414 Nathan Ellis Hwy","02649",41.61545,-70.517942
"02536","East Falmouth","MA","Tedeschi Food Shops","279 Old Main Street","02556",41.65030519001473,-70.61671266145132
"02536","East Falmouth","MA","Just Us Enterprises - Emergency Disaster Preparedness","105 Connor Grant Rd","28562",41.57117081675861,-70.5901649594307
"02536","East Falmouth","MA","Tedeschi Food Shops","439 East Falmouth Highway","02536",41.57783889770508,-70.55831909179688
"02536","East Falmouth","MA","Tedeschi Food Shops","59 Locust St","02540",41.553925,-70.624027
"02536","East Falmouth","MA","Family Foods","350 E Falmouth Hwy","02536",41.57893,-70.560866
"02536","East Falmouth","MA","Superette","not_available","02556",41.64921335720745,-70.61680257771071
"02538","East Wareham","MA","Oak Grove Package Store","47 Depot St","not_available",41.756781,-70.677075
"02542","Buzzards Bay","MA","Stop & Shop","65 Route 6A","02563",41.7664746,-70.5096256
"02542","Buzzards Bay","MA","Sandwich Food Mart & Deli","367 Cotuit Road","02563",41.71501159667969,-70.48905944824219
"02542","Buzzards Bay","MA","Coast Guard Exchange","5203 Lee Rd","02542",41.66005361207588,-70.56548736288978
"02542","Buzzards Bay","MA","Tedeschi Food Shops","111 Route 6A","02563",41.762865,-70.496848
"02542","Buzzards Bay","MA","Super Stop & Shop","61 Old King's Hwy","02563",41.766325,-70.509248
"02542","Buzzards Bay","MA","Sandwich Mart & Spirits","not_available","02563",41.756661,-70.491065
"02543","Woods Hole","MA","Cronig's Market (Up Island)","472 State Rd","not_available",41.41766693508934,-70.6671983451715
"02554","Nantucket","MA","Nantucket Meat & Fish Market","Amelia","02554",41.267248,-70.084199
"02554","Nantucket","MA","Annye's Whole Foods","14 Amelia Dr","02554",41.266134,-70.085748
"02554","Nantucket","MA","The Market Cafe","21 Old South Road","02554",41.2674446105957,-70.08429718017578
"02557","Oak Bluffs","MA","Cronig's Market","109 State Rd","02568",41.447763041396676,-70.61559272580506
"02557","Oak Bluffs","MA","Reliable Market","36 Circuit Ave","02557",41.45563789390509,-70.55825776600477
"02557","Oak Bluffs","MA","Eden Market & Garden Center","356 State Rd","02568",41.447354,-70.614408
"02557","Oak Bluffs","MA","Vineyard Cash & Carry","15 carrols way","02568",41.4376300348456,-70.60954974364232
"02557","Oak Bluffs","MA","Tisbury Farm Market","342 State Rd.","not_available",41.447736,-70.614331
"02558","Onset","MA","Onset Village Market","231 Onset Ave","02558",41.743303000000004,-70.660677
"02559","Pocasset","MA","Pocasset Country Market","not_available","02559",41.693368295203705,-70.61373863244735
"02564","Siasconset","MA","Siasconset Market","4 Main St","02554",41.262066,-69.964386
"02571","Wareham","MA","Shaw's","127 Marion Rd","02571",41.75965784930417,-70.72877617212725
"02601","Hyannis","MA","Whole Foods Market","990 Iyannough Road","02601",41.672610174469234,-70.30200224850887
"02601","Hyannis","MA","Trader Joe's","655 Iyannough Road Rt 132","02601",41.66633936483253,-70.29190402130085
"02601","Hyannis","MA","Shaw's","1070 Iyannough Rd","02601",41.6762731,-70.3036923
"02601","Hyannis","MA","Star Market","625 W Main St","02601",41.651765,-70.3182932
"02601","Hyannis","MA","Lambert's Fruit Co.","1000 W Main St","02632",41.65753713575093,-70.32999643533367
"02601","Hyannis","MA","Hyannis Food Service","400 Barnstable Rd","02601",41.66431427001953,-70.28657531738281
"02601","Hyannis","MA","Shaws Starmarket","west main street","02601",41.646098078144384,-70.32773714073804
"02601","Hyannis","MA","stop & shop","1220 Iyannough Rd","02601",41.67544,-70.309152
"02601","Hyannis","MA","Arnold Bakery Outlet","163 Barnstable Rd","02601",41.657709000000004,-70.28457399999999
"02601","Hyannis","MA","Tedeschi Food Shops","714 Yarmouth Rd","02601",41.67250366415442,-70.26650025422404
"02631","Brewster","MA","Shaw's","9 West Rd","02653",41.7797445,-70.0021887
"02631","Brewster","MA","Brewster Village Marketplace","1760 Main St","02631",41.757064,-70.087825
"02631","Brewster","MA","Tedeschi Food Shops","178 Cranberry Highway","02653",41.78224527533408,-69.9977818891101
"02631","Brewster","MA","Brewster Farms","2759 Main St","02631",41.76960903956951,-70.05528429873455
"02632","Centerville","MA","Fancy's Market","699 Main St","02655",41.62778344147789,-70.38088010678315
"02632","Centerville","MA","Earth Origins Market","1600 Falmouth Rd","02632",41.6579704284668,-70.34581756591797
"02632","Centerville","MA","Tedeschi Food Shops","1638 Falmouth Rd","02632",41.65760934474156,-70.34711336635377
"02633","Chatham","MA","Chatham Natural Market","1218 Main St","02633",41.68557365179252,-69.97952145535697
"02635","Cotuit","MA","Cotuit Fresh Market (aka The Coop)","737 Main St","02635",41.62166166159816,-70.43532747723785
"02638","Dennis","MA","Peterson's Market","918 Massachusetts 6A","02675",41.71588841115077,-70.20132491739254
"02638","Dennis","MA","Angle View","33 Shore Dr","02638",41.7423972,-70.20751000000001
"02638","Dennis","MA","Tedeschi Food Shops","1590 Main Street","02541",41.74318475065113,-70.16093425772006
"02642","Eastham","MA","Friendly Fisherman","4580 US Route 6","02651",41.857257450320795,-69.98631244312566
"02642","Eastham","MA","Tedeschi Food Shops","2360 State Highway","02642",41.82806671280766,-69.9728715337802
"02645","Harwich","MA","Star Market","18 Sisson Rd","02646",41.6731018,-70.0928374
"02648","Marstons Mills","MA","Old Village Store","2455 Meetinghouse Way","02668",41.70661202408642,-70.37414765528185
"02649","Mashpee","MA","Roche Bros Mashpee","11 Commercial St","02649",41.61257522584862,-70.48806454491623
"02649","Mashpee","MA","The Country Store","259 Shore Dr","02649",41.56715779456102,-70.47084860815698
"02649","Mashpee","MA","Ideal  Dimensions Weight Loss","681 Falmouth Rd Ste B21","02649",41.610661081892665,-70.49178696137693
"02652","North Truro","MA","Salty Market","2 Highland Road","02666",42.034062425206514,-70.08487629555833
"02652","North Truro","MA","Dutra's Market","2 Highland Rd","02652",42.03403091430664,-70.08502960205078
"02653","Orleans","MA","Friends Market","not_available","02653",41.785716480961234,-69.98930551962873
"02657","Provincetown","MA","Far Land Provisions","150 Bradford St","02657",42.054641171088434,-70.18488181004163
"02657","Provincetown","MA","Angel Foods","467 Commercial St","02657",42.05624049471394,-70.17908337752938
"02657","Provincetown","MA","The Little Store","227 Commercial St","02657",42.0497932434082,-70.18801879882812
"02657","Provincetown","MA","141 Bradford Natural Market","141 Bradford St","02657",42.05346739724818,-70.18582654912024
"02657","Provincetown","MA","Tedeschi Food Shops","137 Bradford St","02657",42.053143,-70.185964
"02657","Provincetown","MA","J&E Fruit and Produce, Inc.","20 Province Rd","02657",42.05269,-70.197331
"02660","South Dennis","MA","Ring Bros. Marketplace","485 Route 134","02660",41.69297220695212,-70.15456621092538
"02660","South Dennis","MA","Stop Shop Harwich Mass","not_available","02664",41.68465514662318,-70.1777814709306
"02660","South Dennis","MA","Dennis Food Mart","Route 134","02660",41.71499,-70.153798
"02664","South Yarmouth","MA","Shaw's","1108 State Road","02664",41.662845533980686,-70.20206809043884
"02664","South Yarmouth","MA","Finley's","Rt. 28","02670",41.66408632280521,-70.17014200225474
"02667","Wellfleet","MA","Wellfleet Marketplace","295 Main St","02667",41.938036029453094,-70.03120670543122
"02703","Attleboro","MA","Super Stop & Shop","206 E Washington St","02760",41.9721376,-71.3326889
"02703","Attleboro","MA","Walmart Supercenter","1470 S Washington St","02760",41.93336906393828,-71.34972633490084
"02703","Attleboro","MA","Super Stop & Shop","469 Pleasant St","02703",41.9510921,-71.2712055
"02703","Attleboro","MA","Shaw's","125 Robert Toner Blvd","02763",41.9705835,-71.3005554
"02703","Attleboro","MA","Seabra","not_available","02703",41.9352212023994,-71.28693881992825
"02703","Attleboro","MA","Briggs Corner Store","1503","02703",41.912422,-71.259016
"02703","Attleboro","MA","Alternative Market","33 N Washington St","02760",41.983042594386646,-71.33255154395302
"02703","Attleboro","MA","Tedeschi Food Shops","4 Elm St","02760",41.98212814331055,-71.33201599121094
"02703","Attleboro","MA","India Bazaar","575 E Washington St","02760",41.98349138,-71.32808177
"02703","Attleboro","MA","Tedeschi Food Shops","325 W Main St","02766",41.95070568333333,-71.22771
"02718","East Taunton","MA","Shaw's","300 New State Hwy","02767",41.9064964,-71.0538458
"02718","East Taunton","MA","ALDI","600 South St","02767",41.9049084,-71.0454105
"02718","East Taunton","MA","Desi Market","500 S St W Unit 2","02767",41.9067251,-71.0474089
"02719","Fairhaven","MA","Walmart","42 Fairhaven Commons Way","02719",41.64490089814216,-70.88759705814257
"02719","Fairhaven","MA","Tedeschi Food Shops","951 Brock Ave","02744",41.61351208578474,-70.91840069013527
"02719","Fairhaven","MA","Ocean State Job Lot","4 Fairhaven Commons Way","02719",41.64323026109389,-70.88632484391727
"02719","Fairhaven","MA","Super Stop&Shop","not_available","02719",41.64031197722539,-70.87959571115586
"02719","Fairhaven","MA","Shaw's","11 Berdon Way","02719",41.63986723716696,-70.8843077621598
"02720","Fall River","MA","Shaw's","4171 N Main St","02720",41.7510093,-71.1211863
"02720","Fall River","MA","Portugalia Marketplace","489 Bedford St","02720",41.69984696678322,-71.1468936341051
"02720","Fall River","MA","Daou Market","1678 President Ave","02720",41.71260749349692,-71.12666396280363
"02720","Fall River","MA","Tedeschi Food Shops","190 New Boston Rd","02720",41.70712766156315,-71.1420693256266
"02720","Fall River","MA","Natco","1 West St","02720",41.727587,-71.145531
"02720","Fall River","MA","Price Rite of Fall River","866 Pleasant Street","02723",41.6966311,-71.1406589
"02721","Fall River","MA","Market Basket","not_available","02721",41.671569371341654,-71.15616966019759
"02721","Fall River","MA","ALDI","485 William S. Canning Blvd.","02721",41.6717283,-71.1615476
"02721","Fall River","MA","Walmart Supercenter","638 Quequechan Street","02721",41.68614679472935,-71.14148578963378
"02721","Fall River","MA","Tedeschi Food Shops","28 E Main St","02724",41.689659746861864,-71.16487746038928
"02721","Fall River","MA","Save-A-Lot","100 Griffin St","02724",41.689979,-71.172609
"02721","Fall River","MA","A & J Seabra Supermarket","440 Stafford Rd","02721",41.682524,-71.155253
"02721","Fall River","MA","Amarals Portuguese Market","872 Globe St","02724",41.685264076840376,-71.16604298279368
"02721","Fall River","MA","Tedeschi Food Shops","1099 William S Canning Blvd","02721",41.66503464912629,-71.15627632901715
"02721","Fall River","MA","Tedeschi Food Shops","1237 Pleasant St","02723",41.692145000000004,-71.136455
"02726","Somerset","MA","stop  shop","GAR Highway","not_available",41.75180471750987,-71.16931590913434
"02739","Mattapoisett","MA","Tedeschi Food Shops","51 County Rd","02739",41.66470724827975,-70.809971201824
"02740","New Bedford","MA","Shaw's","15 State Rd","02747",41.6362347,-70.9610719
"02740","New Bedford","MA","Market Basket","122 Sawyer St.","02746",41.65751737103903,-70.92171647022023
"02740","New Bedford","MA","A&J Seabra Supermarket","37-41 Rockdale Ave","02740",41.614689,-70.93186899999999
"02740","New Bedford","MA","Price rite","39 South St","02740",41.661239,-70.94712700000001
"02740","New Bedford","MA","Friendly Fruit Market","2301 Purchase St","02746",41.659712819296935,-70.93490333818139
"02740","New Bedford","MA","Save-A-Lot","1339 Cove Rd","02744",41.61476516723633,-70.92835235595703
"02740","New Bedford","MA","Costa's Cash Express","not_available","02740",41.62697584942191,-70.92664427007871
"02740","New Bedford","MA","Price Rite of New Bedford","139 Hathaway Rd","02746",41.6607061,-70.9456474
"02743","Acushnet","MA","Trucchi's Supermarkets","2941 Acushnet Ave","02745",41.699691968251074,-70.93669309709507
"02743","Acushnet","MA","Ocean State Job Lot","1068 Kings Hwy","02745",41.67726565664974,-70.94090200164118
"02743","Acushnet","MA","Amaral's Market","488 Belleville Ave","02746",41.664433,-70.922842
"02743","Acushnet","MA","Wessam Variety Store","1851 Acushnet Ave","02746",41.671209999999995,-70.926291
"02743","Acushnet","MA","Tedeschi Food Shops","450 Ashley Blvd","02745",41.66976851951775,-70.93138067962214
"02743","Acushnet","MA","Shaws","Kings highway","not_available",41.676355,-70.940524
"02745","New Bedford","MA","Save-A-Lot","452 Mount Pleasant","02746",41.66263407184721,-70.94140104562555
"02747","North Dartmouth","MA","Walmart Grocery Pickup and Delivery","506 State Rd","02747",41.64574432373047,-71.01129150390625
"02747","North Dartmouth","MA","Super Stop And Shop","25","02747",41.63986847499247,-70.9923085869687
"02747","North Dartmouth","MA","Prestige Marketplace","532 Russells Mills Road","02748",41.597747802734375,-70.97986602783203
"02760","North Attleboro","MA","Steve's Market","205 Smith St","02760",41.98924419419036,-71.32451629604354
"02766","Norton","MA","Tedeschi Food Shops","2068 Bay St","02780",41.95875765785802,-71.1197736180983
"02767","Raynham","MA","Walmart Supercenter","160 Broadway","02767",41.93500049016614,-71.0853715218714
"02767","Raynham","MA","Market Basket","240 Broadway","02767",41.936701048783604,-71.08336398088419
"02767","Raynham","MA","Trucchi's Supermarkets","53 Tremont Street (Plaza with Rite Aid)","02780",41.905479757394204,-71.10562376496769
"02767","Raynham","MA","Trucchi's Supermarkets","534 County St","02780",41.88778087279976,-71.06820303445605
"02767","Raynham","MA","Store 44","not_available","02780",41.898021,-71.097107
"02767","Raynham","MA","Shaw's","280 Winthrop St","02780",41.88678758084219,-71.11887805359119
"02770","Rochester","MA","Superama Horacio (Los Morales)","Horacio#1740","02770",41.75698,-70.84701
"02771","Seekonk","MA","Walmart","1180 Fall River Ave","02771",41.7947118688844,-71.3254074134683
"02771","Seekonk","MA","Stop & Shop","1045 Fall River Ave","02771",41.7969381,-71.3308174
"02771","Seekonk","MA","Super Stop & Shop","Highland Ave","not_available",41.800901905888665,-71.33733600404047
"02771","Seekonk","MA","Price Rite of Seekonk","140 Taunton Ave.","02771",41.82587879271241,-71.34082279528208
"02771","Seekonk","MA","Rochelle's Convenience Mart","County Street","02771",41.8140382508269,-71.31784484657108
"02771","Seekonk","MA","Quality Fruitland","1487 Fall River Ave","02771",41.78649451702023,-71.3164154849562
"02771","Seekonk","MA","One Stop Food","20 Plainfield St","02771",41.88658183333333,-71.33141941666666
"02777","Swansea","MA","Shaw's","186 County Rd","02806",41.73666910526886,-71.3068351149559
"02777","Swansea","MA","Seabra","Hope st","02809",41.69328717796509,-71.27871779376014
"02777","Swansea","MA","Walmart Supercenter","54 Cousineau Drive","02777",41.75451208692263,-71.22003723096324
"02777","Swansea","MA","Tom's Market","Child Street","not_available",41.72975027646318,-71.27789090302574
"02777","Swansea","MA","Almeida's Vegetable Patch","110 Grand Army of Republic Hwy","02777",41.742317150445054,-71.19119440741801
"02777","Swansea","MA","Harvest Market","2685 Gar Hwy","02777",41.774333514930916,-71.2751761653512
"02777","Swansea","MA","Azorean Market Bristol","not_available","02809",41.707903,-71.253609
"02777","Swansea","MA","Price Rite","58 Swansea Mall Dr","02777",41.75080199015435,-71.2148746610733
"02777","Swansea","MA","Price Rite of Swansea","58 Swansea Mall Rd","02777",41.7504115,-71.2155859
"02779","Berkley","MA","Common Crossing","11 N Main St","02779",41.84753672228613,-71.08325049052637
"02790","Westport","MA","Lees Market","796 Main Rd","02790",41.58059257996398,-71.08885383196332
