"zip","city","state","name","address","postalCode","lat","lon"
"15001","Aliquippa","PA","Sewickley Valley Hospital ER","not_available","not_available",40.533937998505245,-80.2679934313922
"15001","Aliquippa","PA","UPMC Centers for Rehab Services: Hopewell","2304 Brodhead Rd","15001",40.58728790283203,-80.25926971435547
"15001","Aliquippa","PA","My Dormant Cerebral Cortex","not_available","15001",40.633785,-80.318343
"15001","Aliquippa","PA","iCare Home Care Services, LLC","2020 Main St","15001",40.60513687133789,-80.27674865722656
"15001","Aliquippa","PA","Broskey Senior Center","1221 Ridgeway Ave, West Aliquippa, PA 15001","15001",40.60135775,-80.26308451666667
"15003","Ambridge","PA","HealthSouth Rehabilitation Hospital","351 Campmeeting Rd","15143",40.57635269626138,-80.20333470620665
"15003","Ambridge","PA","Sewickley valley hospital","not_available","15143",40.607378129874434,-80.19500645155304
"15009","Beaver","PA","Beaver Medical Center","Dutch Ridge","not_available",40.71177523794059,-80.32253195856543
"15009","Beaver","PA","Heritage Valley Cardiovascular Floor","1000 Dutch Ridge Rd","15009",40.71217727661133,-80.32360076904297
"15009","Beaver","PA","MedExpress Urgent Care","3944 Brodhead Road, Suite 7B","15061",40.679828,-80.3002484
"15009","Beaver","PA","Surgery Waiting Room","not_available","15009",40.689307,-80.316771
"15009","Beaver","PA","Beaver Med Center","not_available","15061",40.71345690499097,-80.36586769081106
"15009","Beaver","PA","Heritage Valley Health System Convenient Care","79 Wagner Rd Ste 200","15061",40.68055725097656,-80.3128433227539
"15009","Beaver","PA","Nurse Office!","Gypsy Glen Road","15009",40.696081,-80.318211
"15009","Beaver","PA","Beaver Medical Center/ER Department","1000 Dutch Ridge Rd","15061",40.71182419807407,-80.32315563186832
"15009","Beaver","PA","Drug and Alcohol Services of Beaver Valley","697 State Ave","15009",40.67902391248624,-80.33920972232866
"15009","Beaver","PA","UPMC Centers for Rehab Services: Beaver","550 Corporation St","15009",40.6948356628418,-80.3034439086914
"15009","Beaver","PA","Medic Rescue Post 20","not_available","15066",40.73027087800575,-80.31013844820954
"15009","Beaver","PA","UPMC CancerCenter, Beaver","1030 Beaner Hollow Rd","15009",40.71019744873047,-80.31793212890625
"15009","Beaver","PA","Montefiore UPMC Hospital","Lothrop Street","15009",40.68883334487101,-80.31932766546518
"15009","Beaver","PA","Heritage Valley ER","3th St","15009",40.69141903214806,-80.3127446097914
"15010","Beaver Falls","PA","UPMC Centers for Rehab Services: Chippewa","2580 Constitution Blvd","15010",40.77324295043945,-80.37287902832031
"15010","Beaver Falls","PA","UPMC Centers for Rehab Services: Beaver Falls","1122 7th Ave Ste C","15010",40.75265884399414,-80.31908416748047
"15010","Beaver Falls","PA","MedExpress Urgent Care","2652 Darlington Road, Suite 10","15010",40.77624062036256,-80.3819391131401
"15012","Belle Vernon","PA","MedExpress Urgent Care","860 Rostraver Road","15012",40.13795288036913,-79.8420238494873
"15012","Belle Vernon","PA","UPMC Centers for Rehab Services: Belle Vernon","4627 Route 51 Willowbrook Plaza Suite 440","15012",40.18424226481642,-79.81009483337402
"15012","Belle Vernon","PA","Red Cross blood donation","not_available","15022",40.126079,-79.885776
"15012","Belle Vernon","PA","Med Express Urgent Care","not_available","15012",40.12650610974597,-79.75131555815962
"15014","Brackenridge","PA","My Office At AVH","1301 Carlisle St","15065",40.600756772248964,-79.74759720218188
"15017","Bridgeville","PA","MedExpress Urgent Care","3024 Washington Pike","15017",40.353283597275535,-80.11538118124008
"15017","Bridgeville","PA","Vanadium Woods Village ","50 Vanadium Rd","15017",40.371767999999996,-80.0911
"15017","Bridgeville","PA","Med Express","not_available","15241",40.3083056697511,-80.09477509724131
"15017","Bridgeville","PA","southpoint Child Psych","not_available","15017",40.32807159423828,-80.13151550292969
"15017","Bridgeville","PA","Southwood Hospital","boyce plaza rd","not_available",40.32541786881647,-80.11266461277151
"15017","Bridgeville","PA","Southwood Psychiatric Hospital","311 Station St","15017",40.35891504582615,-80.11353172342794
"15017","Bridgeville","PA","Mayview Psychiatric Hospital","Mayview Road","15606",40.32797401202281,-80.11207562696167
"15017","Bridgeville","PA","Upmc urgent care at robinson","Robinson court","15017",40.35431990366617,-80.11038499713804
"15018","Buena Vista","PA","Dear Lodging Medical","not_available","15083",40.248005,-79.78538
"15024","Cheswick","PA","Upmc Outpatient Surgery Center","not_available","15139",40.53788696299618,-79.84066265044464
"15024","Cheswick","PA","health south harmarville","320 Guys Run Road","15238",40.55028533935547,-79.87218475341797
"15024","Cheswick","PA","UPMC St. Margaret Dermatology","2585 Freeport Rd Ste 204","15238",40.53688368094592,-79.84281256988542
"15024","Cheswick","PA","Alle-kiski Medical Center","not_available","15238",40.542411976271815,-79.82403046347555
"15024","Cheswick","PA","Lefever Hill","not_available","15024",40.57592450053449,-79.8307110697306
"15024","Cheswick","PA","UPMC Shadyside 3rd floor","not_available","15213",40.574239895529296,-79.79585256693957
"15024","Cheswick","PA","UPMC Harmar Outpatient Center","3 Mariner Ct","15238",40.53753,-79.841245
"15024","Cheswick","PA","Seneca Medic Unit 166","seneca ems","not_available",40.57745627,-79.889835
"15024","Cheswick","PA","UPMC Centers for Rehab Services: Harmarville","2585 Freeport Road Alexander's Athletic Club, Suite 205","15238",40.53652572631836,-79.8429183959961
"15025","Clairton","PA","Jefferson Hospital","565 Coal Valley Rd","15025",40.3173744627253,-79.93342494485847
"15025","Clairton","PA","MedExpress Urgent Care","695 Clairton Blvd.","15236",40.328811197376794,-79.94454458355904
"15025","Clairton","PA","Jefferson ER","Jefferson Regional Medical Center","not_available",40.31779711914732,-79.93445832005337
"15025","Clairton","PA","UPMC Centers for Rehab Services: Jefferson","1200 Brooks Lane Jefferson Medical Arts Building, Suite 230","15025",40.29118,-79.931994
"15025","Clairton","PA","Clairton 550 - Glassport Station","Monongahela Ave","15045",40.32112248663195,-79.89274796383704
"15025","Clairton","PA","Magee Womancare Center - Pleasant Hills","850 Clairton Blvd","15236",40.3223762512207,-79.94424438476562
"15025","Clairton","PA","JRMC Pharmacy","not_available","15025",40.31773116578675,-79.93435152551962
"15025","Clairton","PA","Southwestern Ambulatory Surgery Center","500 Lewis Run Rd","15122",40.3295834442651,-79.94029153356033
"15025","Clairton","PA","Jefferson Regional Medical Center Non-Invasive Vascular Lab","565 Coal Valley Rd, Jefferson Hills, PA 15025","15025",40.31766891479492,-79.93367767333984
"15026","Clinton","PA","Findlay Township EMS","6-32 Municipal Dr","15126",40.489079,-80.296121
"15030","Creighton","PA","UPMC St. Margaret New Kensington Family Health Center","301 11th St.","15068",40.5683564946785,-79.76797780174934
"15030","Creighton","PA","Allegheny valley hospital","not_available","15084",40.60006515174623,-79.76698445922804
"15030","Creighton","PA","WPAHS New Kensington Urgi Care Center","not_available","15068",40.5643021444826,-79.7702554081298
"15035","East Mc Keesport","PA","Shadyside Hospital Surgery Center","not_available","15232",40.37947425441067,-79.805392135351
"15037","Elizabeth","PA","Yoni Steam 412","4700 Walnut Street","15132",40.31785583496094,-79.83414459228516
"15037","Elizabeth","PA","Hospital","not_available","15037",40.274582,-79.82574
"15044","Gibsonia","PA","Allegheny General Hospital Breast Care Center Suite 450","320 E North Ave","15212",40.61896,-79.926802
"15044","Gibsonia","PA","541 SME NOTPMAH","not_available","15101",40.593641,-79.974383
"15044","Gibsonia","PA","Womancare Associates - Gibsonia","5375 William Flynn Hwy Ste 500","15044",40.61849742941635,-79.94703434731835
"15044","Gibsonia","PA","Zang Lawn Care","not_available","15044",40.62499533063458,-79.94673728942871
"15044","Gibsonia","PA","UPMC Centers for Rehab Services: Gibsonia","5600 William Flynn Highway Northtowne Square","15044",40.630056,-79.970331
"15044","Gibsonia","PA","MedExpress Urgent Care","4655 William Flynn Hwy., Suite 110","15101",40.5916921,-79.9492861
"15044","Gibsonia","PA","UPMC Centers for Rehab Services: Allison Park","2870 Talley Cavey Road Pilsung Plaza, Suite 100","15101",40.591036,-79.946931
"15057","Mc Donald","PA","Kindred Hospital Pittsburgh","7777 Steubenville Pike","15071",40.438608,-80.208782
"15057","Mc Donald","PA","Eka Hospital BSD 6th Floor, Room#6349","CBD LOT IX BSD CITY","15321",40.321844,-80.1902963
"15057","Mc Donald","PA","ohio valley hospital","not_available","15057",40.31576919555664,-80.20037078857422
"15057","Mc Donald","PA","american home patient","602 Parkway View Dr","15205",40.43483352661133,-80.13090515136719
"15063","Monongahela","PA","Monongahela Valley Hospital","1163 Country Club Rd","15063",40.18171834636523,-79.91125434454194
"15063","Monongahela","PA","Sweeney Melenyzer Reginal Cancer Center","1163 Country Club Road","not_available",40.181634,-79.910852
"15063","Monongahela","PA","Room 420","not_available","15063",40.18218959532153,-79.91161511398161
"15065","Natrona Heights","PA","Alle-Kiski Medical Center","1300 Carlisle St","15065",40.61842703082206,-79.73589746454182
"15065","Natrona Heights","PA","MedExpress Urgent Care","303 East Tenth Avenue","15084",40.605457295225314,-79.756238758564
"15065","Natrona Heights","PA","the 8th dimension of hell","not_available","15065",40.61837738295173,-79.73699438179929
"15065","Natrona Heights","PA","Womancare Associates - Orange Division","1800 Union Ave Ste B","15065",40.62255096435547,-79.72349548339844
"15065","Natrona Heights","PA","UPMC Urgent Care - Natrona Heights","1870 Broadview Blvd.","15065",40.62461853027344,-79.72286987304688
"15065","Natrona Heights","PA","UPMC Natrona Heights","1604 Burtner Rd","15065",40.63112928530367,-79.72745135450872
"15068","New Kensington","PA","AVH - Outpatient Care Center","701 4th Ave","15068",40.562618255615234,-79.76595306396484
"15068","New Kensington","PA","Urgent Care At AVH Outpatient Services - New Kensington","651 Fourth Avenue","15068",40.5616299,-79.766049
"15068","New Kensington","PA","New Ken Urgi Center","4th Ave","not_available",40.56183155432329,-79.76688277793372
"15068","New Kensington","PA","Womancare Associates - Lower Burrell","1600 Wildlife Lodge Rd","15068",40.579538,-79.712949
"15068","New Kensington","PA","Express Care At United Physicians","305 7th St","15068",40.562496185302734,-79.76656341552734
"15071","Oakdale","PA","UPMC Urgent Care - Robinson","6500 Steubenville Pike","15205",40.44914107722143,-80.15955243322881
"15071","Oakdale","PA","MedExpress Urgent Care","5944 Steubenville Pike","15136",40.44829412558387,-80.14289780529907
"15071","Oakdale","PA","Womancare Associates - Robinson","6200 Steubenville Pike Towerview, 1st Floor","15136",40.4460334777832,-80.15093994140625
"15071","Oakdale","PA","Dr Beams","North Fayette, PA","15071",40.44320583343506,-80.18014848232269
"15071","Oakdale","PA","UPMC Centers for Rehab Services: Robinson Township","5855 Steubenville Pike Suite 100","15136",40.450105,-80.139462
"15074","Rochester","PA","Zambelli Cataract & Laser Eye Institute","380 Adams St","15074",40.703406,-80.281564
"15085","Trafford","PA","Forbes Ambulatory Surgery Center","Haymaker Road","15146",40.40635656897903,-79.72348710629791
"15085","Trafford","PA","West Penn Radiology Dept.","not_available","15224",40.38370689897456,-79.75691196651943
"15086","Warrendale","PA","UPMC Passavant - Cranberry","1 Saint Francis Way","16066",40.682920962867605,-80.0984405691028
"15086","Warrendale","PA","FalconER Urgent Care","1241 Freedom Rd","16066",40.68336868286133,-80.11701202392578
"15086","Warrendale","PA","UPMC CancerCenter at UPMC Passavant North","3 Saint Francis Way Ste 210 Bldg 3","16066",40.68306350708008,-80.09807586669922
"15086","Warrendale","PA","Pittsburgh Skin | Dermatology & Mohs Surgery","144 Emeryville Dr #230","16066",40.67642499999999,-80.1018959
"15090","Wexford","PA","North Hills Health and Rehabilitation Center","194 Swinderman Rd","15090",40.638373,-80.060331
"15090","Wexford","PA","MedExpress","Wexford Plaza","15090",40.613277,-80.053784
"15090","Wexford","PA","MedExpress Urgent Care","10632 Perry Highway","15090",40.61343720712334,-80.05310549410751
"15090","Wexford","PA","Med Express Urgent Care Wexford Plaza","not_available","15090",40.61313650844704,-80.05387161032955
"15090","Wexford","PA","UPMC Department of Urology - Children's North","2599 Wexford Bayne Rd","15143",40.614723205566406,-80.10198974609375
"15090","Wexford","PA","AGH Psychiatric Associates","12311 Perry Hwy","15090",40.635625,-80.063965
"15090","Wexford","PA","UPMC Centers For Rehab Services: Wexford","1500 Village Run Rd","15090",40.633539,-80.05774699999999
"15090","Wexford","PA","Children's Dermatology Services","11279 Perry Hwy Ste 108","15090",40.622197,-80.05465600000001
"15090","Wexford","PA","UPMC Urgent Care - Wexford","11360 Perry Hwy","15090",40.623023471194074,-80.05382616242984
"15101","Allison Park","PA","UPMC Passavant - McCandless","9100 Babcock Blvd","15237",40.57322855048785,-80.01458671035904
"15101","Allison Park","PA","MedExpress Urgent Care","7219 McKnight Road","15237",40.538242045147406,-80.0133472681045
"15101","Allison Park","PA","AHN McCandless Neighborhood Hospital","8950 Duncan Ave","15237",40.56804392620792,-80.0254110638237
"15101","Allison Park","PA","Passavant Hospital Emergency Room","9104 Babcock Blvd","15101",40.5726206182904,-80.01240923914902
"15101","Allison Park","PA","Vincention Regency","not_available","15237",40.55880713178098,-80.02671196162115
"15101","Allison Park","PA","Cumberland Crossing at UPMC Passavant ","9350 Babcock Blvd","15237",40.575111389160156,-80.01561737060547
"15101","Allison Park","PA","Children's Hospital Neurology","not_available","15116",40.538343888431925,-79.96246873311068
"15101","Allison Park","PA","North Park Urgent Care","9401 McKnight Rd","15237",40.576873,-80.026821
"15101","Allison Park","PA","UPMC Centers for Rehab Services: McCandless","9365 McKnight Rd Ste 300","15237",40.57480277094586,-80.02494611909094
"15102","Bethel Park","PA","UPMC South Hills","1300 Oxford Dr","15102",40.34309201106608,-80.04852989741416
"15102","Bethel Park","PA","MedExpress Urgent Care","1535 Washington Road","15228",40.35643744891299,-80.04975020885468
"15102","Bethel Park","PA","UPMC CancerCenter - Bethel Park","2000 Oxford Dr Ste 500","15102",40.344038,-80.052547
"15102","Bethel Park","PA","Womancare Associates - Bethel Park (Suite 2B)","1300 Oxford Drive Upmc South Hills, Suite 2B","15102",40.34308624267578,-80.04850769042969
"15102","Bethel Park","PA","AGH Psychiatric Associates","1000 Higbee Dr","15102",40.337675,-80.02136290000001
"15102","Bethel Park","PA","UPMC Centers for Rehab Services: South Hills","1300 Oxford Drive UPMC South Hills, Suite 1F,","15102",40.34308624267578,-80.04850769042969
"15102","Bethel Park","PA","Red Hawt Hawspital","not_available","15129",40.306194,-80.012847
"15102","Bethel Park","PA","Brian V. Heil MD FACS Premier Plastic Surgery, PC","100 Siena Dr Ste 295","15241",40.34718,-80.057491
"15102","Bethel Park","PA","Today's Cosmetic Surgery and Laser Center","1720 Washington Road Suite #200/218","15241",40.3481439,-80.0538246
"15104","Braddock","PA","Allegheny Health Network Urgent Care Center - Braddock","501 Braddock Ave","15104",40.4043045,-79.8698043
"15104","Braddock","PA","Turtle Creek Valley Mental Health DAS Unit","not_available","15120",40.406686261024305,-79.8883424486875
"15104","Braddock","PA","Forbes Regional Hospital.  7th Floor","Haymaker","15146",40.39662430500651,-79.83931687272083
"15104","Braddock","PA","Braddock Hospital","400 Holland Ave","15104",40.40557861328125,-79.8703842163086
"15106","Carnegie","PA","MedExpress Urgent Care","1984 Greentree Road","15220",40.39462351870805,-80.06701827049255
"15106","Carnegie","PA","Concentra Urgent Care - Robinson","4390 Campbells Run Rd","15205",40.426214,-80.119059
"15106","Carnegie","PA","Family Hospice And Pallative Care","50 Moffett St","not_available",40.38323734155549,-80.0604703500827
"15106","Carnegie","PA","Urgent Care","not_available","15205",40.4267348133155,-80.11961761249268
"15106","Carnegie","PA","St Clair Hospital ER Room 39","not_available","15220",40.38993787630774,-80.07401205714321
"15106","Carnegie","PA","St. Clair Hospital ER rm 27","not_available","15106",40.40141677856445,-80.10523223876953
"15108","Coraopolis","PA","Heritage Valley Sewickley Hospital","720 Blackburn Rd","15143",40.542310136463016,-80.177884059328
"15108","Coraopolis","PA","UPMC Centers for Rehab Services: Moon Township","1600 Coraopolis Heights Rd","15108",40.50004659637989,-80.20739690068028
"15108","Coraopolis","PA","The Ole Breakroom","sterile processing area","15143",40.542722220676104,-80.17849646661895
"15108","Coraopolis","PA","UPMC CancerCenter, Sewickley Medical Oncology ","1600 Coraopolis Road","15108",40.505839,-80.147649
"15108","Coraopolis","PA","hospital","not_available","15202",40.50842917167301,-80.21389910701298
"15108","Coraopolis","PA","Beaver Valley Foot Clinic","937 Beaver Grade Rd","15108",40.5107408,-80.2127325
"15108","Coraopolis","PA","Heritage Valley Radiation Oncology - Coraopolis","1600 Coraopolis Heights Rd Ste C","15108",40.499759674072266,-80.20723724365234
"15108","Coraopolis","PA","West Hills Health and Rehabilitation Center","951 Brodhead Rd","15108",40.51872634887695,-80.2274169921875
"15108","Coraopolis","PA","MedExpress Urgent Care","8702 University Blvd.","15108",40.50609476124235,-80.22365144919377
"15108","Coraopolis","PA","Dr. James Fernau Plastic Surgery","1000 Cliff Mine Road Bldg 1, Suite 120","15108",40.4576859,-80.19462949999999
"15116","Glenshaw","PA","Basecamp Setu Gede","JL. Tambakan","15116",40.5253926,-79.9472502
"15120","Homestead","PA","Womancare Associates - Waterfront","207 W 7th Ave","15120",40.405675,-79.914407
"15120","Homestead","PA","Turtle Creek Valley Homestead House DAS unit","1800 West St","15120",40.40028762817383,-79.90557861328125
"15120","Homestead","PA","Children's Hospital Neurology","4401 Penn Ave","15224",40.40804315434612,-79.90859225751454
"15122","West Mifflin","PA","UPMC McKeesport","1500 5th Ave","15132",40.35144551267248,-79.85008252043605
"15122","West Mifflin","PA","Childrens Express Care","1907 Lebanon Church Rd","15122",40.348437,-79.95025799999999
"15122","West Mifflin","PA","Mckeesport Hospital Emergency Room Waiting Area","not_available","15132",40.351076,-79.849941
"15122","West Mifflin","PA","UPMC Centers for Rehab Services: McKeesport","625 Walnut St","15132",40.34582639121317,-79.86684652655151
"15122","West Mifflin","PA","UPMC CancerCenter - West Mifflin","1907 Lebanon Church Rd Ste 200","15122",40.348453521728516,-79.95024108886719
"15122","West Mifflin","PA","UPMC Department of Urology - UPMC West Mifflin","1907 Lebanon Church Road Upmc CancerCenter","15122",40.348453521728516,-79.95024108886719
"15131","Mckeesport","PA","UPMC Centers for Rehab Services: White Oak","2001 Lincoln Way Oak Park Mall","15131",40.33232778304988,-79.7833943062672
"15136","Mc Kees Rocks","PA","Ohio Valley General Hospital","25 Heckel Rd","15136",40.472164526919,-80.09105267888276
"15136","Mc Kees Rocks","PA","Allegheny General Hospital Suburban Campus","110 S Jackson Ave.","15202",40.49538562614759,-80.0603382365583
"15136","Mc Kees Rocks","PA","Suburban Post","601-649 West Ave","15202",40.49527823925018,-80.06025183333333
"15136","Mc Kees Rocks","PA","Lifecare Hospitals of Pittsburgh - North Campus","100 S Jackson Ave","15202",40.494864,-80.06051
"15136","Mc Kees Rocks","PA","Womancare Associates - Ohio Valley","27 Heckel Road Ohio Valley Medical Building, Suite 206","15136",40.47245788574219,-80.09439086914062
"15136","Mc Kees Rocks","PA","Ohio Valley General Hospital Emergency Room","Heckel Rd","15136",40.472333101575536,-80.09126961001198
"15136","Mc Kees Rocks","PA","medic 191","not_available","15136",40.472599029541016,-80.05724334716797
"15137","North Versailles","PA","Pitcairn Ambulance","299 2nd St","15140",40.40157,-79.78234300000001
"15137","North Versailles","PA","Scripps Mercy Hospital HIM Dept.","4077 5th Ave, North Versailles, PA 15137","15137",40.375892639160156,-79.81278991699219
"15137","North Versailles","PA","EMS Station 370 Pitcairn EMS","299 2nd St, Pitcairn, PA 15140","15140",40.4017230854245,-79.78241525475813
"15140","Pitcairn","PA","Honoris Hospital","Jl. Honoris Raya Kav.6","15112",40.4098201513911,-79.77426297780872
"15145","Turtle Creek","PA","MedExpress Urgent Care","3433 William Penn Hwy.","15235",40.429092530053,-79.81276899576187
"15146","Monroeville","PA","Forbes Hospital","2570 Haymaker Rd","15146",40.42876,-79.7481695
"15146","Monroeville","PA","Forbes Regional Hospital ER","2580 Haymaker Rd #304","15146",40.4280003,-79.7477177
"15146","Monroeville","PA","UPMC East","2775 Mosside Blvd","15146",40.436487365951876,-79.76023848309156
"15146","Monroeville","PA","AVETS","4224 Northern Pike","15146",40.433,-79.75736
"15146","Monroeville","PA","UPMC Urgent Care - Monroeville","4145 William Penn Hwy","15146",40.439295534121634,-79.76562838467605
"15146","Monroeville","PA","UPMC Centers for Rehab Services: Monroeville - Oxford Drive","600 Oxford Dr","15146",40.429928290048615,-79.78823906437692
"15146","Monroeville","PA","7N","not_available","15146",40.42845916748047,-79.74775695800781
"15146","Monroeville","PA","FRH Trauma and Critical Care","2566 Haymaker Rd Ste 304","15146",40.4280003,-79.7477177
"15146","Monroeville","PA","MedExpress Urgent Care","2644 Mosside Blvd.","15146",40.4318815,-79.7505524
"15146","Monroeville","PA","Womancare Associates - Seiders","4075 Monroeville Blvd Ofc Pa","15146",40.43589782714844,-79.76803588867188
"15146","Monroeville","PA","UPMC CancerCenter, Monroeville","400 Oxford Drive 1st Floor, Suite 102","15146",40.430599212646484,-79.78768920898438
"15146","Monroeville","PA","UPMC Department of Urology - Children's East","4055 Monroeville Blvd Bldg 1","15146",40.43695068359375,-79.76936340332031
"15147","Verona","PA","UPMC Centers for Rehab Services: Chapel Harbor - Fox Chapel","300 Chapel Harbor Drive, Park Place at Chapel Harbor Suite 200","15238",40.48553089925007,-79.88246170984227
"15147","Verona","PA","Seneca Place","5360 Saltsburg Rd","15147",40.479921898321,-79.83588498198763
"15147","Verona","PA","Seneca Hills Village ","5350 Saltsburg Rd","15147",40.479327000000005,-79.837148
"15147","Verona","PA","Tri State Orthopedics","300 Chapel Harbor Dr","15238",40.48556900024414,-79.8824234008789
"15147","Verona","PA","Womancare Associates - Fox Chapel","1384 Old Freeport Rd Ste 1B","15238",40.48888397216797,-79.87149047851562
"15201","Pittsburgh","PA","Western Pennsylvania Hospital","4800 Friendship Ave","15224",40.461488085375564,-79.94635586871719
"15201","Pittsburgh","PA","UPMC Urgent Care - Shadyside","5231 Centre Ave","15232",40.45583577331547,-79.94051415707112
"15201","Pittsburgh","PA","4800 West Penn hospital","liberty ave","15224",40.46248001813369,-79.94831290975317
"15201","Pittsburgh","PA","MedExpress Urgent Care","5201 Baum Blvd.","15224",40.45618674625187,-79.94190647268624
"15201","Pittsburgh","PA","Sibling Center - Children's Hospital Of Pittsburgh","not_available","15201",40.4663063936899,-79.95274425835049
"15201","Pittsburgh","PA","West Penn Hospital Center For Sleep Disorder","not_available","15219",40.45749711248944,-79.9428379084423
"15202","Pittsburgh","PA","Northwest Standby Point","not_available","15214",40.5044772,-80.0368353
"15203","Pittsburgh","PA","UPMC Center for Sports Medicine","3200 S Water St","15203",40.4250223624445,-79.95974125980736
"15203","Pittsburgh","PA","UPMC Mercy South Side Outpatient Center","2000 Mary St","15203",40.4259270249704,-79.97771808192888
"15203","Pittsburgh","PA","Western Psychiatric Institute And Clinic","1011 Bingham St","15213",40.429723,-79.988186
"15203","Pittsburgh","PA","southside outpatient care","2000 Mary St, Pittsburgh, PA 15203","15203",40.42565155029297,-79.97720336914062
"15205","Pittsburgh","PA","Ziering Medical","200 Fleet St Ste 701","15220",40.42091751098633,-80.049560546875
"15205","Pittsburgh","PA","SVA GREENTREE BASE","1002 Greentree Rd","15220",40.41733932495117,-80.04560089111328
"15205","Pittsburgh","PA","UPMC Mercy Greentree","969 Greentree Rd","15220",40.42026834070402,-80.0449867142244
"15206","Pittsburgh","PA","Southwestern Veteran's Center","7060 Highland Dr","15206",40.4776717822887,-79.89757812886539
"15206","Pittsburgh","PA","UPMC St. Margaret","815 Freeport Rd","15215",40.48977368735862,-79.89576995372772
"15206","Pittsburgh","PA","MedExpress Urgent Care","50 Freeport Road, Suite 500","15215",40.49129031996903,-79.90784794092178
"15206","Pittsburgh","PA","Lighthouse Pointe Village at Chapel Harbor","500 Chapel Harbor Dr","15238",40.485963670495174,-79.88689383990604
"15206","Pittsburgh","PA","UPMC CancerCenter","200 Delafield Rd Ste 3050","15215",40.48988,-79.894775
"15206","Pittsburgh","PA","St. Margarets waiting room","not_available","15215",40.4874123646051,-79.89363496586596
"15206","Pittsburgh","PA","The Angelus","200 Amber St","15206",40.461776,-79.930703
"15206","Pittsburgh","PA","West Penn L+D","4700 Friendship ave","15232",40.44988489210588,-79.92738912624758
"15206","Pittsburgh","PA","Bariatric Surgery at UPMC St. Margaret","100 Delafield Rd. Medical Arts Building, Suite 210","15215",40.490352630615234,-79.89521026611328
"15206","Pittsburgh","PA","UPMC St. Margaret Bloomfield-Garfield Family Health Center","5475 Penn Ave","15206",40.464691162109375,-79.93305969238281
"15206","Pittsburgh","PA","Express Care At AHN Outpatient Center - Waterworks","970 Freeport Rd","15238",40.488566,-79.8909242
"15206","Pittsburgh","PA","ManorCare Health Services-Pittsburgh","550 S Negley Ave","15232",40.455219,-79.93324799999999
"15206","Pittsburgh","PA","Lifecare Hospital Of Pittsburgh","225 Penn Ave","15221",40.44621561984093,-79.89164898550285
"15207","Pittsburgh","PA","Heritage Place","5701 Phillips Ave","15217",40.43185,-79.924947
"15207","Pittsburgh","PA","UPMC: The Center for Assistive Technology","3600 Forbes Ave","15213",40.44111314967085,-79.95784143540374
"15207","Pittsburgh","PA","Old Childrens Ems Room","3619 Fifth Ave","15213",40.44098084830198,-79.9575267196086
"15207","Pittsburgh","PA","Forbes Pharmacy","3501 Forbes Ave. Oxford Building, Room 756","15213",40.440101623535156,-79.95947265625
"15207","Pittsburgh","PA","Plastic and Reconstructive Surgery","3601 Fifth Avenue Falk Medical Building, Sixth Floor, Suite 6B","15213",40.435404154531426,-79.95790699505321
"15207","Pittsburgh","PA","va univ drive lab","University Dr","15213",40.43119,-79.945435
"15207","Pittsburgh","PA","Montefiore Medical Center room #882","Buffalo St, Pittsburgh, PA 15213","15213",40.439937947216464,-79.95969893974546
"15207","Pittsburgh","PA","UPMC IT Department","3600 Meyran Ave","15213",40.437234124854555,-79.95885760443936
"15208","Pittsburgh","PA","Shadyside Hospital Driveway","not_available","15206",40.444531356463436,-79.88906964193318
"15208","Pittsburgh","PA","Village at Pennwood","909 West St","15221",40.44501876831055,-79.8906478881836
"15208","Pittsburgh","PA","BETH REEFER, DNP","6425 Living Pl Ste 2085","15206",40.4568841,-79.91714900000001
"15208","Pittsburgh","PA","Primary Care Health Services, Inc.","7227 Hamilton Ave Fl 2","15208",40.45419693926686,-79.8956573009491
"15209","Pittsburgh","PA","The Burn Ward","not_available","15223",40.5038958041188,-79.95211023919218
"15209","Pittsburgh","PA","dr roger swewart office","not_available","15212",40.47021484375,-79.98190307617188
"15209","Pittsburgh","PA","CHP pharmacy","4401 Penn Ave, Pittsburgh, PA 15201","15201",40.487496932927435,-79.95158026211371
"15209","Pittsburgh","PA","Absolute Ambulance","4014 Willow St","15201",40.47085404396057,-79.96493875980377
"15211","Pittsburgh","PA","Concentra Urgent Care - West End","1600 W Carson St","15219",40.442089,-80.021423
"15211","Pittsburgh","PA","UPMC Centers for Rehab Services: Pittsburgh (Downtown)","339 Sixth Ave. Heinz 57 Center, Fifth Floor","15222",40.44178956478562,-79.99799137225719
"15211","Pittsburgh","PA","Pittsburgh EMS Rescue 2/ Medic 14","334 Boulevard of the Allies","15222",40.43782345887623,-80.00079616250973
"15211","Pittsburgh","PA","Pittsburgh Heart, LLC","213 Smithfield St","15222",40.4380959,-80.00013290000001
"15212","Pittsburgh","PA","Allegheny General Hospital Pick-up","668 W General Robinson St","15212",40.447340226405665,-80.00930697446304
"15212","Pittsburgh","PA","North Shore Digestive Health","Federal St, Pittsburgh, PA","15212",40.45696999302647,-80.00743960738976
"15212","Pittsburgh","PA","Upmc Southside Hospital","Mary street","not_available",40.45514276742204,-79.98049482526824
"15212","Pittsburgh","PA","AGH Nuclear Medicine","North Ave, Pittsburgh, PA 15221","15221",40.45287024255307,-80.00463848153558
"15213","Pittsburgh","PA","UPMC Presbyterian","200 Lothrop St","15213",40.44225279249364,-79.96056311745035
"15213","Pittsburgh","PA","UPMC Montefiore","3459 5th Ave","15213",40.440809627375806,-79.96172029662613
"15213","Pittsburgh","PA","Magee-Women's Hospital of UPMC","300 Halket St","15213",40.43715943325243,-79.96082477308701
"15213","Pittsburgh","PA","Western Psychiatric Institute and Clinic of UPMC","3811 Ohara St","15213",40.443746126524594,-79.96005817043762
"15213","Pittsburgh","PA","UPMC Shadyside","5230 Centre Ave","15232",40.454915342750986,-79.93942268911773
"15213","Pittsburgh","PA","Hillman Cancer Center","5115 Centre Ave","15232",40.455218369747946,-79.94264036596151
"15213","Pittsburgh","PA","VA Pittsburgh Healthcare System","240 University Dr C","15240",40.44662484647874,-79.96150177381442
"15213","Pittsburgh","PA","UPMC Digestive Disorders Center","200 Lothrop St., UPMC Presbyterian, Third Floor","15213",40.442817622379415,-79.96013053068484
"15213","Pittsburgh","PA","UPMC Cafeteria","Presbyterian Hospital","15213",40.44258447953009,-79.96098824305362
"15213","Pittsburgh","PA","UPMC Orthopedic Clinic","3471 5th Ave","15213",40.44046401977539,-79.96066284179688
"15213","Pittsburgh","PA","UPMC Medic Command / STATMedEvac","200 Lothrop St Ste F-1301","15213",40.44248107240129,-79.9604901345776
"15213","Pittsburgh","PA","Women's Health Clinic - VAPHS","First Floor - University Drive C","15240",40.44671840143755,-79.96192789279053
"15215","Pittsburgh","PA","VAPHS - H.J. Heinz - Aspinwall - Building 71","1010 Delafield Rd","15215",40.49509407969717,-79.88893841953656
"15215","Pittsburgh","PA","VAPHS- Aspinwall- H.J. Heinz Campus","5103 Delafield Rd","15215",40.49465567836713,-79.88882359977887
"15215","Pittsburgh","PA","Va Construction","Patriot Way","15238",40.49567869,-79.88860309123993
"15216","Pittsburgh","PA","panic mode","not_available","15226",40.40317916870117,-80.01673126220703
"15216","Pittsburgh","PA","Womancare Associates - Greentree","875 Greentree Road Parkway Center, Building 3, Suite 105","15220",40.42491883002477,-80.03879185212338
"15217","Pittsburgh","PA","UPMC Centers For Rehab Services: Squirrel Hill","2345 Murray Ave Ste 300","15217",40.43062210083008,-79.92310333251953
"15219","Pittsburgh","PA","UPMC Mercy","1400 Locust St","15219",40.43679085153983,-79.98575446411074
"15219","Pittsburgh","PA","UPMC Mercy - Pain Clinic","Locust St","not_available",40.43638229370117,-79.98636627197266
"15219","Pittsburgh","PA","UPMC Mercy Cardiovascular Center","1515 Locust St Fl 5","15219",40.437095642089844,-79.98452758789062
"15220","Pittsburgh","PA","Maren LLC","not_available","15210",40.45228657389929,-80.0288987159729
"15221","Pittsburgh","PA","UPMC Centers for Rehab Services: Forest Hills","2020 Ardmore Blvd. Parkway Center East, Suite 130","15221",40.421260833740234,-79.85417938232422
"15221","Pittsburgh","PA","UPMC McKeesport Outpatient Center","2020 Ardmore Blvd.  Three Parkway Center East,  Suite 120","15221",40.421260833740234,-79.85417938232422
"15221","Pittsburgh","PA","Womancare Associates - Forest Hills","2020 Ardmore Blvd. 3 Parkway Center East, Suite 300","15221",40.421260833740234,-79.85417938232422
"15223","Pittsburgh","PA","RS.Premier Bintaro","Bintaro Jaya Sek.7","15223",40.5029699,-79.9500477
"15223","Pittsburgh","PA","AFC Urgent Care Pittsburgh, PA","874 Butler St","15223",40.510416,-79.945923
"15224","Pittsburgh","PA","Shadyside Family Waiting Room","5207 Centre Ave","15232",40.45550537109375,-79.94122314453125
"15227","Pittsburgh","PA","UPMC Mercy Brentwood","4190 Brownsville Rd","15227",40.3648298923334,-79.98331857532497
"15227","Pittsburgh","PA","Brentwood Neighborhood Hospital","3290 Saw Mill Run Blvd","15227",40.37538146972656,-79.98539733886719
"15227","Pittsburgh","PA","MedExpress Urgent Care","3516 Saw Mill Run Blvd.","15227",40.3726726,-79.9823687
"15228","Pittsburgh","PA","St. Clair Hospital","1000 Bower Hill Rd","15243",40.376499,-80.067421
"15228","Pittsburgh","PA","St Clair Hospital ER","not_available","15243",40.37852281433234,-80.06606137757547
"15228","Pittsburgh","PA","UPMC Centers for Rehab Services: Castle Shannon","3754 Library Road","15234",40.364616,-80.022458
"15228","Pittsburgh","PA","UPMC/St. Clair Hospital Cancer Center","1020 Bower Hill Rd","15243",40.37657165527344,-80.06757354736328
"15228","Pittsburgh","PA","St Clair Hospital Lab","Bower Hill Rd","15243",40.377912184720685,-80.06696807277243
"15228","Pittsburgh","PA","stellas room","Bridgeville, PA","15017",40.37847248882691,-80.06617688449506
"15228","Pittsburgh","PA","Room 5421","St Clair Hospital","not_available",40.3782337060322,-80.06617142799904
"15229","Pittsburgh","PA","Cranberry Passavant","not_available","16066",40.52317790243541,-80.02164041699129
"15229","Pittsburgh","PA","EMS 211","5325 Perry Highway","15229",40.50852658648534,-80.02898037722966
"15229","Pittsburgh","PA","Medicine Cabinet","not_available","15229",40.51510883182409,-80.02411890533861
"15235","Pittsburgh","PA","Womancare Associates - Penn Hills","1000 Integrity Drive Integrity Suites, Suite 202","15235",40.45849609375,-79.82475280761719
"15237","Pittsburgh","PA","Womancare Associates - UPMC Passavant","9104 Babcock Boulevard North Hills Passavant Hospital, Suite 6107","15237",40.556757,-80.042252
"15260","Pittsburgh","PA","UPMC Cardio Catheterization Lab","Lothrop Street","not_available",40.4424111,-79.9563248
"15260","Pittsburgh","PA","UPMC biomedical science tower south","221 Lothrop St.","15213",40.44207578294344,-79.95637725707458
"15301","Washington","PA","Presbyterian SeniorCare","not_available","15301",40.15970158806004,-80.23557431126252
"15301","Washington","PA","The Washington Health System","155 Wilson Ave","15301",40.18382423965134,-80.24637222290039
"15301","Washington","PA","MedExpress Urgent Care","3840 Washington Road, Suite 300","15317",40.273669,-80.12747900000001
"15301","Washington","PA","MedExpress Urgent Care","460 Washington Road, Suite 7","15301",40.1866764,-80.2165825
"15301","Washington","PA","Canonsburg General Hospital","100 Medical Blvd","15317",40.24599316544609,-80.19063002885343
"15301","Washington","PA","Tricounty Urology Associates","125 N Franklin Dr Ste 3","15301",40.1607878919983,-80.27276515960693
"15301","Washington","PA","Paul Tripoli PC","157 S Main St","15301",40.16836166381836,-80.24520874023438
"15301","Washington","PA","MedExpress Urgent Care - Peters Township","3840 Washington Rd","15317",40.27357482910156,-80.12743377685547
"15301","Washington","PA","ManorCare Health Services-Peters Township","113 W McMurray Rd","15317",40.272471,-80.129891
"15301","Washington","PA","UPMC CancerCenter, Washington ","470 Johnson Road  Suite 10","15301",40.220755,-80.20489599999999
"15301","Washington","PA","Strabane Woods of Washington ","319 Wellness Way","15301",40.19493103027344,-80.21305847167969
"15301","Washington","PA","UPMC Centers for Rehab Services: North Strabane","470 Johnson Road Meadowpointe Suite 110","15301",40.22069549560547,-80.20487976074219
"15301","Washington","PA","Strabane Trails Village ","317 Wellness Way","15301",40.195370000000004,-80.212664
"15310","Aleppo","PA","OMNI International Hospital","Alam Sutera","15310",39.7854655,-80.4882672
"15314","Bentleyville","PA","Bentworth Ambulance","40 Diamond Way","15314",40.13980484008789,-80.00360107421875
"15317","Canonsburg","PA","UPMC Urgent Care - McMurray","3515 Washington Rd Ste 550","15317",40.284812927246094,-80.11942291259766
"15317","Canonsburg","PA","UPMC Centers for Rehab Services: Peters Township","3805 Washington Rd","15317",40.274959564208984,-80.12562561035156
"15317","Canonsburg","PA","Urgent Care PT","1-95 Center Church Rd","15317",40.28476808333333,-80.11958625
"15320","Carmichaels","PA","Carmichaels General","not_available","15320",39.901080037003695,-79.9657792583877
"15320","Carmichaels","PA","EMS Southwest Carmichaels","7 Paisley Industrial Park Drive","15320",39.863773,-79.956849
"15370","Waynesburg","PA","Southwest Regional Medical Center","350 Bonar Ave","15370",39.901284818364864,-80.17346444586592
"15370","Waynesburg","PA","MedExpress Urgent Care","451 Murtha Dr","15370",39.8917846,-80.1324691
"15401","Uniontown","PA","Uniontown Hospital","500 W Berkeley St","15401",39.90152240072739,-79.7392383916259
"15401","Uniontown","PA","MedExpress Urgent Care","289 McClellandtown Road","15401",39.901849,-79.7512637
"15401","Uniontown","PA","uniontown hospital first birthing","not_available","15401",39.91503143310547,-79.72343444824219
"15401","Uniontown","PA","Cherry Tree Urgent Care","Highland Park Dr, Uniontown, PA 15401","15401",39.900173603441445,-79.75654508945588
"15401","Uniontown","PA","Uniontown Hospital ER","McClellandtown Road","15401",39.90177356251497,-79.73900596407812
"15401","Uniontown","PA","UPMC CancerCenter, Uniontown","100 Woodlawn Ave Ste 300","15401",39.900927,-79.737627
"15401","Uniontown","PA","Robert E. Eberly Pavilion ","51 Brewer Dr","15401",39.902950286865234,-79.75624084472656
"15401","Uniontown","PA","Route 40 EMS Breakfast Club","not_available","15480",39.959341969345125,-79.81111100590827
"15401","Uniontown","PA","UPMC Hillman Cancer Center","103 Transit Dr","15401",39.911170959472656,-79.75823974609375
"15401","Uniontown","PA","Uniontown Hospital Outpatient","2-112 Poplar Ln","15401",39.912414341689214,-79.75522013789595
"15401","Uniontown","PA","Fayette EMS New Rt 40 Standby","not_available","15422",39.97483148054516,-79.82505912366555
"15425","Connellsville","PA","Fayette EMS Bullskin Station","not_available","15425",40.090927,-79.525538
"15425","Connellsville","PA","Highlands Hospital","401 E Murphy Ave","15425",40.02296,-79.58613
"15425","Connellsville","PA","Ellis John E Optometrist","619 East Crawford Avenue","15425",40.02732,-79.580498
"15425","Connellsville","PA","First Aid Booth @ Fayette County Fair Grounds","not_available","15431",39.967869,-79.641715
"15425","Connellsville","PA","UPMC Liver Cancer Center","Montefiore Hospital, 7S","15213",40.02101623,-79.57620053
"15425","Connellsville","PA","Unm 1209 Clinic","1209 University","not_available",39.99293899536133,-79.62125396728516
"15425","Connellsville","PA","MedExpress Urgent Care","1440 Morrell Avenue","15425",40.00223838545007,-79.60611015558243
"15428","Dawson","PA","Fayette EMS  Perryopolis Station","not_available","15473",40.08697240797216,-79.74903199119619
"15437","Farmington","PA","Fayette EMS","119 Elliotsville Rd","15437",39.806312561035156,-79.56761169433594
"15437","Farmington","PA","Cardiac Monitoring Service","1300 Quail St Ste 209","92660",39.8444911,-79.6190594
"15473","Perryopolis","PA","Hamot ER","State street","not_available",40.0764182,-79.7718099
"15473","Perryopolis","PA","Fayette EMS Flatwood Stand By","not_available","15486",40.02944491119695,-79.72700927315041
"15501","Somerset","PA","MedExpress Urgent Care","1490 North Center Avenue","15501",40.0326464,-79.0748328
"15501","Somerset","PA","Somerset Hospital","not_available","15501",40.00731115620726,-79.07753977775968
"15501","Somerset","PA","Ski Patrol","Ski Patrol Rd.","not_available",40.02079509002203,-79.29453605424465
"15501","Somerset","PA","North Face Ski Patrol Hut","North Face Slope","15622",40.02340800226773,-79.30706262588501
"15501","Somerset","PA","Gunner Ski Patrol Hut","Gunner Slope","15622",40.02402991454595,-79.30997828008155
"15501","Somerset","PA","Somerset Medical Services","4309 Glades Pike Ste 150","15501",40.0093879699707,-79.10318756103516
"15501","Somerset","PA","MedSTAR","Sagamore St, Somerset, PA 15501","15501",40.03020889832061,-79.08181359389329
"15522","Bedford","PA","UPMC Bedford Memorial","10455 Lincoln Hwy","15537",40.02528151315631,-78.43293967893472
"15522","Bedford","PA","TT's","not_available","15522",40.02110778846381,-78.4936937267512
"15552","Meyersdale","PA","Conemaugh Meyersdale Medical Center","200 Hospital Dr","15552",39.808970744869285,-79.02512204716913
"15601","Greensburg","PA","Excela Health Westmoreland Hospital","532 W Pittsburgh St","15601",40.30111312866211,-79.55530548095703
"15601","Greensburg","PA","AHN Hempfield Neighborhood Hospital","6321 State Route 30","15601",40.310769,-79.600347
"15601","Greensburg","PA","Westmoreland ED","W. Pittsburgh St","15601",40.30072367626593,-79.55600612806562
"15601","Greensburg","PA","UPMC Centers for Rehab Services: Greensburg - West Newton St.","507 W Newton St Fl 2","15601",40.29983798270342,-79.55355003433966
"15601","Greensburg","PA","Arnold Palmer Medical Oncology - Mountain View","200 Village Dr","15601",40.2927118803159,-79.46094803723479
"15601","Greensburg","PA","Laurel Surgical Center","344-410 Donohoe Rd","15601",40.31316579651769,-79.48929670946237
"15601","Greensburg","PA","CRS Greensburg - Route 30","5142 State Route 30","15601",40.3055819213942,-79.5089450287926
"15601","Greensburg","PA","UPMC Centers for Rehab Services: Murrysville","4750 Old William Penn Hwy. Old William Penn Professional Building","15668",40.425209045410156,-79.6658706665039
"15601","Greensburg","PA","Weatherwood Manor","896 Weatherwood Ln","15601",40.28956985473633,-79.5340805053711
"15601","Greensburg","PA","sick","not_available","15672",40.21665473688115,-79.59817033310235
"15601","Greensburg","PA","Westmoreland Behavioral Health","Spring street","15601",40.303109191567785,-79.54754292775661
"15601","Greensburg","PA","AHN Hempfield Neighborhood Hospital","6321 US-30","15601",40.3105087,-79.6003956
"15601","Greensburg","PA","Med Express","5126 State Route 30","15601",40.3007926940918,-79.49665832519531
"15601","Greensburg","PA","Jeanette Hospital","not_available","15644",40.32031124915126,-79.60628393849602
"15601","Greensburg","PA","MedExpress Urgent Care","6510 Route 30","15644",40.31047428778135,-79.61812234954323
"15601","Greensburg","PA","Westmoreland ER Triage","not_available","15601",40.30095421938796,-79.55595642744107
"15613","Apollo","PA","ACMH Lab","not_available","15613",40.603515625,-79.4756851196289
"15626","Delmont","PA","Womancare Associates - Delmont","6530 State Route 22 Ste 1110","15626",40.401031494140625,-79.58451080322266
"15627","Derry","PA","Excela Health Latrobe Hospital","121 W 2nd Ave","15650",40.3210706,-79.39352055
"15627","Derry","PA","ct scan at latrobe hospital","not_available","15650",40.32063293457031,-79.39473724365234
"15627","Derry","PA","UPMC Centers for Rehab Services: Latrobe","406 State Route 217 Suite A","15650",40.31022644042969,-79.32888793945312
"15627","Derry","PA","Mutual Aid - Derry Station","not_available","15627",40.34403752675432,-79.29556564368735
"15632","Export","PA","MedExpress Urgent Care","4620 William Penn Highway","15668",40.425727688086646,-79.66977506875992
"15634","Grapeville","PA","Hospital Formally Known As Jeannette","600 Jefferson Ave","15644",40.319618225097656,-79.61105346679688
"15642","Irwin","PA","MedExpress Urgent Care","12116 State Route 30","15642",40.33178995532704,-79.7417000846558
"15642","Irwin","PA","doTERRa with the Steel City Oilers","140 Main St","15642",40.3339814,-79.7104645
"15642","Irwin","PA","UPMC Urgent Care - North Huntingdon","8945 Route 30","15642",40.32113691614564,-79.69005522473948
"15642","Irwin","PA","Arnold Palmer Medical Oncology","8775 Norwin Ave","15642",40.31675338745117,-79.69477081298828
"15642","Irwin","PA","Forbes Regional Hospital Learning Center","Haymaker Road","15642",40.33191753844196,-79.74993556785043
"15642","Irwin","PA","OneStar","8735 Delaware Ave","15642",40.31353759765625,-79.6901626586914
"15642","Irwin","PA","UPMC Centers for Rehab Services: Norwin","12120 Route 30 Norwin Towne Square","15642",40.330188,-79.730701
"15644","Jeannette","PA","Mutual Aid Ambulance","561 W Otterman St","15601",40.30342531274774,-79.55602833967342
"15650","Latrobe","PA","MedExpress Urgent Care","3876 Route 30","15650",40.28639869221871,-79.38273847103119
"15666","Mount Pleasant","PA","Frick Hospital","508 S Church St","15666",40.14552123205685,-79.54887358298791
"15666","Mount Pleasant","PA","MedExpress Urgent Care","6396 Route 819 South","15666",40.126565309862514,-79.54864516854286
"15666","Mount Pleasant","PA","shaker urgent care","not_available","15666",40.12633630920972,-79.55561617053714
"15666","Mount Pleasant","PA","Lifeline Center For Sleep Disorders - Frick","508 S Church St, Mt Pleasant, PA 15666","15666",40.145538330078125,-79.54960632324219
"15666","Mount Pleasant","PA","Sildenafil Citrate 100mg Online","228 Park Ave S  New York, NY 10003","94119",40.205310264399785,-79.49804931879044
"15666","Mount Pleasant","PA","Arnold Palmer Medical Oncology - Mt. Pleasant","220 Bessemer Road  Suite 102","15666",40.125238,-79.554684
"15670","New Alexandria","PA","UPMC Centers for Rehab Services: Delmont","6530 Route 22 Salem Place, Suite 100","15626",40.396016,-79.431678
"15701","Indiana","PA","Indiana Regional Medical Center (IRMC)","835 Hospital Rd","15701",40.60763333331904,-79.15580936315942
"15701","Indiana","PA","Station 10","805 Hospital Rd","15701",40.610740661621094,-79.15862274169922
"15701","Indiana","PA","Scenery Hill Manor","not_available","15701",40.62970793691262,-79.21568085480942
"15701","Indiana","PA","Overlook Building","878 Hospital Rd","15701",40.606538,-79.158932
"15701","Indiana","PA","MedExpress Urgent Care","2128 Oakland Avenue","15701",40.609387350764024,-79.17930632829666
"15701","Indiana","PA","UPMC CancerCenter, Indiana","850 Hospital Rd","15701",40.60901641845703,-79.15933227539062
"15710","Alverda","PA","Room 310 Ciputra Hospital","Jl. Citra Raya Boulevard Blok V000/08 Sektor 3.4 Citra Raya","15710",40.63314039999999,-78.8630352
"15717","Blairsville","PA","TSH","not_available","15717",40.44600126436077,-79.22466433324121
"15747","Home","PA","Citizens Station 30 Plumville","not_available","15747",40.79445939858705,-79.16602220350423
"15767","Punxsutawney","PA","Punxsutawney Area Hospital","81 Hillcrest Dr","15767",40.961282,-78.999735
"15801","Du Bois","PA","DuBois Regional Medical Center","161-191 Hospital Ave","15801",41.114754374898766,-78.77544954388829
"15801","Du Bois","PA","Guardian","not_available","15824",41.1964084155029,-78.76995469703401
"15801","Du Bois","PA","DRMC-E","Maple Ave.","15801",41.11665590547386,-78.74933609050588
"15801","Du Bois","PA","Breast Care Services @ DRMC","not_available","15801",41.11468168716007,-78.77713722499179
"15801","Du Bois","PA","QCare Urgent Care","621 S Main St","15801",41.113766999999996,-78.77311800000001
"15801","Du Bois","PA","MedExpress Urgent Care","655 E Dubois Avenue","15801",41.12518529747685,-78.74314705838272
"15801","Du Bois","PA","Penn Highlands ER","100 Hospital Ave","15801",41.11471176147461,-78.77542877197266
"15801","Du Bois","PA","DuBois EMS","103 W Washington Ave","15801",41.11882,-78.764535
"15857","Saint Marys","PA","Penn Highlands Elk Surgery Center","not_available","15857",41.431339,-78.518164
"15857","Saint Marys","PA","Elk Regional Therapy","757 Johnsonburg Rd","15857",41.424983978271484,-78.57894134521484
"15901","Johnstown","PA","UPMC CancerCenter - Johnstown","337 Somerset St","15901",40.32177377223916,-78.92158400734645
"15901","Johnstown","PA","Aubrey John Dr","722 Franklin St","15901",40.317423,-78.916061
"15901","Johnstown","PA","Select Specialty Hospital - Johnstown","320 Main St","15901",40.326297760009766,-78.92090606689453
"15901","Johnstown","PA","tcu","not_available","15901",40.32568,-78.92135
"15901","Johnstown","PA","Conemaugh Medical Park","1 Tech Park Dr","15901",40.3226188,-78.9199744
"15902","Johnstown","PA","Conemaugh Memorial Medical Center","1086 Franklin St","15905",40.30524211372494,-78.91887152334675
"15902","Johnstown","PA","Ambulatory Services","1086 Franklin St Fl 6","15905",40.305079985822424,-78.91900343850709
"15904","Johnstown","PA","James E Van Dandt VA clinic","Scalp Ave & U.S. 219","15904",40.273011685515655,-78.85653066241598
"15904","Johnstown","PA","MedWELL Urgent Care Center","1450 Scalp Ave","15904",40.27074861269879,-78.85864184936509
"15904","Johnstown","PA","UPMC CancerCenter - Windber","700 5th St","15963",40.24360656738281,-78.83699798583984
"15904","Johnstown","PA","MedExpress Urgent Care","1221 Scalp Avenue","15904",40.278546,-78.860311
"15904","Johnstown","PA","Conemaugh Twp. EMS","1075 Tire Hill Road","15905",40.2573,-78.913078
"15904","Johnstown","PA","Womens center Of Johnstown","not_available","15905",40.30403459338639,-78.91971620284579
"15904","Johnstown","PA","Windber Medical Center","600 4th St","15963",40.24289499871081,-78.83740444956467
"15931","Ebensburg","PA","Cambria Care Center","429 Manor Dr","15931",40.48866555713447,-78.70039888514188
"15931","Ebensburg","PA","Med Well Ebensburg","not_available","15931",40.47429423517464,-78.74736894128237
"15931","Ebensburg","PA","Conemaugh Ebensburg","861 Hills Plaza","15931",40.46954650240855,-78.76002212572979
"15931","Ebensburg","PA","Icare Urgent Care","167 Zeman Dr","15931",40.46624,-78.75936
"15963","Windber","PA","windber hospital","not_available","15963",40.230056942001525,-78.82465709850553
"16001","Butler","PA","BMH Pre-op","911 Brady St","16001",40.867229,-79.880541
"16001","Butler","PA","MedExpress Urgent Care","256 New Castle Road","16001",40.87231734086977,-79.93664748966694
"16001","Butler","PA","Urgent / Behaviorial Health / Care","1 Hospital Way","16001",40.866905212402344,-79.88176727294922
"16001","Butler","PA","Zagger Family Practice, P.C.","1022 N Main Street Ext","16001",40.877838134765625,-79.89768981933594
"16001","Butler","PA","Butler Hospital","not_available","16001",40.86744040896183,-79.89505098822113
"16001","Butler","PA","BHS Faster Care","250 Butler Cmns","16001",40.875633239746094,-79.94304656982422
"16001","Butler","PA","VA Butler Healthcare","325 New Castle Rd","16001",40.87323240915964,-79.94359258421785
"16001","Butler","PA","Womancare Associates - Butler","200 Pullman Sq","16001",40.85777282714844,-79.90843963623047
"16002","Butler","PA","Schwalm Hall","134 Marwood Rd","16023",40.772979736328125,-79.78642272949219
"16002","Butler","PA","Rsb alifah","Btp","not_available",40.776943,-79.949722
"16002","Butler","PA","BHS faster care","not_available","16056",40.74728716463623,-79.8076085835172
"16002","Butler","PA","Blankenbheuler Hall","not_available","16023",40.77274378589617,-79.78510769443172
"16041","Karns City","PA","Audiology Hearing Aid Services by Kellie","128 Sycamore Rd","16041",41.02274703979492,-79.69509887695312
"16046","Mars","PA","MedExpress Urgent Care","6998 Crider Road, Suite 100","16046",40.69655472254325,-80.04089891910553
"16046","Mars","PA","UPMC Centers for Rehab Services: Cranberry Township","8050 Rowan Road  Rowan Towars, Suite 101","16066",40.703800841832596,-80.09616603126894
"16046","Mars","PA","UPMC Passavant Cranberry Surgery Center","1Saint Francis Way","16066",40.69997410827817,-80.14120377177038
"16046","Mars","PA","Med Express","500 crider road","16066",40.70389155727611,-80.09565875204906
"16055","Sarver","PA","UPMC Centers for Rehab Services: Sarver","252 Buffalo Plaza, Route 356","16055",40.70486831665039,-79.7238998413086
"16057","Slippery Rock","PA","TC9451 Broke Down","not_available","16057",41.02093522736359,-80.11515139726977
"16101","New Castle","PA","Jameson North Hospital","1211 Wilmington Ave","16105",41.01343957887439,-80.35323230397451
"16101","New Castle","PA","UPMC/Jameson Cancer Center ","2602 Wilmington Road  Suite 104","16105",41.032847,-80.354138
"16101","New Castle","PA","MedExpress Urgent Care","2411 Wilmington Road","16105",41.02659813263018,-80.35439014434809
"16101","New Castle","PA","Jameson Hospital, Room 253","not_available","16101",41.013613,-80.352864
"16101","New Castle","PA","Lawrence County Family Medicine","605 Mount Jackson Rd","16102",40.96984,-80.40858
"16101","New Castle","PA","Lawrence County Pediatrics","183 Enclave Dr","16105",41.06298828125,-80.35704040527344
"16101","New Castle","PA","Steward Specialty Care Neshannock","143 Enclave Dr","16105",41.06294,-80.35789
"16101","New Castle","PA","Noble House Clinic","3126 Wilmington Rd","16105",41.0488671,-80.355171
"16111","Atlantic","PA","IGD MM","Jl.Dr.Sumeru no 114 Bogor","16111",41.5187156,-80.2878794
"16111","Atlantic","PA","RSMM Askes Centre","Jl Dr Sumeru no 114 kota Bogor","16111",41.52175230500763,-80.26602745056152
"16121","Farrell","PA","UPMC Horizon:Shenango Valley","2200 Memorial Dr","16121",41.21057044467951,-80.46962887949509
"16121","Farrell","PA","UPMC Department of Cardiology at UPMC Horizon - Shenango Valley","2000 Memorial Dr","16121",41.210471000000005,-80.469741
"16125","Greenville","PA","UPMC Horizon:Greenville","110 N Main St","16125",41.41172463098167,-80.37238678270964
"16125","Greenville","PA","UPMC CancerCenter, Greenville ","103 Woodfield Dr","16125",41.41151387608925,-80.36475419998169
"16125","Greenville","PA","UPMC Centers for Rehab Services: Greenville","26 Conneaut Lake Rd","16125",41.417764228225586,-80.38111987397151
"16125","Greenville","PA","Counseling Associates of Cheshire","135 Green Hill Ln","06410",41.401680440050626,-80.38007497787476
"16125","Greenville","PA","UPMC Department of Cardiology at UPMC Horizon - Greenville","428 S Main St","16125",41.41061019897461,-80.37023162841797
"16125","Greenville","PA","edgewood surgical hospital","239 Edgewood Drive Ext","16154",41.3303861,-80.4183057
"16127","Grove City","PA","Superior Ambulance Service","921 E Main Street Ext","16127",41.14053613146003,-80.0398349928474
"16127","Grove City","PA","Grove City Hospital","631 N Broad Street Ext","16127",41.1709868692065,-80.08504321230316
"16127","Grove City","PA","Asylum","not_available","16127",41.16842577437654,-80.11241920250765
"16137","Mercer","PA","UPMC Centers for Rehab Services: New Wilmington","3438 Route 208","16142",41.12081833086197,-80.35263061523436
"16146","Sharon","PA","Steward Family Medicine, Sharon","62 Strawbridge Ave","16146",41.232172,-80.48621000000001
"16146","Sharon","PA","Sharon Regional Hospital","not_available","16146",41.23135374231007,-80.4887042571995
"16146","Sharon","PA","MedExpress Urgent Care","1729 East State Street","16148",41.2335932,-80.4778035
"16148","Hermitage","PA","UPMC Centers for Rehab Services: Hermitage","1115 N. Hermitage Road Hermitage Crossing","16148",41.24981,-80.452924
"16148","Hermitage","PA","Steward Women's Health","2435 Garden Way","16148",41.23788070678711,-80.4645004272461
"16148","Hermitage","PA","Steward Pulmonology Associates","2320 Highland Rd","16148",41.239017486572266,-80.46610260009766
"16148","Hermitage","PA","UPMC Urgent Care - Hermitage","1075 N Hermitage Rd","16148",41.247631,-80.45241
"16148","Hermitage","PA","Urgentcare","not_available","16148",41.25945281982422,-80.46578979492188
"16148","Hermitage","PA","Jonathan Summers, NP","2395 Garden Way","16148",41.23769313610053,-80.46520864319416
"16201","Kittanning","PA","Armstrong County Memorial Hospital","1 Nolte Dr","16201",40.80847366374676,-79.56184894029975
"16201","Kittanning","PA","Wound Healing Center","ACMH","not_available",40.808746,-79.563019
"16201","Kittanning","PA","Armstrong County Memorial Hospital - Intensive Care","not_available","16201",40.80880713065476,-79.56221580505371
"16201","Kittanning","PA","AHN HME","404 Ford St","16226",40.77029037475586,-79.53140258789062
"16201","Kittanning","PA","cafateria acmh","not_available","16262",40.83810505879665,-79.63261339736276
"16201","Kittanning","PA","Butler Health System Fastercare (Urgent Care Facility)","21 Franklin Village Mall","16201",40.812503814697266,-79.550048828125
"16214","Clarion","PA","Clarion Hospital","1 Hospital Dr","16214",41.192482356301284,-79.39769290690514
"16214","Clarion","PA","Clarion Health Complex","24 Doctors Ln","16214",41.1915397644043,-79.39852905273438
"16214","Clarion","PA","Clarion Psychiatric Center","2 Hospital Drive","16214",41.1936179,-79.3980263
"16301","Oil City","PA","UPMC Northwest","100 Fairfield Dr","16346",41.36177165549142,-79.7007577877259
"16316","Conneaut Lake","PA","Radiology @ Mmc Vernon","not_available","16335",41.62121,-80.199687
"16323","Franklin","PA","UPMC Urgent Care Franklin","464 Allegheny Blvd","16323",41.400963280239715,-79.81115478531228
"16323","Franklin","PA","Sugar Creek Station","351 Causeway Dr","16323",41.421965,-79.88868199999999
"16323","Franklin","PA","Community Ambulance Station 1","not_available","16323",41.393444435955956,-79.8266179494559
"16335","Meadville","PA","MedExpress Urgent Care","18471 Smock Hwy., Suite 107","16335",41.61954688582396,-80.16789062889984
"16335","Meadville","PA","Meadville Medical Center - Grove St.","1034 Grove St","16335",41.63347705039569,-80.14635665363892
"16335","Meadville","PA","Urgent Care","Water street","16335",41.63616129,-80.15562244
"16335","Meadville","PA","Water Street Urgent Care","1009 Water St","16335",41.63610566799201,-80.15582954617837
"16340","Pittsfield","PA","Nurses Station WW","not_available","16420",41.74472685729439,-79.5431849450322
"16345","Russell","PA","Ambulatory Center","not_available","16345",41.957325,-79.137752
"16353","Tionesta","PA","Odjegba specialist clinic and maternity","Pipeline area","not_available",41.42102209999999,-79.4424417
"16354","Titusville","PA","Titusville Area Hospital","not_available","16354",41.63344955444336,-79.6800765991211
"16365","Warren","PA","Warren General Hospital","2 W Crescent Park","16365",41.84306895007982,-79.15535208019354
"16403","Cambridge Springs","PA","Nut Ward","not_available","16412",41.83695636059631,-80.11576762879919
"16407","Corry","PA","Corry Memorial Hospital","not_available","16407",41.924442291259766,-79.65336608886719
"16407","Corry","PA","Corry Ambulance Service","965 Shamrock Ln","16407",41.936219,-79.612904
"16407","Corry","PA","The New Corry Hospital","Rt 6","16441",41.935971278203205,-79.61309082264552
"16415","Fairview","PA","UPMC HAMOT HIP & KNEE INSTITUTE","not_available","16507",42.069775096415704,-80.22623045974049
"16415","Fairview","PA","Urgent Care at Saint Vincent - West","4247 W Ridge Rd","16506",42.0764205,-80.17085340000001
"16415","Fairview","PA","Manchester Presbyterian Lodge","not_available","16505",42.0678308577146,-80.2202393013237
"16421","Harborcreek","PA","Smoke Break!","not_available","16421",42.17939758300781,-79.91624450683594
"16441","Waterford","PA","Millcreek Community Hospital","5515 Peach St","16509",42.074292243025134,-80.09202412733427
"16441","Waterford","PA","Presque Isle Rehabilatation Hospital","4114 Schaper Ave","16508",42.08234345542306,-80.11232649178126
"16441","Waterford","PA","Mch","peach st","16509",42.066437,-80.088752
"16441","Waterford","PA","Millcreek Community Hospital Annex","5537 Peach St.","16509",42.074449187819525,-80.0932267912838
"16441","Waterford","PA","UPMC Hamot Sleep Disorders Center","4022 Zuck Rd","16506",42.077720642089844,-80.12548828125
"16441","Waterford","PA","Millcreek Manor","not_available","16509",42.07412177140958,-80.09288775476746
"16441","Waterford","PA","UPMC Centers for Rehab Services: Peach Street","4934 Peach St","16509",42.08197021484375,-80.09092712402344
"16441","Waterford","PA","UPMC Urgent Care South","7200 Peach St","16509",42.05237210616692,-80.08855942946532
"16441","Waterford","PA","Splash Lagoon First Aid","8091 Peach St","16509",42.04793531872073,-80.07749837125012
"16441","Waterford","PA","MedExpress Urgent Care","5039 Peach Street","16509",42.08034022202424,-80.08972947301118
"16441","Waterford","PA","Millcreek Hospital","Peach St","16509",42.05082749,-80.08204818
"16501","Erie","PA","Saint Vincent Hospital","232 W 25th St","16544",42.11143000229899,-80.07954920237734
"16501","Erie","PA","St. Vincent Emergency Department","232 W 25th St","16503",42.111883584065055,-80.0801874715357
"16501","Erie","PA","Saint Vincent Surgery Center","not_available","16502",42.110602226869524,-80.08096272226827
"16501","Erie","PA","Saint Vincent CNICU","Myrtle","16502",42.11134354955974,-80.07880573858948
"16501","Erie","PA","St Vincent Waiting Room","not_available","16544",42.111117531518666,-80.07960319519043
"16501","Erie","PA","Select Specialty Hospital","252 W 11th St","16501",42.12262821163927,-80.08772455172398
"16501","Erie","PA","Drug & Alcohol Rehab Erie","915 State Street","16501",42.12615966796875,-80.08284759521484
"16501","Erie","PA","EmergyCare","1701 Sassafras St","16502",42.11790485034663,-80.08145246568863
"16501","Erie","PA","saint vincent health center 6N","not_available","16504",42.111129838860656,-80.07918964660607
"16502","Erie","PA","Shriners Children's Hospital","1645 W 8th St","16505",42.112960611281665,-80.11989616981758
"16502","Erie","PA","UPMC Childrens Express Care","3330 Peach St","16508",42.102277,-80.079393
"16502","Erie","PA","Dr. feel good","not_available","16508",42.105438232421875,-80.07593536376953
"16502","Erie","PA","Urgent Care","W 12th st","16506",42.100417,-80.125838
"16503","Erie","PA","Hamot Hospital ER Room 31","not_available","16501",42.13492149352937,-80.07997526001098
"16503","Erie","PA","St Vincent Lobby","not_available","16503",42.11420440673828,-80.06925964355469
"16504","Erie","PA","Erie Veterans Affairs Medical Center","135 E 38th St","16504",42.10224625053541,-80.06342676680937
"16504","Erie","PA","Erie VA Urgent Care","135 E 38th St","not_available",42.102146999999995,-80.063006
"16504","Erie","PA","UPMC Centers for Rehab Services: Erie - Pine Avenue","3535 Pine Ave","16504",42.109840393066406,-80.053466796875
"16505","Erie","PA","UPMC Hamot","201 State St","16550",42.134261224364614,-80.08752158191098
"16505","Erie","PA","The Regional Cancer Center, Erie","2500 W 12th St","16505",42.10330097274779,-80.13648788574471
"16505","Erie","PA","Magee-Womens Hospital at UPMC Hamot","118 E 2nd St","16507",42.13483811707573,-80.08551248735559
"16505","Erie","PA","UPMC Urgent Care West","2861 W 26th St","16506",42.088223894515735,-80.13638116103353
"16505","Erie","PA","UPMC Hamot Surgery Center","200 State St","16507",42.13257998015381,-80.08813686759456
"16505","Erie","PA","T.C.O.B","State Street","16507",42.13340349573754,-80.08714365179581
"16505","Erie","PA","Upmc Luthern Square Room","120 E 2nd St","16507",42.13518142700195,-80.0853271484375
"16506","Erie","PA","UPMC Centers for Rehab Services: Erie - Peninsula Drive","1600 Peninsula Dr.","16505",42.096221,-80.14432
"16507","Erie","PA","Rm 427","100 State St","16507",42.13352584838867,-80.08883666992188
"16510","Erie","PA","Neonatologia Hospital de Coronel","Lautaro S/N","16510",42.130436,-80.01565
"16510","Erie","PA","Sala ERA Hospital De Coronel","Lautaro s/n","16510",42.130436,-80.01565
"16510","Erie","PA","Lynch Home Medical Supply","4020 Main St","16511",42.1507483,-80.0145854
"16510","Erie","PA","R.Seruni RS. Puri Cinere","Jl.Maribaya No.1","16514",42.12,-80.02
"16510","Erie","PA","UPMC Centers for Rehab Services: Harborcreek","2101 Nagle Rd","16510",42.14405059814453,-79.9996566772461
"16510","Erie","PA","Burke Urgent Care","Room 110","16563",42.118921619485285,-79.98026542569265
"16510","Erie","PA","Urgent Care At Saint Vincent - East","4950 Buffalo Rd","16510",42.152819206824596,-79.99093762951684
"16510","Erie","PA","Dr. Arreola","not_available","16510",42.117496490478516,-80.0226058959961
"16601","Altoona","PA","UPMC Altoona","620 Howard Ave","16601",40.521792139296345,-78.3984375
"16601","Altoona","PA","MedExpress Urgent Care","300 East Plank Road","16602",40.48101408097775,-78.40278093516417
"16601","Altoona","PA","James E. Van Zandt VA Medical Center","2907 Pleasant Valley Blvd","16602",40.48868248952455,-78.39584266272585
"16601","Altoona","PA","Donna Jean Hospitality House","Howard","not_available",40.52194,-78.394684
"16601","Altoona","PA","OR #3","not_available","16601",40.52142164229755,-78.40635395283327
"16601","Altoona","PA","UPMC Altoona 6 Floor Waiting Room","620 Howard","not_available",40.52224,-78.39893
"16601","Altoona","PA","AMED (Altoona Mobile Emergency Department)","1012 7th Ave","16602",40.51465606689453,-78.39585876464844
"16601","Altoona","PA","Urgent Care Center","3010 Maple Ave","16601",40.4991455078125,-78.41805267333984
"16601","Altoona","PA","Mount Nittany Health - Altoona, Pinecroft","417 Sabbath Rest Rd Ste 3","16601",40.565696716308594,-78.33905792236328
"16611","Alexandria","PA","J.C. Blair Memorial Hospital","1225 Warm Springs Ave","16652",40.49307,-78.014318
"16611","Alexandria","PA","Maternity","not_available","16652",40.49358408680698,-78.01162584574195
"16635","Duncansville","PA","Blair Animal Hospital","1308 3rd Ave","16635",40.4232782,-78.43483831
"16646","Hastings","PA","Conemaugh Miners Medical Center","290 Haida Ave","16646",40.657989,-78.70536899999999
"16646","Hastings","PA","Room 208 Miner's Hospital","Haida Ave.","16646",40.65830500488248,-78.70517219823259
"16646","Hastings","PA","indiana regional medical center","not_available","16646",40.661319732666016,-78.69042205810547
"16666","Osceola Mills","PA","Mountain Top Ambulance","not_available","16866",40.852146117513264,-78.26776743515407
"16673","Roaring Spring","PA","Nason Hospital","105 Nason Dr.","16673",40.338667857547065,-78.38833048535146
"16673","Roaring Spring","PA","Conemaugh Nason Medical Center","105 Nason Drive","16673",40.3387451171875,-78.38884735107422
"16686","Tyrone","PA","Tyrone Hospital","187 Hospital Dr","16686",40.67468201479172,-78.25209617614746
"16686","Tyrone","PA","The Breast Cancer And Women's Health Institute","154 Hospital Dr Ste 5","16686",40.675857,-78.250931
"16701","Bradford","PA","Bradford Regional Medical Center","116 Interstate Pkwy","16701",41.96097585386451,-78.65946846588545
"16701","Bradford","PA","BRMC ER","not_available","16701",41.96035203348893,-78.65854231204177
"16701","Bradford","PA","Foothills Medical Group","106 - 116 Interstate Pkwy","16701",41.96116256713867,-78.65984344482422
"16735","Kane","PA","KCH Cardiac Rehab and Wellness","not_available","16735",41.66313225044862,-78.81122219889767
"16743","Port Allegany","PA","ccmh emergency","not_available","16743",41.81459045410156,-78.2818603515625
"16748","Shinglehouse","PA","Department 39","not_available","16748",41.963279,-78.189923
"16801","State College","PA","Mount Nittany Medical Center","1800 E Park Ave","16803",40.819363,-77.842727
"16801","State College","PA","BioLife Plasma Services","321 W. Beaver Ave.","16801",40.791487518273705,-77.86438175440558
"16801","State College","PA","Mount Nittany Physician Group - Park Ave - Primary Care","1850 E Park Ave Ste 302","16803",40.82039793246695,-77.84524923970332
"16801","State College","PA","MedExpress Urgent Care","1613 North Atherton Street, Suite B","16803",40.80836049625318,-77.8938040137291
"16801","State College","PA","Penn State Health Medical Group Colonnade and Endoscopy Center","32 Colonnade Way","16803",40.811498,-77.903318
"16801","State College","PA","Mount Nittany Health - Sieg Neuroscience Center","2121 Old Gatesburg Rd Ste 100","16803",40.778987884521484,-77.90025329589844
"16801","State College","PA","Mount Nittany Physician Group Urology","905 University Dr","16801",40.798207,-77.844448
"16801","State College","PA","Mount Nittany Physician Group Infectious Disease","1850 E Park Ave Ste 201","16803",40.8204456,-77.8453173
"16801","State College","PA","MNMC Emergency Room","not_available","16801",40.81970406853524,-77.84352213487128
"16801","State College","PA","Geisinger Convenient Care State College","1630 N Atherton St","16803",40.80684,-77.8936
"16801","State College","PA","Mount Nittany Health Center for Wound Care","120 Radnor Rd Ste 100","16801",40.785863,-77.820924
"16801","State College","PA","Mount Nittany Physician Group Endocrinology","1850 E Park Ave Ste 312","16803",40.8204456,-77.8453173
"16801","State College","PA","Restock Room","not_available","16802",40.802758,-77.860128
"16801","State College","PA","Mount Nittany Physician Group","1850 E Park Ave","16803",40.8204456,-77.8453173
"16801","State College","PA","Mount Nittany Physician Group - Boalsburg - Pediatrics","3901 S Atherton St Ste 5","16801",40.781977000000005,-77.801552
"16801","State College","PA","Mount Nittany Physician Group Ear, Nose & Throat","3901 S Atherton St Ste 6","16801",40.7820412,-77.8016127
"16801","State College","PA","Mount Nittany Physician Group Orthopedics","1700 Old Gatesburg Rd","16803",40.782367,-77.8866567
"16801","State College","PA","Nittany Urgent Care","2615 E College Ave","16801",40.82852120447607,-77.80658084303079
"16801","State College","PA","Mount Nittany Physician Group - Blue Course Drive - Primary Care","1700 Old Gatesburg Rd Ste 310","16803",40.782387,-77.886699
"16802","University Park","PA","State College Dental Sleep Medicine","611 University Dr","16801",40.79915381,-77.84667627
"16803","State College","PA","Geisinger Gray's Woods (State College)","132 Abigail Lane","16870",40.814818,-77.941807
"16803","State College","PA","Mount Nittany Physician Group - Green Tech Drive - Primary Care","2520 Green Tech Dr Ste C","16803",40.81320428967709,-77.91900339009067
"16823","Bellefonte","PA","Mount Nittany Physician Group - Bellefonte - Primary Care","141 Medical Park Ln","16823",40.915791,-77.749299
"16823","Bellefonte","PA","Mount Nittany Physician Group - Bellefonte - Pediatrics","129 Medical Park Ln","16823",40.915381,-77.749353
"16823","Bellefonte","PA","HealthSouth Nittany Valley Rehab","550 W College Ave","16823",40.8602595770583,-77.75579631328583
"16823","Bellefonte","PA","BELLEFONTE QRS","422 Walnut St","16823",40.904893,-77.785889
"16823","Bellefonte","PA","Mount Nittany Physician Group - Penns Valley - Primary Care","3631 Penns Valley Rd","16875",40.849708557128906,-77.60547637939453
"16823","Bellefonte","PA","The Eye Center of Central PA â€"" Bellefonte","205 Park Place","16823",40.9149062,-77.7503492
"16827","Boalsburg","PA","The Meadows Psychiatric Center","132 The Meadows Dr","16828",40.81065,-77.7126
"16827","Boalsburg","PA","Mount Nittany Physician Group Gastroenterology","3901 S Atherton St Ste 2","16801",40.7820412,-77.8016127
"16830","Clearfield","PA","Penn Highlands Hospital","809 Turnpike Ave","16830",41.03362534742891,-78.44990590191793
"16830","Clearfield","PA","Clearfield Hospital Imaging Dept.","not_available","16830",41.03362455838671,-78.44991935635596
"16830","Clearfield","PA","DaVita Clearfield Dialysis","1033 Turnpike Ave Ste 100","16830",41.03480529785156,-78.45094299316406
"16830","Clearfield","PA","Clearfield EMS","713 W Front St","16830",41.031885156147275,-78.43734088629832
"16866","Philipsburg","PA","Mount Nittany Physician Group - Philipsburg - Primary Care","1061 N Front St Ste 2","16866",40.902671813964844,-78.23367309570312
"16872","Rebersburg","PA","penn presbyterian medical center","34th & Market st","17751",41.02545928955078,-77.51206970214844
"16901","Wellsboro","PA","Soldiers and Sailors Memorial Hospital","Central Avenue","16901",41.74523790119727,-77.30020827812059
"16915","Coudersport","PA","Express Care at Cole Memorial","not_available","16915",41.772094038252014,-77.97965613821187
"16929","Lawrenceville","PA","Hemp Geek of Tioga Cbd Store","17795 Route 287 Aprt. 2","16946",41.9325687,-77.1094108
"16947","Troy","PA","Guthrie Troy Community Hospital","275 Guthrie Drive","16947",41.783529,-76.791233
"17003","Annville","PA","Academic Support Building","600 Centerview Dr","17033",40.26558720554319,-76.66751538893567
"17003","Annville","PA","Penn State Milton S Hershey Medical Center Academic Support Building","500 University Dr Ste 1400","17033",40.26565687213396,-76.66748614478495
"17003","Annville","PA","The Dungeon Radiology At HMC","University dr","17033",40.27111367,-76.65797371
"17003","Annville","PA","Central Pennsylvania Blood Bank","35 Hope Dr","17033",40.269826908398244,-76.66086964119519
"17003","Annville","PA","MedExpress Urgent Care","565 E Chocolate Ave","17033",40.2912025,-76.6362609
"17003","Annville","PA","The Dungeon Radiology At HMC","not_available","17033",40.30790411,-76.59575354
"17003","Annville","PA","Indiantown Gap Building 13-38","not_available","17028",40.430382,-76.585282
"17003","Annville","PA","Lawn EMS - Campbelltown Station","2818 Horseshoe Pike","17078",40.276494,-76.58195699999999
"17003","Annville","PA","14-38 Sick Call","not_available","17003",40.426437393212254,-76.57139116943397
"17003","Annville","PA","PinnacleHealth Neurosurgery And Neurosciences Inst","1251 E Main St","17003",40.3360055,-76.4926942
"17003","Annville","PA","Orthopedic Institute of Pennsylvania - Hershey Office","32 Northeast Dr #201","17033",40.29248809814453,-76.64904022216797
"17003","Annville","PA","PinnacleHealth Express","1251 East Main Street","17003",40.3360055,-76.4926942
"17007","Boiling Springs","PA","health lodge","not_available","17019",40.09805812918229,-77.09722740968736
"17009","Burnham","PA","emergency room  lewistown pa","not_available","17009",40.628013610839844,-77.57687377929688
"17011","Camp Hill","PA","UPMC Pinnnacle Harrisburg","111 S Front St","17101",40.25759238761438,-76.88022598840261
"17011","Camp Hill","PA","Patient First - Mechanicsburg","107 South Sporting Hill Road","17050",40.23629255452218,-76.97155192387123
"17011","Camp Hill","PA","Holy Spirit Hospital","503 N 21st St","17011",40.25326737746612,-76.9219663882709
"17011","Camp Hill","PA","Alex Grass Medical Science Building","100 S 2nd St","17101",40.25870132446289,-76.88021850585938
"17011","Camp Hill","PA","Er Room 7","not_available","17011",40.253835,-76.921156
"17011","Camp Hill","PA","Spirit Urgent Care","431 N 21st St","17011",40.251363,-76.92163000000001
"17011","Camp Hill","PA","El Hospital del Espiritu Santo","21st","17011",40.249354585317896,-76.92292875174658
"17011","Camp Hill","PA","M11","not_available","17101",40.257516,-76.880406
"17011","Camp Hill","PA","The Pond","770 Poplar Church Rd","17011",40.25647237287931,-76.9206766637188
"17011","Camp Hill","PA","Pinnacle Health Registration Office","Front","not_available",40.25749137648334,-76.88062829546973
"17013","Carlisle","PA","UPMC Carlisle","361 Alexander Spring Rd","17015",40.183858161881936,-77.22462832443549
"17013","Carlisle","PA","Carlisle Emergency Room","not_available","17013",40.18370424792827,-77.22352635682618
"17013","Carlisle","PA","ManorCare Health Services-Carlisle","940 Walnut Bottom Rd","17015",40.18398416,-77.21182407
"17013","Carlisle","PA","Claremont Nursing & Rehabilitation Center","1000 Claremont Rd","17013",40.214325,-77.160202
"17013","Carlisle","PA","Griswold Home Care","79 East Pomfret Street","17013",40.1999029,-77.1871125
"17013","Carlisle","PA","Integrity Hearing Aid Solutions, Inc","200 S Spring Garden St","17013",40.19792092173664,-77.18215227127075
"17013","Carlisle","PA","AllBetterCare Urgent Care Center","1175 Walnut Bottom Road","17015",40.1815324,-77.2183365
"17013","Carlisle","PA","Carlisle Urology","366 Alexander Spring Rd Ste 4","17015",40.184951,-77.226571
"17013","Carlisle","PA","WellSpan Urology","354 Alexander Spring Rd","17015",40.1852483,-77.2243152
"17013","Carlisle","PA","Carlisle Foot & Ankle Specialists","2 Jennifer Ct Ste A","17015",40.186132,-77.22475
"17013","Carlisle","PA","PinnacleHealth CardioVascular Institute","360 Alexander Spring Rd","17015",40.1851357,-77.2255478
"17017","Dalmatia","PA","Americus South St. 541","134 Line Mountain Road","not_available",40.666396,-76.828629
"17019","Dillsburg","PA","Joburg Gen Trauma Unit 163","Jubilee Rd","17007",40.135498,-77.054387
"17022","Elizabethtown","PA","ManorCare Health Services-Elizabethtown","320 S Market St","17022",40.14735,-76.603759
"17022","Elizabethtown","PA","Crazytown","not_available","17022",40.148665,-76.593998
"17022","Elizabethtown","PA","Hershey Medical Center Building A (ct scan)","30 Hope Dr","17033",40.242296539980956,-76.5337765478141
"17022","Elizabethtown","PA","svems amb 77-23","not_available","17552",40.114418699732994,-76.51532082428712
"17025","Enola","PA","PinnacleHealth Fredricksen Outpatient Center","2015 Technology Pkwy","17050",40.2841172127902,-76.97482018268983
"17025","Enola","PA","UPMC Pinnacle West Shore","1995 Technology Pkwy","17050",40.28299092396398,-76.97536382835762
"17025","Enola","PA","Neurology a PinnacleHealth Neurosurgery and Neurosciences Institute","2005 Technology Pkwy Building 2","17050",40.28361805628732,-76.97540760040283
"17025","Enola","PA","RMA of Central Pennsylvania","2025 Technology Parkway, Suite 211","17050",40.28433829084579,-76.97512865066528
"17025","Enola","PA","PinnacleHealth FastCare Clinic","4510 Marketplace Way","17025",40.292974,-76.975571
"17025","Enola","PA","De Ramon Plastic Surgery Institute","2025 Technology Pkwy #303","17050",40.283961,-76.975166
"17025","Enola","PA","UPMC Pinnacle West Shore Ortho-Neuro-Med-Surg Unit","not_available","17050",40.282919,-76.975379
"17025","Enola","PA","Post Acute Medical, LLC","1828 Good Hope Rd","17025",40.2839753,-76.9840177
"17025","Enola","PA","Central PA Blood Bank","875 Poplar Church Rd Ste 100","17011",40.256553649902344,-76.9232406616211
"17025","Enola","PA","Pinnaclehealth Cardiovascular Institute B Cardio","2005 Technology Pkwy Ste 300","17050",40.2837794,-76.9757515
"17025","Enola","PA","PinnacleHealth Breast Care Center","2035 Technology Pkwy Ste 200","17050",40.282429,-76.97797299999999
"17033","Hershey","PA","Penn State Milton S. Hershey Medical Center Nuclear Medicine","500 University Dr","17033",40.264341,-76.676085
"17033","Hershey","PA","Penn State Children's Hospital (Hershey campus)","600 University Dr","17033",40.264103,-76.673558
"17033","Hershey","PA","Jake Gittlen Memorial Golf Tournament Lobby","not_available","17036",40.264404,-76.67392
"17033","Hershey","PA","Penn State Cancer Institute","400 University Dr","17033",40.264398054943825,-76.67427062988281
"17036","Hummelstown","PA","Penn State Children's Hospital - Outpatient Clinic","200 Campus Drive, Entrance 4, Suite 1100","17033",40.26431618635649,-76.67530059814453
"17040","Landisburg","PA","landisburg fire co","not_available","17040",40.34416282365977,-77.30518436158215
"17042","Lebanon","PA","Lebanon VA Medical Center","1700 S Lincoln Ave","17042",40.316928,-76.39762
"17042","Lebanon","PA","WellSpan Good Samaritan Hospital Emergency Department","252 Walnut Street","17042",40.3365593,-76.4162379
"17042","Lebanon","PA","Lebanon Community Health Center","920 Church St","17046",40.344513,-76.42723
"17042","Lebanon","PA","MedExpress Urgent Care","1010 West Crestview Drive","17042",40.318291093070684,-76.42471119761467
"17042","Lebanon","PA","Lebanon Va Outpatient Surgery","not_available","17042",40.316845,-76.39589
"17042","Lebanon","PA","ManorCare Health Services-Lebanon","900 Tuck St","17042",40.317871000000004,-76.42038199999999
"17042","Lebanon","PA","The Good Samthe Good Samaritan Family Practice Center","not_available","17046",40.340874,-76.41728
"17042","Lebanon","PA","WellSpan GSH Sleep Center","206 Hathaway Park","17042",40.33600223,-76.4151095
"17042","Lebanon","PA","Health Quest Holistics","422 Ebenezer Rd","17046",40.358953,-76.45929100000001
"17042","Lebanon","PA","Hyman S Caplan Pavilion","30 N 4th St","17046",40.340782165527344,-76.41779327392578
"17042","Lebanon","PA","EAU","283 Butler Rd","17042",40.2676,-76.46213
"17042","Lebanon","PA","WellSpan Philhaven","283 Butler Rd","17064",40.26770515,-76.46178912
"17042","Lebanon","PA","Orthopedic Urgent Care at OAL","1701 Cornwall Rd Suite 200","17042",40.3151483,-76.4200393
"17042","Lebanon","PA","Good Samaritan Hospital QRC","1503 Quentin RD","not_available",40.3158073425293,-76.4260482788086
"17042","Lebanon","PA","Lancaster General Health Urgent Care Lebanon","1701 Cornwall Rd","17042",40.315052,-76.4200515
"17042","Lebanon","PA","Albright LIFE (Lebanon)","113 S 9th St","17042",40.33751076379999,-76.42640590678639
"17043","Lemoyne","PA","UPMC Pinnacle Neurosurgery","205 S Front St Fl 6","17104",40.25703430175781,-76.87920379638672
"17043","Lemoyne","PA","Maternal Fetal Medicine","100 South 2nd Street 4B","17101",40.2582661,-76.8801132
"17043","Lemoyne","PA","Walk-in Center at Strawberry Square FamilyCare","320 Market St 165","17101",40.2614659,-76.8804167
"17043","Lemoyne","PA","ManorCare Health Services-Camp Hill","1700 Market St","17011",40.24031795,-76.91333123
"17043","Lemoyne","PA","Pinnaclehealth Cardiovascular Institute B Cardio","205 S Front St Fl 4","17104",40.2568993,-76.8793347
"17043","Lemoyne","PA","PinnacleHealth CardioVascular Institute","1000 N Front St Ste 300","17043",40.2677792,-76.9120412
"17044","Lewistown","PA","Lewistown ER","not_available","17044",40.61731220674663,-77.56725651813755
"17044","Lewistown","PA","Geisinger Lewistown Hospital","400 Highland Ave","17044",40.61794662475586,-77.5682144165039
"17044","Lewistown","PA","Mount Nittany Health - Mifflin County - Primary Care","96 Kish Rd","17084",40.686274,-77.59422099999999
"17050","Mechanicsburg","PA","HealthSouth","175 Lancaster Blvd","17055",40.21121563391143,-76.97393743324938
"17050","Mechanicsburg","PA","OSS Health Urgent Care","855 Century Dr","17055",40.210715,-76.964952
"17050","Mechanicsburg","PA","AllBetterCare Urgent Care Center","6481 Carlisle Pike","17050",40.2460781,-77.0194858
"17050","Mechanicsburg","PA","OSS Health Mechanicsburg Pain Center","856 Century Dr","17055",40.21078568409237,-76.9648289680481
"17050","Mechanicsburg","PA","PinnacleHealth Internal Medicine Associates","4400 Carlisle Pike","17011",40.238138,-76.959147
"17050","Mechanicsburg","PA","Concentra Urgent Care","4910 Ritter Rd","17055",40.20531026439981,-76.95699155330652
"17050","Mechanicsburg","PA","Fox Subacute","120 S Filbert St","17055",40.213855,-76.999386
"17050","Mechanicsburg","PA","PinnacleHealth CardioVascular Institute","900 Century Dr","17055",40.21376,-76.9626454
"17057","Middletown","PA","Life Lion EMS - Lower Swatara","1499 Spring Garden Dr","17057",40.219823,-76.766209
"17059","Mifflintown","PA","Bioemagno","127 Mexico Heights Rd, Mexico, Pensilvania 17059","17059",40.542240142822266,-77.36084747314453
"17062","Millerstown","PA","PinnacleHealth CardioVascular Institute","300 Bretz Ct","17074",40.47698,-77.1317399
"17068","New Bloomfield","PA","Kinkora","Routes 11/15","not_available",40.388263,-77.144061
"17070","New Cumberland","PA","RS Hermina Bekasi","Jl. Kemakmuran No. 39","17113",40.2299999,-76.8199999
"17070","New Cumberland","PA","Fairview Twp EMS","522 Locust Rd","17070",40.178932189941406,-76.83538818359375
"17070","New Cumberland","PA","Rack # 29","not_available","17070",40.208472972639996,-76.8494410591596
"17102","Harrisburg","PA","Polyclinic Medical Center","2501 N 3rd St","17110",40.28652779495327,-76.8985972125426
"17102","Harrisburg","PA","PPI - Pennsylvania Psychiatric Institute","3rd and Radnor","not_available",40.28681558767143,-76.89842810436832
"17102","Harrisburg","PA","CarePortMD Express Clinic (CarePortMD Speedy Care)","2336 N 3rd St","17110",40.28325664905489,-76.89795317236997
"17104","Harrisburg","PA","Life Team","not_available","17104",40.255875,-76.86991
"17109","Harrisburg","PA","Community General Osteopathic Hospital","4300 Londonderry Rd","17109",40.28430313156375,-76.81684907090417
"17109","Harrisburg","PA","PinnacleHealth Express","805 Sir Thomas Ct, Floor 2","17109",40.282034,-76.8224889
"17109","Harrisburg","PA","Neurosurgery and Neurosciences Institute at Bloom Outpatient Center","4310 Londonderry Rd","17109",40.285356,-76.816501
"17109","Harrisburg","PA","Room 148 D","not_available","17109",40.284799,-76.815386
"17109","Harrisburg","PA","Patient First","5125 Jonestown Road, Suite 105","17112",40.31004728715566,-76.80227280462582
"17109","Harrisburg","PA","PinnacleHealth Hematology/Oncology","4300 Londonderry Rd Ste 302","17109",40.2842662,-76.8172855
"17109","Harrisburg","PA","PinnacleHealth Internal Medicine Union Deposit","805 Sir Thomas Ct Ste 1","17109",40.281972,-76.8224721
"17109","Harrisburg","PA","PinnacleHealth Breast Care Center","4300 Londonderry Rd Ste 202","17109",40.2842662,-76.8172855
"17110","Harrisburg","PA","UPMC Heart and Vascular Institute","2808 Old Post Rd","17110",40.3311627,-76.8494772
"17110","Harrisburg","PA","AllBetterCare Urgent Care Center","2323 Linglestown Road","17110",40.3285303,-76.8620332
"17111","Harrisburg","PA","ambulance 13-1 saving lives","not_available","17111",40.253108978271484,-76.81525421142578
"17111","Harrisburg","PA","PennState Hershey's Children's Heart Hospital","121 N Nyes Rd","17112",40.31917190551758,-76.77913665771484
"17201","Chambersburg","PA","Chambersburg Hospital","112 N 7th St","17201",39.93391058950706,-77.64623880386353
"17201","Chambersburg","PA","Summit Health","112 North 7th Street","17201",39.934174,-77.6462709
"17201","Chambersburg","PA","The Practice of Pediatrics","1942 Scotland Ave","17201",39.9554293602705,-77.63522766530514
"17201","Chambersburg","PA","Chambersburg Hospital Imaging","not_available","17201",39.934275,-77.646599
"17201","Chambersburg","PA","Urgent Care","1000 Norland Ave","17201",39.939170000000004,-77.62635
"17201","Chambersburg","PA","Chambersburg Animal Hospital","1340 Lincoln Way East","17202",39.926714632174274,-77.62731332302008
"17201","Chambersburg","PA","LodgeQuest Outpatient Psychiatric Clinic","550 Cleveland Ave","17201",39.9286994934082,-77.65767669677734
"17201","Chambersburg","PA","Richards Orthopaedic Center","144 S 8th St","17201",39.93191397880018,-77.6465009218111
"17201","Chambersburg","PA","chamberaburg hospital wound clinic","120 N 7th St, Chambersburg, PA 17201","17201",39.934486389160156,-77.64695739746094
"17201","Chambersburg","PA","Laurel Lakes","219-1207 Franklin Farm Ln","17202",39.930463643768576,-77.63056743463544
"17201","Chambersburg","PA","WellSpan Urology","120 N 7th St","17201",39.93449,-77.64696
"17201","Chambersburg","PA","ManorCare Health Services-Chambersburg","1070 Stouffer Ave","17201",39.915865000000004,-77.648787
"17201","Chambersburg","PA","MedExpress Urgent Care","1048 Lincoln Way East, Suite 101","17201",39.930483,-77.64205799999999
"17201","Chambersburg","PA","PinnacleHealth CardioVascular Institute","12 St Paul Dr Ste 205","17201",39.9446167,-77.6348189
"17202","Chambersburg","PA","Saint Thomas Medical Partners - Nashville","300 20th Ave N","37203",39.91894455982455,-77.79482781887054
"17222","Fayetteville","PA","South Mountain Restoration Center","10058 S Mountain Rd","17261",39.84610416540682,-77.49296651681689
"17225","Greencastle","PA","WellSpan Urology","24 Antrim Commons Dr","17225",39.7589835860717,-77.7292897530912
"17241","Newville","PA","Urgent Care","46 Walnut Bottom Rd,Suite 100","17257",40.0581484,-77.5015915
"17241","Newville","PA","Roxbury Treatment Center","601 Roxbury Road","17257",40.055301,-77.537116
"17241","Newville","PA","UPMC Pediatrics Shippensburg","127 Walnut Bottom Road","17257",40.0609415,-77.4894661
"17241","Newville","PA","WellSpan Urgent Care","46 Walnut Bottom Rd","17257",40.058281,-77.50165
"17268","Waynesboro","PA","Waynesboro Hospital","501 E Main St","17268",39.75162635157837,-77.5686557931354
"17268","Waynesboro","PA","WellSpan Urology","601 East Main Street","17268",39.75172358,-77.56688896
"17268","Waynesboro","PA","Waynesboro Health Center","12525 N Welty Rd","17268",39.746116638183594,-77.55528259277344
"17268","Waynesboro","PA","Waynesboro Hopsital waiting room","not_available","21783",39.75170728544717,-77.56868377845903
"17268","Waynesboro","PA","WellSpan Urgent Care","601 E Main St","17268",39.76128,-77.589596
"17268","Waynesboro","PA","Waynesboro Hospital ER","not_available","17268",39.7512537964923,-77.56811847358077
"17313","Dallastown","PA","York Regional Emergency Medical Services","36 E George St","17313",39.909521000000005,-76.634372
"17313","Dallastown","PA","WellSpan CareExpress - Windsor","3175 Cape Horn Rd","17356",39.91813278198242,-76.62983703613281
"17313","Dallastown","PA","Wellspan CareExpess","not_available","17356",39.928096771240234,-76.62419891357422
"17314","Delta","PA","Mason-Dixon Fair Aid Station","not_available","21160",39.721336729172116,-76.34634831066808
"17315","Dover","PA","WellSpan York Hospital Sleep Center","4020 Carlisle Rd","17315",39.9934196472168,-76.84305572509766
"17325","Gettysburg","PA","Gettysburg  Hospital","not_available","17325",39.823970794677734,-77.23442840576172
"17325","Gettysburg","PA","Gettysburg Hospital Emergency Room","South Washington Street","17325",39.825023813502874,-77.23462004234017
"17325","Gettysburg","PA","Union Civil War Hospital","Herrs Ridge Road","17325",39.84183363440006,-77.25882623145112
"17325","Gettysburg","PA","WellSpan Gettysburg Hospital: Emergency Room","147 Gettys Street","17325",39.8244203,-77.23492894
"17327","Glen Rock","PA","GI Lab At York Hospital","not_available","17349",39.732301,-76.665939
"17327","Glen Rock","PA","ExpressCare of Shrewsbury","89 E Forrest Ave","17361",39.770689000000004,-76.67375600000001
"17331","Hanover","PA","UPMC Express Care","1404 Baltimore Street Ste 4","17331",39.7731686,-76.9597152
"17331","Hanover","PA","Hanover Hospital","300 Highland Ave","17331",39.80855375562146,-76.98311489126034
"17331","Hanover","PA","MedExpress Urgent Care","1139 Baltimore Street","17331",39.7777843,-76.9614605
"17331","Hanover","PA","st. josephs hospital","not_available","17331",39.79756546020508,-76.9614028930664
"17331","Hanover","PA","target health urgent care","864 Broadway Ste B","17331",39.817286,-76.975796
"17331","Hanover","PA","Wellspan Urgent Care","100 Eisenhower Dr","17331",39.82426452636719,-76.99713134765625
"17331","Hanover","PA","Hanover Hospital Lab and XRay","1404 Baltimore St Ste 2","17331",39.77316665649414,-76.9598159790039
"17331","Hanover","PA","Maternity Center at UPMC Hanover","300 Highland Ave Third Floor","17331",39.8085683,-76.9829377
"17331","Hanover","PA","Stanton S Lebouitz PC","250 Fame Avenue","17331",39.82514119143124,-76.96872889995575
"17331","Hanover","PA","WellSpan Urgent Orthopedics - Hanover","207 Blooming Grove Rd","17331",39.7974348,-76.95065991
"17331","Hanover","PA","UPMC Express Care","5615 York Rd","17350",39.866097,-77.0449921
"17339","Lewisberry","PA","Baker's Home And Lawn Care",".","17339",40.14436254796919,-76.87552213668823
"17345","Manchester","PA","Wellspan Urgent Care","4050 N George Street Ext","17345",40.041855,-76.72556
"17345","Manchester","PA","Wellspan Urgent Care","4050 N George St. Ext.","17345",40.041856,-76.725533
"17352","New Park","PA","Nurse Anesthesia Partners, LLC","7615 Setting Sun Ln","17363",39.765969,-76.531989
"17362","Spring Grove","PA","UPMC Express Care","2030 Thistle Hill Dr","17362",39.8831287,-76.8686279
"17362","Spring Grove","PA","York Neurology Specialists","2030 Thistle Hill Drive 202","17362",39.8829378,-76.8686817
"17402","York","PA","Wellspan York Hospital","1001 S George St","17403",39.945917,-76.719024
"17402","York","PA","WellSpan Urgent Orthopedics","2319 S George St","17403",39.92326348,-76.7150505
"17402","York","PA","York Hospital Education Pavilion","not_available","17403",39.94692387125087,-76.7185709925919
"17402","York","PA","OSS Health Orthopaedic Hospital","1861 Powder Mill Rd","17402",39.91624450683594,-76.69534301757812
"17402","York","PA","UPMC Memorial","1701 Innovation Dr","17408",39.9672132,-76.69265159999999
"17402","York","PA","Orthopaedic & Spine Specialists","1855 Powder Mill Rd","17402",39.917139643360876,-76.69554499193973
"17402","York","PA","Memorial Pediatric Specialists","2860 Carol Rd","17402",39.9603328,-76.6639429
"17402","York","PA","Wellspan Childbirth And Family Education Center","1945 Queenswood Dr","17403",39.941200256347656,-76.69042205810547
"17402","York","PA","WellSpan Health Finance Office","not_available","17402",39.98851441839332,-76.66629864773302
"17402","York","PA","urgent care","2250 E Market St, York, PA 17402","17402",39.97343826293945,-76.68254089355469
"17402","York","PA","Emergency Department at UPMC Pinnacle Memorial","325 S Belmont St","17403",39.967298,-76.692349
"17404","York","PA","MedExpress Urgent Care","400 Loucks Road","17404",39.98280401440152,-76.74013227224344
"17404","York","PA","Wellspan Urgent Care","717","17408",39.967995,-76.77507
"17404","York","PA","York Lutheran Nursing and Rehab Center","not_available","17404",39.99291598387787,-76.75010095777445
"17404","York","PA","WellSpan CareExpress - Delco","1255 Carlisle Rd","17404",39.966514587402344,-76.76762390136719
"17404","York","PA","Healthsouth Rehab","1850 Normandie Dr","17408",39.98067972343031,-76.78101150322618
"17404","York","PA","UPMC Memorial","1701 Innovation Drive","17408",39.9811944,-76.7698608
"17404","York","PA","York Heart & Vascular Specialists","1703 Innovation Drive Suite 4120","17408",39.9808159,-76.7712559
"17404","York","PA","Normandie Ridge","1700 Normandie Dr","17408",39.98372987963132,-76.7795562745232
"17517","Denver","PA","WellSpan Ephrata Community Hospital","169 Martin Ave","17522",40.18734232,-76.18222748
"17517","Denver","PA","Emergency Room 5","not_available","17543",40.18747421119568,-76.18212391961241
"17517","Denver","PA","WellSpan Sleep Center","65 W Church St","17578",40.21854205,-76.12913464
"17517","Denver","PA","ECC Rehibiltation","not_available","17522",40.186269149923106,-76.16899699381125
"17517","Denver","PA","QuickCare - Reading Road","446 N Reading Rd","17522",40.19619369506836,-76.17212677001953
"17519","East Earl","PA","QuickCare - Garden Spot","435 S Kinzer Ave","17557",40.09903335571289,-76.0735855102539
"17519","East Earl","PA","Quickcare","433 S Kinzer Ave","17557",40.09765625,-76.07225799560547
"17520","East Petersburg","PA","EHT 77#4","not_available","17601",40.0885715,-76.34771849732759
"17520","East Petersburg","PA","PERMATA BUNDA","Gramapuri Tamansari","17520",40.1021045,-76.34636239999999
"17522","Ephrata","PA","Lancaster General Health Urgent Care","895 E Main St","17522",40.16286025361296,-76.15326762199402
"17522","Ephrata","PA","WellSpan Urgent Care","446 N. Reading Rd.","17522",40.17096,-76.1673
"17543","Lititz","PA","Lancaster General Health Urgent Care Lititz–Kissel Hill","51 Peters Rd","17543",40.1301145,-76.3092413
"17543","Lititz","PA","Orthopedic Associates of Lancaster, LTD.","2913 Spooky Nook Rd #100 Suite 100","17545",40.105939,-76.419305
"17543","Lititz","PA","UPMC Pinnacle Lititz","1500 Highlands Dr","17543",40.132175,-76.312042
"17543","Lititz","PA","Pediatrics at Heart of Lancaster","1500 Highlands Dr Fl 3","17543",40.131900787353516,-76.31172180175781
"17543","Lititz","PA","Security Office","1500 High Dr","17543",40.13215382370015,-76.3114510562014
"17543","Lititz","PA","ER at Heart of Lancaster","Highlands Dr, Lititz, PA 17543","17543",40.13285843379195,-76.31140581725326
"17543","Lititz","PA","NICU at Heart of Lancaster","Women's Place 1500 Hughlands Dr.","17543",40.13313046,-76.31169579
"17543","Lititz","PA","Orthopaedic Specialists of Central PA","1575 Highland Drive 200","17543",40.130306243896484,-76.31047821044922
"17543","Lititz","PA","Infusion and Oncology Care of UPMC Lititz","1575 Highlands Dr Ste 205","17543",40.1303489,-76.3104761
"17543","Lititz","PA","Warwick Community Ambulance","151 Norrth Lane","17543",40.157144,-76.30222168333333
"17543","Lititz","PA","The Wound Healing Center of UPMC Lititz","1555 Highlands Dr Ste 100","17543",40.1315786,-76.309529
"17551","Millersville","PA","St. Joe's Hospital","College Avenue","17603",40.0083403,-76.3472846
"17554","Mountville","PA","Applegate Asylum","191 College Ave","17554",40.04240417480469,-76.42371368408203
"17566","Quarryville","PA","svems 77-29","not_available","17566",39.89056955035774,-76.15833149191445
"17584","Willow Street","PA","svems medic 77-28","not_available","17584",39.98078536987305,-76.27076721191406
"17601","Lancaster","PA","Lancaster General Hospital","555 N Duke St","17602",40.04699059042276,-76.30436154603274
"17601","Lancaster","PA","Lancaster General Health Suburban Outpatient Pavilion","2100 Harrisburg Pike","17601",40.06490365430646,-76.35608307234389
"17601","Lancaster","PA","Ann B. Barshinger Cancer Institute","2102 Harrisburg Pike","17601",40.0639298,-76.35495
"17601","Lancaster","PA","Lancaster General Health Downtown Pavilion","540 N Duke St","17602",40.0472858,-76.3060547
"17601","Lancaster","PA","Lancaster General Urgent Care","2118 Spring Valley Rd","17601",40.06215982803671,-76.35847270488739
"17601","Lancaster","PA","Breast Health Associates","2170 Noll Dr Ste 200","17603",40.04791873,-76.36234705
"17601","Lancaster","PA","LGH Diagnostic Imaging","not_available","17602",40.0475959777832,-76.30342864990234
"17601","Lancaster","PA","Cardiac Consultants","1697 Crown Ave 100","17601",40.06501328,-76.3021863
"17601","Lancaster","PA","Patient First - Lancaster","1625 Oregon Pike","17601",40.065744794465594,-76.30450669752437
"17601","Lancaster","PA","urgent care center","1821 Oregon Pike","17601",40.07650375366211,-76.29602813720703
"17601","Lancaster","PA","LGH 4th Fl","duke street","17601",40.06035645,-76.30622445
"17602","Lancaster","PA","Urgent Care Center","1661 Old Philadelphia Pike","17602",40.03933226,-76.26628388
"17602","Lancaster","PA","Lancaster General Health","1030 New Holland Ave","17601",40.05380573700383,-76.28505186992847
"17603","Lancaster","PA","Cardiothoracic & Vascular Surgeons of Lancaster","233 College Ave Ste 203","17603",40.0407107,-76.3202186
"17603","Lancaster","PA","Emergency Room at UPMC Pinnacle Lancaster","250 College Ave","17603",40.04079818725586,-76.32086181640625
"17603","Lancaster","PA","Sincera Reproductive Medicine - Lancaster","1059 Columbia Ave","17603",40.03903,-76.32914
"17701","Williamsport","PA","Williamsport Regional Medical Center","700 High St","17701",41.24726686843311,-77.01594395127694
"17701","Williamsport","PA","Labor And Delivery","not_available","17701",41.24705717162292,-77.0155896675431
"17701","Williamsport","PA","MedExpress Urgent Care","1953 East 3rd Street","17701",41.24846558546286,-76.96059957148009
"17701","Williamsport","PA","Geisinger Convenient Care Williamsport","1824 E 3rd St","17701",41.24932,-76.9671
"17701","Williamsport","PA","Williamsport Urgent Care Center","777 Rural Ave","17701",41.247143,-77.015978
"17701","Williamsport","PA","Susquehanna Health Outpatient Rehab Center","Rural Ave","17701",41.2469610521619,-77.0142062640011
"17701","Williamsport","PA","Valley View Center","not_available","17754",41.273784850489655,-76.92896726949294
"17701","Williamsport","PA","The Eye Center of Central PA â€"" Williamsport","435 River Ave","17701",41.2514123,-76.9822177
"17701","Williamsport","PA","The Eye Center of Central PA â€"" Muncy","4 Eye Center Dr","17756",41.2407644,-76.8439421
"17702","Williamsport","PA","The Eye Center of Central PA â€"" Allenwood","66 Enterprise Blvd","17810",41.1174903,-76.9043865
"17740","Jersey Shore","PA","Geisinger Jersey Shore Hospital","1020 Thompson St","17740",41.2026,-77.2681
"17740","Jersey Shore","PA","Urgent Care at McElhattan","560 McElhattan Dr","17748",41.15501,-77.3573
"17740","Jersey Shore","PA","Jersey Shore Hospital","not_available","17745",41.13368225097656,-77.43672943115234
"17740","Jersey Shore","PA","Lock Haven Hospital Rehabilitation","24 Cree Dr","17745",41.131805419921875,-77.46955108642578
"17740","Jersey Shore","PA","Nurse 2","not_available","17751",41.102914,-77.483761
"17740","Jersey Shore","PA","ManorCare Health Services-Jersey Shore","1008 Thompson St","17740",41.201857000000004,-77.267504
"17740","Jersey Shore","PA","Jersey Shore Hospital ER","354 Allegheny St","17740",41.20346450805664,-77.25835418701172
"17756","Muncy","PA","Muncy Valley Hospital ED","215 E Water St","17756",41.21008685967527,-76.77419681855264
"17756","Muncy","PA","Emergency Room Muncy","not_available","17756",41.21017054981437,-76.77438839474028
"17801","Sunbury","PA","Sunbury Community Hospital Emergency Department","350 N 11th St","17801",40.86180114746094,-76.77767181396484
"17801","Sunbury","PA","Senior Helpers of Sunbury","39 North 4th Street","17801",40.861785,-76.79101700000001
"17801","Sunbury","PA","MedExpress Urgent Care","1597 N. Susquehanna Trail, Suite 3","17870",40.831334,-76.8400597
"17801","Sunbury","PA","Geisinger Convenient Care Shamokin Dam","2660 N Susquehanna Trail","17876",40.84253,-76.8263
"17801","Sunbury","PA","MICU 91","not_available","17870",40.871891021728516,-76.80130004882812
"17801","Sunbury","PA","The Eye Center of Central PA â€"" Shamokin Dam","3020 N Susquehanna Trail","17876",40.8465487,-76.8211363
"17815","Bloomsburg","PA","Geisinger Medical Center","100 N Academy Ave","17822",40.9677970901395,-76.60534642944774
"17815","Bloomsburg","PA","Geisinger Medical Center Abigail Pavilion","101 N Academy Ave","17821",40.967282,-76.60557925701141
"17815","Bloomsburg","PA","Berwick Hospital ER","701 E 16th St","18603",41.07060042846842,-76.23083353335565
"17815","Bloomsburg","PA","Geisinger Bloomsburg Hospital","549 Fair St","17815",41.00868,-76.4528
"17815","Bloomsburg","PA","Geisinger Pediatrics At Woodbine","not_available","17821",40.96169,-76.572667
"17815","Bloomsburg","PA","bloomsburg hospital radiology","not_available","17815",41.001583099365234,-76.44609069824219
"17815","Bloomsburg","PA","Balance Care Bloomsburg","3298 Ridge Rd","17815",41.03764724731445,-76.4050064086914
"17815","Bloomsburg","PA","Geisinger Neurology Monitoring Floor","Geisinger Medical Center","17821",40.967715109653966,-76.60521984100342
"17820","Catawissa","PA","geisinger bush pavillion 4th Floor","not_available","17820",40.93242645263672,-76.4602279663086
"17821","Danville","PA","Ch3","Medical Center Dr","17821",40.971767,-76.60086637
"17822","Danville","PA","Geisinger X-Ray","100","17821",40.96836351633768,-76.60232579275359
"17834","Kulpmont","PA","MICU 94","not_available","17834",40.793923283333335,-76.47359115
"17837","Lewisburg","PA","Evangelical Community Hospital","1 Hospital Dr","17837",40.979576923933365,-76.8865844487175
"17837","Lewisburg","PA","Evangelical Urgent Care","not_available","17837",40.976959,-76.88772
"17837","Lewisburg","PA","RiverWoods Senior Living Community","15 Ridgecrest Cir","17837",40.97800273028668,-76.88534259807057
"17837","Lewisburg","PA","Albright Care Services","90 Maplewood Dr","17837",40.97671754076792,-76.88615798961109
"17837","Lewisburg","PA","The Eye Center of Central PA â€"" Mifflinburg","88 Hardees Dr","17844",40.9259517,-77.0289646
"17837","Lewisburg","PA","The Eye Center of Central PA â€"" Lewisburg","137 JPM Rd","17837",40.9782821,-76.8925882
"17842","Middleburg","PA","The Eye Center of Central PA â€"" Middleburg","5 Railroad Ave","17842",40.7877442,-77.0411995
"17847","Milton","PA","Geisinger Medical Group","155 S Arch St","17847",41.017659,-76.853675
"17851","Mount Carmel","PA","MICU 93","not_available","17851",40.79854645008817,-76.42926861207465
"17860","Paxinos","PA","Geisinger Shamokin Area Community Hospital","4200 Hospital Rd","17866",40.80570156127939,-76.57031312386184
"17860","Paxinos","PA","geisinger","not_available","17860",40.848934173583984,-76.59835815429688
"17860","Paxinos","PA","shamokin hospital","not_available","17866",40.802491281691374,-76.5712049296538
"17860","Paxinos","PA","Urology Geisinger Shampkin Hosptial","4203 Hospital Rd","17866",40.8057975769043,-76.56707763671875
"17870","Selinsgrove","PA","Selinsgrove Center","Juniper Terrace","17870",40.80829768174466,-76.88151198462161
"17901","Pottsville","PA","Schuylkill Medical Center - East Norwegian St","700 E Norwegian St","17901",40.690648537331185,-76.18824542060977
"17901","Pottsville","PA","Schuylkill Medical Center","420 S Jackson St","17901",40.683592166752064,-76.18826083465272
"17901","Pottsville","PA","Pottsville Hospital","not_available","17901",40.68501473828751,-76.19133295192523
"17901","Pottsville","PA","MedExpress Urgent Care","4 Clover Dr","17970",40.726539749967074,-76.19291866901779
"17901","Pottsville","PA","Pottsville EMS","320 N 9th St","17901",40.684989,-76.204046
"17901","Pottsville","PA","Geisinger Convenient Care Pottsville","529 Terry Reiley Way","17901",40.6901,-76.19685
"17901","Pottsville","PA","Good Sam Hospital","not_available","17970",40.640901,-76.197787
"17901","Pottsville","PA","LVHN ExpressCARE-Schuylkill Medical Plaza","200 Schuylkill Medical Plz","17901",40.681755272254804,-76.18835069444275
"17921","Ashland","PA","St Catherine's Medical Center","101 Broad St","17921",40.76999282836914,-76.32970428466797
"17960","New Ringgold","PA","Penn Mahoning Ambulance Association","1748 W Penn Pike","17960",40.73522900375872,-75.88130481620357
"17961","Orwigsburg","PA","OEMS","500 E Market St","17961",40.65278244018555,-76.09481811523438
"18013","Bangor","PA","LVHN ExpressCARE-Bangor","1337 Blue Valley Dr","18072",40.87442742633575,-75.23455316168896
"18014","Bath","PA","East Allen Township Volunteer Ambulance Corps","4945 Nor Bath Blvd","18067",40.698549,-75.4527
"18015","Bethlehem","PA","St Lukes Hospital Nuclear Medicine","801 Ostrum St","18015",40.60927268875076,-75.39277865964996
"18015","Bethlehem","PA","St Lukes Room 634","not_available","18015",40.609066,-75.383195
"18015","Bethlehem","PA","fairgrounds surgical center allentown pa","not_available","18055",40.57840347290039,-75.34075927734375
"18015","Bethlehem","PA","PPHP 9th Floor","Priscilla Payne Hurd Pavillion","18015",40.60923972465263,-75.39355989745232
"18015","Bethlehem","PA","Allentown State Hospital","Hanover avenue","not_available",40.61662560843853,-75.43148257544921
"18015","Bethlehem","PA","St. Luke's Univ. Hosp & Health Network","SLPG CBO Admin. Offices","18015",40.61365054185768,-75.38308548197267
"18015","Bethlehem","PA","Premiere Urgent Care","29 Main St","18055",40.56821060180664,-75.3396224975586
"18015","Bethlehem","PA","Radiology & X-Ray","Ostrum","18015",40.60878021865098,-75.39386238016314
"18015","Bethlehem","PA","Airport Road Emergicenter","1791 Airport Rd","18109",40.63737484344353,-75.43547383278364
"18015","Bethlehem","PA","St Lukes Behavioral Health","1130 eaton ave","18018",40.63324900481769,-75.39751208133424
"18015","Bethlehem","PA","Reiki by Julie Sadowy","3776 Bittersweet Rd","18034",40.5585967,-75.42701
"18015","Bethlehem","PA","NC 7884","not_available","18020",40.62257318915504,-75.3977644569776
"18015","Bethlehem","PA","St Luke's Easter Parking Spot","Ostrum St","18020",40.60902605,-75.39230631708348
"18017","Bethlehem","PA","Lehigh Valley Hospital - Muhlenberg","1770 Bathgate Rd","18017",40.64518478122189,-75.40889614108097
"18017","Bethlehem","PA","St Luke's Urgent Care Center","153 Brodhead Rd","18017",40.673291486940464,-75.38392413581194
"18017","Bethlehem","PA","Patient First","2310 Schoenersville Road","18017",40.641857,-75.40095
"18017","Bethlehem","PA","LVH-Muhlenberg AUS Waiting Room","not_available","18017",40.645263671875,-75.4087142944336
"18017","Bethlehem","PA","Bethlehem EMS Midtown Station","201 Dewberry Ave","18017",40.641414642333984,-75.37399291992188
"18017","Bethlehem","PA","LVHN - Muhlenburg EMS Break Room","Southgate Cir, Bethlehem, PA 18020","18020",40.645375444021774,-75.40792336502963
"18017","Bethlehem","PA","Good Shepherd Pediatric Rehab","Schoenersville Rd","not_available",40.647748198209364,-75.41021685049944
"18017","Bethlehem","PA","Lehigh Valley Diagnostic Care Center","2545 Schoenersville Rd","18017",40.644893646240234,-75.40868377685547
"18017","Bethlehem","PA","Coordinated Health Bethlehem–2310 Highland Ave. (Bethlehem Hospital)","2310 Highland Ave","18020",40.673188,-75.365826
"18017","Bethlehem","PA","Medic 17 (North Station)","4515 Hanoverville Rd","not_available",40.69158841879282,-75.33986624342636
"18017","Bethlehem","PA","LVHN Anderson Pavilion","not_available","18103",40.679017666956334,-75.43077699067041
"18017","Bethlehem","PA","good shepherd home bethlehem","2855 Schoenersville Rd","18017",40.648208000000004,-75.41000799999999
"18017","Bethlehem","PA","LVPG Hospital Medicine at Muhlenberg","2545 Schoenersville Rd Fl Tower","18017",40.644903,-75.408684
"18017","Bethlehem","PA","St Lukes VNA","1510 Valley Center Pkwy","18017",40.654747009277344,-75.40650939941406
"18018","Bethlehem","PA","St. Luke's Physician Group","Broad St","18018",40.62272361478076,-75.36387374617061
"18018","Bethlehem","PA","Phoenix Contract, Inc.","2741 Belaire Rd","18017",40.64841,-75.40108199999999
"18018","Bethlehem","PA","St Lukes Hospital Surgical Waiting Room","not_available","18018",40.62616971662771,-75.37468954039088
"18018","Bethlehem","PA","LVHN ExpressCARE","2649 Schoenersville Rd Ste 100","18017",40.64604187011719,-75.40782165527344
"18020","Bethlehem","PA","St. Luke's Hospital Anderson Radiology","1600 St Lukes Blvd","18045",40.64917,-75.28804
"18020","Bethlehem","PA","ER","St Luke's Anderson Campus","18045",40.64941119542666,-75.28767499463359
"18020","Bethlehem","PA","Northstar Urgent Care Center","430 Nazareth Pike","18064",40.704299,-75.328896
"18020","Bethlehem","PA","St Lukes Time Clock","not_available","18045",40.64811101716818,-75.28765762651754
"18020","Bethlehem","PA","LVHN ExpressCARE-Bethlehem Township","2101 Emrick Blvd Ste 101C","18020",40.651474660955486,-75.29196475674591
"18020","Bethlehem","PA","ms3","St. Luke's Anderson Campus","18045",40.64873066325719,-75.2865547347189
"18020","Bethlehem","PA","Bethlehem Hospital","2300 Highland Ave","18020",40.67292022705078,-75.3653335571289
"18020","Bethlehem","PA","Sincera Reproductive Medicine - Bethlehem","2591 Baglyos Cir #46","18020",40.6576031,-75.2986468
"18032","Catasauqua","PA","Bunk Room","2342 Pine St","18052",40.646728515625,-75.48086547851562
"18036","Coopersburg","PA","St. Luke’s Upper Bucks Campus","3000 St Lukes Dr","18951",40.444385,-75.375824
"18036","Coopersburg","PA","Medic 141 - UBREMS","2330 Township Rd","18953",40.52350338002026,-75.28851779224995
"18036","Coopersburg","PA","MedExpress Urgent Care","30 S. West End Blvd.","18951",40.442679,-75.35832
"18036","Coopersburg","PA","LVHN ExpressCARE–Richland Township","320 W Pumping Station Rd Ste 3","18951",40.458245,-75.368243
"18037","Coplay","PA","ALS 6794","W Church St.","18080",40.67742406268857,-75.54953589541778
"18040","Easton","PA","Roseberry Surgury Center","185 Roseberry St","08865",40.702003400014746,-75.17830991700299
"18040","Easton","PA","EMS-4","1301 Belvidere Rd","08865",40.71165463798346,-75.17596406830937
"18040","Easton","PA","Forks Urgent Care","1500 Uhler Rd","18040",40.743939000000005,-75.247099
"18040","Easton","PA","Suburban EMS - Forks Station","not_available","18040",40.720852158249585,-75.22454344307675
"18040","Easton","PA","Summit Oaks","not_available","08865",40.70325469970703,-75.17903137207031
"18040","Easton","PA","St Luke's: Warren Campus","125","08865",40.702173020568345,-75.17827002003465
"18042","Easton","PA","St. Luke's Hospital - Anderson Campus","1872 St. Luke's Boulevard","18045",40.698,-75.27342
"18042","Easton","PA","SMG Easton Cardiovascular Assoc. Pc","2001 Fairview Ave","18042",40.68788381702375,-75.24132327006555
"18042","Easton","PA","5th Floor Hallway","250 S 21st St.","18042",40.687153,-75.24268
"18042","Easton","PA","Easton Community Care Center","325 Pine St","18042",40.690581,-75.210348
"18042","Easton","PA","Easton Hospital Cancer Center","not_available","18042",40.687421,-75.242677
"18042","Easton","PA","Praxis","500 Washington St","18042",40.686958000000004,-75.213215
"18042","Easton","PA","Northwood Urgent Care","3729 Easton Nazareth Highway","18064",40.71031798499646,-75.28101076726134
"18042","Easton","PA","Opiate Withdrawal Aid Program","361 Memorial Pkwy #525","08865",40.69584655761719,-75.19039154052734
"18042","Easton","PA","Central Registration","250 S 21st St","18042",40.68701171875,-75.24293518066406
"18042","Easton","PA","Riverside Cancer Center (St. Luke's)","33 N Riverside Dr","18042",40.69485092163086,-75.20552825927734
"18042","Easton","PA","LVHN ExpressCARE-Palmer Township","3701 Corriere Rd Ste 14","18045",40.7126159,-75.279541
"18042","Easton","PA","Health Department","1600 Northampton St","18042",40.689674377441406,-75.23408508300781
"18042","Easton","PA","LVHN Children's ExpressCARE-Palmer Township","3701 Corriere Rd Ste 10","18045",40.7127113,-75.2795333
"18042","Easton","PA","Patient First - Easton","2450 Butler Street","18042",40.68178176879883,-75.24749755859375
"18045","Easton","PA","Nazareth Ambulance","not_available","18064",40.741115750674396,-75.3034904633314
"18049","Emmaus","PA","Emmaus Ambulance Corps","100 N 6th St","18049",40.53525403868341,-75.49786100995927
"18049","Emmaus","PA","LVHN ER Room 28","not_available","18062",40.534532,-75.54309
"18049","Emmaus","PA","Cedar Crest Emergency Room-pod 4","Cedar Crest Blvd","18103",40.55466856196314,-75.54471434889057
"18051","Fogelsville","PA","LVHN ExpressCARE-Fogelsville","1431 Nursery St Ste 101","18051",40.5927769,-75.6318046
"18052","Whitehall","PA","Lehigh Valley Peds","17th & Chew","18052",40.614961,-75.484064
"18052","Whitehall","PA","NC 7881","not_available","18102",40.616638728446404,-75.50472018179536
"18052","Whitehall","PA","St Lukes","not_available","18052",40.63784408569336,-75.48888397216797
"18052","Whitehall","PA","Children's Hospital of Philadelphia - Cardiac Center Allentown","1605 N Cedar Crest Blvd, Suites 117 & 119","18104-2351",40.61492212132917,-75.5316335611145
"18052","Whitehall","PA","Coordinated Health Allentown–1503 N. Cedar Crest Blvd. (Allentown Hospital)","1503 N Cedar Crest Blvd","18104",40.612738,-75.529217
"18054","Green Lane","PA","Warwick Hospital","Green Lane","18054",40.336767,-75.469067
"18058","Kunkletown","PA","Nutrition 1st","1515 Winter Court Suite 201","18330",40.9476326,-75.4602124
"18058","Kunkletown","PA","LVHN ExpressCARE-West End","120 Burrus Blvd","18322",40.925970485906916,-75.38401976548633
"18058","Kunkletown","PA","Brookmont Healthcare","2800 Brookmont Dr","18330",40.92366409301758,-75.42692565917969
"18062","Macungie","PA","ExpressCARE–Macungie","6451 Village Ln","18062",40.52032,-75.566288
"18064","Nazareth","PA","Gracedale Nursing Home","2 Gracedale Ave","18064",40.739720979648546,-75.33745151902565
"18064","Nazareth","PA","Bushkill Station 52 Bay","not_available","18091",40.81202697753906,-75.30597686767578
"18071","Palmerton","PA","palmerton hospital cat-scan department","not_available","18071",40.79992529199149,-75.61172428685471
"18071","Palmerton","PA","palmerton hospital radiology","135 Lafayette Ave","18071",40.802947998046875,-75.61473083496094
"18071","Palmerton","PA","LVHN ExpressCARE-Palmerton","528 Delaware Ave","18071",40.803898152519885,-75.60356988673705
"18071","Palmerton","PA","Carlisle Foot & Ankle Specialists","3295 Forest Inn Rd Ste 4","18071",40.820587158203125,-75.60037231445312
"18080","Slatington","PA","ALS 6793","Church St","18088",40.74956898696813,-75.61585030182894
"18080","Slatington","PA","BLS 6791","Church St","18080",40.76089875649525,-75.62224937369342
"18080","Slatington","PA","palmerton hospital spu","not_available","18088",40.75775909423828,-75.60238647460938
"18080","Slatington","PA","Medic 67 crew room","not_available","18080",40.749533010368225,-75.61558319417927
"18101","Allentown","PA","Dr. Edward Guarino Plastic Surgery","451 W. Chew Street Suite 309","18102",40.6083521,-75.4683784
"18102","Allentown","PA","St. Luke's Hospital Allentown Campus","1736 Hamilton St","18104",40.5959853,-75.4930008
"18102","Allentown","PA","Good Shepherd Rehab Hospital","850 S 5th St","18103",40.59247862845502,-75.4636591327229
"18102","Allentown","PA","Surgical Waiting Room","not_available","18104",40.596012,-75.492546
"18102","Allentown","PA","Lehigh Valley Hospital–17th Street","1627 Chew St","18102",40.60144004973671,-75.49416349321318
"18102","Allentown","PA","St. Luke's Developmental Pediatrics","Webster St","18104",40.597191,-75.4968171
"18102","Allentown","PA","LVHN 3T","17th & Chew","not_available",40.60221862792969,-75.49446105957031
"18102","Allentown","PA","st lukes kids care","union station","not_available",40.60612485071932,-75.48636009939219
"18102","Allentown","PA","LVHN Pediatric Sleep Center","17th Street","not_available",40.601457,-75.493788
"18102","Allentown","PA","ManorCare Health Services - West Allen","535 N 17th St","18104",40.6048013,-75.49549990000001
"18102","Allentown","PA","Drug & Alcohol Rehab Allentown","1314 W Tilghman St","18102",40.608090000000004,-75.489032
"18102","Allentown","PA","Diagnostic Care Center","17th Street","18102",40.60207147137856,-75.49314585746156
"18102","Allentown","PA","LVHN - Simplex Room","17th & Chew Sts.","18102",40.60155436,-75.49433905
"18103","Allentown","PA","Lehigh Valley Hospital - Cedar Crest","1200 S Cedar Crest Blvd","18103",40.56645387396171,-75.52135199720401
"18103","Allentown","PA","LVHN ExpressCARE-Cedar Crest","1101 S Cedar Crest Blvd","18103",40.57283842227881,-75.51921463992207
"18103","Allentown","PA","Lehigh Valley Health Network-EMI","2154 s 12th st","18104",40.571834564208984,-75.4755859375
"18103","Allentown","PA","The Transplant Center Of The Lehigh Valley","1250 S Cedar Crest Blvd","18103",40.56555938720703,-75.52351379394531
"18103","Allentown","PA","LVH-infusion","1240 S Cedar Crest Blvd, Allentown, PA 18103","18103",40.56650034330079,-75.52109693907859
"18103","Allentown","PA","St. Luke's Pediatric Associates","1501  Lehigh St","18103",40.57991,-75.47940799999999
"18106","Allentown","PA","LVHN ExpressCARE-Tilghman","4825 W Tilghman St Ste 101","18104",40.59076006888651,-75.56340481624035
"18106","Allentown","PA","AFC Urgent Care Lower Macungie","780 N Krocks Rd Ste 101","18106",40.5640996,-75.5641048
"18106","Allentown","PA","Westfield Hospital","4815 W Tilghman St","18104",40.590912559556216,-75.56295609396683
"18201","Hazleton","PA","Hazleton General Hospital","700 E Broad St","18201",40.949372477996704,-75.96478341968513
"18201","Hazleton","PA","APTS Dispatch Office.","119 E Holly St","18201",40.956974326054095,-75.97002696579308
"18201","Hazleton","PA","HGH-ER Registration","not_available","18201",40.95221791804118,-75.9674404522486
"18201","Hazleton","PA","Hazleton Urgent Care Center","1525 N Church St","18202",40.98815028351048,-75.9818483993883
"18201","Hazleton","PA","Hazleton Surgical Center","not_available","18202",40.988391,-76.01622
"18201","Hazleton","PA","ExpressCARE–Hazleton Shopping Center (PERMANENTLY RELOCATED)","564 W Broad St","18201",40.95596633831504,-75.98512816712986
"18201","Hazleton","PA","Hazleton St Josephs Medical Center","687 N Church St","18201",40.964931,-75.97523199999999
"18201","Hazleton","PA","At The Time Clock","Hazleton General","18201",40.94875089636384,-75.9654287096688
"18201","Hazleton","PA","HGH Histology Dept","Hazleton","18201",40.94872199554464,-75.96553381637992
"18201","Hazleton","PA","Apts","119 holly st","18201",40.95700516153136,-75.97001996591428
"18201","Hazleton","PA","F-n-B Ambulance","343 W Walnut St, Hazleton, PA 18201","18201",40.95328140258789,-75.98108673095703
"18202","Hazleton","PA","Valley Regional Fire & Rescue.  Fire West","360 Main st.","18219",40.99285692723478,-76.0608832348785
"18210","Albrightsville","PA","Lake Harmony EMS Station #8","not_available","18210",41.030921936035156,-75.60118865966797
"18218","Coaldale","PA","St Lukes Miners Memorial Hospital","not_available","18218",40.82152626684232,-75.9140568170842
"18229","Jim Thorpe","PA","LVHN ExpressCare-Lehighton","363 N 1st St","18235",40.83944,-75.709196
"18229","Jim Thorpe","PA","St Lukes Urgent Care","not_available","18229",40.88078390286144,-75.7268489722453
"18232","Lansford","PA","Lehighton EMS PV station","not_available","18250",40.82567801292914,-75.8650063240026
"18235","Lehighton","PA","The Summit@ Blue Mountain","211 N 12th St","18235",40.83411408064942,-75.7260721754583
"18235","Lehighton","PA","lehighton hospital","not_available","18235",40.82499781345448,-75.70679762250789
"18301","East Stroudsburg","PA","Pocono Medical Center","206 E Brown St Fl 3","18301",40.99319657371231,-75.17527723741702
"18301","East Stroudsburg","PA","St. Lukes Hospital Monroe Campus","not_available","18360",40.99736785888672,-75.26036071777344
"18301","East Stroudsburg","PA","Registration At Pocono Medical Center","not_available","18301",40.99279237308299,-75.17422327479191
"18301","East Stroudsburg","PA","LVHN ExpressCARE-Bartonsville","292 Frantz Rd Ste 102","18360",40.999528,-75.263943
"18301","East Stroudsburg","PA","Rapid Treatment Center @ PMC","206 E Brown St","18301",40.992515563964844,-75.17435455322266
"18301","East Stroudsburg","PA","CVCU @ Pocono Medical Center","East Brown St","not_available",40.99245,-75.175233
"18302","East Stroudsburg","PA","pocono urgent care","Milford Road","not_available",41.049836,-75.111824
"18334","Long Pond","PA","Pocono Raceway Infield First Aid","not_available","18334",41.057682,-75.510016
"18336","Matamoras","PA","Milford Senior Care","not_available","18337",41.34811782836914,-74.74319458007812
"18337","Milford","PA","Milford Urgent Care","111 E Catherine St","18337",41.32249281796061,-74.80134236357387
"18337","Milford","PA","Progressive Health of PA Inc","112 E Harford St","18337",41.32155227661133,-74.80232238769531
"18337","Milford","PA","Blue Ridge Station 2","277 Clove Rd","07827",41.312110900878906,-74.76484680175781
"18346","Pocono Summit","PA","LVHN ExpressCARE-Tobyhanna","100 Community Dr Ste 102","18466",41.1475944,-75.3734588
"18347","Pocono Lake","PA","LVHN ExpressCARE-Blakeslee","5683 Route 115","18610",41.093497,-75.594528
"18350","Pocono Pines","PA","Swordfish Poisoning Victims","I80","18360",41.18857449579827,-75.44014848037214
"18403","Archbald","PA","Mid Valley Hospital","126-198 1st St","18452",41.48133822634023,-75.59571577959906
"18403","Archbald","PA","Ct Waiting Area Mid Valley Hospital","not_available","18452",41.480823,-75.595792
"18403","Archbald","PA","1st South Nurses Station","Main Street","18452",41.48068398620205,-75.59606028763145
"18403","Archbald","PA","Mid Valley Hospital Emergency Room","Hospital St","not_available",41.481436599181954,-75.59592955782851
"18403","Archbald","PA","Station 21","not_available","18403",41.49135381380053,-75.54948750898518
"18407","Carbondale","PA","Station 51","2 Greenfield Rd","18407",41.562800435327496,-75.51962852919482
"18407","Carbondale","PA","Marion Community Hospital","100 Lincoln Ave","18407",41.57133865356445,-75.4960708618164
"18407","Carbondale","PA","Urgent Care","not_available","18407",41.563594090306786,-75.51954651711041
"18411","Clarks Summit","PA","Community Medical Center (CMC)","1800 Mulberry St","18510",41.400526879610695,-75.64628651392505
"18411","Clarks Summit","PA","Geisinger CMC","not_available","18510",41.40047038757115,-75.64673489124927
"18411","Clarks Summit","PA","Moses Taylor Hospital","not_available","18509",41.410544121248265,-75.65146004966618
"18411","Clarks Summit","PA","Regional Hospital Surgery Center","415 Adams Ave","18510",41.410609,-75.65888299999999
"18411","Clarks Summit","PA","Commonwealth Health Moses Taylor Hospital - Emergency Room","700 Quincy Ave","18510",41.4105157,-75.6506849
"18411","Clarks Summit","PA","Commonwealth Health Regional Hospital of Scranton - Emergency Room","746 Jefferson Ave","18510",41.41276931762695,-75.65396881103516
"18411","Clarks Summit","PA","CMC Hospital X-ray Dept.","not_available","18505",41.488418166855915,-75.69606279906566
"18411","Clarks Summit","PA","Lake Scranton Urgent Care","1141 Moosic St #3","18505",41.396488189697266,-75.64851379394531
"18411","Clarks Summit","PA","Clark Summit State Hospital","1451 Hillside Dr","18411",41.481917010096936,-75.736158121981
"18411","Clarks Summit","PA","Express Urgent Care","449 Scranton-Carbondale Hwy","18508",41.4630241394043,-75.65396881103516
"18411","Clarks Summit","PA","Advanced Urgent Care","305 Mulberry St","18503",41.411170959472656,-75.66507720947266
"18414","Dalton","PA","Geisinger Convenient Care Clarks Summit","1020 Northern Blvd","18411",41.48535,-75.6907
"18414","Dalton","PA","Clarks Summit UMC","1310 Morgan Hwy","18411",41.486751556396484,-75.7184829711914
"18424","Gouldsboro","PA","Vista Drive Sanitarium","7065 Vista Dr","18466",41.19868154580714,-75.37524238229327
"18428","Hawley","PA","cmc hospital","not_available","18431",41.560909271240234,-75.24285888671875
"18431","Honesdale","PA","Wayne memorial hospital","601 Park St","18431",41.576474899654094,-75.25975830805858
"18436","Lake Ariel","PA","Jefferson Ambulance","430-438 Pennsylvania 247","18436",41.40941329383966,-75.50367669672404
"18444","Moscow","PA","Regional Hospital Pre-Op","not_available","18512",41.418335,-75.634364
"18444","Moscow","PA","Geisinger CMC Ultrasound Dept.","not_available","18444",41.391363,-75.592117
"18447","Olyphant","PA","St. Joseph's Center","2010 Adams Ave","18509",41.430241863736285,-75.63794466999471
"18466","Tobyhanna","PA","Saving Lives, First Aid & CPR Certification","2205 Overlook Dr","18466",41.2194709777832,-75.36029815673828
"18470","Union Dale","PA","Pleasant Mount Fire/Ambulance","not_available","18470",41.741134,-75.457674
"18503","Scranton","PA","Geisinger Convenient Care Scranton — Cold and Flu Center (Geisinger Convenient Care Scranton)","3 W Olive St","18508",41.41722,-75.6639
"18504","Scranton","PA","I Am Liberatori, LLC","310 Lauer Ave, Suite 1 Suite 1","18504",41.4190587,-75.7045513
"18504","Scranton","PA","3 North","not_available","18508",41.446495056152344,-75.67831420898438
"18504","Scranton","PA","2 South","303","18501",41.445879660841015,-75.67845369598791
"18504","Scranton","PA","dishroom","Morgan Hwy, Scranton, PA","18508",41.446807898206785,-75.6763006946556
"18504","Scranton","PA","Seattle Grace","1402 Washburn St","18504",41.412471000000004,-75.685089
"18508","Scranton","PA","Allied Rehab Services","Jefferson Ave","18510",41.413976843149975,-75.65336556133539
"18508","Scranton","PA","Mighty night sleep fuccking tight","7th floor","18509",41.426944732666016,-75.65374755859375
"18610","Blakeslee","PA","BLS 1762","102 S Lake Dr","18624",41.06074523925781,-75.58960723876953
"18610","Blakeslee","PA","BlS 1760","105 Lake Dr","18624",41.059574127197266,-75.59808349609375
"18612","Dallas","PA","Hospital","not_available","18612",41.325487,-75.95967
"18612","Dallas","PA","Geisinger GI Nutrition","not_available","18704",41.27454269585174,-75.87206942384708
"18612","Dallas","PA","Geisinger. Janet Weis Childrens Hospital","Wells street","18704",41.27559301666667,-75.8753292
"18612","Dallas","PA","On Break At The Truck","575 River St.","18705",41.271297134714914,-75.85983784035456
"18612","Dallas","PA","GWV X-ray Dept.","1000 E Mtn Blvd","18702",41.35221484,-76.03202979000002
"18612","Dallas","PA","Medic 12","273 Union St","18709",41.27714538574219,-75.89152526855469
"18621","Hunlock Creek","PA","Special Care Hospital","not_available","18634",41.1952095304345,-76.0037694721993
"18621","Hunlock Creek","PA","Birchwood Nursing And Rehab  Center","226-298 Christian","18634",41.20438172,-75.99569088
"18629","Mehoopany","PA","Commonwealth Health Tyler Memorial Hospital - Emergency Room","5950 State Route 6","18630",41.61502,-76.05377
"18630","Meshoppen","PA","Tyler Memorial Hospital","5950 SR 6","18657",41.5776770648968,-75.970063857099
"18634","Nanticoke","PA","Oupost 17","not_available","18707",41.156892,-76.01815
"18634","Nanticoke","PA","Wilkes Barre General Hospital room 549","not_available","18706",41.2059292,-75.9763107
"18640","Pittston","PA","Geisinger Wyoming Valley Medical Center","1000 E Mountain Dr","18711",41.256932841371516,-75.80942070614498
"18640","Pittston","PA","Geisinger Hospital","not_available","18705",41.25768890409223,-75.80706876454437
"18640","Pittston","PA","GWV","1000 EAST MTN. BLVD","18702",41.25795137422041,-75.80715114636781
"18640","Pittston","PA","Janet Weis Children's Hospital Tambur NICU (Geisinger Wyoming Valley)","1000 E Mountain Dr, Wilkes-Barre, PA 18702","18702",41.25704574584961,-75.80941772460938
"18640","Pittston","PA","Sunny Ambulance","351 S Main St","18640",41.313646999999996,-75.79834699999999
"18640","Pittston","PA","Geisinger Pearsall Heart Hospital","not_available","18702",41.25830027725688,-75.80793677466562
"18640","Pittston","PA","Comprehensive Pain Management Specialists, LLC","1177 PA-315","18702",41.25994873046875,-75.8185806274414
"18640","Pittston","PA","Geisinger Hospital - Pulmonary Department","1000 East Mountain Blvd","18702",41.25662906957559,-75.8102766512445
"18640","Pittston","PA","Security Dispatch","Pocono Downs, Wilkes-Barre, PA 18702","18702",41.26906533610688,-75.82238095681566
"18640","Pittston","PA","Geisinger Convenient Care Pittston","42 N Main St","18640",41.32405,-75.7896
"18651","Plymouth","PA","WVCHS","not_available","18651",41.242716,-75.959303
"18661","White Haven","PA","The Meadows Nursing and Rehabilitation Center","4 W Center Hill Rd, Dallas, PA 18612","18612",41.20808841863292,-75.90605813090166
"18661","White Haven","PA","Geisinger Convenient Care Mountain Top","35 S Mountain Blvd","18707",41.16153,-75.8878
"18661","White Haven","PA","White Haven Ambulance","not_available","18661",41.05968386144063,-75.77403954998975
"18701","Wilkes Barre","PA","Heratige House","not_available","18701",41.244254,-75.88217
"18701","Wilkes Barre","PA","Geisinger Convenient Care - Kistler Clinic","175 S Wilkes-Barre Blvd","18702",41.24016,-75.8836
"18701","Wilkes Barre","PA","Community Counseling Services","110 S Pennsylvania Ave","18701",41.24140860654797,-75.88218974837747
"18702","Wilkes Barre","PA","VA Medical Center","1111 E End Blvd","18711",41.2483088987494,-75.83714193763974
"18702","Wilkes Barre","PA","Geisinger South Wilkes-Barre","50 Roosevelt Terr","18702",41.23677632452451,-75.90829208682857
"18702","Wilkes Barre","PA","ER","575 N. River St.","18705",41.25745279009618,-75.86653178264
"18702","Wilkes Barre","PA","MedExpress Urgent Care","276 W Side Mall","18704",41.2575492,-75.9029021
"18702","Wilkes Barre","PA","MedExpress Urgent Care","677 Kidder Street","18702",41.24971857841988,-75.8479419350897
"18702","Wilkes Barre","PA","Blood Lab","3rd floor","18702",41.24842444383582,-75.83592193005913
"18702","Wilkes Barre","PA","6 East","575 N River St, Wilkes-Barre, PA 18702","18702",41.258216857910156,-75.8672866821289
"18702","Wilkes Barre","PA","Allied Services Heinz Rehab","150 Mundy St","18702",41.24610035815838,-75.8545216510049
"18702","Wilkes Barre","PA","infectious disease Associates","545 N River St Ste 205","18702",41.25758361816406,-75.8682861328125
"18704","Kingston","PA","6west Geisinger Wyoming Valley","1000 East Mountain Blvd","18722",41.247169494628906,-75.8521728515625
"18704","Kingston","PA","General Hospital Pharmacy","575 N River St","18702",41.258216857910156,-75.8672866821289
"18704","Kingston","PA","Kindred Hospital Wyoming Valley","575 North River Street","18764",41.258216857910156,-75.8672866821289
"18704","Kingston","PA","General Hospital","575 Linden St","18705",41.25506352179911,-75.8601288443951
"18705","Wilkes Barre","PA","Wilkes-Barre VA Hospital Emergency Room","1111 East End Blvd, Wilkes-Barre, PA 18702","18702",41.2523307800293,-75.84024810791016
"18706","Wilkes Barre","PA","Urgent Care Exam Room 1","40 Church St","18702",41.23721634971152,-75.90801484117104
"18706","Wilkes Barre","PA","Urgent Care Waiting Room","not_available","18640",41.237004077938,-75.9080261843396
"18706","Wilkes Barre","PA","GMC","Church St","18706",41.213468,-75.89236
"18706","Wilkes Barre","PA","Trans-Med EMS Room","Mohegan Sun At Casey Plaza","not_available",41.24028241434293,-75.84879764520458
"18801","Montrose","PA","Endless Mountains Health Systems","100 Hospital Dr","18801",41.832337339033515,-75.87282715471235
"18810","Athens","PA","Robert Packer Er","not_available","18840",41.98025,-76.520134
"18810","Athens","PA","Guthrie Air Hangar","100 N Thomas Ave","18840",41.981956481933594,-76.51285552978516
"18821","Great Bend","PA","Great Bend / Hallstead Ambulance","Carroll st.","18821",41.972150802612305,-75.74585616588593
"18840","Sayre","PA","Guthrie Robert Packer Hospital","1 Guthrie Square","18840",41.984896,-76.528441
"18840","Sayre","PA","Guthrie Purchasing","365 Loder St","18840",41.995107,-76.545968
"18847","Susquehanna","PA","Barnes-Kasson Hospital","400 Turnpike St","18847",41.946672004981934,-75.59239496721729
"18847","Susquehanna","PA","Barnes-Kasson ER","2872 Turnpike St","18847",41.94674301147461,-75.59312438964844
"18848","Towanda","PA","Memorial Hospital","not_available","18848",41.78396987915039,-76.4483413696289
"18901","Doylestown","PA","Doylestown Health: Doylestown Hospital","595 West State St","18901",40.30563783999793,-75.14707318720811
"18901","Doylestown","PA","Doylestown Health Urgent Care (Doylestown Health:Urgent Care)","4259 West Swamp Road Suite 108","18902",40.329340980676655,-75.13082027435303
"18901","Doylestown","PA","Doylestown Emergency Department","Hospital Rd","18901",40.306090145846326,-75.1459333819523
"18901","Doylestown","PA","Doylestown Health: Doylestown Hospital Emergency Room","595 W State St","18901",40.305729031410515,-75.14640927314758
"18901","Doylestown","PA","2nd Doylestown Hospital","not_available","18901",40.314947,-75.124678
"18901","Doylestown","PA","Doylestown Health: Donald P. Talenti, MD, FAAP, MAHP","4259 West Swamp Road,Suite 108","18902",40.3293579,-75.13075570000001
"18901","Doylestown","PA","Premier Urgent Care","1745 S Easton Rd","18901",40.272494,-75.126746
"18901","Doylestown","PA","Abington Hosp Tillman Wing","1200 Easton rd","19090",40.38496838333333,-75.14977506666666
"18901","Doylestown","PA","Greenleaf Nursing & Convalescent, Inc.","400 S Main St","18901",40.301982,-75.12930300000001
"18914","Chalfont","PA","Patient First - Montgomeryville","713 Bethlehem Pike","18936",40.249633326251114,-75.24487798874378
"18914","Chalfont","PA","ManorCare Health Services-Montgomeryville","640 Bethlehem Pike","18936",40.25646892,-75.24902758
"18914","Chalfont","PA","New Seasons @ New Britian","80 Manor Dr","18914",40.26800295391705,-75.22383712362102
"18914","Chalfont","PA","Advanced Urgent Care","721 Bethlehem Pike","18936",40.248788,-75.244345
"18914","Chalfont","PA","AFC Urgent Care Warrington","781 Eaton Rd","18976",40.2459807,-75.1677467
"18914","Chalfont","PA","ManorCare Rehab Center","1505 Taylor Rd","19446",40.25739,-75.250077
"18914","Chalfont","PA","Total Performance Physical Therapy","Lower State Road Suite 308","19454",40.237350451404495,-75.19236441667867
"18915","Colmar","PA","Mercy Suburban Hospital Rehab","1970 N Broad St","19446",40.259918212890625,-75.2645492553711
"18930","Kintnersville","PA","Suzanne R. Walski, DVM","4089 Durham Road, Rte 412","18942",40.499629974365234,-75.1809310913086
"18938","New Hope","PA","Riverwoods Urgent Care Center","315 W Riverwoods Dr, New Hope, PA 18938","18938",40.35466384887695,-74.95750427246094
"18938","New Hope","PA","BiomagScience","2621 Holicong Rd","18902",40.338129,-75.050201
"18940","Newtown","PA","St. Clair Medical Building","1203 Newtown Langhorne Rd","not_available",40.21052418734325,-74.93041908926797
"18940","Newtown","PA","Tower Health Urgent Care","2873 S Eagle Rd","18940",40.23500061035156,-74.94117736816406
"18940","Newtown","PA","University of Penn","not_available","18940",40.224246978759766,-74.90154266357422
"18940","Newtown","PA","JK OPTICAL LLC","509 WASHINGTON AVE STE 3","18940",40.2290557,-74.92761589999999
"18940","Newtown","PA","Health Center (Pennswood Village)","not_available","19047",40.20559806390506,-74.93905568812784
"18940","Newtown","PA","Solutions For Daily Living","126 N State St","18940",40.231392,-74.93683399999999
"18940","Newtown","PA","Cosmetic Surgery Specialists","One summit Square 1717 Langhorne-Newtown Rd","19047",40.215660095214844,-74.93013000488281
"18947","Pipersville","PA","Cambridge Point Pleasant","2-156 Cafferty Rd","18947",40.43493926525116,-75.07242858409882
"18951","Quakertown","PA","St. Luke Hospital Quakertown Campus","not_available","18951",40.438545,-75.34903
"18951","Quakertown","PA","GVH Urgent Care","5 Quakers Way","18951",40.423466,-75.345974
"18960","Sellersville","PA","Grand View Hospital","700 Lawn Ave","18960",40.3635461,-75.3261693
"18964","Souderton","PA","Total Performance Physical Therapy","2278 North Penn Road","19440",40.28907012939453,-75.28459930419922
"18974","Warminster","PA","Abington Memorial Health Center, Warminster Campus","225 Newtown Rd","18974",40.18520416776467,-75.07917251754206
"18974","Warminster","PA","Premier Urgent Care","not_available","18974",40.20988082885742,-75.10659790039062
"18974","Warminster","PA","Arden Courts of Warminster","779 W County Line Rd","19040",40.19711898,-75.11187703
"18974","Warminster","PA","Robyn's Hospital","not_available","19040",40.17623376612798,-75.10642290115356
"18974","Warminster","PA","Liberty Urgent Care","401 Horsham Rd","19044",40.18273,-75.13753299999999
"18974","Warminster","PA","Vistek Medical","153 Railroad Dr","18974",40.224473,-75.064141
"18974","Warminster","PA","Warminster Radiology","193-279 Newtown Rd","18974",40.184542,-75.079556
"18974","Warminster","PA","Keystone Medical & Urgent Care","1555 W. Street Road Warminster, PA 18974","18974",40.2203889,-75.12245279999999
"18976","Warrington","PA","Doylestown Hospital MRI","not_available","18917",40.27471197116733,-75.14677675067084
"19001","Abington","PA","Abington Memorial Hospital","1200 Old York Rd","19001",40.11970237579033,-75.11991841954953
"19001","Abington","PA","Abington Hospital Leihart Bldg","not_available","19001",40.11994270282587,-75.11961936950684
"19001","Abington","PA","Patient First - Abington","938 Old York Road","19001",40.108532000000004,-75.123563
"19001","Abington","PA","CareSTAT Urgent Care","1468 Old York Rd","19001",40.123758,-75.1178
"19001","Abington","PA","Abington Hospital Labor and delivery","not_available","19090",40.12684187376316,-75.11718729126132
"19001","Abington","PA","Sincera Reproductive Medicine - Abington","1245 Highland Ave #404","19001",40.1191279,-75.1207323
"19002","Ambler","PA","Brooke Glen Behavioral Hospital","7170 Lafayette Ave","19034",40.13483027335427,-75.21619677266567
"19002","Ambler","PA","abington hospital","Line st","19446",40.21521190907926,-75.20115211194481
"19002","Ambler","PA","Sincera Reproductive Medicine - Fort Washington","467 Pennsylvania Avenue Ste 202","19034",40.1360212,-75.2067909
"19002","Ambler","PA","Temple Ready Care Urgent Care","515 Pennsylvania Ave","19034",40.134514,-75.205738
"19002","Ambler","PA","Girl Interrupted","not_available","19002",40.15559369165743,-75.2200650646828
"19002","Ambler","PA","Dermatology and Skin Care Institute","455 Pennsylvania Avenue Suite 127","19034",40.135987,-75.20806800000001
"19003","Ardmore","PA","Lankenau medical center","100 E Lancaster Ave","19096",39.98895848026767,-75.29273228496972
"19003","Ardmore","PA","Center for Breast Health - Haverford","355 West Lancaster Avenue Lower Level","19041",40.01215,-75.29821
"19003","Ardmore","PA","Teleradiology Solutions","22 Llanfair Rd UNIT 6","19003",40.006954193115234,-75.28425598144531
"19003","Ardmore","PA","Yang Institute of Integrated Medicine","940 Haverford Road, Suite 201","19010",40.0149611,-75.31994519999999
"19003","Ardmore","PA","Orthopedic Surgery Center At Bryn Mawr Hospital","135 S Bryn Mawr Ave","19010",40.01821517944336,-75.32037353515625
"19003","Ardmore","PA","Back Pain Central","100 West Lancaster Ave","19072",40.008880615234375,-75.29335021972656
"19004","Bala Cynwyd","PA","Roxborough Memorial Hospital","5800 Ridge Avenue","19128",40.0289682,-75.2101043
"19004","Bala Cynwyd","PA","Childrens Hospital Of Phila Care Network","Roxbourough","not_available",40.02928288308369,-75.22265195482804
"19004","Bala Cynwyd","PA","Roborough Hospital-Registration Dept.","500 Jamestown St","19128",40.028744,-75.209733
"19004","Bala Cynwyd","PA","Penn Urgent Care LLC","225 E City Ave","19004",40.00564193725586,-75.21944427490234
"19004","Bala Cynwyd","PA","vitas inpatient hospice unit","Fitzgerald Mercy Hospital","not_available",39.99922158816838,-75.2271190824079
"19004","Bala Cynwyd","PA","Roxborough Hospital Mammography Dept.","Jamestown Street","19128",40.02793789875363,-75.20980824928274
"19004","Bala Cynwyd","PA","Not a Fan of Hospitals","not_available","19128",40.02900695800781,-75.20963287353516
"19004","Bala Cynwyd","PA","Belmont Behavioral Health Hospital","4200 Monument Rd","19131",40.0000295,-75.2145607
"19004","Bala Cynwyd","PA","Roxborough Hospital X Ray Dept","ridge ave.","19128",40.0284674,-75.2101593
"19004","Bala Cynwyd","PA","Eastern Region Medical Center","not_available","19131",40.00739641276973,-75.21344949601858
"19004","Bala Cynwyd","PA","Dr. Jeffrey Freeman, Endocrinologist","4190 City Ave","19131",40.00434112548828,-75.21817779541016
"19004","Bala Cynwyd","PA","Mark A. DeBevoise","19 Bala Ave","19004",40.00163650512695,-75.22919464111328
"19006","Huntingdon Valley","PA","Holy Redeemer Hospital","1648 Huntingdon Pike","19046",40.10991582854124,-75.08218591237292
"19006","Huntingdon Valley","PA","Jefferson Outpatient Imaging - Bustleton","9601 Bustleton Ave","19115",40.08702850341797,-75.0352783203125
"19006","Huntingdon Valley","PA","Room3011","not_available","19115",40.09534188231346,-75.05618364968443
"19006","Huntingdon Valley","PA","holy reedemer hospital room 4032","not_available","19006",40.108829498291016,-75.07921600341797
"19006","Huntingdon Valley","PA","Abington Memorial Hospital CSU","not_available","19154",40.09754731256565,-75.01545785791002
"19006","Huntingdon Valley","PA","Five Star Ambulance Co.","73 Tracey Rd","19006",40.121307,-75.042528
"19006","Huntingdon Valley","PA","St. Josephe's Manor. Huntingdon Valley","Huntington Pike","not_available",40.10850143432617,-75.0829086303711
"19007","Bristol","PA","Lower Bucks Hospital","501 Bath Rd","19007",40.1052731,-74.8673542
"19007","Bristol","PA","Home Health Works","1611 Manning Blvd","19057",40.12589645385742,-74.84333038330078
"19007","Bristol","PA","LBH My Hospital Room","not_available","19007",40.10569086151125,-74.86725473274704
"19007","Bristol","PA","Temple Digestive Disease Center","not_available","08016",40.084973,-74.808358
"19007","Bristol","PA","Lower Bucks Hospital 4 North","502 Bath Rd","19007",40.10464859008789,-74.86446380615234
"19007","Bristol","PA","AFC Urgent Care Levittown","173 Levittown Pkwy Ste 24A","19055",40.1427492,-74.8200983
"19007","Bristol","PA","Familiar Roads Home Healthcare Agency, Inc.","1288 Veterans Hwy Ste 3","19056",40.151409,-74.892937
"19008","Broomall","PA","CK Urgent Care at Broomall","30 Lawrence Rd Ste 100","19008",39.975377114288165,-75.3393566608429
"19008","Broomall","PA","Urgent Care","Lawrence Rd","not_available",39.97581625669139,-75.33856748230224
"19008","Broomall","PA","Kindred Hospital Philadelphia - Havertown","2000 Old West Chester Pike","19083",39.975468133462904,-75.33386755827506
"19010","Bryn Mawr","PA","Bryn Mawr Hospital","130 S Bryn Mawr Ave","19010",40.01864137650391,-75.32130841821747
"19010","Bryn Mawr","PA","Premier Urgent Care","635 Conestoga Rd","19085",40.030643463134766,-75.36292266845703
"19010","Bryn Mawr","PA","Bryn Mawr Hospital-Emergency Room","Bryn Mawr","19010",40.018744193437485,-75.32120308308886
"19010","Bryn Mawr","PA","Main Line Women's Healthcare - Rosemont","1030 E. Lancaster Avenue Radnor House 1030 E Lancaster Ave","19010",40.026489,-75.332252
"19010","Bryn Mawr","PA","Women's Healthcare Specialists - Bryn Mawr","830 Old Lancaster Avenue Medical Building North Suite 201","19010",40.019079,-75.32138
"19010","Bryn Mawr","PA","Bryn Mawr Women's Health - Bryn Mawr","130 South Bryn Mawr Avenue Medical Building North Suite 203","19010",40.0194867,-75.3212663
"19010","Bryn Mawr","PA","Bryn Mawr Hosp Pulmonary Maintenance","Bryn Mawr Ave","19010",40.018725,-75.318714
"19010","Bryn Mawr","PA","Bryn Mawr Hospital NCICU","not_available","19041",40.018536561511524,-75.32021568570126
"19010","Bryn Mawr","PA","warden lobby","not_available","19010",40.020106,-75.320884
"19010","Bryn Mawr","PA","Bryn Mawr Women's Health - Rosemont","919 Conestoga Road Building 1 Ste 104","19010",40.025462,-75.3353132
"19010","Bryn Mawr","PA","Bryn Mawr Hospital Founders Building","101 S Bryn Mawr Ave","19010",40.0185432434082,-75.31941223144531
"19010","Bryn Mawr","PA","Buck Family Atrium","Bryn Mawr Hospital","19010",40.01992,-75.321427
"19010","Bryn Mawr","PA","Villanova VEMS","800 E Lancaster Ave","19085",40.03541449461835,-75.33731486990159
"19010","Bryn Mawr","PA","Main Line Perinatal Associates - Bryn Mawr","Bryn Mawr Hospital 130 South Bryn Mawr Avenue 1st, Floor, C-Wing","19010",40.01982879638672,-75.32107543945312
"19012","Cheltenham","PA","Jeanes Hospital","7500 Central Ave","19111",40.070406252154136,-75.08786899386435
"19012","Cheltenham","PA","jeanes hospital heart and surgery center","7600 Central Ave, Philadelphia, PA 19111","19111",40.07051467895508,-75.08824920654297
"19012","Cheltenham","PA","Pre Admission Testing At jeanes Hospital","7600 Central Ave","19111",40.07051467895508,-75.08824920654297
"19012","Cheltenham","PA","Fox Chase Pre Surgical/recovery Waiting Room","333 Cottman Ave","19111",40.07060623168945,-75.09090423583984
"19012","Cheltenham","PA","Jeanes ED","not_available","19111",40.07049706393563,-75.08787936149434
"19012","Cheltenham","PA","Kindred Hospital Philadelphia","6129 Palmetto St","19111",40.04608105,-75.0970445
"19012","Cheltenham","PA","Ladies Room Off The Lobby","Jeanes Hospital","19111",40.07010074410101,-75.08799149715922
"19012","Cheltenham","PA","Elkins Park Hospital","not_available","19027",40.06664,-75.11697
"19013","Chester","PA","Crozer-Chester Medical Center","1 Medical Center Blvd","19013",39.856300168645845,-75.36849616910706
"19013","Chester","PA","Outpatient Registration/Financial service center","1 Medical Center Blvd","not_available",39.85687580009741,-75.36779538546786
"19013","Chester","PA","Ccmc Crisis","Upland, PA","19013",39.85538899898529,-75.36717653274536
"19013","Chester","PA","Crozer Keystone Health System","301 W 15th St","19013",39.85773044009597,-75.36587732449595
"19013","Chester","PA","Crozer Old Main Sunday School","not_available","19013",39.85614,-75.37098
"19013","Chester","PA","Delaware County WIC","Community Hospital","19013",39.83850491009759,-75.38976205884704
"19013","Chester","PA","Crozer Shock Trama","4th Floor West","19013",39.85793737369745,-75.37132534149352
"19013","Chester","PA","Keystone Center ECU","2000 Providence Ave","19013",39.8651548,-75.3617589
"19013","Chester","PA","CarePortMD Express Clinic (CarePortMD Speedy Care)","2224 W 9th St","19013",39.83970167457985,-75.38990552824605
"19013","Chester","PA","MRI Center","Crozer Chester Medical Center","not_available",39.856705305297595,-75.36771194627089
"19013","Chester","PA","Riddle","not_available","19014",39.86227957634713,-75.41482078955443
"19013","Chester","PA","Admissions/Registration","Main lobby","19013",39.85617299641839,-75.36852672784906
"19013","Chester","PA","Main Lobby","Crozer Chester Medical Center","19013",39.85618523171869,-75.36855859517905
"19013","Chester","PA","The Nathan Speare Regional Burn Treatment Center","1st Flr","19013",39.8561641136162,-75.36797245335993
"19014","Aston","PA","MedExpress Urgent Care","4808 Edgmont Ave.","19015",39.876220065428974,-75.39516745767207
"19014","Aston","PA","AFC Urgent Care Aston","5024 Pennell Road","19014",39.866821,-75.427805
"19014","Aston","PA","Riddle Health Care Center 4","not_available","19063",39.83779852243368,-75.44963886644425
"19018","Clifton Heights","PA","Patient First - Springfield","417 Baltimore Pike","19064",39.921088011738355,-75.32182011782265
"19020","Bensalem","PA","Jefferson Torresdale Hospital","10800 Knights Rd","19114",40.07148067,-74.98280208
"19020","Bensalem","PA","Rothman Institute","3300 Tillman Dr","19020",40.113583001438656,-74.96283058677616
"19020","Bensalem","PA","Aria Torresdales Ultrasound Department","Knights and red lion","not_available",40.059028,-74.98298
"19020","Bensalem","PA","Aria Health (Frankford Hospital)","not_available","19124",40.078934836514804,-74.98378398442394
"19020","Bensalem","PA","Bucks County Specialty Hospital","3200 Tillman Ave","19020",40.112901,-74.96278199999999
"19020","Bensalem","PA","Fkd/torres Hospital Room 3382","not_available","19114",40.07192774460214,-74.98254566134281
"19020","Bensalem","PA","The SWaN","12706 Medford Rd","19154",40.101127628850506,-74.96918461994966
"19020","Bensalem","PA","Crozer Chester Medical Center","not_available","19020",40.071605289942276,-74.98110759683038
"19020","Bensalem","PA","Aria Gift Shop","Aria Toresdale Hospital","not_available",40.072251,-74.981155
"19020","Bensalem","PA","Jefferson Urgent Care - Bensalem","2966 Street Rd","19020",40.11305618286133,-74.95692443847656
"19022","Crum Lynne","PA","Pick up from ER","not_available","19078",39.87131516979151,-75.33024311115454
"19023","Darby","PA","Mercy Fitzgerald Hospital","1500 Lansdowne Ave","19023",39.92672829087518,-75.26921153068542
"19023","Darby","PA","Kindred Hospital Delaware County","1500 Lansdowne Ave Ste 6","19023",39.92727775456777,-75.26858202409566
"19026","Drexel Hill","PA","Delaware County Memorial Hospital","501 N Lansdowne Ave","19026",39.954599705271235,-75.28320729732519
"19026","Drexel Hill","PA","DCMH OR Breakroom","not_available","19026",39.954933166503906,-75.2840576171875
"19026","Drexel Hill","PA","Center For Breast Health","2100 Keystone Ave","19026",39.954882,-75.28296999999999
"19026","Drexel Hill","PA","Delaware County Memorial Hospital - Emergency Department","501 N Lansdowne Ave Fl 1","19026",39.95476791350462,-75.28374910354609
"19027","Elkins Park","PA","Einstein / MossRehab-Elkins Park","60 Township Line Rd","19027",40.073214728361776,-75.10586063231632
"19027","Elkins Park","PA","Senior Helpers","7900 Old York Road","19027",40.07469651,-75.13155239
"19030","Fairless Hills","PA","Jefferson Bucks Hospital","380 Oxford Valley Rd","19047",40.18306859,-74.86733711
"19030","Fairless Hills","PA","Galilee Pavilion","21 Penn Valley Rd","19054",40.172249,-74.8313
"19030","Fairless Hills","PA","Aria 3rd Floor","not_available","19030",40.176483154296875,-74.86910247802734
"19030","Fairless Hills","PA","Premier urgent care","not_available","19054",40.177612,-74.828262
"19030","Fairless Hills","PA","Moss Rehab At Aria Health","380 North Oxford Valley Rd","19030",40.18037414550781,-74.8697280883789
"19030","Fairless Hills","PA","Tower Health Urgert Care Levittown","New Falls Road","19054",40.177652,-74.828406
"19030","Fairless Hills","PA","Jefferson Bucks Hospital Emergency Department","380 N Oxford Valley Rd","19047",40.1830358,-74.86747390000001
"19030","Fairless Hills","PA","Patient Care Now Urgent Care","541 S Oxford Valley Rd","19030",40.16892,-74.84893
"19030","Fairless Hills","PA","Aria ER Room 5","By some mall","19056",40.180947,-74.872267
"19031","Flourtown","PA","Abington Urgent Care","1820 Bethlehem Pike","19031",40.11043971688583,-75.21299933084053
"19031","Flourtown","PA","Flourtown Surgical Center","not_available","19031",40.105917,-75.213127
"19033","Folsom","PA","Taylor Hospital","175 E Chester Pike","19078",39.8778707,-75.3202699
"19033","Folsom","PA","Crozer Keystone Milmont Park Family Practice","818 Macdade Blvd","19033",39.881017,-75.339131
"19033","Folsom","PA","Jones Medical Center/ Taylor Hospital","1 Bartol Ave","19078",39.88094711303711,-75.31768035888672
"19033","Folsom","PA","CareSTAT Urgent Care","213 Morton Ave","19033",39.884594,-75.33064499999999
"19033","Folsom","PA","Taylor Hospital - Emergency Department","175 E. Chester Pike, Ground Floor","19078",39.87826919555664,-75.32061004638672
"19035","Gladwyne","PA","Childrens Hospital Of Philadelphia","1-49 Schuylkill Expy","19035",40.06754478333333,-75.30368418333333
"19036","Glenolden","PA","Gail's","19 Benson Dr","19036",39.90296173095703,-75.30252075195312
"19038","Glenside","PA","CHH Ground Floor","not_available","19118",40.079158782958984,-75.21211242675781
"19038","Glenside","PA","Montgomery Rehab Hospital","8601 Stenton Ave","19038",40.0820426940918,-75.20317077636719
"19038","Glenside","PA","Dr. Alyson Nerenberg Psychology Associates, PC","8627 Germantown Ave","19118",40.07743835449219,-75.20848846435547
"19038","Glenside","PA","Chestnut Hill Hospital","8815 Germantown Ave","19118",40.07883071899414,-75.21180725097656
"19038","Glenside","PA","Jefferson Outpatient Imaging - Chestnut Hill","8835 Germantown Ave","19118",40.0792350769043,-75.2121810913086
"19038","Glenside","PA","AFC Urgent Care Cheltenham","2401 W Cheltenham Ave","19095",40.074074,-75.155478
"19038","Glenside","PA","Arlington Memorial Hospital","not_available","19046",40.094064,-75.135004
"19040","Hatboro","PA","Jefferson Urgent Care - Willow Grove","2603 Easton Rd","19090",40.16927315,-75.12607766
"19040","Hatboro","PA","Success TMS - Depression Treatment Specialists","2325 Maryland Rd Ste 140","19090",40.162844,-75.1352884
"19040","Hatboro","PA","RMA of Philadelphia","735 Fitzwatertown Road, Suite 2","19090",40.159554,-75.113667
"19040","Hatboro","PA","Blairwood Building","Abington Memorial Hospital","19090",40.16469449373174,-75.1318344816563
"19047","Langhorne","PA","St Mary Rehab Hospital","1208 Langhorne","19047",40.200682,-74.933719
"19047","Langhorne","PA","St. Mary Medical Center","1201 Langhorne Newtown Road","not_available",40.202208152572055,-74.92462431133646
"19047","Langhorne","PA","St. Clare Medical Center","1201 Newtown-Langhorne Road","19047",40.20265819301697,-74.9250375777667
"19047","Langhorne","PA","Bucks ENT Associates","3 Cornerstone Drive, Suite 703","19047",40.187677779220564,-74.88610447008541
"19047","Langhorne","PA","The Mary's","Route 413","19047",40.202197215765196,-74.92580091838197
"19047","Langhorne","PA","St. Mary Surgery Center","1201 Newtown-Langhorne Road","not_available",40.2023511841779,-74.92464207377218
"19047","Langhorne","PA","St Mary's M R I Suite","1201 Langhorne Newtown Rd","19047",40.2022819519043,-74.92481994628906
"19047","Langhorne","PA","Automated Analytics Services","not_available","19106",40.163952778830335,-74.92901086807251
"19047","Langhorne","PA","Premier Urgent Care","1413 East Lincoln Hwy.","19046",40.1693937339327,-74.89225960591773
"19053","Feasterville Trevose","PA","Patient First - Feasterville","75 E Street Road","19053",40.14894104003906,-75.00061798095703
"19053","Feasterville Trevose","PA","Women's Health Associates of Bucks County","1203 Langhorne-Newtown Road Ste 125","19047",40.202476501464844,-74.92520141601562
"19056","Levittown","PA","lower bucks Radiology- Outpatient","not_available","19056",40.16405487060547,-74.88326263427734
"19060","Garnet Valley","PA","ChristianaCare Center for Urogynecology and Pelvic Surgery at Concord Health Center","161 Wilmington-West Chester Pike","19317",39.84687805175781,-75.53683471679688
"19060","Garnet Valley","PA","ChristianaCare Sports Medicine","161 Wilmington-West Chester Pike 1200","19317",39.84687805175781,-75.53683471679688
"19060","Garnet Valley","PA","Naamans Medical Aid Unit","3401 Brandywine Pkwy","19803",39.83035659790039,-75.53367614746094
"19063","Media","PA","Riddle Hospital","1068 W Baltimore Pike","19063",39.912649960995886,-75.43078268088345
"19063","Media","PA","ManorCare Health Services-Wallingford","115 S Providence Rd","19086",39.89726257324219,-75.3730697631836
"19063","Media","PA","Natale of Elwyn","111 Elwyn Rd","19063",39.90641784667969,-75.4145278930664
"19063","Media","PA","Granite Run OB/GYN Associates - Media","1088 West Baltimore Pike Riddle Memorial Hospital HCC II Ste 2303","19063",39.9118804,-75.430658
"19063","Media","PA","OB/GYN Healthcare Associates at Riddle - Media","1098 West Baltimore Pike Riddle Memorial Hospital HCC 3 Ste 3109","19063",39.9124243,-75.4305026
"19063","Media","PA","Health Care Center III","1068 W Baltimore Pike","not_available",39.912417,-75.431585
"19063","Media","PA","Maternal Fetal Medicine of the Main Line - Media","Riddle Hospital 1068 West Baltimore Pike 3rd floor","19063",39.91421127319336,-75.43000793457031
"19063","Media","PA","Main Line Perinatal Associates - Media","Riddle Hospital 1068 West Baltimore Pike, Floor 3rd 3rd floor","19063",39.912113,-75.430458
"19063","Media","PA","Sterling Nursing","318 S Orange St","19063",39.916277,-75.394127
"19064","Springfield","PA","Springfield Hospital","190 W Sproul Rd","19064",39.92204263216775,-75.3494284992023
"19064","Springfield","PA","PM Pediatrics Springfield PA","527 Baltimore Pike","19064",39.9198896,-75.3245006
"19064","Springfield","PA","Springfield Hospital Acute Care","not_available","19064",39.922079069911575,-75.34906055483502
"19064","Springfield","PA","Eminent Medical Transport","61 S Morton Ave","19070",39.905858,-75.328195
"19064","Springfield","PA","Horsham Clinic Delaware County Partial Hospital","1260 E Woodland Ave","19064",39.909507751464844,-75.33110809326172
"19066","Merion Station","PA","Pre Admissions Testing-Lankenau Hospital","not_available","19096",39.98961,-75.25452
"19066","Merion Station","PA","AFC Urgent Care Narberth","934 Montgomery Ave","19072",40.01153,-75.26093
"19067","Morrisville","PA","Capital Health Regional Medical Center","750 Brunswick Ave","08638",40.2359639,-74.7520604
"19067","Morrisville","PA","Mercer Family Health Center","443 Bellevue Avenue","not_available",40.22900113188768,-74.77697184110241
"19067","Morrisville","PA","Saint Francis Medical Center","601 Hamilton Ave","08629",40.21616475793413,-74.74112216253475
"19067","Morrisville","PA","Trenton EMS HQ","244 Perry St","08618",40.22398360718282,-74.76104664280409
"19067","Morrisville","PA","CHS Education Training Center","752 Brunswick Avenue","08638",40.23752745424606,-74.75131811256995
"19067","Morrisville","PA","Capital Health Print Shop","not_available","08618",40.230154,-74.776706
"19067","Morrisville","PA","Life 795","Bellvue Av.","not_available",40.2290325007259,-74.776936376268
"19067","Morrisville","PA","AfterOurs Urgent Care","1230 Parkway Ave Corporate Center, Suite 203, Suite 203","08628",40.2633439,-74.8001728
"19067","Morrisville","PA","Fuld Campus Dialysis Center","not_available","08638",40.23512222489151,-74.75168209182908
"19073","Newtown Square","PA","Bryn Mawr Women's Health - Newtown Square","3855 West Chester Pike Ste 305","19073",39.9870923,-75.4101762
"19073","Newtown Square","PA","McConnell & Associates OB/GYN - Edgmont","4875 West Chester Pike","19073",39.9757819,-75.44146669999999
"19073","Newtown Square","PA","Home Insured Services, Inc.","90 S Newtown Street Rd #1","19073",39.98306289895282,-75.3985714168266
"19073","Newtown Square","PA","Station 107","newtown ems","19073",39.98764,-75.402016
"19082","Upper Darby","PA","Bethany Pediatrics","7408 W Chester Pike","19082",39.9635877,-75.2691203
"19083","Havertown","PA","AFC Urgent Care Havertown","115 W Eagle Rd","19083",39.985285,-75.314208
"19083","Havertown","PA","careSTAT urgent care","1305 W Chester Pike","19083",39.97367634579674,-75.32107765511482
"19087","Wayne","PA","CHOP Urgent Care, King of Prussia","550 S Goddard Blvd","19406",40.0873588,-75.4078108
"19087","Wayne","PA","Penn Medicine at Valley Forge","1001 Chesterbrook Blvd","19312",40.0642405,-75.46386249999999
"19087","Wayne","PA","Priority Care Urgent Care Center","not_available","19087",40.07264,-75.436613
"19087","Wayne","PA","Patient First - Devon","133 Lancaster Avenue","19333",40.046757,-75.421978
"19087","Wayne","PA","Center for Women's Surgery","120 Valley Green Lane Suite 610","19406",40.0876267,-75.4104878
"19087","Wayne","PA","Axia Women's Health Urogynecology - King of Prussia","120 Valley Green Lane Ste 610","19406",40.0965867,-75.39290670000001
"19087","Wayne","PA","Women's Healthcare Specialists - King of Prussia","583 Shoemaker Road","19406",40.0784808,-75.3593907
"19087","Wayne","PA","PM Pediatrics","101 E. Swedesford Rd., Gateway Shopping Center","19087",40.07253695307759,-75.43634656560049
"19087","Wayne","PA","Main Line OB/GYN - Strafford","85 Old Eagle School Road","19087",40.0487756,-75.4035498
"19087","Wayne","PA","UHS, Inc - Valley Forge Campus","680 American Ave","19406",40.094234466552734,-75.39485168457031
"19087","Wayne","PA","Doctors Best Immediate Medical Care","522A Lancaster Ave","19312",40.047701634020804,-75.4376056732772
"19087","Wayne","PA","Airborne Nightcap","Croton Rd","19087",40.071269641456766,-75.39019463170267
"19087","Wayne","PA","Sincera Reproductive Medicine - King of Prussia","120 Valley Green Lane Suite 620","19406",40.0876267,-75.4104878
"19087","Wayne","PA","Main Line CPR LLC","542 Winston Way","19312",40.062549,-75.447775
"19087","Wayne","PA","Ziering Medical","600 W Dekalb Pike","19406",40.08982849121094,-75.38270568847656
"19090","Willow Grove","PA","AFC Urgent Care Willow Grove","2848 W Moreland Rd","19090",40.1474506,-75.1282567
"19090","Willow Grove","PA","Advanced Urgent Care","126 Easton Rd","19090",40.144459999999995,-75.116457
"19096","Wynnewood","PA","Women for Women OB/GYN - Wynnewood","100 East Lancaster Avenue Medical Office Building West Suite 433","19096",39.9881503,-75.2624347
"19096","Wynnewood","PA","Surgicenter at Lankenau Medical Center","300 E Lancaster Ave Apt 1003","19096",39.988250732421875,-75.25719451904297
"19096","Wynnewood","PA","Nutt House","1820 N 77th St","19151",39.976076,-75.27216700000001
"19096","Wynnewood","PA","Paoli OB/GYN - Wynnewood","100 Lancaster Avenue Lankenau Medical Center South Building, Suite 316","19096",39.9880032,-75.2634923
"19096","Wynnewood","PA","McConnell & Associates OB/GYN - Wynnewood","100 Lancaster Avenue Medical Office Building East Suite 158","19096",39.988485,-75.261595
"19102","Philadelphia","PA","Hahnemann Neuro Lab","Broad and Vine streets","19102",39.95856908333333,-75.16262756666667
"19102","Philadelphia","PA","Patient Management Center","TJUH","not_available",39.94987,-75.1622337
"19102","Philadelphia","PA","Drexel University Surgery Department (College Of Medicine)","219 N Broad St Ste 8","19107",39.9567985534668,-75.16221618652344
"19102","Philadelphia","PA","PCU","not_available","19102",39.956238353845485,-75.16296023436897
"19102","Philadelphia","PA","Variety Of Philadelphia","1520 Locust St Fl 2","19102",39.948299407958984,-75.16719818115234
"19102","Philadelphia","PA","myDoc Urgent Care","1420 Locust St","19102",39.948396,-75.165836
"19102","Philadelphia","PA","Janet Chen, MD","160 E Erie Ave","19134",39.952467541125976,-75.16318917274475
"19103","Philadelphia","PA","Jefferson Urgent Care Rittenhouse","2021 Chestnut St","19103",39.952461,-75.174208
"19103","Philadelphia","PA","Childrens hospital","St. Agnes","19103",39.94818915023508,-75.18256743511101
"19103","Philadelphia","PA","Dotty Epilepsy Center","not_available","19103",39.949715958788126,-75.17573369192154
"19104","Philadelphia","PA","Hospital of the University of Pennsylvania","3400 Spruce St","19104",39.9501477,-75.1938829
"19104","Philadelphia","PA","The Children's Hospital of Philadelphia","3401 Civic Center Blvd","19104",39.9474762,-75.1953724
"19104","Philadelphia","PA","VA Medical Center","3900 Woodland Ave","19104",39.94919411831699,-75.19987106323242
"19104","Philadelphia","PA","Mydoc Urgent Care","3717 Chestnut St","19104",39.955492,-75.197604
"19104","Philadelphia","PA","CHOP Wood Center","34th St","19104",39.948083055324425,-75.19545396873777
"19104","Philadelphia","PA","Presbyterian Hospital Cupp Pavilion","not_available","19104",39.95835922535779,-75.19903375657675
"19104","Philadelphia","PA","Veterans Administration Community Living Center","3301 Civic Center Blvd","19104",39.94658017754899,-75.19776397887382
"19104","Philadelphia","PA","Children's Hospital of Philadelphia PICU","Civic Center Blvd","19104",39.948687871462624,-75.19374888694186
"19104","Philadelphia","PA","Children's Seashore House","3405 Civic Center Blvd","19104",39.94798315733653,-75.19525950963411
"19104","Philadelphia","PA","Penn Medicine","3501 Spruce St.","19104",39.94922051227776,-75.19563090679323
"19104","Philadelphia","PA","Rosenthal Imaging Treatment Center","3900 Spruce St","19104",39.95115661621094,-75.20098876953125
"19104","Philadelphia","PA","Penn Presbyterian- Administrative Offices","51 N 39th St","19104",39.959158,-75.199436
"19104","Philadelphia","PA","CHOP seashore house Sea Garden","Civic Center Blvd","not_available",39.94787,-75.194718
"19104","Philadelphia","PA","Penn Investigational Drug Services","3417 Spruce St","19104",39.95039353400109,-75.19410356849525
"19104","Philadelphia","PA","CHOP","5 W. Civic Center Blvd","19104",39.94879290517759,-75.19349282542508
"19106","Philadelphia","PA","Jefferson Urgent Care - Washington Square","700 Walnut St","19106",39.94784052887229,-75.15333398280882
"19106","Philadelphia","PA","Room 339","800 Spruce St","19107",39.94488247298797,-75.15360605317254
"19106","Philadelphia","PA","3rd Floor CCU","8th","19107",39.94373192385785,-75.15043086339662
"19106","Philadelphia","PA","JeffSTAT","441 N 5th St","19123",39.95908737182617,-75.14666748046875
"19106","Philadelphia","PA","Pennsylvania Hospital Neurolsurgery","not_available","19107",39.947057438378714,-75.15417609841428
"19106","Philadelphia","PA","6th Flr Family Room","8th","08106",39.94390204434121,-75.15320131979735
"19106","Philadelphia","PA","Pennsylvania Wood Clinic","700 Spruce St","19106",39.94271469116211,-75.15177154541016
"19106","Philadelphia","PA","AMR","410 N 8th St","19123",39.958965,-75.152263
"19106","Philadelphia","PA","Jefferson University Hospital Orthopedic Surgery","925 Chestnut St","19107",39.952124,-75.155137
"19106","Philadelphia","PA","vybe urgent care","618 Market St","19106",39.9506518,-75.151457
"19106","Philadelphia","PA","Pennsylvania Plastic Surgery","Suite 506E","not_available",39.94815457209411,-75.15145126350461
"19106","Philadelphia","PA","Pennsylvania Hospital Gastrointestinal Associates, LTD.","230 W Washington Square, Philadelphia, PA 19106","19106",39.9463026838516,-75.15405068863828
"19106","Philadelphia","PA","Pennsylvania Hospital Spd","not_available","19147",39.94531485154968,-75.1548886520623
"19107","Philadelphia","PA","Thomas Jefferson University Hospital","1025 Walnut St","19107",39.94980285368343,-75.15759632649028
"19107","Philadelphia","PA","Pennsylvania Hospital","801 Spruce St Fl 3","19107",39.9459808,-75.1554748
"19107","Philadelphia","PA","Thomas Jefferson University Hospital - Same Day Surgery","111 S 11th St Ste 9410","19107",39.94986,-75.15764
"19107","Philadelphia","PA","Thomas Jefferson University Hospital - Emergency Department","132 S 10th St","19107",39.94922224376822,-75.15732579222023
"19107","Philadelphia","PA","Jefferson University Hospitals - Foerderer Pavilion","117 S 11th St","19107",39.94934747869035,-75.15855967730712
"19107","Philadelphia","PA","Jefferson Division Of Pulmonary And Critical Care Medicine","834 Walnut St Ste 650","19107",39.94786834716797,-75.15538787841797
"19107","Philadelphia","PA","Jefferson Hospital for Neuroscience","900 Walnut St","19107",39.948007321960745,-75.15585954824668
"19107","Philadelphia","PA","RMA of Philadelphia","833 Chestnut Street, Suite C 152","19107",39.95033649759257,-75.15768978229245
"19107","Philadelphia","PA","Jefferson Home infusion","9th and walnut st","19107",39.948916,-75.157043
"19107","Philadelphia","PA","Department Of Radiology CT ER TJUH","10th Street","19107",39.949211,-75.157385
"19111","Philadelphia","PA","Concentra Urgent Care","2010 Levick St","19149",40.03583,-75.071431
"19111","Philadelphia","PA","Elder Care","7770 Dungаn rd","19111",40.060403104976565,-75.08202854543924
"19112","Philadelphia","PA","Room 4027","S Broad St","19109",39.89005,-75.17584
"19112","Philadelphia","PA","Temple ER","not_available","19140",39.90056108772165,-75.17292943421332
"19112","Philadelphia","PA","Gloucester Insane Asylum","not_available","08030",39.882914508725634,-75.18488707834705
"19114","Philadelphia","PA","Epic Urgent Care Center","EPIC PHYSICIANS LLC | URGENT CARE CENTER 8021 Frankford Ave","19136",40.04139466306851,-75.02706795865402
"19114","Philadelphia","PA","The Annex","2451 Grant Ave","19114",40.08042907714844,-75.02639770507812
"19114","Philadelphia","PA","Milestone Comminity Hospice","2801 Grant Ave","19114",40.076065,-75.01689499999999
"19114","Philadelphia","PA","Dr. Richard Spore, MD","9432 Roosevelt Blvd","19115",40.080254,-75.03004
"19114","Philadelphia","PA","Pinnacle Physician Group","3790 Morrell Ave","19114",40.0648878,-74.9873388
"19114","Philadelphia","PA","3B Orthopaedics at Aria","3110 Grant Ave","19114",40.07030712178601,-75.01077934936689
"19115","Philadelphia","PA","Respite Care","7770 Dungan Rd","19111",40.06514610197021,-75.07094163447618
"19119","Philadelphia","PA","dynamic medical urgent care","25 E Walnut Ln","19144",40.04104232788086,-75.17833709716797
"19119","Philadelphia","PA","Betty Ford Clinic","Magnolia St","19144",40.04938497817691,-75.17794143230334
"19120","Philadelphia","PA","Friends Hospital","4641 Roosevelt Blvd","19124",40.026456740898986,-75.10187157400506
"19120","Philadelphia","PA","St Christophers Hospital For Children - Admissions","3601 A St","19134",40.02000563174869,-75.11493507276718
"19120","Philadelphia","PA","Albert Einstein Gratz","W Tabor Rd","not_available",40.036622407777536,-75.13852760740211
"19120","Philadelphia","PA","Jeanes emergency room","not_available","19120",40.04386901855469,-75.1201400756836
"19121","Philadelphia","PA","Philadelphia Nursing Home","2100 W Girard Ave","19130",39.97217757027989,-75.1720772255568
"19121","Philadelphia","PA","All American Hospice","1300 W Jefferson St #200","19122",39.97542953491211,-75.15641021728516
"19121","Philadelphia","PA","St Joseph's Hospital","1600 W Girard Ave","19130",39.97335919635609,-75.16568002213594
"19122","Philadelphia","PA","Afc Urgent Care","180 W Girard Ave","19123",39.969265,-75.13911
"19122","Philadelphia","PA","Goldman Clinic","801 W Girard Ave","19122",39.972432774303314,-75.15029174071796
"19122","Philadelphia","PA","Childrens Hospital Of Phila. Care Network","Roxborough","not_available",39.969784,-75.159162
"19122","Philadelphia","PA","Respite 1","801 girard ave","19122",39.977243,-75.152534
"19122","Philadelphia","PA","Kensington Hospital","138 Diamond St","19122",39.98179626464844,-75.13465881347656
"19123","Philadelphia","PA","Tucker House Nursing and Rehab","1001 Wallace St","19123",39.964417,-75.15430500000001
"19124","Philadelphia","PA","St. Christophers ER","3601 A St","not_available",40.00697514847807,-75.12406918811759
"19124","Philadelphia","PA","Jefferson Frankford Hospital Emergency Department","4900 Frankford Ave","19124",40.019874572753906,-75.0813980102539
"19124","Philadelphia","PA","St. Chriatophers Radiology","not_available","19134",40.00668163020593,-75.12414900952227
"19124","Philadelphia","PA","The Storage Mental Ward","Aramingo Ave","19124",40.00236,-75.07975
"19125","Philadelphia","PA","Episcopal Hospital","100 E Lehigh Ave","19125",39.99025375624452,-75.12923608753587
"19127","Philadelphia","PA","vybe urgent care","6060 Ridge Ave, Ste 100","19128",40.03286933,-75.21490653
"19127","Philadelphia","PA","Fairmount Behavioral Health System","561 Fairthorne Ave","19128",40.043130063133184,-75.22246392241135
"19127","Philadelphia","PA","BioCorRx: Dr. Denis A Boyle, MD","6062 Ridge Ave","19128",40.03308570142672,-75.21510601043701
"19128","Philadelphia","PA","Express Care Roxborough Memorial Urgent Care","8500 Henry Ave","19128",40.06307948503175,-75.23750245571136
"19129","Philadelphia","PA","Pediatric Specialty Care","3301 Scotts Lane","not_available",40.011138916015625,-75.18598175048828
"19129","Philadelphia","PA","Temple University Hospital - Hudson Building","Carlisle Street","19140",40.01495469949031,-75.15950022122705
"19130","Philadelphia","PA","SHM","1500 Spring Garden St","19130",39.962852053406934,-75.16405620884883
"19131","Philadelphia","PA","premier urgent care","2231 Bryn Mawr Ave","19131",39.991769,-75.226128
"19132","Philadelphia","PA","Temple University Hospital","3401 N Broad St","19140",40.004936167665164,-75.1511023085591
"19132","Philadelphia","PA","Parkinson Pavillion, Temple Hospital","North Broad Street","19140",40.006116623810776,-75.15166623291302
"19132","Philadelphia","PA","Temple University Hospital Labor & Delivery","3401 N. Broad Street 3rd Floor Zone A","not_available",40.00507354736328,-75.15132904052734
"19132","Philadelphia","PA","TUH Morgue","N Broad","not_available",40.00453356384705,-75.15063917187355
"19132","Philadelphia","PA","Temple University Hospital - Respiratory Department","N Broad","19140",40.00602263343051,-75.15198141290509
"19133","Philadelphia","PA","CityLife Health","1010 W Lehigh Ave","19133",39.992892,-75.148426
"19134","Philadelphia","PA","Northeastern Hospital","2301 E Allegheny Ave","19134",39.989950296694495,-75.10655881963237
"19134","Philadelphia","PA","St. Christopher's Hospital for Children SCU","Erie Ave.","not_available",40.006248,-75.123967
"19135","Philadelphia","PA","Used Luxury Cars","6175 Harbison Ave #22","19135",40.0269736301179,-75.06214499473572
"19136","Philadelphia","PA","Nazareth Hospital","2601 Holme Ave","19152",40.05907996543453,-75.04253276323446
"19136","Philadelphia","PA","Jefferson Urgent Care - Smylie Times - Jefferson Health","2607 Rhawn St","19152",40.056294,-75.045378
"19136","Philadelphia","PA","Nazareth Hospital ER","not_available","19152",40.059240343501536,-75.04250912593373
"19136","Philadelphia","PA","Nazareth Occupational Therapy","6th floor","not_available",40.057657,-75.042698
"19136","Philadelphia","PA","Club 290","Holme Ave, Philadelphia, PA","19136",40.059506570297366,-75.04206000604545
"19136","Philadelphia","PA","Immaculate Mary Rehabilation Center","2990 Holme Ave","19136",40.05534744262695,-75.02921295166016
"19136","Philadelphia","PA","Nazareth Hospital MRI","Fairfield St","19152",40.05949283,-75.04152044
"19137","Philadelphia","PA","Frankford Hospital","not_available","19135",39.99926878585345,-75.0810281918404
"19138","Philadelphia","PA","Depressed & Stressed","not_available","19138",40.057796478271484,-75.15906524658203
"19138","Philadelphia","PA","Germantown Hospital","1 Penn Blvd","19144",40.040579825087015,-75.15958572494077
"19138","Philadelphia","PA","Albert Einstein Radiology","not_available","19141",40.04387819933,-75.15524777787779
"19138","Philadelphia","PA","LaSalle University-Moss Rehab: Germantown Health Center (Willow Terrace)","not_available","19144",40.040381448879344,-75.15976813270794
"19138","Philadelphia","PA","4South","The Children hospital of Philadelphia","19104",40.0532159962396,-75.15606137473662
"19139","Philadelphia","PA","CHOP","63rd & Cobbs Creek","19082",39.95857812433212,-75.24709423292887
"19139","Philadelphia","PA","CityLife Health","6232 Market St","19139",39.962318420410156,-75.24589538574219
"19139","Philadelphia","PA","MHOP","not_available","19139",39.959753,-75.224837
"19139","Philadelphia","PA","TheKarabotsCenter","4865 Market St","19139",39.959877014160156,-75.21790313720703
"19140","Philadelphia","PA","Temple University Boyer Pavillion","3509 N Broad St","19140",40.00657377459069,-75.15161594566949
"19140","Philadelphia","PA","Shriner's Hospital for Children","3551 N Broad St","19140",40.00713436983716,-75.15119898166267
"19141","Philadelphia","PA","Albert Einstein Medical Center","5501 Old York Rd","19141",40.03699730115885,-75.14381235357946
"19141","Philadelphia","PA","Moss Rehab@Tabor Road","1200 W Tabor Rd","19141",40.03726879226431,-75.14147310083855
"19141","Philadelphia","PA","Albert Einstein Employee Health Center","1303 W Tabor Rd","19141",40.03816223144531,-75.14260864257812
"19141","Philadelphia","PA","Einstein Klein Building","5401","19141",40.0361931860153,-75.14394463357756
"19141","Philadelphia","PA","The Stein","5501 Old York Rd, Philadelphia, PA 19141","19141",40.03678894042969,-75.1432113647461
"19141","Philadelphia","PA","Albert Einstein Hospital","5401 Old York Rd","19141",40.037017822265625,-75.14212799072266
"19143","Philadelphia","PA","Mercy Philadelphia Hospital","501 S 54th St","19143",39.951753079444686,-75.22994225443202
"19143","Philadelphia","PA","The Hospital","4107 Locust St","19104",39.953583,-75.205931
"19143","Philadelphia","PA","Fairmount","615 Fairthorne st","19128",39.94307437182832,-75.23250232558372
"19143","Philadelphia","PA","The Care Pavillion","62nd And Walnut","19143",39.939202,-75.223671
"19143","Philadelphia","PA","DNA Ambulance","not_available","19143",39.94478988647461,-75.21261596679688
"19145","Philadelphia","PA","Methodist Hospital","2301 S Broad St","19148",39.921278789424555,-75.16978243417701
"19145","Philadelphia","PA","AFC Urgent Care South Philly","1444 W Passyunk Ave","19145",39.92534,-75.16995
"19145","Philadelphia","PA","Penn Urgent Care South Philadelphia","Constitution Health Plaza 1930 S. Broad Street, Ground Floor","19145",39.92601013183594,-75.16986083984375
"19145","Philadelphia","PA","Kevin M. Baumlin, MD","1930 South Broad Street, Constitution Health Plaza, Ground Level","19145",39.926446125276705,-75.17036462647742
"19145","Philadelphia","PA","Underwood Memorial Hospital","N Broad St","08096",39.931228933125304,-75.19837680372149
"19145","Philadelphia","PA","O R Launge","not_available","19148",39.921303,-75.169559
"19145","Philadelphia","PA","Methodist Hospital","2301 Broad St","19145",39.922390708174376,-75.18020786105099
"19145","Philadelphia","PA","Jeff 20","1344-1346 Wolf St","19148",39.92142285,-75.16892891666667
"19146","Philadelphia","PA","Tuttleman Center Of Pennsylvania Hospital","1840 South St","19146",39.944761699038565,-75.17335379700638
"19146","Philadelphia","PA","PICC TEAM HUP","3659 Spruce St","19104",39.9490785249503,-75.19529370332512
"19146","Philadelphia","PA","3 South","chop","19104",39.9479596,-75.1949367
"19147","Philadelphia","PA","Pennsylvania Hospital 4th Floor","8th and Spruce St","19104",39.94026,-75.156084
"19147","Philadelphia","PA","Hail Mary Hail Mary Tina Tellado Baptist Church","904 Christian St","19147",39.938832,-75.158013
"19147","Philadelphia","PA","Pennsylvania Hospital lab","8th","19147",39.941871273852335,-75.15787016419182
"19148","Philadelphia","PA","Pennsylvania Hospital Pre-Admission Testing","8th and Spruce St","19148",39.916649,-75.150515
"19148","Philadelphia","PA","First Aid Center","1 Citizens Bank Way","19148",39.90627222440055,-75.16550016403198
"19149","Philadelphia","PA","Paula Run","9921-9947 Bustleton Ave","19115",40.03193708390474,-75.07891803916019
"19152","Philadelphia","PA","Glendale Uptown Home","7800 Bustleton Ave","19152",40.055316,-75.054145
"19153","Philadelphia","PA","Concentra Urgent Care","7000 Holstein Ave","19153",39.9034595,-75.2264592
"19301","Paoli","PA","Paoli Hospital","255 W Lancaster Ave","19301",40.0444805,-75.50224349999999
"19301","Paoli","PA","Emergency Room","255 Lancaster Ave","19301",40.04339178306669,-75.50303744855623
"19301","Paoli","PA","Pavilion@ Paoli Hospital","Paoli Hospital","19301",40.043618374555635,-75.50171065407356
"19301","Paoli","PA","Paoli Hospital Gift Shop","Lancaster Avenue","19355",40.04193878173828,-75.50296783447266
"19301","Paoli","PA","McConnell & Associates OB/GYN - Paoli","11 Industrial Boulevard Paoli Pointe Medical Building Suite 203","19301",40.0441517,-75.4998601
"19301","Paoli","PA","Maternal Fetal Medicine of the Main Line - Paoli","Paoli Hospital 255 West Lancaster Avenue Building I, Suite 109","19301",40.0439893,-75.5014231
"19301","Paoli","PA","Main Line Health Imaging","255 W Lancaster Ave Ste 131","19301",40.044442,-75.502384
"19301","Paoli","PA","Paoli OB/GYN","255 West Lancaster Avenue # 227","19301",40.0444805,-75.5022435
"19301","Paoli","PA","paoli pediatric orthopedics","not_available","19301",40.0421257019043,-75.48991394042969
"19301","Paoli","PA","Main Line OB/GYN - Paoli","4 Industrial Boulevard Ste 110","19301",40.044109,-75.4986431
"19301","Paoli","PA","Center for Breast Health - Paoli","4 Industrial Boulevard Ste 130","19301",40.04404067993164,-75.49859619140625
"19301","Paoli","PA","Paoli Sleep Center","2 Industrial Blvd","19301",40.043087005615234,-75.49819946289062
"19301","Paoli","PA","Rehab","not_available","19023",40.042784913463045,-75.49770175512707
"19301","Paoli","PA","Danielle's Office","Third Floor","not_available",40.039578,-75.491
"19301","Paoli","PA","Women for Women OB/GYN - Malvern","325 Central Avenue Ste 100","19355",40.0413215,-75.5023286
"19301","Paoli","PA","Main Line Perinatal Associates - Paoli","Paoli Hospital 255 West Lancaster Avenue Medical Office Building I, Suite 109","19301",40.0444805,-75.50224349999999
"19310","Atglen","PA","Lancaster General Health Urgent Care","950 S Octorara Trl","19365",39.9801961,-75.9310612
"19311","Avondale","PA","CarePortMD Urgent Care Clinic","851 Gap Newport Pike","19311",39.83532134474705,-75.79864831814488
"19317","Chadds Ford","PA","Recovery Pump, LLC dba: RPSports","9 Lacrue Ave Ste 108","19342",39.88893508911133,-75.52887725830078
"19317","Chadds Ford","PA","OB/GYN Healthcare Associates at Riddle - Glen Mills","1020 Baltimore Pike Suite 220","19342",39.882052,-75.5381328
"19317","Chadds Ford","PA","Granite Run OB/GYN Associates - Glen Mills","1020 Baltimore Pike Ste 220","19342",39.882052,-75.5381328
"19320","Coatesville","PA","VA Medical Center","1400 Blackhorse Hill Rd","19320",39.99797927913472,-75.79657533459641
"19320","Coatesville","PA","Hopital De Gerardmer","22 Bd Khel","19365",39.981529,-75.904322
"19320","Coatesville","PA","Brandywine Hospital ER","201Receeville Rd","19320",40.01048832405311,-75.78525959197093
"19320","Coatesville","PA","Big Daddy's Nutrition","711 East Lancaster Ave.","19335",39.999757,-75.722577
"19320","Coatesville","PA","Westwood EMS 144","not_available","19320",40.005428559392016,-75.82077026582965
"19330","Cochranville","PA","Chester County OB/GYN - West Grove","455 Woodview Road Suite 215","19390",39.8281669,-75.8660133
"19335","Downingtown","PA","Main Line OB/GYN - Exton","495 Thomas Jones Way Baxter Building 2, Suite 210 Bldg 2","19341",40.023058,-75.653263
"19335","Downingtown","PA","Chester County OB/GYN - Downingtown","77 Manor Avenue Ste 200","19335",40.0058361,-75.70664140000001
"19335","Downingtown","PA","Premier Urgent Care","278 Eagleview Blvd","19341",40.055876,-75.66744
"19335","Downingtown","PA","St John Vianney Center","not_available","19335",40.01244191834469,-75.68389002441701
"19335","Downingtown","PA","passion health care services","476 Acorn Ln","19335",40.005210876464844,-75.69293975830078
"19335","Downingtown","PA","AFC Urgent Care Downingtown","150 E Pennsylvania Ave Ste 140","19335",40.0081268,-75.7018851
"19335","Downingtown","PA","Patient First - Downingtown","967 E. Lancaster Avenue","19335",40.0177005,-75.6810188
"19335","Downingtown","PA","Byers Station Dental","241 Byers Rd","19425",40.0783709,-75.6784906
"19341","Exton","PA","Paoli OB/GYN - Exton","153 Exton Square Parkway Main Line Health Center Ste 153","19341",40.031366999999996,-75.625914
"19341","Exton","PA","Paoli Hospital Emergency Room Fast Track","not_available","19341",40.03277296666667,-75.62364816666667
"19348","Kennett Square","PA","Kennett Fire Company","301 Dalmatian St","19348",39.845211284764716,-75.7048747528773
"19348","Kennett Square","PA","Premier Urgent Care","300 Old Forge Ln","19348",39.862024,-75.677863
"19352","Lincoln University","PA","Jennersville Hospital ER","not_available","19390",39.82234239077709,-75.88820260206717
"19352","Lincoln University","PA","Jefferson Outpatient Imaging - West Grove","1015 Old Baltimore Pike","19390",39.82179689,-75.88702498
"19355","Malvern","PA","Premier Care","not_available","19355",40.041092,-75.540596
"19355","Malvern","PA","Malvern Institute","950 W King Rd","19355",40.027977,-75.546437
"19355","Malvern","PA","Mudgil Eye Associates","795 East Marshall Street #103","19380",39.97413390156012,-75.60016900920999
"19355","Malvern","PA","Tower Health Urgent Care","215 Lancaster Ave","19355",40.041267,-75.54037
"19355","Malvern","PA","Chester County OB/GYN - West Chester","915 Old Fern Hill Road Bldg D, 3rd floor, Ste 600","19380",39.9801249,-75.5915353
"19380","West Chester","PA","Chester County Hospital","701 E Marshall St","19380",39.9715912,-75.6019298
"19380","West Chester","PA","Chester County Hospital Community Health and Wellness Services","606 E Marshall St","19380",39.97120666503906,-75.60066223144531
"19380","West Chester","PA","AFC Urgent Care West Chester","510 E Gay St","19380",39.963819,-75.597127
"19380","West Chester","PA","Doctor's Best Immeditate Medical Care","929 S High St","19382",39.942276,-75.589927
"19380","West Chester","PA","Regrouping","not_available","19382",39.952948189734435,-75.59703791551851
"19380","West Chester","PA","Maternal Fetal Medicine of the Main Line - West Chester","780 E. Market Street Suite 105","19380",39.9644443,-75.5915728
"19380","West Chester","PA","Gobel Group","16 W Market St Fl 2","19382",39.959331,-75.604788
"19380","West Chester","PA","Sincera Reproductive Medicine - West Chester","606 East Marshall Street Ste 205","19380",39.9712983,-75.6007125
"19380","West Chester","PA","ICU","Marshall St.","19382",39.96115690818573,-75.54884792490766
"19382","West Chester","PA","Bryn Mawr Rehab Hospital","not_available","19380",39.921873005505375,-75.57851303681478
"19382","West Chester","PA","Chester County Chiropractic & Wellness","14 E Street Rd","19382",39.92182242183927,-75.57503163814545
"19401","Norristown","PA","Suburban Community Hospital","2701 Dekalb Pike","19401",40.13989022764294,-75.3167662286001
"19401","Norristown","PA","Einstein Medical Center Montgomery","559 W Germantown Pike","19403",40.15316562535831,-75.34294874330133
"19401","Norristown","PA","Outpatient Registration Central Schedling","2971 DeKalb pike","19401",40.140243,-75.316113
"19401","Norristown","PA","Suburban Woods","not_available","19401",40.140881699338614,-75.31771711042359
"19401","Norristown","PA","Norristown State Hospital","1001 Sterigere St","19401",40.13361196402994,-75.34960710858678
"19401","Norristown","PA","Patient First - East Norriton","400 East Germantown Pike","19401",40.13765279326856,-75.3074798284421
"19401","Norristown","PA","AEMCM Diagnostic Testing","not_available","19403",40.15287765687116,-75.34379418147928
"19401","Norristown","PA","MCES Station 305","50 Beech St, Norristown, PA 19403","19403",40.136808057324785,-75.3525960398032
"19401","Norristown","PA","Central Montgomery FLECS","1211 Dekalb St","19401",40.122069317649476,-75.3360861210544
"19401","Norristown","PA","Rittenhouse Pine Center","1705 Locust St","19401",40.129356384277344,-75.33131408691406
"19401","Norristown","PA","Center for Total Women's Health - East Norriton","609 Germantown Pike Medical Arts Building Suite 270","19403",40.1530671,-75.343767
"19401","Norristown","PA","PowerBack Norristown","1700 Pine St","19401",40.12979343658509,-75.33043670632345
"19401","Norristown","PA","Food & Nutrition Conference Roo","Formance & Powell","19401",40.12451,-75.33532
"19401","Norristown","PA","Einstein Hospital - Montgomery","557 Germantown Pike","19401",40.153817,-75.344517
"19401","Norristown","PA","Medrescue Ambulance","333 W Lafayette St Ste B","19401",40.11629867553711,-75.34993743896484
"19401","Norristown","PA","My Office","1301 Powell St","19401",40.124534606933594,-75.33635711669922
"19401","Norristown","PA","Einstein Regional Medical Center","539 W Germantown Pike","19403",40.15402793465684,-75.3440343686707
"19403","Norristown","PA","Lower Providence EMS Medic 322","10 Parklane Dr","19403",40.15985107421875,-75.4083480834961
"19403","Norristown","PA","Valley Forge Urgent Care","2521 W Main St","19403",40.141331,-75.387677
"19403","Norristown","PA","2 East","not_available","19426",40.155573402759366,-75.41294280909243
"19403","Norristown","PA","Valley Forge Medical Center & Hospital","1033 W Germantown Pike","19403",40.15857183242552,-75.36736794475749
"19403","Norristown","PA","Main Line Perinatal Associates - Oaks","450 Cresson Boulevard Suite 300, P.O. Box 1109","19456",40.1313323,-75.4499945
"19403","Norristown","PA","Perinatal Testing Center - Oaks","450 Cresson Boulevard Ste 300","19456",40.1313323,-75.4499945
"19406","King Of Prussia","PA","Manorcare Health Services","600 W Valley Forge Rd","19406",40.10387420654297,-75.39344024658203
"19406","King Of Prussia","PA","RMA of Philadelphia","625 Clark Avenue, Suite 17B","19406",40.09726159237959,-75.4027994539874
"19422","Blue Bell","PA","Concentra Urgent Care","850 Germantown Pike","19462",40.12650173262047,-75.29475688934332
"19422","Blue Bell","PA","Plymouth Medic 308","902 Germantown Pike","19462",40.127316,-75.296549
"19422","Blue Bell","PA","on second floor","Mercy Suburban","19401",40.13971364383916,-75.31584805571491
"19426","Collegeville","PA","Einstein Collegeville","1000 Market Street","not_available",40.16672897338867,-75.47933959960938
"19426","Collegeville","PA","Main Line OB/GYN - Collegeville","599 Arcola Road","19426",40.1642551,-75.4745041
"19426","Collegeville","PA","Valley Forge OB/GYN - Collegeville","555 Second Avenue Building G, Suite 200","19426",40.1778735,-75.4577775
"19426","Collegeville","PA","Acute Psych","100 Eagleville Rd","19403",40.156673431396484,-75.4154281616211
"19426","Collegeville","PA","Premier Urgent Care","Ridge Pike","not_available",40.216325328134815,-75.50321861603292
"19426","Collegeville","PA","Paoli OB/GYN - Collegeville","Mainline Health Center 599 Arcola Road Suite 105","19426",40.164446,-75.474525
"19426","Collegeville","PA","Patient First - Collegeville","1411 S. Collegeville Road","19426",40.166697212587344,-75.47339634118744
"19426","Collegeville","PA","Phoenixville Hospital","not_available","19460",40.15382189701694,-75.48731001030434
"19426","Collegeville","PA","Jefferson Outpatient Imaging - Collegeville","534 Second Ave","19426",40.19665043,-75.42774087
"19428","Conshohocken","PA","Main Line Women's Healthcare - Plymouth Meeting","140 W. Germantown Pike Ste 260","19462",40.1050007,-75.2806719
"19428","Conshohocken","PA","Griswold Home Care","120 W Germantown Pike","19462",40.1040826,-75.28028306
"19428","Conshohocken","PA","Mercy Health System","1 W Elm St Ste 100","19428",40.0730344032128,-75.30834461208504
"19428","Conshohocken","PA","Griswold Home Care of Main Line-Delaware County","120 West Germantown Pike","19462",40.1040466,-75.28026179999999
"19428","Conshohocken","PA","YoungerMeMD","100 West Elm Street, Suite 320","19428",40.0737207,-75.30819989999999
"19438","Harleysville","PA","Sincera Reproductive Medicine - Lansdale","1690 Sumneytown Pike # 190","19446",40.243936,-75.339474
"19438","Harleysville","PA","Med A","not_available","19473",40.28777694009428,-75.45136277519514
"19438","Harleysville","PA","Spring Mountain Ski Patrol","757 Spring Mount Road","19478",40.2725715637207,-75.45071411132812
"19440","Hatfield","PA","Lansdale Hospital","not_available","19440",40.28277587890625,-75.27595520019531
"19446","Lansdale","PA","Abington Health Lansdale Hospital","100 Medical Campus Dr","19446",40.25050088535426,-75.27102617905477
"19446","Lansdale","PA","Center for Total Women's Health - Lansdale","1000 Walnut Street Suite 122","19446",40.2511999,-75.2768901
"19446","Lansdale","PA","345 B Bunk Room Of Wonder","not_available","19446",40.240091,-75.303125
"19446","Lansdale","PA","Premier Urgent Care","1551 S Valley Forge Ed","19446",40.230665,-75.31241800000001
"19446","Lansdale","PA","University Of Pennsylvania","not_available","19438",40.24333954326297,-75.29214566071988
"19446","Lansdale","PA","Foot & Ankle Centers","2060 S Valley Forge Rd","19490",40.2052453,-75.3401475
"19446","Lansdale","PA","Dermatology and Skin Care Institute","1240 South Broad Street Suite 200","19446",40.223085,-75.302497
"19460","Phoenixville","PA","Phoenixville Hospital","140 Nutt Rd","19460",40.12353111797491,-75.51595449002201
"19460","Phoenixville","PA","Valley Forge OB/GYN - Phoenixville","799 Gay St","19460",40.124062,-75.516181
"19460","Phoenixville","PA","Micu 85","177 Church St","19460",40.133175,-75.515031
"19460","Phoenixville","PA","Phoenixville Hospital Cath Lab Holding","140 Nutt Rd, Phoenixville, PA 19460","19460",40.1240348815918,-75.51531219482422
"19460","Phoenixville","PA","Maternal Fetal Medicine of the Main Line - Oaks","450 Cresson Boulevard Suite 300","19456",40.1313323,-75.4499945
"19460","Phoenixville","PA","Premier Urgent Care","450 cresson blvd","not_available",40.131362261929986,-75.45029346506412
"19460","Phoenixville","PA","AFC Urgent Care Phoenixville","265 Schuylkill Road","19460",40.1357,-75.54141899999999
"19462","Plymouth Meeting","PA","Tower Health Urgent Care","580 W Germantown Pike","19462",40.117238,-75.28491600000001
"19462","Plymouth Meeting","PA","Crossroads Hospice & Palliative Care","523 Plymouth Rd. Suite 225","19462",40.1114104,-75.2972116
"19464","Pottstown","PA","Pottstown Memorial Medical Center - Emergency Room","1600 E High St, Pottstown, PA 19464","19464",40.24275760729405,-75.61219569240956
"19464","Pottstown","PA","Patient First - Pottstown","119 Shoemaker Road","19464",40.251184,-75.660499
"19464","Pottstown","PA","Center for Total Women's Health - Pottstown","1610 Medical Drive Ste 105","19464",40.2402773,-75.6105343
"19464","Pottstown","PA","Sanatoga Center","225 Evergreen Rd","19464",40.23871994018555,-75.58110809326172
"19464","Pottstown","PA","Port of Spain General Hospital","Charlotte street","19464",40.2563162,-75.63997669999999
"19464","Pottstown","PA","PMMC","not_available","19464",40.242669448264316,-75.61341221609408
"19464","Pottstown","PA","Yong S Shin MD & Associates","1630 E High St., Bldg 4","19464",40.243108,-75.610176
"19464","Pottstown","PA","Healthcare for Women Only","1590 Medical Drive Ste A","19464",40.239278999999996,-75.61224399999999
"19468","Royersford","PA","VA Clinic","11 Independence Dr","19475",40.18803024291992,-75.56542205810547
"19468","Royersford","PA","Valley Forge OB/GYN - Limerick","400 Enterprise Drive Ste 103","19468",40.216281,-75.5521428
"19468","Royersford","PA","Center for Breast Health - Limerick","400 Enterprise Drive Ste 104","19468",40.216182708740234,-75.55196380615234
"19468","Royersford","PA","Friendship Ambulance Medic 325","not_available","19468",40.17942810058594,-75.53643798828125
"19506","Bernville","PA","Penn State Health St. Joseph - Strausstown Urgent Care","44 East Ave","19559",40.493691444751086,-76.17978618594445
"19508","Birdsboro","PA","Exeter EMS","30 Fairlane Rd","19606",40.30540251416276,-75.85311305430928
"19508","Birdsboro","PA","Quick Care—Tower Health Medical Group","3703 Perkiomen Ave","19606",40.317539816427356,-75.87222826862184
"19508","Birdsboro","PA","Reading Hospital Urgent Care Center","not_available","19606",40.30702086545291,-75.8734593095728
"19508","Birdsboro","PA","The Assylum","43-6 Azalea Way","19606",40.30294418334961,-75.87312316894531
"19508","Birdsboro","PA","TRHMC Quick Care","Perkiomen Avenue","19606",40.3264102,-75.8705384
"19512","Boyertown","PA","Tower Health Urgent Care","1139 Ben Franklin Hwy W","19518",40.2617368268966,-75.73008786452071
"19522","Fleetwood","PA","immc-younker 5","5 Younker Ln, Fleetwood, PA 19522","19522",40.47431564331055,-75.85814666748047
"19522","Fleetwood","PA","Reading Hospital Urgent Care","not_available","19610",40.38720035302409,-75.90639843029545
"19533","Leesport","PA","Penn State Health St. Joseph Medical Center","2500 Bernville Rd","19605",40.376138016939024,-75.97917079925537
"19533","Leesport","PA","St Joseph Workcare","not_available","19605",40.37585820956623,-75.97853068602822
"19533","Leesport","PA","Concentra Urgent Care","1114 Commons Blvd","19605",40.40078014006607,-75.95066808169571
"19533","Leesport","PA","St. Joe's Transport (Exeter EMS)","1036 MacArthur Rd","19605",40.37702225905686,-75.97752434007147
"19540","Mohnton","PA","st josephs med ctr room 1084","not_available","19540",40.29241349687344,-76.0076857956669
"19551","Robesonia","PA","Wernersville State Hospital","300 Sportsman Rd","19565",40.33021405552269,-76.10591685307536
"19551","Robesonia","PA","Robesonia Medical Center","not_available","19551",40.34814453125,-76.14250946044922
"19551","Robesonia","PA","35-3","not_available","19565",40.337392,-76.095869
"19560","Temple","PA","MedExpress Urgent Care - Muhlenberg Township","3407 N 5th Street Hwy","19605",40.38544845581055,-75.92713928222656
"19565","Wernersville","PA","Advanced Urgent Care Walk-In Clinic","4631 Penn Ave","19608",40.32717514038086,-76.03726959228516
"19601","Reading","PA","The Reading Hospital Medical Center- N Building","Spruce Street","19611",40.33217577144098,-75.94998836517334
"19601","Reading","PA","St. Joseph's Medical Center","640 Walnut St","19601",40.338298152035215,-75.92447708804507
"19601","Reading","PA","Our Office","not_available","19611",40.33203652560108,-75.94913763392127
"19601","Reading","PA","The Reading Health Dispensary","838 Penn St","19602",40.33502197265625,-75.920654296875
"19601","Reading","PA","DayStar Natural","840 N. Park Road, Ste 105","19610",40.3466468,-75.9595206
"19601","Reading","PA","St Christopher hospital for Children phila pa","not_available","19604",40.350408468581215,-75.91771858727158
"19601","Reading","PA","Reading Hospital Surgry Center","not_available","19601",40.34549633682306,-75.94473354778512
"19601","Reading","PA","Haven Behavioral Hospital of Eastern Pennsylvania","145 N 6th St","19601",40.33790875822806,-75.92548370361328
"19601","Reading","PA","Reading Hospital Employee Parking Lot","319 Greenwich St","19610",40.34084329819646,-75.95360744481644
"19601","Reading","PA","Integrative Living LLC","201 Washington St","19601",40.33614229781434,-75.93307971954346
"19601","Reading","PA","E301","not_available","19508",40.33652317610252,-75.95699743564019
"19604","Reading","PA","Ruang Flamboyant 209","RSUD Cibinong","19612",40.3660341,-75.9136608
"19605","Reading","PA","Patient First - Wyomissing","2600 Paper Mill Road","19610",40.352550324301696,-75.98050664886813
"19605","Reading","PA","Reading Health Rehabilitation Hospital","2802 Papermill Rd","19610",40.36033234405303,-75.98940689241667
"19605","Reading","PA","Spring Ridge Surgical Specialists","2758 Century Blvd Ste 1","19610",40.35855484008789,-75.9880142211914
"19608","Reading","PA","reading hospital Surgi Center","not_available","19608",40.31441116333008,-76.01653289794922
"19608","Reading","PA","Childrens Hospital","423 Penn Ave","not_available",40.32551193237305,-76.01866912841797
"19608","Reading","PA","Podiatry Associates Group, LTD: Jess R. Drezner, DPM (Podiatry Associates Group, LTD)","2209 Quarry Dr B24","19609",40.3418228,-76.0036172
"19610","Reading","PA","Reading HealthPlex For Advanced Surgical & Patient Care","301 S 7th Ave","19611",40.32976065946664,-75.95192514582759
"19610","Reading","PA","The Reading Hospital","Sixth Ave. and Spruce St.","19611",40.33070865902525,-75.95105358614855
"19610","Reading","PA","Reading Hospital Infusion Center","420 S 5th Ave","19611",40.330074310302734,-75.9483413696289
"19610","Reading","PA","RHMC Nuclear Medicine Study","6th","19602",40.33057964202098,-75.94914481583258
