"zip","city","state","name","address","postalCode","lat","lon"
"37010","Adams","TN","Tennova ER Sango","1325 Highway 76","37043",36.52717370584654,-87.21535432653764
"37013","Antioch","TN","American Family Care Nashville South","5826 Nolensville Pike","37211",36.0421,-86.71184
"37013","Antioch","TN","The Little Clinic","6690 Nolensville Pike","37027",36.0003961,-86.6912422
"37013","Antioch","TN","WellNow Urgent Care","not_available","37027",35.9973258972168,-86.69205474853516
"37013","Antioch","TN","Urgent Care","5148A Murfreesboro Rd","37086",36.01982879638672,-86.57758331298828
"37013","Antioch","TN","CareNow Urgent Care","5304 Cane Ridge Rd","37013",36.043793,-86.66111
"37013","Antioch","TN","Easy Mobile Labs, Inc.","149 Space Park S","37211",36.0972900390625,-86.70555114746094
"37013","Antioch","TN","Saint Thomas Medical Partners - GYN Oncology - Nashville","300 20th Ave N","37203",36.03466342844732,-86.66670083999634
"37013","Antioch","TN","mental health institute","not_available","not_available",36.102576486417355,-86.66626085350008
"37013","Antioch","TN","Tennessee Urgent Care Associates","2510 murfreesburo pk","37217",36.07903606666667,-86.643405
"37013","Antioch","TN","Saint Thomas Medical Partners - Neurosurgery - Midtown","2011 Murphy Ave","37203",36.02987413421804,-86.6644263267517
"37013","Antioch","TN","The Little Clinic","463 W Sam Ridley Pkwy","37167",35.98323268357619,-86.55073912157548
"37013","Antioch","TN","Refresh Life Wellness","2711 Murfreesboro Pike Suite 201","37013",36.0706474,-86.6354235
"37015","Ashland City","TN","Health Screening Center EKA Hospital BSD City","Central Business District Lot IX  - BSD CITY","15321",36.36722898475468,-86.96748044330839
"37020","Bell Buckle","TN","Heritage Medical Center","2835 Highway 231 N","37160",35.564009128722205,-86.44859554984549
"37020","Bell Buckle","TN","Tennova Healthcare Shelbyville - Emergency Room","2835 U.S. 231","37160",35.5639167,-86.4484542
"37020","Bell Buckle","TN","Waiting Room","Hwy 231","37160",35.563564532354235,-86.44847256359984
"37027","Brentwood","TN","Physicians Urgent Care","700 Old Hickory Blvd, #207","37027",36.040605,-86.77114519999999
"37027","Brentwood","TN","Saint Thomas Medical Partners - Gynecologic Oncology - Franklin","4323 Carothers Pkwy","37067",35.97324817496422,-86.76892518997192
"37027","Brentwood","TN","AED.com","1001 Flagpole Ct","37027",35.97423553466797,-86.80704498291016
"37027","Brentwood","TN","HCA - Cool Springs","not_available","37067",35.94741147545622,-86.80495226374565
"37027","Brentwood","TN","CareNow Urgent Care","210 Franklin Rd Ste 4-B","37027",36.0328054,-86.787251
"37027","Brentwood","TN","Nashville NeuroCare Therapy Cool Springs","2001 Mallory Ln","37067",35.95157241821289,-86.81890869140625
"37027","Brentwood","TN","M*Modal Inc","5000 Meridian Blvd","37067",35.95074361737708,-86.81080742179923
"37027","Brentwood","TN","Southern Hills Medical Center","Nolensville Rd","not_available",36.035113,-86.757703
"37027","Brentwood","TN","Vanderbilt Children's After-Hours Clinic Brentwood","782 Old Hickory Blvd Ste 203","37027",36.0428136,-86.7794569
"37027","Brentwood","TN","CareNow Urgent Care - Franklin Cool Springs","2017 Mallory Ln","37067",35.95076131477355,-86.81937565583706
"37027","Brentwood","TN","The Little Clinic","210 Franklin Rd","37027",36.031688755331515,-86.78775876163701
"37027","Brentwood","TN","Saint Thomas Medical Partners - Brentwood","791 Old Hickory Blvd","37027",36.0399258,-86.7796932
"37027","Brentwood","TN","Saint Thomas Heart - Gallatin","300 Steam Plant Rd","37066",36.02780909505152,-86.81790232658386
"37029","Burns","TN","TriStar Natchez ER","107 Natchez Park Dr","37055",36.01026275538835,-87.32909381389618
"37029","Burns","TN","Horizon Medical Center","Hwy 70 W, Dickson, TN 37055","37055",36.02331884710418,-87.33770052848945
"37030","Carthage","TN","RRMC Southside Lab","130 Lebanon Hwy, Carthage, TN 37030","37030",36.2588005065918,-85.97216033935547
"37030","Carthage","TN","Smith County Nursing","not_available","37030",36.2621616799888,-85.94885940740603
"37030","Carthage","TN","Fast Pace Health Urgent Care Carthage","573 Carthage Bypass","37030",36.261051177978516,-85.94808197021484
"37030","Carthage","TN","Riverview Regional Medical Center","158 Hospital Dr","37030",36.2635548,-85.9499744
"37030","Carthage","TN","The Renewal Center","Riverview Regional","37030",36.260764380087544,-85.9540126791916
"37030","Carthage","TN","Riverview Regional Medical Center - South Campus","130 Lebanon Hwy","37030",36.2588005065918,-85.97216033935547
"37033","Centerville","TN","Saint Thomas Hickman Hospital","135 E Swan St","37033",35.77957534790039,-87.45893859863281
"37036","Charlotte","TN","Ems Station 2","not_available","37036",36.178117,-87.343592
"37040","Clarksville","TN","Tennova Healthcare - Clarksville","651 Dunlop Ln","37040",36.58174016,-87.27055096
"37040","Clarksville","TN","Blanchfield Hospital","not_available","42223",36.63700409,-87.4463814496994
"37040","Clarksville","TN","Tennessee Orthopaedic Alliance (TOA) - Clarksville","141 Hillcrest Dr","37043",36.51609,-87.30389
"37040","Clarksville","TN","Gateway Hospital Cafeteria","not_available","37040",36.58236430052681,-87.27035548322651
"37040","Clarksville","TN","Vanderbilt Children's Endocrinology Clarksville","800 Weatherly Dr Ste 201","37043",36.57408495013392,-87.28510581916346
"37040","Clarksville","TN","American Family Care","1763 Madison Street","37043",36.51413,-87.31522
"37040","Clarksville","TN","Comprehensive Pain Specialists","495 Dunlop Ln Ste 106","37040",36.58110809326172,-87.27593994140625
"37042","Clarksville","TN","Senior Helpers","601 Kraft St","37040",36.541306,-87.358002
"37042","Clarksville","TN","MCEMS St 21","1101-1151 Peachers Mill Rd","37042",36.57956053114975,-87.39138082992461
"37042","Clarksville","TN","BACH","Joel Dr","42223",36.636800968314994,-87.44679936603151
"37042","Clarksville","TN","Any Lab Test Now","http://maps.google.com/maps/place?hl=en&biw=1166&bih=733&gs_upl=2338l2338l0l4026l1l1l0l0l0l0l137l137l0.1l1l0&um=1&ie=UTF-8&q=An","37040",36.47214989773761,-87.36035227775574
"37042","Clarksville","TN","BACH Womens Health","Joel Dr.","not_available",36.635915,-87.447265
"37043","Clarksville","TN","American Family Care Madison St. Commons","1763 Madison St","37043",36.51447,-87.31497
"37043","Clarksville","TN","CovenantCare Family Medicine & Urgent Care","1011 Highway 76","37043",36.52261915037574,-87.22968751569206
"37043","Clarksville","TN","Gateway Foot and Ankle Center","647 Dunlop Ln #209","37040",36.583438,-87.270276
"37050","Cumberland City","TN","Patients Choice Medical Center","5001 E Main St","37061",36.320219,-87.68954599999999
"37051","Cumberland Furnace","TN","Country Health LLC","1605 New Dry Hollow Rd","37181",36.23555062950767,-87.44919776916504
"37052","Cunningham","TN","Palmyra Health Care","not_available","37142",36.43873596191406,-87.48812866210938
"37055","Dickson","TN","Dickson Health & Rehab","not_available","37055",36.08721279288552,-87.38118177383048
"37055","Dickson","TN","FIRST CALL - HMC","70 EAST","37055",36.07308870209329,-87.37476110458374
"37055","Dickson","TN","The Little Clinic","143 Henslee Dr","37055",36.0762872,-87.3723402
"37058","Dover","TN","Tri county family medicine and urgent care","1406 Donelson Pkwy","37058",36.481117,-87.88601899999999
"37064","Franklin","TN","Williamson Medical Center","4321 Carothers Pkwy","37067",35.91587372707553,-86.81939866219956
"37064","Franklin","TN","Animal health clinic","Eddy lane","not_available",35.924063092460436,-86.85861367286316
"37064","Franklin","TN","Physicians Urgent Care","155 Covey Dr, #100","37067",35.9143815,-86.81943849999999
"37064","Franklin","TN","Williamson Medical Center Outpatient Imaging","4601 Carothers Pkwy","37067",35.917314945381094,-86.8198840808215
"37064","Franklin","TN","Vanderbilt Children's Nephrology Franklin","2105 Edward Curd Ln","37067",35.91790344695677,-86.8197204413741
"37064","Franklin","TN","Vanderbilt Children's Genetics Franklin","2105 Edward Curd Ln Fl 2","37067",35.917884826660156,-86.82003784179688
"37064","Franklin","TN","Encompass Health Rehabilitation Hospital of Franklin","1000 Physicians Way","37067",35.9191178,-86.8192794
"37064","Franklin","TN","Monroe Carell, Jr Children's Hospital Vanderbilt At Williamson Medical Center","2021 Edward Curd Lane","37067",35.91608,-86.82032
"37064","Franklin","TN","Physicians Urgent Care","5021 Hughes Xing Ste 165","37064",35.8637553,-86.8431319
"37064","Franklin","TN","Williamson Medical Center 4th Floor","Williamson Medical Center","37067",35.91650636869301,-86.81962421084893
"37064","Franklin","TN","WMC 3CCU","not_available","37064",35.916486800845554,-86.8195359528064
"37064","Franklin","TN","WMC Cardiac Stepdown (3-m)","WMC","not_available",35.906038,-86.818629
"37066","Gallatin","TN","Summer Regional Homecare And Hospice","575 E Bledsoe St","37066",36.38785934448242,-86.43451690673828
"37066","Gallatin","TN","First Call Ambulance Service","1196 Long Hollow Pike","37066",36.38759401766489,-86.49939058988774
"37066","Gallatin","TN","Gallatin Healthcare","438 N Water Ave","37066",36.39476013183594,-86.44786071777344
"37066","Gallatin","TN","Saint Thomas Medical Partners - SMG - Gallatin - Green Lea Blvd","880 Greenlea Blvd","37066",36.35709762573242,-86.49906158447266
"37066","Gallatin","TN","Sumner Regional Medical Center","100 Steam Plant Rd.","37066",36.38758585295398,-86.45204918539419
"37066","Gallatin","TN","Sumner Regional Hospital","not_available","37066",36.390134583942064,-86.43386129613955
"37066","Gallatin","TN","Gallatin Urgent Care","728 Nashville Pike","37066",36.381221771240234,-86.46578216552734
"37066","Gallatin","TN","WellNow Urgent Care","not_available","37075",36.326007,-86.562975
"37066","Gallatin","TN","Sumner Regional Medical Center","555 Hartsville Pike","37066",36.3907865,-86.4327252
"37066","Gallatin","TN","The Little Clinic","2011 Nashville Pike","37066",36.3438471,-86.5258777
"37067","Franklin","TN","Senior Helpers","109 Holiday Court","37067",35.91665652,-86.82617409
"37067","Franklin","TN","Williamson Medical Nursery","Williamson Medical Center","37201",35.91615494380318,-86.82003117641672
"37069","Franklin","TN","The Little Clinic","8141 State Highway 100","37221",36.04336789302096,-86.95626584685658
"37072","Goodlettsville","TN","CareNow Urgent Care - Madison","2003 Gallatin Pike N","37115",36.3004644,-86.693945
"37072","Goodlettsville","TN","Cornerstone","not_available","37072",36.39775085449219,-86.77439880371094
"37072","Goodlettsville","TN","Rivergate Pet Emergency Clinic","910 Meadowlark Ln","37072",36.298198,-86.702955
"37072","Goodlettsville","TN","Sick As Fook","not_available","37076",36.325513896033684,-86.87700699064806
"37072","Goodlettsville","TN","Cumberland Manor Nursing Center","not_available","37115",36.29158401489258,-86.720947265625
"37072","Goodlettsville","TN","Comfort Sitters","237A Aurora Ave","37115",36.28176562140638,-86.70347929000854
"37072","Goodlettsville","TN","The Little Clinic","123 Northcreek Blvd","37072",36.3263395,-86.6991384
"37072","Goodlettsville","TN","Tennessee Urgent Care Associates","1616 Gallatin Pike N","37115",36.294469,-86.70194401666667
"37073","Greenbrier","TN","Northcrest Medical Center","Northcrest Dr","37172",36.47853891003386,-86.88733455457552
"37073","Greenbrier","TN","Well Now Urgent Care","not_available","37172",36.487527,-86.864417
"37073","Greenbrier","TN","The Little Clinic","2600 Memorial Blvd","37172",36.4883906,-86.8629886
"37074","Hartsville","TN","Trousdale Medical Center","500 Church St","37074",36.3877718,-86.1681024
"37075","Hendersonville","TN","Vanderbilt Children's Gastroenterology Hendersonville","262 New Shackle Island Rd Ste 207","37075",36.32254019919384,-86.62065182978495
"37075","Hendersonville","TN","Sport Ortho Urgent Care - Hendersonville","1047 Glenbrook Way Ste. 110","37075",36.3310332,-86.625599
"37075","Hendersonville","TN","American Family Care Indian Lake","291 Indian Lake Blvd","37075",36.328778,-86.594421
"37075","Hendersonville","TN","HFD Station 1 SCEMS Station 4","173 Luna Ln","37075",36.27975082397461,-86.62036895751953
"37075","Hendersonville","TN","stress free zone","not_available","37167",36.2510260626551,-86.65992526197307
"37075","Hendersonville","TN","Senior Helpers","311 E Main St","37075",36.31061181,-86.59834606
"37075","Hendersonville","TN","CareNow Urgent Care - Hendersonville","280 Indian Lake Blvd Ste 140","37075",36.327803,-86.59347
"37075","Hendersonville","TN","Vanderbilt Eye Institute Tennessee Lions Pediatric Eye Center Hendersonville","305 Indian Lake Blvd Ste 240","37075",36.3306838,-86.5943086
"37075","Hendersonville","TN","Neighbor M.D. Urgent Care","Indian Lake Blvd","37075",36.327884674072266,-86.59359741210938
"37075","Hendersonville","TN","Vanderbilt Children’s Rheumatology Hendersonville","262 Shackle Island Road, Suite 207","37075",36.3224383,-86.6207155
"37075","Hendersonville","TN","Tennessee Comprehensive Lung and Sleep","353 New Shackle Island Rd Ste 140C","37075",36.32155675870964,-86.62030935287476
"37075","Hendersonville","TN","Hendersonville Hospital","355 New Shackle Island Rd","37075",36.3250732421875,-86.62168884277344
"37075","Hendersonville","TN","American Family Care","291 Indian Lake Boulevard","37075",36.32877731323242,-86.59442138671875
"37075","Hendersonville","TN","The Little Clinic","1010 Glenbrook Way","37075",36.3334706,-86.6216807
"37076","Hermitage","TN","BioLife Plasma Services","540 Pleasant Grove Rd","37122",36.177998,-86.516814
"37076","Hermitage","TN","Summit Outpatient Imaging","Old Hickory Blvd","37076",36.17721981590099,-86.60510413187765
"37076","Hermitage","TN","Vanderbilt Children's After-Hours Clinic Mt. Juliet","2025 N Mount Juliet Rd Ste 120","37122",36.19761166885302,-86.51871456764638
"37076","Hermitage","TN","8th Floor CDU — Summit M.C.","5655 Frist Blvd.","37076",36.176009,-86.608056
"37076","Hermitage","TN","CareNow Urgent Care - Mt Juliet","669 S Mount Juliet Rd","37122",36.160648345947266,-86.51525115966797
"37076","Hermitage","TN","Healthcare Clinic","518 Donelson Pike","37214",36.14848327636719,-86.66708374023438
"37076","Hermitage","TN","American Family Care","355 Pleasant Grove Road","37122",36.17634963989258,-86.51358032226562
"37076","Hermitage","TN","Urgent Care at Providence","5002 Crossings Cir Ste 110","37122",36.167205810546875,-86.51722717285156
"37076","Hermitage","TN","NeighborMD Urgent Care","5225 Old Hickory Blvd","37076",36.18794284568678,-86.61460340712738
"37076","Hermitage","TN","health care clinic","not_available","37214",36.1576854439426,-86.62579349311389
"37076","Hermitage","TN","CareNow","5225 Old Hickory Blvd Ste 205","37076",36.187866,-86.614666
"37076","Hermitage","TN","The Hormone Factory","5655 Frist Blvd","37076",36.176761627197266,-86.6080551147461
"37076","Hermitage","TN","Summit Hospital Rehabilitation","3901 Central Pike","37076",36.175537109375,-86.60452270507812
"37076","Hermitage","TN","American Family Care Providence","355 Pleasant Grove Rd #1400","37122",36.1763885,-86.51357829999999
"37076","Hermitage","TN","Saint Thomas Heart - Hermitage","5045 Old Hickory Blvd","37076",36.19279098510742,-86.61802673339844
"37086","La Vergne","TN","American Family Care Smyrna","985 Industrial Blvd","37167",35.9787542,-86.56615560000002
"37086","La Vergne","TN","Stonecrest Out-Patient/Surgery Waiting Room","200 Stonecrest Blvd","37167",35.97511291503906,-86.56514739990234
"37086","La Vergne","TN","Vanderbilt Children's Primary Care Smyrna","515 Stonecrest Pkwy Ste 150","37167",35.97687530517578,-86.56136322021484
"37086","La Vergne","TN","Tennessee Urgent Care","1332 Hazelwood Dr","37167",35.960256,-86.521857
"37086","La Vergne","TN","John R. Burleson, MD","300 StoneCrest Boulevard Suite 200","37167",35.9742747,-86.5660972
"37087","Lebanon","TN","Vanderbilt Wilson County Hospital","1411 West Baddour Parkway","37087",36.22163772583008,-86.32734680175781
"37087","Lebanon","TN","Kids Care Walk-In / Urgent Care Clinic","1029 W Main St Ste O","37087",36.21213912963867,-86.31617736816406
"37087","Lebanon","TN","Lebanon Health and Rehabilitation Center","731 Castle Heights Ct","37087",36.21255834,-86.30975936
"37087","Lebanon","TN","The Surgery Center at UMC","not_available","37087",36.221716255636316,-86.32773069167985
"37087","Lebanon","TN","CareSpot Urgent Care","1705 W Main St, Ste 211","37087",36.222232818603516,-86.34595489501953
"37087","Lebanon","TN","CareNow Urgent Care - Lebanon","1705 W Main St Ste 211","37087",36.2236291,-86.3460251
"37087","Lebanon","TN","University Medical Center","Baddour Parkway","37087",36.221586448880835,-86.32717604849479
"37087","Lebanon","TN","UMC ER","Babb Dr","37087",36.22237,-86.32712
"37087","Lebanon","TN","The Little Clinic","1418 W Main St Ste A","37087",36.2147243,-86.3308201
"37091","Lewisburg","TN","Marshall County Chiropractic Center","1270 W Ellington Pkwy","37091",35.428131103515625,-86.79641723632812
"37091","Lewisburg","TN","Fast Pace Medical","not_available","37091",35.445768,-86.777251
"37091","Lewisburg","TN","Urgent Care","Nashville hwy","38401",35.44604599330908,-86.77710943820593
"37091","Lewisburg","TN","Marshall County Medical","1080 N. Ellington Pkwy","37091",35.46502000000001,-86.7854341693116
"37096","Linden","TN","Perry Community Hospital,LLC","2718 Squirrel Hollow Dr","37096",35.592211999999996,-87.863864
"37101","Mc Ewen","TN","Tennessee Orthopaedic Alliance","451 S,Hwy. 13","37185",36.0122497,-87.7780937
"37110","Mcminnville","TN","River Park Hospital","1559 Sparta Street","37110",35.700130155292676,-85.7425563132552
"37110","Mcminnville","TN","Saint Thomas Medical Partners - Good Samaritan Family Health Center","140 Vocational Technical Dr","37110",35.69981914,-85.74388734
"37110","Mcminnville","TN","Emergency - Ascension Saint Thomas River Park Hospital (Saint Thomas River Park Hospital Emergency Department)","1559 Sparta St","37110",35.699806213378906,-85.74276733398438
"37115","Madison","TN","Skyline Emergency Room","Dickerson Rd.","not_available",36.24582662724447,-86.74990583012622
"37115","Madison","TN","CCU Family Waiting Room","Skyline Medical Center","37115",36.245760380914064,-86.74893715096248
"37115","Madison","TN","Sarah Cannon Cancer Center Waiting Room.","not_available","37203",36.202891545321066,-86.69258809858077
"37115","Madison","TN","Skyline Madison Campus- Social Work/Therapist Hub","510 Hospital Drive-Ground Floor","37115",36.255165100097656,-86.68199157714844
"37115","Madison","TN","Skyline Madison Campus-Treatment Mall-Ground Floor","500 Hospital Dr","37115",36.25448989868164,-86.68204498291016
"37115","Madison","TN","Ems District 1","broadmoor","37207",36.22921407222748,-86.75673186779022
"37115","Madison","TN","Station 31","224 Madison St","37115",36.25893308333333,-86.71566724777222
"37115","Madison","TN","skyline medical plaza fourth floor","3441 Dickerson Pike","37207",36.245269775390625,-86.74954223632812
"37115","Madison","TN","Alive Hospice, Madison Office","510 Hospital Dr Ste 410","37115",36.254688,-86.681987
"37122","Mount Juliet","TN","TriStar Mt. Juliet ER","100 Wilfong Pkwy","37122",36.1754704,-86.4582007
"37122","Mount Juliet","TN","Sport Ortho Urgent Care - Mt. Juliet","5000 Crossings Circle, Suite 101","37122",36.1681082,-86.5172603
"37122","Mount Juliet","TN","The Little Clinic","401 S Mount Juliet Rd","37122",36.165001,-86.511907
"37127","Murfreesboro","TN","Hicks International","805 Bradyville Pike Apt 511","37130",35.83427429199219,-86.38014221191406
"37127","Murfreesboro","TN","M.A. Primary & Urgent Care","not_available","37129",35.835142,-86.409595
"37127","Murfreesboro","TN","Doctors Urgent Care","not_available","37127",35.782465,-86.400574
"37127","Murfreesboro","TN","The Little Clinic","2946 S Church St","37127",35.7905488,-86.4024429
"37128","Murfreesboro","TN","Saint Thomas Rutherford Hospital","1700 Medical Center Pkwy","37129",35.86035692115929,-86.42462702113406
"37128","Murfreesboro","TN","Hometown Family Medical","115 N Thompson Ln","37129",35.848737,-86.43073299999999
"37128","Murfreesboro","TN","Saint Thomas Medical Partners - New Salem","2723 New Salem Hwy","37128",35.809902,-86.460015
"37128","Murfreesboro","TN","Vanderbilt Children's Cardiology Murfreesboro","1155 Kennedy Dr","37129",35.863356849089065,-86.4217901712118
"37128","Murfreesboro","TN","Vanderbilt Children's Hand and Upper Extremity Program Murfreesboro","2102 W Northfield Blvd","37129",35.8685788,-86.4232877
"37128","Murfreesboro","TN","DR. Ccampbell","2656 Rideout Ln","37128",35.842533111572266,-86.44280242919922
"37128","Murfreesboro","TN","Vanderbilt Children's Diabetes Murfreesboro","1155 Kennedy Dr Fl 2","37129",35.86338,-86.42176
"37128","Murfreesboro","TN","Gateway Urgent Care","1574 Medical Center Pkwy #104","37129",35.86119842529297,-86.42048645019531
"37128","Murfreesboro","TN","O. Tom Johns, Jr. M.D.","1800 Medical Center Pkwy,Suite 200","37129",35.86001359999999,-86.4261763
"37128","Murfreesboro","TN","PM Pediatrics","2249 Medical Center Parkway, Suite C & D","37129",35.8573493,-86.4364547
"37128","Murfreesboro","TN","Vanderbilt Children's Maternal Fetal Center Murfreesboro","1155 Kennedy Dr Ste 103","37129",35.8634179,-86.4218849
"37129","Murfreesboro","TN","Alvin C. York VA Hospital","3400 Lebanon Rd","37129",35.91393892099258,-86.38054735261358
"37129","Murfreesboro","TN","WellNow Urgent Care","2445 Memorial Blvd","37129",35.888427734375,-86.38282012939453
"37130","Murfreesboro","TN","Skin pH","447 North Front Street","37130",35.851061,-86.39451700000001
"37130","Murfreesboro","TN","Middle Tennessee Medical Center","400 N. Highland ave","37130",35.84830856323242,-86.38310241699219
"37130","Murfreesboro","TN","CareNow Urgent Care - Murfreesboro","2105 Memorial Blvd Ste B","37129",35.88065719604492,-86.38451385498047
"37130","Murfreesboro","TN","vetrans adminiatration","not_available","37128",35.91576275605521,-86.38086890376405
"37130","Murfreesboro","TN","Vanderbilt Eye Institute Tennessee Lions Pediatric Eye Center Murfreesboro","1821 Heritage Park Plaza, Unit 1 & 2","37129",35.872724809438616,-86.38744533061981
"37130","Murfreesboro","TN","The Little Clinic","2325 Memorial Blvd","37129",35.886647903767035,-86.38445221380698
"37138","Old Hickory","TN","Saint Thomas Heart - Hermitage","4777 Andrew Jackson Pkwy","37076",36.220464,-86.597008
"37148","Portland","TN","Wellnow urgent care","not_available","37148",36.57865137443441,-86.51411019523506
"37148","Portland","TN","Tennessee Christian Medical Center","103 Redbud Dr","37148",36.55718994140625,-86.51109313964844
"37148","Portland","TN","Crossroads Urgent Care","not_available","37188",36.46262437679252,-86.67592991153195
"37148","Portland","TN","TriStar Portland ER","105 Redbud Drive","37148",36.55728287495561,-86.51150286197662
"37148","Portland","TN","Fast Pace Health Urgent Care - White House","607 Highway 76 E","37188",36.46896,-86.671128
"37160","Shelbyville","TN","Glen Oaks Center","not_available","37160",35.50125935,-86.448178
"37160","Shelbyville","TN","Bedford Urgent Care","1612 N Main St","37160",35.483329,-86.459599
"37160","Shelbyville","TN","Christian Care Center","845 Union St","37160",35.49336242675781,-86.4719467163086
"37166","Smithville","TN","Dekalb Community Hospital","301 Riley Ave","37166",35.96146502969206,-85.82946337996339
"37166","Smithville","TN","Kimberly Tabor, DO","518 West Main St , A","37166",35.96006774902344,-85.82955169677734
"37166","Smithville","TN","Saint Thomas DeKalb Hospital","520 W Main St","37166",35.961462,-85.82960200000001
"37174","Spring Hill","TN","TriStar Spring Hill ER","3001 Reserve Blvd","37174",35.733823149548044,-86.91860318183899
"37174","Spring Hill","TN","Maury Regional Urgent Care | North Columbia","2478 Nashville Hwy Ste A","38401",35.7049887,-86.9765476
"37174","Spring Hill","TN","Vanderbilt Children's Pulmonary Medicine Spring Hill","1003 Reserve Blvd Ste 110B","37174",35.73682895196902,-86.89560239369251
"37174","Spring Hill","TN","Maury Regional Urgent Care | Spring Hill","5421 Main St","37174",35.74592,-86.93751
"37174","Spring Hill","TN","American Family Care Spring Hill","2070 Wall St","37174",35.77128,-86.91681
"37174","Spring Hill","TN","American Family Care","2070 Wall Street","37174",35.77128982543945,-86.91681671142578
"37174","Spring Hill","TN","The Little Clinic","4726 Traders Way","37179",35.7851571,-86.9151566
"37183","Wartrace","TN","Urgent Team","1802 N Jackson St","37388",35.382263,-86.22825999999999
"37183","Wartrace","TN","Harton rebab services","not_available","37388",35.383544921875,-86.23185729980469
"37183","Wartrace","TN","First Choice Health - Tullahoma","100 Hunters Ln","37388",35.38639737712983,-86.23196272183117
"37183","Wartrace","TN","Life Care Center Of Tullahoma","1715 North Jackson Street","37388",35.38128091,-86.23023099
"37183","Wartrace","TN","Tennova Healthcare - Harton","1801 N Jackson St","37388",35.382151,-86.2315519
"37188","White House","TN","NP-CLINIC","2759 Highway 31 W Ste 2","37188",36.4540436,-86.6719301
"37189","Whites Creek","TN","Grace Healthcare","1000-1058 Brook Manor Dr","37189",36.23876992,-86.80227117
"37190","Woodbury","TN","Saint Thomas Stones River Hospital","324 Doolittle Rd","37190",35.83253926357419,-86.07220263996801
"37190","Woodbury","TN","Fast Pace Health Urgent Care Woodbury","829 W Main St","37190",35.8271484,-86.08029169999999
"37201","Nashville","TN","Drug & Alcohol Rehab Nashville","901 Commerce St #454","37203",36.15939712524414,-86.78380584716797
"37203","Nashville","TN","Vanderbilt University Medical Center","1211 Medical Center Dr Ste 11234","37232",36.14142621977374,-86.8018912681055
"37203","Nashville","TN","Nashville VA Medical Center","1310 24th Ave S","37212",36.14167845881857,-86.80396835307286
"37203","Nashville","TN","Monroe J. Carell, Jr. Children's Hospital","2200 Childrens Way","37232",36.13934747781059,-86.8024888451692
"37203","Nashville","TN","Saint Thomas Midtown Hospital","2000 Church St","37203",36.154169052823164,-86.80229804847241
"37203","Nashville","TN","The Vanderbilt Clinic","1215 21st Ave S #7209","37232",36.14074505939052,-86.80211740388401
"37203","Nashville","TN","Centennial Medical Center Emergency Room","not_available","37209",36.15430698983993,-86.80931623531436
"37203","Nashville","TN","11 South - Vanderbilt Regional Burn Center","not_available","37212",36.14212520886093,-86.80160898417104
"37203","Nashville","TN","Vanderbilt Emergency Room","1313 21st Ave S","37232",36.141297904398954,-86.80143262845995
"37203","Nashville","TN","Vanderbilt Women's Education and Lactation Center","1215 21st Ave S","37232",36.14173069524354,-86.80118510839748
"37203","Nashville","TN","Premiere Radiology","300 20th Ave N Fl 2","37203",36.15490516474571,-86.80130723511458
"37203","Nashville","TN","Vanderbilt Children's Gastroenterology, Hepatology and Nutrition","2200 Childrens Way Fl 10","37232",36.13937790864335,-86.80247082391367
"37203","Nashville","TN","Centennial Heart And Vascular Center","2300 Patterson St","37203",36.15377247365174,-86.80870841781397
"37203","Nashville","TN","Dr. John Macey","2201 Medical Plaza","37167",36.140926361083984,-86.801513671875
"37203","Nashville","TN","Space Cadet World","22nd Ave S","37212",36.13846957683563,-86.80151402950287
"37204","Nashville","TN","Dr. Ruth to the sick bay, STAT!","not_available","37204",36.11355209350586,-86.77976989746094
"37204","Nashville","TN","Vanderbilt Children's Dermatology","719 Thompson Ln Ste 26300","37204",36.1081757,-86.7638596
"37204","Nashville","TN","Vanderbilt Dialysis Clinic","2906 Foster Creighton Dr Ste 200","37204",36.109878702173695,-86.75269782543182
"37204","Nashville","TN","Nashville Pet Emergency Clinic Inc","2000 12th Ave S","37204",36.13356134413106,-86.78847330147039
"37204","Nashville","TN","Vanderbilt Children's Allergy and Immunology Clinic","719 Thompson Ln Ste 36300","37204",36.1082121,-86.7638309
"37204","Nashville","TN","Monroe Carell Jr. Children's Hospital at Vanderbilt Pediatric Rehabilitation Services","719 Thompson Ln Ste 21000","37204",36.109923,-86.764521
"37204","Nashville","TN","Vanderbilt Children's University Pediatrics","719 Thompson Ln Ste 24500","37204",36.108762,-86.7642691
"37204","Nashville","TN","THA Building","not_available","37210",36.1328005080176,-86.75655555573083
"37204","Nashville","TN","Kindred at Home","1321 Murfreesboro Pike","37217",36.08596266,-86.7491817
"37204","Nashville","TN","Vanderbilt Pediatric Lipid Clinic","719 Thompson Ln Ste 22100","37204",36.1083504,-86.7633204
"37204","Nashville","TN","Release of Nashville","2808 Columbine Place","37204",36.115376,-86.76490199999999
"37205","Nashville","TN","Saint Thomas Hospital West","4220 Harding Pike","37205",36.12836906506522,-86.84486389160156
"37205","Nashville","TN","St Thomas Emergency Room","not_available","37205",36.12895412033808,-86.8430566520912
"37205","Nashville","TN","American Family Care","6606 Charlotte Pike","37209",36.138954162597656,-86.8817367553711
"37205","Nashville","TN","Physicians Urgent Care","6746 Charlotte Pike","37209",36.135689,-86.8877189
"37205","Nashville","TN","St. Thomas Medical Imaging","4230 Old Harding Road","37205",36.134845,-86.844143
"37205","Nashville","TN","Vanguard Health Systems","20 Burton Hills Blvd Ste 100","37215",36.0948,-86.822243
"37205","Nashville","TN","Music City Plastic Surgery of Nashville","3803 Bedford Ave #102","37215",36.10949,-86.82019
"37205","Nashville","TN","Alive Hospice at Saint Thomas Hospital","4220 Harding Road Wing 3 B","37205",36.12924194735645,-86.84548181487197
"37206","Nashville","TN","12 South Community Clinic","905 Main St","37206",36.176631,-86.756404
"37206","Nashville","TN","In A Chicago Free Zone","not_available","37207",36.184044,-86.76686
"37206","Nashville","TN","GreenLight Medical","2115 Yeaman Pl Ste 210","37206",36.1731428,-86.7651559
"37206","Nashville","TN","Nashville Rehabilitation Hospital","1034 W Eastland Ave","37206",36.18335518333333,-86.74983171666666
"37206","Nashville","TN","CareNow Urgent Care - East Nashville","1214 Gallatin Ave Ste 101","37206",36.191619873046875,-86.74568176269531
"37207","Nashville","TN","HealthSpring Building 1","530 Great Circle Rd","37228",36.19688697594869,-86.80787340454333
"37207","Nashville","TN","Saint Thomas Medical Partners - Maplewood","401B Walton Ln","37216",36.23291015625,-86.74922180175781
"37208","Nashville","TN","CareNow Urgent Care - Downtown North Gulch","1020 Dr. M.L.K. Jr Blvd","37203",36.1629486,-86.7898074
"37208","Nashville","TN","Riberio One","not_available","37218",36.19403538834482,-86.83133659238052
"37208","Nashville","TN","Concertra Urgent Clinic","315 14th Ave N, Nashville, TN 37203","37203",36.15987809684984,-86.79367925922335
"37209","Nashville","TN","Tennessee Urgent Care Associates","339 White Bridge Pike","37209",36.147945404052734,-86.85832214355469
"37209","Nashville","TN","Care Spot Express Healthcare","2001 Glen Echo Rd, Nashville, TN 37215","37215",36.108138000000004,-86.811658
"37209","Nashville","TN","Vanderbilt- Work","3071-3083 Vanderbilt Pl","37212",36.14137806666667,-86.81403086666667
"37209","Nashville","TN","Radiation Oncology - Sarah Cannon Cancer Center","2410 Patterson St","37203",36.15291976928711,-86.81104278564453
"37209","Nashville","TN","Tennessee Orthopaedic Alliance (TOA) - Centennial","345 23rd Ave N, Suite 212","37203",36.1550413,-86.8097162
"37209","Nashville","TN","Centennial Medical Center: Park View: 3N Oncology","2405 Parman Place","not_available",36.152809712590475,-86.8109217973877
"37209","Nashville","TN","Centennial Surgical Clinic","356 24th Ave N","37203",36.15468978881836,-86.81024169921875
"37210","Nashville","TN","301 Plus Park blvd","301 Plus Park Blvd","37217",36.12785339355469,-86.72599029541016
"37210","Nashville","TN","Ems Assistant","62-86 Hermitage Ave","37210",36.15545332431793,-86.76642537117004
"37211","Nashville","TN","Tristar Southern Hills Hospital","not_available","37211",36.07685165471723,-86.72263523644227
"37211","Nashville","TN","The Women's Imaging Center at Southern Hills","Recovery Road","37211",36.0875835,-86.7304143
"37211","Nashville","TN","MDC Emergency Clinic","Harding Pl","37211",36.07830315689638,-86.72709110228011
"37212","Nashville","TN","Vanderbilt Children's Otolaryngology - Head and Neck Surgery","2200 Childrens Way Fl 7","37232",36.13938250610957,-86.80249218994965
"37212","Nashville","TN","Vanderbilt Children's Outpatient Pharmacy","2200 Childrens Way Rm 2106","37232",36.13936913886097,-86.80249420958722
"37212","Nashville","TN","Vanderbilt Children's Center for Child Development","2200 Childrens Way Fl 9","37232",36.139434122240615,-86.80250493842328
"37214","Nashville","TN","Instalasi SIMRS RSUD H. Hanafie Muara Bungo","Jln. Teuku Umar No. 88","37214",36.1410253,-86.67118169999999
"37214","Nashville","TN","CareNow Urgent Care - Donelson","2372 Lebanon Pike","37214",36.1697042,-86.6832328
"37215","Nashville","TN","Vision for Life","4230 Harding Pike Suite G6","37205",36.12957950000001,-86.84464480000001
"37215","Nashville","TN","CareNow Urgent Care - Green Hills","4107 Hillsboro Pike","37215",36.10226821899414,-86.81795501708984
"37215","Nashville","TN","Marianne P. Sperry & Associates","5819 Old Harding Pike Ste 205","37205",36.101411999999996,-86.871578
"37215","Nashville","TN","Greenhills Health and Rehabilitation Center","3939 Hillsboro Cir","37215",36.10494032,-86.82025154
"37215","Nashville","TN","The Little Clinic","2131 Abbott Martin Rd","37215",36.10567692462638,-86.8187090994212
"37218","Nashville","TN","Centennial Surgery Center","340 23rd Ave N Fl 2","37203",36.15533138562828,-86.80951026756964
"37221","Nashville","TN","Harpeth Valley Health Center","213 Old Hickory Boulevard","37221",36.0764907,-86.92121039999999
"37221","Nashville","TN","Well Now Urgent Care","not_available","37221",36.07554626464844,-86.92015075683594
"37221","Nashville","TN","The Little Clinic","7087 Highway 70 S","37221",36.073458,-86.919357
"37303","Athens","TN","Woods Memorial Hospital","886 Highway 411 N","37331",35.345470614675286,-84.52293128526492
"37303","Athens","TN","Comprehensive Pain Specialists","623 Congress Parkway South Athens","37303",35.45941925048828,-84.61377716064453
"37303","Athens","TN","AMR Ambulance Station","not_available","37303",35.44385955048112,-84.61544368012396
"37303","Athens","TN","Starr Regional Medical Center - Athens","1114 W Madison Ave","37303",35.441101168857365,-84.60666415894048
"37303","Athens","TN","Athens Regional Rehabilitation Center","425 Old Riceville Rd #1","37303",35.443809509277344,-84.61526489257812
"37303","Athens","TN","Starr Regional Oncology Center","Cook Drive","37303",35.44128,-84.6045
"37303","Athens","TN","McMinn County EMS Station 2","115 County Road 500","37331",35.372474,-84.509957
"37303","Athens","TN","McMinn Memorial Nursing Home And Rehabilitation","not_available","37331",35.34479558815633,-84.52286656896767
"37303","Athens","TN","Fast Pace Health Urgent Care Athens","1019 Decatur Pike","37303",35.45356381,-84.62685268
"37306","Belvidere","TN","Complete Express Care","1211 Dinah Shore Blvd","37398",35.19601271165665,-86.09986558556557
"37306","Belvidere","TN","Ballard Family Medical","100 3rd Ave SE","37398",35.18416213989258,-86.11019897460938
"37306","Belvidere","TN","Southern Tennessee Regional Health System Winchester","185 Hospital Rd.","37398",35.17574362143177,-86.08993756054892
"37306","Belvidere","TN","Southern TN Medical Center","185 Hospital Rd","37398",35.174731403042074,-86.09129818554399
"37306","Belvidere","TN","First Choice Health - Decherd","2006 Decherd Boulevard","37324",35.20803324756965,-86.09387234106356
"37310","Charleston","TN","Skyridge Medical Center Westside Campus","2800 Westside Dr NW","37312",35.19419664875298,-84.88072998591538
"37310","Charleston","TN","AFC Urgent Care Cleveland TN","170 Mouse Creek Rd NW","37312",35.1982084498597,-84.85073516931152
"37310","Charleston","TN","Parkridge Valley Cleveland Outpatient Program","1855 Executive Park NW","37312",35.1982472,-84.8863502
"37310","Charleston","TN","CHI Memorial Convenient Care - Cleveland","645 Paul Huff Pkwy NW Ste 105","37312",35.20965140453248,-84.86209962271045
"37310","Charleston","TN","breakroom@ bhc","not_available","37312",35.18949890136719,-84.87195587158203
"37311","Cleveland","TN","Skyridge Medical Center","2305 Chambliss Ave NW","37311",35.177049668871796,-84.86930626347475
"37311","Cleveland","TN","Temper Temple Waste Disposal","not_available","37323",35.12793358627811,-84.85185280195684
"37311","Cleveland","TN","COMPREHENSIVE PAIN SPECIALISTS","2175 Chambliss Ave NW #D","37311",35.174634,-84.870408
"37311","Cleveland","TN","skyridge Womans Health","Womans Health","37312",35.1767578125,-84.86897277832031
"37311","Cleveland","TN","Skyridge Medical Center Emergency Room","2305 Chambliss Ave NW, Cleveland, TN 37311","37311",35.17728891964978,-84.87014555812144
"37317","Copperhill","TN","Copper Basin Medical Center","144 Medical Center Dr","37317",35.02689586063255,-84.38572109454041
"37321","Dayton","TN","Rhea Medical Center","9400 Rhea County Hwy","37321",35.52918872555384,-84.98222195142225
"37324","Decherd","TN","Emerald-Hodgson Hospital","1260 University Ave","37375",35.2080192565918,-85.91409301757812
"37327","Dunlap","TN","Lebonheur 4th Floor","N. Dunlap","37327",35.371457,-85.390521
"37327","Dunlap","TN","Erlanger Sequatchie Valley","16931 Rankin Ave","37327",35.38745014078642,-85.3795153756914
"37334","Fayetteville","TN","Advanced Family & Urgent Care","4114 Thornton Taylor Pkwy","37334",35.155548095703125,-86.55493927001953
"37334","Fayetteville","TN","Lincoln County Hospital","not_available","37334",35.14964466700597,-86.55538869393921
"37338","Graysville","TN","Hamilton County EMS Medic 2","12906 Dayton Pike","37379",35.325053,-85.134112
"37343","Hixson","TN","AFC Urgent Care Hixson TN","5546 Highway 153 Ste 120","37343",35.14669418334961,-85.24852752685547
"37343","Hixson","TN","CHI Memorial Hospital - Hixson (CHI Memorial Hospital Hixson)","2051 Hamill Rd","37343",35.125084,-85.237674
"37343","Hixson","TN","Soddy Daisy Lifecare","Sequoia Access Road","3737""",35.2331604599007,-85.17423469452172
"37343","Hixson","TN","Memorial North Park Emergency Room","not_available","37415",35.124415743924985,-85.23749528132797
"37343","Hixson","TN","AFC Urgent Care Hixson","5239 Hwy 153","37343",35.125862,-85.2420379
"37347","Jasper","TN","Parkridge West Hospital","1000 Tennessee 28","37347",35.0472050087337,-85.62957108020777
"37347","Jasper","TN","Grandview Medical Center","100 highway 28","37347",35.047061920166016,-85.629638671875
"37347","Jasper","TN","bradley urgent care","not_available","37347",35.04105758666992,-85.67150115966797
"37347","Jasper","TN","Valley Medical Care","980 Tennessee 28","37347",35.0489805,-85.6311613
"37347","Jasper","TN","Fast Pace Health Urgent Care Jasper","4300 Main St","37347",35.0736978,-85.6274584
"37352","Lynchburg","TN","Lynchburg Medical Center","491 Majors Blvd","37352",35.27939631920454,-86.37977926096937
"37352","Lynchburg","TN","Metro Moore County EMS","Elm St N, Lynchburg, Moore County, TN 37352","37352",35.28947601801079,-86.37084048729504
"37354","Madisonville","TN","Wil-Sav Drugs","4249 Highway 411","37354",35.524997,-84.350407
"37354","Madisonville","TN","SHA","not_available","37874",35.605636,-84.465218
"37354","Madisonville","TN","Sweetwater Hospital","304 Wright St","37874",35.601065036871375,-84.46430059727204
"37354","Madisonville","TN","Fast Pace Health Urgent Care Madisonville, TN","4008 Hwy 411","37354",35.5307712,-84.3436329
"37355","Manchester","TN","URMC","not_available","37355",35.46911699230557,-86.08398154656787
"37355","Manchester","TN","Fast Pace Urgent Care","1415 Hillsboro Blvd","37355",35.46930042,-86.07229009
"37355","Manchester","TN","United Regional Medical Center","1001 McArthur St","37355",35.469082128691646,-86.0839072575268
"37356","Monteagle","TN","Mountain Medical Clinic","21 1st Street","37356",35.24096516222798,-85.82857135581969
"37363","Ooltewah","TN","Women's East Pavilion","1751 Gunbarrel Rd","37421",35.02197121573744,-85.16106834149802
"37363","Ooltewah","TN","Hamilton County EMS Medic 3","Discovery Dr","37416",35.073972,-85.145429
"37363","Ooltewah","TN","Erlanger East Emergency Department","1755 Gunbarrel Rd","37421",35.02356067710171,-85.16074475229107
"37363","Ooltewah","TN","Tennessee Podiatry","1720 Gunbarrel Road Ste 204 Ste 204","37421",35.0217901,-85.1594348
"37363","Ooltewah","TN","Erlanger Breast Center","Gunbarrell Road","37421",35.022227,-85.160959
"37363","Ooltewah","TN","Parkridge Valley Adult & Senior Campus","7351 Courage Way","37421",35.053668,-85.14340200000001
"37363","Ooltewah","TN","Parkridge Valley Child and Adolescent Campus","2200 Morris Hill Rd","37421",35.02687532271653,-85.12137830257416
"37363","Ooltewah","TN","Parkridge North ER","7402 Lee Hwy","37421",35.0548266,-85.1438775
"37363","Ooltewah","TN","AFC Urgent Care Ooltewah TN","9058 Old Lee Highway","37363",35.08376443465359,-85.06527228836057
"37363","Ooltewah","TN","Med South","not_available","37363",35.08208440329028,-85.0689565609102
"37363","Ooltewah","TN","CHI Memorial Convenient Care - Atrium","1949 Gunbarrel Rd Ste 200 Bldg 1","37421",35.029830970733535,-85.15690036137869
"37363","Ooltewah","TN","Life Care Center of Collegedale","9210 Apison Pike","37315",35.06215,-85.073879
"37367","Pikeville","TN","Erlanger Bledsoe Emergency Room","71 Wheelertown Ave, Pikeville, TN 37367","37367",35.62074620492918,-85.19085926015441
"37367","Pikeville","TN","Er","not_available","37367",35.59195,-85.20585
"37377","Signal Mountain","TN","Hamilton County EMS Medic 8","311 Rolling Way","37377",35.13106201932531,-85.33434523611024
"37377","Signal Mountain","TN","HCM LLC","703 Hathaway Dr","37377",35.141159,-85.34948299999999
"37377","Signal Mountain","TN","Erlanger North Hospital","632 Morrison Springs Rd","37415",35.123552,-85.3018505
"37377","Signal Mountain","TN","Animal Hospital of Signal Mountain","1801 Taft Hwy","37377",35.1496369,-85.3215779
"37377","Signal Mountain","TN","Life Care Center","1020 Runyan Drive","37405",35.10815,-85.31795
"37380","South Pittsburg","TN","Puckett Station 9","not_available","37397",35.201197,-85.514466
"37402","Chattanooga","TN","Kindred Hospital","709 Walnut St","37402",35.04782485961914,-85.30770111083984
"37402","Chattanooga","TN","ClearOptionsHR","633 Chestnut St Ste 600","37450",35.048957,-85.31216500000001
"37402","Chattanooga","TN","Drug & Alcohol Rehab Chattanooga","832 Georgia Ave #1100","37402",35.045738220214844,-85.30742645263672
"37403","Chattanooga","TN","Erlanger Hospital","975 E 3rd St","37403",35.04872,-85.29043
"37403","Chattanooga","TN","T.C. Thompson Children's Hospital","910 Blackford St","37403",35.04973492712349,-85.29037733574945
"37403","Chattanooga","TN","Erlanger Infusion Center","not_available","37403",35.048139760943656,-85.2896579278455
"37403","Chattanooga","TN","Erlanger Metabolic & Bariatric Surgery Center","979 E 3rd St","37403",35.048221,-85.288765
"37404","Chattanooga","TN","Memorial Hospital Emergency Department","2525 Desales Ave","37404",35.042453493261604,-85.25910463391095
"37404","Chattanooga","TN","Mary Ellen Locher Breast Center at Memorial Hospital","605 Glenwood Dr","37404",35.04029839574428,-85.26025939445356
"37404","Chattanooga","TN","2205 mccallie","2205 McCallie Ave","37404",35.035404205322266,-85.2693099975586
"37404","Chattanooga","TN","Parkridge Medical Center","2333 McCallie Ave","37404",35.035640378575835,-85.26742309539453
"37404","Chattanooga","TN","Friendship Haven","950 Dodson Ave","37406",35.0468975,-85.2627477
"37404","Chattanooga","TN","Memorial Rm. 26","not_available","37404",35.042308,-85.259555
"37405","Chattanooga","TN","Riverview Animal Hospital","641 N Market St","37405",35.06986772182881,-85.30902591223953
"37406","Chattanooga","TN","T.C. Thompson Children's Outpatient Phlebotomy Lab","not_available","37406",35.06260015395136,-85.26985985342749
"37406","Chattanooga","TN","Memorial Mission Surgery Center Registration B","2515 Desales Ave Ste 206","37404",35.04063034057617,-85.26216125488281
"37406","Chattanooga","TN","CootieVille","725 Glenwood Dr Ste 486","37404",35.04132865261007,-85.25746822357178
"37409","Chattanooga","TN","American Family Care Lookout Valley","3520 Cummings Hwy","37419",35.018239,-85.37479300000001
"37411","Chattanooga","TN","east ridge hospital","not_available","37412",35.00427627873956,-85.21941550490787
"37411","Chattanooga","TN","Memorial Hospital Cancer Center","605 Glenwood Dr Ste 100","37404",35.04133648703821,-85.23035350789173
"37412","Chattanooga","TN","Parkridge East Hospital","941 Spring Creek Rd","37412",34.9992446,-85.2191998
"37416","Chattanooga","TN","Plastic Surgery and Skin Cancer Center","4935 TN-58, Suite B","37416",35.09533304538379,-85.17909407615662
"37419","Chattanooga","TN","The Next Door","100 Moccasin Bend Rd","37405",35.026369,-85.335716
"37601","Johnson City","TN","James H. Quillen VA Medical Center","809 Lamont St","37684",36.3092900560793,-82.37133862837692
"37601","Johnson City","TN","Johnson City Medical Center","400 N State of Franklin Rd","37604",36.30791091918945,-82.38543701171875
"37601","Johnson City","TN","Franklin Woods Community Hospital","300 Med Tech Parkway","37604",36.33613857,-82.40204452
"37601","Johnson City","TN","Woodridge Hospital","403 N State of Franklin Road","37604",36.307960510253906,-82.38758850097656
"37601","Johnson City","TN","jc sameday","not_available","37604",36.307921303570886,-82.38291516740789
"37601","Johnson City","TN","Niswonger Children's Hospital","400 North State of Franklin Road","37604",36.3078007,-82.3842793
"37601","Johnson City","TN","First Assist Urgent Care","1200-1296 N State of Franklin Rd","37604",36.34883,-82.40204751491547
"37601","Johnson City","TN","Wellmont Urgent Care","378 Marketplace Boulevard","37604",36.340078000000005,-82.407409
"37601","Johnson City","TN","The Vein Company","310 North State of Franklin Road","37604",36.305347,-82.384427
"37601","Johnson City","TN","Crisis Stabilization Unit","200 W Fairview Ave","37604",36.319187,-82.356818
"37601","Johnson City","TN","East Tennessee Hearing Center","112 E Myrtle Ave Ste 504","37601",36.321424,-82.35396999999999
"37601","Johnson City","TN","Essential Therapy Services","323 W Walnut St #211","37604",36.312513,-82.352682
"37601","Johnson City","TN","The James H. and Cecile C. Quillen Rehabilitation Hospital","2511 Wesley St","37601",36.35371549415312,-82.37172245979315
"37601","Johnson City","TN","VAMC","not_available","37601",36.302066802978516,-82.33100891113281
"37601","Johnson City","TN","Johnson City Specialty Hospital","203 E Watauga Ave","37601",36.326126,-82.355076
"37601","Johnson City","TN","Sycamore Shoals Hospital","1501 W Elk Ave","37643",36.346169925438964,-82.25002199396258
"37601","Johnson City","TN","Mountain Home VAMC","not_available","37684",36.30694367100473,-82.37385427949023
"37601","Johnson City","TN","Shared Health Services","112 E Myrtle Avenue, Suite 409","37601",36.3214434,-82.3540066
"37604","Johnson City","TN","Holston Valley Medical Center Communications Center","130 ravine st","37664",36.344327,-82.441248
"37615","Johnson City","TN","Boone's Creek Animal Hospital","1750 Old Gray Station Rd","37615",36.384017,-82.412531
"37615","Johnson City","TN","Ballad Health Medical Associates Urgent Care - Gray","115 Judge Gresham Road","37615",36.41788101196289,-82.47115325927734
"37615","Johnson City","TN","First Assist - Urgent Care","203 Gray Commons Cir","37615",36.39713668823242,-82.48917388916016
"37616","Afton","TN","L M Hospital","1424-1454 Tusculum Blvd","37745",36.1742338,-82.79010821666667
"37616","Afton","TN","Laughlin Hospital Women's Center","Tusculum Blvd.","37745",36.174243470152206,-82.78922643046621
"37616","Afton","TN","Laughlin Memorial Hospital","1420 Tusculum Boulevard","37745",36.17412353981086,-82.78984757846686
"37616","Afton","TN","Takoma Adventis Hospital","Ashville hwy","37745",36.190770799999996,-82.7686888
"37616","Afton","TN","Ballad Health Medical Associates Urgent Care - Greeneville","1744 E Andrew Johnson Hwy","37745",36.1767737,-82.7921682
"37617","Blountville","TN","Cherry Point Animal Hospital","101 Island Rd","37664",36.550549,-82.443028
"37618","Bluff City","TN","Piney Flats Urgent Care","6070 Hwy 11E","37686",36.42301842146155,-82.3207945706115
"37618","Bluff City","TN","Piney Flats Urgent Care, an affiliate of BHMA","6419 Bristol Hwy","37686",36.4231346,-82.3208708
"37618","Bluff City","TN","Fast Pace Health Urgent Care - Piney Flats","5554 Hwy 11 E","37686",36.4160159,-82.327759
"37620","Bristol","TN","Ambulance Service Of Bristol","shelby st.","37620",36.58770957,-82.21948361
"37620","Bristol","TN","Sapling Grove Urgent Care","240 Medical Park Blvd","37620",36.58586502075195,-82.25159454345703
"37620","Bristol","TN","Wellmont Hospital","Medical Park Dr","not_available",36.58445609671004,-82.25642423004402
"37620","Bristol","TN","EVS Wellmont","Medical park Blvd","37620",36.585396,-82.25595
"37620","Bristol","TN","Bristol Regional Medical Center","1 Medical Park Boulevard","37620",36.58551749,-82.25684492
"37620","Bristol","TN","HealthSouth rehabilitation Hospital","North st","24201",36.597113464965325,-82.21670436806198
"37620","Bristol","TN","Rehabilitation Hospital of Bristol, a joint venture of Ballad Health and Encompass Health","103 North St","24201",36.597115,-82.216707
"37620","Bristol","TN","Bristol Regional Medical Center","not_available","24201",36.597115,-82.216707
"37620","Bristol","TN","Ballad Health Medical Associates Urgent Care - Bristol","2686 W State Street","37620",36.59394836425781,-82.21464538574219
"37620","Bristol","TN","Bristol Life Saving Crew","1601 Euclid Ave, Bristol, VA 24201","24201",36.600569,-82.19891700000001
"37620","Bristol","TN","Ballad Health Medical Associates Urgent Care - Bristol","1220 Volunteer Pkwy","37620",36.56683971665926,-82.2018313407898
"37620","Bristol","TN","Kingsport First Assist Urgent Care","1102 E. Stone Drive","37660",36.59181079462507,-82.2005400356445
"37620","Bristol","TN","Bristol regional medical","not_available","37620",36.59303283691406,-82.18668365478516
"37642","Church Hill","TN","Church Hill Rescue Squad","not_available","37642",36.528232,-82.712361
"37642","Church Hill","TN","Fast Pace Health Urgent Care Church Hill","1116 Highway 11 West","37642",36.513195618773956,-82.76788662730159
"37643","Elizabethton","TN","hermitage healthcare","not_available","37643",36.333903,-82.242028
"37643","Elizabethton","TN","Ballad Health Medical Associates Urgent Care - Elizabethton","1497 W Elk Ave","37643",36.345760345458984,-82.24776458740234
"37650","Erwin","TN","Erwin Healthcare Center","not_available","37650",36.127139999306415,-82.42700995703758
"37650","Erwin","TN","Urgent Care of Erwin","800 Mohawk Dr","37650",36.13213,-82.4123
"37650","Erwin","TN","Unicoi County Hospital","100 Greenway Circle","37650",36.1335124,-82.4130576
"37659","Jonesborough","TN","First Assist Urgent Care","395 Forrest Cir, Ste 100","37659",36.302012,-82.462757
"37660","Kingsport","TN","Holston Medical Outpatient Surgery","west stone drive","37660",36.554445992875394,-82.56784043432154
"37660","Kingsport","TN","WMA Women's Health","105 W Park Dr","37660",36.5527698,-82.552526
"37660","Kingsport","TN","HMG Urgent Care","105 W Stone Dr","37660",36.55807980332071,-82.55342501843928
"37660","Kingsport","TN","The Vein Company","4 Sheridan Sq","37660",36.5099008,-82.56059690000001
"37660","Kingsport","TN","HVMC","not_available","37660",36.54986285,-82.56439611666667
"37660","Kingsport","TN","First Assist Urgent Care","Ft Henry Drive","not_available",36.477733,-82.49271
"37660","Kingsport","TN","ER Communications Center @ HVMC","130 ravine st","37660",36.55406854096912,-82.57211805403183
"37660","Kingsport","TN","Encompass Health Rehabilitation Hospital of Kingsport","113 Cassell Dr","37660",36.55350581145113,-82.55138202572198
"37660","Kingsport","TN","Indian Path Hospital","2000 Brookside Drive","37660",36.5509222,-82.5143556
"37660","Kingsport","TN","Ballad Health Medical Associates Urgent Care - Kingsport","111 West Stone Drive","37660",36.5585275,-82.55130040000002
"37660","Kingsport","TN","Wellmont Holston Valley Medical Center","130 W Ravine Rd","37660",36.55349675343178,-82.5537910656791
"37663","Kingsport","TN","Ballad Health Medical Associates Urgent Care - Colonial Heights","4600 Fort Henry Dr","37663",36.47760772705078,-82.49300384521484
"37683","Mountain City","TN","Johnson County Hospital","1901 S Shady St","37683",36.453548431396484,-81.79791259765625
"37701","Alcoa","TN","American Family Care","1015 Hunters Crossing","37701",35.78881,-83.99437
"37701","Alcoa","TN","Fairpark","307 N 5th St","37804",35.77396546,-83.95900944
"37701","Alcoa","TN","American Family Care Hunters Crossing","1015 Hunters Xing","37701",35.7720184,-83.9891833
"37701","Alcoa","TN","Denso 1st Aid","not_available","37801",35.763645395373274,-84.0091274940456
"37705","Andersonville","TN","Neighborhood Urgent Care","Tanner Place","37716",36.167597609786434,-84.08560563870377
"37705","Andersonville","TN","Norris Health and Rehabilitation Center","3382 Andersonville Hwy","37705",36.18912887573242,-84.05609893798828
"37714","Caryville","TN","Eastlake Urgent Care","2500 Jacksboro Pike, #6","37757",36.3466936,-84.159342
"37714","Caryville","TN","Neighborhood Urgent Care","2703 Jacksboro Pike","not_available",36.335771,-84.174833
"37716","Clinton","TN","Methodist Medical Center Of Oak Ridge","Oak Ridge Turnpike","37830",36.024557655540725,-84.24447460420254
"37716","Clinton","TN","Ridgeview Psychiatric Hospital","240 W Tyrone Rd","37830",36.02586364746094,-84.24308013916016
"37716","Clinton","TN","Oak Ridge Hospital Emergency Room","123 W Tennessee Ave","37830",36.024652,-84.244688
"37716","Clinton","TN","Fast Pace Health Urgent Care Oak Ridge","441 S Illinois Ave","37830",36.0043339,-84.24794639999999
"37716","Clinton","TN","Summit Urgent Care Clinic","103 Mid Lake Drive","37918",36.01372723121492,-84.23588825396983
"37716","Clinton","TN","REAC/TS","not_available","37830",36.02368791736155,-84.24500443718799
"37716","Clinton","TN","Anderson County Rescue Squad","not_available","37716",36.15073033557146,-84.14875648813245
"37716","Clinton","TN","MMC wound treatment center","Tennessee Ave","37830",36.02521532802521,-84.24694376114402
"37716","Clinton","TN","The Little Clinic","1550 Oak Ridge Tpke","37830",36.01294611339364,-84.26814403768122
"37716","Clinton","TN","Fast Pace Health Urgent Care Clinton","350 S Charles G Seivers Blvd","37716",36.0939789,-84.136247
"37721","Corryton","TN","House Calls Laboratory Services","4832 Chase Hill Dr","37918",36.071226,-83.89772099999999
"37723","Crab Orchard","TN","Cookville Regional Medical Center","not_available","38555",35.92831802368164,-84.91667938232422
"37725","Dandridge","TN","Jefferson EMS","not_available","37890",36.09812630918516,-83.34776310004175
"37743","Greeneville","TN","Takoma Urgent Care","not_available","37743",36.15230627365212,-82.8459009534434
"37743","Greeneville","TN","Takoma Regional Hospital","1001-1031 Coolidge St","37743",36.15130092158323,-82.84636379197292
"37743","Greeneville","TN","Greeneville Urgent Care","1021 Coolidge St","37743",36.152061462402344,-82.84619903564453
"37743","Greeneville","TN","Takoma Regional Hospital","401 Takoma Ave","37743",36.151216999999995,-82.84569499999999
"37748","Harriman","TN","The New Roane Medical Center","2232 Roane State Hwy","37748",35.888733424440524,-84.55585113666196
"37748","Harriman","TN","Kingston Dialysis","1208 N Kentucky St, Kingston, TN 37763","37763",35.882393,-84.504699
"37748","Harriman","TN","The Little Clinic","1820 Roane State Hwy","37748",35.892077,-84.5503512
"37754","Heiskell","TN","Tennova Cancer Center","not_available","37849",36.052048,-83.99713
"37760","Jefferson City","TN","Knoxville Orthopaedic Clinic","120 Hospital Dr","37760",36.106590999999995,-83.519033
"37760","Jefferson City","TN","Jefferson Memorial Hospital - Emergency Room","110 Hospital Dr","37760",36.1065542,-83.5190313
"37764","Kodak","TN","Langley Court","not_available","37764",35.9988425433949,-83.62065932240732
"37766","La Follette","TN","LaFollette Medical Center - Emergency Room","923 E Central Ave","37766",36.38862228393555,-84.11148834228516
"37766","La Follette","TN","Tennova emergency","not_available","37766",36.37852096557617,-84.1180648803711
"37771","Lenoir City","TN","Fort Loudoun Medical Center","550 Fort Loudoun Medical Center Dr","37772",35.824760339610904,-84.27003659313617
"37771","Lenoir City","TN","Ft Loudon X Ray","not_available","37772",35.79262554645538,-84.24681723117828
"37774","Loudon","TN","Fast Pace Health Urgent Care Loudon","2933 Highway 72 North","37774",35.719851,-84.369783
"37777","Louisville","TN","Little Creek Sanitarium","not_available","37922",35.8787484467381,-84.04978389761081
"37779","Luttrell","TN","Union County EMS Statioin 1","201 Mullberry Rd","not_available",36.25099420361054,-83.7986204970689
"37779","Luttrell","TN","ROSE CUNNINGHAM, FNP","2975 Maynardville Hwy","37807",36.232471,-83.835665
"37801","Maryville","TN","Well-Key Urgent Care Maryville","108 Keller Ln","37801",35.738327,-83.9911727
"37801","Maryville","TN","Maryville Healthcare & Rehab","1012 Jamestown Way","37803",35.727981,-83.973972
"37801","Maryville","TN","Blount Memorial CCU","not_available","37804",35.75530015019487,-83.9811356170255
"37801","Maryville","TN","The Little Clinic","507 Foothills Plz","37801",35.7411013,-83.9939009
"37801","Maryville","TN","Depression land","not_available","37803",35.75064971997275,-84.00855466688706
"37803","Maryville","TN","Blount Memorial Hospital","907 E Lamar Alexander Pkwy","37804",35.75619301561329,-83.95829936620311
"37803","Maryville","TN","Blount Memorial Hospital Medical Fitness","Lamar Alexander Parkway","not_available",35.75626483227815,-83.9587180302843
"37803","Maryville","TN","Morningview Village TCC","2320 E Lamar Alexander Pkwy","37804",35.75522967352766,-83.93571309205522
"37803","Maryville","TN","Blount Memorial Hospital Employee Health","E Lamar Alexander Pkwy","37803",35.75703811645508,-83.90501403808594
"37813","Morristown","TN","Morristown Hamblen Hospital","not_available","37814",36.2130029218123,-83.30529953017589
"37813","Morristown","TN","Morristown Regional Cancer Center","908 W 4th North St","37814",36.213082,-83.30546700000001
"37813","Morristown","TN","Patients Clinic Inc.","1532 West Andrew Johnson Highway","37814",36.2075227,-83.3118866
"37821","Newport","TN","Newport Medical Center","not_available","37821",35.96443176269531,-83.1819839477539
"37821","Newport","TN","Newport Health and Rehabilitation Center","135 Generation Dr","37821",35.975288,-83.247537
"37821","Newport","TN","Newport Medical Center - Emergency Room","435 2nd St","37821",35.96443176269531,-83.1819839477539
"37825","New Tazewell","TN","JILL PRESSNELL, FNP","951 N Broad St","37879",36.446299,-83.584742
"37825","New Tazewell","TN","Doctor Death","357 Chumley Rd New Tazewell, TN","37925",36.398738861083984,-83.70066833496094
"37825","New Tazewell","TN","Fast Pace Health Urgent Care New Tazewell","402 S Broad St","37825",36.440364,-83.6059439
"37830","Oak Ridge","TN","AFC Urgent Care","700 N Campbell Station Rd","37934",35.89627433,-84.17506067
"37830","Oak Ridge","TN","Cancer Treatment Centers Of America","1501 S 15 St","37922",35.897032,-84.175995
"37830","Oak Ridge","TN","Parkwest Medical Center","8901 Oak Ridge Hwy","37931",35.980316162109375,-84.18229675292969
"37830","Oak Ridge","TN","Advanced Family Foot Care","162 Ridgeway Ctr","37830",35.9859616,-84.2805808
"37830","Oak Ridge","TN","Methodist Medical Center","990 Oak Ridge tom","37830",36.016588824667,-84.33685988380066
"37830","Oak Ridge","TN","The Little Clinic","189 Brooklawn St","37934",35.880035956022795,-84.15702223777777
"37841","Oneida","TN","St. Mary's Medical Center","18797 Alberta St, Oneida, TN 37841","37841",36.504459381103516,-84.51580810546875
"37841","Oneida","TN","pioneer community hospital of scott","not_available","37841",36.504387,-84.515906
"37849","Powell","TN","Well-Key Urgent Care","6606 Clinton Hwy","37912",36.00743103027344,-84.01844024658203
"37849","Powell","TN","toniva hospital","not_available","37918",36.04469680786133,-83.99585723876953
"37849","Powell","TN","Priority Ambulance","910 Callahan Dr","37912",36.01825714111328,-84.00495147705078
"37849","Powell","TN","The Little Clinic","6702 Clinton Hwy.","37912",36.008486,-84.02365
"37857","Rogersville","TN","Wellmont Hawkins Co Hospital","851 Locust St","37857",36.399934906120016,-83.01445066089074
"37857","Rogersville","TN","CHEMS Station 4","not_available","37873",36.467569,-82.85704
"37857","Rogersville","TN","Wellmont Hawkins County Hospital Out Patient","not_available","37857",36.395805326107755,-83.01253051407626
"37857","Rogersville","TN","Ballad Health Medical Associates Urgent Care - Rogersville","405 Scenic Dr","37857",36.40024185180664,-83.0130615234375
"37861","Rutledge","TN","Jefferson Memorial Hospital","not_available","37820",36.30492665463125,-83.46872868941264
"37862","Sevierville","TN","LeConte Medical Center","742 Middle Creek Rd","37862",35.85578643877203,-83.53539121992907
"37862","Sevierville","TN","Leconte Medical Center","Middle Creek Rd","37862",35.84260718982267,-83.53785148151034
"37862","Sevierville","TN","Well-Key Urgent Care Sevierville","1787 Veterans Blvd Ste 101","37862",35.8462319,-83.54195589999999
"37862","Sevierville","TN","Fort Sanders Sevier Nursing Home","710-760 Middle Creek Rd","37862",35.85407,-83.538247
"37862","Sevierville","TN","AFC Urgent Care Sevierville","713 Winfield Dunn Pkwy #9","37876",35.88066482543945,-83.57086944580078
"37862","Sevierville","TN","The Vein Company","1124 Fox Meadows Blvd","37862",35.85027,-83.5362392
"37862","Sevierville","TN","Leconte Orthopedic","1108 Fox Meadows Bvd","37862",35.8506041,-83.5354574
"37862","Sevierville","TN","Fresenius Medical Care Sevierville","Fox Meadows Blvd","not_available",35.848991,-83.537215
"37865","Seymour","TN","AFC Urgent Care Chapman Hwy.","7564 Chapman Hwy","37920",35.9075716,-83.83790119999999
"37865","Seymour","TN","Brookhaven Retreat","not_available","37865",35.861385345458984,-83.81217193603516
"37869","Sneedville","TN","Hancock County Hospital","1519 Main St","37869",36.532981872558594,-83.21436309814453
"37871","Strawberry Plains","TN","Urgentcare","7200 Strawberry Plains Pike","37914",35.99821090698242,-83.77810668945312
"37871","Strawberry Plains","TN","UT Hospital","not_available","37920",35.99294422484937,-83.76414494634194
"37879","Tazewell","TN","Claiborne County Hospital","1850 Old Knoxville Rd","37879",36.452664,-83.57216700000001
"37882","Townsend","TN","Webb Mental Health Care","not_available","37882",35.679648407721494,-83.75577569217644
"37882","Townsend","TN","Webb's Animal ER","Pet's deserve Our Love","37882",35.67975369358042,-83.75547491727798
"37909","Knoxville","TN","Athens regional hospital","not_available","37919",35.9342564,-84.0010196
"37909","Knoxville","TN","The Vein Company","1450 Dowell Springs Blvd","37909",35.950256,-84.023744
"37909","Knoxville","TN","UT Medical Center Bldg. B Suite 118","Alcoa Hwy","not_available",35.947402105919515,-83.97853667470184
"37909","Knoxville","TN","Alternative Health","7213 Kingston Pike","37919",35.930892,-84.02943599999999
"37909","Knoxville","TN","Ut medical center","not_available","37931",35.96406191892207,-84.03756157585094
"37909","Knoxville","TN","Summit Medical","Wellington","37919",35.929618,-84.025678
"37909","Knoxville","TN","Clinica Alemana","Vitacura 5951","not_available",35.945655,-83.981544
"37914","Knoxville","TN","Ut Hospital","not_available","37924",36.011612,-83.82582
"37916","Knoxville","TN","East Tennessee Children's Hospital","2018 W Clinch Ave","37916",35.956046516241706,-83.93836039371806
"37916","Knoxville","TN","Thompson Cancer Survival Center","1915 White Ave","37916",35.9567852613243,-83.93696437002944
"37916","Knoxville","TN","Tennessee Orthopaedic Clinic (TOC)","19th St","37909",35.95742390052515,-83.93592922366209
"37916","Knoxville","TN","Fort Sanders Regional Oncology Dept","not_available","37916",35.958736419677734,-83.93744659423828
"37916","Knoxville","TN","Drug & Alcohol Rehab Knoxville","2121 Cumberland Ave #176","37916",35.9546012878418,-83.93848419189453
"37916","Knoxville","TN","Trustees Tower","501 Laurel Ave. Step. 300","37921",35.95734862038625,-83.93711733092876
"37916","Knoxville","TN","KGIS","2001 Laurel Ave Ste 603","37916",35.957542419433594,-83.93851470947266
"37916","Knoxville","TN","allspice Cafe @ Fort Sanders Regional Medical Center","1901 Clinch Ave, University of Tennessee, Knoxville, TN 37916","37916",35.95744323730469,-83.93704986572266
"37916","Knoxville","TN","Patricia Neal Rehab Center","1901 W Clinch Ave","37916",35.957288210960094,-83.93725956356955
"37916","Knoxville","TN","Fort Sanders Center for Bariatric Surgery","1901 Clinch Avenue","37916",35.95742614514021,-83.93762442252317
"37917","Knoxville","TN","St Mary's","901-999 E Oldham Ave","37917",35.99184395383111,-83.92658626077126
"37917","Knoxville","TN","Eastowne Urgent Care","4711 Centerline Dr","37917",36.030065,-83.883718
"37917","Knoxville","TN","Pre-op Room 3","not_available","37917",35.992421,-83.92657
"37917","Knoxville","TN","East Towne Urgent Care Clinic","centerline dr","not_available",36.030065,-83.883718
"37917","Knoxville","TN","Mercy Medical Center","900 E Oak Hill Ave","37917",35.99218856854823,-83.9267103741325
"37917","Knoxville","TN","St Marys","emerald ave","37917",35.99140188043882,-83.92692240054174
"37918","Knoxville","TN","Beverly Park Place Health and Rehab","5321 Beverly Park Cir","37918",36.06068091038165,-83.89262409207986
"37918","Knoxville","TN","Tennova Residential Hospice","not_available","37938",36.08829116821289,-83.93429565429688
"37918","Knoxville","TN","Ut medical plaza","Fountain valley dr","37938",36.0665142,-83.9259604
"37918","Knoxville","TN","AFC Urgent Care Fountain City","5150 N Broadway St","37918",36.03306198120117,-83.92981719970703
"37919","Knoxville","TN","University of Tennessee Medical Center","1924 Alcoa Hwy","37920",35.93987147762188,-83.94420266515715
"37919","Knoxville","TN","Lakeshore Mental Health Institute","5908 Lyons View Pike","37919",35.9229595559206,-83.99584880748341
"37919","Knoxville","TN","William C. Tallent VA Outpatient Clinic","8033 Ray Mears Blvd","37919",35.92343510693746,-84.0475903291118
"37919","Knoxville","TN","UT Medical Center Medical Critical Care Lobby","Alcoa Highway","not_available",35.94049351902478,-83.94399586863149
"37919","Knoxville","TN","Park Med Urgent Care Center","8350 Kingston Pike","37919",35.92330080652617,-84.05670106319256
"37922","Knoxville","TN","Urgent Care Specialists","8861 Kingston Pike","37923",35.914753999999995,-84.07855699999999
"37922","Knoxville","TN","Mercy West Surgery Center","10800 Parkside Dr","37934",35.898795,-84.143213
"37922","Knoxville","TN","Water Treatment Room @ AHU","not_available","37923",35.91706482912184,-84.10148980014465
"37922","Knoxville","TN","Mercy Medical Center West","10820 Parkside Dr","37934",35.89912291260762,-84.14453647047715
"37922","Knoxville","TN","American Family Care","9203 Kingston Pike","37922",35.9113,-84.08916
"37923","Knoxville","TN","Senior Helpers of Knoxville, TN","1645 Downtown West Boulevard","37919",35.923069,-84.05253599999999
"37923","Knoxville","TN","Cristina Machalo","301 S Gallaher View Rd","37919",35.918791,-84.059976
"37923","Knoxville","TN","The Little Clinic","9161 Middlebrook Pike","37923",35.942363,-84.0933215
"38002","Arlington","TN","The Little Clinic","9025 Highway 64","38002",35.20257739382955,-89.76175816389514
"38002","Arlington","TN","Saint Francis Hospital - Bartlett","2986 Kate Bond Rd","38133",35.20665915023787,-89.8009957625565
"38002","Arlington","TN","Emergency Room","not_available","38133",35.206367,-89.80088
"38002","Arlington","TN","RedMed Urgent Clinic of Arlington","5389 Airline Rd","38002",35.2733478,-89.6674486
"38002","Arlington","TN","Medpost Urgent Care","3025 Kirby Whitten Rd","38134",35.208046,-89.841115
"38002","Arlington","TN","Benjamin Gibson, MD","2996 Kate Bond Rd #309","38133",35.206092454945846,-89.80079770088196
"38002","Arlington","TN","Care Here","Summer Ave","38133",35.231164,-89.80875
"38002","Arlington","TN","Lakeside Behavioral Health System","2911 Brunswick Rd","38133",35.20682144165039,-89.77088165283203
"38002","Arlington","TN","People First Urgent & Primary Care - Bartlett","6490 Memphis Arlington Road","38135",35.226618,-89.847806
"38002","Arlington","TN","The Little Clinic","11635 Highway 70","38002",35.29287494836338,-89.67388216360848
"38004","Atoka","TN","RedMed Urgent Clinic of Crosstown","11611 Highway 51 S","38004",35.44267654418945,-89.79334259033203
"38004","Atoka","TN","The Little Clinic","11630 Highway 51 S","38004",35.44080036116821,-89.79075220386244
"38011","Brighton","TN","Labor && Delivery","not_available","38019",35.535802,-89.677867
"38011","Brighton","TN","Covington Care Center","Bert Johnston Ave","38019",35.55590532333199,-89.6620003842861
"38011","Brighton","TN","Baptist Memorial Hospital Covington TN","1995 Highway 51 S","38019",35.535756972518584,-89.67745877196474
"38011","Brighton","TN","The Good Ol Pit","1955 hwy 51 south","38019",35.5479942,-89.651877
"38016","Cordova","TN","BioLife Plasma Services","8015 Bellevue Pkwy","38016",35.18508529663086,-89.79588317871094
"38016","Cordova","TN","Methodist Le Bonheur Urgent Care","8035 Club Pkwy","38016",35.16157913208008,-89.79396057128906
"38016","Cordova","TN","st Francis Hospital","62 west Park Ave","38018",35.168235785571156,-89.79273503273564
"38016","Cordova","TN","Prime Urgent Medical Clinic","1520 Bonnie Ln","38016",35.167835,-89.792688
"38016","Cordova","TN","Mid-South Urgent Care","1204 N Houston Levee Rd #115","38018",35.1580947,-89.7259018
"38016","Cordova","TN","St Francis","not_available","38016",35.18764899504886,-89.8090980766356
"38017","Collierville","TN","Baptist Memorial Hospital - Collierville","1500 W Poplar Ave","38017",35.04915849640737,-89.71464225699341
"38017","Collierville","TN","MedPost Urgent Care","853 W Poplar Ave","38017",35.04576901,-89.69121513
"38017","Collierville","TN","Baptist Trinity Hospice House","1520 W Poplar Ave","38017",35.05219772090633,-89.7139703791111
"38017","Collierville","TN","The Little Clinic","3685 S Houston Levee Rd","38017",35.047985888563325,-89.7359290930915
"38017","Collierville","TN","The Little Clinic","240 New Byhalia Rd","38017",35.047758365783864,-89.68702107667923
"38017","Collierville","TN","Crestwyn Behavioral Health","9485 Crestwyn Hills Cove","38125",35.041634784164515,-89.74723428604435
"38018","Cordova","TN","Methodist Germantown Radiation Oncology Center","1381 S Germantown Rd","38138",35.111266,-89.80375500000001
"38018","Cordova","TN","Med Vet","830 N Germantown Pkwy","38018",35.147884000000005,-89.794761
"38018","Cordova","TN","Petmed","not_available","38018",35.14018970297752,-89.80079154803099
"38018","Cordova","TN","McDonald Murrmann Center for Wellness and Health","7205 Wolf River Boulevard","38138",35.1158247,-89.8228138
"38018","Cordova","TN","Baptist Memorial Rehabilitation Hospital","1240 S Germantown Rd","38138",35.11461204622417,-89.8000535107605
"38024","Dyersburg","TN","Radiology Dept. @ Dyersburg Regional Hospital","not_available","38024",36.048178,-89.379953
"38024","Dyersburg","TN","Buy Erlocip 150 mg","524-516 Baxter St","38024",36.0337958242799,-89.37920808792114
"38040","Halls","TN","in Quarantine :-(","My House!!","not_available",35.81374,-89.485544
"38053","Millington","TN","Methodist North Hospital","3960 New Covington Pike","38128",35.2338797,-89.8921771
"38053","Millington","TN","CCU Waiting Room","not_available","38128",35.2388394157783,-89.90484889309062
"38053","Millington","TN","People First Urgent & Primary Care","4772 Navy Rd","38053",35.34188,-89.90419
"38053","Millington","TN","Methodist North ER","Convington Pike","38128",35.23472530060285,-89.88987808238244
"38053","Millington","TN","St Francis Hospital Rm 454","6005 Park Ave","38119",35.217602152903275,-89.89123432423366
"38059","Newbern","TN","Pemiscot memorial","946 East Reed","38059",36.19694519042969,-89.21566772460938
"38063","Ripley","TN","Lauderdale Community Hospital","326 Asbury Ave","38063",35.74440927339968,-89.54936819003507
"38063","Ripley","TN","Ascent Children's Health Services Of Blytheville","1510 Byrum Rd","72315",35.909005,-89.917117
"38103","Memphis","TN","St. Jude Children's Research Hospital","262 Danny Thomas Pl","38105",35.15356697638725,-90.04352167898256
"38103","Memphis","TN","Le Bonheur Children's Hospital","848 Adams Ave","38104",35.1453527780378,-90.0319249668572
"38103","Memphis","TN","St. Jude Blood Donor Center","Danny Thomas","38105",35.15267631839039,-90.04335300959775
"38103","Memphis","TN","LeBonheur dispatch","not_available","38105",35.14455904532213,-90.03325243481318
"38103","Memphis","TN","le bonheur 2nd Floor SURGERY","Dunlap","38105",35.149967193603516,-90.04126739501953
"38103","Memphis","TN","Crisis Assessment Center","135 N Pauline St","38105",35.14309310913086,-90.02809143066406
"38103","Memphis","TN","Hamilton Eye Institute Surgery Center","930 Madison Ave Ste 370","38103",35.140525817871094,-90.02950286865234
"38103","Memphis","TN","Regional One Health Main Campus","877 Jefferson Ave","38103",35.142424682547684,-90.03160658437179
"38103","Memphis","TN","Crazy Town, West","22 N 2nd St","38103",35.145450592041016,-90.0509262084961
"38103","Memphis","TN","Drug & Alcohol Rehab Memphis","239 Adams Ave","38103",35.14669418334961,-90.0472183227539
"38103","Memphis","TN","The Med - Rout Center","Jefferson","38103",35.142038281914594,-90.03267774850048
"38103","Memphis","TN","Memphis/Shelby County Health Department, Packer STD/HIV Clinic","814 Jefferson Ave Rm 221","38105",35.143192291259766,-90.03409576416016
"38103","Memphis","TN","Lebonheur Emergency Room","not_available","38104",35.14498200095958,-90.03130811357677
"38103","Memphis","TN","The birthplace","not_available","38103",35.14220668353069,-90.03280581023941
"38103","Memphis","TN","Lebonheur Hospital (Room of Magic- 1st Floor)","50 N Dunlap St, The University of Tennessee Health Science Center, Memphis, TN 38103","38103",35.14399719238281,-90.03238677978516
"38104","Memphis","TN","VA Medical Center Memphis","1030 Jefferson Ave","38104",35.14409643314295,-90.02658572657027
"38104","Memphis","TN","Health South","Union Ave","38104",35.13760116374705,-90.01875346998933
"38104","Memphis","TN","UT methodist physicians","1325 Eastmoreland Ave","38104",35.13507843017578,-90.01738739013672
"38104","Memphis","TN","Le Bonheur Childrens Medical Center, Le Bonheur Community HIV Network","2400 Poplar Ave Ste 500","38112",35.1400146484375,-89.98040771484375
"38104","Memphis","TN","Healthcare Clinic @ Walgreens","Union Ave","not_available",35.134725,-89.999434
"38104","Memphis","TN","Encompass Health Rehabilitation Hospital of Memphis, a partner of Methodist Healthcare","1282 Union Ave","38104",35.13794053560734,-90.0191804766655
"38104","Memphis","TN","Methodist Extended Care Hospital","225 S Claybrook St","38104",35.136461,-90.018843
"38106","Memphis","TN","Concentra Urgent Care","not_available","38106",35.10822514,-90.08866816
"38108","Memphis","TN","Sickly Littles Hospital","not_available","38108",35.176015310688456,-89.92830924621231
"38109","Memphis","TN","store","3197-3399 Weaver Rd","38109",35.05621109,-90.09532453
"38111","Memphis","TN","Baptist East Hospital","3000 Walnut Grove Rd","38111",35.13611602783203,-89.96184539794922
"38111","Memphis","TN","The Little Clinic","3444 Plaza Ave","38111",35.13084315348792,-89.94804872883606
"38114","Memphis","TN","The Oaks Treatment Center","1248 Lapaloma St","38114",35.111618,-89.996791
"38115","Memphis","TN","Imaging Center, Regional One Health East Campus.","6555 Quince Rd","38119",35.06879193680751,-89.84414488077164
"38115","Memphis","TN","Advanced Primary Care LLC","5983 Apple Tree Dr","38115",35.0695527,-89.864307
"38116","Memphis","TN","Medthodist South","not_available","38116",35.040122,-90.022659
"38117","Memphis","TN","Methodist Lebonhneur Urgent Care","Estate Place","38120",35.108901,-89.884374
"38117","Memphis","TN","Memphis Men's Health Group","5050 Poplar Ave #718","38157",35.112914077650395,-89.89317297935484
"38117","Memphis","TN","Memphis Mens Clinic","5050 Poplar Ave Ste 718","38157",35.13255856554615,-89.91110086441039
"38117","Memphis","TN","Same Day Surgery","not_available","38138",35.1486521132547,-89.92125119848704
"38117","Memphis","TN","Lebonheur Diagnostic Center","806 Estate Pl","38120",35.109269,-89.884337
"38117","Memphis","TN","Le Bonheur Urgent Care","not_available","38117",35.1070982,-89.8946275
"38119","Memphis","TN","Saint Francis Hospital","5959 Park Ave","38119",35.09869601802893,-89.86492165201877
"38119","Memphis","TN","AFC Urgent Care of Memphis","5475 Poplar Ave.","38119",35.10577,-89.87911
"38119","Memphis","TN","Baptist Rehabilitation Center","2100 Exeter Rd","38138",35.092091472103306,-89.80139282836616
"38119","Memphis","TN","Methodist Germantown Radiology Department","7691 Poplar Ave","38138",35.08958435058594,-89.80797576904297
"38119","Memphis","TN","St. Francis Cafeteria","not_available","38119",35.098444,-89.857709
"38119","Memphis","TN","Prime Urgent Medical Clinic","6515 Poplar Ave","not_available",35.09885,-89.846075
"38119","Memphis","TN","Germantown Minor Medical","2018 S Germantown Rd","38138",35.094167590141296,-89.80723605
"38119","Memphis","TN","Select Specialty Hospital - Memphis","5959 Park Ave, Memphis, TN 38119","38119",35.098716735839844,-89.86424255371094
"38119","Memphis","TN","Methodist LeBonheur Urgent Care","not_available","38125",35.061298610143155,-89.7942915354135
"38119","Memphis","TN","St Francis Emergency/Chest Pain Center","Park Ave","38119",35.098705,-89.865163
"38119","Memphis","TN","John Crews, MD","6005 Park Avenue","38119",35.09542082830314,-89.8622739315033
"38119","Memphis","TN","MedPost Urgent Care of Germantown","1941 S Germantown Rd","38138",35.096298,-89.80827
"38119","Memphis","TN","The Little Clinic","7735 Farmington Blvd","38138",35.09377381021899,-89.80569318542189
"38120","Memphis","TN","Baptist Memorial Hospital-Memphis","6019 Walnut Grove Rd","38120",35.129331656160325,-89.86133113471311
"38120","Memphis","TN","Baptist Hospital Memphis - 3rd Floor","not_available","38120",35.129534005815934,-89.86087399892342
"38120","Memphis","TN","Baptist Hospital Outpatient Testing","6029 Walnut Grove Rd","38120",35.12942192293444,-89.85937660398334
"38120","Memphis","TN","Baptist Hospital Audiology","6025 Walnut Grove Rd","38120",35.128688000000004,-89.859546
"38120","Memphis","TN","CBO","6027 Walnut Grove Rd","38120",35.12942886352539,-89.85995483398438
"38120","Memphis","TN","Baptist Centers For Cancer Care","55 Humphreys Center Dr","38120",35.129146,-89.85776800000001
"38120","Memphis","TN","Baptist Memorial Hospital For Women","6215 Humphreys Blvd #100","38120",35.127818846773806,-89.8550242626998
"38120","Memphis","TN","Baptist Medical Group Pediatric Urology","6215 Humphreys Blvd Ste 301","38120",35.12769219550591,-89.85639062648454
"38127","Memphis","TN","Xooma Worldwide","3408 North Watkins","38127",35.2187642,-90.0029781
"38128","Memphis","TN","MedicOne Medical Response","not_available","38134",35.186729431152344,-89.88895416259766
"38128","Memphis","TN","Methodist North Hospital","covington pike","38128",35.190015126442574,-89.9024386160424
"38128","Memphis","TN","First Call Ambulance","5155 Wilfong Rd","38134",35.187752,-89.892186
"38134","Memphis","TN","Crossroads Hospice Memphis","1669 Shelby Oaks Dr N Ste 106","38134",35.170109000000004,-89.856323
"38134","Memphis","TN","Crossroads Hospice & Palliative Care","1669 Shelby Oaks Dr. Suite 106","38134",35.1700185,-89.8583263
"38134","Memphis","TN","AIS","5909 Shelby Oaks Dr","38134",35.165296000000005,-89.865347
"38201","Mc Kenzie","TN","Baptist Memorial Hospital - Huntingdon","631 Rb Wilson Dr","38344",36.0233268737793,-88.4124755859375
"38201","Mc Kenzie","TN","Tri-County Family Medicine & Urgent Care","600 Rb Wilson Dr","38344",36.023299559601526,-88.41405228477902
"38201","Mc Kenzie","TN","McKenzie Regional Hospital","161 Hospital Dr","38201",36.137455333496604,-88.48979769143774
"38221","Big Sandy","TN","Big Sandy Ambulance Station","not_available","38221",36.20787811279297,-88.07833099365234
"38237","Martin","TN","Volunteer Community Hospital","161 Mount Pelia Rd","38237",36.33487037998957,-88.86772095462052
"38237","Martin","TN","Tri-County Family Medicine & Urgent Care","189 Mount Pelia Rd","38237",36.333366999999996,-88.87078000000001
"38237","Martin","TN","Weakley County Ambulance Service","not_available","38237",36.33062744140625,-88.85826110839844
"38237","Martin","TN","West Tennessee Healthcare Rehabilitation Hospital Cane Creek, a partnership with Encompass Health","180 Mount Pelia Rd","38237",36.331617,-88.86955
"38237","Martin","TN","Cane Creek Rehab","Mount Pelia Rd","38237",36.34261541666667,-88.85421266666667
"38242","Paris","TN","Urgent care","not_available","38242",36.307653,-88.298826
"38242","Paris","TN","Tri County Family Medicine & Urgent Care","193 Jim Adams Dr","38242",36.289066314697266,-88.30870056152344
"38242","Paris","TN","Henry County Medical Diagnostic Center","302A","38242",36.29664689209759,-88.31176526278
"38260","Troy","TN","obion county nursing home","not_available","38261",36.415855407714844,-89.12763977050781
"38261","Union City","TN","Baptist Memorial Hospital-Union City","1201 Bishop St","38261",36.41462371444289,-89.04463766870275
"38301","Jackson","TN","Jackson Madison County General Hospital","Skyline Drive","38305",35.63676019469984,-88.83256740225825
"38301","Jackson","TN","Pharmacy Learning Center","not_available","38301",35.636741,-88.831693
"38301","Jackson","TN","6th Floor Hospital","Skyline Drive","38301",35.63666031161422,-88.8327877675569
"38301","Jackson","TN","Icu","not_available","38305",35.684223,-88.854034
"38301","Jackson","TN","Tri-County Family Medicine & Urgent Care","110 East Forest","38301",35.63474335767825,-88.81836779774173
"38301","Jackson","TN","OR 7","620 Skyline Dr, Jackson, TN 38301","38301",35.638202699418315,-88.82521497364364
"38320","Camden","TN","Tri-County Family Medicine & Urgent Care","not_available","38320",36.058949,-88.097815
"38320","Camden","TN","Camden General Hospital","Hospital Drive","not_available",36.055208,-88.107874
"38321","Cedar Grove","TN","Baptist Memorial Hospital","not_available","38344",35.843670907072664,-88.57408130962736
"38321","Cedar Grove","TN","Decatur County Hospital","not_available","38351",35.745928165060455,-88.55873725512069
"38326","Counce","TN","EMS Station 2 (south)","11350 Hwy 57","38326",35.01421938486613,-88.23906109062476
"38343","Humboldt","TN","Humbolt General hospital","not_available","38343",35.81463240978196,-88.89493580435929
"38351","Lexington","TN","Henderson County Community Hospital","200 W Church St","38351",35.655216217041016,-88.39848327636719
"38372","Savannah","TN","hcms","not_available","38372",35.227447487934,-88.228681172599
"38372","Savannah","TN","HMC Urgent Care Walk-in Clinic","80 Enoch Blvd","38372",35.22624588012695,-88.23268127441406
"38375","Selmer","TN","McNairy County Health Care Center","not_available","38375",35.161300571333214,-88.57934098960614
"38375","Selmer","TN","McNairy Regional Hospital","705 E Poplar Ave","38375",35.162052154541016,-88.57432556152344
"38382","Trenton","TN","Gibson General Hospital - Trenton, TN","not_available","38382",35.962628452367376,-88.93912196159363
"38401","Columbia","TN","Maury Regional Hospital","1224 Trotwood Ave","38401",35.6075553,-87.0668405
"38401","Columbia","TN","Maury Regional Urgent Care | Columbia","1218 Trotwood Avenue, Building C","38401",35.60791099999998,-87.06429526256568
"38401","Columbia","TN","Amblutory Care Center","not_available","38401",35.62885107284164,-87.02337254484138
"38401","Columbia","TN","Jessica Barnwell, FNP-BC","1218 Trotwood Avenue","38401",35.60790953592517,-87.06432430024722
"38401","Columbia","TN","Night Care Walk In Clinic","1250 Brookmeade Drive","38401",35.59711,-87.052903
"38456","Ethridge","TN","First Choice Health- Lawrenceburg","2019 N Locust Ave","38464",35.26712633,-87.32243733
"38464","Lawrenceburg","TN","Southern Tennessee Regional Health System Lawrenceburg","1607 S Locust Ave","38464",35.218924,-87.338204
"38464","Lawrenceburg","TN","Summertown Medical Center","4955 Highway 43 N","38474",35.431400299072266,-87.2818603515625
"38464","Lawrenceburg","TN","Crockett Hospital","not_available","38464",35.22214159438248,-87.33772477951732
"38468","Leoma","TN","First ChoiceHealth -Loretto","722 N Military St","38469",35.096985,-87.418932
"38478","Pulaski","TN","Hillside Hospital","600 E College St","38478",35.188995800408385,-87.00378511787578
"38478","Pulaski","TN","Giles County Animal Hospital","not_available","38478",35.20617667238986,-87.0651311946654
"38478","Pulaski","TN","Southern Tennessee Regional Health System  Pulaski Emergency Service","1265 E. College St.","38478",35.18927053341397,-87.00414807093878
"38478","Pulaski","TN","Hillside Hospital","1265","not_available",35.18882791795478,-87.00415272416595
"38485","Waynesboro","TN","Wayne Medical Center","103 Jv Mangubat Dr","38485",35.325224,-87.75647
"38501","Cookeville","TN","CRMC","504 Medical Center Blvd","38501",36.16962494531693,-85.50861836647614
"38501","Cookeville","TN","Cookeville Regional Medical Center","1 Medical Center Blvd","38501",36.169709953986,-85.50864854994113
"38501","Cookeville","TN","CRMC Outpatient Rehab Center","212 W 7th St","38501",36.17157,-85.51016800000001
"38501","Cookeville","TN","Vanderbilt Children's Urology Cookeville","100 W 4th St Ste 320","38501",36.1681313,-85.5082631
"38501","Cookeville","TN","The Surgery Center","not_available","38501",36.17033602034637,-85.50891516981366
"38501","Cookeville","TN","Ten Broeck","CRMC 5W","38501",36.16992279347712,-85.50870834766123
"38501","Cookeville","TN","COMPREHENSIVE PAIN SPECIALISTS","315 N Washington Ave Ste 210","38501",36.166338,-85.49754
"38501","Cookeville","TN","Upper Cumberland Ear, Nose & Throat","100 W 4th St","38501",36.168014,-85.50818100000001
"38501","Cookeville","TN","Infinity Birthing Center","1080 Neal St Ste 301","38501",36.145854,-85.48201800000001
"38501","Cookeville","TN","Cookeville Medical Clinic","225 N Willow Ave Ste 3","38501",36.167390000000005,-85.511983
"38501","Cookeville","TN","Premier Diagnostic Imaging","135 E. McCallister Drive","47802",36.16653515646589,-85.49784681975503
"38501","Cookeville","TN","Physicians Urgent Care","225 N Willow Ave","38501",36.16775959751342,-85.5120088698802
"38506","Cookeville","TN","Satellite Med","1120 Sams St","38506",36.134143734496455,-85.50625157795014
"38549","Byrdstown","TN","ward 35 team 2","level 5","not_available",36.624183654785156,-85.20439910888672
"38549","Byrdstown","TN","Ward 6B Prince Court Medical Centre","Level 6","38549",36.6241962,-85.205556
"38554","Crawford","TN","pc hospital","432 Peach Stone","38554",36.227191,-85.13615
"38554","Crawford","TN","Crawford EMT","Water Tank Rd","38554",36.236339,-85.158735
"38555","Crossville","TN","Cumberland Medical Center","421 S Main St","38555",35.94331551064968,-85.02120674909179
"38555","Crossville","TN","Cumberland Hospice","30 E Adams St","38555",35.945232,-85.023911
"38555","Crossville","TN","AngelWorks Organics","linger lake Rd","38571",35.94896,-85.0269
"38556","Jamestown","TN","jamestown regional medical center","200-210 N Duncan St","38556",36.432272999999995,-84.943148
"38570","Livingston","TN","Vandy Hospital","not_available","38570",36.382739883333336,-85.32633818333333
"38570","Livingston","TN","Livingston Regional Hospital","315 Oak Street","38570",36.3849873,-85.32787859999999
"38583","Sparta","TN","White County Community Hospital","not_available","38583",35.949290999999995,-85.477195
"38583","Sparta","TN","Saint Thomas Medical Partners - General Surgery - Sparta","439 Sewell Dr","38583",35.94973,-85.47571
"38583","Sparta","TN","Saint Thomas Highlands Hospital","401 Sewell Dr","38583",35.94919967651367,-85.47703552246094
