"zip","city","state","name","address","postalCode","lat","lon"
"06001","Avon","CT","Hartford HealthCare-GoHealth Urgent Care","385 W Main Street, Shops at Dales Corner","06001",41.815287,-72.86441
"06001","Avon","CT","hospital","Lewis Ave.","06053",41.78581869744673,-72.89471423025492
"06001","Avon","CT","Nurses Office","not_available","06001",41.78348748333333,-72.86266463333334
"06001","Avon","CT","Rosenberg Orthodontics in Canton, CT","227 Albany Turnpike","06019",41.8269421,-72.8981864
"06002","Bloomfield","CT","Mount Sinai Hospital","500 Blue Hills Ave","06112",41.800244415439636,-72.69351421934192
"06002","Bloomfield","CT","Hebrew Home & Hospital","Abrahms Blvd","06117",41.80270401288649,-72.72887186959389
"06002","Bloomfield","CT","Bloomfield Urgent Care LLC","16 Mountain Ave","06002",41.8316585,-72.7396757
"06002","Bloomfield","CT","Stanley G Workout","1051 Blue Hills Ave","06002",41.823055267333984,-72.6976318359375
"06002","Bloomfield","CT","Hospital For Special Care Satellite LTAC Unit @ Mt Sinai","not_available","06112",41.800351,-72.69396
"06002","Bloomfield","CT","St Francis Urgent Care Center","Copaco","06002",41.88104115844718,-72.73309774158518
"06002","Bloomfield","CT","Mt. Sinai","not_available","not_available",41.81847381591797,-72.69400024414062
"06002","Bloomfield","CT","St. Francis Cancer Center","74 Woodland St","not_available",41.81275378397853,-72.6998588555882
"06002","Bloomfield","CT","Hartford HealthCare at Home","1 Northwestern Dr","06002",41.816025415849055,-72.7254796028137
"06002","Bloomfield","CT","Saint Frances Urgent Care Center","421 Cottage Grove Rd Ste A","06002",41.81721878051758,-72.7178955078125
"06002","Bloomfield","CT","Lester R. Schwartz, M.D.","800 Cottage Grove Rd, Bloomfield, CT","06002",41.8160509,-72.7363894
"06010","Bristol","CT","Bristol Hospital","​​41 Brewster Road","06010",41.676516,-72.93592749999999
"06010","Bristol","CT","Bristol Hospital Emergency Room","41 Brewster Rd","06010",41.676455521298855,-72.93593977542047
"06010","Bristol","CT","Bristol Hospital F South","Brewster RD","06010",41.67643144261505,-72.93577056555469
"06010","Bristol","CT","Ingraham Manor","not_available","06010",41.679174091596714,-72.94686114015666
"06010","Bristol","CT","Bristol EMS","371 Terryville Ave","06010",41.680547,-72.962172
"06010","Bristol","CT","Medhelp Urgent Care","539 Farmington Ave","06010",41.69038391113281,-72.92546844482422
"06010","Bristol","CT","Sheridan woods","321 Stonecrest Dr","06010",41.680881,-72.920889
"06010","Bristol","CT","Hartford HealthCare-GoHealth Urgent Care","1215 Farmington Avenue","06010",41.6979161,-72.9036066
"06010","Bristol","CT","New England Urgent Care","576 Farmington Avenue","06010",41.68999299,-72.92435487
"06029","Ellington","CT","Rockville General Hospital","31 Union St","06066",41.8663949,-72.451531
"06029","Ellington","CT","Med-East Medical Walk-In Center","200 Merrow Rd","06084",41.859519958496094,-72.3545913696289
"06029","Ellington","CT","Priority Urgent Care","105 West Rd","06029",41.881353999999995,-72.46337700000001
"06029","Ellington","CT","Ellington Ambulance","41 Maple St","06029",41.908111572265625,-72.46320343017578
"06029","Ellington","CT","Migraine Ward","80 Country Ln","06066",41.85927963256836,-72.47215270996094
"06032","Farmington","CT","University of Connecticut Health Center","263 Farmington Ave","06030",41.72975355976181,-72.79197692871094
"06032","Farmington","CT","Hospital For Special Care","2100 Corbin Ave","06053",41.68893381197761,-72.80193225138534
"06032","Farmington","CT","Dr Chandawarkar","not_available","06032",41.73103470477887,-72.79042699674663
"06032","Farmington","CT","Raymour & Flanigan","not_available","06053",41.71199417114258,-72.76940155029297
"06032","Farmington","CT","Starling Physicians: Mary Leahy, APRN","11 South Road","06032",41.7281046,-72.7990169
"06032","Farmington","CT","Farmington Care Center","Scott Swamp Road","06034",41.7049301306161,-72.84517172650882
"06032","Farmington","CT","Connecticut Children's NICU at UConn Health Center","263 Farmington Avenue,","06032",41.734719,-72.795171
"06032","Farmington","CT","UConn Health Center - Emergency Room","263 Farmington Ave","06032",41.73099012326564,-72.79119661105108
"06033","Glastonbury","CT","PhysicianOne Urgent Care","2928 Main St","06033",41.72328984,-72.61447213
"06033","Glastonbury","CT","Hartford HealthCare-GoHealth Urgent Care","2520 Main St","06033",41.714312,-72.6089722
"06033","Glastonbury","CT","Sheri Benevides, APRN","330 Western Blvd","06033",41.72084045410156,-72.58700561523438
"06033","Glastonbury","CT","Hartford Hospital Institute of Living","Braceland Building","06114",41.74017333984375,-72.6476058959961
"06035","Granby","CT","Doctors Treatment Center - Urgent Care Of Granby","7 Mill Pond Rd","06035",41.933867,-72.789108
"06037","Berlin","CT","Starling Physicians: Linda Matonis, MD","300 Kensington","06051",41.6478023,-72.786694
"06037","Berlin","CT","Starling Physicians: Dr. Shoirakhon Bakieva","300 Kensington Ave","06051",41.6478023,-72.786694
"06037","Berlin","CT","Todd Program","200 Retreat Ave","06106",41.60192743333333,-72.82063941666667
"06037","Berlin","CT","Starling Physicians: Barry Kemler MD","300 Kensington Ave","06052",41.6478023,-72.786694
"06040","Manchester","CT","Manchester Memorial Hospital","71 Haynes St","06040",41.7814,-72.5252323
"06040","Manchester","CT","Hartford HealthCare-GoHealth Urgent Care","244 Spencer Street","06040",41.765929912302326,-72.57126994243202
"06040","Manchester","CT","Connecticut Children's at Eastern Connecticut Health Network","71 Haynes Street,","06040",41.7815772,-72.5260287
"06040","Manchester","CT","New England Urgent Care","370 Middle Tpke W","06040",41.77940368652344,-72.54034423828125
"06042","Manchester","CT","Welles Village Assisted Living","46 Welles Rd","06066",41.81569290161133,-72.50162506103516
"06042","Manchester","CT","PM Pediatrics","1500 Pleasant Valley Rd Ste C","06042",41.80646040000001,-72.55865899999999
"06042","Manchester","CT","Connecticut Endodontic Associates in Manchester, CT","360 Tolland Turnpike Suite 2A","06042",41.8101004,-72.5217022
"06051","New Britain","CT","The Hospital Of Central Connecticut","100 Grand St","06052",41.66166970620951,-72.78676243116513
"06051","New Britain","CT","Diagnostic Center @the Hospital Of Central Connecticut","61 Hart St","06053",41.65993156322502,-72.78549280518297
"06051","New Britain","CT","Room 211","not_available","06052",41.661791,-72.786894
"06051","New Britain","CT","Hartford Healthcare Human Resources","not_available","06051",41.66465573223868,-72.75473518180846
"06051","New Britain","CT","AFC Urgent Care New Britain","135 E Main St","06051",41.67032241821289,-72.77831268310547
"06051","New Britain","CT","Center for Fertility & Women's Health","1 Hawkins St","06052",41.661445416666666,-72.78645708333333
"06051","New Britain","CT","new Britain General Hospital emergency","100 Arch St","06051",41.66495,-72.781607
"06052","New Britain","CT","Starling Physicians: Christopher Russo MD","1 Lake Street Ste 103","06052",41.66871,-72.7912395
"06052","New Britain","CT","Starling Physicians: Andrew Nelson, MD","1 Lake St","06052",41.66871,-72.7912395
"06052","New Britain","CT","Dr. Martin C. Seremet, MD","1 Lake St building c, Ste 103","06052",41.66871,-72.7912395
"06052","New Britain","CT","Starling Physicians: Paul Ceplenski MD","1 Lake Street","06052",41.66871,-72.7912395
"06052","New Britain","CT","Starling Physicians: Alan Stern, MD","One Lake Street","06052",41.66878,-72.79091
"06052","New Britain","CT","hospital for special care new britain","not_available","06062",41.66539384171288,-72.80720827850858
"06052","New Britain","CT","Dr. Edward P. Fitzpatrick, MD","1 Lake St Ste 203","06052",41.668799,-72.791294
"06052","New Britain","CT","Starling Physicians: Ellison Berns, MD","One Lake Street Bld A","06052",41.66871,-72.7912395
"06053","New Britain","CT","The Hospital of Central Connecticut Cancer Center","201 N Mountain Rd","06053",41.674769252978656,-72.82236539041635
"06053","New Britain","CT","Christopher Tagliavini, PA-C","201 North Mountain Rd, #300,","06062",41.67466354370117,-72.82353973388672
"06066","Vernon Rockville","CT","Hartford HealthCare Medical Group","35 Talcottville Rd","06066",41.82575591726645,-72.4991843104363
"06066","Vernon Rockville","CT","Migraine Ward","242 Talcottville Rd, Vernon, CT 06066","06066",41.83634948730469,-72.49046325683594
"06066","Vernon Rockville","CT","AFC Urgent Care","179 Talcottville Rd","06066",41.833067,-72.493623
"06067","Rocky Hill","CT","Starling Physicians: Diana Ferrante DO","1260 Silas Deane Highway","06109",41.6870305,-72.654322
"06067","Rocky Hill","CT","Starling Physicians: Allen Kallor MD","1111 Cromwell Ave Ste 202","06067",41.6393689,-72.6782639
"06067","Rocky Hill","CT","Veterans Home & Hospital","287 West St","06067",41.656024,-72.652332
"06067","Rocky Hill","CT","Starling Physicians: Mark Pennington MD","1111 Cromwell Ave","06067",41.6393689,-72.6782639
"06067","Rocky Hill","CT","Rocky Hill Surgery Center","1111 Cromwell Ave Bldg 1","06067",41.6392707824707,-72.67862701416016
"06067","Rocky Hill","CT","Velocity Urgent Care","not_available","06067",41.659934,-72.677653
"06067","Rocky Hill","CT","Starling Physicians: Ahmed Elwan, MD","1260 Silas Deane Hwy","06109",41.6870305,-72.654322
"06067","Rocky Hill","CT","Starling Physicians: Anthony LaSala, MD","1260 Silas Deane Highway STE 106","06109",41.6870305,-72.654322
"06067","Rocky Hill","CT","Harrford Hospital","Jefferson","not_available",41.659551,-72.71182
"06067","Rocky Hill","CT","Kathy's Urgent Care","856 Cromwell Avenue","06067",41.64701398,-72.67745277
"06067","Rocky Hill","CT","Rosenburg Orthodontics in Wethersfield, CT","55 Town Line Road","06109",41.6827476,-72.6569349
"06069","Sharon","CT","Sharon Hospital","50 Hospital Hill Rd","06069",41.88052237921091,-73.48173157741604
"06070","Simsbury","CT","New England Urgent Care","30 Dorset Xing","06070",41.907379150390625,-72.79000091552734
"06071","Somers","CT","Johnson Memorial Hospital","201 Chestnut Hill Rd","06076",41.982199507939804,-72.39301251042677
"06071","Somers","CT","Echn Urgent Care","95 South Rd","06071",41.979183197021484,-72.44522857666016
"06071","Somers","CT","Or Room Three","not_available","06076",41.97993006891351,-72.39078796302802
"06071","Somers","CT","Evergreen Healthcare Center","205 Chestnut Hill Rd","06076",41.97885513305664,-72.39466094970703
"06074","South Windsor","CT","Echn Urgent Care","2800 Tamarack Ave Ste 105","06074",41.82079315185547,-72.55458068847656
"06074","South Windsor","CT","Hartford HealthCare-GoHealth Urgent Care","25 Buckland Road","06074",41.82629800185804,-72.55181681733802
"06076","Stafford Springs","CT","echn urgent care","36 Somers Xing","06071",41.971168518066406,-72.3624267578125
"06078","Suffield","CT","Ambulatory Center Of Suffield","162 Mountain Rd","06078",41.98414611816406,-72.65673828125
"06078","Suffield","CT","Suffield Volunteer Ambulance (SVAA)","205 Bridge St","06078",41.97987906969654,-72.64414234090569
"06082","Enfield","CT","New England Urgent Care","55 Hazard Avenue","06082",41.99009711,-72.57489131
"06082","Enfield","CT","Hartford HealthCare-GoHealth Urgent Care","54 Hazard Ave Ste 135","06082",41.98773343898214,-72.57598328353652
"06082","Enfield","CT","Ambulatory","20 Palomba Dr","06082",41.996524810791016,-72.57429504394531
"06082","Enfield","CT","Enfield EMS","1260-1298 Enfield St","06082",41.97684579978935,-72.59264842576869
"06082","Enfield","CT","Starling Physicians: Christine Najjar, MD","160 Hazard Avenue","06082",41.9872668,-72.5573872
"06082","Enfield","CT","Nobel Perio in Enfield, CT","146 Hazard Ave Suite #2","06082",41.9878254,-72.5598453
"06088","East Windsor","CT","Kettle Brook Care Center LLC","96 Prospect Hill Rd","06088",41.92550277709961,-72.6052017211914
"06095","Windsor","CT","Hartford HealthCare-GoHealth Urgent Care","1055 Kennedy Rd Ste D","06095",41.89235092605678,-72.65130880489346
"06095","Windsor","CT","World Of Ankle Pain","25 Milo Peck Ln","06095",41.883344,-72.66586600000001
"06095","Windsor","CT","Windsor Ambulance","20 William St","06095",41.85271453857422,-72.66056060791016
"06095","Windsor","CT","The Cancer Center","not_available","06096",41.927904,-72.633007
"06098","Winsted","CT","Winsted Health Center","not_available","06098",41.93021603680244,-73.0763035743889
"06098","Winsted","CT","Charlotte Hungerford Hospital","540 Litchfield St","06790",41.93017515362607,-73.07636246074117
"06103","Hartford","CT","The Yungatis Asylum And Back Yard Patio Wearhouse","not_available","06103",41.767679,-72.673158
"06105","Hartford","CT","St. Francis Hospital","114 Woodland St","06105",41.77387629294508,-72.69901729401268
"06105","Hartford","CT","CT Surgery Center","Gillett St","not_available",41.770416937980045,-72.69965224799998
"06105","Hartford","CT","Saint Francis Hospital ER","231 Ashley St","06105",41.77503033575821,-72.69719163272109
"06105","Hartford","CT","8-1: SFH","not_available","06105",41.77451833860093,-72.69855414818221
"06105","Hartford","CT","AFC Urgent Care - West Hartford","1030 Boulevard","06119",41.760494232177734,-72.7160873413086
"06105","Hartford","CT","Immanuel Day Center","15 Woodland St","06105",41.76839065551758,-72.70382690429688
"06105","Hartford","CT","Comprehensive Breast Health Center","95 Woodland St","06105",41.773818,-72.700588
"06105","Hartford","CT","Hoffman Heart","114 Woodland Ave","06105",41.773816,-72.698712
"06105","Hartford","CT","Women's Health Care Associates PC","21 Woodland St Ste 323","06105",41.76906967163086,-72.70309448242188
"06105","Hartford","CT","Hartford Hospital Education and Resource Center","Hudson St","06115",41.760492510516976,-72.71949291229248
"06105","Hartford","CT","Aetna Ambulance","342-380 Collins St","06105",41.77426745999999,-72.6980244
"06106","Hartford","CT","Hartford Hospital","80 Seymour St","06106",41.75437857345185,-72.67996999393911
"06106","Hartford","CT","Jefferson Building (HH)","85 Jefferson St","06106",41.75540044511093,-72.67988270797042
"06106","Hartford","CT","The Institute of Living","200 Retreat Avenue","06106",41.75068351204691,-72.68232556359351
"06106","Hartford","CT","Hartford Hospital ER","80 Seymour St","not_available",41.75405976060629,-72.67995778195377
"06106","Hartford","CT","Hartford Hospital Radiology","not_available","06106",41.754542,-72.679203
"06106","Hartford","CT","Ellis Manor","George Street","06114",41.732254,-72.677345
"06106","Hartford","CT","Educational Resource Center (HH)","560 Hudson St","06106",41.75585558819118,-72.67809937887125
"06106","Hartford","CT","Hartford Hospital Orange Pod","80 Seymour St","06102",41.75413513183594,-72.67906951904297
"06106","Hartford","CT","CCMC PICU","Washington St","06033",41.75144467001919,-72.68892450572116
"06106","Hartford","CT","CCMC Med/Surg - 6th Floor","282 Washington St","06106",41.75369644165039,-72.68170166015625
"06106","Hartford","CT","Bliss 5","1-95 Retreat Ave","06106",41.7545750054468,-72.67799545540619
"06106","Hartford","CT","Family Lounge","5th Floor","06106",41.754573,-72.679578
"06106","Hartford","CT","Buckingham Program","400 Washington St","06106",41.749839782714844,-72.68119812011719
"06106","Hartford","CT","Hartford Hospital Operating Room","not_available","06114",41.75489073605548,-72.68036836387898
"06106","Hartford","CT","Starling Physicians: Deepti Rawal, MD","100 Retreat Ave","06106",41.7530898,-72.6786423
"06106","Hartford","CT","Infectious Disease Division","Washington Street","06106",41.75377898041411,-72.68102076546798
"06107","West Hartford","CT","Hartford HealthCare-GoHealth Urgent Care","1445 New Britain Ave Ste 1381","06110",41.726993202639946,-72.75651637780572
"06107","West Hartford","CT","New England Urgent Care","21 N Main St","06107",41.763579,-72.742347
"06107","West Hartford","CT","Starling Physicians: Jessica Gjede MD","41 N. Main Street","06107",41.7647282,-72.742709
"06107","West Hartford","CT","Rosenberg Orthodontics in West Hartford, CT","21 North Main Street","06107",41.7636041,-72.7423759
"06108","East Hartford","CT","Health Center","116 Burnside Ave","06108",41.77510070800781,-72.63459777832031
"06108","East Hartford","CT","Connecticut Children's Primary Care at East Hartford","800 Connecticut Blvd.,1st Floor","06108",41.77022171020508,-72.66165161132812
"06109","Wethersfield","CT","Kathy's Urgent Care","672 Silas Deane Highway","06109",41.70643126,-72.66112541
"06109","Wethersfield","CT","Hartford HealthCare at Home","277 Dunham St","06360",41.69162964250767,-72.65869796276093
"06109","Wethersfield","CT","Hartford HealthCare-GoHealth Urgent Care","1025 Silas Deane Hwy","06109",41.6952128,-72.6578937
"06109","Wethersfield","CT","William B. Warner, MD","12391 S 4000 W","84096",41.68882133258279,-72.65521340719715
"06111","Newington","CT","Veterans Affairs Hospital-Newington","555 Willard Ave","06111",41.70221153754668,-72.74033605189184
"06111","Newington","CT","Jefferson House","1 John H Stewart Dr","06111",41.6953009,-72.7149347
"06111","Newington","CT","Hartford HealthCare-GoHealth Urgent Care","40 Fenn Rd","06111",41.6975212097168,-72.7564697265625
"06111","Newington","CT","New Britain Labor And Delivery","not_available","06111",41.654163,-72.728741
"06111","Newington","CT","NY Methodist Hospital","506 6th St","11215",41.6872626,-72.7227834
"06111","Newington","CT","Premier Urgent Care","2909 Berlin Tpke","06111",41.670778000000006,-72.717996
"06111","Newington","CT","Hartford HealthCare at Home","205 Kelsey St","06111",41.654714799234554,-72.74990227397211
"06111","Newington","CT","Starling Physicians: Courtney Souza, MD","375 Willard Ave","06111",41.7074511,-72.7365734
"06111","Newington","CT","Veterans Administration","not_available","06110",41.70272711,-72.7420653
"06111","Newington","CT","Cedarcrest Regional Hospital","525 Russell Rd","06111",41.706776,-72.70973000000001
"06111","Newington","CT","Rosenberg Orthodontics in Newtington, CT","435 Willard Avenue","06111",41.7057482,-72.7360703
"06112","Hartford","CT","Saint Francis/Mount Sinai","490 Blue Hills Ave","06112",41.79961013793945,-72.69371032714844
"06117","West Hartford","CT","Hartford HealthCare-GoHealth Urgent Care","336A N Main St","06117",41.78446199997868,-72.74538382209016
"06117","West Hartford","CT","UConn Health Center","65 Kane St","06119",41.75084449831778,-72.71917715638696
"06117","West Hartford","CT","Connecticut Children's Primary Care at West Hartford","65 Kane Street,2nd Floor","06119",41.7506905,-72.7190619
"06226","Willimantic","CT","Natchaug Hospital","189 Storrs Rd","06250",41.74099522675238,-72.1982167569276
"06226","Willimantic","CT","Windham Hospital","112 Mansfield Ave","06226",41.716865711780436,-72.22605220437795
"06226","Willimantic","CT","Hartford HealthCare at Home","34 Ledgebrook Dr","06250",41.73497244984179,-72.2079673069311
"06226","Willimantic","CT","Connecticut Children's at Windham Hospital","112 Mansfield Avenue,","06226",41.7173432,-72.2259329
"06234","Brooklyn","CT","Amplisound Hearing Care Centers","594 Putnam Rd","06239",41.760948181152344,-71.8998031616211
"06234","Brooklyn","CT","DKH ER","not_available","06234",41.78806,-71.95087
"06238","Coventry","CT","Mansfield Training School","not_available","06268",41.80929443061949,-72.30494355318707
"06241","Dayville","CT","Westview Healthcare  Center","not_available","06241",41.88146201877091,-71.8727640548125
"06249","Lebanon","CT","Backus Hospital Ultrasound","not_available","06360",41.560870894761294,-72.23664791533024
"06260","Putnam","CT","Day Kimball Hospital","320 Pomfret St","06260",41.90680874814053,-71.91347205898735
"06260","Putnam","CT","Dkh Endoscopy","not_available","06260",41.90652,-71.91376
"06260","Putnam","CT","Connecticut Children's at Day Kimball Healthcare","320 Pomfret Street,","06260",41.9065432,-71.9137355
"06281","Woodstock","CT","Family Health Care & Walk In Center","39 Route 171","06281",41.93400494262936,-71.93663802698364
"06281","Woodstock","CT","Providence Health System - Behavioral Health","1140 Varnum St NE","20017",41.96178776550048,-72.01274156570435
"06320","New London","CT","Lawrence & Memorial Hospital","365 Montauk Ave","06320",41.3370022686263,-72.1051227633026
"06320","New London","CT","Neops New London","not_available","06320",41.371691154775874,-72.11654284010416
"06320","New London","CT","Multispecialty Center - New London","194 Howard St","06320",41.3446892,-72.0988775
"06320","New London","CT","Hartford HealthCare-GoHealth Urgent Care","351 N Frontage Rd","06320",41.370995,-72.118036
"06320","New London","CT","L&M 4.1 Rm07","50 Fair Harbour Pl, New London, CT 06320","06320",41.33747863769531,-72.10504150390625
"06333","East Lyme","CT","The Charter Oak Walk-In Medical Center","324 Flanders Rd","06333",41.365090427145745,-72.20989258452678
"06333","East Lyme","CT","Bride Brook Health and Rehabilitation Center","23 Liberty Way","06357",41.321042999999996,-72.242896
"06339","Ledyard","CT","Ems Lounge","not_available","06339",41.46802240415418,-71.95206763146136
"06339","Ledyard","CT","Lawrence And Memorial Family Medicine","2 Lorenz Industrial Pkwy","06339",41.405555725097656,-72.02485656738281
"06340","Groton","CT","Lawrence & Memorial - Pequot Health Center","52 Hazelnut Hill Rd","06340",41.35793761194381,-72.02636351024974
"06340","Groton","CT","PhysicianOne Urgent Care","220 CT-12","06340",41.36905744,-72.06845929
"06340","Groton","CT","Advanced Back And Neck Care Center","565 Long Hill Rd","06340",41.351600646972656,-72.05902862548828
"06340","Groton","CT","Naval Branch Health Clinic","1 Wahoo Ave","06349",41.39786168518421,-72.08659118172305
"06340","Groton","CT","eastern point beach ems room","not_available","06340",41.31942367553711,-72.07430267333984
"06355","Mystic","CT","Evelyn Danso, APRN","100 Perkins Farm Dr","06355",41.3700969688096,-71.94380098741247
"06359","North Stonington","CT","Stonington Institute","75 Swantown Hill Rd","06359",41.474685219274164,-71.92776108793741
"06360","Norwich","CT","William Backus Hospital","326 Washington St","06360",41.54246307458798,-72.08835454445939
"06360","Norwich","CT","PhysicianOne Urgent Care","607 W Main Street","06360",41.516423,-72.100739
"06360","Norwich","CT","Connecticut Children's at Backus Outpatient Care Center","111 Salem Turnpike,","06360",41.5135268,-72.1166209
"06360","Norwich","CT","Keith Ringuette, PA-C","111 Salem Tpke","06360",41.51305620607509,-72.11275961573847
"06360","Norwich","CT","Norwich Sleep Center","330 Washington St","06360",41.542771,-72.088162
"06360","Norwich","CT","Employee Health Center - Mohegan Sun","1 Mohegan Sun Blvd","06382",41.492953,-72.089174
"06360","Norwich","CT","Concentra Urgent Care - Norwich","10 Connecticut Ave","06360",41.55971145629883,-72.11415100097656
"06360","Norwich","CT","Connecticut Children's at Backus Hospital","326 Washington Street,","06360",41.5432439,-72.0889953
"06360","Norwich","CT","Hartford HealthCare-GoHealth Urgent Care","624 W Main St Ste 140","06360",41.51399222880022,-72.10098087787634
"06365","Preston","CT","Chillin On The Roof Of Kettle","Circle C S","06365",41.48616135120392,-72.06813454627991
"06371","Old Lyme","CT","The Sick Den","120 Maple Ave","06475",41.27540588378906,-72.37580108642578
"06371","Old Lyme","CT","Whole Health Wellness","90 Main St Ste 105","06409",41.351200103759766,-72.4174575805664
"06371","Old Lyme","CT","Shoreline Medical Center","not_available","06371",41.32395274063277,-72.33938859246973
"06371","Old Lyme","CT","Yale New Haven Health Old Saybrook Medical Center","633 Middlesex Turnpike","06475",41.321871,-72.379517
"06371","Old Lyme","CT","Middlesex Health Urgent Care - Old Saybrook","1687 Boston Post Rd","06475",41.286335,-72.418001
"06371","Old Lyme","CT","mini kitsu's hospital room :c","not_available","06442",41.32897013053851,-72.42742402568321
"06374","Plainfield","CT","Plainfield Emergency Care Center","582 Norwich Rd","06374",41.68105803368749,-71.91378685205522
"06379","Pawcatuck","CT","Northeast Medical Group Medical Center - Stonington","91 Voluntown Rd","06379",41.40683364868164,-71.84741973876953
"06385","Waterford","CT","Seaside Sanitarium","Seaside Dr","06385",41.31006652854578,-72.13242938061349
"06385","Waterford","CT","Future Home Of New L&M Hospital Bldg","not_available","06385",41.367982,-72.147805
"06401","Ansonia","CT","Griffin Hospital","130 Division St","06418",41.3350191,-73.0886199
"06401","Ansonia","CT","POD 3","not_available","06418",41.334964,-73.088346
"06401","Ansonia","CT","Physician One Urgent Care","Pershing Drive","not_available",41.32826324036037,-73.08466248031499
"06401","Ansonia","CT","Jik","not_available","06401",41.342896,-73.071146
"06401","Ansonia","CT","MedExpress Urgent Care","68 Division St","06418",41.33208276105942,-73.08376036441803
"06405","Branford","CT","Stony Creek Urgent Care","6 Business Park Dr #302","06405",41.296706,-72.768495
"06405","Branford","CT","21 Business Park Drive","21 Business Park Dr","06405",41.29555892944336,-72.77071380615234
"06405","Branford","CT","Northeast Medical Group Internal Medicine - Branford","500 E Main St","06405",41.2990156,-72.7684116
"06405","Branford","CT","Connecticut Hospice","100 Double Beach Rd","06405",41.25677914291425,-72.83298966028325
"06405","Branford","CT","Rivendell","Aka Hospice","not_available",41.256508552440735,-72.83256268551307
"06405","Branford","CT","ENT Medical and Surgical Group","954 Main St","06405",41.28127670288086,-72.8122329711914
"06410","Cheshire","CT","double D hospital","not_available","06451",41.54011127161008,-72.8491333733485
"06410","Cheshire","CT","Gaylord Hospital -  Persky","not_available","06492",41.47394821720097,-72.85677827607407
"06410","Cheshire","CT","Hartford Health Care-GoHealth Urgent Care","1008 S Main St","06410",41.477184,-72.905731
"06410","Cheshire","CT","Mediquick Cheshire","not_available","06410",41.48573607036402,-72.9047107522122
"06410","Cheshire","CT","Fat Loss Coach","1303 Highland Avenue suite A","06410",41.5345848,-72.8946969
"06410","Cheshire","CT","Gaylord Specialty Healthcare / Gaylord Hospital","50 Gaylord Farm Rd.","06492",41.47256979254217,-72.85643287723872
"06410","Cheshire","CT","Hospital Of St. Raphael GI Lab","George Street","06511",41.50395625137514,-72.90778519024369
"06410","Cheshire","CT","Gaylord Physical Therapy Orthopedics & Sports Medicine, Cheshire","1154 Highland Ave.","06410",41.529990999999995,-72.89448900000001
"06415","Colchester","CT","Backus Health Center","not_available","06415",41.57805252075195,-72.33744812011719
"06415","Colchester","CT","East Haddam Dental Associates","32 William F Palmer Road Suite 101","06469",41.50182,-72.44490400000001
"06416","Cromwell","CT","Connecticut Urgent Care Centers, LLC","136 Berlin Rd","06416",41.6074297,-72.7078466
"06416","Cromwell","CT","Preferred Dental of Cromwell","75 Berlin Rd","06416",41.601339,-72.690958
"06423","East Haddam","CT","Martin Rehab Facilities","The STICKS","06423",41.47101974487305,-72.4411392211914
"06423","East Haddam","CT","World AIDS Day","not_available","06423",41.45295,-72.46016
"06424","East Hampton","CT","Middlesex Hospital-Marlborough Medical Center","12 Jones Hollow Rd","06447",41.63350668987442,-72.46044039036218
"06437","Guilford","CT","Yale Guilford ED","not_available","06437",41.2883,-72.683805
"06437","Guilford","CT","Andrew S. Pollak, L.M.F.T.","99 Whitfield St","06437",41.28078842163086,-72.6816635131836
"06437","Guilford","CT","Strong Women's Health","705 Boston Post Rd","06437",41.289804,-72.671562
"06437","Guilford","CT","Georges M. Haidar MD","330 N","60435",41.37268959246619,-72.69735627523914
"06443","Madison","CT","Positive Choices Therapy","11 Woodland Rd","06443",41.285042,-72.60252799999999
"06443","Madison","CT","Middlesex Health Urgent Care - Madison","146 Samson Rock Dr","06443",41.27785678313874,-72.59529576073056
"06450","Meriden","CT","MidState Medical Center","435 Lewis Ave","06451",41.54815851009314,-72.80008792877197
"06450","Meriden","CT","MidState Medical Center Surgicenter Waiting Area A","425 Lewis Avenue","06451",41.549797801972424,-72.80090677611047
"06450","Meriden","CT","Meriden Urgent Care","Broad St","06450",41.509391,-72.808247
"06450","Meriden","CT","Nurse Station","Lewis Ave","not_available",41.53412418381695,-72.77631902089983
"06450","Meriden","CT","Westfield Care Center","13-79 Westfield Rd","06450",41.546967541761894,-72.77967761021621
"06450","Meriden","CT","MedExpress Urgent Care","875 E Main St","06450",41.527443250748654,-72.77443022216175
"06450","Meriden","CT","Hartford HealthCare-GoHealth Urgent Care","482 South Broad St","06450",41.5094412,-72.8086506
"06450","Meriden","CT","Jack Herrle, M.Ed., O.D.","130 E Main St","06450",41.5368769,-72.7982417
"06457","Middletown","CT","Middlesex Hospital","28 Crescent St","06457",41.5544714,-72.64706389999999
"06457","Middletown","CT","Connecticut Valley Hospital","Silver Street","not_available",41.557401,-72.63227
"06457","Middletown","CT","Riverview Hospital For Children & Youth","915 River Rd","06457",41.55689086087882,-72.61260804635937
"06457","Middletown","CT","Middlesex Hospital Emergency Room","not_available","06457",41.555261883278774,-72.64637093322898
"06457","Middletown","CT","Middlesex Health Urgent Care - Middletown","896 Washington St","06457",41.555101123351704,-72.68222510384945
"06457","Middletown","CT","Department of psychiatry office","33 Pleasant St, Middletown, CT 06457","06457",41.55561447143555,-72.64806365966797
"06457","Middletown","CT","middlex rehab","Randolph Rd","not_available",41.54023713743347,-72.65334706989853
"06457","Middletown","CT","Whiting Forensic Institute Middletown Ct","79 Obrien Drive","06457",41.55267292979571,-72.62565303978643
"06457","Middletown","CT","Middlesex Center For Advanced Orthopedic Surgery","510 Saybrook Rd","06457",41.540470123291016,-72.62230682373047
"06457","Middletown","CT","MedExpress Urgent Care","752 Washington St","06457",41.55496600000001,-72.6773625423279
"06460","Milford","CT","Milford Hospital","300 Seaside Ave","06460",41.216282501802084,-73.06454028008132
"06460","Milford","CT","Orthopaedic Specialty Group Milford Office","321 Boston Post Rd","06460",41.2238073,-73.0714255
"06460","Milford","CT","203 urgent care","East Main St","06614",41.21897246168246,-73.11699511691027
"06460","Milford","CT","Room 5 Milford Walk In","not_available","06460",41.231404,-73.054071
"06460","Milford","CT","ASAP Urgent Care","199 Cherry St","06460",41.2292733318372,-73.0480248704912
"06460","Milford","CT","Liver replacement center","21 Alcoholics Pass","06461",41.2274708,-73.0639413
"06460","Milford","CT","Family Foot Care & Surgery, LLC","309 Seaside Ave Ste 202","06460",41.2172233,-73.064012
"06460","Milford","CT","Dr. Mary Battilocchi, ND","2068 Bridgeport Ave Ste D","06460",41.21782839999999,-73.0651269
"06460","Milford","CT","Docs Urgent Care Stratford","not_available","06614",41.202955,-73.117173
"06461","Milford","CT","Orthofast Shelton","760 River Rd","06484",41.2664935,-73.0925101
"06468","Monroe","CT","Orthofast Monroe","731 Main Street","06468",41.3416543,-73.2624347
"06468","Monroe","CT","Pediatric Asthma Specialist","115 Technology Dr Unit B200","06611",41.2965087890625,-73.23161315917969
"06468","Monroe","CT","St Vincents Urgent Care Walk-in","401 Monroe Tpke","06468",41.31064095111461,-73.2221913578916
"06468","Monroe","CT","PhysicianOne Urgent Care","266 South Main Street","06470",41.3686952,-73.2728767
"06471","North Branford","CT","St. Vincent's Medical Center Chapel","not_available","06606",41.36766348947571,-72.8049173664058
"06472","Northford","CT","Saint Raphael Surgical Hospital","Whitney Ave","not_available",41.377716,-72.793869
"06473","North Haven","CT","Yale Infusion Center","not_available","06473",41.382682,-72.880509
"06473","North Haven","CT","Family Foot Care & Surgery, LLC","299 Washington Ave Ste 4","06518",41.391170501708984,-72.89627075195312
"06473","North Haven","CT","Yale Multiple Sclerosis Center","6 Devine St","06473",41.381900787353516,-72.8795394897461
"06473","North Haven","CT","Beyond Urgent Care North Haven CT","79 Washington Avenue","06473",41.393337,-72.86044729999999
"06473","North Haven","CT","Hamot","100 State Street","not_available",41.385520935058594,-72.87445831298828
"06473","North Haven","CT","Northeast Medical Group Multispecialty Center - North Haven","4 Devine St","06473",41.382450103759766,-72.88031768798828
"06473","North Haven","CT","Montowese Health and Rehabilitation Center, Inc.","163 Quinnipiac Ave","06473",41.344255,-72.863929
"06473","North Haven","CT","Internal Medicine and Family Practice","2447 Whitney Ave Ste 2A","06518",41.386102,-72.900512
"06473","North Haven","CT","Gaylord Physical Therapy Orthopedics & Sports Medicine, North Haven","8 Devine Street","06473",41.38072,-72.88086
"06473","North Haven","CT","ENT Medical and Surgical Group","31 Broadway","06473",41.3885249,-72.8639615
"06477","Orange","CT","Urgent Care Center","not_available","06477",41.27666114303415,-72.99026482704485
"06477","Orange","CT","PhysicianOne Urgent Care","521 Boston Post Rd","06477",41.25437927246094,-73.01788330078125
"06477","Orange","CT","Stony Creek Urgent Care","236 Boston Post Rd","06477",41.26925919992905,-72.99801349639893
"06477","Orange","CT","Orange Health Care Center","225 Boston Post Rd","06477",41.26971064572523,-72.99880056527172
"06477","Orange","CT","Milford Hospital","New Haven Avenue","06460",41.28733619485232,-72.98071215686225
"06478","Oxford","CT","Oxford Ambulance Association","484 Oxford Rd","06478",41.437828063964844,-73.12018585205078
"06478","Oxford","CT","Premier Urgent Care and Walk-in Clinic","278 Oxford Rd","06478",41.422569274902344,-73.10843658447266
"06479","Plantsville","CT","Hospital of Central Connecticut at Bradley Memorial","55 Meriden Ave","06489",41.595124108180315,-72.87552697672874
"06479","Plantsville","CT","The Summit at Plantsville","261 Summit St","06479",41.591870143935644,-72.89222761420652
"06479","Plantsville","CT","Mt Southington Ski Patrol","304-424 Mt Vernon Rd","06479",41.58252994847939,-72.92549272334514
"06479","Plantsville","CT","Southington Surgery Center","81 Meriden Ave Ste 3-C","06489",41.59745407104492,-72.87493133544922
"06483","Seymour","CT","Seymour Ambulance","4 Wakeley St","06483",41.39455807201247,-73.07499129690287
"06483","Seymour","CT","Create Inner Clarity","36 New Haven Rd","06483",41.3969841003418,-73.06369018554688
"06484","Shelton","CT","St. Vincent's Urgent Care","15 Armstrong Rd","06484",41.26578903198242,-73.1282958984375
"06484","Shelton","CT","Griffin Hospital Occupational Medicine & Rehabilitation Services","10 Progress Dr","06484",41.272887893570136,-73.13141584396362
"06484","Shelton","CT","Connecticut Children's Orthopedics and Sports Medicine","2 Ivy Brook Road,Suite 213","06484",41.2942154,-73.0904913
"06488","Southbury","CT","PhysicianOne Urgent Care","900 Main St S #100","06488",41.462256744579584,-73.23447224020416
"06488","Southbury","CT","A&C Medical Supplies and Equipment inc","250 Main St S","06488",41.47492192794661,-73.2204720687866
"06489","Southington","CT","Hartford HealthCare-GoHealth Urgent Care","775 Queen St","06489",41.637795000000004,-72.873451
"06489","Southington","CT","Velocity Urgent Care","365 Queen St","06489",41.627067,-72.872633
"06489","Southington","CT","Southington Urgent Care","West St","not_available",41.62774240995399,-72.8799349985873
"06489","Southington","CT","Right Now Urgent Care","1131 West St (Rt 229)","06489",41.61907745062809,-72.8988617125488
"06489","Southington","CT","Hospital For Behavioral Health","not_available","06489",41.601238,-72.872028
"06489","Southington","CT","Personal Care Pediatric","38 Castleman Dr","06489",41.60628,-72.89241700000001
"06492","Wallingford","CT","Masonicare","22 Masonic Ave","06492",41.46228491638578,-72.83666507433747
"06492","Wallingford","CT","Ortho Ouch Care","863 N Main Street Ext Ste 200","06492",41.48226547241211,-72.80809783935547
"06492","Wallingford","CT","Concetra Urgent Care","900 Northrop Rd","06492",41.4855491,-72.7686374
"06498","Westbrook","CT","Middlesex Hospital Shoreline","250 Flat Rock Pl","06498",41.29045376080124,-72.43720958128868
"06510","New Haven","CT","Yale-New Haven Hospital","20 York St","06510",41.30428575124667,-72.93507846888392
"06510","New Haven","CT","Yale new haven hospital- Emergency Department","not_available","06504",41.30381608072318,-72.93633412700514
"06510","New Haven","CT","Yale - Dana Clinic Building","789 Howard Ave","06519",41.30255404517711,-72.93585131003528
"06510","New Haven","CT","Smilow Cancer Hospital","20 York St","06519",41.304980221703495,-72.93581496805685
"06510","New Haven","CT","Smilow Cancer Hospital Diagnostic Radiology CT Scan","not_available","06519",41.305008,-72.935948
"06510","New Haven","CT","Yale Center for Clinical Investigation","2 Church St S","06519",41.30205535888672,-72.9298095703125
"06510","New Haven","CT","Yale Emergency Room","364-410 George St","06511",41.30360244841339,-72.93585613585508
"06510","New Haven","CT","Yale MRI Center","801 Howard Ave","06519",41.30290958064197,-72.93579940287232
"06510","New Haven","CT","Smilow Cancer Hospital Surgical Onc","Park Street","06511",41.304973055430644,-72.93586822593832
"06510","New Haven","CT","Temple Surgical","60 Temple St","06510",41.3043327331543,-72.92913818359375
"06510","New Haven","CT","Yale-New Haven Psychiatric Hospital","184 Liberty St","06519",41.301462,-72.93287099999999
"06510","New Haven","CT","Yale-New Haven Pediatric Emergency Department","871 Howard Ave","06510",41.304093115839024,-72.93652527817608
"06510","New Haven","CT","Yale-New Haven Diagnostic Radiology","35 Park St","06519",41.30482141668296,-72.9361253551398
"06510","New Haven","CT","Yale Neurophysiology","not_available","06510",41.304102,-72.935946
"06510","New Haven","CT","Trauma & surgical critical care","800 Howard Ave","06519",41.302548,-72.936336
"06511","New Haven","CT","Yale New Haven Hospital - Saint Raphael's Campus","1450 Chapel St","06511",41.31047414241932,-72.9427606291457
"06511","New Haven","CT","Yale Health","55 Lock St","06511",41.31581644750563,-72.92781657045327
"06511","New Haven","CT","Saint Raphael's Radiology","not_available","06511",41.310094,-72.942623
"06511","New Haven","CT","Tower 14","620 Howard Ave","06519",41.298160552978516,-72.93434143066406
"06512","East Haven","CT","Saint Benedict","not_available","06512",41.27715163818842,-72.88713436290963
"06513","New Haven","CT","203-UrgentCare","317 Foxon Rd","06513",41.32512283325195,-72.8363265991211
"06514","Hamden","CT","203 Urgent Care","1700 Dixwell Ave","06514",41.358799,-72.927001
"06514","Hamden","CT","Yale New Haven Hospital OR 6","York St, New Haven, CT","06511",41.40474638623626,-72.9347554897494
"06514","Hamden","CT","Express Care Urgent Care","1650 Dixwell Ave","06514",41.357397,-72.927403
"06514","Hamden","CT","Johnny's Office","2300 Dixwell Ave","06514",41.373154,-72.917395
"06514","Hamden","CT","PhysicianOne Urgent Care","2165 Dixwell Ave","06514",41.369144439697266,-72.91809844970703
"06515","New Haven","CT","Gesher LLC Allergy, Asthma & Clinical Immunology","1097-1101 Whalley Ave","06515",41.3286315107747,-72.96629905700684
"06515","New Haven","CT","SRHS-Selina Lewis Bldg","643-699 George St","06511",41.31054855,-72.9454985
"06515","New Haven","CT","St. Raphael's Foot & Ankle Clinic","orchard st","06511",41.3109113125,-72.9424183125
"06516","West Haven","CT","Veterans Affairs CT Healthcare System: West Haven Medical Center","950 Campbell Ave","06516",41.28228142172276,-72.9612395655828
"06516","West Haven","CT","VA Psych ER","952 Campbell Ave","06516",41.282279115252955,-72.95995807861392
"06604","Bridgeport","CT","St. Vincent's Medical Center","2800 Main St","06606",41.201434944932934,-73.20187959394586
"06604","Bridgeport","CT","Hartford HealthCare at Home","765 Fairfield Ave","06604",41.17582475741175,-73.2005563038183
"06604","Bridgeport","CT","AFC Urgent Care - Bridgeport","161 Boston Avenue","06610",41.20197,-73.18651
"06604","Bridgeport","CT","Fairfield Surgery Center","305 Black Rock Turnpike","06825",41.1637286,-73.2340734
"06604","Bridgeport","CT","St. Vincent 6th Floor North Room 641","218-298 Hawley Ave","06606",41.201165044444444,-73.20154983750001
"06604","Bridgeport","CT","Tallwood Urology & Kidney Institute","2660 Main St","06606",41.199355431746866,-73.19753766059874
"06604","Bridgeport","CT","St. Vincent's Family Birthing Center","2880 Main Street","not_available",41.20126001870227,-73.20101546790319
"06604","Bridgeport","CT","Total U Health And Wellness Center","Service Area","06604",41.18694305419922,-73.21968841552734
"06604","Bridgeport","CT","St Vincents Gi Lab","154-216 Hawley Ave","06606",41.201255200000006,-73.20163726000001
"06604","Bridgeport","CT","St. Vincent's Primary Care Walk-In Center Bridgeport","2979 Main St","06606",41.202498,-73.2047
"06604","Bridgeport","CT","Missionary Work","not_available","06610",41.20183563232422,-73.1760025024414
"06606","Bridgeport","CT","Whole Body Medicine LLC","5520 Park Ave","06611",41.227542,-73.24290400000001
"06606","Bridgeport","CT","AFC Urgent Care Bridgeport","4200 Main St","06606",41.217864990234375,-73.21421813964844
"06610","Bridgeport","CT","Bridgeport Hospital","267 Grant St","06610",41.189137390388225,-73.16729629518858
"06610","Bridgeport","CT","Bridgeport Hospital Surgease","Bridgeport Hospital","06610",41.18969538128326,-73.16565258598567
"06610","Bridgeport","CT","St. Vincent's Primary Care Walk-In Center Barnum","1640 Barnum Ave","06610",41.18812942504883,-73.15953063964844
"06610","Bridgeport","CT","Marsh II","not_available","06608",41.18930978408719,-73.16758276563688
"06611","Trumbull","CT","St. Joseph's Manor Care and Rehabilitation Center","6448 Main St","06611",41.274018,-73.226678
"06611","Trumbull","CT","Hartford HealthCare at Home","12 Cambridge Dr","06611",41.230266246800475,-73.20086359977722
"06611","Trumbull","CT","ENT and Allergy Associates, LLC","160 Hawley Ln #202","06611",41.2348231,-73.14941019999999
"06611","Trumbull","CT","St. Vincent's Trumbull Medicine","17 Church Hill Rd","06611",41.257764,-73.218627
"06611","Trumbull","CT","Northeast Medical Group Heart & Vascular - Trumbull","112 Quarry Rd","06611",41.23054885864258,-73.18512725830078
"06611","Trumbull","CT","trumbull urgent care center","900 White Plains Rd","06611",41.245264,-73.195712
"06611","Trumbull","CT","Kindred at Home","99 Hawley Ln","06614",41.23138318,-73.15092114
"06611","Trumbull","CT","Trumbull Hospital","not_available","06611",41.24287414550781,-73.20066833496094
"06611","Trumbull","CT","St. Vincent's Regional Heart & Vascular Center-Trumbull","115 Technology Dr","06611",41.243384802384,-73.19998383522034
"06614","Stratford","CT","Orthopaedic Specialty Group Stratford Office","2909 Main Street","06614",41.2004202,-73.1318718
"06614","Stratford","CT","St. Vincent's Stratford Medicine","3272 Main St","06614",41.2049446105957,-73.13041687011719
"06614","Stratford","CT","St. Vincent's Pediatrics (Stratford)","2890 Main St","06614",41.200035095214844,-73.13034057617188
"06615","Stratford","CT","Pet Hospital Of Stratford","not_available","06615",41.192258,-73.133695
"06702","Waterbury","CT","Saint Mary's Hospital","56 Franklin St","06706",41.55298203112099,-73.03702554036354
"06702","Waterbury","CT","St. Mary's ER.","not_available","06708",41.55306019868871,-73.0373852972686
"06702","Waterbury","CT","Saint Mary's Hospital - Radiology","not_available","06706",41.553063,-73.037341
"06704","Waterbury","CT","Waterbury Hospital","64 Robbins St","06708",41.559446923931034,-73.05929660797113
"06704","Waterbury","CT","Waterbury Urgent Care Center","279 Chase Ave","06704",41.581136,-73.034571
"06704","Waterbury","CT","Waterbury Hospital X Ray","not_available","06702",41.560756426378646,-73.06080488434957
"06704","Waterbury","CT","MedPost Urgent Care of Anaheim Hills","751 S Weir Canyon Rd","92808",41.56098,-73.0626599
"06704","Waterbury","CT","Concentra Urgent Care - Waterbury","8 S Commons Rd","06704",41.59629486501217,-73.05717565119267
"06704","Waterbury","CT","PhysicianOne Urgent Care","920 Wolcott St","06705",41.56496998132828,-73.00712227821349
"06708","Waterbury","CT","Dreyfus David H MD-Allergy Asthma & Immunology","1389 W Main St #205","06708",41.549178999999995,-73.065577
"06708","Waterbury","CT","Middlebury Surgical Center","687 Straits Tpke","06762",41.528335999999996,-73.084554
"06750","Bantam","CT","Litchfield County Orthopedic & Spine, P.C.","622 Bantam Rd","06750",41.7250052,-73.2272801
"06759","Litchfield","CT","Charlotte Hungerford Hospital Adult & Pediatric Urology","538 Litchfield St","06790",41.79056080722615,-73.13389420509338
"06776","New Milford","CT","New Milford Hospital","21 Elm St","06776",41.581497544156704,-73.40941405976216
"06776","New Milford","CT","New Milford Hospital Radiology","not_available","06776",41.58141,-73.40922
"06776","New Milford","CT","Global Med Industries, Llc","37 Main St Unit 1301 Unit 1301","06776",41.5781886,-73.41186350000001
"06790","Torrington","CT","Walk In","22 Greenridge Rd","06790",41.819658000000004,-73.085983
"06790","Torrington","CT","Concentra Urgent Care","333 Kennedy Dr Ste 202","06790",41.82532419259488,-73.1015494465828
"06790","Torrington","CT","AFC Urgent Care Torrington","1171 East Main Street","06790",41.815669,-73.09517
"06790","Torrington","CT","Hartford HealthCare at Home","81 Meriden Ave","06489",41.825470553926365,-73.10296681102045
"06790","Torrington","CT","Northwest Connecticut Medical Walk-In","1598 E Main St","06790",41.820033,-73.085562
"06790","Torrington","CT","Hartford HealthCare-GoHealth Urgent Care","996 East Main Street","06790",41.8125761,-73.0993921
"06790","Torrington","CT","Hartford HealthCare at Home","65 Commercial Blvd","06790",41.82490345811177,-73.10382511790522
"06795","Watertown","CT","Hartford HealthCare at Home","680 Main St","06795",41.6018692244153,-73.11584830284119
"06801","Bethel","CT","AFC Urgent Care","74 Newtown Rd","06810",41.40662384033203,-73.41871643066406
"06801","Bethel","CT","Beyond Urgent Care Bethel","6 stony Hill Road","06801",41.417179,-73.399546
"06804","Brookfield","CT","PhysicianOne Urgent Care","31 Old Route 7","06804",41.47653907742095,-73.40823780947646
"06804","Brookfield","CT","The Tapping Solution, LLC","39 Beverly Drive","06804",41.4413644,-73.4079608
"06807","Cos Cob","CT","Greenwich Walk-In Medical Center","1200 E Putnam Ave","06878",41.041168212890625,-73.58077239990234
"06807","Cos Cob","CT","GEMS Medic 1","1111 E Putnam Ave","06878",41.04107852728987,-73.58420491218567
"06807","Cos Cob","CT","Greenwich Medical Clinic","E Putnam Ave","not_available",41.04116079338589,-73.58058521208898
"06807","Cos Cob","CT","St Vincent Medical Center","Main St","06870",41.082505343667876,-73.58465668794129
"06810","Danbury","CT","Danbury Hospital","24 Hospital Ave","06810",41.40500956375411,-73.44472622458672
"06810","Danbury","CT","Docs Urgent Care Danbury","1 Padanaram Rd","06811",41.41298389769134,-73.45656638033688
"06810","Danbury","CT","Duracell Center For Ambulatory Surgery","Hospital Ave","06810",41.405053,-73.444697
"06810","Danbury","CT","Doctors Express Urgent Care","2 Main St","06810",41.38627548795596,-73.44459056854248
"06810","Danbury","CT","Danbury Hospital Morgue","not_available","06810",41.40471465281835,-73.44567570526638
"06810","Danbury","CT","Main Street Rehab","235 Main St","06810",41.39531326293945,-73.45228576660156
"06810","Danbury","CT","Medline Receiving - Danbury Hospital","80 Germantown Rd","not_available",41.411311,-73.437266
"06810","Danbury","CT","Danbury Ambulance Service","14 Walnut St","06811",41.41148146827566,-73.45326564434447
"06810","Danbury","CT","Doctors Express Urgent Care","100 Mill Plain Rd","06811",41.393674200116095,-73.51464268637964
"06810","Danbury","CT","Outpatient Radiology","113 Locus Ave","06810",41.404925,-73.445723
"06810","Danbury","CT","AFC Urgent Care Danbury West","100 Mill Plain Road","06811",41.39375,-73.51399
"06820","Darien","CT","Norwalk Urgent Care Center","699 Connecticut Ave","06854",41.09458895237273,-73.44941564582085
"06820","Darien","CT","HSS Stamford Outpatient Center","1 Blachley Rd","06902",41.0519538,-73.5170112
"06820","Darien","CT","Stephen Massimi, MD","1 Blachley Road Hospital for Special Surgery Outpatient Center","06902",41.0517016,-73.5162094
"06820","Darien","CT","Stamford Emergency Medical Services Medic 2","not_available","06906",41.07107316861966,-73.51720830490824
"06820","Darien","CT","The Ayer Neuroscience Institute Headache Center","623 Newfield Ave","06905",41.08043080841576,-73.49699020385742
"06824","Fairfield","CT","Saint Vincent Behavioral Center","47 Long Lots Rd","06880",41.144365981755215,-73.33214358201971
"06824","Fairfield","CT","AFC Urgent Care Fairfield","1918 Black Rock Turnpike","06825",41.18079,-73.24908
"06824","Fairfield","CT","Nurse's Office","not_available","06880",41.153602,-73.32837
"06824","Fairfield","CT","Fairfield Urgent Care Center","309 Stillson Rd","06825",41.182061,-73.25139300000001
"06824","Fairfield","CT","Connecticut Health Of Southport","718-944 Mill Hill Terrace","06890",41.147035350650505,-73.28783189801875
"06824","Fairfield","CT","St. Vincent's Immediate Health Care Center","1055 Post Rd","06824",41.145084381103516,-73.2517318725586
"06824","Fairfield","CT","Bridgeport Hospital Walk In Clinic","not_available","06825",41.181889,-73.251415
"06824","Fairfield","CT","Fairfield Medicine","111 Beach Rd","06824",41.14463424682617,-73.25090789794922
"06830","Greenwich","CT","Greenwich Hospital","5 Perryridge Rd","06830",41.0344323001906,-73.62999993455354
"06830","Greenwich","CT","Greenwich Hospital Breast Center","77 Lafayette Pl","06830",41.033769030958005,-73.62858097789209
"06830","Greenwich","CT","WESTMED Urgent Care","644 W Putnam Ave","06830",41.016853999999995,-73.647685
"06830","Greenwich","CT","Greenwich Hospital Laboratory","not_available","06830",41.03439712524414,-73.62973022460938
"06830","Greenwich","CT","Greenwich smartlipo","2 Dearfield Dr","06831",41.028429,-73.630529
"06830","Greenwich","CT","Marilyn Tucker-Viselli, MS, RDN, CDE","500 West Putnam Avenue Suite 400","06830",41.0179263,-73.6452507
"06830","Greenwich","CT","Vein Clinics of America","500 W Putnam Ave #435","06830",41.017879,-73.645189
"06830","Greenwich","CT","DR. Michael Suzman, MD - WESTMED Greenwich Office","644 West Putnam Avenue","06830",41.0168923,-73.6476422
"06831","Greenwich","CT","Urgent Care Center at WPH Medical & Wellness","99 Business Park Drive","10504",41.1207577,-73.708617
"06840","New Canaan","CT","Norwalk Hospital Immediate Care/Walk In","38 East Ave","06840",41.14778868345985,-73.49082005957034
"06840","New Canaan","CT","Silver Hill Hospital","208 Valley Rd","06840",41.16428710431442,-73.46872089324759
"06850","Norwalk","CT","Norwalk Hospital","34 Maple St","06850",41.11156959159551,-73.42145701503779
"06850","Norwalk","CT","Icon Health Services, LLC","9 Glenwood Ave Ste 2NULL","06854",41.1067,-73.428344
"06850","Norwalk","CT","Connecticut Children's Pediatric Care at Norwalk Hospital","34 Maple Street,","06856",41.1111249,-73.4222417
"06850","Norwalk","CT","Connecticut Children's at Norwalk Hospital's Pediatric Development & Therapy Center","761 Main Avenue,Suite 203","06851",41.1600279,-73.4209955
"06850","Norwalk","CT","Norwalk Hospital Room 814","not_available","06850",41.11132665718011,-73.41827717728742
"06850","Norwalk","CT","norwslk hospitsal","not_available","06851",41.1229133605957,-73.41999053955078
"06850","Norwalk","CT","Urgent Care of Norwalk","Main Ave","06851",41.13832575465133,-73.42505663961941
"06850","Norwalk","CT","St. Vincent's Regional Heart & Vascular Center-Norwalk","40 Cross St","06851",41.119077,-73.418531
"06850","Norwalk","CT","PhysicianOne Urgent Care","346 Main Ave","06851",41.13856242,-73.4250256
"06850","Norwalk","CT","AFC Urgent Care - Norwalk","607 Main Avenue","06851",41.15681,-73.42241
"06851","Norwalk","CT","Fairfield County Foot Surgeons","4 Colony Place","06851",41.109794,-73.405413
"06851","Norwalk","CT","Primotec USA","360 Westport Ave","06851",41.12545394897461,-73.39185333251953
"06870","Old Greenwich","CT","Stamford Hospital","One Hospital Plaza","06902",41.0544825,-73.5522978
"06870","Old Greenwich","CT","George B Harvey Family Emergency Department","30 Shelburne Rd","06902",41.05471601969225,-73.55285026759637
"06870","Old Greenwich","CT","The Whittingham Pavillion","Shelburne Road","06902",41.054745940041784,-73.55175169501548
"06870","Old Greenwich","CT","Department of Radiology","not_available","06902",41.055156,-73.551719
"06870","Old Greenwich","CT","Stamford Hospital Pastoral Care Department","not_available","06905",41.04940585224695,-73.55492963011942
"06870","Old Greenwich","CT","Greenwich Hospital Occupational Health","2015 W Main St","06902",41.048892,-73.564448
"06870","Old Greenwich","CT","Burton Non-Invasive Cardiology","1 Hospital Plz","06902",41.054779052734375,-73.55267333984375
"06870","Old Greenwich","CT","Revitalize Wellness Center","76 Progress Dr Ste 218K","06902",41.05262495068297,-73.55838060379028
"06870","Old Greenwich","CT","Stamford Hospital Sleep Center","Third Floor","06902",41.054718,-73.551516
"06877","Ridgefield","CT","David L Johnston DO","158 Danbury Road Suite 8","06877",41.296129,-73.49225179999999
"06877","Ridgefield","CT","PhysicianOne Urgent Care","10 South St #101","06877",41.289894104003906,-73.49465942382812
"06880","Westport","CT","Village Pediatrics","323 Riverside Avenue","06880",41.1287107,-73.369244
"06901","Stamford","CT","Vitae Healthcare Center","31 Strawberry Hill Ave","06902",41.06117248535156,-73.53251647949219
"06902","Stamford","CT","Yale New Haven Health Long Ridge Medical Center","260 Long Ridge Rd","06902",41.079721,-73.554722
"06902","Stamford","CT","Remedy Bodyworks","36 Dyke Lane","06902",41.03897120000001,-73.5405117
"06902","Stamford","CT","AFC Urgent Care - Stamford","3000 Summer Street","06905",41.07138,-73.54936
"06902","Stamford","CT","St. Camillus","Elm Street","not_available",41.049872,-73.525137
"06902","Stamford","CT","St. Vincent's Regional Heart & Vascular Center-Stamford","1177 Summer St","06905",41.06141662597656,-73.541015625
"06903","Stamford","CT","Firefly After Hours Pediatric Urgent Care","1011 High Ridge Rd Ste 207","06905",41.1062704930899,-73.5481169774158
"06905","Stamford","CT","Immediate Care Center","Strawberry Hill Avenue","06905",41.06482856829088,-73.53398184602115
"06905","Stamford","CT","Allergy & Asthma Associates of Stamford","144 Morgan Street # 3","06905",41.0625036,-73.5361762
"06905","Stamford","CT","Stamford Health  - Immediate Care Center","32 Strawberry Hill Court, Tully Health Center","06902",41.064579732354545,-73.53460854232787
"06905","Stamford","CT","Stamford Health  - Walk-In Center","292 Long Ridge Rd Ste 104","06902",41.0807846511161,-73.55477300000001
"06905","Stamford","CT","Stamford Hospital","32 Strawberry Hill Ct Fl 2","06902",41.06453142768864,-73.5345668306885
