"zip","city","state","name","address","postalCode","lat","lon"
"07001","Avenel","NJ","ACFAS Office","not_available","not_available",40.576049,-74.274748
"07001","Avenel","NJ","FA-5 Day Shift","not_available","07001",40.575971,-74.274661
"07001","Avenel","NJ","Us Health Works","1044 E Hazelwood Ave","07065",40.60049,-74.25904200000001
"07001","Avenel","NJ","Avenel/Rahway/Carteret Community QC","not_available","07065",40.5958845736309,-74.26778540627762
"07002","Bayonne","NJ","CarePoint Health: Bayonne Medical Center","29 E 29th St","07002",40.668196667982265,-74.11228921052
"07002","Bayonne","NJ","St. Ann's Home for the Aged","198 Old Bergen Rd","07305",40.69619393960511,-74.0932114880852
"07002","Bayonne","NJ","New Jersey Imaging Network of Bayonne","519 Broadway Ste 155","07002",40.664718,-74.118061
"07002","Bayonne","NJ","Rubino OB/GYN Group - Bayonne","731 Broadway","07002",40.6720895,-74.1116866
"07002","Bayonne","NJ","Urgent Care Bayonne - Astrahealth Center","564 Broadway","07002",40.666136,-74.115923
"07002","Bayonne","NJ","east coast spine","564 Broadway, Bayonne, NJ 07002","07002",40.667213439941406,-74.11865997314453
"07002","Bayonne","NJ","Children's Specialized Hospital - Bayonne - Outpatient Center","815 Broadway","07002",40.675375,-74.108921
"07002","Bayonne","NJ","BMC Radiology","not_available","07002",40.6681681598727,-74.11237962487472
"07002","Bayonne","NJ","RWJBarnabas Health at Bayonne","519 Broadway at 24th Street","07002",40.66474533081055,-74.11773681640625
"07002","Bayonne","NJ","CityMD Bayonne Urgent Care - New Jersey","904 Bayonne Crossing Way","07002",40.66072091182262,-74.10833093337715
"07003","Bloomfield","NJ","Mountainside Hospital","1 Bay Ave","07042",40.8121898519294,-74.20386390867088
"07003","Bloomfield","NJ","Clara Maass Icu Unit","not_available","07109",40.785446,-74.17642
"07003","Bloomfield","NJ","Clara Maass Cafeteria","1 Clara Maass Dr, Belleville, NJ 07109","07109",40.786398138746534,-74.17658603066813
"07003","Bloomfield","NJ","Clara Maass Medical Center - Radiology","1 Clara Maass Dr","07109",40.78583908081055,-74.17601776123047
"07003","Bloomfield","NJ","MedExpress Urgent Care","135 Bloomfield Ave","07003",40.7794765,-74.1876726
"07003","Bloomfield","NJ","St. Michael Medical Center - Columbus Campus","495 N 13th St","07107",40.772787010355984,-74.18687376506495
"07003","Bloomfield","NJ","Glen Ridge Surgicenter","230 Sherman Ave","07028",40.812027,-74.202314
"07003","Bloomfield","NJ","CLARA MAAS Sleep Clinic","S Franklin Ave, Belleville, NJ 07109","07109",40.798194885253906,-74.17028045654297
"07003","Bloomfield","NJ","Mountainside Gift Shop","not_available","07028",40.80923550200492,-74.20370237347358
"07003","Bloomfield","NJ","Glen Ridge First Aid Squad","3 Herman St","07028",40.801612854003906,-74.20423126220703
"07003","Bloomfield","NJ","Clara Maass CC3","not_available","07003",40.7804332566435,-74.20148964550995
"07003","Bloomfield","NJ","Mountainside Hospital 2C","not_available","07042",40.81130406296766,-74.20481445989267
"07003","Bloomfield","NJ","Immedicenter","557 Broad St Ste L1","07003",40.81294159999999,-74.1938973
"07003","Bloomfield","NJ","New Jersey Imaging Network of Belleville","36 Newark Ave Ste 100","07109",40.785197,-74.17657700000001
"07004","Fairfield","NJ","CityMD Wayne Urgent Care - New Jersey","76 Willowbrook Blvd Unit C2","07470",40.89000991203969,-74.25487903878087
"07004","Fairfield","NJ","West Essex First Aid Squad","642 Bloomfield Ave","07006",40.8472871641959,-74.2904811387318
"07004","Fairfield","NJ","The Doctors' Office (Urgent Care)","556 Passaic Ave","07006",40.849312984611764,-74.29682282376756
"07004","Fairfield","NJ","Florham Park OB/GYN- West Caldwell","616 Bloomfield Avenue Ste 2B","07006",40.8464965,-74.28986619999999
"07004","Fairfield","NJ","North Jersey Dermatology Center","526 Bloomfield Ave","07006",40.8451798,-74.2856721
"07004","Fairfield","NJ","ComForcare Senior Services","277 Fairfield Rd Ste 311","07004",40.87730676825322,-74.30045319882993
"07004","Fairfield","NJ","Reborn Skin Care","555 Passaic Ave","07006",40.84980392456055,-74.2978515625
"07004","Fairfield","NJ","hunterdon medical center","Rt. 31","not_available",40.88400414086603,-74.26136149292753
"07004","Fairfield","NJ","Caldwell OB/GYN","175 Fairfield Avenue Ste 3A","07006",40.8597669,-74.2860158
"07005","Boonton","NJ","St. Clare's Hospital","130 Powerville Rd","07005",40.91026763153141,-74.42567426555597
"07005","Boonton","NJ","Saint Clare's Denville Hospital","25 Pocono Rd","07834",40.89532,-74.46463
"07005","Boonton","NJ","Center for Cancer Care","23 Pocono Rd","07834",40.89486123700838,-74.46667463721087
"07005","Boonton","NJ","Mountain Lakes Urgent Care","100 US Highway 46","07046",40.883663177490234,-74.459228515625
"07005","Boonton","NJ","St. Clare's Nursing Office","not_available","07834",40.894776,-74.465334
"07005","Boonton","NJ","Concerta Urgent Care","not_available","08854",40.88538578964464,-74.3656116616843
"07005","Boonton","NJ","Saint Clares-Boonton TWP","130 Powerville Rd, Boonton, NJ 07005","07005",40.91019821166992,-74.42523193359375
"07005","Boonton","NJ","Women's Health Center","3219 U.S. 46","07054",40.871436079826736,-74.42779183387756
"07005","Boonton","NJ","Nutritional Optometry Associates","16 North Beverwyck Road","07034",40.8773249,-74.3819767
"07005","Boonton","NJ","HEAL Wellness Center and Spa","413 W Main St","07005",40.906554,-74.425381
"07005","Boonton","NJ","Childrens Crisis Intervention Services -CCIS, at St. Clare's Hospital","25 Pocono Rd","07054",40.89466094970703,-74.46514129638672
"07005","Boonton","NJ","Katena Center","St Clare's Health System, 25 Pocono Rd, Denville, NJ 07834","07834",40.89466094970703,-74.46514129638672
"07005","Boonton","NJ","Randolph EMS - Ironia Bay","513 Dover Chester Rd.","not_available",40.893998325869774,-74.47213660944657
"07005","Boonton","NJ","Par-Troy EMS","1130 Knoll Rd","07034",40.89274896166628,-74.3788985524196
"07006","Caldwell","NJ","Overbrook Mental Hospital","not_available","07009",40.851800711075995,-74.2437676392394
"07006","Caldwell","NJ","Saint Barnabas Medical Center Laboratory Patient Service Center - Caldwell","382 Bloomfield Ave","07006",40.840687,-74.27835499999999
"07006","Caldwell","NJ","Precision Vision","384 Bloomfield Avenue","07006",40.840637027001655,-74.27856973682384
"07008","Carteret","NJ","RWJ Physical Therapy at Carteret","60 Cooke Ave","07008",40.578305,-74.21956999999999
"07008","Carteret","NJ","Carteret FAS - BLS Unit FA-2","315 Pershing Ave","07008",40.582402029567426,-74.21854072323777
"07008","Carteret","NJ","bayshore community hospital","not_available","08830",40.57215328636727,-74.2307516845894
"07009","Cedar Grove","NJ","AFC Urgent Care Cedar Grove","480 Pompton Ave Ste 6","07009",40.849543,-74.229449
"07009","Cedar Grove","NJ","Essex County Psychiatric Hospital Center","Fairview Dr","07009",40.851791,-74.233822
"07009","Cedar Grove","NJ","Canteburry Nursing Center","398 Pompton Ave","07009",40.84733200073242,-74.22990417480469
"07009","Cedar Grove","NJ","Judith G Rabner MS RD Nutritionist","14 Burnside St","07043",40.833397,-74.209951
"07010","Cliffside Park","NJ","PromptMD Urgent Care Center Edgewater","725 River Rd","07020",40.818554,-73.977353
"07010","Cliffside Park","NJ","CityMD Edgewater Urgent Care - New Jersey","461 River Rd","07020",40.811952026002245,-73.9860758362335
"07010","Cliffside Park","NJ","AM/PM Walk-in Urgent Care","596 Anderson Ave","07010",40.824178,-73.988122
"07010","Cliffside Park","NJ","Advanced Dermatology, P.C.","235 Old River Road","07020",40.80896759033203,-73.98983001708984
"07011","Clifton","NJ","St. Mary’s General Hospital","350 Boulevard","07055",40.8590505,-74.1372832
"07011","Clifton","NJ","Chestnut Hill Nursing Home","360 Chestnut St","07055",40.8648175,-74.137036
"07011","Clifton","NJ","CityMD Clifton Urgent Care - New Jersey","852 State Rt 3","07012",40.8389541,-74.1548509
"07011","Clifton","NJ","Saint Mary","not_available","07055",40.85941589948483,-74.13744092958082
"07011","Clifton","NJ","NJ EYE AND EAR","1016 Main Ave","07011",40.87202,-74.135281
"07011","Clifton","NJ","passaic urgent care","Monroe St","07055",40.863659853751585,-74.1302784415975
"07011","Clifton","NJ","North Jersey Pulmonary Associates","1040 Main Street, Floor 3","07503",40.89272689819336,-74.15785217285156
"07011","Clifton","NJ","Garfield EMS-1","Ray & Semel","07026",40.88610928992258,-74.11899223538724
"07011","Clifton","NJ","Renal Center Of Passaic","10 Clifton Blvd","07011",40.8624382019043,-74.14281463623047
"07011","Clifton","NJ","sweet home adult medical","45 E Madison Ave","07011",40.875097481650364,-74.13490054292518
"07011","Clifton","NJ","North Jersey Dermatology Center","925 Clifton Ave, 2nd Floor, Suite 207","07013",40.8644057,-74.160848
"07011","Clifton","NJ","Concentra Urgent Care","not_available","07013",40.87961509988973,-74.14689109379701
"07011","Clifton","NJ","Mutual Aid EMS Call In Lyndhurst","not_available","07071",40.833324,-74.122291
"07011","Clifton","NJ","St. Mary's 4th Floor L&D","346-396 Boulevard","07055",40.8591091632843,-74.13760364055634
"07012","Clifton","NJ","New Jersey Imaging Network of Clifton","1339 Broad St","07013",40.85118,-74.17904
"07012","Clifton","NJ","Children's Specialized Hospital - Clifton - Outpatient Center","1135 Broad St","07013",40.857627868652344,-74.17552185058594
"07012","Clifton","NJ","Clifton Laserlipo","925 Allwood Rd","07012",40.8516960144043,-74.17305755615234
"07013","Clifton","NJ","Room 501","St. Joseph's Regional Medical Center","07503",40.895301818847656,-74.16773986816406
"07013","Clifton","NJ","Urgent Care Center","1117 US Highway 46","07013",40.8700875433716,-74.18200961709897
"07013","Clifton","NJ","Immedicenter","1355 Broad St","07013",40.8506271,-74.17973049999999
"07016","Cranford","NJ","Kaye OB/GYN","31 S Union Ave","07016",40.653477,-74.306172
"07016","Cranford","NJ","Cranford health","not_available","07016",40.67514600502423,-74.29342149898496
"07016","Cranford","NJ","Cranford First Aid Squad","6 Centennial Ave","07016",40.65626525878906,-74.30050659179688
"07016","Cranford","NJ","SMG Westfield UCC","574 Springfield Ave","07090",40.64592742919922,-74.32392120361328
"07016","Cranford","NJ","cranford rehabilitation center","not_available","07033",40.669193267822266,-74.28358459472656
"07016","Cranford","NJ","New Jersey Imaging Network of Cranford","25 S Union Ave","07016",40.65357789999999,-74.3060844
"07018","East Orange","NJ","VA Medical Center - East Orange","385 Tremont Ave","07018",40.752668516560526,-74.23585845060747
"07018","East Orange","NJ","Veterans Hospital","Tremont ave","07018",40.75175732549573,-74.23653746335914
"07018","East Orange","NJ","East Orange General Hospital","300 Central Ave","07018",40.7545291,-74.2131876
"07018","East Orange","NJ","momma dukes room in hospital","not_available","07018",40.75430081073639,-74.21445035054809
"07018","East Orange","NJ","U M D N J","not_available","07106",40.74593351938883,-74.21341857194749
"07018","East Orange","NJ","Children's  of Alabama","S 16th St, Newark, NJ 07103","07103",40.751747131347656,-74.21631622314453
"07018","East Orange","NJ","Life Star EMS","80 S Munn Ave","07018",40.75423049926758,-74.21276092529297
"07018","East Orange","NJ","Life Streams EMS","625 Central Ave","07107",40.75054105390118,-74.20116862577814
"07020","Edgewater","NJ","Mount Sinai Morningside","1111 Amsterdam Avenue","10025",40.80557,-73.961321
"07020","Edgewater","NJ","CCU/Open Heart Recovery - Mt. Sinai St. Lukes","not_available","10025",40.80536738795738,-73.96153313224258
"07020","Edgewater","NJ","Jewish Home Lifecare","120 W 106th St","10025",40.79972341799516,-73.96408071478562
"07020","Edgewater","NJ","CityMD W 104th St.","2710 Broadway","10025",40.79947692261128,-73.96793380379671
"07020","Edgewater","NJ","Cure Urgent Care - Upper West Side NY","2689 Broadway","10025",40.79894589430008,-73.9690234490738
"07020","Edgewater","NJ","St. Luke's Cafeteria","1111 Amsterdam Ave","10025",40.80538808575542,-73.96166532637854
"07020","Edgewater","NJ","St. Luke's Hospital - Rosevelt Division","1000 Amsterdam Ave","10025",40.80278778076172,-73.96440887451172
"07020","Edgewater","NJ","OBGyn Services at Mount Sinai Morningside","1090 Amsterdam Ave Ste 10B","10025",40.80543095209661,-73.96254119547824
"07020","Edgewater","NJ","NYC EMS 11U 10-89","Amsterdam Ave","10025",40.80455959208517,-73.96166073652
"07020","Edgewater","NJ","Physical Medicine & Rehabilitation at Mount Sinai Morningside","1090 Amsterdam Ave","10025",40.80541619664761,-73.96255813106022
"07020","Edgewater","NJ","Heart Care Services at Mount Sinai Morningside","440 W 114th St Ste 220","10025",40.805090086914916,-73.96143591508692
"07020","Edgewater","NJ","New York Columbia Presby","West 168 St","10027",40.81776520061311,-73.95743047064175
"07020","Edgewater","NJ","Body Mechanics Acupuncture","1270 Amsterdam","10027",40.81121063232422,-73.95834350585938
"07020","Edgewater","NJ","Edgewater First Aid Squad","915 River road","07020",40.826096050018684,-73.97372538119433
"07020","Edgewater","NJ","Cancer Care Services at Mount Sinai Morningside","440 W 114th St Fl 6","10025",40.80514185860773,-73.961539180134
"07020","Edgewater","NJ","The Bee Hive","304 W 114th St Apt 1A","10026",40.80316925048828,-73.95703887939453
"07020","Edgewater","NJ","Psychiatry Services at Mount Sinai Morningside","1090 Amsterdam Ave Fl 16","10025",40.80543399747578,-73.96251839670161
"07021","Essex Fells","NJ","Saint Barnabas Medical Center Laboratory Patient Service Center - Roseland","189 Eagle Rock Avenue","07068",40.8206877,-74.2960478
"07022","Fairview","NJ","Kayal Orthopaedic Center, P.C.","9226 John F. Kennedy Blvd.","07047",40.8105274,-74.0034549
"07023","Fanwood","NJ","Scotch Plains Medical Center","1814 E 2nd St","07076",40.6485937,-74.39709479999999
"07023","Fanwood","NJ","Children's Specialized Hospital","South Ave, Fanwood, NJ 07023","07023",40.642158,-74.381753
"07024","Fort Lee","NJ","Urgent Care","not_available","07024",40.85012435913086,-73.9703140258789
"07024","Fort Lee","NJ","Equilibrium NJ","158 Linwood Plaza Suite 219","07024",40.86137390136719,-73.96973419189453
"07024","Fort Lee","NJ","First Med of NJ Urgent Care","1640 Schlosser Stree","not_available",40.85017013549805,-73.97026062011719
"07024","Fort Lee","NJ","Prompt Med Urgent Care","185 Bridge Plz N","07024",40.855587005615234,-73.968505859375
"07024","Fort Lee","NJ","NYPH","not_available","10032",40.85178085301387,-73.95342397322806
"07024","Fort Lee","NJ","Holy Name Hospital Lobby Floor","718 Teaneck Rd","07666",40.849055377619386,-73.98255241100104
"07026","Garfield","NJ","Garfield Urgent Care Center","210 Passaic St","07026",40.867095963168175,-74.09858013997082
"07026","Garfield","NJ","Kayal Orthopaedic Center - Garfield","96 Manner Avenue","07026",40.8828885,-74.0974072
"07026","Garfield","NJ","Sweet Belly 3D/4D Ultrasound Studio","204 Harrison Ave","07644",40.873088,-74.098353
"07026","Garfield","NJ","Kayal Orthopaedic Center, P.C.","96 Manner Ave.","07026",40.8828885,-74.0974072
"07028","Glen Ridge","NJ","Connections Care Management",".","not_available",40.82553345420128,-74.20902013778687
"07029","Harrison","NJ","Kearny EMS(Harrison Div.)","Cleveland Ave","not_available",40.747232863057064,-74.15746603255853
"07030","Hoboken","NJ","CityMD Hoboken","231 Washington Street","07030",40.7396715,-74.0300491
"07030","Hoboken","NJ","Hoboken ER","not_available","07030",40.741484744043106,-74.03335445157877
"07030","Hoboken","NJ","Hoboken University Medical Center","308 Willow Ave","07030",40.741162863230166,-74.03397678795396
"07030","Hoboken","NJ","HUMC","307 Willow Ave","07030",40.740833,-74.033396
"07030","Hoboken","NJ","Astrahealth urgent care","93-95 Hudson St","07030",40.7369499206543,-74.0295639038086
"07030","Hoboken","NJ","Midwives of New Jersey","51 Newark Street,Suite 205","07030",40.7366329,-74.0303249
"07030","Hoboken","NJ","PromptMD Urgent Care Center - Hoboken","309 1st St","07030",40.738024,-74.035015
"07030","Hoboken","NJ","Betty Ford Clinic","we need rehab ave","07030",40.73701500892639,-74.03096973896027
"07031","North Arlington","NJ","Arlington Dog And Cat Hospital","857 Passaic Ave","07032",40.780780926174124,-74.14732579628308
"07031","North Arlington","NJ","North Jersey Dermatology Center","655 Kearny Ave, Suite 103","07032",40.7738537,-74.1438084
"07031","North Arlington","NJ","Veterinary Emergency Group","724 Ridge Rd","07071",40.7999,-74.124539
"07031","North Arlington","NJ","Contemporary Women's Care - Kearny","338 Belleville Turnpike","07032",40.779835,-74.13404
"07032","Kearny","NJ","AFC Urgent Care Kearny","276 Passaic Ave, Unit A","07032",40.7626602,-74.1588647
"07032","Kearny","NJ","Bravo Post (JCMC EMS)","not_available","07304",40.7242452942222,-74.08126913024358
"07032","Kearny","NJ","LifeSTAR Special Operations","not_available","07105",40.728375,-74.163107
"07032","Kearny","NJ","Kearny EMS","352 Maple St","07032",40.76413856708279,-74.14942789599907
"07032","Kearny","NJ","West Hudson Hospital","Bergen Ave","07032",40.75912979644234,-74.1499129809433
"07032","Kearny","NJ","Concentra Urgent Care - Secaucus","30 Seaview Dr","07094",40.778335934842616,-74.07897412099447
"07032","Kearny","NJ","Ferry Street Optical","106 Ferry Street","07105",40.730683,-74.16056929999999
"07032","Kearny","NJ","Florham Park OB/GYN - Newark","266-272 Chestnut Street","07105",40.723383,-74.1639514
"07032","Kearny","NJ","NOWmed Walk-In Urgent Care","555 W Side Ave","07304",40.7199669,-74.08249700000002
"07032","Kearny","NJ","Dark Chocolate Godiva Queen","not_available","07306",40.72673051448656,-74.0784526426451
"07032","Kearny","NJ","St James Hosptial","Elm St","07105",40.727911492613075,-74.15804946940912
"07032","Kearny","NJ","St. Michael Medical Center - St. James Campus","155 Jefferson St","07105",40.72785787422383,-74.16313409079747
"07032","Kearny","NJ","Saint James Health, Inc.","228 Lafayette Street","07105",40.72891,-74.16279
"07033","Kenilworth","NJ","Dom's Sour Tummy","not_available","07083",40.690659,-74.296864
"07033","Kenilworth","NJ","CityMD Union","2317 Center Island Route 22","07083",40.6901893133242,-74.29592102766037
"07034","Lake Hiawatha","NJ","Morristown memorial hospital","100 Madison Ave","07960",40.86506978875642,-74.39099907310029
"07034","Lake Hiawatha","NJ","saint clare's","not_available","07046",40.887923369951736,-74.37698003212707
"07035","Lincoln Park","NJ","Chilton Medical Center","97 W Parkway","07444",40.958228102285354,-74.3095589865082
"07035","Lincoln Park","NJ","ER Waiting Room","Chilton Memorial Hospital","07444",40.95856475830078,-74.30950927734375
"07035","Lincoln Park","NJ","CAT Scan","Chilton Memorial Hospital","07442",40.958593728149445,-74.30950380814295
"07036","Linden","NJ","RWJ University Hospital Rahway","865 Stone St","07065",40.6129663,-74.2911039
"07036","Linden","NJ","Union County Healthcare Associates","2005 Saint Georges Ave","07065",40.62035909999999,-74.2807014
"07036","Linden","NJ","MedExpress Urgent Care","415 W Saint Georges Ave","07036",40.63213,-74.268803
"07036","Linden","NJ","Rahway First Aid Emergency Squad","907 Stone St","not_available",40.61350029393916,-74.29189777376612
"07036","Linden","NJ","GTS Ambulance Transport","Pennsylvania Ave","not_available",40.64669880970868,-74.23410887330994
"07036","Linden","NJ","Medic 10","not_available","07036",40.613519500622644,-74.2914729619338
"07036","Linden","NJ","Care Connection at Robert Wood Johnson University Hospital Rahway","865 Stone St Fl 4","07065",40.61288,-74.29091
"07036","Linden","NJ","RWJUH ER","not_available","08901",40.60959021470154,-74.28546862289518
"07036","Linden","NJ","Little Bob's traumaruma","Jefferson ave","not_available",40.6407225,-74.2660203
"07036","Linden","NJ","Room 328","Robert Wood Johnson","08901",40.612437653465115,-74.29114109893041
"07036","Linden","NJ","Spine Institute Marc A Cohen, M.D.","Hamilton st","07036",40.613384367068036,-74.285948574543
"07039","Livingston","NJ","Saint Barnabas Medical Center","94 Old Short Hills Rd","07039",40.76353895083016,-74.30437132882962
"07039","Livingston","NJ","RWJBarnabas Health Saint Barnabas Medical Center","not_available","07039",40.763357,-74.304805
"07039","Livingston","NJ","RWJBarnabas Health","95 Old Short Hills Rd","07052",40.76322936594083,-74.30063780235031
"07039","Livingston","NJ","barnabas radiology","200 S Orange Ave","07039",40.772971,-74.355677
"07039","Livingston","NJ","West Essex OB/GYN","200 South Orange North Wing Suite 290","07039",40.77350089999999,-74.3565479
"07039","Livingston","NJ","New Jersey Imaging Network of West Orange","772 Northfield Ave","07052",40.768558,-74.297368
"07039","Livingston","NJ","Medical Library","not_available","07052",40.762974094516615,-74.30497775922669
"07039","Livingston","NJ","EMS 6","not_available","07936",40.80277,-74.36493
"07040","Maplewood","NJ","Overlook Medical Center: Eating Disorder Program","99 Beauvoir Ave","07901",40.7160186386743,-74.27045003189006
"07040","Maplewood","NJ","Centers For Epilepsy, Pediatric Neurology and Pediatric Neurosurgery","Euclid Avenue","not_available",40.737003,-74.280433
"07040","Maplewood","NJ","Shirley ambulance picnic","3 Plymouth Place","07040",40.72747039794922,-74.25936889648438
"07040","Maplewood","NJ","Griswold Home Care","111 South Orange Avenue","07079",40.74574461,-74.2572359
"07040","Maplewood","NJ","Cleveland Clinic J6-4","9500 Euclid A E","07040",40.73682,-74.281101
"07040","Maplewood","NJ","914 Post On The Hill","Crest Drive","07079",40.747622,-74.27972
"07041","Millburn","NJ","Monoc Truck 189","not_available","07041",40.715775,-74.302017
"07042","Montclair","NJ","Champey Pain Group","1 Mount Prospect Ave","07044",40.824743,-74.231219
"07043","Montclair","NJ","Ems Office","not_available","07043",40.8629,-74.19773
"07043","Montclair","NJ","Ted Bundy's Place","1263 Valley Rd","07043",40.85849380493164,-74.19654846191406
"07045","Montville","NJ","Summit Oaks Hospital","not_available","07901",40.91447,-74.37426
"07045","Montville","NJ","Montville first aid squad","137 Changebridge Rd","07045",40.89482388992039,-74.36551522484125
"07046","Mountain Lakes","NJ","AdvancedED Urgent Care","333 Route 46 West, (at Boulevard exit)","07046",40.88559,-74.45945
"07047","North Bergen","NJ","The Harborage","7600 River Rd","07047",40.793502988485386,-73.99651982942926
"07047","North Bergen","NJ","AFC Urgent Care North Bergen","2100 88th St","07047",40.81298,-74.01533
"07047","North Bergen","NJ","Manhattan Surgery Center","619 W 54th St Fl 6","10019",40.769161224365234,-73.99368286132812
"07047","North Bergen","NJ","afc doctors express urgent care north bergen","2100 88th St Bldg G1A","07047",40.813588,-74.014374
"07047","North Bergen","NJ","North Bergen EMS South Building","Tonnelle Ave & 44th St","07047",40.78328704372977,-74.03299089379816
"07047","North Bergen","NJ","Natural Childbirth","not_available","07086",40.772573,-74.020112
"07047","North Bergen","NJ","Migraine Central","not_available","07047",40.76664783797537,-73.99544213033329
"07047","North Bergen","NJ","MACH Trailers","not_available","07072",40.822192,-74.046688
"07047","North Bergen","NJ","Care Improvement Strategies LLC","7004 Kennedy Blvd E Apt 42C","07093",40.7911376953125,-73.99971771240234
"07047","North Bergen","NJ","Insomnia Institute","not_available","07094",40.788625,-74.054258
"07047","North Bergen","NJ","ManhattanView Healthcare Center","not_available","07087",40.76953127329104,-74.02666192913486
"07047","North Bergen","NJ","Point A","Paterson Plank Road","not_available",40.78909462160299,-74.05428419193183
"07047","North Bergen","NJ","Kayal Orthopaedic Center, P.C. - Union City","543 45th St","07087",40.7799502,-74.0250983
"07047","North Bergen","NJ","N. Hudson MCI Drill","Light Rail Tunnel","07086",40.777687072753906,-74.01297760009766
"07047","North Bergen","NJ","Concentra Urgent Care - West New York","6701 Bergenline Ave","07093",40.794205,-74.012688
"07047","North Bergen","NJ","Diligent Urgent Care","3807 bergenline ave","07087",40.775427,-74.026951
"07047","North Bergen","NJ","Hope Nutrition","2200 Summit Avenue","07087",40.7681244,-74.0368958
"07047","North Bergen","NJ","New Jersey Imaging Network of Union City","3196 Kennedy Blvd Ste 3","07087",40.7747634,-74.0320081
"07050","Orange","NJ","veterans administration hospital","not_available","07050",40.77067565917969,-74.2372817993164
"07050","Orange","NJ","Partners For Women's Health","95 Northfield Avenue Ste 3","07052",40.7757383,-74.2445729
"07050","Orange","NJ","Brookhaven Healthcare Center","120 Park End Pl","07018",40.756487,-74.232124
"07052","West Orange","NJ","The Pediatric Specialty Center at Saint Barnabas - West Orange","375 Mount Pleasant Ave Ste 105","07052",40.7912649,-74.2592899
"07052","West Orange","NJ","Women First Health Center","520 Pleasant Valley Way","07052",40.808113,-74.260949
"07052","West Orange","NJ","Arden Courts","510 Prospect Ave, West Orange, NJ 07052","07052",40.78655242919922,-74.25601959228516
"07052","West Orange","NJ","Reproductive Medicine Associates of New Jersey | RMANJ","475 Prospect Avenue, Suite 101","07052",40.79076385498047,-74.25572967529297
"07054","Parsippany","NJ","North Jersey Dermatology Center","1116 Route 46","07054",40.8633681,-74.3864665
"07054","Parsippany","NJ","Morristown Medical Center Meade 1","not_available","07960",40.84964936154565,-74.42552656829903
"07054","Parsippany","NJ","Integrated Therapeutics Group ITG","319 Quaker Church Road Annex Building","07869",40.8525637,-74.44232219999999
"07054","Parsippany","NJ","Concentra Urgent Care","200 US Highway 46","07054",40.85872268676758,-74.35416412353516
"07055","Passaic","NJ","211 Pennigton","211 Pennington Ave","07055",40.85149383544922,-74.1287841796875
"07059","Warren","NJ","Lyons VA Hospital","151 Knollcroft Rd","07939",40.66860658858275,-74.55627470487579
"07059","Warren","NJ","VANJHCS, Lyons, Bldg. 11","not_available","07920",40.66787084538411,-74.56082866554026
"07059","Warren","NJ","MedExpress Urgent Care - Greenbrook","U.S. 22","08812",40.60466784356322,-74.47342447926391
"07059","Warren","NJ","Children's Specialized Hospital - Warren - Outpatient Center","266 King George Rd","07059-5186",40.64162421,-74.51471662
"07059","Warren","NJ","The Kreyling Emergency Response Center","not_available","08812",40.59510821028618,-74.4688968597059
"07059","Warren","NJ","Warren Medicenter","65 Mountain Blvd Ext","07059",40.616268157958984,-74.49828338623047
"07059","Warren","NJ","The Watchung Hills Nurses Office","not_available","07059",40.6558952331543,-74.47418975830078
"07059","Warren","NJ","Rubino OB/GYN Group - Warren","27 Mountain Blvd Suite 6","07059",40.6210907,-74.4868735
"07059","Warren","NJ","Liberty Corner First Aid Squad","740 Martinsville Rd","07920",40.65803,-74.576475
"07059","Warren","NJ","630 Grove Ave Dunellen NJ","630 Grove Avenue","08812",40.597436958027224,-74.47076287125404
"07059","Warren","NJ","Central Jersey Urgent Care Green Brook","119 US-22","08812",40.588895579900054,-74.4668984413147
"07060","Plainfield","NJ","Muhlenberg Hospital","1200 Randolph Rd","07060",40.60732720048786,-74.40332209202533
"07060","Plainfield","NJ","Plainfield Rescue Squad","700 W 7th St","07060",40.605997125927125,-74.43309538131975
"07060","Plainfield","NJ","Urgent Health Care","719 US Highway 22","07060",40.62646484375,-74.43916320800781
"07060","Plainfield","NJ","Muhlenberg","Randolph Road","07080",40.61367224651816,-74.4083026242859
"07060","Plainfield","NJ","JFK EMS - Plainfield","not_available","07060",40.607289193134335,-74.40337365681215
"07062","Plainfield","NJ","MedExpress Urgent Care","1569 US Highway 22","07069",40.64190834061446,-74.415984749794
"07066","Clark","NJ","CityMD Clark Urgent Care - New Jersey","1255 Raritan Rd","07066",40.6311257,-74.3070457
"07066","Clark","NJ","Multi-Care Industrial Medical","100 Commerce Pl","07066",40.627462757437705,-74.31728759543493
"07066","Clark","NJ","Rubino OB/GYN Group - Clark","67 Walnut Avenue Suite 101","07066",40.6288107,-74.3009128
"07066","Clark","NJ","RWJ Physical Therapy at Scotch Plains","2120 Lamberts Mill Rd","07076",40.6244553,-74.3292366
"07066","Clark","NJ","Seattle Grace","not_available","07067",40.604696,-74.319176
"07066","Clark","NJ","Promptcare Insane asylum","51 Terminal Ave","07066",40.63102,-74.31463000000001
"07066","Clark","NJ","Medimerge","not_available","08846",40.60503311702533,-74.34405846097845
"07066","Clark","NJ","First Health Urgent and Primary Care at Clark","152 Central Ave","07066",40.6300163269043,-74.30799102783203
"07068","Roseland","NJ","Roseland First Aid Squad","300 Eagle Rock Ave","07068",40.82051467895508,-74.30900573730469
"07068","Roseland","NJ","East Orange General Hospital","Central Avenue","07058",40.83669131482032,-74.33455544544374
"07069","Watchung","NJ","Runnells Specialized Hospital","40 Watchung Way","07922",40.66544711890739,-74.42170636875589
"07070","Rutherford","NJ","New Jersey Cancer and Blood Specialists","201 State Rt 17N, Fl 11","07070",40.8248063,-74.1093141
"07070","Rutherford","NJ","AFC Urgent Care Lyndhurst","560 New York Ave","07071",40.81243133544922,-74.11942291259766
"07070","Rutherford","NJ","Rutherford Ambulance Corps","44 Ames Ave","07070",40.82922408386111,-74.10289820097282
"07070","Rutherford","NJ","HUMC ALS Paramedics 103","259 Paterson Ave","07073",40.834456,-74.097782
"07070","Rutherford","NJ","Professional Wholesale Massage","280 Park Ave","07070",40.824172,-74.112915
"07071","Lyndhurst","NJ","Best Quality Medical Supplies","155 Park Ave Ste 201B","07071",40.818809509277344,-74.12738037109375
"07072","Carlstadt","NJ","Hackensack Meridian Urgent Care at American Dream","1 American Dream Way","07073",40.80945,-74.06693
"07073","East Rutherford","NJ","Agile Urgent Care","20 Meadowlands Pkwy","07094",40.797649,-74.065234
"07073","East Rutherford","NJ","Meadowlands Hospital Medical Center","55 Meadowlands Pkwy","07094",40.79160270685273,-74.07300353664854
"07076","Scotch Plains","NJ","Urgent Care Summit Medical Group","not_available","07922",40.677050598804946,-74.3536297071954
"07076","Scotch Plains","NJ","Children's Specialized Hospital-Mountainside - Long Term Care Center","150 New Providence Rd Ste 1","07092",40.669838,-74.354066
"07076","Scotch Plains","NJ","BLS Recliners @ Medic 1","1271 US Highway 22","07092",40.67359924316406,-74.35037994384766
"07076","Scotch Plains","NJ","Westfield Volunteer Rescue Squad","335 Watterson St","07090",40.647988464717805,-74.35041074344107
"07076","Scotch Plains","NJ","Childrens specialized hospital","not_available","07204",40.66980882973406,-74.35821753856828
"07076","Scotch Plains","NJ","Children's Specialized Hospital - Physical Therapy","150 Providence Road","not_available",40.669863,-74.353983
"07078","Short Hills","NJ","Saint Barnabas Medical Center","Room 2124B- Burn Unit Step Down","not_available",40.75444033148154,-74.30629548133948
"07078","Short Hills","NJ","outlook hospital","not_available","07974",40.71869050925353,-74.35707202361137
"07080","South Plainfield","NJ","AFC Urgent Care","907 Oak Tree Ave","07080",40.57848358154297,-74.38977813720703
"07080","South Plainfield","NJ","Urgent Care NJ","2090 Lincoln Hwy, Edison, NJ 08817","08817",40.5477452903873,-74.4292995646464
"07080","South Plainfield","NJ","Concentra Urgent Care - South Plainfield","116 Corporate Blvd","07080",40.54772,-74.42121
"07080","South Plainfield","NJ","JFK 624","not_available","08817",40.54505426537041,-74.40095719208692
"07080","South Plainfield","NJ","Hackensack Meridian Urgent Care - Piscataway","1080 Stelton Rd","08854",40.54777526855469,-74.42929077148438
"07081","Springfield","NJ","MedExpress Urgent Care","200 US Highway 22","07081",40.6860563,-74.319621
"07081","Springfield","NJ","Rubino OB/GYN Group - Summit","33 Overlook Rd MAC Building Suite 108","07901",40.7129825,-74.3529772
"07081","Springfield","NJ","Atlantic Training Center","52 Beauvoir Ave","07901",40.713015999999996,-74.354887
"07081","Springfield","NJ","Reproductive Medicine Associates of New Jersey | RMANJ","955 S. Springfield Avenue, Building A, Suite 103","07081",40.6823817,-74.3287184
"07081","Springfield","NJ","Saint Barnabas Medical Center Laboratory Patient Service Center - Westfield","560 Springfield Ave Ste 103","07090",40.6791149,-74.3309781
"07081","Springfield","NJ","Care station","Rt 22 west","07081",40.68800406687336,-74.31591481377279
"07081","Springfield","NJ","Trinitas Emergency Room","not_available","07092",40.684227,-74.346806
"07083","Union","NJ","Union Hospital","1000 Galloping Hill Rd","07083",40.674815165514545,-74.26650530418328
"07083","Union","NJ","Overlook ED at Union","100 Galloping Hill Rd.","07083",40.67455613775083,-74.26640436994572
"07083","Union","NJ","Tommy Spot (Old Irvington Hospital)","12 Krotik Pl","07111",40.716809999999995,-74.241155
"07083","Union","NJ","Kinder Pediatric Urgent Care","1235 W Chestnut St","07083",40.69264221191406,-74.28884887695312
"07090","Westfield","NJ","Contemporary Women's Care - Westfield","560 Springfield Avenue Ste 102","07090",40.6791149,-74.3309781
"07094","Secaucus","NJ","Straight & Narrow Inc.","595 County Ave","07094",40.78504943847656,-74.05722045898438
"07095","Woodbridge","NJ","Urgent Care Clinic","Route 1","07095",40.561751,-74.300274
"07095","Woodbridge","NJ","Kinder Pediatric Urgent Care","530 Green St","08830",40.562241,-74.29849300000001
"07095","Woodbridge","NJ","Woodbridge First Aid Squad","88 queen street","08830",40.56307913566042,-74.29806815517753
"07102","Newark","NJ","St. Michael's Medical Center","111 Central Ave","07102",40.7435981,-74.1742224
"07102","Newark","NJ","Newark Health And Extended Care Facility","65 Jay St","07103",40.747099662080906,-74.18346631578697
"07102","Newark","NJ","CityMD Newark Urgent Care - New Jersey","617 Broad St","07102",40.740746,-74.170096
"07102","Newark","NJ","St. Michaels Cancer Center","Martin Luther King Blvd","07201",40.7426164736502,-74.1736792440947
"07102","Newark","NJ","First Health At Newark","not_available","07102",40.725487,-74.174192
"07102","Newark","NJ","First Health Urgent and Primary Care at Newark","393 Mulberry St","07102",40.725582122802734,-74.17453002929688
"07102","Newark","NJ","Drug & Alcohol Rehab Newark","744 Broad St #1901","07102",40.735275026168516,-74.17249917984009
"07102","Newark","NJ","SMMC ER","Central Ave","07103",40.74341461847576,-74.17355884366836
"07102","Newark","NJ","FirstLight Home Care of Roselle","641 S Roselle Rd","60193",40.734689693105715,-74.17927980422972
"07103","Newark","NJ","University Hospital","150 Bergen St","07103",40.740185117390006,-74.19069528579712
"07103","Newark","NJ","593","593 S 19th St","07103",40.736334,-74.211209
"07103","Newark","NJ","University Hospital EMS - REMCS","65 Bergen St","07107",40.743355347975395,-74.19151067733765
"07103","Newark","NJ","Springfield/Bergen Post","not_available","07103",40.731397,-74.197085
"07103","Newark","NJ","University  Hospital Operating Room","90 Bergen St","07103",40.74217987060547,-74.19129943847656
"07103","Newark","NJ","Nana's Nursery","20 N 7th St","07107",40.750288,-74.19305200000001
"07103","Newark","NJ","University Hospital EMS","150 Cabinet St","07107",40.74424441299005,-74.19326625995677
"07104","Newark","NJ","Clara Maass Professional Care Building","5 Franklin Ave","07109",40.78680805288424,-74.17568561420445
"07105","Newark","NJ","Ironbound Medical Services","221 Chestnut St","07105",40.7229432,-74.1661349
"07107","Newark","NJ","Roseville Health Care","not_available","07107",40.76064532965788,-74.1884477698989
"07107","Newark","NJ","University Hospital Community Training Center","65 Bergen St # GA-67","07107",40.74267248326756,-74.19207092391632
"07110","Nutley","NJ","MedExpress Urgent Care","124 Washington Ave.","07110",40.81013303654468,-74.14543538161467
"07110","Nutley","NJ","Nutley Band-aid Brigade","not_available","07110",40.817607,-74.153617
"07111","Irvington","NJ","Newark Beth Israel Medical Center","201 Lyons Ave","07112",40.71028928,-74.21357581
"07111","Irvington","NJ","Newark Beth Israel Medical Center- Labor&Delivery","not_available","07112",40.71027675170482,-74.21298293035855
"07111","Irvington","NJ","C5","207 lyons avenue","07112",40.71036148071289,-74.21407318115234
"07111","Irvington","NJ","Children's Hospital of New Jersey at Newark Beth Israel Medical Center","201 Lyons Avenue at Osborne Terrace","07092",40.70989177613347,-74.21266768035038
"07111","Irvington","NJ","The Family Health Center (FHC) at Newark Beth Israel Medical Center","166 Lyons Ave","07112",40.70908499999999,-74.2125775
"07111","Irvington","NJ","Children's Specialized Hospital - Newark - Outpatient Center","182 Lyons Ave","07112",40.70951461791992,-74.21336364746094
"07111","Irvington","NJ","Kimberly Room","Transplant Family Room","07083",40.70989333138416,-74.21213457272884
"07111","Irvington","NJ","Cardiac Cath Lab","Newark Beth Israel Medical Center","07112",40.71014190916732,-74.21213542191278
"07112","Newark","NJ","Schneider Children's Hospital","not_available","07114",40.70904271664444,-74.19176135340317
"07201","Elizabeth","NJ","Trinitas Regional Medical Center","225 Williamson St","07202",40.65852479307529,-74.2146826829803
"07201","Elizabeth","NJ","Trinitas Hospital - New Point Campus","655 E Jersey St","07206",40.65963886172179,-74.19800425855473
"07201","Elizabeth","NJ","TRMC Competencies","not_available","07201",40.661828,-74.214122
"07201","Elizabeth","NJ","Trinitas Hospital Administrative Building/Occupational Medicine","210 Williamson St","07202",40.6592622043804,-74.2146165810042
"07201","Elizabeth","NJ","Trinitas Medical Center ER","not_available","07202",40.65836519053024,-74.2144564595863
"07201","Elizabeth","NJ","Elizabeth Paramedics","40 Parker Rd","07208",40.67348861694336,-74.21536254882812
"07201","Elizabeth","NJ","Trinitas Human Resources","18 Broad St","not_available",40.658790890339965,-74.21451340349738
"07201","Elizabeth","NJ","Alcohol & Drug Rehab Elizabeth NJ","41 Jefferson Ave","07201",40.66332,-74.212937
"07202","Elizabeth","NJ","My Whole Child Pediatrics - Elizabeth","171 Elmora Avenue 3rd Floor Fl 3","07202",40.6630406,-74.23336239999999
"07202","Elizabeth","NJ","Plaza Healthcare & Rehabilitation Center","456 Rahway Ave, Elizabeth, NJ 07202","07202",40.656843,-74.22766700000001
"07202","Elizabeth","NJ","Choice Dermatology - Elizabeth","230 W. Jersey St","07202",40.6629693,-74.22412299999999
"07202","Elizabeth","NJ","Take Care Pharmacy","182A Elmora Ave","07202",40.663478000000005,-74.235052
"07202","Elizabeth","NJ","MDCare Urgent Center","400 Westfield Ave","07208",40.666018,-74.229961
"07203","Roselle","NJ","Children's Specialized Hospital","316 W Westfield Ave","07204",40.660221099853516,-74.27407836914062
"07302","Jersey City","NJ","Jersey City Medical Center","355 Grand St","07302",40.7163016,-74.0503916
"07302","Jersey City","NJ","JCMC ACC Building","395 Grand St","07302",40.71678043071372,-74.0520418797324
"07302","Jersey City","NJ","CityMD Grove Street Urgent Care - New Jersey","340 Grove St","07302",40.7204085,-74.0425318
"07302","Jersey City","NJ","CityMD Journal Square Urgent Care - New Jersey","32 Journal Sq","07306",40.7306692,-74.0641188
"07302","Jersey City","NJ","PromptMD Urgent Care Center - Jersey City","201 Marin Boulevard","07302",40.714702355081656,-74.04374185592383
"07302","Jersey City","NJ","Jersey City Medical Center - Psychiatry Building","355 Gran Street","07304",40.714639,-74.057634
"07302","Jersey City","NJ","The Jersey City Family Health Center","412 Summit Ave","07306",40.7294588,-74.0615424
"07302","Jersey City","NJ","Barnabas Health Corporate Care- Jersey City Medical Center","253 Monmouth St","07302",40.718048095703125,-74.05229187011719
"07302","Jersey City","NJ","Libert Health Imaging Center","377 Jersey Ave Ste 101","07302",40.714901080048705,-74.0505436291272
"07302","Jersey City","NJ","LibertyHealth","not_available","07302",40.71648144280763,-74.0519262690645
"07302","Jersey City","NJ","MD Emergent Care","631 Grand St","07304",40.71627426147461,-74.06333923339844
"07302","Jersey City","NJ","JCMC NICU","Varick St.","07302",40.716146,-74.049809
"07302","Jersey City","NJ","NJ Primary Care","200 Hudson St Ste 145","07311",40.71836853027344,-74.03364562988281
"07302","Jersey City","NJ","St.lukes And Davids Division Of Robotic Surgery And Robotic Limb Replacement","33 Baldwin Ave","07304",40.722889,-74.06518
"07302","Jersey City","NJ","Exchange Physical Therapy Group","200 Hudson Street #127","07302",40.7186893,-74.0330227
"07302","Jersey City","NJ","St. Joseph's Regional Medical Center","703 Main St","07503",40.714632,-74.057769
"07304","Jersey City","NJ","Greenville Hospital","384 Bergen Ave","07304",40.7148551940918,-74.07966613769531
"07304","Jersey City","NJ","The Old Greenville Hospital","Kennedy Blvd","07305",40.70286616560366,-74.09166281004404
"07304","Jersey City","NJ","Gulf Post JCMC EMS","Bergen Ave","not_available",40.72490042108759,-74.0671747989931
"07304","Jersey City","NJ","Jeffrey Rapaport M.D, P.A. Dermatology","631 Grand Street STE 1-200","07304",40.716428,-74.0635642
"07304","Jersey City","NJ","Jersey City Medical Center at Greenville","1825 John F. Kennedy Boulevard","07305",40.7027686,-74.091832
"07305","Jersey City","NJ","Ellis Hospital","1 Ellis Is","10004",40.69819259643555,-74.04132843017578
"07305","Jersey City","NJ","Ellis Island EMS Room","Ellis Island","10004",40.69919850455423,-74.03956820884939
"07306","Jersey City","NJ","CarePoint Health: Christ Hospital","176 Palisade Ave","07306",40.73483268205437,-74.04992929563593
"07306","Jersey City","NJ","Concentra Urgent Care - Jersey City","574 Summit Ave","07306",40.733817145228386,-74.05930995941162
"07306","Jersey City","NJ","Trinity Medical Group","634 Newark Ave, Jersey City, NJ 07306","07306",40.73587751381876,-74.05912042371358
"07306","Jersey City","NJ","Cardiac Diagnostic Center at Jersey City","120 Franklin St","07307",40.7429132,-74.0497486
"07306","Jersey City","NJ","El Manicomio","Newark Ave","07109",40.73343752481813,-74.0583803677737
"07306","Jersey City","NJ","Drug & Alcohol Rehab Jersey City","35 Journal Square Plz","07306",40.73067855834961,-74.06498718261719
"07306","Jersey City","NJ","Christ Hospital IT","Palisade St","not_available",40.73221745334015,-74.05330316189138
"07403","Bloomingdale","NJ","Insane Asylum","not_available","07403",41.003614,-74.331741
"07410","Fair Lawn","NJ","Urgent Care of Glen Rock","85 Harristown Rd Ste 101","07452",40.949438,-74.14266500000001
"07410","Fair Lawn","NJ","Chicken-head Roost","not_available","07504",40.918026,-74.146149
"07410","Fair Lawn","NJ","Med Expert Services","7 Andrew Pl","07410",40.937443,-74.124526
"07410","Fair Lawn","NJ","Bergen-Passaic Cataract Surgery & Laser Center","18-01 Pollitt Dr","07410",40.945275,-74.12790600000001
"07410","Fair Lawn","NJ","Complete Care Physical Therapy","8-14 Saddle River Rd","07410",40.937197,-74.098339
"07410","Fair Lawn","NJ","Kayal Orthopaedic Center, P.C. - Glen Rock (Kayal Orthopedic - Glen Rock)","266 Harristown Rd Suite #107","07452",40.9509617,-74.1358324
"07410","Fair Lawn","NJ","Bradford A Singman MD","20-00 Fair Lawn avenue","07410",40.9385501,-74.1223421
"07410","Fair Lawn","NJ","Kayal Orthopaedic Center, P.C.","680 Broadway","07514",40.917751,-74.1443982
"07417","Franklin Lakes","NJ","Christian Health Care Center (Inc)","301 Sicomac Ave","07481",40.982573517150655,-74.17358751044364
"07417","Franklin Lakes","NJ","Kayal Orthopaedic Center, P.C. - Franklin Lakes","784 Franklin Avenue Suite #250","07417",41.0214346,-74.2064123
"07417","Franklin Lakes","NJ","Ramapo Ridge Psychiatric Hospital","300 Sicomac Ave","07481",40.98160934448242,-74.17237091064453
"07419","Hamburg","NJ","Mt. Creek South - EMS/ Ski Patrol","not_available","07419",41.17944430545662,-74.53011572368294
"07419","Hamburg","NJ","Atlantic EMS 4 @ Mt. Creek South","New York 94, Vernon, NJ 07462","07462",41.1793507235108,-74.53013288965828
"07421","Hewitt","NJ","Wayne Foot & Ankle - Hewitt Podiatrist","1900 Union Valley Rd #203","07421",41.15444,-74.35583
"07421","Hewitt","NJ","Lions,tigers and bears","not_available","07480",41.129258485731285,-74.34275247048339
"07421","Hewitt","NJ","Chilton Emergency Room","not_available","07456",41.12786405624625,-74.36849820795516
"07421","Hewitt","NJ","Hackensack AirMed 1","Airport Rd","07480",41.129346097092764,-74.3429677455967
"07421","Hewitt","NJ","Chilton MICU","179 Cahill Cross Rd","07480",41.11800397848072,-74.36103547425229
"07423","Ho Ho Kus","NJ","E Quantum Breakthroughs","10 Sycamore Ave 2C","07423",40.997058,-74.1090722
"07424","Little Falls","NJ","MedExpress Urgent Care","225 US Highway 46","07512",40.89452178951317,-74.22808786922275
"07424","Little Falls","NJ","John Niccollai Medical Center","219 Paterson Ave","07424",40.88688278198242,-74.22198486328125
"07424","Little Falls","NJ","gem ambulance","657 Union Blvd","07512",40.89779281616211,-74.22310638427734
"07424","Little Falls","NJ","University Health and Urgent Care","525 Union Blvd","07512",40.90062,-74.217658
"07430","Mahwah","NJ","Good Samaritan Hospital","255 Lafayette Ave","10901",41.11133082095958,-74.13535263410414
"07430","Mahwah","NJ","Good Samaritan Hospital Ambulatory Surgery Center","257 Lafayette Ave","10901",41.11180114746094,-74.13388061523438
"07430","Mahwah","NJ","AFC Urgent Care Airmont","5 N Airmont Rd Ste 4","10901",41.1130371,-74.1138647
"07430","Mahwah","NJ","Good Samaritan Hospital Emergency Room","not_available","10901",41.11090351114913,-74.13484319745521
"07430","Mahwah","NJ","CityMD Ramsey Urgent Care - New Jersey","295 Franklin Turnpike","07446",41.06811072524366,-74.13623303174973
"07430","Mahwah","NJ","Good Sam Cardiac Cath (Heart STAT)","255 Lafayette Ave, Suffern, NY 10901","10901",41.11142349243164,-74.1358642578125
"07430","Mahwah","NJ","Princess Khin's Fluffy Mattress","not_available","07430",41.08746337890625,-74.13755798339844
"07430","Mahwah","NJ","Mindray Medical Equipment","800 MacArthur Blvd","07430",41.07298,-74.16784
"07432","Midland Park","NJ","Urgent Care of Midland Park","85 Godwin Ave","07432",40.984825134277344,-74.13905334472656
"07432","Midland Park","NJ","Timur Tafari Graham, MD","44 Godwin Ave,Ste 201","07432",40.98435509999999,-74.1365843
"07435","Newfoundland","NJ","Milton first aid squad","45 Milton Rd","07438",41.02676035201786,-74.5191562385703
"07435","Newfoundland","NJ","North Jersey Dermatology Center","7 Oak Ridge Road, Suite 3","07435",41.052759473526336,-74.45856255092622
"07442","Pompton Lakes","NJ","Psychic of Pompton Lakes","756 Hamburg Tpke","07442",40.992714,-74.281276
"07442","Pompton Lakes","NJ","Pompton Lakes/Riverdale First Aid Squad","700 Ramapo Ave","07442",40.993531,-74.288216
"07444","Pompton Plains","NJ","Chilton BLS/ACLS/PALS Training Center","242 W Parkway","07444",40.98160171508789,-74.30403900146484
"07444","Pompton Plains","NJ","PM Pediatrics","562 NJ-23","07444",40.96948288061097,-74.28513988950834
"07450","Ridgewood","NJ","The Valley Hospital","223 N Van Dien Ave","07450",40.9835909,-74.100692
"07450","Ridgewood","NJ","Steven Clifford Jacoby, MD","1200 E Ridgewood Ave,Ste 303","07450",40.9726171,-74.0947297
"07450","Ridgewood","NJ","International Center For Minimally Invasive Spine Surgery","461 Goffle Road","07450",40.97926330566406,-74.14432525634766
"07450","Ridgewood","NJ","AFC Urgent Care Paramus","67 E. Ridgewood Ave.","07652",40.97076,-74.08646
"07450","Ridgewood","NJ","Valley Hospital Endoscopy Suite","not_available","07450",40.985183,-74.099212
"07450","Ridgewood","NJ","Davis Surgical Supply","12 W Ridgewood Ave","07450",40.980177,-74.122299
"07450","Ridgewood","NJ","Physical Therapy Now - Paramus","695 NJ-17","07652",40.9679593,-74.0791748
"07450","Ridgewood","NJ","The Valley Hospital Sleep Center","579 Franklin Tpke","07450",40.9896,-74.096439
"07450","Ridgewood","NJ","The Valley Hospital Outpatient Lab","Van Dien","07450",40.9842997036011,-74.10088012450512
"07450","Ridgewood","NJ","Kayal Orthopaedic Center - Wyckoff","529 Goffle Rd","07481",40.9748218,-74.146957
"07450","Ridgewood","NJ","Advanced Dermatology, P.C.","1200 East Ridgewood Avenue","07450",40.972581,-74.094645
"07450","Ridgewood","NJ","The Valley Hospital","201-213 N Van Dien Ave","07450",40.95898264689466,-74.14560089935242
"07450","Ridgewood","NJ","The Breslow Center For Plastic Surgery","1 W Ridgewood Ave #110","07652",40.9704153,-74.0816907
"07450","Ridgewood","NJ","Nat T Levy, MD","140 Chestnut St,Ste 200","07450",40.9833669,-74.11842759999999
"07461","Sussex","NJ","Wantage First Aid Squad","842-888 New Jersey 23","07461",41.24054216420461,-74.62348806909809
"07461","Sussex","NJ","atlantic quarters mountain creek","200 State Rt 94","07462",41.19112777709961,-74.50384521484375
"07461","Sussex","NJ","Sussex Guard Post Echo","County Route 650","07461",41.23104543479426,-74.63808466181607
"07461","Sussex","NJ","Saint Clare's Behavioral Health","20 Walnut St","07461",41.20710468401218,-74.60400223731993
"07461","Sussex","NJ","514 Sussex Post","Room 119","07461",41.207050323271616,-74.6036918718819
"07461","Sussex","NJ","Van Horn Medical Center","Hilltop","10988",41.30377153132516,-74.56434703313026
"07461","Sussex","NJ","Saint Clares Trauma Center","not_available","07461",41.20711412703278,-74.60365062661576
"07470","Wayne","NJ","St. Joseph Wayne Hospital","224 Hamburg Tpke","07470",40.946947269350375,-74.20282059005285
"07470","Wayne","NJ","St. Joe's Wayne Hospital ER","St Joseph's Wayne Hospital","not_available",40.94667145695446,-74.20298101710523
"07470","Wayne","NJ","Pathogend of New Jersey","30 Galesi Dr Ste 102A","07470",40.94713708194554,-74.24799934029579
"07470","Wayne","NJ","Elite Surgical Center","307 Hamburg Tpke","07470",40.94807434082031,-74.20830535888672
"07470","Wayne","NJ","Surgicare Surgical Associates Of Wayne","246 Hamburg Tpke","07470",40.947330474853516,-74.20556640625
"07470","Wayne","NJ","SJ MICU Wayne 702","Mobile!","07470",40.94919905179236,-74.20273932414894
"07470","Wayne","NJ","Wayne First Aid Squad-Uptown Building","1 Squad Place","07470",40.96472481264561,-74.25527156444706
"07470","Wayne","NJ","Preakness Healthcare & Rehabilitation Center","305 Oldham Rd","07470",40.93669528497435,-74.20612171547202
"07470","Wayne","NJ","St. Joseph's MICU Station 72","11 College Rd","07470",40.948987,-74.202954
"07470","Wayne","NJ","Wayne Foot & Ankle Foot Center","246 Paterson Hamburg Turnpike #204","07470",40.947703000000004,-74.205715
"07470","Wayne","NJ","North Jersey Diagnostics Center","500 Valley Rd","07470",40.929164,-74.228083
"07501","Paterson","NJ","Nursery","St. Joseph's Regional Medical Center","not_available",40.902514887743905,-74.1649586111955
"07501","Paterson","NJ","SJRMC Pre-Op","703 Main St  CCB 1st Floor","not_available",40.90377897426255,-74.16568104604595
"07501","Paterson","NJ","St.Josephs High Risk Ob Department","11 Ghetto Ave","07514",40.9053477847075,-74.16570971403762
"07501","Paterson","NJ","St. Joe's Outpatient Lab Services","not_available","07503",40.90233184450567,-74.1651478205945
"07501","Paterson","NJ","Alcohol & Drug Rehab Paterson NJ","87 Market St","07505",40.91603088378906,-74.17472839355469
"07501","Paterson","NJ","St. Joe's RMC; Regan II","703 Main St, Paterson, NJ 07503","07503",40.902320478847315,-74.16486559906805
"07501","Paterson","NJ","Drug & Alcohol Rehab Paterson","152 Market St #300","07505",40.91646957397461,-74.17169189453125
"07501","Paterson","NJ","Doctors Subacute Care","59 Birch St","07522",40.91442108154297,-74.1850814819336
"07501","Paterson","NJ","Blue Star Urgent Care","540 Straight Street Suite 2B","07503",40.9056159,-74.1664748
"07506","Hawthorne","NJ","Hawthorne Volunteer Ambulance Corps","970 Goffle Rd","07506",40.96649932861328,-74.15670776367188
"07508","Haledon","NJ","Dahlia's Vision & Hearing Center (OPTOMETRY OFFICE)","397 Haledon Avenue Suite 102B","07508",40.9375183,-74.1819436
"07508","Haledon","NJ","Nidal Matalkah, MD","401 Hamburg Tpke,Ste 107","07470",40.9505633,-74.210365
"07601","Hackensack","NJ","Bogota First Aid Squad","69 W Main St","07603",40.87829746096044,-74.03002893772414
"07601","Hackensack","NJ","HackensackUMC Women & Children's","not_available","07601",40.88475349065449,-74.0559602119425
"07601","Hackensack","NJ","HackensackUMC Emergency Room","Prospect Ave","not_available",40.88451008872215,-74.05656738301221
"07601","Hackensack","NJ","John Theurer Cancer Center","92 2nd St","07601",40.88450630910709,-74.05398078152677
"07601","Hackensack","NJ","CityMD Teterboro","16 Teterboro Landing Dr","07608",40.860305,-74.062136
"07601","Hackensack","NJ","HUMC Heart & Vascular Hospital","30 Prospect Ave","07601",40.88289422602203,-74.05616758925851
"07601","Hackensack","NJ","HUMC ER","not_available","07644",40.882889945481665,-74.05656750535171
"07601","Hackensack","NJ","Hackensack Hospital","30 Prospect Avenue","07601",40.883877,-74.056921
"07601","Hackensack","NJ","HackensackUMC Helipad ""NJ22""","30 Prospect Ave, Hackensack, NJ 07601","07601",40.87957658848675,-74.05111437238693
"07601","Hackensack","NJ","New Jersey Cancer and Blood Specialists","20 Woodridge Avenue","07601",40.8967541,-74.0362089
"07603","Bogota","NJ","Hackensack University Infusion Center","20 Prospect Ave","07601",40.86750564029627,-74.02949298404579
"07604","Hasbrouck Heights","NJ","Hasbrouck Heights surgical Center","214 Terrace Ave","07604",40.85870361328125,-74.07394409179688
"07605","Leonia","NJ","Marian 206","not_available","07666",40.87346649169922,-74.00240325927734
"07606","South Hackensack","NJ","hackensack childrens house","not_available","07643",40.85465020093914,-74.04336062389136
"07606","South Hackensack","NJ","Betty Torricelli Institute For Breast Care","20 Prospect Ave Ste 513","07601",40.864651,-74.043261
"07607","Maywood","NJ","MedExpress Urgent Care","184 Essex Street","07644",40.88869205865278,-74.06841069459921
"07607","Maywood","NJ","New Jersey Imaging Network of Hackensack","385 Prospect Ave Ste 1","07601",40.895858000000004,-74.05253499999999
"07620","Alpine","NJ","St. Joseph Medical Center","127 S Broadway","10701",40.92963019276715,-73.89757694630242
"07620","Alpine","NJ","St.Joseph's E.R.","not_available","10701",40.92974360398764,-73.89724632104073
"07620","Alpine","NJ","Alcohol & Drug Rehab Yonkers","20 S Broadway","10701",40.933021545410156,-73.89830780029297
"07620","Alpine","NJ","CityMD Yonkers-South Broadway Urgent Care - Westchester","424 S Broadway","10705",40.918692,-73.896276
"07620","Alpine","NJ","Positive Directions","not_available","10705",40.922794342041016,-73.89607238769531
"07621","Bergenfield","NJ","AM/PM Walk In Urgent Care Center","19 S Washington Ave","07621",40.927401,-73.99591099999999
"07621","Bergenfield","NJ","HN EMS Charlie Post","not_available","07621",40.92950028211362,-73.99085105620249
"07621","Bergenfield","NJ","Holy Name MS Center","Teaneck Ed","07666",40.91437879838557,-74.01052877279837
"07626","Cresskill","NJ","Englewood Health Urgent Care","46 Union Ave","07626",40.941665,-73.960967
"07626","Cresskill","NJ","Cresskill EMS","not_available","07626",40.942169671448525,-73.96569002155438
"07628","Dumont","NJ","NMVAC Rehab Station","Shea Drive","07646",40.947846,-74.007715
"07630","Emerson","NJ","Medical Records Office","not_available","07675",40.985535,-74.01403
"07630","Emerson","NJ","Kayal Orthopaedic Center- Westwood (Kayal Orthopedic - Westwood)","260 Old Hook Road Suite #401","07675",40.98521041870117,-74.01521301269531
"07630","Emerson","NJ","The Emerald City North Campus","250 Old Hook Rd","07675",40.98521041870117,-74.01521301269531
"07631","Englewood","NJ","EHMC - Englewood Hospital and Medical Center","350 Engle St","07631",40.90400958558281,-73.96841526031494
"07631","Englewood","NJ","New Jersey Imaging Network of Englewood","401 Sylvan Ave","07632",40.87497,-73.95191
"07631","Englewood","NJ","EHMC 6D","6D","07631",40.90474355256875,-73.9693518913068
"07631","Englewood","NJ","EHMC EMS Englewood Cliffs","10 Kahn Ter","07632",40.87869644165039,-73.95111083984375
"07631","Englewood","NJ","Englewood Hospital EMS","122 S Van Brunt St","07631",40.890845750229175,-73.97947224830875
"07631","Englewood","NJ","Ehmc 2k","not_available","07631",40.90421,-73.967488
"07631","Englewood","NJ","Reproductive Medicine Associates of New Jersey | RMANJ","25 Rockwood Place, Suite 320","07631",40.879644,-73.98305699999999
"07631","Englewood","NJ","Chee Gap Kim MD, Comprehensive Pain Therapy Center","535 Grand Ave","07631",40.876628000000004,-73.983083
"07642","Hillsdale","NJ","Health Professionals NYC","116-20","11375",41.00553649528992,-74.05362367630005
"07646","New Milford","NJ","HN EMS-BLS 331 Post","River Road","07646",40.945995954453956,-74.02015743390172
"07646","New Milford","NJ","New Milford Band Aid Club","213 River Rd","07646",40.9459834681872,-74.02011726767093
"07646","New Milford","NJ","New Milford EMS Special Ops","not_available","07646",40.951346711804426,-74.01141247229273
"07647","Northvale","NJ","Talaria Physical Therapy and Wellness","75 Oak St #102","07648",40.9984749,-73.9527079
"07647","Northvale","NJ","Dermacare Medical PC","165 Washington Street","10983",41.021549,-73.9454882
"07650","Palisades Park","NJ","CK Rehab & Pain Clinic","21 Grand Ave Ste 502","07650",40.84524154663086,-74.00553131103516
"07652","Paramus","NJ","CityMD Paramus","282 E State Rt 4","07652",40.913855,-74.048312
"07652","Paramus","NJ","Kayal Orthopaedic Center, P.C.","185 Route 17 South","07652",40.933414,-74.0714112
"07652","Paramus","NJ","Offices Of 6ave","not_available","07652",40.95797,-74.07388678054981
"07652","Paramus","NJ","Kayal Orthopaedic Center - PARAMUS","185 NJ-17 S Suite #101","07652",40.933414,-74.0714112
"07652","Paramus","NJ","MD Place Urgent Care","33 E Midland Ave","07652",40.94935989379883,-74.0692138671875
"07652","Paramus","NJ","Aydin Center For Plastic Surgery","140 N Rt. 17","07652",40.92962000000001,-74.0696206
"07652","Paramus","NJ","Bergen Regional Medical Center","230 E Ridgewood Ave","07652",40.956363677978516,-74.06251525878906
"07652","Paramus","NJ","AFC Doctors Express Urgent Care Paramus","67 East Ridgewood Avenue","07652",40.96780776977539,-74.07315826416016
"07652","Paramus","NJ","CityMD Paramus Rt. 17 Urgent Care - New Jersey","499 N State Rt 17","07652",40.954839148318214,-74.07394677400589
"07652","Paramus","NJ","The Spine & Rehab Group","140 NJ-17 Suite 101","07652",40.9295765,-74.0696593
"07652","Paramus","NJ","Plastic Surgery Specialists of New Jersey","2 Sears Dr #103","07652",40.952903747558594,-74.06971740722656
"07662","Rochelle Park","NJ","Open MRI of Rochelle Park","251 Rochelle Ave","07662",40.904,-74.07835
"07662","Rochelle Park","NJ","Select Specialty Hospital","96 Parkway","07662",40.897533775212,-74.07414949870535
"07662","Rochelle Park","NJ","CNNH - The Center for Neurological and Neurodevelopmental Health","218 New Jersey 17 #500","07662",40.907808513146605,-74.07493650913239
"07662","Rochelle Park","NJ","Rig 3","not_available","07663",40.89572,-74.082581
"07662","Rochelle Park","NJ","Eye Care Group","1 Garden State Plaza Space 1105","07652",40.9181658,-74.0762757
"07663","Saddle Brook","NJ","ACAP- Cardiovascular Preventative Medicine","38 Mayhill St","07663",40.89781188964844,-74.09150695800781
"07663","Saddle Brook","NJ","Saddle Brook Medical Center","441 Market St","07663",40.8978385925293,-74.09918975830078
"07666","Teaneck","NJ","CareOne At Teaneck","544 Teaneck Rd","07666",40.87750832867633,-74.0117148309946
"07666","Teaneck","NJ","Northern New Jersey Center For Sleep Medicine","725 Teaneck Rd","07666",40.88191,-74.008606
"07666","Teaneck","NJ","Friendly Urgent Care","1428 Teaneck Rd","07666",40.9007368,-74.0004506
"07666","Teaneck","NJ","Private Aid Contractor LLC","Teaneck","07666",40.89753833780527,-74.01653409004211
"07666","Teaneck","NJ","Pediatric Occupational Therapy Services (POTS)","1415 Queen Anne Rd #3521","07666",40.901668548583984,-74.00431823730469
"07666","Teaneck","NJ","HN EMS Charlie Post","88 Chadwick Rd","07666",40.8840217590332,-74.0110855102539
"07675","Westwood","NJ","R.C.C.A. - Building 17","not_available","10962",41.04596333118144,-73.97039343223277
"07675","Westwood","NJ","Rockland Psychiatric Center","140 Old Orangeburg Rd","10962",41.04495453231105,-73.96845817565918
"07701","Red Bank","NJ","Riverview Medical Center","1 Riverview Plz","07701",40.35351484308679,-74.06397493935857
"07701","Red Bank","NJ","Riverview Women's Health - Little Silver","180 White Road Suite 209","07739",40.3355252,-74.0569055
"07701","Red Bank","NJ","Riverview Medical Center Booker Pavillion","not_available","07701",40.354218333106964,-74.06222804999636
"07701","Red Bank","NJ","Riverview Medical Labor & Delivery","1 Riverview Road","not_available",40.35393861654669,-74.06365248615764
"07701","Red Bank","NJ","Monoc Post 6","336 State Route 35","07701",40.36881637573242,-74.0858383178711
"07701","Red Bank","NJ","Griswold Home Care","429 Broad Street","07702",40.337501,-74.063076
"07701","Red Bank","NJ","Immediate Care","46 Newman Springs Rd E","07701",40.338489,-74.065758
"07702","Shrewsbury","NJ","I.M.A","not_available","07702",40.31559703333333,-74.064113
"07702","Shrewsbury","NJ","Holmdel OB/GYN Associates - Shrewsbury","39 Avenue at the Commons Suite 207","07702",40.3168017,-74.0597085
"07703","Fort Monmouth","NJ","Fort Monmouth VA Clinic","not_available","07703",40.308863786745675,-74.03959115863847
"07712","Asbury Park","NJ","Central Jersey Urgent Care of Ocean","731 NJ-35","07712",40.227293,-74.038359
"07712","Asbury Park","NJ","Monmouth Medical Center Laboratory and Diagnostic X-Ray Services","1910 State Route 35","07755",40.262888,-74.042295
"07712","Asbury Park","NJ","Family First Urgent Care","1803 NJ 35 North","07755",40.260314,-74.04064749999999
"07712","Asbury Park","NJ","Ion Of Bergen, LLC","736 State Route 35, Ste D","07712",40.23036193847656,-74.0394287109375
"07712","Asbury Park","NJ","Elite Sports Physical Therapy","1540 W Park Ave #4","07712",40.256422640893405,-74.09118159241322
"07712","Asbury Park","NJ","Advanced Health and Education","3 Corbett Way","07724",40.274428,-74.04788
"07712","Asbury Park","NJ","Reproductive Medicine Associates of New Jersey | RMANJ","2 Industrial Way West, Suite 204","07724",40.277190000000004,-74.046572
"07712","Asbury Park","NJ","RSM Sports Medicine & Rehab","20 Meridian Rd Suite 5","07724",40.2778301,-74.0495654
"07712","Asbury Park","NJ","Reproductive Science Center Of New Jersey - Eatontown Fertility Center","234 Industrial Way W A104","07724",40.27671,-74.05606
"07712","Asbury Park","NJ","Family first urgent care","1910 rt 35","07712",40.26426038864353,-74.05350969495323
"07716","Atlantic Highlands","NJ","Holmdel OB/GYN Associates - Atlantic Highlands","2349 Highway 36","07716",40.4061212,-74.007014
"07717","Avon By The Sea","NJ","Avon First Aid Squad","520 Main At","not_available",40.193099,-74.021125
"07719","Belmar","NJ","Arthritis Knee Pain Centers New Jersey (Jersey Arthritis & Knee Pain Center)","1985 Highway 34 South Unit A8","07719",40.1505034,-74.0968795
"07719","Belmar","NJ","OUCH urgent care","2315 Highway 34","08736",40.137723,-74.09164200000001
"07719","Belmar","NJ","American Personal Alert Systems LLC","1910 Hunters Ln","07719",40.18011766722174,-74.08292360246318
"07719","Belmar","NJ","CityMD Wall Urgent Care - New Jersey","1825 NJ-35","07719",40.1675233,-74.0503111
"07719","Belmar","NJ","MedExpress Urgent Care","1919 NJ Route 35","07719",40.1573238,-74.0539425
"07722","Colts Neck","NJ","Lincroft Boat 394 (71-1-M1)","59 Hurleys Ln","07738",40.33488464355469,-74.11902618408203
"07722","Colts Neck","NJ","Earle NWS Clinic","Building C-3","not_available",40.267927,-74.160788
"07722","Colts Neck","NJ","TMS NEUROHEALTH NJ","5 Professional Cir Ste 110 Ste 110","07722",40.2801317,-74.1720747
"07724","Eatontown","NJ","Central Jersey Urgent Care Of Eatontown","142 NJ 35","07724",40.294643352076186,-74.05396699905396
"07724","Eatontown","NJ","Monmouth Medical Center","not_available","07740",40.29188795125454,-74.04423269652598
"07724","Eatontown","NJ","Encompass Health Rehabilitation Hospital of Tinton Falls","2 Center Plz","07724",40.282823,-74.079722
"07724","Eatontown","NJ","Health Med Urgent Care","not_available","07724",40.294956,-74.05376
"07726","Englishtown","NJ","CentraState Medical Center","901 W Main St","07728",40.23819194426235,-74.31153758369885
"07726","Englishtown","NJ","Hackensack Meridian Health Urgent Care - Freehold","315 W Main St","07728",40.24488433129229,-74.29824793303851
"07726","Englishtown","NJ","Reproductive Medicine Associates of New Jersey | RMANJ","109 Professional View Drive, Bldg 100","07728",40.2331891,-74.3203553
"07726","Englishtown","NJ","Women's Physicians & Surgeons - Freehold","501 Iron Bridge Road Ste 10","07728",40.2332724,-74.31164509999999
"07726","Englishtown","NJ","Women's Physicians & Surgeons - Manalapan","510 Bridge Plaza Drive","07726",40.3372957,-74.3199176
"07726","Englishtown","NJ","Kenneth Rosenstock, D.P.M.","4 Bridge Plaza Dr","07726",40.337485,-74.319786
"07726","Englishtown","NJ","Immediate Care","280 U.S. 9","07726",40.342286,-74.306854
"07726","Englishtown","NJ","My Insta Doc Urgent Care Of Marlboro","167 U.S. 9 Suite 5","07726",40.347525342480694,-74.30744647979736
"07726","Englishtown","NJ","Insomnia Institution","not_available","08884",40.302146241265966,-74.29013267168678
"07726","Englishtown","NJ","CentraState","not_available","07726",40.30280223391629,-74.30583714430023
"07727","Farmingdale","NJ","MedExpress Urgent Care","4074 US Highway 9","07731",40.152532,-74.228671
"07727","Farmingdale","NJ","Farmingdale First Aid","W. Main St.","07727",40.199858793350096,-74.17354737695702
"07728","Freehold","NJ","MPM Medical Supply","265 Willow Brook Rd Unit 10","07728",40.241949,-74.249975
"07730","Hazlet","NJ","Bayshore Community Hospital","727 N Beers St","07733",40.40537237963307,-74.1917269566475
"07730","Hazlet","NJ","Bayshore Medical Center Emergency Department","not_available","07733",40.40579994103791,-74.19142102995623
"07730","Hazlet","NJ","Riverview Women's Health - Hazlet","1 Bethany Road Building 2, Suite 31","07730",40.4161793,-74.17765399999999
"07730","Hazlet","NJ","MedExpress Urgent Care","2880 Highway 35","07730",40.41685333514619,-74.17348220944405
"07730","Hazlet","NJ","Bayshore Rehab Facility","715 N Beers St","07733",40.40827178955078,-74.1939697265625
"07730","Hazlet","NJ","Bayshore Hospital 4 East Hazlet N.J.","not_available","07730",40.40538329876907,-74.1920307944346
"07730","Hazlet","NJ","Immediate Care","1376 State Route 36","07730",40.4283913,-74.1878716
"07730","Hazlet","NJ","Holmdel OB/GYN Associates - Holmdel","704 North Beers Street","07733",40.40526,-74.19469
"07730","Hazlet","NJ","Alert Ambulance Service-Holmdel","702 N Beers St","07733",40.405640777766195,-74.19502728966502
"07730","Hazlet","NJ","Mount Sinai Doctors-Hazlet, Cancer","883 Poole Ave Ste 4","07730",40.41884231567383,-74.17727661132812
"07731","Howell","NJ","My InstaDoc Urgent Care","4564 US Highway 9","07731",40.14214,-74.22708
"07731","Howell","NJ","Ramtown First Aid","not_available","07731",40.109615809329675,-74.15089350684957
"07731","Howell","NJ","Chai Urgent Care","2206 W County Line Rd","08527",40.12557980972691,-74.267572229788
"07740","Long Branch","NJ","Monmouth Medical Center","300 2nd Ave","07740",40.295519,-73.9846891
"07740","Long Branch","NJ","Monmouth Medical Center Laboratory Drawing Station","166 Morris Ave","07740",40.297534000000006,-73.986085
"07746","Marlboro","NJ","Apex Ambulance","45 North Main Street Suite 22","07746",40.3197422,-74.2459392
"07746","Marlboro","NJ","Marlboro State Psychiatric Hospital","Marlboro State Hospital Rd","07746",40.34348588988737,-74.23702239990234
"07746","Marlboro","NJ","Immediate Care","479 Route 520, Suite A103","07746",40.3334534,-74.2419136
"07746","Marlboro","NJ","Apex Ambulance","45 North Main Street","07746",40.3197422,-74.2459392
"07746","Marlboro","NJ","Pure Direct Pediatrics Marlboro and Holmdel NJ (Pure Direct Pediatrics)","479 County Road 520 Suite A201","07746",40.3334534,-74.2419136
"07747","Matawan","NJ","Afc Urgent Care","not_available","07747",40.39647,-74.22479
"07747","Matawan","NJ","Morgan Fertility and Reproductive Medicine","200 Perrine Rd #220","08857",40.43403259999999,-74.3012021
"07747","Matawan","NJ","MONOC Station 1 (MICU 201/BLS 817)","260 Church St","07747",40.40511665741735,-74.21535800355001
"07747","Matawan","NJ","AFC Urgent Care Aberdeen","1140 State Route 34","07747",40.39645,-74.2248
"07747","Matawan","NJ","Women's Physicians & Surgeons - Matawan","245 Main Street #A","07747",40.4089104,-74.2338242
"07747","Matawan","NJ","Sword Meets Head","not_available","08857",40.4061279296875,-74.30033111572266
"07747","Matawan","NJ","NJ Spine and Wellness","144 State Route 34","07747",40.4249855,-74.2891558
"07748","Middletown","NJ","Middletown First Aid and Rescue Squad","11 Cruse Pl","07748",40.43942388523696,-74.11606994407998
"07748","Middletown","NJ","Port Monmouth First Aid","not_available","07758",40.426589480278736,-74.10277198970813
"07748","Middletown","NJ","Middletown Township EMS Responder 610 (31-9-55)","1 Kings Hwy","07748",40.394508361816406,-74.10475158691406
"07748","Middletown","NJ","eMedical Offices - EMO Urgent Care","2 Kings Hwy E","07748",40.39341349570522,-74.10242240284167
"07748","Middletown","NJ","Specialty Surgery Center","1270 New Jersey 35, Middletown, NJ 07748","07748",40.399454441436696,-74.11992704355127
"07748","Middletown","NJ","Sleep Dynamics","1000 RT 35 102","07748",40.3958391,-74.1070659
"07751","Morganville","NJ","Raritan Bay -Old Bridge","1 Hospital Plz","08857",40.3830647409962,-74.32345488980299
"07751","Morganville","NJ","Old Bridge Medical Arts Building","3 Hospital Plz","08857",40.38299066090529,-74.3228657169617
"07751","Morganville","NJ","Raritan Valley Hospital","32-98 Hospital Plaza","08857",40.38159990050344,-74.3255675032434
"07751","Morganville","NJ","Emergency Room","Raritan Bay Medical Center","not_available",40.38326023486796,-74.32383173052467
"07753","Neptune","NJ","Jersey Shore University Medical Center","1945 State Route 33","07753",40.2088684157361,-74.04111385345459
"07753","Neptune","NJ","Jersey Shore University Medical Center - Nuclear Medicine","not_available","07753",40.208776,-74.041507
"07753","Neptune","NJ","Northwest Pavilion","Jersey Shore Medical Center","07753",40.20992557954147,-74.04029112587467
"07753","Neptune","NJ","Emergency Room @ Jersey Shore University Medical Center","1945 Corlies Ave. (St. Hwy 33)","07753",40.209965441522655,-74.04183925890553
"07757","Oceanport","NJ","Monmouth Medical Center Outpatient Infusion Center","100 State Route 36","07764",40.3001931,-74.0194545
"07760","Rumson","NJ","Monmouth Medical Center Pediatric ER","not_available","07760",40.3710883,-73.9797808
"07801","Dover","NJ","St Clare's Hospital - Dover Campus","not_available","07885",40.88475299737656,-74.57630894822329
"07801","Dover","NJ","St. Clare's Hospital - EMS Bldg.","400 W Blackwell St, Dover, NJ 07801","07801",40.88422825908832,-74.57544541475171
"07801","Dover","NJ","MedExpress Urgent Care","346 US Highway 46","07866",40.8887085,-74.5239699
"07801","Dover","NJ","Saint Clare's Dover Hospital","400 W Blackwell St","07801",40.8848548,-74.5759522
"07801","Dover","NJ","Saint Clare's Human Resources","not_available","07801",40.88554353988157,-74.57654920777219
"07801","Dover","NJ","Urgent Care","600 Mount Pleasant Ave","07801",40.902993,-74.557805
"07801","Dover","NJ","Saint Clares EMS/MICU Station 54","400 E Blackwell St, Dover, NJ 07801","07801",40.88507887941096,-74.58431169964395
"07801","Dover","NJ","First Primary Care","3175 Route 10 East","07834",40.87229587709662,-74.52570463055304
"07803","Mine Hill","NJ","Mine Hill First Aid Squad","not_available","07803",40.87891102363281,-74.59934946171032
"07821","Andover","NJ","Saint Clares EMS 5341","409 Howard Blvd, Mt Arlington, NJ 07856","07856",40.92985816732777,-74.63295757854166
"07821","Andover","NJ","5341 Quarters","407 Howard Blvd","07856",40.92984947060465,-74.63300904665827
"07822","Augusta","NJ","Blue Ridge Rescue Squad Station 3 @ Sussex County Fairgrounds","not_available","07822",41.132835527178834,-74.71723200876058
"07823","Belvidere","NJ","Aging Support Solutions","34 Cambridge E","07863",40.8188225,-74.9903572
"07825","Blairstown","NJ","Great Meadows Hospital","350","07838",40.86975258489561,-74.91568501208788
"07827","Montague","NJ","Milford Urgent Care","111 E Catherine St","18337",41.32249281796061,-74.80134236357387
"07827","Montague","NJ","Progressive Health of PA Inc","112 E Harford St","18337",41.32155227661133,-74.80232238769531
"07827","Montague","NJ","Milford Senior Care","not_available","18337",41.34811782836914,-74.74319458007812
"07827","Montague","NJ","Blue Ridge Station 2","277 Clove Rd","07827",41.312110900878906,-74.76484680175781
"07828","Budd Lake","NJ","Mt. Olive","125 U.S. 46 Suite 3","07828",40.8816515,-74.7308264
"07832","Columbia","NJ","Surgery","not_available","18301",41.00846,-75.121758
"07832","Columbia","NJ","pocono urgent care","Milford Road","not_available",41.049836,-75.111824
"07834","Denville","NJ","Greystone Park Psychiatric Hospital","59 Koch Ave","07950",40.834593138080244,-74.50507164001465
"07834","Denville","NJ","Cardiology Wing","Morristown Memorial Hospital","07960",40.927669805094865,-74.48155215123398
"07834","Denville","NJ","North Jersey Dermatology Center","35 Green Pond Road, Suite C","07866",40.915389,-74.5004132
"07836","Flanders","NJ","Kessler Rehab Center","201 Pleasant Hill Rd","07930",40.819509215851745,-74.68564331531525
"07836","Flanders","NJ","Work","Pleasant Hill Rd","not_available",40.81933,-74.685442
"07836","Flanders","NJ","Christinas Care Givers LLC","262 Bartley Rd","07930",40.810404999999996,-74.730731
"07840","Hackettstown","NJ","Hackettstown Regional Medical Center","651 Willow Grove St","07840",40.861787316922964,-74.81548572730058
"07840","Hackettstown","NJ","MedExpress Urgent Care","228 Mountain Ave","07840",40.83928582470048,-74.82394629447742
"07840","Hackettstown","NJ","Hackettstown Hospital","not_available","07840",40.861409,-74.815554
"07840","Hackettstown","NJ","Dnd Hospital","23 Mountain Ave","07840",40.843741670065405,-74.82461379127949
"07840","Hackettstown","NJ","Hackettstown First Aid & Rescue Squad","Maple Ave.","07840",40.853124758234756,-74.82488588964661
"07840","Hackettstown","NJ","Wound Healing Center","657 Willow Grove St","07840",40.861968782823304,-74.8155827372862
"07840","Hackettstown","NJ","Midwives of New Jersey","57 US-46,#300","07840",40.8446086,-74.8136741
"07847","Kenvil","NJ","Urgent Care/Sleep Center","262 State Route 10 W","07876",40.8715934753418,-74.64405822753906
"07847","Kenvil","NJ","Respatech LLC","760 US Highway 46 Ste 17","07847",40.8790307,-74.6323347
"07847","Kenvil","NJ","St.Clares BLS 533","not_available","07852",40.879532,-74.645276
"07847","Kenvil","NJ","Kenvil DIALYSIS","not_available","07847",40.874942779541016,-74.63497924804688
"07848","Lafayette","NJ","Sparta Urgent Care","not_available","07871",41.06711,-74.653085
"07848","Lafayette","NJ","detox","not_available","07848",41.081079890724475,-74.67894356537722
"07848","Lafayette","NJ","St. Clare's Hospital MICU 53/54","32 State Route 94","07848",41.09186251328141,-74.67586760403577
"07848","Lafayette","NJ","Scripps HealthExpress Rancho Bernardo - Pediatrics","15005 Innovation Dr","92128",41.05988594152985,-74.70300525426863
"07848","Lafayette","NJ","Saint Clare's 518/522","34 State Route 94","07848",41.09535217285156,-74.68059539794922
"07849","Lake Hopatcong","NJ","SCEMS Jefferson Post","not_available","07849",40.966008,-74.597355
"07852","Ledgewood","NJ","MedExpress Urgent Care","501 State Route 10","07852",40.876181973163135,-74.65060561895376
"07853","Long Valley","NJ","Long Valley First Aid Squad","70 E Mill Road","07853",40.784658,-74.76966
"07860","Newton","NJ","Newton Medical Center","175 High St","07860",41.05770975094694,-74.76838678121567
"07860","Newton","NJ","pediatrics Nmh","not_available","07860",41.05756607205387,-74.76867163972045
"07860","Newton","NJ","Newton Urgent Care","181 High St","07860",41.055363,-74.765992
"07860","Newton","NJ","Barn Hill Rehab.","259 High St.","07860",41.05475368333333,-74.76866
"07863","Oxford","NJ","Moss Rehab At Aria Health","308 Oxford Valley Rd","07865",40.81793975830078,-74.92335510253906
"07866","Rockaway","NJ","Saint Clare's Business Office","66 Ford Rd","07834",40.911353999999996,-74.494262
"07869","Randolph","NJ","New Jersey Imaging Network of Randolph","121 Center Grove Road, Suite 7","07869",40.86491012573242,-74.568359375
"07869","Randolph","NJ","URGI-MED Urgent Care","400 Route 10 West","07869",40.86438429852505,-74.56024924360091
"07869","Randolph","NJ","Lakeland Cardiology Center","765 New Jersey 10","07869",40.8594116274604,-74.59067702293396
"07901","Summit","NJ","Summit Oaks Hospital","19 Prospect St","07901",40.7142183346149,-74.3625677334355
"07901","Summit","NJ","SRP 6","Summit","07901",40.714729,-74.365316
"07920","Basking Ridge","NJ","Reproductive Medicine Associates of New Jersey | RMANJ","140 Allen Road","07920",40.648197174072266,-74.58513641357422
"07920","Basking Ridge","NJ","Eating Disorder Group SMC","100 Rehill Ave","07920",40.64370690994502,-74.61947592834969
"07920","Basking Ridge","NJ","Choice Dermatology","12 Ridge St","07920",40.710518,-74.553639
"07920","Basking Ridge","NJ","Richard T. Scott Jr.","140 Allen Rd","07920",40.64639590953247,-74.58779901266098
"07920","Basking Ridge","NJ","south amboy adult day health care","540 Bordentown Ave","08879",40.68985372451124,-74.55297358075782
"07920","Basking Ridge","NJ","Harborside Nursing Home","875 202-206 Norh","08807",40.615262,-74.62686
"07921","Bedminster","NJ","Somerset Valley Urgent Care","Rt.202 in the Hills Shopping Center","07921",40.65037563795445,-74.642579276993
"07921","Bedminster","NJ","Urgent Care","not_available","07921",40.650542099578125,-74.64290521777427
"07922","Berkeley Heights","NJ","Summit Medical Group","1 Diamond Hill Rd","07922",40.67696348068652,-74.41184102649773
"07922","Berkeley Heights","NJ","eMedical Offices - EMO Urgent Care","369 Springfield Ave","07922",40.686830915163256,-74.4378808704928
"07927","Cedar Knolls","NJ","MedExpress Urgent Care","118 E Hanover Ave","07927",40.808881066242215,-74.46429236984167
"07927","Cedar Knolls","NJ","New Jersey Imaging Network of Cedar Knolls","197 Ridgedale Ave","07927",40.812234000000004,-74.455435
"07927","Cedar Knolls","NJ","RWJBarnabas Health, Inc.","91 Jefferson Rd, Suite 300","07981",40.817567,-74.440943
"07928","Chatham","NJ","Midwives of New Jersey","250 A Main St","07940",40.75191387244393,-74.40328172023771
"07928","Chatham","NJ","Morristown Memorial Hosiptal","Main street","not_available",40.74461444967176,-74.39595815987981
"07928","Chatham","NJ","Rubino OB/GYN Group - Madison","340 Main St Suite 2","07940",40.7479671,-74.39682
"07930","Chester","NJ","Excel Urgent Care","2 North Rd","07930",40.78880310058594,-74.68059539794922
"07930","Chester","NJ","Imcc","not_available","07930",40.788943633274656,-74.680744424973
"07930","Chester","NJ","Cancer Hope Network","2 North Rd Ste A","07930",40.788866999999996,-74.680566
"07931","Far Hills","NJ","Matheny Medical and Educational Center","65 Highland Avenue","07977",40.71190654701756,-74.64047190469829
"07932","Florham Park","NJ","Doctors express","128 Columbia Tpke","07932",40.786648,-74.386163
"07932","Florham Park","NJ","AJ Burnett Out 8-12 Weeks","not_available","07932",40.788098,-74.391935
"07932","Florham Park","NJ","DR Ira Hauptman","256 COLUMBIA TPKE #203","07932",40.7899511,-74.4004175
"07932","Florham Park","NJ","Florham Park OB/GYN - Florham Park","15 James Street","07932",40.7900421,-74.3904064
"07936","East Hanover","NJ","CityMD East Hanover Urgent Care - New Jersey","399 Route 10","07936",40.80136919057123,-74.36088874004787
"07950","Morris Plains","NJ","FastER UrgentCare","130 Speedwell Ave","07950",40.8186974551615,-74.48243736603105
"07950","Morris Plains","NJ","Saint Clare's Behavioral Health","1 Medical Dr","07950",40.831881857109224,-74.49836611747742
"07950","Morris Plains","NJ","Fast ER Urgent Care","130 Speedwell Ave","not_available",40.818812,-74.48263
"07960","Morristown","NJ","Morristown Memorial Hospital","200 South St","07960",40.78948686765794,-74.46547387914825
"07960","Morristown","NJ","Carol G. Simon Cancer Center","95 Madison Ave","07960",40.78892251159422,-74.46662811502833
"07960","Morristown","NJ","Care One","151 Madison Ave","07960",40.788258227766605,-74.45968099134966
"07960","Morristown","NJ","MMC ER - Squad Room","100 Madison Ave, Morristown, NJ 07960","07960",40.79042103102445,-74.46604118088969
"07960","Morristown","NJ","Reproductive Medicine Associates of New Jersey | RMANJ","111 Madison Avenue, Suite 100","07960",40.78757843287036,-74.4625446755236
"07960","Morristown","NJ","Mortistown Memorial Linen Room","morristown","07960",40.78958144619042,-74.46684193454134
"07960","Morristown","NJ","Wound Care","Morristown Medical Center","07960",40.78792616712338,-74.46316132621497
"08002","Cherry Hill","NJ","Jefferson Cherry Hill Hospital","2201 Chapel Ave W","08002",39.928147,-75.016168
"08002","Cherry Hill","NJ","Alfred Wayslow, DO","2250 Chapel Ave W Ste 100","08002",39.929402201444006,-75.01552104960865
"08002","Cherry Hill","NJ","Shero Housecalls","not_available","08034",39.90789277494922,-75.00297546386719
"08002","Cherry Hill","NJ","Premier Urgent Care","1601 Kings Hwy N","08034",39.91625714460872,-75.00761637812849
"08002","Cherry Hill","NJ","kennedy hospital -room 314","not_available","08002",39.93742491308981,-75.0114868398765
"08002","Cherry Hill","NJ","Kennedy Health System Mgmt Svc Bldg","500 Marlboro Ave","08002",39.926417,-75.017777
"08002","Cherry Hill","NJ","Inspira Urgent Care Haddon Township","400 West Cuthbert Boulevard","08108",39.9075763,-75.05862619999999
"08002","Cherry Hill","NJ","PM Pediatrics","828 Haddonfield Rd","08002",39.926275831934596,-75.03216709536488
"08002","Cherry Hill","NJ","Patient First - Cherry Hill","2171 Route 70 West","08002",39.921539306640625,-75.04010772705078
"08002","Cherry Hill","NJ","Cherry Hill Eye Associates","1305 Kings Hwy N","08034",39.918508,-75.00479399999999
"08002","Cherry Hill","NJ","Concentra Urgent Care","800 Haddonfield Rd","08002",39.92849053474319,-75.03184109325412
"08002","Cherry Hill","NJ","Senior Helpers","1060 Kings Hwy N","08034",39.921716,-75.003985
"08003","Cherry Hill","NJ","Women's Imaging of South Jersey","2401 Evesham Road Ste A2","08043",39.8658295,-74.9546682
"08003","Cherry Hill","NJ","Cooper Urgent Care Center","not_available","08003",39.89758505888235,-74.95263714532801
"08003","Cherry Hill","NJ","Cooper Surgical Associates","900 Centennial Blvd","08043",39.86616864934046,-74.94132054321838
"08003","Cherry Hill","NJ","Garden State OB/GYN - Voorhees","2401 East Evesham Road Suite A1","08043",39.8657713,-74.9543442
"08003","Cherry Hill","NJ","Jersey Urology Group","2301 E Evesham Rd #504","08043",39.862844284288805,-74.96518850326538
"08003","Cherry Hill","NJ","Millennium Surgical Center","2090 Springdale Rd","08003",39.918421,-74.96497514
"08003","Cherry Hill","NJ","Yang Institute of Integrated Medicine","999 Rt.73 North, Suite 200","08053",39.9078106,-74.940555
"08003","Cherry Hill","NJ","Erikas Room","101 Carnie Blvd","08043",39.861968994140625,-74.95836639404297
"08003","Cherry Hill","NJ","Delaware Valley Plastic Surgery","1734 Marlton Pike E","08003",39.90684509277344,-74.9765853881836
"08003","Cherry Hill","NJ","Jeffrey Levine, MD","2301 Evesham Road Ste 106","08043",39.8627516,-74.9619685
"08003","Cherry Hill","NJ","Cooper Sleep Lab","not_available","08043",39.86562967300415,-74.941451
"08003","Cherry Hill","NJ","Revita' Life - Voorhees","2301 East Evesham Road Ste 305","08043",39.862,-74.962
"08003","Cherry Hill","NJ","Prestige Institute for Plastic Surgery - Cherry Hill, NJ","1765 Springdale Rd Ste C1","08003",39.8994894,-74.9662849
"08005","Barnegat","NJ","Hackensack Meridian Health Southern Ocean Medical Center","1140 New Jersey 72","08050",39.72145912,-74.28514651
"08005","Barnegat","NJ","Genesis Southern Ocean Center, Manahawkin,nj","1361 Route 72 W","08050",39.725538701170855,-74.29148429608004
"08005","Barnegat","NJ","Alert SOCH","56 Nautilus Dr","08050",39.720359,-74.283644
"08005","Barnegat","NJ","Southern Ocean Medical Center Landing Zone","not_available","08050",39.720680906586274,-74.28451173322793
"08005","Barnegat","NJ","AtlantiCare Urgent Care Manahawkin","547 Route 72 W","08050",39.70327419634693,-74.27431851625443
"08005","Barnegat","NJ","Southern Regional Hospital","Rt 72","08050",39.72059532927708,-74.2846664402818
"08005","Barnegat","NJ","barnegat nursing center","not_available","08005",39.74896871804626,-74.2475043255614
"08005","Barnegat","NJ","South Jersey Dermatology Center","1616 NJ-72, 2nd Floor","08050",39.734698,-74.296989
"08005","Barnegat","NJ","TheCareGiver.us","15 Watts Ave","08005",39.749868,-74.280015
"08008","Beach Haven","NJ","Manahawkin Urgent Care","712 E Bay Ave Ste 22B","08050",39.68546314162616,-74.23464154295053
"08008","Beach Haven","NJ","Long Beach Memorial Hospital","Atlantic","08008",39.6155009,-74.199545
"08008","Beach Haven","NJ","AtlantiCare Urgent Care Tuckerton","100 E Main St","08087",39.602741275464844,-74.33983147144318
"08008","Beach Haven","NJ","Hackensack Meridian Health Urgent Care - Long Beach Island (Hackensack Meridian Health  Urgent Care - Long Beach Island)","901 Long Beach Blvd","08008",39.64907,-74.17664
"08009","Berlin","NJ","Virtua Berlin Hospital","100 Townsend Ave","08009",39.7817559315275,-74.92041035893749
"08009","Berlin","NJ","AtlantiCare Urgent Care Berlin","255 Route 73","08091",39.8078314097185,-74.9305161322471
"08009","Berlin","NJ","Only One In The Cafeteria!","Kennedy","08009",39.79139,-74.95155
"08009","Berlin","NJ","Wheelchair Man Co Inc","281 White Horse Pike","08021",39.81254860000001,-74.9895952
"08010","Beverly","NJ","MedExpress Urgent Care","4318 Route 130 N","08046",40.04781116096693,-74.90029379725456
"08010","Beverly","NJ","Rancocas OB/GYN Associates - Willingboro","200 Campbell Drive Suite 101","08046",40.053692,-74.8893619
"08012","Blackwood","NJ","Jefferson Washington Township Hospital","435 Hurffville - Cross Keys Rd","08080",39.7354667,-75.0653126
"08012","Blackwood","NJ","Jefferson Stratford Hospital","18 E Laurel Rd","08084",39.8281678,-75.008266
"08012","Blackwood","NJ","Kennedy University Hospital","435 Hurffville Cross Keys Rd","08080",39.73546763251692,-75.0656291381762
"08012","Blackwood","NJ","MedExpress Urgent Care","165 South Black Horse Pike","08078",39.844536,-75.071556
"08012","Blackwood","NJ","AFC Urgent Care Washington Township","475 Huffville-Crosskeys Road, Suite B","08080",39.7378432,-75.0723052
"08012","Blackwood","NJ","Kennedy ER Washington Twp","435 Hurffville Cross Keys Rd","08012",39.73541678614116,-75.06495040492217
"08012","Blackwood","NJ","Kennedy Emergency Room","435 Hurffville Crosskeys road","08080",39.735228048589086,-75.06501317675644
"08012","Blackwood","NJ","David J Kovalsky, DO","435 Hurffville Crosskeys Rd","08012",39.735459,-75.065674
"08012","Blackwood","NJ","Inspira Urgent Care Washington Township","372 Egg Harbor Road,Suite 4A","08080",39.754559,-75.0791516
"08012","Blackwood","NJ","KHS-STRATFORD","Laurel Rd.","08021",39.82357108777622,-75.01184628950845
"08012","Blackwood","NJ","Kennedy WT ER Bed 18","not_available","08080",39.73560151107519,-75.06500744144118
"08012","Blackwood","NJ","Jefferson Outpatient Imaging - Washington Township","900 Medical Center Dr","08012",39.73856445,-75.06471102
"08012","Blackwood","NJ","kennedy Surgical Center","not_available","08012",39.737101706663026,-75.06442962121612
"08012","Blackwood","NJ","Gtems 805,807","1 Woodshire Dr","08081",39.772806,-75.009343
"08014","Bridgeport","NJ","Delaware County WIC","Community Hospital","19013",39.83850491009759,-75.38976205884704
"08014","Bridgeport","NJ","CarePortMD Express Clinic (CarePortMD Speedy Care)","2224 W 9th St","19013",39.83970167457985,-75.38990552824605
"08015","Browns Mills","NJ","Deborah Heart and Lung Center","200 Trenton Rd","08015",39.97751179999999,-74.5851859
"08015","Browns Mills","NJ","Central Jersey Urgent Care of Browns Mills","6 Earlin Ave suite 140","08015",39.97902746411529,-74.58392858505249
"08015","Browns Mills","NJ","NATIONWIDE parking & valet","175 madison avenue","not_available",39.98236694277188,-74.55394618884304
"08015","Browns Mills","NJ","New Lisbon Developmental Center","102 Route 72","not_available",39.89607397462203,-74.5905466098843
"08015","Browns Mills","NJ","Retired Hospital Facility","26 Bobolink Blvd","08015",39.988760777021355,-74.57890748977661
"08016","Burlington","NJ","Lourdes Medical Center of Burlington County","218 Sunset Rd","08046",40.046688022921124,-74.88066673278809
"08016","Burlington","NJ","Acquity Specialty Hospital","218 Sunset Rd","08016",40.050606,-74.85059100000001
"08016","Burlington","NJ","Lower Bucks Hospital","501 Bath Rd","19007",40.1052731,-74.8673542
"08016","Burlington","NJ","LBH My Hospital Room","not_available","19007",40.10569086151125,-74.86725473274704
"08016","Burlington","NJ","Temple Digestive Disease Center","not_available","08016",40.084973,-74.808358
"08016","Burlington","NJ","Lower Bucks Hospital 4 North","502 Bath Rd","19007",40.10464859008789,-74.86446380615234
"08016","Burlington","NJ","South Jersey Fertility - Burlington","1900 Mount Holly Road Building 4, Suite A","08016",40.053193,-74.843528
"08016","Burlington","NJ","Virtua Health Medical Professional Building East","1113 Hospital Dr","08046",40.04678,-74.8789
"08016","Burlington","NJ","Virtua Willingboro Hospital - Emergency Department","218A Sunset Rd","08046",40.0463005,-74.880494
"08021","Clementon","NJ","psych ward","not_available","08081",39.777641286711564,-74.99210460578588
"08021","Clementon","NJ","Custom Medical Research Equiptment & General Machining","14 Fairfax Ave","08012",39.792237,-75.059986
"08021","Clementon","NJ","Rowan Medicine, Medicine","42 E Laurel Rd","08084",39.830854,-75.006658
"08021","Clementon","NJ","AFC Urgent Care Gloucester Township","2001 College Dr Ste 11","08021",39.802757,-75.0242
"08021","Clementon","NJ","Children of America","1236 Chews Landing Rd","08021",39.82046890258789,-75.03986358642578
"08021","Clementon","NJ","Kennedy Employee Health Building","30 E Laurel Rd","08084",39.829064,-75.007926
"08021","Clementon","NJ","Cooper University Hospital - 6th Floor Kelleman","not_available","08103",39.808881722337084,-75.01403149777029
"08022","Columbus","NJ","RWJ Rehabilitation - Columbus","1 Sheffield Dr","08022",40.07197952270508,-74.73812103271484
"08028","Glassboro","NJ","Gris Jorner's Zombie Infirmary","Watch Out","08071",39.730578,-75.13178
"08028","Glassboro","NJ","Kennedy Hospital Lower Level","not_available","08028",39.71574783325195,-75.1175308227539
"08029","Glendora","NJ","Riverside Urgent Care","165 S Black Horse Pike","08078",39.844524,-75.07152
"08030","Gloucester City","NJ","Summit surgery center at voorhees hospital BLDG D","200 Summit Ave, Westville, NJ 08093","08093",39.87419509887695,-75.12928771972656
"08030","Gloucester City","NJ","Virtua Hospital","not_available","08053",39.879561471220086,-75.11274554356775
"08030","Gloucester City","NJ","Coopet Unjversity","not_available","08104",39.90585,-75.113888
"08031","Bellmawr","NJ","Concentra Urgent Care","210 Benigno Blvd","08031",39.8603032,-75.0872226
"08033","Haddonfield","NJ","Jeffrey R Crawford DO","37 E Kings Hwy","08106",39.887355,-75.058916
"08033","Haddonfield","NJ","Alliance for Cryoglobulinemia","225 1/2 N Nassau Dr","08033",39.877151,-75.047409
"08034","Cherry Hill","NJ","Mt Laurel Center for Rehab","3718 Church Rd","08054",39.928448859199364,-74.97665249124125
"08037","Hammonton","NJ","Ancora Psychiatric Hospital","301 Spring Garden Rd","08037",39.68219175337219,-74.85783195216447
"08037","Hammonton","NJ","ASAPP Healthcare, Inc","5 S 3rd St","08037",39.63718799999999,-74.801582
"08037","Hammonton","NJ","MedEvac 5","not_available","08037",39.66692385264122,-74.75623179086628
"08037","Hammonton","NJ","WD. MS. Chapter Southern NJ.","not_available","08244",39.68558075004642,-74.74798053503036
"08037","Hammonton","NJ","AtlantiCare Hammonton SED","Rte 30 and Rte 542","08037",39.63210046291351,-74.7732
"08037","Hammonton","NJ","Cherry Hill OB/GYN - Hammonton","777 South White Horse Pike Ste A1","08037",39.62745,-74.77237
"08037","Hammonton","NJ","Hammonton SED","1000 Central Ave","08037",39.631900787353516,-74.77296447753906
"08037","Hammonton","NJ","Ancora Psychiatric hospital","301 Spring garden rd","08009",39.70322823743048,-74.87948641103888
"08037","Hammonton","NJ","Atlanticare Urgent Care","Whitehorse Pike","08037",39.638287,-74.692738
"08037","Hammonton","NJ","AtlantiCare Emergency","219 N White Horse Pike, Hammonton, NJ 08037","08037",39.653462430378994,-74.79480035919941
"08037","Hammonton","NJ","Medic 4","600 S White Horse Pike","08037",39.63139724731445,-74.77198791503906
"08037","Hammonton","NJ","AtlantiCare Urgent Care Hammonton","120 S White Horse Pike","08037",39.643788,-74.783299
"08043","Voorhees","NJ","Virtua Voorhees Hospital","100 Bowman Dr","08043",39.8420289752279,-74.92772102386806
"08043","Voorhees","NJ","Obstetrics & Gynecology Associates - Voorhees","1010 Haddonfield-Berlin Road Ste 400","08043",39.8469926,-74.9765779
"08048","Lumberton","NJ","Virtua Memorial Hospital","175 Madison Ave","08060",39.98641377870609,-74.79501112354315
"08048","Lumberton","NJ","lumberton emergency squad","34 Municipal Dr","08048",39.962578,-74.79764499999999
"08048","Lumberton","NJ","Virtua Memorial Special Care Nursery","not_available","08060",39.98604,-74.794917
"08048","Lumberton","NJ","Virtua Pain & Spine - Lumberton","1613 New Jersey 38","08048",39.98311460000001,-74.7905736
"08051","Mantua","NJ","Zombie Memorial Hospital","not_available","08051",39.788596,-75.182303
"08052","Maple Shade","NJ","Omnimed Inc","800 Glen Ave","08057",39.965059,-74.969827
"08052","Maple Shade","NJ","Red Cross Blood Bus","New Jersey 38, Moorestown, NJ 08057","08057",39.94373336990089,-74.97091523360842
"08053","Marlton","NJ","Virtua Marlton Hospital","90 Brick Rd","08053",39.8817291,-74.91813460000002
"08053","Marlton","NJ","Virtua Hospital(labor + Delivery - OR # 1","rt. 73","08043",39.82685936884537,-74.87699103977013
"08054","Mount Laurel","NJ","Concentra Urgent Care","817 E Gate Dr Ste 102","08054",39.94223531837761,-74.95035104454132
"08054","Mount Laurel","NJ","Cherry Hill OB/GYN - Mt. Laurel","150 Century Parkway Ste A","08054",39.9280736,-74.9615184
"08054","Mount Laurel","NJ","Mount Laurel Urgent Care","3131 Route 38","08054",39.97037332099287,-74.88022977203632
"08054","Mount Laurel","NJ","Looney Bin","not_available","08054",39.94296271852035,-74.87183985175217
"08054","Mount Laurel","NJ","CareOne Harmony Village","301 N Stanwick Rd","not_available",39.97292164228818,-74.93056179951142
"08054","Mount Laurel","NJ","HUP Vascular Dept","not_available","19104",39.96562043923054,-74.94970667216197
"08054","Mount Laurel","NJ","Rancocas OB/GYN Associates - Moorestown","400 N. Church Street Ste 110","08057",39.9644608,-74.9538932
"08054","Mount Laurel","NJ","Garden State OB/GYN - Moorestown","110 Marter Ave Ste 504","08057",39.9708416,-74.9201042
"08054","Mount Laurel","NJ","Moorestown First Aid & Emergency Squad","261 W Main Street","08057",39.96155924695587,-74.95313134926701
"08055","Medford","NJ","Burlington County Dermatology","103 Old Marlton Pike Ste 215","08055",39.898663,-74.833478
"08055","Medford","NJ","Accutrition Nutritional Consultants","99 Taunton Rd.","08055",39.8705335,-74.8435169
"08056","Mickleton","NJ","Inspira Urgent Care Tomlin Station","201 Tomlin Station Road,Suite B","08062",39.757179,-75.25899799999999
"08057","Moorestown","NJ","MedExpress Urgent Care","1210 Route 130 N","08077",39.999465,-74.985626
"08057","Moorestown","NJ","Davita dialysis","Creek Road","08075",40.00649642944336,-74.92137908935547
"08057","Moorestown","NJ","Patient First - Delran","4000 Route 130 N.","08075",40.011542,-74.961767
"08059","Mount Ephraim","NJ","MedExpress Urgent Care","2 South Black Horse Pike","08059",39.8810769,-75.0855976
"08060","Mount Holly","NJ","Hampton Behavioral Health Center","650 Rancocas Rd","08060",40.008221460111805,-74.8465581730579
"08060","Mount Holly","NJ","Virtua Express Urgent Care  - Mount Holly","555 High St","08060",40.006739,-74.79408199999999
"08062","Mullica Hill","NJ","Gloucester County Surgical Center","not_available","08062",39.722470837545416,-75.21578007722943
"08062","Mullica Hill","NJ","Advocare Haddon Pediatric Group at Mullica Hill","2 Burton Ln","08062",39.751129150390625,-75.25923919677734
"08062","Mullica Hill","NJ","Premier Women's Health of South Jersey - Mullica Hill","34 Colson Lane","08062",39.746190000000006,-75.221012
"08064","New Lisbon","NJ","Buttonwood Hospital","Pemberton, NJ 08068","08068",39.96771027754382,-74.63714683917766
"08068","Pemberton","NJ","robert wood johnson hospital emergency room","not_available","08619",39.93203253025922,-74.68512357847864
"08068","Pemberton","NJ","BUTTONWOOD HOSPITAIL","not_available","08015",39.983913,-74.652169
"08069","Penns Grove","NJ","Southgate Healthcare Center","449 S Pennsville Auburn Rd","08069",39.68842381157239,-75.47041548514034
"08070","Pennsville","NJ","MedExpress Urgent Care","251 N. Broadway","08070",39.6690876,-75.5073598
"08075","Riverside","NJ","Aria Torresdales Ultrasound Department","Knights and red lion","not_available",40.059028,-74.98298
"08075","Riverside","NJ","unit 11 ems standby","not_available","19114",40.064591642205855,-74.9833674067503
"08075","Riverside","NJ","Pinnacle Physician Group","3790 Morrell Ave","19114",40.0648878,-74.9873388
"08077","Riverton","NJ","Cooper Urgent Care - Cinnaminson","175 Burlington Pike","08077",39.9909608,-75.005998
"08077","Riverton","NJ","Premier Urgent Care","195 Route 130, Suite T","not_available",39.99095795121248,-75.00684815594606
"08079","Salem","NJ","Salem Medical Center","310 Woodstown Road","08079",39.5936045,-75.4443959
"08079","Salem","NJ","Salem Memorial Hospital ER","310 Woodstown Rd","08079",39.59396835153983,-75.44464080108575
"08079","Salem","NJ","Life Support 5","not_available","08079",39.59333280741899,-75.44402322468062
"08080","Sewell","NJ","Revita' Life - Sewell","239 Hurffville-Crosskeys Road, Suite 250 Ste 245","08080",39.7221455,-75.04304400000001
"08081","Sicklerville","NJ","Patient First - Sicklerville","606 Cross Keys Road","08081",39.7350994,-75.005279
"08081","Sicklerville","NJ","PM Pediatrics","3501 Rt. 2, Cross Keys Commons","08012",39.72938659442591,-75.03558571037615
"08081","Sicklerville","NJ","Cherry Hill OB/GYN - Turnersville","188 Fries Mill Road Ste B1 Fries Mill Pavilions","08012",39.737163,-75.0467503
"08081","Sicklerville","NJ","Inspira Urgent Care Williamstown","364 Berlin Cross Keys Road","08094",39.7228332,-75.0183492
"08081","Sicklerville","NJ","Virtua Urgent Care","239 Hurffville Crosskeys Rd","08080",39.723178,-75.041999
"08081","Sicklerville","NJ","Obstetrics & Gynecology Associates - Sewell","239 Hurffville-Crosskeys Road Ste 250","08080",39.7221455,-75.04304400000001
"08081","Sicklerville","NJ","AtlantiCare Urgent Care Sicklerville","627 Cross Keys Rd","08081",39.734994008352785,-75.0072845070971
"08083","Somerdale","NJ","ON TIME Medical Transportation","200 Park Dr","08043",39.85298156738281,-75.00933837890625
"08085","Swedesboro","NJ","Inspira Urgent Care Woolwich","101 Lexington Rd Ste 530","08085",39.739134,-75.326425
"08085","Swedesboro","NJ","Riddle Health Care Center 4","not_available","19063",39.83779852243368,-75.44963886644425
"08085","Swedesboro","NJ","Premier Women's Health of South Jersey - Woolwich Township","100 Lexington Road Bldg 100","08085",39.7395099,-75.3272338
"08087","Tuckerton","NJ","Great Bay EMS","100 Oak Ln","08087",39.59696960449219,-74.3555908203125
"08093","Westville","NJ","BH ER","not_available","08096",39.8437932146982,-75.14946746281169
"08093","Westville","NJ","Griswold Home Care","190 North Evergreen Avenue","08096",39.839541,-75.142477
"08093","Westville","NJ","Sleep Lab at UMH","75 W Red Bank Ave","08096",39.843026,-75.150806
"08093","Westville","NJ","Premier Women's Health of South Jersey - Woodbury","603 North Broad Street Ste 300","08096",39.844685,-75.148384
"08093","Westville","NJ","UMH - Cath Lab","509 N Broad St","08096",39.84397888183594,-75.15026092529297
"08093","Westville","NJ","CHOP Garage B","G","08096",39.84602,-75.15724
"08094","Williamstown","NJ","AFC Urgent Care Williamstown","165 S Black Horse Pike","08094",39.6863199,-74.9904482
"08094","Williamstown","NJ","At Home Foot Care","2270 Chew Ave","08322",39.637306,-75.021187
"08094","Williamstown","NJ","ManorCare Health Services-Washington Township","378 Fries Mill Rd","08080",39.7140267,-75.04983054
"08094","Williamstown","NJ","EMS Station E89","East High St","08312",39.65712295032377,-75.0841876654416
"08096","Woodbury","NJ","Patient First - Woodbury","630 Mantua Pike","08096",39.82665,-75.1590625
"08098","Woodstown","NJ","ChristianaCare Cardiology Consultants at Logan Township","125 East Avenue D","08098",39.651756286621094,-75.32234954833984
"08103","Camden","NJ","Cooper University Hospital","1 Cooper Plz","08103",39.94104540368654,-75.11674060604463
"08103","Camden","NJ","Our Lady of Lourdes Hospital","1600 Haddon Ave","08103",39.927722160091136,-75.09451164802654
"08103","Camden","NJ","Virtua Emergency Department - Camden","1000 Atlantic Ave","08104",39.928985595703125,-75.1081771850586
"08103","Camden","NJ","Room 824D @ Cooper Medical Center","Haddon Avenue","08103",39.941544510221796,-75.1161495641893
"08103","Camden","NJ","5 West Room 501","Lourdes Camden","08103",39.927896691885984,-75.09501722587301
"08103","Camden","NJ","cooper medical center 8th floor solarium","haddon avenue","08102",39.94138053353123,-75.11592719321729
"08105","Camden","NJ","AFC Urgent Care Pennsauken","6630 S Crescent Blvd","08109",39.938168664263365,-75.07493355426935
"08106","Audubon","NJ","cooper urgent care","White Horse Pike","not_available",39.890841896090095,-75.06564624906127
"08106","Audubon","NJ","Cooper Urgent Care Center - Audubon","318 S White Horse Pike","08106",39.89082,-75.065679
"08107","Oaklyn","NJ","Virtua Occupational Health - Westmont","602 W Cuthbert Blvd","08108",39.9019,-75.06299
"08107","Oaklyn","NJ","Premier Eye Associates","571 Haddon Avenue","08108",39.9176004,-75.0724762
"08110","Pennsauken","NJ","Northeastern Hospital","2301 E Allegheny Ave","19134",39.989950296694495,-75.10655881963237
"08201","Absecon","NJ","Atlanticare Urgent Care","443 shore","not_available",39.41784436632284,-74.51432231054825
"08203","Brigantine","NJ","Bacharach Brigantine Physical Therapy Center","3201 W Brigantine Ave","08203",39.394113,-74.38637299999999
"08204","Cape May","NJ","AtlantiCare Urgent Care Cape May","900 Route 109","08204",38.96004163729768,-74.90412090293626
"08204","Cape May","NJ","lcmrs nurses office","662 Route 9","08204",38.983694,-74.903123
"08204","Cape May","NJ","Garage Bay","not_available","08242",39.00396222142899,-74.91114635171641
"08204","Cape May","NJ","Medic 5 Atlanticare EMS","419 Breakwater Road","not_available",39.0014894122335,-74.90890837469863
"08205","Absecon","NJ","AtlantiCare Regional Medical Center - Emergency Department","65 W Jimmie Leeds Rd","08240",39.47663497924805,-74.54093933105469
"08205","Absecon","NJ","Mainland Hospital 3 Harbor","65 wah Jimmie Leeds rd","08205",39.48597857196363,-74.52384430757137
"08205","Absecon","NJ","AtlantiCare Urgent Care Galloway","110 E Jimmie Leeds Rd","08205",39.47215240625966,-74.51565554430734
"08205","Absecon","NJ","ACMC Maternal Fetal Medicine","not_available","08215",39.47950635831785,-74.54082124176969
"08205","Absecon","NJ","AtlantiCare Mainland Hematology","not_available","08205",39.4789734937615,-74.54089562307657
"08205","Absecon","NJ","Bacharach Room 11","Jimmy Leads Road","not_available",39.47837369545858,-74.54000473022461
"08205","Absecon","NJ","Oceanside OB/GYN - Galloway","76 W. Jimmie Leads Rd Suite 104","08205",39.4766245,-74.5426678
"08205","Absecon","NJ","Mainland Hospital ER","65 W Jimmie Leeds Rd","08205",39.479732959487855,-74.54077307280244
"08205","Absecon","NJ","AtlantiCare Regional Medical Center - Imaging Services","Jimmie Leeds Road","08240",39.479264316559394,-74.54069098150784
"08210","Cape May Court House","NJ","Cape Regional Heath System","2 Stone Harbor Blvd","08210",39.087523,-74.816784
"08210","Cape May Court House","NJ","Cape OB/GYN Associates - Cape May Court House","223 North Main Street Ste 101","08210",39.0869873,-74.8204782
"08210","Cape May Court House","NJ","Bacharach Cape May Court House Physical Therapy Center","Court House Commons 601 South Route 9","08210",39.0737363,-74.8290469
"08210","Cape May Court House","NJ","cape regional er","not_available","08210",39.08800235151443,-74.81703367977867
"08210","Cape May Court House","NJ","Oceanside OB/GYN - Cape May Court House Rte 9","605 S. Route 9 Suite 4","08210",39.0732134,-74.8293976
"08210","Cape May Court House","NJ","Cape Regional Urgent Care","11  Courthouse South Dennis Road","08210",39.08958284354831,-74.8211364602616
"08210","Cape May Court House","NJ","alanticare","Dennisville/Courthouse Road","not_available",39.07416915893555,-74.83070373535156
"08210","Cape May Court House","NJ","Arkham Asylum","not_available","08251",39.048128759597844,-74.92071449980966
"08210","Cape May Court House","NJ","Oceanside OB/GYN - Cape May Court House (Main St.)","108 N. Main Street Suite 2","08210",39.0801574,-74.8247023
"08215","Egg Harbor City","NJ","Atlantic Care Hospital","off jimmie leeds ave","08205",39.52645174738274,-74.64424900215172
"08221","Linwood","NJ","Shore Urgent Care","2605 Shore Rd","08225",39.359475,-74.559413
"08221","Linwood","NJ","AtlantiCare Urgent Care Somers Point","443 Shore Rd","08244",39.32036404556409,-74.59113057550465
"08221","Linwood","NJ","Harmony Hearing Aid Center","505 Hamilton Ave #106","08221",39.342348,-74.584262
"08221","Linwood","NJ","Karing With Kindness","700 New Rd","08221",39.355294,-74.573067
"08223","Marmora","NJ","CAPE REGIONAL URGENT CARE","8 South Drive","08223",39.264231,-74.64836000000001
"08223","Marmora","NJ","HSOC","not_available","08226",39.250989,-74.645422
"08223","Marmora","NJ","AtlantiCare Urgent Care Marmora","100 Route US 9 S","08223",39.26006317138672,-74.65414428710938
"08223","Marmora","NJ","Marmora Atlanticare Urgent Care","Rte 9, Upper, NJ 08223","08223",39.25997135993648,-74.65401542378495
"08223","Marmora","NJ","Compassionate Care Hospice","not_available","08223",39.253452513519036,-74.66029926025247
"08223","Marmora","NJ","Cape OB/GYN Associates - Marmora","210 South Shore Road Ste 103","08223",39.2600643,-74.6539834
"08225","Northfield","NJ","Bacharach Egg Harbor Township Physical Therapy Center","3022 Hingston Ave","08234",39.3914471,-74.5564892
"08234","Egg Harbor Township","NJ","Shore Medical Center","1 E New York Ave","08244",39.314568041246936,-74.59285936209176
"08234","Egg Harbor Township","NJ","Atlanticare Urgent Care","not_available","08234",39.432558826336866,-74.6057202736585
"08234","Egg Harbor Township","NJ","AtlantiCare Urgent Care Egg Harbor Township","2500 English Creek Avenue, Bldg. 900, Suite 908","08234",39.4349055547479,-74.60640171429183
"08234","Egg Harbor Township","NJ","Oceanside OB/GYN - Mays Landing","4622 Black Horse Pike Ste 104","08330",39.4540466,-74.6538124
"08234","Egg Harbor Township","NJ","AtlantiCare Child and Adolescent Partial Hospital Program","6010 Black Horse Pike","08234",39.429788,-74.624589
"08234","Egg Harbor Township","NJ","Mindful Education And Healthcare","617 Shore Rd","08244",39.316695,-74.59402
"08234","Egg Harbor Township","NJ","Children's Specialized Hospital - Egg Harbor Township - Outpatient Center","6106 Black Horse Pike","08234",39.43313741,-74.60679551
"08234","Egg Harbor Township","NJ","Otolaryngology Expert NJ","647 Shore Rd","08244",39.31360039330977,-74.59353357553482
"08234","Egg Harbor Township","NJ","Oceanside OB/GYN of Somers Point 599 Shore","599 Shore Road Ste 101","08244",39.3189144,-74.5927914
"08244","Somers Point","NJ","Oceanside OB/GYN of Somers Point 829 Shore","829 Shore Road Suite 101","08244",39.3118218,-74.5969672
"08260","Wildwood","NJ","Medic 5","401 New Jersey Ave","08260",39.00569152832031,-74.79576873779297
"08260","Wildwood","NJ","Cape Regional Urgent Care","406 W. Rio Grande Ave","08260",38.98681319,-74.82850248
"08302","Bridgeton","NJ","Cumberland Manor","Sunny Slope Dr","08302",39.411631219599535,-75.2629711044558
"08302","Bridgeton","NJ","Bridgeton hospital","not_available","08302",39.43635559082031,-75.21949768066406
"08302","Bridgeton","NJ","Radiation Oncology Therapy","142 Kenyon Avenue","not_available",39.441612243652344,-75.10631561279297
"08302","Bridgeton","NJ","South Jersey Healthcare- Bridgeton","333 Irving Ave","08302",39.4368194727581,-75.21991569444434
"08302","Bridgeton","NJ","Seabrook House","133 Polk Lane","08302",39.5247528,-75.21865259
"08318","Elmer","NJ","SJHS - Elmer","not_available","08318",39.587118160490306,-75.1804073433248
"08318","Elmer","NJ","Elmer Hospital","Front Street","not_available",39.58737932689434,-75.18069729929772
"08318","Elmer","NJ","Inspira Emergency Room","501 Front St","08318",39.58785629272461,-75.18029022216797
"08318","Elmer","NJ","Premier Women's Health of South Jersey - Elmer","399 Front Street Unit E","08318",39.590959000000005,-75.17694499999999
"08330","Mays Landing","NJ","Medic 12","not_available","08330",39.514299,-74.778601
"08330","Mays Landing","NJ","South Jersey Fertility - Egg Harbor Township","2500 English Creek Avenue Ste 225","08234",39.43517190000001,-74.60548890000001
"08332","Millville","NJ","Scarpa Regional Cancer Pavilion","2903-3321 College Dr","08360",39.44565244239087,-75.05718757182824
"08332","Millville","NJ","South Jersey Regional Medical Center","1505 W Sherman Ave","08360",39.44507112727017,-75.05809485912323
"08332","Millville","NJ","MEDEVAC 5 Real","SJRMC Helipad","08360",39.445097212669324,-75.05933220792528
"08332","Millville","NJ","Inspira Ems Millville Station","not_available","08332",39.38994644007754,-75.05264061090314
"08332","Millville","NJ","MRS","600 Cedar St","08332",39.39025224155951,-75.05208253319935
"08332","Millville","NJ","Millville rescue squad","Cedar street","08332",39.39021058306164,-75.052476028742
"08332","Millville","NJ","Luciano Bispo, MD - Premier Women's Health of South Jersey","2950 College Drive Ste 2F","08360",39.444034,-75.0560496
"08332","Millville","NJ","Encompass Health Rehabilitation Hospital of Vineland","1237 W Sherman Ave","08360",39.44511649434498,-75.05259601435688
"08332","Millville","NJ","Vineland Gynecology Associates","1318 South Main Road STE 3B","08360",39.466609,-75.0070464
"08332","Millville","NJ","CPR Class","not_available","08360",39.44564212240673,-75.05782067955764
"08332","Millville","NJ","MedExpress Urgent Care","3403 South Delsea Drive","08360",39.43738827751155,-75.04066050052643
"08332","Millville","NJ","NJMP Thunder","8000 Dividing Creek Rd","08332",39.35797882080078,-75.05506134033203
"08332","Millville","NJ","Kennedy hospital MS2","1 St Floor","not_available",39.39206956360726,-75.05762104266624
"08332","Millville","NJ","SJHS - Bridgeton","Irving Ave, Bridgeton, NJ","08302",39.44179599077368,-75.05095302722529
"08332","Millville","NJ","MedEvac 5","SJRMC","08360",39.445129878445236,-75.05933791177884
"08332","Millville","NJ","LS 6","3004 S Main Rd","08360",39.44206237792969,-75.01703643798828
"08332","Millville","NJ","SJH Cardiopulminary","Sherman ave.","08360",39.44546379796532,-75.05896145700808
"08344","Newfield","NJ","Malaga Camp Nurse's Cottage","Malaga Camp","08344",39.5528678894043,-75.05329132080078
"08360","Vineland","NJ","MedExpress Urgent Care","301 S Main Rd","08360",39.480503,-75.0001754
"08360","Vineland","NJ","New Jersey Memorial Hospital","524 N West Blvd","08360",39.49514389038086,-75.0283432006836
"08360","Vineland","NJ","Inspira Urgent Care East Vineland","3722 East Landis Ave","08361",39.4838948,-74.9555091
"08360","Vineland","NJ","Post 51","Sacred Heart School, 15 N East Ave, Vineland, NJ 08360-3882","08360-3882",39.4864501953125,-75.01599884033203
"08360","Vineland","NJ","Vineland Developmental Center","1676 E Landis Ave","08361",39.4846076965332,-74.9903335571289
"08401","Atlantic City","NJ","AtlantiCare Regional Medical Center, Atlantic City Campus","1925 Pacific Ave","08401",39.35879873265995,-74.43463760100023
"08401","Atlantic City","NJ","AtlantiCare Hospital 3rd Fl Dialysis","1925 pacific ace","08401",39.362125396728516,-74.43104803562164
"08401","Atlantic City","NJ","AC Medical Center, Same Day Surgery","not_available","08401",39.358515,-74.443028
"08401","Atlantic City","NJ","Bacharach Atlantic City Physical Therapy Center","1401 Atlantic Ave","08401",39.3625305,-74.4288387
"08401","Atlantic City","NJ","Shore Crucial Care","Pacific Ave","08406",39.35759353637695,-74.43585968017578
"08401","Atlantic City","NJ","Acuity Speciality Hospital","Atlanticare","08401",39.35805075124945,-74.43475524138222
"08501","Allentown","NJ","NorthStar Vets","315 Robbinsville Allentown Rd","08691",40.19327,-74.59418
"08501","Allentown","NJ","Matrix Physical Therapy","222 Kinderkamack Rd","07649",40.16677317540478,-74.49990034103392
"08502","Belle Mead","NJ","Carrier Clinic","252 County Road 601","08502",40.46577702472817,-74.68261653272678
"08502","Belle Mead","NJ","East Mountain Hospital","40 E Mountain Rd","08502",40.46815743205885,-74.68338374552076
"08502","Belle Mead","NJ","Montgomery EMS","8 Harlingen Rd","08502",40.44784927368164,-74.66145324707031
"08502","Belle Mead","NJ","Bright Futures Psychiatry","88 Orchard Rd","08558",40.4171066,-74.66145519999998
"08505","Bordentown","NJ","The Cobalt","not_available","08554",40.157855275,-74.78095909999999
"08510","Millstone Township","NJ","Squad 80k","not_available","08514",40.138650992726014,-74.44644593330894
"08512","Cranbury","NJ","Immediate Care","319 US Highway 130","08520",40.2776861,-74.5303836
"08512","Cranbury","NJ","Plainsboro EMS","641 Plainsboro Rd","08536",40.33343505859375,-74.58641052246094
"08512","Cranbury","NJ","Cranbury EMS Squad 48","68 Maplewood Avenue","08512",40.315799194485585,-74.50983374977352
"08512","Cranbury","NJ","Elms of Cranbury","61 Maplewood Ave","08512",40.315189,-74.51114299999999
"08520","Hightstown","NJ","Peddie Health Center","not_available","08520",40.25724782381312,-74.51564420535568
"08527","Jackson","NJ","Ocean Service Group Corporation","30 Gudz Rd","08701",40.089363,-74.247988
"08527","Jackson","NJ","Hackensack Meridian Health Urgent Care - Monroe","215 Applegarth Rd","08527",40.1217101,-74.2885369
"08534","Pennington","NJ","Capital Health Medical Center - Hopewell","1 Capital Way","08534",40.2918008,-74.8041257
"08534","Pennington","NJ","Capital Health Hopewell Emergency Room","not_available","08628",40.29232689735098,-74.80226910299702
"08534","Pennington","NJ","Peds @ Capital Health hopewell","not_available","08534",40.29247,-74.804405
"08534","Pennington","NJ","Capital Health Services","400 Scotch Rd","08525",40.291809745106974,-74.80379102975716
"08534","Pennington","NJ","Center for Women's Health - Pennington","2 Capital Way Ste 238","08534",40.2920425,-74.8030064
"08534","Pennington","NJ","Capital Health Medical Center Hopewell","1 capital way","08691",40.291664123535156,-74.80387115478516
"08534","Pennington","NJ","Capital Health Hopewell Emergency Room","not_available","08505",40.2902413113059,-74.79675932395871
"08534","Pennington","NJ","University Medical Center","not_available","08540",40.28623023511695,-74.73836182270836
"08536","Plainsboro","NJ","University Medical Center of Princeton at Plainsboro","1 Plainsboro Rd","08536",40.34026396683983,-74.62188720703125
"08536","Plainsboro","NJ","Princeton Orthopaedic Associates P.A.","5 Plainsboro Rd","08536",40.340583,-74.623501
"08540","Princeton","NJ","Radiology Affiliates Imaging","3120 Princeton Pike, Fl 1A","08648",40.28267376633169,-74.71448311756869
"08540","Princeton","NJ","Princeton Orthopaedic Associates P.A.","325 Princeton Ave","08540",40.39206,-74.65201
"08540","Princeton","NJ","Princeton First Aid & Rescue","237 N Harrison St","08540",40.361270904541016,-74.65072631835938
"08540","Princeton","NJ","Princeton House Behavioral Health","905 Herrontown Rd","08540",40.38846656240107,-74.65388391245044
"08540","Princeton","NJ","RWJ Sports Physical Therapy at Princeton","743 Alexander Rd Ste 2","08540",40.32221984863281,-74.63563537597656
"08540","Princeton","NJ","Lakeview at West Windsor","707 Alexander Rd","08540",40.3228847,-74.6379388
"08540","Princeton","NJ","Reproductive Science Center - Lawrenceville Fertility Center","3131 Princeton Pike Building 6 Suite 100","08648",40.2843026,-74.7187095
"08540","Princeton","NJ","RWJ Rehabilitation Lawrenceville","4152 Quakerbridge Road","08648",40.2885044,-74.67760020000001
"08540","Princeton","NJ","A Princeton Women's Center","E-20 Emmons Drive","not_available",40.31291645863002,-74.66145994356023
"08540","Princeton","NJ","Princeton Foot & Ankle Associates","263 Princeton-Hightstown Rd","08550",40.2959085,-74.5950682
"08540","Princeton","NJ","UMCP Surgery Suite","253 Witherspoon St","08540",40.356842041015625,-74.66166687011719
"08540","Princeton","NJ","Princeton Urgent Care","707 Alexander Rd Ste 201","08540",40.322974,-74.637935
"08540","Princeton","NJ","Princeton Surgical Center","281 Witherspoon St","08540",40.35746827779061,-74.66249483186289
"08540","Princeton","NJ","Rutgers Robert Wood Johnson Medical Group at Princeton","800 Bunn Drive, Suite 303","08540",40.381209000000005,-74.651597
"08550","Princeton Junction","NJ","Embrace Your Inner Self","9 Newport Dr","08550",40.264345,-74.61114
"08550","Princeton Junction","NJ","Healthcare Express","4065 Quakerbridge Rd Ste 104","08550",40.277317,-74.669288
"08550","Princeton Junction","NJ","Capital Health Mercer Er","bellvue ave","08618",40.30575706,-74.62547923
"08562","Wrightstown","NJ","514 AMDS","not_available","08562",40.03193840565224,-74.6149978647014
"08562","Wrightstown","NJ","305th Medical Group Emergency Clinic","3458 Neely Rd","08641",40.0339241027832,-74.60930633544922
"08609","Trenton","NJ","Capital Health Regional Medical Center","750 Brunswick Ave","08638",40.2359639,-74.7520604
"08609","Trenton","NJ","Saint Francis Medical Center","601 Hamilton Ave","08629",40.21616475793413,-74.74112216253475
"08609","Trenton","NJ","CHS Education Training Center","752 Brunswick Avenue","08638",40.23752745424606,-74.75131811256995
"08609","Trenton","NJ","Fuld Campus Dialysis Center","not_available","08638",40.23512222489151,-74.75168209182908
"08609","Trenton","NJ","Capital Health Suite 404","440 fuld street","08629",40.2354457,-74.751259
"08609","Trenton","NJ","The Looney Bin","Columbus Ave","08629",40.21688640117645,-74.73953425884247
"08609","Trenton","NJ","St. Francis Medical Center","Hamilton ave.","not_available",40.219290707739184,-74.73452698974054
"08609","Trenton","NJ","Renal Center Of Trenton","not_available","08629",40.216347,-74.74133499999999
"08610","Trenton","NJ","RWJ University Hospital Hamilton","1 Hamilton Health Pl","08690",40.2160069,-74.6716971
"08610","Trenton","NJ","RWJ Operating Room","not_available","08690",40.216610953164896,-74.67352943764239
"08610","Trenton","NJ","Lakeview at Hamilton","4 Hamilton Health Pl","08690",40.2150627,-74.6736638
"08610","Trenton","NJ","Care One Hamilton","1660 Whitehorse Hamilton Square Rd","08690",40.21303579237156,-74.68044854157151
"08610","Trenton","NJ","Cancer Center at RWJ Hamilton","2575 Klockner Rd","08690",40.2171248,-74.6706674
"08610","Trenton","NJ","RWJ Hospital ER","Ryan Chamberlain, One Hamilton Health Place","08690",40.21659156743953,-74.67119011340834
"08610","Trenton","NJ","Jamison Pavilion","2a","08629",40.21291975,-74.73825835
"08610","Trenton","NJ","RWJ Balance & Hearing Center","2 Hamilton Health Pl","08690",40.2163326,-74.6743956
"08611","Trenton","NJ","SBNC EMS Room","81 Hamilton Ave, Trenton, NJ 08611","08611",40.21220779418945,-74.75721740722656
"08618","Trenton","NJ","Mercer Family Health Center","443 Bellevue Avenue","not_available",40.22900113188768,-74.77697184110241
"08618","Trenton","NJ","Infocus Urgent Care","100 Campus Town Cir","08638",40.26863,-74.78312
"08618","Trenton","NJ","Trenton EMS HQ","244 Perry St","08618",40.22398360718282,-74.76104664280409
"08618","Trenton","NJ","Capital Health Print Shop","not_available","08618",40.230154,-74.776706
"08618","Trenton","NJ","Life 795","Bellvue Av.","not_available",40.2290325007259,-74.776936376268
"08618","Trenton","NJ","AfterOurs Urgent Care","1230 Parkway Ave Corporate Center, Suite 203, Suite 203","08628",40.2633439,-74.8001728
"08618","Trenton","NJ","RWJ Rehabilitation - Ewing","1440 Lower Ferry Rd","08618",40.2820634,-74.7960595
"08618","Trenton","NJ","Capitlal Health Satellite Emergency Room","446 Bellevue Ave","08618",40.230621337890625,-74.77758026123047
"08618","Trenton","NJ","MICU 796","433 Bellevue Ave","08618",40.229115,-74.776985
"08618","Trenton","NJ","CareOne@Ewing","1200 Parkway Ave","08628",40.26273727416992,-74.79979705810547
"08618","Trenton","NJ","Capital Health 795","65 Prospect Ave","08618",40.228792,-74.776847
"08619","Trenton","NJ","MedExpress Urgent Care","811 Route 33","08619",40.230273,-74.675366
"08619","Trenton","NJ","AfterOurs Urgent Care","3379 Quakerbridge Rd Ste 111","08619",40.2514955,-74.682769
"08619","Trenton","NJ","Fuld Hospital","bru.swick ave","08619",40.249068294267886,-74.67948096674684
"08619","Trenton","NJ","Nottingham Ambulance Squad","Paxton Ave","08690",40.2295477046034,-74.66850749426357
"08619","Trenton","NJ","Caring Senior Center of Mercer County","957 Highway 33","08690",40.22831726074219,-74.66773986816406
"08619","Trenton","NJ","Alert Ambulance Service","Whitehead Rd","not_available",40.24605178833008,-74.72345733642578
"08619","Trenton","NJ","Reproductive Medicine Associates of New Jersey | RMANJ","731 Alexander Road, Suite 203","08540",40.2514831,-74.6827196
"08619","Trenton","NJ","Hell on Earth","RWJ Hospital","08690",40.21652670328657,-74.67123109687473
"08620","Trenton","NJ","Patient First - Hamilton","641 US Highway Route 130","08691",40.18999227005658,-74.65020155394073
"08620","Trenton","NJ","MEDICAL EQUIPMENT MAINTENANCE LLC","242 Route 156 Ste C","08620",40.1810157,-74.66647319999998
"08638","Trenton","NJ","Advanced Urgent Care","111 Lawrence Rd","08648",40.246221131852174,-74.74350527662551
"08638","Trenton","NJ","Lawrence EMS","165 Pilla Ave","08648",40.2652608885273,-74.7392245027841
"08640","Joint Base Mdl","NJ","Walson Army Hospital","not_available","08640",40.013918904941164,-74.62918085802069
"08648","Lawrence Township","NJ","RWJ Rehabilitation at Delaware Valley","123 Franklin Corner Rd Ste 103","08648",40.2794752,-74.7158745
"08648","Lawrence Township","NJ","Lawrence rehab","not_available","08648",40.28590294985634,-74.73359541504058
"08648","Lawrence Township","NJ","Lakeview at Lawrenceville","4 Princess Rd","08648",40.285095,-74.7094347
"08690","Trenton","NJ","Radiology Affiliates Imaging","2501 Kuser Rd., Ste. 1","08691",40.2047424,-74.65937869999999
"08690","Trenton","NJ","After Hours Urgent Care","1 Washington Blvd Ste A","08691",40.222601,-74.63438599999999
"08690","Trenton","NJ","Lakeview at Robbinsville-Horizon","500 Horizon Center Blvd","08691",40.199124,-74.642483
"08690","Trenton","NJ","Urgent Care Of Mercer County","2222 New Jersey 33","08690",40.22218,-74.64139
"08690","Trenton","NJ","AllCure Spine and Sports Medicine","140 Cabot Drive Suite A","08691",40.20073794,-74.65172999
"08691","Robbinsville","NJ","MTT","7 Tanager Ln","08691",40.24112319946289,-74.59904479980469
"08691","Robbinsville","NJ","Ambulance 402","not_available","08691",40.22150961131066,-74.6123474350167
"08701","Lakewood","NJ","Blood Drive Of Ocean","not_available","08723",40.025569,-74.154658
"08701","Lakewood","NJ","Children's Specialized Hospital","not_available","08755",40.0279376842454,-74.2133087386137
"08701","Lakewood","NJ","KMC Sterile Processing","not_available","08701",40.07328796386719,-74.21942138671875
"08701","Lakewood","NJ","At My Wit's End","Nowheresville","07712",40.046782996003294,-74.15714925527219
"08701","Lakewood","NJ","Chai Urgent Care","400 New Hampshire Ave","08701-4510",40.0762345,-74.1847317
"08701","Lakewood","NJ","Morgan Fertility and Reproductive Medicine","475 New Jersey 70 201","08701",40.050514221191406,-74.20065307617188
"08701","Lakewood","NJ","Acutecare Health System","500 River Road","08701",40.07629,-74.218442
"08701","Lakewood","NJ","Kimball PESS","River Ave","not_available",40.07272889521611,-74.21968778151637
"08701","Lakewood","NJ","Monmouth Medical Center Southern Campus Laboratory Drawing Station","101 Prospect St Ste 118","08701",40.07457,-74.21978100000001
"08701","Lakewood","NJ","Specialty Hospital of Central Jersey","600 River Avenue 4 West and 5 West","07740",40.07334518432617,-74.21922302246094
"08701","Lakewood","NJ","A Bench At Monmouth medical center Southern campus","600 River Ave","08701",40.073107,-74.218873
"08723","Brick","NJ","Ocean Medical Center - ER","Jack Martin Blvd","08724",40.076944990598136,-74.13212973444276
"08723","Brick","NJ","Ocean Medical Center","425 Jack Martin Blvd","08724",40.0771786296144,-74.13235438710255
"08723","Brick","NJ","Arrowhead Foot and Ankle Center","2095 New Jersey 88","08724",40.075779,-74.1039458
"08723","Brick","NJ","Senior Helpers of Brick NJ","42 Lagoon Dr W","08738",40.04727554321289,-74.0833740234375
"08723","Brick","NJ","Meridian Nursing & Rehabilitation","415 Jack Martin Boulevard","08724",40.07672787215223,-74.12843005197801
"08723","Brick","NJ","BFAS","500 Aurora Pl","08723",40.055240631103516,-74.14358520507812
"08723","Brick","NJ","Brick Ems","406 Mantoloking Rd","08723",40.045589447021484,-74.0909423828125
"08723","Brick","NJ","OMC Sterile","not_available","08724",40.07701420919096,-74.13152859938647
"08723","Brick","NJ","Immediate Care","8 Brick Plaza","08723",40.0573725,-74.1385933
"08723","Brick","NJ","Hackensack Meridian Health Urgent Care - Brick","2125 New Jersey 88","08724",40.07631,-74.10197
"08724","Brick","NJ","Cornerstone Speech & Language","2640 Highway 70 Ste 101B","08736",40.11026092731154,-74.07332181930542
"08724","Brick","NJ","BTPD EMS Annex","1810 Lanes Mill Rd","08724",40.09764862060547,-74.1390151977539
"08731","Forked River","NJ","CityMD Lanoka Harbor Urgent Care - New Jersey","539 Route 9","08734",39.85639394099392,-74.17865091840268
"08731","Forked River","NJ","Community Medical Center Outpatient Laboratory - Forked River","731 Lacey Road, The Heart Building","08731",39.8579516,-74.2040006
"08731","Forked River","NJ","Jersey Shore Low Back Center","442 Lacey Rd","08731",39.85017013549805,-74.19800567626953
"08731","Forked River","NJ","Da Z's","not_available","08734",39.864147,-74.154995
"08742","Point Pleasant Beach","NJ","Ocean Medical Center","not_available","08742",40.082063285922665,-74.0494500575903
"08753","Toms River","NJ","The Chelsea at Toms River","1657 Silverton Rd","08753",40.0228750227508,-74.18181469176412
"08753","Toms River","NJ","New Jersey Imaging Network of Toms River - East","21 Stockton Dr","08755",39.95956,-74.21266
"08753","Toms River","NJ","Silverton Pediatrics, LLC","1314 Hooper Ave","08753",39.9880355,-74.1790888
"08753","Toms River","NJ","Toms River EMS","83 Irons St","08753",39.9514274597168,-74.20286560058594
"08753","Toms River","NJ","Community Medical Center Outpatient Laboratory - Toms River","368 Lakehurst Rd Ste 102","08755",39.95865,-74.2125674
"08753","Toms River","NJ","Griswold Home Care","610 Main Street","08753",39.958179,-74.19997
"08753","Toms River","NJ","qmt Cmc Standby","99 Rt 37 East","not_available",39.962023812585755,-74.20161002776545
"08753","Toms River","NJ","SBHCS Financial Clearance Center","66 Rt 37 W","08755",39.985823,-74.208802
"08753","Toms River","NJ","Community Medical Center Women's Imaging Center - Toms River","368 Lakehurst Rd Fl 1","08755",39.95865,-74.2125674
"08753","Toms River","NJ","CityMD Toms River Urgent Care - New Jersey","970 Hooper Avenue, Suite 2","08753",39.967187580169515,-74.18538733659086
"08753","Toms River","NJ","Hackensack Meridian Health After Hours - Toms River","1028 Hooper Avenue","08753",39.96972,-74.18524
"08753","Toms River","NJ","Michael Rosen, MD Cosmetic and Laser Surgery Center","1114 Hooper Ave","08753",39.973751,-74.18424300000001
"08753","Toms River","NJ","Children's Specialized Hospital","368 Lakehurst Rd","08755",39.95874413229608,-74.21277473693155
"08753","Toms River","NJ","Family First","1851 Hooper Ave Ste B","08753",40.0122747,-74.1461772
"08755","Toms River","NJ","Cmc hospital","Rt 37 tomsriver","08753",39.963567752311164,-74.21466816973593
"08755","Toms River","NJ","Community Medical Center","99 Route 37 W","08755",39.962990652297734,-74.2154591951461
"08755","Toms River","NJ","HealthSouth Rehabilitation Hospital","14 Hospital Dr","08755",39.96251692186582,-74.21743659322601
"08755","Toms River","NJ","CMC - Outpatient Infusion","not_available","08753",39.96358062488242,-74.2153273578137
"08755","Toms River","NJ","Community Medical Center","99 Highway 37 West","08755",39.9642549,-74.2156583
"08755","Toms River","NJ","Premier Perinatal LLC","250 Rte 37 W 2nd Floor","08755",39.9675749,-74.22705189999999
"08755","Toms River","NJ","community medical Center Same Day Surgery","Rt 37 East","not_available",39.96510314941406,-74.2169189453125
"08755","Toms River","NJ","Center for Sleep Disorders","67 Highway 37 West, Riverwood 1 Building","08755",39.96344240255192,-74.21365022659307
"08755","Toms River","NJ","Heart and Lung Specialty Center at Toms River","780 Route 37 W Ste 120","08755",39.9713427,-74.2344701
"08755","Toms River","NJ","Reproductive Science Center - Toms River Fertility Center","780 NJ-37 #150","08755",39.9712042,-74.2343465
"08759","Manchester Township","NJ","Community Medical Center Outpatient Laboratory - Whiting","401 Lacey Rd","08759",39.9584712,-74.3878409
"08759","Manchester Township","NJ","Community Medical Center Outpatient Laboratory - Whiting","65 Lacey Rd","08759",39.948344,-74.364964
"08759","Manchester Township","NJ","Community Medical Center Outpatient Laboratory - Toms River","730 Jamaica Boulevard, Holiday Plaza 1 Mini Mall","08757",39.97183609008789,-74.24505615234375
"08759","Manchester Township","NJ","Saglimbene Richard G DPM","1163 Route 37 W Ste Toms","08755",39.978050231933594,-74.24903106689453
"08759","Manchester Township","NJ","Community Medical Center","Route 37 East","08755",39.99115526240029,-74.26776821501826
"08801","Annandale","NJ","Clinton First Aid & Rescue Squad","48 Old Highway 22","08809",40.63744520251123,-74.90435563705142
"08801","Annandale","NJ","west hall","not_available","08826",40.68739700317383,-74.91410064697266
"08805","Bound Brook","NJ","AFC Urgent Care Bound Brook","601 W Union Ave","08805",40.56850051879883,-74.55302429199219
"08805","Bound Brook","NJ","Urgent Med","not_available","08807",40.560756,-74.551178
"08805","Bound Brook","NJ","RWJ Sports Physical Therapy & Performance Center","1 Patriots Park, TD Bank Park","08807",40.5608024597168,-74.55327606201172
"08807","Bridgewater","NJ","RWJ University Hospital Somerset","110 Rehill Ave","08876",40.5684139,-74.595281
"08807","Bridgewater","NJ","PM Pediatrics","966 US Highway 22","08807",40.5801526,-74.60804809999999
"08807","Bridgewater","NJ","Somerset Ambulatory Surgical Center","1 US Highway 206","08876",40.55835382546331,-74.61668501605867
"08807","Bridgewater","NJ","Somerset OB/GYN Associates - Bridgewater","215 Union Avenue Ste A","08807",40.5713924,-74.5923684
"08807","Bridgewater","NJ","New Jersey Bariatric Center Somerville Office","30 Rehill Ave","08876",40.565991,-74.595861
"08807","Bridgewater","NJ","Somerset Medical Center Cath Lab","not_available","08876",40.57003715997211,-74.5952884228444
"08807","Bridgewater","NJ","Dr Celo Somerset Hematology Oncology","30 Rehill Ave, Somerville, NJ 08876","08876",40.565956115722656,-74.59603881835938
"08807","Bridgewater","NJ","74 Special Operations 1","113 River Rd","08876",40.56813430786133,-74.68421936035156
"08807","Bridgewater","NJ","Hunterdon Healthcare Urgent Care","45 U.S. 206","08869",40.568047,-74.62578
"08807","Bridgewater","NJ","Central Jersey Ambulatory Suirgical Center","500 Courtyard Dr","08844",40.54973602294922,-74.61177825927734
"08807","Bridgewater","NJ","Concentra Urgent Care","350 Grove St.","08807",40.579708099365234,-74.60482788085938
"08807","Bridgewater","NJ","Mike's Asylum","bridgewater ave","08807",40.56500837602101,-74.58143441283019
"08807","Bridgewater","NJ","RWJBarnabas Health, Inc.","33 Monroe St","08807",40.571807,-74.592854
"08816","East Brunswick","NJ","Brunswick Urgent Care","641 State Route 18","08816",40.43293939900291,-74.388149752316
"08816","East Brunswick","NJ","CityMD East Brunswick Urgent Care - New Jersey","683 State Route 18","08816",40.4303558,-74.3856418
"08816","East Brunswick","NJ","Children's Specialized Hospital - East Brunswick - Outpatient Center","629 Cranbury Rd","08816",40.406149,-74.424803
"08816","East Brunswick","NJ","Brunswick Hills OB/GYN - East Brunswick","620 Cranbury Road Suite LL90","08816",40.40585,-74.42152
"08816","East Brunswick","NJ","Ann Chicchi, M.S., R.D.","64 Frost Ave","08816",40.410583,-74.400189
"08816","East Brunswick","NJ","RWJ Physician Enterprise Sleep Center","593 Cranbury Rd","08816",40.4094343,-74.4210979
"08816","East Brunswick","NJ","Robert Wood Johnson Endosurgical Center","800 Ryders Ln","08816",40.42047119140625,-74.39124298095703
"08816","East Brunswick","NJ","East Brunswick Rescue Squad","346","not_available",40.43723984498317,-74.39388099014732
"08816","East Brunswick","NJ","Center for Breast Health East Brunswick","620 Cranbury Road Suite 206","08816",40.4058156,-74.4219224
"08816","East Brunswick","NJ","OB/GYN of East Brunswick","172 Summerhill Road Ste 1","08816",40.4269127,-74.3902212
"08817","Edison","NJ","OB/GYN of East Brunswick - Piscataway","1636 Stelton Road Ste 303","08854",40.5343671,-74.4206896
"08817","Edison","NJ","Immediate Care","561 US Highway 1 Ste E4","08817",40.507175,-74.396414
"08817","Edison","NJ","Alcohol & Drug Rehab Edison NJ","1676 State Route 27","08817",40.510318756103516,-74.4088363647461
"08817","Edison","NJ","Drug & Alcohol Rehab Edison","100 Metroplex Dr","08817",40.52138137817383,-74.41064453125
"08817","Edison","NJ","RWJ Cardiac Rehab at Edison","4 Ethel Rd Ste 406B","08817",40.541211,-74.396204
"08817","Edison","NJ","Trinity Fire Partners","402 Main St Ste 100-315","08840",40.541477,-74.360809
"08817","Edison","NJ","JFK Medical Center - Cath Lab","65 James St, Edison, NJ 08820","08820",40.53946040781078,-74.3687960235755
"08817","Edison","NJ","Highland Park First Aid Squad","127-195 S 11th Ave","08904",40.50123990664217,-74.41740204435163
"08817","Edison","NJ","Center for Breast Health and Disease Management - Metuchen","173 Essex Ave","08840",40.536421,-74.3716224
"08820","Edison","NJ","JFK Emergency Room","not_available","08820",40.557242759246186,-74.35111923406274
"08820","Edison","NJ","JFK Johnson Rehabilitation Institute","65 James St","08820",40.55635966333861,-74.34935727707995
"08820","Edison","NJ","JFK Outpatient Testing","JFK Medical Center","not_available",40.556131210994515,-74.3506371524425
"08820","Edison","NJ","Medicenter of Edison","1813 Oak Tree Rd","08820",40.571496999999994,-74.353002
"08820","Edison","NJ","Dysfunction Junction","53 Freeman Ave","08820",40.55631035,-74.35271143913269
"08820","Edison","NJ","X-ray Room 4 JFK Hospital","James St.","08840",40.55400175840531,-74.35582340398419
"08820","Edison","NJ","JFK Education Classroom","not_available","08840",40.5499444,-74.350717
"08820","Edison","NJ","Freeman Pain Institue","10 Parsonage Rd","08820",40.559087714998306,-74.35141125002755
"08820","Edison","NJ","Clinicals","James St","08820",40.552076,-74.352815
"08822","Flemington","NJ","ER","6-1684 Hunterdon Med Center","08822",40.53208131831692,-74.86135511371303
"08822","Flemington","NJ","RWJ Sports Physical Therapy at Flemington","295 State Highway 31/202","08822",40.50168991088867,-74.85477447509766
"08822","Flemington","NJ","Same Day Center","Wescott Dr.","08822",40.53138,-74.86012
"08822","Flemington","NJ","The Literal Heart of Jesus","not_available","08822",40.50976131293565,-74.81498293452192
"08822","Flemington","NJ","Operating Room","Wescott dr","08822",40.53648,-74.856218
"08822","Flemington","NJ","Hunterdon County Emergency Services Operations Center","201 Cherryville Rd","08822",40.55479181068049,-74.90346745087369
"08822","Flemington","NJ","FRFARS New Station 49-5","29 Royal Rd","08822",40.512178,-74.842433
"08822","Flemington","NJ","HMC Pediatrics","4th Floor","08822",40.531652,-74.861031
"08822","Flemington","NJ","HMC EMS-1","2100 Wescott Dr","08822",40.532054643349255,-74.86137112110505
"08823","Franklin Park","NJ","Brunswick Urgent Care, PA","3185 Lincoln Hwy.","08823",40.43456343789482,-74.54544851840737
"08823","Franklin Park","NJ","Outside With No Coat","not_available","08823",40.42994399160071,-74.55846016323501
"08824","Kendall Park","NJ","Childrens specialized hospital","not_available","08824",40.42474,-74.52471
"08826","Glen Gardner","NJ","Hagedorn Psychiatric Hospital","200 Sanatorium Rd","08826",40.69207108301532,-74.92190762456653
"08826","Glen Gardner","NJ","north hall 4","200 Sanatorium Rd, Glen Gardner, NJ 08826","08826",40.69645309448242,-74.93096923828125
"08826","Glen Gardner","NJ","Hagedorn Psych Hospital Voc. Rehab Dept.","not_available","07882",40.69336161347731,-74.92248420326212
"08830","Iselin","NJ","New Jersey Veterans Memorial Home Menlo Park Nursing Home","132 Evergreen Rd","08837",40.554670187201715,-74.33037373071419
"08831","Monroe Township","NJ","AllCure Spine and Sports Medicine","350 Forsgate Dr","08831",40.3411044,-74.4563179
"08831","Monroe Township","NJ","Monroe Station 1","47 Monmouth Rd","08831",40.376990672812624,-74.38388032067255
"08831","Monroe Township","NJ","Women's Physicians & Surgeons - Monroe Township","312 Applegarth Road Ste 102","08831",40.3171553,-74.4741609
"08831","Monroe Township","NJ","Monroe Surgery Center","8 Centre Dr","08831",40.340732,-74.460706
"08831","Monroe Township","NJ","RWJ Physical Therapy & Cardiac Rehab at Monroe","111 Union Valley Rd Ste 201A","08831",40.3037776,-74.457694
"08831","Monroe Township","NJ","My Insta Doc Urgent care of Monroe","298 Applegarth Rd Ste B","08831",40.312836,-74.47455699999999
"08831","Monroe Township","NJ","Brian Keegan","5 Centre Drive Suite 1A","08831",40.3409144,-74.4640114
"08831","Monroe Township","NJ","RWJ EMS Station 6","Municipal Plaza","08831",40.327374728829284,-74.44078208260011
"08831","Monroe Township","NJ","Brian Keegan MD, PhD, Dermatologist","5 Centre Drive, Suite 1A","08831",40.3409144,-74.4640114
"08832","Keasbey","NJ","Rmbc","not_available","08832",40.520915,-74.300464
"08833","Lebanon","NJ","Whitehouse Rescue Station 1","269 Main St","08889",40.614695010125914,-74.77184543913337
"08837","Edison","NJ","SleepEZ","25 South Main Street, Suite 8","08837",40.5171685,-74.3555399
"08837","Edison","NJ","First Health Urgent and Primary Care","10 Parsonage Rd Ste 102","08837",40.546735,-74.3315181
"08844","Hillsborough","NJ","RWJ Sports Physical Therapy at Hillsborough","1 Jill Ct Ste 20 Bldg 16","08844",40.493158,-74.640849
"08844","Hillsborough","NJ","Robert Wood Johnson Urgent Care","not_available","08844",40.49068813287713,-74.64917230909853
"08844","Hillsborough","NJ","Somerset OB/GYN Associates - Hillsborough","1 New Amwell Road","08844",40.50587,-74.64385
"08844","Hillsborough","NJ","Hillsborough EMS Station 1","48 E Mountain Rd","08844",40.5047250725979,-74.68987620924422
"08844","Hillsborough","NJ","Whambulance","US-206","not_available",40.498178856742655,-74.62109440792595
"08844","Hillsborough","NJ","RWJPE Hillsborough Urgent Care","751 US Highway 206 Ste 100","08844",40.4905891,-74.6494089
"08844","Hillsborough","NJ","Mona Lisa Dental","751 US Highway 206 Ste 111","08844",40.49055480957031,-74.64898681640625
"08844","Hillsborough","NJ","RWJ Sleep Center","331 US Highway 206","08844",40.5131031,-74.6313415
"08844","Hillsborough","NJ","Family Care","256 US 206 South","08844",40.522831,-74.629102
"08844","Hillsborough","NJ","Able Medical Transportation","61 5th St","08844",40.55997654071399,-74.61077689955631
"08844","Hillsborough","NJ","Brunswick Hills OB/GYN - Hillsborough","751 Route 206 N 2nd Floor","08844",40.490482,-74.649272
"08854","Piscataway","NJ","University Center For Ambulatory Surgery","2 Worlds Fair Dr Ste 301","08873",40.536893,-74.510741
"08854","Piscataway","NJ","UBHC North Building","667 Hoes Lane W, Piscataway, NJ","08854",40.524932861328125,-74.47113037109375
"08854","Piscataway","NJ","RWJ EMS OUTSTATION PISCATAWAY","555 Sidney Rd","08854",40.5399169921875,-74.46928405761719
"08854","Piscataway","NJ","One Healthcare - Urgent Care Ctr","1100 Centennial Ave #103, Piscataway Township, NJ 08854","08854",40.551002502441406,-74.45897674560547
"08854","Piscataway","NJ","St. Peter's University Hospital (Oncology)","254 Easton Ave","08901",40.5748508457812,-74.4609346067248
"08854","Piscataway","NJ","Locate it Direct","200 Centennial Ave Ste 200","08854",40.54328536987305,-74.49471282958984
"08854","Piscataway","NJ","UMDNJ - Acute Psychiatric Service","671 Hoes Ln W","08854",40.52567,-74.47018100000001
"08854","Piscataway","NJ","My Whole Child Pediatrics - Piscataway","1315 Stelton Rd","08854",40.54112,-74.42292
"08857","Old Bridge","NJ","Proton Services Incorporated","776 Jernee Mill Rd Ste 120","08872",40.431366969858736,-74.34141397476195
"08857","Old Bridge","NJ","RWJ Physical Therapy at Old Bridge","1044 US Highway 9","08859",40.45296096801758,-74.29914093017578
"08859","Parlin","NJ","Perth MIC 2","not_available","08859",40.4615951842854,-74.32968631627462
"08859","Parlin","NJ","RBMC MIC2","Washington Road","08859",40.46156657602174,-74.32981234245126
"08861","Perth Amboy","NJ","Hackensack Meridian Health Raritan Bay Medical Center - Perth Amboy","530 New Brunswick Ave","08861",40.51830119308527,-74.2798640562172
"08861","Perth Amboy","NJ","RBMC Station One","466 Barclay St","08861",40.5186257,-74.28017
"08861","Perth Amboy","NJ","PAD ER Lounge","not_available","08861",40.519315,-74.280957
"08861","Perth Amboy","NJ","Raritain Bay ER","Lawrie Street","08861",40.51939120218072,-74.28095553224894
"08863","Fords","NJ","My Whole Child Pediatrics - Edison","652 Amboy Ave","08837",40.52996,-74.31829
"08863","Fords","NJ","St. Johns First Aid Squad","Corrielle Street","08863",40.529187,-74.314077
"08865","Phillipsburg","NJ","Infinitt North America Inc.","755 Memorial Pkwy Ste 304","08865",40.698893,-75.1750744
"08865","Phillipsburg","NJ","94-55","alpha park","08865",40.6669911,-75.1722747
"08865","Phillipsburg","NJ","Easton Cardiovascular Associates","96A Baltimore St","08865",40.69919,-75.172692
"08865","Phillipsburg","NJ","Warren Hospital","185 Roseberry St","08865",40.697296,-75.180665
"08865","Phillipsburg","NJ","St. Luke's Warren Hospital","not_available","18042",40.72483355136528,-75.14108733937496
"08865","Phillipsburg","NJ","Opiate Withdrawal Aid Program","361 Memorial Pkwy #525","08865",40.69584655761719,-75.19039154052734
"08865","Phillipsburg","NJ","EMS-4","1301 Belvidere Rd","08865",40.71165463798346,-75.17596406830937
"08865","Phillipsburg","NJ","Dispensary","not_available","08865",40.686075,-75.187571
"08865","Phillipsburg","NJ","St Luke's: Warren Campus","125","08865",40.702173020568345,-75.17827002003465
"08869","Raritan","NJ","CityMD Raritan Urgent Care - New Jersey","503 US Highway 202","08869",40.573780048285684,-74.63675811587933
"08873","Somerset","NJ","Central Jersey Urgent Care of Somerset","84 Veronica Avenue","08873",40.475772857666016,-74.49070739746094
"08873","Somerset","NJ","Leo F. Doherty, MD","81 Veronica Ave","08873",40.47484827609694,-74.49262082576752
"08873","Somerset","NJ","Ambulance 782","not_available","08873",40.498891,-74.483466
"08873","Somerset","NJ","Urgentmed","141 Main St","08880",40.55226487447939,-74.52332771336498
"08873","Somerset","NJ","Reproductive Medicine Associates of New Jersey | RMANJ","81 Veronica Avenue","08873",40.4746528,-74.49308760000001
"08879","South Amboy","NJ","Laurence Harbor First Aid Squad","1-7 Laurence Pkwy","08879",40.45606994628906,-74.24723052978516
"08882","South River","NJ","MedExpress Urgent Care","418 State Route 18","08816",40.44702870674379,-74.39553022384644
"08901","New Brunswick","NJ","Robert Wood Johnson University Hospital","1 Robert Wood Johnson Pl","08901",40.49565134545276,-74.44908697406204
"08901","New Brunswick","NJ","Robertwood Johnson Hospital (New Brunswick) (Robert Wood Johnson University  Hospital)","Robert Wood Johnson Pl","10314",40.49664903746481,-74.44828928370775
"08901","New Brunswick","NJ","Children's Specialized Hospital- New Brunswick - Inpatient Hospital","200 Somerset St","08901",40.49434227211253,-74.4516038312376
"08901","New Brunswick","NJ","Big Bob's Traumarama","1RWJ Place","08901",40.49584169363568,-74.44949417757552
"08901","New Brunswick","NJ","Bristol Meyer's Squibb Children's Hospital at Robert Wood Johnson University Hospital","200 Somerset Street","08901",40.4948553,-74.4515552
"08901","New Brunswick","NJ","Same Day Chemo","Somerset Ave","08901",40.49596059022648,-74.45015551328247
"08901","New Brunswick","NJ","CINJ","195 Little Albany St","08901",40.49637218578165,-74.4488045024311
"08902","North Brunswick","NJ","My Whole Child Pediatrics - North Brunswick","1555 Ruth Rd # 4","08902",40.4516986,-74.5166777
"08904","Highland Park","NJ","Eric B. Chandler Health Center Church St. Annex","123 Church St","08901",40.4961057,-74.4444391
"08904","Highland Park","NJ","Vascular Management Associates","317 George Street Suite 412","08901",40.4931,-74.443
