"zip","city","state","name","address","postalCode","lat","lon"
"60002","Antioch","IL","Living Hour Ny Hour","43232 N Country Ln","60002",42.49002085,-87.95674305
"60004","Arlington Heights","IL","NCH Medical Group","1051 W. Rand Road Suite 110","60004",42.122378999999995,-87.995756
"60004","Arlington Heights","IL","MedSpring Urgent Care","902 W Dundee Rd","60004",42.139441999999995,-87.994364
"60004","Arlington Heights","IL","Saju Abraham, MD","1051 West Rand Road Suite 210","60004",42.1222956,-87.9956818
"60004","Arlington Heights","IL","Northwest Community Healthcare Pediatric Rehab","1590 N Arlington Heights Rd","60004",42.105084000000005,-87.980874
"60004","Arlington Heights","IL","Ashley Psychic Readings","112 S Arlington Heights Rd","60005",42.080570220947266,-87.98085021972656
"60004","Arlington Heights","IL","NCH VeinCare","1410 N. Arlington Heights Road Ste 300","60004",42.10117721557617,-87.98145294189453
"60004","Arlington Heights","IL","Christopher Fahey, M.D.","1051 West Rand Road Ste 210","60004",42.1222956,-87.9956818
"60004","Arlington Heights","IL","WomanCare at NCH","1051 W. Rand Road Ste 101","60004",42.1224158,-87.99574779999999
"60004","Arlington Heights","IL","NW Community Hospital Immediate Care","Lake Cook Rd.","60090",42.15296387672424,-87.94700503349304
"60004","Arlington Heights","IL","Advantage Ambulance Camping Emporium","not_available","60008",42.076478,-88.013749
"60004","Arlington Heights","IL","WomanCare at NCH","121 S. Wilke Road Ste 515","60005",42.0808699,-88.0032618
"60004","Arlington Heights","IL","Reassure Homecare, Inc.","309 E Rand Rd Ste 172","60004",42.110942430167846,-87.97920227050781
"60004","Arlington Heights","IL","Blood Drive","265 Lodge Drive","26003",42.130825,-87.959644
"60004","Arlington Heights","IL","Newton Li, MD","1051 West Rand Road Ste 210","60005",42.1222956,-87.9956818
"60004","Arlington Heights","IL","NCH Medical Group at Lutheran Home","800 W. Oakton Street","60004",42.096635,-87.992655
"60004","Arlington Heights","IL","NCH Concierge Medicine","600 W. Lake Cook Road Ste 160","60089",42.15227127075195,-87.97261047363281
"60004","Arlington Heights","IL","Northwest Community Healthcare at 3295","3295 North Arlington Heights Rd","60004",42.13506317138672,-87.98345184326172
"60004","Arlington Heights","IL","Suburban Ear Nose & Throat","880 W Central Rd","60005",42.094611,-88.00196
"60004","Arlington Heights","IL","Northwest Healthcare IT Solutions, LLC","126 E Wing St Ste 340","60004",42.083961486816406,-87.98125457763672
"60004","Arlington Heights","IL","Springer/Orser Dentistry","1845 E. Rand Road Suite 200","60004",42.09862409999999,-87.96130029999999
"60005","Arlington Heights","IL","Northwest Community Healthcare Wellness Center","900 W Central Rd","60005",42.067481994628906,-87.99471282958984
"60005","Arlington Heights","IL","Blood Bank","800 W Central Rd","60005",42.067843375923054,-87.99196986568086
"60005","Arlington Heights","IL","The Cookie Room (SDA)","Biesterfield Road","60007",42.02447409231542,-87.98886660638888
"60005","Arlington Heights","IL","Nihon Clinic","2010 S Arlington Heights Rd Ste 101","60005",42.048316,-87.983328
"60005","Arlington Heights","IL","Northwest Community Healthcare Day Surgery Center","675 W Kirchhoff Rd","60005",42.06858,-87.991233
"60005","Arlington Heights","IL","Rick Jobski, MD","1632 West Central Road","60005",42.0669311,-88.0021737
"60005","Arlington Heights","IL","Michael Ross, MD","880 West Central Road Ste 5000","60005",42.0685809,-87.9930937
"60005","Arlington Heights","IL","Surgery Waiting Area - Northwest Community Hospital (Second Floor)","800 N. Central Road","60005",42.068844,-87.992226
"60005","Arlington Heights","IL","NCH Medical Group","2101 S. Arlington Heights Road Ste 108","60005",42.0471228,-87.9808762
"60005","Arlington Heights","IL","Shakeel Chowdhry, MD","880 West Central Road Ste 4100","60005",42.0685809,-87.9930937
"60005","Arlington Heights","IL","Northwest Endoscopy Center","1415 South Arlington Heights Rd","60005",42.0577535,-87.9796447
"60005","Arlington Heights","IL","Raymond Kawasaki, MD","880 West Central Road Ste 7100","60005",42.0685809,-87.9930937
"60005","Arlington Heights","IL","Exam Room","not_available","not_available",42.067681,-87.992572
"60005","Arlington Heights","IL","Occupational Health - Northwest Community Hospital","880 W Central Rd Ste 5100","60005",42.0688404021991,-87.9933214187622
"60007","Elk Grove Village","IL","Alexian Brothers Medical Center","800 Biesterfield Rd","60007",42.0044476518561,-88.01744523830767
"60007","Elk Grove Village","IL","CCU/Surgical Waiting Room","not_available","60007",42.00463,-88.016525
"60007","Elk Grove Village","IL","Schaumburg Immediate Care","1375 E Schaumburg Rd #100","60194",42.02828,-88.0461
"60007","Elk Grove Village","IL","Schaumburg Immediate Care","not_available","60173",42.01946667498288,-88.03123831453267
"60007","Elk Grove Village","IL","Alexian Brothers TCU","Biesterfield","60007",42.00323449085462,-88.01877855926564
"60007","Elk Grove Village","IL","Concentra Immediate Care - Elk Grove Village","1830 Jarvis Ave","60007",42.013118743896484,-87.95834350585938
"60007","Elk Grove Village","IL","AMITA Health Alexian Brothers Rehabilitation Hospital, Elk Grove Village, in partnership with Rehabi","935 Beisner Rd.","60007",42.00263977050781,-88.01746368408203
"60007","Elk Grove Village","IL","ManorCare Health Services-Elk Grove Village","1920 Nerge Rd","60007",41.99959118,-88.05766872
"60007","Elk Grove Village","IL","Alexian Rehabilitation Hospital","935 Beisner Rd","60007",42.002549415071805,-88.01736923531989
"60007","Elk Grove Village","IL","MOU 2east","7435 W Talcott Ave","60631",42.037869066666666,-88.03540876666666
"60007","Elk Grove Village","IL","Alexian Brothers Rehab Hosptital","955 Beisner Rd","60007",42.002019,-88.01735
"60007","Elk Grove Village","IL","Medical Equipment Sales Associates, Inc.","1701 Carmen Drive","60007",42.00249099731445,-87.93627166748047
"60008","Rolling Meadows","IL","Jessica Knight, DPM","1941 Rohlwing Road","60008",42.08926010131836,-88.02702331542969
"60008","Rolling Meadows","IL","Narayan Saha, MD","199 West Rand Road 203","60056",42.0669311,-88.0021737
"60008","Rolling Meadows","IL","Vitality Urgent & Primary Care","1807 Hicks Road","60008",42.09066822,-88.03466621
"60008","Rolling Meadows","IL","NCH Medical Group","5999 New Wilke Road Building 2, Ste 200","60008",42.0524572,-88.0035541
"60008","Rolling Meadows","IL","room 6235 NWCH","not_available","60005",42.048654430283996,-87.99543576947805
"60008","Rolling Meadows","IL","NCH Medical Group Cardiology","1632 W. Central Road","60005",42.0669311,-88.0021737
"60008","Rolling Meadows","IL","Northwest Surgicare","1100 W Central Rd","60005",42.067448,-87.995576
"60008","Rolling Meadows","IL","Northwest Community Healthcare at 1700","1700 W Central Rd Ste 140","60005",42.067100524902344,-88.0029296875
"60010","Barrington","IL","NCH Kildeer Outpatient Care Center","21481 N. Rand Road","60047",42.174934,-88.0728227
"60010","Barrington","IL","Advocate Good Shepherd Hospital","450 W IL Route 22","60010",42.19619034099314,-88.17299743204957
"60010","Barrington","IL","Superior Ambulance Service","700 Industrial Dr","60013",42.216387,-88.257276
"60010","Barrington","IL","Essential Nutrition and Wellness","18 East Dundee Road Bld 6 Suite 160","60010",42.1301767,-88.1321476
"60010","Barrington","IL","Loyola Medical Center In Chicago Ill","not_available","60067",42.087723,-88.083114
"60010","Barrington","IL","NCH WomanCare Center","355 W. Northwest Highway","60067",42.1229717,-88.0535429
"60010","Barrington","IL","Senior Helpers","27790 West State Route 22","60010",42.19491501,-88.17694987
"60010","Barrington","IL","Good Shepherd Hospital MSICU","450 Illinois 22","60010",42.19038299873039,-88.13614694573538
"60010","Barrington","IL","Northwest Community Healthcare at lake Zurich","1217 S Rand Rd","60047",42.1773984038798,-88.07569742202759
"60010","Barrington","IL","Beaird Dermatology","4885 Hoffman Boulevard Suite #407","60192",42.068039,-88.19908860000001
"60010","Barrington","IL","Advocate Good Shepherd Rapid Responses","not_available","60010",42.18712149490404,-88.16647844394055
"60010","Barrington","IL","Immediate Care Plus","888 E Main St","60118",42.0933349,-88.2586279
"60010","Barrington","IL","Advocate Good Shepherd Emergency Services","450 W Il Route 22","60010",42.19099044799805,-88.12273406982422
"60010","Barrington","IL","Family Practice Center of Palatine and Immediate Care Palatine","371 W Northwest Hwy","60067",42.1231638,-88.0534476
"60012","Crystal Lake","IL","Crystal Lake Vet Hospital","800 E Terra Cotta Ave","60014",42.249098,-88.291409
"60012","Crystal Lake","IL","sherman health urgent care","not_available","60012",42.260929107666016,-88.30425262451172
"60014","Crystal Lake","IL","Northwestern Medicine Woodstock Hospital","3701 Doty Rd","60098",42.275479,-88.400857
"60014","Crystal Lake","IL","Shipra Sabharwal, DO","360 Station Dr Ste 300A","60014",42.230023349660776,-88.30254487191553
"60014","Crystal Lake","IL","Hemant Patel - Centegra Immediate Care Center-Crystal Lake","360 Station Dr","60014",42.230030743049284,-88.3025693893432
"60014","Crystal Lake","IL","Northwestern Medicine Immediate Care Crystal Lake","not_available","60014",42.230023,-88.302574
"60015","Deerfield","IL","Jibran Ahmed, MD","350 S Waukegan Rd Ste 150","60015",42.14678962700491,-87.83214725281516
"60015","Deerfield","IL","Northwest Community Imaging & Lab","not_available","60089",42.16327113513952,-87.92576956513584
"60015","Deerfield","IL","Neal Shukla, DPM","1450 Busch Parkway","60089",42.172888,-87.925977
"60015","Deerfield","IL","highland park kellogg cancer care center","not_available","60035",42.17340850830078,-87.8230972290039
"60016","Des Plaines","IL","Advocate Lutheran General Hospital","1775 Dempster St","60068",42.0390129243088,-87.84799472838347
"60016","Des Plaines","IL","Advocate Center for Advanced Care","not_available","60016",42.038564794055624,-87.85026497880018
"60016","Des Plaines","IL","Golf Surgical Center","8901 Golf Rd","60016",42.0533332824707,-87.84800720214844
"60016","Des Plaines","IL","Lutheran General Hosp Nuclear Medicine","not_available","60068",42.039027,-87.84877
"60016","Des Plaines","IL","NCH Foot and Ankle Center","1455 East Golf Road Suite 131","60016",42.053926000000004,-87.88900100000001
"60016","Des Plaines","IL","Seasons Hospice","606 Potter Rd","60016",42.042555,-87.860065
"60016","Des Plaines","IL","Weil Foot & Ankle Institute","1455 E Golf Rd","60016",42.05403,-87.88838
"60016","Des Plaines","IL","pascos","not_available","60056",42.04867172241211,-87.94025421142578
"60016","Des Plaines","IL","AMITA Health Immediate Care Center Mt. Prospect","1754 W Golf Rd","60056",42.06611650263103,-87.93766021728516
"60016","Des Plaines","IL","Presence Holy Family Medical Center","100 N River Rd","60016",42.05549795387791,-87.88976234981557
"60016","Des Plaines","IL","Maryville Scott Nolan Hospital","555 Wilson Ln","60016",42.04364744695717,-87.879172547708
"60016","Des Plaines","IL","AMITA Health Holy Family Medical Center Des Plaines","100 N. River Rd.","60016",42.055641174316406,-87.8892593383789
"60018","Des Plaines","IL","Montefiore Hospital Oakland PA","5th Avenue","60018",41.97724915538195,-87.8988662846028
"60018","Des Plaines","IL","Montefiore Hospital","Fifth Avenue","60018",41.97138511383278,-87.88168704904149
"60018","Des Plaines","IL","EMRT post 19","not_available","60018",41.98089658687477,-87.85970624015621
"60018","Des Plaines","IL","Orsini Healthcare","1111 Nicholas Blvd","60007",42.010220000000004,-87.949938
"60025","Glenview","IL","Ravine Way Surgery Center","not_available","60025",42.098613,-87.812655
"60025","Glenview","IL","NorthShore Glenbrook Hospital","2100 Pfingsten Rd","60026",42.0923898,-87.8548491
"60025","Glenview","IL","Northwestern Medicine Immediate Care Glenview","2701 Patriot Blvd","60026",42.10482352806908,-87.82256662845617
"60025","Glenview","IL","Cathy J. Tschannen, MD","2701 Patriot Blvd Ste 110","60026",42.10484346463763,-87.82257114356861
"60025","Glenview","IL","Success TMS - Depression Treatment Specialists","1500 Waukegan Rd Ste 213","60025",42.0817249,-87.79972049999999
"60030","Grayslake","IL","Northwestern Grayslake Hospital","1475 E Belvidere Road, Pavilion A, First Floor","60030",42.3375807,-88.0116543
"60030","Grayslake","IL","Northshore Medical Group","1000 E Rollins Rd","60073",42.38185119628906,-88.05775451660156
"60030","Grayslake","IL","Northwestern Lake Forest ER","1475 E Belvidere Rd","60030",42.33779925089903,-88.01074570387635
"60030","Grayslake","IL","Animal emergency & treatment center","Rt 45","60030",42.361453404738995,-88.11351927676976
"60030","Grayslake","IL","Northwestern Medicine Emergency Center Grayslake","1475 E Belvidere Rd Ste 1268","60030",42.33739,-88.0122296
"60030","Grayslake","IL","Round Lake Animal Hospital","24431 W IL Route 134","60073",42.36257302432149,-88.11047141459481
"60030","Grayslake","IL","Murphy Ambulance","1035 Corporate Circle","60030",42.340484319893726,-88.02015565691705
"60030","Grayslake","IL","Aurora Urgent Care","7505 Grand Ave","60031",42.385196685791016,-87.98686218261719
"60030","Grayslake","IL","American Medical Marijuana Clinics","1457 Indian Grass Lane","60030",42.335025073878185,-88.0094575881958
"60031","Gurnee","IL","Ann & Robert H. Lurie Children's Hospital Outpatient Services","36100 N Brookside Dr","60031",42.38774490356445,-87.97740936279297
"60031","Gurnee","IL","PromptMed Urgent Care","724 N Green Bay Rd","60085",42.372046999999995,-87.883262
"60031","Gurnee","IL","Lake Forest Hospital","not_available","60031",42.387859000000006,-87.977017
"60031","Gurnee","IL","Waukegan Immediate Care","1075 N. Green Bay Road","60085",42.3752569,-87.8825698
"60031","Gurnee","IL","Kirk Eye Center","3477 Grand Ave","60031",42.3699,-87.88643
"60033","Harvard","IL","Mercyhealth Hospital and Medical Center–Harvard","901 Grant St","60033",42.42619705200195,-88.60697937011719
"60035","Highland Park","IL","NorthShore Highland Park Hospital","777 Park Ave W","60035",42.19043179706703,-87.80781094847529
"60035","Highland Park","IL","Ambulatory Care Center","757 Park Ave W","60035",42.18938763931115,-87.80743168544609
"60035","Highland Park","IL","North Shore Highland Park Hospital Breast Center","767 Park Ave W","60035",42.18973922729492,-87.80806732177734
"60035","Highland Park","IL","Success TMS - Depression Treatment Specialists","600 Central Ave Ste 311","60035",42.1849626,-87.7996457
"60035","Highland Park","IL","ER Room 8","Room 8","60035",42.19113110607837,-87.80841104168695
"60035","Highland Park","IL","Northwestern Memorial Hospital","600 Central Ave","60035",42.185305,-87.800221
"60035","Highland Park","IL","Room 3173","2","60035",42.191525,-87.808297
"60035","Highland Park","IL","North Shore","not_available","60040",42.19992469300894,-87.80428223882338
"60041","Ingleside","IL","Lakes Animal Clinic - Antioch","Rt 173","60002",42.401128291722905,-88.13035171003881
"60044","Lake Bluff","IL","Captain James A. Lovell Federal Health Care Center","3001 Green Bay Rd","60064",42.30707930223246,-87.86079707423968
"60044","Lake Bluff","IL","Fhcc Cardiology","not_available","60064",42.307546,-87.860104
"60044","Lake Bluff","IL","Operating Room North Chicago VA","3001 N Green Bay Rd, North Chicago, IL 60088","60088",42.305901732447225,-87.86046867743458
"60044","Lake Bluff","IL","Fhcc Ent","not_available","60088",42.30551,-87.868334
"60044","Lake Bluff","IL","Naval Health Clinic Great Lakes","3001 6th St Ste A","60088",42.30632781982422,-87.83808135986328
"60045","Lake Forest","IL","Northwestern Lake Forest Hospital","1000 N Westmoreland Rd","60045",42.2581839815185,-87.86911352265979
"60045","Lake Forest","IL","Northwestern Lake Forest Hospital","1000 N Westmoreland Road, Main Entrance","60045",42.25635110374694,-87.86580089812732
"60045","Lake Forest","IL","Northwestern Medicine Lake Forest Hospital Emergency Department","1000 N Westmoreland Road, South Entrance","60045",42.256434294217755,-87.86599147233231
"60045","Lake Forest","IL","Shift Health Advisory, LLC","1025 W Everett Rd # 4","60045",42.221492767333984,-87.87211608886719
"60045","Lake Forest","IL","Ann & Robert H. Lurie Children's Hospital of Chicago at Northwestern Medicine Lake Forest Hospital","900 N Westmoreland Rd Ste 110","60045",42.254657471291836,-87.86617110185239
"60045","Lake Forest","IL","Senior Helpers","100 South Saunders Road","60045",42.23851509,-87.89898111
"60045","Lake Forest","IL","Lake Forest Maternity","not_available","60045",42.252278176622056,-87.86519632883397
"60045","Lake Forest","IL","Lake Forest Hospital - X-Ray","660 N Westmoreland Rd","60045",42.253139954988185,-87.86479370550693
"60046","Lake Villa","IL","Lindenhurst Emergency Center","1050 Red Oak Ln","60046",42.41381459538791,-88.05620580268534
"60046","Lake Villa","IL","Vista Medical Center Lindenhurst","not_available","60046",42.41442958748233,-88.05647673490394
"60047","Lake Zurich","IL","Mark Rothschild, MD","135 North Arlington Heights Road Ste 152","60089",42.15605163574219,-87.98412322998047
"60047","Lake Zurich","IL","Royal Oak Heath Group","22 N Royal Oak Dr","60061",42.226626,-87.99339599999999
"60047","Lake Zurich","IL","Rosalind Franklin Univ Health System","830 W End Ct","60061",42.241119,-87.976192
"60047","Lake Zurich","IL","NCH Medical Group","135 N. Arlington Heights Road Ste 152","60089",42.15605163574219,-87.98412322998047
"60047","Lake Zurich","IL","Northwest Community Healthcare at 135","135 North Arlington Heights Rd","60089",42.15605163574219,-87.98412322998047
"60047","Lake Zurich","IL","Laurence A. Jacobs, M.D.","135 N Arlington Heights Rd #195","60089",42.1560498,-87.9841227
"60048","Libertyville","IL","Advocate Condell Medical Center","801 S Milwaukee Ave","60048",42.27403084308573,-87.95735101641196
"60048","Libertyville","IL","Northwestern Medicine Immediate Care Vernon Hills","870 N Milwaukee Ave Fl 1","60061",42.24162025596319,-87.94551104307169
"60048","Libertyville","IL","Qamer Fatima Syeda, MD","870 N Milwaukee Ave","60061",42.24146841313135,-87.94553855919025
"60048","Libertyville","IL","ManorCare Health Services-Libertyville","1500 S Milwaukee Ave","60048",42.25802753,-87.9470312
"60050","Mchenry","IL","Northwestern Medicine McHenry Hospital","4201 W Medical Center Dr","60050",42.31761703494252,-88.27892258385661
"60050","Mchenry","IL","Mercy McHenry Medical Center","3922 Mercy Dr","60050",42.31714483027427,-88.27459174594316
"60050","Mchenry","IL","Elana Y. Beckerman, MD","2507 N Richmond Rd Ste B","60051",42.362962837773516,-88.27039713161508
"60050","Mchenry","IL","Centegra Rehab & Sports Medicine","not_available","60050",42.330748272325856,-88.27461366818659
"60050","Mchenry","IL","Northwestern Medicine Immediate Care McHenry","2507 N Richmond Rd","60051",42.36295767574197,-88.2703748345375
"60053","Morton Grove","IL","Doctors Immediate Care","not_available","60053",42.040606,-87.778927
"60056","Mount Prospect","IL","Hyim Baronofsky, DPM","199 West Rand Road","60056",42.082077,-87.9393779
"60056","Mount Prospect","IL","NCH Medical Group","199 W. Rand Road, Ste 203","60056",42.082077,-87.9393779
"60056","Mount Prospect","IL","Nayla Chaptini, MD","199 West Rand Road Ste 203","60056",42.082077,-87.9393779
"60056","Mount Prospect","IL","wadelochem","16 ave st","60001",42.0614977,-87.9210545
"60056","Mount Prospect","IL","Des Plaines Station","1330 Rand Rd","60016",42.05146026611328,-87.8886947631836
"60056","Mount Prospect","IL","Advocate Medical Group Immediate Care Center","77 Rand Rd","60016",42.06564877700845,-87.92042301804398
"60056","Mount Prospect","IL","Presence Nazarethville","300 N River Rd","60016",42.058353424072266,-87.89176940917969
"60062","Northbrook","IL","Kidnectivity","600 Waukegan Rd #132","60062",42.1417967,-87.828156
"60067","Palatine","IL","AMITA Health Immediate Care Center Palatine","231 E Northwest Hwy","60067",42.11856460571289,-88.03755187988281
"60068","Park Ridge","IL","Presence Health Care","1001 N Greenwood Ave","60068",42.02608176721894,-87.84023835601377
"60068","Park Ridge","IL","Advocate Children's Hospital","1675 Dempster St","60068",42.03900059126684,-87.84721289307149
"60068","Park Ridge","IL","Physicians Immediate Care","123 S Northwest Hwy","60068",42.009864807958145,-87.82693246954682
"60068","Park Ridge","IL","Shital B. Shah, M.D.","205 S Northwest Hwy","60068",42.00905990600586,-87.82530212402344
"60069","Lincolnshire","IL","Daniel Cacioppo, MD","1450 Busch Parkway Ste 103","60089",42.1729941,-87.9260104
"60069","Lincolnshire","IL","fhcc radiology","not_available","60015",42.169532775878906,-87.883544921875
"60069","Lincolnshire","IL","Condell Immediate Care Center","545 Half Day Rd","60089",42.196346999999996,-87.961876
"60069","Lincolnshire","IL","NCH Medical Group","1450 Busch Parkway Ste 100","60089",42.17151452832334,-87.92751073837279
"60071","Richmond","IL","Centegra Hospital","10007 N Main St","60071",42.470946999999995,-88.306985
"60074","Palatine","IL","Epic Urgent & Family Care","770 E Dundee Rd","60074",42.13957,-88.023754
"60076","Skokie","IL","NorthShore Skokie Hospital","9600 Gross Point Rd","60076",42.056437820246444,-87.74057403664081
"60076","Skokie","IL","Midwest Express Clinic","9735 Skokie Blvd","60077",42.05741,-87.745986
"60076","Skokie","IL","Ann & Robert H. Lurie Children's Hospital of Chicago Outpatient Center / Lurie Children's Primary Care: Town & Country Pediatrics","3722 W Touhy Ave","60076",42.013123,-87.721756
"60076","Skokie","IL","Animal 911","3735 Dempster St","60076",42.0407042333956,-87.72202607756182
"60076","Skokie","IL","NorthShore Hospital Radiology","not_available","60076",42.05612837898995,-87.74129521959374
"60076","Skokie","IL","NorthShore University HealthSystem Rehab Services - Skokie","9600 Gross Point Rd Ste 1800","60076",42.056373596191406,-87.73982238769531
"60076","Skokie","IL","Skokie Hospital Emergency Room","9500 Gross Point Rd","60077",42.056836361445555,-87.74051049399182
"60076","Skokie","IL","Therapy Plus Health Solutions","9711 Skokie Blvd Suite F","60077",42.0565624,-87.7448072
"60076","Skokie","IL","DePoli Plastic Surgery","4711 Golf Rd","60076",42.05461925760445,-87.74363177351776
"60077","Skokie","IL","Medex Ambulance 202","not_available","60077",42.01949,-87.768463
"60077","Skokie","IL","UltraMed Urgent Care","5020 Dempster Street","60077",42.041148,-87.751776
"60077","Skokie","IL","Warby Parker","4999 Old Orchard Ctr","60077",42.0615141,-87.7490376
"60077","Skokie","IL","NorthShore Immediate Care Center - Skokie At Old Orchard Woods","9977 Woods Dr","60077",42.061466,-87.76018
"60085","Waukegan","IL","Vista Medical Center - East","1324 N Sheridan Rd","60085",42.37799463356719,-87.83240495730175
"60085","Waukegan","IL","Vista Medical Center - West","2615 Washington St","60085",42.35821347193361,-87.86670681155613
"60085","Waukegan","IL","Family Waiting Room","not_available","60085",42.37804434352012,-87.83168369087603
"60090","Wheeling","IL","Wheeling Animal Hospital & Pet Resort","532 S Elmhurst Rd","60090",42.12941670739404,-87.93725536818016
"60091","Wilmette","IL","NorthShore University HealthSystem -- Evanston Hospital","2650 Ridge Ave","60201",42.0655769,-87.6848701
"60091","Wilmette","IL","Evanston Hospital Breast Center","not_available","60201",42.065699,-87.684087
"60091","Wilmette","IL","Northshore Evanston Woman’s Hospital","2650 Ridge Road","60201",42.066875,-87.684458
"60091","Wilmette","IL","Peterson Orthodontics Ltd","723 Ridge Rd","60091",42.0775151,-87.7227923
"60091","Wilmette","IL","northshore Evanston hospital loading dock","not_available","60091",42.06941223144531,-87.7001953125
"60091","Wilmette","IL","4 South Searle","Evanston Hospital","60201",42.064899020403274,-87.68453193101661
"60093","Winnetka","IL","Winnetka Animal Hospital","700 Oak St","60093",42.104323,-87.730711
"60098","Woodstock","IL","Hospice of Northeastern IL","527 W South St","60098",42.31241989135742,-88.45611572265625
"60098","Woodstock","IL","Northwest Community Counseling","1400 N Seminary Ave #L","60098",42.328998,-88.442228
"60099","Zion","IL","Midwestern Regional Medical Center","2520 Elisha Ave","60099",42.449494336667705,-87.82818496962014
"60101","Addison","IL","Adventist GlenOaks Hospital","701 Winthrop Ave","60139",41.91516526014511,-88.05738858253652
"60101","Addison","IL","Glen Oaks Emergency Department","not_available","60139",41.91534981822047,-88.05723060811307
"60102","Algonquin","IL","Immediate Care Center","not_available","60156",42.16762893783107,-88.33609314955578
"60102","Algonquin","IL","Injury Express Walk-in Injury Care","650 S Randall Rd","60102",42.1661398,-88.3363061
"60102","Algonquin","IL","Sherman Hospital Immediate Care","600 S Randall Rd","60102",42.1677295530952,-88.3360924346576
"60102","Algonquin","IL","OrthoIllinois","650 S. Randall Road","60102",42.17082,-88.31874
"60102","Algonquin","IL","MedExpress Urgent Care","226 S Randall Rd","60102",42.173021796898034,-88.33604921053751
"60103","Bartlett","IL","Bartlett Animal Hospital","1251 Humbracht Cir #E","60103",41.9775505,-88.2173919
"60103","Bartlett","IL","Bhargavi Nettem, MD","820 S Illinois Rte 59","60103",41.976872791961426,-88.20886307131309
"60104","Bellwood","IL","Renaissance of Hillside","4600 Frontage Rd","60162",41.87343771290061,-87.89715199920983
"60106","Bensenville","IL","Bridgeway","303 E Washington St","60106",41.94810104370117,-87.93492126464844
"60107","Streamwood","IL","St. Alexius Medical Center Radiology Department","not_available","60194",42.00592535552945,-88.14106943668624
"60107","Streamwood","IL","St. Alexius 2North","1555 Barrington Rd","60169",42.03128078765869,-88.14450484675203
"60107","Streamwood","IL","Physicians Immediate Care","7425 Barrington Rd","60133",42.006485999999995,-88.144177
"60107","Streamwood","IL","Cottage Hospital","not_available","61401",42.02048611111111,-88.18125
"60108","Bloomingdale","IL","Natalie Kostinsky, MD","235 S Gary Ave Ste 100","60108",41.944899810624435,-88.11919669177837
"60108","Bloomingdale","IL","DuPage Medical Group - Immediate Care Center","220 Springfield Dr","60108",41.94509509,-88.11167739
"60110","Carpentersville","IL","Phillip Burrer - Centegra Immediate Care Center-West Dundee","1925 Huntley Rd","60118",42.10762023925781,-88.30508422851562
"60112","Cortland","IL","Cortland Animal Hospital PC","13669 IL Route 38","60115",41.913217216666666,-88.6856839
"60115","Dekalb","IL","Kishwaukee Community Hospital","1 Kish Hospital Dr","60115",41.9613282,-88.7224268
"60115","Dekalb","IL","Grzegorz Blecharz, MD","1850 Gateway Dr Ste 100","60178",41.960501486404475,-88.71207215765475
"60115","Dekalb","IL","Northwestern Medicine Immediate Care Sycamore","1850 Gateway Dr","60178",41.9607053,-88.7123095
"60115","Dekalb","IL","Kpg Urgent Care","not_available","60178",41.960813,-88.712373
"60115","Dekalb","IL","NIU Psychiatric Services Center","Normal Rd","60115",41.93540717203703,-88.7708991759003
"60115","Dekalb","IL","BioLife Plasma Services","1455 County Farm Rd.","60115",41.95138467593062,-88.72156908362692
"60118","Dundee","IL","Advocate Sherman Hospital","1425 N Randall Rd","60123",42.07000424712726,-88.33163856604355
"60118","Dundee","IL","Sherman Pain Clinic","1425 N Randall Rd","not_available",42.070493,-88.330759
"60118","Dundee","IL","Cardiac Care","not_available","60123",42.069689,-88.330724
"60118","Dundee","IL","Sherman Hospital Mother Baby Floor","not_available","60174",42.06986167078032,-88.3328198580562
"60118","Dundee","IL","Sherman Moms Group","Randall Road","60123",42.06993784157943,-88.3316243334133
"60118","Dundee","IL","Griswold Home Care","707a Davis Road","60123",42.06683802,-88.29678783
"60118","Dundee","IL","Advocate Medical Group Immediate Care Center","979 W Main St","60118",42.0972338,-88.29461560000001
"60120","Elgin","IL","Suburban Surgical Center","not_available","60169",42.065328,-88.152695
"60123","Elgin","IL","AMITA Health Saint Joseph Hospital Elgin","77 N Airlite St","60123",42.0353469848633,-88.3258590698242
"60123","Elgin","IL","Center For Advanced Medicine& Surgery","Larkin Ave","not_available",42.03008,-88.315325
"60123","Elgin","IL","Avantara of Elgin","1950 Lakin Ave","60123",42.03324563474314,-88.32461951583751
"60124","Elgin","IL","Kindred at Home","2401 US-20","60140",42.08793952,-88.45886997
"60124","Elgin","IL","Sherman Immediate Care","2000 McDonald Rd","60177",41.985721897279205,-88.34518694633779
"60124","Elgin","IL","Kendall Road Equine Hospital","10N051 Kendall Rd","60124",42.01294708251953,-88.45289611816406
"60126","Elmhurst","IL","Elmhurst Animal Care Center","850 S Riverside Dr","60126",41.87281,-87.9604
"60126","Elmhurst","IL","Elmhurst Hospital - Main Campus","155 E Brush Hill Rd","60126",41.86357566197459,-87.93521085166233
"60126","Elmhurst","IL","4SWB","not_available","60126",41.86361962977649,-87.93585961656879
"60126","Elmhurst","IL","Elmhurst Memorial Hospital - Cancer Center","177 Brush Hill Road","not_available",41.863328621337615,-87.93396507093065
"60126","Elmhurst","IL","Elmhurst Urology Department","1200 S York St","60126",41.863962,-87.933354
"60126","Elmhurst","IL","Elmhurst Memorial - Berteau Campus","200 N Berteau Ave","60126",41.904606484411154,-87.931045824206
"60126","Elmhurst","IL","Radiology","Center For Health","60126",41.86442362265666,-87.93353531260871
"60126","Elmhurst","IL","Elmhurst Memorial Elmhurst Clinic - Butterfield Road","360 W Butterfield Rd Ste 230","60126",41.863895416259766,-87.95068359375
"60126","Elmhurst","IL","Novo Surgical Inc.","700 Commerce Dr Ste 500","60523",41.85154527760326,-87.9378220462799
"60126","Elmhurst","IL","Avenue Women's Center","580 North Michigan Street","60126",41.9160141,-87.93892609999999
"60126","Elmhurst","IL","Elmhurst Memorial Hospital 5SWB","155 Brush Hill Road","60126",41.86399841308594,-87.93657684326172
"60130","Forest Park","IL","Riveredge Hospital","8311 Roosevelt Rd","60130",41.86511512775073,-87.82864630634936
"60130","Forest Park","IL","OR 10 @ Macneal","not_available","60130",41.86091995239258,-87.8050765991211
"60130","Forest Park","IL","OR 10 ORTHO/NEURO!","3249 Oak Park Ave, Berwyn, IL 60402","60402",41.860113969418904,-87.80788296008245
"60130","Forest Park","IL","Rush Oak Park Hospital","not_available","60301",41.87336799963052,-87.8045222958531
"60131","Franklin Park","IL","Made Rite Bedding Company","11221 Melrose Ave","60131",41.936411,-87.905738
"60133","Hanover Park","IL","Alexian Brothers Medical Group","1515 E Lake St","60133",41.98414281071924,-88.1435537955128
"60134","Geneva","IL","Delnor Community Hospital","300 Randall Rd","60134",41.8865691,-88.3435953
"60134","Geneva","IL","Delnor Hospital - Room 242","not_available","60134",41.88690247159621,-88.34284768216625
"60134","Geneva","IL","Valley Animal Hospital","810 E State Street","60134",41.88674159503998,-88.29062982457162
"60134","Geneva","IL","Michealsen Health Center","831 N Batavia Ave","60510",41.86190677363595,-88.31569334224295
"60134","Geneva","IL","Advocate Medical Group Immediate Care Center","2500 W Fabyan Pkwy","60510",41.864025,-88.35041919999999
"60134","Geneva","IL","Delnor Community Hospital 2nd Floor Pediatric Wing","Randall Road","not_available",41.886819,-88.342997
"60137","Glen Ellyn","IL","Dr. Robert J Paresi, Jr. MD","3050 Finley Road Suite 300B","60515",41.831204,-88.027262
"60137","Glen Ellyn","IL","Rachel L. Rubin, MD","885 E Roosevelt Rd, Ste 100","60137",41.85899706729112,-88.04952774966813
"60137","Glen Ellyn","IL","Advocate Clinic at Walgreens","324 Roosevelt Rd","60137",41.85973,-88.075836
"60139","Glendale Heights","IL","Guido Grasso-Knight MD","630 E North Ave","60188",41.90163821282425,-88.09902995824812
"60140","Hampshire","IL","Steven A. Campau MD","12151 Regency Pkwy","60142",42.15148528131634,-88.45539477046259
"60141","Hines","IL","Loyola University Medical Center","2160 S 1st Ave","60153",41.85984022763442,-87.8349079885071
"60141","Hines","IL","Edward Hines, Jr. Veterans Hospital","5000 S 5th Ave","60141",41.85470029505312,-87.84149738575796
"60141","Hines","IL","Bldg 228, Hines VA Hospital","In VA Medical Complex","60155",41.859868880813366,-87.83960190442723
"60141","Hines","IL","Bldg 217, Hines VA Hospital","In VA Complex","60141",41.854693864098536,-87.8414069599435
"60141","Hines","IL","loyola ambulatory surgery center","not_available","60141",41.85585021972656,-87.83453369140625
"60141","Hines","IL","Hines VA Bldg 17 HR","not_available","60153",41.861244349726924,-87.84027170978342
"60141","Hines","IL","ER Waiting Room, Hines VA","Bldg. 200","60141",41.86032441114967,-87.84131526947021
"60141","Hines","IL","Loyola University Medical Center HTU/CCU","2169 S. First Ave.","60155",41.85784970851268,-87.83530621161789
"60141","Hines","IL","Pharmacy, Hines VA Hospital","Bldg 200","60141",41.86296124033902,-87.84122943878174
"60141","Hines","IL","LUMC Inpatient Pharmacy","2160 S 1st Avenue Maywood Il 60153","60141",41.86007425099151,-87.83475302217032
"60142","Huntley","IL","Northwestern Medicine - Huntley Hospital","10400 Haligus Rd","60142",42.17805480957031,-88.40003204345703
"60142","Huntley","IL","Centegra Immediate Care","10350 Haligus Rd","60142",42.17908808889274,-88.40088226824935
"60142","Huntley","IL","Anita S. Velagapudi, MD","10350 Haligus Rd Ste A","60142",42.17906889488326,-88.40087116172111
"60148","Lombard","IL","MedExpress Urgent Care","601 E Roosevelt Rd","60148",41.85924530029297,-88.00218200683594
"60148","Lombard","IL","Lexington Home Health Care","665 W North Ave","60148",41.9028666,-88.0357373
"60148","Lombard","IL","Doctors Immediate Care-Lombard","18W511 Roosevelt Rd","60148",41.860194,-87.99051899999999
"60148","Lombard","IL","MedPost Urgent Care","1401 Johnson Ferry Road","30062",41.8703086,-87.9934178
"60152","Marengo","IL","Franciscan Sisters","not_available","60152",42.196425,-88.674951
"60152","Marengo","IL","Alarm-Med, LLC","not_available","60193",42.26105710240101,-88.58570337295532
"60153","Maywood","IL","Loyola Hospital Maywood Campus","1st Avenue","not_available",41.8783045,-87.83396979999999
"60154","Westchester","IL","Westchester Health and Rehabilitation Center","2901 Wolf Rd","60154",41.836301,-87.899555
"60154","Westchester","IL","Ann & Robert H. Lurie Children's Hospital Rehabilitation Services","2301 Enterprise Dr","60154",41.84552193380424,-87.90841710706965
"60154","Westchester","IL","building 200","not_available","60526",41.83169174194336,-87.86668395996094
"60154","Westchester","IL","Drive Data Recovery","1 Westbrook Corporate Ctr #300","60154",41.84676742553711,-87.90533447265625
"60160","Melrose Park","IL","Loyola Gottlieb Memorial Hospital","701 W North Ave","60160",41.91085081197021,-87.8434121807817
"60160","Melrose Park","IL","OR 10 @ Gottlieb","not_available","60160",41.910518646240234,-87.84874725341797
"60160","Melrose Park","IL","Healthcare for Women: Lyndon Taylor, MD","1515 W North Ave Suite 308","60160",41.908806,-87.852968
"60169","Hoffman Estates","IL","AMITA Health Alexian Brothers Behavioral Health Hospital Hoffman Estates","1650 Moon Lake?Blvd.","60169",42.05409168734151,-88.13711168501906
"60169","Hoffman Estates","IL","Laurence A. Jacobs, M.D.","2260 W Higgins Rd Ste 200","60169",42.05747780000001,-88.13512469999999
"60169","Hoffman Estates","IL","st alexis hospital 3n","not_available","60195",42.04928912282351,-88.08032658167726
"60169","Hoffman Estates","IL","SAMC 4-W skill validation","not_available","60120",42.05291696261219,-88.14184612015029
"60169","Hoffman Estates","IL","Accuquest Hearing Center Inc.","2800 W Higgins Rd Ste 895","60169",42.0644658,-88.1487523
"60174","Saint Charles","IL","L. Michael Lee, DO","2900 Foxfield Rd Ste 100","60174",41.925572504683885,-88.27756091364898
"60175","Saint Charles","IL","Delnor Hospital 3rd floor EEG room","not_available","60175",41.90643,-88.34176
"60175","Saint Charles","IL","Advocate Clinic at Walgreens","3351 W Main St","60175",41.9176750183105,-88.3588638305664
"60181","Villa Park","IL","Oak Brook Healthcare and Rehabilitation","2013 Midwest Road","60523",41.848921000000004,-87.97158
"60181","Villa Park","IL","Loyola Surgical Center","224 Summit","not_available",41.85628927103306,-87.9735969645876
"60181","Villa Park","IL","Gina's Prince & Princess","not_available","60440",41.84705871212191,-87.98478126525879
"60181","Villa Park","IL","Advocate Clinic at Walgreens","200 E Roosevelt Rd","60181",41.861451,-87.972637
"60181","Villa Park","IL","Stryker Strong - Personal Training & Weight Loss Coach","822 S Harvard Ave","60181",41.874165999999995,-87.98403499999999
"60185","West Chicago","IL","Northwestern Medicine Central DuPage Hospital","25 N Winfield Rd","60190",41.873256,-88.1562162
"60185","West Chicago","IL","Room 315 Central Dupage Hospital","not_available","60190",41.873792,-88.15705
"60185","West Chicago","IL","Avenue Women's Center","440 E Roosevelt Road Suite 106","60185",41.8631904,-88.1992372
"60185","West Chicago","IL","Central DuPage Hospital - Bed Pavilion","25 North Winfield Rd","60190",41.873873870227186,-88.1573607409311
"60187","Wheaton","IL","DuPage County Office of Homeland Security and Emergency Management (OHSEM)","418 N County Farm Rd","60187",41.86640167236328,-88.14356994628906
"60187","Wheaton","IL","Marianjoy Rehabilitation Hospital And Clinics","26W171 Roosevelt Rd","60187",41.8535068,-88.1378873
"60187","Wheaton","IL","Marianjoy Admissions","not_available","60187",41.852065551929165,-88.13694754326208
"60187","Wheaton","IL","Margo McCollister, Inc.","111 W Wesley St","60187",41.866390228271484,-88.10717010498047
"60188","Carol Stream","IL","NIFAST/FICA Security House","not_available","60188",41.929346812645626,-88.10425893396943
"60189","Wheaton","IL","Shannon Naumann, MD","7 Blanchard Cir Ste 102","60189",41.83598792321912,-88.10356156946068
"60190","Winfield","IL","CDH Breast Health Center","Winfield Road","60190",41.87322775935362,-88.15516196182561
"60190","Winfield","IL","CDH NICU","25 N. Winfield Rd.","60190",41.887324456481224,-88.15617180015703
"60190","Winfield","IL","Diagnostic Imaging @ CDH","Cdh","60563",41.87373051789254,-88.15570022760025
"60190","Winfield","IL","northwestern memorial hospital cardiac ward","Huron street","not_available",41.85669944404035,-88.16100155473089
"60190","Winfield","IL","Ronald Mc Donald House Winfield","0n150 Windfield Rd","60185",41.876491,-88.172742
"60192","Hoffman Estates","IL","Chicago Institute of Plastic Surgery","1800 McDonough Rd Ste 209","60192",42.059887731720664,-88.21324110031128
"60193","Schaumburg","IL","Children's & Teens Med Ctr","1701 W Wise Rd","60193",42.0034371,-88.122104
"60193","Schaumburg","IL","Northwest Community Healthcare Immediate Care at Schaumburg","519 S Roselle Rd","60193",42.01726531982422,-88.07917022705078
"60193","Schaumburg","IL","Knollwood Hospital for Pets","2237 W Schaumburg Rd","60194",42.024331,-88.13692900000001
"60193","Schaumburg","IL","NCH Medical Group","455 S. Roselle Road Ste 226","60193",42.01836395263672,-88.07919311523438
"60201","Evanston","IL","Christopher P. Hogrefe, MD","1704 Maple Ave Ste 100","60201",42.0491134,-87.6851468
"60202","Evanston","IL","Presence Saint Francis Hospital","355 Ridge Ave","60202",42.02347001031924,-87.68040145011668
"60202","Evanston","IL","Dr Robert Gerber","800 Austin St Ste 508W","60202",42.02524398469688,-87.68559694290161
"60202","Evanston","IL","St Francis Cardiac Rehabilitation","not_available","60202",42.02397018946588,-87.68382910175829
"60202","Evanston","IL","Gina R. Wehrmann, M.D.","800 Austin St., East Tower, Suite 354","60202",42.024660265503606,-87.68389105796814
"60202","Evanston","IL","Evanston Va Clinic","1968 Dempster St","60202",42.0409049987793,-87.70075988769531
"60202","Evanston","IL","Omair A. Sheikh, M.D.","800 Austin St., East Tower, Suite 363","60202",42.02470202815132,-87.68368721008301
"60302","Oak Park","IL","West Suburban Medical Center","3 Erie Ct","60302",41.8913716,-87.77611429999999
"60302","Oak Park","IL","Rush Oak Park Hospital","520 S Maple Ave","60304",41.87852430749026,-87.80300796031952
"60302","Oak Park","IL","IP/OP Registration WSH","not_available","60302",41.89141205803763,-87.77612909772321
"60302","Oak Park","IL","Prairiie State Animal Hospital","Madison St","not_available",41.88035394571479,-87.80091170320688
"60305","River Forest","IL","West Suburban Medical Center River Forest Campus","not_available","60305",41.888246270520156,-87.8103816548276
"60305","River Forest","IL","Res Health","420 William St","60305",41.887508392333984,-87.81026458740234
"60305","River Forest","IL","Midwest Express Clinic","7343 Lake St","60305",41.8881977,-87.8081412
"60401","Beecher","IL","Metropolitan Eyecare Center","1140 Dixie Hwy","60401",41.351741790771484,-87.62165832519531
"60402","Berwyn","IL","Vanguard MacNeal Hospital","3249 Oak Park Ave","60402",41.83175533338763,-87.79222493142126
"60402","Berwyn","IL","The Betancourt Asylum","not_available","60402",41.84449085435025,-87.79543764720388
"60402","Berwyn","IL","MacNeal IMAGING CENTER","3345 Oak Park Ave","60402",41.83069610595703,-87.79244995117188
"60402","Berwyn","IL","Wound Care Center at Harlem and Ogden","3722 Harlem Ave","60546",41.8242352,-87.8030189
"60404","Shorewood","IL","Midwest Express Clinic","1039 Brook Forest Ave","60404",41.541867,-88.200618
"60404","Shorewood","IL","Emediate Cure Quick Care","not_available","60404",41.542,-88.200157
"60406","Blue Island","IL","Metro South Hospital","not_available","60406",41.658472710948075,-87.67777276711362
"60406","Blue Island","IL","MetroSouth Medical Center Emergency Department","12935 Gregory St","60406",41.658599853515625,-87.67809295654297
"60406","Blue Island","IL","Metro South Cardic Floor","12935 A Gregory","60406",41.657335,-87.677561
"60406","Blue Island","IL","Metrosouth Hospital","not_available","60469",41.65817933342857,-87.67753685224288
"60406","Blue Island","IL","Metro South Emergency Room","2227-2317 Union St","60406",41.65873924615868,-87.6774467182442
"60409","Calumet City","IL","Ingalls Urgent Care","1600 Torrence Ave","60409",41.58682475497963,-87.55955630299948
"60409","Calumet City","IL","Burnham terrace","not_available","60409",41.6268196105957,-87.56094360351562
"60409","Calumet City","IL","Doctors immediate care /walk-in clinic","400 River Oaks Dr","60409",41.599139,-87.53736500000001
"60410","Channahon","IL","Morris Hospital's Immediate Care - Ridge Road Campus","27240 W Saxony Dr Ste 101","60410",41.42028559515827,-88.26947440890058
"60411","Chicago Heights","IL","st margaret mercy outpatient center","Route 30","46311",41.49208894907035,-87.52524311204199
"60411","Chicago Heights","IL","Glenwood Health & Rehab Center","19330 S Cottage Grove Ave","60425",41.53950762444634,-87.5979591596557
"60411","Chicago Heights","IL","Franciscan St. James Health","1423 Chicago Rd","60411",41.50540138670389,-87.63999638982028
"60411","Chicago Heights","IL","St James Chicago Hts ER","not_available","60411",41.505600837938736,-87.63995825695793
"60411","Chicago Heights","IL","St. James Hospital Professional Pharmacy","30 E 15th St","60411",41.503822326660156,-87.63915252685547
"60411","Chicago Heights","IL","Fransiscan Health Dyer","Joliet Street","46311",41.492878,-87.525154
"60415","Chicago Ridge","IL","Morticians Suppliers","10948 S. Oak Avenue","60415",41.692575,-87.775583
"60416","Coal City","IL","Morris Hospital Diamond-Coal City Campus","1450 E Division St","60416",41.2887878,-88.2630081
"60417","Crete","IL","Hotel St James","not_available","60417",41.42954047,-87.64230312
"60419","Dolton","IL","Riverdale Animal Hospital","14206 S Indiana Ave","60827",41.636815999999996,-87.617494
"60422","Flossmoor","IL","Franciscan St. James Health","20201 Crawford Ave","60461",41.52296423470477,-87.71141902736596
"60422","Flossmoor","IL","Ingalls Family Care","19550 Governors Hwy","60422",41.53460790223353,-87.69660994087982
"60422","Flossmoor","IL","St. James Olympia Fields Hospital Emergency Room","not_available","60461",41.522543998467334,-87.70999494427662
"60422","Flossmoor","IL","St. James Hospital Cancer Institute Building","3900 Building","60461",41.52221667313832,-87.71221283800406
"60422","Flossmoor","IL","Southland Eye Associates PC","19950 S. Governors Hwy. Suite 201","60461",41.52756642125277,-87.70008286026197
"60423","Frankfort","IL","pain institute","10181 Lincoln Hwy, Frankfort, IL 60423","60423",41.50616694493175,-87.86292314529419
"60423","Frankfort","IL","Physicians Immediate Care","21035 S La Grange Rd","60423",41.5072612,-87.8489324
"60423","Frankfort","IL","Pain Management Institute","10181 W Lincoln Hwy","60423",41.50214949134388,-87.86264419555664
"60426","Harvey","IL","Ingalls Memorial Hospital","1 Ingalls Dr","60426",41.60745616797156,-87.65961819559213
"60426","Harvey","IL","Ingall's North Building","15400 Page Ave","60426",41.60974,-87.659898
"60428","Markham","IL","Northwestern Memorial Hospital - Transplant","not_available","60426",41.60148953362359,-87.70898939949578
"60429","Hazel Crest","IL","South Suburban Hospital","not_available","60429",41.56648251717733,-87.69621367381548
"60429","Hazel Crest","IL","Advocate South Suburban Hospital (Ambulatory Surgery Center)","17800 Kedzie Ave, Hazel Crest, IL 60429","60429",41.56631006477859,-87.69705587552049
"60430","Homewood","IL","On Dmed Urgent Care - Homewood (On Dmed Urgent Care)","17960 S Halsted St.","60430",41.5634987,-87.63631629999999
"60431","Joliet","IL","Silver Cross Urgent Care","1051 Essington Rd Ste 100","60435",41.5410867,-88.1622641
"60431","Joliet","IL","Physicians Immediate Care","6050 Caton Farm Rd","60586",41.564217664790476,-88.23078978291026
"60431","Joliet","IL","Joha","not_available","60431",41.52177165393685,-88.16994996142112
"60431","Joliet","IL","Physicians Immediate Care","750 Essington Rd","60435",41.535849,-88.159749
"60431","Joliet","IL","Silver Cross West","1050 Essington Rd","60435",41.541081,-88.162255
"60431","Joliet","IL","Plainfield Immediate Care","not_available","60544",41.564014,-88.253255
"60432","Joliet","IL","Department Of pain in the But children","not_available","60452",41.527914863369894,-88.08182959284258
"60432","Joliet","IL","Silver Cross Hospital - New Lenox","not_available","60433",41.52362783941451,-88.02236683081055
"60432","Joliet","IL","Emergency Care Rm 15","not_available","60432",41.53234607293507,-88.05055642933347
"60432","Joliet","IL","Silver Cross Hospital","1200 Maple Rd","60432",41.53679595547549,-88.05088111177882
"60432","Joliet","IL","Drug & Alcohol Rehab Joliet","511 E Cass St","60432",41.528163,-88.069066
"60435","Joliet","IL","Presence Saint Joseph Medical Center","333 Madison St","60435",41.52773640736462,-88.13600420951843
"60435","Joliet","IL","surgical waiting room","not_available","60435",41.527950286865234,-88.13529968261719
"60435","Joliet","IL","Physicians Immediate Care","800 N Larkin Ave","60435",41.53772254315766,-88.124806588914
"60435","Joliet","IL","Presence Surgery Center of Joliet","301 Madison St","60435",41.52787399291992,-88.13549041748047
"60435","Joliet","IL","National Medical Testing Center, Confidential STD testing in Joliet,IL 60435","210 N Hammes Ave Ste 111","60435",41.52614974975586,-88.13123321533203
"60438","Lansing","IL","Foot Health Institute","3224 Ridge Rd","60438",41.56529,-87.53854
"60439","Lemont","IL","Timberline Knolls","40 Timberline Dr","60439",41.671020724206016,-88.01194522911315
"60439","Lemont","IL","Bolingbrook Dermatology Liang Tehming MD","580 E Boughton Rd Ste A","60440",41.7201075,-88.0463568
"60439","Lemont","IL","Sillver Cross Health Center","not_available","60467",41.63357925415039,-87.91764068603516
"60440","Bolingbrook","IL","Adventist Bolingbrook Hospital","500 Remington Blvd","60440",41.68059440397076,-88.0845062574644
"60440","Bolingbrook","IL","Edward-Elmhurst Immediate Care - Bolingbrook","130 N Weber Rd","60440",41.69836369716171,-88.12288059741621
"60440","Bolingbrook","IL","BioLife Plasma Services","161 Lily Cache Lane","60440",41.6905192,-88.071437
"60440","Bolingbrook","IL","Bolingbrook Hospital","not_available","60446",41.66617798148436,-88.1045021501397
"60440","Bolingbrook","IL","Adventist Bolingbrook Hospital - Women's Imaging Center - Suite 235","396 Remington Blvd","60440",41.68043451953776,-88.08527490799507
"60440","Bolingbrook","IL","DuPage Medical Group - Express Care","145 North Weber Road","60490",41.6987190246582,-88.12457275390625
"60440","Bolingbrook","IL","Pioneer Physicians","148 S Bolingbrook Dr","60440",41.6969765,-88.0667709
"60441","Lockport","IL","Charles Friedl, DO","1206 E 9th St","60441",41.598605,-88.031988
"60441","Lockport","IL","Paul Freier","500 S Weber Rd","60446",41.60485362611029,-88.12434196472168
"60443","Matteson","IL","Advocate Medical Group Immediate Care Center","4001 Vollmer Rd","60461",41.527278900146484,-87.71415710449219
"60443","Matteson","IL","South Suburban Hospital","not_available","60430",41.5064631566616,-87.69851405072411
"60445","Midlothian","IL","Physicians Immediate Care","4800 W 129th St","60803",41.657973,-87.73975
"60445","Midlothian","IL","Crestwood Care Center","4800-4898 S. 143rd St.","60445",41.63302947918335,-87.73712662357065
"60445","Midlothian","IL","Sector 33","not_available","60445",41.62773980601814,-87.73750166866702
"60445","Midlothian","IL","WellNow Urgent Care","13448 Cicero Ave","60418",41.6478996,-87.7387084
"60448","Mokena","IL","Physicians Immediate Care","621 E Lincoln Hwy","60451",41.512890999999996,-87.951986
"60448","Mokena","IL","Silver Cross Hospital Cafeteria","not_available","60451",41.53335189819336,-87.9625015258789
"60448","Mokena","IL","Silver Cross Health Center","1870 Cedar","not_available",41.51254706666667,-87.96370796666666
"60450","Morris","IL","Morris Hospital And Healthcare Centers","150 W High St","60450",41.36945419414928,-88.42642776494293
"60451","New Lenox","IL","Silver Cross Hospital","1890 Silver Cross Blvd","60451",41.54480863139106,-87.98392714226974
"60451","New Lenox","IL","Ann & Robert H. Lurie Children's Hospital Outpatient Center","1870 Silver Cross Blvd","60451",41.543795,-87.98458000000001
"60451","New Lenox","IL","Rehabilitation Institute of Chicago at Silver Cross","1900 Silver Cross Blvd","60451",41.544673919677734,-87.98344421386719
"60451","New Lenox","IL","Room #5107","1809 Silver Cross  Blvd","60451",41.54458236694336,-87.98353576660156
"60452","Oak Forest","IL","171 & Harlem (Tinley)","17101-17199 71st Ave","60477",41.58060970509623,-87.79340631538085
"60452","Oak Forest","IL","Oak Forest Hospital","15900 S. Cicero Ave.","60452",41.59771259557036,-87.73301534888118
"60452","Oak Forest","IL","oak forest hospital","15900&cicero","60452",41.60034487997314,-87.73291110992432
"60452","Oak Forest","IL","Weil Foot & Ankle Institute","16735 Oak Park Ave","60477",41.58682,-87.7839599
"60453","Oak Lawn","IL","Advocate Christ Medical Center","4440 W 95th St","60453",41.721269296460676,-87.73238540134034
"60453","Oak Lawn","IL","advocate Christ oupatient lab","not_available","60453",41.72035848880654,-87.73214976985838
"60453","Oak Lawn","IL","Little Company Of Mary Urgent Care","6700 W 95th St","60453",41.71984183184606,-87.78723492393323
"60453","Oak Lawn","IL","Mc Kostner","9300-9406 S Kostner Ave","60453",41.72357,-87.73128896
"60453","Oak Lawn","IL","Advocate Christ Medical Center - Fast Track","9532 S Kolin Ave","60453",41.719025,-87.730117
"60453","Oak Lawn","IL","Christ Hospital Outpatient Pavilion","4400 W 95th St","60453",41.72796797610663,-87.73961724954196
"60453","Oak Lawn","IL","Suburban Animal Hospital","10929 S Cicero Ave","60453",41.693575,-87.73938299999999
"60453","Oak Lawn","IL","Advocate Christ Hospital","4400 W 95th St","not_available",41.720814000000004,-87.731741
"60455","Bridgeview","IL","Work At The Wack Shack","not_available","60455",41.76173611111111,-87.79590277777777
"60459","Burbank","IL","DayOne Health South Side","7456 S State Rd Ste 300","60638",41.75691223144531,-87.74418640136719
"60462","Orland Park","IL","24hr Urgent Care Dr. Alzien","not_available","60462",41.622452438208434,-87.85143814245617
"60462","Orland Park","IL","Advanced Urgent Care","10 Orland Square Dr Ste A1","60462",41.6225852,-87.8516006
"60462","Orland Park","IL","Orland Park plastic surgery","8760 W 159th St Ste 204","60462",41.60231018066406,-87.83296203613281
"60462","Orland Park","IL","Palos Urgent Care","15300 West Ave","60462",41.61053466796875,-87.86555480957031
"60463","Palos Heights","IL","Palos Community Hospital","12251 S 80th Ave","60463",41.66879740965064,-87.81224184846805
"60463","Palos Heights","IL","ManorCare Health Services-Palos Heights East","7850 W College Dr","60463",41.675793,-87.812069
"60463","Palos Heights","IL","the solarium","not_available","60463",41.66907150582447,-87.81380672097352
"60463","Palos Heights","IL","OSF Medical Group - Orthopedic Surgery","12450 S. Harlem Ave","60463",41.66478,-87.79696
"60463","Palos Heights","IL","Great Lakes Caring","11753","not_available",41.677803,-87.81263
"60463","Palos Heights","IL","Palos Hospital Labor And Delivery","not_available","60464",41.672588623943035,-87.81859220548016
"60464","Palos Park","IL","Mediico","11650 S Walnutridge Drive, Illinois 60464","60464",41.68084512337818,-87.82275438308716
"60466","Park Forest","IL","Elisabeth Ludamen Center","114 N. Orchard","60466",41.498017150347174,-87.6880844223895
"60477","Tinley Park","IL","Tinley Park Hospital","not_available","60477",41.55862891484076,-87.79453964653912
"60491","Homer Glen","IL","Loyola Immediate Care","not_available","60441",41.60184628392812,-87.95809720287637
"60502","Aurora","IL","Physicians Immediate Care","2853 Kirk Rd","60502",41.8138864,-88.2790605
"60502","Aurora","IL","Bhargavi Nettem, MD","2635 Church Rd Ste 101","60502",41.80733215893097,-88.28299633497028
"60502","Aurora","IL","Fox Valley Urgent Care","3535 E New York St, Aurora, IL 60502","60502",41.759759,-88.22948199999999
"60503","Aurora","IL","Rush Convenient Care","2340 S Eola Rd","60503",41.712091,-88.253398
"60504","Aurora","IL","Rush-Copley Medical Center","2000 Ogden Ave","60504",41.72861169999999,-88.2708374
"60504","Aurora","IL","Copley ER","not_available","60503",41.72839215329596,-88.27075545795476
"60504","Aurora","IL","Dreyer Rush Copley","not_available","60504",41.7295654855392,-88.2687939852892
"60504","Aurora","IL","Doctors Immediate Care- Naperville","1120 E Ogden Ave","60563",41.73144318605385,-88.20687198193824
"60504","Aurora","IL","Weil Foot & Ankle Institute","2020 Ogden Ave #400","60504",41.7285009,-88.2675203
"60504","Aurora","IL","Avenue Women's Center","1301 S Route 59 Ste 103","60564",41.731466,-88.2068659
"60504","Aurora","IL","Rush Convenient Care","444 N Eola Rd","60502",41.760834,-88.244353
"60505","Aurora","IL","Presence Mercy Medical Center","1325 N Highland Ave","60506",41.785622740643426,-88.32579725194623
"60505","Aurora","IL","Drug & Alcohol Rehab Aurora","41 W New York St","60506",41.759825,-88.315249
"60505","Aurora","IL","Aurora Urgent Care NOW","1177 N Highland Ave Ste 201","60506",41.78120803833008,-88.32914733886719
"60505","Aurora","IL","RNS Physical Therapy / Nuestra Clinica","645 E New York St","60505",41.7540888,-88.3017184
"60505","Aurora","IL","Provena Massage Therapy","not_available","60506",41.786729062332476,-88.32244805819046
"60506","Aurora","IL","Rush Convenient Care","472 N. Route 47 (Sugar Grove Parkway)","60554",41.77405,-88.44365
"60506","Aurora","IL","The Skin You're In Inc.","2424 West New Indian Trail Suite A","60506",41.781,-88.34784370000001
"60506","Aurora","IL","Rush Convenient Care","1901 West Galena Boulevard","60506",41.76582336425781,-88.36333465576172
"60506","Aurora","IL","Advocate Medical Group Immediate Care Center","2285 Sequoia Dr","60506",41.793552000000005,-88.368062
"60506","Aurora","IL","Urgent care","New York Ave, Aurora, IL 60502","60502",41.74187760051304,-88.3644323495479
"60506","Aurora","IL","Countryside Care Center","2330 W Galena Blvd","60506",41.76475282937679,-88.37402199743038
"60506","Aurora","IL","Rush Copley Medical Center","1901 W Galena Blvd","60506",41.76582336425781,-88.36333465576172
"60515","Downers Grove","IL","DuPage Medical Center","430 Warrenville Rd, Lisle, IL 60532","60532",41.80896722281766,-88.0588370344174
"60515","Downers Grove","IL","Good Samaritan Hospital","3815 Highland Ave","60515",41.818763611384334,-88.00842946844476
"60515","Downers Grove","IL","Midwest Center for Day Surgery","3811 Highland Ave","60515",41.818377000000005,-88.00816800000001
"60515","Downers Grove","IL","Pharmacy","not_available","60516",41.78379,-88.051557
"60515","Downers Grove","IL","Advocate Good Samaritan Hospitol","4924 Forest Ave","60515",41.79732894897461,-88.01264190673828
"60515","Downers Grove","IL","DuPage Medical Group - Immediate Care Center","430 Warrenville Road","60532",41.80937,-88.058867
"60515","Downers Grove","IL","Good Samaritan Mammography Breast Center","3825 Highland Ave","60515",41.817553728363066,-88.00893918638332
"60515","Downers Grove","IL","Good Samaritan Outpatient Lab","not_available","60515",41.817671012832946,-88.00907300501473
"60516","Downers Grove","IL","Marionjoy","not_available","60517",41.74469708,-88.04340072
"60516","Downers Grove","IL","MedExpress Urgent Care","1560 75th St","60516",41.7515398,-88.0209342
"60516","Downers Grove","IL","Sara Croffoot American Family Insurance","2363 63rd St","60517",41.77227827416798,-88.0388846397318
"60516","Downers Grove","IL","Advocate urgent care","6840 Main St","60516",41.76302719116211,-88.0091323852539
"60521","Hinsdale","IL","Adventist Hinsdale Hospital","120 N Oak St","60521",41.805476024663655,-87.92071601593089
"60521","Hinsdale","IL","Edward-Elmhurst Health Center - Hinsdale","8 Salt Creek Ln","60521",41.818355560302734,-87.92207336425781
"60521","Hinsdale","IL","Adventist ITP","not_available","60559",41.81342,-87.952214
"60521","Hinsdale","IL","Lobby","not_available","60521",41.80557,-87.92087
"60521","Hinsdale","IL","Maged Attia Saad MD (Healing Medical Group)","201 East Ogden Avenue suite 50","60521",41.817296,-87.925525
"60521","Hinsdale","IL","Vein Management Clinic","950 N. York Rd.","60521",41.81784204,-87.92742745
"60521","Hinsdale","IL","Hinsdale Foot & Ankle Specialist","23 Chicago Ave","60521",41.80393,-87.93049
"60521","Hinsdale","IL","Georges M. Haidar MD","908 N Elm St","60521",41.81691297561494,-87.92183518409729
"60521","Hinsdale","IL","Weller Dental","920 N. York Road","60521",41.8171074,-87.9265946
"60521","Hinsdale","IL","Kouris M.D. Cosmetic Plastic Surgery","718 N York Rd","60521",41.8150009,-87.9256858
"60523","Oak Brook","IL","Capital Hospice and Palliative Care","900 Jorie Blvd Ste 20","60523",41.844120025634766,-87.9416275024414
"60525","La Grange","IL","Adventist La Grange Memorial Hospital","5101 Willow Springs Rd","60525",41.79678047646809,-87.88646051839925
"60525","La Grange","IL","LaGange Radiation Oncology","1325 Memorial Dr","60525",41.797641,-87.887553
"60525","La Grange","IL","LaGrange Hospital","not_available","60525",41.80226699033545,-87.87253128508297
"60525","La Grange","IL","MacNeal Immediate Care-La Grange","125 N La Grange Rd","60525",41.8189363,-87.86966810000001
"60525","La Grange","IL","Farney Healing Arts Center","512 W. Burlington Ave Suite 104","60525",41.814022064208984,-87.87667846679688
"60525","La Grange","IL","LaGrange Medical Center and Urgent Care","6170 Joliet Rd","60525",41.77673599,-87.86967021
"60525","La Grange","IL","Brick by Brick Inspections, Inc.","not_available","60558",41.80866059417414,-87.90094077587126
"60525","La Grange","IL","Adventist LaGrange Memorial Hospital Cancer Center","5103 willow springs rd","60558",41.793802117449424,-87.88954670787523
"60527","Willowbrook","IL","AFC Urgent Care Willowbrook","980 Plainfield Rd","60527",41.761603,-87.9436404
"60527","Willowbrook","IL","Concentra Immediate Care","545 Plainfield Rd, Willowbrook, IL 60527","60527",41.761811709872426,-87.93698206743717
"60527","Willowbrook","IL","RIC DayRehabCenter and Outpatient Center","6705 Kingery Hwy","60527",41.766431,-87.94406
"60527","Willowbrook","IL","Beverly A. Simpson, Inc.","333 Lakewood Cir","60527",41.734942,-87.92355400000001
"60527","Willowbrook","IL","ALCO Sales & Service Co","6851 High Grove Blvd","60527",41.764499981135394,-87.9278576415253
"60538","Montgomery","IL","Physicians Immediate Care","2322 U.S. 34","60543",41.7056071,-88.3038559
"60538","Montgomery","IL","Cdh Urgent Care Raymond Dr.","not_available","60543",41.701608,-88.309338
"60538","Montgomery","IL","DayOne Health South West","100 5th St","60543",41.71732711791992,-88.31305694580078
"60540","Naperville","IL","Edward Hospital Emergency Room","801 S Washington St","60540",41.760445840831046,-88.15006417199076
"60540","Naperville","IL","Linden Oaks Behavioral Health - Main Campus","852 S West St","60540",41.75944886162315,-88.15655455206779
"60540","Naperville","IL","Kurts Room","not_available","60540",41.761078,-88.150089
"60540","Naperville","IL","Elana Y. Beckerman, MD","636 Raymond Dr Ste 107","60563",41.781589413515896,-88.1817504588546
"60540","Naperville","IL","Weiss Memorial hospital","marine drive","60640",41.78664393547944,-88.12024158106598
"60540","Naperville","IL","First Care Ambulance","1707 Quincy Ave","60540",41.775523,-88.191194
"60540","Naperville","IL","Edward Rehab Services","120 Osler","60540",41.759918212890625,-88.15156555175781
"60543","Oswego","IL","Rush Convenient Care","4789 State Route 71","60543",41.67583,-88.35609
"60543","Oswego","IL","Edward-Elmhurst Immediate Care - Oswego","6701 U.S. 34","60543",41.68233672,-88.38422876
"60544","Plainfield","IL","Edwards Healthcare ER","127th Street","60585",41.65259365091956,-88.21711769040003
"60544","Plainfield","IL","Edward Plainfield","24600 W 127th St","60585",41.652540111184926,-88.21707977859121
"60545","Plano","IL","Rush Copley Walk In Care","1100 W Veterans Pkwy Ste 200","60560",41.65983581542969,-88.46865844726562
"60548","Sandwich","IL","Northwestern Medicine Valley West Hospital Emergency Department","1302 N Main St","60548",41.65739297342685,-88.62074375152582
"60548","Sandwich","IL","Valley West Community Hospital","11 E Pleasant Ave","60548",41.65758272389952,-88.62117610505129
"60548","Sandwich","IL","Valley West Community Hospital","2500-2998 E Sandwich Rd","60548",41.65122773057127,-88.63237781247503
"60550","Shabbona","IL","Shabbona Healthcare Center","not_available","60550",41.76762,-88.87965
"60555","Warrenville","IL","DuPage Orthopaedic Surgery Center","not_available","60555",41.81183988469447,-88.16251133939018
"60555","Warrenville","IL","Edward Hospital Room 323","801 S Washington St, Naperville, IL 60540","60540",41.806586135667615,-88.16206364840984
"60559","Westmont","IL","Salt Creek Surgery Center","530 N Cass Ave","60559",41.809181,-87.976354
"60560","Yorkville","IL","Advocate Clinic at Walgreens","100 W Veterans Pkwy","60560",41.6571594,-88.4437954
"60560","Yorkville","IL","Heartland Blood Center","728 E Veterans Pkwy","60560",41.655984000000004,-88.430945
"60563","Naperville","IL","Edward-Elmhurst Health Center - Naperville","1804 N Naper Blvd","60563",41.80311842739231,-88.11940670013428
"60564","Naperville","IL","Thomas Fry, DO","4003 St. Route 59","60564",41.6951789855957,-88.20539855957031
"60565","Naperville","IL","Home Mobility Solutions Inc","811 Bakewell Ln","60565",41.743163,-88.113272
"60565","Naperville","IL","Omayurvedic Center","112 Cedarbrook Rd","60565",41.731903,-88.137502
"60585","Plainfield","IL","St. Vincent Neighborhood Hospital - Plainfield","2412 E Main St","46168",41.66366842123068,-88.20596694946289
"60601","Chicago","IL","aréa verde do hospital de trauma","not_available","60601",41.88476507773583,-87.6207084125074
"60603","Chicago","IL","Michigan immediate care medical facility","104 S Michigan Ave","60603",41.880699157714844,-87.62458038330078
"60605","Chicago","IL","The oaks","830 S Park Terrace","not_available",41.871815000000005,-87.630127
"60605","Chicago","IL","South Loop Urgent Care","71 E 16th St","60616",41.863113,-87.624515
"60605","Chicago","IL","Mercy Hospital & Medical Center","47 W Polk St","60605",41.87233357698321,-87.62939807675622
"60605","Chicago","IL","Rakesh R. Patel, MD","1135 S Delano Ct, Ste B201","60605",41.86816201125464,-87.6321661098567
"60605","Chicago","IL","Well Ahead Health Solutions","1136 S. Delano Court","60605",41.8681851,-87.6331811
"60605","Chicago","IL","European Foot and Ankle Clinic","1440 S Michigan Ave","60605",41.863113,-87.624515
"60606","Chicago","IL","Drug Rehab Chicago IL","150 S Wacker Dr","60606",41.8799781582065,-87.63755321502686
"60607","Chicago","IL","Rush University Medical Center","1620 W Harrison St","60612",41.87479168316142,-87.66746371361069
"60607","Chicago","IL","Johnston R. Bowman Health Center","710 S Paulina St","60612",41.87243107672181,-87.66928862698364
"60607","Chicago","IL","Union Health Service Medical Center","1634 W Polk St","60612",41.87191919646925,-87.66782155464419
"60607","Chicago","IL","Rush University Medical Center Cafeteria","600 S Paulina St","60612",41.873492906019806,-87.66911448930979
"60607","Chicago","IL","RUMC Emergency Room","not_available","60612",41.87486250278313,-87.66821900283598
"60607","Chicago","IL","Northwestern Medicine Immediate Care West Loop","171 N Aberdeen St Ste 100","60607",41.885147,-87.654148
"60607","Chicago","IL","Herb Family Acute & Critical Care Tower","not_available","60607",41.87383240766817,-87.66741061925869
"60607","Chicago","IL","The NEW and IMPROVED Rush CCU/CSU","10 West Tower","60612",41.87455407994161,-87.66762606759998
"60608","Chicago","IL","Mt. Sinai Hospital","1500 S California Ave","60608",41.860531825934586,-87.69515403441373
"60608","Chicago","IL","Schwab Rehabilitation Hospital","1401 S California Ave","60608",41.86224839986352,-87.69537145650973
"60608","Chicago","IL","Mt. Sinai Cardiac Catheterization Lab","not_available","60608",41.860685,-87.69478
"60608","Chicago","IL","Rush University Hospital OBGYN/GYNO","1725 W Harrison St Ste 351","60612",41.85698699951172,-87.64444732666016
"60608","Chicago","IL","University of Illinois Urgent Care","1220 S Wood St","60608",41.866417,-87.671942
"60608","Chicago","IL","Sinai NICU","California Avenue at 15th Street","60608",41.86121978502214,-87.69359553003541
"60608","Chicago","IL","Saint Anthony Hospital","2875 W 19th St","60623",41.855291118348454,-87.69873479582063
"60609","Chicago","IL","St. Marys Hospital","not_available","60609",41.809236,-87.643186
"60609","Chicago","IL","Brighton Park Animal Hospital","3779 S Archer Ave","60632",41.82481002807617,-87.68665313720703
"60610","Chicago","IL","Ann & Robert H. Lurie Children's Hospital of Chicago","225 E Chicago Ave Fl 2","60611",41.8964884257121,-87.6215136051178
"60610","Chicago","IL","MedSpring Urgent Care","219 W Chicago Ave","60654",41.896393,-87.635111
"60610","Chicago","IL","Fast Care Center at Weil Foot & Ankle Institute","1565 N LaSalle Dr","60610",41.91100740650196,-87.63316223222841
"60610","Chicago","IL","Ann And Robert H. Lurie Children's Hospital Of Chicago Family Life Center","225 E Chicago Ave","60611",41.896759033203125,-87.62142181396484
"60610","Chicago","IL","Physicians Immediate Care","121 West North Avenue","60610",41.9109531,-87.6326353
"60610","Chicago","IL","Northwestern Radiology","201 E Huron St","60611",41.89719179996161,-87.622212415474
"60610","Chicago","IL","Lurie CICU","not_available","60611",41.897099,-87.625225
"60610","Chicago","IL","Lurie NICU","not_available","60610",41.89743460741404,-87.62515279118153
"60610","Chicago","IL","Senior Helpers","1165 North Clark Street","60610",41.90364697,-87.631166
"60610","Chicago","IL","DayOne Health Downtown","60 E Delaware Pl Fl 15","60611",41.8992919921875,-87.62550354003906
"60610","Chicago","IL","SharpeVision Modern LASIK","145 W North Ave","60610",41.91096,-87.63349
"60610","Chicago","IL","14S Prentice","250 E Superior St","60611",41.896472,-87.62085
"60611","Chicago","IL","Northwestern Memorial Hospital","251 E Huron St","60611",41.8943406,-87.6216388
"60611","Chicago","IL","Northwestern Memorial Hospital Feinberg Pavillion","251 E Huron St Fl 7","60611",41.89450286672721,-87.62128293514246
"60611","Chicago","IL","Galter Pavilion - Northwestern Memorial Hospital","676 N Saint Clair St Ste 2025","60611",41.89458693481014,-87.6231747754631
"60611","Chicago","IL","Shirley Ryan AbilityLab","355 E Erie Street","60611",41.8938889737462,-87.61842762102326
"60611","Chicago","IL","Lynn Sage Comprehensive Breast Center","250 E Superior St, Fourth Floor, Suite 420","60611",41.896280139432704,-87.62104145767205
"60611","Chicago","IL","Custom Eyes 20/20 - River North","607 N. State St.","60654",41.8927297,-87.6279158
"60611","Chicago","IL","Galter Pavilion, 8th Floor","675 N Saint Clair St","60611",41.8960752160317,-87.6220919042389
"60611","Chicago","IL","Olson Pavilion","710 N Fairbanks Ct","60611",41.895452922538105,-87.62032612254747
"60611","Chicago","IL","Sonia C. Mehta, MD","635 N Fairbanks Ct","60611",41.893714,-87.620042
"60611","Chicago","IL","North Shore Imaging Center","680 N Lake Shore Dr","60611",41.89462,-87.616064
"60612","Chicago","IL","John H. Stroger Hospital","1901 W Harrison St","60612",41.8730691538496,-87.6745854057677
"60612","Chicago","IL","Jesse Brown VA Medical Center","820 S Damen Ave","60612",41.870277164124545,-87.67795090610399
"60612","Chicago","IL","University of Illinois at Chicago Medical Center","1801 W Taylor St","60612",41.86930016244098,-87.67163858322965
"60612","Chicago","IL","University of Illinois Hospital & Health Sciences System","1747 W Roosevelt Rd","60608",41.86969664668375,-87.66982555389404
"60612","Chicago","IL","Rush University Medical Center - Jelke Bldg","1750 W Harrison St","60612",41.87458182925617,-87.67003008256447
"60612","Chicago","IL","University of Illinois Hospital & Health Sciences System","1740 W Taylor St","60612",41.86949152490934,-87.67024696187079
"60612","Chicago","IL","Nuclear Medicine","harrison","60612",41.8721343,-87.6748109
"60613","Chicago","IL","Weiss Memorial Hospital","4646 N Marine Dr","60640",41.966462,-87.649467
"60613","Chicago","IL","Thorek Memorial Hospital","850 W Irving Park Rd","60613",41.955082028858826,-87.65148025003998
"60613","Chicago","IL","Advocate Medical Group - Ravenswood","not_available","60640",41.96530890969974,-87.67836977071354
"60613","Chicago","IL","Advocate Express Care","918 W Montrose Ave","60613",41.9620475769043,-87.65354919433594
"60613","Chicago","IL","Kito's Hacienda","4616 N Kenmore Ave","60640",41.966052000000005,-87.656508
"60613","Chicago","IL","Custom Eyes 20/20 - Southport","3539 N Southport Avenue","60657",41.9464585,-87.6637138
"60613","Chicago","IL","Betty Ford","not_available","60613",41.957725524902344,-87.66983795166016
"60613","Chicago","IL","Chicago Lakeshore Hospital Children's Pavilion","4720 N Marine Dr","60640",41.96775436401367,-87.64969635009766
"60613","Chicago","IL","Holy Cross","not_available","60636",41.95768401853763,-87.6691105198175
"60613","Chicago","IL","The Void","4342 N Kenmore Ave #3","60613",41.9606819152832,-87.65644073486328
"60613","Chicago","IL","Presence Our Lady of the Resurrection Medical Center","5645 W Addison St","60634",41.9469974598147,-87.670998153767
"60613","Chicago","IL","Success TMS - Depression Treatment Specialists","4753 N Broadway St Ste 1025","60640",41.96879577636719,-87.65919494628906
"60613","Chicago","IL","Resurrection Medical Center 4th Floor","7447 W Talcott Ave","60631",41.947796884089726,-87.67823014960518
"60614","Chicago","IL","Presence Saint Joseph Hospital, Chicago","2900 N Lake Shore Dr","60657",41.93427187713992,-87.63851906940026
"60614","Chicago","IL","Presence Center For Advanced Care","not_available","60657",41.934034539244614,-87.63858920330937
"60614","Chicago","IL","Ann & Robert H. Lurie Children's Hospital Outpatient Center","2515 N Clark St","60614",41.92827043570761,-87.64158594856092
"60614","Chicago","IL","MedSpring Urgent Care - Lakeview","2868 N Broadway St","60657",41.9347031,-87.64449479999999
"60614","Chicago","IL","Physicians Immediate Care","933 W Diversey Pkwy","60614",41.9323542,-87.6528306
"60614","Chicago","IL","The Manor Professional Building","2913 N Commonwealth Ave","60657",41.9348510752451,-87.63790500932913
"60614","Chicago","IL","Innovative Express Care","2400 N Ashland Avenue","60614",41.925311384637766,-87.66817916916536
"60614","Chicago","IL","Lincoln Log","456 W Saint James Pl","60614",41.92831039428711,-87.64070129394531
"60614","Chicago","IL","Symphony Residences of Lincoln Park","2437 N Southport Ave","60614",41.92604012,-87.66305219
"60614","Chicago","IL","Crinkled Lounge","not_available","60614",41.928680451611854,-87.66269583234178
"60615","Chicago","IL","Friend Family Health Center","800 E 55th St","60615",41.79554393770963,-87.60565601813663
"60615","Chicago","IL","Emergency Room","5040 S Dr Martin L King Jr Dr","60615",41.80068790912628,-87.61668562889099
"60615","Chicago","IL","Premier Urgent Care & Occupational Health Center","1301 E 47th St Bldg 2","60653",41.8090409,-87.59410299999999
"60615","Chicago","IL","Advocate Clinic at Walgreens","1554 E 55th St","60615",41.7954817,-87.5881556
"60615","Chicago","IL","Provident Hospital","500 E 51st St","60615",41.80242499341227,-87.61360229373366
"60615","Chicago","IL","University of Chicago Hospital DCAM","not_available","60615",41.80214318829043,-87.60635523001943
"60616","Chicago","IL","Mercy Hospital And Medical Center","2525 S Michigan Ave","60616",41.84689729999999,-87.622765
"60616","Chicago","IL","Mercy Hospital Outpatient Surgery","Michigan Ave Side","60616",41.84720107699634,-87.62189426512576
"60616","Chicago","IL","Christines Sactuary","not_available","60616",41.846687,-87.622156
"60616","Chicago","IL","GAMELI DEKAYIE","1319 S Michigan Ave","60605",41.86535629999999,-87.6237062
"60616","Chicago","IL","Advocate Medical Group Immediate Care Center","2535 S Martin Luther King Dr","60616",41.8466275,-87.61660909999999
"60617","Chicago","IL","Jackson Park Hospital","7531 S Stony Island Ave","60649",41.758500936653476,-87.58550275604054
"60617","Chicago","IL","Advocate Trinity Hospital Emergency Department","2320 E 93rd St","60617",41.72711512519642,-87.56763633527056
"60617","Chicago","IL","South Shore Hospital","8012 S Crandon Ave","60617",41.749364933056135,-87.56896320128101
"60617","Chicago","IL","Operating Room 3","93rd Jeffrey","60617",41.72644368988697,-87.5666327311847
"60617","Chicago","IL","South Shore Hospital","not_available","60617",41.74438433732694,-87.57583072556572
"60618","Chicago","IL","Swedish Covenant Immediate Care North Center","2019 W Irving Park Rd","60618",41.953837,-87.679611
"60618","Chicago","IL","Physicians Immediate Care North Center","3909 N Western Ave","60618",41.95259409,-87.68808364
"60618","Chicago","IL","Fantus Endo Lab","ogden","60618",41.947516,-87.690266
"60618","Chicago","IL","Advocate Medical Irving and Western","4025 N Western Ave","60618",41.95480728149414,-87.6879653930664
"60618","Chicago","IL","Custom Eyes 20/20 - Roscoe Village","2110 W. Roscoe St.","60618",41.943416595458984,-87.68138122558594
"60618","Chicago","IL","Come Out From Under","3941 N Kimball Ave","60618",41.953308,-87.712536
"60618","Chicago","IL","Gold Naprapathic & Wellness Center P.C.","4305 N. Lincoln Ave.","60618",41.9598599,-87.68244349999999
"60620","Chicago","IL","South Point NH","not_available","60643",41.721395349999995,-87.64955004999999
"60621","Chicago","IL","St Bernard Hospital","326 W 64th St","60621",41.77870980748985,-87.63409855965747
"60621","Chicago","IL","St. Bernard's Radiology Department","not_available","60621",41.77830609000451,-87.6332932708683
"60621","Chicago","IL","St. Bernard's Labor and Delivery","not_available","60637",41.77930548809333,-87.6306956080721
"60622","Chicago","IL","AMITA Health Saints Mary and Elizabeth Medical Center Chicago (Saint Mary Campus)","2233 W Division St","60622",41.9024828,-87.68339019999999
"60622","Chicago","IL","Norwegian American Hospital","1044 N Francisco Ave","60622",41.90077228861549,-87.69928402536111
"60622","Chicago","IL","AMITA Health Saints Mary and Elizabeth Medical Center Chicago (Saint Elizabeth Campus)","1431 N Claremont Ave","60622",41.9074681,-87.68529529999999
"60622","Chicago","IL","MedSpring Urgent Care - Wicker Park","1520 N Damen Ave","60647",41.909094,-87.677822
"60622","Chicago","IL","Drug & Alcohol Rehab Chicago","1102 N California Ave","60622",41.9013,-87.69712
"60622","Chicago","IL","Aayu Clinic","1601 W Division St","60622",41.903025,-87.668172
"60622","Chicago","IL","St Elizabeth Hospital","not_available","60622",41.90782190980047,-87.68612047770178
"60622","Chicago","IL","Jozef Wilk, M.D.","2233 W Division St, Emergency Department","60622",41.902666403657776,-87.68344044685364
"60622","Chicago","IL","Northwestern Memorial Hospital Bucktown Radiology","1913 W North Ave","60622",41.910477,-87.675745
"60623","Chicago","IL","Mt siani Hospital","not_available","60623",41.86134874820709,-87.71042883396149
"60624","Chicago","IL","Garfield Park Hospital","520 North Ridgeway Avenue","60624",41.890511,-87.720169
"60624","Chicago","IL","Sacred Heart Hospital","3240 W Franklin Blvd","60624",41.890419006347656,-87.70793914794922
"60624","Chicago","IL","RML Specialty Hospital- Chicago","Van Buren","60624",41.87495452179562,-87.71246560598661
"60625","Chicago","IL","Swedish Covenant Hospital","5140 N California Ave","60625",41.975345999909166,-87.69946057406617
"60625","Chicago","IL","Swedish Hospital Cafe","not_available","60625",41.973520368401246,-87.69918296693356
"60625","Chicago","IL","Swedish Covenant Hospital ---Respiratory Department","2727 W Winona St","60625",41.97439193725586,-87.69727325439453
"60625","Chicago","IL","United Foot & Ankle Surgeons","7319 W North Ave","60305",41.970744,-87.689292
"60625","Chicago","IL","CPR Now","3550 W Peterson Ave","60659",41.9905352,-87.7185567
"60625","Chicago","IL","Ann & Robert H. Lurie Children's Hospital Outpatient Services","5215 N California Ave","60625",41.97631072998047,-87.6985855102539
"60625","Chicago","IL","Sandhya Seetharam, M.D.","5757 N Lincoln Ave #27","60659",41.986413705914266,-87.70021498203276
"60625","Chicago","IL","Swedish IMCU","5145 N California Ave","60625",41.97520446777344,-87.69840240478516
"60625","Chicago","IL","Weil Foot & Ankle Institute","5215 N California Ave Suite f605","60625",41.97631072998047,-87.6985855102539
"60626","Chicago","IL","Ridgeview Nursing home & rehabilitation","6450 N Ridge","60659",41.999294,-87.677817
"60626","Chicago","IL","VZN Eye Care","6814 North Sheridan Road","60626",42.001847125401326,-87.66062483204145
"60628","Chicago","IL","Mopheth Nutritional Services","19 East 110th place 305","60625",41.6937058,-87.6223016
"60628","Chicago","IL","Roseland Community Hospital","45 W 111th St","60628",41.692339215132144,-87.62638972017943
"60628","Chicago","IL","Erythro Medical & Urgent Care Center","123 E 103rd St","60628",41.706972,-87.619197
"60628","Chicago","IL","On Dmed Urgent Care (Pullman) (On Dmed Urgent Care)","10834 S Doty Ave","60628",41.6972901,-87.5963024
"60629","Chicago","IL","Holy Cross Hospital","2701 W 68th St","60629",41.768777714784235,-87.69266643960538
"60629","Chicago","IL","Holy Cross Hospital 5th Floor","2701 w 68th St","not_available",41.769314,-87.691087
"60630","Chicago","IL","Swedish Covenant Hospital","4753 N Elston Ave","60630",41.967831899103864,-87.73921052783297
"60630","Chicago","IL","ambulance 85","not_available","60630",41.961181640625,-87.75559997558594
"60630","Chicago","IL","Physicians Immediate Care Jefferson Park","5228 N Northwest Hwy","60630",41.97545727019436,-87.76985842637195
"60631","Chicago","IL","Resurrection Medical Center 3rd Floor","not_available","60631",41.988152957819445,-87.813681917185
"60631","Chicago","IL","Chemo With Ed","7435 n. talcott","60631",41.982696,-87.813643
"60631","Chicago","IL","Have Dreams","515 Busse Hwy","60068",42.01742,-87.842484
"60632","Chicago","IL","@The work place","not_available","60632",41.802772521972656,-87.70532989501953
"60632","Chicago","IL","RNS Physical Therapy / Nuestra Clinica","4341 S Archer Ave","60632",41.814557,-87.703025
"60632","Chicago","IL","Nortwestern hospital","not_available","60629",41.81995314983469,-87.73376550400123
"60632","Chicago","IL","Loyola University Health Systems, Division of Infectious Diseases, Loyola Outpatient Center, HIV/AIDS Clinic","2160 S 1st Ave Bldg 54-149","60153",41.798667,-87.721387
"60632","Chicago","IL","sacred heart hospital","Fulton","60632",41.80146408081055,-87.70716094970703
"60632","Chicago","IL","AMSTAR ROOFING","4425 S Archer Ave Ste 101","60632",41.812719,-87.706133
"60634","Chicago","IL","3 East Norridge HealthCare and Rehabilitation","2001 w cullom","60706",41.95619201660156,-87.8057861328125
"60634","Chicago","IL","Chicago Club De Nutricion Central Shop","3062 North Central Avenue","60634",41.9365558,-87.7666856
"60634","Chicago","IL","Highland Park Hospital","not_available","60618",41.94446864994518,-87.8076669249159
"60634","Chicago","IL","OLR Hospital Canteen","not_available","60634",41.945905,-87.767156
"60634","Chicago","IL","Central Primary Care","3445 N Central Ave","60634",41.943587,-87.76635999999999
"60637","Chicago","IL","Comer Children's Hospital","5721 S Maryland Ave","60637",41.79048107573808,-87.60456146374868
"60637","Chicago","IL","University of Chicago Medicine","5841 S Maryland Ave","60637",41.78988887503273,-87.60468674814042
"60637","Chicago","IL","Center for Care and Discovery","5700 S Maryland Ave","60637",41.79110475512796,-87.60480880737305
"60637","Chicago","IL","Woodlawn Health Center","6337 S Woodlawn Ave","60637",41.779686,-87.595848
"60637","Chicago","IL","The University of Chicago DCAM Building","5758 S Maryland Ave","60637",41.79021072387695,-87.60549926757812
"60637","Chicago","IL","University of Chicago Student Care Center (SCC))","860 E 59th St","60637",41.78798686515546,-87.6037211748175
"60637","Chicago","IL","University Of Chicago Surgery - Brain Research Institute","5840 S. Ellis Avenue","60637",41.78801784690276,-87.60301236768998
"60638","Chicago","IL","Pinnacle Dermatology - Archer","7123 W Archer Ave","60638",41.7917625,-87.8000402
"60638","Chicago","IL","PUSH","5531 S Moody Ave","60638",41.791521,-87.775325
"60638","Chicago","IL","Advanced Urgent Care","5907 W 63rd St","60638",41.7778112,-87.7694048
"60638","Chicago","IL","Millennium Surgical","5980 S. Archer Ave.","60638",41.795375,-87.76576999999999
"60639","Chicago","IL","moo-moo rehab center","not_available","60639",41.92620206,-87.73728145
"60639","Chicago","IL","moo-moo rehab center","4417","60639",41.92509882857143,-87.76716225714286
"60640","Chicago","IL","Chicago Lake Shore Hospital","4840 N Marine Dr","60640",41.97019958496094,-87.6506118774414
"60640","Chicago","IL","Fourthloor Nurses Station","5547 N Kenmore Ave","60640",41.98311996459961,-87.65635681152344
"60640","Chicago","IL","Childrens Memorial Hospital, Uptown Teen Health Center","4867 N Broadway St","60640",41.970802307128906,-87.65958404541016
"60640","Chicago","IL","Methodist Hospital of Chicago","5025 N Paulina St","60640",41.97327370684844,-87.67079743955318
"60640","Chicago","IL","Chicago Lakeshore Hospital","4840 North Marine Drive","60640",41.9703025,-87.6500401
"60641","Chicago","IL","Howard Medical Company","3450 N Kostner Ave","60641",41.94395,-87.73745
"60641","Chicago","IL","European Foot & Ankle Clinic","5501 W Belmont Ave","60641",41.9385075,-87.7642087
"60642","Chicago","IL","Concentra Urgent Care","1030 W Chicago Ave","60642",41.896516376830824,-87.65408098697662
"60642","Chicago","IL","Northwestern Children's","1030 N Clark St","60610",41.903569475688926,-87.65671375629621
"60642","Chicago","IL","Jr consultants","111/1123 N Elston Ave lane2","60603",41.9023654,-87.6570183
"60642","Chicago","IL","TASC INC","1500 N Halsted St","60642",41.90876,-87.64856999999999
"60643","Chicago","IL","WellNow Urgent Care","9501 S Western Ave","60643",41.720628,-87.681686
"60643","Chicago","IL","Loyola University Heart And Vascular Center","First Street","60827",41.663071007233,-87.64466534275161
"60643","Chicago","IL","Vascular Access of Illinois","9730 S Western Ave","60805",41.71827697753906,-87.68373107910156
"60644","Chicago","IL","Loretto Hospital","645 S Central Ave","60644",41.87195861289169,-87.76443761427646
"60644","Chicago","IL","Hartgrove Hospital","5730 West Roosevelt Road","60644",41.8663074,-87.7674928
"60644","Chicago","IL","Circle Family Healthcare Network","115 N Parkside Ave Floor 1","60644",41.882747650146484,-87.76605224609375
"60645","Chicago","IL","Future Diagnostics","not_available","60645",41.997808,-87.699887
"60646","Chicago","IL","North Shore Surgery Center","3725 W Touhy Ave","60712",42.01166780885211,-87.7218000121903
"60647","Chicago","IL","Integrative Pet Care","2520 W Armitage Ave","60647",41.91776739670973,-87.69093581956493
"60647","Chicago","IL","Norewiang","not_available","60647",41.9105110168457,-87.68716430664062
"60647","Chicago","IL","My Prentice Room","Hospital","not_available",41.92427337169647,-87.6869809627533
"60647","Chicago","IL","Young Family Health Center","1431 N Western Ave","60622",41.907567,-87.68627
"60647","Chicago","IL","Aayu Clinics | Wicker Park Immediate Care","1601 West Division St","60622",41.903348,-87.685941
"60649","Chicago","IL","Larabida Children's Hospital","not_available","60649",41.762478622329006,-87.5712850426519
"60649","Chicago","IL","La Rabida Children's Hospital","6501 S Promontory Dr","60649",41.77731878087876,-87.57147960982228
"60654","Chicago","IL","John T. Downing, DO","635 N Dearborn St Ste 100","60654",41.8935096,-87.6292953
"60655","Chicago","IL","Midwest Express Clinic","3258 W 111th St","60655",41.69179,-87.703188
"60656","Chicago","IL","Physicians Immediate Care","4900 N Cumberland Ave","60706",41.96881589367155,-87.83716777542217
"60656","Chicago","IL","Nursing Resource Home Health, Inc. (Nrhh)","4430 N Oak Park Ave","60706",41.961669,-87.797996
"60657","Chicago","IL","Advocate Illinois Masonic Medical Center","836 W Wellington Ave","60657",41.936828553441075,-87.651867795738
"60657","Chicago","IL","Aayu Clinics - Lakeview Immediate Care","1645 W School St Ste A","60657",41.94136960862057,-87.67033192394257
"60657","Chicago","IL","Weil Foot & Ankle Institute","3000 N Halsted St #606","60657",41.936806,-87.649573
"60657","Chicago","IL","MedSpring Urgent Care - Roscoe Village","3301 N Ashland Ave","60657",41.9416723,-87.6684164
"60657","Chicago","IL","Manoj R. Patel, MD","1333 W Belmont Ave Ste 100","60657",41.939530178486756,-87.66225246446476
"60657","Chicago","IL","preschool costa mesa","3166 N Lincoln Ave Ste 405","60657",41.938216794004184,-87.66649961471558
"60659","Chicago","IL","Peterson Urgent Care","2300 W Peterson Ave","60659",41.99082275148915,-87.68739022654327
"60660","Chicago","IL","Edgewater Hospital (Abandoned)","Ashalnd And Edgewater","not_available",41.985967,-87.670793
"60660","Chicago","IL","LUC EMS HQ","not_available","60660",41.995816970424315,-87.6587608513303
"60707","Elmwood Park","IL","Shriners Hospitals For Children","2211 N Oak Park Ave","60707",41.9198842,-87.7933365
"60707","Elmwood Park","IL","USA Vascular Centers","7230 W North Ave Ste 106B","60707",41.90982437133789,-87.80735778808594
"60707","Elmwood Park","IL","Florence A. Roche, D.O.","7230 W North Ave","60707",41.90978039751388,-87.80726730823517
"60804","Cicero","IL","Westshire Rehab","not_available","60804",41.85081764,-87.77066115
"60805","Evergreen Park","IL","Little Company of Mary Hospital","2800 W 95th St","60805",41.72160224594459,-87.6935967229585
"60805","Evergreen Park","IL","Little Company Of Mary Cancer Center","not_available","60805",41.72124,-87.692207
"60901","Kankakee","IL","Riverside Medical Center","350 N Wall St","60901",41.124536599103244,-87.8827798158082
"60901","Kankakee","IL","AMITA Health Medical Group Pediatric Cardiology Kankakee","555 W Court St","60901",41.12045462658311,-87.87177443504332
"60901","Kankakee","IL","AMITA Health St. Mary‚'s Hospital Kankakee","500 W Court St","60901",41.1203956604004,-87.8720092773438
"60901","Kankakee","IL","Riverside Outpatient Center","not_available","60914",41.17117,-87.925229
"60901","Kankakee","IL","ManorCare","900 W River Pl","60901",41.12550105966835,-87.8767644755469
"60901","Kankakee","IL","Riverside","not_available","60915",41.145721416595066,-87.88158639813115
"60901","Kankakee","IL","Physicians Immediate Care","350 N Kinzie Ave","60915",41.149604223539484,-87.85048749914202
"60901","Kankakee","IL","Gotta make that money","not_available","60901",41.121556781976324,-87.87254606641848
"60924","Cissna Park","IL","Ash Grove Rehabilitation Hospital","Ash Grove","60953",40.628415,-87.844896
"60929","Cullom","IL","Ascension Genesys Urgent Care at Center Rd","1460 N Center Rd","48509",40.91270179405063,-88.23912441730499
"60936","Gibson City","IL","Gibson Area Hospital","1100-1126 N Melvin St","60936",40.47809464419422,-88.37025817319
"60936","Gibson City","IL","gibson area hospital O.B. DEPT.","not_available","60936",40.478424072265625,-88.36967468261719
"60936","Gibson City","IL","Dermatology & Mohs Surgery Institute - Gibson City","10 Doctors Park","60936",40.47927474975586,-88.3687744140625
"60938","Gilman","IL","Dexter Decorating Inc","1222 U.S. 24","60938",40.769229888916016,-87.8965835571289
"60942","Hoopeston","IL","Carle Charlotte Ann Russell Medical Center","801 E. Orange Street","60942",40.458831256625736,-87.66015350818634
"60942","Hoopeston","IL","Hoopeston Ambulance","not_available","60942",40.46710958719328,-87.67601298314351
"60953","Milford","IL","Milford Medical Clinic","322 Chicago Street","60953",40.632310471469815,-87.69775848074329
"60963","Rossville","IL","Carle Rossville Medical Center","619 N. Chicago Street","60963",40.38634108518876,-87.6718720793724
"60970","Watseka","IL","Iroquois Memorial Hospital","not_available","60970",40.766155,-87.731631
"60970","Watseka","IL","Carle at Watseka","1490 E. Walnut Street Suite C","60970",40.77666100269,-87.70426511764526
"60970","Watseka","IL","Iroquois Memorial Hospice","200 Laird Ln","60970",40.765905631909106,-87.73149576586009
"61008","Belvidere","IL","Javon Bea Hospital","8201 E Riverside Blvd","61114",42.31901168823242,-88.95420837402344
"61008","Belvidere","IL","Mercyhealth NICU Neonatal Intensive Care","8201 E Riverside Blvd Floor 3 A","61114",42.31901168823242,-88.95420837402344
"61008","Belvidere","IL","Mercyhealth NICU Neonatal Intensive Care","8201 East Riverside Boulevard","61114",42.3164948,-88.95982381
"61008","Belvidere","IL","OSF PromptCare, 1954 Gateway Center Drive, Belvidere, IL","1954 Gateway Center Dr","61008",42.23944091796875,-88.82064819335938
"61008","Belvidere","IL","The Lab","1625 S State St","61008",42.243072509765625,-88.84008026123047
"61008","Belvidere","IL","Crusader Community Health","1050 Logan Ave","61008",42.253459,-88.826227
"61016","Cherry Valley","IL","aces and 8","not_available","61108",42.25725555419922,-89.0130844116211
"61021","Dixon","IL","KSB Hospital","403 E 1st St","61021",41.84450319522,-89.47933806338816
"61021","Dixon","IL","Advance Ems","not_available","61021",41.846944,-89.503825
"61021","Dixon","IL","Physicians Immediate Care","1672 S Galena Ave","61021",41.8267418,-89.474619
"61025","East Dubuque","IL","Mercy Pharmacy","not_available","52001",42.47807802862848,-90.62518877490467
"61032","Freeport","IL","Physicians Immediate Care","1009 Fairway Dr","61032",42.2801738,-89.636241
"61032","Freeport","IL","Midwest Medics Inc","1797 S West Ave","61032",42.27478790283203,-89.6299819946289
"61032","Freeport","IL","FHN Memorial Hospital","1045 W Stephenson St","61032",42.295390125832355,-89.63898498218177
"61036","Galena","IL","Midwest Medical Center","Hwy 20","not_available",42.44911507559109,-90.45741237588258
"61061","Oregon","IL","CGH medical center","not_available","61061",42.013301849365234,-89.33422088623047
"61063","Pecatonica","IL","Vezne","Devlet","not_available",42.284058,-89.28204
"61068","Rochelle","IL","Rochelle Community Hospital","900 N 2nd St","61068",41.92829583021451,-89.06345453664197
"61068","Rochelle","IL","Rochelle Rehabilitation and Health Care Center","900 N 3rd St","61068",41.92882537841797,-89.0644760131836
"61068","Rochelle","IL","Rochelle Vet Hospital","1399-1499 N 7th St","61068",41.94038041007815,-89.06782630803407
"61071","Rock Falls","IL","CGH Ready Care Clinic","15 West 3rd Street","61081",41.7877331,-89.696771
"61071","Rock Falls","IL","OSF Children's Hospital of Illinois","100 West 1st St","61071",41.7832069396973,-89.6925277709961
"61071","Rock Falls","IL","Sterling V A Clinic","W 4th st","61081",41.79595886594721,-89.6924153562687
"61072","Rockton","IL","Beloit Health Systems Janesville Clinic","1321 Creston Park Dr.","53546",42.4771227,-89.0479896
"61072","Rockton","IL","Beloit Health System South Beloit Clinic","1701 Blackhawk Blvd","61080",42.4771227,-89.0479896
"61073","Roscoe","IL","NorthPointe Immediate Care","5605 E Rockton Rd Suite C","61073",42.45121383666992,-89.00727081298828
"61073","Roscoe","IL","NorthPointe Clinic","5605 E. Rockton Rd. Suite A","61073",42.45094796753436,-89.00738691622266
"61081","Sterling","IL","CGH Medical Center","100 E Le Fevre Rd","61081",41.802654975431444,-89.69685412951456
"61081","Sterling","IL","Lab","not_available","61081",41.79971671670945,-89.71090347970005
"61081","Sterling","IL","CGH Wound Healing Center","1809 Locust St","61081",41.8047019,-89.6990912
"61101","Rockford","IL","rockford memorial ER","not_available","61103",42.29894669017178,-89.09977675054174
"61101","Rockford","IL","rockford memorial hospital mother/baby","2400 N Rockton Ave","61103",42.298404693603516,-89.09899139404297
"61101","Rockford","IL","Mercyhealth Heart and Vascular Center–Rockford West","2350 N Rockton Ave","61103",42.29735409,-89.09812589
"61101","Rockford","IL","Rockford Health System","2300 N Rockton Ave","61103",42.296960790656485,-89.0987777709961
"61101","Rockford","IL","Rockford health systems","Rockton ave","61103",42.292034023092896,-89.09271866962872
"61101","Rockford","IL","bronchoscopey lab at RMH","2400 M Rockton","not_available",42.298368481291895,-89.09919910520296
"61104","Rockford","IL","Swedishamerican Hospital","1401 E State St","61104",42.26563,-89.074005
"61104","Rockford","IL","Swedish American Hospital ER","not_available","61008",42.26585789766198,-89.05707424608362
"61104","Rockford","IL","Cath Lab Waiting Area","not_available","61104",42.26499653399126,-89.07368140530465
"61104","Rockford","IL","Ascension River District Hospital River District Family Practice - East China","4014 River Rd","48054",42.26342458677094,-89.08118516206741
"61104","Rockford","IL","Swedish American Special Care Nursery","State St.","not_available",42.264801,-89.074013
"61104","Rockford","IL","Surgicare/ Outpatient Surgery","1401 East State Street","61104",42.26555252075195,-89.07432556152344
"61104","Rockford","IL","Ernest White","126 N Madison St","61107",42.26969528198242,-89.08961486816406
"61104","Rockford","IL","Room 704","not_available","61101",42.26413496284501,-89.07428737873663
"61104","Rockford","IL","SwedishAmerican 9th St Center","209 9th St","61104",42.264930725097656,-89.07752227783203
"61104","Rockford","IL","General Surgery - Ascension River District Hospital River District Family Practice - St. Clair","955 Fred W Moore Hwy","48079",42.252488951019345,-89.05758976936339
"61107","Rockford","IL","OSF Saint Anthony Medical Center","5666 E State St","61108",42.269866943359375,-89.00776672363281
"61107","Rockford","IL","Shah Vision Consultants","575 S Perryville Rd #119","61108",42.2653237,-88.9801433
"61107","Rockford","IL","OSF Emergency Room","5658 E State St","61108",42.26737976074219,-89.00762176513672
"61107","Rockford","IL","OSF Pediatric Ward","not_available","61107",42.269508361816406,-89.00699615478516
"61107","Rockford","IL","Swedish American Heart Hospital - 3rd Floor","Charles St.","61104",42.26466257484019,-88.99612691391734
"61108","Rockford","IL","Lehan Drug","811 S Perryville Rd Unit 109","61108",42.2633635,-88.98122219999999
"61108","Rockford","IL","Swedish American - 9th St. Center","9th St.","60146",42.25186724022875,-89.05601139803605
"61109","Rockford","IL","Physicians Immediate Care","3475 S Alpine Rd","61109",42.226226806640625,-89.03084564208984
"61111","Loves Park","IL","Rockford Anesthelogist","2202 Harlem Rd","61111",42.34053421020508,-89.0191650390625
"61111","Loves Park","IL","Soppa Richard F","7307 N Alpine Rd Ste E","61111",42.32845687866211,-89.02793884277344
"61111","Loves Park","IL","Javon Bea Emergency Room","not_available","61114",42.316395,-88.96053
"61111","Loves Park","IL","Injury Express Walk-in Injury Care","5875 E Riverside Blvd","61114",42.31757736206055,-89.00169372558594
"61111","Loves Park","IL","Prompt Care","not_available","61111",42.364022,-89.011587
"61111","Loves Park","IL","Lil Tucks Asylum","not_available","61115",42.331607818603516,-89.04022216796875
"61111","Loves Park","IL","Physicians Immediate Care","1000 E Riverside Blvd","61111",42.316850000730994,-89.04395256989964
"61201","Rock Island","IL","Unitypoint Health System","not_available","61265",41.46841,-90.531611
"61201","Rock Island","IL","Rehabilitation 5th Floor","not_available","61201",41.48199283082699,-90.56998243488658
"61201","Rock Island","IL","Drug & Alcohol Rehab Davenport","926 W 3rd St","52802",41.52251052856445,-90.58692932128906
"61201","Rock Island","IL","Alla V R","400 John Deere Rd","61265",41.46969985961914,-90.53254699707031
"61201","Rock Island","IL","health and madical service","123 main streat","52802",41.520386727590086,-90.57639598846436
"61201","Rock Island","IL","Quad City Animal Welfare Center","724 2nd Ave W","61264",41.45175092093708,-90.5783939747025
"61201","Rock Island","IL","Trinity Emergency Room","not_available","61264",41.48389554930299,-90.56929861384833
"61231","Aledo","IL","Mercer County Hospital","409 NW 9th Ave","61231",41.20545959472656,-90.75952911376953
"61231","Aledo","IL","Genesis Senior Living, Aledo","309 NW 9th Ave","61231",41.20363998413086,-90.75872039794922
"61231","Aledo","IL","Genesis Health Group, Specialty Clinic, Aledo","409 Northwest 9th Avenue","61231",41.2051317,-90.7591027
"61231","Aledo","IL","Mercer County Hospital","NW Ninth Avenue","61231",41.20054344651134,-90.75426727668172
"61234","Annawan","IL","Hammond Henry Urgent Care","203 W Front St","61234",41.39699,-89.906811
"61241","Colona","IL","Hammond Henry Colona Clinic","1604","61241",41.48750686645508,-90.32567596435547
"61244","East Moline","IL","Illini Hospital","not_available","61282",41.49401989503847,-90.41849420938169
"61244","East Moline","IL","Forest Hill Health & Rehabilitation","4747 11th St","61244",41.48583329465439,-90.43865076063396
"61244","East Moline","IL","Genesis BirthCenter, Silvis","801 Illini Dr","61282",41.49396896362305,-90.41841125488281
"61252","Fulton","IL","Mercy Medical Center North","1410 N 4th St","52732",41.86146742706293,-90.18935980517301
"61252","Fulton","IL","Clinton Urgent Care","108 S 4th St","52732",41.8449089,-90.193591
"61252","Fulton","IL","mercy living center south","not_available","52732",41.83652527872055,-90.20323192288087
"61254","Geneseo","IL","Hammond Henry hospital","not_available","61254",41.4591538154025,-90.15792823966642
"61259","Illinois City","IL","Trinity Short Stay Surgery Center","not_available","52761",41.433372600385454,-91.05428224089923
"61259","Illinois City","IL","Trinity Muscatine -Emergency Dept.","1518 Mulberry Ave","52761",41.4332313537598,-91.0544967651367
"61259","Illinois City","IL","Muscatine Urgent Care","1903 Park Ave Ste 1500","52761",41.445737,-91.029853
"61259","Illinois City","IL","Trinity Emergency Room","Mulberry","52761",41.43345596264199,-91.05458031191567
"61265","Moline","IL","Genesis Convenient Care Walk-in Clinic, Moline @ Genesis HealthPlex, Moline","3900 28th Avenue Drive","61265",41.4847252,-90.48201619999999
"61265","Moline","IL","MHS nurses office","3600 Avenue of the Cities","61265",41.48773956298828,-90.48478698730469
"61270","Morrison","IL","Morrison Community Hospital","not_available","61270",41.80845260620117,-89.95568084716797
"61301","La Salle","IL","Illinois Valley Community Hospital","925 West St","61354",41.329181,-89.125553
"61301","La Salle","IL","Dermatology & Mohs Surgery Institute - Peru","920 West Street","61354",41.329159000000004,-89.126141
"61314","Buda","IL","Operation Theatre 1","BDF","not_available",41.233543395996094,-89.62025451660156
"61342","Mendota","IL","Mendota Community Hospital","not_available","61342",41.55329895019531,-89.08757781982422
"61342","Mendota","IL","OSF PromptCare","1405 E 12th St","61342",41.553287506103516,-89.08753204345703
"61342","Mendota","IL","Mendota community hospital","1315 Memorial Dr","61342",41.55350112915039,-89.12908935546875
"61342","Mendota","IL","OSF Saint Paul Medical Center","1401 E 12th St","61342",41.55329895019531,-89.08757781982422
"61348","Oglesby","IL","Birth & Women's Health Center","2913  E. Red Rock Road","67585",41.29246323164493,-89.0612268447876
"61350","Ottawa","IL","OSF Saint Elizabeth Medical Center","1100 E Norris Dr","61350",41.357738494873,-88.8241958618164
"61350","Ottawa","IL","OSF St. Elizabeth Hospital","not_available","61350",41.357904975270806,-88.82438626772884
"61350","Ottawa","IL","Community Hospital Of Ottawa","Norris Drive","61350",41.35799954677092,-88.82476009335734
"61350","Ottawa","IL","Chessie Lane Animal Hospital","1755 Chessie Ln","61350",41.35035145,-88.808636
"61350","Ottawa","IL","OSF Urgo","2911 Columbus St","61350",41.372432708740234,-88.83708190917969
"61356","Princeton","IL","Perry Memorial Hospital","not_available","61356",41.367364496484235,-89.45625309497328
"61356","Princeton","IL","Dermatology & Mohs Surgery Institute - Princeton","530 Park Ave E","61356",41.36699676513672,-89.45576477050781
"61362","Spring Valley","IL","St Margaret’s Hospital","600 E 1st St","61362",41.328941345214844,-89.19304656982422
"61362","Spring Valley","IL","St. Margaret's Home Medical Equipment & Supplies","416 E Dakota St","61362",41.327979,-89.193932
"61362","Spring Valley","IL","Saint Margaret's Spring Valley Pain Clinic","1302 N Greenwood St","61362",41.33979034423828,-89.198486328125
"61364","Streator","IL","St. Mary's Hospital","111 Spring St","61364",41.113479165519834,-88.83412724015116
"61364","Streator","IL","Dermatology & Mohs Surgery Institute - Streator","104 6th Street","61364",41.1134367,-88.8359782
"61401","Galesburg","IL","Galesburg Cottage Hospital","695 N Kellogg St","61401",40.955481284235525,-90.36555290222167
"61434","Galva","IL","OSF Saint Luke Medical Center","1051 W South St","61443",41.22097396850586,-89.9471664428711
"61455","Macomb","IL","McDonough District Hospital","525 E Grant St","61455",40.446958414002594,-90.6646288450639
"61455","Macomb","IL","Mdh Emergency Room","not_available","61455",40.446143,-90.66535
"61462","Monmouth","IL","OSF Holy Family Medical Center","1000 W Harlem Ave","61462",40.922264099121094,-90.65814208984375
"61473","Roseville","IL","National hospital","60th ST","not_available",40.6777883,-90.6727597
"61483","Toulon","IL","Wyoming Ambulance","610 N Main Ave","61491",41.06901168823242,-89.77018737792969
"61520","Canton","IL","Heartland Health Care Center-Canton","2081 N Main St","61520",40.59428734,-90.03351819
"61520","Canton","IL","Graham Hospital","210 W Walnut St","61520",40.552762693010244,-90.03897076689141
"61520","Canton","IL","Dermatology & Mohs Surgery Institute","180 South Main","61520",40.553539,-90.0357917
"61530","Eureka","IL","Advocate Eureka Hospital","not_available","61530",40.72107473979309,-89.27157052980543
"61530","Eureka","IL","Dermatology & Mohs Surgery Institute - Eureka","101 S. Major St.","61530",40.7207946,-89.271294
"61542","Lewistown","IL","Mason District Hospital","741 E Laurel Ave","62644",40.29667663574219,-90.05150604248047
"61550","Morton","IL","OSF Urgo","853 W. Jackson Plaza","61550",40.61974,-89.46628
"61554","Pekin","IL","Angies head","not_available","61554",40.554558598546684,-89.64563522093326
"61554","Pekin","IL","Dermatology & Mohs Surgery Institute","600 South 13th St., Suite F","61554",40.563148498535156,-89.63265228271484
"61554","Pekin","IL","Professional Therapy Services","2988 Court St","61554",40.5495491027832,-89.60832214355469
"61554","Pekin","IL","park court pharmacy","600 S 13th St, Pekin, IL 61554","61554",40.562866,-89.632249
"61554","Pekin","IL","Advanced Medical Transport","418 Elizabeth St","61554",40.5681978,-89.64655458927155
"61554","Pekin","IL","Post 5","Broadway and Court","61554",40.56685385,-89.64226727
"61571","Washington","IL","Heartland Health Care Center-Riverview","500 Centennial Dr","61611",40.7038079,-89.52715352
"61571","Washington","IL","OSF Urgo","1986 Freedom Pkwy","61571",40.7072042,-89.4595051
"61602","Peoria","IL","Drug & Alcohol Rehab Peoria","416 Main St #823","61602",40.69318389892578,-89.59060668945312
"61602","Peoria","IL","Methodist Big Sister Class","not_available","61605",40.69382095336914,-89.60101318359375
"61602","Peoria","IL","Methodist Cardiovascular Services","112 NE Crescent Ave","61606",40.699554443359375,-89.59709930419922
"61602","Peoria","IL","Greater Peoria Specialty Hospital","500 W Romeo B Garrett Ave","61605",40.69309616088867,-89.60073852539062
"61602","Peoria","IL","osf hospital zone 4","not_available","61602",40.687222801619654,-89.60666584531201
"61602","Peoria","IL","OSF St. Francis Medical Center","not_available","61606",40.69716262817383,-89.58443450927734
"61603","Peoria","IL","OSF Saint Francis Medical Center","530 NE Glen Oak Ave","61637",40.70170766444143,-89.58929030542754
"61603","Peoria","IL","OSF System Laboratory","1224 N Berkeley Ave.","61603",40.7032356262207,-89.5927734375
"61603","Peoria","IL","OSF Surgeons Lounge","not_available","61603",40.70212933451836,-89.59164432726891
"61603","Peoria","IL","Therapy Dept MMCI","221 NE Glen Oak Ave","61636",40.701684,-89.5948861
"61603","Peoria","IL","Forest Park","530 NE Glen","61603",40.70280601236194,-89.59060894267601
"61604","Peoria","IL","Tri County Emergency Animal Clinic","1722-1874 N Sterling Ave","61604",40.70977020263672,-89.63226318359375
"61606","Peoria","IL","OSF St. Francis Hospital NICU","538 NE Glen Oak Ave","61637",40.70722887419055,-89.61060315714384
"61606","Peoria","IL","MMG Cardiovascular Services","112 NE Crescent","61606",40.69976354483862,-89.5967242199967
"61610","Creve Coeur","IL","Jacksonville Men's Health Group","777 S New Ballas Rd #119W","63141",40.647253092356785,-89.59270119667053
"61611","East Peoria","IL","Dermatology & Mohs Surgery Institute - Peoria","812 West Trailcreek Drive","61614",40.779703,-89.605444
"61611","East Peoria","IL","Proctor Hospital Surgery","not_available","61614",40.753344437836766,-89.5979940908039
"61611","East Peoria","IL","Heartland Health Care Center-Peoria","5600 N Glen Elm Dr","61614",40.7547544,-89.59130355
"61614","Peoria","IL","MedExpress Urgent Care","5038 N. Big Hollow Rd.","61615",40.750063,-89.634096
"61614","Peoria","IL","Methodist Hospital - Atrium Building","900 Main St","61602",40.75705612838361,-89.64749628690392
"61614","Peoria","IL","OSF Urgo","5905 N Prospect Rd","61614",40.75884,-89.59277
"61614","Peoria","IL","Associates of Sterling Podiatry - Dr. Todd Karas, DPM","4507 N Sterling Suite 102","61615",40.74269327000019,-89.63305851816926
"61614","Peoria","IL","POST ROMEO","6000 N Allen Rd","61614",40.759316999999996,-89.633538
"61614","Peoria","IL","Proctor Hospital","5409 N Knoxville Ave","61614",40.75308987320473,-89.5973913673744
"61614","Peoria","IL","Visiting Angels of Peoria","4507 N Sterling Ave. Suite 401A","61615",40.742703999999996,-89.63309699999999
"61614","Peoria","IL","apostic chritisan skylines","7023 NE Skyline Dr, Peoria, IL 61614","61614",40.772037506103516,-89.5762939453125
"61615","Peoria","IL","Center For Health","8800 N Route 91","61615",40.79224834226089,-89.6667689654594
"61615","Peoria","IL","MD Consultants of America","6738","61615",40.76994681774567,-89.65893030166626
"61615","Peoria","IL","Peoria Cancer Center Foundation","8940 N Wood Sage Rd","61615",40.795302,-89.665058
"61701","Bloomington","IL","Advocate BroMenn Medical Center","1304 Franklin Ave","61761",40.497413940732976,-88.9908446064645
"61701","Bloomington","IL","OSF Saint Joseph Medical Center - OB Department","2200 E Washington St","61701",40.482801,-88.95553100000001
"61701","Bloomington","IL","OSF Admitting/Registration","St Joseph Hospital","not_available",40.48230136470395,-88.95523794495514
"61701","Bloomington","IL","osf blood draw laboratory","not_available","61701",40.482136542293226,-88.95550908277353
"61701","Bloomington","IL","Bromen CICU","not_available","61761",40.50235735146297,-88.98708446152291
"61701","Bloomington","IL","OSF Urgo","508 Iaa Dr","61701",40.490238189697266,-88.9538345336914
"61701","Bloomington","IL","OSF St. Joseph Emergency Room","not_available","61704",40.478900751518474,-88.95168961543983
"61701","Bloomington","IL","heritage health","Walnut","not_available",40.48719494259546,-88.9838612072061
"61704","Bloomington","IL","Dermatology & Mohs Surgery Institute - Bloomington","3024 E Empire St","61704",40.489849,-88.920745
"61727","Clinton","IL","pulmonary rehab","not_available","61727",40.15904998779297,-88.96382141113281
"61727","Clinton","IL","Dermatology & Mohs Surgery Institute - Clinton","422 W White St","61727",40.148421,-88.9646496
"61734","Delavan","IL","Hopedale Hospital","Tremont Street","61734",40.41404035695393,-89.45742589989683
"61745","Heyworth","IL","OSF Saint Joseph Cardiology","not_available","61745",40.35383224487305,-88.98916625976562
"61761","Normal","IL","OSF Urgo","1730 Bradford Ln","61761",40.533084869384766,-88.9925765991211
"61761","Normal","IL","Advocate Medical Group Immediate Care Center","1437 E College Ave","61761",40.5099315,-88.96124700000001
"61764","Pontiac","IL","Dermatology & Mohs Surgery Institute - Pontiac","2500 West Reynolds Suite 210","61764",40.8708015,-88.6794359
"61764","Pontiac","IL","OSF Saint James - John W. Albrecht Medical Center","2500 W Reynolds St","61764",40.87080764770508,-88.67908477783203
"61801","Urbana","IL","Carle Foundation Hospital","611 W Park St","61801",40.11718666023936,-88.21481207250845
"61801","Urbana","IL","OSF Heart of Mary Medical Center","1400 W Park St","61801",40.117706298828125,-88.22695922851562
"61801","Urbana","IL","Carle Cafeteria","West University","not_available",40.11721117246308,-88.21464985775185
"61801","Urbana","IL","McKinley Health Center","1109 S Lincoln Ave","61801",40.10305443691386,-88.21998348413489
"61801","Urbana","IL","Surgery Waiting Room","not_available","61801",40.117652893066406,-88.21510314941406
"61801","Urbana","IL","Room 7336","not_available","61802",40.13365,-88.195128
"61801","Urbana","IL","10th Floor","Park St","61820",40.117120336087886,-88.21518311397203
"61801","Urbana","IL","OSF Urgo","520 N Cunningham Ave","61802",40.117448,-88.203982
"61801","Urbana","IL","carle wound center","611 W. Park","not_available",40.11725183008537,-88.21495478113638
"61802","Urbana","IL","Carle North Annex","810 W. Anthony Drive","61802",40.13601112966424,-88.21669201366348
"61820","Champaign","IL","Carle Arrow Ambulance","210 E University Ave","61820",40.11648311708554,-88.23598419405216
"61820","Champaign","IL","217 Immediate Care","1806 N Market St","61822",40.13636574835449,-88.23823928833008
"61820","Champaign","IL","Arrow Post 19 1/2","607 S Pine St","61820",40.109251,-88.256131
"61820","Champaign","IL","The Pavilion","806 W Church St","61820",40.118004861685364,-88.25606398381527
"61821","Champaign","IL","Carle Champaign on Mattis","1802 S. Mattis Avenue","61821",40.09465045711104,-88.27562182300346
"61821","Champaign","IL","Post 19 West","not_available","61821",40.11368869533349,-88.27739258914431
"61821","Champaign","IL","Post #29","900 W. Springfield","61820",40.11334794416491,-88.25819303744738
"61832","Danville","IL","Va Illiana Health Care System","not_available","61832",40.123276,-87.586916
"61832","Danville","IL","Vermilion Manor Nursing Home","14792 Catlin Tilton Rd","61834",40.098392486572266,-87.66429901123047
"61832","Danville","IL","dilvery room","812 N Logan Ave","61832",40.13776779174805,-87.6452865600586
"61832","Danville","IL","Veterans Administration Hospital And Clinic","not_available","61834",40.12391497737225,-87.587694669661
"61832","Danville","IL","VA Hospital","1900 E Main St","61832",40.124494069000804,-87.58767537334211
"61832","Danville","IL","Carle Danville on Vermilion","2300 N. Vermilion Street","61832",40.16292651125769,-87.63109177350998
"61832","Danville","IL","OSF PromptCare","707 N Logan Ave","61832",40.134498596191406,-87.64436340332031
"61832","Danville","IL","OSF Urgo","3653 N. Vermilion St.","61832",40.18834,-87.62905
"61834","Danville","IL","Oakwood Ambulance Post 57","not_available","61858",40.11605636335711,-87.72871614363589
"61849","Homer","IL","Carle Urbana Main Campus","611 W. Park Street","61801",40.0,-88.0
"61856","Monticello","IL","Kirby Medical Center","1000 Medical Center Dr","61856",40.0608599,-88.5606535
"61856","Monticello","IL","Kirby Johnson Hospital","101-399 Lone Beech Rd","61856",40.03425058333333,-88.56858023333334
"61856","Monticello","IL","Carle clinic","Curtis Road","61856",40.028324127197266,-88.57324981689453
"61856","Monticello","IL","Kirby Hostpital","1003 N State St","61856",40.03289794921875,-88.57032775878906
"61856","Monticello","IL","Carle Clinic Monticello","Applewood Dr.","61856",40.02991971011388,-88.60515351447762
"61856","Monticello","IL","Carle in Monticello","1002 Medical Center Drive","61856",40.0602197575479,-88.55836629867554
"61866","Rantoul","IL","Carle in Rantoul","1540 E. Grove Street","61866",40.31183886436727,-88.132488084957
"61911","Arthur","IL","Arthur Medical Center","650 W Columbia St","61911",39.7104463,-88.4801224
"61913","Atwood","IL","Kirby Medical Group at Atwood","not_available","61913",39.799678802490234,-88.46209716796875
"61917","Brocton","IL","Baker Ambulance","not_available","61942",39.78814,-87.985949
"61920","Charleston","IL","Dermatology & Mohs Surgery Institute - Charleston","100 Deerpath Rd","61920",39.4855523,-88.2485305
"61920","Charleston","IL","Cysto","not_available","61920",39.478271,-88.197641
"61925","Dalton City","IL","Dermatology & Mohs Surgery Institute - Mt. Zion","1200 North State Highway 121","62549",39.790686,-88.8704743
"61933","Kansas","IL","Kansas Family Medical Center","104 E Buena Vista St","61933",39.55304637551308,-87.9393258690834
"61938","Mattoon","IL","Sarah Bush Lincoln Health Center Emergency Department Ambulance Bay & Medic Room","1000 Healthcare Drive","61938",39.48846363932901,-88.27383458840833
"61938","Mattoon","IL","OPSC Desk","not_available","61938",39.488029,-88.272813
"61938","Mattoon","IL","Carle Mattoon on Hurst","2512 Hurst Drive","61938",39.481983658946696,-88.30584436655045
"61938","Mattoon","IL","Carle Mattoon on Lerna","200 Lerna Road South","61938",39.48391822906531,-88.3079794049263
"61938","Mattoon","IL","OR 3","1000 Health Center Dr","61938",39.48841857910156,-88.27401733398438
"61938","Mattoon","IL","Dunn's Ambulance Service Inc","1821 Marshall Ave","61938",39.47704616618155,-88.37761734612286
"61944","Paris","IL","Paris Community Hospital","721 E. Court St.","61944",39.6068092,-87.677195
"61944","Paris","IL","EZ Care, a service of Horizon Health","1 Phipps Ln","61944",39.58984664258864,-87.69339048994289
"61944","Paris","IL","Paris Clinic, a service of Horizon Health","727 E Court St","61944",39.6069512,-87.6779796
"61953","Tuscola","IL","Carle in Tuscola","301 E. Southline Road","61953",39.79112044240314,-88.28410824764887
"61953","Tuscola","IL","Sarah Bush Lincoln Tuscola Clinic","not_available","61953",39.791247,-88.269558
"62002","Alton","IL","Alton Memorial Hospital","1 Memorial Dr","62002",38.899563334004775,-90.15941279328705
"62002","Alton","IL","St. Anthony's Health Center","not_available","62002",38.90832137721399,-90.173937424982
"62002","Alton","IL","MASH 4077th","Greenwood","62035",38.928051642204565,-90.20192276139157
"62002","Alton","IL","Anderson Hospital ExpressCare Bethalto","159 E McArthur Dr","62010",38.902388,-90.061778
"62002","Alton","IL","saint anthonys hospital","1 Saint Anthonys Way","62002",38.90812746065711,-90.17339768431839
"62002","Alton","IL","Saint Anthonys Hospital Rm 223","Room 223","not_available",38.908181,-90.17323
"62002","Alton","IL","Laboratory Growth & Productivity (LGP) Consulting, Inc.","21 E Ferguson Ave","62095",38.8610937,-90.0975622
"62014","Bunker Hill","IL","Bunker Hill Area Ambulance Svc.","123 Washington","62014",39.04253387451172,-89.95126342773438
"62016","Carrollton","IL","Via Christi Rehabilitation Hospital","1151 N Rock Rd","67206",39.28312778102583,-90.30285358428955
"62016","Carrollton","IL","Boyd Memorial Hospital","not_available","62016",39.29655495347917,-90.41297139687315
"62025","Edwardsville","IL","Anderson Hospital ExpressCare Glen Carbon","17 Ginger Creek Meadows","62034",38.7788166,-89.9805791
"62025","Edwardsville","IL","ENT & Sleep Medicine Associates","1926 Edwardsville Club Plaza Rd","62025",38.777897,-89.98942
"62025","Edwardsville","IL","Anderson Hospital Pharmacy","6800 Maryville Rd.","not_available",38.75119515881519,-89.95405760563995
"62025","Edwardsville","IL","Anderson Hospital Urgent Care","not_available","62034",38.77888853510762,-89.98058999818728
"62025","Edwardsville","IL","Health Services - SIUE","Circle Dr","not_available",38.79151772708378,-89.99823125048765
"62033","Gillespie","IL","Macoupin County Maple Street Clinic","not_available","62033",39.11038455442542,-89.82115424882664
"62033","Gillespie","IL","Therese Polo MD LLC","807 Broadway St","62033",39.1298026,-89.8292688
"62034","Glen Carbon","IL","Anderson Hospital","6800 State Route 162","62062",38.7381839,-89.9472807
"62034","Glen Carbon","IL","Anderson hospital POB 2","not_available","62062",38.73708976693652,-89.94523962104319
"62040","Granite City","IL","Granite City Urgent Care Walk-in Clinic - Granite City","2861 Madison Ave","62040",38.714175,-90.12874167
"62040","Granite City","IL","R.S. Ashraf MD","1420 20th St","62040",38.70009994506836,-90.1474609375
"62040","Granite City","IL","gateway hospital","not_available","62040",38.682163490756665,-90.14826234733839
"62040","Granite City","IL","Gateway Regional Medical Center","2100 Madison Ave","62040",38.7013638,-90.14381759999999
"62040","Granite City","IL","Concentra Urgent Care","3rd Street","62090",38.668272,-90.17134
"62040","Granite City","IL","St. Louis Childrens Hospital","not_available","63113",38.67888611736591,-90.17391912856506
"62049","Hillsboro","IL","Hillsboro Area Amb Garage","not_available","62049",39.15529777251084,-89.4799979643583
"62052","Jerseyville","IL","Jersey Comm Hospital","County Rd","62052",39.11588,-90.2804
"62052","Jerseyville","IL","Jersey Community Hospital","400 Maple Summit Rd","62052",39.11008834838867,-90.3428726196289
"62052","Jerseyville","IL","c4f8ba17","21965 Maple Summit Rd","62052",39.104949951171875,-90.34162902832031
"62052","Jerseyville","IL","Jersey Community Hospital","not_available","62052",39.11008834838867,-90.3428726196289
"62052","Jerseyville","IL","Absolute Audio","112 S State St","62052",39.11883900000001,-90.327508
"62056","Litchfield","IL","Saint Francis Hospital","Franciscan Dr","62056",39.18093128619075,-89.63941724193104
"62056","Litchfield","IL","St Francis ER","1235 Franciscan Way","62056",39.18149671105464,-89.63948158674336
"62056","Litchfield","IL","HSHS St. Francis Hospital","1215 Franciscan Dr","62056",39.18113217,-89.63895295
"62062","Maryville","IL","Elmwood Nursing And Rehab","132 Wilma Dr","62062",38.71111297607422,-89.95919036865234
"62062","Maryville","IL","Anderson Hospital","not_available","62234",38.71414382809429,-89.94605584851973
"62074","New Douglas","IL","Staunton Memorial Hospital Staunton, IL","400 N Caldwell St","62088",39.01530838012695,-89.789306640625
"62088","Staunton","IL","St Francis Hospital","not_available","62056",39.007639805102144,-89.7950010967941
"62201","East Saint Louis","IL","Hemodialysis Center","St. Louis","63101",38.627273,-90.197889
"62201","East Saint Louis","IL","Drug & Alcohol Rehab St. Louis","1422 Delmar Blvd","63103",38.63368225097656,-90.19951629638672
"62201","East Saint Louis","IL","Kenneth Hall Regional Hospital","129 N 8th St","62201",38.622423,-90.15657900000001
"62201","East Saint Louis","IL","Downtown Urgent Care","916 Olive St","63101",38.62880902864708,-90.19455811677757
"62201","East Saint Louis","IL","Concentra","1617 S 3rd St","63104",38.60875236309136,-90.19849900964493
"62201","East Saint Louis","IL","Prentice at Northwestern Memorial Hodpital","not_available","63101",38.62625503540039,-90.19226837158203
"62203","East Saint Louis","IL","Admitting at Cardinal Glennon","not_available","63110",38.58737050376179,-90.0471642070691
"62206","East Saint Louis","IL","Touchette Regional Hospital","5900 Bond Ave","62207",38.57024383544922,-90.10843658447266
"62206","East Saint Louis","IL","atrium Rehabilitation Center","not_available","62206",38.551843997191256,-90.1498393983203
"62206","East Saint Louis","IL","Bonnies office","not_available","63118",38.589801426759806,-90.22374025424888
"62208","Fairview Heights","IL","MedExpress Urgent Care","1711 W Hwy 50","62269",38.59221415714797,-89.95844236441809
"62208","Fairview Heights","IL","Express Urgent Care Clinic","5031 N Illinois St","62208",38.576900482177734,-89.98513793945312
"62214","Addieville","IL","Memorial Care Center","not_available","62271",38.44088207540471,-89.53267155896535
"62220","Belleville","IL","parking lot # 1 St. Ez","not_available","62220",38.5104620887159,-89.9894782813054
"62220","Belleville","IL","St. Elizabeth's Hospital","211 S 3rd St","62220",38.51092248998683,-89.9888856658468
"62220","Belleville","IL","GEMS Express Care","76 Carlyle Plaza Dr, Belleville, IL 62221","62221",38.516239166259766,-89.95356750488281
"62220","Belleville","IL","Heartland Women's Healthcare","1170 Fortune Blvd.","62269",38.5119986,-89.9877704
"62220","Belleville","IL","Perfectly Plated","2346 Mascoutah Ave Suite#115","62220",38.5062669,-89.9415431
"62221","Belleville","IL","Scott Clinic","310 W Losey St","62225",38.54385544605438,-89.87242533815423
"62221","Belleville","IL","Scott AFB Pediatric Clinic","not_available","62225",38.54334263719015,-89.87314717329497
"62221","Belleville","IL","Scott AFB MERC","310 W Losey St Bldg 1530","62225",38.542537689208984,-89.86927795410156
"62223","Belleville","IL","Memorial Hospital","4500 Memorial Dr","62226",38.549449212722195,-90.02180099487305
"62223","Belleville","IL","Belleville Memorial ER","not_available","62226",38.55024612387516,-90.02148500702731
"62223","Belleville","IL","Women's Care of Southern Illinois","not_available","62223",38.549478,-90.021842
"62223","Belleville","IL","TLC Pediatrics Ltd.","4600 Memorial Dr #280","62226",38.549478,-90.021842
"62223","Belleville","IL","Belleville Urgent Care Walk-in Clinic","2801 W Main St","62226",38.52664533,-90.011517
"62223","Belleville","IL","Podiatry 1st","4600 Memorial Dr #300","62226",38.55004,-90.02297
"62226","Belleville","IL","St Mary's Hospital Labor & Delivery","not_available","63117",38.565450345560535,-89.99427359558676
"62226","Belleville","IL","MedExpress Urgent Care","2524 N. Illinois Street","62226",38.54035940458357,-89.98288482427597
"62230","Breese","IL","St. Joseph's Hospital","9515 Holy Cross Ln","62230",38.62589315624687,-89.52427854096675
"62230","Breese","IL","HSHS Medical Group Skilled Nursing Facility","9401 Holy Cross Ln","62230",38.62561,-89.52857
"62231","Carlyle","IL","saving lives","not_available","62231",38.610207528901626,-89.37114660046844
"62232","Caseyville","IL","Recreational Therapy","not_available","62232",38.64703,-89.98577
"62233","Chester","IL","Chester Hospital","1891-1899 Illinois 150","62233",37.91795019811785,-89.81337192713265
"62233","Chester","IL","Heartland Women's Healthcare","1900 State St.","62233",37.9178338,-89.8126671
"62234","Collinsville","IL","Anderson Urgent Care","1001-1199 Belt Line Rd","62234",38.69152415,-89.988229
"62234","Collinsville","IL","MedExpress Urgent Care","515 Belt Line Rd","62234",38.691425,-89.979229
"62234","Collinsville","IL","Anderson Hospital ExpressCare Collinsville","1103 Belt Line Rd","62234",38.691585,-89.98817
"62236","Columbia","IL","Jefferson Barracks VA Medical Center","1 Jefferson Barracks Rd","63125",38.493090074165096,-90.27965612926839
"62236","Columbia","IL","Total Access Urgent Care","4400 Telegraph Rd","63129",38.484445,-90.303849
"62236","Columbia","IL","Mercy-GoHealth Urgent Care","5640C Telegraph Rd","63129",38.46712120015306,-90.30289654232786
"62236","Columbia","IL","St Elizabeths Monroe County Medical Building","not_available","62236",38.43109,-90.174232
"62236","Columbia","IL","St. Elizabeth's Hospital","not_available","62260",38.461684,-90.092938
"62236","Columbia","IL","ENT & Sleep Medicine Associates","1000 Eleven South Suite 4F","62236",38.45862936885472,-90.22338399990997
"62236","Columbia","IL","The Nut Ward","662 Marian Dr","62239",38.50823974609375,-90.20914459228516
"62236","Columbia","IL","BJC Medical Group Convenient Care","7415 S Lindbergh Blvd","63125",38.505699157714844,-90.32474517822266
"62236","Columbia","IL","Jefferson Barracks Hospital Trav","E Cir Dr","63125",38.49266994,-90.27993752
"62236","Columbia","IL","PODIATRY 1st","1000 Eleven South, Suite 3A","62236",38.45859,-90.22358
"62236","Columbia","IL","Creative Kids Inc","410 N Metter Ave","62236",38.44650650024414,-90.20158386230469
"62236","Columbia","IL","Lemay Urgent Care","Lemay Ferry Rd","63125",38.51600135109542,-90.31074023568132
"62239","Dupo","IL","The River View","not_available","62240",38.53687286376953,-90.22317504882812
"62246","Greenville","IL","HSHS Holy Family Hospital","200 Healthcare Dr","62246",38.90310658,-89.40791374
"62246","Greenville","IL","Heartland Women's Healthcare","150 Healthcare Dr.","62246",38.9025234,-89.4095447
"62246","Greenville","IL","Convenient Care","1345 S Route 127","62246",38.881017,-89.391173
"62246","Greenville","IL","Bond County EMS Base","123 Healthcare Drive","62246",38.87452606566349,-89.46647472820923
"62249","Highland","IL","HSHS St. Joseph's Hospital Highland","12866 Troxler Ave","62249",38.75480651855469,-89.66714477539062
"62249","Highland","IL","Anderson Hospital Express Care","2504 Commerce","62249",38.742218017578125,-89.69344329833984
"62249","Highland","IL","st louis childrens hospital","not_available","62249",38.7387580871582,-89.67543029785156
"62254","Lebanon","IL","Drug Testing","not_available","62258",38.55373001098633,-89.79328155517578
"62254","Lebanon","IL","Memorial Health Education Center","800 E Highway 50","62269",38.58269795871282,-89.89827048906156
"62261","Modoc","IL","Ste Genevieve County Memorial Hospital","not_available","63670",37.9691162109375,-90.0528335571289
"62261","Modoc","IL","Ste Genevieve County Ambulance District","3 Basler Dr","63670",37.96656036376953,-90.0559310913086
"62263","Nashville","IL","Washington County Hospital","not_available","62263",38.33908654676753,-89.39100651382391
"62263","Nashville","IL","Washington County","245 N Kaskaskia St","62263",38.344810485839844,-89.38316345214844
"62269","O Fallon","IL","HSHS St. Elizabeth's Hospital","1 Saint Elizabeth Blvd","62269",38.58381939,-89.93223585
"62269","O Fallon","IL","Heartland Women's Healthcare","1197 Fortune Blvd. Suite 1","62269",38.5733634,-89.9221843
"62269","O Fallon","IL","Mid America Imaging","not_available","62269",38.57948622297218,-89.92901178632455
"62274","Pinckneyville","IL","Pinckneyville Community Hospital","101 N Walnut St","62274",38.08117901278175,-89.38288017529322
"62274","Pinckneyville","IL","Heartland Women's Healthcare","5383 State Route 154","62274",38.0849851,-89.3492236
"62278","Red Bud","IL","Red Bud ER","not_available","62278",38.209397,-89.997011
"62278","Red Bud","IL","Red Bud Regional Hospital","325 Spring St","62278",38.209043,-89.997029
"62286","Sparta","IL","Medstar Sparta Base","not_available","62286",38.12642099299263,-89.69871212054977
"62286","Sparta","IL","Heartland Women's Healthcare","Broadway Plaza Suite 1","62286",38.1226433,-89.7009434
"62294","Troy","IL","Anderson Hospital ExpressCare Troy","108 W US Highway 40","62294",38.71692,-89.88409
"62298","Waterloo","IL","Heartland Women's Healthcare","723 Station Crossing","62298",38.3457081,-90.1609654
"62301","Quincy","IL","Blessing Hospital","1005 Broadway St","62301",39.93659485621784,-91.39909774017015
"62301","Quincy","IL","Adams County Ambulance","not_available","62301",39.934929,-91.391166
"62313","Basco","IL","Memorial Hospital","1454 N County Road 2050","62321",40.365925798961655,-91.25225630458176
"62321","Carthage","IL","Memorial Hospital","1454 North County Road 2050","62321",40.40797266637332,-91.11355499231782
"62341","Hamilton","IL","Montebello HealthCare Center","1599 Keokuk St","62341",40.396568298339844,-91.3355484008789
"62341","Hamilton","IL","Keokuk Veterinary Hospital","28 S 2nd St","52632",40.39328099999999,-91.38126799999999
"62351","Mendon","IL","Seppys Residence","not_available","62351",40.102222222222224,-91.28055555555555
"62353","Mount Sterling","IL","Culbertson Memorial Hospital","238 S Congress St","62681",40.11805812855446,-90.56395573084858
"62354","Nauvoo","IL","FMCH Laboratory","not_available","52627",40.625694161844606,-91.38461281308523
"62363","Pittsfield","IL","Illini Community Hospital","640 W Washington St","62363",39.607529,-90.815012
"62401","Effingham","IL","Effingham Prompt Care","401 North Mulberry Street","62401",39.12536394,-88.55177513
"62401","Effingham","IL","The Center For Jaw and Facial Surgery, P.C.","901 Medical Park Dr Ste 200","62401",39.12908935546875,-88.55467224121094
"62401","Effingham","IL","Illinois Spine And Pain Center","901 Medical Park Dr Ste 201","62401",39.12908935546875,-88.55467224121094
"62401","Effingham","IL","HSHS Medical Group Colorectal & General Surgery","904 Medical Park Dr","62401",39.130184173583984,-88.55340576171875
"62401","Effingham","IL","Convenient Care","not_available","62401",39.126873,-88.551879
"62401","Effingham","IL","St Anthony's Memorial Hospital","503 N Maple St","62401",39.12556657748607,-88.55019465690934
"62401","Effingham","IL","Carle in Effingham","401 N. Keller Drive Suite 3 & 4","62401",39.12529984162769,-88.55839043855667
"62401","Effingham","IL","Effingham Express Care","1001 Avenue of Mid America Ste 4","62401",39.14126968383789,-88.5553970336914
"62439","Lawrenceville","IL","Good samartian hospital","not_available","47591",38.67155822460038,-87.51135776289956
"62439","Lawrenceville","IL","The Rohrer Family Clinic","1027 Washington Ave","47591",38.680999755859375,-87.51858520507812
"62439","Lawrenceville","IL","Good Samaritan Hospital","520 S 7th St","47591",38.67247583676106,-87.53350276444208
"62439","Lawrenceville","IL","Orthopaedic Associates Vincennes","520 S. 7th Street","47591",38.67318344116211,-87.53372955322266
"62441","Marshall","IL","Marshall First Christian Church","not_available","62441",39.3979606628418,-87.70088958740234
"62449","Oblong","IL","CMH Oblong Rural Health Clinic","1366 E 1050th Ave","62449",39.0016761,-87.9276009
"62450","Olney","IL","Richland Memorial Hospital","not_available","62450",38.736671492133226,-88.0770770398361
"62450","Olney","IL","richland memorial hospital rehabilitation Center","800 E Locust St","62450",38.736607,-88.077249
"62454","Robinson","IL","Crawford Memorial Hospital","1000 N Allen St","62454",39.013167,-87.749954
"62454","Robinson","IL","CMH Robinson Rural Health Clinic","1101 N Allen St","62454",39.01435559999999,-87.7489961
"62454","Robinson","IL","Crawford Wellness","not_available","62454",39.00885772705078,-87.73796844482422
"62471","Vandalia","IL","Fayette County Hospital","650 W Taylor St","62471",38.96989822387695,-89.09867858886719
"62501","Argenta","IL","DMH Family Medicine","4775 East Maryland Street","62521",39.819439,-88.880533
"62501","Argenta","IL","DMH Express Care East","4455 US Route 36 East","62521",39.822217,-88.886434
"62501","Argenta","IL","Decatur Ambulance Post 3","not_available","62523",39.80618686739109,-88.89235615439166
"62521","Decatur","IL","St. Mary's Hospital","1800 E Lake Shore Dr","62521",39.82743767732886,-88.93210521480012
"62521","Decatur","IL","St. Mary's Cardio Education Class","not_available","62521",39.827852,-88.933811
"62521","Decatur","IL","Decatur Memorial Hospital: Emergency Room","2300 North Edward Street","62526",39.86758734716306,-88.96169188110004
"62521","Decatur","IL","DMH Medical Records","not_available","62526",39.86716842651367,-88.96048736572266
"62521","Decatur","IL","DMH Express Care North","3131 N Water St","62526",39.8790219,-88.955675
"62521","Decatur","IL","Decatur Memorial Hospital: Emergency Room","2300 N Edward St","62526",39.8668512,-88.9618217
"62521","Decatur","IL","ENTA Allergy, Head & Neck Institute","101 West McKinley Avenue","62526",39.8677887,-88.9588897
"62521","Decatur","IL","DMH Trauma Center","2300 N. Edward","62526",39.8668512,-88.9618217
"62521","Decatur","IL","Decatur Neurosurgery Associates","2 Memorial Drive Suite 207","62526",39.86714172363281,-88.9629135131836
"62521","Decatur","IL","Heartland Health Care Center-Decatur","444 W Harrison Ave","62526",39.86422872,-88.96195367
"62521","Decatur","IL","DMH Medical Lab","2800 N Edward St","62526",39.86739299040696,-88.96238043019515
"62522","Decatur","IL","Cancer Care Institute","210 W. McKinley Ave","62526",39.8695844,-88.958495
"62522","Decatur","IL","Bailey & Gilman","302 W. Hay","62526",39.8663444519043,-88.95987701416016
"62522","Decatur","IL","Digestive Disease Center","2 Memorial Dr Ste 102","62526",39.867315000000005,-88.961291
"62522","Decatur","IL","Central Illinois Orthopaedic Center","2300 N. Edward St","62526",39.866886356419336,-88.9617907085245
"62526","Decatur","IL","Forsyth Medical Center","241 West Weaver Road","62535",39.9232161,-88.9586668
"62526","Decatur","IL","DMH Signature Health","389 Weaver Rd","62535",39.92299850165925,-88.95949312037658
"62548","Mount Pulaski","IL","AGH Nuclear Medicine","North Ave, Grand Junction, CO","62548",40.0086784362793,-89.28099822998047
"62557","Pana","IL","Pana Community Hospital","101 East 9th Street","62557",39.3794562,-89.0843785
"62557","Pana","IL","Pana Community Hospital","not_available","62557",39.37968401945289,-89.08458807315284
"62558","Pawnee","IL","Texas Children's Hospital","6411 Fannin St","77030",39.67042541503906,-89.55398559570312
"62565","Shelbyville","IL","HSHS Good Shepherd Hospital","200 South Cedar St","62565",39.4057615,-88.80783919999999
"62565","Shelbyville","IL","HSHS Medical Group General Surgery Specialty Clinic - Shelbyville","200 S Cedar St","62565",39.4057615,-88.80783919999999
"62568","Taylorville","IL","Springfield Clinic Taylorville","600 N Main St","62568",39.55558379599332,-89.29427865889551
"62568","Taylorville","IL","Dunn's Ambulance Service Inc","305 East Main Cross Street","62568",39.549564233333335,-89.2918877
"62568","Taylorville","IL","Memorial Hospital Taylorville","201 E Pleasant St","62568",39.55530548095703,-89.29438018798828
"62568","Taylorville","IL","TMH Surgery Dept.","not_available","62568",39.554819068864965,-89.29365773245647
"62618","Beardstown","IL","Memorial Physician Services - JBS Beardstown","8460 St. Lukes Drive","62618",40.0006888,-90.42423459999999
"62626","Carlinville","IL","Carlinville Area Hospital","20733 N Broad St","62626",39.29937744140625,-89.88286590576172
"62626","Carlinville","IL","Dunn's Ambulance","not_available","62626",39.27748,-89.875984
"62626","Carlinville","IL","Carlinville Eye Care","270 N Broad Street","62626",39.282895,-89.8820479
"62629","Chatham","IL","Lincoln Prairie Behavioral Health Center","5230 South 6th Street","62703",39.72556439999999,-89.6408872
"62629","Chatham","IL","Memorial ExpressCare - Chatham","101 E Plummer Blvd","62629",39.686447,-89.703697
"62640","Girard","IL","Prairieland Ambulance","not_available","62690",39.49789637444798,-89.7686791328187
"62650","Jacksonville","IL","Passavant Area Hospital","1600 W Walnut St","62650",39.746378058831176,-90.26018256984766
"62650","Jacksonville","IL","Passavant Hospital OB Floor","W Walnut St","62650",39.746605,-90.260234
"62650","Jacksonville","IL","Passavant Emergency Room","W. Walnut Ave.","62650",39.74693765296191,-90.26097044135705
"62650","Jacksonville","IL","Anthony Griffin, MD","15 Founders Lane Suite 100","62650",39.74693771907395,-90.25864342078606
"62650","Jacksonville","IL","Passavant Home Services","306 N Westgate Ave Ste A","62650",39.74012756347656,-90.26128387451172
"62650","Jacksonville","IL","Omar Vargas MD","15 Founders Lane","62650",39.746977,-90.258691
"62650","Jacksonville","IL","Passavant Hospital Ambulatory Surgery","W. Walnut St.","not_available",39.64402012497357,-90.32216012681953
"62650","Jacksonville","IL","Tracy Hendricks, MD","1000 West Morton Ave, Urgent Care","62650",39.72366441385801,-90.24381520844088
"62656","Lincoln","IL","Abraham Lincoln Memorial Hospital","200 Stahlhut Dr","62656",40.153679380969244,-89.38984158095091
"62656","Lincoln","IL","Dermatology & Mohs Surgery Institute - Lincoln","626 N. Chicago","62656",40.1518322,-89.3580112
"62656","Lincoln","IL","Safe Haven Hospice","200 N Postville Dr","62656",40.15182113647461,-89.3860092163086
"62701","Springfield","IL","St. John's Hospital","800 E. Carpenter St.","62702",39.80566250288301,-89.64494927990889
"62701","Springfield","IL","St. John's Children's Hospital / Carol Jo Vecchie Women & Children's Center","800 E Carpenter St","62769",39.8046865,-89.64593529999999
"62701","Springfield","IL","St. John's Surgery Waiting","not_available","62702",39.80515536232457,-89.6448953652458
"62701","Springfield","IL","OSF Children's Hospital of Illinois","2524 Farragut Dr","62704",39.8069534301758,-89.6511077880859
"62701","Springfield","IL","St Johns Trailors","517 n 7th street","not_available",39.80677032470703,-89.64671325683594
"62701","Springfield","IL","HSHS Medical Group General Surgery Springfield","301 North 8th St","62701",39.8039095,-89.64493809999999
"62701","Springfield","IL","DCFS","406 E Monroe St","62701",39.79927062988281,-89.65045166015625
"62701","Springfield","IL","Cardiac Recovery Unit - St. John's","not_available","62701",39.80547477735346,-89.64631504984752
"62701","Springfield","IL","HSHS Medical Group Children's Surgical Services","301 N 8th St","62702",39.8052734,-89.6451668
"62701","Springfield","IL","HSHS Medical Group Anesthesiology & Perioperative Services Springfield","800 East Carpenter St","62769",39.80561447143555,-89.64506530761719
"62702","Springfield","IL","Memorial Medical's Surgery Waiting Room","1st Street","62702",39.80923617142154,-89.65619387629702
"62702","Springfield","IL","Memorial Medical Center","701 N. First St.","62781",39.80922302252441,-89.65541367896861
"62702","Springfield","IL","Mary Saunders, MD","3220 Atlanta St","62707",39.83583410000001,-89.6026445
"62702","Springfield","IL","MMC Regional Cancer Center","701 North 1st Street","62784",39.809052,-89.655319
"62702","Springfield","IL","Memorial Medical Center 6th Floor","2nd St.","62707",39.80897650402046,-89.65616663974652
"62703","Springfield","IL","Rajesh Srinivasan, MD","1025 South 6th Street, Urgent Care Main 1st Floor","62703",39.79097995849641,-89.64816005003553
"62703","Springfield","IL","PRN Healthcare Services","526 S Grand Ave W","62704",39.78669359,-89.66252268
"62703","Springfield","IL","First Step Women's Center","215 South Grand Avenue West","62704",39.7872417,-89.6569039
"62704","Springfield","IL","Priority care","Macarthur blvd","62704",39.78013554006313,-89.66807364609744
"62704","Springfield","IL","Ashish John, MD","3132 Old Jacksonville Road","62704",39.78504670064487,-89.71453748316783
"62704","Springfield","IL","Memorial hospital e r","not_available","62704",39.7705078125,-89.66989135742188
"62704","Springfield","IL","HSHS Medical Group","3051 Hollis Dr","62704",39.7573264,-89.7109744
"62704","Springfield","IL","Dermatology & Mohs Surgery Institute - Springfield","2901 Old Jacksonville Road","62704",39.787208557128906,-89.70913696289062
"62801","Centralia","IL","st. marys good Samaritan cancer center","not_available","62801",38.5295706023542,-89.1175772674758
"62801","Centralia","IL","Heartland Women's Healthcare","430 N. Pleasant Ave.","62801",38.5301732,-89.1171079
"62811","Bellmont","IL","Deaconess Gateway Hospital","4011 Gateway Blvd","47630",38.38470458984375,-87.91325378417969
"62812","Benton","IL","Franklin Hospital","not_available","62812",38.009615135210055,-88.91839602651253
"62812","Benton","IL","COLONIAL MANOR","not_available","62999",37.92374840103857,-89.05941047153682
"62812","Benton","IL","Heartland Women's Healthcare","203 Bailey Ln.","62812",38.0097847,-88.918544
"62821","Carmi","IL","Heartland Women's Healthcare","1112 Oak St. Suite 102","62821",38.0848019,-88.1771945
"62832","Du Quoin","IL","Heartland Women's Healthcare","900 N. Washington St.","62832",38.0252175,-89.2365442
"62832","Du Quoin","IL","Marshall Browning Hospital","900 N Washington St","62832",38.02503876198395,-89.23647018696067
"62837","Fairfield","IL","Fairfield Memorial Hospital","not_available","62837",38.381263732910156,-88.37527465820312
"62837","Fairfield","IL","Heartland Women's Healthcare","209 NW 11th St.","62837",38.3811378,-88.3746569
"62839","Flora","IL","Clay County Hospital","911 Stacey Burk Dr","62839",38.68098823043497,-88.47261495149897
"62839","Flora","IL","Heartland Women's Healthcare","929 Stacy Burk Dr.","62839",38.681005,-88.47277
"62859","Mc Leansboro","IL","Hamilton Memorial Hospital","611 S Marshall Ave","62859",38.08687421011043,-88.54030258447682
"62864","Mount Vernon","IL","Heartland Women's Healthcare","3130 Veterans Memorial Dr.","62864",38.3004306,-88.931626
"62864","Mount Vernon","IL","Good Samaritan Regional Health Center","1 Good Samaritan Way","62864",38.297592465181175,-88.9392937852879
"62864","Mount Vernon","IL","Good Samaritan Hospital","605 N 12th St","62864",38.32366948763246,-88.9102886615801
"62864","Mount Vernon","IL","Nature Trail Health Care Center","1001 S 34th St","62864",38.30590413,-88.93434799
"62864","Mount Vernon","IL","countryside manor","not_available","62864",38.31726837158203,-88.88084411621094
"62864","Mount Vernon","IL","Crossroads Community Hospital","8 Doctors Park Rd","62864",38.31224,-88.93698
"62865","Mulkeytown","IL","St.Louis, Mo.","not_available","62983",37.89177599940763,-89.08122280531661
"62870","Odin","IL","Odin HealthCare Center","300 Green St","62870",38.62036963,-89.05053137
"62881","Salem","IL","Salem Township Hospital","1201 Ricker Rd","62881",38.64185333251953,-88.94850158691406
"62881","Salem","IL","Heartland Women's Healthcare","1250 W. Whittaker St.","62881",38.6237404,-88.9579563
"62881","Salem","IL","Icexpress","1325 W Whittaker St #3","62881",38.62276077270508,-88.96076965332031
"62901","Carbondale","IL","Memorial Hospital Of Carbondale","405 W Jackson St","62901",37.72770395350351,-89.22027424722076
"62901","Carbondale","IL","Memorial Hospital Nursery","not_available","62901",37.72812512986227,-89.21998163475654
"62901","Carbondale","IL","Heartland Women's Healthcare","900 E. Walnut St. Suite 10","62901",37.7271407,-89.2019122
"62901","Carbondale","IL","Sleep Wellness Equipment & Supplies","2731 W Main St Ste B","62901",37.73708724975586,-89.25337219238281
"62901","Carbondale","IL","Skyline Vacation Rental","not_available","62903",37.73288068168842,-89.11345481872559
"62906","Anna","IL","Personal Medical Equipment And Services","517 E Vienna St","62906",37.46143341064453,-89.23251342773438
"62906","Anna","IL","Union County Hospital","517 N Main St","62906",37.46501541137695,-89.24568939208984
"62910","Brookport","IL","Troy Sofinowski, MD","2603 Kentucky AvenueSuite 102","42003",37.0739117572602,-88.62775057565159
"62910","Brookport","IL","Western Baptist Hospital","2501 Kentucky Ave","42003",37.06678499278674,-88.63134137563696
"62910","Brookport","IL","Infectious Disease Assoc","2601 KY Ave","42003",37.073460831665926,-88.62696921750246
"62910","Brookport","IL","Western Baptist Hospital","not_available","42001",37.09239160374192,-88.62269556229093
"62910","Brookport","IL","DOB 2","2603 KY Ave","42001",37.07372246691897,-88.62765710849875
"62910","Brookport","IL","Western Baptist Labor And Delivery","not_available","42003",37.073726347889,-88.62775133927235
"62910","Brookport","IL","Legacy Oxygen & Home Care Equipment LLC","126 Lone Oak Rd","42001",37.069671630859375,-88.63783264160156
"62910","Brookport","IL","Baptist Health Medical Group Pediatrics","2605 Kentucky Ave Ste 501","42003",37.07338530977433,-88.62872779391182
"62917","Carrier Mills","IL","Saline Care Center","193-233 S Land St","62946",37.736778259277344,-88.54947662353516
"62918","Carterville","IL","Herrin Hospital","not_available","62948",37.801107251223534,-89.02638787125166
"62918","Carterville","IL","Helia Healthcare of Energy","210 E College St","62933",37.77351597768383,-89.02391442278434
"62930","Eldorado","IL","Ferrell Hospital","1201 Pine St","62930",37.81534679920153,-88.44163052084978
"62930","Eldorado","IL","Heartland Women's Healthcare","24 Veterans Dr.","62948",37.7469679,-88.5305858
"62946","Harrisburg","IL","Harrisburg Medical Center","100 Dr Warren Tuttle Dr","62946",37.73107904787095,-88.52343309450156
"62959","Marion","IL","Marion VA Medical Center","2401 W Main St","62959",37.724598720972516,-88.95479679107666
"62959","Marion","IL","Heartland Regional Medical Center","3333 W Deyoung St","62959",37.742889,-88.99146999999999
"62959","Marion","IL","Behavioral Medicine Annex","1301 Enterprise Way Ste 68","62959",37.739952087402344,-88.9410629272461
"62959","Marion","IL","OB Ward at HRMC","not_available","62959",37.7430153843904,-88.9910594615314
"62959","Marion","IL","Heartland Women's Healthcare","3408 Office Park Dr.","62959",37.7365801,-88.9939716
"62960","Metropolis","IL","Massac Memorial Hospital","28 Chick St","62960",37.1679067,-88.74007639999999
"62960","Metropolis","IL","Massac County Hospital Physidal Therapy","not_available","62960",37.166124,-88.739175
"62966","Murphysboro","IL","St Joseph Sleep Lab","not_available","62966",37.77487661731862,-89.32490284512686
"62966","Murphysboro","IL","Murphysboro Health Center","4 S Hospital Dr","62966",37.773509278379734,-89.32234460391957
"62982","Rosiclare","IL","Hardin County Hospital","not_available","62982",37.422353423030586,-88.35147430592129
