"zip","city","state","name","address","postalCode","lat","lon"
"66002","Atchison","KS","Atchison Hospital","not_available","not_available",39.53626953446674,-95.12917209428134
"66002","Atchison","KS","The University of Kansas Health System Cardiology","820 Raven Hill Dr Ste 106A","66002",39.536482,-95.128967
"66006","Baldwin City","KS","Baldwin Healthcare & Rehab Center","1223 Orchard Ln","66006",38.77335739135742,-95.19636535644531
"66007","Basehor","KS","ransom Memorial","not_available","66007",39.11675262451172,-94.91161346435547
"66012","Bonner Springs","KS","Bonner Springs Nursing And Rehab","not_available","66217",39.06518131028633,-94.87912416714353
"66012","Bonner Springs","KS","Marillac","not_available","66012",39.09225082397461,-94.90252685546875
"66027","Fort Leavenworth","KS","Munson Army Health Center","550 Pope Ave","66027",39.35338099618662,-94.92547988891602
"66027","Fort Leavenworth","KS","Ft Leavenworth Radiology","Pope Ave, Leavenworth, KS 66027","66027",39.354032709036886,-94.92513589618666
"66032","Garnett","KS","Anderson County Hospital","421 S Maple St","66032",38.280181884765625,-95.25016021728516
"66032","Garnett","KS","Anderson County EMS","High St","66032",38.27982744222403,-95.2514812318427
"66043","Lansing","KS","Leavenworth Va Hospital","Riverview Ave","66048",39.28222780567225,-94.89666171168363
"66043","Lansing","KS","Saint John Hospital","3500 S 4th St","66048",39.2825927,-94.90343469999999
"66043","Lansing","KS","Saint John Hospital  Emergency Medicine","3550 S 4th St","66048",39.28271,-94.90318
"66043","Lansing","KS","The University of Kansas Health System Cardiology","3601 S 4th St Ste 1","66048",39.27982,-94.900588
"66044","Lawrence","KS","Lawrence Memorial Hospital","325 Maine St","66044",38.97881396089122,-95.24902316952887
"66044","Lawrence","KS","Lawrence Surgery Center","not_available","66044",38.973702,-95.248279
"66044","Lawrence","KS","The University of Kansas Health System Vascular Surgery","1130 W 4th St Ste 2001","66044",38.97813,-95.24829
"66044","Lawrence","KS","Family Birthing Center","330 Arkansas St","66044",38.9784275,-95.24936199999999
"66044","Lawrence","KS","Lilly Mason CPM","401 Arkansas St","66044",38.976588,-95.250179
"66044","Lawrence","KS","Community Health Facility","200 Maine St Fl 2","66044",38.979801177978516,-95.24698638916016
"66044","Lawrence","KS","MedExpress Urgent Care","3420 West 6th Street","66049",38.971973,-95.280475
"66046","Lawrence","KS","PromptCare","3511 Clinton Pl","66047",38.94101819999999,-95.2799848
"66046","Lawrence","KS","Kreider Rehabilitation Service - South","not_available","66047",38.942141500024945,-95.28038504774224
"66046","Lawrence","KS","Urgent Care","3511 Clinton Pl Ste B","66047",38.94108200073242,-95.27970886230469
"66047","Lawrence","KS","The University of Kansas Health System Sports Medicine and Performance Center","4910 Corporate Centre Dr","66047",38.952676,-95.307926
"66048","Leavenworth","KS","st johns hospital","not_available","66048",39.32188034057617,-94.92749786376953
"66048","Leavenworth","KS","NextCare Urgent Care","1100 N 4th St","66048",39.328202,-94.915094
"66049","Lawrence","KS","Kaiser","Lake View","not_available",39.01157760620117,-95.29783630371094
"66049","Lawrence","KS","LMHHealth West Campus","6265 Rock Chalk Dr","66049",38.977211,-95.332452
"66061","Olathe","KS","Olathe Medical Center","20333 W 151st St","66061",38.85252231840556,-94.82326167941444
"66061","Olathe","KS","Recycled Life","500 E Santa Fe St","66061",38.88389587402344,-94.81147766113281
"66061","Olathe","KS","Grin Eye Care","21020 W 151st St","66061",38.85497569,-94.82890755
"66061","Olathe","KS","Anti-zombie Road Service","not_available","66061",38.88769246895389,-94.81984376907349
"66061","Olathe","KS","Concerta Urgent Care","1349 S Fountain Dr","66061",38.8626,-94.8213
"66061","Olathe","KS","Good Samaritan Center Nursing Home","20705 W 151st St","66061",38.850450832925326,-94.82615590285423
"66061","Olathe","KS","The University of Kansas Health System Southlake Campus Pharmacy","11300 Corporate Ave Ste 120","66219",38.921299,-94.77442
"66061","Olathe","KS","Shawnee Mission Outpatient Pavilion","23401 Prairie Star Pkwy","66227",38.9550235,-94.8571265
"66061","Olathe","KS","Arbor Creek Animal Hospital","15971 S Bradley Dr","66062",38.838735,-94.778276
"66062","Olathe","KS","ER of Olathe","13505 S Alden St","66062",38.883095045052784,-94.75549221038818
"66062","Olathe","KS","Olathe Medical Hospital","not_available","66062",38.881709770864504,-94.75770465547419
"66062","Olathe","KS","St. Anthony's Behavioral Health Hospital","14200 West 134th Place","66062",38.8855092,-94.75047359999999
"66062","Olathe","KS","Saint Luke’s Community Hospital - Olathe","13405 S Blackbob Rd","66062",38.88422926,-94.76024056
"66062","Olathe","KS","Urgent Care Of Olathe","15435 W 134th Pl","66062",38.88423156738281,-94.76457977294922
"66062","Olathe","KS","Urgent Care Of Olathe","13435 W 134th Pl","66062",38.88436848171242,-94.76452070099204
"66064","Osawatomie","KS","Osawatomie state hospital","500 State Hospital Dr","66064",38.5135612487793,-94.94036102294922
"66064","Osawatomie","KS","Miami County Medical Center","Bapiste Road and Hwy 169","not_available",38.47555555555556,-94.93972222222223
"66066","Oskaloosa","KS","Cotton O'Neil Oskaloosa","209 W. Jefferson","66066",39.2154426574707,-95.31007385253906
"66067","Ottawa","KS","Ransom Memorial Hospital","Ottawa, KS","66067",38.5960733544185,-95.26803818062378
"66067","Ottawa","KS","AdventHealth Ottawa","1301 S Main St","66067",38.59629440307617,-95.26741027832031
"66071","Paola","KS","Miami County Medical Center","not_available","66071",38.56910129307077,-94.84941753526279
"66080","Richmond","KS","Richmond Healthcare And Rehabilitation Center","not_available","66080",38.39837525084829,-95.25146593188792
"66097","Winchester","KS","Jefferson County Memorial Hospital","408 Delaware St","66097",39.32597351074219,-95.270263671875
"66101","Kansas City","KS","The University of Kansas Health System Strawberry Hill Campus","901 N 5th St","66101",39.115069,-94.620078
"66101","Kansas City","KS","Concentra Urgent Care","Front St","66101",39.13122,-94.61313
"66102","Kansas City","KS","The University of Kansas Health System State Avenue Health Care","4810 State Ave","66102",39.117031,-94.689392
"66102","Kansas City","KS","The University of Kansas Health System Cardiology","5701 State Ave Ste 300","66102",39.116078,-94.710719
"66102","Kansas City","KS","The Heart Clinic (Suite B)","1601 Meadowlark Ln","66102",39.122337341308594,-94.70906066894531
"66103","Kansas City","KS","The University of Kansas Hospital Cambridge Tower A","3825 Cambridge St","66103",39.057766,-94.607744
"66103","Kansas City","KS","The University of Kansas Hospital","4000 Cambridge St","66160",39.05608085969903,-94.60888284788523
"66103","Kansas City","KS","Ku Mri","not_available","66103",39.055773,-94.609115
"66103","Kansas City","KS","The University of Kansas Health System Medical Pavilion","2000 Olathe Blvd","66160",39.054431,-94.608731
"66103","Kansas City","KS","Kumed Spine Center","Cambridge St","66103",39.055696,-94.608547
"66103","Kansas City","KS","KUMC Bell Hospital","3901 Rainbow Blvd, Kansas City, KS 66103","66103",39.05569174877444,-94.61018357569583
"66103","Kansas City","KS","KUMC Outpatient Lab","3901 Rainbow Blvd","66160",39.05459665740783,-94.60880159060237
"66104","Kansas City","KS","KVC Hospitals Inc. - Prairie Ridge Campus","4300 Brenner Dr","66104",39.1652338428733,-94.70897799645147
"66104","Kansas City","KS","The University of Kansas Hospital – Adult Services at KVC Prairie Ridge","4300 Brenner Drive","66104",39.1648165,-94.7091773
"66105","Kansas City","KS","Concentra Urgent Care","4214 Kansas Ave","66106",39.09100846416677,-94.6776008605957
"66106","Kansas City","KS","SM Urgent Care","91st","66106",39.052561,-94.659396
"66109","Kansas City","KS","Providence Medical Center","8929 Parallel Pkwy","66112",39.1265615,-94.7866525
"66109","Kansas City","KS","Heartland Urgent Care","not_available","66109",39.12989807128906,-94.83710479736328
"66109","Kansas City","KS","Select Specialty Care","not_available","66112",39.12471484364165,-94.78685598981745
"66202","Mission","KS","Mission MedVet","5914 Johnson Dr","66202",39.02222549635575,-94.65428258126512
"66202","Mission","KS","Lancing Mental Hospital","1301 K264 Hwy","67550",39.03294605415363,-94.64820579308928
"66202","Mission","KS","Saint Luke’s Convenient Care – Price Chopper 45 Hwy","9107 NW 45 Hwy","64152",39.01912,-94.66281
"66202","Mission","KS","University of Kansas Hospital","5799 Broadmoor St","66202",39.02436116696736,-94.66490304438756
"66202","Mission","KS","The University of Kansas Health System Mission Family Care","6511 Johnson Dr","66202",39.02143,-94.6612
"66202","Mission","KS","Mission Urgent Care","5555 W 58th St","66202",39.023780822753906,-94.6496353149414
"66203","Shawnee","KS","Shawnee Mission Medical Center Emergency Department","75th St","66204",38.99489155176388,-94.69196114645153
"66203","Shawnee","KS","Spira Care By Bcbs - Shawnee","10824 Shawnee, Kansas 66203","66203",39.01523,-94.71153
"66203","Shawnee","KS","Ostroff Treatment Center","not_available","66203",39.021866,-94.705089
"66203","Shawnee","KS","ER of Shawnee","10310 Shawnee Mission Pkwy","66203",39.0149075,-94.7051281
"66203","Shawnee","KS","The University of Kansas Health System Vascular Surgery","7420 Switzer St","66203",38.993771,-94.705429
"66203","Shawnee","KS","Shawnee Mission - Radiology Department","not_available","66204",38.99546517096597,-94.69273239718264
"66203","Shawnee","KS","Saint Luke’s Community Hospital - North Overland Park","7246 W 75th St","66204",38.9935328,-94.6695129
"66203","Shawnee","KS","Medical Express Urgent Care","11338 Shawnee Mission Pkwy","66203",39.015263,-94.718717
"66203","Shawnee","KS","Shawnee Mission Heart & Vascular Center","Access Road 74th","66204",38.996363788354046,-94.68639591701273
"66203","Shawnee","KS","SMMC Family Support Area","9100 W 74th St","66204",38.99604034423828,-94.6915283203125
"66203","Shawnee","KS","Peepers Optical Inc","11000 Johnson Drive","66203",39.02312939999999,-94.71358149999999
"66204","Overland Park","KS","AdventHealth Shawnee Mission","9100 W. 74th St","66204",38.991342,-94.680024
"66204","Overland Park","KS","Mobile Health Clinics LLC","8220 Travis St #201","66204",38.9794302,-94.6667121
"66205","Mission","KS","The University of Kansas Cancer Center Cancer Care Pavilion","2330 Shawnee Mission Pkwy","66205",39.033855559696725,-94.6159569019871
"66205","Mission","KS","Prakash C Neupane, MD","10710 Nall Ave","66211",39.033949,-94.613093
"66205","Mission","KS","The University of Kansas Health System Westwood Medical Pavilion","2650 Shawnee Mission Parkway","66205",39.033392,-94.61618
"66205","Mission","KS","The University of Kansas Health System Neuropsychology","4330 Shawnee Mission Parkway","66205",39.028845,-94.636364
"66205","Mission","KS","The University of Kansas Health System West Plaza Imaging","1901 W 47th Pl","66205",39.042513,-94.608034
"66205","Mission","KS","Westwood Urgent Care","2650 Shawnee Mission Pkwy Ste 2201A","66205",39.033569,-94.615525
"66205","Mission","KS","Saint Luke's Community Hospital - Roeland Park","4720 Johnson Dr","66205",39.02546274,-94.640699
"66205","Mission","KS","The University of Kansas Health System Sleep Disorders","4720 Rainbow Blvd Ste B03","66205",39.042767,-94.612206
"66205","Mission","KS","KU","4720 Rainbow Blvd","66205",39.04276657104492,-94.61223602294922
"66205","Mission","KS","The University of Kansas Health System Dentistry","4720 Rainbow Blvd Ste 250","66205",39.042767,-94.612206
"66205","Mission","KS","The University of Kansas Health System Westwood Medical Pavilion Pharmacy","2650 Shawnee Mission Parkway Ste 202","66205",39.033392,-94.61618
"66205","Mission","KS","Kenneth P Byrd, DO","4350 Shawnee Mission Parkway","66205",39.028382,-94.637475
"66206","Leawood","KS","St joseph medical center -- telemetry room 439-1","not_available","66206",38.93815,-94.60885
"66206","Leawood","KS","KU Medical Center","not_available","64063",38.97110401265926,-94.62100401422141
"66206","Leawood","KS","St Joseph Breast Center","not_available","64114",38.93511576117389,-94.60831820054362
"66206","Leawood","KS","Saint Luke’s Urgent Care Mission Farms","4061 Indian Creek Pkwy Ste 130","66207",38.93412500227152,-94.6313673723489
"66206","Leawood","KS","CareNow Urgent Care","3500 W 95th St","66206",38.957191467285156,-94.62625122070312
"66207","Overland Park","KS","The University of Kansas Health System Plastic Surgery","10777 Nall Ave Ste 210","66211",38.932660973837805,-94.65107871796978
"66207","Overland Park","KS","The University of Kansas Health System Sports Medicine and Performance Center","10730 Nall Ave Ste 200","66211",38.932354,-94.652469
"66207","Overland Park","KS","Ambulatory Surgery Center at Indian Creek Campus","10720 Nall Ave","66211",38.933221,-94.651736
"66207","Overland Park","KS","ManorCare","5211 W 103rd St","66207",38.94088748303152,-94.64583362079453
"66207","Overland Park","KS","University of Kansas-Indian Creek","10720 Nall","not_available",38.93397016982664,-94.64861445295628
"66207","Overland Park","KS","Rehabilitation Hospital of Overland Park","5100 Indian Creek Pkwy","66207",38.93545913696289,-94.64483642578125
"66207","Overland Park","KS","South Kansas City Surgicenter","10730 Nall Ave Ste 100","66217",38.93235397338867,-94.65247344970703
"66207","Overland Park","KS","The University of Kansas Health System Internal Medicine","10787 Nall Ave Ste 310","66211",38.933345,-94.646888
"66207","Overland Park","KS","The University of Kansas Health System Obstetrics and Gynecology","10777 Nall Ave Ste 200","66211",38.933172,-94.648022
"66207","Overland Park","KS","The University of Kansas Health System Neurology","10777 Nall Ave Ste 140","66211",38.933166,-94.648218
"66207","Overland Park","KS","The University of Kansas Health System Otolaryngology","10787 Nall Ave Ste 220","66211",38.933345,-94.646888
"66207","Overland Park","KS","Children's Mercy South Genetics Clinic","110th and Nall","66211",38.94398992538853,-94.64015430519646
"66207","Overland Park","KS","Childers Mercy Hospital and Clinics","Hospital and Clinic Buildings","not_available",38.93153090007449,-94.64018457171979
"66207","Overland Park","KS","The University of Kansas Health System Bariatric Surgery","10700 Nall Ave Ste 102","66211",38.933172,-94.648022
"66207","Overland Park","KS","The University of Kansas Cancer Center Sarcoma Center","10730 Nall Ave Ste 201","66211",38.9327439,-94.6521123
"66207","Overland Park","KS","The University of Kansas Health System Cardiology","10787 Nall Ave Ste 300","66211",38.9331092,-94.6481855
"66208","Prairie Village","KS","University Of Kansas Medical Center","not_available","66208",38.99430991668322,-94.60841398851863
"66208","Prairie Village","KS","The University of Kansas Health System Eye Center","7400 State Line Rd","66208",38.994407,-94.608909
"66208","Prairie Village","KS","University Of Kansas Pediatric Urgent Care","3706-3898 W 73rd Ter","66208",38.99647298715817,-94.62983440156364
"66208","Prairie Village","KS","The University of Kansas Health System Pediatrics","7301 Mission Rd","66208",38.996345,-94.629566
"66209","Leawood","KS","Menorah Medical Center","5721 W 119th St","66209",38.9106889,-94.6515459
"66209","Leawood","KS","CMH Urgent Care/Sports Medicine","6750 W 135th St","66223",38.88573,-94.665628
"66209","Leawood","KS","Room 339-2","not_available","66209",38.910507612782524,-94.65117243062105
"66209","Leawood","KS","Saint Luke's Community Hospital","13200 State Line Rd","66209",38.889073,-94.608807
"66209","Leawood","KS","Room 317 @ Menorah Hosp.","Nall Ave","66061",38.910532138788135,-94.65029957662476
"66209","Leawood","KS","Children's Mercy South Urgent Care","not_available","66207",38.88524995829854,-94.6624350138979
"66210","Overland Park","KS","The University of Kansas Health System Quivira Medical Pavilion","12000 W 110th St","66210",38.930654,-94.726192
"66210","Overland Park","KS","The University of Kansas Cancer Center","12200 W 110th St","66210",38.930665,-94.727683
"66210","Overland Park","KS","New Birth Company","9209 W 110th St Bldg 36","66210",38.927894592285156,-94.69293212890625
"66211","Leawood","KS","Children's Mercy South","5808 W 110th St","66211",38.929868377289786,-94.65265168949578
"66211","Leawood","KS","Mid America Rehabilitation","5701 W 110th St","66211",38.9290677184722,-94.65143479409151
"66211","Leawood","KS","Doctor's Hospital","4901 College Blvd","66211",38.92702293319168,-94.64332733725576
"66211","Leawood","KS","Cardinal Health Warehouse","11300 Glenwood St","66211",38.922764,-94.662397
"66211","Leawood","KS","CMH Room 50","not_available","66211",38.929843,-94.652478
"66212","Overland Park","KS","CareNow Urgent Care - Overland Park North","9507 Antioch Rd","66212",38.95591057965958,-94.68599967196496
"66212","Overland Park","KS","Childrens Mercy South Diabetic Clinic","not_available","66212",38.941962,-94.690859
"66212","Overland Park","KS","Indian Creek Healthcare Center","6515 W 103rd St","66212",38.938937,-94.66227
"66213","Overland Park","KS","Saint Luke's South Hospital","12300 Metcalf Ave","66213",38.903715374743165,-94.66972642851246
"66213","Overland Park","KS","st lukes south","not_available","64145",38.90453189491996,-94.66935922534482
"66213","Overland Park","KS","Blue Valley Hospital","12850 Metcalf Ave","66213",38.896287,-94.669143
"66213","Overland Park","KS","The University of Kansas Health System Marillac Campus","8000 W 127th St","66213",38.8997625,-94.68017760000001
"66213","Overland Park","KS","Saint Luke's South Emergency Department","not_available","66213",38.904505,-94.668918
"66213","Overland Park","KS","The University of Kansas Health System Sports Medicine and Performance Center","8302 W 125th St","66213",38.90156173706055,-94.682861328125
"66214","Overland Park","KS","Surgicenter of Johnson County","8800 Ballentine St","66214",38.968834,-94.711016
"66214","Overland Park","KS","Concentra Urgent Care","not_available","66215",38.9672293731168,-94.71140996791607
"66214","Overland Park","KS","Davita","10453 W.84th","66214",38.975213000000004,-94.707631
"66215","Lenexa","KS","Overland Park Regional NICU","10500 Quivira Rd","66215",38.9374641262753,-94.72657386469524
"66215","Lenexa","KS","AdventHealth Centra Care CorporateCare","9040 Quivira Rd","66215",38.964612,-94.724137
"66215","Lenexa","KS","Shawnee Mission Urgent Care","9040","66212",38.964465146472065,-94.72406563454214
"66215","Lenexa","KS","Concentra Wellness/Mobile","14831 W 95th St","66215",38.955377,-94.759412
"66215","Lenexa","KS","Reproductive Resource Center","6650 West 110th St. Suite 320","66211",38.937478000000006,-94.726524
"66217","Shawnee","KS","Danielle R Stebbins, MD","7405 Renner Rd","66217",38.994618,-94.776246
"66217","Shawnee","KS","KU MedWest Urgent Care","7405 Renner Rd Fl 1","66217",38.99471115283301,-94.77598371491221
"66219","Lenexa","KS","CareNow Urgent Care","15421 W 87th Street Pkwy","66219",38.970661,-94.765294
"66223","Overland Park","KS","Menorah Urgent Care","7935 W 151st St","66223",38.854141,-94.681148
"66223","Overland Park","KS","CareNow Urgent Care - Corbin Park","13761 Metcalf Ave","66223",38.87874221801758,-94.66703796386719
"66223","Overland Park","KS","Weight Loss Surgical Center","8101 W 135th St","66223",38.88304901123047,-94.68123626708984
"66401","Alma","KS","Team Hope World Foundation","not_available","66801",38.89051338234541,-96.1468505859375
"66414","Carbondale","KS","Cotton O'Neil Carbondale","211 Main St.","66414",38.818619,-95.6916
"66434","Hiawatha","KS","Hiawatha Community Hospital","300 Utah St","66434",39.85174321029697,-95.53095374702255
"66436","Holton","KS","Holton Community Hospital","not_available","66436",39.47990418,-95.75123415
"66439","Horton","KS","Horton Community Hospital","240 W 18th St","66439",39.67300011443996,-95.5301030546195
"66441","Junction City","KS","emergency room","not_available","66442",39.09825721678827,-96.79041778870493
"66441","Junction City","KS","Irwin Army Community Hospital","650 Huebner Road","66442",39.079124639422105,-96.77259922027588
"66441","Junction City","KS","Geary community hospital","not_available","66441",39.013675914464585,-96.85062665306812
"66441","Junction City","KS","Advanced Dermatology & Skin Cancer Center - Junction City, KS","1106 St. Marys Rd., Suite 203","66441",39.014314,-96.8500353
"66502","Manhattan","KS","Ascension Via Christi Hospital in Manhattan","1823 College Ave","66502",39.20128631591797,-96.60017395019531
"66502","Manhattan","KS","K+STAT Urgent Care","930 Hayes Dr","66502",39.188785,-96.554118
"66502","Manhattan","KS","Advanced Dermatology and Skin Cancer Center PA","1133 College Ave Ste E230","66502",39.192251,-96.599735
"66502","Manhattan","KS","Manhattan Urgent Care","1400 Beechwood Ter","66502",39.193149972448325,-96.61052942276001
"66502","Manhattan","KS","MMG Walk-In Clinic","2900 Amherst Ave","66503",39.18053505033775,-96.60993045767214
"66502","Manhattan","KS","Via Christi Imaging","1133 College Ave","66502",39.192251,-96.599735
"66502","Manhattan","KS","Advanced Dermatology & Skin Cancer Center","2735 Pembrook Pl","66502",39.196039,-96.605723
"66503","Manhattan","KS","va medical center","not_available","66503",39.29228591918945,-96.74116516113281
"66507","Maple Hill","KS","Cotton O'Neil Rossville","423 Main","66533",39.1379358,-95.9524689
"66508","Marysville","KS","Community Memorial Healthcare","708 N 18th St","66508",39.8482550684636,-96.63514036172052
"66508","Marysville","KS","Marysville Hospital","not_available","66508",39.84578550041556,-96.63908531200249
"66512","Meriden","KS","Cotton O'Neil Meriden","407 E. Wyandotte","66512",39.1870275,-95.564066
"66516","Netawaka","KS","Cotton O'Neil Netawaka","200 Whiteway St.","66516",39.6012644,-95.7165321
"66521","Onaga","KS","Onaga Community Hospital","120 W 8th St","66521",39.49636860416511,-96.17136059895881
"66523","Osage City","KS","Cotton O'Neil Osage City","131 W. Market","66523",38.6341824,-95.8417302
"66538","Seneca","KS","Nemaha Valley Community Hospital","1600 Community Dr","66538",39.83715057373047,-96.07815551757812
"66542","Tecumseh","KS","Cotton O'Neil Croco","2909 S.E. Walnut Drive","66605",39.0142289,-95.6115462
"66547","Wamego","KS","Cotton O'Neil Wamego","1704 Commercial Circle","66547",39.2119447,-96.3186612
"66604","Topeka","KS","Stormont-Vail HealthCare","1500 SW 10th Ave","66604",39.053079969164706,-95.69539249223281
"66604","Topeka","KS","Topeka Veterans Affairs Medical Center","2200 SW Gage Blvd","66622",39.02644003603635,-95.72260119513763
"66604","Topeka","KS","Cotton O'Neil Pediatrics Gage","4100 S.W. 15th St.","66604",39.0417167,-95.7268147
"66604","Topeka","KS","Stormont Vail Emergency Room","not_available","66606",39.05345046737957,-95.69499412671654
"66604","Topeka","KS","The University of Kansas Health System Advanced Fetal Care and High-Risk Pregnancy","1111 Sw Gage Blvd Ste 300","66604",39.04905,-95.725153
"66604","Topeka","KS","4 Pavilion","not_available","66604",39.053294,-95.695217
"66604","Topeka","KS","MedExpress Urgent Care","1834 SW Wanamaker Rd","66604",39.033058996170865,-95.76170486871717
"66604","Topeka","KS","Stormont Vail ExcellENT Surgery","920 Southwest Lane St","66606",39.0513389,-95.6935467
"66604","Topeka","KS","Stormont Vail Telemetry Office","1500 SW 10th Ave Fl 3","66604",39.05240249633789,-95.69609069824219
"66604","Topeka","KS","Randall L Schumacher MD","4100 SW 15th St","66604",39.0417167,-95.7268147
"66606","Topeka","KS","Cotton O'Neil Cancer Center","1414 S.W. Eighth Ave.","66606",39.054546,-95.693428
"66606","Topeka","KS","Stormont Vail West","3707 SW 6th Ave","66606",39.058067321777344,-95.72283935546875
"66606","Topeka","KS","Cotton O'Neil Corporate View","601 S.W. Corporate View Road","66615",39.0571495,-95.7669338
"66606","Topeka","KS","Kansas Rehabilitation Hospital","1504 SW 8th Ave","66606",39.05483332517858,-95.6948049273501
"66606","Topeka","KS","Cotton O'Neil Foot & Ankle Clinic","1315 Southwest 6th Avenue A","66606",39.0560717,-95.6917086
"66606","Topeka","KS","Tallgrass Immediate Care","601 SW Corporate Vw Ste 200","66615",39.05706401165625,-95.76697216504145
"66606","Topeka","KS","St. Francis Health Center","1700 SW 7th St","66606",39.056646484212166,-95.69583607031097
"66606","Topeka","KS","MRI Center of Kansas","731 SW Mulvane St","66606",39.0552555902176,-95.69826748968808
"66606","Topeka","KS","Cotton O'Neil Mulvane","823 S.W. Mulvane St.","66606",39.0541332,-95.6987777
"66606","Topeka","KS","Mehmood H. Hashmi MD","1414 SW 8th Ave","66606",39.0545956,-95.6934012
"66607","Topeka","KS","Gracemed - Highland Park Health Clinic","2025 SE California Ave","66607",39.03115463256836,-95.65174102783203
"66608","Topeka","KS","Cotton O'Neil NOTO","1130 N. Kansas Ave.","66608",39.0711368,-95.6644062
"66614","Topeka","KS","Sleep Solutions by Michel Dental","2951 SW Wanamaker Dr","66614",39.01260916,-95.75816967
"66614","Topeka","KS","Cotton O'Neil Urish","6725 S.W. 29th St.","66614",39.0139912,-95.7796312
"66614","Topeka","KS","Cotton O'Neil Pediatrics Mission Woods","2860 S.W. Mission Woods Drive Suite B","66614",39.01505049600011,-95.77870041133338
"66614","Topeka","KS","Rolling Hills","2400 sw urish rd.","not_available",39.025657833938254,-95.78001762943063
"66614","Topeka","KS","Mallory R. McIntosh MD","2860 SW Mission Woods Dr","66614",39.0150501,-95.7786661
"66614","Topeka","KS","KMC Med Assist","4011 SW 29th St","66614",39.01443020000001,-95.7278307
"66618","Topeka","KS","Cotton O'Neil North","4505 N.W. Fielding Road","66618",39.1285594,-95.7148247
"66618","Topeka","KS","Cotton O'Neil North Fielding Respiratory Clinic","4505 NW Fielding Rd","66618",39.1285594,-95.7148247
"66618","Topeka","KS","Michael Tilley MD","2660 SW 3rd St","66606",39.0652848,-95.7083592
"66618","Topeka","KS","Brighton Place West","331 SW Oakley Ave","66606",39.062156,-95.71587199999999
"66701","Fort Scott","KS","Mercy Urgent Care- National","not_available","66701",37.82148088333334,-94.70769966666667
"66701","Fort Scott","KS","SEK Urgent Care","1624 S National Ave","66701",37.82177,-94.70766
"66701","Fort Scott","KS","Emergency - Ascension Via Christi in Fort Scott (Ascension Via Christi Emergency Department in Fort Scott)","401 Woodland Hills Blvd","66701",37.80636,-94.71005
"66720","Chanute","KS","Neosho Memorial Regional Medical Center","629 S Plummer Ave","66720",37.67528533935547,-95.47197723388672
"66725","Columbus","KS","Mercy Columbus","220 N Pennsylvania Ave","66725",37.17262964632331,-94.84317922590935
"66736","Fredonia","KS","Wilson Medical Center","2600 Ottawa Rd","66757",37.40964889526367,-95.70836639404297
"66739","Galena","KS","Cherokee County Ambulance","217 Turner Dr","66739",37.07619938771172,-94.64132966754015
"66739","Galena","KS","Orthopaedic Specialists of the Four States LLC (Ortho Four States) (Orthopaedic Specialists of the Four States)","444 Four States Drive Ste 1","66739",37.0790941,-94.6197761
"66739","Galena","KS","Mercy Specialty Hospital - Southeast Kansas","1619 W 7th St","66739",37.07797387604123,-94.62248640246908
"66743","Girard","KS","Girard Medical Center","not_available","66743",37.5140266418457,-94.85872650146484
"66749","Iola","KS","Allen County Regional Hospital","3066 N Kentucky St","66749",37.948665999999996,-95.39210600000001
"66749","Iola","KS","Allen County Hospital","3600 N. Kentucky","66749",37.921670239802985,-95.39515406005583
"66762","Pittsburg","KS","SEK Urgent Care","not_available","66762",37.381200187887686,-94.70481666030844
"66762","Pittsburg","KS","Via Christi Hospital in Pittsburg","1 Mt Carmel Way","66762",37.38039136022568,-94.68401865235549
"66762","Pittsburg","KS","Golden Living Center","1005 E Centennial Dr","not_available",37.382530212402344,-94.688720703125
"66801","Emporia","KS","Cotton O'Neil Emporia","1301 W. 12th Ave.","66801",38.411587,-96.1959611
"66801","Emporia","KS","Advanced Dermatology & Skin Cancer Center - Emporia, KS","2509 W. 18th Avenue","66801",38.4192052,-96.2133534
"66801","Emporia","KS","Team Hope World Foundation","1931 1/2 W 24th Ave","66801",38.426029205322266,-96.20675659179688
"66801","Emporia","KS","Cotton oneill","W 12th","66801",38.411911665097584,-96.1956786843191
"66839","Burlington","KS","Coffey County Hospital","not_available","66839",38.20247409598974,-95.73743078155246
"66839","Burlington","KS","Coffey County Hospital","801 N 4th St","66839",38.20249605923978,-95.73802219057326
"66856","Lebo","KS","Cotton O'Neil Lebo","118 W. 4th St.","66856",38.4169855,-95.8594751
"66861","Marion","KS","St Lukes Hospital","300-398 S Roosevelt St","66861",38.34261385506326,-97.0103056752807
"66901","Concordia","KS","Cloud County Community Hospital","not_available","66901",39.56523467426778,-97.6731477530022
"66935","Belleville","KS","BELLEVILLE HEALTH CARE","K STREET","66935",39.814979553222656,-97.63531494140625
"66941","Esbon","KS","Phoenix Home Care","161 J Road","66952",39.69638506,-98.4928636
"66941","Esbon","KS","Ascension St. Vincent Hospital - Indianapolis (Ascension St. Vincent Heart Center)","2001 W 86th St","46260",39.76710045353313,-98.49772095680237
"66941","Esbon","KS","Memorial Internal Medicine","2000 S 900 E","84105",39.76534112881376,-98.49853277228249
"66956","Mankato","KS","Jewell Co Hospital","not_available","66956",39.78619110806996,-98.19966516223135
"66967","Smith Center","KS","Smith Center Hospital","614 S Main St","66967",39.771522521972656,-98.78498840332031
"67002","Andover","KS","Kansas Medical Center","1124 W 21st St","67002",37.72439162190786,-97.14708317865906
"67002","Andover","KS","Xpress Wellness Urgent Care","231 S Andover Rd","67002",37.683862,-97.13587899999999
"67002","Andover","KS","Via Christi Clinic","612 N Andover Rd","67002",37.696128,-97.134561
"67002","Andover","KS","The Little Clinic","225 E Cloud Ave","67002",37.67689797851537,-97.13300738840036
"67003","Anthony","KS","Anthony Medical Center","1101 E Spring St","67003",37.15467028653221,-98.01743379614865
"67003","Anthony","KS","Patterson Health Center","485 N K-2","67003",37.222162,-98.041521
"67005","Arkansas City","KS","Arkansas City Hospital","not_available","67005",37.071352,-97.04025
"67022","Caldwell","KS","Sumner County Hospital","not_available","67022",37.02621841430664,-97.60981750488281
"67026","Clearwater","KS","Clearwater Nursing & Rehab","not_available","67026",37.50828170776367,-97.49943542480469
"67029","Coldwater","KS","Comanche County Hospital","202 S Frisco St","67029",37.268316347853165,-99.33245281597362
"67030","Colwich","KS","Via Christi Hospital","14800 W Saint Teresa St","67235",37.72594213560281,-97.5138900737344
"67037","Derby","KS","Wesley Derby ER","2648 N Rock Rd","67037",37.575944,-97.243647
"67037","Derby","KS","Rock Regional Hospital","3251 N Rock Rd","67037",37.58443069458008,-97.24453735351562
"67037","Derby","KS","MedExpress Urgent Care","2001 N. Rock Road","67037",37.5681517,-97.2449322
"67037","Derby","KS","The Little Clinic","1624 N Rock Rd","67037",37.5632168447369,-97.24115494873394
"67042","El Dorado","KS","Susan B Allen Memorial Hospital","720 W Central Ave","67042",37.81798857543524,-96.85907363891602
"67045","Eureka","KS","Greenwood County Hospital","100 W 16th St","67045",37.836158752441406,-96.29420471191406
"67052","Goddard","KS","SCEMS Post 7","not_available","67052",37.627729,-97.558671
"67060","Haysville","KS","Immediate Medical Care- IMC South","7030 South Broadway Street","67060",37.56766,-97.33328
"67061","Hazelton","KS","Kiowa District Hospital","1002 S 4th St","67070",37.01297938560334,-98.47736835479736
"67063","Hillsboro","KS","Hillsboro Hospital","not_available","67063",38.3447790087265,-97.20494784325012
"67066","Iuka","KS","Dogal Yaşam Merkezi","Ptt","not_available",37.69895553588867,-98.74559020996094
"67068","Kingman","KS","Kingman Community Hospital","800-878 W D Ave","67068",37.64762496948242,-98.1233139038086
"67068","Kingman","KS","Swaney Veterinary Clinic","1015 U.S. 54","67068",37.6474375,-98.0973814
"67104","Medicine Lodge","KS","Medicine Lodge Memorial Hospital","710 N Walnut St","67104",37.289481515788474,-98.57740920383205
"67107","Moundridge","KS","Moundridge EMS","225 N Wedel Ave","67107",38.20496631222361,-97.51822650432587
"67107","Moundridge","KS","Mercy Hospital","218 E Pack St","67107",38.20514597031957,-97.51721270075298
"67114","Newton","KS","Newton Medical Center","600 Medical Center Dr","67114",38.023859778488024,-97.33309614334645
"67114","Newton","KS","Convenient Care Health Clinic","not_available","67114",38.057449,-97.34391
"67114","Newton","KS","Associates in Women's Health","700 Medical Center Drive, Suite 120","67114",38.024063,-97.333345
"67114","Newton","KS","Health Check","600 Mockingbird Ln","67114",38.037296295166016,-97.38716125488281
"67114","Newton","KS","Via Christi Clinic Immediate Care","720 Medical Center Dr","67114",38.024063,-97.333345
"67124","Pratt","KS","Pratt Regional Medical Center","200 Commodore St","67124",37.64458431835015,-98.72965989780118
"67147","Valley Center","KS","Sedgwick County EMS Post 45","not_available","67219",37.81258010864258,-97.3284912109375
"67152","Wellington","KS","Sumner Regional Medical Center","1323 N A St","67152",37.278651,-97.393126
"67156","Winfield","KS","William Newton Hospital","1300 E 5th Ave","67156",37.245211,-96.982012
"67202","Wichita","KS","St. Francis Cancer Center","not_available","67214",37.696678161621094,-97.33345794677734
"67205","Wichita","KS","Ascension Via Christi Immediate Care on 21st and Reflection Ridge","8444 W 21st St N","67205",37.7237591,-97.4411078
"67205","Wichita","KS","Apothecary Essentials & More","8541 W 21st St","67205",37.7225033,-97.4415152
"67205","Wichita","KS","The Little Clinic","10222 W 21st St N","67205",37.7237129,-97.4615781
"67206","Wichita","KS","Via Christi Rehabilitation Hospital","1151 N Rock Rd","67206",37.703906,-97.2460278
"67206","Wichita","KS","The Little Clinic","7707 E Central Ave","67206",37.6922915,-97.2449815
"67207","Wichita","KS","SCEMS Post 59","not_available","67207",37.66208869410111,-97.24526680315482
"67208","Wichita","KS","Wesley Emergency Room","not_available","67208",37.6946330702234,-97.29884020846957
"67208","Wichita","KS","Wesley Critical Care Building","550 N Rutan","67216",37.6943931381257,-97.29769434151727
"67208","Wichita","KS","Immediate Medical Care-IMC East","5838 E Central Ave","67208",37.6942761,-97.2682167
"67208","Wichita","KS","Via Christi Immediate Care","3311 E Murdock St","67208",37.696758175497166,-97.29625246011503
"67208","Wichita","KS","Wesley Children's Hospital","550 N. Hillside St, Children's Entrance","67214",37.69536261667424,-97.29802787303925
"67208","Wichita","KS","Sedgwick County EMS Post 3","3002 E Central Ave","67214",37.72276570285644,-97.26406574249268
"67209","Wichita","KS","West Wichita Minor Emergency","not_available","67212",37.685304958967976,-97.43695504179959
"67212","Wichita","KS","Wesley Rehab","8338 W 13th St N","67212",37.709224185320004,-97.4386930900628
"67212","Wichita","KS","Wesley West ER & Diagnostic Center","8714 W 13th St N","67212",37.710206,-97.442607
"67212","Wichita","KS","MedExpress Urgent Care","1261 N. Maize Road","67212",37.705689,-97.46301
"67212","Wichita","KS","West Wichita Surgery Center","8200 W Central Ave","67212",37.69497,-97.436973
"67214","Wichita","KS","Via Christi Hospital St. Francis","929 N Saint Francis St","67214",37.69933981196816,-97.3317003250122
"67214","Wichita","KS","818 N. Emporia","818 N Emporia St","67214",37.69825744628906,-97.33257293701172
"67214","Wichita","KS","Shanelles Room.","not_available","67211",37.70053142321919,-97.3323917413811
"67214","Wichita","KS","Emergency - Ascension Via Christi St. Francis (Emergency Room: Ascension Via Christi St. Francis)","929 N Saint Francis Ave","67214",37.69949,-97.33222
"67216","Wichita","KS","The Little Clinic","4747 S Broadway Ave","67216",37.60902387488673,-97.33552721288959
"67217","Wichita","KS","MedExpress Urgent Care","3006 S Seneca St","67217",37.64027118001774,-97.35187858343124
"67218","Wichita","KS","Robert J. Dole, Wichita VA Medical Center","5500 E Kellogg Dr","67218",37.6824604792834,-97.275082144375
"67218","Wichita","KS","Via Christi St. Joseph","3600 E Harry St","67218",37.6661562,-97.2930942
"67218","Wichita","KS","Ascension Living Via Christi Village (Via Christi Village)","1655 S Georgetown St","67218",37.662146,-97.286425
"67218","Wichita","KS","Via Christi Bayley Bldg","3720 E Bayley St","67218",37.6702755123649,-97.29278789021517
"67218","Wichita","KS","Sedgwick County EMS Post 4","1100 S Clifton Ave","67218",37.667797899528814,-97.29399594937739
"67220","Wichita","KS","Wesley Woodlawn Hospital & ER","2610 N Woodlawn Blvd","67220",37.7313839,-97.2603833
"67226","Wichita","KS","Kansas Spine & Specialty Hospital","3333 N Webb Rd","67226",37.74354636052294,-97.22699025849079
"67226","Wichita","KS","AFC Urgent Care Wichita, KS","3161 N Rock Rd a","67226",37.7412223815918,-97.24545288085938
"67226","Wichita","KS","KU Wichita Center for Health Care","8533 E 32nd St N","67226",37.742241,-97.238337
"67226","Wichita","KS","AFC Doctors Express - Witchita","3161 N Rock Rd, Suite A","67226",37.741262,-97.245343
"67230","Wichita","KS","St. Anthony's Behavioral Health Hospital","2114 North 127th Street East","67206",37.72188214,-97.18651018
"67301","Independence","KS","Coffeyville Hospital","1400 W 4th St","67337",37.04114532470703,-95.63943481445312
"67301","Independence","KS","Urgent Care","1318 W 11th St","67337",37.0335693359375,-95.63758850097656
"67301","Independence","KS","ChartFast","5425 Sugarloaf Pkwy Ste 2201","30043",37.09024,-95.712891
"67301","Independence","KS","South Med Urgent Care","2305 SE MILITARY","78224",37.13284,-95.78558
"67301","Independence","KS","Davita Dialysis","801 W Myrtle St","67301",37.224312571500406,-95.7168585526384
"67336","Chetopa","KS","Oswego Community Hospital","800 Barker Dr","67356",37.15922209663144,-95.11108875274658
"67361","Sedan","KS","Sedan City Hospital","300 W North St","67361",37.133880615234375,-96.18892669677734
"67401","Salina","KS","Statcare","1001 S Ohio St","67401",38.81957055113517,-97.59351195337297
"67401","Salina","KS","COMCARE","520 S Santa Fe Ave Ste 300","67401",38.831066649849426,-97.61007204651833
"67401","Salina","KS","Salina Pediatric Care","501 S Santa Fe Ave","67401",38.832388310148055,-97.60837714187801
"67401","Salina","KS","Salina Regional Podiatry","501 S Santa Fe Ave Ste 200","67401",38.83337376743488,-97.61009484529495
"67401","Salina","KS","MedExpress Urgent Care","2770 South 9th St","67401",38.78875931033408,-97.6140108704567
"67401","Salina","KS","Salina Women's Clinic","501 S Santa Fe Ave Ste 140","67401",38.83225631713867,-97.6085433959961
"67401","Salina","KS","Salina Regional Neurosurgery","501 S Santa Fe Ave Ste 300","67401",38.833344516276966,-97.61010557413101
"67401","Salina","KS","Salina Regional Pulmonary Critical care and Sleep Medicine","520 S Santa Fe Ave Ste 120","67401",38.8310563,-97.61006789999999
"67401","Salina","KS","Salina Regional Hospital","not_available","67401",38.833473,-97.60971
"67401","Salina","KS","Hospice of Salina","730 Holly Ln","67401",38.825243520006616,-97.58436252828687
"67401","Salina","KS","Salina Regional Health Center","400 S Santa Fe Ave","67401",38.831058657763734,-97.61007954832166
"67401","Salina","KS","Salina Regional Urgent Care Clinic","2265 S 9th St","67401",38.801456951411474,-97.61176854372019
"67401","Salina","KS","COMCARE","2090 S Ohio St","67401",38.8057565781998,-97.59485453367233
"67401","Salina","KS","Tammy Walker Cancer Center","511 S Santa Fe Ave","67401",38.83137745566591,-97.6085631456408
"67401","Salina","KS","Salina Regional Outpatient Imaging Center","520 S Santa Fe Ave","67401",38.83127212524414,-97.61003112792969
"67401","Salina","KS","Salina Urology Associates PA","501 S Santa Fe Ave Ste 380","67401",38.8323824,-97.6083836
"67401","Salina","KS","Salina Regional Orthopedic Clinic","520 S Santa Fe Ave Ste 240","67401",38.83107056515013,-97.61005596079485
"67401","Salina","KS","Salina Surgical Center, L.L.C.","401 S Santa Fe Ave","67401",38.83384,-97.608544
"67401","Salina","KS","Salina Regional Neurosciences","501 S Santa Fe Ave Ste 210","67401",38.83225631713867,-97.6085433959961
"67410","Abilene","KS","Abilene Memorial Hospital","511 NE 10th St","67410",38.9251574016015,-97.2038483217477
"67410","Abilene","KS","Dickinson County EMS - Station 1","510 NE 10th St","67410",38.92516954519557,-97.20384092825529
"67418","Barnard","KS","Lincoln County Hospital","N. 2nd","67455",39.040401458740234,-98.1445083618164
"67420","Beloit","KS","Mitchell County Hospital","400 W 8th St","67420",39.46797716445287,-98.11392861615474
"67425","Brookville","KS","ChristyTherapy Corp","2377 E elk drive","67455",38.92500305175781,-98.06168365478516
"67432","Clay Center","KS","Clay County Medical Center","617 Liberty St","67432",39.392205,-97.123604
"67432","Clay Center","KS","Advanced Dermatology & Skin Cancer Center - Clay Center, KS","617 Liberty St.","67432",39.3921973,-97.1235717
"67439","Ellsworth","KS","Ellsworth Medical Center","1604 Aylward Ave","67439",38.74275588989258,-98.22003936767578
"67449","Herington","KS","Herington Hospital","not_available","67449",38.679927601462886,-96.94154294744567
"67456","Lindsborg","KS","Lindsborg Hospital","not_available","67456",38.57435871179486,-97.68342438306372
"67456","Lindsborg","KS","Lindsborg Community Hospital","605 W Lincoln St","67456",38.572947640646625,-97.68351479443481
"67460","Mcpherson","KS","Partners in Family Care","400 North Lehmer Street","not_available",38.37308120727539,-97.64066314697266
"67460","Mcpherson","KS","McPherson Hospital","1000 Hospital Dr","67460",38.37818804168786,-97.6704590627301
"67467","Minneapolis","KS","Ottawa County Health Center","not_available","67467",39.129539489746094,-97.7037582397461
"67467","Minneapolis","KS","Health Care","805D Soundview Ave","10473",39.095962936305476,-97.91015624999999
"67467","Minneapolis","KS","COMCARE","830 Elm St","67467",39.129556727661765,-97.70382463932037
"67473","Osborne","KS","Osborne County Hospital","not_available","67473",39.43900814438419,-98.6960430351747
"67501","Hutchinson","KS","Hutchinson Ambulatory Surgery Center","2101 N Waldron St","67502",38.077728271484375,-97.89637756347656
"67501","Hutchinson","KS","Hutchinson Regional Medical Center","1701 E 23rd Ave","67502",38.07729429772522,-97.89189827218806
"67501","Hutchinson","KS","Promise Regional Medical Center","1700 E 23rd Ave","67502",38.0777237770605,-97.89204597473145
"67501","Hutchinson","KS","The Little Clinic","3200 Plaza East Dr","67502",38.0891537,-97.8953502
"67514","Arlington","KS","Dr. Mark Peters, MD","181 Corporate Dr","70360",37.838907929972784,-98.2908448576927
"67530","Great Bend","KS","Great Bend Regional Hospital","514 Cleveland St","67530",38.35623274760549,-98.79036795026104
"67530","Great Bend","KS","Great Bend Regional Emergency Room","not_available","67530",38.35619963431237,-98.79035995281086
"67530","Great Bend","KS","Central Care Cancer Center","204 Cleveland St","67530",38.355133056640625,-98.79094696044922
"67544","Hoisington","KS","Clara Barton Hospital","250 W 9th St","67544",38.522406,-98.778491
"67547","Kinsley","KS","Edwards County Hospital","620 W 8th St","67547",37.92121505737305,-99.41976165771484
"67548","La Crosse","KS","Rush County Memorial Hospital","not_available","67548",38.530582427978516,-99.31700134277344
"67550","Larned","KS","Pawnee Valley Community Hospital","not_available","67550",38.184667595394515,-99.10683453518894
"67554","Lyons","KS","Rice County Hospital","615-625 S Clark Ave","67554",38.34122322758045,-98.21660096054484
"67560","Ness City","KS","Ness County Hospital","312 E Custer St","67560",38.45817599063727,-99.90136384963989
"67579","Sterling","KS","Rice County District Hospital","not_available","67579",38.214972,-98.20873
"67601","Hays","KS","Hays Medical Center","2200 Canterbury Dr","67601",38.880598056870305,-99.29582776873302
"67601","Hays","KS","Miller Medical Pavilion","2220 Canterbury Dr","67601",38.87997817993164,-99.29672241210938
"67601","Hays","KS","KVC Wheatland Psychiatric Hospital","205 E 7th St","67601",38.86833953857422,-99.32769775390625
"67642","Hill City","KS","Graham County Hospital","114 E Walnut St","67642",39.371838,-99.844905
"67654","Norton","KS","Norton County Hospital","102 E Holme St","67654",39.837906,-99.888177
"67654","Norton","KS","Norton County Hospital","807 N State St","67654",39.83705139160156,-99.8886489868164
"67661","Phillipsburg","KS","Phillips County Hospital","1150 State St","67661",39.755367279052734,-99.31322479248047
"67663","Plainville","KS","Rooks County Health Center","not_available","67663",39.256345620090734,-99.29815093195313
"67665","Russell","KS","Russell Regional Hospital","not_available","67665",38.88254928588867,-98.85895538330078
"67672","Wakeeney","KS","Trego County Lemke Memorial Hospital","320 N 13th St","67672",39.02766036987305,-99.87085723876953
"67740","Hoxie","KS","Sheridan County Health Complex","826 18th St","67740",39.35417741436831,-100.4325270652771
"67748","Oakley","KS","Logan County Hospital","211 Cherry Ave","67748",39.127210999999996,-100.86295
"67749","Oberlin","KS","Cedar Living Center","801 west columbia","67749",39.822856,-100.532265
"67752","Quinter","KS","Gove County Hospital","not_available","67752",39.06730822937901,-100.24060754610599
"67801","Dodge City","KS","Western Plains Medical Complex ER","3001 Avenue A","67801",37.78673633004915,-100.01730187722487
"67801","Dodge City","KS","Centura Health Convenient Care","2020 Central Ave","67801",37.76867406382917,-100.01576465065187
"67801","Dodge City","KS","Western Plains Express Care","100 W Ross Blvd","67801",37.787821405074524,-100.01542977775185
"67831","Ashland","KS","Ashland Health Center","709 Oak St","67831",37.18882369995117,-99.77283477783203
"67844","Fowler","KS","Lone Tree Retirement Center/Meade District Hospital","PO Box 820","67864",37.28637268916002,-100.34103155136108
"67844","Fowler","KS","Meade District Hospital","510 E Carthage St","67864",37.28656768798828,-100.33407592773438
"67846","Garden City","KS","St. Catherine Hospital Emergency Department","401 E Spruce St","67846",37.96979780669125,-100.86841969634662
"67846","Garden City","KS","Wound Care Center","311 E Walnut St","67846",37.9709951,-100.8695313
"67846","Garden City","KS","Centura Health Convenient Care","2051 E Mary St","67846",37.98995785694948,-100.84594600613423
"67855","Johnson","KS","Stanton County Hospital","404 N Chestnut St","67855",37.57388687133789,-101.7498550415039
"67859","Kismet","KS","Southwest Medical Center","315 W 15th St","67901",37.056022411723546,-100.92692839913234
"67860","Lakin","KS","Kearny County Hospital","500 E Thorpe St","67860",37.94664764404297,-101.25169372558594
"67861","Leoti","KS","Wichita County Hospital","211 E Earl St","67861",38.47549057006836,-101.355224609375
"67865","Minneola","KS","Minneola District Hospital","207 S Chestnut St","67865",37.44181442260742,-100.01275634765625
"67865","Minneola","KS","Minneola District Hospital","212 Main St","67865",37.485647,-99.897326
"67870","Satanta","KS","Satanta District Hosp & Long Term Care Unit","401 Cheyenne","67870",37.4374227,-100.9856235
"67871","Scott City","KS","Scott County EMS","110 E 4th St","67871",38.483816,-100.90590300000001
"67871","Scott City","KS","Scott County Hospital","201 Albert Ave","67871",38.4666601758335,-100.90368935740295
"67878","Syracuse","KS","Hamilton County Hospital","Ave G","67878",37.984685271828134,-101.74257129954056
"67879","Tribune","KS","Greeley County Hospital","506 3rd St","67879",38.47031784057617,-101.7491455078125
"67880","Ulysses","KS","Bob Wilson Memorial Hospital","415 N Main St","67880",37.58459363606778,-101.35867919204804
"67950","Elkhart","KS","Morton County Hospital","445 Hilltop St","67950",37.001869201660156,-101.9054946899414
"67951","Hugoton","KS","Stevens County Hospital","1006 S Jackson St","67951",37.17092,-101.349326
