"zip","city","state","name","address","postalCode","lat","lon"
"24701","Bluefield","WV","BRMC Emergency Room","500 Cherry St","24701",37.255693,-81.235555
"24701","Bluefield","WV","X-Ray Department","not_available","24740",37.362465,-81.112844
"24701","Bluefield","WV","MedExpress Urgent Care - Bluefield","4003 College Aveune Suite B","24605",37.238219370417156,-81.25566104303083
"24701","Bluefield","WV","HealthSouth Rehab Princeton wv","not_available","not_available",37.363051,-81.11219200000001
"24701","Bluefield","WV","Kindred at Home","150 Courthouse Rd","24740",37.35948181152344,-81.1073989868164
"24701","Bluefield","WV","MedExpress Urgent Care","4003 College Avenue","24605",37.2379216,-81.2554507
"24701","Bluefield","WV","Encompass Health Rehabilitation Hospital of Princeton","120 12th St.","24740",37.36303292400001,-81.11214637756348
"24740","Princeton","WV","MedExpress Urgent Care","277 Greasy Ridge Rd.","24740",37.3614535,-81.045584
"24901","Lewisburg","WV","GVMC nursery (2nd Floor)","not_available","24970",37.77550506591797,-80.46564483642578
"24901","Lewisburg","WV","GVMC 3rd Floor","202 Maplewood Ave","24970",37.77311325073242,-80.469970703125
"24901","Lewisburg","WV","MedExpress Urgent Care","1560 Jefferson Street N","24901",37.80738046382959,-80.43531029447746
"24910","Alderson","WV","Scenar-USA","not_available","30534",37.731098780640544,-80.63769578933716
"24924","Buckeye","WV","Pocahontas Memorial Hospital","150 Duncan Rd","24924",38.201011961256185,-80.10894674259463
"24986","White Sulphur Springs","WV","Alliance Xpress Urgent Care","919 South Craig Ave Suite A","24426",37.782078141903185,-79.99089717864989
"25022","Blair","WV","Miracle","not_available","25630",37.799489,-81.739918
"25022","Blair","WV","Sacred Heart","not_available","25607",37.799659,-81.740417
"25039","Cedar Grove","WV","Glasgow Health and Rehabilitation Center","120 Melrose Dr","25086",38.214606,-81.420086
"25053","Danville","WV","Boone Memorial Hospital","701 Madison Ave","25130",38.048145,-81.80618299999999
"25064","Dunbar","WV","Thomas Imaging Center","not_available","25309",38.35526589420889,-81.72940335343112
"25064","Dunbar","WV","Riverside Health and Rehabilitation Center","6500 Maccorkle Ave","25177",38.372202,-81.77057
"25143","Nitro","WV","CAMC Urgent Care","314 Goff Mountain Rd #3","25313",38.414592999999996,-81.793725
"25143","Nitro","WV","Advanced Medical Inc.","128 Goff Mountain Rd","25313",38.41819763183594,-81.79335021972656
"25143","Nitro","WV","A.R. Brooks D.D.S.","2416A Grant Ave","25177",38.382374,-81.804489
"25143","Nitro","WV","KCEAA Sta. 31","St.Albans","25317",38.38742140841978,-81.83185813185793
"25168","Red House","WV","Fort Apache Medic 20","not_available","25213",38.532710496973436,-81.88890282937435
"25213","Winfield","WV","MedExpress Urgent Care","563 State Route 34","25526",38.45486053260923,-81.937116086483
"25213","Winfield","WV","CAMC Teays Valley Hospital","1400 Hospital Dr","25526",38.45172337566598,-81.95253845213848
"25213","Winfield","WV","Teays Urgent Care","113 Liberty Sq","25526",38.45815285862062,-81.93169701733481
"25253","Letart","WV","EMS charts Computer","not_available","45771",38.968265,-81.916669
"25270","Reedy","WV","Urgent Care","not_available","25276",38.80747985839844,-81.35835266113281
"25270","Reedy","WV","Roane General Hospital","200 Hospital Dr","25276",38.812906,-81.369046
"25271","Ripley","WV","Jackson General Hospital","not_available","25271",38.822933,-81.729935
"25271","Ripley","WV","Acupuncture & Holistic Health, Inc.","2998 Charleston Road 5","25271",38.7686091,-81.6967589
"25301","Charleston","WV","CAMC General Hospital","501 Morris St","25301",38.34790184397277,-81.62673666916477
"25301","Charleston","WV","CAMC Emploment Center","511 Morris St","25301",38.347824,-81.626962
"25301","Charleston","WV","CAMC parking Garage","not_available","25301",38.34776150755426,-81.62667780596776
"25301","Charleston","WV","Saint Francis Hospital","333 Laidley St","25301",38.35383257219926,-81.63302941187058
"25301","Charleston","WV","Select Specialties Hospital","331 Laidley St","25301",38.353785,-81.63298
"25302","Charleston","WV","Randall J Hill","830 Pennsylvania Ave Ste 301","25302",38.359172,-81.637763
"25302","Charleston","WV","Naegele Scott A MD","830 Pennsylvania Ave Ste 108","25302",38.359172,-81.637763
"25302","Charleston","WV","CAMC Women and Children's  Hospital","800 Pennsylvania Ave","25302",38.35933607590431,-81.63734733851629
"25302","Charleston","WV","CAMC Weight Loss Center","600 Tracy Way","25311",38.356794,-81.59866
"25303","South Charleston","WV","MedExpress Urgent Care","1416 Maccorkle Ave. SW","25303",38.3628532,-81.6683077
"25303","South Charleston","WV","Kanawha Hospice Care","not_available","25312",38.367871797665195,-81.66799367067122
"25304","Charleston","WV","MedExpress Urgent Care","5430 Maccorkle Ave. SE","25304",38.31564527545401,-81.57102070748806
"25304","Charleston","WV","CAMC Room 344","Third Floor","not_available",38.330002694170744,-81.60259350988302
"25304","Charleston","WV","CAMC Memorial ER","not_available","25304",38.31005771863411,-81.59964398760891
"25304","Charleston","WV","CAMC Memorial Hospital","3200 Maccorkle Ave SE","25304",38.3299042379359,-81.60274874467167
"25304","Charleston","WV","CAMC Health and Research Institute","3212 MacCorkle Ave","25311",38.33214796693196,-81.60122314741096
"25304","Charleston","WV","HealthPlus Urgent Care Center","4602 Maccorkle Ave SE","25304",38.322139739990234,-81.58222961425781
"25304","Charleston","WV","Highland Hospital","300 56th St SE","25304",38.314924,-81.568741
"25309","South Charleston","WV","Woman Care Clinic","4803 Kentucky St","25309",38.353982972816645,-81.72909736633301
"25309","South Charleston","WV","Urgent care","Corridor G","25309",38.32478887460036,-81.71548144886567
"25309","South Charleston","WV","MedExpress Urgent Care","4812 Maccorkle Ave. SW","25309",38.35500940866778,-81.73008441925049
"25401","Martinsburg","WV","West Virginia University Hospital East","2500 Hospital Dr","25401",39.47643298521783,-77.98024594875933
"25401","Martinsburg","WV","City Hospital Registration","not_available","25401",39.47633747279058,-77.98017473197893
"25401","Martinsburg","WV","City Urgent Care","Foxcroft Avenue","not_available",39.46182919,-77.98668054
"25401","Martinsburg","WV","City Urgent Care","202 Foxcroft Ave","25401",39.461737,-77.98660799999999
"25401","Martinsburg","WV","Heartlands Of Martinsburg","702 Clover st.","25401",39.47896081157786,-77.95556387666036
"25401","Martinsburg","WV","MedExpress Urgent Care","1355 Edwin Miller Blvd.","25404",39.478842,-77.956772
"25403","Martinsburg","WV","Gaia Women's Physical Therapy and Wellness, LLC","not_available","25427",39.5576816,-77.94475130000001
"25403","Martinsburg","WV","MedExpress Urgent Care","83 Retail Commons Parkway","25403",39.4424473,-77.9912011
"25404","Martinsburg","WV","VA Medical Center ER (Martinsburg, WV)","510 Butler Ave","25405",39.41764831542969,-77.91141510009766
"25411","Berkeley Springs","WV","Hospital on a Country Road","1 Healthy Way","25411",39.64240264892578,-78.20030212402344
"25414","Charles Town","WV","Jefferson Medical Center","300 S Preston St","25438",39.29556225994517,-77.85867606770219
"25414","Charles Town","WV","Jefferson Urgent Care","94 Somerset Blvd","25414",39.296243,-77.828906
"25414","Charles Town","WV","Urgent Care","not_available","25414",39.29657639809897,-77.83051061608676
"25414","Charles Town","WV","Methodist Charlton Medical Center","3500 W Wheatland Rd","75237",39.23806381225586,-77.90347290039062
"25414","Charles Town","WV","WV urgent care","not_available","25438",39.29617730616869,-77.85810295937783
"25427","Hedgesville","WV","Clear Spring EMS Co.49","223 Cumberland St","21722",39.65666198730469,-77.92713165283203
"25504","Barboursville","WV","Rose Terrace","not_available","25541",38.405543506470664,-82.29505818538118
"25504","Barboursville","WV","Barboursville Urgent Care","2 Chateau Grove Ln","25504",38.41717529296875,-82.25601196289062
"25504","Barboursville","WV","Arkham Asylum","1535 Martha Rd","25504",38.38898,-82.30250600000001
"25504","Barboursville","WV","HealthSouth Rehabilitation Hospital Of Huntington","6900 Country Club Dr","25705",38.4188899768783,-82.33866467142207
"25504","Barboursville","WV","KDMC Of  Ashland, Kentucky","2201 Lexington Ave","41101",38.420773397291704,-82.28867431322455
"25504","Barboursville","WV","riverpark Mental Hospital","not_available","25504",38.417808532714844,-82.28966522216797
"25504","Barboursville","WV","HIMG Now Care","not_available","25705",38.41434843252559,-82.34551486245898
"25504","Barboursville","WV","Marshall Pediatrics NowCare","5170 US Route 60","25705",38.413360595703125,-82.34475708007812
"25508","Chapmanville","WV","Mahmoud Hamza - Logan Regional Primary Care Walk-in Clinic","384 Airport Rd","25508",37.956737,-82.01865467
"25514","Fort Gay","WV","Three Rivers Medical Center Emergency Department","2485 Highway 644","41230",38.09236526489258,-82.60467529296875
"25530","Kenova","WV","VA Medical Center","not_available","25704",38.37676358019329,-82.51780418518321
"25530","Kenova","WV","O&G Clinic","HTJS","not_available",38.36701583862305,-82.55863189697266
"25530","Kenova","WV","Heartland of Riverview","7743 Co Rd 1","45680",38.40936478,-82.5241719
"25550","Point Pleasant","WV","Pleasant Valley Hospital ER","2520 Valley Dr","25550",38.86898422241211,-82.12332153320312
"25601","Logan","WV","MedExpress Urgent Care","123 Enterprise Drive","25601",37.8482069,-81.9994579
"25601","Logan","WV","LRMC","not_available","25601",37.8456541434351,-81.99290187220946
"25601","Logan","WV","Logan Regional Medical Center","20 Hospital Dr","25601",37.84580284881391,-81.99321601926144
"25661","Williamson","WV","Pikeville Medical Center-Sleep Lab","not_available","41514",37.663490295410156,-82.31609344482422
"25661","Williamson","WV","Appalachian Regional Healthcare (ARH)","260 Hospital Dr","41503",37.67675921091915,-82.29684783559935
"25661","Williamson","WV","Appalachian Regional Healthcare","not_available","41503",37.67180765021657,-82.29501046755894
"25701","Huntington","WV","St. Mary's Medical Center","2900 1st Ave","25702",38.43175774264158,-82.40090105990113
"25701","Huntington","WV","St. Mary's Medical Center Outpatient Radiology","not_available","25702",38.43044362318107,-82.40095399944295
"25701","Huntington","WV","St. Marys ER","not_available","25703",38.43023873493953,-82.39997655249368
"25701","Huntington","WV","Cabell Huntington Hospital","1340 Hal Greer Blvd","25701",38.40911010870132,-82.42715941721542
"25701","Huntington","WV","MedExpress Urgent Care","3120 US Route 60","25705",38.41055825094609,-82.38394126296043
"25701","Huntington","WV","Cabell Family Medical Urgent Care","not_available","25701",38.39639512899692,-82.45121185772098
"25701","Huntington","WV","River Park Hospital","1230 6th Ave","25701",38.419577000000004,-82.436851
"25702","Huntington","WV","Three Gables Surgery Center","5897 County Road 107","45669",38.44168505757132,-82.39291731602533
"25703","Huntington","WV","Cabell Huntington Surgery Center","1201 Hal Greer Blvd","25701",38.411342,-82.42904899999999
"25704","Huntington","WV","MedExpress Urgent Care","10 Adams Avenue","25701",38.41749780574295,-82.45786026120186
"25704","Huntington","WV","St Marys Hospital","5th street","25705",38.3888282247672,-82.45694144433999
"25801","Beckley","WV","Beckley VA Hospital","not_available","25801",37.76514402136641,-81.19258093821509
"25801","Beckley","WV","Raleigh General Hospital","1710 Harper Rd","25801",37.78758303286526,-81.20179652212329
"25801","Beckley","WV","MedExpress Urgent Care","1709 Harper Road","25801",37.7864156,-81.2032774
"25801","Beckley","WV","MedExpress Urgent Care","520 Beckley Crossing Shopping Center","25801",37.80290499545949,-81.18368073368401
"25801","Beckley","WV","Beckley ARH Hospital","306 Stanaford Rd","25801",37.79864069955329,-81.16819559201338
"25813","Beaver","WV","Hospital","not_available","25823",37.678527,-81.217547
"25840","Fayetteville","WV","MedExpress Urgent Care","5447 Maple Lane","25840",38.0385559,-81.1236179
"25840","Fayetteville","WV","Hospital","not_available","25901",37.972096,-81.14955
"25840","Fayetteville","WV","Plateau Medical Center","Main St","25901",37.97574707489377,-81.15364657725884
"25840","Fayetteville","WV","Bridge View Urgent Care","5447 Maple Ln Ste B","25840",38.038551330566406,-81.1235580444336
"25840","Fayetteville","WV","Plateau Medical Center - Emergency Room","430 Main St","25901",37.97215270996094,-81.14960479736328
"25951","Hinton","WV","summers county rehabilitation center","not_available","25951",37.64271545410156,-80.78205108642578
"25951","Hinton","WV","Summers County ARH Hospital","115 Summers Hospital Rd","25951",37.65058359203116,-80.86024729621977
"25958","Charmco","WV","Quinwood Ambulance","111 McClung Street","25981",38.058311462402344,-80.70697021484375
"26003","Wheeling","WV","Wheeling Hospital","1 Medical Park","26003",40.0588459,-80.6850467
"26003","Wheeling","WV","MedExpress Urgent Care","620 National Road, Suite 300","26003",40.07510768403341,-80.70483936938217
"26003","Wheeling","WV","East Ohio Regional Hospital","90 4th Street","43935",40.098468905111815,-80.72065939624574
"26003","Wheeling","WV","Blood Drive","Oglebay Dr","26059",40.11991,-80.62618
"26003","Wheeling","WV","Wheelimg Med Park-l&d","not_available","26003",40.058933,-80.684977
"26003","Wheeling","WV","Donation Center","Oglebay Park","26003",40.098357,-80.660725
"26003","Wheeling","WV","Ohio Valley Medical Center IT Department","2000 Eoff St","26003",40.05983352661133,-80.72093963623047
"26003","Wheeling","WV","Hillcrest Behavioral Health Services","2101 Jacob St","26003",40.06121063232422,-80.71688842773438
"26003","Wheeling","WV","MedExpress Urgent Care","10 Elm Grove Crossing Mall","26003",40.0470076,-80.6517772
"26031","Benwood","WV","Bellaire Hospital","48th Street","43906",40.029771844187245,-80.74105668459923
"26031","Benwood","WV","Belmont Community Hospital","4697 Harrison St","43906",40.030414,-80.741978
"26034","Chester","WV","East Liverpool City Hospital","425 West Fifth Avenue","43920",40.6213539,-80.58666629999999
"26034","Chester","WV","east liverpool hospital 6th floor","not_available","43920",40.621639251708984,-80.58597564697266
"26035","Colliers","WV","Weirton Medical Center","601 Colliers Way","26062",40.39305465458413,-80.52793979644775
"26035","Colliers","WV","Ohio Valley Vision Center","127 American Way Suite #1","26062",40.3951452,-80.5289504
"26035","Colliers","WV","""break"" room","not_available","26062",40.39255284765825,-80.52880632422668
"26038","Glen Dale","WV","Reynolds Memorial Hospital","800 Wheeling Ave","26038",39.9460563659668,-80.75243377685547
"26038","Glen Dale","WV","Shadyside Care Center","60707-60721 State Route 7 Scn","43947",39.96287524109862,-80.75868904993641
"26038","Glen Dale","WV","MedExpress Urgent Care","1585 Wheeling Avenue","26038",39.93758371899613,-80.75475007295609
"26041","Moundsville","WV","Reynolds Rapid Care","215 Lafayette Ave","26041",39.9248524,-80.7502882
"26047","New Cumberland","WV","Weirton General Hospital","Carol Way","26062",40.443491,-80.600804
"26047","New Cumberland","WV","Trinity ExpressClinic - Toronto","1800 Franklin St","43964",40.452356882339515,-80.61079097178589
"26055","Proctor","WV","Wetzel County Hospital","3 E Benjamin Dr","26155",39.6810417175293,-80.84977722167969
"26055","Proctor","WV","NCI First Aide Station","not_available","26055",39.80549244796398,-80.77277918686417
"26062","Weirton","WV","MedExpress Urgent Care","218 Three Springs Drive","26062",40.40209545026364,-80.5500544514689
"26101","Parkersburg","WV","MedExpress Urgent Care","2832 Pike Street, Suite 1","26101",39.2193228,-81.5467685
"26101","Parkersburg","WV","Wvu Medicine Camden Clark Cardio Rehab","not_available","26101",39.271283,-81.559898
"26101","Parkersburg","WV","St. Joseph's Emergency","1824 Murdoch Ave","26101",39.277524,-81.550727
"26104","Parkersburg","WV","Encompass Health Rehabilitation Hospital of Parkersburg","3 Western Hills Dr","26105",39.3058797,-81.5344242
"26104","Parkersburg","WV","A-emergency Vet","not_available","26104",39.26536427428623,-81.50648427783342
"26104","Parkersburg","WV","Morris Sales Hospital Shoppe Inc","4015 E 7th St","26104",39.26789855957031,-81.50140380859375
"26105","Vienna","WV","MedExpress Urgent Care","1500 Grand Central Avenue, Suite 115","26105",39.31407,-81.551884
"26155","New Martinsville","WV","Wetzel County Hospital: Emergency Room","not_available","26155",39.641987,-80.8595653
"26187","Williamstown","WV","Marietta Memorial Hospital","not_available","45750",39.3761078018511,-81.39022685366706
"26201","Buckhannon","WV","St. Joseph's Hospital","not_available","26201",38.99088647546073,-80.23627688550638
"26201","Buckhannon","WV","Upshur County EMS","164 Pocahontas St","26201",38.98094940185547,-80.22283935546875
"26206","Cowen","WV","Webster County Memorial Hospital","324 Miller Mountain Dr","26288",38.48246383666992,-80.4100112915039
"26217","Diana","WV","Jefferson University hospital","not_available","26217",38.597625732421875,-80.45490264892578
"26238","Volga","WV","Broaddus Hospital","Health Care Dr","not_available",39.14334974381194,-80.0617024420292
"26241","Elkins","WV","Davis Memorial Hospital","835 Harrison Ave","26241",38.92826537863998,-79.85478660881954
"26241","Elkins","WV","Nella's Inc","not_available","26241",38.9410514831543,-79.88256072998047
"26241","Elkins","WV","MedExpress Urgent Care","613 Randolph Ave.","26241",38.928910519364926,-79.85016209325408
"26241","Elkins","WV","Davis Memorial Quick Care","710 Beverly Pike","26241",38.896183013916016,-79.84605407714844
"26250","Belington","WV","Randolph Co Ems","11th St","26241",39.02222230271366,-79.92822529920873
"26273","Huttonsville","WV","Rcems Mill Creek","not_available","26280",38.72924262655867,-79.9691388214692
"26301","Clarksburg","WV","Louis A. Johnson VA Medical Center","1 Medical Center Dr","not_available",39.270407770221915,-80.36203973103434
"26301","Clarksburg","WV","MedExpress Urgent Care","101 Emily Dr.","26301",39.28051599681095,-80.27820736169815
"26301","Clarksburg","WV","BioLife Plasma Services","110 Emily Drive","26301",39.27822173199903,-80.28007661983136
"26301","Clarksburg","WV","uhc medical center","not_available","26301",39.2697216860481,-80.28528609727398
"26301","Clarksburg","WV","West Virginia Veterans Nursing Facility","1 Freedoms Way","26301",39.270790100097656,-80.36097717285156
"26301","Clarksburg","WV","Premier Medical Urgent Care","700 Oakmound Rd","26301",39.265948862607914,-80.37333884935246
"26301","Clarksburg","WV","Physicians First Care Urgent Care","200 Route 98 W St Ste 103","26301",39.265098571777344,-80.3307876586914
"26330","Bridgeport","WV","United Hospital Center","327 Medical Park Dr","26330",39.328498420458104,-80.23998674032165
"26330","Bridgeport","WV","Room 1119 UHC Emergency","not_available","26330",39.31543002696051,-80.24224656547781
"26378","Jane Lew","WV","Stonewall Jackson Memorial Hospital","not_available","26452",39.04794274788621,-80.49207458687654
"26416","Philippi","WV","Blood Clinic","West Mid Hospital","26416",39.153972,-80.038512
"26501","Morgantown","WV","Mon Health Medical Center","1200 J D Anderson Dr","26505",39.663272414114914,-79.94649341142785
"26501","Morgantown","WV","WVUH Medical Center Emergency Room","Medical Center Drive","not_available",39.65309091836131,-79.95801316513699
"26501","Morgantown","WV","Mon General Emergency Room","not_available","26505",39.66343285839168,-79.94729945775843
"26501","Morgantown","WV","West Virginia University Pain Clinic","1075 Van Voorhis Rd","26505",39.65428161621094,-79.96414947509766
"26501","Morgantown","WV","Mary Babb Randolph Cancer Center","1 Medical Center Drive","not_available",39.65379212026542,-79.9587440902555
"26501","Morgantown","WV","Ruby Memorial Hospital","1 Medical Center Dr","26505",39.6528776526067,-79.9569764770904
"26501","Morgantown","WV","MedExpress Urgent Care","956 Maple Drive","26505",39.65700593502454,-79.95197808465582
"26501","Morgantown","WV","WVU Eye Institute","1 Stadium Dr","26506",39.65241231512268,-79.95891194305827
"26501","Morgantown","WV","Kerri Hall, MD, FACOG","2000 Mon Health Medical Park Dr Ste 2100","26505",39.657871988902166,-79.95005243690684
"26501","Morgantown","WV","Mon General HealthFair","not_available","26501",39.626523,-79.997444
"26508","Morgantown","WV","Cheat Lake Urgent Care","not_available","26508",39.648787765496834,-79.89577919269918
"26519","Albright","WV","Mon Health Preston Memorial Hospital","150 Memorial Dr","26537",39.46533785136301,-79.67755079269409
"26519","Albright","WV","Preston Urgent Care Family Practice","411 Morgantown St","not_available",39.4760856628418,-79.70159149169922
"26519","Albright","WV","Preston Memorial Hospital","not_available","26537",39.464599300122345,-79.67658137645883
"26534","Granville","WV","Wvu Medicine - Dermatology","Town Centre","26501",39.643378,-79.998191
"26554","Fairmont","WV","MedExpress Urgent Care","630 Fairmont Avenue","26554",39.476689433894904,-80.15042818622072
"26554","Fairmont","WV","John Manchin Health Care Center","401 Guffey St","26554",39.48105239868164,-80.13481140136719
"26554","Fairmont","WV","Fairmont General Hospital","1325 Locust Ave","26554",39.482286448520014,-80.16544874372063
"26554","Fairmont","WV","Living well counseling","517 Fairmont Ave Ste 2","26554",39.478397369384766,-80.15005493164062
"26601","Sutton","WV","Braxton County Memorial Hospital","100 Hoylman Dr","26624",38.660835,-80.749087
"26651","Summersville","WV","MedExpress Urgent Care","5870 Webster Rd.","26651",38.3105079,-80.835044
"26651","Summersville","WV","Summersville Memorial Hospital","not_available","26651",38.292569368132206,-80.8302505044203
"26651","Summersville","WV","Premier Family Urgent Care","4089 Webster Rd","26651",38.300887,-80.842763
"26704","Augusta","WV","Hampshire Memorial Hospital","not_available","26757",39.33328628540039,-78.69843292236328
"26704","Augusta","WV","urgent care","Edwin Miller Bld","25405",39.33018493652344,-78.7037124633789
"26710","Burlington","WV","Potomac Valley Hospital","100 Pin Oak Ln","26726",39.40947,-79.003078
"26711","Capon Bridge","WV","Doctors Urgent Care- Capon Bridge","US50","26711",39.29873168128381,-78.43637466430664
"26726","Keyser","WV","Doctors Urgent Care","Main St","21562",39.48627975550058,-79.04426434146471
"26726","Keyser","WV","Tri-Towns EMS","59 Main St","21562",39.485111236572266,-79.04512786865234
"26753","Ridgeley","WV","Western Maryland Health System","12500 Willowbrook Rd","21502",39.64802471070183,-78.73320386452957
"26753","Ridgeley","WV","MedExpress Urgent Care","1219 National Highway","21502",39.637825,-78.834332
"26757","Romney","WV","Hampshire Memorial Hospital","549 Center Ave","26757",39.349739,-78.75876
"26764","Terra Alta","WV","Hopemont State Hospital","150 Hopemont Dr","26764",39.436989814897736,-79.51972178569535
"26833","Maysville","WV","Grant Memorial Hospital","117 Hospital Dr","26847",39.001202,-79.137199
