"zip","city","state","name","address","postalCode","lat","lon"
"43004","Blacklick","OH","jen's urgent care","not_available","43215",39.991267747912346,-82.78278299770439
"43004","Blacklick","OH","Katz Klinic","7 Limited Pkwy E","43068",39.98995590209961,-82.77569580078125
"43004","Blacklick","OH","Mount Carmel Urgent Care","6495 E Broad St","43213",39.98013732912198,-82.83008515834808
"43004","Blacklick","OH","Urgent Care","6435 E Broad St","not_available",39.980209,-82.83086
"43004","Blacklick","OH","Havens Urgent Care","not_available","43004",40.018329,-82.78912
"43004","Blacklick","OH","Walk In Urgent Care","65 N Waggoner Rd","43004",39.986608,-82.791735
"43004","Blacklick","OH","The Little Clinic","7000 E Broad St","43213",39.984432899632814,-82.8161175625155
"43014","Danville","OH","Pomerene Hospital","not_available","not_available",40.45111083984375,-82.25778198242188
"43014","Danville","OH","TTSH OT Recep 2","Jalan Tan Tock Seng","43028",40.409136,-82.340557
"43015","Delaware","OH","OhioHealth Urgent Care Delaware","1710 Columbus Pike","43015",40.26811604956757,-83.07128648278575
"43015","Delaware","OH","America's Urgent Care","not_available","43035",40.178076,-83.009803
"43015","Delaware","OH","Arbors Of Delaware","2270 Warrensburg Rd","43015",40.311634999999995,-83.11454
"43015","Delaware","OH","Nuclear Medicine Delaware","29 Grandview Ave","43015",40.30757141113281,-83.09215545654297
"43015","Delaware","OH","Phoenix Indian Medical Center","not_available","43015",40.296390533447266,-83.1054458618164
"43015","Delaware","OH","Delaware County EMS Station 8","6457 Marysville Road","not_available",40.282203674316406,-83.18277740478516
"43015","Delaware","OH","OhioHealth Emergency Care Center","7853 Pacer Dr","43015",40.180209000000005,-83.024238
"43015","Delaware","OH","Hometown Urgent Care","1100 Sunbury Rd","43015",40.292991,-83.034061
"43015","Delaware","OH","The Little Clinic","6417 Columbus Pike","43035",40.2032167,-83.0265791
"43015","Delaware","OH","The Little Clinic","801 N Houk Rd","43015",40.3131937,-83.11095979999999
"43016","Dublin","OH","Heartland of Dublin","4075 W Dublin Granville Rd","43017",40.098824,-83.099648
"43016","Dublin","OH","OhioHealth Dublin Methodist ER","7500 Hospital Dr","43016",40.101036217834384,-83.16718084987109
"43016","Dublin","OH","Nationwide Children's Dublin Close To Home Center","7450 Hospital Dr #100","43016",40.101421472874215,-83.1642801053864
"43016","Dublin","OH","Scioto Urgent Care","4760 Sawmill Rd","43235",40.065975189208984,-83.09265899658203
"43016","Dublin","OH","OrthoNeuro","6770 Avery Muirfield Dr","43017",40.106539,-83.159717
"43016","Dublin","OH","OhioHealth Urgent Care","6905 Hospital Dr","43016",40.1019381,-83.161066
"43016","Dublin","OH","OhioHealth Emergency Care Powell","4141 N Hampton Dr","43065",40.14413,-83.091567
"43016","Dublin","OH","Ohio Orthopedic Surgery Institute","4605 Sawmill Rd","43220",40.06246722476377,-83.09468999754354
"43016","Dublin","OH","Childrens Behavioral Health","5700 Perimeter Dr. Dublin, Oh 43017","43017",40.10356140136719,-83.14382934570312
"43016","Dublin","OH","America's Urgent Care","not_available","43016",40.10127,-83.16122
"43016","Dublin","OH","Scioto Urgent Care","6350 Frantz Rd","43017",40.09650421142578,-83.12342071533203
"43016","Dublin","OH","America's Urgent Care of Upper Arlington","4661 Sawmill Rd","43220",40.06343079368676,-83.09375720039064
"43016","Dublin","OH","Wedgewood Urgent Care","10330 Sawmill Pkwy","43065",40.14529285609039,-83.09440220930317
"43016","Dublin","OH","Pit Of Despair","5175 Emerald Pkwy","43017",40.1051025390625,-83.12913513183594
"43016","Dublin","OH","The Columbus Sleep Center","5142 Blazer Pkwy","43017",40.089921,-83.127298
"43016","Dublin","OH","America's Urgent Care","1651 Sawmill Ave","not_available",40.05936283677127,-83.09447516417782
"43016","Dublin","OH","Medflight 12","2728 W Dublin Granville Rd","43235",40.086016512211685,-83.06875819518258
"43016","Dublin","OH","Riverside Outpatient Surgery Center","2240 N Bank Dr","43220",40.05799417968949,-83.080965593781
"43016","Dublin","OH","OSU Med Center","420 W 10th Ave","43201",40.118559166666664,-83.0838143
"43016","Dublin","OH","Dublin Close To Home Center on Hospital Dr. with Urgent Care","7450 Hospital Drive Suite, Suite 100","43016",40.10142540618901,-83.1642273791332
"43016","Dublin","OH","The Little Clinic","7100 Hospital Dr.","43016",40.10285047654118,-83.16436308465575
"43016","Dublin","OH","Columbus Asthma Society","5080 Bradenton Ave","43017",40.07858656287982,-83.14493089914322
"43017","Dublin","OH","Senior Star at Dublin Retirement Village","6470 Post Rd","43016",40.10801513,-83.16619073
"43017","Dublin","OH","NextCare Urgent Care","6955 Hospital Dr","43016",40.1009521484375,-83.16151428222656
"43017","Dublin","OH","Nationwide Children's Hospital","5680 Venture Dr","43017",40.10050495986692,-83.14445993052011
"43017","Dublin","OH","Family Urgent Care","not_available","43235",40.11683,-83.089354
"43021","Galena","OH","Westerville Medical Campus Emergency Care Center","260 Polaris Pkwy","43082",40.14735646369086,-82.93609110112246
"43021","Galena","OH","Polaris Surgery Center","300 Polaris Pkwy Ste 110","43082",40.1471,-82.937679
"43021","Galena","OH","Mount Carmel Rehabilitation Hospital","not_available","43082",40.142768,-82.947269
"43021","Galena","OH","Urgent Care","not_available","43074",40.24405,-82.863876
"43021","Galena","OH","Polaris Innovation Centre","2001 Polaris Pkwy","43240",40.142734999999995,-82.96368199999999
"43021","Galena","OH","Mount Carmel Rehabilitation Hospital, an affiliate of Encompass Health","597 Executive Campus Dr","43082",40.1444291,-82.9488217
"43021","Galena","OH","The Little Clinic","7345 State Route 3","43082",40.1495167,-82.9211819
"43023","Granville","OH","Urgent Care","not_available","43055",40.055892960350064,-82.48049768416581
"43023","Granville","OH","Licking Memorial Hospital Lab","not_available","43023",40.0602276,-82.5183638
"43026","Hilliard","OH","Hometown Urgent Care","2371 Hilliard Rome Rd","43026",39.998102,-83.15311349999999
"43026","Hilliard","OH","Dr. Varveris (Urgent Footcare Clinic)","4975 Cemetery Rd","43026",40.030571,-83.14925
"43026","Hilliard","OH","Access MD Urgent Care","5677 Scioto Darby Rd","43026",40.03182,-83.169156
"43026","Hilliard","OH","Ohio State Infusion and Lab Hilliard","3711 Ridge Mill Dr","43026",40.02922,-83.11287
"43026","Hilliard","OH","Hilliard Close To Home Center with Urgent Care","4363 All Seasons Dr Ste 100","43026",40.035787073193,-83.13381770613421
"43026","Hilliard","OH","OhioHealth Emergency Care Hilliard","3880 Fishinger Blvd","43026",40.0326967,-83.1155446
"43026","Hilliard","OH","ExpressMed Urgent Care","5263 Nike Dr","43026",39.99353664832163,-83.15107546411757
"43026","Hilliard","OH","Darby Glenn Rehab Center","Tremont Club Dr","43026",40.047630310058594,-83.1474380493164
"43026","Hilliard","OH","Hilliard Close to Home Center","3955 Brown Park Dr","43026",40.033488,-83.137152
"43026","Hilliard","OH","OhioHealth Urgent Care","4343 All Seasons Dr","43026",40.0359006,-83.1330446
"43026","Hilliard","OH","Mt. Carmel Women's Care","Rome-Hilliard Rd","not_available",40.00081040686956,-83.15369367599487
"43026","Hilliard","OH","Enhanced Urgent Care by ESI","3615 Fishinger Blvd","43026",40.0278892,-83.1173352
"43026","Hilliard","OH","The Little Clinic","4656 Cemetery Rd","43026",40.033508761363855,-83.14059108495712
"43031","Johnstown","OH","Mt Carmel New Albany Surgical Hospital","7333 Smiths Mill Rd","43054",40.08620050813063,-82.78990892154799
"43035","Lewis Center","OH","Lifetime Pet Wellness","454 Lazelle Rd","43240",40.136307,-82.995064
"43035","Lewis Center","OH","OhioHealth Urgent Care","1120 Polaris Pkwy","43240",40.1445923,-82.989601
"43035","Lewis Center","OH","Nationwide Childrens-Urgent care","433 N Cleveland Ave","43082",40.137667,-82.94789399999999
"43035","Lewis Center","OH","Westar Urgent Care","444 N Cleveland Ave","43082",40.13778517038055,-82.94647709998529
"43035","Lewis Center","OH","433 n cleveland ave","433 North Cleveland Avenue","not_available",40.13766860961914,-82.94817352294922
"43035","Lewis Center","OH","riverside cancer specialist","not_available","43214",40.15942411256334,-83.01889406507794
"43035","Lewis Center","OH","OhioHealth Urgent Care In Partnership With NextCare","24 Hidden Ravines Drive","43035",40.170579,-83.02163779735565
"43035","Lewis Center","OH","OhioHealth Urgent Care","24 Hidden Ravines Dr","43065",40.17076628467964,-83.02174476074485
"43035","Lewis Center","OH","Walk In Urgent Care","1085 Polaris Pkwy","43240",40.1450558,-82.992258
"43040","Marysville","OH","Memorial Hospital of Union County","not_available","43040",40.23048811948081,-83.36869457451938
"43040","Marysville","OH","kare medical transport","1002 Columbus Ave, Marysville, OH 43040","43040",40.232948,-83.351223
"43040","Marysville","OH","Miracle Life Center","500 London Ave","43040",40.22985076904297,-83.3678207397461
"43040","Marysville","OH","Memorial Gables Nursing Home & Rehabilitation","390 Gables Dr","43040",40.23656463623047,-83.3893814086914
"43040","Marysville","OH","Memorial Urgent Care | City Gate","120 Colemans Crossing Blvd","43040",40.24081503,-83.34894206
"43040","Marysville","OH","Memorial Hospital Urgent Care","1140 Charles Ln","43040",40.237098693847656,-83.34873962402344
"43040","Marysville","OH","Marysville Close To Home Center with Urgent Care","100 Colemans Xing","43040",40.24163105756598,-83.3501472386751
"43050","Mount Vernon","OH","Knox Community Hospital","not_available","43050",40.399836049269595,-82.44843894894096
"43050","Mount Vernon","OH","Family Urgent Care Mount Vernon","855 Coshocton Ave # H","43050",40.400822714461,-82.45892554422761
"43050","Mount Vernon","OH","Center for Rehab and Wellness","1375 Yauger Rd, Mt Vernon, OH 43050","43050",40.39706919715385,-82.44864672392397
"43050","Mount Vernon","OH","Kindred at Home (Kindred Hospice)","743 Fairgrounds Rd","43050",40.39308158,-82.50807179
"43054","New Albany","OH","ExpressMed Urgent Care","153 West Main Street #103","43054",40.080931,-82.81203000000001
"43054","New Albany","OH","OhioHealth Urgent Care","5610 N Hamilton Rd","43230",40.070736173937675,-82.86209960283486
"43054","New Albany","OH","Central Ohio Surgical Institute","6520 W Campus Oval","43054",40.101631,-82.819597
"43054","New Albany","OH","Wesley Hospice","4588 Wesley Woods Blvd Suite 2A","43054",40.074362,-82.851335
"43054","New Albany","OH","Ohio State Outpatient Rehabilitation Gahanna YMCA","551 Ymca Pl","43230",40.048370361328125,-82.85706329345703
"43054","New Albany","OH","OhioHealth Emergency Care New Albany","5868 N Hamilton Road","43054",40.07628598586923,-82.85192536742382
"43054","New Albany","OH","Ohio State Same-Day Care Outpatient Care Upper Arlington (Ohio State Walk-in Care Upper Arlington)","1800 Zollinger Rd","43221",40.05168,-82.86239
"43055","Newark","OH","Licking Memorial Hospital","1320 W Main St","43055",40.04790148557199,-82.45052476100496
"43055","Newark","OH","Select Specialty Hospital","2000 Tamarack Rd","43055",40.042527,-82.464849
"43055","Newark","OH","Newark Urgent Care","1902-1916 Tamarack Rd","43055",40.040065552639064,-82.46512939008481
"43055","Newark","OH","Medical Office CFR SKC BSA","not_available","43071",40.17518997192383,-82.3091049194336
"43062","Pataskala","OH","Licking County Urgent Care","1 Healthy Pl","43062",40.00431442260742,-82.65556335449219
"43062","Pataskala","OH","LKM Home Health Training","25 Front Street, 209","43062",39.9966342,-82.6742233
"43062","Pataskala","OH","The Little Clinic","350 E Broad St","43062",40.00640328464532,-82.66411276194049
"43062","Pataskala","OH","Dr. Rohl's","not_available","43062",40.07583999633789,-82.7463607788086
"43064","Plain City","OH","Nationwide Childrens-urgent care","not_available","43140",40.01022765631225,-83.36447872113507
"43068","Reynoldsburg","OH","OhioHealth Urgent Care Reynoldsburg","2014 State Route 256","43068",39.9429685,-82.7930778
"43068","Reynoldsburg","OH","Access Urgent Medical Care of Pickerington","1797 Hill Rd N","43147",39.92804718017578,-82.78925323486328
"43068","Reynoldsburg","OH","The Langston Hughes Center Cleveland Clinic Community Health & Education Center","2390 E 79th St","44104",39.956078,-82.832869
"43068","Reynoldsburg","OH","OhioHealth Emergency Care Reynoldsburg","6960 E Main St","43068",39.95548873847587,-82.81136786565185
"43068","Reynoldsburg","OH","OrthoNeuro Physical Therapy","1240 Hill Rd N","43147",39.913238525390625,-82.77890014648438
"43068","Reynoldsburg","OH","sadville","not_available","43068",39.91856889412121,-82.82757944605787
"43068","Reynoldsburg","OH","My Happy Place","my brain","not_available",39.95558466,-82.7988595
"43068","Reynoldsburg","OH","Rosehill Vet Hospital","6724 E Main St","43068",39.955490000000005,-82.81755600000001
"43076","Thornville","OH","Genesis Perry County Medical Center","301 Mike Clouse Dr Ste 2","43783",39.7993278503418,-82.29452514648438
"43078","Urbana","OH","urbana hospital","not_available","43078",40.108299255371094,-83.74713897705078
"43078","Urbana","OH","Mercy Health - Urbana Hospital Emergency Department","904 Scioto Street","43078",40.10783268,-83.72976727
"43078","Urbana","OH","Community Urgent Care","Scioto st.","43078",40.11935142,-83.74060527
"43078","Urbana","OH","Healing Hands Urgent Care, LLC.","848 Scioto St Ste 2A","43078",40.107341,-83.732121
"43078","Urbana","OH","Memorial Urgent Care | Urbana","1958 E US Highway 36","43078",40.10786056518555,-83.71332550048828
"43078","Urbana","OH","Mercy Health - Urbana Hospital","904 Scioto St","43078",40.108005,-83.7300945
"43081","Westerville","OH","Mount Carmel St. Ann's Hospital","500 S Cleveland Ave","43081",40.11448386021365,-82.94704952392003
"43081","Westerville","OH","St Ann's Medical Office Building","495 Cooper Rd","43081",40.11489079987515,-82.94529492009354
"43081","Westerville","OH","St Anns Hospital","not_available","43231",40.0960460526316,-82.98903829735971
"43081","Westerville","OH","nurse jane","not_available","43229",40.096717834472656,-82.95645141601562
"43081","Westerville","OH","Urgent Care Physicians Center","720 Worthington Woods Blvd","43085",40.11929702758789,-82.99723052978516
"43081","Westerville","OH","Excel Urgent Care","5801 Tamarack Blvd","43229",40.086194,-82.97012600000001
"43081","Westerville","OH","Maternity Pavilion @ Mt. Carmel St. Ann's","Cleveland ave.","43081",40.11403033393618,-82.94735411440429
"43081","Westerville","OH","Ameristar Home Healthcare","5668 Columbus Square","43231",40.086927,-82.948683
"43081","Westerville","OH","Mount Carmel St.Anns Cath Lab","not_available","43081",40.11114538228888,-82.94006981765692
"43081","Westerville","OH","OSU Medical Center","medical Dr","43085",40.0883445842071,-83.00359007876564
"43081","Westerville","OH","Villa Angela","5700 Karl Rd","43229",40.08265948608505,-82.9746163582971
"43085","Columbus","OH","Worthington Urgent Care","2245 W Dublin Granville Rd Ste 101","43085",40.08970425515102,-83.04991559259031
"43085","Columbus","OH","H12B HEM/ONC At NCH","not_available","43223",40.110147600152025,-83.0360353501819
"43085","Columbus","OH","Medsave Clinic Urgent Care","33 E North St","43085",40.09268,-83.016858
"43085","Columbus","OH","The james Mammography Of Worthington","160 W Wilson Bridge Rd Ste 2200","43085",40.108686999999996,-83.02114499999999
"43085","Columbus","OH","OSU Divsion of Infectious Disease","N 1137 Doan Hall","43210",40.102243423461914,-83.01411151885986
"43085","Columbus","OH","Fairview Hospital","1100 Collins Avenue","43085",40.0962609403919,-83.04890513420105
"43103","Ashville","OH","Berger Hospital","not_available","43113",39.736188560100196,-83.07359104995908
"43107","Bremen","OH","My Desk","Bremo Road","43107",39.699247,-82.427015
"43110","Canal Winchester","OH","Diley Ridge Medical Center","7911 Diley Rd","43110",39.850663794711494,-82.78398030977559
"43110","Canal Winchester","OH","Nationwide Children's Hospital Close to Home Center","7901 Diley Rd","43110",39.849517822265625,-82.78366088867188
"43110","Canal Winchester","OH","Canal Winchester Close To Home Center with Urgent Care at 7910 Diley Road","7901 Diley Rd Ste 100","43110",39.84968513564528,-82.78412709338329
"43110","Canal Winchester","OH","Dees medical Ward uggg","not_available","43110",39.890302811953696,-82.75455246604767
"43110","Canal Winchester","OH","Diley Ridge Er","diley rd","43110",39.849517822265625,-82.78366088867188
"43110","Canal Winchester","OH","The Little Clinic","1045 Hill Rd N","43147",39.90674803416656,-82.77945866146376
"43112","Carroll","OH","MedFlight 1","not_available","43112",39.75439,-82.665634
"43112","Carroll","OH","Greenfield Township Fire Department","3245 Havensport Rd","43112",39.773658752441406,-82.64726257324219
"43113","Circleville","OH","Berger Hospital","600 N Pickaway St","43113",39.610187,-82.9366375
"43113","Circleville","OH","Family Urgent Care LLC","1180 N Court St","43113",39.61979,-82.93931
"43119","Galloway","OH","Urgent Care of West Jefferson","not_available","43162",39.97412853816309,-83.23171959604734
"43119","Galloway","OH","Princess's Domain","not_available","43119",39.964165754259845,-83.23978992477181
"43119","Galloway","OH","Doctor's Hospital 5th Floor","not_available","43228",39.95371510115071,-83.14584741438576
"43119","Galloway","OH","Urgent Care of West Jefferson","95 E Main St","43162",39.9448,-83.2665
"43123","Grove City","OH","Mount Carmel Grove City","5400 N Meadows Dr","43123",39.85344353288063,-83.07455058194635
"43123","Grove City","OH","Grove City Urgent Care","3000 Meadow Pond Ct","43123",39.84113330106466,-83.08525743850664
"43123","Grove City","OH","Nationwide Children's Hospital Mobile","3205 Park St","43123",39.87876892089844,-83.08860778808594
"43123","Grove City","OH","OhioHealth Urgent Care Grove City","2030 Stringtown Rd","43123",39.8800522,-83.0575233
"43123","Grove City","OH","America's Urgent Care","not_available","43123",39.880036,-83.058015
"43123","Grove City","OH","Mount Carmel Urgent Care","3005 Meadow Pond Ct","43123",39.841312408447266,-83.08547973632812
"43123","Grove City","OH","Great Run Urgent Care","200","43123",39.84127032,-83.08525021
"43123","Grove City","OH","Drs West Hospital","West Broad","43228",39.92056806121029,-83.11762071736479
"43123","Grove City","OH","The Little Clinic","5965 Hoover Rd","43123",39.8412176,-83.07506819999999
"43123","Grove City","OH","The Little Clinic","1585 Georgesville Square Dr","43228",39.9204558,-83.1212386
"43123","Grove City","OH","OhioHealth Grove City Methodist Hospital and Emergency Department","1375 Stringtown Rd","43123",39.87712097167969,-83.0334701538086
"43125","Groveport","OH","Hometown Urgent Care","not_available","43125",39.89700450739496,-82.88414752055381
"43125","Groveport","OH","Forest Health Medical Center","3964 Hamilton Square Blvd","43125",39.893463134765625,-82.8801498413086
"43125","Groveport","OH","OhioHealth Emergency Care Obetz","4335 Alum Creek Dr","43207",39.87975304780646,-82.93131434507336
"43125","Groveport","OH","The Little Clinic","6011 Groveport Rd","43125",39.8532986,-82.8993122
"43130","Lancaster","OH","Fairfield ER","Fairfield Medical Center","not_available",39.718097452433476,-82.57695436477661
"43130","Lancaster","OH","Smiths Grove Sanitarium","411 E Chestnut St","43130",39.71238285330379,-82.59517900917992
"43130","Lancaster","OH","First Medical Urgent Care","1201 River Valley Blvd","43130",39.731395512913885,-82.61955644501741
"43130","Lancaster","OH","Fairfield Medical Center","401 N Ewing St","43130",39.717689514160156,-82.57763671875
"43130","Lancaster","OH","exam room9","not_available","43130",39.717547266402626,-82.57792145942965
"43130","Lancaster","OH","The Little Clinic","1621 N Memorial Dr","43130",39.729557,-82.615106
"43138","Logan","OH","OhioHealth Urgent Care Nelsonville","11 John Lloyd Evans Memorial Dr","45764",39.464842,-82.24991179999999
"43138","Logan","OH","Hocking Valley Community Hospital","601 State Route 664 N","43138",39.54799059640115,-82.42940815973282
"43138","Logan","OH","Doctor's Hospital of Nelsonville","1950 Mount Sa. Marys Dr.","45764",39.4631981208753,-82.2428885814445
"43138","Logan","OH","Grant Medical Center Here We Come!","not_available","43138",39.539771,-82.401016
"43138","Logan","OH","Walk In Urgent Care","12906 State Route 664 S","43138",39.53976805184862,-82.43641954046761
"43140","London","OH","Madison County Hospital","210 N Main St","43140",39.89269721813285,-83.45374950385371
"43140","London","OH","The Arbors of London","218 Elm St","43140",39.89792251586914,-83.44619750976562
"43160","Washington Court House","OH","Campbell-Wall Urgent Care","not_available","43160",39.53086363895788,-83.456599728681
"43201","Columbus","OH","The James Cancer Hospital and Solove Research Institute","460 W 10th Ave","43210",39.99491649418353,-83.01961449437542
"43201","Columbus","OH","Richard M Ross Heart Hospital","452 W 10th Ave","43210",39.99451891587913,-83.01821760358528
"43201","Columbus","OH","Doan Hall (DN)","410 W 10th Ave","43210",39.995646175619385,-83.0171396718176
"43201","Columbus","OH","Equitas Health Short North Medical Center","1033 N High St","43201",39.9835247,-83.0050966
"43201","Columbus","OH","OSU Harding Hospital","1670 Upham Dr","43210",39.99550210202739,-83.0201537920825
"43201","Columbus","OH","OSU Hand and Upper Extremity Center","915 Olentangy River Rd","43212",39.97783660888672,-83.02326965332031
"43201","Columbus","OH","Portsmouth Ambulance","600 Shoemaker Ave","43201",39.988465999999995,-82.98945400000001
"43201","Columbus","OH","OSU Transfer Center","not_available","43210",39.996203237803684,-83.01760356766049
"43201","Columbus","OH","Ross Surgery Waiting Room","not_available","43201",39.99130896603612,-83.02215814590453
"43201","Columbus","OH","Psych ward","36 E Woodruff Ave Apt E","43201",40.00408935546875,-83.00773620605469
"43201","Columbus","OH","Mother's Milk Bank","1132 Hunter Ave","43201",39.984928131103516,-83.00930786132812
"43201","Columbus","OH","Ross O.R. 3","not_available","43212",40.0020458760206,-83.00244095616402
"43201","Columbus","OH","Dr. Nicholas Kman MD","376 W 10th Ave","43210",39.99462127685547,-83.01712799072266
"43201","Columbus","OH","Osu Rhodes Hall","medical center drive","not_available",39.99318558194596,-83.01727307035912
"43202","Columbus","OH","OhioHealth Riverside Methodist Hospital","3535 Olentangy River Rd","43214",40.0309995,-83.0348487
"43202","Columbus","OH","Riverside E.R.","3545 Olentangy River Rd","43214",40.030758841654496,-83.03541050756596
"43202","Columbus","OH","Riverside Methodist Hospital Pre-Op","3433 Olentangy River Rd","43214",40.03116306771782,-83.03383261949176
"43202","Columbus","OH","OSU Medical Center - Nuclear Medicine","not_available","43202",40.01342139394673,-83.00905731974512
"43202","Columbus","OH","Nature's House Of Insanity","2526 Glenmawr Ave","43202",40.015268,-82.998482
"43202","Columbus","OH","Riverside Children's Center","865 Thomas Lane","43214",40.03219918304079,-83.03640246480265
"43202","Columbus","OH","Riverside Methodist Hospital Endoscopy","1111 Olentangy River Rd","43202",40.020322426388816,-83.02584448075825
"43202","Columbus","OH","McConnell Heart Hospital at Riverside","3525 Olentangy River Rd","43214",40.0310931,-83.0324317
"43203","Columbus","OH","Equitas Health King-Lincoln Medical Center","750 E Long St Ste 3000","43203",39.9675017,-82.9814171
"43203","Columbus","OH","OSU Tower 8","not_available","43203",39.969345,-82.963645
"43203","Columbus","OH","Arthur G. James Cancer Center @ OSU East","1492 E Broad St","43205",39.970672607421875,-82.96308135986328
"43203","Columbus","OH","OSU Hospital Tower 4","1392 E Broad St","43205",39.967282,-82.96398
"43204","Columbus","OH","Hometown Urgent Care & Workcare Center","4300 Clime Rd #110","43228",39.93310546875,-83.11178588867188
"43204","Columbus","OH","Urgent care","85 phillipi Rd","not_available",39.95391327219585,-83.11106765754663
"43204","Columbus","OH","Twin Valley Behavioral Healthcare","2200 W Broad St","43223",39.957918567182475,-83.05942170643641
"43204","Columbus","OH","Columbus Health Care Center","clime rd.","43228",39.9297631,-83.101294
"43205","Columbus","OH","Nationwide Children's Hospital","700 Childrens Dr","43205",39.9532936,-82.979268
"43205","Columbus","OH","Nationwide Children's Hospital Outpatient Center","555 S 18th St","43205",39.95326197643129,-82.97703535574688
"43205","Columbus","OH","Nch Magic Forest","not_available","43205",39.952588,-82.979284
"43205","Columbus","OH","T4 Elavator","700 Childrens Dr, Columbus, OH 43205","43205",39.95267336096526,-82.97893990342934
"43205","Columbus","OH","Nationwide Children's Hospital Emergency Department","630 Childrens Dr","43205",39.95246887207031,-82.97944641113281
"43205","Columbus","OH","nationwide childrens urology","Childrens Drive","43205",39.95323323241712,-82.9771552037284
"43205","Columbus","OH","NCH H9B","not_available","43206",39.94843936322949,-82.97572740932503
"43205","Columbus","OH","H10 B1 Nurse's Station","Children's Drive","not_available",39.952868,-82.981011
"43205","Columbus","OH","Nationwide Children's East Central","899 E. Broad Street","not_available",39.96399,-82.97565
"43206","Columbus","OH","Advantage Diagnostic","1430 S High St","43207",39.932682037353516,-82.99504852294922
"43207","Columbus","OH","Regency manor","2000 Regency Manor Cir","43207",39.93570413936491,-82.94332080298658
"43207","Columbus","OH","NCH 6AE","not_available","43207",39.93492,-82.97288
"43207","Columbus","OH","OSU Medical Center East","East Broad St","not_available",39.93779963349824,-82.934780717959
"43207","Columbus","OH","The Little Clinic","3637 S High St","43207",39.8881063,-83.0013631
"43209","Columbus","OH","Bexley Urgent Care","2216 E Main St","43209",39.9577476,-82.9397293
"43209","Columbus","OH","Wexner Rehabilitation Center #8","not_available","43209",39.94530578791566,-82.9361253552216
"43209","Columbus","OH","VA Hospital","not_available","43213",39.956391742729544,-82.91534346954258
"43210","Columbus","OH","Martha Morehouse Afterhours Urgent Care","2050 Kenny Rd Ste 2550 Fl Pavilion","43221",40.001155853271484,-83.03177642822266
"43211","Columbus","OH","Mohun Health Care Center","2340 Airport Dr, Columbus, OH 43219","43219",39.990875244140625,-82.94063568115234
"43212","Columbus","OH","OhioHealth Urgent Care","895 W 3rd Ave","43212",39.9842318,-83.0292099
"43212","Columbus","OH","Ohio State Comprehensive Transplant Center","770 Kinnear Rd","43210",39.99844855515348,-83.02928065876023
"43212","Columbus","OH","OSU Comprehensive Wound Care Center","2050 Kenny Rd","43221",40.001327,-83.03288
"43213","Columbus","OH","Mount Carmel ER","Mount Carmel East","43213",39.977017329380956,-82.84374564886093
"43213","Columbus","OH","Cardiac Arrest","1 Myocardio infarction","not_available",39.976921,-82.843783
"43213","Columbus","OH","Whitehall Primary Care Center","561 S Yearling Rd","43213",39.96192308542914,-82.88648620413511
"43213","Columbus","OH","James P Wylie VA Ambulatory Care","420 N James Rd","43219",39.980709075927734,-82.90933990478516
"43213","Columbus","OH","Walk In Urgent Care","3597 E Main St","43213",39.955747,-82.9016822
"43214","Columbus","OH","Hometown Urgent Care","4400 N High St","43214",40.05198279405747,-83.02000482249173
"43214","Columbus","OH","Elizabeth Blackwell Center","3635 Olentangy River Rd","43214",40.03403943812028,-83.03279547482332
"43214","Columbus","OH","Walk In Urgent Care","5059 N High St","43214",40.06507950191299,-83.02032393649134
"43214","Columbus","OH","Camelot Women's Health Center","4775 Knightsbridge Blvd","43214",40.05845,-83.04038
"43215","Columbus","OH","Ohio Hospital for Psych","880 Greenlawn Ave","43223",39.940059661865234,-83.01985168457031
"43215","Columbus","OH","Grant ER","Grant Medical Center","43215",39.960588569749675,-82.9917148480957
"43215","Columbus","OH","Grant Surgical and Heart Center","300 E Town St","43215",39.9602293,-82.9916371
"43215","Columbus","OH","6 Tower","not_available","43222",39.957759857177734,-83.02214050292969
"43215","Columbus","OH","NationWide Childrens Hospital","Im not positive on name","43205",39.95345953598844,-83.04159953938641
"43219","Columbus","OH","Broken Neck","not_available","43230",40.054178,-82.873482
"43219","Columbus","OH","ExpressMed Urgent Care","445 Rocky Fork Blvd","43230",40.012987,-82.865891
"43219","Columbus","OH","The Little Clinic","300 S Hamilton Rd","43230",40.01185858906173,-82.86474101702476
"43219","Columbus","OH","Perichak Eye Care","4049 The Strand E","43219",40.0523846,-82.9151075
"43220","Columbus","OH","The Little Clinic","1955 Henderson Rd","43220",40.0545377,-83.072821
"43221","Columbus","OH","Home Care Assistance of Columbus","2098 Tremont Ctr","43221",40.014183044433594,-83.0678939819336
"43222","Columbus","OH","Mount Carmel ER","Mount Carmel West","not_available",39.9580023946392,-83.02160024642944
"43222","Columbus","OH","Netcare Access","199 S Central Ave","43223",39.953585,-83.03783100000001
"43222","Columbus","OH","Select Specialty Hospital","793 W State St","43222",39.957228,-83.021911
"43223","Columbus","OH","Ohio hospital of psychiatry","Greenlawn Ave, Columbus, OH 43223","43223",39.94016762287871,-83.01961799160037
"43224","Columbus","OH","Premium urgent care","909 Morse Rd","43229",40.06117630004883,-82.99553680419922
"43224","Columbus","OH","United Urgent Care","2330 Morse Rd #A","43229",40.060328999999996,-82.956959
"43227","Columbus","OH","Mount Carmel Behavioral Health","4646 Hilton Corporate Drive","43232",39.93572235107422,-82.8705825805664
"43228","Columbus","OH","Doctors Hospital","5100 W Broad St","43228",39.9526733,-83.1381732
"43228","Columbus","OH","Doctors West Radiology Department","Norton Ln, Columbus, OH 43213","43213",39.9530266,-83.1372397
"43228","Columbus","OH","Drs West Hospital","W Broad St","43228",39.97870369320707,-83.13595636633684
"43228","Columbus","OH","Doctors West Room 423","West Broad Street","43228",39.947354,-83.140803
"43228","Columbus","OH","Docs West Squad Room","91 Sturbridge Rd","43228",39.953876,-83.137434
"43228","Columbus","OH","Walk In Urgent Care","4832 W Broad St","43228",39.952787918915305,-83.13069677937075
"43235","Columbus","OH","Brain Healing Products","395 Broadmeadows Blvd Apt 111","43214",40.073734283447266,-83.0293960571289
"43302","Marion","OH","Marion General Hospital","1000 McKinley Park Dr","43302",40.57118127901269,-83.12899056109018
"43302","Marion","OH","surgery","not_available","43302",40.571106,-83.128609
"43302","Marion","OH","Excel Urgent Care Center","Marion","not_available",40.5802,-83.08301
"43302","Marion","OH","OhioHealth Urgent Care - Marion","130 University Dr Ste 1300","43302",40.5817527,-83.0921173
"43302","Marion","OH","MedCare Ambulance Marion Base","310 Executive Dr","43302",40.569854736328125,-83.12922668457031
"43302","Marion","OH","Heartland Home Health Care  Serving Central Ohio","685 Delaware Ave","43302",40.57710053,-83.12646813
"43302","Marion","OH","Stofcheck Marion Station","114 E Center Street","43302",40.5885628372775,-83.12405239693929
"43302","Marion","OH","Excel Urgent Care","169 Edgefield Blvd","43302",40.580448150634766,-83.08280944824219
"43302","Marion","OH","MRI @ MGH","1000","43302",40.5825462,-83.1366039
"43302","Marion","OH","Walk In Urgent Care","175 Edgefield Blvd","43302",40.5803632,-83.0830482
"43311","Bellefontaine","OH","Mary Rutan Hospital","205 E Palmer Rd","43311",40.369567,-83.755788
"43311","Bellefontaine","OH","Heartland of Bellefontaine","221 School St","43311",40.36449175,-83.77981614
"43315","Cardington","OH","Morrow County Hospital","651 W Marion Rd","43338",40.5481468,-82.8506164
"43315","Cardington","OH","Mt Gilead General hospital","not_available","43338",40.55044593669773,-82.8282896753187
"43315","Cardington","OH","Morrow County Hospital Emergency Department","651 W Marion Rd Fl 1","43338",40.548122278989275,-82.85049509257078
"43326","Kenton","OH","BKP EMS","439 S Main St","43326",40.6419792175293,-83.60795593261719
"43326","Kenton","OH","OhioHealth Urgent Care Hardin","921 E Franklin St","43326",40.6463854,-83.5957351
"43333","Lewistown","OH","HTM Nurse Office","not_available","43333",40.447753,-83.900508
"43351","Upper Sandusky","OH","Wyandot Memorial Hospital","885 N Sandusky Ave","43351",40.8404465,-83.2803686
"43351","Upper Sandusky","OH","The Knapp Eyecare Center Inc.","212 E Wyandot Ave","43351",40.827735,-83.279163
"43402","Bowling Green","OH","Bowling Green Rehab","not_available","43402",41.37741345520481,-83.66782381540305
"43402","Bowling Green","OH","Wood County Hospital","950 W Wooster St","43402",41.375763,-83.665562
"43402","Bowling Green","OH","Mobile Life 10","960 W Wooster St Ste 215","43402",41.3752555847168,-83.66703033447266
"43402","Bowling Green","OH","Wood County Hospital Er","not_available","43565",41.41806041423486,-83.738364647738
"43402","Bowling Green","OH","Waterville Healthcare","8885 Browning Dr","43566",41.479759216308594,-83.75550079345703
"43402","Bowling Green","OH","DOWA THT AMERICA, INC.","2130 S Woodland Cir","43402",41.37855529785156,-83.60482025146484
"43402","Bowling Green","OH","Walk In Urgent Care","1107 S Main St Ste 300","43402",41.356237,-83.649813
"43410","Clyde","OH","Elmwood","401 N Broadway St","44836",41.26228384522038,-83.05264661895818
"43410","Clyde","OH","The Bellevue Hospital","1400 w. main st.","not_available",41.288027378442365,-82.88134090827705
"43410","Clyde","OH","Spectrum urgent care","not_available","43410",41.319334919004476,-83.00764070766161
"43410","Clyde","OH","Bellevue Hospital","1400 W Main St","44811",41.28777148855961,-82.88107281301795
"43420","Fremont","OH","Walk In Urgent Care","2180 Sean Dr Ste 6B","43420",41.376899,-83.11936
"43420","Fremont","OH","ProMedica Memorial Hospital","715 S Taft Ave","43420",41.339380107328516,-83.13501026114278
"43420","Fremont","OH","Physician’s Choice Hospital","2390 Enterprise St","43420",41.37976728525712,-83.11616977667835
"43449","Oak Harbor","OH","Mid County Ems","not_available","43449",41.51457950853482,-83.14887883309684
"43452","Port Clinton","OH","Magruder Hospital","615 Fulton St","43452",41.50575897417722,-82.93297381878472
"43452","Port Clinton","OH","Fastrack Urgent Care","135 W Perry St","43452",41.512875,-82.94300799999999
"43452","Port Clinton","OH","Ekg Room","not_available","43452",41.508551,-82.937806
"43465","Walbridge","OH","Perrysburg Care And Rehab","not_available","43551",41.56453645447371,-83.53306588234102
"43502","Archbold","OH","CHWC Archbold Medical Center","121 Westfield Dr","43502",41.5225715637207,-84.32221221923828
"43506","Bryan","OH","Community Hospital and Wellness Center (Bryan Hospital)","433 W High St","43506",41.47410810284829,-84.55663255837665
"43512","Defiance","OH","ProMedica Defiance Regional Hospital","1200 Ralston Ave","43512",41.298822465817494,-84.37710901692368
"43512","Defiance","OH","Surgery Center at Defiance Regional Medical Center","Ralston Ave","43512",41.29896125712094,-84.37667786671938
"43512","Defiance","OH","Mercy Health - Defiance Hospital","1404 E 2nd St","43512",41.28325205,-84.3401583
"43512","Defiance","OH","Mercy Health - Defiance Hospital Emergency Department","1404 East 2nd Street","43512",41.283809661865234,-84.33988189697266
"43512","Defiance","OH","Mercy Health - Defiance Urgent Care","1400 E 2nd St","43512",41.2832383,-84.34008233
"43526","Hicksville","OH","Community Memorial Hospital","280 Columbus St","43526",41.30164337158203,-84.756103515625
"43526","Hicksville","OH","Hickory Creek","401 Fountain St","43526",41.287925720214844,-84.76255798339844
"43528","Holland","OH","Spring Meadows Extended Living Center","1151 Clarion Ave","43528",41.6200810655943,-83.70779341183103
"43528","Holland","OH","Springfield Urgent Care","6819 Spring Valley Dr","43528",41.612501,-83.704157
"43528","Holland","OH","Med1Care","1225 Corporate Dr","43528",41.617837,-83.689472
"43528","Holland","OH","The Little Clinic","7059 Orchard Centre Dr","43528",41.6084817,-83.7094203
"43532","Liberty Center","OH","Henry County Hospital","1600 E Riverview Ave","43545",41.411293,-84.0874988
"43535","Malinta","OH","Puskesmas cimalaka","Puskesmas cimalaka","43535",41.3071211,-84.0378894
"43537","Maumee","OH","St Lukes Heart Center","not_available","43537",41.55689330152841,-83.68335527740979
"43537","Maumee","OH","St Lukes Emergency Room","5901 Monclova Rd","43537",41.55680350011465,-83.68250274919198
"43537","Maumee","OH","st. lukes hospital es break room","Monclova road","43537",41.55736961959994,-83.68148675259435
"43537","Maumee","OH","Northwest Ohio Urgent Care","1015 Conant St","43537",41.568284000000006,-83.65731
"43537","Maumee","OH","Arrowhead Behavioral Health","1725 Timber Line Road","43537",41.589774,-83.6893286
"43537","Maumee","OH","ProMedica Urgent Care - Maumee","217 Golden Gate Plz","43537",41.566634,-83.653213
"43537","Maumee","OH","Melvina's Geriatric Hospice","1753 Heatherdowns","43614",41.606817,-83.613985
"43537","Maumee","OH","Mercy Health - Perrysburg Obstetrics and Gynecology","1103 Village Square Drive","43551",41.53978316,-83.63286116
"43537","Maumee","OH","ICC  St lukes","Monclova","43537",41.557286524613595,-83.68054262863542
"43543","Montpelier","OH","Anga Urgent Care","not_available","46703",41.57936524394706,-84.55685833668313
"43543","Montpelier","OH","CHWC Montpelier Hospital","909 E Snyder Ave","43543",41.589744567871094,-84.59564208984375
"43545","Napoleon","OH","Henry County Hospital","East River Ave","43545",41.399544403287344,-84.11613768122916
"43545","Napoleon","OH","Lauf & Meents - Doctors of Optometry","606 Scott Street","43545",41.3899832,-84.1254345
"43551","Perrysburg","OH","Mercy Health - Perrysburg Hospital","12623 Eckel Junction Road","43551",41.53538025,-83.63752052
"43551","Perrysburg","OH","ProMedica Urgent Care - Perrysburg","25950 Dixie Hwy Ste 500","43551",41.52693176269531,-83.63670349121094
"43551","Perrysburg","OH","Hospice Of Northwest Ohio","30000 E River Rd","43551",41.585006,-83.588408
"43551","Perrysburg","OH","Mercy Health - Perrysburg Hospital Emergency Department","12621 Eckel Junction Road","43551",41.535499572753906,-83.63756561279297
"43558","Swanton","OH","Toledo Hospital ER","Central","43558",41.59180257622529,-83.88434207285395
"43560","Sylvania","OH","ProMedica Flower Hospital","5200 Harroun Rd","43560",41.708708108544066,-83.6908221244812
"43560","Sylvania","OH","Flower Hospital Surgery","not_available","43560",41.708367781277346,-83.69149024424358
"43560","Sylvania","OH","Toledo Hospital Radiology","not_available","43606",41.69636365981065,-83.69550865720085
"43560","Sylvania","OH","Flower Hospital Surgical Waiting Room","Hardline Rd","43560",41.707254802436395,-83.69140779700008
"43560","Sylvania","OH","ProMedica Physicians General Surgery - Oregon","2751 Bay Park Dr Ste 303","43616",41.71242439697601,-83.67890238761902
"43560","Sylvania","OH","ProMedica Physicians Plastic Surgery - Sylvania","5308 Harroun Rd, Suite 280","43560",41.710726464261924,-83.6944055557251
"43560","Sylvania","OH","ProMedica Urgent Care - Toledo","6755 W Central Ave","43617",41.67428842050962,-83.70513424278897
"43560","Sylvania","OH","ProMedica Urgent Care - Sylvania","5700 Monroe St Unit 111","43560",41.711171978644536,-83.67635735581644
"43560","Sylvania","OH","Regency Hospital","5220 Alexis Rd","43560",41.719206,-83.669005
"43560","Sylvania","OH","sylvania urgent care","not_available","43623",41.696341675829494,-83.69049940677559
"43560","Sylvania","OH","ProMedica Physicians Vascular Surgery - Sylvania","5300 Harroun Rd Ste 212","43560",41.71040609456952,-83.69153022766113
"43560","Sylvania","OH","Toledo Radiological Associates, LLC","4169 N Holland Sylvania Rd","43623",41.693954,-83.68858399999999
"43560","Sylvania","OH","ProMedica Physicians Breast Surgery | Surgical Oncology (ProMedica Physicians Breast Surgery)","5308 Harroun Rd Ste 160","43560",41.710155,-83.691541
"43560","Sylvania","OH","Mercy Health - Sylvania Medical Center Emergency Department","3100 King Road","43617",41.6748046875,-83.72212219238281
"43560","Sylvania","OH","Wildwood Surgical Center","2665 N Reynolds Rd Ste 190","43615",41.67361025251807,-83.6712026125536
"43560","Sylvania","OH","ProMedica Physicians Obstetrics | Gynecology - Sylvania","5308 Harroun Rd Ste 150","43560",41.71008572328046,-83.69157314300537
"43560","Sylvania","OH","ProMedica Wildwood Orthopaedic and Spine Hospital","2901 N Reynolds Rd","43615",41.673769847440674,-83.67330010521664
"43560","Sylvania","OH","Drug & Alcohol Rehab Toledo","5749 Park Center Ct","43615",41.682090759277344,-83.6792984008789
"43560","Sylvania","OH","Promedica Mobile (West)","5445 Schultz Dr, Sylvania, OH 43560","43560",41.71451950073242,-83.67858123779297
"43560","Sylvania","OH","Toledo Lasik & Cataract","6975 Central Ave #103 Suite 103","43617",41.6732982,-83.7106561
"43566","Waterville","OH","The Little Clinic","8370 Waterville Swanton Road","43566",41.5095292,-83.7495782
"43567","Wauseon","OH","Heartland of Wauseon","303 W Leggett St","43567",41.54313578,-84.14612238
"43567","Wauseon","OH","Mobile Life 3","725 S Shoop Ave","43567",41.538658142089844,-84.13277435302734
"43567","Wauseon","OH","Fulton County Health Center Emergency Room","not_available","43567",41.53861777389615,-84.13357540589897
"43567","Wauseon","OH","Fulton Manor Nursing Home","723 S Shoop Ave","43567",41.539926,-84.132092
"43604","Toledo","OH","Mercy St. Vincent Medical Center","2213 Cherry St","43608",41.66870465901875,-83.5429783911453
"43604","Toledo","OH","Mercy Children's Hospital","2213 Franklin Ave","43620",41.66838455200195,-83.54324340820312
"43604","Toledo","OH","Mercy Health - St. Vincent Medical Center Emergency Department","2213 Cherry Street","43608",41.6686144,-83.54290449999999
"43604","Toledo","OH","Gregory Walker, DO","2109 Hughes Dr Ste 450","43606",41.66887746520206,-83.54247365628254
"43604","Toledo","OH","St. Vincent Burn Clinic","Cherry Street","43608",41.668033599853516,-83.54228973388672
"43604","Toledo","OH","Mercy St Vincent Radiology Conference Room","not_available","43608",41.66781240855326,-83.54273382939625
"43604","Toledo","OH","Mercy LifeStar East Quarters","not_available","43605",41.64252853393555,-83.51885986328125
"43604","Toledo","OH","St Vincent's Children Hospital","2222 Cherry St","43608",41.66873671330855,-83.54187005052856
"43604","Toledo","OH","UTMC Second Floor","not_available","43609",41.63553304379221,-83.56084444437934
"43604","Toledo","OH","Mercy LifeStar South Central Quarters","not_available","43624",41.65864562988281,-83.55155181884766
"43604","Toledo","OH","Alcohol & Drug Rehab Toledo","520 Madison Ave","43604",41.6524772644043,-83.53628540039062
"43605","Toledo","OH","ProMedica Urgent Care - Oregon","3316 Navarre Ave Ste F","43616",41.635921478271484,-83.46868896484375
"43605","Toledo","OH","St Charles Mercy Hospital","2702 Navarre Avenue","43616",41.63614092,-83.48434067
"43605","Toledo","OH","St. Charles Surgery Waiting","not_available","43616",41.635532,-83.48538
"43605","Toledo","OH","St Charles Occupational Health","2600 Navarre Ave, Oregon, OH 43616","43616",41.635196685791016,-83.48544311523438
"43605","Toledo","OH","The Regional Heart And Vascular Center","2314 Cherry St","43608",41.669397653404545,-83.54210420861838
"43605","Toledo","OH","Oregon Urgent Care","3232 Navarre Ave","43616",41.636539,-83.47079699999999
"43605","Toledo","OH","Mercy Health - St. Charles Hospital Emergency Department","2600 Navarre Avenue","43616",41.635196685791016,-83.48544311523438
"43606","Toledo","OH","ProMedica Toledo Hospital","2142 N Cove Blvd., Toledo Hospital Campus","43606",41.67320032050914,-83.5948634147644
"43606","Toledo","OH","Toledo Hospital ER","2142 N Cove Blvd","43606",41.67380878522858,-83.59570968560529
"43606","Toledo","OH","ProMedica Toledo Children's Hospital","2142 N Cove Blvd., Toledo Children's Hospital Campus","43606",41.67312819540359,-83.59492778778076
"43606","Toledo","OH","ProMedica Physicians Pulmonary/Sleep Medicine - Toledo","2109 Hughes Dr Ste 760","43606",41.675155681462904,-83.59488487243652
"43606","Toledo","OH","ProMedica Russell J. Ebeid Children's Hospital","2142 N. Cove Blvd., Toledo Children's Hospital Campus","43606",41.67265763171765,-83.59510627615236
"43606","Toledo","OH","promedica wic office","2150 W Central Ave, Toledo, OH 43606","43606",41.67825900293763,-83.59641578357831
"43606","Toledo","OH","ProMedica Physicians Stroke Network - Toledo","2130 W. Central Ave, Ste. 101,102,103","43606",41.67804718017578,-83.59590148925781
"43606","Toledo","OH","TTH","N Cove Blvd S, Toledo, OH","43607",41.65686745778023,-83.61316998339133
"43606","Toledo","OH","ProMedica Total Rehab - Toledo","2150 W Central Ave","43606",41.67818647574693,-83.5964885697868
"43606","Toledo","OH","Urgent Care","not_available","48144",41.690512986516474,-83.62260817099875
"43606","Toledo","OH","ProMedica Toledo Hospital - Radiology - North Cove Boulevard","2142 N Cove Blvd Fl 2","43606",41.67307209804341,-83.59520673751831
"43607","Toledo","OH","Physician's Choise Hospital","not_available","43420",41.63577949,-83.58484398
"43607","Toledo","OH","ProMedica Physicians West Toledo General Surgery","2109 Hughes Dr Ste 220","43606",41.663005837484704,-83.57816934585571
"43609","Toledo","OH","Northwest Ohio Psychiatric Hospital","930 S Detroit Ave","43614",41.621291,-83.599407
"43609","Toledo","OH","UTMC Emergency Department","not_available","43614",41.62046617792571,-83.61786326851607
"43609","Toledo","OH","UT Orthopaedic Center","3065 Arlington Ave","43614",41.61867350709558,-83.61794921613638
"43609","Toledo","OH","UTMC - Main Entrance","3001 Arlington Ave","43614",41.62022536850197,-83.61620068352862
"43609","Toledo","OH","UTMC ER","3000 Arlington Ave","43614",41.620111182440716,-83.61733987343698
"43609","Toledo","OH","The George Isaac Center - UTMC","Hospital Dr","43614",41.61957729979431,-83.61766125951893
"43611","Toledo","OH","NWO Urgent Care","1155 E Alexis Rd","43612",41.72346361529884,-83.51994446613762
"43611","Toledo","OH","TTH Family Physcians","2900 101st","not_available",41.70541398333334,-83.48873863333333
"43612","Toledo","OH","West Toledo Rehabilation Center","not_available","43612",41.702825,-83.567413
"43613","Toledo","OH","Mercy Health - St. Anne Hospital Emergency Department","3404 West Sylvania Avenue","43623",41.6935557,-83.6257808
"43613","Toledo","OH","St. Anne's Mercy Hospital","3404 W Sylvania Ave","43623",41.693274527118675,-83.6255644018121
"43613","Toledo","OH","Promedica Urgent Care Center","4235 Secor Rd","43623",41.695556640625,-83.62379455566406
"43613","Toledo","OH","LifeStar West","5333 Secor Rd","43623",41.712715,-83.62519
"43613","Toledo","OH","Senior Star at West Park Place","3501 Executive Pkwy","43606",41.6830375,-83.62664434
"43613","Toledo","OH","Heartland - Holly Glen","4293 Monroe St","43606",41.682983,-83.610457
"43613","Toledo","OH","Toledo Hospital North Campus Lab","2141 Giant St","43606",41.679246,-83.595519
"43613","Toledo","OH","ProMedica Urgent Care - Toledo","3430 Secor Rd","43606",41.683182,-83.622097
"43613","Toledo","OH","Lake Park","5100 Harroun Road","43623",41.68758803715112,-83.62232234366246
"43613","Toledo","OH","Encompass Health Rehabilitation Hospital of Toledo","4647 Monroe Street","43623",41.690591,-83.6250702
"43614","Toledo","OH","Acute Urgent Care","5542 Airport Hwy","43615",41.616396,-83.673025
"43615","Toledo","OH","Northwest Ohio Urgent Care","not_available","43615",41.64909744262695,-83.66426849365234
"43616","Oregon","OH","Bay Park ER","ProMedica Bay Park Hospital","43616",41.62104410903254,-83.47900106605415
"43616","Oregon","OH","St. Charles ER","2600 Navarre Ave","43616",41.634664031822425,-83.48495016788621
"43616","Oregon","OH","ProMedica Physicians West Toledo General Surgery - Oregon","2751 Bay Park Dr Ste 202","43616",41.621005,-83.479857
"43616","Oregon","OH","ProMedica Bay Park Hospital","2801 Bay Park Dr","43616",41.62080018556742,-83.48012924194336
"43616","Oregon","OH","Center For Health Promotion At St. Charles- Oregon","1001 Isaac Streets Dr","43616",41.632996999999996,-83.481778
"43701","Zanesville","OH","Reality","not_available","43701",39.933423,-82.016367
"43701","Zanesville","OH","Bethesda Hospital","945 Bethesda Dr","43701",39.974181,-82.016593
"43701","Zanesville","OH","Genesis Emergency Department","2951 Maple Ave","43701",39.974979400634766,-82.01603698730469
"43701","Zanesville","OH","Genesis FirstCare-North","2800 Maple Ave","43701",39.975166,-82.00976
"43701","Zanesville","OH","Medical Staff Services","800 Forest Ave","43701",39.95456518655452,-82.01313270100529
"43701","Zanesville","OH","Northside Oxygen & Medical Equipment - Zanesville","702 Wabash Ave","43701",39.969683,-82.011167
"43701","Zanesville","OH","Genesis Morrison House (Hospice)","Forest Ave.","43701",39.955693748761846,-82.01246157048227
"43701","Zanesville","OH","Genesis FirstCare-South","23 N Maysville Ave","43701",39.9042057,-82.0201278
"43701","Zanesville","OH","Tired Of Trying","Private","43701",39.933155,-82.028145
"43713","Barnesville","OH","Barnesville Hospital","not_available","43713",39.99275661666924,-81.1892854797028
"43723","Byesville","OH","Urgent Care","61353 Southgate Rd","43725",39.992308720047454,-81.57410514608088
"43723","Byesville","OH","Northside Oxygen & Medical Equipment - Cambridge","Cambridge HealthCenter, 61353 Southgate Rd, Ste 2","43725",39.992188101937394,-81.57374195427163
"43724","Caldwell","OH","Welch's Urgent Care","not_available","43724",39.74318313598633,-81.51861572265625
"43725","Cambridge","OH","SEOMRC","not_available","43725",40.0201416015625,-81.61650848388672
"43725","Cambridge","OH","EMERGENCY ROOM","1341","43725",40.027925066351855,-81.60294144947777
"43725","Cambridge","OH","United Ambulance Service","1331 Campbell Ave","43725",40.014949798583984,-81.58419799804688
"43754","Lewisville","OH","Woodsfield Nursing and Rehab","not_available","43793",39.765153566885985,-81.13484827347187
"43764","New Lexington","OH","Genesis FirstCare New Lexington","401 Lincoln Park Dr Ste B","43764",39.720751198769086,-82.20164691248058
"43812","Coshocton","OH","Warsaw Ems Station","Sr 36","43844",40.33292738562004,-82.00131415137218
"43812","Coshocton","OH","Coshocton County EMS Station","not_available","43812",40.27473502777762,-81.8629411254487
"43812","Coshocton","OH","Kidney Care Center Coshocton","23649 Air pit RD","not_available",40.29629135131836,-81.8492431640625
"43812","Coshocton","OH","Dr. Randall Labaki | Rapidcare","235 Kenwood Dr","43812",40.2626779701483,-81.86762390922735
"43812","Coshocton","OH","Coshocton Memorial Hospital","Orange street","43812",40.27088165283203,-81.84795379638672
"43812","Coshocton","OH","Coshocton Regional Medical Center","1460 Orange St","43812",40.27088165283203,-81.84795379638672
"43832","Newcomerstown","OH","The Looney Bin","not_available","43832",40.30956465058409,-81.56694521101412
"43906","Bellaire","OH","Bellaire Hospital","48th Street","43906",40.029771844187245,-80.74105668459923
"43906","Bellaire","OH","Shadyside Care Center","60707-60721 State Route 7 Scn","43947",39.96287524109862,-80.75868904993641
"43906","Bellaire","OH","Belmont Community Hospital","4697 Harrison St","43906",40.030414,-80.741978
"43907","Cadiz","OH","Harrison Community Hospital","951 E Market St","43907",40.25762406961986,-80.97748303463572
"43907","Cadiz","OH","Trinity ExpressClinic - Cadiz","82424 Cadiz Jewett Rd","43907",40.28489099999999,-81.00018399999999
"43912","Bridgeport","OH","East Ohio Regional Long Term Care","not_available","43912",40.13308261,-80.84245896
"43915","Clarington","OH","Wetzel County Hospital","3 E Benjamin Dr","26155",39.6810417175293,-80.84977722167969
"43920","East Liverpool","OH","East Liverpool City Hospital","425 West Fifth Avenue","43920",40.6213539,-80.58666629999999
"43920","East Liverpool","OH","east liverpool hospital 6th floor","not_available","43920",40.621639251708984,-80.58597564697266
"43920","East Liverpool","OH","Trinity ExpressClinic - Calcutta","15655 State Route 170 Ste B","43920",40.6755395079365,-80.57883826395744
"43920","East Liverpool","OH","EZ Care Clinic","St Clair Avenue","43920",40.6584166,-80.57399191666667
"43935","Martins Ferry","OH","East Ohio Regional Hospital","90 4th Street","43935",40.098468905111815,-80.72065939624574
"43942","Powhatan Point","OH","AEP Power Plant Gate 2","not_available","26055",39.84821574732475,-80.81409388885747
"43945","Salineville","OH","Hospital","not_available","43945",40.648319,-80.802744
"43946","Sardis","OH","Wetzel County Hospital: Emergency Room","not_available","26155",39.641987,-80.8595653
"43947","Shadyside","OH","Reynolds Memorial Hospital","800 Wheeling Ave","26038",39.9460563659668,-80.75243377685547
"43947","Shadyside","OH","Reynolds Rapid Care","215 Lafayette Ave","26041",39.9248524,-80.7502882
"43947","Shadyside","OH","MedExpress Urgent Care","1585 Wheeling Avenue","26038",39.93758371899613,-80.75475007295609
"43950","Saint Clairsville","OH","Primary Care One Doctor's Urgent Care","51342 National Rd E","43950",40.072533,-80.861779
"43950","Saint Clairsville","OH","Belmont Community Hospital","not_available","43950",40.07381020863961,-80.86163521317587
"43952","Steubenville","OH","Trinity West Medical Pavilion","not_available","43952",40.36707,-80.658105
"43952","Steubenville","OH","Trinity Medical Center West","380 Summit Ave","43952",40.35459958236864,-80.62556170205096
"43952","Steubenville","OH","Cardiac Holding","4000","43952",40.372756,-80.639095
"43952","Steubenville","OH","St. Johns","4000 Johnson Rd","43952",40.36770248413086,-80.65858459472656
"43952","Steubenville","OH","Life Line Hospital","200 School St","43953",40.37255300762416,-80.70071186185484
"43952","Steubenville","OH","Trinity Express Care - Wintersville","150 Main St","43953",40.37106066273951,-80.68778695733783
"43952","Steubenville","OH","Tony Teramana Medical Oncology (UPMC CancerCenter)","3204 Johnson Rd","43952",40.36827087402344,-80.65912628173828
"43952","Steubenville","OH","6th Floor","4000 Johnson Rod","43952",40.36757399102817,-80.65886244730208
"43964","Toronto","OH","Weirton General Hospital","Carol Way","26062",40.443491,-80.600804
"43964","Toronto","OH","Trinity ExpressClinic - Toronto","1800 Franklin St","43964",40.452356882339515,-80.61079097178589
"43973","Freeport","OH","Citizens Station 40","not_available","43973",40.21293640136719,-81.26156616210938
"44001","Amherst","OH","Cleveland Clinic - Family Health & Surgery Center Lorain","5700 Cooper Foster Park Road","44053",41.41234938,-82.23542904
"44001","Amherst","OH","UH Amherst Health Center Emergency Room","254 Cleveland Ave","44001",41.3992565,-82.2241614
"44001","Amherst","OH","Oberlin Hospitals","not_available","44074",41.291521,-82.216167
"44001","Amherst","OH","Griswold Home Care","260 South Main Street","44001",41.39774533,-82.22723105
"44001","Amherst","OH","specialty hospital amherst","not_available","44001",41.4130559832561,-82.20976663238766
"44001","Amherst","OH","Mercy Allen Medical Center","200 W Lorain St","44074",41.2949955028484,-82.22451905302206
"44001","Amherst","OH","Mercy Health - Allen Hospital Emergency Department","200 West Lorain Street","44074",41.295265197753906,-82.2247314453125
"44001","Amherst","OH","Lorain Community Hospital.","not_available","44053",41.406298,-82.280648
"44001","Amherst","OH","Cleveland Eye Clinic (David J Sterna OD & Associates)","1710 Cooper Foster Park Rd. W STE B","44053",41.418527000000005,-82.195677
"44003","Andover","OH","UH Andover Health Center Emergency Department","476 S Main St","44003",41.6010239,-80.5727951
"44004","Ashtabula","OH","Ashtabula County Medical Center","2420 Lake Ave","44004",41.88083208127266,-80.79487258648832
"44004","Ashtabula","OH","ACMC","not_available","44004",41.8804412504718,-80.79527285175479
"44004","Ashtabula","OH","Cleveland Clinic Ashtabula County Medical Center","2420 Lake Avenue","44004",41.88089772,-80.79468293
"44004","Ashtabula","OH","North Kingsville Family Health Center","6441 South Main St.","44068",41.90254854098761,-80.68915128707886
"44004","Ashtabula","OH","UH Ashtabula Health Center Urgent Care Center","3315 N Ridge Rd E Ste 700A","44004",41.8830228,-80.7533589
"44004","Ashtabula","OH","Patient Financials Office","430 West 25th Street","44004",41.879783630371094,-80.79659271240234
"44011","Avon","OH","Cleveland Clinic - Avon Hospital","33300 Cleveland Clinic Blvd","44011",41.468833923339844,-81.98155975341797
"44011","Avon","OH","matt xray center","not_available","44011",41.46269607543945,-82.02439880371094
"44011","Avon","OH","Cleveland Eye Clinic Avon Pointe","36991 American Way","44011",41.465693,-82.031314
"44011","Avon","OH","Avon Emergency Care Center","1997 Healthway Dr","44011",41.462920281478254,-82.02462901650689
"44011","Avon","OH","Avon Women's Health Association","36901 American Way","44011",41.465231,-82.029551
"44011","Avon","OH","CCF Jacobs ER","CCF Richard E Jacobs Health Center","44011",41.469036185261274,-81.98184728622437
"44011","Avon","OH","UH Avon Health Center Pediatric Emergency Room","1997 Healthway Drive","44011",41.462864717165,-82.02529032084942
"44011","Avon","OH","Avon Urgent Care","2100 Center Rd","44011",41.45794915,-82.02133663
"44011","Avon","OH","Walk In Urgent Care","36000 Detroit Rd # 200","44011",41.45981912375557,-82.01939043989849
"44011","Avon","OH","Cleveland Eye Clinic","36505 Detroit Ave","44011",41.45572,-82.02867
"44017","Berea","OH","Donald Martens&  Sons","6900 Lake Abrams Dr","44130",41.381242,-81.833896
"44017","Berea","OH","Sanford Surgical Tower","not_available","44138",41.36138916015625,-81.88743591308594
"44021","Burton","OH","Briar Hill Nursing Home","not_available","44062",41.46508902,-81.07304045
"44021","Burton","OH","UH Geauga Medical Center Pediatric Emergency Room","13207 Ravenna Rd","44024",41.50880898283509,-81.189626390213
"44022","Chagrin Falls","OH","Warby Parker","255 Park Avenue, Bldg #16, Suite 2020","44122",41.453018,-81.486636
"44022","Chagrin Falls","OH","Visiting Angels","547 Washington St","44022",41.427005767822266,-81.37080383300781
"44022","Chagrin Falls","OH","UH Minoff Health Center at Chagrin Highlands Pediatric Urgent Care","3909 Orange Pl #2100","44122",41.45337158677762,-81.48906003804336
"44022","Chagrin Falls","OH","Steven Suess, MD","3909 Orange Pl Ste 2100","44122",41.45319300000001,-81.48918019999999
"44022","Chagrin Falls","OH","Ortho Express Care - Solon Family Health Center","29800 Bainbridge Road","44139",41.40237359,-81.46749063
"44022","Chagrin Falls","OH","Urgent Care","not_available","44124",41.45361313102896,-81.48867694999223
"44022","Chagrin Falls","OH","MetroHealth Beachwood Health Center - MetroExpressCare","3609 Park East Drive, North Building - Floor 1","44122",41.4620174,-81.49239299999999
"44022","Chagrin Falls","OH","Abandoned House","135-167 E Summit St","44022",41.4432392276488,-81.37472779682825
"44022","Chagrin Falls","OH","Chagrin Highlands Women's Care","3909 Orange Pl","44122",41.453482,-81.48912519999999
"44022","Chagrin Falls","OH","MRI Waiting Room South Pointe Hospital","not_available","44139",41.410377,-81.472044
"44022","Chagrin Falls","OH","Highland Urgent Care","3795-4099 Orange Pl","44122",41.453812281295534,-81.48867158893552
"44022","Chagrin Falls","OH","Cleveland Clinic","29800 Bainbridge Rd","44139",41.40235347,-81.46748526
"44023","Chagrin Falls","OH","Cleveland Clinic - Bainbridge Urgent Care","17747 Chillicothe Road","44023",41.38656022,-81.3385844
"44023","Chagrin Falls","OH","Geauga Hospital","not_available","44024",41.35253106903139,-81.38807961444543
"44024","Chardon","OH","lake health urgent care","510 5th Ave","44024",41.586771006213034,-81.22033920425513
"44030","Conneaut","OH","UH Conneaut Medical Center Pediatric Emergency Room","158 W Main Rd","44030",41.93764749260825,-80.58664472267827
"44030","Conneaut","OH","Conneaut Family Health Center","354 W Main Rd","44030",41.933589935302734,-80.6041488647461
"44030","Conneaut","OH","University Hospitals Conneaut Medical Center","not_available","44030",41.93777914293682,-80.58611393390565
"44035","Elyria","OH","Sophia's","1301 Bank St","44035",41.354095,-82.11279300000001
"44035","Elyria","OH","EMH Radiology","not_available","44035",41.36653,-82.097095
"44035","Elyria","OH","University Hospitals Elyria Medical Center","E. River St.","not_available",41.3851203918457,-82.09365844726562
"44035","Elyria","OH","Emh Wound Care Center","133 E Broad St","44035",41.36722946166992,-82.09567260742188
"44035","Elyria","OH","Metrohealth","2500 Metrohealth Dr","44109",41.36546915618253,-82.11028656900722
"44035","Elyria","OH","EMS Training","not_available","44050",41.3137321472168,-82.11825561523438
"44035","Elyria","OH","UH Elyria Medical Center Urgent Care","630 E River St","44035",41.36613311595491,-82.09744505026242
"44035","Elyria","OH","Urgent Care","160 Cleveland St","44035",41.373672,-82.091985
"44035","Elyria","OH","Lorain Country Health & Dentistry","412 East River","not_available",41.369836871756625,-82.0959217408822
"44035","Elyria","OH","Lifecare Station 1","205 West Ave","44035",41.36639623899892,-82.11057303548448
"44035","Elyria","OH","Mediclinic Urgent Care","Abbe Rd","not_available",41.417786,-82.077746
"44035","Elyria","OH","Mercy Occupational Health Center","491 Abbe Rd N","44035",41.387209000000006,-82.07690500000001
"44035","Elyria","OH","Midway Pointe Chiropractic Inc","170 Midway Blvd","44035",41.398433000000004,-82.10270799999999
"44039","North Ridgeville","OH","UH North Ridgeville Health Center Emergency Room","32800 Lorain Rd Ste 1600","44039",41.382759598589615,-81.9824934073576
"44039","North Ridgeville","OH","Walk In Urgent Care","525 Chestnut Commons Dr","44035",41.346581360712804,-82.06672224785042
"44039","North Ridgeville","OH","Cleveland Clinic","303 Chestnut Commons Dr","44035",41.34549425,-82.06588662
"44040","Gates Mills","OH","Cleveland Clinic - Hillcrest Hospital Emergency Department","6780 Mayfield Rd","44124",41.51824935894404,-81.43639097299537
"44040","Gates Mills","OH","ManorCare Health Services-Mayfield Heights","6757 Mayfield Rd","44124",41.52225463,-81.43448367
"44041","Geneva","OH","UH Geneva Medical Center Pediatric Emergency Services","870 W Main St","44041",41.799731102111856,-80.96247154171618
"44047","Jefferson","OH","Jefferson Family Health Center","234 N Chestnut St","44047",41.74372100830078,-80.76836395263672
"44052","Lorain","OH","The Animal House","2400-2498 Leavitt Rd","44052",41.44744634628296,-82.20269026666666
"44052","Lorain","OH","VA Hospital","205 W 20th St","44052",41.451699273369385,-82.1679825298603
"44052","Lorain","OH","Animal Emergency","5152 Grove Ave","44055",41.42228722572327,-82.11982011795044
"44053","Lorain","OH","Mercy Regional Medical Center","3700 Kolbe Rd","44053",41.436685905008176,-82.23784248087843
"44053","Lorain","OH","Mercy Health - Lorain Hospital Emergency Department","3700 Kolbe Road","44053",41.43649673461914,-82.23735046386719
"44053","Lorain","OH","Walk In Urgent Care","4340 Leavitt Rd Ste D","44053",41.427922,-82.20621
"44054","Sheffield Lake","OH","Evergreen Pain Management & Rehabilitation","5445 Detroit Rd","44054",41.42900466918945,-82.0715560913086
"44056","Macedonia","OH","University Hospital Urgent Care","not_available","44056",41.30778121948242,-81.51007843017578
"44056","Macedonia","OH","Cleveland Clinic Express Care Clinic","8210 Macedonia Commons Boulevard","44056",41.31209256,-81.51824516
"44057","Madison","OH","Madison Emergency Room","6270 N Ridge Rd","44057",41.8021837,-81.0642969
"44057","Madison","OH","Cleveland Clinic Express Care Clinic","2999 McMackin Road","44057",41.79527698,-81.09400279
"44060","Mentor","OH","BioLife Plasma Services","5656 Emerald Court","44060",41.71737862413689,-81.29619813353803
"44060","Mentor","OH","Lake Health Tyler Urgent Care Center","7956 Tyler Blvd","44060",41.679384437554035,-81.35786867418746
"44060","Mentor","OH","UH Mentor Health Center Urgent Care Center","9000 Mentor Ave #101","44060",41.67470441173771,-81.31800890335778
"44060","Mentor","OH","the Endoscopy Center of Lake County","9614 Old Johnnycake Ridge Rd","44060",41.681432,-81.29541
"44060","Mentor","OH","Animal Emergency Clinic","8250 Tyler Blvd","44060",41.682337,-81.34474399999999
"44060","Mentor","OH","Urgentcare","not_available","44060",41.68847222222222,-81.3229861111111
"44067","Northfield","OH","Northcoast Behavioral Healthcare","1756 Sagamore Rd","44067",41.35068297921035,-81.57551348955718
"44070","North Olmsted","OH","UH North Olmsted Health Center Urgent Care","26127 Lorain Rd Ste 100","44070",41.4193056,-81.9118078
"44070","North Olmsted","OH","St. Johns Medical Center-PAT","not_available","44145",41.435707813114796,-81.94472536362761
"44070","North Olmsted","OH","North Olmsted Urgent Care","25757 Lorain Rd, North Olmsted, OH 44070","44070",41.421407998507256,-81.90672193882962
"44070","North Olmsted","OH","St. Johns Medical Center Emergency Room","29133 Health Campus Dr","44145",41.435568786651395,-81.94498395499636
"44070","North Olmsted","OH","Donald Martens Westlake Base","29124","44145",41.43424987792969,-81.94241333007812
"44070","North Olmsted","OH","UH St. John Medical Center Pediatric Emergency Room","29000 Center Ridge Rd","44145",41.435745824067986,-81.94379759141901
"44070","North Olmsted","OH","Cleveland Clinic Express Care Clinic","24700 Lorain Rd","44070",41.42642609,-81.89650344
"44070","North Olmsted","OH","Home Care Assistance of Cleveland West","23420 Lorain Rd #200","44070",41.43440246582031,-81.88104248046875
"44077","Painesville","OH","Room 404","not_available","44077",41.662619,-81.246549
"44077","Painesville","OH","Lake County Free Medical Clinic","54 S State St","44077",41.7249902503389,-81.24108675847371
"44077","Painesville","OH","Painesville urgent center","Painesville square","44077",41.724438241333296,-81.24282936392845
"44077","Painesville","OH","UH Urgent Care","7500 Auburn Rd","44077",41.666908264160156,-81.24678802490234
"44077","Painesville","OH","TriPoint Radiology Dept","Auburn Road","44024",41.662958545170106,-81.24641664082411
"44084","Rock Creek","OH","The House @ Glenbeigh","3070 Riverdale Rd","44084",41.672515869140625,-80.86109924316406
"44087","Twinsburg","OH","UH Twinsburg Health Center Emergency Room","8819 Commons Blvd","44087",41.30882610310948,-81.44614577972135
"44087","Twinsburg","OH","Cleveland Clinic - Emergency Department Twinsburg","8701 Darrow Rd","44087",41.30178892721844,-81.43770592395175
"44089","Vermilion","OH","Medic 55 - South Bay","1011 Douglas St","44089",41.416281,-82.36178699999999
"44089","Vermilion","OH","Vermilion Health Partners","1605 State Rd","44089",41.40613555908203,-82.36625671386719
"44092","Wickliffe","OH","Lubrizol Medical Dept.","not_available","44092",41.61245216764187,-81.4782382513684
"44092","Wickliffe","OH","Snoring and CPAP Solutions LLC","34500 Chardon Road Unit 1","44094",41.5867471,-81.4412462
"44094","Willoughby","OH","Lake Health West ER","36000 Euclid Ave","44094",41.625860869889614,-81.43304586410522
"44094","Willoughby","OH","US Ultrasound Services Inc","1910 Joseph Lloyd Pkwy","44094",41.6804,-81.40906
"44094","Willoughby","OH","Heartland of Willoughby","37603 Euclid Ave","44094",41.631429,-81.415724
"44094","Willoughby","OH","Windsor-Laurelwood Center for Behavioral Health","35900 Euclid Ave","44094",41.625031,-81.434113
"44094","Willoughby","OH","Kirtland Vet","7930 Euclid Chardon Rd","44094",41.583268,-81.35892199999999
"44094","Willoughby","OH","Buckeye Foot Care","5105 SOM Center Road, Suite 102","44094",41.6224225,-81.4384567
"44094","Willoughby","OH","Windsor-Laurelwood Center","35900 Euclid Avenue","44094",41.62465092,-81.43356929
"44095","Eastlake","OH","Lake Health Willowick Campus","29804 Lake Shore Blvd","44095",41.63387,-81.47861
"44102","Cleveland","OH","Saint Agustines Towers","not_available","44125",41.482171550394874,-81.73908567985343
"44102","Cleveland","OH","Readings by Sharon","2605 Detroit Ave","44113",41.48961343414486,-81.70963525772095
"44102","Cleveland","OH","Saint Augustine Health Campus","7801 Detroit Ave","44102",41.481048,-81.739047
"44102","Cleveland","OH","MetroHealth - C eleveator 5th floor - Peds","not_available","44109",41.461326,-81.711814
"44102","Cleveland","OH","Premier Physicians Center","3665 W 117th St","44111",41.453067,-81.768619
"44103","Cleveland","OH","University Hospitals Case Medical Center Transfer Center","11100 Euclid Ave","44106",41.53929693142607,-81.62993126567436
"44103","Cleveland","OH","CCF ED","not_available","44106",41.502856333333334,-81.62602666666668
"44103","Cleveland","OH","Cleveland Clinic InterContinental Suites","8800 Euclid Avenue","44106",41.50307294,-81.62518188
"44103","Cleveland","OH","roseville sanitarium","not_available","44103",41.51123046875,-81.65650939941406
"44103","Cleveland","OH","Bob-O's Sanitarium","Carry Ave.","not_available",41.52415,-81.650669
"44103","Cleveland","OH","Concentra Urgent Care","5500 S Marginal Rd","44103",41.5291954,-81.6512711
"44103","Cleveland","OH","MedMal Consulting, Inc","PO Box 391153","44139",41.49662106775048,-81.66000366210938
"44104","Cleveland","OH","G110","not_available","44104",41.48081588745117,-81.60336303710938
"44105","Cleveland","OH","Day Surgery Center","mc cracken","44125",41.431316,-81.598971
"44105","Cleveland","OH","Twinsburg Family Health CTR","8721 Darrow Rd","44087",41.456193,-81.598413
"44105","Cleveland","OH","MetroHealth Express Care","not_available","44127",41.46328023287704,-81.64618038353132
"44106","Cleveland","OH","CCF E Building (Emergency)","9105 Cedar Ave","44195",41.500192137865575,-81.62237849455751
"44106","Cleveland","OH","LL3 Breakroom","10300 Euclid Ave","44195",41.50073176180537,-81.61524141062237
"44106","Cleveland","OH","Emergency Room","Ridge Rd","44129",41.50594900184126,-81.60695601986406
"44106","Cleveland","OH","RB&C - 7th Floor - CF Unit","Adelbert Rd","44106",41.50429153442383,-81.6058349609375
"44107","Lakewood","OH","Lakewood Urgent Care","11716 Detroit Ave","44107",41.48405075073242,-81.7694091796875
"44107","Lakewood","OH","Cleveland Clinic Lakewood Medical Building","1450 Belle Avenue","44107",41.48392321,-81.79737257
"44107","Lakewood","OH","Childerns Behavor Center","1596 Westwood Ave","44107",41.47965621948242,-81.80754089355469
"44107","Lakewood","OH","Emergency Room ; ((","Belle ave.","44107",41.47957094636008,-81.76924663327212
"44107","Lakewood","OH","Rocky River Urgent Care","19895 Detroit Rd","44116",41.47916264024385,-81.84168310533016
"44107","Lakewood","OH","Grace Hospital LakeWood","not_available","44107",41.4847412109375,-81.79837799072266
"44107","Lakewood","OH","UH Bedford Medical Center","44","not_available",41.47193703661288,-81.82065092896984
"44107","Lakewood","OH","UrgentCare","not_available","44116",41.479058,-81.841629
"44107","Lakewood","OH","Cleveland Clinic - Rocky River Urgent Care","19895 Detroit Road","44116",41.4790295,-81.8417309
"44107","Lakewood","OH","Cleveland Clinic - Fairview Hospital Wellness Center","3035 Wooster Rd","44116",41.46496729,-81.83750795
"44107","Lakewood","OH","Cleveland Clinic - Lakewood Emergency Department","14601 Detroit Avenue","44107",41.48481803,-81.79736171
"44108","Cleveland","OH","Rainbow Babies and Children Hospital","14200 adelbert","44106",41.53344433190277,-81.61485071195497
"44109","Cleveland","OH","Wade park hospital","West Dr, Cleveland, OH","44134",41.419761657714844,-81.70611572265625
"44109","Cleveland","OH","Concentra Urgent Care","4660 Hinckley Industrial Pkwy","44109",41.4261099,-81.6811465
"44110","Cleveland","OH","IMRIS","1500 Euclid Ave","44106",41.55990982055664,-81.55014038085938
"44111","Cleveland","OH","CCF Fairview Hospital","18101 Lorain Ave","44111",41.449867747331496,-81.82355403900146
"44111","Cleveland","OH","fairview post pardum","not_available","44111",41.449859580830186,-81.81575124146818
"44111","Cleveland","OH","Larchwood village","not_available","44135",41.443121,-81.82310985
"44111","Cleveland","OH","Outpatient Lab","18099 Lorain Ave","44111",41.45018768310547,-81.82401275634766
"44111","Cleveland","OH","Anchor Medical Staffing","19220 Lorain Rd","44126",41.453178,-81.832169
"44111","Cleveland","OH","The Hospital","floor 5 room 502","44111",41.446276,-81.816393
"44112","Cleveland","OH","McGregor","14900 Private Dr","44112",41.531654357910156,-81.57304382324219
"44112","Cleveland","OH","MetroHealth Cleveland Heights Medical Center - Inpatient Hospital","10 Severance Cir","44118",41.51383354826578,-81.55054485425052
"44112","Cleveland","OH","Cleveland Clinic","13944 Euclid Ave","44112",41.5268685,-81.58508383
"44113","Cleveland","OH","St. Vincent Charity Medical Center","2351 E 22nd St","44115",41.4961909613415,-81.67365723121769
"44113","Cleveland","OH","Cleveland Clinic - Lutheran Hospital","1730 W 25th St","44113",41.487234523789844,-81.70714616775511
"44113","Cleveland","OH","Drug & Alcohol Rehab Cleveland","55 Public Sq","44113",41.498822851137255,-81.69455051422119
"44113","Cleveland","OH","Othpatient Rehabilitation Center","not_available","44113",41.487366905609996,-81.70749053439809
"44113","Cleveland","OH","Cleveland Clinic Express Care Clinic","315 Euclid Avenue","44114",41.49992005,-81.69079172
"44113","Cleveland","OH","St Vincent Charity Hospital Emergency Department","not_available","44115",41.495580207294836,-81.67271585106494
"44113","Cleveland","OH","Kindred Hospital Cleveland - Gateway","2351 E 22nd St Fl 7","44115",41.49589920043945,-81.673095703125
"44114","Cleveland","OH","William F. Wiley, MD","2740 Carnegie Ave","44115",41.49952,-81.668942
"44116","Rocky River","OH","Walk In Urgent Care","3530 Westgate # D-432","44126",41.460233379552584,-81.8522798426403
"44117","Euclid","OH","University Hospital","18599 lakeside ave","44123",41.59105,-81.53227
"44118","Cleveland","OH","Cleveland  Clinic   Heart Center","not_available","44112",41.517975,-81.529124
"44119","Cleveland","OH","University Hospital","18599 Lake Shore Blvd","44119",41.596512508182826,-81.54899684853463
"44119","Cleveland","OH","Rehab 2","not_available","44119",41.599036,-81.549305
"44120","Cleveland","OH","Kindred Hospital Cleveland","11900 Fairhill Rd","44120",41.48996857184186,-81.59834608509261
"44120","Cleveland","OH","Select Care Hospital","4100 Fairhill rd","44120",41.48999,-81.59876
"44120","Cleveland","OH","รพ สต.นาข่า","not_available","44120",41.476916,-81.576095
"44122","Beachwood","OH","Conference Room","23625 Commerce Park","44122",41.4626350402832,-81.50984954833984
"44122","Beachwood","OH","Cleveland East Vascular Care","23650 Commerce Park","44122",41.4615208,-81.5093955
"44122","Beachwood","OH","UH Ahuja Medical Center ER","3999 Richmond Rd","44122",41.452049387763154,-81.49499795566425
"44122","Beachwood","OH","Beachwood Family Eye Care","3783 South Green Road","44122",41.457397,-81.516094
"44122","Beachwood","OH","Shaker Clinic","20600 Chagrin Blvd Ste 620","44122",41.464017999999996,-81.533084
"44122","Beachwood","OH","Highland Springs Hospital","4199 Mill Pond Drive","44122",41.450571417437395,-81.52283415292129
"44122","Beachwood","OH","Ireland Cancer Center - Chagrin Highlands","5915 Landerbrook Dr","44124",41.50575637817383,-81.4670639038086
"44122","Beachwood","OH","Connections to Healing","3214 Somerset Dr","44122",41.471955,-81.532593
"44122","Beachwood","OH","CCF South Pointe ER","CCF South Pointe Hospital","44122",41.44776482429202,-81.53771907091141
"44122","Beachwood","OH","Willow Park Nursing & Rehabilation Center","18810 Harvard Ave","44122",41.448318,-81.547306
"44124","Cleveland","OH","Cleveland Clinic Lyndhurst Urgent Care","5195 Mayfield Rd","44124",41.520361,-81.492551
"44124","Cleveland","OH","Family Urgent Care","5187 Mayfield Rd #101","44124",41.520178954381315,-81.49251282656093
"44124","Cleveland","OH","Cleveland Eye Clinic - Beachwood","25101 Chagrin Blvd #150","44122",41.4651691,-81.5020716
"44125","Cleveland","OH","Crossroads Hospice & Palliative Care","9775 Rockside Rd. Suite 270","44125",41.3941607,-81.61622969999999
"44125","Cleveland","OH","Ortho Express Care - Sports Health Center","5555 Transportation Blvd","44125",41.410825,-81.61458499999999
"44125","Cleveland","OH","Donald Martens Ambulance","5520 Cloverleaf Pkwy","44125",41.410862,-81.633802
"44125","Cleveland","OH","Ccf Sleep Disorders Center At Independence","not_available","44131",41.403107,-81.65334
"44125","Cleveland","OH","Independence Urgent Care","Rockside Re","44131",41.398241999999996,-81.66038
"44125","Cleveland","OH","Cleveland Clinic - Marymount Hospital Emergency Department","12300 McCracken Rd","44125",41.42064522203016,-81.59919850782374
"44125","Cleveland","OH","Cleveland Clinic","5001 Rockside Rd","44131",41.398405,-81.6549616
"44126","Cleveland","OH","Hospice Of The Western Reserve","22730 Fairview Center Dr","44126",41.422049,-81.874137
"44128","Cleveland","OH","Gebauer Company","4444 E 153rd St","44128",41.43806457519531,-81.57560729980469
"44128","Cleveland","OH","The Avenue","not_available","44128",41.433201,-81.50472467
"44129","Cleveland","OH","UH Parma ER","7007 Powers Blvd","44129",41.382034166157275,-81.73224734350099
"44129","Cleveland","OH","Hometown Urgent Care","7715 W Ridgewood Dr","44129",41.38343048095703,-81.73853302001953
"44129","Cleveland","OH","Seasons of Life","9511 W Pleasant Valley Rd","44130",41.360314,-81.752565
"44129","Cleveland","OH","Southwest general urgicare.","not_available","44129",41.38320541381836,-81.72615814208984
"44129","Cleveland","OH","Parma Hospital Cardiovascular Services Department","7007 Powers Blvd, Parma, OH 44129","44129",41.38187026977539,-81.73108673095703
"44130","Cleveland","OH","Metrohealth Pharmacy","not_available","44130",41.404032,-81.77354
"44130","Cleveland","OH","Southwest General Emergency Trauma Center","18697 Bagley Rd","44130",41.37128148143646,-81.83157530451034
"44130","Cleveland","OH","Brook Park Urgent care","not_available","44142",41.39347493648529,-81.8155986070633
"44130","Cleveland","OH","Healthspan Hospital","Snow Road","not_available",41.40447196756566,-81.77336970035923
"44130","Cleveland","OH","MetroHealth Parma Medical Center - Inpatient Hospital","12301 Snow Rd","44130",41.40415142537794,-81.77436670663553
"44130","Cleveland","OH","Fever Clinic: UH Brook Park Urgent Care Partnering with Southwest General","15900 Snow Rd Ste 200","44142",41.40423835920758,-81.80924204753512
"44130","Cleveland","OH","Drug Mart Express Clinic","York Rd","not_available",41.389905976391084,-81.76044962861066
"44130","Cleveland","OH","Regency Hospital","6990 Engle Rd","44130",41.377328999999996,-81.82775500000001
"44134","Cleveland","OH","Holy Name Hospice Home","6707 State Rd","44134",41.381510999999996,-81.710796
"44135","Cleveland","OH","Metro Health MSN Imaging","4330 W 150th St, Cleveland, OH 44135","44135",41.437520204488116,-81.80136519017262
"44135","Cleveland","OH","Southwest General Brook Park Urgicare","15900 Snow Rd","44142",41.404039177523885,-81.80971862201739
"44136","Strongsville","OH","UH Strongsville Urgent Care Partnering with Southwest General","18181 Pearl Rd Ste B104","44136",41.28700260207671,-81.83306203408483
"44136","Strongsville","OH","UH Strongsville Urgent Care","18181 Pearl Rd #B104","44136",41.28685624119667,-81.83348275774459
"44136","Strongsville","OH","Cleveland Clinic","16761 Southpark Ctr","44136",41.31175695,-81.8176025
"44137","Maple Heights","OH","UH Bedford Medical Center Emergency Room","44 Blaine Ave","44146",41.39511828764731,-81.53464030124076
"44137","Maple Heights","OH","Grace Hospital Bedford","not_available","44146",41.39488983154297,-81.53424835205078
"44137","Maple Heights","OH","Broadway Care Nursing Home","not_available","44137",41.3997332182649,-81.56947295508931
"44137","Maple Heights","OH","Cleveland Eye Clinic - Bedford","320 Broadway Avenue Ste C","44146",41.399518,-81.545923
"44138","Olmsted Falls","OH","Cleveland Clinic Olmsted Township Express and Outpatient Clinic","27089 Bagley Road","44138",41.37197589,-81.94193527
"44138","Olmsted Falls","OH","MetroHealth Olmsted Falls Discount Drug Mart","8191 Columbia Rd","44138",41.373326,-81.900839
"44139","Solon","OH","St Vincent Charity Medical Center - Solon Medical Campus ER","33001 Solon Rd","44139",41.38997268676758,-81.44586181640625
"44141","Brecksville","OH","UH Broadview Heights Health Center Urgent Care","5901 E Royalton Rd # 1400B","44147",41.3186783936735,-81.64620712738497
"44141","Brecksville","OH","Kathleen Jee, M.D.","7001 S Edgerton Rd Ste 2","44141",41.292928,-81.6403948
"44141","Brecksville","OH","UH Broadview Heights Health Center Emergency Room","5901 E Royalton Rd","44147",41.31870136767554,-81.64616751352946
"44141","Brecksville","OH","The golden link group","not_available","44141",41.320707672292464,-81.62868669531709
"44143","Cleveland","OH","UH Richmond Medical Center","27100 Chardon Rd","44143",41.581221,-81.4892227
"44144","Cleveland","OH","Cleveland Clinic Ridge Park Obstetrics and Gynecology","7575 Northcliff Ave","44144",41.424643,-81.739935
"44144","Cleveland","OH","Cleveland Clinic Express Care Clinic","7580 Northcliff Avenue","44144",41.42563247680664,-81.73973846435547
"44144","Cleveland","OH","Ridge Park Urgent Care","7580 Northcliff Ave #700","44144",41.425629404110616,-81.73951223656245
"44144","Cleveland","OH","Ridge Park Urgent Care","not_available","44144",41.42558101146965,-81.73957190005756
"44145","Westlake","OH","University Hospital Radiology Department","960 Clague Rd","44145",41.47347490040549,-81.88433833555838
"44145","Westlake","OH","Psychological Counseling Solutions","1991 Crocker Rd Ste 600","44145",41.462742,-81.949803
"44145","Westlake","OH","UH Westlake Urgent Care","960 Clague Rd Ste 1100B","44145",41.47372147500573,-81.88442406099546
"44145","Westlake","OH","Cleveland Clinic Gemini Towers","2001 Crocker Rd","44145",41.46202453,-81.94964743
"44145","Westlake","OH","MetroHealth Westlake Health Center – Walk-in Primary Care","38 Main St Ste 300","44145",41.4600752,-81.9527396
"44146","Bedford","OH","Bedford Communtiy Emergency Room","22750 Rockside Rd","44146",41.409095764160156,-81.52386474609375
"44147","Broadview Heights","OH","Parma Community General Hospital","E Royalton Rd","not_available",41.30749199195249,-81.68469431683097
"44147","Broadview Heights","OH","UrgiCare MaryMount","Royalton Road","not_available",41.314388288967095,-81.67095118347903
"44147","Broadview Heights","OH","Walk In Urgent Care","1055 W Royalton Rd","44147",41.31356681490608,-81.6861222478504
"44202","Aurora","OH","University Hospital","not_available","44202",41.31917959560398,-81.34641120661833
"44203","Barberton","OH","Summa Health System - Barberton Campus","155 5th St NE","44203",41.0157151678219,-81.58821028140905
"44203","Barberton","OH","ManorCare Health Services-Barberton","85 3rd St SE","44203",41.0071181,-81.59338557
"44203","Barberton","OH","Summa Health Therapy at Anna Dean Professional Park","28 Conservatory Dr Ste A","44203",41.009374112768896,-81.59262657165527
"44203","Barberton","OH","Summa Health Equity Center","1493 S Hawkins Ave","44320",41.06847381591797,-81.56893920898438
"44203","Barberton","OH","Parkview Oncology","not_available","44203",41.01380160745638,-81.58852468745935
"44212","Brunswick","OH","Immediate Care Center","3724 Center Rd","44212",41.23771861719162,-81.82056049906438
"44212","Brunswick","OH","Cleveland Clinic - Emergency Department Brunswick","3574 Center Rd","44212",41.23755807,-81.81466178
"44212","Brunswick","OH","The Healing Spot","not_available","44212",41.262996673583984,-81.86278533935547
"44214","Burbank","OH","Burbank Parke","14976 Burbank Rd","44214",40.98178482055664,-81.99720001220703
"44214","Burbank","OH","Lodi Community Hospital","not_available","44214",40.99400795655713,-82.02344759572831
"44216","Clinton","OH","Cleveland Clinic Akron General Lifeline Sleep Centers Green","4880 South Main Street","44319",40.957777,-81.531049
"44216","Clinton","OH","Cleveland Clinic Express Care Clinic","3593 S Arlington Rd","44312",40.97307697,-81.49260886
"44216","Clinton","OH","Summa Health Green Urgent Care","3593 S. Arlington Road","44685",40.97305679321289,-81.49275207519531
"44221","Cuyahoga Falls","OH","Akron General Express Care Clinic","739 Graham Rd","not_available",41.162589,-81.486482
"44221","Cuyahoga Falls","OH","Edwin Shaw Rehab Center","3489 broad blvd","44221",41.13389196,-81.48951334
"44224","Stow","OH","Akron General ER","4300 Allen Rd","44224",41.185144278677676,-81.47632655668498
"44224","Stow","OH","Cleveland Clinic Akron General Stow Emergency Department","4300 Allen Road","44224",41.184544,-81.476424
"44224","Stow","OH","Akron General Medical Center Stow","Allen Road","44221",41.185037309181396,-81.47593602961743
"44224","Stow","OH","The Center For Applied Health Sciences","not_available","44224",41.18214416503906,-81.47342681884766
"44224","Stow","OH","Western Reserve Hospital Stow Urgent Care","3913 Darrow Rd Ste 100","44224",41.17155591834478,-81.43996797462175
"44236","Hudson","OH","Akron Children's Hospital Urgent Care, Boston Heights","328 E Hines Hill Rd","44236",41.26130871884764,-81.50112613809219
"44236","Hudson","OH","Akron General Hudson Branch","5655 Hudson Dr","44236",41.21567153930664,-81.44327545166016
"44236","Hudson","OH","Renew Psychological Services","not_available","44236",41.240881,-81.443687
"44236","Hudson","OH","Cleveland Clinic Express Care Clinic","82 W Streetsboro St","44236",41.2396346,-81.44523185
"44240","Kent","OH","UH Kent Health Center Emergency Room","411 Devon Pl","44240",41.133962515492904,-81.35219493279442
"44240","Kent","OH","Cleveland Clinic Express Care Clinic","4494 OH-43","44240",41.11207192,-81.3469028
"44241","Streetsboro","OH","Fever Clinic: UH Streetsboro Health Center Urgent Care","9318 State Route 14","44241",41.2405386,-81.3479141
"44241","Streetsboro","OH","Robinson Memorial Hispital, Summa Health System","W State St, Streetsboro Plaza, Streetsboro, OH 44241","44241",41.24069701081206,-81.34767877696613
"44250","Lakemore","OH","Edwin Shaw Rehab","1621 Flickinger Rd","44312",41.016422271728516,-81.43319702148438
"44254","Lodi","OH","Cleveland Clinic Akron General Lodi Hospital","225 Elyria Street","44254",41.0358511,-82.01409326
"44254","Lodi","OH","Medflight 5","225 Elyria St","44254",41.03609848022461,-82.0145263671875
"44256","Medina","OH","Trillium Creek Dermatology & Surgery","5779 Wooster Pike","44256",41.12862,-81.85578
"44256","Medina","OH","pain center","not_available","44281",41.13558578491211,-81.72782897949219
"44256","Medina","OH","The Children's Center of Medina County","200 Highland Dr","44256",41.1489885,-81.8665495
"44256","Medina","OH","CCF Medina ER","1000 E Washington St","44256",41.13862555860354,-81.83793429843018
"44256","Medina","OH","J. Sutter's Office","not_available","44256",41.13917687618828,-81.83976084634511
"44256","Medina","OH","UH Medina Health Center Pediatric Urgent Care","4001 Carrick Dr #120","44256",41.1374268627373,-81.82973702637196
"44256","Medina","OH","Summa Health Medina Emergency Department","3780 Medina Rd","44256",41.13485985358024,-81.82398356105129
"44256","Medina","OH","CustomPAK","885 W Smith Rd","44256",41.13683319091797,-81.88910675048828
"44256","Medina","OH","Dr. Khandelwal","Washington, Brunswick, OH 44212","44212",41.13726993496478,-81.83958476545193
"44256","Medina","OH","Akron Children's Hospital Specialty Care, Medina","3443 Medina Road, Door 1","44256",41.1370476,-81.8109073
"44266","Ravenna","OH","Robinson Memorial Hospital","6847 N Chestnut St","44266",41.17531639385286,-81.24917527680904
"44266","Ravenna","OH","Theresa Sheridan, DO - UH Ravenna Primary Care","6847 N Chestnut St Ste 200","44266",41.17582128184455,-81.24955683435235
"44266","Ravenna","OH","VA Med Center","not_available","44266",41.173827,-81.245617
"44278","Tallmadge","OH","Thomas Schmeiser, DO","145 West Ave Ste 3","44278",41.101156036085,-81.44794737624437
"44278","Tallmadge","OH","Leah Buck, PA-C","145 West Ave Ste 2","44278",41.101185816480104,-81.44798495644872
"44278","Tallmadge","OH","Akron General Hospital","1 General St","44305",41.061976,-81.464793
"44278","Tallmadge","OH","Cleveland Clinic Express Care Clinic","33 North Avenue","44278",41.10311513,-81.44163081
"44278","Tallmadge","OH","UH Akron Urgent Care","145 West Ave","44278",41.10120868234707,-81.44796586871718
"44278","Tallmadge","OH","Summa Health Tallmadge Urgent Care","60 North Ave Ste G2","44278",41.10459556406429,-81.43966314091813
"44281","Wadsworth","OH","Summa Health Wadsworth-Rittman Emergency Department","195 Wadsworth Rd","44281",41.028244,-81.752975
"44281","Wadsworth","OH","Cleveland Clinic Express Care Clinic","1 Park Center Dr","44281",41.04767068,-81.72761568
"44302","Akron","OH","Cleveland Clinic Akron General","1 Akron General Ave","44307",41.07862,-81.53177924
"44302","Akron","OH","Heart & Vascular","not_available","44307",41.07873692047345,-81.531112508474
"44302","Akron","OH","Akron Children's Hospital Feeding Disorders Program, Akron","214 West Bowery Street, 2nd floor - Orange elevator","44308",41.079135,-81.525085
"44302","Akron","OH","Akron Children's ER","Akron Children's Hospital","44308",41.07912541666242,-81.52523585131983
"44302","Akron","OH","AGMC Fetal Evaluation","400 Wabash Ave","44311",41.078478000000004,-81.531203
"44302","Akron","OH","Akron Children's Hospital CARE Center","300 Locust Street, Suite 170 - Entrance on front of building","44302",41.0802202,-81.5263101
"44302","Akron","OH","Akron Children's Hospital Pediatric Global Health","215 W Bowery St Ste 2320","44308",41.0798157,-81.5251555
"44302","Akron","OH","ManorCare Health Services-Akron","1211 W Market St","44313",41.102554,-81.553449
"44302","Akron","OH","Akron Children's Hospital Adolescent Medicine, Akron","215 W Bowery St Fl 3","44308",41.078549,-81.524456
"44302","Akron","OH","4Th Floor Surgery/Pacu","not_available","44302",41.079441,-81.525383
"44302","Akron","OH","301 Wabash","301 Wabash Ave","44307",41.078122895734815,-81.53039586755543
"44303","Akron","OH","Drug & Alcohol Rehab Akron","627 Upper Merriman Dr","44303",41.107527000000005,-81.537472
"44304","Akron","OH","Summa Akron City Hospital","525 E Market St","44304",41.08045706421318,-81.49980032231613
"44304","Akron","OH","Summa Professional Building South","55 Arch St","44304",41.079189,-81.49884899999999
"44304","Akron","OH","Room 508","not_available","44304",41.079831,-81.500009
"44304","Akron","OH","Summa Health System – St. Thomas Campus","444 Main Street","44310",41.074058,-81.523877
"44304","Akron","OH","Summa Health Akron Emergency Department","151 N. Forge St.","44304",41.078388,-81.499443
"44304","Akron","OH","ADM Crisis Center","not_available","44310",41.097887220232806,-81.5162684261528
"44304","Akron","OH","Summa Health Professional Center North","75 Arch St","44304",41.07990109032468,-81.49973630905151
"44306","Akron","OH","Edwin Shaw Rehab Lakemore Plaza","1-199 Plaza Ct","44312",41.05356141,-81.46109209
"44307","Akron","OH","western reserve medical hospital","not_available","44314",41.06097412109375,-81.55155944824219
"44308","Akron","OH","Select Hospital","200 E Market St","44308",41.082628,-81.51141
"44308","Akron","OH","Children's Hospital Radiology","not_available","44308",41.076062198329595,-81.52108293321744
"44310","Akron","OH","Canal Pointe","145 Olive St","44310",41.097594,-81.510429
"44311","Akron","OH","Edwin Shaw Rehab","577 Grant St","44311",41.06697092336613,-81.51791048524353
"44312","Akron","OH","Edwin Shaw Rehab Center","1500 Canton Rd","44312",41.02397,-81.423631
"44312","Akron","OH","Med Works Urgent Care","3333 Massillon Rd","44312",40.970141,-81.464152
"44313","Akron","OH","Summa Health Center at One Park West","1 Park West Blvd Ste 130","44320",41.10192552124028,-81.59165024757385
"44313","Akron","OH","Medgroup Urgent Care","2875 W Market St","44333",41.12696838378906,-81.60635375976562
"44313","Akron","OH","Summa Health Fairlawn Urgent Care","2875 W Market St Ste B","44333",41.127083614876376,-81.60645141233236
"44313","Akron","OH","Medgroup Urgent Care","2645 W. Market St","44333",41.12275800000178,-81.5995636904561
"44313","Akron","OH","Summa Health Fairlawn Urgent Care","2875 W Market St #B","44333",41.12696075439453,-81.6063461303711
"44313","Akron","OH","Summa Urgent care","not_available","44333",41.12255941666667,-81.59980746666666
"44321","Akron","OH","Cleveland Clinic Rehabilitation Hospital, Edwin Shaw","4389 Medina Road","44321",41.136818,-81.65867800000001
"44321","Akron","OH","Uh Select Medical Bath","4389 Medina Rd","44321",41.13623046875,-81.66226196289062
"44321","Akron","OH","Akron Children's Hospital Specialty Care, Akron","4125 Medina Rd","44333",41.1368688,-81.6581048
"44321","Akron","OH","Cleveland Clinic Akron General Bath Emergency Department","4125 Medina Road","44333",41.13691142,-81.65874685
"44321","Akron","OH","Radiology  At Akron General Hospital","4125","44333",41.136305,-81.659467
"44321","Akron","OH","The Village of St. Edward - Nursing Home","3131 Smith Road","44333",41.13632510540882,-81.62302819697382
"44406","Canfield","OH","ohio pain and rehab","not_available","44406",41.02464294433594,-80.74470520019531
"44408","Columbiana","OH","St Elizabeth's Boardman","not_available","44514",40.96460466736678,-80.65763253145343
"44410","Cortland","OH","Trumbull Memorial Hospital Center For Radiology","not_available","44410",41.288146,-80.763027
"44410","Cortland","OH","Trumbull Memorial Hospital","Laird Ave","44484",41.27594815336068,-80.79836672693469
"44410","Cortland","OH","Steward Internal Medicine, Windsor Court","310 Windsor Dr","44410",41.312091,-80.729558
"44410","Cortland","OH","Steward Health Center Elm Road - Steward Primary Care, Cortland","2668 State Route 5 Bldg C","44410",41.28960037231445,-80.76087188720703
"44410","Cortland","OH","Sarkos Plastic and Reconstructive Surgery","2662 State Route 5 Bldg C","44410",41.2888301,-80.763372
"44410","Cortland","OH","cortland quality care saber health","state route 5","44410",41.3374019042838,-80.72650086429084
"44420","Girard","OH","Steward Family Medicine & OB, Belmont","5170 Belmont Ave","44505",41.17414474487305,-80.66544342041016
"44420","Girard","OH","Belmont Pines","615 Churchill Hubbard Road","44505",41.161116,-80.65568
"44420","Girard","OH","Belmont Pines Hospital","not_available","44505",41.16052913767995,-80.65576865887184
"44425","Hubbard","OH","Jacinto Hospital","not_available","44425",41.166387,-80.551613
"44425","Hubbard","OH","Hubbard Urgent  Care","730 N Main St","44425",41.16434212205426,-80.56950184057487
"44428","Kinsman","OH","Andover Urgent Care","Rt 7","44003",41.44792840534307,-80.58585359035685
"44431","Leetonia","OH","Wound Healing Center of Salem Community Hospital","not_available","44460",40.85761,-80.80581
"44440","Mineral Ridge","OH","Lane Dispatch","2-5598 W Liberty St","44440",41.1326154327153,-80.76934345472527
"44451","North Jackson","OH","St. Elizabeth Outpatient ER","not_available","44451",41.10476576018158,-80.83339169094893
"44452","North Lima","OH","Ivy Woods Senior Living","not_available","44452",40.979046000000004,-80.658887
"44460","Salem","OH","Salem Regional Medical Center","1995 E State St","44460",40.900758891702246,-80.83227796246663
"44471","Struthers","OH","It HURTS","not_available","44471",41.05948257446289,-80.61028289794922
"44471","Struthers","OH","Steward Family Medicine, Struthers","47 State St","44471",41.0573018,-80.59036280000001
"44481","Warren","OH","St. Joseph Health Center","667 Eastland Ave SE","44484",41.23180434307089,-80.77743269532337
"44481","Warren","OH","Steward Family Medicine, Champion","5975 Mahoning Ave NW","44483",41.31555,-80.85276
"44481","Warren","OH","Vibra Hospital of Mahoning Valley - Trumbull Campus","1350 East Market Street","44483",41.23590671,-80.798863
"44481","Warren","OH","Mri","not_available","44481",41.23132837832698,-80.77728599629289
"44481","Warren","OH","Mercy Health - St. Joseph Warren Hospital Emergency Department","627 Eastland Ave SE","44484",41.231659,-80.775709
"44481","Warren","OH","St.joes Chemotherapy Clinic","not_available","44484",41.229853,-80.795353
"44481","Warren","OH","SMG Family Medicine","1405 E Market St","44483",41.236823,-80.798681
"44484","Warren","OH","Mercy Health - Howland Urgent Care","1950 Niles Cortland Rd NE","44484",41.26508712768555,-80.74005126953125
"44484","Warren","OH","Now Medcare Urgent Care","9371 E Market St Ste 1B","44484",41.237098693847656,-80.72122955322266
"44484","Warren","OH","HMHP Urgent Care","Niles-Cortland Rd.","44484",41.25643974878204,-80.75224919040171
"44502","Youngstown","OH","St Elizabeth Health Center","1044 Belmont Ave","44504",41.11413393261127,-80.65721154212952
"44502","Youngstown","OH","Out Patient Surgery","not_available","44504",41.11409378051758,-80.65660858154297
"44502","Youngstown","OH","Mercy Health - St. Elizabeth Youngstown Hospital Emergency Department","1044 Belmont Avenue","44501",41.114051818847656,-80.65701293945312
"44502","Youngstown","OH","Youngstown community health clinic","726 Wick Ave","44505",41.109311,-80.64291800000001
"44502","Youngstown","OH","Access Health Mahoning Valley","not_available","44502",41.099442,-80.661529
"44504","Youngstown","OH","Heritage Manor","Gypsy Ln","not_available",41.132577000000005,-80.661872
"44509","Youngstown","OH","St Elizabeth Health Center","not_available","44509",41.11044913081843,-80.68383962888619
"44512","Youngstown","OH","St. Elizabeth Boardman Health Center","8401 Market St","44512",40.99481915830328,-80.66029064344112
"44512","Youngstown","OH","Akron Children's Hospital Beeghly Campus","6505 Market St","44512",41.0325359,-80.6612119
"44512","Youngstown","OH","Mercy Health - St. Elizabeth Boardman Hospital Emergency Department","8401 Market Street","44514",40.9943852,-80.66010232
"44512","Youngstown","OH","Akron Children's Hospital Child Advocacy Center, Boardman","6505 Market St Ste 3100","44512",41.032905394795485,-80.66002389814759
"44512","Youngstown","OH","Advanced Specialty Hospitals of Greenbriar Rehabilitation","8061 South Avenue","not_available",41.00347637193875,-80.63598406220352
"44512","Youngstown","OH","Surgery Center Of Canfield","not_available","44512",41.027497478872355,-80.65491256358817
"44512","Youngstown","OH","Akron Children's Hospital Special Care Nursery, Boardman","6505 Market St., Special Care Nursery","44512",41.032970533593804,-80.66072546378608
"44512","Youngstown","OH","Akron Children's Hospital Quick Care, Boardman","6505 Market St Fl 1","44512",41.033007,-80.660586
"44512","Youngstown","OH","Boardman Medical Supply","404 Boardman Canfield Rd","44512",41.024834,-80.67441
"44512","Youngstown","OH","Advanced Specialty Hospitals of Greenbriar Rehabilitation (breakroom)","one, 8064 South Ave, Youngstown, OH 44512","44512",41.002960205078125,-80.63548278808594
"44512","Youngstown","OH","Surgical Hospital At Southwoods","E California Ave","44512",41.01542485683894,-80.65555626135134
"44515","Youngstown","OH","St. Elizabeth's Emergency","not_available","44515",41.100307,-80.78109133333334
"44515","Youngstown","OH","Valley Care Health Center Urgent Care","Ohltown Rd","44515",41.10175169499301,-80.76513921813273
"44515","Youngstown","OH","Living Well Family Practice at SMG","20 Ohltown Rd","44515",41.101802825927734,-80.76518249511719
"44515","Youngstown","OH","Steward Primary Care, Mahoning County","1450 S Canfield Niles Rd","44515",41.08662,-80.76375
"44515","Youngstown","OH","St Elizabeth Health Center","Mahoning Ave.","44437",41.10060119628906,-80.78118133544922
"44515","Youngstown","OH","Briarfield at Ashley Circle","5291 Ashley Cir","44515",41.114191999999996,-80.76459399999999
"44515","Youngstown","OH","Mercy Health - Austintown Medical Center","6252 Mahoning Avenue","44515",41.100467681884766,-80.78104400634766
"44601","Alliance","OH","Surgery Alliance","975 S Sawburg Ave","44601",40.912496473908156,-81.13516065165842
"44601","Alliance","OH","Med Express","2686 West State Street","not_available",40.90201950073242,-81.15771484375
"44601","Alliance","OH","Crandall Medical Center","800 S. 15th St.","44672",40.913439000000004,-81.023684
"44601","Alliance","OH","Alliance Community Hospital","200 E State St","44601",40.9022094,-81.10269430000001
"44621","Dennison","OH","Trinity Hospital Twin City","819 N 1st St","44621",40.40151744198786,-81.336595642297
"44622","Dover","OH","Cleveland Clinic - Union Hospital Healthplex","500 Medical Park Drive","44622",40.51687326,-81.45453236
"44622","Dover","OH","Cleveland Clinic - Union Hospital","659 Boulevard St","44622",40.51485898,-81.45568464
"44622","Dover","OH","Cleveland Clinic - Union Hospital FirstCare Urgent Care","110 Dublin Drive","44622",40.5508605,-81.4937135
"44622","Dover","OH","Tuscarawas Surgery Center","not_available","44622",40.514508401628724,-81.45613905358091
"44622","Dover","OH","Union Hospital Emergency Room","not_available","44663",40.50678373807603,-81.4559459722059
"44622","Dover","OH","Cleveland Clinic - Union Hospital Tuscarawas Ambulatory Surgery Center","320 Oxford St","44622",40.51732961,-81.46776469
"44641","Louisville","OH","ACH Family Care Urgent Care Center","506 W Main St","44641",40.837286999999996,-81.262525
"44646","Massillon","OH","Mercy Stat Care","7452 Fulton Dr NW","44646",40.86042881011963,-81.48757147308561
"44646","Massillon","OH","Affinity Medical Center Emergency Department","875 8th St NE","44646",40.806517082460765,-81.51707410812377
"44646","Massillon","OH","Heartland Behavioral Health","3000 Erie St S","44646",40.768127,-81.507738
"44646","Massillon","OH","Jackson Mercy Statcare","Caritas Cir NW, Massillon, OH 44646","44646",40.85447611606739,-81.46153976913969
"44646","Massillon","OH","Aultman West","8063-8099 Hills and Dales Rd NW","44646",40.821747972761074,-81.50427039232751
"44646","Massillon","OH","Heartland Behavioral Health","not_available","44647",40.7673548026848,-81.52112580322027
"44654","Millersburg","OH","Pomerene Hospital","981 Wooster Rd","44654",40.56485990728345,-81.92133128260679
"44662","Navarre","OH","Altercare Of Navarre","517 Park St NW","44662",40.72660803794861,-81.52649939060211
"44667","Orrville","OH","Orrville Pointe","230 S Crown Hill Rd","44667",40.837466,-81.783974
"44667","Orrville","OH","Aultman Orville Hospital","832 S Main St","44667",40.83195114135742,-81.76406860351562
"44685","Uniontown","OH","Summa Health Green Medical Center","1835 Franks Pkwy","44685",40.95830499944626,-81.4610678252537
"44685","Uniontown","OH","Cleveland Clinic Akron General Health & Wellness Center, Green","1946 Town Park Boulevard","44685",40.94977473,-81.46393749
"44685","Uniontown","OH","Cleveland Clinic Akron General Green Emergency Department","1940 Town Park Blvd","44685",40.9494722,-81.4640483
"44685","Uniontown","OH","Summa Green Emergency Room","1","44685",40.95871069318647,-81.46046716514165
"44685","Uniontown","OH","Summa Health Green Emergency Department","1825 Franks Pkwy","44685",40.957515716552734,-81.46075439453125
"44685","Uniontown","OH","Akron General Medical Center Green E.R","not_available","44685",40.949770274635306,-81.46359013550125
"44685","Uniontown","OH","Crossroads Hospice & Palliative Care","3743 Boettler Oaks Dr. Suite E","44685",40.962044,-81.471184
"44691","Wooster","OH","Rm 209","not_available","44691",40.82076602857143,-81.93204787142858
"44691","Wooster","OH","Akron Children's Hospital Medicine Program","1761 Beall Ave","44691",40.82090094117628,-81.93218655298796
"44691","Wooster","OH","Akron Children's Hospital Specialty Care, Wooster","546 Winter St","44691",40.82057189941406,-81.9312515258789
"44691","Wooster","OH","Akron Children's Hospital CARE Center, Wooster","1734 Gasche St","44691",40.8203010559082,-81.92969512939453
"44691","Wooster","OH","dover hospital","Dover, Wooster, OH","44691",40.75728225708008,-81.87894439697266
"44691","Wooster","OH","Cleveland Clinic","1740 Cleveland Road","44691",40.82041188,-81.9364251
"44702","Canton","OH","Akron Children's Hospital CARE Center, Canton","213 Market Ave N Ste 200","44702",40.79953384399414,-81.37490844726562
"44706","Canton","OH","Aultman Hospital","2600 6th St SW","44710",40.796767799862,-81.40312511877494
"44706","Canton","OH","Aultman Hospital NICU","not_available","44710",40.79705313504127,-81.40301777644275
"44706","Canton","OH","pediatric cardiology aultman","not_available","44708",40.796409606933594,-81.4332275390625
"44706","Canton","OH","Aultman Birth Center","601-625 Bedford Avenue Southwest","44706",40.796753,-81.40234
"44706","Canton","OH","Walk In Urgent Care","4135 Tuscarawas St W","44708",40.79735378803051,-81.4231574798813
"44708","Canton","OH","Mercy Cardiovascular Institute","1330 Mercy Dr NW Ste 101","44708",40.81230545043945,-81.39564514160156
"44708","Canton","OH","Drug & Alcohol Rehab Canton","2121 Whipple Ave NW","44708",40.823280334472656,-81.4249267578125
"44708","Canton","OH","MMC","1320 Mercy Dr NW","44708",40.81239330538994,-81.39653401875455
"44709","Canton","OH","ER","not_available","44709",40.858817,-81.404891
"44718","Canton","OH","Mercy Statcare","6200 Whipple Ave NW","44720",40.871788024902344,-81.42194366455078
"44718","Canton","OH","Aultman Immediate Care","not_available","44718",40.85567865,-81.43253021666666
"44718","Canton","OH","ManorCare Health Services-Belden Village","5005 Higbee Ave NW","44718",40.85384783,-81.42832114
"44718","Canton","OH","Ohio Medical Marijuana Card Green Compassion Network","6657 Frank Avenue Northwest, Suite 100","44720",40.8773014,-81.4426195
"44718","Canton","OH","Mercy Health Center of North Canton","6200 Whipple Avenue Northwest","44720",40.87198,-81.42164
"44805","Ashland","OH","Samaritan Regional Health System","1025 Center St","44805",40.85890026529861,-82.30918229522408
"44805","Ashland","OH","Hospice Of North Central Ohio","not_available","44805",40.83511171666667,-82.33725445
"44805","Ashland","OH","UH Samaritan Urgent Care","663 E Main St","44805",40.86530760191183,-82.30113426852574
"44805","Ashland","OH","Walk In Urgent Care","1016 Sugarbush Dr","44805",40.8615647,-82.2834251
"44811","Bellevue","OH","The Emergency Room","not_available","44811",41.349679,-82.837529
"44820","Bucyrus","OH","crawford health & urgent care","1820 E Mansfield St, Bucyrus, OH 44820","44820",40.8128547668457,-82.94966125488281
"44820","Bucyrus","OH","Avita Heart Bucyrus","629 North Sandusky Ave","44820",40.815391540527344,-82.97655487060547
"44820","Bucyrus","OH","Heartland of Bucyrus","1170 W Mansfield St","44820",40.81298155,-82.99288713
"44827","Crestline","OH","shelby hospital","199 W Main St","44875",40.88238347365516,-82.67398252168277
"44827","Crestline","OH","Shelby ED","not_available","44875",40.882041931152344,-82.67411041259766
"44830","Fostoria","OH","ProMedica Fostoria Community Hospital","501 Van Buren St","44830",41.16305089061736,-83.4243582028841
"44833","Galion","OH","MedFlight 5","5710 State Route 309","44833",40.75087346062995,-82.72331537448997
"44833","Galion","OH","Galion Community Hospital ER","not_available","44833",40.73048419473922,-82.8028324691646
"44833","Galion","OH","Avita Heart Galion","269 Portland Way South","44833",40.7310562133789,-82.8021087646484
"44837","Greenwich","OH","UH New London Urgent Care","206 W Main St","44851",41.0866812,-82.4100574
"44839","Huron","OH","Erie County Care Facility","not_available","44839",41.418621014930956,-82.63544306553432
"44842","Loudonville","OH","UH Kettering Health Center Urgent Care","546 N Union St","44842",40.644501141744605,-82.2288809533556
"44847","Monroeville","OH","FTMC Surgery Center","not_available","44857",41.23687718568386,-82.63151735154152
"44853","New Riegel","OH","Mercy Health - Tiffin Hospital Emergency Department","45 Saint Lawrence Drive","44883",41.1037988,-83.2164181
"44857","Norwalk","OH","Fisher-Titus Medical Center","280 Benedict Ave","44857",41.2256791882201,-82.60503109334933
"44857","Norwalk","OH","Fisher-Titus Medical Center emergency room","272 Benedict Ave","44857",41.22451041978513,-82.60302515869209
"44857","Norwalk","OH","Phase2Face","40 Richards Ave Ste 3","06854",41.24273942457893,-82.59731769561766
"44857","Norwalk","OH","Akron Children's Hospital Specialty Care","282 Benedict Ave","44857",41.2236296,-82.6020354
"44865","Plymouth","OH","Mercy Health - Willard Hospital","1100 Neal Zick Road","44890",41.03934489,-82.70957712
"44870","Sandusky","OH","Firelands Regional Medical Center-Main Campus","1111 Hayes Ave","44870",41.44610651837708,-82.71060502602093
"44870","Sandusky","OH","Firelands Regional Medical Center-South Campus","1912 Hayes Ave","44870",41.43714641748174,-82.7121120784213
"44870","Sandusky","OH","NOMS Urgent Care","Strub Rd.","44870",41.40854971680128,-82.72846312410736
"44870","Sandusky","OH","CP First Aid","Cedar Point","44870",41.481527072264605,-82.68191147228848
"44870","Sandusky","OH","Urgent Care","not_available","44870",41.39198325,-82.67158883
"44870","Sandusky","OH","Candle Light Vigil For Officer Dunn","703 Tyler St","44870",41.445621,-82.710823
"44870","Sandusky","OH","University Hospitals Seidman Cancer Center at Firelands Regional Medical Center","701 Tyler St","44870",41.444923400878906,-82.71070098876953
"44870","Sandusky","OH","CP Employee Clinic","Cedar Point","not_available",41.480898,-82.684527
"44870","Sandusky","OH","The Little Clinic","226 E Perkins Ave","44870",41.4316318,-82.6954423
"44875","Shelby","OH","The Milking Room","not_available","44906",40.894292393447,-82.65230792618883
"44883","Tiffin","OH","Mercy Occupational Health Center/Community Lab","3101 US 224","44883",41.1118359,-83.19574551
"44883","Tiffin","OH","Mercy Hospital","not_available","44883",41.111366271972656,-83.20038604736328
"44883","Tiffin","OH","Excel Urgent Care","2562 W Market St","44883",41.108624,-83.219585
"44883","Tiffin","OH","Walk In Urgent Care","2562 W Market St Ste A","44883",41.108633010474435,-83.21951977546308
"44890","Willard","OH","mercy willard hospital","not_available","44890",41.0418815612793,-82.7021484375
"44902","Mansfield","OH","Lab @ MedCentral Health","not_available","44902",40.760907,-82.501605
"44902","Mansfield","OH","headed to James Cancer Center in Columbus :-(","not_available","44907",40.74786376953125,-82.51945495605469
"44903","Mansfield","OH","OhioHealth Mansfield Hospital","335 Glessner Ave","44903",40.7525339,-82.5279085
"44903","Mansfield","OH","Concentra Urgent Care","not_available","44904",40.695438,-82.542399
"44903","Mansfield","OH","Urgent Care","Trimble Rd.","44907",40.72136234175672,-82.54482648844105
"44903","Mansfield","OH","Avita Health System - Ontario Hospital","715 Richland Mall","44906",40.77149034554777,-82.59360604301234
"44903","Mansfield","OH","OhioHealth Emergency Care Ontario","1365 North Lexington – Springmill Road","44906",40.79011184006834,-82.59078093961165
"44903","Mansfield","OH","Kindred at Home","2281 Village Mall Dr","44906",40.77480697631836,-82.5962142944336
"44903","Mansfield","OH","Med-Central Hospital - Mansfield","Glessner ave","44903",40.75272264225514,-82.52953593737074
"44903","Mansfield","OH","St Francis Endoscopy Suite","Manchester Xpway","44903",40.749244,-82.541269
"44903","Mansfield","OH","Walk In Urgent Care","375 N Lexington Springmill Rd","44906",40.7628751513784,-82.59090679538156
"44903","Mansfield","OH","Walk In Urgent Care","1341 S Trimble Rd","44907",40.721419,-82.544784
"45002","Cleves","OH","Good Samaritan Medical Center Western Ridge","6949 Good Samaritan Dr","45247",39.20349268288819,-84.6699889217383
"45002","Cleves","OH","The Little Clinic","10477 Harrison Ave","45030",39.24922515,-84.7914049
"45005","Franklin","OH","Atrium Medical Center","1 Medical Center Dr","45005",39.49851048738751,-84.3149960790687
"45005","Franklin","OH","Children's Medical Center","4412 Brandon Ln","45042",39.51823089873187,-84.35273669221701
"45005","Franklin","OH","Doctors' Urgent Care","3290 Village Dr","45005",39.4936803,-84.3283629
"45005","Franklin","OH","Atrium Medical Center HR Dept","6051 Market Ave","45005",39.495025,-84.318497
"45005","Franklin","OH","Concentra Urgent Care - Forbes Road","7730 First Pl","44146",39.592201232910156,-84.24500274658203
"45005","Franklin","OH","Healthworks","333 Conover Dr Ste H","45005",39.556551058170776,-84.27976136074358
"45005","Franklin","OH","Hilltop Obstetrics & Gynecology","200 Medical Center Dr Ste 160","45005",39.498878999999995,-84.314266
"45005","Franklin","OH","in room 358","not_available","45005",39.49440383911133,-84.32654571533203
"45005","Franklin","OH","Atrium medical center hospital franklin,ohio 45005","1 Medical Center Dr, Franklin, OH 45005","45005",39.498779296875,-84.31426239013672
"45005","Franklin","OH","Urgent Care","not_available","45066",39.56242436168241,-84.25399578389636
"45005","Franklin","OH","Grand Medical Plaza","not_available","45044",39.495109,-84.35484
"45005","Franklin","OH","BioLife Plasma Services","2850 Towne Blvd.","45044",39.486139290583985,-84.32916783493988
"45005","Franklin","OH","The Little Clinic","3420 Towne Blvd","45005",39.4950352,-84.3277736
"45005","Franklin","OH","Emergency Center - Kettering Health Network","100 Kettering Way","45005",39.56226288,-84.27233323
"45011","Hamilton","OH","Fort Hamilton Hospital","630 Eaton Ave","45013",39.4156304262605,-84.57300014854991
"45011","Hamilton","OH","Group Health Medical Center","Princeton Glendale","not_available",39.357018626051705,-84.46026929849278
"45011","Hamilton","OH","Mix Recovery Ward","not_available","45011",39.4073314331465,-84.57651954161595
"45011","Hamilton","OH","comprehensive urgent care","4182 Liberty Fairfield Rd, Hamilton, OH 45011","45011",39.41749522320925,-84.47555937164218
"45011","Hamilton","OH","Urgent Care of Fairfield","3300 Princeton Rd","45011",39.391259,-84.504974
"45011","Hamilton","OH","Hamilton Emergency Room","High St","45011",39.481292,-84.554963
"45011","Hamilton","OH","Ft. Hamilton Hospital ER","not_available","45013",39.415888546769125,-84.57285179734895
"45011","Hamilton","OH","Personal Senior Care Homes","5940 E Senour Dr","45069",39.3625890270392,-84.42582249641417
"45011","Hamilton","OH","Urgent Care","5380-5398 Dixie Hwy","45014",39.33577471,-84.527154
"45011","Hamilton","OH","Medcorp North","not_available","45014",39.345075,-84.53308100000001
"45011","Hamilton","OH","Urgent Care","bridgewater falls","45011",39.41179687614721,-84.47553887516047
"45011","Hamilton","OH","Pleasant Ave. Urgent Care","3570 Pleasant Ave","45015",39.360188139176046,-84.5578766057898
"45011","Hamilton","OH","The Little Clinic","560 Wessel Dr","45014",39.3359121,-84.5628482
"45011","Hamilton","OH","The Little Clinic","8000 Princeton Glendale Rd","45069",39.358928,-84.458575
"45011","Hamilton","OH","Dixie Urgent Care","5390 Dixie Hwy","45014",39.3364181518555,-84.5271682739258
"45011","Hamilton","OH","The Little Clinic","5250 Newtown Dr.","45011",39.422531,-84.457739
"45011","Hamilton","OH","Liberty Urgent Care of West Chester","8148 Princeton Glendale Rd","45069",39.3537657,-84.45970059999999
"45013","Hamilton","OH","McCullough Hyde Memorial Hospital","200-218 N Poplar St","45056",39.51249114393869,-84.74139344932941
"45013","Hamilton","OH","Mercy Health - The Heart Institute, Oxford","270 South Locust Street","45056",39.50759105,-84.75119615
"45013","Hamilton","OH","Liberty Nursing Center Of Oxford","6099 Fairfield Rd","45056",39.507667541503906,-84.75601959228516
"45013","Hamilton","OH","Mc Cullough Hyde Memorial Hospital","not_available","45056",39.51245186808718,-84.74606562246842
"45013","Hamilton","OH","The Little Clinic","1474 Main St","45013",39.4259652,-84.5944283
"45013","Hamilton","OH","The Little Clinic","300 S Locust St","45056",39.50683782253965,-84.75124941579736
"45014","Fairfield","OH","Mercy Health - Fairfield Hospital","3000 Mack Rd","45014",39.31250269981726,-84.51784878545335
"45014","Fairfield","OH","Mercy Fairfield ED Squad Room","3300 Mack Rd","45014",39.311917101965285,-84.51863732291635
"45014","Fairfield","OH","Cincinnati Children's Fairfield","3050 Mack Rd","45014",39.31349359363134,-84.5171919499481
"45030","Harrison","OH","The Christ Hospital Lab Draw Site & Pre-Surgery Testing","5885 Harrison Ave. Suite 1700","45248",39.1745242,-84.6439069
"45030","Harrison","OH","The Christ Hospital Physicians - Physical Medicine & Rehabilitation","5885 Harrison Ave. Suite 2300","45248",39.1745242,-84.6439069
"45030","Harrison","OH","The Christ Hospital Physicians - Obstetrics & Gynecology","5885 Harrison Ave. Suite 3100","45248",39.1745242,-84.6439069
"45030","Harrison","OH","The Christ Hospital Physicians - Hematology & Oncology","5885 Harrison Ave. Suite 2900","45248",39.1745242,-84.6439069
"45030","Harrison","OH","The Christ Hospital - Wound and Ostomy Care","5885 Harrison Ave. Suite 2100","45248",39.1745242,-84.6439069
"45030","Harrison","OH","Mercy Urgent Care","New Haven Rd","45030",39.266563877559285,-84.78992584041363
"45030","Harrison","OH","PAC Center","not_available","45030",39.2622967826094,-84.79108778225876
"45030","Harrison","OH","The Christ Hospital Physicians - Heart & Vascular","5885 Harrison Ave. Suite 1900","45248",39.1745242,-84.6439069
"45030","Harrison","OH","Children's Hospital MOB","not_available","45248",39.17524625637556,-84.6437612415042
"45030","Harrison","OH","The Christ Hospital Physicians - Vascular Surgery","5885 Harrison Ave. Suite 3300","45248",39.1745242,-84.6439069
"45030","Harrison","OH","Mercy Health - Harrison Medical Center Emergency Department","10450 New Haven Road","45030",39.2624951,-84.7907226
"45030","Harrison","OH","Cincinnati Children's Hospital Green Township","5899 Harrison Ave","45248",39.17503319374646,-84.64441939607471
"45030","Harrison","OH","Mercy Health - The Heart Institute, Harrison","10450 New Haven Rd","45030",39.26249,-84.790638
"45030","Harrison","OH","The Christ Hospital Physicians - Ear, Nose & Throat","5885 Harrison Ave. Suite 3700","45248",39.1745242,-84.6439069
"45036","Lebanon","OH","Lebanon Urgent care","1000 Columbus Ave","45036",39.45006929,-84.18312549591064
"45036","Lebanon","OH","Bethesda Arrow Springs","not_available","45036",39.394903754099296,-84.20911813279787
"45036","Lebanon","OH","The Little Clinic","1425 Columbus Ave","45036",39.4543714,-84.1813318
"45039","Maineville","OH","Rivers Bend Urgent Care","87 E US Highway 22 and 3","45039",39.339508590272054,-84.21717882156372
"45039","Maineville","OH","Urgent Care Of Mason","Aero Dr","45040",39.33994631336492,-84.29295971941092
"45039","Maineville","OH","Urgent Care","not_available","45039",39.33953583240509,-84.2172646522522
"45039","Maineville","OH","Doctor's Urgent Care","Aero Drive","45040",39.339997,-84.29283199999999
"45039","Maineville","OH","The Little Clinic","5705 S State Route 48","45039",39.3501092,-84.2204018
"45040","Mason","OH","Cincinnati Children's Hospital Medical Center","9560 Children Dr","45040",39.2993528462316,-84.31008995502624
"45040","Mason","OH","The Dermatology Group","5298 Socialville-Foster Rd","45040",39.321697,-84.317388
"45040","Mason","OH","Don Cook Fitness","409 W Church St","45040",39.36149597167969,-84.3145751953125
"45040","Mason","OH","Premier Urgent Care","7450 S Mason Montgomery Rd","45040",39.331021,-84.310422
"45040","Mason","OH","Deerfield Urgent Care","not_available","45040",39.293306350141776,-84.31825355822276
"45040","Mason","OH","The Christ Hospital Physicians - Obstetrics & Gynecology","608 Reading Rd. Suite C","45040",39.35409927368164,-84.31636810302734
"45040","Mason","OH","The Christ Hospital Physicians - Hematology & Oncology","608 Reading Rd. Suite D","45040",39.35409927368164,-84.31636810302734
"45040","Mason","OH","Mercy Health - The Heart Institute, Mason","9313S Mason Montgomery Road","45040",39.30455275,-84.31523925
"45042","Middletown","OH","McKnight's","6583 W Alexandria Rd","45042",39.553354,-84.460599
"45042","Middletown","OH","Southwest Ohio Ambulatory Surgery Center","not_available","45042",39.54457092285156,-84.37454986572266
"45044","Middletown","OH","Cincinnati Children's Hospital Medical Center Liberty Campus","7777 Yankee Rd","45044",39.37617459759346,-84.36780329931389
"45044","Middletown","OH","The Christ Hospital Physicians - Ohio Heart & Vascular","6939 Cox Rd. Suite 250","45069",39.369624,-84.362755
"45044","Middletown","OH","The Christ Hospital Physicians - Orthopaedics & Sports Medicine","6939 Cox Rd. Suite 370","45069",39.374931,-84.3628433
"45044","Middletown","OH","The Christ Hospital Physicians - Ear, Nose & Throat","6939 Cox Rd. Suite 260","45069",39.374931,-84.3628433
"45044","Middletown","OH","The Christ Hospital Physicians - Obstetrics & Gynecology","6939 Cox Rd. Suite 350","45069",39.374931,-84.3628433
"45044","Middletown","OH","The Christ Hospital Physicians - Primary Care","6939 Cox Rd. Suite 360","45044",39.374931,-84.3628433
"45044","Middletown","OH","Liberty Urgent Care","7117 Dutchland Pkwy","45044",39.378476983333336,-84.38703325
"45044","Middletown","OH","The Little Clinic","7300 Yankee Rd","45044",39.3771571,-84.3760542
"45066","Springboro","OH","Dayton Childrens-Rehab Svcs-Springboro","3333 W Tech Blvd","45342",39.589095,-84.23889799999999
"45066","Springboro","OH","The Dermatology Group","36 Remick Boulevard","45066",39.5797307,-84.2257349
"45068","Waynesville","OH","The Little Clinic","1095 S Main St","45458",39.607039661246404,-84.16348099708557
"45069","West Chester","OH","West Chester Emergency Department","7700 University Dr","45069",39.357472625548795,-84.36800894425332
"45069","West Chester","OH","UC Health West Chester Surgical Center","7750 Discovery Dr","45069",39.361412048339844,-84.36570739746094
"45069","West Chester","OH","Urgent Care","Tylersville Rd","45040",39.35242900892061,-84.37097509525282
"45069","West Chester","OH","University of Cincinnati Physicians Company - Primary Care Network","7675 Wellness Way Suite 105","45069",39.358299255371094,-84.36784362792969
"45069","West Chester","OH","Trihealth Priorty Care","not_available","45069",39.368215,-84.358219
"45102","Amelia","OH","Mercy Anderson MRI","State Rd.","45255",39.04756558962115,-84.24302389520867
"45102","Amelia","OH","The Little Clinic","262 W Main St","45102",39.036114516600264,-84.2332161219415
"45103","Batavia","OH","Clermont Mercy Hospital","3000 Hospital Drive","45103",39.079968,-84.144635
"45103","Batavia","OH","Mercy Health - Clermont Hospital Emergency Department","3000 Hospital Dr","45103",39.07999974,-84.14449517
"45103","Batavia","OH","MedCorp Eastgate","not_available","45103",39.089723,-84.235858
"45103","Batavia","OH","Clermont Mercy Hospital","3000 Hospital Drive","45244",39.09817315662325,-84.25074506467821
"45103","Batavia","OH","Mercy Clermont","400-698 Stonelick Woods Cir","45103",39.09427513915354,-84.24046195362945
"45103","Batavia","OH","Mercy Health - The Heart Institute, Clermont","2055 Hospital Dr","45103",39.080059999999996,-84.144536
"45106","Bethel","OH","Georgetown Behavioral Hospital","425 Home St","45121",38.858734130859375,-83.89681243896484
"45106","Bethel","OH","Urgent Care","not_available","45106",38.93049948842659,-84.15847840337412
"45106","Bethel","OH","Hamersville fire/ems","Bank St","45130",38.918887257314466,-83.98776422582009
"45106","Bethel","OH","Bethel Urgent Care","3100-3138 W Plane St","45106",38.968448,-84.09842545
"45107","Blanchester","OH","Christ Hospital","Auburn Ave","45148",39.321324,-83.874294
"45107","Blanchester","OH","Mom's Hospital Room","St. Elizabeth South Hospital","45148",39.321324,-83.874294
"45107","Blanchester","OH","The Little Clinic","1001 Cherry St Ste A","45107",39.3010084,-83.9610125
"45121","Georgetown","OH","Brown County General Hospital","8100-8398 Township Highway 259","45121",38.86769803333333,-83.8135591
"45121","Georgetown","OH","RSUD Gunung Jati","Jl. Kesambi No.56","45121",38.86607656005263,-83.7868881225586
"45133","Hillsboro","OH","Highland District Hospital","not_available","45133",39.22122543006556,-83.60996296320009
"45133","Hillsboro","OH","Hillsboro Urgent Care","160 Roberts Ln Ste A","45133",39.22448121666667,-83.61753911666666
"45133","Hillsboro","OH","West Main Urgent Care","231 W Main St","45133",39.20236037473519,-83.61545689929456
"45133","Hillsboro","OH","The Christ Hospital Physicians - Ohio Heart & Vascular","1275 N. High St.","45133",39.22160339355469,-83.61097717285156
"45140","Loveland","OH","Hometown Urgent Care","not_available","45150",39.19555337195053,-84.2363564440757
"45140","Loveland","OH","The Detail Bay At Tony's Auto Spa","not_available","45243",39.2262536,-84.32580141666666
"45140","Loveland","OH","Arbors at Milford","5900 Meadow Creek Dr","45150",39.19545124459521,-84.25332970942891
"45140","Loveland","OH","Loveland Urgent Care","10582 Loveland Madeira Rd","45140",39.251526,-84.295263
"45140","Loveland","OH","Bethesda North, New Tower, RM 2320","not_available","45249",39.25289778747157,-84.3249220968952
"45140","Loveland","OH","The Wash Bay At Tonys Auto Spa","9382 Loveland Madeira Rd","45242",39.226131439208984,-84.32587432861328
"45142","Lynchburg","OH","RS.putera bahagia (jade room)","Jl ciremai","45142",39.2292946,-83.81547909999999
"45150","Milford","OH","Milford Animal Hospital","1125 Main St","45150",39.182167053222656,-84.27425384521484
"45150","Milford","OH","The Christ Hospital Physical & Occupational Therapy","970 Lila Ave.","45150",39.1734231,-84.2777313
"45150","Milford","OH","MHS Eastgate Urgent Care","796 cinti batavia pike","45245",39.10695724,-84.274877
"45150","Milford","OH","The Little Clinic","824 Main St","45150",39.17607915387445,-84.28054869174957
"45154","Mount Orab","OH","Mount Orab ER","not_available","45154",39.036791,-83.930265
"45154","Mount Orab","OH","Urgent Care","111 Vandament Way","45154",39.044527,-83.919822
"45154","Mount Orab","OH","Mercy Health - Mt. Orab Medical Center Emergency Department","154 Health Partners Circle","45154",39.04566263,-83.9413846
"45154","Mount Orab","OH","The Little Clinic","210 Sterling Run Blvd","45154",39.0397097,-83.9237101
"45159","New Vienna","OH","Antioch General Hospital","not_available","45159",39.36939951884341,-83.68188768419901
"45169","Sabina","OH","Premier Urgent Care","2845 Progress Way","45177",39.451568603515625,-83.78060150146484
"45177","Wilmington","OH","Clinton Memorial Hospital","610 W Main St","45177",39.4439664,-83.8394191
"45177","Wilmington","OH","CMH","not_available","45177",39.453497529029846,-83.82635414600372
"45177","Wilmington","OH","The Christ Hospital Physicians - Ohio Heart & Vascular","1150 W. Locust St. Suite 300","45177",39.4471005,-83.8494655
"45177","Wilmington","OH","Countryview Pet Hospital","6609 W State Route 73","45177",39.4832649230957,-83.92882537841797
"45177","Wilmington","OH","The Christ Hospital Physicians - Rheumatology","601 W. Main St. Suite 309","45177",39.4455042,-83.8391607
"45177","Wilmington","OH","The Little Clinic","1230 Rombach Ave","45177",39.44640314250706,-83.80710823677066
"45202","Cincinnati","OH","The Christ Hospital","2139 Auburn Ave","45219",39.12088008386982,-84.5104595685369
"45202","Cincinnati","OH","The Little Clinic","53 Donnermeyer Dr","41073",39.09914558755729,-84.48182000778957
"45202","Cincinnati","OH","Christ Hospital - 7 South","not_available","45219",39.120973890799874,-84.50978870620172
"45202","Cincinnati","OH","Christ Hospital 6 sth Rm 6019","Auburn","45219",39.120793,-84.512094
"45202","Cincinnati","OH","The Christ Hospital-Labor And Delivery","Auburn ave","45219",39.12145323164186,-84.51044794764198
"45202","Cincinnati","OH","Mercy Franciscan St. John","1800 Logan St","45202",39.115328000000005,-84.520697
"45202","Cincinnati","OH","Department of Tuberculosis Control","184 E McMillan St","45219",39.127464294433594,-84.50460052490234
"45202","Cincinnati","OH","Mt. Auburn Urgent Care","2230 Auburn Ave","45219",39.1228,-84.5079
"45202","Cincinnati","OH","The Christ Hospital Physicians - Long-Term Care","237 William Howard Taft Rd. 3rd Floor - Room 64","45219",39.127540588378906,-84.5047607421875
"45202","Cincinnati","OH","Cincinnati Fire Department","325 East 9th Street","45202",39.10631239414215,-84.507285
"45203","Cincinnati","OH","Maier Plastic Surgery","Rookwood Tower 3805 Edwards Rd., Ste. 100","45209",39.11727568585595,-84.52743530273438
"45204","Cincinnati","OH","The Little Clinic","5080 Delhi Rd","45238",39.096256,-84.612787
"45204","Cincinnati","OH","Mercy Hospital","not_available","45204",39.07841136,-84.62195713
"45204","Cincinnati","OH","good samaritan trihealth westridge","not_available","45205",39.1191291809082,-84.58460235595703
"45206","Cincinnati","OH","Cincinnati Children's Hospital Medical Center","3333 Burnet Ave","45229",39.14116161340739,-84.50162172317505
"45206","Cincinnati","OH","Cincinnati Children's Hospital Medical Center Building A","not_available","45220",39.141321498478185,-84.50114670510241
"45206","Cincinnati","OH","Shriners Hospital","3229 Burnet Ave","45229",39.13738609468469,-84.50096369707731
"45206","Cincinnati","OH","Cincinnati Childrens Hospital Medical Center Location D","not_available","45229",39.1408701860383,-84.50058533452578
"45206","Cincinnati","OH","DPIC","3900 Vernon Place","45219",39.13207636,-84.499611
"45206","Cincinnati","OH","Sabin Auditorium","3333 Burnet Ave, University Medical College, Cincinnati, OH 45229","45229",39.14079084069819,-84.50158922303386
"45206","Cincinnati","OH","Cincinnati Children's Hospital - Lincoln Bldg","660 Lincoln Ave","45206",39.13293303793515,-84.49329939429494
"45206","Cincinnati","OH","Dorsa Physical Therapy (Center for Integrated Fascial Therapy)","1348 chapel st","45206",39.130926,-84.479624
"45208","Cincinnati","OH","The Dermatology Group","4000 Smith Rd. Ste. 210","45209",39.15104675292969,-84.4455795288086
"45208","Cincinnati","OH","Louis Valentine, D.C.","4030 Smith Rd.","45212",39.14982762171708,-84.44780588150024
"45208","Cincinnati","OH","Lewis Animal Hospital","2116 Madison Rd","45208",39.132995,-84.46041600000001
"45208","Cincinnati","OH","The Christ Hospital Lab Draw Site & Pre-Surgery Testing","3805 Edwards Road Suite 320","45209",39.1483153,-84.4439324
"45208","Cincinnati","OH","Jordyn Mandle","3802 Paxton Ave","45209",39.145461,-84.428227
"45208","Cincinnati","OH","The Little Clinic","3760 Paxton Ave","45209",39.14487277590928,-84.42983776330948
"45209","Cincinnati","OH","Rookwood Medical Center","4101 Edwards Rd","45209",39.152949,-84.442384
"45209","Cincinnati","OH","Hyde Park Urgent care","Ridge Ave","45209",39.1638,-84.42239368
"45209","Cincinnati","OH","Urgent Care Of Oakley","5002 Ridge Ave #1","45209",39.16395950317383,-84.42231750488281
"45209","Cincinnati","OH","Tri State Urgent Care Centers","5002 Ridge Ave","45209",39.163959999999996,-84.422287
"45209","Cincinnati","OH","Mercy Health - Rookwood Medical Center Emergency Department","4101 Edwards Road","45209",39.15297514,-84.44231326
"45209","Cincinnati","OH","The Little Clinic","4613 Marburg Ave","45209",39.1598944,-84.4265507
"45211","Cincinnati","OH","Mercy Health - West Hospital","3301 Mercy Health Boulevard","45211",39.18118891,-84.59727907
"45211","Cincinnati","OH","Mercy Health - Queen City Medical Center Emergency Department","3131 Queen City Avenue","45238",39.13511276245117,-84.60671997070312
"45211","Cincinnati","OH","Mercy Health - West Hospital","3300 Mercy Health Boulevard","45211",39.18073268,-84.59632708
"45211","Cincinnati","OH","Hillebrand Nursing And Rehab","4320 Bridgetown Rd","45211",39.15855,-84.621913
"45211","Cincinnati","OH","good sam radiation oncology","not_available","45211",39.15479383963901,-84.57420740628363
"45211","Cincinnati","OH","Mercy Hospital","3131 Queen City Ave","45238",39.13539988827942,-84.6062468138975
"45211","Cincinnati","OH","The Dermatology Group","6507 Harrison Ave Ste I","45247",39.135490000000004,-84.613362
"45211","Cincinnati","OH","Medical Urgent Care","3158 Glenmore Ave","45211",39.13694084077775,-84.61371075270455
"45211","Cincinnati","OH","The Little Clinic","6165 Glenway Ave","45211",39.142502,-84.6224036
"45211","Cincinnati","OH","New Body Aesthetics","4004 Harrison Avenue","45211",39.1574486,-84.6150897
"45212","Cincinnati","OH","Rehab","not_available","45212",39.174891,-84.446419
"45212","Cincinnati","OH","Encompass Health Rehabilitation Hospital of Cincinnati at Norwood","4953 Section Ave","45212",39.16725,-84.460563
"45214","Cincinnati","OH","Deaconess Hospital","311 Straight St","45219",39.12982652708055,-84.52219584946593
"45214","Cincinnati","OH","Cincinnati Children's Hospital Medical Center","2750 Beekman St","45225",39.136177,-84.54734599999999
"45214","Cincinnati","OH","Deaconess Hospital","not_available","45206",39.126894,-84.532942
"45215","Cincinnati","OH","Minimally Invasive Spinal Institute","10475 Reading Rd Ste 115","45241",39.255344036863484,-84.42298471927643
"45215","Cincinnati","OH","Tri Health Evendale Hospital","not_available","45241",39.25171390367382,-84.42000806662067
"45215","Cincinnati","OH","Drake Center","151 W Galbraith Rd","45216",39.21250991572616,-84.47982760737528
"45215","Cincinnati","OH","Doctors' Urgent Care Reading","9232 Reading Rd","45215",39.228236,-84.437404
"45215","Cincinnati","OH","Med Mart","10780 Reading Rd","45241",39.2628001,-84.4155578748688
"45215","Cincinnati","OH","Vitas Hospice At Drake Hospital","not_available","45216",39.21261850241984,-84.4801913921637
"45215","Cincinnati","OH","St Elizabeth North","1500 James Simpson Jr Way","41011",39.23031224214067,-84.4226699469371
"45215","Cincinnati","OH","Bridgeway Pointe","165 W Galbraith Rd","45216",39.212683,-84.482413
"45216","Cincinnati","OH","Summit behavioral health","1101 Summit Rd","45237",39.19502256489664,-84.47082216409768
"45217","Cincinnati","OH","CFD Ambulance 9","reading rd","45229",39.15244102478027,-84.48447167873383
"45219","Cincinnati","OH","Good Samaritan Hospital","375 Dixmyth Ave","45220",39.13984085314015,-84.52099263100273
"45219","Cincinnati","OH","Veterans Hospital Cincinnati","3200 Vine St","45220",39.13889820749659,-84.50846672058105
"45219","Cincinnati","OH","UC Health Holmes Hospital","3223 Albert Sabin Way","45267",39.1401899583978,-84.50430146384883
"45219","Cincinnati","OH","University Hospital ER","234 Goodman St","45219",39.136908371411685,-84.50309354065067
"45219","Cincinnati","OH","UC ACTU","200","45229",39.13588018980238,-84.50920489605528
"45220","Cincinnati","OH","SICU 2nd Floor (UC Hospital)","234 Goodman St, University Medical College, Cincinnati, OH 45219","45219",39.13722134381099,-84.50280820728352
"45223","Cincinnati","OH","Cincinnati Children's Hospital - College Hill","5642 Hamilton Ave","45224",39.19266359839474,-84.5443747141388
"45223","Cincinnati","OH","UC Vascular Lab","not_available","45223",39.159053802490234,-84.56407928466797
"45224","Cincinnati","OH","The Christ Hospital Physicians - Obstetrics & Gynecology","8250 Winton Rd. Suite 210","45231",39.21699523925781,-84.51792907714844
"45226","Cincinnati","OH","Cincinnati Children's MOB","not_available","45230",39.094594,-84.376206
"45227","Cincinnati","OH","Bryan Medical Inc.","5725 Dragon Way Ste 300","45227",39.140946461169904,-84.39212286242673
"45227","Cincinnati","OH","Mercy Medical Office Building I X-Ray/Lab","not_available","45255",39.14099009045675,-84.35942927260747
"45227","Cincinnati","OH","The Christ Hospital Physical & Occupational Therapy","4408 Red Bank Expressway","45227",39.1543861,-84.40436
"45227","Cincinnati","OH","The Christ Hospital Urgent Care","4440 Red Bank Rd Ste 110","45227",39.154612,-84.403714
"45230","Cincinnati","OH","Mercy Health - Anderson Hospital","7500 State Road","45255",39.08553187,-84.34881959
"45230","Cincinnati","OH","Beechmont Urgent Care","7300 Beechmont Ave","45230",39.07316104957074,-84.3555527784014
"45230","Cincinnati","OH","Mercy Health - Anderson Hospital Emergency Department","7500 State Rd","45255",39.085837,-84.348972
"45231","Cincinnati","OH","The Little Clinic","7132 Hamilton Ave","45231",39.2242334,-84.5476539
"45231","Cincinnati","OH","Carefirst Urgent Care","8464 Winton Rd","45231",39.221169,-84.517458
"45231","Cincinnati","OH","Family Foot & Ankle Center, Inc","8474 Winton Rd","45231",39.221468,-84.517306
"45231","Cincinnati","OH","Mercy Hospital","pippin rd","45231",39.27029728889465,-84.56661701202393
"45233","Cincinnati","OH","St. Elizabeth Florence WE","not_available","41042",39.09109132391389,-84.70574451425398
"45233","Cincinnati","OH","urgent care","2091 N Bend Rd, Hebron, KY 41048","41048",39.08674701580243,-84.71183301874804
"45233","Cincinnati","OH","Hometown Urgent Care","not_available","41048",39.086991,-84.712154
"45233","Cincinnati","OH","St Elizebeth Urgent Care","2091 N Bend Rd","41048",39.086798,-84.711774
"45236","Cincinnati","OH","Tri Health Imagjng","8240 Northcreek Dr","45236",39.20712661743164,-84.37004852294922
"45236","Cincinnati","OH","Jewish Hospital - Mercy Health Emergency Department","4777 E Galbraith Rd","45236",39.206064,-84.3808
"45236","Cincinnati","OH","Childrens Mri Kenwood","not_available","45236",39.19670074606895,-84.3851873670936
"45236","Cincinnati","OH","Define Skin Care & Esthetics","4856 Hunt Rd","45242",39.228416,-84.375989
"45236","Cincinnati","OH","Mercy Health - The Jewish Hospital","4777 East Galbraith Road","45236",39.20593558,-84.38106269
"45236","Cincinnati","OH","The Dermatology Group","9403 Kenwood Rd Ste B100","45242",39.2265876,-84.3793301
"45236","Cincinnati","OH","Mercy Health - The Heart Institute, Kenwood","4760 East Galbraith Road","45236",39.20776173,-84.38027959
"45236","Cincinnati","OH","Warby Parker","7875 Montgomery Rd, Space 2213","45236",39.2025796,-84.3771116
"45239","Cincinnati","OH","Doctors Urgent Care","5920 Colerain Ave","45239",39.2022059,-84.5800979
"45239","Cincinnati","OH","Mercy Mount Airy OR Lounge","not_available","45239",39.20454249193583,-84.57067764139549
"45239","Cincinnati","OH","Mercy Hospital Security Office","2446 Kipling Ave","45239",39.204612731933594,-84.57086944580078
"45239","Cincinnati","OH","Mercy Mt Airy Hospital ER","Pippin Rd","45251",39.204962478277245,-84.57177240304947
"45241","Cincinnati","OH","Hospice","Cooper","45242",39.238319396972656,-84.3885269165039
"45241","Cincinnati","OH","Crossroads Hospice & Palliative Care","4380 Glendale-Milford Rd.","45242",39.255117999999996,-84.386916
"45241","Cincinnati","OH","Montgomery Profesnl Associates Inc","4422 Carver Woods Dr","45242",39.245487213134766,-84.38591003417969
"45242","Cincinnati","OH","Bethesda North Hospital","10500 Montgomery Rd","45242",39.251530699536815,-84.3413758277893
"45242","Cincinnati","OH","Med+ Urgent Care","Montgomery 3d","45242",39.22980327058394,-84.35379158501075
"45242","Cincinnati","OH","Bethesda North ICU","Montgomery Rd, Cincinnati, OH","45236",39.25254602056588,-84.3408300508217
"45242","Cincinnati","OH","Bethesda North maternity ward","not_available","45242",39.25182591664076,-84.34091736068316
"45242","Cincinnati","OH","Bethesda Surgery Center","10615 Montgomery Rd","45242",39.255464,-84.344205
"45242","Cincinnati","OH","Trihealth Connect Training","10475 Pfeiffer Rd, Montgomery, OH 45242","45242",39.24977915664086,-84.3455702760921
"45242","Cincinnati","OH","B. NORTH HOSPITAL","montgomery  rd","not_available",39.22707605,-84.354647
"45244","Cincinnati","OH","Mercy Health Eastgate Medical Center","601 Ivy Gateway","45245",39.08885476,-84.28548399
"45244","Cincinnati","OH","Paw Prints Animal Hospital","3520 Church St","45244",39.125138,-84.361153
"45244","Cincinnati","OH","Anderson Hills Animal Care Hospital","eight mile rd","not_available",39.08867972619891,-84.32168039727435
"45244","Cincinnati","OH","The Dermatology Group","4450 Eastgate Blvd. Suite 232","45245",39.09371566772461,-84.27386474609375
"45244","Cincinnati","OH","Premier Urgent Care","4530 Eastgate Blvd Ste B-616","45245",39.1015625,-84.27210998535156
"45245","Cincinnati","OH","Eastside Urgent Care","872 Ohio Pike","45245",39.063225,-84.274693
"45245","Cincinnati","OH","Urgent Care","not_available","45245",39.06308843,-84.2748104
"45246","Cincinnati","OH","UC Health","11590 Century Blvd","45246",39.28594230520208,-84.45277822486614
"45246","Cincinnati","OH","Doctor's Urgent Care","360 Glensprings Dr","45246",39.2921438,-84.48475599999999
"45247","Cincinnati","OH","Colerain Urgent Care","3645 Stonecreek Blvd Unit D","45251",39.25234469999999,-84.59986909999999
"45247","Cincinnati","OH","The Little Clinic","3636 Springdale Rd","45251",39.24836730957031,-84.5990982055664
"45248","Cincinnati","OH","Mercy Health - The Heart Institute, Bridgetown","5525 Marie Ave","45248",39.1600404,-84.63151609
"45248","Cincinnati","OH","The Little Clinic","5910 Harrison Ave","45248",39.1771419,-84.6412533
"45248","Cincinnati","OH","Carefirst Urgent Care","5505 Harrison Ave","45248",39.164085388183594,-84.6304702758789
"45248","Cincinnati","OH","The Christ Hospital Physical & Occupational Therapy","5649 Harrison Ave. Suite C","45248",39.167136,-84.636522
"45249","Cincinnati","OH","Bethesda North OR","10475 Montgomery Rd","45242",39.249691999999996,-84.345271
"45302","Anna","OH","Wilson Health - Anna Office","104 Diamond Dr","45302",40.39075,-84.17363
"45304","Arcanum","OH","Arcanum Rescue","2698-2700 Ohio 503","45331",39.99705061666667,-84.62447278333333
"45305","Bellbrook","OH","MVH South Emergency Department","Miami Valley Dr","45459",39.65220625530487,-84.11364088261686
"45305","Bellbrook","OH","Waren""s","3768 Polo Trace Ct","45305",39.639488220214844,-84.0807113647461
"45305","Bellbrook","OH","Far Hills Surgery Center","Clyo Rd","45459",39.659020283333334,-84.10459111666667
"45305","Bellbrook","OH","Bellbrook High School Training Room","not_available","45305",39.642912,-84.100015
"45305","Bellbrook","OH","Riverscape Counseling","6239 Wilmington Pike","45459",39.648922999999996,-84.110576
"45305","Bellbrook","OH","miami valley south ER","Miami Valley Drop","45459",39.647963438448855,-84.10839397953295
"45306","Botkins","OH","Wilson Health - Botkins Office","111 E Lynn St","45306",40.4706051,-84.1812982
"45315","Clayton","OH","Hometown Urgent Care-Clayton","210 Smith Dr","45315",39.85725,-84.328965
"45315","Clayton","OH","The Little Clinic","885 Union Road","45322",39.862562,-84.3134825
"45318","Covington","OH","Stanfield Medical Office","31 S Stanfield Rd","45373",40.05370330810547,-84.24010467529297
"45318","Covington","OH","Insane Asylum","2317 W Main St","45373",40.05895233154297,-84.24608612060547
"45318","Covington","OH","Kestrel Urgent Care","100 N Sunset Dr","45356",40.14396286010742,-84.26902770996094
"45318","Covington","OH","The Little Clinic","1510 Covington Ave","45356",40.14335960604324,-84.26505021361692
"45320","Eaton","OH","Emergency Center - Kettering Health Network","450 Washington Jackson Rd","45320",39.766841888427734,-84.64595031738281
"45320","Eaton","OH","West Alex Ems","8 Marty Ln","45381",39.743807000000004,-84.540617
"45322","Englewood","OH","Samaritan Breast Center","not_available","45414",39.85535356834616,-84.27188184930402
"45322","Englewood","OH","Remicade Infusion Room at Good Sam North","not_available","45415",39.854385,-84.273106
"45322","Englewood","OH","Premier Health Urgent Care","not_available","45322",39.86186,-84.282354
"45324","Fairborn","OH","Wright Patterson Medical Center","4881 Sugar Maple Dr","45433",39.80490657958758,-84.03755641387643
"45324","Fairborn","OH","Soin Medical Center","3535 Pentagon Blvd","45431",39.77085744123349,-84.06238042246937
"45324","Fairborn","OH","Doctors' Urgent Care Office","2131 Gateway Dr","45324",39.782035,-84.002169
"45324","Fairborn","OH","The Super Cool Official Office","not_available","45324",39.807611,-84.019516
"45324","Fairborn","OH","AMR - Dayton HQ","8261 OH 235","45414",39.87477702938275,-84.05451954670747
"45324","Fairborn","OH","Mercy Health - Dayton Springfield Emergency Center","1840 Springfield Road","45324",39.84588163,-83.99160918
"45324","Fairborn","OH","Beavercreek Hospital","Pentagon Blvd","not_available",39.77077112518677,-84.06086856519289
"45324","Fairborn","OH","Orthopedic Center at Dayton Childrens","not_available","45424",39.771898706481366,-84.07176547543737
"45331","Greenville","OH","Wayne Hospital","not_available","45331",40.08903015450714,-84.63459443407454
"45331","Greenville","OH","Bethel Cardiology of Greenville","130 Martz St Ste B","45331",40.090179157696454,-84.63662266731261
"45331","Greenville","OH","AccessMD Urgent Care","1403 Wagner Ave","45331",40.12327333,-84.62098
"45331","Greenville","OH","Miami Valley Hospital","1 Wyoming St","45409",40.08225298333333,-84.63351931666666
"45331","Greenville","OH","Spirit Medical Transport","5449 Dayton Rd","45331",40.07723239088638,-84.63420971452231
"45342","Miamisburg","OH","Sycamore Medical Center","4000 Miamisburg-Centerville Rd","45342",39.63784528156668,-84.24922169989182
"45342","Miamisburg","OH","Kettering Behavioral Medicine Center","5348 Lamme Rd","45439",39.67581925194609,-84.20996034960957
"45342","Miamisburg","OH","Southview Medical Center","1997 Miamisburg-Centerville Rd","45459",39.63662415301449,-84.204486180081
"45342","Miamisburg","OH","Hometown Urgent Care","8210 N Springboro Pike","45342",39.631103,-84.22532
"45342","Miamisburg","OH","Southview Medical Center: Emergency Room","1997 Miamisburg Centerville Rd","45459",39.6357421875,-84.2033462524414
"45342","Miamisburg","OH","PAM Specialty Hospital of Dayton","4000 Miamisburg Centerville Rd","45342",39.637939453125,-84.24961853027344
"45342","Miamisburg","OH","Access Md Urgent Care","8210 Springboro Pike","45342",39.630924,-84.22535
"45342","Miamisburg","OH","The Dermatology Group","2835 Miami Village Dr.","45342",39.608341217041016,-84.22638702392578
"45342","Miamisburg","OH","Premier Urgent Care","8 Prestige Plaza Dr","45342",39.638046,-84.2276
"45342","Miamisburg","OH","LifeCare Hospital","not_available","45342",39.63629150390625,-84.24952697753906
"45342","Miamisburg","OH","Fast Twitch Sports Performance","7677 Yankee St","45459",39.635692,-84.200866
"45342","Miamisburg","OH","Huber Health","not_available","45377",39.67120188378487,-84.21927798938202
"45342","Miamisburg","OH","MVH Austin Emergency Care Center","300 Austin West Blvd","45342",39.59733581542969,-84.2430419921875
"45342","Miamisburg","OH","The Little Clinic","155 N Heineke Rd","45342",39.6416689,-84.2660154
"45344","New Carlisle","OH","Honeycreek Urgent Care","432 N Main St","45344",39.943733,-84.023676
"45356","Piqua","OH","Heartland of Piqua","275 Kienle Dr","45356",40.148161,-84.207076
"45356","Piqua","OH","A Pod At U.V.M.C.","not_available","45356",40.13153100946056,-84.23662397962796
"45356","Piqua","OH","Spirit Medical Transport Sidney Station","2901 Fair Rd","45365",40.24758529663086,-84.20171356201172
"45356","Piqua","OH","St. Ritas Medical Center","not_available","45373",40.10029220581055,-84.22825622558594
"45365","Sidney","OH","Wilson Memorial Hospital","915 W Michigan St","45365",40.2867503186116,-84.16970275683612
"45365","Sidney","OH","Hometown Urgent Care","not_available","45365",40.288601,-84.178551
"45365","Sidney","OH","Wilson Health","915 West Michigan Street","45365",40.28787,-84.1691
"45368","South Charleston","OH","urgent care","not_available","45505",39.921955,-83.769366
"45368","South Charleston","OH","Springfield Regional Medical Center","2615 E High St","45505",39.92052176544219,-83.76988454346932
"45368","South Charleston","OH","NUH ENT Clinic","South Bueno Vista Road","not_available",39.891941,-83.63957
"45371","Tipp City","OH","The Little Clinic","780 Northwoods Blvd","45377",39.8996067,-84.184315
"45373","Troy","OH","Upper Valley Medical Center","3130 N County Road 25A","45373",40.086309921472484,-84.23082594914047
"45373","Troy","OH","Upper Valley Medical Center ER","3130 N County Road 25A, Troy, OH 45373","45373",40.08545436825211,-84.23013869272503
"45373","Troy","OH","Troy Hospital - Kettering Health Network","600 W Main St","45373",40.04292678833008,-84.20947265625
"45373","Troy","OH","surgery 2nd floor","3825 N. Co. Rd. 25a","45373",40.08541906467792,-84.23008959482534
"45373","Troy","OH","Urgent Care","2-34 S Norwich Rd","45373",40.04897255,-84.22631441
"45373","Troy","OH","UVMC Room 1216","not_available","45339",40.08578215854984,-84.23006901295453
"45373","Troy","OH","UVMC Detmer Building","Ohio Bicycle Route 25, Troy, OH 45373","45373",40.08683610275303,-84.22559228727978
"45373","Troy","OH","Hometown Urgent Care","Main St","45373",40.04893183708191,-84.22640562057495
"45385","Xenia","OH","Greene Memorial Hospital","1141 N Monroe Dr","45385",39.700218,-83.927822
"45385","Xenia","OH","Hometown Urgent Care","101 S Orange St","45385",39.682573,-83.939447
"45385","Xenia","OH","The Little Clinic","3165 Dayton Xenia Rd","45434",39.72535271142636,-84.05431909777178
"45387","Yellow Springs","OH","Singapore General Hospital Carpark","Sgh","45502",39.84029,-83.844514
"45387","Yellow Springs","OH","Sgh Radiology","SGH","45502",39.84029,-83.844514
"45390","Union City","OH","Wayne Hospital","not_available","45390",40.19431859034869,-84.79940414796668
"45402","Dayton","OH","Berry Women's Center","101 Wyoming St","45409",39.74550712929969,-84.18488502502441
"45402","Dayton","OH","Grandview Medical Center","405 W Grand Ave","45405",39.76983199013201,-84.2028226838584
"45402","Dayton","OH","Miami Hospital Orthopedic","not_available","45409",39.745031,-84.185542
"45402","Dayton","OH","Doctor's Urgent Care Office","N Main St","not_available",39.761692,-84.192743
"45402","Dayton","OH","Kettering Medical Center Mother/Baby","not_available","45429",39.75976251460372,-84.19124412171521
"45402","Dayton","OH","Concentra Urgent Care","228 Troy St","45404",39.7729061,-84.1746912
"45402","Dayton","OH","Alpha Choice Urgent Care","not_available","45459",39.763446,-84.193437
"45402","Dayton","OH","Riverview Health Institute","1 Elizabeth Pl","45417",39.748146946397135,-84.1993735467659
"45403","Dayton","OH","Childrens Medical Center Emergency Room","not_available","45404",39.774383544921875,-84.16808319091797
"45403","Dayton","OH","Department of Pediatric Neurology - Dayton Children's Hospital","1 Childrens Plaza","45404",39.77477107,-84.16710808
"45404","Dayton","OH","Dayton Children’s Tech Town","241 Taylor Ave","45402",39.76670837402344,-84.18212890625
"45405","Dayton","OH","Riverside Nursing & Rehab","1390 King Tree Dr","45405",39.80658,-84.209324
"45405","Dayton","OH","Good Samaritan Registration & Financial Counseling","2222 Philadelphia Dr","45406",39.787689208984375,-84.23353576660156
"45405","Dayton","OH","Good Samaritan Hospital ( Fifth Floor Remodel)","not_available","45406",39.78793934634263,-84.23715390227312
"45405","Dayton","OH","St. Elizabeths Hospital","not_available","45405",39.772132873535156,-84.20735931396484
"45409","Dayton","OH","Concentra","1435 Cincinnati St","45417",39.735497,-84.207695
"45409","Dayton","OH","Center Of Nursing Excellence","1 Apple St.","45409",39.7457307955924,-84.1863628468167
"45409","Dayton","OH","Dayton Heart Hospital","707 S Edwin C Moses Blvd","45417",39.7467041015625,-84.19788360595703
"45409","Dayton","OH","The Medical Center","not_available","45408",39.7485613230405,-84.19863221370792
"45410","Dayton","OH","The Rehabilitation Institute of Ohio, a joint venture between Premier Health and Encompass Health","835 S Main St","45402",39.74716009999999,-84.1887527
"45414","Dayton","OH","Doctors Urgent Care","5915 N Main St","45415",39.821015,-84.237955
"45417","Dayton","OH","Dayton VA Medical Center","4100 W 3rd St","45428",39.74192010903998,-84.264430832802
"45417","Dayton","OH","MedVet Dayton","not_available","45439",39.714817443467275,-84.21884440358347
"45417","Dayton","OH","Drug & Alcohol Rehab Dayton","2350 Dryden Rd","45439",39.723048999999996,-84.216279
"45417","Dayton","OH","Liberty Home Health Care & Transportation LLC","1840 W 3rd St","45417",39.753824,-84.22528
"45417","Dayton","OH","St. E's Urgent Care","613-631 S Edwin C Moses Blvd","45402",39.74884785155922,-84.19922425126423
"45419","Dayton","OH","Kettering Medical Center","3535 Southern Blvd","45429",39.69505919382883,-84.19207301326216
"45419","Dayton","OH","Cardiac Rehabilitation & Wellness Center","3533 Southern Blvd","45429",39.69725799560547,-84.1923828125
"45419","Dayton","OH","Benjamin and Marian Schuster Heart Hospital","3536 Southern Blvd","45429",39.69722886024167,-84.1919495050932
"45419","Dayton","OH","Arkham Asylum","1100 Gardner Rd","45429",39.691868,-84.147305
"45419","Dayton","OH","3 South Kettering Medical Center","Southern Blvd","45429",39.696514,-84.192403
"45420","Dayton","OH","Doctors Urgent Care Office","3604 Wilmington Pike","45429",39.694516,-84.138035
"45420","Dayton","OH","Hometown Urgent Care","Woodman","45432",39.694713180526776,-84.13635837613417
"45420","Dayton","OH","AccessMD Urgent Care","Woodman Dr.","not_available",39.74261580523064,-84.12555045373996
"45420","Dayton","OH","The Little Clinic","2115 E Dorothy Ln","45420",39.70445030536865,-84.12500626432
"45420","Dayton","OH","Treatment Center Ohio","2312 Far Hills Ave","45419",39.710289001464844,-84.17060089111328
"45424","Dayton","OH","Huber Heights Emergency Department","8701 Troy Pike","45424",39.879953548102364,-84.13743634865376
"45424","Dayton","OH","Hometown Urgent Care","6246 Brandt Pike","45424",39.84274,-84.11536600000001
"45424","Dayton","OH","Huber Heights ER","Old Troy Pike","45424",39.86646886334124,-84.13875987278509
"45424","Dayton","OH","Huber Health Center Urgent Care","Old Troy Pike","not_available",39.878529230539435,-84.13733753871746
"45424","Dayton","OH","Emergency Center - Kettering Health Network","8701 Old Troy Pike","45424",39.87937,-84.13769
"45430","Dayton","OH","Crestview Manor","4381 Tonawanda Trl","45430",39.697498083114624,-84.09857149
"45431","Dayton","OH","GMH Urgent Care","not_available","45431",39.7550185917731,-84.05860595749199
"45431","Dayton","OH","AccessMD Urgent Care","1010 Woodman Dr","45432",39.75154,-84.119154
"45440","Dayton","OH","MVHS Miami Valley Hospital South","2400 Miami Valley Dr","45459",39.652527393002664,-84.11447250852653
"45440","Dayton","OH","Miami Valley South","2400 Miami Valley South Maternity Center","45459",39.65252471411213,-84.1159209791857
"45440","Dayton","OH","Clinical Neuroscience Centet","2300 Miami Valley Dr","45459",39.652425,-84.114809
"45440","Dayton","OH","ER Rm 18","not_available","45440",39.65487998170961,-84.11800901229799
"45458","Dayton","OH","dayton bariatric","7740 Washington Village Dr","45005",39.632909367780364,-84.19240774239317
"45458","Dayton","OH","Fire Science Investigations","92 Westpark Rd","45459",39.631365,-84.142926
"45458","Dayton","OH","Crossroads Hospice & Palliative Care","8069 Washington Village Dr.","45458",39.627545,-84.197305
"45459","Dayton","OH","Liberty Nursing Centers of Ohio","7445 Liberty Woods Ln","45459",39.63999938964844,-84.18417358398438
"45459","Dayton","OH","Midwest Medical Systems","655 Congress Park Dr","45459",39.63519,-84.18045
"45502","Springfield","OH","Mercy Health - Springfield Regional Medical Center","100 Medical Center Drive","45504",39.92853303,-83.81641078
"45502","Springfield","OH","Springfield Regional Pediatric Rehab","not_available","45503",39.95861,-83.801819
"45502","Springfield","OH","Communty Mercy Health Partners Regional Offices","1 South Limestone Street Suites 600 & 900","45502",39.924236,-83.808921
"45502","Springfield","OH","Heartland of Springfield","2615 Derr Rd","45503",39.9575294,-83.78678395
"45502","Springfield","OH","Northridge Urgent Care","2220 Grube St","45503",39.951952,-83.801912
"45502","Springfield","OH","The Porcelain Throne","not_available","45502",39.899653,-83.915817
"45502","Springfield","OH","Behavioral Health Rehabilitation","1086 Mound St","45505",39.919681549072266,-83.79279327392578
"45502","Springfield","OH","Hometown Urgent Care","W. First st","45504",39.940943944190025,-83.8312913264033
"45601","Chillicothe","OH","family urgent care","not_available","45601",39.353580474853516,-82.97599029541016
"45601","Chillicothe","OH","Adena Emergency Room","4439 State Route 159 Ste 130","45601",39.39546193607668,-82.96951719537066
"45601","Chillicothe","OH","Heartland of Chillicothe","1058 Columbus St","45601",39.33045575,-82.95113101
"45601","Chillicothe","OH","Pike Adena ER","not_available","45690",39.1167010309049,-83.00421972650764
"45601","Chillicothe","OH","Adena Finanical Service Building","110 Vaughn Ln","45601",39.39348229160775,-82.96934645050102
"45601","Chillicothe","OH","Adena Medical Office Building","4439 State Route 159","45601",39.3970832824707,-82.96630859375
"45601","Chillicothe","OH","Adena Health Center","12340 State Route 104","45690",39.11771774291992,-82.99697875976562
"45601","Chillicothe","OH","Adena Health and Wellness Center - Main Campus","4457 OH-159","45601-8620",39.33265987259642,-82.9821681978501
"45601","Chillicothe","OH","Adena","272 Hospital Rd","45601",39.39623260498047,-82.96835327148438
"45601","Chillicothe","OH","VA Medical Center","17273 State Route 104","45601",39.328452060242974,-82.99238659284114
"45601","Chillicothe","OH","Adena Cancer Center","Hospital Rd","45601",39.39980189830416,-82.96826773285582
"45601","Chillicothe","OH","Pike Community Hospital","Dawn Lane","45690",39.115994641583,-83.00409904448874
"45614","Bidwell","OH","Allergy Department-hmc","not_available","45614",38.847272,-82.23716
"45614","Bidwell","OH","Holzer Clinic 850","St.Rt.850","45614",38.88861111111111,-82.38069444444444
"45614","Bidwell","OH","Holzer - Gallipolis Medical Center","100 Jackson Pike","45631",38.846751511772354,-82.237465733343
"45619","Chesapeake","OH","St. Mary's Medical Center","2900 1st Ave","25702",38.43175774264158,-82.40090105990113
"45619","Chesapeake","OH","St. Mary's Medical Center Outpatient Radiology","not_available","25702",38.43044362318107,-82.40095399944295
"45619","Chesapeake","OH","St. Marys ER","not_available","25703",38.43023873493953,-82.39997655249368
"45619","Chesapeake","OH","River Park Hospital","1230 6th Ave","25701",38.419577000000004,-82.436851
"45619","Chesapeake","OH","Three Gables Surgery Center","5897 County Road 107","45669",38.44168505757132,-82.39291731602533
"45638","Ironton","OH","Sleep Durable Medical Equipment","not_available","41169",38.509718,-82.69171
"45638","Ironton","OH","Our Lady Of Bellefonte Hospital","1000 Saint Christopher Dr","41101",38.50863583940444,-82.69291090647829
"45638","Ironton","OH","Kings daughters Urgent Care","Winchester","not_available",38.49787659383703,-82.70298926730322
"45638","Ironton","OH","Portsmouth Ambulance #3","not_available","45638",38.520249957841386,-82.66888969863821
"45638","Ironton","OH","Kings Daughters IV Therapy","Lexington ave","41101",38.497923683461686,-82.70308941086064
"45638","Ironton","OH","OLBH","St Christopher Dr","41101",38.50841552579381,-82.6926947745963
"45638","Ironton","OH","Greenup Emergency Medical Services","not_available","41139",38.52170944213867,-82.71624755859375
"45638","Ironton","OH","St. Mary's Family Medical Campus","Campbell Drive","45638",38.52674123586905,-82.6623029454352
"45638","Ironton","OH","KDMC Urgent Care","9th Street","45638",38.5380800252811,-82.67786964763336
"45638","Ironton","OH","HVIU","not_available","41101",38.494816883333336,-82.66947675
"45638","Ironton","OH","Ironton Urgent Care","1005 E Ring Rd","45638",38.542173,-82.67392199999999
"45640","Jackson","OH","Holzer Clinic Urgent Care -- Jackson","2800 Pattonsville Rd","45640",39.05632019042969,-82.57240295410156
"45640","Jackson","OH","MedFlight 3","not_available","45692",39.12136,-82.536592
"45640","Jackson","OH","Life Ambulance, A First Med EMS Company","not_available","45640",39.027233,-82.621122
"45662","Portsmouth","OH","SOMC Emergency Services","Southern Ohio Medical Center","45662",38.75247683707655,-82.97793388366699
"45662","Portsmouth","OH","SOMC Urgent Care Center Portsmouth","1248 Kinneys Ln","45662",38.74643145073691,-82.98738062381744
"45662","Portsmouth","OH","Somc Hospital","not_available","45662",38.754669571524374,-82.97995296155585
"45662","Portsmouth","OH","King's Daughters Medical Center Ohio","2001 Scioto Trl","45662",38.7482,-82.9927
"45679","Seaman","OH","Adams County Regional Medical Center","not_available","45679",38.933937020592964,-83.58474439014256
"45679","Seaman","OH","The Christ Hospital Physicians - Ohio Heart & Vascular","230 Medical Center Dr.","45679",38.93400192260742,-83.58463287353516
"45680","South Point","OH","Heartland of Riverview","7743 Co Rd 1","45680",38.40936478,-82.5241719
"45693","West Union","OH","Somc Urgent Care","not_available","45693",38.787273,-83.55795
"45694","Wheelersburg","OH","Room 4 @Urgent Care","not_available","45694",38.719518,-82.857705
"45694","Wheelersburg","OH","SOMC Urgent Care Center Wheelersburg","8770 Ohio River Rd","45694",38.71942185,-82.85777628421783
"45701","Athens","OH","Holzer Clinic Urgent Care","2131 E State St","45701",39.33293151855469,-82.02742767333984
"45701","Athens","OH","Uptown Clinic powered by Holzer","5 N Court St","45701",39.32940953936098,-82.10135042667387
"45701","Athens","OH","OhioHealth Urgent Care Athens","265 W Union St Ste A","45701",39.32934314946186,-82.11268763558189
"45701","Athens","OH","UMA Express Care","265 W Union St","45701",39.329373,-82.11259705
"45714","Belpre","OH","Wvu Medicine Camden Clark Cardio Rehab","not_available","26101",39.271283,-81.559898
"45750","Marietta","OH","Marietta Memorial Hospital","401 Matthew St","45750",39.431734865775766,-81.4640736579895
"45750","Marietta","OH","Selby General Hospital","1106 Colegate Dr","45750",39.44041773155213,-81.44452462439449
"45750","Marietta","OH","Arbors Of Marietta Subacute & Rehab Center","400 N 7th St","45750",39.42243194580078,-81.44957733154297
"45750","Marietta","OH","Spine Center At MMH","not_available","45750",39.43160062819907,-81.46383509060968
"45750","Marietta","OH","Strecker Cancer Center","Matthews St","45750",39.432092503789924,-81.46396916097281
"45760","Middleport","OH","Meigs County EMS","not_available","45769",39.03743299125545,-82.0459626373238
"45771","Racine","OH","EMS charts Computer","not_available","45771",38.968265,-81.916669
"45801","Lima","OH","Lima Memorial Health System","1001 Bellefontaine Ave","45804",40.73564102215193,-84.08622973827363
"45801","Lima","OH","Regional Cancer Center","803 W Market St","45805",40.7396125793457,-84.11962127685547
"45801","Lima","OH","St. Rita's Medical Center","730 W Market St","45801",40.74116313610133,-84.11869979198427
"45801","Lima","OH","Home Health/Hospice","959 W North St","45805",40.74217224121094,-84.12132263183594
"45801","Lima","OH","St. Rita's Medical Center","not_available","45801",40.745469303802196,-84.00339000390291
"45801","Lima","OH","Mercy Health - Eastside Urgent Care","967 Bellefontaine Ave","45804",40.73647689819336,-84.0879898071289
"45801","Lima","OH","Lima Memorial Occupational Health","1220 E Elm St","45804",40.73745346069336,-84.08660888671875
"45801","Lima","OH","Saint Rita's Medical Center","830 W High St","45801",40.74197769165039,-84.11791229248047
"45801","Lima","OH","LMH OUTPATIENT TREATMENT UNIT","not_available","45804",40.73617696890393,-84.08481647876734
"45801","Lima","OH","St. Rita's Urgent Care","not_available","45807",40.73692495549628,-84.08810715591517
"45801","Lima","OH","Bluffton Hospital With Pain Center","Garau","not_available",40.790542,-84.013636
"45801","Lima","OH","St. Rita's Labor & Delivery","not_available","45805",40.74004357706041,-84.12751942361504
"45804","Lima","OH","Orthopaedic Institute of Ohio","801 Medical Dr Ste A","45804",40.6971294,-84.08759069999999
"45804","Lima","OH","Tb Ward","here in Lima ohio","45804",40.68661914195858,-84.13210141020893
"45805","Lima","OH","Baton Rouge","2440 Baton Rouge","45805",40.77214491835464,-84.1444746365121
"45805","Lima","OH","Mercy Health - Westside Urgent Care","2195 Allentown Rd.","45805",40.7486104,-84.1498205
"45805","Lima","OH","BioLife Plasma Services","4299 Elida Rd","45807",40.7786254,-84.1838533
"45805","Lima","OH","Westside Luke Urgent Care Center","2195 Allentown Rd","45805",40.74866823333333,-84.14996611666666
"45817","Bluffton","OH","Bluffton Hospital","139 Garau St","45817",40.88750178596679,-83.89741122722631
"45817","Bluffton","OH","Alison Niemeyer, DPM","139 Garau Street","45817",40.8874222,-83.8974049
"45817","Bluffton","OH","Alison Niemeyer, DPM","1740 North Perry Street","45875",40.887573,-83.897497
"45822","Celina","OH","Doctors' Urgent Care Center","940 South Main","45822",40.53907553905872,-84.57457571719954
"45822","Celina","OH","Mercer County Community Hospital","800 W Main St","45828",40.48048782348633,-84.63914489746094
"45833","Delphos","OH","Mercy Health - Delphos Urgent Care","1800 East 5th Street","45833",40.84764005,-84.31676412
"45833","Delphos","OH","vancrest health care center","not_available","45833",40.84632873535156,-84.32330322265625
"45833","Delphos","OH","Ridgeview Hospital","Lincoln Highway","45863",40.871665954589844,-84.44541931152344
"45840","Findlay","OH","Blanchard Valley Hospital","1900 S Main St","45840",41.017843976259314,-83.65166622453694
"45840","Findlay","OH","The Findlay Surgery Center","1709 Medical Blvd","45840",41.021838,-83.66149
"45840","Findlay","OH","Blanchard Valley Urology Associates","1651 North Lake Court","45840",41.020277,-83.654088
"45840","Findlay","OH","Clara Rimmer, MD","1900 South Main Street 3rd Floor Suite R330","45840",41.01785,-83.651653
"45840","Findlay","OH","Daniel J. and Maria H. Sak Sleep Wellness Center","1909 South Main Street","45840",41.016822,-83.649839
"45840","Findlay","OH","Blanchard Valley Orthopedics & Sports Medicine","1721 Medical Blvd Suite D","45840",41.02077095075136,-83.66122815016752
"45840","Findlay","OH","Ailing Chen, MD","1800 N Blanchard St Suite 121","45840",41.061679734075064,-83.64272909006104
"45840","Findlay","OH","ENT & Allergy Specialists of Northwest Ohio","1110 W Main Cross St Suite G","45840",41.0416931,-83.6670488
"45840","Findlay","OH","Promedica Urgent Care","7595 County Road 236","45840",41.057823181152344,-83.59172821044922
"45840","Findlay","OH","Rafid Fadul, MD","1900 South Main Street","45840",41.01785,-83.651653
"45840","Findlay","OH","Heart & Vascular Specialists of Northwest Ohio","1900 South Main Street Third Floor CDS, Sui","45840",41.017700326369244,-83.65180268883705
"45840","Findlay","OH","Infectious Disease","1818 Chapel Dr. Suite C","45840",41.017484857490636,-83.6534010932541
"45840","Findlay","OH","Pulmonary & Critical Care Medicine","1900 S Main St Suite A4","45840",41.0178,-83.65490799999999
"45840","Findlay","OH","Physicians Plus Urgent Care","3949 North Main Street","45840",41.08734425562688,-83.6492553261084
"45840","Findlay","OH","Syed Muhammad Ashraf, MD","15990 Medical Drive South","45840",41.05838394165039,-83.57474517822266
"45840","Findlay","OH","Neurosurgical Associates of Northwest Ohio","1641 N Lake Drive Suite C","45840",41.020267,-83.654547
"45840","Findlay","OH","BioLife Plasma Services","1789 East Melrose Avenue","45840",41.065227800185966,-83.61809409906081
"45840","Findlay","OH","Maria Slack, MD","1110 W Main Cross St","45840",41.04189,-83.6672
"45840","Findlay","OH","Ajit Chary, MD","1900 South Main Street Ruse Building, Ste R","45840",41.01785,-83.651653
"45840","Findlay","OH","ProMedica Urgent Care - Findlay","15054 E US Route 224","45840",41.05660629272461,-83.59125518798828
"45840","Findlay","OH","Anibal Lugo, MD","1641 North Lake Court","45840",41.0202864,-83.6545009
"45840","Findlay","OH","bridge hospice care center","not_available","45840",41.0175423985266,-83.6518388219979
"45845","Fort Loramie","OH","Wilson Health - Ft. Loramie & Minster Office","11531 State Route 66","45865",40.363807678222656,-84.37677764892578
"45863","Middle Point","OH","Ridgeview Behavioral Hospital","17872 Lincoln Hwy","45863",40.87739787089262,-84.47882571296691
"45874","Ohio City","OH","Van Wert County Hospital","1250 S Washington St","45891",40.851878172716845,-84.57940958113484
"45874","Ohio City","OH","er","not_available","45891",40.86233424873437,-84.58772595283303
"45875","Ottawa","OH","Mercy Health - Putnam County Emergency Services","601 State Route 224","45875",41.01984687,-84.06906236
"45875","Ottawa","OH","St. Rita's Ambulatory Care Center","not_available","45875",41.01990802046878,-84.0689088667825
"45879","Paulding","OH","Paulding County Hospital","1035 W Wayne St","45879",41.13446044921875,-84.60106658935547
"45885","Saint Marys","OH","Grand Lake Health System","200 St Clair Ave, St Marys, OH 45885","45885",40.544749320635745,-84.37160685562809
"45885","Saint Marys","OH","Joint Township Hospital - Urgent Care","201-299 St Clair Ave","45885",40.5445735870186,-84.37082623064333
"45885","Saint Marys","OH","Joint Township District Memorial Hospital","200 Saint Clair Ave","45885",40.544542,-84.371016
"45895","Wapakoneta","OH","Walk In Urgent Care","1321 Bellefontaine St Ste 100","45895",40.563199,-84.175716
