"zip","city","state","name","address","postalCode","lat","lon"
"40004","Bardstown","KY","CHI Saint Joseph Health - Flaget Memorial Hospital","4305 New Shepherdsville Rd","40004",37.86159189827616,-85.52374740886178
"40004","Bardstown","KY","First Care Clinics","110 W. John Rowan Blvd.","40004",37.82701110839844,-85.46513366699219
"40004","Bardstown","KY","The Little Clinic","102 W John Rowan Blvd","40004",37.8284614,-85.4648373
"40014","Crestwood","KY","Friendship Manor","not_available","not_available",38.2980016096868,-85.49540141387534
"40014","Crestwood","KY","First Stop Urgent Care","1006 New Moody Ln","40031",38.396983,-85.372874
"40014","Crestwood","KY","Baptist Health Medical Group Louisville Cardiology","1031 New Moody Ln Ste 200","40031",38.395867118220885,-85.37709832235122
"40014","Crestwood","KY","Baptist Health La Grange Heart Care","1025 New Moody Ln","40031",38.39559243661734,-85.37638664245605
"40014","Crestwood","KY","Norton Immediate Care Center - LaGrange","1230 Market St Ste B","40031",38.3939193,-85.3684977
"40014","Crestwood","KY","Baptist Health Crestwood Physical Therapy","6580 Kenwood Crossing Rd","40014",38.33819630417219,-85.47437297645956
"40014","Crestwood","KY","MCNE-Emily's Office","not_available","40031",38.39476013183594,-85.38163757324219
"40014","Crestwood","KY","Norton Brownsboro Hospital Human Resources","4950 Norton Healthcare Blvd","40241",38.31768161280925,-85.5271075975344
"40014","Crestwood","KY","The Little Clinic","12450 La Grange Rd","40245",38.2905926,-85.5089225
"40033","Lebanon","KY","Spring View Hospital","320 N Loretto Rd","40033",37.56955856686399,-85.261640973988
"40045","Milton","KY","King's Daughters' ED","not_available","47250",38.73435653531406,-85.37616194568498
"40047","Mount Washington","KY","The Little Clinic","234 Eastbrooke Pkwy","40047",38.0566805,-85.5374018
"40059","Prospect","KY","Norton Brownsboro Hospital","4960 Norton Healthcare Blvd","40241",38.3155522,-85.5759786
"40059","Prospect","KY","Kosair Children's Medical Center","4910 Chamberlain Ln","40241",38.3154508,-85.569932
"40059","Prospect","KY","Kosair Children's Medical Center (Brownsboro)","not_available","40059",38.322935605127704,-85.57037347463006
"40059","Prospect","KY","Room 432","not_available","40241",38.315484,-85.576113
"40059","Prospect","KY","The Little Clinic","5929 Timber Ridge Dr","40059",38.34019456354791,-85.62146343943334
"40065","Shelbyville","KY","The Pain Institute at Jewish Hospital","not_available","40065",38.209769,-85.235801
"40065","Shelbyville","KY","UofL Health - Shelbyville Hospital","727 Hospital Dr","40065",38.20896530151367,-85.23600006103516
"40065","Shelbyville","KY","Norton Immediate Care Center - Shelbyville","150 Frankfort Rd Ste 104A","40065",38.209243686534684,-85.20507915887814
"40065","Shelbyville","KY","Norton Heart Specialists","213 Midland Blvd","40065",38.21506887234402,-85.25162130919266
"40065","Shelbyville","KY","Norton Urogynecology Center","150 Frankfort Rd Ste 102A","40065",38.20927213865408,-85.20515090796928
"40065","Shelbyville","KY","Baptist Health Occupational Medicine - Shelbyville","101 Stonecrest Rd Ste 1","40065",38.2118034362793,-85.25055694580078
"40065","Shelbyville","KY","Baptist Health Medical Group Primary Care - Shelbyville","140 Stonecrest Rd Ste 101","40065",38.210533142089844,-85.25070190429688
"40065","Shelbyville","KY","Puskesmas DTP Pangalengan","Jl Ry Pangalengan","40003",38.21053461268619,-85.32727432250977
"40065","Shelbyville","KY","The Little Clinic","311 Boone Station Rd","40065",38.21567679795546,-85.20638555288315
"40108","Brandenburg","KY","St. Camillus Urgent Care & Family Practice","2025 Bypass Rd Ste 205","40108",37.9882952,-86.18908170000002
"40109","Brooks","KY","floyd county medical plaza","State Street","40229",38.07992935180664,-85.70053100585938
"40115","Custer","KY","RS Limijati","LL.RE Martadinata","40115",37.7379293,-86.2260131
"40119","Falls Of Rough","KY","Kedokteran nuklir rshs","Pasteur","40153",37.7081533,-86.51906799999999
"40121","Fort Knox","KY","Ireland Army Community Hospital","289 Ireland Ave","40121",37.90013655045481,-85.94119091263387
"40121","Fort Knox","KY","Ireland Army Allergy Clinic","not_available","40121",37.90003,-85.936966
"40143","Hardinsburg","KY","St. Camillus Urgent Care & Family Practice","83 Ballpark Rd","40143",37.7658209,-86.4427535
"40143","Hardinsburg","KY","Breckenridge Memorial Hospital","1011 Old Highway 60","40143",37.766700744628906,-86.44097137451172
"40143","Hardinsburg","KY","Air Evac 92","Hardinsburg, KY","40143",37.76230573654175,-86.4528214931488
"40160","Radcliff","KY","Lincoln Trail Behavioral Health System","3909 S Wilson Rd","40160",37.78800760000001,-85.91458089999999
"40160","Radcliff","KY","CareFirst Urgent Care Center","1360 Rogersville Rd","40160",37.810875,-85.948093
"40165","Shepherdsville","KY","KentuckyOne Health Medical Center Jewish South","1903 W Hebron Lane","40165",38.061662,-85.6969094
"40165","Shepherdsville","KY","Bullitt County EMS North End","1903 West Hebron Lane","40165",38.061649322509766,-85.6973648071289
"40165","Shepherdsville","KY","Jewish Hospital","not_available","40229",38.061652883949286,-85.69674318740917
"40165","Shepherdsville","KY","Norton Immediate Care Center - Shepherdsville","438 Adam Shepherd Pkwy Ste 2","40165",37.995845,-85.7106963
"40165","Shepherdsville","KY","The Little Clinic","185 Adam Shepherd Pkwy","40165",37.9915638,-85.7105027
"40165","Shepherdsville","KY","First Care Urgent Care","340 KY-44","40165",37.990649,-85.711332
"40202","Louisville","KY","KentuckyOne Health Jewish Hospital","200 Abraham Flexner Way","40202",38.248981,-85.751176
"40202","Louisville","KY","KentuckyOne Health Frazier Rehab Institute","220 Abraham Flexner Way","40202",38.249025,-85.750404
"40202","Louisville","KY","Norton Hospital","200 E Chestnut St","40202",38.2477918,-85.7507825
"40202","Louisville","KY","Norton Children's Hospital","231 E Chestnut St","40202",38.2482108,-85.7494773
"40202","Louisville","KY","UofL Health Care Outpatient Center","401 E Chestnut St","40202",38.248082053110494,-85.74672724780947
"40202","Louisville","KY","Basement Of The Hospital","not_available","40202",38.24707310186745,-85.75117910446049
"40202","Louisville","KY","KentuckyOne Health University of Louisville Hospital","530 S Jackson St","40202",38.2486976,-85.7454183
"40202","Louisville","KY","Norton Pavilion Hospital","315 E Broadway","40202",38.24585778395782,-85.74874976292651
"40202","Louisville","KY","AccessiCare Elder Home Care",".","not_available",38.254627580869496,-85.75919151306152
"40202","Louisville","KY","Drug Rehab Treatment","609 W Main St","40202",38.257401,-85.7602
"40202","Louisville","KY","Drug & Alcohol Rehab Louisville","462 S 4th St #2420","40202",38.25136947631836,-85.7577133178711
"40202","Louisville","KY","KentuckyOne Health Jewish Hospital Outpatient Care Center","225 Abraham Flexner Way","40202",38.24959945678711,-85.75080871582031
"40203","Louisville","KY","Cardiac Intensive Care Nortons","not_available","40203",38.240338,-85.755706
"40203","Louisville","KY","Surgical Associates Of Southern Indiana","Medical Plaza","47130",38.27286588009413,-85.74965297173534
"40204","Louisville","KY","First Stop Urgent Care","927 E Broadway","40204",38.244813,-85.73621
"40204","Louisville","KY","Blood Drive","not_available","40204",38.235603,-85.717464
"40204","Louisville","KY","Kindred Hospital Louisville Subacute Unit","1313 Saint Anthony Pl","40204",38.24267785,-85.73147683
"40204","Louisville","KY","The Little Clinic","1265 Goss Ave","40217",38.226531081357045,-85.73072415793013
"40204","Louisville","KY","Cynthia Leigh Foxx, APRN","825 Barret Ave","40204",38.24110428992822,-85.73142988042784
"40205","Louisville","KY","Norton Audubon Hospital","1 Audubon Plaza Dr","40217",38.2153895,-85.7226919
"40205","Louisville","KY","Baptist Health Louisville","4000 Kresge Way","40207",38.23758117910099,-85.63891800918447
"40205","Louisville","KY","Baptist East Emergency Room","3900 Kresge Way","40207",38.238274,-85.63878
"40205","Louisville","KY","Baptist Hospital East Park Tower","4010 Kresge Way","40207",38.23814,-85.63693
"40205","Louisville","KY","KentuckyOne Health Our Lady of Peace","2020 Newburg Rd","40205",38.21726751308435,-85.70991078954307
"40205","Louisville","KY","KentuckyOne Health Medical Center Jewish East","3920 Dutchmans Ln","40207",38.23168999442892,-85.63653908193305
"40205","Louisville","KY","Norton Immediate Care Center - Dupont","901 DuPont Rd","40207",38.2353806,-85.6406414
"40205","Louisville","KY","Norton Audubon Emergency Room","not_available","40217",38.215393,-85.72267
"40205","Louisville","KY","Norton Orthopedic Oncology","3 Audubon Plaza Dr","40217",38.21517574246181,-85.72287863991585
"40205","Louisville","KY","James R. Jewell, MD, PSC","4001 Kresge Way","40207",38.239139556884766,-85.64102935791016
"40205","Louisville","KY","MCE-Chris K's office","not_available","40205",38.231366741592936,-85.64063425892466
"40205","Louisville","KY","Jewish East Emergency Room","Dutchman's Ln","not_available",38.2313232421875,-85.63681030273438
"40206","Louisville","KY","Robley Rex V.A. Medical Center","800 Zorn Ave","40206",38.27063349826608,-85.69713920498789
"40206","Louisville","KY","Nortons Hospital Emergency Room","not_available","40206",38.258950835025814,-85.72300928459437
"40206","Louisville","KY","Rex Robley Hospice Floor 5","Zorn Ave","40207",38.27665576390802,-85.69618173969864
"40207","Louisville","KY","The Brook [Dupont / KMI]","not_available","40207",38.23524864060095,-85.62774598034852
"40207","Louisville","KY","Norton Suburban Hospital","4001 Dutchmans Ln.","40207",38.235532,-85.632975
"40207","Louisville","KY","Nova Health HRT","4010 DuPont Cir Ste L28","40207",38.23268978283057,-85.63186973333359
"40207","Louisville","KY","Hal-lai An Art Of Self Healing","125 Chenoweth Ln #211","40207",38.254634,-85.656509
"40208","Louisville","KY","The Little Clinic","3165 S 2nd St","40208",38.20256029551092,-85.76139547045932
"40208","Louisville","KY","Women's Healing Place","1503 S 15th St, Louisville, KY 40210","40210",38.22673797607422,-85.77984619140625
"40208","Louisville","KY","Norton","not_available","40208",38.218333333333334,-85.75979166666667
"40210","Louisville","KY","Matthew Harrell","2900 W Broadway Ste 226","40211",38.248863220214844,-85.80064392089844
"40210","Louisville","KY","Norton Community Medical Associates - Parkland","2746 Virginia Ave","40211",38.2377815246582,-85.8000717163086
"40211","Louisville","KY","BP.Alivia Medika jl.Pasundan 107","Jl.Pasundan No.107","40251",38.25,-85.8
"40213","Louisville","KY","The Little Clinic","5533 New Cut Rd","40214",38.14451347837899,-85.77354178535768
"40213","Louisville","KY","Gailor Animal Hospital","not_available","40214",38.145191073417664,-85.77629864215851
"40213","Louisville","KY","Norton Immediate Care Center","7926 Preston Hwy","40219",38.136873174848034,-85.68696365521646
"40213","Louisville","KY","Norton Immediate Care Dixie","Dixie Hwy","not_available",38.19048779241802,-85.76259177736884
"40213","Louisville","KY","Baptist Health Medical Group Kentucky Heart Specialists","3793 Poplar Level Rd","40213",38.20633910724674,-85.71276962778938
"40213","Louisville","KY","Juan G Polo, MD","2355 Poplar Level Rd Ste 200","40217",38.216296187713894,-85.72373940693696
"40213","Louisville","KY","Baptist Health Urgent Care Louisville - Fern Valley Road","3303 Fern Valley Rd","40213",38.15763854980469,-85.702880859375
"40214","Louisville","KY","KentuckyOne Health - Sts. Mary & Elizabeth Hospital","1850 Bluegrass Ave","40215",38.17813470831797,-85.79381346702576
"40214","Louisville","KY","SMEH Surgery Center","not_available","40215",38.177451918666456,-85.79250311650414
"40214","Louisville","KY","Alameri hosp MRI dept","Alameri","40258",38.1497468,-85.82790960000001
"40214","Louisville","KY","Iroquois animal clinic","5017 S 3rd St","40214",38.173677000000005,-85.767139
"40216","Louisville","KY","Baptist Health Urgent Care & Occupational Medicine - Riverport","7092 Distribution Dr","40258",38.14995574951172,-85.88709259033203
"40216","Louisville","KY"," Baptist Health Occupational Medicine - Riverport-Drug Test","7092 Distribution Dr Ste E","40258",38.14995574951172,-85.88709259033203
"40216","Louisville","KY","Open MRI LLC","5227 Dixie Hwy","40216",38.162265000000005,-85.83103100000001
"40218","Louisville","KY","Klondike Nursing and Rehabilitation Center","not_available","40218",38.207675,-85.63896899999999
"40218","Louisville","KY","Christopher East Healthcare","4200 Browns Ln","40220",38.221046447753906,-85.62174987792969
"40218","Louisville","KY","Mr. Samuel Yeboah, APRN-FNP","3333 Bardstown Rd Ste 11","40218",38.20660700000001,-85.6666752
"40218","Louisville","KY","Teri Gore, APRN","1930 Bishop Ln","40218",38.201687,-85.683415
"40218","Louisville","KY","The Little Clinic","3039 Breckenridge Ln","40220",38.21742168645321,-85.62640607357031
"40220","Louisville","KY","Baptist Health Express Care Louisville - Jeffersontown","10216 Taylorsville Rd Ste 150","40299",38.196689,-85.567679
"40220","Louisville","KY","Baptist East Urgent Care","not_available","40223",38.19529553649049,-85.56738363681413
"40220","Louisville","KY","The Little Clinic","9080 Taylorsville Rd","40299",38.21255626097191,-85.59200300764263
"40220","Louisville","KY","Kosair Childrens Medical Center Suburban","4001 Dutchmans Ln","not_available",38.23463821411133,-85.63310241699219
"40222","Louisville","KY","Norton Medical Plaza - Brownsboro","Brownsboro","not_available",38.31456323235451,-85.57678044485762
"40223","Louisville","KY","Central State Hospital","10510 La Grange Rd","40223",38.272051,-85.55745300000001
"40223","Louisville","KY","Baptist Health Urgent Care Louisville - Middletown","12010 Shelbyville Rd Ste 500","40243",38.247730249714834,-85.5324328860401
"40223","Louisville","KY","LVSES","Magisterial dr","not_available",38.26810472663301,-85.50770782399293
"40223","Louisville","KY","Baptist Health Physical Therapy Eastpoint Pediatrics","2400 Eastpoint Pkwy","40223",38.277803000000006,-85.502038
"40223","Louisville","KY","Baptist Health Urgent Care Louisville - Eastpoint","2400 Eastpoint Pkwy Ste 100","40223",38.278059142845734,-85.50233480677264
"40223","Louisville","KY","Norton Immediate Care Center - Middletown","12903 Shelbyville Rd","40243",38.24383653867634,-85.51714562256166
"40223","Louisville","KY","Baptist Healtg  Urgent Care - Middletown","12010 Shelbyville Rd","40243",38.247982,-85.5332
"40223","Louisville","KY","Lakeland Asylum","2200-2206 Lakeland Rd","40223",38.27798515,-85.55437526666667
"40223","Louisville","KY","Sutherland Hospital","2602 langdon drive","40241",38.28520389520925,-85.58285236358641
"40223","Louisville","KY","The Little Clinic","12501 Shelbyville Rd","40243",38.24587347853079,-85.52169263362879
"40229","Louisville","KY","The Little Clinic","5001 Mud Ln","40229",38.0891984,-85.6703172
"40241","Louisville","KY","Baptist Health Medical Group Family Medicine - Brownsboro","9815 Brownsboro Rd","40241",38.31380844116211,-85.56653594970703
"40241","Louisville","KY","Norton Immediate Care Center - Brownsboro","9880 Angies Way Ste 109","40241",38.3137757,-85.5695221
"40241","Louisville","KY","Norton Children's Medical Group - Windy Hills","4884 Brownsboro Rd","40207",38.27873992919922,-85.63636779785156
"40241","Louisville","KY","Baptist Health Urgent Care Louisville - Holiday Manor","2232 Holiday Manor Ctr","40222",38.28239822387695,-85.63133239746094
"40241","Louisville","KY","Baptist Health Urgent Care Louisville - Westport Road","3215 Westport Green Pl","40241",38.29182815551758,-85.56240844726562
"40241","Louisville","KY","The Brook - IOP","not_available","40222",38.27193489087532,-85.59579291332797
"40241","Louisville","KY","Signature Care and Rehabilitation-Northfield","6000 Hunting Rd","40222",38.28236389160156,-85.63733673095703
"40241","Louisville","KY","The Brook - Kmi","8521 La Grange Road","40242",38.2721514,-85.59631859999999
"40241","Louisville","KY","The Little Clinic","2219 Holiday Manor Ctr","40222",38.28412688505777,-85.63078613928167
"40241","Louisville","KY","The Little Clinic","9440 Brownsboro Rd","40241",38.305613039914505,-85.57492105026245
"40242","Louisville","KY","Norton Urgent Care","Herr Ln","not_available",38.268873590837295,-85.61367472770723
"40245","Louisville","KY","KentuckyOne Health Medical Center Jewish Northeast","2401 Terra Crossing Blvd","40245",38.273931676125194,-85.49546737302478
"40258","Louisville","KY","Southwest Jewish Hospital","Stone street","40272",38.11350497144897,-85.84095782654059
"40258","Louisville","KY","Discount Medical Supply","9621 Dixie Hwy","40272",38.115665,-85.85996
"40258","Louisville","KY","KentuckyOne Health Medical Center Jewish Southwest","9700 Stonestreet Rd","40272",38.113775330545316,-85.84100671625083
"40258","Louisville","KY","Baptist Health Medical Group Kentucky Heart Specialists","8442 Dixie Hwy","40258",38.12941991769406,-85.8489131929673
"40258","Louisville","KY","Park Terrace Rehab","not_available","40272",38.1135550771198,-85.84057288583486
"40258","Louisville","KY","The chamber of extreme melancholy","not_available","40258",38.142162200689654,-85.86632768355335
"40299","Louisville","KY","Norton Urgent Care Center","12625 Taylorsville Road","40299",38.1897718202513,-85.51617879554703
"40299","Louisville","KY","Norton Immediate Care Center - Tyler Retail Village","12615 Taylorsville Rd Ste A","40299",38.1899123,-85.5161882
"40313","Clearfield","KY","St. Claire Regional Medical Center","222 Medical Cir","40351",38.18078354520988,-83.44192125680554
"40324","Georgetown","KY","Fresenius Medical Care / Georgetown Dialysis","98 Mary Lynn Dr","40324",38.17987544869602,-84.55912368261406
"40324","Georgetown","KY","Georgetown Community Hospital","1140 Lexington Rd","40324",38.18621912640628,-84.56089037303552
"40324","Georgetown","KY","Georgetown Urgent Care","111 Osbourne Way Ste 101","40324",38.23249816894531,-84.53758239746094
"40324","Georgetown","KY","UCHealth","3200 Burnett Ave","40324",38.23513,-84.54689
"40324","Georgetown","KY","Georgetown Family Physicians Express Care","1502 Oxford Dr Ste 100","40324",38.232921931212935,-84.53396645767208
"40324","Georgetown","KY","The Little Clinic","106 Market Place Cir","40324",38.186341,-84.568393
"40324","Georgetown","KY","Urgent Treatment Center","1510-1540 Oxford Dr","40324",38.232918,-84.533999
"40324","Georgetown","KY","Kentucky Orthodontics & Invisalign, Drs. Durbin, Morris, and Garner","200 Bevins Lane Suite F","40324",38.1823353,-84.5684667
"40336","Irvine","KY","Marcum & Wallace Memorial Hospital","60 Mercy Ct","40336",37.7059252119405,-83.97747650904195
"40336","Irvine","KY","Mercy Health - Marcum and Wallace Memorial Hospital Emergency Department","60 Mercy Court","40336",37.7061212,-83.97726589999999
"40342","Lawrenceburg","KY","Fast Pace Health Urgent Care Lawrenceburg","1000 W Park Dr","40342",38.02894337710625,-84.8922049999237
"40342","Lawrenceburg","KY","Urgent Care Centers","not_available","40342",38.033565,-84.911087
"40347","Midway","KY","Hospital 3","not_available","40347",38.158853,-84.803543
"40347","Midway","KY","Hospital 1","not_available","40601",38.15625542299274,-84.80337335769624
"40351","Morehead","KY","PACU","Bypass","40351",38.187201568692466,-83.44097142359027
"40353","Mount Sterling","KY","CHI Saint Joseph Health - Saint Joseph Mount Sterling","225 Falcon Dr","40353",38.076938644514776,-83.94514191709816
"40356","Nicholasville","KY","St Joesph East Emergency Room","150 N Eagle Creek Dr","40509",37.99944305419922,-84.4393310546875
"40356","Nicholasville","KY","Urgent Treatment Clinics","1055 Dove Run Rd","40502",37.99658269163689,-84.49392200456883
"40356","Nicholasville","KY","Lab","not_available","40324",37.99385306857489,-84.45226048497446
"40356","Nicholasville","KY","Kentucky Urgent Care-Lexington Urgent Care-MAN O WAR Location","4097 Nichols Park Dr","40503",37.978511,-84.534285
"40356","Nicholasville","KY","Urgent Treatment Center Nicholasville","not_available","40356",37.9023084107702,-84.58228413238697
"40356","Nicholasville","KY","Baptist Health Physical Therapy at Brannon Crossing","610 E Brannon Rd Ste 200","40356",37.952735900878906,-84.52361297607422
"40356","Nicholasville","KY","CHI Saint Joseph Health - Saint Joseph Jessamine","1250 Keene Rd","40356",37.899788415343,-84.57736902905219
"40356","Nicholasville","KY","Urgent Treatment Center - Pimlico","not_available","40517",37.986902,-84.459521
"40356","Nicholasville","KY","St. Joseph East ICU","not_available","40509",37.99959,-84.439202
"40356","Nicholasville","KY","Baptist Health Urgent Care Lexington - Brannon Crossing","610 E Brannon Rd","40356",37.952735900878906,-84.52361297607422
"40356","Nicholasville","KY","CoolBluLex","3288 Eagle View Lane, Suite 300","40509",37.9997627,-84.4433992
"40356","Nicholasville","KY","The Little Clinic","4101 Tates Creek Centre Dr","40517",37.9705873,-84.4982668
"40360","Owingsville","KY","Kentucky Orthodontics & Invisalign, Drs. Durbin, Morris, and Garner","137 Old Kentucky 36","40360",38.1293821,-83.7554466
"40361","Paris","KY","Bourbon Community Hospital","9 Linville Dr","40361",38.22115999027615,-84.2382019758225
"40383","Versailles","KY","Bluegrass Community Hospital","360 Amsden Ave","40383",38.054870745434556,-84.72398768015107
"40383","Versailles","KY","Bluegrass Community Hospital","not_available","40383",38.057063,-84.723588
"40383","Versailles","KY","The Little Clinic","212 Kroger Way","40383",38.0525425,-84.7107175
"40391","Winchester","KY","Clark Regional Medical Center","175 Hospital Dr","40391",38.01199639515932,-84.21681510766837
"40391","Winchester","KY","First Care Clinics","480 Bullion Blvd Ste B","40391",37.992639,-84.21468449999999
"40391","Winchester","KY","Medcorp (Welded Construction)","not_available","40391",38.011663,-84.164855
"40391","Winchester","KY","O.U.C.H. Urgent Care","1934 Bypass Rd","40391",37.98844909667969,-84.2068099975586
"40403","Berea","KY","Berea Urgent Care","234 Brenwood St","40403",37.568175,-84.312945
"40403","Berea","KY","The Terrace","not_available","40403",37.59315829986365,-84.29844952286663
"40403","Berea","KY","VA hospital","not_available","40461",37.59739303588867,-84.32316589355469
"40403","Berea","KY","Saint Joseph Berea Emergency Department","305 Estill St","40403",37.57599639892578,-84.28654479980469
"40403","Berea","KY","Berea Walk-In Clinic","245 Prince Royal Dr","40403",37.57024657305513,-84.3106310069561
"40422","Danville","KY","Baptist Express Care - Danville","100 Walton Ave","40422",37.614906311035156,-84.77213287353516
"40422","Danville","KY","Breakroom","not_available","40422",37.647463,-84.77094
"40422","Danville","KY","Fort Logan Hospital","not_available","40484",37.542814,-84.652778
"40422","Danville","KY","The Little Clinic","200 Skywatch Dr","40422",37.61828519410868,-84.78282451629639
"40445","Livingston","KY","Columbia Asia Bukit Rimau","no:3, persiaran anggerik eria","40460",37.362342,-84.268379
"40456","Mount Vernon","KY","Rockcastle Regional Hospital","not_available","40456",37.35649088398984,-84.33577901208209
"40475","Richmond","KY","Baptist Health Richmond","801 Eastern Byp","40475",37.73095343900329,-84.29228495085485
"40475","Richmond","KY","Kenwood Health and Rehabilitation Center","130 Meadowlark Dr","40475",37.73880582864845,-84.30927674120174
"40475","Richmond","KY","Baptist Health Room 431","not_available","40475",37.7311,-84.292175
"40475","Richmond","KY","PAC PACU","Bypass","40475",37.73072756808372,-84.29220413003226
"40475","Richmond","KY","Baptist Health Urgent Care - Richmond","648 University Shopping Ctr","40475",37.747857,-84.294654
"40475","Richmond","KY","Compassionate Care Center - Hospice Care Plus","Isaacs Ln","40475",37.72221437878648,-84.29235750660939
"40475","Richmond","KY","The Little Clinic","890 Richmond Plz","40475",37.731276826651225,-84.27424413865708
"40502","Lexington","KY","Chandler Hosptial","800 Rose St","40526",38.03064976695276,-84.50952138327095
"40502","Lexington","KY","University Of Kentucky Clinic","not_available","40504",38.033436550138035,-84.50860059518486
"40502","Lexington","KY","UK Albert B. Chandler Emergency Department","1000 S Limestone Fl 1","40536",38.03125894201367,-84.50928211212158
"40502","Lexington","KY","UK Kentucky Children's Hospital","800 Rose St Fl 4","40536",38.03100004018539,-84.50796556040227
"40502","Lexington","KY","UK Markey Cancer Center","800 Rose St., Pavilion CC","40536",38.032203086520695,-84.50675180532545
"40502","Lexington","KY","UK Albert B. Chandler Hospital Pavilion H","800 Rose St","40536",38.030897120733606,-84.50758146342699
"40502","Lexington","KY","UK Albert B. Chandler Hospital Pavilion A","1000 South Limestone","40536",38.03068196106361,-84.50898185524044
"40502","Lexington","KY","Veterans Administration Medical Center","1101 Veterans Dr","40502",38.030477317831505,-84.50689784889155
"40502","Lexington","KY","UK hospital","not_available","40513",38.036460919735546,-84.50749440109416
"40502","Lexington","KY","2micu waiting room","not_available","40503",38.03159525660789,-84.50781704320516
"40502","Lexington","KY","Makenna David Pediatric Emergency Center","1000 S Limestone","40506",38.03093780964624,-84.50926065444946
"40502","Lexington","KY","Central Baptist Emergency Department","1740 Nicholasville Rd","40503",38.00738444841421,-84.48837338963055
"40502","Lexington","KY","Drug & Alcohol Rehab Lexington","838 E High St #112","40502",38.03036880493164,-84.49005126953125
"40502","Lexington","KY","Infusion Treatment Lab @ Central Baptist  Hospital","1720 Nicholasville Rd","40503",38.01938910128283,-84.51368062443099
"40503","Lexington","KY","CHI Saint Joseph Health - Saint Joseph Hospital","1 Saint Joseph Dr","40504",38.032444647914986,-84.52367003600341
"40503","Lexington","KY","Supriya Kohli, MD","2101 Nicholasville Rd Ste 204","40503",38.01065291329789,-84.51758623123169
"40503","Lexington","KY","CHI Saint Joseph Medical Group - Express Care, Lexington","3581 Harrodsburg Rd Ste 125","40513",38.0054828294048,-84.56770933275703
"40504","Lexington","KY","Cardinal Hill Rehabilitation Hospital","2050 Versailles Rd","40504",38.04653223046394,-84.54178512096411
"40504","Lexington","KY","Homestead Nursing Center","1609 Versailles Rd","40504",38.04701971935028,-84.52945852685633
"40504","Lexington","KY","Saint Joseph Hematology Oncology","700 Bob O Link Dr Ste 100","40504",38.03239059448242,-84.52803039550781
"40504","Lexington","KY","Baptist Health Urgent Care - Harrodsburg Road","2040 Harrodsburg Rd Ste 200","40503",38.025242,-84.53576
"40504","Lexington","KY","Lexington Surgery Center","1451 Harrodsburg Rd","40504",38.03329834796707,-84.52628148663133
"40504","Lexington","KY","Baptist Health Physical Therapy - Beaumont","3101 Beaumont Centre Cir Ste 120","40513",38.01932144165039,-84.55350494384766
"40504","Lexington","KY","Baptist Health Lexington Cancer Care Center","1740 Nicholasville Rd Ste 1100","40503",38.018209999999996,-84.511931
"40504","Lexington","KY","Baptist Health Medical Group Endocrinology","3084 Lakecrest Cir Ste 100","40513",38.017242431640625,-84.55577850341797
"40505","Lexington","KY","Urgent Treatment Center","not_available","40511",38.072261189881445,-84.48263022887895
"40505","Lexington","KY","Faith Medical Incorporated","1191 Brock McVey Dr Unit D","40509",38.0320514,-84.4487328
"40505","Lexington","KY","Urgent Treatment Clinic - Hamburg","2424 Sir Barton Way","40509",38.029708,-84.420204
"40505","Lexington","KY","The Little Clinic","1650 Bryan Station Rd","40505",38.05818046941489,-84.46171879239063
"40507","Lexington","KY","UK Good Samaritan Hospital","310 S Limestone","40508",38.0423519352493,-84.50060799510331
"40507","Lexington","KY","Good Samaratin hospital","not_available","40508",38.041783403447425,-84.50192214142878
"40507","Lexington","KY","UK Good Samaritan Dept of Radiology","Limestone","40508",38.04210985031388,-84.50093362433249
"40508","Lexington","KY","UK Employee Loop","Rose Street","40508",38.031811,-84.508361
"40509","Lexington","KY","CHI Saint Joseph Health - Women's Hospital at Saint Joseph East","170 N Eagle Creek Dr","40509",38.0008711797384,-84.43881911962606
"40509","Lexington","KY","Baptist Health Lexington Physical Therapy","1775 Alysheba Way Ste 10","40509",38.015671999999995,-84.42311600000001
"40509","Lexington","KY","Baptist Health Medical Group Primary Care - Palumbo","2801 Palumbo Dr Ste 200","40509",38.00637918278038,-84.43541202353344
"40509","Lexington","KY","SJE ED","not_available","40515",38.004302306609276,-84.44669833710232
"40509","Lexington","KY","Sleep disorder clinic","160 N Eagle Creek Dr Ste 302","40509",38.000267028808594,-84.43924713134766
"40509","Lexington","KY","The Little Clinic","3101 Richmond Rd","40509",38.0039729,-84.444993
"40510","Lexington","KY","VA Medical Center","Leestown Rd","not_available",38.073640000000005,-84.53896
"40511","Lexington","KY","UK Eastern State Hospital","1350 Bull Lea Rd","40511",38.082768,-84.497957
"40513","Lexington","KY","St. Joseph Home Care","2462 Fortune Dr","40509",38.00790762520953,-84.57443248545462
"40513","Lexington","KY","Pediatric & Adolescent Associates,PSC","3050 Harrodsburg Rd","40503",38.0131721496582,-84.55381774902344
"40513","Lexington","KY","David Cowen, MD","771 Corporate Drive Suite 460","40503",38.013397999999995,-84.552451
"40513","Lexington","KY","The Little Clinic","3175 Beaumont Centre Cir","40513",38.022834,-84.55927
"40513","Lexington","KY","Arthritis Knee Pain Centers Lexington (Arthritis and Knee Pain Center of Lexington)","1019 Majestic Dr Suite 270","40513",38.0230958,-84.55604140000001
"40601","Frankfort","KY","Frankfort Urgent Care Center","101 Kings Daughters Dr Ste B","40601",38.167637,-84.9011
"40601","Frankfort","KY","First Care Clinics","301 Versailles Rd","40601",38.19898,-84.8315
"40601","Frankfort","KY","Drug & Alcohol Rehab  Frankfort","420 Ann St","40601",38.200086999999996,-84.87518299999999
"40601","Frankfort","KY","The Little Clinic","1309 US 127 South","40601",38.1655374,-84.8954758
"40601","Frankfort","KY","The Little Clinic","302 Brighton Park Blvd","40601",38.19912387617753,-84.82631655069781
"40701","Corbin","KY","Baptist Health Corbin","1 Trillium Way","40701",36.923194254930955,-84.11967219279136
"40701","Corbin","KY","Baptist Health Outpatient Surgery","not_available","40701",36.922304,-84.119532
"40701","Corbin","KY","Baptist Regional Trillium Psychiatric Center","1 Trillium Way, Corbin, KY 40701","40701",37.021308949627524,-84.09900430817827
"40701","Corbin","KY","Baptist Health Occupational Medicine - Corbin","95 Bryan Blvd","40701",36.98933410644531,-84.1583251953125
"40701","Corbin","KY","Baptist Health Corbin Primary Care","14949 N. US Hwy 25, Ste. 4","40701",36.960044860839844,-84.0751724243164
"40701","Corbin","KY","First Care Clinics","521 E. Cumberland Gap Pkwy, Suite 1","40701",36.9613648,-84.0760148
"40701","Corbin","KY","Baptist Health Digestive Health","60 Bryan Blvd","40701",36.989540100097656,-84.15770721435547
"40741","London","KY","CHI Saint Joseph Medical Group - Hospital Medicine","1001 Saint Joseph Ln","40741",37.1175220458413,-84.10869817834924
"40741","London","KY","Thompson Drug","not_available","40741",37.13087463378906,-84.07209014892578
"40741","London","KY","First Care Clinics","1649 W. Hwy 192","40741",37.0836454,-84.1325063
"40741","London","KY","Health Express Urgent Care","94 Dogpatch Trading Ctr Ste 2","40741",37.146629333496094,-84.11331939697266
"40826","Eolia","KY","Whitesburg ARH Hospital","240 Hospital Rd","41858",37.11301852216187,-82.81265814723872
"40829","Grays Knob","KY","Harlan Appalachian Regional Hospital","81 Ball Park Rd","40831",36.80948405993788,-83.31286932392521
"40906","Barbourville","KY","Knox County Health Dept","not_available","40906",36.85097329753203,-83.87198819181539
"40906","Barbourville","KY","Barbourville ARH Hospital","80 Hospital Dr","40906",36.85128983427581,-83.87025243497027
"40965","Middlesboro","KY","Middlesboro ARH Hospital","3600 Cumberland Ave","40965",36.606155249228365,-83.74021099796471
"41005","Burlington","KY","St. Elizabeth Florence WE","not_available","41042",39.09109132391389,-84.70574451425398
"41005","Burlington","KY","Lawrenceburg Urgent Care","587 W Eads Pkwy","47025",39.09246826171875,-84.87162017822266
"41005","Burlington","KY","urgent care","2091 N Bend Rd, Hebron, KY 41048","41048",39.08674701580243,-84.71183301874804
"41005","Burlington","KY","Hometown Urgent Care","not_available","41048",39.086991,-84.712154
"41005","Burlington","KY","St Elizebeth Urgent Care","2091 N Bend Rd","41048",39.086798,-84.711774
"41005","Burlington","KY","The Christ Hospital Physicians - Ohio Heart & Vascular","98 Elm St. Suite 400","47025",39.09437942504883,-84.84599304199219
"41005","Burlington","KY","mercy western hills Hospital","not_available","45238",39.09561127917985,-84.86680742447821
"41005","Burlington","KY","Urgent Care","US 50","not_available",39.0893376764293,-84.87442065124209
"41005","Burlington","KY","The Little Clinic","3105 N Bend Rd","41048",39.063969234635174,-84.70695555210114
"41005","Burlington","KY","Greendale Urgent Care - St. Elizabeth Physicians","not_available","47025",39.126046,-84.843537
"41008","Carrollton","KY","Baptist Health Medical Group Kentucky Heart Specialists","329 Floyd Dr Ste C","41008",38.65879440307617,-85.1314926147461
"41008","Carrollton","KY","Kentucky Urgent Care","not_available","40011",38.659569971244494,-85.13132174585633
"41008","Carrollton","KY","Carroll County Memorial Hospital","309 11th St","41008",38.679885950755065,-85.16851199737512
"41011","Covington","KY","Noah's Ark Animal Clinic","3339 Madison Pike","41017",39.03894102222037,-84.52787624085269
"41011","Covington","KY","Providence Pavilion","401 E 20th St","41014",39.067254999999996,-84.49985699999999
"41011","Covington","KY","St Elizabeth Wound Care","not_available","41011",39.071484389178636,-84.51769005259568
"41011","Covington","KY","Urgent Care","not_available","41076",39.03935407021411,-84.50844183713762
"41011","Covington","KY","The Christ Hospital Lab Draw Site & Pre-Surgery Testing","1955 Dixie Highway Suite B","41011",39.0554664,-84.5461755
"41011","Covington","KY","The Christ Hospital Cardiologist Outpatient Center","1950 Dixie Highway","41011",39.05561302514022,-84.54638806226237
"41011","Covington","KY","St Elizabeth Urgent Care","Winston Ave","41015",39.03922625957517,-84.50821650239288
"41011","Covington","KY","NorthKey Community Care","513 Madison Ave","41011",39.08537673950195,-84.51106262207031
"41011","Covington","KY","bluegrass urgent care","Latonia","41015",39.03782653808594,-84.51384735107422
"41011","Covington","KY","The Little Clinic","2150 Dixie Hwy","41017",39.0487483,-84.5525264
"41015","Latonia","KY","Cold Spring Urgent Care","3699 Alexandria Pike","41076",39.028147,-84.449304
"41015","Latonia","KY","Clermont Mercy Hospital","not_available","41015",39.02279613256668,-84.51221606464507
"41015","Latonia","KY","The Diet Doc - Independence","6267 Finchley Rd","41051",38.961696,-84.515174
"41015","Latonia","KY","Highland Heights Animal Hospital","2717 Alexandria Way","41076",39.033931,-84.452073
"41015","Latonia","KY","The Christ Hospital Physical & Occupational Therapy","1400 Gloria Terrell Dr.","41076",39.0088877,-84.4709426
"41017","Ft Mitchell","KY","OrthoCincy","560 South Loop Dr.","41017",39.01164199999999,-84.5606684
"41017","Ft Mitchell","KY","St. Elizabeth Healthcare","1 Medical Village Dr","41017",39.013118,-84.562534
"41017","Ft Mitchell","KY","Encompass Health Rehabilitation Hospital of Northern Kentucky","201 Medical Village Dr","41017",39.0124794577441,-84.56671357154846
"41017","Ft Mitchell","KY","Cincinnati Children's Hospital Medical Center","2765 Centre View","41017",39.024215999999996,-84.56298199999999
"41017","Ft Mitchell","KY","Doctor's Urgent Care","not_available","41018",39.02833933907368,-84.61862313455535
"41017","Ft Mitchell","KY","St. Elizabeth South Hospital","not_available","41017",39.02950807235524,-84.54010294472172
"41017","Ft Mitchell","KY","st elizabeth birthing center","1 Medical Village Dr. (ATT: Marketing)","41017",39.012855529785156,-84.5624771118164
"41017","Ft Mitchell","KY","St. Elizabeth Work Rehabilitation","Medical Village Dr.","41017",39.014438742073615,-84.56301373139964
"41017","Ft Mitchell","KY","Mercy Hospital","not_available","45204",39.07841136,-84.62195713
"41018","Erlanger","KY","Saint Elizabeth Medical Center","4900 Houston Rd","41042",39.016009440757024,-84.63057774860512
"41018","Erlanger","KY","St. Elizabeth Healthcare","500 Thomas More Pkwy","41017",39.01618145274653,-84.6304704287477
"41030","Crittenden","KY","Back from the ER","not_available","41030",38.79402068115265,-84.61032653818427
"41031","Cynthiana","KY","Harrison Memorial Hospital","1210 KY-36","41031",38.3839497,-84.271692
"41035","Dry Ridge","KY","St. Elizabeth Medical Center Grant County","not_available","41097",38.646997417591265,-84.57789768936232
"41035","Dry Ridge","KY","St. Elizabeth Grant: Emergency Room","238 Barnes Rd","41048",38.64734649658203,-84.578369140625
"41035","Dry Ridge","KY","Saint Elizabeth Grant County Emergency Room","not_available","41035",38.73031997680664,-84.54143524169922
"41041","Flemingsburg","KY","Fleming County Hospital: Emergency Room","55 Foundation Dr","41041",38.42229191243409,-83.75141161590386
"41042","Florence","KY","Clark Naturals","8414 US-42 Suite A","41042",38.9790948,-84.6552181
"41042","Florence","KY","Florence Urgent Care","8820 Bankers St","41042",39.00675411925957,-84.65504146606698
"41042","Florence","KY","The Whole Child Pediatrics","10032 Demia Way","41042",38.95478367805481,-84.62660729885101
"41042","Florence","KY","St. Elizabeth-Florence Radiology","Turfway Road","41042",39.015576,-84.630164
"41042","Florence","KY","Cincinnati Children's Behavioral Therapy","not_available","45229",38.97697091102487,-84.66034412383787
"41048","Hebron","KY","The Little Clinic","6165 Glenway Ave","45211",39.142502,-84.6224036
"41051","Independence","KY","Independence Urgent Care","2025 Declaration Dr","41051",38.930685,-84.546657
"41051","Independence","KY","Independence Urgent Care","not_available","41051",38.930458,-84.546572
"41051","Independence","KY","The Little Clinic","1700 Declaration Dr","41051",38.9286387,-84.5479316
"41056","Maysville","KY","Hayswood Infirmary","W Fourth Street","not_available",38.64583568648869,-83.76603662967682
"41056","Maysville","KY","Meadowview Regional Hospital","989 Medical Park Dr","41056",38.640402,-83.808279
"41056","Maysville","KY","House of High School Torture","not_available","41056",38.610706976320444,-83.82535023353245
"41059","Melbourne","KY","The Little Clinic","375 Cross Roads Blvd","41076",39.0064517,-84.4207161
"41071","Newport","KY","St Elizabeth Fort Thomas Hospital","85 N Grand Ave","41075",39.07831676647273,-84.46716070175171
"41071","Newport","KY","Saint Elizabeth Physicians - Urgent Care","1400 Grand Ave","41071",39.080944,-84.469455
"41071","Newport","KY","The Little Clinic","53 Donnermeyer Dr","41073",39.09914558755729,-84.48182000778957
"41071","Newport","KY","St. Elizabeth Hospice Care, Ft. Thomas","not_available","41075",39.078242090215554,-84.466781096008
"41071","Newport","KY","Bluegrass Urgent Care","85 Carothers Rd","41071",39.08681869506836,-84.47817993164062
"41075","Fort Thomas","KY","VA Medical Center","1000 S Fort Thomas Ave","41075",39.064675,-84.445665
"41080","Petersburg","KY","Dearborn County Hospital Xray","Wilson Creek Rd","47001",39.0753,-84.89245
"41091","Union","KY","Hometown Urgent Care","US 42","not_available",38.978057,-84.657985
"41094","Walton","KY","Bluegrass Urgent Care","625 Chestnut Dr Ste 106","41094",38.856211,-84.615578
"41094","Walton","KY","The Little Clinic","635 Chestnut Dr","41094",38.8561601089407,-84.61699962615967
"41101","Ashland","KY","Kings Daughters Medical Center","2200 Lexington Ave","not_available",38.47088408683968,-82.63423486053998
"41101","Ashland","KY","KDMC Urgent Care","not_available","41101",38.4746668884529,-82.63107970898962
"41101","Ashland","KY","Sleep Durable Medical Equipment","not_available","41169",38.509718,-82.69171
"41101","Ashland","KY","KDMC Lexington Ave Entrance","2201 Lexington Ave","41101",38.47146224975586,-82.63441467285156
"41101","Ashland","KY","Our Lady Of Bellefonte Hospital","1000 Saint Christopher Dr","41101",38.50863583940444,-82.69291090647829
"41101","Ashland","KY","Kings daughters Urgent Care","Winchester","not_available",38.49787659383703,-82.70298926730322
"41101","Ashland","KY","Portsmouth Ambulance #3","not_available","45638",38.520249957841386,-82.66888969863821
"41101","Ashland","KY","Kings Daughters IV Therapy","Lexington ave","41101",38.497923683461686,-82.70308941086064
"41101","Ashland","KY","OLBH","St Christopher Dr","41101",38.50841552579381,-82.6926947745963
"41101","Ashland","KY","ICU","2nd Floor KDMC","not_available",38.471048,-82.635057
"41124","Blaine","KY","Centre Medico Social de Ouanaminthe","Rue Espagnole","41201",38.0668011,-82.7508963
"41139","Flatwoods","KY","Greenup Emergency Medical Services","not_available","41139",38.52170944213867,-82.71624755859375
"41143","Grayson","KY","Kings daughters Grayson urgent care","609 N Carol Malone Blvd","41143",38.338103000000004,-82.94435899999999
"41143","Grayson","KY","Michale's Office","not_available","41143",38.331306,-82.937566
"41143","Grayson","KY","Ambulance","12 Crossbar Rd","41143",38.331363677978516,-82.93733215332031
"41169","Russell","KY","KDMC Urgent Care","9th Street","45638",38.5380800252811,-82.67786964763336
"41169","Russell","KY","Ironton Urgent Care","1005 E Ring Rd","45638",38.542173,-82.67392199999999
"41174","South Portsmouth","KY","Somc helipad","not_available","45662",38.71063947026905,-83.03627659716317
"41175","South Shore","KY","SOMC Emergency Services","Southern Ohio Medical Center","45662",38.75247683707655,-82.97793388366699
"41175","South Shore","KY","SOMC Urgent Care Center Portsmouth","1248 Kinneys Ln","45662",38.74643145073691,-82.98738062381744
"41175","South Shore","KY","King's Daughters Medical Center Ohio","2001 Scioto Trl","45662",38.7482,-82.9927
"41216","East Point","KY","Highlands Regional Medical Center","5000 Ky Route 321","41653",37.729548,-82.767372
"41216","East Point","KY","Highlands Hospital","5000 Kentucky Route 321","41653",37.703729,-82.769268
"41216","East Point","KY","Hrmc ER","not_available","41653",37.72937149206615,-82.76716669659274
"41222","Hagerhill","KY","Paul B. Hall Regional Medical Center","625 James Trimble Blvd","41240",37.815428726671726,-82.8130989258673
"41230","Louisa","KY","Three Rivers Medical Center Emergency Department","2485 Highway 644","41230",38.09236526489258,-82.60467529296875
"41240","Paintsville","KY","Immediate Care of Paintsville","520 N Mayo Trl Ste 3","41240",37.825138092041016,-82.8255615234375
"41311","Beattyville","KY","RS.Bayukarta","Jl. Kertabumi no. 44","41311",37.599443,-83.7199136
"41339","Jackson","KY","Kentucky River Medical Center","540 Jett Dr","41339",37.565727395888715,-83.36951394976876
"41339","Jackson","KY","McIntosh EMS","not_available","41339",37.530284,-83.35868
"41465","Salyersville","KY","Immediate Care of Magoffin County","787 Parkway Drive","41465",37.74512481689453,-83.057861328125
"41472","West Liberty","KY","Morgan County ARH Hospital","476 Liberty Rd","41472",37.919974462128295,-83.26544668591009
"41501","Pikeville","KY","Pikeville Medical Center 2nd floor CT scan","not_available","41501",37.470884740676304,-82.52147189370093
"41501","Pikeville","KY","Trans Star Meta","Maple St.","41501",37.566722156463946,-82.4596285514
"41501","Pikeville","KY","Trans Star Virgie","not_available","41572",37.30339417557662,-82.56746546974871
"41501","Pikeville","KY","Pikeville Medical Center","911 Bypass Rd","41501",37.47151370645669,-82.52233330123227
"41503","South Williamson","KY","Appalachian Regional Healthcare (ARH)","260 Hospital Dr","41503",37.67675921091915,-82.29684783559935
"41503","South Williamson","KY","Appalachian Regional Healthcare","not_available","41503",37.67180765021657,-82.29501046755894
"41514","Belfry","KY","Pikeville Medical Center-Sleep Lab","not_available","41514",37.663490295410156,-82.31609344482422
"41647","Mc Dowell","KY","McDowell ARH Hospital","9879 KY 122","41647",37.4567516,-82.747161
"41649","Martin","KY","ARH Our Lady of the Way","11203 Main St","41649",37.57882192610366,-82.75021788037395
"41701","Hazard","KY","Hazard ARH","not_available","41701",37.27855648123328,-83.22760438210445
"41701","Hazard","KY","ARH Regional Medical Center","100 Medical Center Dr","41701",37.27794927412163,-83.22818711881274
"41701","Hazard","KY","Hospice Of The Bluegrass-Mountain Community","2312 Alexandria Drive","41701",37.274528,-83.229759
"41749","Hyden","KY","Mary Breckinridge ARH Hospital","130 Kate Ireland Dr","41749",37.163848876953125,-83.37873840332031
"42001","Paducah","KY","Lourdes Medical Pavilion","225 Medical Center Dr","42003",37.05401087471244,-88.64421353517149
"42001","Paducah","KY","Lourdes Hospital","1530 Lone Oak Rd","42003",37.05065785351989,-88.64746451765171
"42001","Paducah","KY","Troy Sofinowski, MD","2603 Kentucky AvenueSuite 102","42003",37.0739117572602,-88.62775057565159
"42001","Paducah","KY","Western Baptist Hospital","2501 Kentucky Ave","42003",37.06678499278674,-88.63134137563696
"42001","Paducah","KY","Infectious Disease Assoc","2601 KY Ave","42003",37.073460831665926,-88.62696921750246
"42001","Paducah","KY","Heartland Veterinary Hospital","3137 Olivet Church Rd","42001",37.0757974,-88.70144260000001
"42001","Paducah","KY","Western Baptist Hospital","not_available","42001",37.09239160374192,-88.62269556229093
"42001","Paducah","KY","Mercy Health","1532 Lone Oak Rd","42003",37.05021635,-88.64720914
"42001","Paducah","KY","Baptist Health Paducah Retail Pharmacy","2501 Kentucky Avenue, Medical Park 1, Suite 101","42003",37.05544250216201,-88.64355829611668
"42001","Paducah","KY","DOB 2","2603 KY Ave","42001",37.07372246691897,-88.62765710849875
"42001","Paducah","KY","Mercy Health - Lourdes Hospital Emergency Room","1530 Lone Oak Road","42003",37.05068588256836,-88.64753723144531
"42001","Paducah","KY","Western Baptist Labor And Delivery","not_available","42003",37.073726347889,-88.62775133927235
"42001","Paducah","KY","Legacy Oxygen & Home Care Equipment LLC","126 Lone Oak Rd","42001",37.069671630859375,-88.63783264160156
"42001","Paducah","KY","Mercy Health - Paducah Urgent Care","225 Medical Center Drive","42003",37.0540351,-88.644109
"42001","Paducah","KY","Baptist Health Medical Group Pediatrics","2605 Kentucky Ave Ste 501","42003",37.07338530977433,-88.62872779391182
"42025","Benton","KY","Marshall County Hospital","not_available","42025",36.867419410656446,-88.36947132995473
"42025","Benton","KY","Baptist Health Medical Group Primary Care - Benton","543 Powell Ln","42025",36.865074157714844,-88.35813903808594
"42029","Calvert City","KY","Baptist Health Urgent Care - Calvert City","5013 Gilbertsville Hwy","42029",37.04193115234375,-88.34526824951172
"42029","Calvert City","KY","Oakview Nursing and Rehabilitation Center","10456 US Highway 62","42029",37.00727844238281,-88.45503234863281
"42038","Eddyville","KY","Caldwell Medical Center","not_available","42445",37.11371363226435,-87.90916108344554
"42038","Eddyville","KY","Rivers Bend Retirement Community","not_available","42055",37.06363230667321,-88.12975593940604
"42041","Fulton","KY","Murray Calloway Co Hospital","Endoscopy waiting room","42041",36.54564891,-88.83129996
"42041","Fulton","KY","Parkway Regional Hospital","2000 Holiday Ln","42041",36.5185546875,-88.89656066894531
"42064","Marion","KY","Livingston County Hospital","U.S. 60","42078",37.26346312038641,-88.22819135827594
"42064","Marion","KY","Crittenden Health And Rehab","Crittenden","42064",37.32547049179846,-88.08472572722232
"42064","Marion","KY","Hardin County Hospital","not_available","62982",37.422353423030586,-88.35147430592129
"42066","Mayfield","KY","Jackson Purchase Medical Center","1099 Medical Center Cir","42066",36.75876804836066,-88.65129112338661
"42066","Mayfield","KY","Jackson Purchase Core Lab","not_available","42066",36.759452,-88.650935
"42071","Murray","KY","Murray Calloway County Hospital","803 Poplar St","42071",36.60729277786159,-88.30996159929718
"42071","Murray","KY","Vampire","Blood Bank","42071",36.60807418823242,-88.30921173095703
"42071","Murray","KY","MCCH Emergency Room","9th Street","42071",36.60706702391564,-88.30963408393873
"42078","Salem","KY","Baptist Health Paducah Mother & Baby Care","2501 Kentucky Ave Fl 2","42003",37.397585,-88.37488
"42086","West Paducah","KY","Massac Memorial Hospital","28 Chick St","62960",37.1679067,-88.74007639999999
"42086","West Paducah","KY","Massac County Hospital Physidal Therapy","not_available","62960",37.166124,-88.739175
"42101","Bowling Green","KY","The Medical Center","250 Park St","42101",36.995979811953255,-86.42945388241515
"42101","Bowling Green","KY","Southern Kentucky Rehabilitation Hospital","1300 Campbell Lane","42104",36.9572696,-86.4478432
"42101","Bowling Green","KY","All About You Urgent Care","not_available","42103",36.952306,-86.425039
"42101","Bowling Green","KY","Urgentcare","1225 Fairway St #100","42103",36.969079,-86.43256
"42101","Bowling Green","KY","Medical Center Emergency Room","not_available","42104",36.9947998404012,-86.42965156758729
"42101","Bowling Green","KY","Drug & Alcohol Rehab Bowling Green","607 E 10th Ave","42101",36.989886,-86.44063
"42101","Bowling Green","KY","Maternity Ward","not_available","42101",36.995168431068834,-86.42888553320033
"42101","Bowling Green","KY","Zip Clinic Urgent Care","Scottsville Road","42104",36.952108,-86.425328
"42101","Bowling Green","KY","Greenwood Urgent Clinic","4863 Scottsville Rd #B","42104",36.929174010008936,-86.41287803649902
"42101","Bowling Green","KY","Rivendell Behavioral Health","1035 Porter Pike","42103",36.99710464477539,-86.38300323486328
"42101","Bowling Green","KY","The Little Clinic - Opening 10/14/2020","2945 Scottsville Rd Ste E32","42104",36.9441123,-86.424425
"42127","Cave City","KY","Caverna Memorial Hospital","1501 S Dixie St","42749",37.161216735839844,-85.9229736328125
"42134","Franklin","KY","EAG meeting @ gv","not_available","42134",36.746215,-86.574628
"42134","Franklin","KY","The Medical Center At Franklin","1100 Brookhaven Rd","42134",36.700439763317966,-86.57682448470314
"42141","Glasgow","KY","T.J. Samson Hospital","1325 N Race St","42141",37.01118159432787,-85.90452419453925
"42141","Glasgow","KY","Glasgow Health & Rehab Center","220 Westwood St","42141",36.994094,-85.933355
"42141","Glasgow","KY","Glasgow Animal Clinic","Main Street","42141",36.999082110327635,-85.92979335203418
"42141","Glasgow","KY","Glasgow Urgent Care","411 South L Rogers BLVD","not_available",36.991524403638245,-85.92816136050563
"42164","Scottsville","KY","TMC Scottsville ED","not_available","42164",36.75642538399951,-86.21792173077348
"42220","Elkton","KY","Bell Clinic PLLC","105 Elk Fork Rd","42220",36.81418228149414,-87.16700744628906
"42223","Fort Campbell","KY","Blanchfield Hospital","not_available","42223",36.63700409,-87.4463814496994
"42223","Fort Campbell","KY","BACH","Joel Dr","42223",36.636800968314994,-87.44679936603151
"42223","Fort Campbell","KY","BACH Womens Health","Joel Dr.","not_available",36.635915,-87.447265
"42240","Hopkinsville","KY","Cumberland Hall Hospital","270 Walton Way","42240",36.7384277,-87.4680159
"42240","Hopkinsville","KY","Covingtons Convalescent Home","not_available","42240",36.841868,-87.478807
"42240","Hopkinsville","KY","First Care Clinics","2955 Fort Campbell Blvd","42240",36.8348906,-87.475236
"42240","Hopkinsville","KY","Vanderbilt Pediatric Associates Hopkinsville","4235 Fort Campbell Blvd","42240",36.82456339788762,-87.47423449873571
"42240","Hopkinsville","KY","James Criss Yelton, MD","500 Clinic Dr","42240",36.8330078125,-87.46865844726562
"42240","Hopkinsville","KY","Western State Hospital","2400 Russellville Rd","42240",36.86463928222656,-87.45130157470703
"42261","Morgantown","KY","St. Camillus Urgent Care & Family Practice","1116 S Main St Ste 5","42261",37.2127791,-86.6956111
"42276","Russellville","KY","Logan Memorial Hospital","1625 Nashville St","42276",36.815735100797966,-86.88134294460485
"42301","Owensboro","KY","River Valley Behavioral Health","1100 Walnut St","42301",37.764783,-87.11807
"42301","Owensboro","KY","OMHS Healthpark Lab","1006 Ford Ave","42301",37.75276565551758,-87.12226867675781
"42301","Owensboro","KY","Owensboro Health Medical Group - Occupational Medicine","2211 Mayfair Ave. Suite 102","42301",37.7526063,-87.1230747
"42301","Owensboro","KY","S Montgomery, MD & Associates Psychiatry/Behavioral Healthcare","620 Carlton Dr #101","42303",37.724434,-87.121452
"42301","Owensboro","KY","OMHS Physician Lounge","not_available","42303",37.77009203143806,-87.10891810253743
"42301","Owensboro","KY","Owensboro Health Medical Group - Urgent Care","2211 Mayfair Ave. Suite 101","42301",37.7526063,-87.1230747
"42301","Owensboro","KY","Saint Camillus Urgent Care","3600 Frederica St","42301",37.737071,-87.119709
"42303","Owensboro","KY","Owensboro Health Regional Hospital","1201 Pleasant Valley Road","42303",37.77886780476891,-87.063618901292
"42303","Owensboro","KY","The Spring's Urgent Care","2200 E Parrish Ave","42303",37.759708404541016,-87.0792465209961
"42303","Owensboro","KY","OMHS Emergency Room","Parish","not_available",37.76674757074578,-87.10068480834893
"42303","Owensboro","KY","Owensboro Health Medical Group - Orthopedics & Sports Medicine","1301 Pleasant Valley Road Suite 500 B","42303",37.7781652,-87.0640955
"42303","Owensboro","KY","Owensboro Health Medical Group - Pulmonology","1301 Pleasant Valley Medical Office Building Suite 404","42303",37.7781652,-87.0640955
"42303","Owensboro","KY","Owensboro Health Medical Group - Cardiothoracic Surgery","1301 Pleasant Valley Road Suite 201","42303",37.7781652,-87.0640955
"42303","Owensboro","KY","Post 2","Center of town","42303",37.764436760193284,-87.10659811440502
"42320","Beaver Dam","KY","Ohio County Hospital","Old main st","42347",37.44832229614258,-86.89635467529297
"42320","Beaver Dam","KY","Owensboro Health Medical Group - Orthopedics & Sports Medicine","1213 N. Main St.","42320",37.4178289,-86.8785484
"42330","Central City","KY","Owensboro Health Muhlenberg Healthplex","2025 West Everly Brothers Boulevard","42367",37.2397513,-87.151406
"42330","Central City","KY","Baptist Health Medical Group Women's Care","1010 Medical Center Dr","42367",37.2280162084495,-87.15952634898711
"42345","Greenville","KY","Owensboro Health Muhlenberg Community Hospital","440 Hopkinsville St.","42345",37.196624755859375,-87.18930053710938
"42345","Greenville","KY","Owensboro Health Medical Group - Podiatry","420 Hopkinsville St.","42345",37.1970419,-87.1876014
"42345","Greenville","KY","Owensboro Health Medical Group - Urology","420 Hopkinsville St. Suite 2E","42345",37.1970419,-87.1876014
"42348","Hawesville","KY","Perry County Surgical Associates","148 13th St Ste B","47586",37.94292068481445,-86.76287841796875
"42348","Hawesville","KY","Perry County OB/GYN","148 13th St Ste A","47586",37.94292068481445,-86.76287841796875
"42348","Hawesville","KY","Cannelton Clinic","510 Washington St","47520",37.91210179999999,-86.7430081
"42348","Hawesville","KY","Perry County Memorial","not_available","47586",37.92814981857056,-86.73012203838822
"42351","Lewisport","KY","St. Camillus Urgent Care & Family Practice","1520 4th St","42351",37.9256625,-86.8958298
"42406","Corydon","KY","Methodist Hospital Union County","4604 US Highway 60 W","42437",37.6994268,-87.8456911
"42420","Henderson","KY","Methodist Hospital","1305 N Elm St","42420",37.8543586,-87.5818836
"42420","Henderson","KY","The Women's Hospital","4199 Gateway Blvd","47630",37.97365233466618,-87.44728803634644
"42420","Henderson","KY","Chemotherapy","Gateway Blvd.","47630",37.96511981280747,-87.43599779827248
"42420","Henderson","KY","Midwest Radiologic Imaging","9747-10131 Oak Grove Rd.","47630",37.97549819946289,-87.44705200195312
"42420","Henderson","KY","Deaconess Hospital Newburg","not_available","47630",37.97462599749323,-87.4450428308303
"42420","Henderson","KY","St. Mary's Hospital Evansville","not_available","47714",37.96467698012628,-87.50359193262491
"42420","Henderson","KY","Deaconess Gateway Womens Hospital","4133 Gateway Blvd","47630",37.97374841381427,-87.44784945035771
"42420","Henderson","KY","Lucy Smith King Care Center","Methodist Hospital","not_available",37.85393536090851,-87.58210095714286
"42420","Henderson","KY","Deaconess Gateway Neuroscience","not_available","47715",37.974110835383314,-87.44505444430483
"42420","Henderson","KY","St Mary's Medical Center","3700 Washington Ave","47714",37.96439713237697,-87.50408699609844
"42420","Henderson","KY","Select Specialty Hospital","400 SE 4th St","47713",37.96822200895974,-87.56747169418168
"42420","Henderson","KY","Mercy Urgent Care","8211 W State Route 66 Ste A","47630",37.9750602,-87.402819
"42420","Henderson","KY","Owensboro Health Medical Group - Orthopedics & Sports Medicine","1200 Barret Blvd","42420",37.8543198,-87.5683967
"42420","Henderson","KY","Fast Pace Urgent Care Henderson, KY","2242 US Highway 41 N","42420",37.87006505,-87.56997081
"42420","Henderson","KY","Orthopaedic Associates East Newburgh","10455 Orthopaedic Drive","47630",37.97427241046586,-87.44046311248007
"42420","Henderson","KY","Deaconess Infusion Center","4111 Gateway Blvd","47630",37.97511291503906,-87.44792938232422
"42431","Madisonville","KY","Trover Health System Regional Medical Center","900 Hospital Dr","42431",37.340535107573686,-87.49396860847379
"42431","Madisonville","KY","RMC Labor & delivery","900 Hospital Dr, Madisonville, KY 42431","42431",37.34064425685779,-87.49395894064021
"42431","Madisonville","KY","First Care Clinics","1350 N Main St","42431",37.347694396972656,-87.49773406982422
"42431","Madisonville","KY","Owensboro Health Medical Group - Podiatry","510 Ruby Drive","42431",37.3345893,-87.4784824
"42431","Madisonville","KY","Baptist Health Urgent Care - Madisonville","1851 N Main St","42431",37.354183197021484,-87.49834442138672
"42431","Madisonville","KY","Baptist Health Madisonville Emergency Care","900 Hospital Drive, Entrance E","42431",37.340247237680664,-87.49309122584236
"42431","Madisonville","KY","Baptist Health Madisonville Medical Park 2 - Pediatric Therapy","200 Clinic Drive, Ground Floor, Entrance I","42431",37.33835214704917,-87.49370813457062
"42431","Madisonville","KY","Regional Medical Center","not_available","42431",37.343063,-87.49328
"42431","Madisonville","KY","Whitney T. Gilley, MD","200 Clinic Dr","42431",37.33831518244628,-87.49357581149525
"42431","Madisonville","KY","RMC Same Day Surgery","577-897 Hospital Dr","42431",37.34137919,-87.49297932
"42431","Madisonville","KY","Baptist Health Madisonville Merle M. Mahr Cancer Center","900 Hospital Drive  Entrance C.","42431",37.33970131982661,-87.4928820135392
"42437","Morganfield","KY","San Diego surgery center","Midway Dr","42459",37.55029927933073,-88.00488142279765
"42501","Somerset","KY","Lake Cumberland Regional Hospital","305 Langdon St","42503",37.085805861617416,-84.62017271046989
"42501","Somerset","KY","New Vista Oakwood","2441 South Highway 27","42501",37.05913162231445,-84.62342834472656
"42501","Somerset","KY","Somerwoods Nursing & Rehab Center","not_available","42501",37.086136878829905,-84.59826546866702
"42501","Somerset","KY","Surgery Center","not_available","42503",37.08554458618164,-84.61872863769531
"42501","Somerset","KY","Kari Craun, DO, MPH","350 Hospital Way","42503",37.084959,-84.622485
"42539","Liberty","KY","Casey County Hospital","not_available","42539",37.31739807128906,-84.93315124511719
"42602","Albany","KY","Clinton County Hospital","not_available","42602",36.698097229003906,-85.14664459228516
"42602","Albany","KY","ward 35 team 2","level 5","not_available",36.624183654785156,-85.20439910888672
"42602","Albany","KY","Ward 6B Prince Court Medical Centre","Level 6","38549",36.6241962,-85.205556
"42633","Monticello","KY","Wayne county hospital","not_available","42633",36.81977087286215,-84.86742832755617
"42647","Stearns","KY","Zombiecare","not_available","42649",36.63062253648126,-84.46767794466383
"42701","Elizabethtown","KY","CareFirst Urgent Care Center","1111 Ring Rd","42701",37.71811998598053,-85.9016153671246
"42701","Elizabethtown","KY","Hardin Memorial Hospital","913 N Dixie Ave","42701",37.71006942615116,-85.87599853190027
"42701","Elizabethtown","KY","Brandon Wampler, PA","2412 Ring Rd Ste 200","42701",37.73306343944014,-85.84532771261955
"42701","Elizabethtown","KY","AcuteCare","2412 Ring Rd","42701",37.73271155166889,-85.84556689708008
"42701","Elizabethtown","KY","ZipClinic Urgent Care","2005 N Dixie Ave","42701",37.7394905090332,-85.8891372680664
"42701","Elizabethtown","KY","Elizabethtown Nursing And Rehabilitation","1101 Woodland Drivw","42701",37.71233587212542,-85.87905795970798
"42701","Elizabethtown","KY","Encompass Health Rehabilitation Hospital of Lakeview","134 Heartland Dr","42701",37.71457172705895,-85.87506026029592
"42701","Elizabethtown","KY","The Little Clinic","111 Towne Dr","42701",37.734841987281094,-85.88852712362853
"42701","Elizabethtown","KY","The Little Clinic","3040 Dolphin Dr","42701",37.71205870634885,-85.83632961838532
"42717","Burkesville","KY","Cumberland County Hospital","not_available","42717",36.79626620129865,-85.37285874110042
"42718","Campbellsville","KY","Taylor Regional Hospital","1698 Old Lebanon Rd","42718",37.36616890275388,-85.33829167455606
"42728","Columbia","KY","TJ Health Columbia","not_available","42728",37.096196524632596,-85.29454698611485
"42754","Leitchfield","KY","St. Camillus Urgent Care & Family Practice","312 N Main St","42754",37.4840549,-86.29360489999999
"42754","Leitchfield","KY","Twin Lakes Regional Medical Center","910 Wallace Ave","42754",37.473555483172916,-86.28693281615749
