"zip","city","state","name","address","postalCode","lat","lon"
"82001","Cheyenne","WY","Stitches Acute Care Center","1919 Central Ave","82001",41.13657,-104.816142
"82001","Cheyenne","WY","VA Medical Center","not_available","82001",41.14809317495066,-104.78659609026941
"82001","Cheyenne","WY","Cheyenne Healthcare Center","2700 E 12th St","82001",41.13688201,-104.78355502
"82001","Cheyenne","WY","Radiology Solutions Corp","1712 Pioneer Ave Ste 1188","82001",41.13332,-104.81846
"82001","Cheyenne","WY","Depaul Hospital","2600 E 18th St","82001",41.142812,-104.78454
"82001","Cheyenne","WY","Cheyenne VA Emergency Room","not_available","not_available",41.14749991764057,-104.78670435775683
"82001","Cheyenne","WY","HealthReach","2030 Bluegrass Cir","82009",41.159934,-104.792511
"82001","Cheyenne","WY","Emergency Room","200 E 23rd St, Cheyenne, WY 82001","82001",41.14027045265941,-104.81664034871703
"82001","Cheyenne","WY","Cheyenne Regional Medical Center Emergency Room","214 E 23rd St","82001",41.140452205049,-104.81461138168692
"82001","Cheyenne","WY","NextCare Urgent Care","4136 Laramie St Ste. B","82001",41.15140345,-104.75907189
"82001","Cheyenne","WY","Urgent Care","433 E 19th St","82001",41.1371739,-104.8115629
"82001","Cheyenne","WY","BioLife Plasma Services","2009 Bluegrass Cit","82009",41.15891,-104.79142
"82007","Cheyenne","WY","Fine Line Marketing","913 S Main St Unit 2205","76051",41.129069835185106,-104.54747557640076
"82009","Cheyenne","WY","The Davis Hospice Center","Sycamore Rd","not_available",41.17376443454912,-104.812662230255
"82009","Cheyenne","WY","Express Urgent Care","7124 Commons Dr","82009",41.1828406,-104.8277699
"82070","Laramie","WY","Ivinson Memorial Hospital","255 N 30th St","82072",41.31242254051362,-105.55618745774528
"82070","Laramie","WY","Grand Avenue Urgent Care","3236 E Grand Ave Ste D","82070",41.3087972,-105.5554616
"82070","Laramie","WY","Meredith And Jeannie Ray Cancer Center","30th ST","not_available",41.313203868299134,-105.55648514789677
"82070","Laramie","WY","Stitches Acute Care Center","3810 Grand Ave","82070",41.30614,-105.5476
"82070","Laramie","WY","Urgent Care of Laramie","3810 E Grand Ave","82070",41.30621858277866,-105.54752031425949
"82070","Laramie","WY","BioLife Plasma Services","1122 Adams Street","82070",41.3031969,-105.6164679
"82190","Yellowstone National Park","WY","Medcor Medical Clinic at Yellowstone","not_available","82190",44.462158203125,-110.83395385742188
"82201","Wheatland","WY","Platte County Memorial Hospital","201 14th St","82201",42.05010223388672,-104.9609146118164
"82225","Lusk","WY","Niobrara Health & Life Center","not_available","82225",42.752923645098704,-104.44550626284088
"82240","Torrington","WY","Community Hospital ER","2000 Campbell Dr","82240",42.08280563354492,-104.19261169433594
"82301","Rawlins","WY","Carbon Country Hospital","not_available","82301",41.78711044065082,-107.31006517278877
"82301","Rawlins","WY","Big Horn Urgent Care","519 8th St","82301",41.789971,-107.24485
"82401","Worland","WY","Washakie Medical Center ER","400 S 15th St","82401",44.012718590559004,-107.94941378108575
"82414","Cody","WY","Cody Regional Health","707 Sheridan Ave","82414",44.52665,-109.073117
"82414","Cody","WY","Urgent Care","not_available","82414",44.5166,-109.07553
"82431","Lovell","WY","North Big Horn Hospital","not_available","82431",44.826534271240234,-108.3906478881836
"82435","Powell","WY","Powell Hospital","777 Avenue H","82435",44.756661944648044,-108.77081417603998
"82435","Powell","WY","The Heartland AL ; Powell Wyo","not_available","82435",44.75684356689453,-108.76835632324219
"82435","Powell","WY","Ageless Perfection Medical Aesthetics","128 E 2nd St","82435",44.7540707,-108.7584579
"82443","Thermopolis","WY","Hot Springs County Memorial Center","not_available","82443",43.645845622579635,-108.21260136501827
"82501","Riverton","WY","Penang Adventist Hospital Maternity Ward","465 Burma Rd, Riverton, WY 82501","82501",43.141090393066406,-108.4013900756836
"82501","Riverton","WY","Riverton Memorial Hospital","2100 W Sunset Dr","82501",43.034886,-108.41877
"82520","Lander","WY","SageWest - Lander Regional Hospital","1320 Bishop Randall Dr","82520",42.820572,-108.726873
"82601","Casper","WY","Wyoming Behavioral Institute","2521 E 15th St","82609",42.8346803,-106.2938658
"82601","Casper","WY","Wyoming Medical Center McMurray West Tower","1233 E 2nd St","82601",42.84813690185547,-106.30818939208984
"82601","Casper","WY","Poplar Living Center","4305 S Poplar St","82601",42.80791768,-106.34363053
"82601","Casper","WY","Wyoming Medical Center East side","not_available","82636",42.840003,-106.225649
"82601","Casper","WY","BioLife Plasma Services","733 Landmark Dr.","82609",42.842481,-106.259628
"82601","Casper","WY","Urgent Care of Casper, LLC","2546 E 2nd St Ste 200","82609",42.8494159,-106.293665
"82601","Casper","WY","Mountain View Regional Hospital","6550 E 2nd St","82609",42.84052379828431,-106.22575849236912
"82601","Casper","WY","Urgent Care","101-199 S Nebraska Ave","82609",42.849464166666664,-106.2936464
"82601","Casper","WY","Wyoming Medical Center Hyperbaric Chamber (HBO)","not_available","82601",42.84705093594985,-106.30863377484208
"82601","Casper","WY","Powder River Medical Resources, LLC","918 E 2nd St","82601",42.849023,-106.313213
"82633","Douglas","WY","Memorial Hospital Of Converse County","111 S 5th St","82633",42.75742978881724,-105.38073111746863
"82701","Newcastle","WY","Monument Health Newcastle Urgent Care Services","1121 Washington Blvd","82701",43.8494237,-104.1891367
"82716","Gillette","WY","Campbell County Memorial Hospital","501 S Burma Ave","82716",44.2904475,-105.5180669
"82716","Gillette","WY","Urgent Care","not_available","82716",44.27600219211342,-105.49152184276483
"82718","Gillette","WY","Respiratory Medical Associates","6","not_available",44.076579,-105.724568
"82801","Sheridan","WY","VAHC of Sheridan County","1898 Fort Rd","82801",44.82961654663086,-106.9883804321289
"82801","Sheridan","WY","Sheridan Memorial Hospital","5th st.","82801",44.808250427246094,-106.9759750366211
"82801","Sheridan","WY","Sheridan Surgical Center","1524 W 5th St","82801",44.80711,-106.97927
"82801","Sheridan","WY","Grace Bedside","not_available","82801",44.808813,-106.977399
"82801","Sheridan","WY","Sugarland Walk-in Clinic","1005 Sugarland Dr","82801",44.7839408,-106.941063
"82801","Sheridan","WY","VAWD Products","201 E 5th St #1200","82801",44.8071699,-106.9531109
"82834","Buffalo","WY","Johnson County Health Center","497 W Lott St","82834",44.350536,-106.70653100000001
"82901","Rock Springs","WY","Big Horn Urgent Care","Plaza Mall","82901",41.57478854440462,-109.23906380379047
"82901","Rock Springs","WY","Memorial Hospital of Sweetwater County","1200 College Dr","82901",41.5847931,-109.2357623
"82901","Rock Springs","WY","Red Desert Insta-Care","2761 Commercial Way","82901",41.582786999999996,-109.25476299999998
"82923","Boulder","WY","Pinedale Medical Clinic","not_available","82941",42.87046272184652,-109.85319558973356
"82930","Evanston","WY","Wyoming State Hospital","not_available","82930",41.262867462399015,-110.95663904397472
"82930","Evanston","WY","Evanston Regional Hospital","190 Arrowhead Dr","82930",41.243263,-110.990799
"82930","Evanston","WY","Advanced Foot and Ankle Center","191 Overthrust Road","82930",41.24320983886719,-110.98693084716797
"82930","Evanston","WY","Bridger Valley Medical Group - Lyman","107 North Main Street","82937",41.3279789188387,-110.29334127902985
"83001","Jackson","WY","Jackson Hole Emergency Room","not_available","83001",43.479972165111455,-110.75135172048775
"83001","Jackson","WY","Teton Orthopaedics","555 E. Broadway","83001",43.471228,-110.766421
"83001","Jackson","WY","St. John's Family Health & Urgent Care","1415 S Hwy 89","83001",43.458606530612734,-110.79386948958398
"83001","Jackson","WY","St. John's Emergency Room","625 E Broadway Ave","83001",43.48006390030706,-110.74919640843223
"83001","Jackson","WY","St. John's Clinic at Teton Village","3345 Cody Lane","83025",43.58856538183298,-110.82924187119863
