"zip","city","state","name","address","postalCode","lat","lon"
"35004","Moody","AL","FBC Moody CLC","not_available","not_available",33.59525658883987,-86.49587658479183
"35004","Moody","AL","Christian Life Center","8332 Moody Pkwy","35120",33.623653411865234,-86.4532470703125
"35006","Adger","AL","wkot","not_available","35023",33.49433135986328,-87.11309814453125
"35007","Alabaster","AL","Alabaster YMCA","117 Plaza Cir","35007",33.21854858882584,-86.82711839675903
"35007","Alabaster","AL","Crossfit Alabaster","not_available","35007",33.25815736130302,-86.80020708628498
"35007","Alabaster","AL","Flip Factor","Hwy 11","35007",33.25644412788092,-86.80045865120853
"35007","Alabaster","AL","The Fitness Connection","3046 McDaniel St","35124",33.268798828125,-86.80928039550781
"35007","Alabaster","AL","Weight Room","1800 International Park Dr","35243",33.2013,-86.829604
"35007","Alabaster","AL","Snap Fitness","not_available","35080",33.26778636459003,-86.83254301497522
"35007","Alabaster","AL","Snap Fitness","301 Airport Commons Dr","35040",33.16629644556846,-86.77748240699448
"35010","Alexander City","AL","Anytime Fitness","26 Broad St","35010",32.94523,-85.95396
"35010","Alexander City","AL","Total Fitness @ Russell Medical Center","US 280","35010",32.93028485994354,-85.96830247810755
"35010","Alexander City","AL","Elite Fitness","Cherokee Rd","35010",32.92455442698496,-85.94444404911829
"35016","Arab","AL","working out at work","not_available","35016",34.32099151611328,-86.5048828125
"35016","Arab","AL","Anytime Fitness","1416 N Brindlee Mountain Pkwy","35016",34.34154033080421,-86.50245308876036
"35016","Arab","AL","Marshall Wellness Centers - North","40 Medical Park Dr","35976",34.36360980258929,-86.42236141097175
"35020","Bessemer","AL","AMP Fitness","700 Academy Dr","35022",33.358463287353516,-86.9988021850586
"35020","Bessemer","AL","Curves Of Hueytown","2910 Allison Bonnett Memorial Dr","35023",33.452873,-86.970603
"35020","Bessemer","AL","Legacy YMCA","1501 4th Ave SW","35022",33.3582725534289,-86.98918339669797
"35020","Bessemer","AL","Planet Fitness","528 W Town Plz","35020",33.390892,-86.977747
"35020","Bessemer","AL","Crossfit Bravery","not_available","35022",33.35847854614258,-86.9892349243164
"35020","Bessemer","AL","McAdory Middle School Gymnasium","5450 Yellow Jacket Blvd","35111",33.34884794152902,-86.98904333343872
"35020","Bessemer","AL","Fitness 1440","not_available","35224",33.45365925322038,-86.96808658199778
"35020","Bessemer","AL","FITNESS:1440","2801 Allison Bonnett Memorial Dr","35023",33.4533785928398,-86.96774588954924
"35022","Bessemer","AL","YMCA Hoover Branch","2250 John Hawkins Pkwy.","35244",33.34814958684324,-86.87018909018194
"35022","Bessemer","AL","Revolve Fitness","2201 Grand Ave","35226",33.397076081035166,-86.88326776230575
"35022","Bessemer","AL","Anytime Fitness","4955 McAdory School Rd","35111",33.33379,-87.00382
"35022","Bessemer","AL","the workout plave","not_available","35244",33.336129,-86.890248
"35022","Bessemer","AL","Alabama Cheerleading Center","3104 Morgan Rd","35022",33.3280513548135,-86.91111389644897
"35022","Bessemer","AL","Snap Fitness","3435 S Shades Crest Rd","35244",33.347445,-86.869348
"35022","Bessemer","AL","Benchmark Fitness","1209 Lake Dr SE","35022",33.3340603,-86.91818409999999
"35031","Blountsville","AL","Gym (aka Family Room)","Three Oaks Road","35031",34.07964824496904,-86.62737856492032
"35034","Brent","AL","BMC Wellness Center","not_available","35042",32.950132925210426,-87.14769289304374
"35034","Brent","AL","Fit Life","10462 Highway 5","35034",32.95892333984375,-87.17057800292969
"35040","Calera","AL","Snap Fitness","208 W College St","35051",33.17989730834961,-86.61128997802734
"35040","Calera","AL","Snap Fitness","101 Phillips Cir","35051",33.179871,-86.619359
"35040","Calera","AL","Gymnify Calera","100 Hampton Dr Ste F","35040",33.11848831176758,-86.75287628173828
"35043","Chelsea","AL","Round 1 Boxing","2650 Valleydale Rd","35244",33.3839045229902,-86.74095316074396
"35043","Chelsea","AL","LiveFIT","5502 Caldwell Mill Rd","35242",33.359970000000004,-86.737186
"35043","Chelsea","AL","Anytime Fitness","16054 Hwy. 280 Ste. 700","35043",33.35146,-86.6192
"35043","Chelsea","AL","Spain Park Gymnasium","not_available","35242",33.39304238454834,-86.7289725644476
"35043","Chelsea","AL","Blackwatch Sports Performance","19220 Highway 280","35242",33.37096968589488,-86.66184196274303
"35043","Chelsea","AL","Snap Fitness","20 Chelsea Cors","35043",33.346499437819816,-86.63215630276677
"35043","Chelsea","AL","Chelsea Family Fitness","16145 Highway 280","35043",33.34883117675781,-86.62150573730469
"35044","Childersburg","AL","Snap Fitness","James B Payton Blvd","35150",33.178072627697205,-86.28803655744748
"35045","Clanton","AL","YMCA","405 Ollie Ave","35045",32.8497314453125,-86.62934875488281
"35045","Clanton","AL","Express Fitness","210B 7th St S","35045",32.836388,-86.628879
"35045","Clanton","AL","American Fitness & Health","not_available","35045",32.838829,-86.631618
"35049","Cleveland","AL","LFBC Family Life Center","not_available","35097",33.91090419216322,-86.61338190120264
"35054","Cropwell","AL","School Of Hard Knocks","not_available","35054",33.47464029768286,-86.31614629835977
"35054","Cropwell","AL","Snap Fitness","2401 Stemley Bridge Road","35125",33.55642377461051,-86.27035335438981
"35055","Cullman","AL","Cullman Wellness And Aquatic Center","not_available","35055",34.158187000614284,-86.85142099107834
"35055","Cullman","AL","CGCA","1515 Sportsman Lake Rd NW","35055",34.19464111328125,-86.8572769165039
"35055","Cullman","AL","Next Level Sports Training","902 Commercial Street NE","35077",34.15637465,-86.7580773
"35055","Cullman","AL","Relentless Fitness","1711 Tally Ho St NW","35055",34.16767501831055,-86.86724853515625
"35055","Cullman","AL","CGCA","1511 Sportsman Lake Rd NW","35055",34.19483721878619,-86.85816261438818
"35055","Cullman","AL","Healthfit","1656 Town Sq SW","35055",34.15998077392578,-86.83712768554688
"35055","Cullman","AL","Anytime Fitness","1845 Patriot Way SW","35055",34.15203,-86.84073
"35058","Cullman","AL","SportsFit","17721","35058",34.22314549499376,-86.8601618217389
"35061","Dolomite","AL","bodyshaper","not_available","48009",33.459515607176485,-86.94095134735107
"35062","Dora","AL","Curves","100 Hull Rd","35148",33.75558853149414,-87.06173706054688
"35062","Dora","AL","TnT Tumblers","not_available","35062",33.74597930908203,-87.08837127685547
"35064","Fairfield","AL","Riviera Fitness","161 Bessemer Super Hwy","35228",33.46358874128042,-86.91404845152876
"35064","Fairfield","AL","David W. Craig Sports Complex","6746 Seminole Cir","35064",33.47001266479492,-86.92465209960938
"35064","Fairfield","AL","Elite Fitness","322 46th St","35064",33.49179,-86.915396
"35068","Fultondale","AL","Fitness Gym","not_available","35068",33.606592,-86.807427
"35068","Fultondale","AL","S.W.A.T.S. Fitness","220 Decatur Hwy","35071",33.62950897216797,-86.80492401123047
"35068","Fultondale","AL","Crossfit Mephobia","222 Decatur Hwy","35071",33.6295351,-86.80493477
"35071","Gardendale","AL","Pro Nutrition","not_available","35071",33.681918,-86.820599
"35071","Gardendale","AL","10-41 Strength And Conditioning","9288 Stouts Rd","35091",33.77312088012695,-86.81298828125
"35071","Gardendale","AL","Gardendale Civic Center Gym","850 Main St","35071",33.64616775512695,-86.81426239013672
"35071","Gardendale","AL","Tri-Star Fitness","438 Decatur Hwy","35071",33.63630622520319,-86.80696251030065
"35071","Gardendale","AL","Global Gym","not_available","35180",33.79104827,-86.82618729
"35071","Gardendale","AL","CrossFit Gardendale","955 Main St","35071",33.65046310424805,-86.81100463867188
"35080","Helena","AL","Helena Health Club","4766 Highway 52 W","35080",33.282356,-86.854238
"35080","Helena","AL","Mspark Fitness Center","5901 Highway 52 E","35080",33.28980255126953,-86.82738494873047
"35085","Jemison","AL","Anytime Fitness","24571 US Hwy 31","35085",32.95766,-86.74343
"35094","Leeds","AL","Treadmill Room","not_available","35173",33.58709716796875,-86.58507537841797
"35094","Leeds","AL","Sports Flex","1101-1531 Weaver Ave NE","35004",33.56116175651453,-86.519587039945
"35094","Leeds","AL","Joe's Gym","not_available","35094",33.55338049128082,-86.53380683114445
"35111","Mc Calla","AL","Crossfit Mccalla","not_available","35111",33.276748889880665,-87.06293103586636
"35115","Montevallo","AL","Training Champions","620 Main St","35115",33.099687,-86.863553
"35121","Oneonta","AL","Shape'n Up Fitness Center LLC (Shape'N Up Fitness Center LLC)","501 1st Ave E","35121",33.947309,-86.471834
"35121","Oneonta","AL","The Temple Of Doom","Kingsview Ct.","not_available",33.895662,-86.521198
"35121","Oneonta","AL","Crossfit Oneonta","635 Underwood Ave","35121",33.94330978393555,-86.46401977539062
"35121","Oneonta","AL","The Gym","27550 Highway 75","35121",33.93221367339357,-86.49481458247007
"35121","Oneonta","AL","McDaniel Gym Oneonta","not_available","35121",33.946079842083,-86.47037288812662
"35124","Pelham","AL","Planet Fitness","1839 Montgomery Hwy,Suite 40","35244",33.370911398704536,-86.79769907456365
"35124","Pelham","AL","YMCA","2610 Pelham Pkwy","35124",33.3199215271511,-86.79858747768951
"35124","Pelham","AL","Gold's Gym","2244 A Pelham Parkway","35124",33.333501590358495,-86.79394966377004
"35124","Pelham","AL","Summerchase at Riverchase","100 Summerchase Dr","35244",33.35655722717263,-86.79119557142258
"35124","Pelham","AL","Jazzercise","106 David Green Rd Suite E","35244",33.34725570678711,-86.80170440673828
"35124","Pelham","AL","Orangetheory Fitness","4441 Creekside Ave","35244",33.373768,-86.816521
"35124","Pelham","AL","F45 Training South Hoover","1713 Montgomery Highway","35244",33.38188534,-86.80461323
"35124","Pelham","AL","Trinity CrossFit","550 Keystone Ct","35124",33.27344437736211,-86.81234824921214
"35124","Pelham","AL","The Path Gym","260 Commerce Pkwy","35124",33.3298369,-86.79540750000001
"35124","Pelham","AL","Godspeed","110 Little Valley Ct","35244",33.3502197265625,-86.78760528564453
"35124","Pelham","AL","Hoover Recreation Center","600 Municipal Dr","35216",33.38841828367561,-86.80149643012807
"35124","Pelham","AL","Blue Cross Gym","450 Riverchase Pkwy E","35244",33.36695861816406,-86.7882080078125
"35124","Pelham","AL","Crunch Fitness - Hoover","1694 Montgomery Hwy","35216",33.3884453,-86.8081469
"35125","Pell City","AL","pell city commuity center","19th Street","35125",33.603891889082334,-86.27873025019667
"35125","Pell City","AL","The Gym","not_available","35125",33.600432730455886,-86.28647735944092
"35125","Pell City","AL","Total Body Fitness","not_available","35135",33.590080720476394,-86.23430384405958
"35125","Pell City","AL","Academia W Fitness","Bangu","35125",33.58621597290039,-86.28608703613281
"35125","Pell City","AL","Workout Anytime Pell City","613 Martin Street N","35125",33.594677,-86.284256
"35126","Pinson","AL","YMCA","2701 8th St NE","35215",33.65392303466797,-86.66874694824219
"35126","Pinson","AL","Jones","not_available","35235",33.65431558584024,-86.64153857670269
"35126","Pinson","AL","Lyons Gym","3030 Fox Glen Cir, Birmingham, AL 35215","35215",33.66115797955515,-86.69713025999874
"35126","Pinson","AL","Pinson Valley Gym","not_available","35126",33.70386249968713,-86.66843975427206
"35126","Pinson","AL","Snap Fitness","5104 Old Springville Rd","35126",33.65599060058594,-86.64620208740234
"35128","Pell City","AL","Bender's Gym","923 Martin St S","35128",33.579383494683924,-86.27704679568373
"35146","Springville","AL","Ultimate Fitness","Hwy 11","35146",33.77146530151367,-86.47537231445312
"35146","Springville","AL","Snap Fitness Springville","300 Springville Sta","35146",33.77782516965202,-86.4341289278073
"35147","Sterrett","AL","Gravlee Fitness","not_available","35147",33.40775850510064,-86.63050425606454
"35150","Sylacauga","AL","The Eve Element","1029 A W Ft Williams St","35150",33.166172,-86.268796
"35150","Sylacauga","AL","Workout Anytime","544 W Fort Williams St","35150",33.168508,-86.258627
"35150","Sylacauga","AL","AZ Gym","Basement","35150",33.159829,-86.258409
"35160","Talladega","AL","Snap Fitness","Battle Street","35160",33.43485641479492,-86.09910583496094
"35160","Talladega","AL","April's Gym","not_available","36268",33.507293701171875,-85.94427490234375
"35160","Talladega","AL","Shocco Springs Gymnasium","not_available","35160",33.4524399042446,-86.13636613417506
"35173","Trussville","AL","YMCA","5920 Valley Rd","35173",33.63873309683667,-86.61656263812345
"35173","Trussville","AL","Orangetheory Fitness","2050 Gadsden Hwy","35235",33.61239242553711,-86.62455749511719
"35173","Trussville","AL","Anytime Fitness","322 Main St","35173",33.61861,-86.6128
"35173","Trussville","AL","CrossFit Trussville","1840 Gadsden Hwy Ste 112","35235",33.60822086802007,-86.63091631203623
"35173","Trussville","AL","Heroes Martial Arts Academy","1840 Gadsden Hwy, 112","35235",33.608242678785984,-86.63087751842
"35173","Trussville","AL","CrossFit Trussville","139 Railroad St","35173",33.6196668522119,-86.60457718349646
"35184","West Blocton","AL","Fitness Center","Mercedes Drive","35490",33.1902239,-87.256311
"35203","Birmingham","AL","YMCA Downtown Branch","2101 4th Ave N","35203",33.517853079366255,-86.80572321500246
"35203","Birmingham","AL","Sheraton Birmingham Fitness Center","2101 Richard Arrington Jr Blvd N","35203",33.52410424317318,-86.81003849217358
"35203","Birmingham","AL","Irontribe Fitness Downtown","300 27th St S","35233",33.5143016944324,-86.79300302046686
"35203","Birmingham","AL","Tutwiler Workout Room","not_available","35203",33.519196,-86.809169
"35203","Birmingham","AL","Wheel House Academy","2424 4th Ave S","35233",33.512418,-86.79560699999999
"35203","Birmingham","AL","Cityville Gym","2000 2nd Ave S","35233",33.51165771484375,-86.8028564453125
"35203","Birmingham","AL","Orangetheory Fitness","117 20th St S","35233",33.511392,-86.803473
"35203","Birmingham","AL","University House Gym","not_available","35233",33.50590922601888,-86.81234728769445
"35203","Birmingham","AL","Adeptio Fitness","1901 6th Ave N","35203",33.51875093561758,-86.80894046533751
"35203","Birmingham","AL","Colonial Plaza","2101 6th Ave N","35203",33.51966322973402,-86.80724739868836
"35203","Birmingham","AL","The Gym/Underground Lair","1729 5th Ave N","35203",33.51641082763672,-86.81168365478516
"35205","Birmingham","AL","YMCA Mountain Brook Branch","2401 20th Pl S","35223",33.4875412993203,-86.78577180571106
"35205","Birmingham","AL","Iron Tribe Fitness","2340 Central Ave","35209",33.479766604451534,-86.79541632599093
"35205","Birmingham","AL","UAB Campus Recreation Center","1513 University Blvd","35294",33.50122961342443,-86.80506002422709
"35205","Birmingham","AL","Snap Fitness","2835 Highland Ave S","35205",33.50622457721209,-86.78217275925873
"35205","Birmingham","AL","Chambers Total Body","600 Olde English Ln","35223",33.49510027,-86.78078254
"35205","Birmingham","AL","Large Throne Room @ FTMB","2410 Fairway Dr","35213",33.495033264160156,-86.7809829711914
"35205","Birmingham","AL","PhysioFitness Homewood","3125 Independence Dr","35209",33.474604,-86.786545
"35205","Birmingham","AL","Neighborhood Barre Birmingham","2808 7th Ave S Ste 102","35233",33.51157614336864,-86.78837758035661
"35205","Birmingham","AL","Crossfit Laminin","533 University Blvd","35205",33.495157,-86.818449
"35205","Birmingham","AL","Phase Gym","615 28th St S","35233",33.511943,-86.789284
"35205","Birmingham","AL","Residence Inn UAB Gym","822 S 20th Street","not_available",33.504044017065276,-86.79836590080349
"35205","Birmingham","AL","Kilowog's Training","not_available","35205",33.489442,-86.807034
"35205","Birmingham","AL","Hotel Highland Fitness Center","5 Points","not_available",33.49661636352539,-86.79769897460938
"35205","Birmingham","AL","Unbound Yoga with Meredith","2704 20th St S","35209",33.482663,-86.787855
"35205","Birmingham","AL","zumba with Camille","Homewood Community Center, 1632 Oxmoor Rd, Birmingham, AL 35209-3910","35209-3910",33.47599792480469,-86.79867553710938
"35205","Birmingham","AL","Sweat & Gears","2809 Central Ave","35209",33.47983169555664,-86.79473876953125
"35206","Birmingham","AL","Planet Fitness","9118 Parkway E","35206",33.585823532343255,-86.70309926155522
"35208","Birmingham","AL","Birmingham Health & Fitness Training Center West","4712 Avenue W","35208",33.49432373046875,-86.87528991699219
"35208","Birmingham","AL","P&S Weight Room","not_available","35218",33.515055005692496,-86.89870260825337
"35209","Birmingham","AL","YMCA Shades Valley Branch","3551 Montgomery Hwy","35209",33.469975697499635,-86.77817435461408
"35209","Birmingham","AL","Lakeshore Foundation","4000 Ridgeway Dr","35209",33.46955015770263,-86.78753969327263
"35209","Birmingham","AL","Orangetheory Fitness","790 Montgomery Hwy","35216",33.44477844238281,-86.79314422607422
"35209","Birmingham","AL","Riviera Fitness Center","372 Palisades Blvd # 24-A","35209",33.46902333452003,-86.81984210723239
"35209","Birmingham","AL","Planet Fitness","140 Wildwood Pkwy","35209",33.44928716737196,-86.82583092523883
"35209","Birmingham","AL","Planet Fitness","700 Montgomery Hwy,Suite 138","35216",33.44646177471882,-86.79170976513404
"35209","Birmingham","AL","Protective Gym","2801 Highway 280 S","35223",33.476951599121094,-86.77069091796875
"35209","Birmingham","AL","Get Trained Studio (survival of the fittest)","not_available","35209",33.453591770366785,-86.83742174176784
"35209","Birmingham","AL","ProAssurance Fitness Center","100 Brookwood Pl","35209",33.466153,-86.773804
"35209","Birmingham","AL","Gym @ Mayfair","3460 Manor Ln","35209",33.471126,-86.784498
"35209","Birmingham","AL","Birmingham Gym","914 Oak Grove Rd","35209",33.45467758178711,-86.82955932617188
"35209","Birmingham","AL","D1 Sports Training and Therapy","1651 Independence Ct","35216",33.46225608738542,-86.77865527709794
"35209","Birmingham","AL","Burn","504 Broadway St","35209",33.46786880493164,-86.81039428710938
"35209","Birmingham","AL","The Gym at Lakeshore Ridge","Lakeshore Ridge, Birmingham, AL 35211","35211",33.43545614694977,-86.84010554748562
"35209","Birmingham","AL","YMCA Vestavia Express Branch","2086 Columbiana Rd","35216",33.43617828354916,-86.81086494553242
"35209","Birmingham","AL","HD Strength & Conditioning","120 Oxmoor Ct #B","35209",33.44208526611328,-86.84337615966797
"35209","Birmingham","AL","Birmingham Country Club","3325 Country Club Rd","35213",33.496449162257285,-86.76709710515274
"35209","Birmingham","AL","My Therapy Room","not_available","35216",33.448368072509766,-86.79024505615234
"35210","Birmingham","AL","McElwain Recreation Center","4445 Montevallo Rd, Birmingham, AL 35213","35213",33.51775482304684,-86.72811439014387
"35210","Birmingham","AL","Mcelwain Recreation Center","not_available","35210",33.55217585986108,-86.66275867081703
"35210","Birmingham","AL","YMCA Northeast Branch","628 Red Lane Rd","35215",33.591615999999995,-86.698103
"35210","Birmingham","AL","Huffman Baptist Rec.","700 Huffman Rd","35215",33.59860610961914,-86.69081115722656
"35210","Birmingham","AL","Planet Fitness","4500 Montevallo Rd","35210",33.521461074435834,-86.72706961638826
"35210","Birmingham","AL","Iron Beach Gym","1729 Crestwood Blvd","35210",33.531366,-86.705665
"35210","Birmingham","AL","Heavy Metal Girya","2627 Crestwood Blvd","35210",33.53786849975586,-86.69287109375
"35210","Birmingham","AL","Heavy Metal Girya","7001 Crestwood Blvd #614","35210",33.531307220458984,-86.73194122314453
"35210","Birmingham","AL","Flex Fitness","1847 Crestwood Blvd","35210",33.533440999999996,-86.701397
"35210","Birmingham","AL","ePLEX Magic City","7001 Crestwood Boulevard","35201",33.52740484,-86.73180172
"35210","Birmingham","AL","Ironbody Training & Fitness","1165 Gadsden Hwy Ste 101","35235",33.58970642089844,-86.65260314941406
"35211","Birmingham","AL","ReVamp Fitness","not_available","35228",33.473765,-86.888631
"35211","Birmingham","AL","Station 25 weight room","wilson rd sw","35221",33.45025634765625,-86.88672637939453
"35211","Birmingham","AL","Wildwood Crossings Weight Room","901 Wildwood Crossings","35211",33.43210220336914,-86.8437728881836
"35211","Birmingham","AL","Zumba with Ashley","not_available","35226",33.413983596573274,-86.84452618643857
"35213","Birmingham","AL","The J","not_available","35213",33.511342672466405,-86.75416637807409
"35213","Birmingham","AL","Iron Tribe Fitness Mountain Brook","15 Dexter Avenue","35213",33.503435031505425,-86.75562143325806
"35213","Birmingham","AL","infinity gym","3700 River Run Drive","35243",33.48315233207724,-86.71084267681266
"35213","Birmingham","AL","Trinity Fitness Center","700-750 Montclair Rd","35213",33.51248484227889,-86.75200319516979
"35213","Birmingham","AL","Irontribe Fitness Mtn. Brook","15 Dexter Ave","35213",33.502831,-86.755511
"35213","Birmingham","AL","Barry's Bootcamp","3552-4298 13th Ct S","35213",33.507947493431864,-86.77021001727482
"35213","Birmingham","AL","The Fitness Center","3900 Montclair Rd Ste 210","35213",33.506622314453125,-86.76190948486328
"35213","Birmingham","AL","Total Fitness Consultants Inc","204 Country Club Park","35213",33.5027947,-86.7571146
"35214","Birmingham","AL","Anytime Fitness","1984 Veterans Memorial Dr","35214",33.57392883300781,-86.9062271118164
"35215","Birmingham","AL","Swag The Dog","1125 Ladonna Dr","35235",33.63056945800781,-86.6590576171875
"35216","Birmingham","AL","24e","1550 Montgomery Hwy Ste B","35216",33.408604,-86.808295
"35216","Birmingham","AL","J19 Fitness","3414 A Lorna Lane","35216",33.39506833404586,-86.7948181231335
"35216","Birmingham","AL","Sports Medicine & Fitness Institute","2221 Old Columbiana Road","35216",33.430728984915575,-86.80959118753297
"35216","Birmingham","AL","J19 Fitness Powered By Crossfit","3414A Lorna Lane","35216",33.415952434702966,-86.79459664171056
"35216","Birmingham","AL","Spade Nation","3432 Loch Haven Dr","35216",33.404466,-86.78027
"35216","Birmingham","AL","Anytime Fitness","1360 Montgomery Hwy Ste 120","35216",33.42644,-86.79385
"35216","Birmingham","AL","Champions Freestyle Fitness","1425 Montgomery Hwy #47","35216",33.42184399246316,-86.7962694711792
"35216","Birmingham","AL","Gramercy Parc Fitness","not_available","35243",33.428391408483385,-86.77053784932384
"35216","Birmingham","AL","Xcite Fitness","2531 Rocky Ridge Rd, Suite 104","35243",33.4259724,-86.77161970000002
"35222","Birmingham","AL","IMS Wellness Center","3328 2nd Ave. N","35222",33.52429521675985,-86.78789377212524
"35222","Birmingham","AL","Lakeview Personal Fitness","3020 4th Ave S","35233",33.51636481149543,-86.7873250431069
"35222","Birmingham","AL","CrossFit Rebellion","3029 6th Ave S","35233",33.51386751691324,-86.78544667283118
"35223","Birmingham","AL","Anytime Fitness","11971 Liberty Pkwy","35242",33.473925207384355,-86.69454753398895
"35223","Birmingham","AL","ACE of Birmingham","301 Snow Dr","not_available",33.46822683004566,-86.7867949369287
"35226","Birmingham","AL","Fitness Together","2341 John Hawkins Pkwy","35244",33.353032,-86.863451
"35226","Birmingham","AL","Fitness Together","191 Main St","35244",33.373768,-86.816521
"35226","Birmingham","AL","Anytime Fitness","5529 Grove Blvd","35226",33.361793,-86.853157
"35226","Birmingham","AL","The Jungle Gym Olympic Training Center","100-198 Three Sons Dr","35226",33.41958042621411,-86.81488256578515
"35226","Birmingham","AL","Embassy Suites Fitness Center","2960 John Hawkins Pkwy","35244",33.36940383911133,-86.8161849975586
"35226","Birmingham","AL","Forge Fitness","2112 Columbiana Rd","35216",33.43436042536893,-86.81195006580701
"35242","Birmingham","AL","Planet Fitness","168 Inverness Plz","35242",33.41909671317388,-86.69707042601384
"35242","Birmingham","AL","Life Time Fitness","3051 Healthy Way","35243",33.430152,-86.735574
"35242","Birmingham","AL","YMCA Greystone Branch","5414 Highway 280","35242",33.41696212118077,-86.66930775263093
"35242","Birmingham","AL","Gold's Gym","3427 Colonnade Parkway","35243",33.437446264869884,-86.72718012705445
"35242","Birmingham","AL","Gym @ Colony Woods","Colony Woods Dr.","35243",33.433324724922684,-86.72823408636205
"35242","Birmingham","AL","Drake Fitness","4704 Cahaba River Rd","35243",33.43227767944336,-86.7377700805664
"35242","Birmingham","AL","Quevity","220 Doug Baker Blvd","35242",33.41075609,-86.66629617
"35242","Birmingham","AL","Fitness Xpress","210 Doug Baker Blvd","35242",33.410451369248314,-86.66616084134039
"35242","Birmingham","AL","Sportplex","4766 Highway 280","35242",33.4205436706543,-86.69804382324219
"35242","Birmingham","AL","Marriott Fitness Room","3590 Grandview Pkwy","35243",33.436126708984375,-86.71766662597656
"35242","Birmingham","AL","Fit 280","201 Cahaba Park Cir","35242",33.429569,-86.706586
"35242","Birmingham","AL","Fitness Zone","Colonnade Pkwy","35243",33.437663,-86.727962
"35242","Birmingham","AL","Jazzercise Cahaba Heights Fitness Center","3244 Cahaba Heights Rd","35243",33.454830169677734,-86.72869110107422
"35242","Birmingham","AL","Brook Highland Apartments Fitness Center","1105 Meadow Dr","35242",33.42387912832736,-86.67916565789032
"35243","Birmingham","AL","33 Health Club","33 Inverness Center Pkwy","35242",33.41944885253906,-86.70868682861328
"35243","Birmingham","AL","Wilkins Solutions: Fitness Equipment, Playground Equipment, Patio Furniture and More!","32156 Colonial Brookwood Village","35223",33.47152675690411,-86.7678952217102
"35243","Birmingham","AL","Snap Fitness","Rocky Ridge","not_available",33.42479467904246,-86.77311663845292
"35243","Birmingham","AL","CORE pilates, Bootcamp, Cycling","4248 Cahaba Heights Ct Ste 140","35243",33.45331535592135,-86.73470727799146
"35401","Tuscaloosa","AL","UREC Student Recreation Center","401 5th Ave E","35401",33.212124126562465,-87.53211617751596
"35401","Tuscaloosa","AL","Planet Fitness","635 Skyland Blvd","35405",33.163814544677734,-87.54585266113281
"35401","Tuscaloosa","AL","Planet Fitness","1800 McFarland Blvd E, Ste 321","35404",33.19355764279703,-87.52865403932948
"35401","Tuscaloosa","AL","Orangetheory Fitness","1451 Doctor Edward Hillard Dr","35401",33.198648,-87.528183
"35401","Tuscaloosa","AL","Country Club Gym","not_available","35405",33.15428129742733,-87.55909826861723
"35401","Tuscaloosa","AL","Skyy Boxing Gym","123 30th Ave Ste 10","35476",33.216392517089844,-87.58563995361328
"35401","Tuscaloosa","AL","F45 Training Downtown Tuscaloosa","2008 University Blvd","35401",33.2115084,-87.5637961
"35401","Tuscaloosa","AL","Armed Forces Reserve Center Gym","10300 Highway 69 S","35405",33.11438751220703,-87.55154418945312
"35401","Tuscaloosa","AL","Coleman Weight Room","In the Underbelly of Coleman Coliseum","35401",33.20332212840255,-87.53968928768433
"35401","Tuscaloosa","AL","Head Hunter's Crossfit","not_available","35401",33.17859600482349,-87.55816663166345
"35401","Tuscaloosa","AL","YMCA of Tuscaloosa County","2405 Paul W Bryant Dr","35401",33.204509616836965,-87.56734371185303
"35401","Tuscaloosa","AL","Bama Bounders","200 14th St Ste 2","35401",33.20044779772401,-87.53715974219503
"35401","Tuscaloosa","AL","CrossFit Innovate","1049 Martin Luther King Jr Blvd","35476",33.228936,-87.568843
"35401","Tuscaloosa","AL","UD Gym","15th Street","35401",33.200015499494725,-87.53439143407066
"35404","Tuscaloosa","AL","GFG Fitness","1030 13th St E","35404",33.20110852623688,-87.52199596912665
"35404","Tuscaloosa","AL","Campus Way Apartments","301 Helen Keller Blvd","35404",33.21397564896907,-87.51926252182116
"35404","Tuscaloosa","AL","Traditions Condominiums","3218 Veterans Memorial Pkwy","35404",33.19828568276471,-87.49395529116167
"35404","Tuscaloosa","AL","Tru Fitness","not_available","35406",33.24068600548669,-87.50430897209814
"35404","Tuscaloosa","AL","Campus Way Gym","not_available","35404",33.21546486947203,-87.51959091738514
"35404","Tuscaloosa","AL","Capstone Quarters Workout Room","303 Helen Keller Blvd","35404",33.214046478271484,-87.5176773071289
"35404","Tuscaloosa","AL","World's Gym","1031 13th St E","35404",33.200520097433994,-87.52173110342738
"35405","Tuscaloosa","AL","Crunch Fitness - Tuscaloosa","3325 McFarland Blvd E","35405",33.178080623108286,-87.5233560499976
"35405","Tuscaloosa","AL","Fitness South","69 South","35405",33.11318395913864,-87.483993
"35405","Tuscaloosa","AL","Gym","3201 Hargrove Rd E","35405",33.174625396728516,-87.49574279785156
"35406","Tuscaloosa","AL","Northbrook Fitness Center","800 Energy Center Blvd","35473",33.240403,-87.558293
"35406","Tuscaloosa","AL","strong Inc","611 McFarland Blvd","35476",33.236541748046875,-87.56593322753906
"35406","Tuscaloosa","AL","Curves For Women","80 McFarland Blvd Ste 12","35476",33.23765182495117,-87.55479431152344
"35406","Tuscaloosa","AL","CrossFit NorthRidge","300 McFarland Blvd","35476",33.23746905115769,-87.559800037206
"35406","Tuscaloosa","AL","Pure Barre","1520 McFarland Blvd N Ste E","35406",33.23159027426719,-87.53744029694155
"35406","Tuscaloosa","AL","Gym","not_available","35473",33.27294617361916,-87.56829294622362
"35443","Boligee","AL","Curtfit","Warrior St","35462",32.84820823767567,-87.90545350414205
"35470","Livingston","AL","Curves","1315 US Highway 80 W","36732",32.49266052246094,-87.85401153564453
"35473","Northport","AL","Temple Gym","not_available","35476",33.257669682947224,-87.56877072954354
"35473","Northport","AL","Fitness One","1325 McFarland Blvd","35476",33.237461,-87.570838
"35473","Northport","AL","The Complexx","3817 McFarland Blvd","35476",33.239388,-87.593704
"35473","Northport","AL","Gym","5905 Northwood Lake Dr E","35473",33.2645263671875,-87.57720947265625
"35473","Northport","AL","Strong 24hr Gym","902A Union Chapel Rd","35473",33.2576904296875,-87.56890869140625
"35501","Jasper","AL","Planet Fitness","714 Hwy 78 E","35501",33.849663,-87.265342
"35501","Jasper","AL","Fitness Factory & Spa","4504 Old US Highway 78","35501-8804",33.830637842457065,-87.21286959072981
"35501","Jasper","AL","Bama Elite Fitness","not_available","35504",33.84722441272427,-87.25809920833163
"35501","Jasper","AL","CrossFit Jasper","1502 Highway 78 E","35501",33.84674072265625,-87.25796508789062
"35501","Jasper","AL","Chris's Gym","Cordova","35550",33.76232456279155,-87.19274170847487
"35540","Addison","AL","peppers trampoline","not_available","35540",34.205013275146484,-87.1946029663086
"35563","Guin","AL","Northwest Wellness Center","Winfield","35594",33.93160587159046,-87.82561351572731
"35563","Guin","AL","Anytime Fitness","2365 US-43","35594",33.93526,-87.83762
"35570","Hamilton","AL","Anytime Fitness","1500 Military St","35570",34.1227,-87.99131
"35586","Sulligent","AL","VFUMC Family Life Center","Columbus Ave.","35592",33.756698620966745,-88.10744404792786
"35586","Sulligent","AL","Eaves Karate Gym","not_available","35592",33.760333800935214,-88.10865092515269
"35601","Decatur","AL","Bender's Gym","1111 Knight St SE","35601",34.56667234452829,-86.97550658092139
"35601","Decatur","AL","Iron Lung Fitness","not_available","35601",34.603919376725784,-86.98654570789284
"35601","Decatur","AL","Hartselle Athletic Club","not_available","35640",34.591188079451726,-87.03709231776735
"35601","Decatur","AL","Decatur Athletic Club","219 2nd Ave SE","35601",34.60207953926158,-86.98554267191079
"35601","Decatur","AL","Fitness Center","1101 6th Avenue Northwest","35601",34.611023040889854,-86.97809703737936
"35601","Decatur","AL","Sportsfit","not_available","35603",34.564719523507414,-87.016776
"35601","Decatur","AL","Rock Gym","not_available","35673",34.60750505616713,-87.08401131107965
"35601","Decatur","AL","Decatur Athletic Club","1821 Beltline Rd SW","35601",34.574391634485366,-87.01669830971947
"35603","Decatur","AL","Pro Fitness & Tanning","3521 Indian Hills Rd SE","35603",34.53879165649414,-86.91795349121094
"35603","Decatur","AL","Max Fitness","3110 Highway 31 S","35603",34.550191999999996,-86.972798
"35603","Decatur","AL","Tammys Gym","not_available","35756",34.598388,-86.837071
"35611","Athens","AL","Athens Limestone Wellness Center","not_available","35611",34.801483,-86.981186
"35611","Athens","AL","Holiday Inn Fitness Center","not_available","35613",34.785200507778285,-86.94070495694766
"35611","Athens","AL","Riviera Fitness Center","611 US Highway 72 W Ste A104","35611",34.789398193359375,-86.97579193115234
"35614","Athens","AL","Elkmont New Gym","not_available","35620",34.93025639041542,-86.96830654979317
"35620","Elkmont","AL","Prime Time Basketball Academy","27881 Salem Minor Hill Rd","35647",34.96185302734375,-87.11366271972656
"35630","Florence","AL","Max Fitness","780 Cox Creek Pkwy","35630",34.844315406236014,-87.66663528944656
"35630","Florence","AL","Anytime Fitness","1601 Darby Dr","35630",34.82034,-87.65706
"35630","Florence","AL","Max Fitness","not_available","35630",34.796519215387534,-87.67426280540457
"35630","Florence","AL","Johnsons Gym","not_available","35634",34.834174,-87.609932
"35630","Florence","AL","Gold's Gym","412 S Court St","35630",34.796785781347154,-87.67436253168495
"35630","Florence","AL","Workout Anytime","992 Cox Creek Pkwy","35630",34.840155,-87.687366
"35630","Florence","AL","Crunch Fitness - Florence AL","1832 Darby Drive","35630",34.8215181,-87.65632079999999
"35630","Florence","AL","Marriott Gym","Cox Creek Parkway","not_available",34.80840971145024,-87.63073416444381
"35630","Florence","AL","Court House Racquet Club","1545 Helton Dr","35630",34.82280738614719,-87.6675526340739
"35630","Florence","AL","Curves Florence","2630 Hough Rd","35630",34.833866119384766,-87.63460540771484
"35630","Florence","AL","YMCA Shoals","2121 Helton Dr","35630",34.8326718140148,-87.66852784138466
"35630","Florence","AL","Crossfit No'Ala","116 Helton Ct","35630",34.833091735839844,-87.6662826538086
"35630","Florence","AL","Planet Fitness","1518 Florence Blvd","35630",34.818067,-87.655235
"35633","Florence","AL","Massey/Fowler Workout Room","not_available","35660",34.737447,-87.727152
"35634","Florence","AL","Garage","7600-7622 Lakewood Dr","35634",34.836608633333334,-87.57690986666667
"35640","Hartselle","AL","Bender's Gym","1309 Highway 31 NW","35640",34.45552793341864,-86.94769954350994
"35648","Lexington","AL","No Doubt Fitness Studio","10001 Highway 64","35648",34.9721794128418,-87.3722915649414
"35650","Moulton","AL","Moulton Recreation","13301-14095 County Road 460","35650",34.48034147628073,-87.30544523204019
"35652","Rogersville","AL","WEIGHT ROOM LCHS","college street","35652",34.81907645,-87.28826651666667
"35652","Rogersville","AL","ABAC'S Fitness Center","384 Tracey Ln","35652",34.851281319725686,-87.3922380302057
"35653","Russellville","AL","Freemons","not_available","35653",34.49903106689453,-87.7660903930664
"35661","Muscle Shoals","AL","Health And Fitness Unlimited","2510 Rosedale St","35661",34.75590920714823,-87.63543847723045
"35661","Muscle Shoals","AL","Blood Sweat and Tears Gym","not_available","35661",34.74787902832031,-87.64265441894531
"35661","Muscle Shoals","AL","Workout Anytime","300 S Wilson Dam Rd","35661",34.757316,-87.634901
"35670","Somerville","AL","Monster Tumble & Cheer","not_available","35670",34.44954780505357,-86.75267377312552
"35674","Tuscumbia","AL","Dynamic Fitness","355 Mitch Ave","35674",34.713006507743515,-87.70332136635079
"35741","Brownsboro","AL","CrossFit Moontown","5534 Highway 431 South","35763",34.69033259507613,-86.50809089400288
"35741","Brownsboro","AL","sweatlocal","2124 Cecil Ashburn Dr SE","35802",34.67214685505899,-86.53506875038147
"35741","Brownsboro","AL","CYWO","not_available","35741",34.690521240234375,-86.50787353515625
"35741","Brownsboro","AL","Legacy Fitness Center","1 Legacy Farm Dr SE","35802",34.674419216002946,-86.53575350585736
"35741","Brownsboro","AL","Sweat Huntsville","2124 Cecil Ashburn Dr SE Ste 110","35802",34.672061920166016,-86.53533935546875
"35747","Grant","AL","","K","O",34.530465,-86.250952
"35747","Grant","AL","Mountain Lakes Resort Adult Fitness Facility","1345 Murphy Hill Rd","35755",34.46370106266153,-86.18647813796997
"35747","Grant","AL","Burkey Center","not_available","35747",34.533840196900634,-86.25379565761439
"35749","Harvest","AL","Anytime Fitness","1874 G Slaughter Rd.","35758",34.75276,-86.71518
"35749","Harvest","AL","24/7 Fitness Center","481 Kelly Spring Rd","35749",34.81610048080903,-86.68683114081097
"35749","Harvest","AL","Empire Fitness","7696 Hwy 72 West Bay 110 Huntsville AL 35757","35758",34.75681468848552,-86.7373719442122
"35749","Harvest","AL","Studio 180 Fitness","1593 Hughes Rd Ste F","35758",34.749377,-86.740282
"35749","Harvest","AL","Emerald Ridge Gym","not_available","35806",34.77248023722521,-86.67557092149293
"35749","Harvest","AL","Curves","not_available","35749",34.803721050242295,-86.7491286536556
"35749","Harvest","AL","Crossfit CHAMP","not_available","35758",34.75624934337092,-86.72564182316235
"35749","Harvest","AL","Providence Place Gym","500 Providence Main St NW","35806",34.755433689296304,-86.68920338213513
"35749","Harvest","AL","Orangetheory Fitness","8141 Highway 72 W","35758",34.75032043457031,-86.754638671875
"35749","Harvest","AL","C.H.A.M.P. Performance Training, 24/7 Gym","7425 Highway 72 W","35758",34.75629435969226,-86.72566043451461
"35749","Harvest","AL","Bridgewater Gym","1501 Old Monrovia Rd NW","35806",34.753610151407266,-86.68001631197608
"35749","Harvest","AL","Riviera Fitness Center for Women","7917 Highway 72 W","35758",34.752859100926855,-86.74592145115047
"35749","Harvest","AL","Beez Fitness","not_available","35757",34.80461480040233,-86.74784140256996
"35749","Harvest","AL","CrossFit Impulse","115 Castle Dr Ste B","35758",34.74969964773006,-86.71007020478797
"35749","Harvest","AL","Huntsville Hospital Sports & Wellness Center","8391 U.S. Hwy 72W","35758",34.75987834290523,-86.77206947211904
"35749","Harvest","AL","Workout Anytime Madison","5510 Promenade Point Pkwy Ste 150","35758",34.752281188964844,-86.77403259277344
"35749","Harvest","AL","Jacobs Gym","1047 Burwell Rd","35749",34.8380012512207,-86.69481658935547
"35749","Harvest","AL","Burn Boot Camp","5510 Promenade Point Pkwy","35758",34.74921,-86.77473
"35750","Hazel Green","AL","Drop It Like A Squat!","not_available","35759",34.8808753613936,-86.57143217954847
"35750","Hazel Green","AL","Workout Room","Mulberry Road","35759",34.967799578004566,-86.55202161405047
"35750","Hazel Green","AL","P90X","267-445 Narrow Ln","35761",34.908757533333336,-86.53269231319427
"35750","Hazel Green","AL","Empire Fitness","not_available","35773",34.89419976,-86.63907598
"35750","Hazel Green","AL","The Workout Room","not_available","35750",34.91598143773935,-86.59140657455144
"35750","Hazel Green","AL","Make Yourself Fitness","Hwy 231","35750",34.927469,-86.57138
"35752","Hollywood","AL","Shasta's Cheer Center","not_available","35769",34.67933762535722,-86.00992998143487
"35752","Hollywood","AL","Kramer’s Gym","208 S Broad St","35768",34.672565,-86.0349253
"35756","Madison","AL","Phaze 3 Fitness","145 Plaza Blvd","35758",34.71012878417969,-86.74386596679688
"35756","Madison","AL","Riveria Fitness","not_available","35816",34.72119518612369,-86.74133045020699
"35756","Madison","AL","Pure Barre Madison","14 Main St Ste A","35758",34.692700983088606,-86.75044928656934
"35756","Madison","AL","Bender's Gym","97 Hughes Rd Ste K","35758",34.698698497367715,-86.74046313686968
"35756","Madison","AL","Sterling Ridge Fitness Center","201 Water Hill Rd","35758",34.69341278076172,-86.72565460205078
"35756","Madison","AL","Lake Forest Fitness","not_available","35824",34.64390978518987,-86.73019080947766
"35756","Madison","AL","Intergraph Gym","190 Graphics Dr.","35806",34.6716372760997,-86.74605559202193
"35756","Madison","AL","Craig and Steven Hogan Family YMCA","130 Park Square Ln","35758",34.69650753507045,-86.73529446296452
"35756","Madison","AL","Boeing 48-95 Fitness Center","124 Jetplex Blvd SW","35824",34.645089,-86.75726800000001
"35756","Madison","AL","Dublin Recreation Center","8324 Madison Pike","35758",34.70674133300781,-86.73420715332031
"35756","Madison","AL","Iron Tribe Fitness","1260B County Line Rd","35756",34.72934341430664,-86.78819274902344
"35756","Madison","AL","The Little Gym","1079 Balch Rd","35758",34.747237,-86.768598
"35756","Madison","AL","Franklin Station Gym","Averbeck","35758",34.72337112204054,-86.75614990093464
"35758","Madison","AL","Jazzercise of Madison","1604 Slaughter Rd","35758",34.743682861328125,-86.71504974365234
"35758","Madison","AL","Ericsson Fitness","7800 Madison Blvd","35806",34.692100524902344,-86.71538543701172
"35758","Madison","AL","YMCA","7488 Madison Pike","35806",34.709178137085516,-86.70060541783138
"35759","Meridianville","AL","Buckhorn Gold Gym","not_available","35761",34.8588281,-86.5713415
"35759","Meridianville","AL","Rushour Fitness","210 Meridianville Bottom Rd","35759",34.851191,-86.56687
"35761","New Market","AL","Curves","2246 Winchester Rd NE","35811",34.816226959228516,-86.4897232055664
"35761","New Market","AL","Bring It Fitness Studio","not_available","35811",34.811014,-86.505867
"35763","Owens Cross Roads","AL","Anytime Fitness","70 Taylor Road","35763",34.65752,-86.48931
"35763","Owens Cross Roads","AL","Hampton House-gym/pool","2700 Hampton Cove Way SE","35763",34.66759704995932,-86.4601020849394
"35763","Owens Cross Roads","AL","Anytime Fitness Hampton Cove","327 Old Highway 431","35763",34.660831451416016,-86.47429656982422
"35768","Scottsboro","AL","Anytime Fitness","1513 S Broad St","35768",34.65352,-86.03398
"35801","Huntsville","AL","Total Sports Care","not_available","35801",34.69325588264954,-86.57881853431412
"35801","Huntsville","AL","Matrix Gym","3228 Leeman Ferry Rd SW","35801",34.69406831812525,-86.59222928654494
"35801","Huntsville","AL","Huntsville Hospital Wellness Center","1963 Memorial Pkwy SW","35801",34.721028492206585,-86.5918242931366
"35801","Huntsville","AL","Fitness Together","not_available","35802",34.69364476027215,-86.5698529923041
"35801","Huntsville","AL","Lightfoot","Madison Ave","35801",34.723584,-86.581265
"35801","Huntsville","AL","Oral Arts Gym","2700 Memorial Pkwy SW Ste B","35801",34.709625244140625,-86.59095001220703
"35801","Huntsville","AL","Pure Barre","2010 S Point Park Cir Apt 180","35801",34.69587977953026,-86.58559249814135
"35801","Huntsville","AL","Goga Studios","136 Whitesburg Dr.","35802",34.690406,-86.569251
"35801","Huntsville","AL","Scruggs Community Center","600 Davis Cir SW","35801",34.724057,-86.588903
"35801","Huntsville","AL","Orangetheory Fitness","930 Bob Wallace Ave Southwest","35801",34.712257211084356,-86.58880671476025
"35801","Huntsville","AL","CYCLEBAR","925 Bob Wallace Ave SW","35801",34.71150417,-86.5891655
"35801","Huntsville","AL","Madison County Gym","705 Wheeler Ave NW","35801",34.73838424682617,-86.59609985351562
"35801","Huntsville","AL","PD Gym","815 Wheeler Ave NW","35801",34.7384033203125,-86.59738159179688
"35801","Huntsville","AL","Regymen Fitness","2319 Memorial Parkway SW, Suite 105","35801",34.714149475097656,-86.59043884277344
"35802","Huntsville","AL","Sign In/ Out","1000 Weatherly Rd SE","35803",34.64491653442383,-86.54634094238281
"35802","Huntsville","AL","Family Fitness Center","2100 Members Dr SW","35802",34.663265228271484,-86.57313537597656
"35802","Huntsville","AL","Huntsville Parc Gym","100 Springtime Blvd","not_available",34.672357,-86.579922
"35802","Huntsville","AL","Gym @ Brittany Point","1213 Willowbrook Dr SE","35802",34.659382,-86.534305
"35802","Huntsville","AL","D1 Sports Training and Therapy","7241 Bailey Cove Rd","35802",34.66956358417544,-86.54068035048098
"35802","Huntsville","AL","Youfit Health Clubs","7900 Bailey Cove Rd SE #10","35802",34.66065770943362,-86.54085159301758
"35802","Huntsville","AL","Huntsville Hospital Wellness & Sports Center","4 mile post","not_available",34.67358250602444,-86.54692878846062
"35805","Huntsville","AL","University Fitness Center","500 John Wright Dr","35899",34.72673547024767,-86.6368100846867
"35805","Huntsville","AL","F45 Training West Huntsville","3414 Governors Dr SW","35805",34.720888,-86.612753
"35805","Huntsville","AL","Riviera Fitness","2211 University Dr NW","35816",34.73793517399157,-86.6046301462891
"35805","Huntsville","AL","The Gym","Wheeler Avenue","35801",34.73332675091366,-86.62139735988099
"35805","Huntsville","AL","P90X Gym","420 Karter St NW","35805",34.72546,-86.63164599999999
"35805","Huntsville","AL","Jump Start Fitness","not_available","35899",34.72641817332042,-86.62715212920821
"35806","Huntsville","AL","U.S. Army Corps Of Engineers Fitness Center","4820 University Sq","35816",34.74187,-86.655129
"35806","Huntsville","AL","Work @ Vzw!","475 Quality Cir NW","35806",34.70454788208008,-86.69224548339844
"35806","Huntsville","AL","DAU-South Fitness Center","7115 Old Madison Pike NW Ste A","35806",34.71186447143555,-86.68820190429688
"35806","Huntsville","AL","Powerhouse Fitness","5900 University Dr NW","35806",34.74198732735081,-86.66660365454338
"35806","Huntsville","AL","The Gym","6202-6226 Rime Village Dr NW","35806",34.73977125,-86.67890513333333
"35808","Huntsville","AL","NASA - MSFC Wellness Center","MSFC Bldg #4315","35812",34.654095294140696,-86.66690201982267
"35808","Huntsville","AL","Sparkman Fitness Center","Elmwood, Bldg 5302","35898",34.650637910176755,-86.63329013824723
"35808","Huntsville","AL","Colonial Grand Gym","2768-2796 Zierdt Rd","35824",34.667575267878355,-86.71911250652761
"35810","Huntsville","AL","Showers Center YMCA","4600 Blue Spring Rd NW","35810",34.7830696105957,-86.59675598144531
"35810","Huntsville","AL","24/7 Fitness Center","Harris Hill","35811",34.77105270675838,-86.53744353246238
"35810","Huntsville","AL","Shower Center","not_available","35810",34.753787,-86.630909
"35810","Huntsville","AL","24/7 Health Club and Tanning Salon","920 Winchester Rd NE","35811",34.7968982942015,-86.53751601497706
"35810","Huntsville","AL","JAZZERCISE @ North Ascension Lutheran Church","3801 Oak Ave","35816",34.74932861328125,-86.6250991821289
"35816","Huntsville","AL","Planet Fitness","1001 Memorial Pkwy","35801",34.74034307468334,-86.60250073049484
"35901","Gadsden","AL","Hokes Bluff Middle School Gymnasium","not_available","35903",33.9969395,-85.86833324
"35901","Gadsden","AL","Dr. Janice M Wagner DC","3847 Old US Highway 278 E","35903",33.985660552978516,-85.89813995361328
"35901","Gadsden","AL","Brute Fitness","117 N 3rd St","35901",34.012760162353516,-86.0014419555664
"35901","Gadsden","AL","City Of Gadsden Physical Fitness Center","not_available","35901",34.00961533100041,-86.00050369377216
"35901","Gadsden","AL","Casey's Gym","not_available","35905",33.97068786621094,-85.86418151855469
"35901","Gadsden","AL","YMCA","100 Walnut St","35901",34.00904738387665,-86.00202040948383
"35901","Gadsden","AL","Hokes Bluff Fire Hall Gym","Alford Bend Rd","35903",33.986255,-85.8726053
"35901","Gadsden","AL","Gaston's School Gymnasium","4456-4598 Alabama 25","35901",34.06785172265419,-85.92794176141224
"35904","Gadsden","AL","Carnes Recreation Center","not_available","35954",33.98440170288086,-86.10413360595703
"35904","Gadsden","AL","Westbrook High School Gymnasium","116 Oxford Pl","35906",33.966150963316956,-86.06465692710695
"35904","Gadsden","AL","Gadsden City High School Gymnasium","1900-1998 Sutton Bridge Rd","35904",33.993897,-86.040472
"35904","Gadsden","AL","Emma Sansom Middle School Gymnasium","2200-2298 Sansom Ave","35904",34.02257318,-86.03716253333333
"35904","Gadsden","AL","Golds Gym","not_available","35906",33.96049372922636,-86.03853531380182
"35904","Gadsden","AL","Gadsden City Gymnasium","not_available","35904",33.994400673328734,-86.03819341041175
"35906","Rainbow City","AL","Absolute Fitness","115 W Grand Ave","35906",33.9565408198788,-86.04193625926078
"35950","Albertville","AL","Powerhouse Gym  Family Fitness Center","52 Business Park Dr","35951",34.277823867274755,-86.20040498558058
"35950","Albertville","AL","Willmore Fitness 24/7","11368 US Highway 431","35976",34.300811767578125,-86.27294921875
"35952","Altoona","AL","Steele Fitness","not_available","35987",33.949435729026256,-86.19445183629992
"35954","Attalla","AL","Snap Fitness","U.S. 431, Boaz, AL 35956","35956",34.198178207465496,-86.15071898653052
"35954","Attalla","AL","Workout Anytime","960 Hebron Rd","43056",34.215313,-86.1569892
"35957","Boaz","AL","New U Fitness & Tanning","not_available","35980",34.18489588833484,-86.3116831962545
"35959","Cedar Bluff","AL","Odyssey Health Spa & Fitness","1199 Chesnut Byp","35960",34.16180021387514,-85.69454264055715
"35959","Cedar Bluff","AL","Snap Fitness","Main St","not_available",34.15891885757446,-85.704454
"35960","Centre","AL","Warrior Gym","not_available","35960",34.156192,-85.694243
"35960","Centre","AL","Bob's Body Shop","1400-1404 W Main St","35960",34.15615906666667,-85.69430048333334
"35960","Centre","AL","The Center Fitness and Strength Training","150 E Main St Ste C","35960",34.151641845703125,-85.67845916748047
"35967","Fort Payne","AL","Fitness First","225 Brookwood Ter SW","35968",34.44334411621094,-85.75909423828125
"35967","Fort Payne","AL","Wills Valley Recreation Center","not_available","35967",34.48126374167557,-85.6772965330814
"35967","Fort Payne","AL","CrossFit Dekalb","752 Main St E","35986",34.48894119262695,-85.83547973632812
"35967","Fort Payne","AL","Snap Fitness","2605 Gault Ave N","35967",34.46649235055383,-85.70038242755658
"35967","Fort Payne","AL","Co-Ed Fitness","420 Gault Ave N","35967",34.44356918334961,-85.72039794921875
"35968","Fort Payne","AL","Lady vision","124 McCurdy Ave S","35986",34.49321746826172,-85.84992980957031
"35976","Guntersville","AL","Bender's Gym","14226 Us Highway 431","35976",34.32174644462206,-86.31094038079769
"35976","Guntersville","AL","Fire House Gym","not_available","35976",34.340888,-86.307382
"36010","Brundidge","AL","Next fitness","Hwy 280","35242",31.68744,-85.923278
"36013","Cecil","AL","Macon East Weight Room","not_available","36064",32.302265,-86.012381
"36022","Deatsville","AL","Planet Fitness","not_available","36066",32.49457170227439,-86.39958952820136
"36022","Deatsville","AL","Better Fitness","3331 Highway 14","36054",32.51144027709961,-86.38259887695312
"36022","Deatsville","AL","Top Dog Gym","26 Penser Blvd","36054",32.50190353393555,-86.38668060302734
"36022","Deatsville","AL","Express Fitness","4151 Highway 14","36054",32.52005190291651,-86.36845797300339
"36022","Deatsville","AL","TruFitness","not_available","36022",32.574361211459454,-86.40233891877251
"36022","Deatsville","AL","better fitness","197 Ashton Plaza St","36054",32.51702117919922,-86.3780746459961
"36022","Deatsville","AL","Horizon Fitness - Ladies Branch (athaiba)","3987","36051",32.701268,-86.468879
"36027","Eufaula","AL","Eufaula Community Center","14 Community Drive","36027",31.917092054447924,-85.13606785658406
"36027","Eufaula","AL","Eufaula Fitness","118 E Broad St","36027",31.893600463867188,-85.14495086669922
"36027","Eufaula","AL","Eufaula Fitness","not_available","36027",31.881848,-85.146123
"36037","Greenville","AL","YMCA","118-132 Academy Dr","36037",31.849599,-86.63520097732544
"36040","Hayneville","AL","Elite Fitness","not_available","36040",32.183937072753906,-86.58077239990234
"36043","Hope Hull","AL","PT Solutions- Hyundai Training Facility","not_available","36105",32.27096209642858,-86.35220815491404
"36054","Millbrook","AL","Orangetheory Fitness","571 Pinnacle Pl","36066",32.46369934082031,-86.39705657958984
"36054","Millbrook","AL","Willow Ridge Apt","500 Old Farm Ln S","36066",32.46361390622156,-86.40684705790189
"36054","Millbrook","AL","Better Fitness Nutrition Center","250 Interstate Park Drive","36066",32.4849849,-86.4109888
"36054","Millbrook","AL","Fitness South","2257 Cobbs Ford Rd","36066",32.46073719823836,-86.40472696075004
"36054","Millbrook","AL","River Region CrossFit","1951 Market St","36054",32.45872116088867,-86.38359832763672
"36064","Pike Road","AL","Woodland Creek Pool & Clubhouse","crescent lodge","36064",32.344324526077365,-86.08302651793234
"36064","Pike Road","AL","Southern Muscle & Fitness","7750 Atlanta Hwy","36117",32.3805,-86.162583
"36064","Pike Road","AL","Gold's Gym","2300 Berryhill Rd","36117",32.35658569892058,-86.16242095828738
"36064","Pike Road","AL","Anytime Fitness","8125 Decker Ln","36117",32.37665,-86.15614
"36064","Pike Road","AL","Adonna's Fit Stop","not_available","36117",32.340735400230734,-86.1729481467322
"36064","Pike Road","AL","Nshape Fitness","7719 Averiett Dr","36116",32.332683649041165,-86.18150646256518
"36064","Pike Road","AL","BodyTrac Health & Fitness Montgomery","6538 Atlanta Highway","36117",32.38174057006836,-86.18299102783203
"36064","Pike Road","AL","Insanity Room","AUM","36117",32.37029488710631,-86.17369322963701
"36064","Pike Road","AL","Verandas Fitness Center","not_available","36116",32.32544581471407,-86.18223110408206
"36064","Pike Road","AL","MetroFitness","7150 Halcyon Park Dr","36117",32.34098081448695,-86.1740309969754
"36064","Pike Road","AL","Pure Barre","8103 Vaughn Rd","36116",32.339839000000005,-86.17247900000001
"36064","Pike Road","AL","Y's At Somerset","7600 Atlanta Hwy","36117",32.381609999999995,-86.16492
"36064","Pike Road","AL","Iron Tribe Fitness","7927 Vaughn Rd","36116",32.33910369873047,-86.17703247070312
"36064","Pike Road","AL","Y's Up At Hampstead","5272 Hampstead High St Ste 100","36116",32.31306901568415,-86.18727207183838
"36064","Pike Road","AL","Burn Boot Camp","8880 Minnie Brown Rd","36117",32.36065,-86.13949
"36066","Prattville","AL","YMCA - Willis Bradford Branch","972 McQueen Smith Rd S","36066",32.45254092501074,-86.41866403140703
"36066","Prattville","AL","Planet Fitness","151 N Memorial Dr","36067",32.46646001417344,-86.4520991678619
"36066","Prattville","AL","Wonder World Family Fun Center","127 N Memorial Dr","36067",32.46583958854597,-86.45222043519493
"36066","Prattville","AL","Curves","2048 Alabama 14, Prattville, AL 36066","36066",32.48365783691406,-86.41294860839844
"36066","Prattville","AL","Heart Of Dixie Gym","not_available","36067",32.4304461779104,-86.4624466121395
"36066","Prattville","AL","Club4 Prattville","1880 E Main St","36066",32.45914440000001,-86.4192053
"36066","Prattville","AL","YMCA","600 E Main St","36067",32.45847436323694,-86.45685548561185
"36078","Tallassee","AL","Fabulously Fit","Gilmer","36078",32.551783,-85.920687
"36078","Tallassee","AL","Tallassee Rec Center","not_available","36078",32.54336253777644,-85.90306118369223
"36079","Troy","AL","Anytime Fitness","105 Southland Vlg","36079",31.78545,-85.9663
"36079","Troy","AL","Trinity fitness","South Brundidge","36081",31.788510932688673,-85.96398353275072
"36092","Wetumpka","AL","SOS Workout Studio","2747 Holtville Rd","36092",32.5684466,-86.23531630000001
"36092","Wetumpka","AL","Rumbling Waters Fitness","not_available","36093",32.531735,-86.137726
"36092","Wetumpka","AL","Hitting the Weights","not_available","36092",32.6041374206543,-86.16346740722656
"36092","Wetumpka","AL","YMCA Wetumpka","200 Red Eagle Dr","36092",32.55640613704035,-86.18348165462368
"36092","Wetumpka","AL","WCW Fitness","100 River Oaks Dr","36092",32.52653884887695,-86.20923614501953
"36093","Wetumpka","AL","Zumba!","3500 Wetumpka Hwy","36110",32.442134857177734,-86.2149887084961
"36104","Montgomery","AL","OTS Personal Conditioning Center","Sycamore St","36113",32.385424880710445,-86.3530969619751
"36104","Montgomery","AL","The Armory","not_available","36104",32.37486575637514,-86.29738485317424
"36104","Montgomery","AL","Yoga Wellness Center","432 S Goldthwaite St","36104",32.37228775024414,-86.31549835205078
"36104","Montgomery","AL","CrossFit Montgomery","41 Railroad St","36104",32.385703697926786,-86.30822487083586
"36104","Montgomery","AL","Rez Fit Training Facility","219 Madison Ave","36104",32.38032150268555,-86.30557250976562
"36104","Montgomery","AL","Pure Barre","507 Cloverdale Rd Ste 102","36106",32.358887,-86.298219
"36104","Montgomery","AL","U.S. Marshal's Gym","1 Church St","36104",32.3751335144043,-86.30955505371094
"36104","Montgomery","AL","Maxwell Fitness & Sports Center","50 W Ash St Bldg 841","36112",32.38135679613384,-86.35065078735352
"36104","Montgomery","AL","Health and Wellness Center (HAWC)","not_available","36113",32.381360114229636,-86.35019356968002
"36104","Montgomery","AL","Downtown YMCA","761 S Perry St","36104",32.36684501763703,-86.30688489543141
"36104","Montgomery","AL","The Boneyard","41 E Railroad St","36104",32.385906,-86.308306
"36105","Montgomery","AL","World Gym Fitness Center","3040 Eastern Blvd","36116",32.33757741222974,-86.22881904622817
"36105","Montgomery","AL","Fit 4 Christ","2801 Vaughn Plaza Rd","36116",32.342254,-86.220537
"36105","Montgomery","AL","Y Ups At Westminster","2948 Carter Hill Rd","36106",32.351688385009766,-86.26445007324219
"36105","Montgomery","AL","MCA Fitness Center/Cardiac Rehab","2119 E South Blvd","36116",32.327850341796875,-86.27577209472656
"36105","Montgomery","AL","Metamorphosis Personal Training Studio","2101 Eastern Blvd","36117",32.351409912109375,-86.21846008300781
"36105","Montgomery","AL","Montgomery Country Club Fitness Center","Narrow Lane Road","36106",32.346225407369154,-86.27693084806741
"36105","Montgomery","AL","United gymstars","6100 Brewbaker Blvd","36116",32.311084,-86.215133
"36105","Montgomery","AL","Kershaw Gym","not_available","36106",32.34991803873092,-86.33154865042935
"36106","Montgomery","AL","Curves","not_available","36109",32.35587134226844,-86.26509186693173
"36106","Montgomery","AL","Crunch Fitness - Montgomery","1580 Eastern Boulevard","36117",32.3561209,-86.21979429999999
"36106","Montgomery","AL","Hogans Gym","3331 Harrison Rd","36109",32.36746465528137,-86.25590860788243
"36106","Montgomery","AL","River Region Wellness Center","1765 Plum St","36107",32.371340000000004,-86.284498
"36106","Montgomery","AL","Orangetheory Fitness","1645 Perry Hill Rd","36106",32.355365,-86.242224
"36106","Montgomery","AL","NOW Boot Camp","1849 Perry Hill Rd","36106",32.352111,-86.24270899999999
"36109","Montgomery","AL","Gunter Annex AFB Sports Fitness Center","not_available","36115",32.40246548346404,-86.24940145748806
"36109","Montgomery","AL","Curves","67-89 S Main St","36092",32.38189101219177,-86.25379085540771
"36109","Montgomery","AL","30a CrossFit","9961 East C.R. 30a","32413",32.404046952388754,-86.21639810420936
"36109","Montgomery","AL","CrossFit Hardy","853 Lagoon Business Loop","36117",32.40415,-86.216606
"36109","Montgomery","AL","East YMCA","3407 Pelzer Ave","36109",32.389329613991755,-86.25589345045042
"36109","Montgomery","AL","Maxwell Gunter Gym","McDonald Drive","36114",32.41074436069025,-86.2458086013794
"36109","Montgomery","AL","Tine Davis Gym","Faulkner University","36109",32.38523045134157,-86.21639314118191
"36109","Montgomery","AL","ALDOT Gym","1409 Coliseum Blvd","36110",32.411055,-86.26697
"36117","Montgomery","AL","Wilkins Solutions: Fitness Equipment, Playground Equipment, Patio Furniture and More!","312 Eastdale Mall St","36117",32.38552454195347,-86.20861172676086
"36201","Anniston","AL","Oxford YMCA","Highway 21","36203",33.60118590566237,-85.83487843295912
"36201","Anniston","AL","Conquest 24 Hour Fitness","not_available","36203",33.60095977783203,-85.83119201660156
"36201","Anniston","AL","Dynabody Fitness","1407 Hamric Dr E","36203",33.615455627441406,-85.81245422363281
"36201","Anniston","AL","ANAD MWR Center","Mac Arthur Avenue","36260",33.618217493045044,-85.96864658186166
"36201","Anniston","AL","Evolution Strength & Conditioning / Gracie Barra BJJ Anniston","905 Noble St.","36201",33.6560879,-85.8296314
"36203","Oxford","AL","Stoked Crossfit","3216 Al Hwy 21 Oxford Al 36203","36203",33.57895705018546,-85.85072807634577
"36205","Anniston","AL","Mcclellan Fitness","not_available","36205",33.71250808238983,-85.79275667667389
"36205","Anniston","AL","Aquatic And Fitness Center","130 Summerall Gate Rd","36205",33.71355569444395,-85.792292955491
"36206","Anniston","AL","Cross Fit Dungeon","not_available","36250",33.759185,-85.879732
"36207","Anniston","AL","Workout Anytime Jacksonville Alabama","1555 Pelham Rd S, Ste D","36265",33.79094459312279,-85.76269447803497
"36207","Anniston","AL","Insanity Baby Yeahhhh!","1900 Canterbury sq.","36207",33.6297607421875,-85.79701232910156
"36251","Ashland","AL","Gym and Tan","not_available","36251",33.27395396934873,-85.83687331163655
"36264","Heflin","AL","Heflin Fitness","not_available","36264",33.634278,-85.590406
"36265","Jacksonville","AL","P90x","220 Coffee St SW","36265",33.812198638916016,-85.7643814086914
"36265","Jacksonville","AL","Insanity workout","not_available","36265",33.80944482358123,-85.83430845369185
"36274","Roanoke","AL","The Athletic Club","not_available","36274",33.160438537597656,-85.3637924194336
"36278","Wedowee","AL","Wedowee Fitness","not_available","36278",33.309580795503685,-85.48480840564663
"36301","Dothan","AL","Impact","2960 Ross Clark Circle suite 1","96901",31.22062,-85.43101
"36301","Dothan","AL","Dream Chasers Sports Performance Facility","442 S Oates St","36301",31.218903182362045,-85.39341330528259
"36301","Dothan","AL","Max Fitness","Westgate Pkwy","36303",31.226342389304573,-85.47288941329582
"36301","Dothan","AL","SAMC GYM","1144 Ross Clark Cir","36301",31.213661,-85.362427
"36301","Dothan","AL","Wiregrass Gym","501 Mustang Dr","36301",31.20595,-85.372007
"36301","Dothan","AL","DCC Gym","not_available","36301",31.223261,-85.417457
"36301","Dothan","AL","Ama and Poppys gym","not_available","36320",31.096707732239736,-85.31154417636196
"36301","Dothan","AL","One-On-One Fitness Studio","3010 Ross Clark Cir","36301",31.223466,-85.431498
"36301","Dothan","AL","Combat Mindset","1236 W Main St","36301",31.22695968,-85.40806452
"36301","Dothan","AL","David's Performance Factory","131 S Woodburn Dr Ste 111","36305",31.230140686035156,-85.45452880859375
"36301","Dothan","AL","Blayas Insanity Workout","not_available","36305",31.22582425405524,-85.47633753433244
"36303","Dothan","AL","Crunch Fitness - Dothan","3850 W Main St","36305",31.234758,-85.4513576
"36303","Dothan","AL","Hampton Inn & Suites Dothan Gym","4684 Montgomery Hwy","36303",31.268461241603347,-85.44403738269277
"36303","Dothan","AL","Firehouse Gym","not_available","36303",31.25508003104235,-85.39580507581681
"36303","Dothan","AL","Pure Barre","2620 Montgomery Hwy Ste 7","36303",31.245014,-85.419412
"36303","Dothan","AL","Orangetheory Fitness","100 Apple Ave","36303",31.23939323425293,-85.46436309814453
"36322","Daleville","AL","Fort Rucker Physical Fitness Center","4605 Andrews Ave","36362",31.33816133970023,-85.70804105914436
"36322","Daleville","AL","Erika's Gym","not_available","36322",31.30299186706543,-85.73404693603516
"36322","Daleville","AL","NCOA Weight Room","not_available","36362",31.326327863984044,-85.71766791255975
"36322","Daleville","AL","Crossfit Apeiron","Rucker Blvd.","36330",31.340116822742395,-85.75957267255814
"36322","Daleville","AL","Fortenberry-Colton Physical Fitness Center","5900 Skychief Rd","36362",31.32478854822739,-85.71892563871748
"36322","Daleville","AL","Daleville Gym","Warhawk Dr.","36322",31.317525,-85.708514
"36330","Enterprise","AL","Moose Gymnasium","Lee St.","not_available",31.32103729248047,-85.84991455078125
"36330","Enterprise","AL","Courtyard Recreation Area","not_available","36330",31.329403872970747,-85.7997181357042
"36330","Enterprise","AL","Enterprise High School Gymnasium","Enterprise High School","36330",31.337764172807027,-85.85868203423743
"36340","Geneva","AL","Geneva Fitness","not_available","36340",31.048798,-85.896721
"36344","Hartford","AL","The Gym","not_available","36344",31.102341419403075,-85.69724447498605
"36344","Hartford","AL","Gym","109 W Mill St","36344",31.10197639465332,-85.69723510742188
"36360","Ozark","AL","Fitness Center","not_available","36360",31.455669373952432,-85.64256121029047
"36360","Ozark","AL","Anytime Fitness","1548 US-231 S Ste 1","36360",31.44188,-85.65186
"36360","Ozark","AL","Eastgate Gym","Off Andrews Ave","not_available",31.386638641357422,-85.69590759277344
"36401","Evergreen","AL","Evergreen Medical Center Health and Wellness Center","101 Court St","36401",31.433505328005754,-86.95657523208365
"36426","Brewton","AL","Anytime Fitness","1650 Douglas Ave","36426",31.13437,-87.0676
"36451","Grove Hill","AL","Health Actions","not_available","36545",31.528069907540715,-87.89286268697113
"36453","Kinston","AL","Mizell Wellness Center","501 Brantley St","36467",31.289122477624126,-86.2535476880442
"36460","Monroeville","AL","YMCA","not_available","36460",31.50089863833343,-87.33985397069694
"36460","Monroeville","AL","Anytime Fitness","465 Pike St, Ste C","36460",31.511695861816406,-87.31917572021484
"36467","Opp","AL","USA Gym","Virginia Ave","36467",31.278417587280273,-86.26714324951172
"36502","Atmore","AL","YMCA","501 S Pensacola Ave","36502",31.01803970336914,-87.4924087524414
"36507","Bay Minette","AL","North Baldwin Fitness Center","2115 Hand Ave","36507",30.905042367229438,-87.78542328655712
"36507","Bay Minette","AL","Snap Fitness","not_available","36507",30.87953324249667,-87.785688341904
"36526","Daphne","AL","Planet Fitness","29685 Renaissance Blvd","36526",30.6588549,-87.86001329999999
"36526","Daphne","AL","Anytime Fitness","10200 Eastern Shore Blvd","36527",30.66429901123047,-87.84789276123047
"36526","Daphne","AL","Orangetheory Fitness","6900 U.S. 90","36526",30.654159,-87.902977
"36526","Daphne","AL","Anytime Fitness","2020 US-98 Ste C","36526",30.60745,-87.89796
"36526","Daphne","AL","Crossfit Eastern Shore","8720 Rand Ave, Ste A","36526",30.606562938754767,-87.87393665905533
"36526","Daphne","AL","Spanish Fort Town Center Gym","30000 Town Center Ave","36527",30.66261863708496,-87.903564453125
"36526","Daphne","AL","Fitness Center @ Audubon Park","not_available","36526",30.602266,-87.883047
"36526","Daphne","AL","TKR Health & Fitness","not_available","36527",30.665810527403092,-87.85320834442321
"36526","Daphne","AL","Snap Fitness","6450 US-90","36527",30.66691935889669,-87.91187747846726
"36526","Daphne","AL","Wilkins Solutions: Fitness Equipment, Playground Equipment, Patio Furniture and More!","30500 State Highway 181","36527",30.66794550734467,-87.85146474838257
"36526","Daphne","AL","F45 Training Daphne","1501 US-98","36526",30.599667,-87.899058
"36526","Daphne","AL","Planet Fitness","28260 US Highway 98","36526",30.63725057577551,-87.91182885948908
"36526","Daphne","AL","Jazzercise","26050 Equity Dr","36526",30.60424041748047,-87.87194061279297
"36526","Daphne","AL","Pure Barre","22530 US Highway 98 Ste 210","36532",30.555164437682105,-87.89106791534425
"36527","Daphne","AL","Eastern Shore MMA","11280 US-31","36527",30.67652744735588,-87.83002457092141
"36527","Daphne","AL","Vinings at Spanish Fort Fitness Center","10407","36527",30.677392283026187,-87.84511194308449
"36527","Daphne","AL","eastern shore fitness center","11280 US 31","36527",30.67645392285793,-87.83004291307735
"36532","Fairhope","AL","Fairhope Fitness 24","54 N Section St","36532",30.524827119138862,-87.90281144250399
"36532","Fairhope","AL","Bayside Orthopedic Sports & Rehab Center","341 Greeno Rd N","36532",30.5304324,-87.8866984
"36532","Fairhope","AL","crossfit","506 Fairhope Ave","36532",30.522737503051758,-87.89959716796875
"36532","Fairhope","AL","Thomas Hospital Wellness Center","750 Morphy Ave","36532",30.51868927913667,-87.88699224525632
"36532","Fairhope","AL","Fitness Center at Hampton Inn Fairhope-Mobile Bay","23 N Section St","36532",30.523836135864258,-87.90337371826172
"36532","Fairhope","AL","Thomas Fitness Center","212 Hospital Dr Ste A","36532",30.518516704742797,-87.88748967126988
"36532","Fairhope","AL","Planet Fitness","177 Baldwin Sq","36532",30.521170808136304,-87.88384168122636
"36532","Fairhope","AL","USA-BC Fitness Center","St James St.","36532",30.521211,-87.907376
"36535","Foley","AL","Anytime Fitness","8154 Hwy 59 Ste 216","36535",30.34328,-87.6818
"36535","Foley","AL","Gulf Shores CrossFit","3865 AL-59S Suite 4","36542",30.306095703947538,-87.6835584640503
"36535","Foley","AL","Panacea Martial Arts","620 N McKenzie St","36535",30.4122298,-87.68337029999999
"36535","Foley","AL","Alabama Strength","8388 Highway 59, Unit #1","36535",30.345398520595396,-87.68162727355957
"36535","Foley","AL","Gulf Shores CrossFit","7369 Alamo Cir","36542",30.33214959492499,-87.68143054480936
"36535","Foley","AL","Emerald Greens Gym","20050 Oak Rd E","36542",30.310539000000002,-87.675609
"36535","Foley","AL","Phy-sique Fitness","3725 Gulf Shores Pkwy","36542",30.298181615587218,-87.68333326362838
"36535","Foley","AL","Jason's Fitness","120 W Berry Ave","36535",30.41834099156244,-87.68504977226257
"36535","Foley","AL","CrossFit Strong Heart","1340 S Commercial Dr","36535",30.38976287841797,-87.68209075927734
"36535","Foley","AL","Fitness Factory","3865 Gulf Shores Pkwy","36542",30.320793083179836,-87.6829690229921
"36535","Foley","AL","CSU Gym","21982 University Ln","36561",30.328990936279297,-87.65130615234375
"36542","Gulf Shores","AL","Gulf Shores High School Gym","705-1045 E 15th Ave","36542",30.268406201033105,-87.67700242832096
"36542","Gulf Shores","AL","Fitness Center @ The Beach Club","925 Beach Club Trl","36542",30.229979938014832,-87.87544626531162
"36542","Gulf Shores","AL","The Oceania Gym","825 W Beach Blvd","36542",30.245197296142578,-87.7030029296875
"36542","Gulf Shores","AL","Crystal Shores Gym","not_available","36542",30.24451857470355,-87.70540485970513
"36542","Gulf Shores","AL","Phoenix V Fitness Center","24400 Perdido Beach Blvd","36561",30.263056,-87.608098
"36542","Gulf Shores","AL","Bodenhamer Recreation Center","2200-2268 W 2nd Ave","36542",30.27326954371451,-87.6928455913488
"36545","Jackson","AL","Rooster's Den","not_available","36553",31.270847,-88.063112
"36551","Loxley","AL","Coastal Fitness","22245 AL-59 S Ste 1A","36567",30.548852,-87.7086
"36551","Loxley","AL","RAC Health Complex","18601 E Silverhill Ave","36567",30.54595375061035,-87.70655822753906
"36561","Orange Beach","AL","Eden Workout  Room","16281 Perdido Key Dr","32507",30.287315368652344,-87.48585510253906
"36561","Orange Beach","AL","Caribe Sauna","not_available","36561",30.278822,-87.544403
"36561","Orange Beach","AL","Orange Beach Recreation Center","4849 Wilson Blvd","36561",30.294946999999997,-87.55945899999999
"36561","Orange Beach","AL","Caribe Gym","28105 Perdido Beach Blvd","36561",30.279466999999997,-87.546353
"36561","Orange Beach","AL","Perdido Key Beach And Yacht Club Fitness Center","16790 Perdido Key Dr","32507",30.28499984741211,-87.50843048095703
"36561","Orange Beach","AL","Fitness Center","not_available","32507",30.28168695354177,-87.51464830210179
"36567","Robertsdale","AL","Anytime Fitness","21862 AL-59","36567",30.54355,-87.70678
"36571","Saraland","AL","Snap Fitness","21 Shelton Beach Rd","36571",30.823230743408203,-88.07196044921875
"36571","Saraland","AL","North Mobile YMCA","92 Saraland Loop","36571",30.82459831237793,-88.07473754882812
"36571","Saraland","AL","Advanced Spine & Therapy","not_available","36571",30.826080708822474,-88.07086944580077
"36571","Saraland","AL","Saraland YMCA","112 Harris Ave","36571",30.823474884033203,-88.07438659667969
"36575","Semmes","AL","Anytime Fitness","3385 Schillinger Rd. N.","36575",30.76111,-88.22698
"36582","Theodore","AL","NGD Gymnasium","not_available","36582",30.54818727815528,-88.18857431628419
"36587","Wilmer","AL","Mobile ATA Martial Arts (Dawes)","2410 Dawes Road","36695",30.640694,-88.248496
"36587","Wilmer","AL","Anytime Fitness","9120 Airport Blvd Suite F","36608",30.67307,-88.25727
"36602","Mobile","AL","Hampton Inn & Suites Downtown Mobile - Gym","62 S Royal St","36602",30.690985766974453,-88.04082870483398
"36602","Mobile","AL","Moorer YMCA","N Water St","36602",30.694258783068282,-88.03991785543022
"36602","Mobile","AL","Dearborn YMCA Community Center","321 N Warren St","36603",30.694902021694656,-88.0527538061142
"36602","Mobile","AL","Dexter Sutton Personal Training & Small Group Fitness","918 Government St","36604",30.68622589111328,-88.05549621582031
"36603","Mobile","AL","World Gym","Government street","not_available",30.679415540538685,-88.07694884012362
"36604","Mobile","AL","ProHealth Fitness Center","166 Mobile Infirmary Blvd","36607",30.693977467763492,-88.07990381349181
"36606","Mobile","AL","Pure Barre","9 Du Rhu Dr","36608",30.6896811467594,-88.13116845295502
"36606","Mobile","AL","Springhill Athletic Club","3715 Dauphin Street","3668",30.685268780182366,-88.13068351099909
"36606","Mobile","AL","Wilkins Solutions: Fitness Equipment, Playground Equipment, Patio Furniture and More!","3299 Bel Air Mall","36606",30.674083709716797,-88.12415313720703
"36606","Mobile","AL","Anytime Fitness","171 E. I-65 Service Rd.","36606",30.68049637,-88.12631631
"36606","Mobile","AL","S.H.A.P.E Training & Nutrition","1900 Government St","36606",30.677333,-88.084053
"36606","Mobile","AL","Jason's Fitness","3724 Cottage Hill Rd","36609",30.6586971282959,-88.13148498535156
"36607","Mobile","AL","The Village At Midtown Gym","not_available","36617",30.698423,-88.087596
"36607","Mobile","AL","Titan Athletics","not_available","36607",30.694187,-88.105899
"36608","Mobile","AL","Anytime Fitness","3456 Hillcrest Rd","36695",30.61836,-88.19211
"36608","Mobile","AL","Club4Fitness Hillcrest","831b Hillcrest Road","36695",30.67514529999999,-88.18951009999999
"36608","Mobile","AL","Club4 Airport","3930 Airport Blvd","36608",30.67746139999999,-88.1463701
"36608","Mobile","AL","Rock Paper Fitness","444 Azalea Rd Ste B","36609",30.663963317871094,-88.15266418457031
"36608","Mobile","AL","Hearin-Chandler YMCA","951 Downtowner Blvd","36609",30.66803404108708,-88.14009726047516
"36608","Mobile","AL","Bodies By Cindy - Outdoor Bootcamp And Personal Training Studio","6300 Airport Blvd","36608",30.6775128436559,-88.18733013502923
"36608","Mobile","AL","Planet Fitness Tillmans","not_available","36693",30.616697,-88.166422
"36608","Mobile","AL","Wofco Gym","Omni Park Dr","36609",30.664103230873515,-88.1875461841056
"36608","Mobile","AL","F45 Training Spring Hill USA","3952-B Airport Boulevard","36608",30.677007,-88.149185
"36608","Mobile","AL","Covenant Christian School Gym","7150 Hitt Rd","36695",30.669086456298828,-88.20975494384766
"36608","Mobile","AL","Port City Kickboxing","2502 Schillinger Rd S #7","36695",30.6385682,-88.22579739999999
"36608","Mobile","AL","Club4 Schillinger (Club4Fitness Schillinger)","2502 Schillinger Road","36695",30.6385074,-88.226339
"36608","Mobile","AL","Orangetheory Fitness","3664 Airport Blvd","36608",30.676912353631227,-88.1334982608515
"36608","Mobile","AL","Summit Fitness","not_available","36608",30.6763,-88.172068
"36608","Mobile","AL","Laundry/Fitness Rooms","701 S University Blvd","36609",30.665142059326172,-88.16677856445312
"36608","Mobile","AL","Pine Bend At The Hamptons Fitness Center","not_available","36609",30.669973,-88.13891
"36695","Mobile","AL","Cypress Cove gym","2175 Schillinger Rd S","36695",30.645200729370117,-88.22440338134766
"36695","Mobile","AL","Crossfit Mobile","900 Schillinger Rd S","36695",30.669824600219727,-88.22825622558594
"36756","Marion","AL","Marion Health Club","not_available","36756",32.629059,-87.315487
"36801","Opelika","AL","Orangetheory Fitness","1345 Opelika Rd","36830",32.622817,-85.453542
"36801","Opelika","AL","Student act gym","not_available","36832",32.60131472747434,-85.49314711427274
"36801","Opelika","AL","F45 Training North Auburn","1200 Opelika Road","36830",32.620162,-85.455874
"36801","Opelika","AL","Health Plus Fitness Center","1170 Gatewood Drive #101","36830",32.62775265681957,-85.45516173807735
"36801","Opelika","AL","Fundamental Fitness","not_available","36830",32.622161,-85.45458
"36801","Opelika","AL","Plainsman Park Weight Room","Auburn University","36849",32.60774169777386,-85.49219102123442
"36801","Opelika","AL","The Grove Fitness Center","141 Hemlock Dr","36832",32.607768,-85.50038599999999
"36801","Opelika","AL","Logan Square Athletic Facility","800 West Glenn","36832",32.607759719089685,-85.49838016514241
"36801","Opelika","AL","Fitness For Women","720 E Glenn Ave","36830",32.608019698193836,-85.46783330191046
"36801","Opelika","AL","Hilton Garden Inn - Fitness Center, Auburn","2555 Hilton Garden Dr","36830",32.60506938610982,-85.43053256776929
"36801","Opelika","AL","Copper Beech Gym","575 Shelton Mill Rd","36830",32.629242,-85.4759124
"36801","Opelika","AL","Ross Park Fitness Plaza","525 Mary Ln","36830",32.619285583496094,-85.47328186035156
"36801","Opelika","AL","Anytime Fitness","2701 Frederick Rd","36801",32.61991500854492,-85.41609954833984
"36801","Opelika","AL","The Shake Weight","221 Armstrong St","36830",32.602752685546875,-85.47774505615234
"36801","Opelika","AL","Gym","not_available","36801",32.640218,-85.432436
"36801","Opelika","AL","Creekside Gym","650 Dekalb St","36830",32.6168795911018,-85.4690081949346
"36804","Opelika","AL","Max Fitness","189 E University Dr","36832",32.579877,-85.491831
"36804","Opelika","AL","The Exchange Basketball Court","300 E Longleaf Dr","36832",32.57191467285156,-85.49201965332031
"36804","Opelika","AL","University Heights Gym","202 W Longleaf Dr","36832",32.57503811008521,-85.50343662085298
"36804","Opelika","AL","Pure Barre","2415 Moores Mill Rd Unit 240","36830",32.58597885998698,-85.43738772704495
"36804","Opelika","AL","The Reserve - Fitness Room","1255 S College St","36832",32.579921999999996,-85.493624
"36804","Opelika","AL","The Gym at the Edge","1114 S College St","36832",32.58467483520508,-85.49213409423828
"36804","Opelika","AL","Gold's Gym","University Dr","36832",32.579901186066365,-85.49197463993026
"36804","Opelika","AL","Samford avenue tennis courts","Samford Avenue","36830",32.59910782138793,-85.46290397644043
"36804","Opelika","AL","Rehab Works","560 Devall Dr","36832",32.586276,-85.49431
"36804","Opelika","AL","Tiger Iron Gym","1655 S College St","36832",32.57549036689262,-85.49727184036524
"36830","Auburn","AL","Yarbrough Tennis Center","1777 Richland Rd","36832",32.61865437517218,-85.51488610285097
"36832","Auburn","AL","My Treadmill","not_available","36879",32.647980844983145,-85.52069040175671
"36854","Valley","AL","500 Fitness","Hwy 29","not_available",32.79780335038698,-85.18290438451099
"36854","Valley","AL","Workout Anytime","3731 20th Ave","36854",32.833535,-85.176905
"36854","Valley","AL","City of Valley Gym","not_available","36863",32.82450866699219,-85.21141052246094
"36854","Valley","AL","Valley Community Center","130 Sportsplex Dr","36854",32.812848638249314,-85.20159348861314
"36856","Fort Mitchell","AL","Audie Murphy Fitness Center","not_available","31905",32.346513841507935,-84.97416784851538
"36856","Fort Mitchell","AL","RSTB Ranger Gym","Sightseeing Road","31905",32.343636714606,-84.97897316569154
"36856","Fort Mitchell","AL","Muscles Machado","6835 Dixie Rd","31905",32.307899475097656,-84.95109558105469
"36856","Fort Mitchell","AL","Smith Gym","Eckel St","31905",32.3481931437927,-84.96636496571975
"36862","Lafayette","AL","The Zumba Party Room","not_available","36862",32.899314880371094,-85.39979553222656
"36867","Phenix City","AL","Planet Fitness","1409 US Hwy 280","36867",32.474034,-85.03143
"36867","Phenix City","AL","Curves","1813 Stadium Dr","36867",32.49686813354492,-85.01644897460938
"36867","Phenix City","AL","Livingroom Jiu-Jitsu","not_available","36867",32.527559492479625,-85.06446843812772
"36867","Phenix City","AL","steeple crest gym","5001 River Chase Dr","36867",32.515099676943834,-85.01448154449463
"36867","Phenix City","AL","Body By Design","Crawford RoAd","not_available",32.474505,-85.019267
"36867","Phenix City","AL","Copperheads Baseball","1801 Summerville Rd","36867",32.47744369506836,-85.00300598144531
"36867","Phenix City","AL","Hilton Gym","11th St, Columbus, GA 31901","31901",32.50885355662063,-85.00554169151971
"36867","Phenix City","AL","Fitness Plus","280 bypass","36867",32.47504838333333,-85.031425
"36867","Phenix City","AL","Eagle And Phenix Gym","1201 Front Ave","31901",32.468953427289435,-84.99545302471746
"36867","Phenix City","AL","Anytime Fitness","5408 Summerville Rd.","36867",32.521122,-85.02849499999999
"36869","Phenix City","AL","Broadway Crossing Gym","10th","31901",32.46524595,-84.99401328333333
"36869","Phenix City","AL","Rankin Fitness Center Gym","Rankin","not_available",32.46533933064571,-84.99202540966097
"36869","Phenix City","AL","Swolls Gym","not_available","36869",32.46778451715381,-85.08986593965201
"36869","Phenix City","AL","Aflac Fitness Center @ CSC","1932 Wynnton Rd","31999",32.46732711791992,-84.96387481689453
"36869","Phenix City","AL","Gym","Columbus, GA","31901",32.46239897287134,-84.99379763975251
"36869","Phenix City","AL","Uncommon Athlete","1205 1st Ave Ste 103","31901",32.46922255734432,-84.9917875846017
"36869","Phenix City","AL","John P. Thayer YMCA","24 14th Street","31901",32.47173118262392,-84.99279006476334
"36869","Phenix City","AL","Uptown Crossfit","not_available","31901",32.466984966582764,-84.99313147402384
"36869","Phenix City","AL","Columbus Marriott Gym","800 Front Ave","31901",32.462388,-84.99419
"36869","Phenix City","AL","Empire at Uptown Gym","1205 1st Ave","31901",32.468719482421875,-84.99202728271484
"36869","Phenix City","AL","Insane Fitness","306 13th St","31901",32.47033223365337,-84.98866505522537
