"zip","city","state","name","address","postalCode","lat","lon"
"58047","Horace","ND","Crystal Creek Apartment Fitness Center","not_available","not_available",46.80095719507794,-96.82418844349611
"58054","Lisbon","ND","Lisbon Fitness and Tanning","5th Ave West","58054",46.441206051537456,-97.68277672210728
"58072","Valley City","ND","Snap Fitness","740 Central Ave N","58072",46.929929,-98.00302099999999
"58072","Valley City","ND","Valley City Parks And Recreation","central Ave","58072",46.92080219567626,-98.00419766719332
"58075","Wahpeton","ND","Anytime Fitness","1651 Wheatland Rd","58072",46.2830810546875,-96.62432098388672
"58075","Wahpeton","ND","Wellness Center","2400 St Francis Dr","56520",46.291473388671875,-96.58831787109375
"58075","Wahpeton","ND","Life fitness pro","not_available","56520",46.2630729675293,-96.59354400634766
"58075","Wahpeton","ND","Snap Fitness","Dakota Ave","58075",46.263633,-96.605779
"58075","Wahpeton","ND","Community Center","401-499 3rd Ave S","58075",46.26162968512632,-96.60654029406759
"58078","West Fargo","ND","Orangetheory Fitness","4501 15th Ave S","58103",46.85871169932581,-96.86311229434357
"58078","West Fargo","ND","Family Wellness Center","2960 Seter Pkwy S","58104",46.8363189,-96.8794631
"58078","West Fargo","ND","West Fargo Fitness Center","215 Main Ave E","58078",46.87644958496094,-96.89704132080078
"58078","West Fargo","ND","Sunwest Fitness Center","4333 15th Ave S","58103",46.858869,-96.856486
"58078","West Fargo","ND","CYCLEBAR","3163 Bluestem Dr Ste 106","58078",46.834707,-96.88435
"58078","West Fargo","ND","Four Star Ninja Academy","4410 18th Ave S","58103",46.8524108,-96.86008869999999
"58078","West Fargo","ND","Olson's Gym","1850","58103",46.8564983976427,-96.8642499669516
"58078","West Fargo","ND","Rogers Gym","not_available","58078",46.85610330349815,-96.90932673719908
"58078","West Fargo","ND","Snap Fitness","521 32nd Ave W","58078",46.832485,-96.909524
"58078","West Fargo","ND","Slim Ambition","not_available","58102",46.85878879456015,-96.86378889912892
"58078","West Fargo","ND","Snap Fitness","8th Street S","56560",46.81613944197813,-96.86350111592188
"58078","West Fargo","ND","Insanity Work Out","Polk St","not_available",46.824219,-96.853372
"58102","Fargo","ND","Wallman Wellness Center","18th St","58105",46.894532158757656,-96.80790504227147
"58102","Fargo","ND","Anytime Fitness","2614 N Broadway Ste B","58102",46.91109,-96.78892
"58102","Fargo","ND","Crossfit Icehouse","1620 1st Ave N","58102",46.88140545894523,-96.77937093357234
"58102","Fargo","ND","Pure Barre","615 2nd Ave N","58102",46.878328,-96.788878
"58102","Fargo","ND","The Ballyard Training Center","1240 41st St N, Fargo, ND 58102","58102",46.89234161376953,-96.8515625
"58102","Fargo","ND","Snap Fitness","1375 21st Ave N","58102",46.90738580844761,-96.79948972076463
"58102","Fargo","ND","TNT Kid's Fitness & Gymnastics Academy","2800 Main Ave","58103",46.87580855281691,-96.82571447967203
"58102","Fargo","ND","Elite Fitness","3820 12th Ave N","58102",46.88986,-96.843264
"58102","Fargo","ND","Total Balance","1461 Broadway N","58102",46.89710407236554,-96.78715930517326
"58102","Fargo","ND","Big Paps","1018 5th St N","58102",46.887722,-96.786636
"58103","Fargo","ND","YMCA Schlossman Branch","4243 19th Ave S","58103",46.85048437541795,-96.85271689144908
"58103","Fargo","ND","YMCA Fercho Branch","400 1st Ave S","58103",46.872705394694684,-96.78669612753058
"58103","Fargo","ND","Welcyon, Fitness After 50, Fargo","2603 Kirsten Ln S","58104",46.83196,-96.8223299
"58103","Fargo","ND","Snap Fitness","1525 32nd Ave S","58103",46.83312281374276,-96.80391519542334
"58103","Fargo","ND","Sunlighten Saunas Fargo ND","1330 Page Dr S","58103",46.860576,-96.826819
"58103","Fargo","ND","Elite Fitness","700-766 Interstate 29","58103",46.86975246,-96.84146079
"58103","Fargo","ND","Derik's Workout World","1123 11th St S","58103",46.86278898788632,-96.79690225304401
"58103","Fargo","ND","Elements","3120 25th St S Ste N","58103",46.833399711271,-96.81890206782168
"58103","Fargo","ND","Jensen Treadmill","not_available","58103",46.857135,-96.795395
"58103","Fargo","ND","Core Fitness","2410 13th ave s","58103",46.8608539655146,-96.81848738676783
"58103","Fargo","ND","Sports Center","3320 Westrac Dr S","58103",46.865396686809135,-96.83591582612033
"58103","Fargo","ND","noridian fitness center","900 42nd St S","58103",46.866729736328125,-96.85076141357422
"58103","Fargo","ND","Fargo Sports Arena","1515 15TH AVE NORTH	FARGO	ND	58102","not_available",46.85485480023031,-96.81278106389694
"58103","Fargo","ND","Sanford Lifelong Fitness Center","2400 32nd Ave S","58103",46.831809997558594,-96.81767272949219
"58104","Fargo","ND","Insanity","not_available","58021",46.81596326926229,-96.83536206341012
"58104","Fargo","ND","Stonebridge Apartments Work Out Room","2510 36th Ave S","58104",46.82346439747116,-96.82025682970728
"58104","Fargo","ND","joefitness","4201 38th St S","58104",46.81510925292969,-96.84099578857422
"58104","Fargo","ND","Courts Plus Fitness Center","3491 University Dr S","58104",46.82738706066256,-96.80363323231276
"58104","Fargo","ND","swanson fitness center","4075 40th Ave S","58104",46.819210052490234,-96.84805297851562
"58104","Fargo","ND","Anytime Fitness","5050 Timber Pkwy S Suite 116","58104",46.80498,-96.82646
"58104","Fargo","ND","Fargo Parks Wellness Facility","3260 18th Street S","not_available",46.818422,-96.815159
"58104","Fargo","ND","Health Pros","1800 21st Ave S","58103",46.84650421142578,-96.81061553955078
"58201","Grand Forks","ND","Anytime Fitness","3750 32nd Ave S","58201",47.89069,-97.08187
"58201","Grand Forks","ND","Orangetheory Fitness","2800 S Columbia Rd","58201",47.892936999999996,-97.071507
"58201","Grand Forks","ND","Snap Fitness","4571 S Washington St","58201",47.87716078167302,-97.04379767717177
"58201","Grand Forks","ND","Red River Valley Gymnastics","1602 32nd Ave S","58201",47.89085228164155,-97.04965607256034
"58201","Grand Forks","ND","Medical Fitness Center","Columbia Road","58201",47.908935546875,-97.0687255859375
"58201","Grand Forks","ND","Crossfit Tundra","623 South 48th Street","58201",47.91762195584162,-97.09860563278198
"58201","Grand Forks","ND","Bridgestone Exercise Room","4600 S Washington St","58201",47.8763542175293,-97.04705047607422
"58201","Grand Forks","ND","Insanity Gym","1825 11th Ave N","58203",47.929997,-97.053801
"58201","Grand Forks","ND","Ironworks Gym","1823 S Washington St, Grand Forks, ND 58201","58201",47.90289770018511,-97.04441199521682
"58201","Grand Forks","ND","CHEER TECH","4950 10th Ave S","58201",47.913146999999995,-97.101333
"58201","Grand Forks","ND","Center Court Fitness","1538-1698 32nd Ave S","58201",47.890310474055575,-97.04966686341224
"58201","Grand Forks","ND","Hammer Time","not_available","58203",47.919907,-97.05572
"58201","Grand Forks","ND","Altru medical fitness center","Columbia road","58201",47.90945008252926,-97.06990100542525
"58201","Grand Forks","ND","Ts Gym","28th Ave s","58201",47.893653,-97.051616
"58203","Grand Forks","ND","MAP Training Facility","5700 Gateway Dr","58203",47.934061,-97.113914
"58203","Grand Forks","ND","Club Buckalew","not_available","56721",47.94206237792969,-97.03260803222656
"58203","Grand Forks","ND","Snap Fitness","2750 Gateway Dr","58203",47.933889398091566,-97.06772486270596
"58225","Drayton","ND","Xperience Fitness","not_available","58225",48.56703203477726,-97.18076794222986
"58257","Mayville","ND","Wellness Center","not_available","58257",47.50425103003544,-97.32135541004773
"58270","Park River","ND","Park River Fitness","503 Park St W","58270",48.39836120605469,-97.74994659423828
"58278","Thompson","ND","Thompson Fitness Center","424 3rd St","58278",47.77531051635742,-97.10662078857422
"58282","Walhalla","ND","Gym Of Walhalla","605","58282",48.92401454683837,-97.91917940889537
"58301","Devils Lake","ND","Outreach Therapy","not_available","58301",48.11633692244659,-98.85032765765247
"58341","Harvey","ND","Fitness Center","not_available","58348",47.964853874085186,-99.52330998851295
"58344","Lakota","ND","Lakota Fitness Center","not_available","58344",48.04517731156765,-98.3440501216501
"58356","New Rockford","ND","Rockin Fitness","not_available","58356",47.68107267959656,-99.13808454604117
"58368","Rugby","ND","Seibu Tower Gym","Seibu Tower 3rd Floor","58788",48.34107218425722,-100.39747107509177
"58368","Rugby","ND","Anytime Fitness","272 Hwy 2 SW","58368",48.35412,-99.99805
"58401","Jamestown","ND","New Age Fitness","607 13th St NE","58401",46.921278,-98.699574
"58401","Jamestown","ND","Anytime Fitness","2400 Highway 281 S Ste F3-F4","58401",46.88283220491623,-98.7194699048996
"58401","Jamestown","ND","817th Eng Co - Weight Room","not_available","58401",46.9103,-98.70434
"58421","Carrington","ND","Carrington Fitness Center","1206 Main St","58421",47.44956067109803,-99.12976646313642
"58425","Cooperstown","ND","Rc Cooper Athletic Club","759-799 Burrel Ave NW","58425",47.44455456494754,-98.12569812899227
"58436","Ellendale","ND","Ellendale High School Gym","not_available","58436",45.99962962758073,-98.52329700054986
"58501","Bismarck","ND","Anytime Fitness","4600 N 19th St","58503",46.856008,-100.763107
"58501","Bismarck","ND","Bismarck Combat MMA Center","not_available","58501",46.80245699286585,-100.78534093114507
"58501","Bismarck","ND","Family Wellness at Bismarck-Mandan","2700 46th Ave SE","58554",46.801451,-100.827727
"58501","Bismarck","ND","Planet Fitness","2700 State Street","58503",46.836425,-100.775379
"58501","Bismarck","ND","Optimum Fitness","408 E Bowen Ave","58504",46.802444,-100.785722
"58501","Bismarck","ND","Capital Racquet & Fitness Center","3200 N 10th St","58503",46.84127996071927,-100.77716489581881
"58501","Bismarck","ND","Snap Fitness","809 W Interstate Ave","58503",46.832306,-100.804446
"58501","Bismarck","ND","Gold's Gym","517 S 5th St","58504",46.80027137213375,-100.78395880882275
"58501","Bismarck","ND","Raging Rivers Fitness","2020-2406 46th Ave SE","58554",46.8023748155452,-100.82904053324864
"58501","Bismarck","ND","Women's Health Center","1100 College Dr","58501",46.823325,-100.807036
"58501","Bismarck","ND","Pure Barre","1400 43rd Avenue NE, Suite 1404","58503",46.8529019,-100.7713088
"58501","Bismarck","ND","Basin Electric Wellness Center","1600 E Interstate Ave","58503",46.8328086362145,-100.7664571001614
"58501","Bismarck","ND","Snap Fitness","3111 N 14th St","58503",46.840507,-100.770315
"58501","Bismarck","ND","healthways","not_available","58504",46.80614206122236,-100.76612341450839
"58501","Bismarck","ND","Holiday Inn Dojo","not_available","58503",46.839105643741725,-100.76870348394283
"58501","Bismarck","ND","Anytime Fitness","141 Ivy Ave","58504",46.79552,-100.79354
"58501","Bismarck","ND","CrossFit Bismarck","1830 E Century Ave","58503",46.838537,-100.763038
"58501","Bismarck","ND","CC's Physical Therapy And Feminine Fitness","215 E Broadway Ave, Bismarck, ND 58501","58501",46.806358337402344,-100.78829956054688
"58501","Bismarck","ND","Thea Ward Fitness","1605 Park Ave","58504",46.8006713,-100.78328799999997
"58503","Bismarck","ND","Anytime Fitness","408 1st St NW Ste B","58554",46.82686,-100.89549
"58504","Bismarck","ND","Dungeon Gym","4 Santee Rd","58504",46.764597,-100.702587
"58531","Coleharbor","ND","The Body Shop","not_available","58540",47.650553,-101.416991
"58601","Dickinson","ND","Anytime Fitness","620 19th St. W.","58601",46.90276,-102.79513
"58601","Dickinson","ND","ramada workout room","not_available","58601",46.89882931489698,-102.79536614468518
"58601","Dickinson","ND","Ben C Frank Human Performance Center","291 Campus Dr","58601",46.88310623168945,-102.80133056640625
"58623","Bowman","ND","ANew beggining","Main Street","58623",46.18133544921875,-103.39459991455078
"58626","Dunn Center","ND","Alternative Therapies & Wellness Center","27 Central Ave N","58640",47.3701286315918,-102.75218963623047
"58701","Minot","ND","Anytime Fitness","305 20th Ave. SW.","58701",48.21002,-101.29827
"58701","Minot","ND","The Commons Gym","1909 31st Ave SW","58701",48.20240783691406,-101.32190704345703
"58701","Minot","ND","Julies Treadmill","30th St Sw","58701",48.23420641791427,-101.33871138689253
"58701","Minot","ND","Prairie Therapy","not_available","58703",48.237674713134766,-101.3785629272461
"58701","Minot","ND","Insanity Gym","1219 15th Ave SW","58701",48.219505310058594,-101.31132507324219
"58701","Minot","ND","IRET Properties","1400 31st Ave SW","58701",48.2040209,-101.3139598
"58701","Minot","ND","curves","104 20th Avenue SW","58701",48.211354802918066,-101.29504233598709
"58701","Minot","ND","Anytime Fitness","1100 N Broadway","58703",48.24801,-101.29536
"58703","Minot","ND","Home Gym","not_available","58704",48.421948,-101.309759
"58737","Flaxton","ND","Northern Prairie Wellness Center","not_available","58752",48.8950343772216,-102.5467517396929
"58741","Granville","ND","Nautica Fitness Center","6th Ave N, ND","58788",48.43449783325195,-100.71167755126953
"58801","Williston","ND","Anytime Fitness","1542 16th St W Unit 204","58801",48.15925,-103.64665
"58801","Williston","ND","Elite Health & Fitness","512 Main St","58801",48.149245,-103.621155
"58801","Williston","ND","Raymond Fitness Training Facility","not_available","58801",48.15448707936582,-103.63854162777983
"58801","Williston","ND","Full Circle Strength Systems","34 24th St W","58801",48.16659,-103.624085
"58801","Williston","ND","Good Samaritan Gym","924 6th Ave E","58801",48.162479400634766,-103.61400604248047
"58801","Williston","ND","Gravel Road","not_available","58831",47.963726,-103.535494
"58852","Tioga","ND","Anytime Fitness","801 Elm St","58852",48.40218,-102.93042
"58852","Tioga","ND","Gym","not_available","58852",48.39655808196087,-102.94039040173003
"58854","Watford City","ND","Connie Wold Welness Center","800 8th St. NE","58854",47.80259323120117,-103.26883697509766
"58854","Watford City","ND","Wellness Center","not_available","58854",47.80376652354748,-103.2818970799141
"58854","Watford City","ND","Anytime Fitness","105 9th Ave SE","58854",47.7921068,-103.2817311
