"zip","city","state","name","address","postalCode","lat","lon"
"37010","Adams","TN","Bulldawg Gym","not_available","not_available",36.494571,-87.188448
"37013","Antioch","TN","Snap Fitness 24/7","1309 Bell Rd Antioch","37013",36.04724062763264,-86.67575316209152
"37013","Antioch","TN","Planet Fitness","5185 Murfreesboro Rd","37086",36.020927,-86.572536
"37013","Antioch","TN","Lenox Village Town Center Gym","6900 Lenox Village Dr","37211",36.024292410684346,-86.71163192261665
"37013","Antioch","TN","Direct General Gym (private)","1281 Murfreesboro Pike","37217",36.11528778076172,-86.69908905029297
"37013","Antioch","TN","Fitness 1440 Nashvile","411 Metroplex Dr","37211",36.087987,-86.696692
"37013","Antioch","TN","Curves","1135 Rock Springs Rd Ste 100","37167",35.981910705566406,-86.54911041259766
"37013","Antioch","TN","Grind Fitness","1310 Antioch Pike #D","37211",36.08560562133789,-86.68990325927734
"37013","Antioch","TN","Hollywood Tans","479 Sam Ridley Pkwy W","37167",35.98305865331924,-86.55334776795449
"37013","Antioch","TN","Hamptons Gym Sesh","not_available","37214",36.122970240986604,-86.62919493553045
"37013","Antioch","TN","Brentridge Apartments Gym","not_available","37013",36.04710028395127,-86.68315341411825
"37013","Antioch","TN","Gabe's Free Gym","1914 Beast Mode Lane","not_available",36.05396010309238,-86.66222245032962
"37013","Antioch","TN","Preakness Lake","630 Bell Ed","37013",36.059578262721594,-86.63624319842214
"37013","Antioch","TN","Workout Room","100 Mountainhigh Dr","37013",36.03817367553711,-86.66340637207031
"37013","Antioch","TN","HLD Circuit","not_available","37217",36.09457778930664,-86.63113403320312
"37013","Antioch","TN","Workout Anytime","6900 Lenox Village Drive","37211",36.02438981599178,-86.71229614446014
"37013","Antioch","TN","Snap Fitness 24/7","1925 Madison Square Blvd","37086",36.02149712248417,-86.57843160742014
"37013","Antioch","TN","FreeBird Fitness","6428 Nolensville Pike","37013",36.01057518728501,-86.7016714811325
"37013","Antioch","TN","Discovery Fitness Center","5000 Mountain Springs Dr","37013",36.04531478881836,-86.60932922363281
"37013","Antioch","TN","Workout Anytime","3536 Murfreesboro Pike","37013",36.05267019218096,-86.61453092167125
"37013","Antioch","TN","Dell Fitness Center","1 Dell Pkwy","37217",36.10353765619401,-86.6780490853408
"37013","Antioch","TN","Inferno Fitness Nashville","2119 Antioch Pike","37013",36.0506042253602,-86.65009069061357
"37013","Antioch","TN","Nashville Athletic Club","5035 Harding Pl","37211",36.08869390751237,-86.68902182644057
"37013","Antioch","TN","Fleet One Gym","Bakertown Rd, Antioch, TN 37013","37013",36.07098388671875,-86.68844604492188
"37015","Ashland City","TN","Snap Fitness","not_available","37015",36.24949303207199,-87.03553475561158
"37015","Ashland City","TN","Snap Fitness","Unnamed Rd","37015",36.27422,-87.0642
"37015","Ashland City","TN","Basement Fitness Center","1746 Wynnewood Dr","37035",36.328163146972656,-87.14602661132812
"37015","Ashland City","TN","Pleasant View Fitness","not_available","37146",36.39488269840415,-87.03244523417749
"37015","Ashland City","TN","Portland High School Gym","not_available","37075",36.27787718339229,-86.91140894615722
"37020","Bell Buckle","TN","Haun Raglan Gym","not_available","37020",35.590656,-86.34604
"37025","Bon Aqua","TN","Gym","not_available","37098",35.912965,-87.278172
"37027","Brentwood","TN","Maryland Farms YMCA","5101 Maryland Way","37027",36.03238611059454,-86.79750075469443
"37027","Brentwood","TN","Planet Fitness","4880 Nolensville Pike","37211",36.06408992205179,-86.71644071831231
"37027","Brentwood","TN","Christ Church YMCA","15354 Old Hickory Blvd","37211",36.04041516995706,-86.72808342288542
"37027","Brentwood","TN","OPEX Franklin","331 Premier Ct S Ste 101","37067",35.953116221556186,-86.8292979437468
"37027","Brentwood","TN","Williamson County Recreation Center","1120 Hillsboro Rd","37064",35.946665045742364,-86.87562210575257
"37027","Brentwood","TN","Brentwood Family YMCA","8207 Concord Rd","37027",35.99579778519343,-86.78494213463017
"37027","Brentwood","TN","Cyclebar","209 Franklin Rd","37027",36.0333366394043,-86.791015625
"37027","Brentwood","TN","Williamson County Rec Center","1120 Hillsboro Rd","37027",36.00199824098434,-86.78880176479716
"37027","Brentwood","TN","Anytime Fitness","5513 Edmondson Pike","37211",36.04342,-86.74462
"37027","Brentwood","TN","CorePower Yoga","211 Franklin Rd Ste 135","37027",36.0328035,-86.7907145
"37027","Brentwood","TN","Alliance volleyball academy","215 Gothic Ct, Franklin, TN 37067","37067",35.95016033934815,-86.82625291247363
"37027","Brentwood","TN","Chad Wicks Fitness","119 Seaboard Ln","37067",35.96063995361328,-86.82323455810547
"37027","Brentwood","TN","workout time!","not_available","37220",36.054583002528325,-86.74791579059507
"37027","Brentwood","TN","Courtyard Fitness Room","not_available","37027",36.035994,-86.792131
"37027","Brentwood","TN","Venue Gym","not_available","37067",35.93397725453611,-86.805563980384
"37027","Brentwood","TN","CYCLEBAR","9040 Carothers Pkwy Ste A207","37067",35.956344072432955,-86.8028383732759
"37027","Brentwood","TN","Curves","5759 Nolensville Pike","37211",36.046424865722656,-86.71395111083984
"37027","Brentwood","TN","My Gym","477 McMurray Dr","37211",36.059155,-86.721462
"37027","Brentwood","TN","MPC Fitness Club","315 Cool Springs Blvd","37067",35.943153381347656,-86.8310317993164
"37027","Brentwood","TN","Woodland Middle School Gym","1500 Volunteer Pkwy","37027",35.98101043701172,-86.76941680908203
"37027","Brentwood","TN","Crescent Centre Gym","Crescent Centre Dr","37067",35.94431193698057,-86.8113899230957
"37027","Brentwood","TN","Get Fit Anytime","Franklin Pike","37204",36.00517532820896,-86.78977896436074
"37029","Burns","TN","Luke's Gym","107 Ellington Way","37187",36.10397144184545,-87.1950101852417
"37030","Carthage","TN","Agee's Gym","229-303 Carmack Ave","37030",36.25880813598633,-85.95178985595703
"37030","Carthage","TN","The Burn","514 Jefferson Ave E","37030",36.25738525390625,-85.9461441040039
"37030","Carthage","TN","Agee's Gym","not_available","37030",36.240671289087544,-85.95473100371859
"37034","Chapel Hill","TN","The Gym","4384 Nashville Hwy","37034",35.598219463502076,-86.69988920008991
"37037","Christiana","TN","TN Mets Fitness Center & Spa","not_available","37128",35.737792,-86.425766
"37040","Clarksville","TN","Gold's Gym","390 Needmore Rd","37040",36.58414617348828,-87.31231609691218
"37040","Clarksville","TN","YMCA","2313 Rudolphtown Rd","37043",36.52166748046875,-87.27590942382812
"37040","Clarksville","TN","Station 1 Gym","not_available","42223",36.61728490000198,-87.44834777159673
"37040","Clarksville","TN","Total Fitness","Franklin St","not_available",36.527523,-87.351914
"37040","Clarksville","TN","Cable Machine in Gym","not_available","37040",36.54716681377705,-87.33534326851267
"37040","Clarksville","TN","Planet Fitness","1600 Fort Campbell Blvd","37042",36.62632842396497,-87.42910031987888
"37040","Clarksville","TN","Anytime Fitness","2690 Madison St Ste 160","37043",36.50309,-87.25306
"37040","Clarksville","TN","Curves","585 S Riverside Dr Ste E","37040",36.52143096923828,-87.36172485351562
"37040","Clarksville","TN","Crunch Fitness Clarksville","1596 Fort Campbell Blvd","37042",36.5726523,-87.4083933
"37040","Clarksville","TN","YMCA north","Needmore Rd","37040",36.58420783805383,-87.31213294920558
"37040","Clarksville","TN","Follow Me Fit Personal Training","250 Old Farmers Rd","37043",36.51129150390625,-87.25225830078125
"37040","Clarksville","TN","The Gymrage","657 Chesterfield Cir","37043",36.50455856323242,-87.28581237792969
"37040","Clarksville","TN","Crossfit","Hwy 41a Bypass, Clarksville, TN 37043","37043",36.503849029541016,-87.2784423828125
"37040","Clarksville","TN","Planet Fitness","not_available","37042",36.575679,-87.409921
"37040","Clarksville","TN","Curves","921 Tiny Town Rd Unit C","37042",36.63139343261719,-87.39777374267578
"37040","Clarksville","TN","Crossfit Solafide","1021 Smokestack Dr","37040",36.59711837768555,-87.2745132446289
"37040","Clarksville","TN","Curves","894 Highway 76, Ste 109","37043",36.5211988,-87.2370345
"37040","Clarksville","TN","National Fitness","2766 Wilma Rudolph Blvd","37040",36.58593837432429,-87.29658018944639
"37040","Clarksville","TN","John Deere","411 Alfred Thun Rd","37040",36.59870147705078,-87.27850341796875
"37042","Clarksville","TN","Olympic 24 Hour Gym","2040 Woodlawn Rd","37191",36.54512023925781,-87.4931869506836
"37042","Clarksville","TN","Maxx Fitness","230 Dover Rd","37042",36.55013656616211,-87.3997802734375
"37042","Clarksville","TN","Title Boxing Club","1719 Wilma Rudolph Blvd","37040",36.55131310467502,-87.32751398413757
"37042","Clarksville","TN","Anytime Fitness","1820 Tiny Town Rd Ste C","37042",36.62498,-87.32214
"37042","Clarksville","TN","Crossfit Solafide","not_available","37043",36.504109,-87.319342
"37042","Clarksville","TN","County Dump","101st Airborne Division Rd.","37191",36.537689,-87.349564
"37042","Clarksville","TN","Anytime Fitness","201 Dover Rd","37042",36.55172,-87.395542
"37043","Clarksville","TN","YMCA- Clarksville","Hillcrest Drive","37043",36.51823314790543,-87.30591480295784
"37043","Clarksville","TN","Orangetheory Fitness","1011 Winn Way","37043",36.52100418963881,-87.23299429152831
"37047","Cornersville","TN","The Ridge","not_available","35739",35.331399,-86.861064
"37048","Cottontown","TN","White House City Hall","not_available","37188",36.467915159544724,-86.65276230676912
"37049","Cross Plains","TN","Cane Creek Gym","Cc Road","37172",36.544723,-86.735572
"37055","Dickson","TN","Glamazon Training Academy","276 Dickson Plaza Drive","37055",36.08198542371103,-87.40048885345459
"37055","Dickson","TN","Planet Fitness","430 Highway 46 South","37055",36.0631581,-87.38038379999999
"37055","Dickson","TN","Cross Fit Engage","200 Church St","37055",36.076446533203125,-87.38689422607422
"37055","Dickson","TN","The Storm Center","Hwy 70 Bypass","37055",36.08557091666667,-87.38967098333333
"37055","Dickson","TN","Dickson Athletic Club","100 Payne Springs Rd","37055",36.085761882831264,-87.40968757617995
"37061","Erin","TN","Insanity Gym","not_available","37061",36.24913787841797,-87.68401336669922
"37062","Fairview","TN","Fairview Recreation Complex","2714 Fairview Blvd","37062",35.943824768066406,-87.1495132446289
"37062","Fairview","TN","Anytime Fitness","7048 City Ctr Way","37062",35.9731,-87.12919
"37064","Franklin","TN","Iron Tribe Fitness - Franklin","507 Fair Street","37064",35.92434699745414,-86.87229694904785
"37064","Franklin","TN","Life Time Athletic Franklin","5020 Carothers Pkwy","37067",35.92398833525788,-86.81490262632431
"37064","Franklin","TN","Longview Recreation Center","2909 Commonwealth Dr","37174",35.765083717374196,-86.90964468947587
"37064","Franklin","TN","Franklin Family YMCA","501 S Royal Oaks Blvd","37064",35.90566893624783,-86.84541772780723
"37064","Franklin","TN","Planet Fitness","1113 Murfreesboro Rd","37064",35.9169814,-86.8345242
"37064","Franklin","TN","Firestone Complete Auto Care","108 Rand Place","37064",35.9112364,-86.8323489
"37064","Franklin","TN","Franklin Athletic Club","112 Rand Pl","37064",35.9113375476006,-86.83358074037594
"37064","Franklin","TN","Team Tae Bo Fitness","1113 Murfreesboro Rd #101","37064",35.917356851728194,-86.83827576388349
"37064","Franklin","TN","Anytime Fitness","400 Downs Blvd","37064",35.9087,-86.88439
"37064","Franklin","TN","Anytime Fitness","4115 Mallory Ln","37067",35.93008,-86.82465
"37064","Franklin","TN","CrossFitMT","106 Carr Ave","37064",35.90553129459894,-86.87346247061345
"37064","Franklin","TN","Pure Barre","158 Front St Ste 102","37064",35.92876162757078,-86.92015171543756
"37064","Franklin","TN","Farms Fitness Center","201 Gillespie Dr","37067",35.95048426293163,-86.80078494379426
"37066","Gallatin","TN","Stoneridge Farms Gym","not_available","37066",36.337205,-86.539785
"37066","Gallatin","TN","KalQlate Science Wellness and Fitness LLC","760 East Main Street","37075",36.32693198,-86.56342417
"37066","Gallatin","TN","Organic Fitness Factory","650 Nashville Pike Ste 5C","37066",36.383629297253044,-86.46151411739541
"37066","Gallatin","TN","My Gym","123 Buckingham Blvd","37066",36.390010833740234,-86.49706268310547
"37066","Gallatin","TN","Snap Fitness","711 E Main St","37075",36.325818739764784,-86.56297706106234
"37066","Gallatin","TN","The Gym (Littlestone at Village Green)","1008 Village Green Xing","37066",36.3788948059082,-86.47298431396484
"37066","Gallatin","TN","FMC Gym","105 Bluegrass Commons Blvd","37075",36.32191848754883,-86.56893157958984
"37066","Gallatin","TN","The FitStop","555 Hartsville Pike # 37066","37066",36.390174865722656,-86.43411254882812
"37066","Gallatin","TN","SuperSlow Zone","1483 Nashville Pike Ste 301","37066",36.35951560000001,-86.4961562
"37066","Gallatin","TN","Destiny Cheer & Fitness","1022 Freedom Church Rd","37066",36.37831115722656,-86.5048599243164
"37066","Gallatin","TN","Anytime Fitness","1545 Nashville Pike","37066",36.35904,-86.49865
"37066","Gallatin","TN","Crossfit Hendersonville","106 Bluegrass Commons Blvd","37075",36.32093048095703,-86.56803131103516
"37066","Gallatin","TN","Workout Anytime","565 Village Green Dr, Ste C","37066",36.377929,-86.474519
"37066","Gallatin","TN","Burn Boot Camp","1020 Avondale Rd","37075",36.33035,-86.56002
"37067","Franklin","TN","B.fab.fitness","1850 General George Patton Dr","37067",35.96010208129883,-86.82837677001953
"37067","Franklin","TN","The Crag at Cool Springs","121 Seaboard Ln Ste 10","37067",35.96022273837513,-86.82467490140314
"37067","Franklin","TN","Page High School Weights Room","not_available","37014",35.90906101600408,-86.77787009521211
"37069","Franklin","TN","Bellevue YMCA","8101 Highway 100","37221",36.04250611742341,-86.9542827649446
"37069","Franklin","TN","Koko Fit Club","Fieldstone Farms","not_available",35.96469060076003,-86.88395691538638
"37069","Franklin","TN","Verizon Wireless CPT","455 Duke Dr","37067",35.9505615234375,-86.83385467529297
"37069","Franklin","TN","Wyndchase Aspen Grove Gym","3100 Aspen Grove Dr","37067",35.947235107421875,-86.83638000488281
"37069","Franklin","TN","Manduu, Cool Springs","125 Cool Springs Blvd Ste 290","37067",35.94206237792969,-86.83948516845703
"37069","Franklin","TN","Work Gym","1021 Windcross Ct, Franklin, TN 37067","37067",35.93916320800781,-86.83718872070312
"37069","Franklin","TN","Laurelbrooke Clubhouse Workout Room","not_available","37069",36.02783658583526,-86.89935366905152
"37069","Franklin","TN","Franklin Strength","1886 General George Patton Dr","37067",35.95769500732422,-86.83028411865234
"37072","Goodlettsville","TN","Planet Fitness","900 Conference Dr","37072",36.322615,-86.702775
"37072","Goodlettsville","TN","Advance Nutrition","1769 Gallatin Pike N","37115",36.29536437988281,-86.7021484375
"37072","Goodlettsville","TN","Fit 4 Her","214 Gifford Pl","37080",36.321082000000004,-86.86586700000001
"37072","Goodlettsville","TN","Athletic Revolution of Hendersonville","184 Molly Walton Dr Ste A","37075",36.31568908691406,-86.64669799804688
"37072","Goodlettsville","TN","The Better Life Center at Dollar General","Mission Ridge","37072",36.309351109373495,-86.69967152404585
"37072","Goodlettsville","TN","Fit Force","112 Mid Town Ct Ste 306","37075",36.30392837524414,-86.6341323852539
"37072","Goodlettsville","TN","LA Fitness","1615 Gallatin Pike N","37115",36.29355654315751,-86.70044321650589
"37072","Goodlettsville","TN","Main Street Strength & Conditioning","620 N Main St","37072",36.3308779,-86.71706239999999
"37072","Goodlettsville","TN","GES PE Class","not_available","37073",36.4338,-86.809759
"37072","Goodlettsville","TN","Fitness Plus","511 Two Mile Pike","37072",36.313647250413,-86.70694869870022
"37072","Goodlettsville","TN","Bristol Park Fitness Center","100 Riverchase Blvd","37115",36.30363464355469,-86.67713928222656
"37072","Goodlettsville","TN","WholeSaleFit","1811 Gallatin Pike N","37115",36.297007650247636,-86.69713978139849
"37072","Goodlettsville","TN","La Fitness (a.k.a) House Of Gainz","3050 Lebanon Pike","37214",36.31870358295842,-86.69718924634324
"37072","Goodlettsville","TN","Gymini Athletics","332 Free Hill Rd","37075",36.31283601,-86.64775875
"37072","Goodlettsville","TN","Happy Valley Road","not_available","37072",36.376905476879955,-86.75341026152849
"37073","Greenbrier","TN","Robertson County YMCA","3332 Tom Austin Hwy","37172",36.47927592598906,-86.89069747924805
"37074","Hartsville","TN","Trousdale County Highschool Gym","not_available","37074",36.392388973179585,-86.16715103075317
"37075","Hendersonville","TN","Planet Fitness","393 E Main St","37075",36.3135211,-86.589
"37075","Hendersonville","TN","Golds Gym","225 Indian Lake Blvd #A","37075",36.32255669693948,-86.59899405462875
"37075","Hendersonville","TN","Orange Theory Fitness Hendersonville TN","281 Indian Lake Blvd, Suite 200","37075",36.328253209731145,-86.59429317863584
"37075","Hendersonville","TN","Community Fitness","206 Vintage Cir","37075",36.311580657958984,-86.58892059326172
"37075","Hendersonville","TN","Workout Anytime Hendersonville","500 West Main Street","37075",36.303284,-86.6318
"37075","Hendersonville","TN","Pure Barre","300 Indian Lake Blvd Unit T120","37075",36.3303870350472,-86.58971244047547
"37075","Hendersonville","TN","F45 Training East Hendersonville","112 Saundersville Rd","37075",36.324945,-86.595837
"37075","Hendersonville","TN","ZUwire Fitness","132 Volunteer Dr","84653",36.31080034,-86.61619658
"37075","Hendersonville","TN","Fit Force","127 Sanders Ferry Rd","37075",36.30183792114258,-86.61480712890625
"37075","Hendersonville","TN","Nottingham Gym","228 Sanders Ferry Rd","37075",36.28844451904297,-86.61052703857422
"37075","Hendersonville","TN","The Biking Place","Hickory Heights Dr, Hendersonville, TN 37075","37075",36.28678282750552,-86.61125115292788
"37075","Hendersonville","TN","Personal Health & Fitness, Inc.","235 E Main St","37075",36.3077462992136,-86.60194471269548
"37076","Hermitage","TN","Donelson-Hermitage YMCA","3001 Lebanon Pike","37214",36.17204180627013,-86.64849723698352
"37076","Hermitage","TN","Oakwell Farms Fitness Center","Brooksmill circle","37076",36.16916378560034,-86.61334132141914
"37076","Hermitage","TN","Hermitage Fitness","3924 Lebanon Pike","37076",36.19449020159527,-86.62296897086225
"37076","Hermitage","TN","Polo Park Fitness Center","100 Jackson Downs Blvd","37214",36.1793695340898,-86.6408931606402
"37076","Hermitage","TN","Workout Anytime","4656 Lebanon Pike","37076",36.21524989991827,-86.59159306180975
"37076","Hermitage","TN","American Nutritional Wholesalers","not_available","37076",36.187349,-86.629579
"37076","Hermitage","TN","Graves Gym","121 Adams Ln","37122",36.16946029663086,-86.51851654052734
"37076","Hermitage","TN","Tri-Fit Bootcamp Mt. Juliet","13260 Lebanon Rd","37122",36.222572326660156,-86.54695129394531
"37076","Hermitage","TN","Megans","4100 Central Pike","37076",36.171451568603516,-86.595947265625
"37076","Hermitage","TN","Sheraton Fitness Center","Union St","37201",36.16774232174754,-86.54937906046926
"37076","Hermitage","TN","24/7 Fit Club","Hermitage TN 37076","37076",36.20438317855789,-86.61483443034426
"37076","Hermitage","TN","Stormer's Spin Studio","4491 Chandler Rd","37076",36.194708,-86.59567
"37076","Hermitage","TN","Urban Active","3051 Lebanon Pike","37214",36.17677994183204,-86.64447037938383
"37076","Hermitage","TN","Rise Above Fitness","100 Bonnabrook Dr","37076",36.192365,-86.625493
"37076","Hermitage","TN","YMCA","4658 Lebanon Pike","37076",36.21687347390892,-86.59432411193848
"37076","Hermitage","TN","Graves Fitness Center","121-A Adams Ln","37122",36.169369013927174,-86.51868236290755
"37076","Hermitage","TN","Drury Inn & Suites Fitness Center","555 Donelson Pike","37214",36.145545959472656,-86.66546630859375
"37083","Lafayette","TN","Body Confidence Gym","1212 Scottsville Rd","37083",36.53465270996094,-86.03041076660156
"37085","Lascassas","TN","The Pointe at Raiders Campus Fitness Facility","1235 N. Tennessee Blvd","37130",35.877782725387696,-86.37509551099576
"37086","La Vergne","TN","North Rutherford YMCA","2001 Motlow College Blvd","37167",35.99432963603159,-86.53861899591305
"37086","La Vergne","TN","Golds Gym Smyrna","561 S Lowry St","37167",35.96764552598543,-86.50400854533842
"37086","La Vergne","TN","Zumba At Fusion Dance Center","230 Weakley Lane","37167",35.99819917276465,-86.49773726161186
"37086","La Vergne","TN","Snap Fitness","130 almaville rd","37167",35.95708489412081,-86.51957157672163
"37086","La Vergne","TN","Candlewood Suites Gym","not_available","37167",35.974242,-86.576887
"37086","La Vergne","TN","Planet Fitness","564 Nissan Dr","37167",35.985098362903024,-86.49531391534424
"37086","La Vergne","TN","Workout Anytime Smyrna TN","13702 Old Nashville Hwy","37167",35.9809792726847,-86.54266900458366
"37086","La Vergne","TN","Home Gym","Home","37013",36.03072254916866,-86.58124300891859
"37086","La Vergne","TN","Crossfit Imagine","109 Threet Industrial Rd","37167",35.998206,-86.525614
"37086","La Vergne","TN","Fusion Dance Center","133 Weakley Ln Ste 230","37167",35.998260498046875,-86.49729919433594
"37087","Lebanon","TN","Jimmy Floyd Family Center","511 N Castle Heights Ave","37087",36.21707499697253,-86.29794467280672
"37087","Lebanon","TN","Planet Fitness","1031 W Main St Ste B","37087",36.213503075002436,-86.31740363816755
"37087","Lebanon","TN","Holiday Inn Express Fitness Center","826 S. Cumberland St.","not_available",36.18318557739258,-86.2992935180664
"37087","Lebanon","TN","Sports Village Fitness","1735 W Main St","37087",36.22461280589032,-86.34988742911511
"37087","Lebanon","TN","Stonebridge Gym","not_available","37087",36.188507,-86.381115
"37087","Lebanon","TN","IMA Crossfit","Bay Court","not_available",36.213246423154345,-86.32479893727549
"37087","Lebanon","TN","Intrigue Athletics Inc.","5510 E Division St, 113","37122",36.189781188964844,-86.42611694335938
"37090","Lebanon","TN","The Falls @ 109 Workout Room","100 Falls Blvd","37090",36.17082214355469,-86.40164947509766
"37090","Lebanon","TN","Anytime Fitness","200 Maddox-Simpson Pkwy","37090",36.1730429,-86.29911971
"37091","Lewisburg","TN","Anytime Fitness","712 N Ellington Pkwy","37091",35.4606,-86.78074
"37091","Lewisburg","TN","Functional Fitness","880 Springplace Rd.","37091",35.43726205620933,-86.77705126493453
"37096","Linden","TN","The Gym","240 W Main St","37096",35.616981506347656,-87.84603881835938
"37110","Mcminnville","TN","NCTAMS Gym","not_available","37110",35.78025436401367,-85.9286117553711
"37115","Madison","TN","Margaret Maddox Family YMCA","2624 Gallatin Pike","37216",36.19852646785374,-86.74080219153944
"37115","Madison","TN","South Inglewood Park","1624 Rebecca Ave","37216",36.196990966796875,-86.72759246826172
"37115","Madison","TN","Opryland Fitness Center","2800 Opryland Dr","37214",36.21234900627272,-86.69711846265562
"37115","Madison","TN","Vida Saludable y Activa","207 Gallatin Pike S #9","37115",36.26085662841797,-86.71209716796875
"37115","Madison","TN","Gym","2212 Pennington Bend Rd.","37214",36.21845245361328,-86.70453643798828
"37115","Madison","TN","CrossFit 615- East Nashville","3231 Gallatin Pike","37216",36.207578999999996,-86.73614599999999
"37115","Madison","TN","E F Personal Training","1603 Dorchester Ave","37216",36.198683,-86.725091
"37115","Madison","TN","Goodpasture Feildhouse","not_available","37115",36.24754791374172,-86.74033839814027
"37122","Mount Juliet","TN","Body Shop Fitness","401 S Mount Juliet Rd","37122",36.16623057503407,-86.51174995370188
"37122","Mount Juliet","TN","Orangetheory Fitness","11199 Lebanon Rd","37122",36.231468200683594,-86.51434326171875
"37122","Mount Juliet","TN","McKee's Fitness & Boxing","123 Seven Springs Dr","37122",36.14167022705078,-86.47667694091797
"37122","Mount Juliet","TN","Planet Fitness","1335 N Mount Juliet Rd","37122",36.1898778,-86.5118767
"37122","Mount Juliet","TN","Century Providence Fitness Center","2500 Aventura Dr","37122",36.16457450297901,-86.50540351867676
"37122","Mount Juliet","TN","Anytime Fitness","645 S Mount Juliet Rd","37122",36.16253943,-86.51245932
"37122","Mount Juliet","TN","Six1Five Sports Training","139 Lineberry Blvd","37122",36.23257827758789,-86.50933837890625
"37122","Mount Juliet","TN","Aventura Fitness Center","not_available","37122",36.164166003892454,-86.50557897947704
"37122","Mount Juliet","TN","Curves","12020 Lebanon Rd","37122",36.230838775634766,-86.52839660644531
"37122","Mount Juliet","TN","Fit Physiques","3384 N Mount Juliet Rd Ste 100","37122",36.2178814,-86.5158977
"37122","Mount Juliet","TN","Re: Move//Training","200 Nonaville Rd","37122",36.23347091674805,-86.5299301147461
"37127","Murfreesboro","TN","Patterson Park Community Center","521 Mercury Blvd","37130",35.83880372079838,-86.38203636450335
"37127","Murfreesboro","TN","The gym","not_available","37127",35.792939758903735,-86.40798063186561
"37127","Murfreesboro","TN","CrossFit Rutherford","325 W Rutherford Blvd","37130",35.81928597380222,-86.401503238643
"37127","Murfreesboro","TN","Univeristy Gables Fitness Center","2827 S Rutherford Blvd","37130",35.83125686645508,-86.3526382446289
"37127","Murfreesboro","TN","CrossFit Murfreesboro","831 Park Ave","37129",35.83349412100265,-86.39694635777869
"37127","Murfreesboro","TN","Planet Fitness","3060 S Church St","37127",35.78523,-86.40242
"37127","Murfreesboro","TN","Six1Five Sports Training","2303 S Church St","37130",35.81273230173996,-86.39345884323119
"37127","Murfreesboro","TN","University Ridge Gym","Rutherford Blvd","37129",35.827313380959225,-86.35063906229213
"37127","Murfreesboro","TN","Wellness Center","Mercury Blvd","37130",35.839304588337924,-86.3815367341995
"37127","Murfreesboro","TN","Curves","3032 S Church St","37127",35.785246,-86.402815
"37127","Murfreesboro","TN","The Gym","not_available","37130",35.83367736503069,-86.37055350762975
"37127","Murfreesboro","TN","Armored Body Gym","1411 Mark Allen Ln Suites E & F","37129",35.82826614379883,-86.40911865234375
"37127","Murfreesboro","TN","Fred's Exercise Resistance","not_available","37129",35.82886366699544,-86.40952321601043
"37127","Murfreesboro","TN","Chelsea Place Apts Fitness Center","805 Bradyville Pike","37130",35.830802,-86.377267
"37128","Murfreesboro","TN","Gold's Gym","1713 Old Fort Pkwy","37129",35.845389494072826,-86.41705432664827
"37128","Murfreesboro","TN","Olympus Athletic Club","810 NW Broad St, Ste 206","37129",35.853486098490706,-86.40089860043297
"37128","Murfreesboro","TN","CYCLEBAR","2249 Medical Center Pkwy Ste A","37129",35.8578908,-86.43535159999999
"37128","Murfreesboro","TN","Winning","3920 Puckett Creek Xing","37128",35.863852905063375,-86.46499582654661
"37128","Murfreesboro","TN","RockBox Fitness Murfreesboro","1720 Old Fort Parkway","37129",35.848978,-86.418397
"37128","Murfreesboro","TN","F45 Training West Murfreesboro","820 North Thompson Lane","37129",35.85945025,-86.42836076
"37128","Murfreesboro","TN","Anytime Fitness","2397 New Salem Hwy","37128",35.81308,-86.4446
"37128","Murfreesboro","TN","Abrahamson Iron Paradise","Dunraven Drive","37128",35.860786,-86.493418
"37128","Murfreesboro","TN","NAT Yoga and Meditation","505 Cason Ln","37128",35.84191131591797,-86.43978881835938
"37128","Murfreesboro","TN","VZW Gym","316-458 River Rock Blvd","37128",35.83929754848882,-86.44385320542872
"37128","Murfreesboro","TN","Gym @ Cason Estates","1650 Cason Ln","37128",35.81928250187578,-86.44570899607571
"37128","Murfreesboro","TN","FitnessScape","1807 Azure Way","37128",35.82590357822331,-86.44652366638184
"37128","Murfreesboro","TN","Ufit Personal Training","710 Memorial Blvd Ste 120","37129",35.84961,-86.421847
"37128","Murfreesboro","TN","Orangetheory Fitness","2615 Medical Center Pkwy","37129",35.857235,-86.443152
"37129","Murfreesboro","TN","Gold's Gym North","1691 Memorial Blvd, Murfreesboro, TN 37129","37129",35.868022548121914,-86.38899600464829
"37129","Murfreesboro","TN","Sports Com","2302 Memorial Blvd","37129",35.88713533873324,-86.38147737185326
"37129","Murfreesboro","TN","Gold's Gym","313 S Church St","37130",35.843078767347414,-86.39163303601413
"37129","Murfreesboro","TN","Winning","1235 N. Tennessee blvd","37130",35.85853337497924,-86.3686386186681
"37129","Murfreesboro","TN","Flex Gym","6670 New Nashville Hwy","37167",35.9399299621582,-86.48002624511719
"37129","Murfreesboro","TN","Snap Fitness","830 Nissan Dr Ste 120","37167",35.96935179543381,-86.49489920465956
"37129","Murfreesboro","TN","iLoveKickboxing - Murfreesboro, TN","833 Memorial Blvd, Suite H & I","37129",35.85481643676758,-86.39629364013672
"37130","Murfreesboro","TN","Key Fitness","710 Memorial Blvd","37129",35.851516,-86.39551999999999
"37130","Murfreesboro","TN","Quality of Life Fitness","307 S Church St Ste D","37130",35.843105,-86.391136
"37130","Murfreesboro","TN","Stone's River Strength and Conditioning","520 W Burton St","37130",35.84996032714844,-86.3958969116211
"37134","New Johnsonville","TN","TVA Livewell","535 Steam Plant Rd","37134",36.027856,-87.987575
"37134","New Johnsonville","TN","JERA (Johnsonville Employees Recreation Area)","not_available","37134",36.026807169627915,-87.96088660110168
"37135","Nolensville","TN","Burn Boot Camp","7116 Nolensville Rd","37135",35.9755,-86.67822
"37148","Portland","TN","Elite Fitness","31W","not_available",36.46045684814453,-86.6631851196289
"37148","Portland","TN","JustBeFit","2910C Highway 31 W","37188",36.46057715765573,-86.66263979131621
"37148","Portland","TN","Xtreme Fitness","not_available","37148",36.574167565257916,-86.51375496267259
"37148","Portland","TN","Studio B.O.S.S. LLC","2823 Highway 31W South Ste 400","37188",36.4590241,-86.6662023
"37148","Portland","TN","Just Be Fit Fitness","2786 Old Hwy 31","37188",36.45538475648268,-86.66809558868408
"37160","Shelbyville","TN","Olympus Athletic Club","101 Northside Park Dr","37160",35.509299178438035,-86.45680635395551
"37160","Shelbyville","TN","Planet Fitness","108 Lane Pkwy","37160",35.486322,-86.460602
"37160","Shelbyville","TN","MG Sports & Fitness","110 Northside Park Dr.","37160",35.51046560999635,-86.45776748657227
"37166","Smithville","TN","Lack's Muscle Shack","not_available","37166",35.954262416666666,-85.76988111666667
"37167","Smyrna","TN","Spartan SGX Impact","8010 Safari Dr","37167",35.934879302978516,-86.52684783935547
"37167","Smyrna","TN","Anytime Fitness","1932 Almaville Rd Ste 135","37167",35.92847,-86.53534
"37167","Smyrna","TN","Crossfit VTG","8006 Safari Dr","37167",35.93473815917969,-86.52696228027344
"37167","Smyrna","TN","Legacy Athletics","2121 Battlefield Pkwy","37129",35.88683,-86.42996
"37172","Springfield","TN","Curves","511 Hill St","37172",36.50755310058594,-86.88319396972656
"37172","Springfield","TN","Wii Fit Gym N More","7918-8014 Tennessee 49","37172",36.58341306655301,-86.7806476193971
"37172","Springfield","TN","Get Fit Anytime","3588 Tom Austin Hwy","37172",36.491001323143934,-86.88004279818352
"37174","Spring Hill","TN","SolutionsInFitness Personal Training @ HG Fitness","3012 Longford Dr","37174",35.7730712890625,-86.91429138183594
"37174","Spring Hill","TN","Worthington Gym","1000 Worthington Ln","37174",35.72551727294922,-86.8840560913086
"37174","Spring Hill","TN","Gym- Spring Hill","not_available","37174",35.71836720254251,-86.89258808301582
"37174","Spring Hill","TN","Pure Barre","4816 Main St Ste D","37174",35.7827998,-86.9125566
"37174","Spring Hill","TN","Olympus Athletic Club - Spring Hill","125 Stephen P. Yokich Pkwy","37174",35.74655031915784,-86.94206053103501
"37174","Spring Hill","TN","Gym / Fitness","Walden Creek","37174",35.746503188678844,-86.89476178988748
"37174","Spring Hill","TN","Walden Creek Gym","1000 Walden Creek Trce","37174",35.74754333496094,-86.89427947998047
"37174","Spring Hill","TN","Workout Anytime Spring Hill","4886 Port Royal Rd, Ste 200","37174",35.74016895525331,-86.8920018018126
"37174","Spring Hill","TN","Orangetheory Fitness","2047 Wall St","37174",35.771297454833984,-86.91561126708984
"37174","Spring Hill","TN","Anytime Fitness","3525 Kedron Rd","37174",35.73651,-86.92574
"37174","Spring Hill","TN","Burn Boot Camp","2001 Campbell Station Pkwy","37174",35.77529,-86.91279
"37183","Wartrace","TN","Planet Fitness","1905 N Jackson St","37388",35.3846448,-86.2351975
"37183","Wartrace","TN","Curves","King's Lane","not_available",35.384007000000004,-86.224073
"37183","Wartrace","TN","Snap Fitness","1406 N Jackson St","37388",35.375937,-86.22313299999999
"37185","Waverly","TN","Workout Sesh !","19 Richland Ave, Waverly, TN 37185","37185",36.08715057373047,-87.7916259765625
"37201","Nashville","TN","Doubletree Fitness Center","not_available","37219",36.16493223739864,-86.78060836220692
"37201","Nashville","TN","Encore Gym","301 Demonbreun St","37201",36.15903885110544,-86.77423813736812
"37201","Nashville","TN","Unique Fitness Nashville","128 2nd Ave N","37201",36.16299057006836,-86.77535247802734
"37201","Nashville","TN","Fitness Center at the Omni","250 5th Ave S","not_available",36.157026870193675,-86.77618681894961
"37201","Nashville","TN","Takes 2 Fitness - Downtown","401 Commerce St","37219",36.161660442966344,-86.77873533400063
"37201","Nashville","TN","Qualifacts Systems Inc","200 2nd Ave S","37201",36.1597383025064,-86.7737574730112
"37201","Nashville","TN","Sheraton Nashville Gym","623 Union St","37219",36.16224670410156,-86.78252410888672
"37201","Nashville","TN","The Pinnacle","Broadway Street","37203",36.16181126818302,-86.78238962539285
"37201","Nashville","TN","AC Marriott Gym","not_available","37203",36.15637,-86.775401
"37201","Nashville","TN","Hilton Garden Inn Gym","not_available","37201",36.157284,-86.773772
"37201","Nashville","TN","UMPH PowerHouse Gym","201 8th Ave S","37203",36.15601348876953,-86.78103637695312
"37203","Nashville","TN","Downtown YMCA","1000 Church St","37203",36.16161735282815,-86.78540366836206
"37203","Nashville","TN","Burn Body Bootcamp","1720 West End Ave","37203",36.153480529785156,-86.79584503173828
"37203","Nashville","TN","Barry's Bootcamp","308 11th Ave S","37203",36.15333695228637,-86.78389333817667
"37203","Nashville","TN","CrossFit Music City","3 Cannery Row Ste 103","37203",36.15296701791338,-86.77934288978575
"37203","Nashville","TN","Gym L","1101 Laurel St","37203",36.1536750793457,-86.78447723388672
"37203","Nashville","TN","Memorial Gymnasium","210 25th Ave. S","37203",36.144537520902816,-86.80739879608154
"37203","Nashville","TN","Pure Barre","228 11th Ave S","37203",36.154095806680346,-86.78401613449
"37203","Nashville","TN","1700 Midtown Gym","1700-1798 State St","37203",36.15649403935164,-86.79758905271441
"37203","Nashville","TN","Go Performance and Fitness","209 10th Ave S #149","37203",36.154967759541016,-86.78252137731502
"37203","Nashville","TN","Crossfit East Nashville","not_available","37213",36.159745,-86.762639
"37203","Nashville","TN","Training Camp Nashville","400 Davidson St","37213",36.16024398803711,-86.76212310791016
"37203","Nashville","TN","Marriott Vanderbilt Gym","2255 W End Ave","37240",36.1453,-86.809437
"37203","Nashville","TN","Marathon Fitness","1310 Clinton St","37203",36.16407012939453,-86.79608154296875
"37203","Nashville","TN","Results Fitness","1617 16th Ave S","37212",36.13760158362282,-86.7947933665199
"37203","Nashville","TN","Impact Fitness","2300 Charlotte Ave","37203",36.1560815668574,-86.80934646029162
"37203","Nashville","TN","Bristol Gym","not_available","37212",36.14213060232632,-86.81283768061216
"37203","Nashville","TN","Nashletics","2022 Lindell Ave","37203",36.132728576660156,-86.77383422851562
"37203","Nashville","TN","Mid-South Krav Maga","125 12th Ave S","37203",36.154839,-86.786817
"37204","Nashville","TN","Get Fit Anytime","715 Craighead St","37204",36.12618430729327,-86.77624989476482
"37204","Nashville","TN","PhysioFit","708 Berry Rd","37204",36.120018005371094,-86.77021026611328
"37204","Nashville","TN","Crossfit Nashville","3628 Trousdale Dr","37204",36.09609716144549,-86.74924308775363
"37204","Nashville","TN","Nashletics","2141 Utopia Ave","37211",36.126312,-86.756839
"37204","Nashville","TN","Marathon Fitness","2907 12th Ave S","37204",36.121061,-86.790879
"37204","Nashville","TN","Impact Fitness","not_available","37204",36.118252,-86.774808
"37204","Nashville","TN","Beaman Student Life Center - Fitness Center","1900 Belmont Blvd","37212",36.1329750217104,-86.79465504857397
"37204","Nashville","TN","TNB Fitness","509 Craighead St Ste 100","37204",36.126313234939765,-86.77385565531766
"37204","Nashville","TN","Marathon Fitness 12south","1207 12th Ave S","37203",36.120978,-86.790537
"37204","Nashville","TN","Park At Melrose Workout Room","2310 Elliott Ave","37204",36.12724685668945,-86.7801513671875
"37205","Nashville","TN","Green Hills Family YMCA","4041 Hillsboro Cir","37215",36.10344187870136,-86.82068641932814
"37205","Nashville","TN","Boost FitClub","11 Vaughns Gap Rd","37205",36.079085899300175,-86.88597071303671
"37205","Nashville","TN","Orangetheory Fitness","6720 Charlotte Pike","37209",36.137894365120275,-86.88807390194852
"37205","Nashville","TN","Sumits Yoga Nashville","6031 Highway 100","37205",36.097449,-86.872159
"37205","Nashville","TN","Gym @ The Reserve","Eagle Ridge At The Reserve","37221",36.088436217962155,-86.91884994506836
"37205","Nashville","TN","Immortal Strength","3811 Bedford Ave","37215",36.109024,-86.820165
"37205","Nashville","TN","I work out.","not_available","37205",36.1258648878084,-86.84741369782365
"37205","Nashville","TN","The Bar Method - Nashville","4301 Memphis-Bristol Highway","37205",36.1026382,-86.8701019
"37205","Nashville","TN","Koko FitClub Belle Meade","4326 Harding Pike Ste 105","37205",36.126228652536824,-86.84628423771373
"37205","Nashville","TN","My Gym","334-336 Chamberlin St","37209",36.14363036131546,-86.8835348158412
"37205","Nashville","TN","The Wellness Center at St. Thomas","198 St Thomas Dr","37205",36.130153907547744,-86.845550815337
"37205","Nashville","TN","Chowning Square Gym","4141 Woodlawn Dr","37205",36.12579085600746,-86.84374696778649
"37205","Nashville","TN","Westboro Gym","West End 3101","37203",36.141909434297375,-86.81687342653927
"37205","Nashville","TN","Hillwood CC Fitness Center","6201 Hickory Valley Riad","37205",36.1216361546645,-86.87090331932808
"37205","Nashville","TN","Snap Fitness","73 White Bridge Rd","37205",36.129546111167734,-86.85600718394194
"37205","Nashville","TN","iLoveKickboxing - Nashville, TN","73 White Bridge Road, Ste 118","37205",36.12952194831228,-86.85604089994258
"37205","Nashville","TN","Belle Meade Country Club Workout Room","815 Belle Meade Blvd","37205",36.09479522705078,-86.85816955566406
"37205","Nashville","TN","Lakes of Bellevue Fitness Center","Erin Lane","37221",36.084794469335115,-86.9068622624786
"37205","Nashville","TN","Takes 2 Fitness","3102 West End Ave","37203",36.14355940349296,-86.81714311815622
"37205","Nashville","TN","360 Fitness Coaching","3744 Annex Avenue","37209",36.14188,-86.88288299999999
"37205","Nashville","TN","Krank Nashville","2148 Bandywood Dr","37215",36.10531276209111,-86.81672011989048
"37205","Nashville","TN","Grande View Apts Fitness Center","7100 Sonya Dr","37209",36.11407916200408,-86.91709474916516
"37205","Nashville","TN","Turbo Fire Class","not_available","37209",36.12813768,-86.91075878
"37205","Nashville","TN","AMSURG Fitness Center","1A Burton Hills Blvd","37215",36.09559631347656,-86.82128143310547
"37206","Nashville","TN","Gym 5","952 Main St","37206",36.17717621636568,-86.75339221044635
"37206","Nashville","TN","F45 Training East Nashville","418 Woodland St","37206",36.171721,-86.76504
"37206","Nashville","TN","TITLE Boxing Club East Nashville","605 Gallatin Avenue","37206",36.18299443,-86.74743378
"37206","Nashville","TN","Wallace Fitness Center","not_available","37206",36.18294281626245,-86.75153464920204
"37206","Nashville","TN","Hooprama","521 Gallatin Ave","37206",36.18248748779297,-86.74844360351562
"37206","Nashville","TN","El Sòtano","623 Shelby Ave","37206",36.169385,-86.75866
"37206","Nashville","TN","Haddock Studio","604 Gallatin Ave #213","37206",36.183616,-86.749103
"37206","Nashville","TN","T's Kickass Kinect","800 Woodland St Apt 103","37206",36.174259185791016,-86.7579574584961
"37207","Nashville","TN","One Metrocenter Fitness Center","45 Vantage Way","37228",36.190433,-86.79533599999999
"37207","Nashville","TN","GoPerformance","Cummins Station, 209 10th Ave S, Nashville, TN 37203","37203",36.17504462238528,-86.78872411400059
"37207","Nashville","TN","PROVITA","1329 6th Ave N","37208",36.177551,-86.79150299999999
"37207","Nashville","TN","Boxing Resource Center","Main street","37013",36.19611111111111,-86.77388888888889
"37207","Nashville","TN","millennium maxwell Gym","not_available","37228",36.18934928951284,-86.79960514727455
"37207","Nashville","TN","CrossFit Pro Vita","1329 6th Avenue North","37208",36.17756,-86.791444
"37208","Nashville","TN","The Inspiration Center","not_available","37208",36.17049395949039,-86.81736867726904
"37208","Nashville","TN","TIKI Fitness","2323 Merry St","37208",36.15907669067383,-86.81122589111328
"37209","Nashville","TN","Row House","4107 Charlotte Ave.","37209",36.1519505,-86.83652090000001
"37209","Nashville","TN","Stretch Zone - Nashville","4004 Hillsboro Pike","37215",36.103640000000006,-86.814068
"37209","Nashville","TN","Northwest Family YMCA","3700 Ashland City Hwy","37218",36.19716162711018,-86.84000850442378
"37209","Nashville","TN","CYCLEBAR","3820 Charlotte Ave Ste 111","37209",36.1527964,-86.8320281
"37209","Nashville","TN","Novel Bellevue Gym","8075 Sawyer Brown Rd","37221",36.08285903930664,-86.94640350341797
"37209","Nashville","TN","Paddle Up TN","525 Basswood Dr","37209",36.1577487,-86.88380649999999
"37209","Nashville","TN","Gracie Barra Green Hills/Nashville","3710 Hillsboro Pike Ste B","37215",36.10976173288713,-86.8110891845428
"37209","Nashville","TN","Nashville Weightlifting Club","5108 Louisiana Ave","37209",36.162376403808594,-86.84991455078125
"37209","Nashville","TN","Vanderbilt Health Plus","201 25th Ave. South","37240",36.14505952511343,-86.80829645313071
"37210","Nashville","TN","Terra House Gym","115 Middleton St","not_available",36.15645528044403,-86.76579633269482
"37210","Nashville","TN","Strength Camp","159 Green St","37210",36.15208053588867,-86.7515869140625
"37210","Nashville","TN","Moore Wellness Center","241 Lester Ave","37210",36.14095680389809,-86.75297296911997
"37210","Nashville","TN","Fitness:1440 South","63 Thompson Ln","37211",36.110328674316406,-86.72565460205078
"37210","Nashville","TN","Gym","700 Calhoun Ave","37210",36.150251929469576,-86.74855414332549
"37210","Nashville","TN","Highwoods Fit","402 Bna Dr","37217",36.138065338134766,-86.69871520996094
"37210","Nashville","TN","Nashville Kettlebell","944 4th Ave S","37210",36.149126819396265,-86.76923210187937
"37210","Nashville","TN","Pro3 Fitness","2 International Plz","37217",36.12629296105612,-86.6952721538575
"37210","Nashville","TN","Effect Fitness","1215 4th Ave S","37210",36.1444,-86.76643
"37210","Nashville","TN","Fitness 1440","Thompson Ln","37211",36.110024,-86.733224
"37210","Nashville","TN","Miss Fit Academy","265 Hermitage Ave","37210",36.15330265217378,-86.7533564171329
"37210","Nashville","TN","Boxing Gym","Nolensville Rd","37211",36.11261025825278,-86.74589264840954
"37210","Nashville","TN","HOB Fitness Center","700 2nd Ave S","37210",36.154084999999995,-86.769054
"37211","Nashville","TN","Twin Oaks Fitness","not_available","37211",36.102495,-86.718966
"37211","Nashville","TN","Real Change Fitness","5714 Edmondson Pike Ste 2A","37211",36.038503000000006,-86.74249300000001
"37211","Nashville","TN","Arbors Fitness Center","Brentwood Terrace","37211",36.04641180410445,-86.74120289599105
"37212","Nashville","TN","Village At Vanderbilt Gym","Village at Vandy","37212",36.1392350504516,-86.79940581321716
"37212","Nashville","TN","Adelicia Fitness Center","900 20th Ave S","37212",36.14871037807974,-86.7975053151895
"37212","Nashville","TN","Barre Amped","1617 16th Ave S, Nashville, TN 37212","37212",36.137473215085706,-86.79459664171056
"37212","Nashville","TN","GloboGym","1702 18th Ave S","37212",36.137434999999996,-86.796553
"37212","Nashville","TN","F45 Training Midtown Nashville","2317 Elliston Pl","37203",36.1489765,-86.8060883
"37212","Nashville","TN","Caterpillar Fitness Center","2120 West End Ave","37203",36.15031238600134,-86.80353408439068
"37212","Nashville","TN","Steps Inc","2424 21st Ave S","37212",36.12609053164544,-86.80442871926674
"37212","Nashville","TN","Michael's Gym","900 19th Ave S","37212",36.1483039855957,-86.79569244384766
"37212","Nashville","TN","C-Results","West End Circle","37203",36.14283419121718,-86.81893779662872
"37214","Nashville","TN","Anytime Fitness","2310 Lebanon Pike","37214",36.17025,-86.68453
"37214","Nashville","TN","Homewood Suites Gym","2640 Elm Hill Pike","37214",36.152076721191406,-86.67203521728516
"37215","Nashville","TN","Pure Barre","2101 Bandywood Dr","37215",36.1059232,-86.8157612
"37215","Nashville","TN","Neighborhood Barre Green Hills","2210 Crestmoor Rd Ste 12","37215",36.10916,-86.81491
"37215","Nashville","TN","CorePower Yoga","3990 Hillsboro Pike Ste 220","37215",36.10453,-86.814468
"37215","Nashville","TN","Pepper Boxing","2176 Bandywood Dr","37215",36.10550989,-86.81694544
"37215","Nashville","TN","Iron Tribe Fitness - Nashville","5135 Harding Pike","37205",36.1033594,-86.869345
"37215","Nashville","TN","TITLE Boxing Club Nashville Green Hills","4108 Hillsboro Pike","37215",36.10154616,-86.81719746
"37215","Nashville","TN","Saint Henry Catholic School Gym","6401 Harding Pike","37205",36.09042739868164,-86.88660430908203
"37217","Nashville","TN","DG Fitness Center","Dover Glen Dr.","not_available",36.07578659057617,-86.6433334350586
"37217","Nashville","TN","Company Fitness Center","1717 Elm Hill Pike","37210",36.14421844482422,-86.70986938476562
"37218","Nashville","TN","Crossfit Barefoot","5402 Charlotte Ave","37209",36.152252000000004,-86.85367099999999
"37218","Nashville","TN","KSA Martial Academy","4910 Charlotte Pike","37209",36.15214403396288,-86.84645175933838
"37218","Nashville","TN","Carlex Gym","7200 Centennial Blvd","37209",36.182594,-86.87413199999999
"37218","Nashville","TN","My Gym","Chamberlin St","37209",36.149414,-86.82928807
"37218","Nashville","TN","West Dragon Kung Fu","5915 Morrow Rd","37209",36.162017,-86.861124
"37218","Nashville","TN","Restorative Strength","405 42nd Ave. N.","37209",36.16031265258789,-86.84268188476562
"37218","Nashville","TN","Western Hills Fitness Center","Watts Circle","37029",36.14249122595908,-86.87139421799417
"37218","Nashville","TN","R Friends Gym","323 29th Ave N","37203",36.1480234438502,-86.81592164828913
"37220","Nashville","TN","Plum Nearly Fit","Plum Nelly Cir","37027",36.0735896,-86.7669241
"37221","Nashville","TN","Planet Fitness","7657 Highway 70 S","37221",36.07709716547443,-86.95038439473517
"37221","Nashville","TN","865 Gym","865 Bellevue Rd","37221",36.074039459228516,-86.9429702758789
"37221","Nashville","TN","Hix Gym","118 Hicks Rd","37221",36.063686,-86.923226
"37221","Nashville","TN","CEF CrossFit","7103 Highway 70 S","37221",36.073734283447266,-86.92189025878906
"37221","Nashville","TN","Cutting Edge Fitness","7103 Highway 70 South","37221",36.07405,-86.9222
"37221","Nashville","TN","Winning at Wyndchase","Gettin' it!","37221",36.072336,-86.929382
"37221","Nashville","TN","Bellevue Recreation Center","656 Colice Jeanne Rd","37221",36.07170104980469,-86.93359375
"37221","Nashville","TN","The Gym at Ridgelake","Mountain Valley Dr","37209",36.097092122155544,-86.92748285930662
"37221","Nashville","TN","Python Fitness","136 Belle Forest Cir","37221",36.076285999999996,-86.92231899999999
"37221","Nashville","TN","Crossfit West Nashville","not_available","37221",36.072753376151375,-86.92477555732931
"37221","Nashville","TN","Nashville Barbell / Crossfit Vector","6922 Hwy 70S","37221",36.077143784306564,-86.9107709722931
"37221","Nashville","TN","J and K Fit LLC","142 Belle Forest Cir","37221",36.0764045715332,-86.9222412109375
"37221","Nashville","TN","Burn Boot Camp","7648 Highway 70 S","37221",36.08012,-86.9532
"37301","Altamont","TN","Planet Fitness","2600-2898 U.S. 41","34112",35.380054,-85.709429
"37302","Apison","TN","MERC - Plant 2","10260 McKee Rd.","37315",35.04802685516395,-85.04022312952812
"37303","Athens","TN","Ymca","not_available","37303",35.451247145293216,-84.59631942350475
"37303","Athens","TN","The Shed Fitness Center","3 W Madison Ave","37303",35.441959381103516,-84.59346771240234
"37303","Athens","TN","Diamond Fitness and Martial Arts, LLC","138 Frontier Road","37874",35.57166321534438,-84.46275115013123
"37303","Athens","TN","Athens-McMinn YMCA","205 Knoxville Ave","37303",35.45116917468157,-84.59621199514037
"37303","Athens","TN","My Recliner","not_available","37331",35.348739583333334,-84.58605963333333
"37306","Belvidere","TN","Bunny's Gym","not_available","37398",35.187221900697494,-86.11271952383095
"37307","Benton","TN","The Gym","167 Howard Dr","37361",35.113548278808594,-84.68773651123047
"37309","Calhoun","TN","Gymiewicz","not_available","37312",35.247733,-84.854182
"37310","Charleston","TN","Orangetheory Fitness","640 Paul Huff Parkway","37312",35.21075,-84.86269
"37310","Charleston","TN","Workout Anytime","221 Ocoee Xing NW","37312",35.19320877405063,-84.85494293656438
"37310","Charleston","TN","Jones Wrestling Center","800a Raider Dr","37312",35.193185161754535,-84.86667841672897
"37310","Charleston","TN","Cleveland Family YMCA","220 Urbane Rd NE","37312",35.188033061027106,-84.82428285091427
"37311","Cleveland","TN","Planet Fitness","2641 Apd 40","37323",35.131551,-84.88
"37311","Cleveland","TN","ZUMBA!","not_available","37311",35.175200638725876,-84.8689042173916
"37311","Cleveland","TN","CrossFit Gryphon","445 Church St SE Ste 140","37311",35.155616760253906,-84.8766860961914
"37311","Cleveland","TN","Manifest Strength & Conditioning","655 Dockery Ln SE","37323",35.123634,-84.887451
"37311","Cleveland","TN","Fitness Factory","1800 Harrison Pike","37311",35.169109,-84.897415
"37311","Cleveland","TN","Steam Room","201 Keith St SW","37311",35.16096115112305,-84.88241577148438
"37311","Cleveland","TN","Anytime Fitness","20 25th St NW","37311",35.17904,-84.86524
"37311","Cleveland","TN","Gold's Gym","201 Keith Street","37311",35.1609655,-84.8829357
"37311","Cleveland","TN","Cardio Fuel","201 Keith St NW","37311",35.161236323046744,-84.88315729752628
"37311","Cleveland","TN","Anthony's Gym","Humphrey Bridge Rd NW","37311",35.140936,-84.928739
"37311","Cleveland","TN","Ronnie's Gym & Window Tinting","234 3rd St SW","37311",35.158587,-84.87885
"37311","Cleveland","TN","GX Room at The Rush","201 Keith St SW #10","37311",35.16096825875768,-84.88279581069946
"37311","Cleveland","TN","F45 Training Cleveland TN","210 1st St NE","37311",35.158366,-84.872362
"37321","Dayton","TN","Atlas Gym","not_available","37321",35.495366228705414,-85.0574735152861
"37321","Dayton","TN","Workout Anytime","200 Able Dr, Ste 9","37321",35.476025,-85.027298
"37322","Decatur","TN","WBN Live Well","not_available","37381",35.60214854580224,-84.7941541671753
"37323","Cleveland","TN","Crossfit Anistemi","5806 Waterlevel Hwy","37323",35.134314,-84.767303
"37324","Decherd","TN","Hammers Fitness","2124 Decherd Blvd","37324",35.21009895225782,-86.09436550966869
"37324","Decherd","TN","Nissan Training Center","2175 Old Alto Hwy","37324",35.223521699840596,-86.06533887401699
"37330","Estill Springs","TN","Tullahoma Wrestling Gym","301 W Decherd St","37388",35.35628128051758,-86.20941162109375
"37330","Estill Springs","TN","Harvey's Gym","441 W Lincoln St","37388",35.357853536503214,-86.21557666137647
"37334","Fayetteville","TN","Dalton's Fitness","1336 Huntsville Hwy","37334",35.13090133666992,-86.56452941894531
"37334","Fayetteville","TN","Fayetteville Fitness 24/7","1556 Huntsville Hwy.","37334",35.13843393623471,-86.5661489996685
"37340","Guild","TN","Main St. Fitness","Main St.","37347",35.018491,-85.548997
"37341","Harrison","TN","Grubbs Exercise Area","2727 Thicket Rd","37379",35.24112319946289,-85.09430694580078
"37343","Hixson","TN","The Sports Barn","1790 Hamill Rd","37343",35.12018599379478,-85.24270391492882
"37343","Hixson","TN","Sportsbarn","Hammil Rd","37415",35.14426501440996,-85.28376320400504
"37343","Hixson","TN","Gym","not_available","37415",35.132898688316345,-85.23752331733704
"37343","Hixson","TN","Scenic City Bootcamp & Transformation Center","5230 Highway 153 Ste 130","37343",35.126199220662386,-85.23872853801142
"37343","Hixson","TN","Gold's Gym","5510 Highway 153","37343",35.1434835,-85.2476257
"37343","Hixson","TN","Complete Training","6208 Hixson Pike #5","37343",35.15169904153294,-85.2005652431872
"37343","Hixson","TN","integrity elite all stars","4809 Hixson Pike","not_available",35.12603419550818,-85.24792156854271
"37343","Hixson","TN","Fightsport Fitness","not_available","37343",35.13782819733369,-85.24361980847382
"37343","Hixson","TN","Scenic City Bootcamp","Adams road","37343",35.13101656770521,-85.23197616691603
"37343","Hixson","TN","Snap Fitness","8530 Hixson Pike Ste 114","37343",35.199196,-85.158775
"37343","Hixson","TN","Workout Anytime Hixson","5922 Hixson Pike","37343",35.14873666637005,-85.20718325186799
"37343","Hixson","TN","JIGY Monica's Zumba Fitness Studio","739 Ashland Ter","37415",35.116438546706945,-85.27488708948444
"37343","Hixson","TN","The Reserve at Lakeshore","5840 Lake Resort Ter","37415",35.110799602212765,-85.21251940922397
"37343","Hixson","TN","McCarty Manor Gym","heritage Ridge","37343",35.14647478230514,-85.2058455838316
"37343","Hixson","TN","Workout Anytime","248 Northgate Mall","37415",35.1324079660226,-85.2380915629154
"37343","Hixson","TN","MXG Power House","4513 Galaxy","38116",35.10896172,-85.27159129
"37343","Hixson","TN","JAB Kickboxing","5450 TN-153","37343",35.140487,-85.247194
"37347","Jasper","TN","Whootwill As Wendy Says","not_available","37347",35.0478203036436,-85.6213157327127
"37347","Jasper","TN","Anytime Fitness","4210 Main St","37347",35.073388,-85.629176
"37352","Lynchburg","TN","Jack Daniels Gym","Craig St, Lynchburg, Moore County, TN 37352","37352",35.26528778015513,-86.38668615100143
"37354","Madisonville","TN","Inspired fitness","not_available","37354",35.52057897201491,-84.36102087199042
"37354","Madisonville","TN","Sweetwater Fitness","not_available","37874",35.60053554300202,-84.46196350225424
"37354","Madisonville","TN","Anytime Fitness","4445 Highway 411","37354",35.51866149902344,-84.35685729980469
"37354","Madisonville","TN","JTEKT Gym","Excellence Way b","37885",35.60088515281677,-84.25481021404266
"37355","Manchester","TN","Workout Anytime","2161 Hillsboro Blvd, Ste 4B1","37355",35.461583,-86.059094
"37355","Manchester","TN","AEDC Fitness Center","Wattendorf Memorial Hwy","37355",35.368719737120806,-86.04097234388449
"37355","Manchester","TN","Delta Rehab","Interstate Drive","37355",35.500179837616756,-86.04769993078618
"37355","Manchester","TN","FBC Gymnasium","not_available","37355",35.47229687634184,-86.07787396077501
"37355","Manchester","TN","Pathway Gynastics","2378 New Tullahoma Hwy","37355",35.44488625,-86.09877163333333
"37355","Manchester","TN","Manchester Rec Complex","557 N Woodland St","37355",35.4876512910523,-86.08919993421335
"37355","Manchester","TN","Snap Fitness","1250 Hillsboro Blvd","37355",35.47133137110432,-86.07636082406397
"37363","Ooltewah","TN","1-on-1 Personal Training","not_available","37421",35.014915,-85.162859
"37363","Ooltewah","TN","Snap Fitness","1667 Ooltewah Ringgold Rd #123","37363",34.9980354309082,-85.09664916992188
"37363","Ooltewah","TN","Workout Anytime","9408 Apison Pike, Ste 174","37363",35.059632680255994,-85.06956338882445
"37363","Ooltewah","TN","Holiday Inn Express Gym","not_available","37363",35.086777,-85.063232
"37363","Ooltewah","TN","Weight Room","6123 Mountain View Rd","37363",35.09402240043314,-85.06329183091636
"37363","Ooltewah","TN","D1 Sports Training & Therapy","7430 Commons Blvd","37421",35.034882,-85.1485036
"37363","Ooltewah","TN","The gym @ Standifer Place","3400 Jenkins Rd","37421",35.05091094970703,-85.12592315673828
"37363","Ooltewah","TN","CrossFit Mayday","8142 E Brainerd Rd","37421",35.00315988947116,-85.14853142701075
"37363","Ooltewah","TN","CYCLEBAR","2372 Lifestyle Way Ste 162","37421",35.04325753868989,-85.15060539259031
"37363","Ooltewah","TN","Crossfit Ooltewah","6115 Mountain View Rd","37363",35.091407775878906,-85.06214141845703
"37363","Ooltewah","TN","Fit U","7540 E Brainerd Rd Ste 113","37421",35.012760162353516,-85.16063690185547
"37363","Ooltewah","TN","Pure Barre East Brainerd","1414 Jenkins Rd Ste 122","37421",35.00866643489393,-85.15203353124184
"37363","Ooltewah","TN","Fitness Center","Volkswagen Group of America","not_available",35.07811286148703,-85.13257289451265
"37367","Pikeville","TN","Higher Power Gym","3270 Main St","37367",35.607686,-85.188385
"37379","Soddy Daisy","TN","Soddy Daisy Wrestling Gym","10848 Dayton Pike","37379",35.27208709716797,-85.16647338867188
"37402","Chattanooga","TN","The Sports Barn","301 Market St","37402",35.053376700976536,-85.31020788815178
"37402","Chattanooga","TN","Gym - Chattanooga Downtown Marriott","2 Carter Plz","37402",35.04375076293945,-85.31249237060547
"37402","Chattanooga","TN","YMCA","301 W 6th St","37402",35.05016320676204,-85.3134132757632
"37402","Chattanooga","TN","GetBUILT CrossFit","203 E Main St","37408",35.03788039814889,-85.31094198228931
"37402","Chattanooga","TN","Sheraton Fitness","not_available","37402",35.04616602352531,-85.31152902970229
"37402","Chattanooga","TN","Cameron Hill Fitness Center","1 Cameron Circle","not_available",35.05170919882861,-85.31729155129754
"37402","Chattanooga","TN","Lookout Fitness","1802 Washington St","37408",35.031436920166016,-85.30357360839844
"37402","Chattanooga","TN","TFP Fitness Center","not_available","37403",35.0428779039103,-85.30528824896862
"37402","Chattanooga","TN","The Russian Palace","2 Market St","37402",35.0562858581543,-85.3094711303711
"37402","Chattanooga","TN","Barre One","308 Broad St","37402",35.053415,-85.310135
"37402","Chattanooga","TN","Westin Workout","Pine st","37402",35.046956,-85.313023
"37402","Chattanooga","TN","Stat Fitness","1604 Carter St","37402",35.03866236590797,-85.31511867069602
"37402","Chattanooga","TN","Gold's Gym","210 W. 4th St.","37402",35.0520663,-85.3129223
"37403","Chattanooga","TN","The Well","not_available","37404",35.044326185165964,-85.27749904930545
"37403","Chattanooga","TN","Back Better","1000 E 3rd St Ste 200","37403",35.0472526550293,-85.29051208496094
"37404","Chattanooga","TN","Circuit Training/Cardio","not_available","37412",35.01385210565883,-85.2584748715684
"37404","Chattanooga","TN","Andrea's Basement Workout Facility","not_available","37370",35.0161529584941,-85.25310749666828
"37404","Chattanooga","TN","Basement Gym","not_available","37411",35.0201569839177,-85.25917228855143
"37405","Chattanooga","TN","Orangetheory Fitness","300 Cherokee Blvd","37405",35.063769,-85.312085
"37405","Chattanooga","TN","Workout Anytime","25 Cherokee Blvd, Ste A","37405",35.06354163999036,-85.31015070794716
"37405","Chattanooga","TN","Gym","not_available","37419",35.02775565805215,-85.34811615780805
"37405","Chattanooga","TN","Fitness Center","CityGreen Way","37405",35.08144243378883,-85.32087115237792
"37405","Chattanooga","TN","Pure Barre North Shore","214 Manufacturers Road","37405",35.062374250252965,-85.3129185141035
"37405","Chattanooga","TN","Crossfit Brigade","626 Cherokee Blvd","37405",35.069459954386694,-85.31828612688383
"37405","Chattanooga","TN","Neighborhood Barre","1222 Tremont St Ste 102102","37405",35.06924272423804,-85.28967322112362
"37405","Chattanooga","TN","Hayden Place Gym","not_available","37405",35.082682,-85.326603
"37406","Chattanooga","TN","Urban Rocks Gym","1007 Appling Street","37406",35.072347338336584,-85.265421732691
"37406","Chattanooga","TN","Eastdale Recreation Center","1314 Moss St","37411",35.045677,-85.24149588
"37406","Chattanooga","TN","Workout Anytime Clinton","337 North Blvd Ste 50","28328",35.089285672287716,-85.21726102351539
"37406","Chattanooga","TN","East tech co. Gazebo","Amnicola highway","37406",35.07266845,-85.2702248
"37406","Chattanooga","TN","CPD GYM","3410 Amnicola Hwy","37406",35.08171844482422,-85.26329803466797
"37409","Chattanooga","TN","Lookout Valley Baptist Gym","23 Lilac Ave","37419",35.020643,-85.372853
"37411","Chattanooga","TN","Brainerd Crossroads (BX)","4011 Austin St","37411",35.011895730144,-85.24196972005095
"37411","Chattanooga","TN","EPOC Fitness","5744 Brainerd Rd","37411",35.01157,-85.211462
"37411","Chattanooga","TN","Bodyline Studio","5944 Shallowford Rd","37421",35.05440546454132,-85.19516514279736
"37411","Chattanooga","TN","YMCA","5600 Brainerd Rd #A24","37411",35.00651301027883,-85.21350818101195
"37412","Chattanooga","TN","power pit barbell club","6743 Ringgold Rd","37412",34.9888916015625,-85.1922378540039
"37416","Chattanooga","TN","RAH","not_available","37416",35.0701635,-85.1913921
"37421","Chattanooga","TN","Gold's Gym","6933 Lee Hwy.","37421",35.0440725,-85.166364
"37421","Chattanooga","TN","Sports Barn","6148 Lee Hwy","37421",35.02812345499722,-85.1884481970443
"37421","Chattanooga","TN","Full Steam CrossFit","6211 Lee Hwy Ste. 235","37421",35.033018464970844,-85.18504858016968
"37421","Chattanooga","TN","GX Room","6933 Lee Hyw","37421",35.04419708251953,-85.16608428955078
"37601","Johnson City","TN","Fudge Fitness","3009 Industrial Dr, Johnson City, TN 37604","37604",36.31304931640625,-82.40579223632812
"37601","Johnson City","TN","The colosseum","not_available","37604",36.34059916282411,-82.37392842362017
"37601","Johnson City","TN","Tri-Cities Lifestyles Center","316 Marketplace Dr","37604",36.3398961,-82.4070279
"37601","Johnson City","TN","Energy Fitness","212 E Main St, Johnson City, TN 37604","37604",36.31646728515625,-82.35184478759766
"37601","Johnson City","TN","Private Professional Strenght Clinic","102 Commerce St","37604",36.3160745974618,-82.35430925792946
"37601","Johnson City","TN","Peak Fitness","103 Lp Auer Rd","37604",36.30474853515625,-82.39379119873047
"37601","Johnson City","TN","The Wellness Center","200 Med Tech Pkwy","37604",36.338308883788514,-82.40483821738319
"37601","Johnson City","TN","The BullPit Fitness Center","3008 Bristol Hwy","37601",36.36161020971185,-82.38260753834847
"37601","Johnson City","TN","Gilliam Wellness Center","not_available","37682",36.29872215348782,-82.29230640465647
"37601","Johnson City","TN","iTrane","not_available","37601",36.3075065612793,-82.33293914794922
"37601","Johnson City","TN","Elizabethton Fitness Center","1421 W G St","37643",36.340882,-82.247686
"37601","Johnson City","TN","Franklin Health & Fitness Center","Franklin Club Dr","37643",36.346985393759965,-82.25118653607247
"37601","Johnson City","TN","University Edge Gym","918 W Watauga Ave","37604",36.3110237121582,-82.3614501953125
"37601","Johnson City","TN","Franklin Health and Fitness","1509 W Elk Ave","37643",36.34395217895508,-82.2501449584961
"37601","Johnson City","TN","Burn Boot Camp","1805 N Roan St","37601",36.33439,-82.3744
"37604","Johnson City","TN","P90x Time","Buccaneer Ridge Dr","37604",36.29906575,-82.35908721666667
"37615","Johnson City","TN","Cor24 Community Fitness","5034 Bobby Hicks Hwy","37615",36.409465999999995,-82.472863
"37615","Johnson City","TN","Anytime Fitness","5583 Bobby Hicks Rd Ste 105","37615",36.42367,-82.46352
"37615","Johnson City","TN","Cor24","not_available","37615",36.40988652319037,-82.47327405948913
"37615","Johnson City","TN","Snap Fitness","4307 N Roan St","37615",36.3783564319975,-82.40880256259874
"37615","Johnson City","TN","All Points Personal Training","210 Suncrest St","37615",36.409229549940605,-82.47565269470213
"37616","Afton","TN","School of Morton","2085 Chuckey Hwy","37641",36.21599197387695,-82.68807220458984
"37616","Afton","TN","Greene County YMCA","404 Y St","37745",36.16313529210846,-82.81599851492587
"37616","Afton","TN","Home Gym","not_available","37745",36.193679,-82.794585
"37617","Blountville","TN","Tennessee Team Fitness","not_available","37664",36.548214,-82.45351
"37617","Blountville","TN","Lilly's Fitness","5400 Fort Henry Dr #3","37663",36.45599365234375,-82.4690170288086
"37617","Blountville","TN","Exalt Gym","103 Highway 19 E","37618",36.45724105834961,-82.28418731689453
"37618","Bluff City","TN","BMS Weight Room","Speedway Blvd","37620",36.51619667056452,-82.26005882624679
"37620","Bristol","TN","Appalachain Rehabilitation And Sports Medicine","105 Meadow View Rd Ste 105","37620",36.58626797244242,-82.23095988834213
"37620","Bristol","TN","Iron Mayhem Strength & Conditioning","2131 Volunteer Pkwy Ste J","37620",36.542423248291016,-82.23237609863281
"37620","Bristol","TN","Anna's Fitness Studio","1659 Pineview Dr","24201",36.608255,-82.206053
"37620","Bristol","TN","Bristol YMCA","400 Martin Luther King Jr Blvd","37620",36.589888573054694,-82.1828281778978
"37620","Bristol","TN","King College Weightroom","1350 King College Rd","37620",36.586769104003906,-82.15922546386719
"37620","Bristol","TN","Bristol YWCA","106 East State St","37620",36.5942268371582,-82.17791748046875
"37620","Bristol","TN","Curves","1116 Volunteer Pkwy","37620",36.57209547849566,-82.19446617649483
"37620","Bristol","TN","Webbthinker's Cycling Studio","not_available","37620",36.585391,-82.127823
"37620","Bristol","TN","Lifestyle Fitness (Bristol Location)","6045 Old Jonesboro Rd","37620",36.5869952,-82.1184215
"37620","Bristol","TN","rwebb3's P90X Gym","204 Gaffney Rd","37620",36.58538818359375,-82.12773895263672
"37640","Butler","TN","Buckeye Recreation Center","206 Grassy Gap Creek Rd","28604",36.22033433061405,-81.90498292375119
"37642","Church Hill","TN","Gold Star Fitness","4214 W Stone Dr","37660",36.55393530586098,-82.61915448685622
"37642","Church Hill","TN","The Tone Zone","122 West Main Street, Suite D","37645",36.545001,-82.65625
"37642","Church Hill","TN","Lifestyle Fitness (Kingsport Location At Ridgefields)","2320 Pendragon Rd","37660",36.5493625,-82.6057735
"37643","Elizabethton","TN","Elizabethton Boys and Girls Club","not_available","37643",36.346329,-82.242683
"37643","Elizabethton","TN","Workout Anytime","619 W Elk Ave","37643",36.351615,-82.23663
"37643","Elizabethton","TN","Anytime Fitness","768 W Elk Ave Suite 8","37643",36.34837,-82.23814
"37650","Erwin","TN","Unicoi County Family YMCA","not_available","37650",36.1399863410168,-82.41188903321152
"37659","Jonesborough","TN","Snap Fitness - Jonesborough","413 Boones Creek Rd, Jonesborough, TN 37659","37659",36.300245000000004,-82.46934
"37660","Kingsport","TN","Planet Fitness","108 Jack White Dr","37664",36.545361,-82.520699
"37660","Kingsport","TN","B147 Fitness Center","Riverside Dr","37664",36.51764594490236,-82.54043621867858
"37660","Kingsport","TN","Anytime Fitness","1664 E Stone Dr","37660",36.54838514493331,-82.51638825263252
"37660","Kingsport","TN","C&K Gym","2821 Long Hollow Rd","37660",36.494319915771484,-82.59010314941406
"37660","Kingsport","TN","Gym","not_available","37663",36.46887492111261,-82.48467552713949
"37660","Kingsport","TN","Lifestyle Fitness (Kingsport Location At Ridgefields)","1944 Brookside Dr","37660",36.550174713134766,-82.51766967773438
"37660","Kingsport","TN","Xcellerated Fitness","214 Broad St","37660",36.54697,-82.560769
"37660","Kingsport","TN","The Sweat Shop","not_available","37660",36.55151992015883,-82.5961416957941
"37660","Kingsport","TN","Foundation Academy: Strength and Conditioning","5644 Fort Henry Dr","37663",36.44970010000001,-82.4637051
"37660","Kingsport","TN","Curves","Ft henry drive","not_available",36.483283,-82.4984
"37660","Kingsport","TN","Hampton Inn Fitness Center","2000 Enterprise Pl","37660",36.50252914428711,-82.56013488769531
"37660","Kingsport","TN","162 Fitness Center Eastman","Eastman","37664",36.51839244946013,-82.53746694827764
"37660","Kingsport","TN","Snap Fitness","2626 E Stone Dr Ste 20","37660",36.5524787902832,-82.4928970336914
"37663","Kingsport","TN","Lifestyle Fitness (Colonial Heights Location 24 Hour Gym Access)","4844 Fort Henry Dr","37663",36.46902,-82.48478
"37683","Mountain City","TN","JCHS Fieldhouse","not_available","37683",36.415466947081114,-81.83585495238074
"37683","Mountain City","TN","mountain fitness","Cold springs Road","37683",36.4905303660636,-81.81135832369743
"37701","Alcoa","TN","Blount Memorial Wellness Center At Springbrook","not_available","37701",35.78350964730221,-83.99012520732562
"37701","Alcoa","TN","Springbrook Gym","Dalton St","37701",35.798507606890404,-83.97858834461637
"37701","Alcoa","TN","Home Gym","862 Holloway St","37701",35.7901725769043,-84.00931549072266
"37716","Clinton","TN","Workout Anytime","1135 Oak Ridge Tpke","37830",36.018326508670725,-84.24835113904794
"37716","Clinton","TN","Workout Anytime","3547 W Emory Rd","37849",36.02110819078094,-84.0517508983612
"37716","Clinton","TN","Gold's Gym","302 South Illinois Ave.","37830",36.005394,-84.256727
"37716","Clinton","TN","St Mary's School Gym","not_available","37830",36.01717199533934,-84.25121313803666
"37716","Clinton","TN","Curves","7614-7624 Tennessee 9","37849",36.020522117614746,-84.05593514442444
"37716","Clinton","TN","Planet Fitness","360 South Illinois Avenue","37830",36.0044744,-84.2543841
"37716","Clinton","TN","Southern Fitness","170 Frank L Diggs Dr","37716",36.157083,-84.086061
"37716","Clinton","TN","National Fitness Center","750 Briarcliff Ave","37830",36.0252483630243,-84.23108602124972
"37716","Clinton","TN","Quality Inn Fitness Center-Oak Ridge","216 S Rutgers Ave","37830",36.01519775390625,-84.24986267089844
"37716","Clinton","TN","powell therapy center","not_available","37849",36.02121237541622,-84.0513424791561
"37716","Clinton","TN","Anytime Fitness","1115 N Charles G Seivers Blvd","37716",36.11761474609375,-84.11622619628906
"37723","Crab Orchard","TN","Wellness Gym Of Fairfield Glades","Stonehenge","38571",36.011457097791514,-84.88627102358726
"37725","Dandridge","TN","Curves of Dandridge","109 W Highway 25 70","37725",36.016746520996094,-83.42506408691406
"37737","Friendsville","TN","Olympia","398 Olympia Dr","37804",35.759749507529854,-84.04313462634632
"37737","Friendsville","TN","Gym @ The Reserve","not_available","37801",35.728742,-84.028133
"37738","Gatlinburg","TN","321 Fit Club","951 E Parkway","37738",35.7250398,-83.4921717
"37738","Gatlinburg","TN","Park Vista Gym","not_available","37738",35.70382295936892,-83.51461332223684
"37743","Greeneville","TN","Fit Club","not_available","37743",36.164907,-82.85505400000001
"37743","Greeneville","TN","Carozza Fitness OMT","2001 West Main Street. Suite 12","not_available",36.14094924926758,-82.8681869506836
"37748","Harriman","TN","Wellness Center","not_available","37763",35.90610124420263,-84.41617146422226
"37748","Harriman","TN","Anytime Fitness","1225 S. Roane St.","37748",35.9161,-84.57493
"37748","Harriman","TN","Jacq's Personal Gym","234 Orchard Valley Dr","37748",35.97092819213867,-84.42086029052734
"37748","Harriman","TN","10-33 Fitness","801 Clinton St","37748",35.936614,-84.545281
"37748","Harriman","TN","Curves Of Harriman","not_available","37748",35.917621,-84.570107
"37754","Heiskell","TN","Tennova Health & Fitness Center","7540 Dannaher Dr","37849",36.05292021093728,-83.9955079620123
"37754","Heiskell","TN","Run TIme","not_available","37918",36.06280123745734,-83.95587519298401
"37760","Jefferson City","TN","CrossFit for the Masses","125 East Broadway Boulevard","37760",36.115274160690916,-83.49081516265869
"37760","Jefferson City","TN","Fuzion Studio of the Arts","280 W Old Andrew Johnson Hwy","37760",36.12038040161133,-83.50404357910156
"37760","Jefferson City","TN","Curves Of Jefferson City","205 E Broadway Blvd","37760",36.116256,-83.487077
"37764","Kodak","TN","Golds Gym II","not_available","37764",35.999349,-83.621103
"37771","Lenoir City","TN","Gold's Gym","785 Highway 321","37771",35.8156447,-84.2627558
"37771","Lenoir City","TN","Avalon Health & Fitness","not_available","37772",35.858562014978034,-84.2498140506857
"37771","Lenoir City","TN","Zumba","101-199 W 1st Ave","37771",35.794765575642934,-84.26572158644629
"37771","Lenoir City","TN","Lenoir City Fitness","290 Leeper Pkwy","37772",35.802923,-84.252617
"37772","Lenoir City","TN","Morris Marathon Training Gym","not_available","37922",35.83512786612635,-84.17411156536258
"37772","Lenoir City","TN","Anytime Fitness","12572 Kingston Pike","37934",35.86644,-84.20138
"37774","Loudon","TN","Anytime Fitness","1987 Highway 72","37774",35.667201616417096,-84.4405152747707
"37777","Louisville","TN","Heritage Lake Gym","Lakeland View Way","37922",35.873356947118275,-84.09642073176127
"37777","Louisville","TN","K2 Volleyball Club","not_available","37777",35.82431709391696,-84.01895925057634
"37777","Louisville","TN","Fitness Together - Northshore","9430 S Northshore Dr","37922",35.862054701855996,-84.0660073466222
"37777","Louisville","TN","Neighborhood Barre","2099 Thunderhead Rd Ste 102","37922",35.85709,-84.07947
"37777","Louisville","TN","F45 Training West Knoxville","9409 S Northshore Dr","37922",35.864097595214844,-84.06415557861328
"37801","Maryville","TN","Workout Anytime","141 Foothills Mall Dr","37801",35.7462795850557,-83.99663070546197
"37801","Maryville","TN","Ladies Total Fitness","104 Foothills Mall","37801",35.74811935424805,-83.99777221679688
"37801","Maryville","TN","Erics Gym","1514 Woodbury Ct","37803",35.730038,-83.977361
"37801","Maryville","TN","National Fitness Center","1644 W Broadway Ave","37801",35.73672738663699,-83.99007403755063
"37801","Maryville","TN","Planet Fitness","541 N Foothills Plaza Rd","37801",35.740451,-83.992102
"37801","Maryville","TN","Crossfit Pistol Creek","208 College Street","37804",35.75595693572621,-83.99486628535432
"37803","Maryville","TN","The Trickle","not_available","37803",35.722463,-83.943243
"37804","Maryville","TN","The Gym","not_available","37853",35.82604749494473,-83.87119625793751
"37813","Morristown","TN","Avalon Athletic Club","4445 E Morris Blvd","37813",36.23592679,-83.23698382
"37813","Morristown","TN","Planet Fitness","2550 E Morris Blvd","37813",36.22043568496996,-83.25812779958346
"37813","Morristown","TN","Workout Anytime","2340 Sandstone Dr","37814",36.208364,-83.32491999999999
"37813","Morristown","TN","423 Strength And Conditioning","not_available","37813",36.20305,-83.31321
"37813","Morristown","TN","DUI Programs of East Tennessee","100 W 1st North St","37814",36.2147102355957,-83.29361724853516
"37813","Morristown","TN","National Fitness Center","1950 W Andrew Johnson Hwy","37814",36.20764509903439,-83.31836059983728
"37813","Morristown","TN","5 Rivers CrossFit","2813","37814",36.2000057747768,-83.33325147408381
"37821","Newport","TN","The Bosses Gym","not_available","37821",35.962659,-83.217208
"37821","Newport","TN","Premier Therapy","413 W Broadway","37821",35.968651,-83.204219
"37821","Newport","TN","Jack's Family Fitness Center","1034 W Highway 25 70","37821",35.97286793007684,-83.24143761383421
"37825","New Tazewell","TN","In Shape Fitness and Tanning","1442 N Broad St","37879",36.44865619999999,-83.57587369999999
"37830","Oak Ridge","TN","Siler Gymnasium","not_available","37932",35.915358,-84.158293
"37830","Oak Ridge","TN","Planet Fitness","11433 Kingston Pike","37934",35.88232,-84.163044
"37830","Oak Ridge","TN","The Gym","2100 Grinnell Cir","37932",35.94132276269497,-84.16257896148147
"37830","Oak Ridge","TN","Orangetheory Fitness","11674 Parkside Dr","37934",35.893156498112965,-84.17069416312407
"37830","Oak Ridge","TN","Pure Barre","105 S Campbell Station Rd","37934",35.8804931640625,-84.16046142578125
"37830","Oak Ridge","TN","Fitness Together - Hardin Valley","10752 Hardin Valley Rd","37932",35.94511032104492,-84.1609878540039
"37830","Oak Ridge","TN","Exclusive Fitness","Northshore Drive","not_available",35.912305166500786,-84.23481809134786
"37830","Oak Ridge","TN","Burn Boot Camp","11560 Kingston Pike","37934",35.87683868408203,-84.16677856445312
"37830","Oak Ridge","TN","Comfort Suites Gym","811 N Campbell Station Rd","37932",35.90068817138672,-84.17525482177734
"37830","Oak Ridge","TN","Fitness Together","11521 Kingston Pike","37934",35.8816072,-84.1640848
"37830","Oak Ridge","TN","ORNL Fitness Center","1 Bethel Valley Rd","37830",35.983028411865234,-84.22357940673828
"37830","Oak Ridge","TN","Koko FitClub- Farragut","53 Brooklawn St","37934",35.8822204,-84.1571757
"37830","Oak Ridge","TN","Marino Therapy Center","11426 Kingston Pike","37934",35.87712860107422,-84.1613998413086
"37830","Oak Ridge","TN","Anytime Fitness","10926 Spring Bluff Way","37932",35.94234,-84.16514
"37849","Powell","TN","Legacy Pointe Gym","2901 Legacy Pointe Way","37921",35.99766540527344,-84.0213623046875
"37849","Powell","TN","Court South","5621 Merchants Center Blvd","37912",36.010722854698415,-83.9765731854555
"37849","Powell","TN","Eppolito Boxing","4703 Central Avenue Pike","37912",36.00764465332031,-83.96632385253906
"37849","Powell","TN","Steeplechase Fitness Room","not_available","37912",36.01907350788752,-83.98029342719268
"37849","Powell","TN","TKO Mixed Martial Arts","1900 W.Emory Rd","37849",36.03079492559376,-84.02812127976227
"37849","Powell","TN","P&J Gym","6621 Wilbanks Rd","37912",36.02050018310547,-83.99543762207031
"37854","Rockwood","TN","curves of harriman","not_available","37854",35.87525177001953,-84.65638732910156
"37857","Rogersville","TN","Pro Strength & Speed","4238 Highway 66 S","37857",36.3965875434246,-83.01587104797363
"37857","Rogersville","TN","Lifestyle Fitness (Rogersville Location 24 Hour Gym Access)","136 James Richardson Ln","37857",36.418156,-82.998276
"37857","Rogersville","TN","Power Tumbling","not_available","37873",36.47037854550422,-82.85428414622868
"37857","Rogersville","TN","ProStrength & Speed","530 W Main St","37857",36.40372848510742,-83.0120849609375
"37857","Rogersville","TN","Surgoinsville Fitness Center","1724 Main St Ste B","37873",36.47004318237305,-82.85176849365234
"37861","Rutledge","TN","Rutledge Fitness Center","8730 Rutledge Pike, Rutledge, TN 37861","37861",36.28792190551758,-83.4968032836914
"37861","Rutledge","TN","Personal Fitness","not_available","37861",36.248087,-83.538555
"37862","Sevierville","TN","Sevier County Wellness Center","not_available","37862",35.84840644725792,-83.53570357491256
"37862","Sevierville","TN","National Fitness Center","950 Dolly Parton Pkwy","37862",35.864763271738866,-83.54259853951096
"37862","Sevierville","TN","Body Over Mind","905 Dolly Parton Pkwy","37862",35.863807265813485,-83.54596959281123
"37862","Sevierville","TN","Holly Health Club At The Inn At Chrustmas Place","not_available","37863",35.809966,-83.576936
"37862","Sevierville","TN","Workout Anytime","242 Collier Dr","37862",35.83648082732198,-83.56258447512465
"37862","Sevierville","TN","Pigeon Forge High School Gym",".","37863",35.818272115245556,-83.58360929798418
"37862","Sevierville","TN","Fit Club","400 Park Rd","37862",35.86382293701172,-83.5633773803711
"37862","Sevierville","TN","3D Studio of Dance & Fitness","945 Dolly Parton Pkwy","37862",35.863509,-83.542774
"37862","Sevierville","TN","Leconte Wellness Center","170 Community Center Dr","37863",35.806197,-83.582531
"37862","Sevierville","TN","Sevierville Community Center","200 Gary Wade Blvd","37862",35.86552289981365,-83.5573538341917
"37862","Sevierville","TN","Varney's Gym","not_available","37876",35.867986103603684,-83.48969768463213
"37865","Seymour","TN","Workout Anytime Seymour","104 Simmons Rd","37865",35.87452716054643,-83.76392426376464
"37865","Seymour","TN","Clubfit 101 Gym & Tanning Salon","126 W Macon Ln","37865",35.87868,-83.77744
"37865","Seymour","TN","EAC Gym","not_available","37920",35.93778991699219,-83.749755859375
"37865","Seymour","TN","Smoky Crossing Townhomes Gym","not_available","37865",35.863757032453265,-83.74965619166674
"37865","Seymour","TN","Club Fit 101","311 Blue Peacock Way","37865",35.869039,-83.749139
"37865","Seymour","TN","Snap Fitness","7343 Chapman Hwy","37920",35.9079060951375,-83.84698300124273
"37876","Sevierville","TN","Anytime Fitness","1989","37876",35.923764,-83.580494
"37878","Tallassee","TN","Laurel Valley Fitness Center","not_available","37882",35.66867749452899,-83.81037842017862
"37902","Knoxville","TN","Lindsay Young Downtown YMCA","605 W Clinch Ave","37902",35.96313110268348,-83.92072678917249
"37902","Knoxville","TN","crown plaza gym","not_available","37921",35.97164547974701,-83.92765155892198
"37902","Knoxville","TN","The Common Gym","not_available","37916",35.962754550828826,-83.9271447689127
"37902","Knoxville","TN","Hilton Fitness Center by PrecorUSA","not_available","37902",35.962425,-83.919947
"37902","Knoxville","TN","Workout Room","Kingston Pointe Apt","not_available",35.96050762,-83.91960842
"37902","Knoxville","TN","Old City Athletic Club","124 W Jackson Ave","37902",35.969808,-83.919104
"37902","Knoxville","TN","Y.W.C.A.","420 W Clinch Ave","37902",35.96348435827352,-83.91974319839014
"37909","Knoxville","TN","YogaSix","224 Brookview Centre Way Ste 200","37919",35.935621,-84.003519
"37909","Knoxville","TN","Crossfit Ktown","3218 Morris Ave Ste C","37909",35.96014238116184,-83.96327146258749
"37909","Knoxville","TN","Windover Gym","301 Cheshire Dr","37919",35.92804430117711,-84.02877363605225
"37909","Knoxville","TN","Jazzercise With Kim","nubbins ridge","37919",35.927694,-84.041343
"37909","Knoxville","TN","The Guild Private Fitness Venue","146 N. Forest Park Blvd","37919",35.94216211541556,-83.98209707198596
"37909","Knoxville","TN","CrossFit Ktown","4432-A Middlebrook Pike","37921",35.941764157443785,-84.04219685141607
"37909","Knoxville","TN","Fitness Together - Bearden","6513 Kingston Pike","37919",35.93255076241579,-84.01139781324859
"37909","Knoxville","TN","Orangetheory Fitness","122 N Forest Park Blvd","37919",35.94219207763672,-83.9815902709961
"37909","Knoxville","TN","Performance Training Inc","not_available","37919",35.93278,-84.01589
"37909","Knoxville","TN","NEIGHBORHOOD barre Bearden","4445 Kingston Pike","37919",35.94132326188101,-83.97809629884603
"37909","Knoxville","TN","Select Fitness","3325 Sutherland Ave","37919",35.9499439,-83.97377829999999
"37909","Knoxville","TN","Sterchi Lofts Fitness Room","116 s gay sy","not_available",35.95899224281311,-83.99245262145996
"37909","Knoxville","TN","Koko Fit Club","4614 Kingston Pike","37919",35.940460205078125,-83.98101043701172
"37909","Knoxville","TN","Provision Health & Wellness","1400 Dowell Springs Blvd Ste 100","37909",35.94881634760106,-84.02273661031016
"37909","Knoxville","TN","DanceMoves","6907 Kingston Pike","37919",35.93312072753906,-84.01973724365234
"37909","Knoxville","TN","The Little Gym of Knoxville","7240 Kingston Pike","37919",35.929586082710166,-84.03069478837116
"37909","Knoxville","TN","Gym at Willows","7110 Weasly road","37909",35.93245,-84.02871
"37909","Knoxville","TN","CYCLEBAR","5444 Homberg Dr","37919",35.93528673426908,-83.99242714047426
"37909","Knoxville","TN","HealthFirst Fitness","5213 Homberg Dr","37919",35.93675773788071,-83.98933333322928
"37909","Knoxville","TN","Pure Barre","133 S Forest Park Blvd","37919",35.94041989740257,-83.98217075630521
"37909","Knoxville","TN","Pilot Flying J Corporate Office Gym","6005 Lonas Dr","37909",35.944396000000005,-84.00778100000001
"37909","Knoxville","TN","Dietary Rehab","6216 Highland Place Way Ste 201","37919",35.9337272644043,-84.00534057617188
"37909","Knoxville","TN","Fitness Focus","1111 N Northshore Dr","37919",35.93618029,-84.00358947
"37912","Knoxville","TN","go heavy or go home","5720 Western Ave, Knoxville, TN 37921","37921",35.979278564453125,-84.01571655273438
"37914","Knoxville","TN","E. Conley Akin Gym","2725 Island Home Blvd, Knoxville, TN 37920","37920",35.958457946777344,-83.87644958496094
"37914","Knoxville","TN","The Place","Mcdonald rd","37914",35.97379531,-83.86477824
"37914","Knoxville","TN","Tha Place","4407mcdonald rd","37914",35.976183,-83.886704
"37915","Knoxville","TN","YMCA","616 Jessamine St","37917",35.979055003454306,-83.91234602803004
"37916","Knoxville","TN","Student Aquatic Center","2106 Andy Holt Ave","37916",35.94978683038172,-83.93506211162509
"37916","Knoxville","TN","MacGym","1507 Highland Ave","37916",35.961544,-83.930805
"37916","Knoxville","TN","The Tower on Morgan Hill Gym Complex","2521 Kingston Pike","37919",35.95283889770508,-83.94441223144531
"37917","Knoxville","TN","Pole LaRotic Fitness","2630 N Broadway St","37917",35.996759999999995,-83.923112
"37917","Knoxville","TN","Frankies Body shop","3541 N Broadway St","37917",36.0051821821403,-83.92693350448923
"37917","Knoxville","TN","Christain Outreach Center","2241 Washington Pike","37917",36.00090789794922,-83.9139633178711
"37917","Knoxville","TN","National Fitness Center","3030 Tazewell Pike","37918",36.02710085269418,-83.92221110382697
"37917","Knoxville","TN","Emerald Youth Foundation","1718 N Central St","37917",35.98618665252747,-83.93451545696342
"37917","Knoxville","TN","Crossfit HTK","2404 Dutch Valley Rd.","37917",36.017208160021674,-83.92776438724705
"37917","Knoxville","TN","Jump Start Health and Fitness","2704 Mineral Springs Ave","37917",36.016065000000005,-83.917998
"37917","Knoxville","TN","EMA Fitness","5014 N Broadway St","37918",36.03061796307451,-83.928494395
"37917","Knoxville","TN","Wii gym","not_available","37917",35.99634552001953,-83.92877197265625
"37918","Knoxville","TN","Legends Gym","3650 holly grove way","37918",36.04415969309457,-83.88363827378697
"37918","Knoxville","TN","North Side YMCA","7609 Maynardville Pike","37938",36.094944340281366,-83.91834109337822
"37918","Knoxville","TN","Fit N Fast","7002 Maynardville Pike","37918",36.07303237915039,-83.927001953125
"37918","Knoxville","TN","Dr. D's House Of Pain","5722 Parasol Ln","37924",36.034021,-83.853425
"37918","Knoxville","TN","Workout Anytime","7320 Norris Fwy","37918",36.082611,-83.928674
"37918","Knoxville","TN","cottages on tazewell","5120 Andover Green Way","37918",36.052426000000004,-83.892217
"37919","Knoxville","TN","Harold's Hard Bodies","430 Montbrook Ln","37919",35.91702770581253,-84.05300089052076
"37919","Knoxville","TN","National Fitness Center","8511 Walbrook Dr","37923",35.926220534253254,-84.06504707972141
"37919","Knoxville","TN","Exclusive Fitness","7575 S Northshore Dr","37919",35.90469564435335,-84.02042780134778
"37919","Knoxville","TN","Deane Hill Recreation Center","7400 Deane Hill Dr","37919",35.91838727746759,-84.0303292182873
"37919","Knoxville","TN","Gold's Gym","8445 Kingston Pike","37919",35.9234869,-84.0623995
"37919","Knoxville","TN","Tiffany Square Fitness Center","8044 Gleason Dr","37919",35.916824,-84.049759
"37920","Knoxville","TN","Planet Fitness","4570 Chapman Hwy","37920",35.93233,-83.901984
"37920","Knoxville","TN","Knoxnews Gym","2332 News Sentinel Dr","37921",35.965572357177734,-83.94922637939453
"37920","Knoxville","TN","The Woodlands Fitness Center","Cherokee Trail","37920",35.93540089685586,-83.92882543392987
"37920","Knoxville","TN","University Heights Gym","1401-1499 Blake Hill Way","37920",35.95400148447108,-83.90036743770474
"37921","Knoxville","TN","Knox Girya","4516 Lynnmont Rd Apt 2C","37921",35.971778869628906,-84.01187133789062
"37922","Knoxville","TN","Fort Sanders Health & Fitness Center","270 Fort Sanders West Blvd","37922",35.899175838703705,-84.11914377415184
"37922","Knoxville","TN","Davis Family YMCA","12133 S Northshore Dr","37922",35.83985379539844,-84.1637838407044
"37922","Knoxville","TN","Reach Functional Fitness","204 Perimeter Park Road","37922",35.90950012207031,-84.11175537109375
"37922","Knoxville","TN","The Little Gym of Farragut","215 Brooklawn St","37934",35.879659211527446,-84.15599727774283
"37922","Knoxville","TN","Gym Bugs","201 Sherway Rd","37922",35.90906082248994,-84.1103256316669
"37922","Knoxville","TN","Jump Jam - Extreme Air Sports","11284 Threadstone Ln","37932",35.91004180908203,-84.15418243408203
"37922","Knoxville","TN","9Round Fitness","139 West End Ave","37934",35.88531581,-84.15548829
"37922","Knoxville","TN","Armor Gym","not_available","37934",35.904233,-84.141116
"37922","Knoxville","TN","Premier Athletics","11250 Gilbert Dr","37932",35.91124317408668,-84.15651015363798
"37922","Knoxville","TN","Next Level Fitness","10255 Union Rd Suite C/D","37922",35.90673580553325,-84.14572676189552
"37923","Knoxville","TN","Petrone Training","not_available","37931",35.966853,-84.119635
"37923","Knoxville","TN","Ridge Gym","Smokey Ridge Way","37931",35.95887808439009,-84.12478758944853
"37923","Knoxville","TN","Unlimited Training","not_available","37923",35.920578,-84.073691
"37923","Knoxville","TN","Holiday Inn Gym (on Cedar Bluff)","304 N Cedar Bluff Rd","37923",35.91972351074219,-84.08952331542969
"37923","Knoxville","TN","P90X Gym","1732 Summer Spring Blvd","37931",35.956734999999995,-84.077238
"37923","Knoxville","TN","PTI","701 Racquet Club Way, Knoxville, TN 37923","37923",35.9320182800293,-84.09049224853516
"37923","Knoxville","TN","Briarcliff Clubhouse","505 Buckeye Dr","37919",35.915079999999996,-84.049033
"37923","Knoxville","TN","Gracie Barra Knoxville","8373 Kingston Pike","37919",35.923718605463236,-84.05800609096003
"37923","Knoxville","TN","Crossfit Knoxville","9355 Kingston Pike","37922",35.91296479786322,-84.09288373282092
"37923","Knoxville","TN","Anytime Fitness","7808 Montvue Center Way","37919",35.925137,-84.042284
"37923","Knoxville","TN","Jewelry Television (JTV)","9600 Parkside Dr","37922",35.912351686259974,-84.10312118433076
"37923","Knoxville","TN","Vital Signs","8919 Linksvue Dr","37922",35.89501190185547,-84.07225036621094
"37923","Knoxville","TN","Sunchase Workout Facility","748-798 N Cedar Bluff Rd","37923",35.9349772,-84.09345728333334
"37931","Knoxville","TN","D1 Knoxville Sports Training & Therapy","10258 Hardin Valley Rd","37932",35.9550344,-84.1416173
"37931","Knoxville","TN","Vital Signs Wellness Center","2531 Willow Point Way","37931",35.95716967641197,-84.13962771832138
"37931","Knoxville","TN","9Round Fitness","10612 Hardin Valley Rd","37932",35.9507634,-84.15360282
"37931","Knoxville","TN","Mason Burks Training","2620 Willow Point Way","37931",35.9598503112793,-84.13783264160156
"37931","Knoxville","TN","Snap Fitness","8651 Middlebrook Pike","37923",35.9445556083794,-84.07182388809969
"37931","Knoxville","TN","The Gym","2500-2520 Tennessee 131","37931",35.96135385108884,-84.12328760509547
"37932","Knoxville","TN","Gold's Gym","10708 Kingston Pike","37934",35.89353357890276,-84.13734823465347
"37932","Knoxville","TN","Elite Fitness Knoxville","11020 Kingston Pike #330","37934",35.888668,-84.14798499999999
"37932","Knoxville","TN","Arsenal Strength","10710 Lexington Dr","37932",35.90879821777344,-84.14352416992188
"37934","Farragut","TN","Fox Den Gym","12284 N Fox Den Dr","37934",35.874292,-84.190539
"37934","Farragut","TN","First Baptist Concord Fitness","11704 Kingston Pike","37934",35.875143,-84.170808
"38002","Arlington","TN","ATC Fitness","6050 Airline Road","38002",35.29156473,-89.67294175
"38002","Arlington","TN","Bartlett Recreation Center","7700 Flaherty Pl","38133",35.25436110336678,-89.80392314911951
"38002","Arlington","TN","ATC Fitness","2991 Canada Road","38002",35.2071129,-89.7336162
"38002","Arlington","TN","LA Fitness","8864 US Highway 64","38002",35.20551160093391,-89.76734311690232
"38002","Arlington","TN","ATC Fitness","6600 Stage Road","38134",35.20708199,-89.84255723
"38002","Arlington","TN","Wolfchase Jazzercise","2965 N Germantown Rd #113","38133",35.206507315358095,-89.79347514220076
"38002","Arlington","TN","Springhill suites Gym","not_available","38133",35.202417,-89.780246
"38002","Arlington","TN","NRC Annex Gym","not_available","38054",35.328407560426214,-89.8730146855789
"38002","Arlington","TN","Snap Fitness","6490 Memphis Arlington Rd","38135",35.22667980413752,-89.84742987953742
"38002","Arlington","TN","Fitness Premier","not_available","38134",35.19830787,-89.840271
"38002","Arlington","TN","Joe Dugger Fitness & Wellness Center","Essex St.","not_available",35.338965465441504,-89.87459993976972
"38002","Arlington","TN","INSANITY GYM","polaris Dr","38053",35.336174,-89.86504
"38002","Arlington","TN","iLoveKickboxing - Bartlett, TN","2965 N Germantown Rd Ste 113-114","38133",35.2068578,-89.7934835
"38002","Arlington","TN","Crossfit Bartlett","5790 Ferguson Rd","38134",35.20156455,-89.869995
"38002","Arlington","TN","N-82 Gym","not_available","38053",35.34221097285009,-89.86934942910442
"38002","Arlington","TN","Orangetheory Fitness","2961 Canada Rd","38002",35.20658126809902,-89.73398306781381
"38002","Arlington","TN","LA Fitness","6050 Stage Rd","38134",35.202805,-89.862532
"38002","Arlington","TN","F45 Training Wolfchase","2850 Wolfcreek Pkwy","38133",35.202232,-89.793145
"38002","Arlington","TN","GYM","6978 Petten Cv","38133",35.1998405456543,-89.83045959472656
"38002","Arlington","TN","Beyond Boundaries Basketball","3347 Keats Rd","38134",35.217144,-89.88593000000003
"38002","Arlington","TN","Lassen Building Gym","integrity Dr","38053",35.333963,-89.870011
"38004","Atoka","TN","Atoka Fitness Center","101 Wesley Reed Dr","38004",35.44590532148642,-89.78420511621195
"38004","Atoka","TN","Traynom Fitness Center","not_available","38058",35.451981787456766,-89.80703877268199
"38008","Bolivar","TN","Anytime Fitness","116 E Jackson St","38008",35.25706,-88.98697
"38011","Brighton","TN","ATC Fitness","Hwy 51","38011",35.481004443116156,-89.71911914361384
"38011","Brighton","TN","TotalFitness 24/7","1655 Highway 51 S","38019",35.543678283691406,-89.66645812988281
"38011","Brighton","TN","Atc Fitness","1828 Old Highway 51 South","38011",35.4739809,-89.745817
"38016","Cordova","TN","Cheer Station","1375 Big Orange Rd","38018",35.16160583496094,-89.74439239501953
"38016","Cordova","TN","On the Treadmill","7135 Goodlett Farms Pwky","38016",35.184502338581616,-89.81547664811256
"38016","Cordova","TN","Bellevue ( Grace Family Life Center)","2000 Appling","not_available",35.18272889837551,-89.8081261739305
"38016","Cordova","TN","The Villas At Grays Creek","10107 Havanese Ln","38016",35.18954581520513,-89.72537950160658
"38016","Cordova","TN","French Riviera Spa","1880 N Germantown Pkwy","38016",35.176312068718936,-89.79168355464935
"38016","Cordova","TN","Right Now Fitness 24/7","Dexter Rd","not_available",35.17470421070754,-89.78422028909769
"38016","Cordova","TN","Villas At Grays Creek Gym","not_available","38002",35.19078345481101,-89.72711296155653
"38016","Cordova","TN","Cordova Family YMCA","7950 Club Center Dr","38016",35.163622,-89.800087
"38016","Cordova","TN","Gym At Dexters Lake","Dexter's Lake","38016",35.165712406200555,-89.79924903798704
"38017","Collierville","TN","LA Fitness","1088 W Poplar Ave","38017",35.04710006713867,-89.69857025146484
"38017","Collierville","TN","Life Time Fitness","3470 S Houston Levee Rd","38139",35.0541851,-89.7302296
"38017","Collierville","TN","Memphis Storm","not_available","38018",35.14395735831044,-89.74937052240548
"38017","Collierville","TN","ATC Fitness","308 New Byhalia Rd","38017",35.04851095154529,-89.68716676134594
"38017","Collierville","TN","Crossfit Collierville","190 Washington St","38017",35.043139000000004,-89.662696
"38017","Collierville","TN","Crossfit Germantown SOPO","not_available","38138",35.064013,-89.756414
"38017","Collierville","TN","Elite Level","360 E South St","38017",35.039134000000004,-89.655849
"38017","Collierville","TN","NSA Fitness Center","140 Crescent Dr","38017",35.0401611328125,-89.69713592529297
"38017","Collierville","TN","WH Fitness Center","Forrest Hill Irene","38018",35.14376382463628,-89.75768412663942
"38017","Collierville","TN","ATC Fitness Germantown","3040 Forest Hill Irene Rd","38138",35.06585879669538,-89.75850679931297
"38017","Collierville","TN","Pure Barre","942 W Poplar Ave Ste 10","38017",35.04849194179806,-89.69245279629519
"38017","Collierville","TN","Omni Health & Fitness Center","3690 S Houston Levee Rd Ste 1","38017",35.048094186482565,-89.73043261254256
"38017","Collierville","TN","DAC Collierville","440 W Powell Rd","38017",35.06188751469372,-89.67661035418844
"38017","Collierville","TN","NSA Fitness Center","not_available","38017",35.039967,-89.698115
"38017","Collierville","TN","FIT Group Fitness","not_available","38139",35.05435161905719,-89.73061633316706
"38017","Collierville","TN","Burn Boot Camp","956 E Winchester Blvd","38017",35.03841,-89.70435
"38018","Cordova","TN","LA Fitness","773 N Germantown Pkwy","38018",35.146241,-89.797164
"38018","Cordova","TN","ATC Fitness","8130 Macon Station","38018",35.15282991,-89.79228746
"38018","Cordova","TN","Wolf River Crossfit","7800 Fischer Steel Rd","38018",35.14823746417024,-89.79516589628984
"38018","Cordova","TN","Fitness INSPIRATION!","500 N Pine Lake Dr","38134",35.139442443847656,-89.83454132080078
"38018","Cordova","TN","The Vineyards Apartments Gym","7109 Vineyard Way","38138",35.115962,-89.826042
"38018","Cordova","TN","MEMfit Boot Camp","7740 Trinity Rd","38018",35.141874772164535,-89.80436196732995
"38018","Cordova","TN","Faction Strength And Conditioning","7740A Trinity Road","not_available",35.14077323416468,-89.80434699390678
"38018","Cordova","TN","Results","Macon","not_available",35.153835,-89.792864
"38018","Cordova","TN","9Round Fitness","750 N Germantown Pkwy","38018",35.14560597,-89.79455811
"38018","Cordova","TN","Gymnastique du Canard","not_available","38120",35.13321009019065,-89.80883723752048
"38024","Dyersburg","TN","YMCA","120 McGaughey St E","38024",36.034759521484375,-89.38323211669922
"38024","Dyersburg","TN","Anytime Fitness","2490 Parr Ave","38024",36.0602005,-89.37963612
"38024","Dyersburg","TN","Dyersburg Activity Center","not_available","38024",36.0426560356236,-89.37259936933789
"38024","Dyersburg","TN","Ultimate Fitness","550 Highway 51 Bypass","38024",36.056611956363476,-89.4023154827925
"38024","Dyersburg","TN","Omega","not_available","38059",36.1098747253418,-89.27813720703125
"38028","Eads","TN","Do Work Training Systems","445 Bowers Rd","38060",35.222869873046875,-89.53864288330078
"38028","Eads","TN","Personal Training With Debby","Langston Rd.","38028",35.193833166666664,-89.67500008333333
"38030","Finley","TN","Rec Center","?","63830",36.17843312015038,-89.66899472188761
"38040","Halls","TN","Jenny Cove Weight Room","not_available","38063",35.770389,-89.537567
"38053","Millington","TN","ATC Fitness Center","4701 Navy Rd","38053",35.34114885841994,-89.90664028960978
"38053","Millington","TN","Millington BJJ","4755 Cuba Millington Rd","38053",35.350632,-89.906537
"38053","Millington","TN","Planet Fitness","8239 Hwy 51 N","38053",35.351614,-89.90016
"38053","Millington","TN","mpd boxing gym","not_available","38128",35.24353608344738,-89.95640538267519
"38060","Oakland","TN","24/7 fitness","not_available","38060",35.22835674389078,-89.5036686954825
"38060","Oakland","TN","ATC Fitness","205 Chickasaw Ridge Dr","38060",35.225836,-89.523743
"38103","Memphis","TN","Envision Memphis","149 Monroe Ave, Top Floor","38103",35.14381527532717,-90.05149899308641
"38103","Memphis","TN","Fogelman YMCA","245 Madison Ave","38103",35.143664,-90.047808
"38103","Memphis","TN","Uptown Square Gym","not_available","38105",35.15062994729919,-90.04390916551603
"38103","Memphis","TN","WellWorx","1 N Main St","38103",35.14536540448217,-90.05287682851176
"38103","Memphis","TN","Peabody Place Fitness Club","not_available","38103",35.141983908008875,-90.05484245865865
"38103","Memphis","TN","Flats Fitness","105 S Main St","38103",35.142432830539185,-90.0540550921019
"38103","Memphis","TN","YMCA","Morehead St, Memphis, TN 38107","38107",35.13623424863989,-90.06000015215764
"38103","Memphis","TN","Skyline Fitness Club","505 Tennessee Roof Garden","38103",35.1331536492654,-90.06313147118792
"38103","Memphis","TN","Riverset Apts Gym","Natchez Pt","38103",35.1727668747409,-90.05375016167123
"38103","Memphis","TN","St. Jude Living Well Center","262 Danny Thomas Pl","38105",35.15535235647798,-90.03825680912207
"38103","Memphis","TN","Shannon Lazek Personal Training Studio","408 S Front St","38103",35.13593673706055,-90.05960083007812
"38103","Memphis","TN","Energy Fitness","552 S Main St","38103",35.132290286382016,-90.0586940638712
"38103","Memphis","TN","Quimby Plaza Gym","198 N Pauline St","38105",35.145687,-90.027861
"38103","Memphis","TN","South Bluffs Apartments","614 Cabot Ct","38103",35.12987998770753,-90.0644662795063
"38103","Memphis","TN","Waistline Fitness","746 Galloway Ave","38105",35.154523,-90.034508
"38103","Memphis","TN","Peabody Athletic Club","149 Union Ave","38103",35.142545427194165,-90.05224843424365
"38104","Memphis","TN","Venue Gym","1387 Central Ave","38104",35.126235,-90.015753
"38104","Memphis","TN","Inside Out Gym","2162 Courtland Pl","38104",35.13231748372556,-89.98967196788601
"38104","Memphis","TN","Finding your Waistline","376 N Cleveland St","38104",35.148871,-90.014044
"38104","Memphis","TN","CYCLEBAR","588 S Cooper St","38104",35.12990951538086,-89.99027252197266
"38104","Memphis","TN","Church Health Center Wellness","1115 Union Ave","38104",35.13667604610587,-90.02571520378457
"38104","Memphis","TN","V Gym","not_available","38104",35.128619,-90.017095
"38104","Memphis","TN","Memphis Sports Academy","820 s willett","not_available",35.124526,-90.009718
"38104","Memphis","TN","inbalance FITNESS","794 South Cooper","38104",35.12400256252027,-89.99073419135699
"38104","Memphis","TN","Blair Tower Gym 11th Floor","810 Washington Ave","38105",35.144921999999994,-90.03357
"38104","Memphis","TN","Evergreen Presbyterian Church Gym","613 University St","38107",35.1539192199707,-89.9936294555664
"38104","Memphis","TN","Transforming Bodies","937 S Cooper St","38104",35.12004089355469,-89.99141693115234
"38105","Memphis","TN","Number 10 Main Gym","10 S Main St","38103",35.14482059069517,-90.05296385017351
"38105","Memphis","TN","Gym","Main St","38103",35.14798992928966,-90.05173267270744
"38105","Memphis","TN","Fielder Square Pool","70 S 4th St","38103",35.142435299414444,-90.04755303315301
"38106","Memphis","TN","South Bluffs Gym","607 Madewood Dr","38103",35.13044282999658,-90.06552119043127
"38106","Memphis","TN","Riverside 648 Gym","648 S Riverside Dr","38103",35.12986373901367,-90.06615447998047
"38107","Memphis","TN","@","1940 Chelsea Ave","38108",35.173444,-89.992767
"38107","Memphis","TN","The Sweat Box","not_available","38107",35.15737747024589,-90.00431009250174
"38108","Memphis","TN","Tripple D Zumba Fitness","not_available","38108",35.17596164088423,-89.92834118013259
"38111","Memphis","TN","University of Memphis Finch Center","624 Echles Street","38152",35.113675675660794,-89.93750638779142
"38111","Memphis","TN","Comprehensive Diabetes & Metabolic Center of Excellence","2829 Lamar Ave, Memphis, TN 38114","38114",35.092750549316406,-89.96862030029297
"38111","Memphis","TN","Maint Gym","not_available","38117",35.081003,-89.918129
"38111","Memphis","TN","CrossFit Chickasaw","3096 Poplar Ave, Memphis, TN 38111","38111",35.13199851474273,-89.95883050803238
"38111","Memphis","TN","The Stratum Gym","not_available","38111",35.117492,-89.945276
"38111","Memphis","TN","Pleasant Hill Gym","3077 Johnson Abr","not_available",35.140337,-89.958771
"38111","Memphis","TN","Mid-South Krav Maga","2869 Poplar Ave","38111",35.13381719666264,-89.96601100879882
"38111","Memphis","TN","Community Center","679-729 S Prescott St","38111",35.1128092,-89.9492295
"38111","Memphis","TN","University of Memphis Student Recreation Center","620 Echles St","38111",35.11413072555682,-89.93766380435332
"38111","Memphis","TN","French Riviera Spa","3464 Poplar Ave","38111",35.1286072,-89.94640009999999
"38111","Memphis","TN","2nd Pres Gym","poplar ave","38117",35.13111265,-89.92548466666666
"38111","Memphis","TN","Wellhouse Fitness","1029 Cherry Rd","38117",35.102843,-89.918728
"38112","Memphis","TN","Krav Maga Center","395 Cumberland St","38112",35.145055,-89.969613
"38112","Memphis","TN","The Box - Crossfit","508 Tilman Street","38112",35.148065,-89.960649
"38114","Memphis","TN","IAmFitness","2598 Corporate Ave E","38132",35.0740852355957,-89.98965454101562
"38115","Memphis","TN","Willow Lake Fitness Center","4035 Willow Lake Blvd","38118",35.03548821661524,-89.8903438677966
"38115","Memphis","TN","Fitness Room","Briar Patch Ln.","38115",35.05267188216755,-89.85157766491676
"38115","Memphis","TN","Curves","not_available","38119",35.066736,-89.841212
"38115","Memphis","TN","Salvation Army Gymnasium","Wnchester","not_available",35.05061455,-89.88634652
"38115","Memphis","TN","Marriott Fitness Center","2625 Thousand Oaks Blvd","38118",35.0767936706543,-89.90330505371094
"38115","Memphis","TN","ATC Fitness","6558 Quince Road","38119",35.07033272,-89.84428321
"38115","Memphis","TN","The Sweat Zone","3048 Moriah Trl","38115",35.063716888427734,-89.84835052490234
"38115","Memphis","TN","French Riviera Health Spa","5960 Winchester Rd","38115",35.05159247890995,-89.86497725578647
"38116","Memphis","TN","French Riviera Health Spa","4130 Elvis Presley Blvd","38116",35.03624004384436,-90.02457790171533
"38116","Memphis","TN","Transforming Bodies and Minds","2876 Directors Cv","38131",35.066721,-89.990696
"38116","Memphis","TN","Planet Fitness","4126 Elvis Presley Blvd","38116",35.036375,-90.023929
"38116","Memphis","TN","Regency Inn Gym","not_available","38116",35.05083623530546,-89.98339675713792
"38116","Memphis","TN","Weightlifting","4128 Elvis Presley","38116",35.03631091659154,-90.02450992716321
"38116","Memphis","TN","Fedex CTC Wellness Center","3975 Airways Blvd","38116",35.042761,-89.996697
"38117","Memphis","TN","OrangeTheory Fitness - East Memphis","4615 Poplar Ave Ste 12","38117",35.097137554954706,-89.89965382769024
"38117","Memphis","TN","ATC Fitness","4682 Spottswood Ave","38117",35.112651,-89.905336
"38117","Memphis","TN","Hilton Gym","755 Crossover Ln","38117",35.110042572021484,-89.90608978271484
"38117","Memphis","TN","Teneo Fitness","4726 Poplar Ave","38117",35.1158332824707,-89.9044189453125
"38117","Memphis","TN","CrossFit Memphis","Sandridge","not_available",35.148124,-89.912722
"38117","Memphis","TN","Pure Barre","4700 Spottswood Ave","38117",35.112396594269455,-89.9050057563831
"38117","Memphis","TN","Iron Tribe Fitness East Memphis","454 Perkins Extd","38117",35.1190348,-89.9079362
"38117","Memphis","TN","Healthy Habits","732 E Brookhaven Cir","38117",35.113766,-89.88969300000001
"38117","Memphis","TN","Hot Yoga Plus - Memphis","416 S Grove Park Rd","38117",35.119658,-89.911123
"38117","Memphis","TN","Bikram Yoga Memphis","5101 Sanderlin Ave","38117",35.11571558137059,-89.89237824650175
"38117","Memphis","TN","Forever Fit Health Club","5100 Poplar Ave Ste 700","38137",35.112417,-89.891878
"38117","Memphis","TN","jazzercise","708 W Brookhaven Cir","38117",35.11279296875,-89.8902587890625
"38117","Memphis","TN","Hilton Worldwide Gym","755 Crossover Ln Bldg C","38117",35.110042572021484,-89.90608978271484
"38117","Memphis","TN","LA Fitness","4572 Poplar Ave","38117",35.11811065673828,-89.90988159179688
"38117","Memphis","TN","Q4Fitness","426 S Grove Park Rd Ste 101","38117",35.119513286229555,-89.91080807206635
"38118","Memphis","TN","Maintenance Gym","not_available","38118",35.02541570975147,-89.96532288896994
"38119","Memphis","TN","LA Fitness","1285 Ridgeway Rd","38119",35.096455999999996,-89.860191
"38119","Memphis","TN","Ric Nuber YMCA","5885 Quince Rd","38119",35.08854,-89.86685
"38119","Memphis","TN","Memphis Adventure Boot Camp","6100 Primacy Pkwy","38119",35.095621722292826,-89.86044791539796
"38119","Memphis","TN","MUS Weightroom","6191 Park Ave","38119",35.09801595067996,-89.85733252143386
"38119","Memphis","TN","Iron Tribe Fitness Germantown","7460 McVay Station Ct","38138",35.08827209472656,-89.81426239013672
"38119","Memphis","TN","Fundamental Fitness","5545 Murray Ave #140","38119",35.10276487649213,-89.87685664454898
"38119","Memphis","TN","Memphis Jewish Community Center Gym","6560 Poplar Ave","38138",35.10028425206859,-89.84359318081886
"38119","Memphis","TN","Pure Barre","7820 Poplar Ave Ste 12","38138",35.09058805344979,-89.80197058282073
"38119","Memphis","TN","Sweeney YMCA","5959 Park Ave","38119",35.098716735839844,-89.86424255371094
"38119","Memphis","TN","F45 Training Germantown","7850 Poplar Ave","38138",35.090497,-89.801043
"38119","Memphis","TN","The Little Gym","6645 Poplar Ave #103","38138",35.097564964612836,-89.84093567936763
"38119","Memphis","TN","CYCLEBAR","7685 Farmington Blvd Ste 101","38138",35.09449581104146,-89.80710357427597
"38119","Memphis","TN","ATC Fitness","2075 Exeter Rd","38138",35.09273147583008,-89.8042221069336
"38120","Memphis","TN","Madison Humphreys Center","330 N Humphreys Blvd","38120",35.13453034641951,-89.8649479778532
"38120","Memphis","TN","First Evangelical Gym","735 Rige Lake Blvd","38120",35.11227193751897,-89.86889570038954
"38120","Memphis","TN","Embassy Suites Gym","Embassy Suites","38119",35.10397547825379,-89.85813204875907
"38120","Memphis","TN","Forever Fit","6075 Poplar Ave Ste B100","38119",35.10113,-89.86086
"38122","Memphis","TN","Planet Fitness","4700 Summer Ave","38122",35.149515,-89.904392
"38122","Memphis","TN","JF's Gym","Shirlwood Ave","not_available",35.144195,-89.939654
"38122","Memphis","TN","Curves","739 N White Station Rd","38122",35.15097,-89.889156
"38122","Memphis","TN","Gym","4292-2 Greenmount Ave","38122",35.153538,-89.91753256666668
"38125","Memphis","TN","FedEx WHQ - Gym","3660 Hacks Cross Rd","38125",35.04973172765942,-89.78814442605068
"38125","Memphis","TN","Fitness Center At Holiday Inn","4068 Stansell Ct","38125",35.03700637817383,-89.79753875732422
"38125","Memphis","TN","LA Fitness","7630 Polo Grounds Blvd","38125",35.05216979980469,-89.80821990966797
"38125","Memphis","TN","Gym at PS","7991 Capilano Dr","38125",35.042518,-89.79900400000001
"38128","Memphis","TN","Greater Imani Church Gym","3034 Austin Peay hwy","38128",35.208049,-89.920523
"38133","Memphis","TN","Sports Floors, Inc.","6651 Reese Rd","38133",35.194433000000004,-89.84098
"38134","Memphis","TN","JW Fitness Memphis","6161 Shelby Oaks Dr","38134",35.16778068168028,-89.8579913622845
"38138","Germantown","TN","Orangetheory Fitness","9067 Poplar Ave","38138",35.06801543770911,-89.76169124486384
"38138","Germantown","TN","Anytime Fitness","9067 Poplar Ave #105","38138",35.067842999999996,-89.761964
"38141","Memphis","TN","ASC Gym","not_available","38141",35.01024118876393,-89.85606350381106
"38141","Memphis","TN","Fitness 19 Gym","4780 Riverdale Rd","38141",35.00159523176411,-89.83492865828305
"38141","Memphis","TN","24 Hour Fitness","Ridgeway","38119",35.03129724663653,-89.83327984010688
"38201","Mc Kenzie","TN","Bethel Wildcat Health And Fitness Complex","103 Main St S","38201",36.12413807221209,-88.51879888907936
"38201","Mc Kenzie","TN","Bethel Gym","not_available","38201",36.143140206021016,-88.51542652417385
"38233","Kenton","TN","Zumba","not_available","38369",36.13259644290761,-88.98797198006741
"38233","Kenton","TN","The Gauntlet","not_available","38233",36.22894456256468,-89.028511184719
"38237","Martin","TN","Big boys gym","not_available","38257",36.501089339076685,-88.8757835849531
"38237","Martin","TN","Fitness:1440 Martin","190 University Plz","38237",36.347229999999996,-88.87830600000001
"38237","Martin","TN","VCH Wellness Center","161 Mount Pelia Rd","38237",36.334529876708984,-88.86857604980469
"38237","Martin","TN","The Sideline","104 Oxford St","38237",36.343467,-88.851487
"38242","Paris","TN","Freedom Fitness","1710 East Wood Street","38242",36.31297260937972,-88.29053790006205
"38242","Paris","TN","Jack's Gym","61 Walton Cir","38242",36.33290481567383,-88.26439666748047
"38261","Union City","TN","Snap Fitness","320 W Reelfoot Ave","38261",36.41443339641004,-89.06151590092759
"38301","Jackson","TN","Maximum Health and Fitness","51 S Creek Dr","38301",35.5721435546875,-88.81410217285156
"38301","Jackson","TN","YMCA","1515 Campbell St","38305",35.653440363796754,-88.82085823617017
"38301","Jackson","TN","Snap Fitness","398 Oil Well Rd","38305",35.689694268571024,-88.86040228996916
"38301","Jackson","TN","Solus Performance Training","1751 Vann Dr","38305",35.659052947311935,-88.87320274577017
"38301","Jackson","TN","Pour Me Some Juice","101 Jackson Walk Plz","38301",35.61766815185547,-88.820556640625
"38301","Jackson","TN","Pure Barre","1370 Union University Dr Ste A","38305",35.6854684,-88.8634124
"38301","Jackson","TN","Jackson Cheer Company","2211 Express Dr","38305",35.66977143159695,-88.8895141403402
"38301","Jackson","TN","delta faucet fitness center","not_available","38305",35.67978286743164,-88.75194549560547
"38301","Jackson","TN","Planet Fitness","57 Carriage House Dr, Ste 10","38305",35.6688673660052,-88.83200066997529
"38301","Jackson","TN","Field House","832 Country Club Ln","38305",35.66898727416992,-88.86575317382812
"38301","Jackson","TN","Boomer's","2075 Pleasant Plains Ext Rd","38305",35.66958999633789,-88.86116027832031
"38301","Jackson","TN","ATC Fitness","2554 Christmasville Rd","38305",35.67544937133789,-88.78450775146484
"38301","Jackson","TN","Gold's Gym","106 Carriage House Dr","38305",35.66690495967189,-88.8330518393284
"38301","Jackson","TN","Curves of Jackson","80 Innsdale Cv","38305",35.67115567122427,-88.8324236869812
"38301","Jackson","TN","Jackson Sport And Fitness Gym","1068 Vann Dr","38305",35.667722999999995,-88.856627
"38301","Jackson","TN","ATC Fitness","1398 Union University Dr","38305",35.68642271,-88.86411874
"38301","Jackson","TN","Jackson Sport And Fitness Pool","Vann Dr","38305",35.6676945790958,-88.85707670091983
"38301","Jackson","TN","Cherry Grove Gym","1052 Vann Dr","38305",35.66792297363281,-88.85799407958984
"38305","Jackson","TN","Peak Performance","26 Garrott Dr.","38355",35.79395778437653,-88.79037279466583
"38305","Jackson","TN","Anytime Fitness","133 University Pkwy Ste 103","38305",35.69659,-88.8344
"38310","Adamsville","TN","Cardinal Football Facilities","not_available","38310",35.22209462490207,-88.41709215389778
"38340","Henderson","TN","No Xcuse Fitness","123 Front St","38340",35.43780517578125,-88.64122009277344
"38344","Huntingdon","TN","CrossFit Huntingdon","not_available","38344",36.00847399803027,-88.42710515755705
"38344","Huntingdon","TN","Barnett's 24 7 Fitness Center","20330 Main St E","38344",36.00337572948789,-88.41657567680917
"38351","Lexington","TN","Pulse 24/7 Fitness","657 W Church St","38351",35.65606689453125,-88.41354370117188
"38351","Lexington","TN","Anytime Fitness","591 W Church St","38351",35.65713,-88.41171
"38351","Lexington","TN","Sports Plus Rehab Centers","759 W Church St #4","38351",35.658640000000005,-88.418862
"38358","Milan","TN","Anytime Fitness","13081 S. 1st St.","38358",35.88365,-88.74713
"38372","Savannah","TN","Elite Sports & Fitness","East Main St","38372",35.222472631578604,-88.23414067263579
"38372","Savannah","TN","Pro Rehab","not_available","38372",35.21468244001629,-88.24545518440401
"38382","Trenton","TN","The Cageman Gym","118 W Huntingdon St","38382",35.981965,-88.942542
"38401","Columbia","TN","Crossfit Oldsouth","not_available","38401",35.632854,-87.027317
"38401","Columbia","TN","Columbia Athletic Tumble and Stunt","2494 Park Plus Dr","38401",35.584102630615234,-87.0398178100586
"38401","Columbia","TN","Harvey's Gym","1412 Trotwood Ave., Ste 35","38401",35.599052778654,-87.0775805754013
"38401","Columbia","TN","Powerhouse Gym","2501 Pulaski Hwy","38401",35.58540725708008,-87.04090881347656
"38401","Columbia","TN","Planet Fitness","1910 Shady Brook St","38401",35.5997428894043,-87.05858612060547
"38401","Columbia","TN","Columbia Parks & Recreation","503 Carter St","38401",35.62400817871094,-87.03150177001953
"38401","Columbia","TN","Planet Fitness","Shadybrook Plaza","not_available",35.5997306404886,-87.05864578919163
"38401","Columbia","TN","BenchMark Physical Therapy","1810 Shady Brook Street #4","38401",35.60194730758667,-87.05769717693329
"38450","Collinwood","TN","Real Fitness","not_available","38450",35.16966995967915,-87.74143464697389
"38456","Ethridge","TN","Clark's Gym","2004 North Locust Avenue","38464",35.267398834228516,-87.32169342041016
"38456","Ethridge","TN","Workout Anytime Lawrenceburg TN","1956 Locust Ave","38464",35.26561210426584,-87.32269467182641
"38464","Lawrenceburg","TN","My Gym","not_available","38468",35.16620013157015,-87.22997980562576
"38464","Lawrenceburg","TN","Body Works","not_available","38464",35.23374557495117,-87.2861099243164
"38478","Pulaski","TN","Harvey's Gym Pulaski","814 West College St","38478",35.205356567741966,-87.06055362648293
"38478","Pulaski","TN","Curves","124 N 3rd St","38478",35.200584411621094,-87.03291320800781
"38478","Pulaski","TN","PAC Fitness","110 N 8th St","38478",35.20286178588867,-87.04228210449219
"38478","Pulaski","TN","Victory Gym","218 North 1st St","38478",35.20075988769531,-87.03050231933594
"38485","Waynesboro","TN","Wayne Fitness Center","208 W Hollis St","38485",35.319390999999996,-87.76422
"38501","Cookeville","TN","Cookeville Fitness Center","444 S Jefferson Ave","38501",36.153109672373645,-85.49984016137456
"38501","Cookeville","TN","Putnam County Family YMCA","235 Raider Dr","38501",36.160039889839844,-85.48027018388531
"38501","Cookeville","TN","Hydromassage","not_available","38501",36.1588581035891,-85.49883803291401
"38501","Cookeville","TN","Absolute Fitness","Jefferson Ave","38501",36.15095985697676,-85.4988794353157
"38501","Cookeville","TN","Workout Anytime Cookeville","670 S Jefferson Ave","38501",36.14676429365952,-85.50027017983962
"38501","Cookeville","TN","1 on One Fitness","410 E Broad St","38501",36.162838,-85.498758
"38501","Cookeville","TN","CrossFit Cookeville","1121 Pine Ave","38505",36.178475,-85.515897
"38501","Cookeville","TN","Workout Anytime Cookeville","120 S Willow Ave, Ste D","38501",36.159742,-85.511534
"38501","Cookeville","TN","Planet Fitness","400 Dubois Rd","38501",36.1371035,-85.499
"38501","Cookeville","TN","Custom Fitness Solutions","220 Rotary Centennial Dr Ste B","38501",36.143842,-85.50281700000001
"38501","Cookeville","TN","Health Initiatives Gym","105 North Peachtree Ave","38501",36.16563582266183,-85.50665640495099
"38501","Cookeville","TN","CrossFit Knights","15 W Broad St","38501",36.164011,-85.506631
"38501","Cookeville","TN","National Fitness Center","560 S Jefferson Ave Ste B1","38501",36.150912513282286,-85.49903426073111
"38501","Cookeville","TN","CrossFit Mayhem","41 S Cedar Ave Ste A","38501",36.16263198852539,-85.50859832763672
"38506","Cookeville","TN","Averitt D-1 Fitness Center","1199 Salem Rd","38506",36.12520737688608,-85.48629532633726
"38506","Cookeville","TN","on da treadmill","not_available","38506",36.123199462890625,-85.4725341796875
"38506","Cookeville","TN","Jumpville","1284 Boyd Farris Rd","38506",36.119496252215406,-85.48803433543937
"38506","Cookeville","TN","The Dreadmill","not_available","38580",36.26695607685504,-85.38055278643647
"38544","Baxter","TN","Curves Woodbury","110 Main Street","37190",36.15348,-85.64254
"38555","Crossville","TN","Planet Fitness","171 Highland Square","38555",35.9579673,-85.04405849999999
"38555","Crossville","TN","Workout Anytime Crossville","65 Cumberland Plz","38555",35.955741801855424,-85.02992033958434
"38555","Crossville","TN","Peak Fitness","not_available","38555",35.9936725733982,-85.03891960494973
"38555","Crossville","TN","Lake Tansi Fitness Center","8000-8030 Cherokee Trl","38572",35.87792451666667,-85.05685556666667
"38555","Crossville","TN","The Pit","1149 Tennessee 101","38555",35.93394577503204,-85.03803133964539
