"zip","city","state","name","address","postalCode","lat","lon"
"53005","Brookfield","WI","Peak Health And Performance","13780 W Greenfield Ave #775","53005",43.017288,-88.084294
"53005","Brookfield","WI","Xperience Fitness Brookfield","12575 W Capitol Dr","53005",43.08687218447332,-88.06953197294382
"53005","Brookfield","WI","Anytime Fitness","12505 W  Bluemound Rd","53005",43.03584,-88.06824
"53005","Brookfield","WI","Chang And Chaeb's Muscle Factory","not_available","53122",43.054525,-88.090994
"53005","Brookfield","WI","Anytime Fitness","2205 N Calhoun Rd","53005",43.05926,-88.12883
"53005","Brookfield","WI","Snap Fitness","12888 W Bluemound Rd","53122",43.036874180139776,-88.07326335236237
"53005","Brookfield","WI","Georgetown Square Workout Room","not_available","not_available",43.040162,-88.117976
"53005","Brookfield","WI","Respect Studio","not_available","53226",43.06195407330341,-88.06628581689489
"53005","Brookfield","WI","Sheraton Fitness Center","375 S Moorland Rd","53005",43.02694310740781,-88.10827913571845
"53005","Brookfield","WI","Brookfield Hills Club Gym","1200 Club Cir","53005",43.01895523071289,-88.10977172851562
"53005","Brookfield","WI","Selestow Athletic Club (SAC)","not_available","53051",43.10227656208701,-88.11767197029728
"53005","Brookfield","WI","Blast Fitness","not_available","53005",43.03651165190613,-88.12388359245462
"53005","Brookfield","WI","TNT Peformance","12675 W Townsend St","53005",43.07936424471805,-88.07026875197629
"53005","Brookfield","WI","Orange Shoe Personal Fitness","14960 W Greenfield Ave","53005",43.017291,-88.098997
"53005","Brookfield","WI","Squeeze Fitness","14260 W Greenfield Ave","53005",43.017616271972656,-88.09054565429688
"53005","Brookfield","WI","Body By Design","815 Adelman","53045",43.022253146498606,-88.12875502658066
"53005","Brookfield","WI","Milwaukee Electric Tool Fitness Center","13135 W Lisbon Rd","53005",43.093158,-88.075537
"53005","Brookfield","WI","Best Western (Midway) Workout Center","1025 S Moorland Rd","53005",43.021589,-88.108062
"53005","Brookfield","WI","Elite Sports Clubs-Brookfield","13825 W Burleigh Rd","53005",43.073349,-88.084465
"53005","Brookfield","WI","Pure Barre","12894 W Bluemound Rd","53122",43.036952,-88.072883
"53005","Brookfield","WI","Flex Fitness","830 Elm Grove Rd.","53122",43.040972,-88.078062
"53005","Brookfield","WI","F45 Training Brookfield","17365 West Bluemound Road","53045",43.03571753,-88.1284703
"53006","Brownsville","WI","Lomira HS Cardio Room","1030 4th St","53048",43.58903275816314,-88.44767689704895
"53010","Campbellsport","WI","C sport gym","not_available","53010",43.59526,-88.27752
"53012","Cedarburg","WI","Offsite Feith Family Y","not_available","53012",43.295493911238005,-87.99577997833153
"53012","Cedarburg","WI","Real Health & Fitness Center","W61N513 Washington Ave","53012",43.294250946794634,-87.98670624492179
"53012","Cedarburg","WI","2 The Max Training","W62N228 Washington Ave","53012",43.283636,-87.985208
"53012","Cedarburg","WI","Pulse Personal Training","W61N397 Washington Ave","53012",43.290141999999996,-87.986486
"53012","Cedarburg","WI","Neutral Ground","1307 Wisconsin Ave","53024",43.31809611594938,-87.95223246013828
"53012","Cedarburg","WI","Anytime Fitness","W61 N297 Washington Ave Suite 1","53012",43.28621,-87.98663
"53014","Chilton","WI","Fat Kid Hangout","not_available","53061",43.952016673752105,-88.0986455134343
"53014","Chilton","WI","Anytime Fitness","1102 E Chestnut St","53014",44.02115797,-88.15247364
"53014","Chilton","WI","the basement","not_available","53014",44.03335952758789,-88.1660385131836
"53015","Cleveland","WI","K and J Fitness","not_available","53015",43.92130997082333,-87.76298784171856
"53017","Colgate","WI","Snap Fitness","N95W25839 Cth Q","53017",43.192628795751496,-88.26048025212691
"53018","Delafield","WI","Pure Barre","2566 Sun Valley Dr Unit G","53018",43.049224853515625,-88.37662506103516
"53018","Delafield","WI","Fitness Together - Delafield","524 Milwaukee St","53018",43.06157953861666,-88.40528324930474
"53018","Delafield","WI","CrossFit Delafield","24 Enterprise Rd Unit D","53018",43.055782318115234,-88.41488647460938
"53018","Delafield","WI","The Turf","oak crest drive","53183",43.021353,-88.377758
"53018","Delafield","WI","Anytime Fitness","300 E Summit Ave","53183",43.01524,-88.3748
"53018","Delafield","WI","American Dojo Martial Arts- Hartland","604 W North Shore Dr","53029",43.07754,-88.357
"53018","Delafield","WI","Orangetheory Fitness","3149 Golf Rd","53018",43.05346,-88.366619
"53018","Delafield","WI","Salus","not_available","53018",43.052161948328205,-88.38013515441284
"53018","Delafield","WI","F45 Training Delafield","3200 Golf Rd","53018",43.051453,-88.364975
"53020","Elkhart Lake","WI","Osthoff Fitness Center","not_available","53020",43.83024102316296,-88.01487938928
"53022","Germantown","WI","Jazzercise - Germantown","Mequon Rd, Germantown, WI 53022","53022",43.22120180641441,-88.11241786526439
"53022","Germantown","WI","J.K. Lee Black Belt Academy","N112W15800 Mequon Rd","53022",43.2217070414909,-88.10674384971777
"53022","Germantown","WI","Sneakers Health & Fitness","W175 N11162 Stonewood Drive","53022",43.22041158110736,-88.12608104779942
"53022","Germantown","WI","Anytime Fitness","W175-N11162 Stonewood Dr","53022",43.22034,-88.12595
"53024","Grafton","WI","Form & Fitness","2020 Cheyenne Ct","53024",43.321855004053546,-87.9370825937074
"53024","Grafton","WI","Aurora Fitness Center","975 Port Washington Rd","53024",43.322196651102686,-87.92773267442847
"53027","Hartford","WI","Anytime Fitness","1542 E Sumner St","53027",43.31808,-88.35135
"53027","Hartford","WI","Quad Fitness Center","1900 W Sumner St","53027",43.328213,-88.42162900000001
"53027","Hartford","WI","SFD Fitness Center","not_available","53086",43.33389767040348,-88.28795086994546
"53027","Hartford","WI","CAL Fitness & Performance","331 E Washington St","53086",43.32984161376953,-88.27839660644531
"53027","Hartford","WI","HUHS Weight Room","cedar st","53027",43.308625,-88.37357650000001
"53029","Hartland","WI","Peak Performance","130 E Capitol Dr","53029",43.10547161947016,-88.34612021575933
"53029","Hartland","WI","DeFeR Gym","N46W29120 E Capitol Dr","53029",43.1021386384964,-88.32384467124939
"53029","Hartland","WI","Lakeside Fitness Fit Body Bootcamp","675 Industrial Ct","53029",43.092069,-88.361439
"53029","Hartland","WI","Snap Fitness","365 Cottonwood Ave","53029",43.101047652645086,-88.34884546618804
"53029","Hartland","WI","Wisconsin Barbell","not_available","53029",43.092078990114494,-88.36171623461111
"53029","Hartland","WI","North Lake Fitness Center","N75 W31283 Hwy V V","53029",43.15560613819018,-88.36717844009398
"53029","Hartland","WI","Lake Country Racquet & Athletic Club","560 S Industrial Dr","53029",43.095732,-88.359021
"53029","Hartland","WI","Anytime Fitness","520 Hartbrook Dr","53029",43.10298,-88.36651
"53029","Hartland","WI","Lake Country Martial Arts","600 Hartbrook Dr","53029",43.11068344116211,-88.33783721923828
"53029","Hartland","WI","Snap Fitness","615 Ryan St","53072",43.094123146667,-88.27509105796805
"53032","Horicon","WI","Working Out P90X Style","County Rd S, Iron Ridge, WI 53035","53035",43.3936653137207,-88.59608459472656
"53032","Horicon","WI","Anytime Fitness","309 Barstow St","53032",43.4477,-88.63634
"53033","Hubertus","WI","Momentum Health Club","3210 State Hwy 167","53076",43.25191879272461,-88.19651794433594
"53033","Hubertus","WI","American health and fitness","not_available","53033",43.24836878371013,-88.20221858069108
"53036","Ixonia","WI","Kepler Cardio","N8192 Woody Ln","53036",43.139959,-88.608769
"53036","Ixonia","WI","Thads Houtz","not_available","53066",43.11390289325502,-88.509029336284
"53036","Ixonia","WI","Azz Kickin Fitness","not_available","53094",43.14516804411299,-88.63226945890182
"53036","Ixonia","WI","LC Custom Fitness","61 Happy Hollow Ln","53066",43.12081999999999,-88.526703
"53037","Jackson","WI","SupplyOne Gym","not_available","53037",43.33555649185632,-88.16841662269042
"53038","Johnson Creek","WI","P90x","103 Hunters Glen Ln","53038",43.0751953125,-88.75802612304688
"53045","Brookfield","WI","Life Time Athletic Brookfield","17585 Golf Pkwy","53045",43.0320928,-88.13140302
"53045","Brookfield","WI","Elite Sports Clubs-West Brookfield","600 N Barker Rd","53045",43.038399,-88.16571
"53045","Brookfield","WI","CYCLEBAR","20350 Lord St","53045",43.0331266,-88.1638323
"53045","Brookfield","WI","Fitness Revolution Brookfield","675 N Brookfield Rd Ste 109","53045",43.0389729980751,-88.1476989130603
"53045","Brookfield","WI","Health Club at The Doubletree","not_available","53045",43.035805314709414,-88.13921582376166
"53045","Brookfield","WI","The Barre Code Brookfield","18000 W Bluemound Rd","53045",43.03747968882532,-88.13753655537896
"53045","Brookfield","WI","Curves","140 capitol dr","53072",43.089315,-88.145419
"53045","Brookfield","WI","Core Fitness Center Wisconsin LLC","17800 W Bluemound Rd","53045",43.03731868232339,-88.13417929556864
"53045","Brookfield","WI","American Dojo Martial Arts - Waukesha","2242 W Bluemound Rd Suite D","53186",43.03692756010843,-88.18228637301638
"53045","Brookfield","WI","Body By Design","21975 Doral Rd","53186",43.042972171392556,-88.185338195783
"53045","Brookfield","WI","Revolutions Twirling Club","Bluemound Rd","53186",43.03739843604632,-88.1830249290648
"53045","Brookfield","WI","medinas boxing club","718 N 109th St, Wauwatosa, WI 53226","53226",43.05747728586083,-88.14532911463026
"53045","Brookfield","WI","G-form Fitness","19700 W Bluemound Rd","53045",43.03664528919594,-88.1576037393691
"53045","Brookfield","WI","Snap Fitness-Capitol Dr.","18905 W Capitol Dr","53045",43.08994135069635,-88.14739001854436
"53045","Brookfield","WI","Workout Boss - Crossfit Funky","200 N Patrick Blvd","53045",43.0325451616065,-88.1343693765008
"53045","Brookfield","WI","Mozarts Gym","18765 Hoffman Ave","53045",43.072147369384766,-88.14531707763672
"53045","Brookfield","WI","AXIOM Health & Fitness","17700 W Capitol Dr","53045",43.09118154809004,-88.1329940698891
"53045","Brookfield","WI","YogAsylum ® | Yoga Studio | Institute for Holistic Studies","3815 N. Brookfield Road Suite 101","53045",43.087798190119614,-88.14662358025028
"53045","Brookfield","WI","Quality Inn Fitness Center","20150 W Bluemound Rd","53045",43.037003999999996,-88.164121
"53051","Menomonee Falls","WI","Wisconsin Athletic Club","N91W15700 Falls Pkwy","53051",43.182760378687696,-88.10494456944372
"53051","Menomonee Falls","WI","Planet Fitness","N89W16899 Appleton Ave","53051",43.18064902678382,-88.11999440400682
"53051","Menomonee Falls","WI","Tri-County YMCA","N84 W17501 Menomonee Ave","53052",43.16973615298863,-88.12679773600179
"53051","Menomonee Falls","WI","Anytime Fitness","N56 W14108 Silver Spg Dr","53051",43.12037,-88.08649
"53051","Menomonee Falls","WI","Gym Wozniak","W164 N7806 Tamarack Trl","53051",43.159404,-88.113463
"53051","Menomonee Falls","WI","Curves","W164 N8877 Mill Street Ste. 110","53051",43.17885131883382,-88.11487050987554
"53051","Menomonee Falls","WI","Trillium Terrace Workout Centre","N83W13600 Fond du Lac Ave","53051",43.168949127197266,-88.07832336425781
"53051","Menomonee Falls","WI","Snap Fitness","N72W13400 Lund Ln","53051",43.14935820995452,-88.07690021081811
"53051","Menomonee Falls","WI","Community Memorial Medical Commons Cardiac Rehab","Northfield Dr, Menomonee Falls, WI 53051","53051",43.157088156705626,-88.08564176312623
"53051","Menomonee Falls","WI","Snap Fitness","W165 N5595 Creekwood Crossing","53051",43.11865805827886,-88.11696204746347
"53051","Menomonee Falls","WI","RWF  (Reagan West Fitness LLC)","N88W16586 Main St","53051",43.179325103759766,-88.11600494384766
"53051","Menomonee Falls","WI","MelT Fitness","N50W13926 Overview Dr","53051",43.109920501708984,-88.08486938476562
"53051","Menomonee Falls","WI","Orangetheory Fitness","Premier Ln","53051",43.18815,-88.1342
"53051","Menomonee Falls","WI","Jim's Gym","shady lane","53051",43.18056591,-88.12420291
"53051","Menomonee Falls","WI","CrossFit Menomonee Falls","N96W14555 County Line Rd","53051",43.19166930030611,-88.08945837477587
"53058","Nashotah","WI","Timberline Fitness","At Dolce's Growler","not_available",43.138536,-88.424748
"53065","Oakfield","WI","Squishy's Gym","6002 hideaway lane","54937",43.737752,-88.529868
"53065","Oakfield","WI","Oakfield High School Fitness Room","E Church St","53065",43.684998750686646,-88.54147374629974
"53066","Oconomowoc","WI","Planet Fitness","1412 Summit Ave","53066",43.0849553,-88.4737657
"53066","Oconomowoc","WI","YMCA at Pabst Farms","1750 E Valley Rd","53066",43.07816206222873,-88.45460212984206
"53066","Oconomowoc","WI","Anytime Fitness","1288 Summit Ave Ste 114","53066",43.09028,-88.47247
"53066","Oconomowoc","WI","Snap Fitness","1225 Robruck Dr","53066",43.09445136293696,-88.48002940278685
"53066","Oconomowoc","WI","The O Spa","1350 Royale Mile Rd","53066",43.08847904381392,-88.47609332932991
"53066","Oconomowoc","WI","Parker's Place Total Fitness","N48 W36105 East Wisconsin Ave","53066",43.10645718843303,-88.46646859391785
"53066","Oconomowoc","WI","Odtc Gym","Gennessee lake rd","53066",43.05518925189972,-88.46613585948944
"53066","Oconomowoc","WI","Lake Country Training","1029 Timberline Ct E","53066",43.097361,-88.476309
"53066","Oconomowoc","WI","CYCLEBAR","1370 Pabst Farms Cir Unit 360","53066",43.0743026,-88.4693779
"53072","Pewaukee","WI","Westwood Health & Fitness","2900 Golf Rd","53072",43.048960575937045,-88.27916005204425
"53072","Pewaukee","WI","Five Fields Gym","not_available","53072",43.077500586721285,-88.21942132566888
"53072","Pewaukee","WI","Planet Fitness","1275 Capitol Dr","53072",43.085027,-88.234452
"53072","Pewaukee","WI","fitness center","3010 N Grandview Blvd","53188",43.052667806257816,-88.25797918631375
"53072","Pewaukee","WI","Evolution Fitness","N22W27847 Edgewater Dr","53072",43.060184478759766,-88.30242919921875
"53072","Pewaukee","WI","Revolution Fitness","1343 E Wisconsin Ave Ste 103","53072",43.07301232287971,-88.23471205128757
"53072","Pewaukee","WI","Holiday Inn Fitness Center","N14 W24140 Tower Road","53072",43.05146839326295,-88.22906636252776
"53072","Pewaukee","WI","Walking Workstation - Steinhafels Corp Office","not_available","53186",43.046210861541,-88.21197683119898
"53072","Pewaukee","WI","Stenie's Gym","2606 Crest Ln","53188",43.04399108886719,-88.27105712890625
"53072","Pewaukee","WI","Anytime Fitness","N35 W23770 Capitol Dr","53072",43.08399,-88.22023
"53072","Pewaukee","WI","Westwood Kids Club","Golf Road","53072",43.048964808214784,-88.27912388575834
"53073","Plymouth","WI","Anytime Fitness","542 Walton Dr","53073",43.75396,-87.94492
"53073","Plymouth","WI","Johnsoville Gym","not_available","53073",43.77916666666667,-88.02326388888889
"53074","Port Washington","WI","YMCA","465 Northwoods Rd","53074",43.38732048138417,-87.92186767866932
"53074","Port Washington","WI","Port Washington Park and Recreation","201 N Webster St","53074",43.38896179199219,-87.87593078613281
"53074","Port Washington","WI","Brian's gym","not_available","53074",43.40684828644335,-87.86735879691349
"53074","Port Washington","WI","StarrFitness","142 S Foster Dr","53080",43.383446,-87.929016
"53074","Port Washington","WI","Anytime Fitness","155 Sweetwater Blvd","53074",43.3878,-87.90828
"53075","Random Lake","WI","Random Lake School District Fitness Center","605 Random Lake Rd","53075",43.554306,-87.97321
"53081","Sheboygan","WI","Sheboygan YMCA","812 brought dr","53081",43.75352112204787,-87.70442162073925
"53081","Sheboygan","WI","Anytime Fitness","2701 S. Business Dr","53081",43.7253,-87.73321
"53081","Sheboygan","WI","Sheboygan Fit Body","2135 S Business Dr","53081",43.731316,-87.728237
"53081","Sheboygan","WI","Grandstay Fitness Room","not_available","53081",43.754522,-87.71194
"53081","Sheboygan","WI","Gym de Becker","1915 Indiana Ave","53081",43.742329999999995,-87.73154699999999
"53081","Sheboygan","WI","Curves","S Pier Dr, Sheboygan, WI 53081","53081",43.74769298858939,-87.70823943608325
"53081","Sheboygan","WI","South West","1209 Michigan Ave","53081",43.758357000000004,-87.72019
"53083","Sheboygan","WI","Bunnie's Basement","not_available","53083",43.7778462651606,-87.72270426731006
"53083","Sheboygan","WI","North High Fitness Center","1042 School Ave","53083",43.77686309814453,-87.71808624267578
"53085","Sheboygan Falls","WI","Sheboygan Falls YMCA","301-313 Buffalo St","53085",43.729739906510176,-87.81394181647903
"53085","Sheboygan Falls","WI","temporary falls ymca","not_available","53085",43.748604586241264,-87.82218698432798
"53086","Slinger","WI","Snap Fitness Slinger","1026 E Commerce Blvd","53086",43.32520316632286,-88.26876091031167
"53089","Sussex","WI","Anytime Fitness","N64 W24350 Main Street","53089",43.1346323,-88.23101840000001
"53089","Sussex","WI","Lange Treadmill","not_available","53089",43.1217155456543,-88.2340316772461
"53089","Sussex","WI","Rock'n Body Boot Camp","N64W24678 Main Street","53089",43.13433368381776,-88.19718917456107
"53089","Sussex","WI","Burn Boot Camp - Lake Country","W248N5250 Executive Dr","53089",43.1129264831543,-88.23958587646484
"53089","Sussex","WI","Quad/Fitness Center","N63 W23075 ST HWY 74","53089",43.130836811713095,-88.2054881507451
"53090","West Bend","WI","Kettle Moraine YMCA","1111 W Washington St","53095",43.42520422694154,-88.19056184304071
"53090","West Bend","WI","Snap Fitness Kewaskum","fond du lac ave","53090",43.44980694,-88.1652121
"53090","West Bend","WI","A1 Crossfit","1240 Lang St #1","53090",43.43003463745117,-88.16340637207031
"53090","West Bend","WI","Kettle Moraine YMCA - River Shores","705 Village Green Way","53090",43.4302586,-88.18329569
"53090","West Bend","WI","TNT Fitness Results","1166 N Main St","53090",43.435523986816406,-88.18498992919922
"53090","West Bend","WI","A1 Crossfit","4345 33 Hwy","53095",43.427098,-88.252987
"53092","Mequon","WI","Elite Sports Club-Mequon","11616 North Port Washington Road","53092",43.229787,-87.9217433
"53092","Mequon","WI","CycleBar Mequon","11104 N Port Washington Rd","53092",43.220364,-87.922792
"53092","Mequon","WI","Orangetheory Fitness","6071 W Mequon Rd","53092",43.222006,-87.98339399999999
"53092","Mequon","WI","Concord Fitness Center","10532 N Port Washington Rd","53092",43.2093505859375,-87.92400360107422
"53092","Mequon","WI","Solful Fitness Main Base","not_available","53209",43.23572732529431,-87.98418058407937
"53092","Mequon","WI","Senergy gym","not_available","53092",43.209495269353994,-87.92282952796188
"53092","Mequon","WI","Velocity Cycling Studio","15032 N Port Washington Rd.","53092",43.20943524104777,-87.92248954375958
"53092","Mequon","WI","Fitness Together","6019 W Mequon Rd","53092",43.22048333826673,-87.9832529967016
"53092","Mequon","WI","Pure Fitness","6140 W Executive Dr","53092",43.210097999999995,-87.98633199999999
"53092","Mequon","WI","Ellipse Fitness","11000 N Port Washington Rd","53092",43.218644,-87.92326700000001
"53092","Mequon","WI","Action Athletics","not_available","53097",43.207560012774515,-87.92342303511818
"53092","Mequon","WI","Athlete Performance","10448 N Port Washington Rd","53092",43.207957,-87.92293000000001
"53092","Mequon","WI","Moro Performance","10410 N Baehr Road","53092",43.207830758579014,-87.9835045337677
"53092","Mequon","WI","Nats Heath & Fitness","4926 W Parkview Dr","53092",43.230298,-87.97197299999999
"53092","Mequon","WI","Brew City Wellness, Inc.","10137 N Kenilworth Ct","53092",43.20211410522461,-87.9166488647461
"53092","Mequon","WI","CUW Fitness Center","12800 N Lake Shore Dr","53097",43.25470134263306,-87.91650831699371
"53092","Mequon","WI","BAM Fitness Coaching, LLC","10650 N Baehr Rd Ste C","53092",43.210872650146484,-87.98272705078125
"53094","Watertown","WI","Anytime Fitness","804-806 W St","53094",43.18985,-88.73977
"53094","Watertown","WI","Watertown Area YMCA","415 S 8th St","53094",43.19078743513074,-88.71714750695544
"53094","Watertown","WI","Rise Above It Studio","Gopher Hill Rd, Watertown, WI 53094","53094",43.184816644689356,-88.68335328602483
"53094","Watertown","WI","Insanity","not_available","53551",43.074153900146484,-88.8840103149414
"53094","Watertown","WI","Watertown Fitness","1648 S Church St","53094",43.1877275676014,-88.73600138173961
"53094","Watertown","WI","Pulse Fitness","612 S Church St","53094",43.188568115234375,-88.73097229003906
"53094","Watertown","WI","Maranatha Gymnasium","Main","53094",43.19594305446103,-88.73844821948207
"53094","Watertown","WI","Gymtastics","925 S 12th St","53094",43.174671999999994,-88.713011
"53094","Watertown","WI","Melody Moe","210 South Water Street","53094",43.19280242919922,-88.72677612304688
"53095","West Bend","WI","Pleasant Valley Tennis & Fitness Club","2754 Pleasant Valley Rd","53037",43.3544360084251,-88.17509063139039
"53095","West Bend","WI","WBMI Fitness Center","not_available","53095",43.39506112985374,-88.20514009901878
"53095","West Bend","WI","Anytime Fitness","790 W Paradise Dr","53095",43.39957,-88.18633
"53095","West Bend","WI","Paradise Valley Spa & Fitness","1414 E Paradise Dr","53095",43.39820169645841,-88.159897573518
"53095","West Bend","WI","Snap Fitness","821B South Main Street","53095",43.41154479980469,-88.18033599853516
"53098","Watertown","WI","Curves","200 W Main St","53094",43.1988023976878,-88.73650892054133
"53098","Watertown","WI","Snap Fitness","1307 Memorial Dr","53098",43.20093536376953,-88.70101928710938
"53098","Watertown","WI","Springer's Gym","not_available","53098",43.21048355102539,-88.73643493652344
"53103","Big Bend","WI","The Carow's Dojo","S94W23720 Kunzendorf Ct","53103",42.872344970703125,-88.22307586669922
"53103","Big Bend","WI","Hammer Rehab & Fitness Center","W231 S7680 Big Bend Dr.","53103",42.905064419486145,-88.21171993783472
"53104","Bristol","WI","Nates Magical Roombomb","not_available","53104",42.600399,-88.05170774459839
"53105","Burlington","WI","Anytime Fitness","116-118 E Geneva Sq","53147",42.60592,-88.42306
"53105","Burlington","WI","Badger Weight Room","not_available","53147",42.57292979520559,-88.42070941314329
"53105","Burlington","WI","Big Werm's Gym","not_available","53105",42.68362045288086,-88.29994201660156
"53105","Burlington","WI","Snap Fitness","406 N Lake Ave","53181",42.53493641563517,-88.24692144028353
"53105","Burlington","WI","Snap Fitness","N Dodge St","53105",42.67729198555204,-88.27335003175506
"53105","Burlington","WI","H. C. Fitness Room","not_available","53120",42.769402654978876,-88.40310849340985
"53105","Burlington","WI","Snap Fitness","790 Cornerstone Xing","53185",42.77451012002003,-88.19783110178966
"53105","Burlington","WI","Aurora Wellness Center","300 Mc Canna Pkwy","53105",42.67389411568322,-88.25535794773846
"53105","Burlington","WI","Lake Geneva Middle School","600 N Bloomfield Rd","53147",42.5735782375695,-88.41585634514817
"53110","Cudahy","WI","CHS Weight Room","not_available","53110",42.95392539244559,-87.8489733800702
"53110","Cudahy","WI","Anytime Fitness","5879 S Packard Ave","53110",42.93786,-87.8617
"53110","Cudahy","WI","Clubhouse","2770 E Edgerton Ave, Cudahy, WI 53110","53110",42.952178955078125,-87.87516784667969
"53110","Cudahy","WI","ace","1801-1999 E Kelly Ln","53110",42.934898,-87.885136
"53110","Cudahy","WI","128th Gym (128 Maintenance Gym)","not_available","53207",42.944414,-87.885571
"53110","Cudahy","WI","BLAST Fitness","2525 E Layton Ave","53110",42.959187405378216,-87.87779504928919
"53114","Darien","WI","Rocky's Gym & Delavan Fitness Center","not_available","53115",42.620958398086394,-88.67637468779063
"53114","Darien","WI","Clinton Total Fitness","not_available","53525",42.57008527287648,-88.76207529838264
"53115","Delavan","WI","XTS","500-506 Nathan Ln","53121",42.66387829,-88.54548109
"53115","Delavan","WI","Anytime Fitness","1420 E Geneva","53115",42.62597,-88.62373
"53115","Delavan","WI","Snap Fitness Elkhorn","10 W Evergreen Pkwy #6","53121",42.7179720726603,-88.54309611954925
"53118","Dousman","WI","Fuel Up. GO! Fitness & Nutrition, LLC (North Prairie) www.fuelupgo.com","www.fuelupgo.com","53153",42.94173131,-88.42202923
"53119","Eagle","WI","Kluck's House Of Muscle","not_available","53119",42.87279800990621,-88.47665702834347
"53120","East Troy","WI","Gym At Beber Camp","not_available","53149",42.835262,-88.38665
"53120","East Troy","WI","Snap Fitness","2541 Main St","53120",42.789912711916735,-88.39198240492453
"53121","Elkhorn","WI","Elkhorn Area High School Strength and Agility Center","482 E Geneva St","53121",42.6753044128418,-88.52920532226562
"53121","Elkhorn","WI","FLAC","Elkhorn","53121",42.64721287502775,-88.53789063764465
"53121","Elkhorn","WI","Not-Quite Gold's Gym","not_available","53121",42.68170237541199,-88.4973406791687
"53126","Franksville","WI","Snap Fitness","10009 Northwestern Ave","53126",42.756729133246004,-87.90770746783879
"53128","Genoa City","WI","The Basements @ Lemon Grove","not_available","53128",42.50802815066395,-88.32263312119542
"53129","Greendale","WI","Southridge Athletic Club","6815 W Edgerton Ave","53220",42.951919170896275,-87.99904691213081
"53129","Greendale","WI","Martin Luther Wrestling Room","not_available","53129",42.949205964874274,-88.00865243081502
"53129","Greendale","WI","CrossFit Greendale","6656 Industrial Loop","53129",42.931232538485915,-87.9962189022784
"53129","Greendale","WI","P90x Studio","steeple drive","53129",42.94072875,-87.97821438333334
"53129","Greendale","WI","MAA Kickboxing","6930 Industrial Loop","53129",42.92920412107136,-87.99869042327879
"53129","Greendale","WI","Melissas Rompin Room","6751-6809 Northway","53129",42.94213685,-87.99862456666666
"53130","Hales Corners","WI","Wisconsin Athletic Club","5020 S 110th St","53228",42.95273530150232,-88.0492242514252
"53130","Hales Corners","WI","Q Xperience","not_available","53130",42.947438,-88.048849
"53130","Hales Corners","WI","Bally Van Buren Spin Studio","not_available","53202",42.94746084345532,-88.04912875326086
"53130","Hales Corners","WI","Squeeze Studio Fitness","10731 W Forest Home Ave","53130",42.93582534790039,-88.0466537475586
"53130","Hales Corners","WI","Hales Corners Luthern Fitness Center","12300 W Janesville Rd","53130",42.93569564819336,-88.06851196289062
"53132","Franklin","WI","Planet Fitness","6529 S 27th St","53132",42.9253162,-87.952825
"53132","Franklin","WI","Innovative Health & Fitness","8800 S 102nd St","53132",42.88507,-88.040284
"53132","Franklin","WI","Northwestern Mutual Gym","1 Northwestern Mutual Way","53132",42.90653100565927,-87.95280978554605
"53132","Franklin","WI","Whitnall Pointe Apartment Complex","10580 W Cortez Cir","53132",42.92082595128542,-88.04216099958843
"53132","Franklin","WI","Jillian's 30 Day Shred","not_available","53132",42.92285474472862,-87.96059475114633
"53132","Franklin","WI","Anytime Fitness","2818 W Rawson Ave","53132",42.91689,-87.95146
"53132","Franklin","WI","iLoveKickboxing - Franklin, WI","7211 S. 76th St.","53132",42.9136385,-88.0118281
"53132","Franklin","WI","Franklin Oaks Gym","3101 W Drexel Ave","53132",42.90082550048828,-87.95393371582031
"53132","Franklin","WI","ilovekickboxing.com","211 S 76th St","53132",42.8821001,-88.00993679999999
"53132","Franklin","WI","Bridgewater Performance","11320 W Forest Home Ave","53132",42.91968536376953,-88.05660247802734
"53132","Franklin","WI","44 fitness & martial arts","10610 W Venture Dr","53132",42.92464713043102,-88.05450975350205
"53132","Franklin","WI","Protect this House University","Basement","53132",42.889954,-88.024977
"53132","Franklin","WI","Franklin Curves","Rawson & S 76th St","53132",42.915296999999995,-88.009996
"53132","Franklin","WI","Class A Fitness","7211 S 76th St","53132",42.908117948691284,-88.01292754123382
"53132","Franklin","WI","Snap Fitness","7154 S 76th St","53132",42.91388835,-88.00791455
"53132","Franklin","WI","Home Of The Stallion","11901 W Saint Martins Rd","53132",42.90821838378906,-88.06299591064453
"53132","Franklin","WI","Mission Hills Fitness Center","Septer Dr","53132",42.90410702523206,-88.0425579848819
"53132","Franklin","WI","The Gym","9313 S Cobblestone Way Unit G","53132",42.87548065185547,-87.98716735839844
"53140","Kenosha","WI","JAM Factory Fittness","5613 6th Ave","53140",42.58457007697324,-87.81852231072645
"53140","Kenosha","WI","St. Mark's Gym","7117 73rd St","not_available",42.579549,-87.8252023
"53140","Kenosha","WI","Anytime Fitness","611 56th St 3rd Fl","53140",42.584496,-87.818749
"53140","Kenosha","WI","Flex & Burn Fitness","Downtown Kenosha","53140",42.58389264576222,-87.8182370315162
"53140","Kenosha","WI","Anytime Fitness","2304 18th St","53144",42.62465,-87.83713
"53140","Kenosha","WI","Station 2 Gym","not_available","53140",42.639363,-87.821301
"53140","Kenosha","WI","Sports 24 Hour Fitness","3921 30th Ave Ste C","53144",42.60140665014641,-87.8450370026992
"53142","Kenosha","WI","RecPlex","9900 Terwall Ter","53158",42.528956698104935,-87.91651533709856
"53142","Kenosha","WI","Planet Fitness","7630 Pershing Blvd","53142",42.5633458,-87.85911879999999
"53142","Kenosha","WI","Crossfit Kenosha","not_available","53142",42.567578655311124,-87.89832489181883
"53142","Kenosha","WI","jess's gym","not_available","53158",42.56863408331114,-87.92853225763685
"53142","Kenosha","WI","Atlas Gym II","3415 80th St","53142",42.55857757088312,-87.85020833856332
"53142","Kenosha","WI","Riverwood Workout Center","10916 75th St","53142",42.56802002307443,-87.94077370323858
"53142","Kenosha","WI","Snap Fitness","5506 75th St","53142",42.56707836282537,-87.87398024726646
"53142","Kenosha","WI","Charter Fitness","6302 75th St","53142",42.56731072158561,-87.88417864832657
"53142","Kenosha","WI","Flex and Burn Fitness","7645 Pershing Blvd","53142",42.56426,-87.85718100000001
"53142","Kenosha","WI","iLoveKickboxing - Kenosha, WI","6914 Green Bay Rd","53142",42.572221,-87.886841
"53142","Kenosha","WI","Jazzercise Fitness","6521 Green Bay Rd","53142",42.575495000000004,-87.88457700000001
"53143","Kenosha","WI","CYC Raiders Gym","not_available","53143",42.55573947691969,-87.8339844992521
"53144","Kenosha","WI","YMCA","7101 53rd St","53144",42.58744375110676,-87.89542337401348
"53144","Kenosha","WI","MATTS HOUSE","4916 45th St","53144",42.596127,-87.86861400000001
"53144","Kenosha","WI","IT gym","6800 60th Ave, Kenosha, WI 53142","53142",42.58426973606589,-87.87485665328458
"53144","Kenosha","WI","Kenosha Athletic Center","4211 Green Bay Rd","53144",42.59930410739919,-87.87657820671951
"53144","Kenosha","WI","The Gym At Somers Sta. 1","7511-12th St","53171",42.638187408447266,-87.9002685546875
"53144","Kenosha","WI","Sports 24hr Fitness","not_available","53144",42.610839,-87.86237
"53144","Kenosha","WI","Snap Fitness","10351","53177",42.59347662278862,-87.85702561891564
"53146","New Berlin","WI","Fuel Up. GO! Fitness & Nutrition, LLC (Waukesha) www.fuelupgo.com","www.fuelupgo.com","53189",42.9868617,-88.18814567
"53147","Lake Geneva","WI","Geneva Lakes Y.M.C.A.","203 S Wells St","53147",42.58991633759281,-88.42854975937114
"53147","Lake Geneva","WI","Body Logic Fitness Center","709 W Main St","53147",42.591911469307995,-88.43395370182651
"53149","Mukwonago","WI","Mukwonago YMCA","245 Wolf Run","53149",42.85382858755983,-88.31104721413446
"53149","Mukwonago","WI","Anytime Fitness","937 Greenridge Ct.","53149",42.87214660644531,-88.31991577148438
"53149","Mukwonago","WI","Snap Fitness","1005 Main St","53149",42.85103168673428,-88.33444740491831
"53149","Mukwonago","WI","9Round Fitness","545 Bay View Rd, #D","53149",42.8514633,-88.33543139999999
"53150","Muskego","WI","Snap Fitness","S74W16853 Janesville Rd","53150",42.909620367124774,-88.12551381928978
"53150","Muskego","WI","Highlands Fitness Center","not_available","53151",42.93434475417816,-88.07012861242372
"53150","Muskego","WI","Preferred Fitness","S74 W17009 Janesville Road","53150",42.90841056027821,-88.12676548000721
"53150","Muskego","WI","Crossfit Muskego","W184 S8408 Challenger Drive","53150",42.892271472470924,-88.14356144604533
"53150","Muskego","WI","Muskego Hornet's Indoor Training Facility","not_available","53150",42.89289737892516,-88.14494132995605
"53150","Muskego","WI","Johnsen Gym","Foxboro place","not_available",42.900652,-88.106819
"53150","Muskego","WI","9Round Fitness","W189S7835 Racine Ave","53150",42.902408599853516,-88.15218353271484
"53150","Muskego","WI","Anytime Fitness","7759 Racine Ave","53150",42.90383,-88.15312
"53151","New Berlin","WI","Princeton Club","14999 W Beloit Rd","53151",42.95419030735805,-88.10229266525151
"53151","New Berlin","WI","Nova Gyms","15805 W National Ave","53151",42.973756,-88.110316
"53151","New Berlin","WI","Fuel Up. GO! Fitness & Nutrition","13516-13582 Deer Park Ct.","53151",42.941771664440594,-88.08331346796261
"53151","New Berlin","WI","Anytime Fitness","15437 W National Ave","53151",42.97545,-88.106
"53151","New Berlin","WI","Fuel Up. GO! Fitness & Nutrition","W Grange Ave.","53151",42.9440046,-88.08648805
"53151","New Berlin","WI","Fountain Square Clubhouse","Fountain Square Blvd, New Berlin, WI 53151","53151",42.98820790617233,-88.08240906349623
"53151","New Berlin","WI","Mike Hegans Field Of Dreams Baseball Complex","16701 W. Cleveland Ave","53151",42.995129451892815,-88.12135392002183
"53151","New Berlin","WI","Dematic Fitness Center","2855 S James Dr","53151",42.993839263916016,-88.11036682128906
"53151","New Berlin","WI","Scheidegger's Gym","4333 S Sunnyslope Rd","53151",42.96525573730469,-88.0941390991211
"53151","New Berlin","WI","Breakthrough","3530 S Moorland Rd","53151",42.979915000000005,-88.107584
"53154","Oak Creek","WI","Pure Barre","120 W Town Square Way Ste 400","53154",42.899301,-87.9124336
"53154","Oak Creek","WI","Oak Creek Jazzercise","9543 S Chicago Rd","53154",42.87027983021979,-87.8587638605048
"53154","Oak Creek","WI","La Quinta Fitness Room","7141 S 13th St","53154",42.914903,-87.93217299999999
"53154","Oak Creek","WI","GYM","2020 E Drexel Ave","53154",42.90206527709961,-87.88792419433594
"53154","Oak Creek","WI","Let's Get Physical","not_available","53154",42.890323638916016,-87.9010009765625
"53154","Oak Creek","WI","Xperience Fitness","8601 S Howell Ave","53154",42.888127484974625,-87.9132202747297
"53154","Oak Creek","WI","Championship Martial Arts","8641 S Howell Ave","53154",42.888644,-87.913813
"53154","Oak Creek","WI","Gym @ C.I.&S","not_available","53221",42.91994828307101,-87.93937549062508
"53154","Oak Creek","WI","OCHS Weight Room","340 E Puetz Rd","53154",42.887772999999996,-87.907706
"53154","Oak Creek","WI","Oak Creek Fitness","1902 W Ryan Rd","53154",42.87335948069315,-87.9411505661075
"53154","Oak Creek","WI","Curves","2031 E Rawson Ave #200","53154",42.915026694183595,-87.88513315037292
"53154","Oak Creek","WI","The Gables~ Fitness room","Oak Creek, WI 53154","53154",42.903545979143374,-87.9098412519804
"53154","Oak Creek","WI","Plaza Motel","8151 S 57th St","53132",42.9260875,-87.9374712
"53154","Oak Creek","WI","Rockit fitness","924 Milwaukee Ave","53172",42.910922,-87.85986700000001
"53156","Palmyra","WI","Palmyra-Eagle High School","123 Burr Oak St","53156",42.87360476316345,-88.59248970121428
"53168","Salem","WI","Jons Gym","not_available","53168",42.54442596435547,-88.13359832763672
"53168","Salem","WI","Snap Fitness","25360 75th St","53168",42.569522977776195,-88.1159026008331
"53168","Salem","WI","Snap Fitness","7353 256th Ave Ste 150","53168",42.5696497,-88.1161932
"53177","Sturtevant","WI","YMCA","8501 Campus Dr","53406",42.723765949213806,-87.89161523856103
"53177","Sturtevant","WI","Diversey Fitness Center","8310 16th St Fl 1","53177",42.716861724853516,-87.88680267333984
"53179","Trevor","WI","Snap Fitness","12033 Antioch Rd","53179",42.50365652455477,-88.09512600302696
"53179","Trevor","WI","The Gorrila Cage","not_available","53179",42.503573,-88.094965
"53181","Twin Lakes","WI","Wilmot Fitness Center","11112 308th Avenue","53105",42.515167236328125,-88.18525695800781
"53182","Union Grove","WI","Envy All-star Cheer","20715 Durand Ave Unit E","53182",42.6800422668457,-88.0690689086914
"53183","Wales","WI","Athletic Enhancement 2nd Hour","not_available","53183",43.009154,-88.378209
"53183","Wales","WI","Comfort Suites Fitness Center","not_available","53189",42.989459,-88.377482
"53184","Walworth","WI","MPC Fitness Center","800 Walworth St, Walworth, WI 53184","53184",42.538747162509885,-88.60386899622902
"53184","Walworth","WI","Anytime Fitness","541 Kenosha St. Unit C","53184",42.530682,-88.589835
"53184","Walworth","WI","Big Foot Recreation District","401 Devils Ln","53184",42.523406982421875,-88.59237670898438
"53185","Waterford","WI","Dr. Evil's Underground Fitness Center","not_available","53185",42.818603994819746,-88.17380993396654
"53186","Waukesha","WI","Anytime Fitness","2144 E Moreland Blvd","53186",43.02924,-88.18634
"53186","Waukesha","WI","Xperience fitness","120 E Sunset Dr","53189",42.9896707811728,-88.22591135083987
"53186","Waukesha","WI","Waukesha YMCA","320 E Broadway","53186",43.008072388402844,-88.21924578498347
"53186","Waukesha","WI","Waukesha Mixed Martial Arts","1111 S West Ave","53186",42.992261,-88.236305
"53186","Waukesha","WI","River's Edge Gym","W Main St","53186",43.0134996164431,-88.2273020696861
"53186","Waukesha","WI","Carroll University - YMCA","210 N Grand Ave","53186",43.004196,-88.23224599999999
"53186","Waukesha","WI","Winner's Edge Sports Performance","Foster Court","53186",43.038042,-88.203792
"53186","Waukesha","WI","NX Level","W229 N1687 Westwood Dr, Waukesha, WI 53186","53186",43.055069024410095,-88.20415473582518
"53186","Waukesha","WI","Sky Zone Indoor Trampoline Park - Milwaukee","W 229 N1420 Westwood Dr","53186",43.050827,-88.206194
"53188","Waukesha","WI","Basement/ Workout Area","not_available","53188",43.039081,-88.258189
"53188","Waukesha","WI","Waukesha North Weight Room","2222 Michigan Ave","53188",43.01895523071289,-88.26425170898438
"53188","Waukesha","WI","Don's GYM","xxxxx","53188",43.01253566866227,-88.26345819646944
"53189","Waukesha","WI","CrossFit Waukesha","200 Travis Ln","53189",42.976143,-88.228137
"53189","Waukesha","WI","Kendal Hills Gym","River Place Blvd","53189",42.975011194336204,-88.25201873290312
"53190","Whitewater","WI","Anytime Fitness","1139 W. Main St","53190",42.83445,-88.75043
"53190","Whitewater","WI","CrossFit Fort Atkinson","1525 Summit Dr, Fort Atkinson, WI 53538","53538",42.9059268458778,-88.84847290955388
"53190","Whitewater","WI","Snap Fitness","327 W Center St","53190",42.83272251089494,-88.7346122695143
"53202","Milwaukee","WI","Wisconsin Athletic Club","411 E Wisconsin Ave","53202",43.03842057533651,-87.90590212062612
"53202","Milwaukee","WI","Gold's Gym","731 N Water St Ste M100","53202",43.039487117676366,-87.90962079493882
"53202","Milwaukee","WI","Orangetheory Fitness","336 N Milwaukee St","53202",43.03507189271076,-87.90606451739107
"53202","Milwaukee","WI","Landmark On The Lake","1660 N Prospect Ave","53202",43.05190557750624,-87.89136765163654
"53202","Milwaukee","WI","The Blackstone Gym","1130 N Van Buren St","53202",43.0457225889032,-87.90319526156053
"53202","Milwaukee","WI","Workout Boss","270 E Highland Ave","53202",43.04537361629594,-87.90905091432943
"53202","Milwaukee","WI","Kern Center","1245 N Broadway","53202",43.04663786418926,-87.9088795052333
"53202","Milwaukee","WI","Invivo Wellness","2060 North Humboldt Avenue","53212",43.0576359,-87.8975772
"53202","Milwaukee","WI","YogaSix","2227 N Prospect Ave","53202",43.05941761594528,-87.88492171065775
"53202","Milwaukee","WI","Fitness Center @ Intercontinental Hotel Milwaukee","117-199 W Kilbourn St","53202",43.0420974318065,-87.91055516686254
"53202","Milwaukee","WI","Anytime Fitness","2170 Farwell Ave","53202",43.05884,-87.88651
"53202","Milwaukee","WI","Anytime Fitness","1555 N Water St","53202",43.04993,-87.90767
"53202","Milwaukee","WI","B-Fit MKE","219 N Milwaukee St. 1st floor, Phoenix Building","53202",43.03306690494749,-87.90606181762826
"53202","Milwaukee","WI","Fitness Center","E Mason St, Milwaukee, WI 53202","53202",43.04018622795159,-87.9013096573106
"53202","Milwaukee","WI","Schlitz Park RiverCenter Fitness Center","1555 N Rivercenter Dr","53212",43.05064010620117,-87.91024780273438
"53202","Milwaukee","WI","Castings Place Gym","not_available","53204",43.03006775245253,-87.90964486635262
"53202","Milwaukee","WI","Fitness Together","411 E Menomonee St.","53202",43.0314049220798,-87.9054887260327
"53202","Milwaukee","WI","Teweles Gym","222 S 3rd St","53204",43.028724670410156,-87.9135971069336
"53202","Milwaukee","WI","DoMUS Fitness Center","441 E Erie St","53202",43.02918,-87.904978
"53202","Milwaukee","WI","Fitness Center","Schlitz Park","53212",43.050914,-87.910381
"53202","Milwaukee","WI","Jackson Square Gym","159 N Jackson St","53202",43.03217315673828,-87.90370178222656
"53202","Milwaukee","WI","Smuch-Out Room","2344 E Back Bay St","53202",43.05606460571289,-87.8805923461914
"53202","Milwaukee","WI","Mount The Deaf Rooster's Gym","1661 N Arlington Pl","53202",43.052608489990234,-87.89584350585938
"53202","Milwaukee","WI","Fitness Center at 1000 N. Water","1000 N Water St, Milwaukee, WI 53202","53202",43.04363250732422,-87.91021728515625
"53203","Milwaukee","WI","Intercontental Gym And Fitness Center","not_available","53203",43.03826177713803,-87.91494218634475
"53203","Milwaukee","WI","Aloft Workout Room","1230 N Old World 3rd St","53212",43.04620361328125,-87.91397857666016
"53203","Milwaukee","WI","City Hall Square Fitness Room","104 E Mason St","53202",43.040069580078125,-87.91020965576172
"53203","Milwaukee","WI","Downtown YMCA","161 W Wisconsin Ave","53203",43.03822733017166,-87.9122088597175
"53203","Milwaukee","WI","TWC Gym","Here","53212",43.04748310810669,-87.91342289303626
"53203","Milwaukee","WI","Extendicare Fitness Center","111 W Michigan St, Milwaukee, WI 53203","53203",43.036922454833984,-87.91056823730469
"53203","Milwaukee","WI","Kaizen Studio's","Milwaukee center","not_available",43.042681,-87.910414
"53203","Milwaukee","WI","Ascent Gym","1034 N 4th St","53203",43.04378456113259,-87.91589525417201
"53203","Milwaukee","WI","Library Hill Fitness Center","740 W Wisconsin Ave","53233",43.03918505889214,-87.92064592241516
"53203","Milwaukee","WI","The Loft Workout Room","not_available","53233",43.034922107271605,-87.91374483616472
"53203","Milwaukee","WI","Grand Wisconsin Gym","720 N Old World 3rd St","53203",43.03926290398154,-87.91467091735699
"53203","Milwaukee","WI","Boston Lofts Fitness Center","630 N 4th St","53203",43.03813899,-87.91570875000001
"53203","Milwaukee","WI","Park East Fitness Center","1407 N Dr Martin Luther King Dr","53212",43.04880041565956,-87.91458351379076
"53203","Milwaukee","WI","Michael S. Wolke Gym","821 W State St","53233",43.04252243041992,-87.9223403930664
"53204","Milwaukee","WI","Rockwell Automation Gym","1201 S 2nd St","53204",43.01740986977122,-87.91215470557098
"53204","Milwaukee","WI","Como","126 E Mineral St","53204",43.02142190000001,-87.91046519999999
"53204","Milwaukee","WI","Iron Horse Hotel Gym","500 W Florida St","53204",43.027606,-87.917237
"53204","Milwaukee","WI","The K.A.C.","S. 18th St.","53204",43.01798506778381,-87.93553159053972
"53204","Milwaukee","WI","Ellipse Fitness (Third Ward)","591 E Erie St","53202",43.026873385000755,-87.90238028498644
"53204","Milwaukee","WI","MISPIBO Small-Group Personalized Training","219 N Milwaukee St","53202",43.03320206959552,-87.90595742292601
"53204","Milwaukee","WI","IMPACT Milwaukee Cross-Training","706 S 5th St","53204",43.02501370000215,-87.91522091604267
"53204","Milwaukee","WI","Race Start","2018 S 1st St #160","53207",43.007475392386986,-87.91076515752499
"53204","Milwaukee","WI","IMPACT MKE","317 N Broadway","53202",43.03429412841797,-87.90771484375
"53204","Milwaukee","WI","BrewCity CrossFit","1539 W Saint Paul Ave","53233",43.027430047524504,-87.91574156116317
"53204","Milwaukee","WI","The Barre Code","225 N Water St","53202",43.033125863791255,-87.90933103435378
"53204","Milwaukee","WI","Gym @ South Water Works","235 E Pittsburgh Ave","53204",43.028501,-87.908462
"53204","Milwaukee","WI","Impact Ultra Fitness LLC","173 N Milwaukee St","53202",43.03221893310547,-87.90586853027344
"53205","Milwaukee","WI","Northside YMCA","1350 W North Ave","53205",43.060766191562834,-87.92948845538733
"53205","Milwaukee","WI","Pumpin Iron In The Northside Weight Room","1350 W North Ave, Milwaukee, WI 53206","53206",43.061126708984375,-87.92923736572266
"53205","Milwaukee","WI","Pabst Gym","901 W Winnebago St","53205",43.04704332111528,-87.92346102192573
"53206","Milwaukee","WI","Zumba/J.D./M.J.E Studio","not_available","53206",43.07737597965745,-87.92075606296895
"53206","Milwaukee","WI","COA Center","2320 W Burleigh St","53206",43.075234402739696,-87.94175215872023
"53207","Milwaukee","WI","Sweeney's Gym","5311 S Howell Ave","53207",42.94844095345807,-87.90999215714123
"53207","Milwaukee","WI","Beulah Brinton Recreation Center","2555 S Bay St","53207",42.9985112010428,-87.89455630301933
"53207","Milwaukee","WI","Fitness Asylum","2612 S Greeley St","53207",42.99623512779467,-87.90919053559331
"53207","Milwaukee","WI","AMC Boxing Gym","2612 S Greeley St Ste 124","53207",42.9967384,-87.9091114
"53207","Milwaukee","WI","Bay View Fitness","2121 S Kinnickinnic Ave","53207",43.00629317193871,-87.9076450666424
"53207","Milwaukee","WI","Barre District","2121 S Kinnickinnic Ave #5","53207",43.006217717354026,-87.90689778507749
"53207","Milwaukee","WI","Snap Fitness","2450 S Kinnickinnic Ave","53207",43.000126790694885,-87.90173512111365
"53207","Milwaukee","WI","Futen Dojo","2234 S Kinnickinnic Ave","53207",43.003644,-87.904528
"53207","Milwaukee","WI","Fuel Up. GO! Fitness & Nutrition","3550 E Sivyer Ave","53235",42.97572385343969,-87.86048617758111
"53207","Milwaukee","WI","Curves","2869 S Kinnickinnic Ave","53207",42.991728,-87.889285
"53207","Milwaukee","WI","Cow Cardio Center","2615 S Greeley St, Milwaukee, WI 53207","53207",42.99630355834961,-87.90945434570312
"53207","Milwaukee","WI","MCC  (Bay View Park)","3500 S Lake Dr","53235",42.982516698191674,-87.86472178494363
"53207","Milwaukee","WI","Crossfit Firebreathers","450 E Alvina Ave","53207",42.93174743652344,-87.90416717529297
"53207","Milwaukee","WI","Brickyard Gym","2651 S Kinnickinnic Ave","53207",42.99657628294531,-87.89834045576838
"53208","Milwaukee","WI","Barre District","5211 W North Ave","53208",43.06040954589844,-87.979248046875
"53208","Milwaukee","WI","Millercoors Corporate Fitness Center","3939 W Highland - Basement","not_available",43.04417559337761,-87.96254785382378
"53208","Milwaukee","WI","Garfield Gym","not_available","53208",43.059674234175134,-87.9525561651538
"53208","Milwaukee","WI","Excel","6014 W Vliet St","53213",43.050296783447266,-87.9880142211914
"53208","Milwaukee","WI","Donkey Kong Fitness Center","Martin Drive Neighborhood","not_available",43.04761110323094,-87.96931581547686
"53208","Milwaukee","WI","Qualls Gym","2209 N 54th St, Milwaukee, WI 53208","53208",43.059547424316406,-87.98115539550781
"53208","Milwaukee","WI","Community Care Gym","3220 W Vliet St","53208",43.049115605793396,-87.95314475366462
"53209","Milwaukee","WI","Snap Fitness","4301 W Bradley Rd","53223",43.16291836309749,-87.9653065656894
"53209","Milwaukee","WI","Elite Sports Clubs-River Glen","2001 W Good Hope Rd","53209",43.147536093161385,-87.935244217515
"53209","Milwaukee","WI","Top Line Gym","2012 W Bender Rd","53209",43.131313666735636,-87.93638174331903
"53209","Milwaukee","WI","Elite Sports Clubs-North Shore","5750 N Glen Park Rd","53209",43.12259651720524,-87.9312390089035
"53209","Milwaukee","WI","Rite-Hite Family YMCA","9250 N Green Bay Rd","53209",43.18577321753769,-87.95997079925056
"53209","Milwaukee","WI","Elite Sports Club-River Glen","2001 West Good Hope Road","53209",43.1475623,-87.9355963
"53209","Milwaukee","WI","Body Activation","6797 N Green Bay Ave","53209",43.140332,-87.932254
"53209","Milwaukee","WI","The White Table","not_available","53224",43.13310401116333,-87.95021298695178
"53209","Milwaukee","WI","Four Points By Sheraton Milwaukee Fitness Center","8900 N Kildeer Ct","53209",43.17995071411133,-87.95825958251953
"53209","Milwaukee","WI","cream city boxing","5246 N 35th St","53209",43.113058,-87.956152
"53209","Milwaukee","WI","Johnson Controls Fitness Center","5757 N Green Bay Ave","53209",43.124340378333976,-87.93784955211294
"53209","Milwaukee","WI","White Oaks Rec/Gym","N White Oak Ln","53217",43.181181,-87.918529
"53209","Milwaukee","WI","Parklawn Ymca","4340 N 46th St","53216",43.09630356729589,-87.97013868895124
"53209","Milwaukee","WI","FIS Gym","not_available","53223",43.179128444291344,-87.97155839939151
"53209","Milwaukee","WI","YMCA Steam Room","Brown Deer, WI","53209",43.185680272700125,-87.95989621726163
"53210","Milwaukee","WI","Club De Sante","3000 N 54th St","53210",43.07449399026271,-87.98110004691009
"53210","Milwaukee","WI","Workout Zone 34","not_available","53210",43.07502047913999,-87.98995527122123
"53210","Milwaukee","WI","Badger Personal Training","2537 N 62nd St","53213",43.065168,-87.990059
"53210","Milwaukee","WI","Curves","5324 W Burleigh St","53210",43.07548,-87.98044300000001
"53210","Milwaukee","WI","Snap Fitness","7226 W North Ave","53213",43.0608549281265,-88.00296881638356
"53210","Milwaukee","WI","Next Level Fitness Gym","not_available","53213",43.065124,-87.989953
"53211","Milwaukee","WI","Anytime Fitness","4009 N Oakland","53211",43.08949,-87.88779
"53211","Milwaukee","WI","Curves","4010 N Oakland Ave","53211",43.08953857421875,-87.8871078491211
"53211","Milwaukee","WI","East Side Turners","2319 E Kenwood Blvd","53211",43.074295,-87.881134
"53211","Milwaukee","WI","Superb Health","2225 N Humboldt Blvd","53212",43.05961990356445,-87.89835357666016
"53211","Milwaukee","WI","Shorewood Fitness Center","1701 E Capitol Dr","53211",43.08707668438929,-87.88811758370946
"53211","Milwaukee","WI","Milwaukee Adventure Boot Camp, Bradford Beach","2400 N Lincoln Memorial Dr","53211",43.0581169128418,-87.8765640258789
"53211","Milwaukee","WI","Legacy Of Shorewood Fitness Room","3710 N Oakland Ave Fl 2","53211",43.08555603027344,-87.88710021972656
"53211","Milwaukee","WI","Cambridge Commons Fitness Center","2323 N Cambridge Ave","53211",43.06085968017578,-87.89203643798828
"53211","Milwaukee","WI","Sals Gym","2500 - 2600","53212",43.064023999999996,-87.90144599999999
"53211","Milwaukee","WI","Union Point Gym","2080 N Commerce St","53212",43.05793372347283,-87.89875557405219
"53211","Milwaukee","WI","Mispibo SGPT","3575 N Oakland Ave","53211",43.08359146118164,-87.88798522949219
"53211","Milwaukee","WI","Crossfit Milwaukee","817 E Vienna","not_available",43.08583617210388,-87.90039
"53211","Milwaukee","WI","Denmark fitness","3203 N Humboldt Blvd, Milwaukee, WI 53212","53212",43.07670593261719,-87.89804077148438
"53211","Milwaukee","WI","Adventure Rock Climbing and Fitness","2220 N Commerce St","53212",43.059982,-87.895023
"53211","Milwaukee","WI","Fitness Center at The Park 1824","1824 E Park Pl","53211",43.06793275761127,-87.88708831639883
"53211","Milwaukee","WI","Kenilworth Fitness Center","1915 E Kenilworth Pl","53202",43.05900955200195,-87.88601684570312
"53211","Milwaukee","WI","Slym Gym","720 E Capitol Dr","53212",43.089968,-87.90187900000001
"53211","Milwaukee","WI","F45 Training Milwaukee Lakefront","2636 N Downer Ave","53211",43.066904,-87.877858
"53211","Milwaukee","WI","CrossFit Milwaukee","811 E Vienna Ave","53212",43.08555221557617,-87.9005355834961
"53212","Milwaukee","WI","YMCA","1915 N Dr Martin Luther King Dr","53212",43.055295078911016,-87.9143004106348
"53212","Milwaukee","WI","workout room","not_available","53212",43.0663402838305,-87.91732658346771
"53212","Milwaukee","WI","Balance Fitness and Wellness LLC","4170 N Port Washington Rd","53212",43.09225,-87.914935
"53212","Milwaukee","WI","Empire Gym","1041 E Knapp St","53202",43.046617,-87.898333
"53212","Milwaukee","WI","Mini Gym","1501 N Farwell Ave","53202",43.04996109008789,-87.89563751220703
"53213","Milwaukee","WI","Wisconsin Athletic Club","8700 W Watertown Plank Rd","53226",43.04629737789882,-88.02181023376029
"53213","Milwaukee","WI","Anytime Fitness","8901 W North Ave","53226",43.0603539,-88.024114
"53213","Milwaukee","WI","Tonkens Exercise Center","8701 W Watertown Plank Rd","53226",43.04414532235057,-88.02148929979752
"53213","Milwaukee","WI","Duke Roufus Martial Arts Academy","320 N 76th St","53213",43.034577252081505,-88.00739473259324
"53213","Milwaukee","WI","Fitpower LLC","9203 W Bluemound Rd","53226",43.035593,-88.027671
"53213","Milwaukee","WI","Orangetheory Fitness","7498 W State St","53213",43.049357,-88.006138
"53214","Milwaukee","WI","DC Hybrid Skating","500 S 84th St","53214",43.025587,-88.015726
"53214","Milwaukee","WI","WAFD Administration Workout Room","not_available","53214",43.01233088999109,-88.00443213053262
"53214","Milwaukee","WI","Quad Fitness","555 S 108th St","53214",43.0251303950532,-88.04875711994872
"53214","Milwaukee","WI","The Summit Spa","6737 W Washington St","53214",43.01945114135742,-87.99556732177734
"53214","Milwaukee","WI","Charlie's Gym","1343 S 114th St, Milwaukee, WI 53214","53214",43.017276763916016,-88.05496215820312
"53214","Milwaukee","WI","Cams House","665-699 S 92nd St","53214",43.0239985,-88.0274054
"53214","Milwaukee","WI","Deke's Gym","1317 S 109th St","53214",43.017863631248474,-88.04867148399353
"53214","Milwaukee","WI","Bally Total Fitness","901 S 60th St","53214",43.022890666257,-87.98831196012277
"53214","Milwaukee","WI","Elliptical @ hersheys!","1601-1699 S 52nd St","53214",43.013310291830585,-87.97816877386043
"53214","Milwaukee","WI","9 Circles Of Alberto","Torture Chamber inside Bally","not_available",43.02292,-87.988799
"53214","Milwaukee","WI","Wisconsin Athletic Club","1939 S 108th St","53227",43.00905820661496,-88.04767467267864
"53215","Milwaukee","WI","MKE Fit","4308 W Forest Home Ave","53219",42.989070892333984,-87.96820068359375
"53215","Milwaukee","WI","Fitness Center","not_available","53219",42.9908332824707,-87.9701156616211
"53215","Milwaukee","WI","Mama's Sweat Factory","not_available","53215",43.0078,-87.952812
"53215","Milwaukee","WI","GE Gym (Electric Ave)","4855 W Electric Ave","53219",43.0047665575068,-87.97451051675519
"53215","Milwaukee","WI","Great Room","1600 W Oklahoma Ave","53215",42.98903,-87.934329
"53216","Milwaukee","WI","Strictly Fitness Personal Training Studio","6222 W Capitol Dr","53216",43.09030532836914,-87.99030303955078
"53216","Milwaukee","WI","Smith Workout Center","not_available","53218",43.100207948029045,-87.99047791017695
"53216","Milwaukee","WI","Morse•Marshall Weight Room","not_available","53216",43.0934194624305,-87.99423579832457
"53217","Milwaukee","WI","Home Gym","not_available","53217",43.12341254381591,-87.91124683552647
"53217","Milwaukee","WI","CrossFit 100","4927 N Lydell Ave","53217",43.1063978265155,-87.91201009646008
"53217","Milwaukee","WI","JCC Marcus Gym","6255 N Santa Monica Blvd","53217",43.13038635253906,-87.90736389160156
"53217","Milwaukee","WI","Wisconsin Athletic Club","7601 N Port Washington Rd","53217",43.155686543741076,-87.912979680963
"53217","Milwaukee","WI","Fitness Together - Whitefish Bay","615 E Silver Spring Dr","53217",43.118205748945755,-87.90268552761268
"53217","Milwaukee","WI","CrossFit Milwaukee","120 E Silver Spring Dr","53217",43.11912157556939,-87.90919629594796
"53217","Milwaukee","WI","St. John's Lutheran Church & School","7877 N Port Washington Rd","53217",43.16038315677215,-87.9123822809985
"53217","Milwaukee","WI","Pure Barre","418 E Silver Spring Dr","53217",43.118764,-87.90474499999999
"53217","Milwaukee","WI","Parkside at Estabrook Apartments Gym","4848 N Lydell Ave","53217",43.104681,-87.911099
"53217","Milwaukee","WI","Integra Physical Therapy & Personal Training","8677 N Port Washington Rd","53217",43.17461489649326,-87.91392823537332
"53217","Milwaukee","WI","All Around Sports Fitness","6270 N Port Washington Rd","53217",43.1309928894043,-87.91258239746094
"53217","Milwaukee","WI","Langley Jungle Hut Gym","616 E Bay Point Rd","53217",43.187306,-87.90029100000001
"53217","Milwaukee","WI","MPower Total Fitness","121 W Silver Spring Ave","not_available",43.118402469689386,-87.91040897369385
"53218","Milwaukee","WI","Direct Supply Building 10","Mill road","not_available",43.13394673384103,-87.99449874298242
"53219","Milwaukee","WI","Animal House Gym","2030 S 55th St","53219",43.007526254978906,-87.98137291550952
"53219","Milwaukee","WI","Average Joe's Gym","7515 W Oklahoma Ave","53219",42.986763,-88.006676
"53219","Milwaukee","WI","Peak Physique","8303 W Becher St","53219",43.006178999999996,-88.016325
"53220","Milwaukee","WI","Anytime Fitness","6015 W Forest Home Ave","53220",42.97557,-87.98865
"53221","Milwaukee","WI","St. Roman's Parish Gym","1710 W Bolivar Ave","53221",42.967186,-87.937125
"53221","Milwaukee","WI","Snap Fitness","1020 W Layton Ave","53221",42.95965210451027,-87.92568985588335
"53221","Milwaukee","WI","YMCA","3700 S 27th St","53221",42.977205,-87.94704300000001
"53221","Milwaukee","WI","Workout Room","3215 W Colony Dr","53221",42.96159362792969,-87.95553588867188
"53221","Milwaukee","WI","LVA Fitness Center","20th &  Layton","not_available",42.960866973644215,-87.94117526032267
"53222","Milwaukee","WI","Fuel Up. GO! Fitness & Nutrition","2885 N Mayfair Rd","53222",43.07095718383789,-88.04869842529297
"53222","Milwaukee","WI","Iron Fist Fitness","12040 W Feerick St Ste H","53222",43.08713912963867,-88.0625228881836
"53222","Milwaukee","WI","Fuel Up. GO! Fitness & Nutrition","W Herbert Ave.","53225",43.10365781666667,-88.02260668
"53222","Milwaukee","WI","Workout Zone 22","not_available","53222",43.08522033691406,-88.0317611694336
"53222","Milwaukee","WI","Briggs Work Out Center","3246-3330 N 124th St","53222",43.07839387906888,-88.06536525423803
"53222","Milwaukee","WI","Jinx's Gym","7800 W Lisbon Ave, Milwaukee, WI 53222","53222",43.07913589477539,-88.0101318359375
"53222","Milwaukee","WI","Fit Club Studio's","3900 N 102","not_available",43.08890373198847,-88.03925313113166
"53223","Milwaukee","WI","Direct Supply Fitness Center","6681 N Industrial Rd","53223",43.13893144250405,-87.99614689531288
"53223","Milwaukee","WI","Anytime Fitness","6817 W Brown Deer Rd","53223",43.17705,-87.99535
"53223","Milwaukee","WI","GE Healthcare Tower Ave Fitness Center","8200 W Tower Ave","53223",43.16612796645086,-88.0115772507141
"53224","Milwaukee","WI","Gym","11000 W Lake Park Dr","53224",43.160377502441406,-88.0478515625
"53224","Milwaukee","WI","Park Place 2 Fitness Room","10850 W Park Pl","53224",43.15024948120117,-88.0484390258789
"53224","Milwaukee","WI","applied ind","11411-11769 W Bradley Rd","53224",43.16189857,-88.05494469
"53226","Milwaukee","WI","YMCA","2420 N 124th St","53226",43.062243997083115,-88.06524871626459
"53226","Milwaukee","WI","GE Gym","9900 W Innovation Dr","53226",43.03959968472456,-88.03525687622724
"53226","Milwaukee","WI","CP Fitness Center","10499 W Innovation Dr","53226",43.044652,-88.046136
"53226","Milwaukee","WI","Fitness Together - Wauwatosa","2525 N Mayfair Rd","53226",43.064693,-88.04849399999999
"53227","Milwaukee","WI","Anytime Fitness","2229 S 108th St","53227",43.00331115722656,-88.0476303100586
"53227","Milwaukee","WI","Swiss Turners Gymnastics Academy","2214 S 116th St","53227",43.0040602574951,-88.05644944064666
"53227","Milwaukee","WI","Home Gym","not_available","53227",42.981482,-88.03823
"53227","Milwaukee","WI","Lincoln Crest Work Out Room","2054 S 102nd St","53227",43.007808685302734,-88.03858947753906
"53228","Milwaukee","WI","Planet Fitness","4478 South 108th Street","53228",42.9618568,-88.0457838
"53228","Milwaukee","WI","Southwest YMCA","11311 W Howard Ave","53228",42.97258093925132,-88.05519415285896
"53228","Milwaukee","WI","Lifeway Fittness","10777 W Beloit Rd","53228",42.975555,-88.046356
"53228","Milwaukee","WI","Piccadilly Fitness Center","10137 W Coldspring Rd","53228",42.96518779916598,-88.03967063691186
"53233","Milwaukee","WI","Dump Zone","928 N 15th St","53233",43.042328999999995,-87.931124
"53233","Milwaukee","WI","2040 Gym","2040 W Wisconsin Ave","53233",43.038891534343335,-87.93874214344028
"53235","Saint Francis","WI","Cousins Center","3501 S Lake Dr","53235",42.98113504041525,-87.86591565137388
"53402","Racine","WI","Flex Gym","2400 Rapids Dr","53404",42.74856700900902,-87.80973763421302
"53402","Racine","WI","Johnsonpoop Speedway","not_available","53402",42.80930186696174,-87.81134418235277
"53402","Racine","WI","Charter Fitness","Hwy 31","not_available",42.771367,-87.835879
"53402","Racine","WI","Badger Self Defense & Fitness","2226 Douglas Ave, Racine, WI 53402","53402",42.7493896484375,-87.7987289428711
"53403","Racine","WI","Razor Sharp Fitness","7300 Washington Ave","53406",42.719938223179994,-87.87189688755234
"53403","Racine","WI","Fortaleza Fitness Center","1525 Howe St","53403",42.71361541748047,-87.79093933105469
"53403","Racine","WI","Abs","not_available","53406",42.697074,-87.867974
"53403","Racine","WI","Cardinal Fitness","5513 Durand Ave","53406",42.69672907446461,-87.84603900602504
"53403","Racine","WI","My PT gym","not_available","53403",42.69161605834961,-87.81437683105469
"53403","Racine","WI","Starting Nine","6201 Regency West Dr","53406",42.701576232910156,-87.85614013671875
"53403","Racine","WI","Xperience Fitness","5409 Washington Ave.","53406",42.71723213984974,-87.84429656207365
"53403","Racine","WI","Racine Jazzercise Fitness Center","not_available","53405",42.71703239873081,-87.83834794414032
"53403","Racine","WI","Feuk's Fitness","1320 Warwick Way","53406",42.717750549316406,-87.86480712890625
"53403","Racine","WI","Charter Fitness","2323 S Green Bay Rd","53406",42.70280456542969,-87.85154724121094
"53403","Racine","WI","Burn Boot Camp","6500 Washington Ave","53406",42.72012,-87.8602
"53508","Belleville","WI","New Glarus Fitness Center","1100 2nd St","53574",42.809483101078804,-89.63498156466851
"53511","Beloit","WI","Beloit Barbell Club","1001-2407 E Philhower Rd","53511",42.56895840167999,-89.0105277299881
"53511","Beloit","WI","Kerry Gym","3400 Millington Rd","53511",42.525107,-88.971373
"53511","Beloit","WI","Stateline Family YMCA","1865 Riverside Dr","53511",42.52441244356519,-89.03352270283644
"53511","Beloit","WI","Hampton Inn Fitness Center","not_available","53511",42.522652,-88.985415
"53511","Beloit","WI","Fairfield Inn Gym","Fairfield Inn & Suites Beloit","53511",42.52326969754861,-88.98361828507828
"53511","Beloit","WI","Planet Fitness","1827 Prairie Ave","53511",42.52395131692118,-89.01212046078263
"53511","Beloit","WI","Anytime Fitness","2240 Prairie Ave Northgate Plz Units 18-23","53511",42.53401,-89.01311
"53511","Beloit","WI","crosffit beloit","302 State St","53511",42.499266999999996,-89.036187
"53511","Beloit","WI","Elite Fitness Studio","2958 S Prairie Ave","53511",42.55230712890625,-89.01232147216797
"53511","Beloit","WI","Crossfit Trainer Scott Thiele","prarie ave","53511",42.56881329410169,-89.01048520199674
"53518","Blue River","WI","Strech Fitness Center / Women","Salmeyah","54655",43.306554,-90.64712
"53520","Brodhead","WI","Brodhead Health & Fitness Center","804 23rd St","53520",42.6079216003418,-89.37509155273438
"53527","Cottage Grove","WI","Anytime Fitness","203 W Cottage Grove Rd","53527",43.08748,-89.20027
"53527","Cottage Grove","WI","Matrix Showroom","1600 Landmark Dr","53527",43.106165999999995,-89.195246
"53527","Cottage Grove","WI","Snap Fitness","435 W Oak St","53527",43.08790336,-89.20905913
"53528","Cross Plains","WI","Snap Fitness","34 Glaciers Edge Square","53528",43.111257426530784,-89.64242571296775
"53528","Cross Plains","WI","Functional Hypertrophy Training","not_available","53562",43.075555,-89.557063
"53528","Cross Plains","WI","The Weight Room","707.5 Greystone Lane #2b","not_available",43.07731932211749,-89.55547719204557
"53529","Dane","WI","Anytime Fitness","604 E Main St","53597",43.19147,-89.44605
"53531","Deerfield","WI","1/2 Assed Ranch - Gym","not_available","53531",43.08040068,-89.09858985
"53532","Deforest","WI","Anytime Fitness","2071 McCoy Rd","53590",43.17428,-89.24901
"53532","Deforest","WI","track","not_available","53590",43.17284725303011,-89.2457977071366
"53532","Deforest","WI","Edge Fitness","3140 Edmonton Dr","53590",43.18873977661133,-89.27855682373047
"53532","Deforest","WI","Anytime Fitness","615 S Main St","53532",43.24125,-89.3425
"53532","Deforest","WI","Orangetheory Fitness","1261 Cabela Dr","53590",43.16532120000001,-89.27125529999999
"53532","Deforest","WI","Martial Arts Waunakee","Quinn Dr","53597",43.181240940140896,-89.43089962005615
"53532","Deforest","WI","Pump Gym","not_available","53598",43.18003911612933,-89.32618605452917
"53532","Deforest","WI","Fit Fun Boot Camp","1351 Linnerud","53590",43.242008209228516,-89.24273681640625
"53532","Deforest","WI","Sassy","not_available","53597",43.184186808129645,-89.44929315390088
"53532","Deforest","WI","Fitness for success","Industrial park","not_available",43.17158603775343,-89.41749417448014
"53532","Deforest","WI","Everlasting Transformations","1777 W Main St","53590",43.177254,-89.243288
"53532","Deforest","WI","Cola's gym","not_available","53532",43.24145328492165,-89.33038283596535
"53532","Deforest","WI","Snap Fitness","813 W Mohawk Trail","53532",43.24522018432617,-89.36018371582031
"53533","Dodgeville","WI","Lands' End Activity Center","1 Lands End Ln","53595",42.9775505065918,-90.14329528808594
"53533","Dodgeville","WI","Comer Center","3 Lands' End Lane","53533",42.97822304659263,-90.13904795579455
"53533","Dodgeville","WI","Anytime Fitness","401 N Iowa St","53533",42.96277,-90.12991
"53534","Edgerton","WI","Sara's Health & Fitness","121 N Henry St","53534",42.835233910798564,-89.06939831590985
"53534","Edgerton","WI","Innisfallen Gym","Malton Hotel","53534",42.842839,-89.002137
"53534","Edgerton","WI","Anytime Fitness","121 W Fulton St","53534",42.83404,-89.07114200000001
"53536","Evansville","WI","Anytime Fitness","821 Brown School Rd","53536",42.77837,-89.26598
"53538","Fort Atkinson","WI","Anytime Fitness","308 Washington St","53538",42.9307,-88.83897
"53538","Fort Atkinson","WI","Workout Haven","not_available","53538",42.911659240722656,-88.91999053955078
"53538","Fort Atkinson","WI","Blackhawk Fitness","1111 Madison Ave","53538",42.934920871239584,-88.85204379955046
"53538","Fort Atkinson","WI","Anytime Fitness","850 E Reinel St","53549",43.00427,-88.78818
"53545","Janesville","WI","Janesville Athletic Club","1301 Black Bridge Rd","53545",42.70524310642348,-89.00775541550813
"53545","Janesville","WI","Crossfit 608","545 N Main St","53545",42.68854522705078,-89.02861022949219
"53545","Janesville","WI","YMCA","119 W Court St","53548",42.68015670776367,-89.02423858642578
"53545","Janesville","WI","Wongs gym","3800 brunswick","not_available",42.69739098877789,-88.9886726391082
"53545","Janesville","WI","The Dungeon","not_available","53545",42.70359802246094,-88.99956512451172
"53545","Janesville","WI","Anytime Fitness","2600 Humes Rd Ste 190","53545",42.7170481,-88.9908766
"53545","Janesville","WI","SCC Fitness","105 W. Milwaukee St.","53548",42.6820094984767,-89.02500092983246
"53545","Janesville","WI","YMCA NE Janesville","2526 E Hwy 14","53546",42.71749687910377,-88.9914144370145
"53545","Janesville","WI","Anytime Fitness","2315 W Court St","53548",42.67927,-89.0487
"53545","Janesville","WI","Janesville Senior Center","1798 Center Ave","53546",42.68076872320554,-89.02134281200136
"53545","Janesville","WI","YMCA Northern Rock County","221 Dodge Street","53548",42.68082083674202,-89.02501115886241
"53546","Janesville","WI","Taebo","not_available","53546",42.64578066687957,-89.0223042678859
"53551","Lake Mills","WI","Snap Fitness","362 County Road V","53551",43.088338148914936,-88.8993395100822
"53551","Lake Mills","WI","Anytime Fitness","395 W Tyranena Park Rd","53551",43.093,-88.91438
"53558","Mcfarland","WI","Snap Fitness","5720 U.S. 51","53558",43.015533447265625,-89.30270385742188
"53558","Mcfarland","WI","Anytime Fitness","5802 Hwy 51","53558",43.01504,-89.30269
"53558","Mcfarland","WI","Chosen Few Gym","4720 McFarland Ct","53558",43.035736,-89.302364
"53558","Mcfarland","WI","Curves","Monona Drive","not_available",43.04906855249695,-89.32508814865436
"53558","Mcfarland","WI","CML Fitness","not_available","53718",43.02852188757042,-89.28239947367729
"53558","Mcfarland","WI","Princeton Club Xpress","5720 Hwy 51","53558",43.015395621716614,-89.30205221117923
"53558","Mcfarland","WI","McFarland Fire Department Weight Room","5915 Milwaukee St","53558",43.01311,-89.286878
"53558","Mcfarland","WI","Neuro Explosion - Performance Training","5014 Voges Rd","53718",43.041128,-89.29460999999999
"53559","Marshall","WI","Fitness Plus","not_available","53559",43.16751480102539,-89.06300354003906
"53561","Merrimac","WI","Impact Nutrition","1212 8th St","53913",43.473507,-89.72062199999999
"53561","Merrimac","WI","Snap Fitness 24-7","1001-1199 Wisconsin 33","53913",43.473507,-89.72062199999999
"53562","Middleton","WI","Anytime Fitness","1011 N Gammon Rd","53562",43.08424,-89.50154
"53562","Middleton","WI","CYCLEBAR","536 N. Midvale Bouleavard","53705",43.072336,-89.45322900000001
"53562","Middleton","WI","Princeton Club Xpress","625 N Segoe Rd","53705",43.0740235815666,-89.45613774442205
"53562","Middleton","WI","Carbon World Health","340 S Whitney Way Ste 100","53705",43.06146871377661,-89.47290572638929
"53562","Middleton","WI","FXB","202 S Gammon Rd","53717",43.064186096191406,-89.50394439697266
"53562","Middleton","WI","Gym","6767 Frank Lloyd Wright Ave","53562",43.108573,-89.498784
"53562","Middleton","WI","Wexford Gym","High Point Rd.","53717",43.082044,-89.52068
"53562","Middleton","WI","L.I.F. Training","8233 Forsythia St","53562",43.10894775390625,-89.52581024169922
"53562","Middleton","WI","Orange Shoe Personal Fitness","601 Junction Rd","53717",43.073111255979256,-89.52509551223977
"53562","Middleton","WI","Athena Building Fitness Facility","901 Deming Way","53717",43.079159000000004,-89.531819
"53562","Middleton","WI","WisDOT Exercise Room","not_available","53705",43.07427215576172,-89.46073913574219
"53562","Middleton","WI","Workout Room at Overlook","Overlook","53558",43.07466664804939,-89.45665480763796
"53562","Middleton","WI","Greenbriar Gym","not_available","53717",43.06203419157056,-89.5140365132933
"53562","Middleton","WI","Snap Fitness","737 University Row","53705",43.09682591406369,-89.50110935265295
"53562","Middleton","WI","Curves","6630 Mineral Point Rd","not_available",43.0618946810227,-89.49613769433633
"53562","Middleton","WI","Vitality Fitness Center","3001 Deming Way","53562",43.1055793762207,-89.51839447021484
"53562","Middleton","WI","Harbor Athletic Club","2529 Allen Blvd","53562",43.102858,-89.48554299999999
"53562","Middleton","WI","Horizon Health and Fitness","8383 Murphy Dr","53562",43.097714,-89.527182
"53563","Milton","WI","Kara's Kick-ass Basement Gym","not_available","53563",42.8060593065415,-88.92096877098083
"53563","Milton","WI","Anytime Fitness","679 S Janesville St","53563",42.77474,-88.93886
"53563","Milton","WI","Milton YMCA","701 S Janesville St","53563",42.77001953125,-88.93819427490234
"53566","Monroe","WI","Green County YMCA","1307 2nd St","53566",42.61163197269623,-89.64272092217658
"53566","Monroe","WI","Zumba","not_available","53566",42.60169,-89.64228
"53566","Monroe","WI","Anytime Fitness","301 6th Ave W Ste 107","53566",42.60888,-89.66682
"53572","Mount Horeb","WI","Snap Fitness","616 Vicki Ln","53572",43.015978000000004,-89.717454
"53572","Mount Horeb","WI","Anytime Fitness","1209 Springdale St","53572",43.00603,-89.72983
"53572","Mount Horeb","WI","Bootz Camp","not_available","53572",43.00166757454983,-89.73198733137119
"53573","Muscoda","WI","Anytime Fitness","100 Richland Square","53581",43.317299,-90.361777
"53573","Muscoda","WI","Symon's Recreation Complex","1250 us 14","53581",43.34600013722129,-90.39975612995194
"53573","Muscoda","WI","Fitness 14","suite 110 richland square","53581",43.31918752481731,-90.36653510931176
"53575","Oregon","WI","The Zone","280 W Netherwood St","53575",42.93585277457717,-89.38714010851349
"53575","Oregon","WI","Anytime Fitness","845 Market St Unit 2","53575",42.93917,-89.3859
"53575","Oregon","WI","The Farm Gym","not_available","53575",42.925132,-89.373664
"53575","Oregon","WI","The Little Gym","2690 Research Park Dr","53711",43.00056774451336,-89.42514269029962
"53578","Prairie Du Sac","WI","Snap Fitness","934 Water St","53583",43.27010405843593,-89.72257345646247
"53578","Prairie Du Sac","WI","ZeFit","649 Water St","53578",43.292353999999996,-89.722592
"53578","Prairie Du Sac","WI","Nic's Gym","576 Park Ave","53578",43.291569,-89.72171999999999
"53578","Prairie Du Sac","WI","Anytime Fitness","1400 Prairie St","53578",43.29333,-89.73594
"53588","Spring Green","WI","Spring into motion","335 E Monroe St","53588",43.178133,-90.06443900000001
"53588","Spring Green","WI","Lexington Fitness","136 N Lexington St","53588",43.1774,-90.068516
"53589","Stoughton","WI","Anytime Fitness","2300 US Hwy 51 Ste. A","53589",42.91874,-89.24873
"53589","Stoughton","WI","Stoughton wellness center","not_available","53589",42.91939730077715,-89.24797924614681
"53589","Stoughton","WI","Navitas","2300 US Highway 51 - 138","53589",42.91925112760213,-89.24750117426443
"53589","Stoughton","WI","iLoveKickboxing.com","2125 McComb Rd","53589",42.917521,-89.247364
"53589","Stoughton","WI","Capital Volleyball Academy","138 U.S. 51","53589",42.919229227328756,-89.24773789017489
"53589","Stoughton","WI","www.mystudio365.com","209","53589",42.91732041587889,-89.2203671396246
"53590","Sun Prairie","WI","Prairie Athletic Club","1010 N Bird St","53590",43.19451075676703,-89.22387831629747
"53590","Sun Prairie","WI","YMCA Dane County - Northeast","1470 Don Simon Dr","53590",43.16090853637046,-89.26281162397494
"53590","Sun Prairie","WI","T-Wall Fitness Center","2418 Crossroads Dr","53718",43.13134765625,-89.29100036621094
"53590","Sun Prairie","WI","Kinema Fitness at the Park at High Crossing","2323 Crossroads Dr","53718",43.13084030151367,-89.28900909423828
"53590","Sun Prairie","WI","FMG Worldwide","5315 Wall St #270","53718",43.13175964355469,-89.28948974609375
"53590","Sun Prairie","WI","Gym At The Fairfield Inn - East Side","2702 Crossroads Dr","53718",43.133480072021484,-89.29119110107422
"53590","Sun Prairie","WI","50Twenty Fitness Center","5020 Pendleton Dr","53718",43.153648376464844,-89.28392028808594
"53590","Sun Prairie","WI","Snap Fitness","365 E Linnerud Dr","53590",43.18119689917677,-89.21004652997807
"53590","Sun Prairie","WI","Fit Fun Bootcamp - Madison","Burke Park","not_available",43.14774,-89.265725
"53590","Sun Prairie","WI","Custom Fitness Specialists","5353 Maly Rd Ste D","53590",43.14070542623876,-89.26234661244501
"53593","Verona","WI","Orangetheory Fitness","7803 Mineral Point Rd","53717",43.0600928104916,-89.51870986795375
"53593","Verona","WI","The Humble Fitness Center","Anton Drive","53719",43.024454219613105,-89.47172302858506
"53593","Verona","WI","Studio 11 ""Total Body Fitness""","6602 Grand Teton Plz #150","53719",43.059982,-89.495223
"53593","Verona","WI","Crossfit Adept","1155 Clarity Street Suite 201","53593",42.975364685058594,-89.50480651855469
"53593","Verona","WI","Certco Workout Room","not_available","53711",43.01717281979425,-89.47130300542266
"53593","Verona","WI","UW Health Princeton Club West Rehab Services","8042 Watts Rd","53719",43.055149,-89.519138
"53593","Verona","WI","Midtown Terrace Gym","not_available","53719",43.03734481586755,-89.52450440604551
"53593","Verona","WI","The Gym","not_available","53593",43.03067340082947,-89.54721254447772
"53593","Verona","WI","Functional Integrated Training","5380 King James Way Ste A1","53719",43.01733585192417,-89.47294231677733
"53593","Verona","WI","YMCA West","5515 Medical Cir","53719",43.04777126419481,-89.47440618705092
"53593","Verona","WI","Mirabel Workout Room","8001 Ritz Dr","53719",43.033413,-89.524187
"53593","Verona","WI","Crossfit Imperium","6721 Seybold Rd","53719",43.051344,-89.499496
"53593","Verona","WI","Athletic Republic","411 Prairie Heights Dr","53593",42.9739,-89.52669399999999
"53593","Verona","WI","Jazzercise - Fred Astaire Dance Studio","7701 Mineral Point Rd","53717",43.060115814208984,-89.51620483398438
"53593","Verona","WI","Maple Grove Apartment Workout Center","3019 Maple Valley Dr","53719",43.01727884182691,-89.49716768588837
"53593","Verona","WI","Farrell's Extreme Bodyshaping - West","706 S Gammon Rd","53719",43.049344,-89.503999
"53593","Verona","WI","Plaza West Fitness Center","502 Plaza Dr","53719",43.05492388311815,-89.52611769056654
"53594","Waterloo","WI","Curves","not_available","53594",43.184165954589844,-88.9907455444336
"53594","Waterloo","WI","Waterloo Fitness Center","813 N Monroe St, Waterloo, WI 53594","53594",43.19289016723633,-88.9916763305664
"53597","Waunakee","WI","Warner Park Community Recreation Center","1625 Northport Dr","53704",43.13154877442417,-89.36929102503504
"53703","Madison","WI","CYCLEBAR","1018 E Washington Ave","53703",43.0842452,-89.3714414
"53703","Madison","WI","Capital Fitness","15 N Butler St","53703",43.07700062770313,-89.3815641381249
"53703","Madison","WI","Septi fitness","not_available","53715",43.07348572819002,-89.38586784477101
"53703","Madison","WI","Cap Gym","not_available","53703",43.07309183192648,-89.39047704394032
"53703","Madison","WI","Snap Fitness","2045 Atwood Ave","53704",43.092046301989626,-89.35410069979822
"53703","Madison","WI","hampton inn & suites madison gym","440 W Johnston St","not_available",43.07262519443003,-89.39357328846958
"53703","Madison","WI","Dance Fabulous","401 N Lake St","53715",43.07353973388672,-89.39720153808594
"53703","Madison","WI","Capitol West Gym","309 W Washington Ave","53703",43.072003,-89.38709
"53703","Madison","WI","CrossFit Recursive","600 Williamson St Ste K2","53703",43.076574767715776,-89.37430166962577
"53703","Madison","WI","Orange Shoe Personal Fitness","1 E Main St","53703",43.07366845738589,-89.38249104222248
"53703","Madison","WI","Metropolitan Place Gym","360 W Washington Ave Fl 4","53703",43.07212,-89.388428
"53703","Madison","WI","Monkey Bar Gym","1876 E Washington Ave","53704",43.092375,-89.36100400000001
"53703","Madison","WI","Pinnacle Health And Fitness","44 E Mifflin St.","53703",43.07648403877678,-89.38431790880736
"53703","Madison","WI","Orange Shoe Personal Fitness World Headquarters","613 Williamson St Ste 200A","53703",43.07581329345703,-89.37458038330078
"53703","Madison","WI","Melt Studio","202 State St Ste 303","53703",43.07502746582031,-89.38829040527344
"53704","Madison","WI","Planet Fitness","89 E Towne Mall","53704",43.1244157,-89.3061233
"53704","Madison","WI","Goodman Community Center","149 Waubesa St","53704",43.09679510018332,-89.34375606140159
"53704","Madison","WI","Anytime Fitness","1193 N Sherman Ave","53704",43.11242,-89.36203
"53704","Madison","WI","Ford's Gym","2114 Winnebago St","53704",43.09429677926985,-89.35362404963757
"53704","Madison","WI","9Round Madison (East)","4522 E Washington Ave Ste 5","53704",43.12039698312663,-89.30810020796724
"53704","Madison","WI","Badger Fitness 24/7","4102 Lien Rd","53704",43.1212028059393,-89.31347507670627
"53704","Madison","WI","Suppz","not_available","53704",43.1218386397677,-89.30815251208662
"53704","Madison","WI","JFHQ Gym","2400 Wright St","53704",43.1309209,-89.3314591
"53704","Madison","WI","Farrell's eXtreme Bodyshaping - East","1601 Thierer Rd","53704",43.121505325552036,-89.31098410940602
"53704","Madison","WI","Princeton Club","1726 Eagan Rd","53704",43.121790535279544,-89.3093146898976
"53704","Madison","WI","Team Curran Madison","1625 Thierer Rd","53704",43.1216664,-89.31019479999999
"53704","Madison","WI","Weight Room","East High","not_available",43.097189,-89.355155
"53704","Madison","WI","Gymboree","155 East Towne Mall","53704",43.12544952425505,-89.30480101252404
"53704","Madison","WI","Webcrafters Weight Room & Workout Center","2211 Fordem Ave","53704",43.10029983520508,-89.3633041381836
"53704","Madison","WI","Fitness Center @ Village Green East","Village Green Ln.","not_available",43.141845297824624,-89.30402040481567
"53704","Madison","WI","Twisted Fitness Gym","711 Rethke Ave, Suite 1","53714",43.10866679999999,-89.3350097
"53705","Madison","WI","Natatorium","2000 Observatory Dr","53706",43.07696542557951,-89.42051643467703
"53705","Madison","WI","Focal Point Training","710 Harrison St #100","53711",43.0648193359375,-89.41800689697266
"53705","Madison","WI","Basecamp Fitness","1730 Monroe St","53711",43.065579,-89.416377
"53705","Madison","WI","Canvas Club Boxing","1831 Monroe St","53711",43.064921999999996,-89.416702
"53705","Madison","WI","Migun of madison","6814 Odana Rd","53719",43.05722,-89.50041999999999
"53705","Madison","WI","Anytime Fitness","515 S Midvale Blvd Ste 5","53711",43.0547,-89.4503
"53705","Madison","WI","Madison Fitness Solutions","2701 University Ave Ste A","53705",43.073150634765625,-89.434326171875
"53705","Madison","WI","Lifesite @ CUNA Mutual","5910 Mineral Point Rd","53705",43.061767183543935,-89.48244203248454
"53705","Madison","WI","Burn Boot Camp","726 N Midvale Blvd","53705",43.07418,-89.45249
"53706","Madison","WI","CYC Fitness","773 University Ave #205","53715",43.07321964373443,-89.39774270022153
"53706","Madison","WI","JSM Workout room","1040 Spring","53715",43.06944787502289,-89.40385222434998
"53706","Madison","WI","Maverick Treadmill Desk","1020 Regent St","53715",43.067912,-89.403019
"53711","Madison","WI","Monona Bay Jogging Loop","S Shore Dr","not_available",43.057333138429634,-89.39759192540637
"53711","Madison","WI","Princeton Club Xpress","5413 Monona Dr","53716",43.06031995359884,-89.3260085230033
"53711","Madison","WI","Pinnacle Health and Fitness","Executive Drive","not_available",43.011441171397145,-89.45911671549881
"53711","Madison","WI","St. Mary's Cardio Center Level A","700 S Park St","53715",43.05894029150577,-89.40246574080298
"53711","Madison","WI","Phitness Plus","2828 Perry Street","not_available",43.033021372791154,-89.39634575381723
"53711","Madison","WI","Lake Monona Fitness","1410 Nishishin Trl","53716",43.056001,-89.34853299999999
"53711","Madison","WI","Arbor Hills Apartment Fitness Center","W Beltline Hwy","53713",43.03463438826051,-89.4257341760641
"53711","Madison","WI","Sheraton Fitness Center","706 John Nolen Dr","53713",43.04740524291992,-89.3734130859375
"53711","Madison","WI","Big Dane Collective","813 Post Rd","53713",43.026362,-89.397767
"53711","Madison","WI","Anytime Fitness","6000 Monona Dr","53716",43.05343,-89.32528
"53711","Madison","WI","Cody Campbell fitness","2976 Tiverton Pike","53711",43.01734924316406,-89.42863464355469
"53711","Madison","WI","Crossfit Sanctify","4555 Helgesen Dr","53718",43.06659657411226,-89.3051915610877
"53713","Madison","WI","Quality Inn Gym","not_available","53713",43.01695844479693,-89.42403825199831
"53713","Madison","WI","Fight Prime Training Center & Fitness","1820 S Park St.","53713",43.04572173545678,-89.39422073713486
"53713","Madison","WI","Crossfit Connex","3015 Perry St","53713",43.03708963679114,-89.38274593124154
"53713","Madison","WI","Kevers' Basement Workout Area","106 Nygard St","53713",43.041289,-89.38471700000001
"53713","Madison","WI","Great State Crossfit","2500 Rimrock Rd Apt 104","53713",43.03541946411133,-89.38074493408203
"53713","Madison","WI","Anytime Fitness","2980 Cahill Main","53711",43.01791,-89.42313
"53715","Madison","WI","Longfellow Fitness Center","Chandler St","53715",43.064350203157794,-89.40256263771741
"53716","Madison","WI","YMCA - East Madison","711 Cottage Grove Rd","53716",43.08301275802121,-89.31455273183069
"53717","Madison","WI","Kosama Madison","7475 Mineral Point Rd Ste 48","53717",43.05817968401474,-89.51312389555758
"53717","Madison","WI","Fitness Center","Wisconsin Trade Center","53562",43.08955747299548,-89.52902878929937
"53718","Madison","WI","Anytime Fitness","6420 Cottage Grove Rd","53718",43.08539,-89.26773
"53719","Madison","WI","Princeton Club","8080 Watts Rd","53719",43.05516782437238,-89.51910425072188
"53719","Madison","WI","Office Gym","High Point Oaks Ln","not_available",43.05198707830387,-89.51732218767326
"53719","Madison","WI","SBR","Ventura court","53593",42.99740202041114,-89.5239132642746
"53719","Madison","WI","The New Fountains Workout Center","5401 Williamsburg Way","53719",43.022057988842654,-89.47395932716249
"53719","Madison","WI","Supreme Health & Fitness","5555 Odana Rd","53719",43.049286,-89.4755628
"53719","Madison","WI","Orange Shoe Personal Fitness","6200 Nesbitt Rd","53719",43.01280586620779,-89.47487459918106
"53719","Madison","WI","Princeton Club Xpress","5956 Executive Dr","53719",43.01349990631735,-89.45656863958877
"53807","Cuba City","WI","Pit","not_available","53807",42.603965,-90.432909
"53811","Hazel Green","WI","Rainbo Oil Company Fitness Room","2255 Kerper Blvd","52001",42.52083969116211,-90.65563201904297
"53813","Lancaster","WI","Lancaster Fitness","not_available","53814",42.83556362897342,-90.70766360536939
"53813","Lancaster","WI","Lancaster Fitness","not_available","53813",42.84992665555556,-90.71232186666666
"53818","Platteville","WI","Anytime Fitness","555 Ellen St","53818",42.72799,-90.47447
"53818","Platteville","WI","Riniker Gym And Fitness","Main st","53818",42.7342526,-90.47956296
"53818","Platteville","WI","Snap Fitness","180 McGregor Plz","53818",42.73179345613785,-90.47704320653524
"53821","Prairie Du Chien","WI","Suppz Gym","not_available","53821",43.051276,-91.138575
"53821","Prairie Du Chien","WI","Anytime Fitness","40 Riverside Square","53821",43.02623,-91.12627
"53901","Portage","WI","Anytime Fitness","2800 New Pinery Rd","53901",43.56538,-89.47136
"53901","Portage","WI","Machine Lab Crossfit","not_available","53901",43.532807,-89.440991
"53913","Baraboo","WI","Fitness Center","Glacier Canyon Lodge","not_available",43.58791821366677,-89.7786870614319
"53913","Baraboo","WI","Anytime Fitness","434 Hwy 12","53913",43.4661,-89.7695
"53913","Baraboo","WI","Fit Wit Me","not_available","53913",43.472049713134766,-89.74354553222656
"53913","Baraboo","WI","Fitness Center","Wyndham Glacier Canyon","53965",43.585615115728274,-89.77728106875658
"53913","Baraboo","WI","Fitness Center at Wilderness on the Lake","350 E Hiawatha Dr","53965",43.59790802001953,-89.78646087646484
"53913","Baraboo","WI","woodland park gym","not_available","53965",43.591379225103275,-89.81543089452467
"53913","Baraboo","WI","Ho-Chunk Nation House Of Wellness","White Eagle Rd","53913",43.54131552058496,-89.7615689607668
"53913","Baraboo","WI","Edge Fitness","1305 Kalahari Dr.","53965",43.570198,-89.773635
"53913","Baraboo","WI","Clarion Gym","620 Pine","53913",43.47622299194336,-89.7680892944336
"53913","Baraboo","WI","Fitness Center","Wilderness Hotel & Golf Resort","53913",43.589496082327024,-89.78201177973727
"53913","Baraboo","WI","Sysco Workout Facility","910 S. Bvld","53913",43.470123995657204,-89.75800422291547
"53913","Baraboo","WI","Anytime Fitness","69 Commerce St","53965",43.58701,-89.81433
"53916","Beaver Dam","WI","Anytime Fitness","1626 N Spring St","53916",43.47435,-88.82545
"53916","Beaver Dam","WI","The G of the GTL","The Basement","53916",43.465052,-88.822072
"53916","Beaver Dam","WI","Snap Fitness","1659 N Spring St Ste 103","53916",43.47641998432377,-88.82298231124878
"53916","Beaver Dam","WI","YMCA of Dodge County","220 Corporate Dr","53916",43.48320060213481,-88.8138920620115
"53916","Beaver Dam","WI","Aspire Boot Camp","not_available","53916",43.45604919915411,-88.81900271342569
"53916","Beaver Dam","WI","Powerhouse Athletics","900 Green Valley Rd","53916",43.473663330078125,-88.83238983154297
"53925","Columbus","WI","Anytime Fitness","201 Industrial Dr","53925",43.34677,-89.02935
"53925","Columbus","WI","enerpac","199 Gateway Ct","53925",43.316184703594736,-89.04308603105311
"53925","Columbus","WI","Anytime fitness","201","53925",43.33634549446397,-89.0440285205841
"53925","Columbus","WI","Zumba Class","not_available","53925",43.339942932128906,-89.02491760253906
"53925","Columbus","WI","Fall River Rec. Department","South Street","53932",43.38543297129883,-89.0447473526001
"53944","Lyndon Station","WI","Maroon Truck","not_available","53944",43.76590899439453,-89.96709392755463
"53944","Lyndon Station","WI","Christmas Mountain Fitness","Unnamed Rd","53965",43.61132886707475,-89.8550195407404
"53946","Markesan","WI","Enjoy Fitness","Bandar Baru","53949",43.766979,-89.185546
"53946","Markesan","WI","The Workout Room","22 E Water St","53946",43.7061653137207,-88.98729705810547
"53948","Mauston","WI","Lynn & Ginas Fitness Center","not_available","53948",43.81116769,-90.07154269
"53948","Mauston","WI","Anytime Fitness","414 E State St","53948",43.79544,-90.07274
"53949","Montello","WI","Montello Varsity Gym","not_available","53949",43.79639503688829,-89.32222511379877
"53949","Montello","WI","Princeton Fitness Center","604 Old Green Lake Rd","54968",43.84507369995117,-89.12012481689453
"53950","New Lisbon","WI","Volk Gym","Volk Field AFB","54618",43.91893547632161,-90.2605991092299
"53956","Randolph","WI","A&B Fitness Concepts","159 Stark St","53956",43.538360595703125,-89.005615234375
"53959","Reedsburg","WI","Midwest Strong","not_available","53959",43.54891837293964,-89.98180687626808
"53959","Reedsburg","WI","Snap Fitness 24-7","1577 E Main St","53959",43.5327122330378,-89.98633333010726
"53959","Reedsburg","WI","Anytime Fitness","101 W Main St","53959",43.53232,-90.01345
"53959","Reedsburg","WI","Villari's Family Fitness","275 Southridge Blvd","53959",43.5208253672705,-90.01695269078364
"53960","Rio","WI","Gávea GYM","not_available","53960",43.447763,-89.239838
"53963","Waupun","WI","Anytime Fitness","912 W Main","53963",43.63379,-88.75308
"53963","Waupun","WI","Club Fitness","not_available","53963",43.63322100250729,-88.73076683206168
"53965","Wisconsin Dells","WI","Waterfall Wellness","791 Plum St","53965",43.62712097167969,-89.7618179321289
"53965","Wisconsin Dells","WI","Snap Fitness","519 State Hwy 13","53965",43.627742045832036,-89.76968691262861
"53965","Wisconsin Dells","WI","Cutting Edge Fitness","515 Broadway","53965",43.62791061401367,-89.769775390625
"54001","Amery","WI","The Fitness Center","200-228 Wisconsin 46","54001",45.31338507782094,-92.36132232177893
"54002","Baldwin","WI","BAMC Fitness Center","730 10th Ave","54002",44.970762,-92.374119
"54002","Baldwin","WI","Anytime Fitness","725 Energy St","54002",44.93563313476823,-92.37209737300873
"54009","Dresser","WI","Snap Fitness Osceola","2388 WI-35","54020",45.343097127208765,-92.64909897422422
"54009","Dresser","WI","Snap Fitness","Washington Street","54024",45.398128509521484,-92.63786315917969
"54011","Ellsworth","WI","Snap Fitness","Main Street","54011",44.73190344856876,-92.47454917093808
"54014","Hager City","WI","Prairie Island Fitness Center","5636 Sturgeon Lake Rd","55089",44.629791259765625,-92.6446762084961
"54016","Hudson","WI","Riverfront Athletic Club","109 2nd St","54016",44.97206845660399,-92.75684896564427
"54016","Hudson","WI","Ultimate Fitness","1640 Livingstone Rd","54016",44.95450973510742,-92.73560333251953
"54016","Hudson","WI","Zumba","not_available","55043",44.94408416748047,-92.77195739746094
"54016","Hudson","WI","Life's 5","476 County Road A","54016",44.991049574793585,-92.70691852100647
"54016","Hudson","WI","Snap Fitness","824 Carmichael Rd","54016",44.97898165841608,-92.72016640442826
"54016","Hudson","WI","Victory4You Studio","1093-1099 Sommers St N","54016",44.99908268451691,-92.74359405040741
"54016","Hudson","WI","Hudson YMCA","2211 Vine Street","54016",44.979119,-92.727924
"54016","Hudson","WI","BodyZone","2010 Oneil Rd","54016",44.948143005371094,-92.71019744873047
"54016","Hudson","WI","The Zone","1830 Hanley Rd","54016",44.951918,-92.731934
"54016","Hudson","WI","fitogo","not_available","54016",44.96216133485205,-92.73638191473287
"54016","Hudson","WI","Heidi's House","718 Martin Ave","54016",44.981746673583984,-92.70899963378906
"54016","Hudson","WI","The Gym At The Top Of The Stairs","Orange Street","54016",44.979034424768656,-92.74703115890037
"54016","Hudson","WI","Snap Fitness","356 St Croix Trail S","55043",44.94396620272483,-92.77198575091089
"54016","Hudson","WI","Anytime Fitness","1701 Ward Ave Ste 201","54016",44.96442,-92.73446
"54016","Hudson","WI","St. Croix Body Zone Fitness & Tan","2401 Coulee Rd","54016",44.96551513671875,-92.72368621826172
"54017","New Richmond","WI","New Richmond Area Centre","428 S Starr Ave","54017",45.11894715064678,-92.5322042072282
"54017","New Richmond","WI","Fit Studio","Cloutier 777","54025",45.120066,-92.67897
"54017","New Richmond","WI","Snap Fitness","575 N Knowles Ave","54017",45.1282844543457,-92.53834533691406
"54017","New Richmond","WI","Anytime Fitness","144 W 3rd St Ste B","54017",45.12013,-92.5385
"54017","New Richmond","WI","Snap Fitness","Laser Drive","54025",45.132347106933594,-92.67158508300781
"54021","Prescott","WI","Snap Fitness","600 North Acres Road","54021",44.76292419433594,-92.79202270507812
"54022","River Falls","WI","Anytime Fitness","114 Spring St.","54022",44.85511,-92.62693
"54022","River Falls","WI","River City Ironworx","not_available","54022",44.870059967041016,-92.61951446533203
"54023","Roberts","WI","Snap Fitness","1238 US-12","54023",44.992397,-92.550897
"54023","Roberts","WI","FitMASS Fitness Training Studio","109 Roberts St","76036",44.983317205436975,-92.55590200435108
"54023","Roberts","WI","Fitness To Go","1196 60th Ave.","54023",44.95050048828125,-92.55728149414062
"54024","Saint Croix Falls","WI","Steps Studio","not_available","54853",45.574989318847656,-92.48351287841797
"54107","Bonduel","WI","NmP Solutions, LLC","www.nmpsolutions.biz","54107",44.69725399421403,-88.35151698422641
"54110","Brillion","WI","Community Fitness","964 West Ryan Street, Brillion","54110",44.18689727783203,-88.08765411376953
"54110","Brillion","WI","Self Image (SI)","not_available","54110",44.168591,-88.067121
"54114","Crivitz","WI","Uniq. Salon Spa","744 Dyer St","54114",45.23539,-88.008
"54115","De Pere","WI","Xperience Fitness","2763 S Oneida St","54304",44.47438614952174,-88.07091479781863
"54115","De Pere","WI","YMCA","1740 S Huron Rd","54311",44.469041558139025,-87.91887571820713
"54115","De Pere","WI","Athletic Republic Green Bay","1160 Kepler Dr","54311",44.47786033366478,-87.94045201762648
"54115","De Pere","WI","MGL Fitness","500A Pilgrim Way","54304",44.48051071166992,-88.05422973632812
"54115","De Pere","WI","House of Speed","not_available","54304",44.46389868059862,-88.07867418201677
"54115","De Pere","WI","Bryan's Fitness For Life","232 Coolidge St","54301",44.46872329711914,-88.03671264648438
"54115","De Pere","WI","Powerhouse Gym","not_available","54115",44.44389621856635,-88.06924089120018
"54115","De Pere","WI","Snap Fitness","1719 Ohearn Ln","54115",44.44158488900108,-88.04155986862787
"54115","De Pere","WI","Rock Your Body Nutrition","912 Hansen Rd","54304",44.476661682128906,-88.07563018798828
"54115","De Pere","WI","D1 Sports Training and Therapy","1630 Commanche Ave","54313",44.49315879546696,-88.10306567044812
"54115","De Pere","WI","AmericInn Fitness Room","2628 Manitowoc Rd","54311",44.46990966796875,-87.95384979248047
"54115","De Pere","WI","Tone Room","not_available","54301",44.4976692199707,-88.00511932373047
"54115","De Pere","WI","Next Level Fitness","1301 Lawrence Dr","54115",44.435833,-88.10161
"54115","De Pere","WI","Snap Fitness","573 Swan Rd","54115",44.43775534629822,-88.03493857383728
"54115","De Pere","WI","Anytime Fitness","811 Main Ave","54115",44.44911,-88.08219
"54115","De Pere","WI","345 Main","345 Main Ave, Saint Norbert College, De Pere, WI 54115","54115",44.44720458984375,-88.0696792602539
"54115","De Pere","WI","Starz Academy","807 Parkview Rd","54304",44.463840799687326,-88.07870738313927
"54115","De Pere","WI","Home Gym","not_available","54140",44.37972858319555,-88.28515837565458
"54115","De Pere","WI","CrossFit Green Bay","1014 Parkview Rd","54304",44.46767831150047,-88.08753713123966
"54115","De Pere","WI","Curves Green Bay","1281 Brosig St","54311",44.477245,-87.96744
"54115","De Pere","WI","The Basement","Faldo Lane","54311",44.45470834391664,-87.97023435717315
"54121","Florence","WI","Private Gym","not_available","49801",45.808046,-88.074313
"54129","Hilbert","WI","Sherwood Gym","Clifton Rd","54169",44.1735364602007,-88.26393811162512
"54130","Kaukauna","WI","YMCA Heart of the Valley","225 W Kennedy Ave.","54136",44.25871310333497,-88.33616965342797
"54130","Kaukauna","WI","home gym","not_available","54136",44.27255630493164,-88.33007049560547
"54130","Kaukauna","WI","Dubb's Step Classes","205 1/2 Dodge St","54130",44.276145935058594,-88.27161407470703
"54130","Kaukauna","WI","Hilton Inn Appleton Gym","720 Eisenhower Dr","54136",44.259975,-88.347884
"54130","Kaukauna","WI","Employee Fitness Center","not_available","54915",44.24317991903865,-88.28566654697913
"54130","Kaukauna","WI","Snap Fitness","1810 Crooks Ave","54130",44.26394759317312,-88.27353530405368
"54130","Kaukauna","WI","Jungle Gym Fitness","819 Schelfhout Ln","54136",44.259223,-88.324954
"54130","Kaukauna","WI","Anytime Fitness","W 3171 Springfield Drive","54915",44.2465,-88.34763
"54130","Kaukauna","WI","Pure Barre","3825 E Calumet St","54915",44.2414935082521,-88.34928087368013
"54130","Kaukauna","WI","Anytime Fitness","310 E Ann St","54130",44.25944,-88.27109
"54130","Kaukauna","WI","Ghost Town Fitness Center","180 Fox Shores Dr","54130",44.28000116377514,-88.27443076174055
"54130","Kaukauna","WI","Ellipse Fitness","W5361 County Road Kk","54915",44.24267578125,-88.30587768554688
"54130","Kaukauna","WI","Curves Little Chute","106 E Main St","54140",44.28022766113281,-88.31526947021484
"54130","Kaukauna","WI","Crossfit Vanguard","N218 Stoney Brook Rd","54915",44.248497,-88.351049
"54130","Kaukauna","WI","Planet Fitness","W3165 Van Roy Rd, 7","54915",44.2559911,-88.3478136
"54130","Kaukauna","WI","My Gym","Wildenberg Dr","54130",44.292571416477735,-88.28573229535466
"54130","Kaukauna","WI","Paradiso Performance Fitness","N9345 Cheyenne Dr","54915",44.23022,-88.32444799999996
"54130","Kaukauna","WI","Trident Automation Gym","1001 W Kennedy Ave","54136",44.260723,-88.350241
"54130","Kaukauna","WI","LCASD Fitness Center","1402 Freedom Rd","54140",44.28787612915039,-88.31160736083984
"54130","Kaukauna","WI","Push Personal Fitness","3845 E Calumet St","54915",44.243324402208195,-88.34825328948372
"54135","Keshena","WI","Forestry Work-out Room","not_available","54135",44.889888763427734,-88.66108703613281
"54138","Lakewood","WI","Tri Fitness","not_available","54149",45.277830128027865,-88.5105419902502
"54138","Lakewood","WI","Tri Fitness","15048 Otto Ln","54149",45.277566,-88.510577
"54143","Marinette","WI","Peshtigo Fitness Center","310 N Beebe Ave","54157",45.058143615722656,-87.74308013916016
"54143","Marinette","WI","Country Inn & Suites By Radisson, Marinette, WI","2020 Old Peshtigo Ct","54143",45.08522596786312,-87.65241439705113
"54143","Marinette","WI","Anytime Fitness","2025 Marinette Ave","54143",45.08481,-87.65757
"54143","Marinette","WI","Anytime Fitness","2350 10th St","49858",45.12026,-87.61316
"54151","Niagara","WI","Anytime Fitness","1078 S Stephenson Ave","49801",45.81246,-88.0631
"54153","Oconto","WI","Bond Community Center","1201 Park Ave, Oconto, WI 54153","54153",44.89626414305662,-87.86533395926655
"54153","Oconto","WI","Curves Green Bay","516 Brazeau Ave","54153",44.89160352916744,-87.88386583328247
"54153","Oconto","WI","Trendy’s Little Chicago","not_available","54153",44.8897246537986,-87.87973940792075
"54155","Oneida","WI","BM G Y M","not_available","54155",44.509925842285156,-88.17051696777344
"54165","Seymour","WI","Curves Green Bay","233 N Main St","54165",44.513588,-88.330463
"54165","Seymour","WI","Anytime Fitness","627 Woodland Plz","54165",44.50126,-88.32383
"54166","Shawano","WI","Snap Fitness","not_available","54166",44.78197661624481,-88.59116080911716
"54166","Shawano","WI","FIRE fitness","212 E Green Bay St Ste C","54166",44.781583739124386,-88.60719054937363
"54173","Suamico","WI","SAGA Sports","Velp Avenue","54313",44.64283618149476,-88.04909055393743
"54202","Baileys Harbor","WI","Northern Door YMCA","3966 Gibraltar Rd.","54212",45.1273126381731,-87.22705968296947
"54204","Brussels","WI","treadmill","1484 Brussels Rd, Brussels, WI 54204","54204",44.74298095703125,-87.63880157470703
"54208","Denmark","WI","Power Sports Athletic Center","Wall St.","54208",44.343073,-87.826071
"54208","Denmark","WI","ds gym","not_available","54217",44.439206217534455,-87.73473295345806
"54216","Kewaunee","WI","Kewaunee Health & Fitness","160 Terraqua Dr, Kewaunee, WI 54216","54216",44.47451182742367,-87.5027046014561
"54220","Manitowoc","WI","YMCA Manitowoc","205 Maritime Dr","54220",44.09465417968834,-87.65246995602531
"54220","Manitowoc","WI","Holy Family Wellness Center","1650 S 41st St","54220",44.07858179242568,-87.70182961478814
"54220","Manitowoc","WI","Defiant Fitness","1402 Clark St Ste 202","54220",44.09242437219502,-87.66628503799438
"54220","Manitowoc","WI","Jazzercise","711 York St","54220",44.093412,-87.657286
"54220","Manitowoc","WI","James kluczinske","not_available","54220",44.10818336660973,-87.65026841942536
"54220","Manitowoc","WI","The Dungeon Gym","3217 Division St","54220",44.08073425292969,-87.68800354003906
"54220","Manitowoc","WI","CMS Fitness","2722 Woodland Dr Apt A","54220",44.1336784362793,-87.62194061279297
"54228","Mishicot","WI","Mishicot Jazzercise","423 E Church St","54228",44.233489990234375,-87.63908386230469
"54230","Reedsville","WI","fabertism","not_available","54245",44.062635541069056,-87.89033738991563
"54230","Reedsville","WI","24/7 Fitness Center","437 Manitowoc St, Reedsville, WI 54230","54230",44.153079999999996,-87.956393
"54234","Sister Bay","WI","Yacht Club Workout Room","not_available","54234",45.189522,-87.124081
"54235","Sturgeon Bay","WI","YMCA Sturgeon Bay","1900 Michigan St","54235",44.83606173150924,-87.34879582824547
"54235","Sturgeon Bay","WI","results fitness","3rd Ave","54235",44.846088924207926,-87.3730015342225
"54235","Sturgeon Bay","WI","Crossfit Armati","185 E Walnut St","54235",44.819917,-87.378552
"54235","Sturgeon Bay","WI","Anytime Fitness","1300 Egg Harbor Rd Suite 120B","54235",44.84929,-87.36293
"54241","Two Rivers","WI","J & K Sports Complex","not_available","54241",44.140277777777776,-87.59194444444444
"54241","Two Rivers","WI","Two Rivers Jazzercise","2801 Garfield St","54241",44.15976,-87.55657
"54301","Green Bay","WI","The Gym","Marian Ln","not_available",44.51234845301526,-88.05411825647809
"54301","Green Bay","WI","Infrared Saunas Green Bay","202 Cherry St","54301",44.514671,-88.01535799999999
"54301","Green Bay","WI","Ellipse Fitness","801 Hoffman Rd","54301",44.46646225630351,-88.0039336702439
"54301","Green Bay","WI","Corp Bene","not_available","54303",44.513041,-88.024071
"54301","Green Bay","WI","Hyatt Stay Fit","333 Main St","54301",44.51758575439453,-88.01058197021484
"54301","Green Bay","WI","Re:charge Aloft","Pilgrim","54304",44.478614,-88.052362
"54302","Green Bay","WI","Insanity Work Out","not_available","54302",44.519328,-87.986687
"54302","Green Bay","WI","Casey's Fitness Center","1348 Eastman Ave, Green Bay, WI 54302","54302",44.51669692993164,-87.98955535888672
"54302","Green Bay","WI","Titletown Fitness","2253 Main St","54302",44.48300223444363,-87.96899780829412
"54302","Green Bay","WI","County Jail Weight Room","Forest Hill Drive","not_available",44.515400512508805,-87.9374416146434
"54303","Green Bay","WI","Westside YMCA","601 Cardinal Ln","54313",44.55588644559755,-88.08591093452777
"54303","Green Bay","WI","Anytime Fitness","450 N Military Ave","54303",44.5349,-88.05481
"54303","Green Bay","WI","4 J's bring it gym","not_available","54313",44.568145751953125,-88.08328247070312
"54303","Green Bay","WI","MY 24-7 GYM","BIRCHWOOD","54304",44.51293630381906,-88.0772297402539
"54303","Green Bay","WI","Curves Green Bay","2436 Glendale Ave","54313",44.562496185302734,-88.07524108886719
"54303","Green Bay","WI","Bod-e Bootcamp","2450 Velp Ave Ste 108","54303",44.562725679583814,-88.07569742202759
"54303","Green Bay","WI","UHG Gym","3100 Ams Blvd","54313",44.55293273925781,-88.10269165039062
"54303","Green Bay","WI","Linkage LLC","330 Packerland Dr","54303",44.53295135498047,-88.09520721435547
"54303","Green Bay","WI","Curves Green Bay","2685 W Mason St","54303",44.5233,-88.1037
"54304","Green Bay","WI","Better Body Fitness","3001 Ramada Way","54304",44.466706276699576,-88.07782841182974
"54304","Green Bay","WI","Pure Barre","2621 S Oneida St Ste 108","54304",44.4784458,-88.0708587
"54304","Green Bay","WI","The Little Gym","Oneida street","54304",44.47040053248268,-88.07567885209086
"54304","Green Bay","WI","Fitness Renegades","2822 Ramada Way","54304",44.49552731234454,-88.0567089046573
"54304","Green Bay","WI","SparkNET Fitness Center","1121 W Main Ave","54115",44.45620149262247,-88.10080323288693
"54304","Green Bay","WI","Creekwood Fitness Center","2764 Viking Dr","54304",44.478145599365234,-88.08596801757812
"54304","Green Bay","WI","homeycomb workout","Brookwood Dr, Ashwaubenon, WI 54304","54304",44.505570760639415,-88.07448582414487
"54311","Green Bay","WI","Fitnessology","3221 Voyager Dr","54311",44.48389,-87.92155
"54313","Green Bay","WI","P90X @ BP","2710 Lineville Rd","54313",44.59132766723633,-88.0868148803711
"54313","Green Bay","WI","Combat Training Center","3848 Velp Ave","54313",44.57930374145508,-88.0772705078125
"54401","Wausau","WI","Anytime Fitness","409 Forest St","54403",44.95669,-89.62673
"54401","Wausau","WI","Woodson YMCA","707 N 3rd St","54403",44.96286558521751,-89.62724849851548
"54401","Wausau","WI","LIFT CENTRAL","2807 Rib Mountain Dr","54401",44.93092799999999,-89.655483
"54401","Wausau","WI","Strobach's gym","not_available","54401",44.9805467189757,-89.64635668167702
"54401","Wausau","WI","Snap Fitness Wausau","1700 Business 51 N, Suite A","not_available",44.98631308218097,-89.65318123158367
"54401","Wausau","WI","Snap Fitness","1405 Kenwood Dr","54401",44.97027537136118,-89.65298132243969
"54401","Wausau","WI","LIFT NORTH","1720 US-51 BUS A","54401",44.9854766,-89.6526245
"54401","Wausau","WI","Planet Fitness","10101 Market St, C060","54474",44.86564811025677,-89.63358533055857
"54401","Wausau","WI","Franck's Gym","4309 Stewart Ave","54401",44.95507783756364,-89.69015072518644
"54401","Wausau","WI","Burn Boot Camp","151411 Robin Ln","54401",44.93021,-89.66195
"54403","Wausau","WI","Sirius gym","not_available","54403",44.93651580810547,-89.60150146484375
"54403","Wausau","WI","wausau wellness center","2221 Grand Ave","54403",44.93321228027344,-89.61528015136719
"54403","Wausau","WI","Beyond Muscle","401 Battery St","54403",44.95392608642578,-89.61820220947266
"54403","Wausau","WI","LIFT CrossFit","2215 Grand Ave","54403",44.9341538,-89.6161937
"54409","Antigo","WI","Anytime Fitness","501 Superior St","54409",45.13914,-89.1518
"54409","Antigo","WI","Antigo Athletic Club","not_available","54409",45.13739345273612,-89.15027900502245
"54410","Arpin","WI","The Dungeoun","7698 Cty Rd E","54410",44.52605737,-90.04428822
"54411","Athens","WI","Marathon Wellness Center","not_available","54448",44.94181216178595,-89.83756474004537
"54423","Custer","WI","Snap Fitness","5601-5747 Windy Dr","54482",44.52516853809357,-89.50289011001587
"54426","Edgar","WI","Ultimate Performance Singapore","Equity Plaza","not_available",44.82229995727539,-90.1300277709961
"54427","Eland","WI","Fitness Center","400 W Grand Ave","54499",44.82869,-89.180092
"54449","Marshfield","WI","Fuel Up. GO! Fitness & Nutrition, LLC (Marshfield Office)  facebook.com/FuelUpGO","150 S. Central Ave.  (www.fuelupgo.com)","54449",44.66628746860882,-90.17417192459106
"54449","Marshfield","WI","Snap Fitness","705 S Central Ave","54449",44.660980224609375,-90.17719268798828
"54449","Marshfield","WI","gust boxing gym","201 S Oak Ave, Marshfield, WI 54449","54449",44.669071197509766,-90.18169403076172
"54449","Marshfield","WI","Marshfield YMCA","401 W Mcmillian","54449",44.684747357343845,-90.16803727894607
"54449","Marshfield","WI","LIFT (Marshfield)","204 N Central Ave","54449",44.6692027,-90.172511
"54449","Marshfield","WI","Anytime Fitness","112 N Central Ave","54449",44.66807,-90.17328
"54449","Marshfield","WI","Curves","not_available","54449",44.665959,-90.172935
"54449","Marshfield","WI","Total Body Fitness","2312 N Central Ave","54449",44.69205856323242,-90.15473937988281
"54451","Medford","WI","Electric Fitness","300-398 S Whelen Ave","54451",45.13560231985087,-90.34416800530896
"54451","Medford","WI","TASO Gym","224 S 2nd St","54451",45.13725280761719,-90.3420181274414
"54451","Medford","WI","Main Street Gym","315 S Main St","54451",45.13593098183134,-90.34374711187216
"54452","Merrill","WI","Riverside","not_available","54452",45.177426169173394,-89.68303491019749
"54452","Merrill","WI","kind hearted health","101 Scott St","54452",45.18071342065587,-89.6891239285469
"54452","Merrill","WI","Snap Fitness","W Main st","54452",45.178511,-89.707036
"54455","Mosinee","WI","Mosinee Health Gym","not_available","54455",44.809681,-89.735658
"54457","Nekoosa","WI","South Wood County YMCA","211 Wisconsin River Dr","54469",44.34004654455301,-89.85947615407544
"54467","Plover","WI","Anytime Fitness","1816 Plover Rd","54467",44.45457,-89.52577
"54467","Plover","WI","Fire Fitness Camp","2621 Post Rd","54467",44.45744964093745,-89.54469113661939
"54467","Plover","WI","Planet Fitness","1200 Commons Cir","54467",44.494308000000004,-89.514761
"54474","Rothschild","WI","Greenheck Fieldhouse","6400 Alderson St","54476",44.898463106855985,-89.5949203115794
"54476","Schofield","WI","Snap Fitness","3910 Schofield Ave","54476",44.90592256514571,-89.57450434216287
"54476","Schofield","WI","Wausau Health And Fitness","not_available","54476",44.9051399230957,-89.60590362548828
"54476","Schofield","WI","Anytime Fitness","1711  Schofield Ave. Ste. A","54476",44.90865,-89.60227
"54476","Schofield","WI","LIFT SOUTH","1468 Schofield Ave","54476",44.910011291503906,-89.60675811767578
"54481","Stevens Point","WI","Sconnie CrossFit","1909 Wood St","54481",44.51571273803711,-89.5815200805664
"54481","Stevens Point","WI","Royalty Athletics","1624 W Pearl St","54481",44.516938,-89.593276
"54481","Stevens Point","WI","Firehouse Gym","not_available","54481",44.50982087015917,-89.52105175631341
"54481","Stevens Point","WI","Anytime Fitness","200 N Division St Ste E","54481",44.53267,-89.57571
"54481","Stevens Point","WI","Fairfield Inn & Suites Exercise Room","5317 US Highway 10 E","54482",44.522186279296875,-89.52346801757812
"54481","Stevens Point","WI","Fiternal Crossfit","19 Park Ridge Dr","54481",44.522659999999995,-89.548472
"54481","Stevens Point","WI","YMCA","1000 Division St","54481",44.52655788044414,-89.57559971385734
"54487","Tomahawk","WI","Snap Fitness","693 N 4th St","54487",45.48148524307844,-89.728640103453
"54494","Wisconsin Rapids","WI","Hotel Mead Gym","not_available","54494",44.389627234437754,-89.82194108670912
"54494","Wisconsin Rapids","WI","Park Institute of Taekwondo & Fitness","4233 8th St S","54494",44.3554457,-89.81686739999999
"54494","Wisconsin Rapids","WI","YMCA","1401-1599 Pepper Ave","54494",44.37342299289942,-89.80910433361379
"54494","Wisconsin Rapids","WI","Peoples Fitness Club","301-367 W Grand Ave","54495",44.39595181448383,-89.83620427106561
"54494","Wisconsin Rapids","WI","Snap Fitness","8th Street","54494",44.37027777777778,-89.7461111111111
"54494","Wisconsin Rapids","WI","Anytime Fitness","2521 8th St","54494",44.37151,-89.81645
"54494","Wisconsin Rapids","WI","MJ's Balance Studio","1621 5th St S","54494",44.380104,-89.820717
"54494","Wisconsin Rapids","WI","Home gym","not_available","54495",44.37268333230144,-89.85478643532832
"54501","Rhinelander","WI","Anytime Fitness","51 N Brown Street","54501",45.638421,-89.413212
"54514","Butternut","WI","Triple B Health & Fitness","311 Saunders Ave","54552",45.93446839649318,-90.438171731198
"54520","Crandon","WI","Outside The Box Fitness","605 S Forest Ave","54520",45.56419660714301,-88.90122070101458
"54521","Eagle River","WI","Tag You're Fit","216 E Wall Street","54521",45.91518783569336,-89.24993896484375
"54521","Eagle River","WI","Lake Forest Fitness Center","not_available","54521",45.92501468230776,-89.19021298966378
"54534","Hurley","WI","Snap Fitness","not_available","49938",46.46294021606445,-90.18367004394531
"54538","Lac Du Flambeau","WI","Home Gym","not_available","54548",45.93218994140625,-89.83704376220703
"54538","Lac Du Flambeau","WI","bowflex time","not_available","54538",45.9752228204556,-89.88560081657943
"54548","Minocqua","WI","Snap Fitness","1575 N Ush 51","54568",45.92573928833008,-89.69715118408203
"54548","Minocqua","WI","Snap Fitness","7719 Hixon Rd","54548",45.836675,-89.726398
"54557","Presque Isle","WI","Home Gym","not_available","54557",46.21253967285156,-89.80801391601562
"54601","La Crosse","WI","Dahl Family YMCA","1140 Main St","54601",43.81145057651595,-91.23950211197567
"54601","La Crosse","WI","Cleary Family Wellness Center","not_available","54601",43.810743,-91.238957
"54601","La Crosse","WI","Snap Fitness","1806 State Road 16","54601",43.84923778311739,-91.2119145211088
"54601","La Crosse","WI","Anytime Fitness","1220 Crossing Meadows Dr Ste 150","54650",43.86871,-91.21406
"54601","La Crosse","WI","Be Fit Gym","not_available","54603",43.855812072753906,-91.24199676513672
"54601","La Crosse","WI","Anytime Fitness","112-114 5th Ave S","54601",43.81146,-91.25034
"54601","La Crosse","WI","Coulee Region Boot Camp (Fitness Revolution)","131 6th St","not_available",43.810604000142185,-91.24808925395563
"54601","La Crosse","WI","Snap Fitness- La Crosse","2432 State Rd","54601",43.79495391416289,-91.21912942539035
"54601","La Crosse","WI","Studio Fit","400 Main St","54650",43.812291230636404,-91.2509784277224
"54601","La Crosse","WI","Posh-Fit","127 6th St.","54601",43.81071066769324,-91.24823958004409
"54601","La Crosse","WI","Premier Fitness","505 King St Ste 5","54601",43.81048140875896,-91.24936350357167
"54601","La Crosse","WI","Holiday Inn Fitness Room","200 Pearl St","54601",43.81185531616211,-91.25444793701172
"54601","La Crosse","WI","Iron Physique","Lacrosse St","54603",43.84656158521294,-91.24794616756509
"54601","La Crosse","WI","La Crosse Fitness","3966 Mormon Coulee Rd","54601",43.773932,-91.220776
"54601","La Crosse","WI","Fitness Lying Down","1501 Saint Andrew St","54603",43.8337376857055,-91.23511476796705
"54601","La Crosse","WI","Anytime Fitness","Mormon Coulee Rd & Losey Blvd","54601",43.81157572889104,-91.25055581331253
"54601","La Crosse","WI","CrossFit La Crosse","303 Causeway Blvd","54603",43.825477600097656,-91.25261688232422
"54603","La Crosse","WI","Eupraxia","1300 Oak Forest Dr","54650",43.87207498749472,-91.21672516742618
"54603","La Crosse","WI","Curves Onalaska","986 12th Ave S","54650",43.871878,-91.219706
"54603","La Crosse","WI","QuickHIT Fitness Lab","1024 Main St Ste 1","54650",43.8841089,-91.2235863
"54603","La Crosse","WI","Auto Value","143 Sand Lake Rd","54650",43.885917,-91.22113
"54603","La Crosse","WI","Coulee Region Fitness, LLC","209 Sand Lake Rd","54650",43.885917,-91.22113
"54610","Alma","WI","Anytime Fitness","611 Broadway Ave","55981",44.379540999999996,-92.02815
"54612","Arcadia","WI","Platinum Fitness","not_available","54612",44.24964879946826,-91.4821505681072
"54615","Black River Falls","WI","24/7 Fitness","not_available","54615",44.292565037987195,-90.84223014657391
"54615","Black River Falls","WI","Dist 1 Community Center","W7160 Lowcloud Rd","54615",44.33005204989928,-90.7658592750581
"54615","Black River Falls","WI","Haag Gym","332 Main St","54615",44.294846,-90.851329
"54618","Camp Douglas","WI","Volk Gym","not_available","54618",43.9326275327743,-90.28753215396077
"54618","Camp Douglas","WI","USPFO Gym","not_available","54660",43.92866798649259,-90.27237343547894
"54624","De Soto","WI","De Soto Fitness Wellness Center","Main Street","54624",43.423683235386505,-91.19765710440288
"54627","Ettrick","WI","Flex Appeal Fitness","16853 S Main St","54630",44.081550705617204,-91.34912967681885
"54629","Fountain City","WI","Saint Mary's Fieldhouse","701 Terrace Heights","55987",44.044105658089414,-91.69455528259277
"54629","Fountain City","WI","Snap Fitness","not_available","55987",44.046543,-91.668712
"54629","Fountain City","WI","Anytime Fitness","975 Frontenac Dr","55987",44.03494,-91.61782
"54629","Fountain City","WI","P90X Gym","157 saint charles street","55987",44.04658885051712,-91.61975383758544
"54630","Galesville","WI","Tremplo Finess","not_available","54661",44.00617033867242,-91.43095727170676
"54634","Hillsboro","WI","Fit4Life","131 Mill St","54634",43.651011,-90.34060799999999
"54634","Hillsboro","WI","Ambitious Fitness","821 Water Ave","54634",43.65122985839844,-90.33977508544922
"54636","Holmen","WI","curves in holmen","not_available","54636",43.963109676558105,-91.2738349627783
"54636","Holmen","WI","Iron Works Training Center","301 Ryan St","54636",43.9630756074004,-91.27384016678923
"54636","Holmen","WI","Be Fit","800 S Holmen Dr","54636",43.95836750403296,-91.26192784135168
"54636","Holmen","WI","CrossFit La Crosse NORTH","N6379 Cole Ct #103","54650",43.951568603515625,-91.26139831542969
"54636","Holmen","WI","Burn Boot Camp","500 N Holmen Dr","54636",43.96783,-91.26519
"54650","Onalaska","WI","Gymnasium","not_available","54650",43.909669,-91.237684
"54650","Onalaska","WI","Studio 16","9550 Hwy 16","54650",43.884199,-91.17121999999999
"54656","Sparta","WI","Best Western Gym","not_available","54656",43.94381332397461,-90.76801300048828
"54656","Sparta","WI","Fit4Life","400 Century Ct","54656",43.942184999999995,-90.79207
"54656","Sparta","WI","Women's Gym","100 N Water St","54656",43.944549560546875,-90.81112670898438
"54656","Sparta","WI","Anytime Fitness","2101 West Wisconsin Street","54656",43.93652704774215,-90.84024986569021
"54656","Sparta","WI","Sparta Youth Wrestling, Parks Gym","923 E Montgomery St, Sparta, WI 54656","54656",43.949668884277344,-90.79676818847656
"54656","Sparta","WI","Snap Fitness","261-399 Wisconsin 71","54656",43.94668218066532,-90.82069810549478
"54660","Tomah","WI","Anytime Fitness","1018 Superior Ave. S.","54660",43.97703,-90.50455
"54660","Tomah","WI","The Fitness Connection","510 N Superior Ave","54660",43.99202091139768,-90.50495650011489
"54665","Viroqua","WI","Anytime Fitness","1218 N Main St","54665",43.573482,-90.88934499999999
"54665","Viroqua","WI","Auto Value","1306 N Main St","54665",43.57594680786133,-90.88981628417969
"54669","West Salem","WI","Curves","150 Leonard St S","54669",43.895843505859375,-91.0816879272461
"54669","West Salem","WI","Anytime Fitness","1500 W City Hwy 16","54669",43.89955,-91.10724
"54669","West Salem","WI","Ohana Yoga Studio","126 Leonard St","54669",43.896477000000004,-91.081583
"54669","West Salem","WI","Snap Fitness","not_available","54669",43.898771999999994,-91.081807
"54669","West Salem","WI","eupraxia","480 Commerce St","54669",43.901100158691406,-91.08971405029297
"54701","Eau Claire","WI","Highland Fitness Eastridge","2221 Eastridge Ctr","54701",44.80589925797486,-91.46938407775744
"54701","Eau Claire","WI","Gold's Gym","3225 Lorch Ave","54701",44.761276850843615,-91.45530877274476
"54701","Eau Claire","WI","Eau Claire YMCA","700 Graham Ave","54701",44.80635209095742,-91.49656268363546
"54701","Eau Claire","WI","Curves/Jenny Craig","3198 London Rd","54701",44.787061,-91.463986
"54701","Eau Claire","WI","Snap Fitness","3445 E Hamilton Ave","54701",44.78562176443787,-91.45359837338425
"54701","Eau Claire","WI","Fitness Freedom","60 S Barstow St","54701",44.8124796,-91.50096040000001
"54701","Eau Claire","WI","Exceptional Athletics","800 Wisconsin St Unit 4 Ste 215","54703",44.815521240234375,-91.49166107177734
"54701","Eau Claire","WI","One Tree Martial Arts","1417 S Hastings Way Ste B","54701",44.803495332598686,-91.47006444633007
"54701","Eau Claire","WI","Anytime Fitness","329 Water St","54703",44.80172,-91.50702
"54701","Eau Claire","WI","The Fitness Center @ AR","2402 Ridgeview Dr","54701",44.781354,-91.466868
"54701","Eau Claire","WI","Anytime Fitness","2532 Golf Rd","54701",44.77234,-91.4644
"54701","Eau Claire","WI","3D Fitness","405 Graham Ave","54701",44.809498,-91.498778
"54701","Eau Claire","WI","Plaza Exercise Room","not_available","54701",44.794201,-91.520131
"54703","Eau Claire","WI","Highland Fitness","2573 Commercial Blvd","54729",44.88655871394089,-91.41901316054103
"54703","Eau Claire","WI","New Image Pace Fitness","1942 Hallie Rd","54729",44.871429443359375,-91.4386215209961
"54703","Eau Claire","WI","Dynamic Fitness & Strength","2020 Prairie Ln","54703",44.8452346,-91.5369082
"54703","Eau Claire","WI","Anytime Fitness","2625 Birch St","54703",44.82041,-91.47238
"54703","Eau Claire","WI","The Gym","not_available","54729",44.86708068847656,-91.44796752929688
"54703","Eau Claire","WI","Highland Fitness","2405 Folsom St","54703",44.82794311919795,-91.54249138335108
"54727","Cadott","WI","Serenity Fitness and Tan","340 N. Main","54727",44.95017562338351,-91.15062475204468
"54728","Chetek","WI","Chetek itness F","not_available","54728",45.321986,-91.660909
"54729","Chippewa Falls","WI","Life Fitness Center","Bridge St","54729",44.93724691901927,-91.39357647949873
"54729","Chippewa Falls","WI","Little Britain Cricket Club","123 fu avenue","not_available",44.938010305115185,-91.37303352355957
"54729","Chippewa Falls","WI","Snap Fitness","Chippewa Mall Dr","not_available",44.925385236607156,-91.38023553622683
"54729","Chippewa Falls","WI","Wissota Fitness Tanning & Massage","16850 County Highway X","54729",44.922897,-91.330342
"54730","Colfax","WI","Anytime Fitness","225 E Bremer Ave Ste 103","54730",44.991994,-91.728936
"54751","Menomonie","WI","Bodyworks","3019 Schneider Ave SE","54751",44.88382657935722,-91.89208607656676
"54751","Menomonie","WI","Zumba","not_available","54751",44.863101959228516,-91.9281997680664
"54751","Menomonie","WI","Man Cave Fitness","Basement St.","not_available",44.895107,-91.944004
"54751","Menomonie","WI","Anytime Fitness","1700 Stout St","54751",44.9022,-91.93015
"54755","Mondovi","WI","Anytime Fitness","162 S Eau Claire St","54755",44.567223,-91.670271
"54768","Stanley","WI","Snap Fitness","not_available","54768",44.94989816061722,-90.93727457479949
"54769","Stockholm","WI","Anytime Fitness","1205 N 7th St","55041",44.454681,-92.285765
"54771","Thorp","WI","Thorp Fitness and Therapy","not_available","54771",44.959736,-90.800092
"54806","Ashland","WI","Chequamegon Fitness","not_available","54806",46.585724,-90.889076
"54806","Ashland","WI","Ashland Zumba and Fitness with Nichole","310 5th Ave E","54806",46.592544,-90.87673
"54806","Ashland","WI","Snap Fitness","1804 Lake Shore Dr E","54806",46.601138,-90.861873
"54840","Grantsburg","WI","Grantsburg Health And Fitness","not_available","54840",45.772800931042575,-92.69927772721094
"54843","Hayward","WI","Snap Fitness","not_available","54843",46.007199053060276,-91.49138313115955
"54854","Maple","WI","Tiger Fitness Center","not_available","54854",46.592029969329126,-91.72232290642305
"54868","Rice Lake","WI","TRAinLLC","711 S Main St","54868",45.49251174926758,-91.73296356201172
"54868","Rice Lake","WI","Snap Fitness","not_available","54868",45.49759241831051,-91.73337338257343
"54868","Rice Lake","WI","Olympic Fitness Center","800 Hammond Ave","54868",45.50977817647863,-91.73984324604456
"54871","Shell Lake","WI","The body shop","not_available","54871",45.717481676119576,-91.92319970184533
"54872","Siren","WI","Anytime Fitness","24556 State Hwy 35/70","54872",45.8079,-92.37323
"54880","Superior","WI","Marcovich Wellness Center","1810 Catlin Ave","54880",46.71604181158493,-92.08713354456093
"54880","Superior","WI","North Star Health & Fitness","2806 Belknap St","54880",46.72039810957586,-92.1197644272241
"54880","Superior","WI","Superior YMCA","9 N 21st St","54880",46.713910866045936,-92.07741279389262
"54880","Superior","WI","Fitness Center","not_available","55810",46.743496,-92.237102
"54880","Superior","WI","Anytime Fitness","215 N. Central Ave.","55807",46.73697,-92.16864
"54880","Superior","WI","Anytime Fitness","823 Belknap St","54880",46.72107,-92.0907
"54880","Superior","WI","Curves","1420 Belknap St","54880",46.720314025878906,-92.09905242919922
"54880","Superior","WI","Basement Laundry/Gym","not_available","54880",46.72538874363781,-92.09791660308838
"54901","Oshkosh","WI","Anytime Fitness","312 N Koeller St","54902",44.02202,-88.58105
"54901","Oshkosh","WI","YMCA","324 Washington Ave","54901",44.0195181659615,-88.53121979282881
"54901","Oshkosh","WI","100 N Main","100 N Main St","54901",44.01565240940572,-88.53692859652698
"54901","Oshkosh","WI","Definition X","146 Algoma Blvd","54901",44.01884474152634,-88.53944254153569
"54901","Oshkosh","WI","The Estate on Main Sideyard","1038 N Main St","54901",44.030381,-88.53729399999999
"54901","Oshkosh","WI","My Gym","200-298 W 10th Ave","54902",44.00973379611969,-88.54376971721649
"54901","Oshkosh","WI","King's Personal Training & Equipment","3116 Algoma Blvd","54901",44.056542,-88.571701
"54901","Oshkosh","WI","Tamara's Personal Training","1012 Oregon St","54902",44.00892,-88.542227
"54901","Oshkosh","WI","New Gym","not_available","54902",44.02381232154383,-88.56317306675247
"54901","Oshkosh","WI","Oshkosh Area School District: Recreation Department","425 Division St","54901",44.019903586496675,-88.54005222801528
"54901","Oshkosh","WI","UFit","100 City Ctr","54901",44.015674,-88.54024
"54901","Oshkosh","WI","Sherwood Forest","not_available","54901",44.022839069366455,-88.53873789310455
"54902","Oshkosh","WI","Planet Fitness","1971 S Koeller St","54902",44.0037062,-88.5819304
"54904","Oshkosh","WI","YMCA- Prime Time","3303 W 20th Ave","54904",43.994854,-88.616822
"54904","Oshkosh","WI","Anytime Fitness","102 N 13th Ave","54986",44.1133,-88.69426
"54904","Oshkosh","WI","Synergy Personal Training","1180 Emmers Ln.","54904",44.03095245361328,-88.59363555908203
"54904","Oshkosh","WI","hawthorne suits gym","not_available","54904",43.98135757446289,-88.58479309082031
"54911","Appleton","WI","BODYCOMBAT","1700 N Appleton St","54911",44.276663,-88.406925
"54911","Appleton","WI","Raddison Fitness Center","333 W College Ave","54911",44.26122283935547,-88.40946197509766
"54911","Appleton","WI","experience fittness","not_available","54914",44.272908613368195,-88.40105229309043
"54911","Appleton","WI","Lingengym","not_available","54911",44.28156280517578,-88.38436126708984
"54911","Appleton","WI","Reveal Fitness","2828 N Richmond St","54911",44.288187510289056,-88.41516692958764
"54911","Appleton","WI","Richmond Terrace Gym","400 N Richmond St","54911",44.264969,-88.41378
"54911","Appleton","WI","Ellipse Fitness","3505 Commerce Ct","54911",44.295979938128085,-88.37697913208208
"54911","Appleton","WI","Fox Valley Fit Club","216 E Summer St","54911",44.272789,-88.402826
"54911","Appleton","WI","Fox River Fitness Boot Camp","101 W Edison Ave","54915",44.25491714477539,-88.40483093261719
"54913","Appleton","WI","Premier Fitness","2408 W. Northdale Dr.","54914",44.28765385159241,-88.44592234917958
"54913","Appleton","WI","Xperience Fitness","1280 N Hard Dr","54914",44.27238162353392,-88.43849649935697
"54913","Appleton","WI","Big Papas Iron Pumping Emporium","not_available","54913",44.276176,-88.483107
"54913","Appleton","WI","Limitless Boot Camp","1000 W Wisconsin Ave","54914",44.27344,-88.42055
"54913","Appleton","WI","GCFD Station No. 2 Gym","2920 W Highview Dr","54914",44.26738739013672,-88.4517822265625
"54913","Appleton","WI","Inches-A-Weigh","4774 W Integrity Way","54913",44.271996,-88.478001
"54913","Appleton","WI","Anytime Fitness","1401 N Casaloma Dr","54913",44.27443924,-88.47672508
"54913","Appleton","WI","Orangetheory Fitness","4301 W Wisconsin Ave","54913",44.27018,-88.471365
"54913","Appleton","WI","Ellipse Fitness - Appleton West","1200 N Mayflower Dr","54913",44.27193847944329,-88.49570719547035
"54913","Appleton","WI","Fit Body Solutions","5750 W Grande Market Dr","54913",44.263894,-88.495949
"54913","Appleton","WI","Xcel Sports","2693 W Grand Chute Blvd","54913",44.30081881319535,-88.4501544336723
"54913","Appleton","WI","YMCA - Apple Creek","2851 E Apple Creek Rd","54913",44.33338611680299,-88.36005056620237
"54913","Appleton","WI","CrossFit of Appleton","W6131 Schroth Ln","54942",44.27327699176016,-88.4975515116723
"54913","Appleton","WI","GrandStay Fitness Room","300 N Mall Dr","54913",44.26408767700195,-88.47200775146484
"54913","Appleton","WI","The ""Fit"" Room","Lynndale Ave","54914",44.28703996981186,-88.44544444905425
"54914","Appleton","WI","YMCA - Fox West","W6939 School Rd","54942",44.287000799003955,-88.5392566878249
"54914","Appleton","WI","Baker Pool Spa & Fitness","700 S Westland Dr","54914",44.256423999999996,-88.465223
"54914","Appleton","WI","GG INTENSITY","1700 Appleton Rd, Menasha, WI 54952","54952",44.23184585571289,-88.42669677734375
"54914","Appleton","WI","ultimate fusion athletics","1670 Drum Corps Dr","54952",44.232676430483906,-88.4229755353498
"54914","Appleton","WI","UW Fox Fitness Center","1478 Midway Rd","54952",44.2315559387207,-88.41568756103516
"54914","Appleton","WI","RPM","1700 Appleton Rd","54952",44.23184585571289,-88.42669677734375
"54914","Appleton","WI","monkey joe's","not_available","54952",44.24193613575794,-88.46419685471697
"54914","Appleton","WI","Planet Fitness","2700 W College Ave","54914",44.2601044,-88.4584256
"54915","Appleton","WI","Crunch - Appleton","2500 South Kensington Drive","54915",44.2390712,-88.3622552
"54923","Berlin","WI","Berlin fitness","756 Broadway","54923",43.96718978881836,-88.97492218017578
"54923","Berlin","WI","Health Connection","104 W Huron St","54923",43.945788,-88.95085
"54935","Fond Du Lac","WI","The Zone Agnesian Employee Gym","430 E Division St, Fond du Lac, WI 54935","54935",43.77776336669922,-88.43110656738281
"54935","Fond Du Lac","WI","Dedicated Fitness","44 N Main St","54935",43.780028,-88.447363
"54935","Fond Du Lac","WI","Anytime Fitness","209 N Macy St Ste. B","54935",43.78464,-88.44833
"54935","Fond Du Lac","WI","Sabish Gym","100 N Peters Ave","54935",43.78164291381836,-88.47298431396484
"54935","Fond Du Lac","WI","Acuity Fieldhouse","not_available","54935",43.79524,-88.417626
"54941","Green Lake","WI","Green Lake Fitness","492 Hill St","54941",43.845611572265625,-88.96092224121094
"54941","Green Lake","WI","Lilypad","not_available","54941",43.8500792136083,-88.95974421158948
"54944","Hortonville","WI","HHS weight room","Hortonville High School","54944",44.335926383303175,-88.65643956763672
"54944","Hortonville","WI","Lincoln Elementary Gym","201 E Washington St","54961",44.3869514465332,-88.73770141601562
"54952","Menasha","WI","Lake Park Swim And Fitness","730 Lake Park Rd","54952",44.20772798844752,-88.3824148192169
"54952","Menasha","WI","YMCA Neenah/Menasha","110 W North Water St","54956",44.19032306068685,-88.45971291777967
"54952","Menasha","WI","Curves Neenah","119 E Bell St","54956",44.15653610229492,-88.46013641357422
"54952","Menasha","WI","Shattuck Middle School Fitness Room","600 Elm St","54956",44.177273,-88.45607199999999
"54952","Menasha","WI","Horace Mann Fitness Room","1021 Oak St","54956",44.168659000000005,-88.461014
"54952","Menasha","WI","Curves Menasha","896 9th St","54952",44.215633392333984,-88.43363189697266
"54956","Neenah","WI","KC Exercise Facility","not_available","54956",44.215079,-88.512083
"54956","Neenah","WI","Anytime Fitness","860 Fox Pt Plz","54956",44.17541,-88.48414
"54956","Neenah","WI","enspire","4876 W Lawrence St","54914",44.26218032836914,-88.48153686523438
"54956","Neenah","WI","NHS Fitness Center","1275 Tullar Road","54956",44.16276931762695,-88.4975814819336
"54956","Neenah","WI","Wisconsin Volleyball Academy Facility","4898 W Lawrence St","54914",44.26150894165039,-88.47998046875
"54961","New London","WI","Fitness Center - Washington Center","904 Oshkosh St","54961",44.385284423828125,-88.74657440185547
"54961","New London","WI","Anytime Fitness","1111 N Shawano St","54961",44.40562,-88.74253
"54971","Ripon","WI","Anytime Fitness","1069 W Fond Du Lac St","54971",43.85209,-88.85777
"54971","Ripon","WI","RHS Weight Room","not_available","54971",43.83602,-88.831598
"54971","Ripon","WI","Barlow Park Gym","100 Ringstad Dr","54971",43.829072,-88.837987
"54971","Ripon","WI","Barlow Park Elementary Gym","100 Ringstad Dr.","54971",43.828775,-88.838933
"54981","Waupaca","WI","Anytime Fitness","970 Furman Dr","54981",44.35728,-89.10724
"54981","Waupaca","WI","Health and Fitness Headquarters hwy22","not_available","54981",44.33343440931907,-89.1099680529583
"54982","Wautoma","WI","Wautoma High School Fitness Center","514 S Cambridge St","54982",44.070801,-89.299221
