"zip","city","state","name","address","postalCode","lat","lon"
"50003","Adel","IA","Being A Bulldog!","not_available","50003",41.52848646756989,-93.95200130700724
"50003","Adel","IA","Adel Tumbling & Dance Club","Raccoon River Valley Trail","50003",41.615541702356865,-94.01605875616495
"50003","Adel","IA","Anytime Fitness","215 S 6th St Ste A","50003",41.61564,-94.01473
"50009","Altoona","IA","The Orange Planet","5650 Metro East Dr","50327",41.60545298754316,-93.4998319180492
"50009","Altoona","IA","Anytime Fitness","160 Adventureland Dr Ste E","50009",41.66272,-93.46528
"50009","Altoona","IA","Priority Crossfit","550 8th St SW","50009",41.64360500227156,-93.47063261673779
"50009","Altoona","IA","Mr. B's","not_available","not_available",41.64313704319952,-93.4528642623939
"50009","Altoona","IA","Fitness World East","4400 E University Ave","50327",41.601192474365234,-93.52709197998047
"50009","Altoona","IA","Farrell's eXtreme Bodyshaping","1003 8th St SW","50009",41.644760625549345,-93.47628431472234
"50009","Altoona","IA","The Gym","not_available","50035",41.67233496766195,-93.47534781157884
"50009","Altoona","IA","KOSAMA","3160 8th St SW","50009",41.64312278929752,-93.50118078394371
"50009","Altoona","IA","Impact Fitness","120 1st Ave N","50009",41.652772,-93.46609699999999
"50009","Altoona","IA","Anytime Fitness","4490 E University Ave","50327",41.60132,-93.52559
"50009","Altoona","IA","Altoona Towers Fitness Center","1616 Adventureland Dr","50009",41.658119201660156,-93.48263549804688
"50009","Altoona","IA","Altoona Campus","1500 8th St SW","50009",41.64393997192383,-93.48198699951172
"50009","Altoona","IA","Champs Fitness","4503 NE 50th St.","50009",41.642208,-93.514782
"50010","Ames","IA","Lied Recreation Athletic Facility","Beach Rd","50011",42.026627397866626,-93.63740596319694
"50010","Ames","IA","State Gym","Union Dr","50011",42.02491717488565,-93.65344404881525
"50010","Ames","IA","Anytime Fitness","414 S 17th St","50010",42.00609,-93.61562
"50010","Ames","IA","curves","620 Lincoln Way","50010",42.021053864617635,-93.61875106168057
"50010","Ames","IA","Wessex Gym","Wessex Dr.","50014",41.995684670855965,-93.64142060279846
"50010","Ames","IA","Anytime Fitness","823 Wheeler St Ste 6","50010",42.05472,-93.62298
"50010","Ames","IA","Ghetto  Workout Room","Lynn Ave","50014",42.025292156174,-93.65252897071588
"50010","Ames","IA","Ames Racquet & Fitness","320 S 17th St","50010",42.0058047354609,-93.6143723796068
"50010","Ames","IA","Ames Community Center","6th st","50010",42.0261453551074,-93.61807796198804
"50010","Ames","IA","Orangetheory Fitness","725 24th St","50010",42.046138763427734,-93.62137603759766
"50010","Ames","IA","Surefire Fitness","126 S 3rd St","50010",42.019742227607935,-93.61143841429634
"50010","Ames","IA","Cornerstone Gymnasium","56829 US Highway 30","50010",42.009849548339844,-93.56643676757812
"50010","Ames","IA","Kosama","546 Main St","50010",42.02479695194976,-93.61903215783404
"50010","Ames","IA","B-Fit Personal Training Studio","not_available","50010",42.075897216796875,-93.62043762207031
"50010","Ames","IA","South Duff Community Gym","614 Billy Sunday Rd","50010",42.00236892700195,-93.60310363769531
"50010","Ames","IA","SDCP Gym","600 Billy Sunday Rd","50010",42.00225582,-93.60570857000002
"50010","Ames","IA","Family Martial Arts Center","231 Main St","50010",42.0250887046605,-93.61344318517958
"50010","Ames","IA","Wall-Nut Creek Indoor Climbing Gym","27563 530th Ave","50134",41.957066,-93.63958199999999
"50010","Ames","IA","The Plex","Union Drive Community Ctr","50012",42.024328,-93.652109
"50010","Ames","IA","P90X","150 Campus Ave #12","50014",42.024566650390625,-93.6566162109375
"50014","Ames","IA","Anytime Fitness","5820 W Lincoln Way Ste 103","50014",42.02237,-93.69785
"50014","Ames","IA","CrossFIT West Ames","1321XB W Lincoln Way","50014",42.02184735527834,-93.71539137529263
"50014","Ames","IA","Ames Racquet & Fitness Center","4700 Mortensen Rd","50014",42.011842198743715,-93.68357389081771
"50014","Ames","IA","University Plains Gym","4912 Mortensen Rd","50014",42.01256561279297,-93.687255859375
"50014","Ames","IA","All Iowa Attack","1005 West Towne","50014",42.01383126644599,-93.68196147890595
"50021","Ankeny","IA","Mack Performance and Fitness","not_available","50021",41.716385,-93.594664
"50021","Ankeny","IA","Orangetheory Fitness","833 E 1st St","50021",41.73138353636889,-93.58538126684022
"50021","Ankeny","IA","TGR Fitness","1605 SE Delaware Ave Ste C","50021",41.713744982347826,-93.58007152555828
"50021","Ankeny","IA","Christian Life Centrr","1000 NE 36th Street","50021",41.715785233333335,-93.58741246666666
"50021","Ankeny","IA","Ashbrooke Gym","320 NE Delaware Ave","50021",41.73511862754822,-93.58045935630798
"50021","Ankeny","IA","Crossfit Ankeny","1450 NE 69th Pl Ste 52","50021",41.68690458377654,-93.60026560364525
"50021","Ankeny","IA","Farrells eXtreme Bodyshaping","121 NE 18th St","50021",41.74588,-93.5983
"50021","Ankeny","IA","Hampton Inn Fitness Center","6210 SE Convenience Blvd","50021",41.681629,-93.573646
"50021","Ankeny","IA","Fitness World Ankeny","116 SE Lorenz Dr","50021",41.709475042883156,-93.59978772501653
"50021","Ankeny","IA","Kosama","1555 SE Delaware Ave","50021",41.715078519977595,-93.5807167475098
"50021","Ankeny","IA","Iowa Allstars Cheerleading and Tumbling","1421 SE Cortina Dr","50021",41.716289,-93.592522
"50021","Ankeny","IA","Anytime Fitness","2785 N Ankeny Blvd Ste 15 - Briarwood Ctr","50021",41.75395,-93.59945
"50021","Ankeny","IA","Crossfit Ankeny","375 SE Oralabor Rd","50021",41.7026591624369,-93.59532108264538
"50022","Atlantic","IA","Treadmill","not_available","50022",41.3789,-95.012681
"50022","Atlantic","IA","Anytime Fitness","1520 E. 7th St.","50022",41.40536880493164,-94.99114227294922
"50023","Ankeny","IA","Anytime Fitness","2505 SW White Birch Dr","50023",41.70463,-93.62666
"50023","Ankeny","IA","Fitness World West","SW Market St.","50023",41.71284484863281,-93.61943054199219
"50023","Ankeny","IA","2901 Gym","2901 NW 5th St","50023",41.735444,-93.637113
"50023","Ankeny","IA","YogaSix","1510 SW Vintage Pkwy., Suite 210","50023",41.71293202936129,-93.61938256804683
"50023","Ankeny","IA","Fitness World","110 N Ankeny Blvd","50023",41.733190048458674,-93.60164137376496
"50023","Ankeny","IA","Snap Fitness Ankeny","1810 SW White Birch Cir","50023",41.70223617553711,-93.62406921386719
"50023","Ankeny","IA","Snap Fitness","1810 SW White Birch Cir #107","50023",41.70253007527243,-93.62479500050217
"50023","Ankeny","IA","Aspen Athletic Clubs Ankeny","1802 N Ankeny Blvd","50023",41.74743809,-93.60196723
"50023","Ankeny","IA","Farrell's eXtreme Body Shaping","2803 SW Oralabor Rd","50023",41.70220979453195,-93.63635708465574
"50023","Ankeny","IA","Cottontail Creek Executive Gym","7297 NW Fisher Ln","50023",41.693934,-93.662884
"50023","Ankeny","IA","Pure Barre","1450 SW Vintage Pkwy Ste 140","50023",41.712837,-93.6185683
"50023","Ankeny","IA","Burn Boot Camp","502 N Ankeny Blvd","50023",41.73602,-93.60128
"50036","Boone","IA","TFW Boone, IA","724 8th St, Boone, IA 50036","50036",42.06385,-93.891994
"50036","Boone","IA","Boone Curves","813 Story St","50036",42.064380154778,-93.8800234797236
"50036","Boone","IA","Boone Fitness Factory","422 9th st","50036",42.064701080322266,-93.88709259033203
"50036","Boone","IA","Anytime Fitness","1312 S Marshall St","50036",42.0412409,-93.876984
"50036","Boone","IA","Boone County Family YMCA","608 Carroll St","50036",42.06205056341265,-93.88482355663815
"50036","Boone","IA","Boone Middle School Gym","1640 1st St","50036",42.054925,-93.866499
"50046","Cambridge","IA","Citizens Community Center","not_available","50124",41.898265963128615,-93.60715382819421
"50046","Cambridge","IA","Anytime Fitness","700 US-69","50124",41.89974,-93.60369
"50047","Carlisle","IA","The Wildcat Athletic Center","430 School St","50047",41.49688720703125,-93.48883819580078
"50047","Carlisle","IA","Indianola YMCA","306 E. Scenic Valley Ave.","50125",41.38280893613206,-93.55545146488377
"50047","Carlisle","IA","ICE Performance Training Center","8809 SE 32nd Ave.","50237",41.55021228295865,-93.42550265150564
"50047","Carlisle","IA","Snap Fitness","115 N. 1st St.","50047",41.49874656297544,-93.4867778909464
"50047","Carlisle","IA","Fuller Fitness 34","4007 SE 34th St","50320",41.546478,-93.547852
"50049","Chariton","IA","snap fitness","N Grand, Chariton, IA 50049","50049",41.01483917236328,-93.30657196044922
"50049","Chariton","IA","barbell ClubClub","not_available","50049",41.01548995156067,-93.3107893003367
"50055","Collins","IA","Collins Wellness Center","not_available","50055",41.901121,-93.305262
"50060","Corydon","IA","Octane(gym)","3003 Summit","not_available",40.840736389160156,-93.4718017578125
"50061","Cumming","IA","Heather's Gym","not_available","50061",41.456722259521484,-93.79377746582031
"50063","Dallas Center","IA","Waukee Family YMCA","210 N Warrior Ln","50263",41.6174176050806,-93.87384601832142
"50063","Dallas Center","IA","Max Life","75 NE Venture Dr Unit H","50263",41.61749303788801,-93.87053507758279
"50063","Dallas Center","IA","Crossfit Primal","75 NE Venture Dr","50263",41.617442797363736,-93.87061025055147
"50063","Dallas Center","IA","Farrell's eXtreme Bodyshaping","215 N Warrior Ln","50263",41.6175883851332,-93.87146334528894
"50070","Dexter","IA","Stuart Fitness Center","124 N Fremont","50250",41.50467537957559,-94.31720171148353
"50070","Dexter","IA","no sweat fitness","not_available","50070",41.516353607177734,-94.22828674316406
"50078","Ferguson","IA","Ferguson Community Center","2887 290th St","50158",41.935489654541016,-92.86678314208984
"50111","Grimes","IA","Climb Iowa","5401 Miehe Dr","50111",41.65925402935482,-93.76596814953072
"50111","Grimes","IA","Crossfit 515","3100 SE Grimes Blvd","50111",41.66296541389675,-93.7766844186236
"50111","Grimes","IA","Farrell's eXtreme Bodyshaping","5601 Gateway Drive, Ste 300","50111",41.66272447703815,-93.7759097845845
"50111","Grimes","IA","Anytime Fitness","255 SW Brookside Dr","50111",41.68783793,-93.77192227
"50111","Grimes","IA","Meadowlark Place Gym 2","not_available","50111",41.679153,-93.780699
"50111","Grimes","IA","Carrot Top's Fitness Studio","not_available","50322",41.64829635620117,-93.7728271484375
"50111","Grimes","IA","Snap Fitness","1451 SE Gateway Cir Ste 100","50111",41.678738737794,-93.78903497928337
"50111","Grimes","IA","DSM Performance","10619 Aurora Ave","50322",41.6409694,-93.76295240000002
"50111","Grimes","IA","Gemini","3980 NW Urbandale Dr","50322",41.63309860229492,-93.75868225097656
"50111","Grimes","IA","province point workout area","Providence Dr, Johnston, IA 50131","50131",41.68062925247651,-93.76972716230655
"50111","Grimes","IA","Home Gym","not_available","50323",41.641455,-93.82031
"50112","Grinnell","IA","Anytime Fitness","105 W St S Ste A","50112",41.73138,-92.72788
"50115","Guthrie Center","IA","High School Gym","West Market Street","50216",41.69278,-94.374762
"50115","Guthrie Center","IA","Workin' Out !","not_available","50115",41.677818,-94.496646
"50125","Indianola","IA","Anytime Fitness","402 N Jefferson Way","50125",41.36367,-93.55816
"50125","Indianola","IA","Fusion Fitness","2205 W 2nd Ave","50125",41.3557058888717,-93.59072817679464
"50125","Indianola","IA","Terrell Gym","not_available","50125",41.374605,-93.569113
"50125","Indianola","IA","Snap Fitness","710 W 2nd (Hwy 92)","50125",41.35867691040039,-93.57032775878906
"50125","Indianola","IA","CrossFit I-Town","1801 W 2nd Ave Ste 1","50125",41.35538101196289,-93.58448791503906
"50125","Indianola","IA","Indianola Tumbling Center","204 S. 9th St","50125",41.35886393,-93.5472694
"50131","Johnston","IA","Power Life Yoga Barre Fitness","8839 Northpark Ct","50131",41.655772359850936,-93.73977184295654
"50131","Johnston","IA","Fitness Evolution","6130 NW 86th St","50131",41.6713241,-93.73757325
"50131","Johnston","IA","Orangetheory Fitness","5300 NW 86th St","50131",41.65626,-93.73716
"50131","Johnston","IA","Winwood Gym","not_available","50131",41.67038443715314,-93.7031652732433
"50131","Johnston","IA","F45 Training Johnston IA","5500 Merle Hay Rd","50131",41.660509,-93.698514
"50131","Johnston","IA","Snap Fitness","5525 Merle Hay Rd","50131",41.66090212850884,-93.69682486027028
"50131","Johnston","IA","Kosama","8805 Chambery Blvd","50131",41.66027651007226,-93.73861431869241
"50131","Johnston","IA","Apex Athletics","5750 NW Beaver Dr","50131",41.66542044330025,-93.68565742299441
"50131","Johnston","IA","S+L Gym","5011 71st St","50322",41.653718,-93.71508399999999
"50131","Johnston","IA","Farrell's Extreme Bodyshaping","5500 NW Johnston Dr, Suite C","50131",41.68332996434064,-93.69446131803674
"50136","Keswick","IA","Irons Street Gym","Irons St, Keswick, IA 50136","50136",41.457802087200854,-92.23601742140241
"50138","Knoxville","IA","Anytime Fitness","213 Roche St","50138",41.32052,-93.09962
"50138","Knoxville","IA","P'ville fitness center","not_available","50225",41.389467728212125,-93.26911657279362
"50156","Madrid","IA","Adio Fitness","201 E 2nd St","50156",41.875724152953524,-93.82174213292993
"50158","Marshalltown","IA","YMCA YWCA","108 Washington St","50158",42.0398341733486,-92.91704036828999
"50158","Marshalltown","IA","Cultural Center","705 S Center St","50158",42.039679062969306,-92.91489285833022
"50158","Marshalltown","IA","MAT Tumbling","1700 S Center St","50158",42.02768931937953,-92.91105894718699
"50158","Marshalltown","IA","Marshalltown High School Roundhouse","Marshalltown High School","50158",42.02979456848969,-92.9074734281005
"50158","Marshalltown","IA","The Fitness Center","not_available","50158",42.00967788696289,-92.92183685302734
"50158","Marshalltown","IA","Veterans Memorial Coliseum","20 W State St","50158",42.0500412552379,-92.9140345694812
"50171","Montezuma","IA","Family Center","300-398 E Washington St","50171",41.58628392063623,-92.52405358420853
"50171","Montezuma","IA","The Running Room","not_available","50171",41.585506439208984,-92.52583312988281
"50201","Nevada","IA","Anytime Fitness","1818 Fawcett Pkwy","50201",42.01202,-93.4357
"50201","Nevada","IA","Fitness AdvantEdge, Nevada, IA","not_available","50201",42.02879778208827,-93.44744669840945
"50201","Nevada","IA","Burke Fitness Center","321 11th St","50201",42.013534,-93.443921
"50201","Nevada","IA","Fitness AdvantEdge","1005 6th St","50201",42.02081139915545,-93.45216829011105
"50207","New Sharon","IA","North Mahaska Gymnasium","Hwy 63","50207",41.45975568485077,-92.64855115866159
"50208","Newton","IA","YMCA","1701 S 8th Ave E","50208",41.69165811401771,-93.03279889950568
"50208","Newton","IA","Carkhuff Workout Facility","not_available","50208",41.701813,-93.041326
"50208","Newton","IA","Anytime Fitness","1707 1st Ave E","50208",41.6991,-93.03175
"50211","Norwalk","IA","Anytime Fitness","1101 Chatham Ave","50211",41.48788,-93.67492
"50211","Norwalk","IA","Underground Fitness","4377 Oxford Dr","50211",41.501705,-93.676241
"50211","Norwalk","IA","High Pointe Gym","not_available","50211",41.48738070347597,-93.67991104473475
"50212","Ogden","IA","Progression","Walnut St","50212",42.039378,-94.019098
"50219","Pella","IA","ITRAC","914 Monroe St","50219",41.41415023803711,-92.92147064208984
"50219","Pella","IA","pella gymnastics","not_available","50219",41.39223861694336,-92.89772033691406
"50219","Pella","IA","Anytime Fitness","819 Broadway St","50219",41.40735,-92.91909
"50220","Perry","IA","McCreary Rec Center","1800 Pattee St","50220",41.84232711791992,-94.09563446044922
"50226","Polk City","IA","Snap Fitness","1010 S 3rd St","50226",41.765798459621976,-93.71754610349683
"50226","Polk City","IA","Fitness Evolution - Polk City","110 W Van Dorn St, Polk City, IA 50226","50226",41.7703971862793,-93.71361541748047
"50236","Roland","IA","New Creations Fitness","not_available","50236",42.167877,-93.500689
"50237","Runnells","IA","Southeast Polk High School Weight Room","7945 NE University Ave","50327",41.59812927246094,-93.44588470458984
"50240","Saint Charles","IA","Phat Club","not_available","50240",41.28855234139603,-93.80671499064297
"50247","State Center","IA","Soleil Tanning And Fitness","101 Main St E","50247",42.016910552978516,-93.16340637207031
"50261","Van Meter","IA","Running club","not_available","50261",41.479375,-93.857681
"50263","Waukee","IA","Life Time Athletic","11911 Hickman Road","50323",41.632009,-93.810514
"50263","Waukee","IA","Anytime Fitness","790 Alice's Rd","50263",41.60526,-93.85343
"50263","Waukee","IA","Orangetheory Fitness","375 S Jordan Creek Pkwy","50266",41.56340460000001,-93.8106005
"50263","Waukee","IA","Champions Fitness Center","7700 Mills Civic Parkway","not_available",41.560355937116896,-93.81460542698595
"50263","Waukee","IA","Treadmill Of Death","not_available","50263",41.60800843488654,-93.87003169406768
"50263","Waukee","IA","Waukee Wellness & Chiropractic","710 SE Alices Rd","50263",41.606193433828615,-93.85341921443933
"50263","Waukee","IA","Crossfit Waukee","693 SE Frontier Ave","50263",41.60624694824219,-93.85591125488281
"50263","Waukee","IA","YogaSix","140 Jordan Creek Pkwy Ste 130","50266",41.56956100463867,-93.81006622314453
"50263","Waukee","IA","Koko Fit Club","9350 University Ave","50266",41.59976260803189,-93.83611252499318
"50263","Waukee","IA","lean body boot camp","not_available","50325",41.608065224624646,-93.85261701927718
"50263","Waukee","IA","Maximum Fitness","8850 University Ave","50266",41.59978115047972,-93.82862237614006
"50263","Waukee","IA","The Springs Gym","8655 Bridgewood Blvd","50266",41.566486,-93.825797
"50263","Waukee","IA","FRB Fitness Center","7601 Office Plaza Dr N #150","50266",41.5875522934249,-93.81152734109116
"50263","Waukee","IA","Holmes Health & Fitness","100 SE Laurel St","50263",41.61322300037105,-93.86991578901832
"50263","Waukee","IA","Athene Champions Fitness Center","7700 Mills Civic Pkwy","50266",41.55807948988136,-93.81245246979752
"50263","Waukee","IA","Spartan Strength","2200 NW 159th St","50325",41.61421493264739,-93.83735033713151
"50263","Waukee","IA","CYCLEBAR","160 Jordan Creek Pkwy Ste 130","50266",41.5697386,-93.8112944
"50263","Waukee","IA","Fitness Center","1906 SE University Ave","50263",41.599609,-93.871499
"50265","West Des Moines","IA","Genesis Health Clubs – Mills Civic","4875 Mills Civic Parkway","50265",41.561204,-93.7685091
"50265","West Des Moines","IA","The Athletic Club","4875 Mills Civic Pkwy","50265",41.56093978881836,-93.7689437866211
"50265","West Des Moines","IA","Walnut Creek Family YMCA","948 73rd St","50324",41.59414972649418,-93.7196208885966
"50265","West Des Moines","IA","Pumpitorium","not_available","50265",41.579436,-93.769725
"50265","West Des Moines","IA","Krave Gym","5010 Ep True Pkwy","50265",41.57109503519658,-93.77257032488329
"50265","West Des Moines","IA","Koko Fit Club","3701 Ep True Pkwy","50265",41.57047610693558,-93.75408968548508
"50265","West Des Moines","IA","Gold's Gym","1550 22nd St","50266",41.59587836727281,-93.73744500711301
"50265","West Des Moines","IA","Maximum Fitness","640 S 50th St","50265",41.56067028088216,-93.76982473553738
"50265","West Des Moines","IA","waukee family gym","not_available","50266",41.587303161621094,-93.77141571044922
"50265","West Des Moines","IA","IHA Gym","100 E Grand Ave","50309",41.58283615112305,-93.70347595214844
"50265","West Des Moines","IA","Elite Edge Gym","2700 University Ave","50266",41.598572827505784,-93.74095420366703
"50265","West Des Moines","IA","Sheraton Fitness","1800 50th St","50266",41.599358,-93.772938
"50265","West Des Moines","IA","Crossfit Afterburn","6107 Willowmere Dr","50321",41.55826187133789,-93.70043182373047
"50265","West Des Moines","IA","Farrell's eXtreme Bodyshaping","1905 Ep True Pkwy","50265",41.57251278276983,-93.73367058768304
"50265","West Des Moines","IA","G's Gym","Plymouth Dr","50266",41.590067866666665,-93.76188815
"50265","West Des Moines","IA","West Towers gym","1200 Valley West Dr","50266",41.589908599853516,-93.75302124023438
"50265","West Des Moines","IA","Old English Fitness Center","not_available","50311",41.5921366855704,-93.72164864766715
"50265","West Des Moines","IA","Anytime Fitness","1925 Grand Ave","50265",41.57246,-93.73139
"50265","West Des Moines","IA","Ymca","633 21st St","50265",41.57895,-93.734374
"50265","West Des Moines","IA","Crossfit West Des Moines","801 73rd Street Ste G","50324",41.59238160166221,-93.71322867076991
"50265","West Des Moines","IA","Studio Plus Exercise Room","2701 Westown Pkwy","50266",41.59696578979492,-93.74115753173828
"50266","West Des Moines","IA","Power Life Yoga","5465 Mills Civic Pkwy","50266",41.561065401901374,-93.78127681747435
"50266","West Des Moines","IA","Aspen Active","5465 Mills Civic Parkway","50266",41.56072144,-93.78083665
"50266","West Des Moines","IA","Scott Hunter Fitness","6150 Village View Dr Ste 150","50266",41.56329162657813,-93.79207609480262
"50266","West Des Moines","IA","Jack's Gym","Union Building","50266",41.55685947279165,-93.80410500765093
"50266","West Des Moines","IA","Curves for Women","5914 Ashworth Rd","50266",41.583791,-93.78913399999999
"50266","West Des Moines","IA","Farm Bureau Wellness Center","5400 University Ave","50266",41.596868533832534,-93.77941674212686
"50266","West Des Moines","IA","Farrell’s eXtreme Bodyshaping","5954 Ashworth Rd","50266",41.584069944274056,-93.78974685351517
"50276","Woodward","IA","WA Weight Room","1251 334th St","50276",41.884029388427734,-93.92221069335938
"50309","Des Moines","IA","Anytime Fitness","300 W Martin Luther King Jr. Pkwy","50309",41.58171,-93.61984
"50309","Des Moines","IA","Residence Inn Gym","100 SW Water St","50309",41.58406066894531,-93.61796569824219
"50309","Des Moines","IA","Midland Building Gym","not_available","50309",41.58493253546784,-93.62422668705817
"50309","Des Moines","IA","Crossfit Downtown","Locust St.","50309",41.58705191689145,-93.62309373923077
"50309","Des Moines","IA","EMC Wellness Center","717 Mulberry St, Des Moines, IA 50309","50309",41.58469466343075,-93.62644726781834
"50309","Des Moines","IA","Metro Lofts Gym","100 2nd Ave - Workout Room","50309",41.58443832397461,-93.61945343017578
"50309","Des Moines","IA","Principal Wellness Center","650 8th St","50392",41.58894116708386,-93.62935728822076
"50309","Des Moines","IA","Power Life Yoga Barre Fitness","1717 Ingersoll Ave","50309",41.586368560791016,-93.64058685302734
"50309","Des Moines","IA","Whiteline Gym","120 SW 5th St","50309",41.58250618198648,-93.62230217510407
"50309","Des Moines","IA","Sweat Shop (Ingersoll Square Gym)","not_available","50312",41.586922,-93.64352
"50309","Des Moines","IA","Spartan Strength","500 Locust St","50309",41.58710607133349,-93.62364946167921
"50309","Des Moines","IA","Olive Ave Gym","not_available","50314",41.594933,-93.64039
"50309","Des Moines","IA","Wellmark Well For Life Center","1331 Grand Ave","50309",41.58641248930658,-93.63266893099122
"50309","Des Moines","IA","I Work Out","Metro Lofts","not_available",41.584487,-93.61998
"50309","Des Moines","IA","TGR Fitness","455 SW 5th St Ste A","50309",41.579776763916016,-93.62056732177734
"50309","Des Moines","IA","Principal Corp 4 Wellness Center","600 SW 7th St","50309",41.5764045715332,-93.62309265136719
"50309","Des Moines","IA","I work out!","Metro Lofts Workout Room","50309",41.585875686444446,-93.61527758934895
"50309","Des Moines","IA","Mulberry Gym Workout","112 11th St Bsmt","50309",41.58329391479492,-93.63062286376953
"50310","Des Moines","IA","Aspen Athletic Club - Merle Hay","4100 Merle Hay Rd","50310",41.636246940236354,-93.6998503721976
"50310","Des Moines","IA","Genesis Health Clubs - Merle Hay","4349 Merle Hay Road","50310",41.6394164,-93.6955275
"50310","Des Moines","IA","DJ's Gym","DMI","50310",41.63199076017538,-93.68400230025198
"50310","Des Moines","IA","Aspen Athletic Clubs","4349 Merle Hay Rd","50310",41.63924789428711,-93.6956787109375
"50310","Des Moines","IA","CrossFit Merle Hay","4367 Merle Hay Rd","50310",41.639926,-93.695347
"50310","Des Moines","IA","Crossfit Flyover","not_available","50310",41.629859,-93.694628
"50310","Des Moines","IA","Westchester Square Fitness Center","5528 Meredith Dr","50310",41.64358139038086,-93.6922378540039
"50310","Des Moines","IA","Snap Fitness","4123 University Ave","50311",41.60074069085843,-93.67390753436338
"50310","Des Moines","IA","Anytime Fitness","2815 Beaver Ave Ste 206","50310",41.62088,-93.67327
"50312","Des Moines","IA","Elevated Fitness","2800","50321",41.585313465611314,-93.65531018194639
"50312","Des Moines","IA","The Family Tree","3900 Ingersoll Ave Ste 108","50312",41.58594216601288,-93.6701500003225
"50312","Des Moines","IA","Integer Fitness Center","2633 Fleur Dr","50321",41.56129247031309,-93.64388283616101
"50313","Des Moines","IA","Saydel High School","5601 NE 7th St","50313",41.6610937075617,-93.60765660330611
"50313","Des Moines","IA","grand view weight room","not_available","50316",41.620056849319816,-93.597967660488
"50314","Des Moines","IA","John R. Grubb Community YMCA","1611 11th St","50314",41.60832712952974,-93.63159786980111
"50314","Des Moines","IA","Mercy Wellness Center","1111 6th Ave","50314",41.59864418683933,-93.6242001944309
"50314","Des Moines","IA","Park Place: Fitness Center","615 Park St","50309",41.59074783325195,-93.62650299072266
"50315","Des Moines","IA","Hy-Vee Fitness","4707 Fleur Dr","50321",41.541581180129924,-93.64346325860554
"50315","Des Moines","IA","South Suburban YMCA","401 E Army Post Rd","50315",41.52558864581504,-93.6090494138567
"50315","Des Moines","IA","P90x City","not_available","50315",41.56197506666667,-93.62132525
"50315","Des Moines","IA","Elite Edge Transformation Center South Des Moines","4233 Fleur Drive","50315",41.546443,-93.64350300000001
"50315","Des Moines","IA","Des Moines Strength Institute","5900 SE 14th St","50320",41.53199805406706,-93.5975127370961
"50315","Des Moines","IA","Snap Fitness","4301 Fleur Dr","50321",41.54506,-93.643452
"50315","Des Moines","IA","Somerset Fitness Center","6620 SE 5th St, Des Moines, IA 50315","50315",41.52299499511719,-93.60750579833984
"50315","Des Moines","IA","Basement Gym","2330 SE 7th St","50315",41.564964294433594,-93.60445404052734
"50315","Des Moines","IA","Aspen Athletic Club","4549 Fleur Dr.","50321",41.54322245540697,-93.64205823836919
"50315","Des Moines","IA","AP Lofts Gym","340 SW 5th Street, Ground Level","50309",41.58034133911133,-93.62165069580078
"50315","Des Moines","IA","Genesis Health Clubs - South Suburban","401 E Army Post Road","50315",41.5255285,-93.6092753
"50317","Des Moines","IA","Snap Fitness","3440 E 33rd St","50317",41.62614249348673,-93.55261477645946
"50317","Des Moines","IA","the gym","not_available","50317",41.63465758735196,-93.53535069527774
"50317","Des Moines","IA","the gym","not_available","50313",41.63442767341487,-93.57340275538957
"50317","Des Moines","IA","Scott Four Mile Community Center","3711 Easton Blvd","50317",41.614349727025385,-93.54264005052487
"50320","Des Moines","IA","Aspen Athletic Club Southside","6103 SE 14th St","50320",41.528724333451166,-93.5956621170044
"50320","Des Moines","IA","Anytime Fitness","5921 SE. 14th St.","50320",41.53124,-93.59527
"50320","Des Moines","IA","Genesis Health Clubs - SE 14th","6103 SE 14th","50320",41.5284885,-93.5949922
"50321","Des Moines","IA","Weston Park Gym","4206 Park Avenue","50321",41.55470840961453,-93.67562697363662
"50321","Des Moines","IA","132d Fighter Wing Fitness Center","3100 McKinley Ave","50321",41.54085922241211,-93.65957641601562
"50321","Des Moines","IA","Weston Park Apartments workout room","not_available","50321",41.55559307732011,-93.67382925780508
"50322","Urbandale","IA","Aspen Athletic Club","10930 Hickman Rd","50325",41.61356895869976,-93.76828436058679
"50322","Urbandale","IA","Snap Fitness","3963 100th St","50322",41.632691619961726,-93.75522873461748
"50322","Urbandale","IA","Planet Fitness","3789 86th St","50322",41.629188537597656,-93.7362060546875
"50322","Urbandale","IA","Anytime Fitness","8405 Hickman Rd","50322",41.61524,-93.73384
"50322","Urbandale","IA","Cowles Gym","not_available","50324",41.608125,-93.706
"50322","Urbandale","IA","Orangetheory Fitness","2171 NW 111th St","50325",41.613629534449245,-93.77090692520142
"50322","Urbandale","IA","Goals in Motion","3166 99 st","50322",41.62425161414645,-93.75365553917874
"50322","Urbandale","IA","Nutri-Sport","9992 Swanson Blvd","50325",41.611005639327274,-93.75428672899747
"50322","Urbandale","IA","Break Through Performance Center","3000 Justin Dr","50322",41.622970517744825,-93.75805461920186
"50322","Urbandale","IA","Pig Gym","3740 86th St","50322",41.62992477416992,-93.74005126953125
"50322","Urbandale","IA","Genesis Health Clubs - Hickman Road","10930 Hickman Road","50325",41.6138801574707,-93.76851654052734
"50323","Urbandale","IA","Life Time Athletic","11911 Hickman Rd","50323",41.617242,-93.781349
"50323","Urbandale","IA","Goals In Motion","3839 121st St","50323",41.63024560642546,-93.78268681081938
"50323","Urbandale","IA","Campbell Household Gym","2507 135th St, Urbandale, IA 50323","50323",41.617095509449285,-93.80434164305073
"50325","Clive","IA","Crossfit 515","8830 Swanson Blvd","50325",41.606048,-93.73831176666667
"50325","Clive","IA","Pure Barre","12655 University Ave Ste 140","50325",41.60111194573177,-93.79206671473253
"50325","Clive","IA","Kosama","1300 NW 100th St","50325",41.601925021598525,-93.75311855883585
"50325","Clive","IA","Anytime Fitness","13435 University Ave Suite 400","50325",41.60105,-93.80348
"50401","Mason City","IA","YMCA","500-912 State Hwy 106","50401",43.13547906712949,-93.21179146272362
"50401","Mason City","IA","NIP Fitness","2324 S Federal Ave","50401",43.12892701498537,-93.20148468017577
"50401","Mason City","IA","CrossFit Chiron","603 S Washington Ave","50401",43.145660400390625,-93.20206451416016
"50401","Mason City","IA","Anytime Fitness","687 S Taft Ave","50401",43.145665456510294,-93.240062954411
"50401","Mason City","IA","North Iowa Powerlifting & Fitness","2324 S Federal Ave, Mason City, IA 50401","50401",43.12921142578125,-93.20148468017578
"50401","Mason City","IA","Beefy Buff Buckeroo's","2223 20th St SW","50401",43.13270568847656,-93.23185729980469
"50421","Belmond","IA","Belmond Health and Fitness Center","504 E Main St","50421",42.84560775756836,-93.61138916015625
"50428","Clear Lake","IA","Cutting Edge Fitness","not_available","50428",43.13423740374869,-93.35871426232818
"50438","Garner","IA","Garner VMRC","365 W 8th St","50438",43.09760243030813,-93.60566215117179
"50441","Hampton","IA","Body Works Fitness Club","not_available","50441",42.74954605102539,-93.20291137695312
"50441","Hampton","IA","Franklin Wellness Center","1514 Central Ave E","50441",42.74273713723291,-93.18765558710115
"50468","Rockford","IA","Rockford Fitness Center","not_available","50468",43.053607238237156,-92.94215264580895
"50501","Fort Dodge","IA","curves for women","123 S 3rd St","50501",42.50333023071289,-94.19353485107422
"50501","Fort Dodge","IA","Anytime Fitness","16 N 29th St","50501",42.50693,-94.15893
"50501","Fort Dodge","IA","Fort Dodge Recreation Center","1422 1st Ave S","50501",42.5010769695677,-94.1634116663879
"50501","Fort Dodge","IA","Snap Fitness","2105 5th Ave S","50501",42.500694274902344,-94.16908264160156
"50501","Fort Dodge","IA","Club Fitness","803 1st Ave S","50501",42.50370788574219,-94.18677520751953
"50511","Algona","IA","Anytime Fitness","1502 N Hwy 169","50511",43.08175,-94.23474
"50511","Algona","IA","Anytime Fitness","1310-1704 County Highway B19","50511",43.06238819201402,-94.2423800742654
"50530","Dayton","IA","Murphy's Gym","1st & Main","50530",42.26245,-94.06846
"50533","Eagle Grove","IA","Zumba Fitness","not_available","50533",42.653501,-93.901102
"50548","Humboldt","IA","West River Recreation Center","808 18th St N","50548",42.73085403442383,-94.23523712158203
"50548","Humboldt","IA","Christansen's Hoop Shed","not_available","50548",42.7221245,-94.221315
"50568","Newell","IA","All or Nothing Fitness","441 Heather Ln","50568",42.60245895385742,-94.99752044677734
"50583","Sac City","IA","Sac City Community Center","not_available","50583",42.422128,-94.996026
"50588","Storm Lake","IA","Anytime Fitness","1231 Lake Ave.","50588",42.65342,-95.19982
"50595","Webster City","IA","Snap Fitness","not_available","50595",42.46734419681729,-93.81700904954756
"50598","Whittemore","IA","Whittemore Community Center","605 4th St","50598",43.06066131591797,-94.42268371582031
"50613","Cedar Falls","IA","Covenant Wellness Center","211 E Ridgeway Ave","50702",42.47013104835449,-92.3548328031963
"50613","Cedar Falls","IA","Bare Bones","not_available","50701",42.50767928027932,-92.37718937698595
"50613","Cedar Falls","IA","Day Gym","sartori","not_available",42.52694513734983,-92.46222308502786
"50613","Cedar Falls","IA","Cedar Falls Recreation Center","110 E 13th St","50613",42.52718468177318,-92.4451658248369
"50613","Cedar Falls","IA","River Plaza Athletic Club","10 W 4th St","50701",42.49633033150776,-92.33896677818458
"50613","Cedar Falls","IA","dungeon gym","1162.5 kern st","50703",42.5149806299188,-92.36467785962516
"50613","Cedar Falls","IA","Next Level Extreme Fitness","5911 University Ave","50613",42.510931632207814,-92.42773532944712
"50613","Cedar Falls","IA","Snap Fitness","1820 Main St","50613",42.52143342289832,-92.44550799383913
"50613","Cedar Falls","IA","Engine Works Gym","3801 W Ridgeway Ave","50701",42.46816635131836,-92.43186950683594
"50613","Cedar Falls","IA","Planet Fitness","6301 University Ave, Unit 1370","50613",42.51149973439482,-92.4328344110469
"50613","Cedar Falls","IA","Snap Fitness","3556 Kimball Ave","50702",42.46069891965561,-92.35755931125546
"50613","Cedar Falls","IA","Kosama Cedar Falls","6322 University Ave Ste O","50613",42.51401851994255,-92.43453397044097
"50613","Cedar Falls","IA","Orangetheory Fitness","936 Viking Rd","50613",42.48406121430105,-92.46197819709778
"50613","Cedar Falls","IA","Farrell's eXtreme Bodyshaping","3551 University Ave","50701",42.502351416193584,-92.39540576934814
"50613","Cedar Falls","IA","West High School Weightroom","425 E Ridgeway Ave","50702",42.471229553222656,-92.35211181640625
"50613","Cedar Falls","IA","CFU gym","not_available","50613",42.52650448292895,-92.44135065253074
"50613","Cedar Falls","IA","SAE Weight Room","1115 W 23rd St, University of Northern Iowa, Cedar Falls, IA 50613","50613",42.51709747314453,-92.45824432373047
"50613","Cedar Falls","IA","Hilton Garden Inn Fitness Center","7213 Nordic Dr","50613",42.47248458862305,-92.44811248779297
"50613","Cedar Falls","IA","Omega Fitness Facility","2900-2998 Janet Dr","50703",42.54125654697418,-92.35999524593353
"50613","Cedar Falls","IA","The ROC Gym","6027 University Ave","50613",42.51084899902344,-92.4304428100586
"50613","Cedar Falls","IA","Key West Tanning and Fitness","4507 Algonquin Dr","50613",42.49782503262685,-92.46252783659163
"50613","Cedar Falls","IA","Snap Fitness","401 Main St","50613",42.53494599164557,-92.4457686585843
"50613","Cedar Falls","IA","Trask & Company Tanning & Fitness Facilities","4583 Butterfield Rd.","50613",42.45610177516937,-92.44083166122437
"50616","Charles City","IA","Charles City YMCA","800 Hulin St","50616",43.06956307030261,-92.67482637402257
"50616","Charles City","IA","Curves","not_available","50616",43.07103083592756,-92.67555211516809
"50643","Hudson","IA","Millennium Therapy","301 5th St","50643",42.40661987219,-92.45363734745125
"50644","Independence","IA","Iowa Strength, LLC","2349 Jamestown Ave Ste 10","50644",42.450096130371094,-91.89139556884766
"50644","Independence","IA","Snap Fitness","not_available","50644",42.449974060058594,-91.89234924316406
"50648","Jesup","IA","Jesup gym","not_available","50648",42.46891784667969,-92.05528259277344
"50648","Jesup","IA","Jesup Gym","1331 12th Street","50648",42.468910818459534,-92.06220894116818
"50659","New Hampton","IA","The Family Fitness Center","107 E Main St","50659",43.059043884277344,-92.31381225585938
"50662","Oelwein","IA","Wellness Center","317 8ith Ave S.E. #A","50662",42.669256925582886,-91.9128280878067
"50669","Reinbeck","IA","Peaseful Yoga And Fitness Center","22900 S Ave","50669",42.370811462402344,-92.66997528076172
"50674","Sumner","IA","taylor phyiscal therpy","not_available","50674",42.847652435302734,-92.11331176757812
"50677","Waverly","IA","Anytime Fitness","1261 4th St SW","50677",42.71250772,-92.47372493
"50677","Waverly","IA","Next Level Extreme Fitness","201 20th St NW","50677",42.726899684684994,-92.49599876901351
"50677","Waverly","IA","gym 24 new location","not_available","50677",42.72726821899414,-92.47508239746094
"50701","Waterloo","IA","YWCA","425 Lafayette St","50703",42.478301530459184,-92.32609831711562
"50701","Waterloo","IA","Anytime Fitness","1150 Flammang Dr. Ste. 100","50702",42.46201,-92.33318
"50701","Waterloo","IA","United Sport & Athlete, Inc","1045 Southtown Dr","50702",42.45577228333333,-92.33538648333334
"50701","Waterloo","IA","The Gym","3301-3399 Ryan St","50701",42.4333196,-92.29456906666667
"50701","Waterloo","IA","Workout","not_available","50702",42.46698645937442,-92.33461682381784
"50701","Waterloo","IA","Boxing gym","616 East 4th","50703",42.502137,-92.33285
"50701","Waterloo","IA","Fitness Xpress","1059","not_available",42.50654220581055,-92.30541229248047
"50701","Waterloo","IA","GMAC Workout Room","3451 Hammond Ave","50702",42.46384048461914,-92.33430480957031
"50701","Waterloo","IA","The Center","2835 Lackland","50702",42.44787906757243,-92.29910869461415
"50701","Waterloo","IA","Gold's Gym","2332 Crossroads Blvd","50702",42.460715267453814,-92.31935810690402
"50701","Waterloo","IA","Reggie Roby Fitness Center","224 High St","50703",42.48902950851221,-92.33132287656775
"50702","Waterloo","IA","THE Gym >>garage Mahall","Southfork","50648",42.44037319355416,-92.32778359340301
"50703","Waterloo","IA","Fusion Dance and Fitness","not_available","50703",42.499091135002566,-92.33456229972764
"50801","Creston","IA","YMCA Creston, Iowa","1201 W Townline St","50801",41.071434020996094,-94.3781509399414
"50801","Creston","IA","5 Star Gym","not_available","50801",41.05601119995117,-94.3763656616211
"50849","Greenfield","IA","Adair County Health And Fitness","2652 hiway 25","50849",41.31537904518683,-94.45868275085955
"51003","Alton","IA","The Weight Room/Chapel","216 Michigan Ave SW","51041",43.00381851196289,-96.07263946533203
"51003","Alton","IA","Curves","not_available","51041",43.00743986847468,-96.05780846077167
"51003","Alton","IA","Anytime Fitness","636 8th St SE","51041",42.99683,-96.05054
"51003","Alton","IA","The Unity Gym","215 Michigan Ave SW","51041",43.0029182434082,-96.0712890625
"51006","Battle Creek","IA","Murphy's Gym","not_available","51458",42.334555389245004,-95.57275538849954
"51023","Hawarden","IA","Smith Electric Plumbing & Heating","not_available","51023",43.00429962336959,-96.48797399718096
"51025","Holstein","IA","Lohff Schuman Memorial Community Center","301 Lohff Schuman","51025",42.47624206542969,-95.5429916381836
"51031","Le Mars","IA","Weight Room @LCHS","not_available","51031",42.781628164331096,-96.17168173829127
"51031","Le Mars","IA","Kosama lemars","24 5th Ave NW","51031",42.79375457763672,-96.17333221435547
"51031","Le Mars","IA","Body Shop Fitness","212 Central Ave NE","51031",42.7958143019591,-96.16623445697614
"51031","Le Mars","IA","Plymouth County Sheriff's Office","451 14th Ave NE","51031",42.79867026437131,-96.14590013400131
"51031","Le Mars","IA","Anytime Fitness","983 Hawkeye Ave SW Bay #8","51031",42.78162,-96.1835
"51031","Le Mars","IA","The Deadweight Gym","not_available","51050",42.69242649639783,-96.15484489897598
"51035","Marcus","IA","MMC Fitness Center","not_available","51035",42.81794,-95.802679
"51040","Onawa","IA","Fenders Body Shop","not_available","51040",42.027331,-96.097576
"51040","Onawa","IA","Local Gym","701-799 Elm St","51034",42.02133118827273,-96.09561856849109
"51054","Sergeant Bluff","IA","Houlihan Gym","not_available","51106",42.430839,-96.345861
"51054","Sergeant Bluff","IA","Ultimate Fitness","114 Gaul Dr","51054",42.39852509348903,-96.35138054431948
"51101","Sioux City","IA","Crossfit Sioux city","not_available","51101",42.4942299657047,-96.38705351513399
"51101","Sioux City","IA","Four Season Health Club","1600 7th St","51101",42.49698346578998,-96.3902214808276
"51101","Sioux City","IA","the Bar","302 Jones St","51101",42.493452000000005,-96.399668
"51101","Sioux City","IA","United Center gym","302 Jones St, Sioux City, IA 51101","51101",42.49342346191406,-96.39974975585938
"51101","Sioux City","IA","Pride Martial Arts","209 6th St.","51101",42.49656295776367,-96.40877532958984
"51103","Sioux City","IA","Crossfit Beo","4101 War Eagle Dr","51109",42.49600601196289,-96.46334838867188
"51103","Sioux City","IA","Tran's Gym","not_available","51104",42.527940399117966,-96.39323951300825
"51103","Sioux City","IA","Ultimate Fitness","1910 Geneva St","51103",42.51130624509268,-96.41761346333332
"51103","Sioux City","IA","Elliptical","36th & Jones","51104",42.53295,-96.401229
"51103","Sioux City","IA","Fitness Center","not_available","51103",42.489744421386014,-96.42264150516318
"51103","Sioux City","IA","Four Seasons Health Club","2600 Pierce St","51104",42.517336,-96.404876
"51106","Sioux City","IA","Planet Fitness","6001 Gordon Dr","51106",42.47714975377144,-96.32855281387788
"51106","Sioux City","IA","Anytime Fitness","4700 Morningside Ave.","51106",42.46971,-96.34629
"51106","Sioux City","IA","Four Seasons Health Club - Morningside","4240 Hickory Ln","51106",42.44810485839844,-96.35771179199219
"51109","Sioux City","IA","Four Seasons North","not_available","57049",42.533002,-96.489719
"51109","Sioux City","IA","Snap Fitness","700 Dakota Dunes Blvd","57049",42.501974,-96.496225
"51201","Sheldon","IA","LLRC - East","118 N 7th Ave","51201",43.186927795410156,-95.84691619873047
"51240","Inwood","IA","Community Center","103 S Main St","51240",43.30912399291992,-96.4322738647461
"51241","Larchwood","IA","Around the Clock Fitness","224 S Main Ave","56138",43.49880429503995,-96.34910657024163
"51241","Larchwood","IA","Wellness Center At Grand Falls","1415 Grand Falls Blvd","51241",43.4901340172894,-96.5031460423476
"51248","Sanborn","IA","Cycle","Redwood Avenue","51248",43.212111,-95.663659
"51249","Sibley","IA","S-O Fitness Center","120 11th Ave NE","51249",43.4056396484375,-95.73628997802734
"51250","Sioux Center","IA","Snap Fitness","1921 S Main Ave","51250",43.0570068359375,-96.17720794677734
"51301","Spencer","IA","Athletic Enhancement","1200 1st Ave E","51301",43.14999771118164,-95.14337921142578
"51301","Spencer","IA","Anytime Fitness","504 Grand Ave","51301",43.14269,-95.14456
"51301","Spencer","IA","Freeman Gym","202 W 9th St","51301",43.14629364013672,-95.14815521240234
"51331","Arnolds Park","IA","Posedown","not_available","51360",43.374552,-95.113255
"51331","Arnolds Park","IA","F45 Training Arnolds Park","52 U.S. Hwy 71 South","51331",43.3668791,-95.12846735
"51334","Estherville","IA","Anytime Fitness","2508 Central Ave","51334",43.39849090576172,-94.81043243408203
"51338","Everly","IA","Everly-Clay-Central Gym","not_available","51338",43.158836,-95.324037
"51351","Milford","IA","Snap Fitness","2213 Okoboji Ave","51351",43.337161733362194,-95.15053980718517
"51355","Okoboji","IA","Bedell Family YMCA","1900 41st St","51360",43.40065675750861,-95.1193882587678
"51360","Spirit Lake","IA","PF Employee Wellness Center","1800 HWY 71","not_available",43.42315749562202,-95.11808417045557
"51401","Carroll","IA","Anytime Fitness","1205 Hwy. 30 W.","51401",42.07445,-94.88071
"51433","Auburn","IA","Stewart Memorial Sweat Shop","not_available","51433",42.250770568847656,-94.86161804199219
"51442","Denison","IA","Anytime Fitness","509 Hwy 39","51442",42.02267,-95.36948
"51446","Irwin","IA","JBoFitness Weight Training @Isles","4120 Bella Circle","51454",41.796491,-95.207107
"51501","Council Bluffs","IA","C.R Gym","not_available","51501",41.213214,-95.889414
"51501","Council Bluffs","IA","Beebe+Runyan Fitness Center","105 S 9th St","68102",41.25950381,-95.92702363
"51501","Council Bluffs","IA","Third Degree Volleyball Facility","715 N 21st St","51501",41.26943588256836,-95.87393188476562
"51501","Council Bluffs","IA","Gallup Fitness Center","1001 Gallup Dr","68102",41.26920115673853,-95.92305172046343
"51501","Council Bluffs","IA","Fit2Fight","819 S 7th St","68108",41.251424145079184,-95.9251175528577
"51501","Council Bluffs","IA","Victory Fitness Camp of Omaha","106 W Broadway","51503",41.263334,-95.844319
"51501","Council Bluffs","IA","ConAgra Foods Fitness Centre","1 Conagra Dr","68102",41.256431579589844,-95.92679595947266
"51501","Council Bluffs","IA","The Center","714 South Main Street","51503",41.2547721862793,-95.8519058227539
"51501","Council Bluffs","IA","Fitness Center","at River Parks Apartments","51501",41.25983825463758,-95.91406493294994
"51501","Council Bluffs","IA","ConAgra Fitness Center","6 ConAgra Drive","51501",41.256046295166016,-95.92669677734375
"51501","Council Bluffs","IA","Elite Cheerleading & Tumbling","7 S 4th St Ste 1","51503",41.2598611,-95.8486277
"51501","Council Bluffs","IA","ConAgra Fitness Center","11 Conagra Dr","68102",41.254013,-95.92264899999999
"51501","Council Bluffs","IA","Insanity","315 Commanche St","51501",41.214341999999995,-95.850474
"51501","Council Bluffs","IA","gym","not_available","51503",41.25468063354492,-95.83946228027344
"51503","Council Bluffs","IA","Weight Room","226 Journey Cir","51503",41.26162338256836,-95.80968475341797
"51503","Council Bluffs","IA","Dave's Muscle Factory","13807 260th St","51503",41.21533,-95.688927
"51503","Council Bluffs","IA","Allie's Elliptical","18525 School Hill Ave","51503",41.299772999999995,-95.832279
"51526","Crescent","IA","salvation army gym","2425 Pratt St","68111",41.29563863446969,-95.94813112157532
"51531","Elk Horn","IA","Fitness Down Under","not_available","51531",41.59211621316191,-95.05994254683499
"51534","Glenwood","IA","Mills County YMCA","110 Sivers Rd","51534",41.04779914195469,-95.73804757502134
"51534","Glenwood","IA","Anytime Fitness","1207 S. Locust St.","51534",41.0366,-95.74827
"51534","Glenwood","IA","Downtown YMCA Spinning","Mills","51534",41.06245040893555,-95.64579772949219
"51535","Griswold","IA","Back Alley Gym","Main St, Griswold, IA 51535","51535",41.238493889128975,-95.13729477832663
"51537","Harlan","IA","Zumbaville","not_available","51537",41.657876,-95.332671
"51546","Logan","IA","Work It Out Fitness Center","U.S. 30, Missouri Valley, IA 51555","51555",41.56074025,-95.88002898333333
"51546","Logan","IA","Logan Health And Fitness","105 N 4th Ave","51546",41.64339065551758,-95.78679656982422
"51546","Logan","IA","MVHS Gymnasium","605 E Linoln Hwy","51555",41.562941500166275,-95.8799876196492
"51559","Neola","IA","Miss Tammys School of Dance","100-198 3rd St","51559",41.44975304603577,-95.6163740158081
"51560","Oakland","IA","Riverside Wrestling Club","not_available","51560",41.30327144407083,-95.39956652341075
"51566","Red Oak","IA","Stanton Gym","not_available","51566",41.0,-95.17472076416016
"51575","Treynor","IA","Treynor Health & Fitness","not_available","51575",41.23288197251233,-95.6175079015624
"51601","Shenandoah","IA","Shenandoah Fitness Center","not_available","51601",40.76653289794922,-95.37347412109375
"51632","Clarinda","IA","Joy's Dance Studio","not_available","51632",40.728014,-95.026915
"51648","Percival","IA","Timeout","not_available","68410",40.676578521728516,-95.86842346191406
"51648","Percival","IA","Hayward Gym","300 S 14th St, Nebraska City, NE 68410","68410",40.675068035232286,-95.86709458766146
"51648","Percival","IA","Anytime Fitness","1556 S 11th St","68410",40.66179,-95.86018
"51648","Percival","IA","Sweat Shop","1754 N 11th St","68410",40.69360379192715,-95.85756928425805
"52001","Dubuque","IA","Anytime Fitness","2255 John F. Kennedy Rd.","52002",42.51125,-90.72142
"52001","Dubuque","IA","Mercy Wellness Center","Suite 301","52001",42.49232970722075,-90.67364717758193
"52001","Dubuque","IA","Farrells eXtreme Bodyshaping","2478 Meinen Ct","52002",42.517234288547606,-90.73422766983828
"52001","Dubuque","IA","Fitness Studio 3","not_available","52001",42.492533,-90.683866
"52001","Dubuque","IA","The McGraw-Hill Companies Gym","501 Bell St","52001",42.4990234375,-90.6570053100586
"52001","Dubuque","IA","Snap Fitness","Radford Rd","52001",42.50272173,-90.67465276
"52001","Dubuque","IA","The Gym","1097 Elm St","52001",42.50517138429263,-90.66332903559055
"52001","Dubuque","IA","YMCA","35 N Booth St","52001",42.4927746689194,-90.68442966846091
"52001","Dubuque","IA","Wellness Center (Loras College)","Cox Street","52001",42.50490267011428,-90.67877459798663
"52001","Dubuque","IA","Rainbo Oil Company Fitness Room","2255 Kerper Blvd","52001",42.52083969116211,-90.65563201904297
"52001","Dubuque","IA","Signature Health","2055 Holliday Dr, Dubuque, IA 52002","52002",42.50902174225496,-90.7424494641851
"52001","Dubuque","IA","sweaty yogi","3220 Dodge St","52003",42.491063,-90.712508
"52002","Dubuque","IA","Kettleburn Fitness & Personal Training","3131 Cedar Cross Ct #5, Dubuque, IA 52003","52003",42.48221206665039,-90.71194458007812
"52002","Dubuque","IA","The Workout Spot","not_available","52002",42.51789093017578,-90.7784652709961
"52003","Dubuque","IA","Success Loft","212 Ferson St","52003",42.487129,-90.678472
"52031","Bellevue","IA","Galeba Fitness Center","not_available","61036",42.38413619995117,-90.3371810913086
"52052","Guttenberg","IA","Anytime Fitness","419 S Hwy 52","52052",42.78225,-91.10028
"52057","Manchester","IA","Jim's Gym","1012 E. Main Street","52057",42.4897220796945,-91.44944661390893
"52060","Maquoketa","IA","Maquoketa YMCA","E Summit St","52060",42.062478447771525,-90.6593494051587
"52069","Preston","IA","Cookee’s Gym","not_available","52069",42.055435,-90.405431
"52070","Sabula","IA","The Answer Fitness","319 Main St, Savanna, IL 61074","61074",42.09386444091797,-90.15693664550781
"52078","Worthington","IA","Performance Edge","309 3rd Ave SW","52078",42.3946418762207,-91.12117767333984
"52101","Decorah","IA","Anytime Fitness","915 Short St Ste 185","52101",43.289892,-91.795291
"52151","Lansing","IA","De Soto Fitness Wellness Center","Main Street","54624",43.423683235386505,-91.19765710440288
"52151","Lansing","IA","Lansing Fitness Center","51 North 5th Street","52151",43.36216874415411,-91.22067314936945
"52161","Ossian","IA","Gimnasio Circulo Militar","Circulo Militar","52161",43.1476,-91.7643
"52162","Postville","IA","Northeast Iowa YMCA","313 W Post St","52162",43.08361053466797,-91.57261657714844
"52175","West Union","IA","Anytime Fitness","313 Hwy 150 N","52175",42.96604,-91.81523
"52203","Amana","IA","Aspen Therapy GYM","not_available","52203",41.80057642248858,-91.8953929334953
"52208","Belle Plaine","IA","great life fitness","13th Street","52208",41.895197228829005,-92.28594942334408
"52211","Brooklyn","IA","The Rhino Gym","316 W Pershing Dr","52211",41.733882904052734,-92.44877624511719
"52211","Brooklyn","IA","Brooklyn wellness center","not_available","52347",41.69552913197652,-92.36384898874745
"52213","Center Point","IA","Kettlebell Advantage -Vinton","205 W 3rd St Vinton, IA 52349","52349",42.22282483853498,-91.87430504812268
"52213","Center Point","IA","CPU Weight Room","not_available","52213",42.18948134825862,-91.78689095307102
"52214","Central City","IA","Wildcat Weight Room","400 Barber St","52214",42.20884,-91.525858
"52224","Dysart","IA","Joe's Gym","608 Wilson St, Dysart, IA 52224","52224",42.171573638916016,-92.3073959350586
"52228","Fairfax","IA","FAIRFAX XPRESS 24/7","320 80th Street Ct","52228",41.930691,-91.773523
"52228","Fairfax","IA","Custom Fitness","3950 Wilson Ave SW","52404",41.95708,-91.72129
"52228","Fairfax","IA","24 Hour Fitness","not_available","52404",41.96417236328125,-91.72035217285156
"52228","Fairfax","IA","Vitality Fitness and Dance","3135 Wiley Blvd SW Ste 108","52404",41.946971999999995,-91.720438
"52228","Fairfax","IA","Advanced Yoga Studio","4089 21st Ave SW Ste 111","52404",41.9588279,-91.725296
"52228","Fairfax","IA","iLoveKickboxing - Cedar Rapids","3135 Wiley Blvd SW, Suite 101","52404",41.94692492166359,-91.72032271163937
"52228","Fairfax","IA","Aspen Athletic Club","2120 Edgewood Rd SW","52404",41.95899307182604,-91.71876887950643
"52228","Fairfax","IA","CrossFit The Challenge","2811 Wiley Blvd SW","52404",41.95050811767578,-91.72257995605469
"52233","Hiawatha","IA","CrossFit 2.2 - The Body Shop","1100 Industrial Ave","52233",42.04871332739691,-91.6808479581387
"52233","Hiawatha","IA","Steph And Jimmy's Gym","not_available","52233",42.040037,-91.683774
"52233","Hiawatha","IA","Game On Sportsplex","4625 Tower Terrace","52411",42.057868,-91.704861
"52233","Hiawatha","IA","Curves","1727 Boyson Rd","52233",42.043813,-91.696022
"52233","Hiawatha","IA","Snap Fitness","1711 Boyson Rd","52233",42.04378813957996,-91.69504158593588
"52233","Hiawatha","IA","Kettlebell Advantage - Hiawatha","729 N Center Point Rd","52233",42.045016,-91.679248
"52240","Iowa City","IA","Scanlon Gymnasium","Bradford Dr","not_available",41.64543590368271,-91.49772208616683
"52240","Iowa City","IA","Core Fitness","2220 Mormon Trek Blvd","52246",41.637698917981915,-91.56869221531987
"52240","Iowa City","IA","Integrated DNA Technologies","1710 Commercial Park","52241",41.69673391009701,-91.61469370593642
"52240","Iowa City","IA","Orangetheory Fitness","1303 5th St","52241",41.67669289789005,-91.58126465881891
"52240","Iowa City","IA","Anytime Fitness","458 Hwy 1 W","52246",41.6478,-91.5451
"52240","Iowa City","IA","Performance Heath & Fitness","3290 Ridgeway Dr Ste 1","52241",41.72173833362215,-91.60241511034067
"52240","Iowa City","IA","Jazzercise Fitness Center","1014 S Gilbert St","52240",41.64879073317769,-91.53160247090446
"52240","Iowa City","IA","9Round Fitness","2425 2nd St","52241",41.684463,-91.600072
"52240","Iowa City","IA","Sheraton Work Out Facility","not_available","52240",41.658882,-91.532872
"52240","Iowa City","IA","Coral Court Fitness Bunker","Coral Ct.","52241",41.70443974360865,-91.6123287466992
"52240","Iowa City","IA","Beckwith Boathouse","1201 N. Dubuque St","52246",41.67796325683594,-91.53263092041016
"52240","Iowa City","IA","Next Level Extreme Fitness","650 Pacha Pkwy","52317",41.75436019897461,-91.60603332519531
"52240","Iowa City","IA","CrossFit Kilo II","860 S Capitol St","52240",41.651643,-91.53576
"52240","Iowa City","IA","Robert A. Lee Community Recreation Center","220 S Gilbert St","52240",41.65835966330381,-91.52978745988185
"52240","Iowa City","IA","Hawkeye Tennis and Recreation Complex","2820 Prairie Meadow Drive","52242",41.66189542905997,-91.58025056857896
"52240","Iowa City","IA","Iowa Gym Nest","1705 Boyrum St","52240",41.6413708549872,-91.52648675840375
"52240","Iowa City","IA","Anytime Fitness","521 Westbury Dr Ste 2","52245",41.66785,-91.48252
"52240","Iowa City","IA","Healthy Trails Playland","1451 Coral Ridge Ave","52241",41.653897,-91.544792
"52240","Iowa City","IA","New Moon Fitness Studio","1749 Parkway Dr","52241",41.696376,-91.595795
"52240","Iowa City","IA","DD Sports Academy","216 E 9th St","52241",41.681316,-91.561306
"52240","Iowa City","IA","Liberty High Gym","not_available","52317",41.735154,-91.569638
"52240","Iowa City","IA","Anytime Fitness","650 Community Dr Ste A","52317",41.75131,-91.60843
"52240","Iowa City","IA","Grit Gym","not_available","52241",41.67343744966187,-91.45474289621964
"52241","Coralville","IA","319 Elite Fitness","808 5th St Ste 1","52241",41.674328,-91.577118
"52241","Coralville","IA","Core Fitness","not_available","52340",41.7091659573894,-91.64179726798609
"52241","Coralville","IA","Farrell's eXtreme Bodyshaping","2761 Oakdale Blvd","52241",41.70948361586222,-91.60973641948202
"52241","Coralville","IA","Body And Balance","2201 E Grantview Dr","52241",41.702867,-91.562132
"52241","Coralville","IA","Anytime Fitness","2441 James St Ste 2","52241",41.68496,-91.60385
"52242","Iowa City","IA","Bloomington Street Muscle Factory","not_available","52245",41.665157318115234,-91.53119659423828
"52242","Iowa City","IA","Success Loft","212 Ferson Ave","52246",41.666123,-91.54432
"52242","Iowa City","IA","theGym","213 E College ST","52240",41.658656,-91.533183
"52242","Iowa City","IA","319 Fitness","710 S Dubuque St","52240",41.652998,-91.532767
"52242","Iowa City","IA","Champs","200 Hawkins Dr","52242",41.66638298,-91.53103985
"52245","Iowa City","IA","North Dodge Athletic Club","2400 N Dodge St","52245",41.685089651467855,-91.50260044660473
"52246","Iowa City","IA","CrossFit Epic","1545 Willow Creek Dr","52246",41.64128875732422,-91.56243133544922
"52246","Iowa City","IA","Fit 2 Live","123 Highway 1 W","52246",41.64625301505344,-91.54229270779116
"52247","Kalona","IA","Kalona Community Center","not_available","52247",41.48441877552047,-91.70529659449568
"52248","Keota","IA","YMCA Wellman","525 13th St, Wellman, IA 52356","52356",41.473899222954294,-91.83387872364916
"52253","Lisbon","IA","Elite Fitness and Tanning","321 Novak Rd","52253",41.91768,-91.404397
"52302","Marion","IA","The Fountain Xpress","3929 Fountains Blvd N.E.","52411",42.0315594,-91.6984751
"52302","Marion","IA","Orangetheory Fitness","4824 1st Ave NE","52402",42.02702258781742,-91.62095549147696
"52302","Marion","IA","MARION XPRESS 24/7","917 Barrington Pkwy","52302",42.0555285,-91.60006779999999
"52302","Marion","IA","Kosama","Boyson","not_available",42.04936177772981,-91.63991367069733
"52302","Marion","IA","The M.A.C.","4700 Tama St SE","52403",42.025691986083984,-91.61726379394531
"52302","Marion","IA","CrossFit 151","999 44th Street","52302",42.03542876913697,-91.56211940140409
"52302","Marion","IA","Riverview Fitness Center","400 1st St SE","52401",41.977148,-91.666147
"52302","Marion","IA","Signal 3 Gym","800 Block","52405",41.98312966684537,-91.66048201894765
"52302","Marion","IA","CrossFit 2.2","266 Blairs Ferry Rd NE","52402",42.034824737425645,-91.63338649170989
"52302","Marion","IA","The M.A.C.","227 2nd St SE","52401",41.976992,-91.6673454
"52302","Marion","IA","Danielle's Gym","not_available","52403",41.978214263916016,-91.64122772216797
"52302","Marion","IA","Hard Drive Elite","719 3rd Avenue Southeast","52401",41.98027,-91.66048
"52302","Marion","IA","max10","not_available","52402",42.03375120258082,-91.62916743174266
"52302","Marion","IA","Ultimate body shaping","not_available","52401",41.97800249419018,-91.66636319603205
"52302","Marion","IA","MAC Xpress Downtown","227 2nd At SE","not_available",41.97695514320287,-91.66713522384933
"52302","Marion","IA","MAA Gymnasio","280 Blairs Ferry Rd NE","52402",42.03453579947278,-91.63391769017291
"52302","Marion","IA","Anytime Fitness","501 7th Ave","52302",42.03309,-91.60472
"52302","Marion","IA","Sisters Health Club","4333 Czech Ln NE #4","52402",42.0224,-91.666647
"52302","Marion","IA","iGym","1100 Blairs Ferry Rd NE","52402",42.035252,-91.653298
"52302","Marion","IA","BA Fitness Center","not_available","52302",42.052852630615234,-91.6119155883789
"52302","Marion","IA","Fitness F.A.R.M. LLC","5418 Center Point Rd NE","52402",42.032825,-91.667355
"52302","Marion","IA","Golden Trainer Performance Studio","1066 Center Point Rd NE","52402",41.999456,-91.66237
"52306","Mechanicsville","IA","fitness center","not_available","52306",41.927429030060544,-91.27817458474439
"52310","Monticello","IA","B.E. Somebody Fitness","701 John Dr","52310",42.253332831277504,-91.20020026200669
"52310","Monticello","IA","The Edge","250 N Main St","52310",42.240501403808594,-91.18118286132812
"52317","North Liberty","IA","Rocfit","595 Ashley Ct","52317",41.728557,-91.606921
"52317","North Liberty","IA","Not Fit to Quit","464 N Dubuque St Apt F","52317",41.751256,-91.599773
"52317","North Liberty","IA","North Liberty Rec Center","W Cherry St.","not_available",41.750140521731296,-91.60521660069315
"52317","North Liberty","IA","North Liberty Community Center","520 W Cherry St","52317",41.74995478080629,-91.6053236351651
"52327","Riverside","IA","Wellness Center (Court's House Of Pain)","3122 Highway 22","not_available",41.49967025553362,-91.52918688353715
"52327","Riverside","IA","Palace of Potential","not_available","52327",41.413185119628906,-91.54097747802734
"52333","Solon","IA","The Workout Wing","4135","52333",41.79555555555555,-91.50027777777778
"52339","Tama","IA","Anytime Fitness","106 Hwy 30","52342",41.98646,-92.57927
"52349","Vinton","IA","Iron Shed","1502 W D St","52349",42.17323303222656,-92.04083251953125
"52349","Vinton","IA","Workout Room Main Building","1004 G Ave","52349",42.16128158569336,-92.03243255615234
"52349","Vinton","IA","Vinton Parks And Rec Center","not_available","52349",42.172989119421366,-92.01626891747922
"52353","Washington","IA","Bodywrx","110 S Iowa Ave","52353",41.298919677734375,-91.69131469726562
"52353","Washington","IA","YMCA","121 E Main St","52353",41.29911783793795,-91.69087474310898
"52361","Williamsburg","IA","Williamsburg  Recreational Center","not_available","52361",41.65210276764089,-92.00585981830031
"52401","Cedar Rapids","IA","Edge Fitness","322 2nd St SW","52404",41.973858687075605,-91.6737477823262
"52401","Cedar Rapids","IA","CrossFit 319","215 3rd Ave SW","52404",41.973667,-91.673837
"52401","Cedar Rapids","IA","Hardrive","oakland","not_available",41.98710770218476,-91.65896417471512
"52401","Cedar Rapids","IA","Hard Drive Performance Center","712 3rd Ave SE","52401",41.98075,-91.66109
"52402","Cedar Rapids","IA","Transamerica","4333 Edgewood Rd NE","52499",42.0237456547736,-91.7035870466254
"52402","Cedar Rapids","IA","Burst","5300 Fountains Dr NE Ste 112","52411",42.0324372,-91.699304
"52402","Cedar Rapids","IA","YMCA at Mercy Fitness","5264 Council St NE","52402",42.03104019165039,-91.65660095214844
"52402","Cedar Rapids","IA","Marriott Gym","1200 Collins Rd NE","52402",42.029327392578125,-91.65284729003906
"52403","Cedar Rapids","IA","Sweat Shop","6300 C St SW, Cedar Rapids, IA 52404","52404",41.91857147216797,-91.64207458496094
"52403","Cedar Rapids","IA","Anytime Fitness","806 34th St SE","52403",41.97725,-91.61798
"52403","Cedar Rapids","IA","Michael J Gould Recreation Center","6162 Kirkwood Blvd SW","not_available",41.918669891487184,-91.65530288647537
"52403","Cedar Rapids","IA","BIM Fitness Center","808 Dows Rd","52403",41.97744061978433,-91.56761232432868
"52403","Cedar Rapids","IA","Thomas Edison Fitness Room","Thomas Edison Blvd","not_available",41.92412,-91.63877
"52403","Cedar Rapids","IA","Anvil Gym","716 Oakland Rd NE","52402",41.992468,-91.658825
"52404","Cedar Rapids","IA","The MAC XTREME","1220 Jacolyn Dr SW","52404",41.964861,-91.731398
"52404","Cedar Rapids","IA","Planet Fitness","383 Edgewood Rd NW","52405",41.97718238317337,-91.71455425776072
"52404","Cedar Rapids","IA","Graber Gym 3","not_available","52405",41.975649,-91.73181
"52404","Cedar Rapids","IA","Ultimate Body Shaping and Tanning Studio","1612 C St SW","52404",41.9760323,-91.6940996
"52404","Cedar Rapids","IA","Anytime Fitness","3140 16th Ave SW","52404",41.96422,-91.71342
"52501","Ottumwa","IA","YMCA","611 N Hancock St","52501",41.008796064880485,-92.4168208903685
"52501","Ottumwa","IA","Rainy's","Albia Rd","52501",41.0023836,-92.434518
"52501","Ottumwa","IA","Anytime Fitness","852 Quincy Ave","52501",41.01229,-92.43735
"52531","Albia","IA","Sarver's Fitness Center","909 S Clinton St","52531",41.01825714111328,-92.80965423583984
"52537","Bloomfield","IA","Bloomfield Gym","not_available","52537",40.75366155,-92.40394843333333
"52544","Centerville","IA","Rathbun Lake Area YMCA","708 S Main St","52544",40.72840118408203,-92.87433624267578
"52544","Centerville","IA","Snap Fitness","not_available","52544",40.739848846941946,-92.86845820334813
"52556","Fairfield","IA","Boom Fitness!","210 W Lowe Ave Ste 1","52556",41.01211166381836,-91.96526336669922
"52556","Fairfield","IA","Impact Fitness and Sports Performance","1401 S Main St Ste 80","52556",40.99386215209961,-91.96244812011719
"52565","Keosauqua","IA","keo 24 hour fitness","not_available","52565",40.74202346801758,-91.9585952758789
"52577","Oskaloosa","IA","CrossFitOFC","1906 17th Ave E","52577",41.27893386148063,-92.6230434701898
"52577","Oskaloosa","IA","Mahaska County YMCA","414 N 3rd St","52577",41.29893042245151,-92.64127370854588
"52577","Oskaloosa","IA","Anytime Fitness","209 Cornerstone Dr","52577",41.2974,-92.67186
"52601","Burlington","IA","YMCA","2410 Mount Pleasant St","52601",40.823958900300795,-91.13087727407635
"52601","Burlington","IA","Orth Gym","not_available","52601",40.83140182495117,-91.11483001708984
"52601","Burlington","IA","Curves","112 Broadway St","52655",40.82554244995117,-91.1562728881836
"52601","Burlington","IA","Great River Medical Center Gym","1401 W Agency Rd","52655",40.810214278637524,-91.1729311314101
"52601","Burlington","IA","Anytime Fitness","411 W Agency","52655",40.81233,-91.15924
"52601","Burlington","IA","The Body Studio","312 Jefferson St","52601",40.810447692871094,-91.10331726074219
"52601","Burlington","IA","Sport Worx 24","3635 Flint Ridge Dr","52655",40.8095197394886,-91.15458641540759
"52601","Burlington","IA","Lycurgus Fit","1104 Agency St","52601",40.81463623046875,-91.11377716064453
"52601","Burlington","IA","Grahams Family Fitness","1801 Summer St","52601",40.79002365797526,-91.11600657110803
"52623","Danville","IA","NLCC Comm Wellness Center","Main St.","52645",40.925523,-91.399115
"52627","Fort Madison","IA","The Man Gym","not_available","52627",40.67657176984583,-91.26874534264637
"52627","Fort Madison","IA","Fit 24/7","1338 Avenue G","52627",40.631078,-91.322782
"52632","Keokuk","IA","Anytime Fitness","123 Blvd Rd","52632",40.41508,-91.40152
"52632","Keokuk","IA","Hoerner YMCA","2126 Plank Rd","52632",40.41134510066718,-91.39363958938925
"52632","Keokuk","IA","Kirk's Kourt","2315 S 7th St","52632",40.38859558105469,-91.41281127929688
"52639","Montrose","IA","Motley Fitness","1450 Knight St.","62354",40.55062484741211,-91.37944030761719
"52641","Mount Pleasant","IA","The Rec Center","200 E Monroe St","52641",40.966238006261044,-91.55149030047711
"52641","Mount Pleasant","IA","Anytime Fitness","700 N Grand Ave","52641",40.97486,-91.53683
"52722","Bettendorf","IA","Level II Fitness","not_available","52722",41.592699,-90.464095
"52722","Bettendorf","IA","Bush Gym","6211 Utica Ridge Rd","52807",41.583758,-90.510926
"52722","Bettendorf","IA","Anytime Fitness","3260 Rdg Pointe Rd","52722",41.55518,-90.47626
"52722","Bettendorf","IA","Gold's Gym","4885 Utica Ridge Rd","52807",41.569294024599735,-90.5155854334789
"52722","Bettendorf","IA","Life Fitness Center","2222 Middle Rd","52722",41.546412,-90.501286
"52722","Bettendorf","IA","Cellar Acrobatics","River Dr","52722",41.52811387746621,-90.52756155756431
"52722","Bettendorf","IA","Gravity Fitness Center","16th St","52722",41.52566629938171,-90.52461234222703
"52722","Bettendorf","IA","McCarthy Bush Gym","5401 Victoria Ave","52807",41.576556,-90.510638
"52722","Bettendorf","IA","Kimberly Club Fitness Center","3300 E Kimberly Rd","52807",41.550758361816406,-90.52554321289062
"52722","Bettendorf","IA","Ultimate Fitness","810 Golden Valley Dr","52722",41.55923,-90.51973
"52722","Bettendorf","IA","Lance's","830 State St","52722",41.52536392211914,-90.52043914794922
"52722","Bettendorf","IA","Orangetheory Fitness","4520 E 53rd St","52807",41.5760093,-90.506328
"52726","Blue Grass","IA","Tripp fitness","not_available","52726",41.509586334228516,-90.78137969970703
"52732","Clinton","IA","Planet Fitness","1815 Lincoln Way, 103","52732",41.8147112979404,-90.22953845903159
"52732","Clinton","IA","Oak Tree Inn Clinton","2300 Valley West Ct","52732",41.81942646186884,-90.2398878886778
"52732","Clinton","IA","ywca","not_available","52732",41.84991057430144,-90.1927369866899
"52732","Clinton","IA","P90x","not_available","61252",41.859405517578125,-90.15209197998047
"52742","De Witt","IA","Snap Fitness","100 6th Ave","52742",41.81617594841195,-90.53892426199411
"52742","De Witt","IA","Dewitt Fitness Center","not_available","52742",41.82981919210466,-90.54316107427486
"52748","Eldridge","IA","Helium Trampoline & Indoor Adventure Park","400 South 14th Avenue","52748",41.650714,-90.566408
"52748","Eldridge","IA","Eldridge Rec & Fitness","401 S 14th Ave","52748",41.651862,-90.56599399999999
"52753","Le Claire","IA","Snap Fitness 24x7","1005 Canal Shore Dr SW","52753",41.58652182396773,-90.35761972155876
"52761","Muscatine","IA","Anytime Fitness","1903 Park Ave","52761",41.44677,-91.02861
"52761","Muscatine","IA","curves","not_available","52761",41.43924331665039,-91.04335021972656
"52761","Muscatine","IA","Warrior CrossFit Muscatine","211 E 2nd St","52761",41.422416,-91.044309
"52761","Muscatine","IA","RMT Fitness","701 Orange St","52761",41.428669,-91.044186
"52761","Muscatine","IA","Muscatine Community Y","Logan","52761",41.43371011657389,-91.064185757225
"52761","Muscatine","IA","Nora Dwyer LMT","701 Orange St Ste 1A","52761",41.4285975,-91.044129
"52761","Muscatine","IA","Warrior CrossFit","103 Ford Ave","52761",41.449485778808594,-91.02867126464844
"52768","Princeton","IA","Cordova Shoreline Gym","not_available","61242",41.680327,-90.324931
"52772","Tipton","IA","New Body Fitness","500 cedar st","not_available",41.7706298828125,-91.12875366210938
"52776","West Liberty","IA","Advanced Fitness","not_available","52776",41.570640563964844,-91.26310729980469
"52777","Wheatland","IA","CW Activity Center","not_available","52777",41.83747200388542,-90.83844817587769
"52801","Davenport","IA","Downtown YMCA","606 W 2nd St","52801",41.52161250301758,-90.58197839890795
"52801","Davenport","IA","Forrest Block Gym","401 Brady St","52801",41.523790999999996,-90.573676
"52801","Davenport","IA","Snap Fitness","114 W 2nd St","52801",41.521643,-90.574837
"52801","Davenport","IA","Anytime Fitness","229 Brady St Ste 100","52801",41.522172999999995,-90.573663
"52801","Davenport","IA","Executive Square Fitness Club","400 N. Main St.","not_available",41.523929595947266,-90.5759506225586
"52802","Davenport","IA","Ultimate Fitness","226 17th St","61201",41.507776177354366,-90.58253962041239
"52802","Davenport","IA","fitness express","not_available","61201",41.48417282104492,-90.60832214355469
"52803","Davenport","IA","Franklin Cardio Pod","518 W Locust St","52803",41.53923661368583,-90.57799048211297
"52803","Davenport","IA","The Gym","not_available","52803",41.53785705566406,-90.56779479980469
"52803","Davenport","IA","Davis Cardio Center","1951-2057 N. Gaines st","52803",41.541436,-90.582319
"52803","Davenport","IA","A Kneaded Touch","3416 Black Hawk Rd","not_available",41.5266572,-90.55520150000001
"52803","Davenport","IA","RIA Fitness Center","Rodman Ave","61201",41.518249166967344,-90.54367302653125
"52804","Davenport","IA","World Class Fitness","2015 Jebens Ave","52804",41.539649,-90.615749
"52804","Davenport","IA","Planet Fitness","2144 East Kimberly Rd","52806",41.56255841794167,-90.58238849019583
"52804","Davenport","IA","Jumer's Fitness Center","not_available","61264",41.459185952455606,-90.61358865546629
"52804","Davenport","IA","Anytime Fitness","5260 Northwest Blvd Ste 4","52806",41.57367,-90.59375
"52804","Davenport","IA","jj gym","not_available","52804",41.531064850572164,-90.5978997280467
"52806","Davenport","IA","Top Shape Gym","109 E 50th St","52806",41.57078526462673,-90.57012096620376
"52806","Davenport","IA","The Foundation","5335 Carey Ave","52807",41.57594567619798,-90.55852478772725
"52806","Davenport","IA","AASF Gym","9650 Harrison St, Davenport, IA 52806","52806",41.61710650174811,-90.58128104012313
"52806","Davenport","IA","QC Barbell Davenport","901 E Kimberly Rd Ste 28","52807",41.557071685791016,-90.56239318847656
"52806","Davenport","IA","North Family YMCA","624 W 53rd St","52806",41.57629210897179,-90.5770623331216
"52807","Davenport","IA","Kosama","1430 E 52nd St","52807",41.57433615069232,-90.55289966427546
"52807","Davenport","IA","jersey meadows exercise room","2700 E 53rd St","52807",41.576019870754976,-90.53679866810096
