"zip","city","state","name","address","postalCode","lat","lon"
"97002","Aurora","OR","Anytime Fitness","30480 SW Boones Ferry Rd","97070",45.300094,-122.77298799999998
"97002","Aurora","OR","Simply Sport","21011 Main St NE","97002",45.232066,-122.754626
"97005","Beaverton","OR","LA Fitness","2800 SW Hocken Ave","97005",45.49957948395904,-122.81298039949607
"97005","Beaverton","OR","Stoneworks Climbing Gym","6775 SW 111th Ave","97008",45.47176458356903,-122.79070792559986
"97005","Beaverton","OR","VillaSport Athletic Club and Spa","13900 SW Meridian St","97005",45.504212750039756,-122.82467802145574
"97005","Beaverton","OR","Nike Sports Center","1 SW Bowerman Dr","97005",45.50890709287018,-122.83268682334389
"97005","Beaverton","OR","Cedar Hills Recreation Center","11640 SW Park Way","97225",45.50742301043648,-122.7971215274792
"97005","Beaverton","OR","Orangetheory Fitness","11800 Northwest Cedar Falls Dr","97229",45.52113969293043,-122.80136705792587
"97005","Beaverton","OR","Deveraux Glen Gym","not_available","not_available",45.51596148720163,-122.78781412584438
"97005","Beaverton","OR","Orangetheory Fitness","3905 SW 117th Ave","97005",45.49079132080078,-122.79914093017578
"97005","Beaverton","OR","Hellz Bellz Fitness","9974 SW Arctic Dr","97005",45.480332000000004,-122.779422
"97005","Beaverton","OR","Hyland Hills Curves","14356 SW Allen Blvd","97005",45.475196000000004,-122.824523
"97005","Beaverton","OR","StarCycle","11835 NW Cedar Falls Dr #125","97229",45.5217798,-122.8017754
"97005","Beaverton","OR","Stobiora Gymnasium","466 SW Valeria View Dr","97225",45.516514,-122.784117
"97005","Beaverton","OR","NW Fencing","not_available","97005",45.483596,-122.7824805
"97005","Beaverton","OR","Thrive Body Balance","9610 SW Sunshine Ct Ste 400","97005",45.4763298034668,-122.77617645263672
"97005","Beaverton","OR","P90X","not_available","97008",45.47955870383492,-122.77416507954776
"97005","Beaverton","OR","Northwest Fencing Center","4950 SW Western Ave","97005",45.4839747927533,-122.78194076266273
"97005","Beaverton","OR","Gymboree Play And Learn","10007-10399 SW Wilshire St","97225",45.507329,-122.78165845
"97005","Beaverton","OR","Athletes In Motion","10062 SW Arctic Drr","97005",45.480441,-122.78024599999999
"97005","Beaverton","OR","Beaverton Soccer Indoor","11035 SW 11th St","97005",45.481586,-122.79061899999999
"97005","Beaverton","OR","Curves Cedar Hills","10100-10110 SW Park Way","97225",45.50746505,-122.78192175
"97005","Beaverton","OR","A.I.M. Training Center","10062 SW Arctic Dr","97005",45.480560302734375,-122.78008270263672
"97005","Beaverton","OR","Express Fitness & Training","Allen","not_available",45.47453974570834,-122.77676150135075
"97005","Beaverton","OR","PDX Fencing","5645 SW Arctic Dr","97005",45.479112,-122.78023700000001
"97005","Beaverton","OR","Workout Anytime","14360 SW Allen Blvd","97005",45.475196000000004,-122.824523
"97005","Beaverton","OR","Burn Boot Camp","14801 SW Millikan Way","97003",45.4955978,-122.8291982
"97006","Beaverton","OR","L.A Fitness","2200 NW Amberbrook Dr","97006",45.535625,-122.88294
"97006","Beaverton","OR","Superior Physique","2092 NW Aloclek Dr Ste 515","97124",45.53393114100203,-122.89651135692277
"97006","Beaverton","OR","Palladia Fitness Center","not_available","97124",45.53859872934126,-122.8789969026147
"97006","Beaverton","OR","Apartment Gym","18300","97006",45.532137723443235,-122.87330801741936
"97006","Beaverton","OR","NXT Level Fitness","3677 NW John Olsen Pl","97124",45.5457741,-122.8805873
"97006","Beaverton","OR","Pure Barre","11330 NE Evergreen Pkwy","97006",45.53571549999999,-122.8628298
"97006","Beaverton","OR","Greenbrier Apartments Fitness Center","1305 NW 189th Way","97006",45.53027978430431,-122.87109997213796
"97006","Beaverton","OR","SMWA Gym","not_available","97007",45.489305198982784,-122.83675486952772
"97006","Beaverton","OR","Western Kitty Dojo","not_available","97006",45.50683924995288,-122.85358387129259
"97006","Beaverton","OR","LA Boxing","1870 NW 188th Ave","97006",45.533406115959174,-122.87046311004039
"97006","Beaverton","OR","Rock Creek 185 Gym","not_available","97229",45.54950714111328,-122.88069152832031
"97006","Beaverton","OR","PDX Barbell","not_available","97003",45.500031,-122.900045
"97006","Beaverton","OR","Pacific Personal Training","2020 NW Aloclek Dr","97124",45.533999,-122.89696399999998
"97006","Beaverton","OR","CYCLEBAR","2110 NE Allie Ave Unit 608","97124",45.536408000000016,-122.87835709325407
"97006","Beaverton","OR","Enshinkai Martial Arts & Fitness","2900 SW Cornelius Pass Rd Ste 551","97123",45.499524,-122.90155700000001
"97007","Beaverton","OR","Gunner Fitness","17468 SW Sarala St","97007",45.4625129699707,-122.85658264160156
"97007","Beaverton","OR","Reflections Gym","11417 SW Davies Rd","97007",45.436816,-122.82428300000001
"97007","Beaverton","OR","LA Fitness","17800 SW Kinnaman Rd","97078",45.48159293199319,-122.8599132886912
"97007","Beaverton","OR","Intel Fitness Center - Aloha Campus","3585 SW 198th Ave","97078",45.493305141258936,-122.88413027124622
"97007","Beaverton","OR","BIO Force Family Fitness","16315 Southwest Barrows Road","97007",45.4276434,-122.8450935
"97008","Beaverton","OR","Crunch - Beaverton","8585 SW Cascade Ave","97008",45.457618,-122.786343
"97008","Beaverton","OR","CYCLEBAR","12284 SW Scholls Ferry Rd","97223",45.44342285812293,-122.8033371345827
"97008","Beaverton","OR","Orangetheory Fitness","12268 Southwest Scholls Ferry Rd","97008",45.443008955381195,-122.80283501164482
"97008","Beaverton","OR","Royal Fitness Center","not_available","97223",45.454137,-122.771558
"97008","Beaverton","OR","FIT Academy","9140 SW Hall Blvd","97223",45.4547742,-122.7761531
"97008","Beaverton","OR","The Quad","8055 SW Nimbus Ave","97008",45.4607406,-122.788995
"97008","Beaverton","OR","24hr Fitness","not_available","98684",45.44804546723319,-122.78452127109436
"97008","Beaverton","OR","TTP personal training","7922 SW Nimbus Ave Bldg 8","97008",45.4614967,-122.7885035
"97008","Beaverton","OR","iFLY - Portland","10645 SW Greenburg Rd","97223",45.443465,-122.779193
"97008","Beaverton","OR","Snap Fitness","12272 SW Scholls Ferry Rd","97223",45.442959,-122.803301
"97008","Beaverton","OR","Oregon Fitness","8209 Sw Cirrus Drive Bld 17","97008",45.462589,-122.792057
"97008","Beaverton","OR","Rose City Barbell","9385 SW Greenburg Rd","97223",45.452071000000004,-122.775341
"97008","Beaverton","OR","National Personal Training Institute of Portland","9610 SW Sunshine Ct #400","97005",45.475772023078804,-122.7758830389677
"97008","Beaverton","OR","Domination Fitness","7921 SW Cirrus Dr","97008",45.462832,-122.789855
"97009","Boring","OR","9Round Fitness","16621 Champion Way","97055",45.40393491,-122.29773993
"97009","Boring","OR","Mt. Hood Athletic Club","37095 Highway 26","97055",45.40360701715392,-122.28175978168817
"97009","Boring","OR","Crossfit Pfb & Pfb Weightlifting","16536 362nd St","97055",45.403656,-122.29069
"97013","Canby","OR","Canby Municipal Swim center","1150 S Ivy","97013",45.25454323122616,-122.68698692321777
"97013","Canby","OR","Blakes bowflex","not_available","97038",45.15387127,-122.58189265
"97015","Clackamas","OR","Eastside Athletic Club","9100 SE Sunnyside Rd","97015",45.43293466016414,-122.57017219050867
"97015","Clackamas","OR","Orangetheory Fitness","16126 SE Happy Valley Town Center Dr","97086",45.42747116088867,-122.49800872802734
"97015","Clackamas","OR","CrossFit Happy Valley","15760 SE 130th Ave","97015",45.407696,-122.529228
"97015","Clackamas","OR","TWAV Fitness Center","not_available","97015",45.42748734418428,-122.56058849116104
"97015","Clackamas","OR","Rat Fink Gym","not_available","97027",45.395223782046735,-122.57642606333603
"97015","Clackamas","OR","P90X Fitness Center","not_available","97266",45.433206,-122.55408
"97015","Clackamas","OR","StarCycle","13183 SE 172nd Ave Ste 178","97086",45.4274694,-122.4858196
"97016","Clatskanie","OR","Anytime Fitness","600 E Columbia River Hwy","97016",46.10280990600586,-123.1987075805664
"97018","Columbia City","OR","Columbia City Sports & Rec Center","not_available","97018",45.89731596525177,-122.81479358932424
"97024","Fairview","OR","Overton's Functional Fitness","1528 NE Market Dr","97024",45.533042907714844,-122.43794250488281
"97024","Fairview","OR","Athletic Advantage","24023 NE Shea Ln","97060",45.53917542,-122.4168857
"97026","Gervais","OR","Diesel Fitness","not_available","97071",45.15259610282917,-122.83085668542456
"97026","Gervais","OR","Anytime Fitness","2247 Country Club Rd","97071",45.152694,-122.874982
"97027","Gladstone","OR","Clackamas River Racquet Club","790 82nd Dr","97027",45.387714,-122.57695600000001
"97027","Gladstone","OR","East Side Athletic Club","4606 SE Boardman Ave","97267",45.39525779908149,-122.61460245166826
"97030","Gresham","OR","Orangetheory Fitness","697 Northwest Division St","97030",45.50467620963573,-122.43960861164128
"97030","Gresham","OR","LA Fitness","779 NW Council Dr","97030",45.51051357540781,-122.43915023272115
"97030","Gresham","OR","Next Level Athletics","2206 NW Birdsdale Ave","97030",45.512068,-122.45368899999998
"97030","Gresham","OR","Cascade Athletic Club East","not_available","97080",45.492744621324654,-122.40710751956534
"97030","Gresham","OR","Curves","not_available","97220",45.49863247695269,-122.42804213203232
"97030","Gresham","OR","Spring Water Crossing Gym","not_available","97030",45.50555261759673,-122.45309915139822
"97030","Gresham","OR","Cascade Athletic Clubs","19201 SE Division St","97030",45.504592,-122.464507
"97030","Gresham","OR","Team Quest","18206 SE Stark St","97233",45.518991351127625,-122.4755322933197
"97030","Gresham","OR","3-46 Grit CrossFit","346 NE 219th Ave","97030",45.526373,-122.435869
"97030","Gresham","OR","Crossfit Gresham","18180 SE Stark St","97233",45.518760681152344,-122.47627258300781
"97030","Gresham","OR","Anytime Fitness","26940 SE Stark St","97060",45.518088,-122.386072
"97030","Gresham","OR","Planet Fitness","2330 SE 182nd Ave","97233",45.5056202,-122.4747088
"97030","Gresham","OR","Fastlane Fitness","2735 SW Laura Ct","97060",45.521440999999996,-122.395885
"97031","Hood River","OR","Curves","not_available","97031",45.70217772481,-121.52431049022599
"97031","Hood River","OR","CrossFit Hood River","1816 Belmont","97031",45.699609,-121.530739
"97031","Hood River","OR","Snap Fitness","Vietnam Veterans Memorial Highway","97031",45.71208250013517,-121.54136984791437
"97031","Hood River","OR","Get Fit, Stay Fit","209 E Eugene St, Hood River, OR 97031","97031",45.70605565,-121.50774999
"97034","Lake Oswego","OR","YogaSix","101 S State St Ste 4120","97034",45.41497890935622,-122.66335988996953
"97034","Lake Oswego","OR","Kruse Commons Gym","not_available","97035",45.418121337890625,-122.71710968017578
"97034","Lake Oswego","OR","Anytime Fitness","1171 McVey Ave","97034",45.406713,-122.676449
"97034","Lake Oswego","OR","Parkridge Gym","Kerr Pkwy","97035",45.42889951826097,-122.70604184688034
"97034","Lake Oswego","OR","StarCycle","459 2nd St","97034",45.42029,-122.6648876
"97034","Lake Oswego","OR","Lake Oswego Gym","2051 Country Club rd.","97034",45.427357153417674,-122.7026481938107
"97034","Lake Oswego","OR","Curves - West Linn","not_available","97068",45.39286769161985,-122.63797707353743
"97034","Lake Oswego","OR","Trainer's Club","333 S State St","97034",45.41327269226219,-122.66377011349098
"97034","Lake Oswego","OR","Willamette View Technogym","13169 SE River Rd","97222",45.42755889892578,-122.64575958251953
"97034","Lake Oswego","OR","IM=X Pilates and Fitness","436 1st St","97034",45.419986,-122.66446599999999
"97034","Lake Oswego","OR","Pure Barre","101 S State St Ste 4115","97034",45.415061950683594,-122.66346740722656
"97034","Lake Oswego","OR","Orangetheory Fitness","19151 Willamette Dr","97068",45.386357000000004,-122.641873
"97035","Lake Oswego","OR","www.BODYbyBRET.com","12870 SW 63rd Ave","97219",45.43283462524414,-122.74117279052734
"97035","Lake Oswego","OR","Burncycle Lake Oswego","4811 Meadows Road","97035",45.4184262,-122.7261663
"97035","Lake Oswego","OR","Curves of Lake Oswego","15158 Bangy Rd","97035",45.416227,-122.741704
"97035","Lake Oswego","OR","Kruse Woods Exercise Room","4949 Sw Meadows","97035",45.41801722344612,-122.7277209681143
"97035","Lake Oswego","OR","Portland Trailblazers Practice Facility","not_available","97224",45.396366,-122.746773
"97035","Lake Oswego","OR","Snap Fitness","6296 Meadows Rd","97035",45.417248,-122.741657
"97035","Lake Oswego","OR","Burn Boot Camp","16889 Southwest 65th Ave","97062",45.39769,-122.745
"97038","Molalla","OR","Cutting Edge Fitness","260 N Molalla Ave Ste G","97038",45.15023284124837,-122.57709185721414
"97038","Molalla","OR","Dolce Dance","109 S Molalla Ave","97038",45.147094,-122.57701999999999
"97045","Oregon City","OR","Anytime Fitness","22340 Salamo Rd","97068",45.36618,-122.64778
"97045","Oregon City","OR","Cascade Summit Gym","Day Rd","97068",45.361616603126805,-122.64851333088627
"97045","Oregon City","OR","My Path Wellness","4103 SE International Way Suite 303","97222",45.40593317373305,-122.62514704730296
"97045","Oregon City","OR","Forest Heights Gym","750 cascade avenue Forest Heights","97045",45.34572,-122.591947
"97045","Oregon City","OR","Abernethy Performing Arts","275 Beavercreek Rd Ste 108","97045",45.333926,-122.59656000000001
"97045","Oregon City","OR","Highland Training Athletic Club","not_available","97045",45.33312596598885,-122.6085772431215
"97045","Oregon City","OR","Nautilus Plus O.C.","1715 Beavercreek Rd","97045",45.33334812404745,-122.5830370889824
"97045","Oregon City","OR","Janey Rose - Complete Fitness","1615 Jamie Cir","97068",45.347198486328125,-122.65850830078125
"97045","Oregon City","OR","Orangetheory Fitness","395 Beavercreek Rd","97045",45.33382034301758,-122.59175872802734
"97045","Oregon City","OR","iLoveKickboxing - Oregon City, OR","19502 Molalla Ave Ste 101","97045",45.324810453604314,-122.5803109852501
"97045","Oregon City","OR","Fit For Life","5640 Hood St.","97068",45.36641778708651,-122.61273604045458
"97048","Rainier","OR","YMCA","766 15th Ave","98632",46.12842253902432,-122.94029205988515
"97048","Rainier","OR","1826 Elite Fitness","not_available","98632",46.14139386486744,-122.91678261517008
"97048","Rainier","OR","Kalama Gym","not_available","98625",46.023880347666626,-122.85246642390773
"97048","Rainier","OR","Snap Fitness","3707 Ocean Beach Hwy","98632",46.154287,-122.98183600000002
"97048","Rainier","OR","Complete Physique Anytime","524 N 1st St","98625",46.01191329956055,-122.84609985351562
"97048","Rainier","OR","Snap Fitness","218 Kelso Dr","98626",46.14360046386719,-122.89549255371094
"97048","Rainier","OR","Snap Fitness","1940 Cascade Way","98632",46.146863877958566,-122.93312800316856
"97048","Rainier","OR","Forever Fit","1211 18th Ave","98632",46.13653449976913,-122.9411443462179
"97048","Rainier","OR","Curves","760 Ocean Beach Hwy","98632",46.14656066894531,-122.92469024658203
"97049","Rhododendron","OR","Hoodland Sport & Fitness","not_available","97067",45.34679890616143,-121.96271976871148
"97051","Saint Helens","OR","Anytime Fitness","1538-1540 Columbia Blvd","97051",45.85983304,-122.8132526
"97051","Saint Helens","OR","Curves","1775 Saint Helens St","97051",45.8599853515625,-122.81591796875
"97051","Saint Helens","OR","fara","not_available","97051",45.86110890673411,-122.79733020891653
"97056","Scappoose","OR","Scappoose Fitness Center","52260 SE 2nd St","97056",45.7538335,-122.87597421666666
"97056","Scappoose","OR","Snap Fitness","33448 Havlik Dr","97056",45.741165865007865,-122.8791574941506
"97056","Scappoose","OR","NW Premier Fitness","not_available","97056",45.75810236452275,-122.87678312747641
"97058","The Dalles","OR","Muscle And Fitness Center","not_available","97058",45.60046550155853,-121.19301620241733
"97060","Troutdale","OR","spotlight Cheer","not_available","97060",45.54605484008789,-122.40290832519531
"97062","Tualatin","OR","Tualatin High School","22300 SW Boones Ferry Rd","97062",45.35871944994668,-122.77191638946533
"97062","Tualatin","OR","Orangetheory Fitness","19221 Southwest Martinazzi Ave","97062",45.380839,-122.760298
"97062","Tualatin","OR","Trail Blazers Practice Facility","7325 SW Childs Way","97062",45.38931799209873,-122.75166083100935
"97062","Tualatin","OR","APCON Fitness Room","9255 SW Pioneer Ct","97070",45.339698791503906,-122.7720947265625
"97062","Tualatin","OR","Fitness Together","19291 SW Martinazzi Ave","97062",45.379994,-122.760526
"97062","Tualatin","OR","South Center Fitness Center","7614 SW Mohawk St","97062",45.378003,-122.755531
"97062","Tualatin","OR","Club Sport","18120 SW Lower Boones Ferry Rd","97224",45.38842092948131,-122.75406914465219
"97062","Tualatin","OR","Boom Fitness","18039 SW Lower Boones Ferry Rd","97224",45.39205078448222,-122.75111998123705
"97062","Tualatin","OR","Mota Fitness","17700 SW Upper Boones Ferry Rd Ste 135","97224",45.392308,-122.7557
"97062","Tualatin","OR","Gracie Barra Brazilian Jiu-Jitsu & Self Defense","17700 Southwest Upper Boones Ferry Road","97224",45.39153218,-122.75520525
"97062","Tualatin","OR","CorePower Yoga","7497 SW Bridgeport Rd","97224",45.39417,-122.753773
"97062","Tualatin","OR","LA Fitness","7405 SW Nyberg St","97062",45.385376377924175,-122.75265503576665
"97062","Tualatin","OR","Rivercrest Meadows Gym","11795 SW Tualatin Rd","97062",45.39221429002697,-122.79828028007144
"97070","Wilsonville","OR","Orangetheory Fitness","29756 Town Center Loop W","97070",45.304383,-122.764532
"97070","Wilsonville","OR","Villebois gym","11422 SW Barber St","97070",45.31040954589844,-122.79473876953125
"97086","Happy Valley","OR","Body Renew Northwest","10718 SE 82nd Ave","97086",45.44580841064453,-122.57747650146484
"97086","Happy Valley","OR","Elite Sante Womans Fitness","not_available","97206",45.460423,-122.580097
"97086","Happy Valley","OR","Altamont Summit Gym","Clubhouse","97086",45.457287981796206,-122.56217819440052
"97113","Cornelius","OR","Firefighter Training Ground","225 S 1st Ave","not_available",45.521113,-122.990573
"97113","Cornelius","OR","Balance Fitness","115 SE 2nd Ave","97123",45.521905663063,-122.9881402011233
"97113","Cornelius","OR","Anytime Fitness","112 N 20th Ave","97113",45.52087653,-123.0468058
"97113","Cornelius","OR","Curves","42270 NW Oak Way","97106",45.52064670895183,-123.05366021535744
"97113","Cornelius","OR","The Gym","1901 Mountain View Ln","97116",45.518951416015625,-123.07515716552734
"97116","Forest Grove","OR","Fitness 1440","2329 Pacific Ave","97116",45.52042518441773,-123.10541928262677
"97119","Gaston","OR","Black Iron And Grey Hair Gym","not_available","97119",45.42890658784214,-123.08507079339084
"97123","Hillsboro","OR","total results fitness and nutrition","2810 SE 39th Loop Ste C","97123",45.49898679742552,-122.9448084028611
"97123","Hillsboro","OR","The Gym Nest - Hillsboro","1414 SE 18th Ave Ste 100","97123",45.508917991525756,-122.96402926888997
"97123","Hillsboro","OR","Intrinsic Training","2900 SE Cornelius Pass Rd Ste 446","97123",45.499591,-122.901154
"97124","Hillsboro","OR","Intel - Jones Farm Fitness Center","2111 NE 25th Ave","97124",45.54244716918909,-122.96097303041886
"97124","Hillsboro","OR","LA Fitness","7410 NE Imbrie Dr","97124",45.54946021427531,-122.90282907907758
"97124","Hillsboro","OR","Intel - Hawthorn Farm Fitness Center","5200 NE Elam Young Pkwy","97124",45.532044436466585,-122.92658739328951
"97124","Hillsboro","OR","Hawthorne Farms Athletic Club","4800 NE Belknap Ct","97124",45.530285615418755,-122.93362274113653
"97124","Hillsboro","OR","Anytime Fitness","897 NE 25th Ave","97124",45.530226232558846,-122.95804291963576
"97124","Hillsboro","OR","iPhysique Gym","1300 NE 48th St, Hillsboro, OR 97124","97124",45.53470610431196,-122.93294057266341
"97128","Mcminnville","OR","Linfield Weight Room","not_available","97128",45.199891,-123.202965
"97128","Mcminnville","OR","Snap Fitness","697 SW Keck Dr","97128",45.19723417541099,-123.20487211731755
"97128","Mcminnville","OR","Mac Women's Fitness Center","1015 NW Adams St","97128",45.21534878526468,-123.19917498259412
"97128","Mcminnville","OR","Planet Fitness","1199 NE Highway 99W","97128",45.22644,-123.186515
"97128","Mcminnville","OR","Curves of McMinnville","430 Evans St","97128",45.222673,-123.194606
"97128","Mcminnville","OR","Anytime Fitness","865 NE Highway 99W Ste C","97128",45.22574252,-123.1899165
"97132","Newberg","OR","Sherwood Regional Family YMCA","23000 SW Pacific Hwy","97140",45.35325312986065,-122.86640812072517
"97132","Newberg","OR","Anytime Fitness","1112 N Springbrook Rd","97132",45.308170318603516,-122.94563293457031
"97132","Newberg","OR","Wheeler Sports Center","Fulton","97132",45.30531481388192,-122.9662397590243
"97132","Newberg","OR","Planet Fitness","16852 SW Edy Rd","97140",45.36572265625,-122.85205841064453
"97132","Newberg","OR","Gym at Friendsview :D","not_available","97132",45.3070845076049,-122.96657376041652
"97132","Newberg","OR","Curves","110 N Everest Rd, Newberg, OR 97132","97132",45.30096508630689,-122.96004092894707
"97132","Newberg","OR","The Fit Corps","not_available","97140",45.36083733378579,-122.85497750374239
"97138","Seaside","OR","Sunset Fitness","2411 Oregon Ave","97138",46.01049088333333,-123.91433758333334
"97140","Sherwood","OR","StyleShock Cheer & Dance","14960 Southwest Tualatin-Sherwood Road, #103","97140",45.367252,-122.831055
"97140","Sherwood","OR","Anytime Fitness","16200 Pacific Hwy Ste A","97224",45.40306,-122.79316
"97140","Sherwood","OR","Anytime Fitness","16555 SW 12th St","97140",45.36487,-122.84739
"97140","Sherwood","OR","Snap Fitness","16078 SW Tualatin Sherwood Rd","97140",45.36826705932617,-122.84226989746094
"97140","Sherwood","OR","Crossfit Absolute","14991 SW Tualatin Sherwood Rd","97140",45.368431091308594,-122.83019256591797
"97141","Tillamook","OR","Tillamook YMCA","610 Stillwell Ave","97141",45.45352428551709,-123.84623260767984
"97148","Yamhill","OR","T & T Got It Covered","150 Maple Street","97148",45.341087,-123.188055
"97201","Portland","OR","The Ropes","750 SW 9th Ave","97205",45.519376,-122.681023
"97201","Portland","OR","Cyan PDX Apartments","1720 SW 4th","97201",45.51147114186796,-122.6803173538462
"97201","Portland","OR","March Wellness","3303 SW Bond Ave","97239",45.49905140139757,-122.67113552673834
"97201","Portland","OR","Gym @ Paramount","not_available","97204",45.518204,-122.681718
"97201","Portland","OR","eliot tower gym","2nd floor","not_available",45.51632869570664,-122.68484501499347
"97201","Portland","OR","the SWEATSHOP","1541 SW Market St","97201",45.51579284667969,-122.69113159179688
"97201","Portland","OR","Muh Gym","1604 SW Clay St","97201",45.516048431396484,-122.69129180908203
"97201","Portland","OR","Members Only Fitness / Sweat Shop","200 SW Market St","97201",45.51127022311335,-122.67947280786771
"97201","Portland","OR","First & Main Bike Hub","100 SW Main St","97204",45.514862060546875,-122.67569732666016
"97201","Portland","OR","Sweat Shop","1100 SW 6th Ave","97204",45.51594161987305,-122.67973327636719
"97201","Portland","OR","Pacific Center Fitness Center","851 SW 6th Ave Ste 400","97204",45.51829147338867,-122.67939758300781
"97201","Portland","OR","Lincoln High School Gymnasium","1600 SW Salmon St","97205",45.518757,-122.688826
"97201","Portland","OR","Portland Marriott Downtown Waterfront Fitness Center","1401 SW Naito Pkwy","97201",45.51273835087596,-122.67555917146686
"97201","Portland","OR","YWCA","1111 SW 10th Ave","97205",45.51679116122368,-122.68397385136812
"97201","Portland","OR","Bodybalance Techniques","121 SW Morrison St Ste 225","97204",45.518204,-122.673865
"97201","Portland","OR","Wonders of Walking","610 SW Broadway Ste 401","97205",45.519766881800955,-122.67910122871398
"97201","Portland","OR","P-Kash Flo's Gym","not_available","97201",45.514034,-122.690891
"97201","Portland","OR","Allstar Fitness","2831 SW Barbur Blvd","97201",45.503124288476236,-122.68248209836518
"97201","Portland","OR","24 Hour Fitness Center at Park Plaza","1969 SW Park Ave","97201",45.510181,-122.68668899999999
"97201","Portland","OR","Fit factory","SW Salmon and SW 1st ave","97204",45.51558369375122,-122.67414823517112
"97201","Portland","OR","Umpqua Bank Plaza Gym","1 SW Columbia St","97258",45.51327896118164,-122.67547607421875
"97201","Portland","OR","Cityshape II","1900 SW 4th Ave","97201",45.5092887878418,-122.680908203125
"97201","Portland","OR","Body Balance","121 SW Morrison St","97204",45.518165588378906,-122.6737289428711
"97202","Portland","OR","Fulcrum Fitness Hawthorne","1425 SE 43rd Ave","97215",45.512319562999224,-122.61850870782922
"97202","Portland","OR","Snap Fitness","7122 SE Milwaukie Ave","97202",45.472839606036096,-122.64838985253729
"97202","Portland","OR","efit","2820 SE 8th Ave","97202",45.50260925292969,-122.65748596191406
"97202","Portland","OR","Porland Juggling Club","not_available","97202",45.48108018762687,-122.63406943583435
"97202","Portland","OR","Loprinzi's Gym","2414 SE 41st Ave","97214",45.50525837935458,-122.62025044963772
"97202","Portland","OR","The Green Microgym","7703 SE 13th Ave","97202",45.469076,-122.653203
"97202","Portland","OR","TEI - TriMet fitness center","4400 SE 17th Ave","97202",45.490821838378906,-122.64885711669922
"97202","Portland","OR","Fulcrum fitness","8524 SE 17th Ave, Portland, OR 97202","97202",45.461181640625,-122.646728515625
"97202","Portland","OR","One With Heart Tulen Center","4231 SE Hawthorne Blvd","97215",45.512112459397116,-122.61866937104838
"97202","Portland","OR","The Ardea - Gym","3720 SW Bond Ave","97239",45.496009826660156,-122.67030334472656
"97202","Portland","OR","Elite Performance Center","3080 SE HAROLD ST #B","97202",45.50015687942505,-122.65400648117065
"97203","Portland","OR","4100 Fitness Center","4100 N Marine Dr, Portland, OR 97203","97203",45.62568283081055,-122.73686981201172
"97203","Portland","OR","West Coast Fitness","7522 N Lombard St","97203",45.58815546002881,-122.74401861465937
"97204","Portland","OR","West Side Athletic Club","200-298 SW 6th Ave.","97205",45.52213343193698,-122.67683024685053
"97204","Portland","OR","Infrared Saunas Portland","916 SW Stark St","97205",45.521573,-122.68068600000001
"97204","Portland","OR","Block 300 Fitness Center","308 SW 2nd Ave","97204",45.520205,-122.67281499999999
"97204","Portland","OR","Club Fed","333 SW 1st Ave, Portland, OR 97204","97204",45.52018737792969,-122.67278289794922
"97204","Portland","OR","Governor Hotel Fitness Center","not_available","97205",45.52060737246033,-122.67979730200429
"97204","Portland","OR","WestinWORKOUT","750 SW Alder St","97205",45.520010113689345,-122.6800690464655
"97204","Portland","OR","Hotel Rose Fitness Center","50 SW Morrison St","97204",45.517433,-122.673225
"97204","Portland","OR","Hotel Monaco Fitness Room","not_available","97209",45.51979915618184,-122.67709656334355
"97204","Portland","OR","Commonwealth Fitness Center","421 SW 6th Ave","97204",45.52082824707031,-122.67803192138672
"97205","Portland","OR","Multnomah Athletic Club (MAC)","1849 SW Salmon St","97205",45.52024411951261,-122.69218989405132
"97205","Portland","OR","Mark Spencer Gym","409 SW 11th Ave","97205",45.52216339111328,-122.68247985839844
"97205","Portland","OR","Celio Fitness Center","901 SW King Ave","97205",45.52174194549171,-122.69594946418779
"97206","Portland","OR","Mt Scott Community Center & Pool","5530 SE 72nd Ave","97206",45.482486323257625,-122.58886798823016
"97206","Portland","OR","Third Eye Jiu Jitsu","5623 SE Center","97206",45.49428310395453,-122.60485768318176
"97206","Portland","OR","Foster Fitness","5623 SE Center St","97206",45.49422955388564,-122.60505587255001
"97206","Portland","OR","Liberation Barbell","8040 SE Harold St, Suite D","97206",45.482906,-122.580869
"97206","Portland","OR","Rebel Health NW","5435 SE 46th Ave","97206",45.48313819808839,-122.61574745178223
"97206","Portland","OR","Elite Performance Center","8030 SE Harold St","97206",45.482836999999996,-122.58063200000001
"97206","Portland","OR","Yoga Union","2043 SE 50th Ave","97215",45.506534902750786,-122.61142875321573
"97209","Portland","OR","LA Fitness","1400 NW Northrup St","97209",45.53125581657081,-122.68597180733198
"97209","Portland","OR","Burncycle","910 NW 10th Ave","97209",45.52951526512824,-122.68126162094497
"97209","Portland","OR","Pacific Crest CrossFit","2225 N Vancouver Ave","97227",45.539025,-122.668062
"97209","Portland","OR","Formula3 Fitness","1785 Front Ave","97204",45.5366001,-122.6862209
"97209","Portland","OR","Block 17 Fitness Center","1161 NW Overton St","97209",45.5323600769043,-122.68314361572266
"97209","Portland","OR","Con-way Gym","1717 NW 21st Ave","97209",45.535194,-122.696344
"97209","Portland","OR","Upper Echelon Fitness and","1420 NW 17th Ave Ste 388","97209",45.533203,-122.688157
"97209","Portland","OR","Nemesis Jiu-Jitsu","635 NW 16th Ave Ste A","97209",45.527644,-122.687692
"97209","Portland","OR","The Yards Gym","783 NW Naito Pkwy","97209",45.52893829345703,-122.6747817993164
"97209","Portland","OR","Recreate Fitness","2001 NW 19th Ave Ste 101","97209",45.537173643635974,-122.69082709850089
"97209","Portland","OR","Brassy Butterfly","1121 N Loring St","97227",45.539634704589844,-122.67855072021484
"97209","Portland","OR","Get Fit Training","1500 NW 18th Ave","97209",45.53388595581055,-122.68911743164062
"97209","Portland","OR","Pure Barre Pearl","1124 NW 13th Ave","97209",45.531133000000004,-122.683957
"97209","Portland","OR","Energy Fitness Concepts","1020 NW 18th Ave","97209",45.530475,-122.68920800000001
"97209","Portland","OR","Encore Gym","3rd Floor","97209",45.53232424585327,-122.68184317863587
"97209","Portland","OR","Waterfront Pearl Gym","1260 NW Naito Pkwy","97209",45.53214194228141,-122.67861685288446
"97209","Portland","OR","Lovejoy Station Fitness Center - 2nd Floor","1040 NW 10th Ave","97209",45.53061294555664,-122.68087768554688
"97209","Portland","OR","YogaSix","1516 NW 22nd Ave","97210",45.53350067138672,-122.69664001464844
"97209","Portland","OR","Foundation Fitness","1732 NW Quimby St","97209",45.533288879467456,-122.68911123275757
"97209","Portland","OR","The Avenue Lofts - Gym","1400 NW Irving St","97209",45.527417,-122.685827
"97209","Portland","OR","The Turbine Room at Indigo","430 SW 13th Ave","97205",45.522276,-122.68383200000001
"97210","Portland","OR","CorePower Yoga","2277 NW Quimby","97210",45.53360073952856,-122.69837714464302
"97210","Portland","OR","Friendly House","1737 NW 26th Ave","97210",45.53522576493212,-122.70516088934652
"97210","Portland","OR","Hillside Community Center","not_available","97210",45.527531496868534,-122.70907192583653
"97210","Portland","OR","Curves","3201-3249 N Lombard St","97217",45.57657944642055,-122.69748566256965
"97210","Portland","OR","Skogg Kettlebell Gym","2636 NW 26th Ave","97210",45.5407772,-122.7054193
"97210","Portland","OR","Inner Strength Personal Fitness Training","2600 NW Vaughn St","97210",45.536582946777344,-122.70518493652344
"97210","Portland","OR","Adidas Village Gym","5055 N Greeley Ave","97217",45.559385419008095,-122.69378043187585
"97210","Portland","OR","OmYeah Yoga","2377 NW Westover Rd","97210",45.52482986450195,-122.70030212402344
"97210","Portland","OR","Control Fitness","2562 NW Wilson St","97210",45.537328,-122.704476
"97210","Portland","OR","Sports Lab","2202 NW Roosevelt St","97210",45.538123,-122.69721399999999
"97211","Portland","OR","Philthy Fitness","5240 NE 42nd Ave","97218",45.561222076416016,-122.62013244628906
"97211","Portland","OR","Studio of American Fencing","4048 NE 42nd Ave","97213",45.552625,-122.62011899999999
"97211","Portland","OR","Peak Performance","2640 NE Alberta St","97211",45.558951112934565,-122.63819618994793
"97211","Portland","OR","Starcycle","4133 N Williams Ave","97217",45.554026,-122.667321
"97211","Portland","OR","Green Microgym","1237 NE Alberta St","97211",45.559170083233994,-122.65282278330899
"97211","Portland","OR","Go Well PDX","4943 NE Martin Luther King Jr. Blvd.","97211",45.55799,-122.66161
"97211","Portland","OR","Portland Community College Cascade Gym","705 NE Killingsworth","not_available",45.56270099944925,-122.67356739746235
"97211","Portland","OR","Residence Inn Gym","9301 NE Cascades Pkwy","97220",45.577877044677734,-122.56693267822266
"97211","Portland","OR","P.A.C.E.","4829 NE M L King Blvd","97211",45.55778473076799,-122.6617733416973
"97211","Portland","OR","Firefly Fencing","www.FireflyFencing.com","not_available",45.56758983192027,-122.65930423834489
"97211","Portland","OR","Candlewood & Suits Workout Room","11250 NE Holman St","97220",45.567776,-122.54637199999999
"97211","Portland","OR","ME Fitness Studios","4943 NE M L King Blvd","97211",45.55895076023794,-122.66179077422262
"97211","Portland","OR","Prism Fit","18 N Shaver St","97227",45.55192,-122.66716699999999
"97211","Portland","OR","Boyce Fitness","4530 NE 42nd Ave","97218",45.556043,-122.619773
"97211","Portland","OR","Fitness Center At The Radisson","not_available","97218",45.56904145238669,-122.58309617850401
"97211","Portland","OR","Britank Boot Camp","not_available","97211",45.55766725,-122.66183
"97212","Portland","OR","The Irvington Club","2131 NE Thompson St","97212",45.53879363413072,-122.6445275491952
"97212","Portland","OR","honest personal training","4016 NE Fremont St","97212",45.54799507784065,-122.62110406777735
"97212","Portland","OR","Matt Dishman Community Center","77 NE Knott St","97212",45.54202233334585,-122.6649826590841
"97212","Portland","OR","Portland Adventure Boot Camp For Women","606 NE 37th Ave.","not_available",45.53469756600297,-122.62498061666447
"97212","Portland","OR","Northwest Women's Fitness & Personal Training","2714 NE Broadway St","97232",45.53494409,-122.63793668
"97212","Portland","OR","Vive Fitness","4023 NE Hancock St","97212",45.53657207803986,-122.62193102630575
"97212","Portland","OR","Fulcrum Fitness","3934 NE M L King Blvd","97212",45.55135746567784,-122.66136603006963
"97212","Portland","OR","journey gym","331 NE Hancock St","97212",45.536735,-122.66214599999999
"97212","Portland","OR","Elite Fitness Training","3436 NE 21st Ave","97212",45.547984,-122.64384100000001
"97212","Portland","OR","Curves","4150 NE Hancock St","97212",45.536219,-122.620506
"97212","Portland","OR","Evan the Personal Trainer","1969 NE 42nd Ave","97213",45.536991,-122.62037600000001
"97212","Portland","OR","Mari's House of Pain","not_available","97212",45.550414,-122.631174
"97212","Portland","OR","Moving Parts Fitness","1734 NE Broadway St","97232",45.534838,-122.647669
"97213","Portland","OR","Hollywood Fitness (formerly Giant's)","5223 NE Sandy Blvd","97213",45.54037865285486,-122.6095704778491
"97213","Portland","OR","Mt. Tabor CrossFit","8028 NE Glisan St","97213",45.526184979118426,-122.58097469717214
"97213","Portland","OR","The Children's Gym","1825 NE 43rd Ave","97213",45.53598,-122.61863400000001
"97213","Portland","OR","The E train","not_available","97213",45.52587890625,-122.61631774902344
"97213","Portland","OR","Tone It Up Bettcxhhhesss","913 NE 76th Ave","97213",45.529444,-122.585048
"97213","Portland","OR","Basement Gym","NE Hassalo st","97213",45.531452599999994,-122.61845347
"97213","Portland","OR","Olympus Gym","6133-6139 NE Fremont St","97213",45.548156,-122.579762
"97213","Portland","OR","Straight Blast Gym","1812 NE 43rd Ave","97213",45.53604658775296,-122.61875928366976
"97214","Portland","OR","The Kennel Gym","not_available","97214",45.51494465859161,-122.6245593074737
"97214","Portland","OR","Bold & Badass Fitness","3228 SE 21st Ave","97202",45.513083244007404,-122.65962583249878
"97214","Portland","OR","CrossFit Bauhaus","1847 E Burnside St","97214",45.52325439453125,-122.64691162109375
"97214","Portland","OR","TFW Portland","1338 SE 6th Ave","97214",45.513160705566406,-122.6594467163086
"97214","Portland","OR","The Exotic You","420 SE 6th Ave","97214",45.519703,-122.659424
"97214","Portland","OR","The Green Microgym","828 SE 34th Avenue, Studio B","97214",45.51670243925382,-122.629372483766
"97214","Portland","OR","PlantFit Training Studio","1217 SE Stark St","97214",45.519564,-122.653333
"97214","Portland","OR","Portland Indoor Soccer","418 SE Main St","97214",45.513180438701966,-122.66154591686188
"97214","Portland","OR","CorePower Yoga","844 SE Morrison St","97214",45.51699856793937,-122.65688449144363
"97215","Portland","OR","Yoga Bhoga","4220 SE Belmont St","97215",45.5164602,-122.6188831
"97216","Portland","OR","Cascade Athletic Club","9260 SE Stark St","97216",45.5184398,-122.5679569
"97217","Portland","OR","Anytime Fitness","710 Esther St","98660",45.62695,-122.67617
"97217","Portland","OR","Marshall Community Center","1009 E McLoughlin Blvd","98663",45.63350588375017,-122.66097738644733
"97217","Portland","OR","Northwynd Gym","not_available","98661",45.616892,-122.652432
"97217","Portland","OR","The Source Climbing Center","1118 Main St","98660",45.630196881167805,-122.67178940156535
"97217","Portland","OR","O'Connell Sports Center","1933 Fort Vancouver Way","98663",45.6340797937639,-122.65511709253607
"97217","Portland","OR","Pure Barre","2410 Columbia House Blvd Ste 102","98661",45.61905351400899,-122.64657678834322
"97217","Portland","OR","YogaSix","1700 Main St Ste B","98660",45.63426208496094,-122.67188262939453
"97217","Portland","OR","CYCLEBAR","1700 Main St Ste A","98660",45.63426208496094,-122.67188262939453
"97217","Portland","OR","Vancouvercenter Fitness Center","701 Columbia St","98660",45.62646484375,-122.67330169677734
"97217","Portland","OR","Hilton Fitness Center","not_available","97217",45.6253752038143,-122.67437028024969
"97217","Portland","OR","Sweet Science Boxing","2015 N Kilpatrick St","97217",45.582747999999995,-122.68653799999998
"97219","Portland","OR","Southwest Community Center","6820 SW 45th Ave","97219",45.47569161346991,-122.72211904353262
"97219","Portland","OR","Multnomah Curves","3839 SW Multnomah Blvd","97219",45.467723,-122.716945
"97219","Portland","OR","Ballard Movement Arts","1340 SW Bertha Blvd","97219",45.470489501953125,-122.6930923461914
"97219","Portland","OR","Burlingame Fitness Center","1035 SW Bertha Blvd","97219",45.471489,-122.688994
"97219","Portland","OR","Your Health First LLC","2802 SW Taylors Ferry Rd","97219",45.457749,-122.70558500000001
"97219","Portland","OR","Shadow Hills Workout Center","2040 SW Vermont St","97219",45.475065,-122.69967700000001
"97219","Portland","OR","Lewis and Clark Gymnasium","not_available","97219",45.46857734389114,-122.67619007910702
"97220","Portland","OR","Planet Fitness","1640 NE 122nd Ave","97230",45.53463164284583,-122.53575907518483
"97220","Portland","OR","Mii Fitness Palace","NE Fremont St","97220",45.548261,-122.573449
"97220","Portland","OR","Courtyard Fitness Center","11550 NE Airport Way","97220",45.567026,-122.543599
"97220","Portland","OR","Beef Cake","800 ne 99th ave","97220",45.528487,-122.561933
"97221","Portland","OR","Portland athletic club","5803 SW Beaverton Hillsdale Hwy","97221",45.48766207344546,-122.7364898983864
"97221","Portland","OR","Fitness Shop","not_available","97239",45.49594,-122.70428
"97221","Portland","OR","sylvan gym","not_available","97225",45.51057052612305,-122.74404907226562
"97221","Portland","OR","Verde Cocina at Sylvan Highlands","5515 SW Canyon Ct","97221",45.51134640001425,-122.72892059843134
"97221","Portland","OR","Trip Gym","not_available","97221",45.51133531536351,-122.72886024212278
"97222","Portland","OR","OtisFit Training","14200 SE McLoughlin Blvd Ste I","97267",45.42104721069336,-122.63258361816406
"97222","Portland","OR","Curves of Milwaukie","10851 S.E. Main St. Milwaukie, OR 97222","not_available",45.445927,-122.642897
"97222","Portland","OR","The Warrior Room","3086 SE Monroe St","97222",45.44231544009124,-122.64111235065343
"97222","Portland","OR","Snap Fitness","4200 SE King Rd","97222",45.447718430148136,-122.61902440139636
"97222","Portland","OR","Crucible MMA Fitness","not_available","97222",45.43664188036261,-122.61973674605852
"97222","Portland","OR","Nelson's Nautilus Plus","10466 SE Main St","97222",45.44720630328875,-122.64124745919084
"97222","Portland","OR","Endurafit Training Facility","14200 SE McLoughlin Blvd Ste 1","97267",45.420911,-122.632293
"97223","Portland","OR","Rokke Performance Therapy","12070 SW Garden Pl","97223",45.432595,-122.760955
"97223","Portland","OR","Sledge gym","9384 SW Tigard St","97223",45.431235100497425,-122.77339745691253
"97223","Portland","OR","Oregon Fencing Alliance","6699 Oleson Rd","97005",45.47199734143624,-122.7696878778218
"97224","Portland","OR","Savage Strength Conditioning","Sw 85th","not_available",45.40251541137695,-122.76490783691406
"97224","Portland","OR","Fierce Fitness Kickboxing","7800 SW Durham Rd Ste 300","97224",45.4037341,-122.7577282
"97225","Portland","OR","Fitness Together - Raleigh Hills","7417 SW Beaverton Hillsdale Hwy","97225",45.48658520445922,-122.7536512054469
"97225","Portland","OR","Catlin Gabel Gymnasium","8825 SW Barnes Rd","97225",45.51094419362026,-122.76743362087923
"97225","Portland","OR","RDFiT","8538 SW Apple Way","97225",45.48543930053711,-122.7646713256836
"97225","Portland","OR","Portland Academy of Self Defense","8747 SW Beaverton Hillsdale Hwy Suite C","97225",45.4870574,-122.7665933
"97225","Portland","OR","Raleigh Park and Swim Center","3500 SW 78th Ave","97225",45.494906789549006,-122.75668100770285
"97225","Portland","OR","S2K Training","8785 SW Beaverton Hillsdale Hwy","97225",45.486582,-122.767598
"97225","Portland","OR","Peterkort 9755 Gym","9755 SW Barnes Rd Bsmt","97225",45.511871337890625,-122.77778625488281
"97225","Portland","OR","Eclipse Athletics","10950 SW 5th St","97005",45.48313522338867,-122.7897720336914
"97227","Portland","OR","Crowne Plaza Gym","1441 NE 2nd Ave","97232",45.533714294433594,-122.66426086425781
"97229","Portland","OR","Snap Fitness","18335 NW West Union Rd","97229",45.56133097731576,-122.86531083155232
"97229","Portland","OR","The Workout Room","Home Gym","97229",45.56459638673412,-122.84291484722624
"97229","Portland","OR","Gym Life","18212 NW Walked Rd.","97006",45.52432,-122.865233
"97230","Portland","OR","The Gym","2524 se 166th ave","98683",45.60110855102539,-122.5014419555664
"97230","Portland","OR","Gold Medal Gym","not_available","97230",45.534306,-122.516219
"97230","Portland","OR","Sharp Fitness Center","not_available","98683",45.59664,-122.47919
"97230","Portland","OR","StarCycle","3215 SE 192nd Ave #100","98683",45.5978124,-122.4763483
"97231","Portland","OR","Crossfit Reflexion West","6127 NE Casper Ct","97124",45.56413,-122.924015
"97232","Portland","OR","LA Fitness","1270 NE Weidler St","97232",45.53386557226076,-122.6531947446941
"97232","Portland","OR","Orangetheory Fitness - Lloyd District","1107 NE 9th Ave","97232",45.530863614717944,-122.65716140285124
"97232","Portland","OR","fitness center at hotel eastlund","not_available","97232",45.530585,-122.661172
"97232","Portland","OR","Double Tree Fitness Center","1000 NE Multnomah St","97232",45.53076934814453,-122.65558624267578
"97232","Portland","OR","PSOB Wellness Center","800 NE Oregon St","97232",45.52828,-122.657876
"97232","Portland","OR","Residence Inn Gym","1301-1599 NE Lloyd Blvd","97232",45.531222224235535,-122.650204
"97232","Portland","OR","The Merrick","1231 NE M L King Blvd","97232",45.53190460922651,-122.6624886042198
"97232","Portland","OR","Velomor Gym","1088 NE 7th Ave","97232",45.5301814931563,-122.65823310855535
"97232","Portland","OR","The Playground Gym","505 NE Grand Ave","97232",45.52680792230262,-122.6609450501401
"97232","Portland","OR","Peak Condition","2214 NE Oregon St","97232",45.52848452930278,-122.64326530634513
"97232","Portland","OR","Terrazzani's Gym","1500 NE 15th Ave","97232",45.533790588378906,-122.64994812011719
"97236","Portland","OR","Crunch - Division","12112 Southeast Division Street","97236",45.50283331,-122.53858418
"97239","Portland","OR","The Circuit Bouldering Gym","6050 SW Macadam Ave","97239",45.480164755629424,-122.67251991247143
"97239","Portland","OR","mw_gym","magicslands drive","not_available",45.483243,-122.676239
"97239","Portland","OR","RidePDX","3745 SW Bond Ave","97239",45.4949985946762,-122.67158520987724
"97239","Portland","OR","Riva on the Park - Fitness Center","0650 SW Gaines St","97239",45.496070861816406,-122.67139434814453
"97266","Portland","OR","LA Fitness","4140 SE 82nd Ave","97266",45.492694661250084,-122.57645741952416
"97266","Portland","OR","Planet Fitness","9280 SE Foster Rd","97266",45.4793594,-122.5684216
"97266","Portland","OR","PDXFIT","9212 SE Ramona St","97266",45.48054122924805,-122.56800842285156
"97266","Portland","OR","New Breed Academy","9213 SE Foster Rd","97266",45.47969162464142,-122.56803631782532
"97266","Portland","OR","LA Fitness","4000 SE 82nd Ave","97266",45.49443054199219,-122.57649993896484
"97301","Salem","OR","Courthouse Athletic Club","4132 Devonshire Ct NE","97305",44.9652995841896,-122.98095638217266
"97301","Salem","OR","FIT Studios","2990 Pringle Rd SE","97302",44.91155,-123.02568799999999
"97301","Salem","OR","Salem Family YMCA","685 Court St NE","97301",44.940354614096954,-123.0330034093598
"97301","Salem","OR","Physiq Fitness","420 Mill St SE","97301",44.936783,-123.039208
"97301","Salem","OR","Willamette Estates Gym","Santiam Pass Way NE","97305",44.974837206304834,-122.98570493496383
"97301","Salem","OR","Physiq Fitness","3850 River Rd N","97303",44.981834,-123.024666
"97301","Salem","OR","Zs4","not_available","97303",44.976661,-123.028911
"97301","Salem","OR","Get Air Salem","3910 Rickey St SE","97317",44.914473,-122.98256299999998
"97301","Salem","OR","Max Fitness","285 Liberty St NE #170","97301",44.94203567504883,-123.03836059570312
"97301","Salem","OR","Holiday Inn Fitness","not_available","97301",44.950703,-122.993645
"97301","Salem","OR","Rise Performance","245 Division St NE","97301",44.947567,-123.038145
"97301","Salem","OR","Planet Fitness","2787 Lancaster Dr NE","97305",44.96235072954516,-122.98497328673535
"97301","Salem","OR","Kiren Personal Fitness","2025 State St","97301",44.934557,-123.016356
"97301","Salem","OR","Gym","2333 Coral Ave NE","97305",44.956719,-122.988316
"97301","Salem","OR","Mahoney Crossfit (New location)","2195 Hyacinth St NE","97301",44.981041999999995,-123.000006
"97302","Salem","OR","Physiq Fitness","4825 Commercial St SE","97302",44.885274,-123.034254
"97302","Salem","OR","Epic Fitness","706 Madrona Ave SE","97302",44.9042040065436,-123.0391502309338
"97302","Salem","OR","Courthouse Athletic Club","6250 Commercial St SE","97306",44.86525939819414,-123.01878657077243
"97302","Salem","OR","Evolution Fitness","5757 Commercial St SE #108","97306",44.87092928651561,-123.02422684194745
"97302","Salem","OR","Garmin CC gym","not_available","97302",44.89974213288692,-123.00923484666713
"97302","Salem","OR","Orangetheory Fitness","4405 Commercial St SE","97302",44.88966751098633,-123.034912109375
"97302","Salem","OR","Curves","5111 Commercial St SE","97306",44.8802604675293,-123.03009033203125
"97302","Salem","OR","Snap Fitness","4555 Liberty Rd S","97302",44.89102658801112,-123.06056650187274
"97302","Salem","OR","Salem Fitness","not_available","97306",44.880357000000004,-123.030308
"97302","Salem","OR","Rise Performance","1105 Edgewater St NW","97304",44.941449,-123.05696
"97302","Salem","OR","Phys Ed","5764 Sugar Plum Ave SE","97306",44.87198257446289,-123.01956939697266
"97302","Salem","OR","The Rock Boxx Climbing Gym","3895 Cascadia Canyon Ave SE","97302",44.8995545,-123.0057868
"97302","Salem","OR","Courthouse Athletic Club","2975 River Rd S","97302",44.91315590879221,-123.07011389777631
"97302","Salem","OR","Flex Fitness","5115 Commercial St SE","97306",44.8802375793457,-123.03001403808594
"97303","Salem","OR","Courthouse Athletic Club","117 McNary Estates Dr N","97303",45.01217934188402,-123.02211846394479
"97303","Salem","OR","Keizer Snap Fitness","5442 River Rd N","97303",45.003115,-123.024882
"97304","Salem","OR","Courthouse Athletic Club","300 Glen Creek Rd NW","97304",44.949811358952495,-123.04767453131817
"97304","Salem","OR","Snap Fitness","1124 Wallace Rd NW Ste 140","97304",44.95131937421933,-123.05074774206403
"97304","Salem","OR","Rosewood Lane Workout Room","not_available","97304",44.965515097729686,-123.05638172458843
"97317","Salem","OR","Tornado Fitness","not_available","97325",44.840886071239346,-122.87121138984985
"97321","Albany","OR","Santiam CrossFit","3290 Lyon St SE","97322",44.61174774169922,-123.10015869140625
"97321","Albany","OR","Snap Fitness","640 Hickory St NW","97321",44.643410034486806,-123.11191564190942
"97321","Albany","OR","Anytime Fitness","2760 Pacific Blvd SE","97321",44.63797,-123.07152
"97321","Albany","OR","The Y (Willamette Valley YMCA)","3311 Pacific Blvd SW","97321",44.610688,-123.112754
"97321","Albany","OR","Physiq Fitness","1177 Waverly Dr SE","97322",44.63055,-123.07161699999999
"97321","Albany","OR","Curves","1787 NW Horseshoe Lake Cir","97321",44.633232,-123.0777
"97321","Albany","OR","Fitness Experience","1715 Hill St SE","97322",44.62461661986305,-123.08928163963351
"97322","Albany","OR","Anytime Fitness","671 Main St","97355",44.53947,-122.90687
"97322","Albany","OR","SamFit","not_available","97355",44.55014371428263,-122.9091678563811
"97325","Aumsville","OR","Stayton Fitness","370 N 2nd Ave","97383",44.79755401611328,-122.7929916381836
"97325","Aumsville","OR","Where To Start Fitness","not_available","97383",44.8027691458052,-122.80256568721933
"97325","Aumsville","OR","Anytime Fitness","935 N 1st Ave","97383",44.80171,-122.79494
"97330","Corvallis","OR","Planet Fitness","1900 NW 9th St","97330",44.586981,-123.257915
"97330","Corvallis","OR","SamFit","777 NW 9th St Ste 310","97330",44.571499123792584,-123.26409971983529
"97330","Corvallis","OR","Snap Fitness","948 NW Circle Blvd, Corvallis, OR 97330","97330",44.58802036850734,-123.25901961435433
"97330","Corvallis","OR","Wow Fitness","327 SW 3rd St","97333",44.561802146266785,-123.26162569936577
"97330","Corvallis","OR","Sports Performance Center (SPC)","2737 SW Ralph Miller Ln","97331",44.561256408691406,-123.28075408935547
"97330","Corvallis","OR","Grand Oaks Fitness Center","6300 SW Grand Oaks Dr","97333",44.55729293823242,-123.32527160644531
"97330","Corvallis","OR","Hewlett-Packard Gym","not_available","97330",44.5808137911179,-123.24387245844956
"97330","Corvallis","OR","CrossFit Corvallis","6265 NW Mountain View Dr","97330",44.63409,-123.253884
"97330","Corvallis","OR","Anytime Fitness","955 NW Kings Blvd","97330",44.576664,-123.27446699999999
"97330","Corvallis","OR","Orangetheory Fitness","1838 NW 9th St","97330",44.586700439453125,-123.25896453857422
"97330","Corvallis","OR","Timberhill Athletic Club","2855 NW 29th St","97330",44.595846,-123.286309
"97333","Corvallis","OR","Chiseled Spirit CrossFit","1819 Main St","97370",44.54054334140902,-123.35962772391213
"97333","Corvallis","OR","Snap Fitness","5246 SW Philomath Blvd","97333",44.55075302138237,-123.30778984142782
"97333","Corvallis","OR","Anytime Fitness","1313 Main St.","97370",44.540329,-123.367401
"97338","Dallas","OR","Zumba Rickreall","not_available","97371",44.93259,-123.227826
"97338","Dallas","OR","Anytime Fitness","740 Main St","97338",44.92231,-123.31628
"97338","Dallas","OR","Monmouth Fitness","not_available","97361",44.84828521687656,-123.23481743506838
"97338","Dallas","OR","Best Western Fitness Center","not_available","97338",44.931192,-123.310127
"97351","Independence","OR","Curves","155 C St","97351",44.85188293457031,-123.18538665771484
"97351","Independence","OR","Anytime Fitness","1369 Monmouth St","97351",44.85019,-123.20577
"97365","Newport","OR","Newport Recreation Center","225 SE Avery St","97365",44.634512084402004,-124.05202726572362
"97365","Newport","OR","Hallmark Resort Fitness Center","744 SW Elizabeth St","97365",44.630374458692984,-124.0639864689133
"97365","Newport","OR","Gauntlet Gym At Holiday Inn","not_available","97365",44.61514624201726,-124.06329066148683
"97365","Newport","OR","The Muscle Studio","4909 S Coast Hwy","97366",44.60301971435547,-124.05461120605469
"97367","Lincoln City","OR","Lincoln City Community Center","2150 NE Oar Pl","97367",44.980292999999996,-124.00748
"97367","Lincoln City","OR","Zumba with Sasha","2403 North Oregon Coast Hwy","97367",44.98076083348585,-124.01430202517376
"97367","Lincoln City","OR","Fitness 101","4744 SE Highway 101","97367",44.93056106567383,-124.01774597167969
"97381","Silverton","OR","Anytime Fitness","703 McClaine St","97381",45.005311999999996,-122.792876
"97386","Sweet Home","OR","Steelhead Strength &  Fitness","455 10th Ave","97386",44.397585,-122.729326
"97386","Sweet Home","OR","Elite Performance Academy","not_available","97386",44.39704513549805,-122.73301696777344
"97401","Eugene","OR","Bkool And Zwift Foxy","not_available","97401",44.043461,-123.096479
"97401","Eugene","OR","International Fitness","1009 Green Acres Rd","97408",44.094458,-123.096374
"97401","Eugene","OR","Track Town Crossfitt","1771 Willamette Street","97401",44.05122422138162,-123.0922232817873
"97401","Eugene","OR","Orangetheory Fitness","23 Oakway Ctr","97401",44.063838958740234,-123.07733154296875
"97401","Eugene","OR","Eugene Jazzercise Center","825 Monroe St","97402",44.053045000000004,-123.10574199999999
"97401","Eugene","OR","Threshold Fitness","2512 Oakmont Way","97401",44.063302712161565,-123.07273349156566
"97401","Eugene","OR","CrossFit Evviva","234 W 6th Ave","97401",44.05292510986328,-123.0963134765625
"97401","Eugene","OR","City Of Eugene Employee gym","1010 Oak St","97401",44.048809000000006,-123.091631
"97401","Eugene","OR","Downtown Athletic Club","999 Willamette St","97401",44.04888616908954,-123.09215694547508
"97401","Eugene","OR","Old School Fitness","2000 Cal Young Rd Ste C","97401",44.07576370239258,-123.08369445800781
"97401","Eugene","OR","Kipsters","475 W 5th Ave","97401",44.054602,-123.099847
"97401","Eugene","OR","Genuine Fitness","not_available","97402",44.053628,-123.11366899999999
"97401","Eugene","OR","Boulders workout room","655 Goodpasture Island Rd","97401",44.08243942260742,-123.11354064941406
"97401","Eugene","OR","Simple Strong","2840 Crescent Ave #100","97408",44.0929024,-123.0644051
"97401","Eugene","OR","Gym","1150 Darlene Ln, Eugene, OR 97401","97401",44.08338928222656,-123.10679626464844
"97401","Eugene","OR","WHA Employee Gym","2930 Chad Dr, Eugene, OR 97408","97408",44.08869934082031,-123.060302734375
"97401","Eugene","OR","Burn Fit Body Fitness - Personal Trainer in Eugene","2512 Oakmont Way Ste C","97401",44.0632501,-123.0726033
"97401","Eugene","OR","Fitness Link","436 Charnelton St","97401",44.0550179,-123.096157
"97401","Eugene","OR","Fitness Advantage Inc.","1745 W 11th Ave","97402",44.047915233634164,-123.11858654022215
"97401","Eugene","OR","Back 2 Strength","2704 Delta Oaks Dr","97408",44.092116145533936,-123.09260129928587
"97401","Eugene","OR","Police HQ Gym","300 Country Club Rd","97401",44.06271743774414,-123.08858489990234
"97401","Eugene","OR","Chase Crossing Gym","275 S Garden Way","97401",44.05800247192383,-123.05115509033203
"97401","Eugene","OR","Fitness Center @ Chase Village","378 Marche Chase","97401",44.058096,-123.059669
"97401","Eugene","OR","Sheldon Pool","2443 Willakenzie Rd","97401",44.08127088213928,-123.07448651705701
"97401","Eugene","OR","Oakway Fitness Center","170 Oakway Rd","97401",44.06439834661057,-123.0799904186167
"97401","Eugene","OR","Greentree Inn Gym","not_available","97403",44.04636,-123.066956
"97401","Eugene","OR","Marist High School Weight Room","1900 Kingsley Rd","97401",44.08679864441632,-123.11506560218228
"97402","Eugene","OR","River Road Pool","1400 Lake Dr","97404",44.08384474710722,-123.13755225442222
"97402","Eugene","OR","Courtsports Athletic Club","4242 Commerce St","97402",44.04880823598179,-123.16824618381658
"97402","Eugene","OR","Mikilas Bootcamp","not_available","97405",44.04653494304656,-123.1670270542094
"97402","Eugene","OR","Curves","3165 W 11th Ave # 1-B","97402",44.04840087890625,-123.13961791992188
"97402","Eugene","OR","FITNESS:1440","2101 Bailey Hill Rd","97405",44.0369867,-123.1499608
"97402","Eugene","OR","US Sports Plex","4540 Commerce St","97402",44.046287047440494,-123.16683334890038
"97402","Eugene","OR","Crest Massage Center Inc","420 Crest Dr","97405",44.0211518,-123.0999882
"97402","Eugene","OR","CrossFit From the Ashes","1121 Bailey Hill Rd","97402",44.04705047607422,-123.14686584472656
"97402","Eugene","OR","Anytime Fitness","65 Division Ave","97404",44.10048,-123.12746
"97402","Eugene","OR","Curves Eugene","3165 W 11th Ave","97402",44.04846,-123.138342
"97402","Eugene","OR","Planet Fitness","2370 West 11th Avenue","97402",44.04705935577754,-123.12925782023774
"97405","Eugene","OR","In Shape Athletic Club","2681 Willamette St","97405",44.02927409999999,-123.090361
"97405","Eugene","OR","TabataProject","East 40th avenue","97405",44.01056537739217,-123.08790521736536
"97405","Eugene","OR","Snap Fitness","2862 Willamette St Ste A","97405",44.02764331189124,-123.09328447156382
"97405","Eugene","OR","Iron Works Gym","not_available","97426",43.92759819907127,-123.01288074090148
"97405","Eugene","OR","Iron Works Gym","Creswell, OR 97426","97426",43.92451387899331,-123.00064415749769
"97405","Eugene","OR","Eugene Family YMCA","2055 Patterson St","97405",44.03748858539391,-123.08343896716131
"97408","Eugene","OR","Wellness Center @ RBA","123 International Way","97477",44.08705139160156,-123.03176879882812
"97408","Eugene","OR","Fitness Link","555 International Way","97477",44.087188720703125,-123.03659057617188
"97408","Eugene","OR","Fitness Link, Performance & Training Center","921 International Way","97477",44.088046000000006,-123.0418
"97408","Eugene","OR","Burn Boot Camp","2758 Shadow View Dr","97408",44.09289,-123.06034
"97411","Bandon","OR","Gym / Fitness Center","50211 Highway 101 S","97411",43.100103,-124.414436
"97411","Bandon","OR","Workout Bandon Inn","not_available","97411",43.188377377103066,-124.39000818874479
"97415","Brookings","OR","Fitness At The Club","98158 W Benham Ln Ste 13","97415",42.041467,-124.251173
"97420","Coos Bay","OR","Bay Area Athletic Club","985 Newmark Ave","97420",43.391176,-124.27089299999999
"97420","Coos Bay","OR","Inch Bye Inch","not_available","97459",43.39231872558594,-124.23878479003906
"97420","Coos Bay","OR","Coos Cardio Party Club","3491 Broadway Ave","97459",43.39031444215342,-124.23827303638623
"97423","Coquille","OR","Coquille Valley Fitness","not_available","97423",43.186317,-124.201829
"97424","Cottage Grove","OR","Anytime Fitness","1600 E Main St","97424",43.797441,-123.051019
"97424","Cottage Grove","OR","CG Body Studio","28 S 6th St","97424",43.796667,-123.061314
"97424","Cottage Grove","OR","Weyerhaeuser Gym","77650 Hwy 99","97424",43.76945114135742,-123.0805435180664
"97424","Cottage Grove","OR","Better Bodies","not_available","97424",43.797221,-123.064366
"97441","Gardiner","OR","The Body Shop","115 S 20th St","97467",43.69562530517578,-124.11974334716797
"97444","Gold Beach","OR","Gold Beach Fitness Center","not_available","97444",42.413697577058485,-124.42098498106776
"97462","Oakland","OR","Anytime Fitness","332 Dakota St.","97479",43.388293,-123.341251
"97470","Roseburg","OR","Fitness First","442 NE Oakland Ave","97470",43.228188216773724,-123.35113557215998
"97470","Roseburg","OR","The Y","1151 NW Stewart Pkwy","97471",43.22092557662488,-123.37472498441544
"97470","Roseburg","OR","Roseburg Martial Arts Academy","1523 NE Vine St","97470",43.2282775,-123.3467984
"97470","Roseburg","OR","oak valley strength and conditioning","494 Oak Valley Loop","97495",43.27245438490777,-123.34362954118129
"97470","Roseburg","OR","C.C. Gym","2371 NE Stephens St","97470",43.238643646240234,-123.35222625732422
"97477","Springfield","OR","Pursue Fitness","555 W Centennial Blvd","97477",44.05643902770981,-123.03470012802083
"97477","Springfield","OR","Willamalane Center for Sports and Recreation","250 S 32nd St","97478",44.0441022140156,-122.98265818573742
"97477","Springfield","OR","Cascade Peak Performance","824 Q St","97477",44.0626220703125,-123.01502990722656
"97477","Springfield","OR","Planet Fitness","4223 Main St","97478",44.0449298,-122.9616842
"97477","Springfield","OR","International Fitness","215 Q St","97477",44.06192427507459,-123.0225056128615
"97477","Springfield","OR","Courtsports Athletic Club","2728 Pheasant Blvd","97477",44.072323805476806,-123.03420860040309
"97477","Springfield","OR","Brentwood Gym","317 30th St","97478",44.04919948468472,-122.98241002773628
"97477","Springfield","OR","International Fitness","3000 Gateway Rd","97477",44.072513105292664,-123.04635508531912
"97477","Springfield","OR","Anytime Fitness","2197 Olympic St","97477",44.05992,-122.99484
"97477","Springfield","OR","Belly Health","1544 5th St","97477",44.059113,-123.021647
"97478","Springfield","OR","ForeverStrong","4660 Main St","97478",44.05761643937171,-122.93867485957026
"97501","Medford","OR","Athletic Edge","not_available","97504",42.3573798944207,-122.86036229873548
"97501","Medford","OR","Planet Fitness","1341 Center Dr, Ste A","97501",42.31273,-122.85293100000001
"97501","Medford","OR","Orangetheory Fitness","171 Rossanley Dr","97501",42.34237,-122.88365
"97501","Medford","OR","America's Best Kids","1914 Sky Park Dr","97504",42.357886,-122.859429
"97501","Medford","OR","YMCA","522 W 6th St","97501",42.32454868977771,-122.87980783467756
"97501","Medford","OR","Rusted Gears Fitness","841 W Stewart Ave","97501",42.31238,-122.88088
"97501","Medford","OR","max muscle","not_available","97501",42.312888701546896,-122.85779407074011
"97501","Medford","OR","Womens Fitness Company","539 Stevens St","97504",42.335104,-122.86881299999999
"97501","Medford","OR","Superior Athletic Club","727 Cardley Ave","97504",42.336143,-122.868993
"97501","Medford","OR","Santo Community Center","701 N Columbus Ave","97501",42.33142222825777,-122.89110761015839
"97501","Medford","OR","Kids Unlimited / Main 1 Arts Center","821 N Riverside Ave","97501",42.33517471777693,-122.87487099695556
"97501","Medford","OR","Elite Power & Fitness","2109 Roberts Rd","97504",42.351457,-122.85372199999999
"97501","Medford","OR","Superior Athletic Club","2500 E Barnett Rd","97504",42.31648153604508,-122.83731897275324
"97501","Medford","OR","Anytime Fitness","150 N Bartlett St","97501",42.32882,-122.87217
"97501","Medford","OR","Oz Fitness","567 Medford Ctr","97504",42.333571968601085,-122.86830221144668
"97501","Medford","OR","Aspire Personal Fitness","1345 Center Dr","97501",42.311631,-122.853977
"97501","Medford","OR","Fuel Fitness","1257 N Riverside Ave","97501",42.33906173706055,-122.87732696533203
"97501","Medford","OR","Anytime Fitness","3564 Lone Pine Rd","97504",42.3445,-122.824
"97501","Medford","OR","F45 Training Medford South","625 E Jackson St","97504",42.331498,-122.866186
"97502","Central Point","OR","Anytime Fitness","312 Oak St","97502",42.37428,-122.91410400000001
"97502","Central Point","OR","Blue Dog Crossfit","3719 Suite 102 International Way","97502",42.373260498046875,-122.86630249023438
"97502","Central Point","OR","TNT/Cheer Zone","4779 Airway Dr","97502",42.385760999999995,-122.87252099999999
"97502","Central Point","OR","Higgs Gym","2744 Taylor Rd","97502",42.374753999999996,-122.937146
"97502","Central Point","OR","Superior Athletic Club","111 Alta Vista Rd","97524",42.457954,-122.816652
"97502","Central Point","OR","Gold's Gym","3581 Lear Way","97504",42.367627,-122.861652
"97504","Medford","OR","Snap Fitness Medford","930 N Phoenix Rd Ste 101","97504",42.315181,-122.81521399999998
"97504","Medford","OR","Curves","980 N Phoenix Rd","97504",42.31428909301758,-122.81598663330078
"97520","Ashland","OR","Snap Fitness","2205 Ashland St","97520",42.185793,-122.674334
"97520","Ashland","OR","Snap Fitness","310 Oak St, Ashland, OR 97520","97520",42.199608414400075,-122.71264915944779
"97520","Ashland","OR","YMCA","540 Ymca Way","97520",42.186634372271385,-122.67277832562165
"97520","Ashland","OR","Anytime Fitness","1505 Siskiyou Blvd","97520",42.18449,-122.68881
"97520","Ashland","OR","Ashland Tennis & Fitness Club","735 Jefferson Ave","97520",42.181827,-122.668677
"97520","Ashland","OR","Ashland CrossFit","not_available","97520",42.18336486816406,-122.66293334960938
"97525","Gold Hill","OR","WYMMA Gym","not_available","97537",42.43885803222656,-123.16951751708984
"97526","Grants Pass","OR","Club Northwest","2160 NW Vine St","97526",42.46470905011099,-123.3259845441803
"97526","Grants Pass","OR","YMCA","1000 Redwood Ave","97527",42.423077448105694,-123.34696504021981
"97526","Grants Pass","OR","U Sports","not_available","97526",42.462315281842756,-123.32645261952673
"97526","Grants Pass","OR","The Zoo Health Club","162 NE Beacon Dr #105","97526",42.4360608057207,-123.30831763737311
"97526","Grants Pass","OR","Thrive Wellness","1550 Nebraska Ave","97527",42.42151,-123.34711000000001
"97527","Grants Pass","OR","The Gym","not_available","97527",42.38937863348559,-123.35122710910143
"97540","Talent","OR","The Gym","100 N Pacific Hwy","97540",42.247257232666016,-122.78363800048828
"97601","Klamath Falls","OR","Roosevelt School","1125 N Eldorado Ave","97601",42.23831003044046,-121.774722847396
"97601","Klamath Falls","OR","National Fitness And Racquet Club","2524 Crosby Ave","97603",42.20488831145212,-121.75843443690492
"97601","Klamath Falls","OR","The Recovery Zone","not_available","97603",42.23554829215767,-121.76504865505454
"97601","Klamath Falls","OR","Keno Fitness Center","not_available","97627",42.125922,-121.931686
"97601","Klamath Falls","OR","Crossfit Klamath","not_available","97601",42.22273016098614,-121.77639157468691
"97601","Klamath Falls","OR","Harbor Isles Tennis and Fitness","Bismarck","not_available",42.24648992364764,-121.8126706022352
"97601","Klamath Falls","OR","Anytime Fitness","1831 Avalon St.","97603",42.21205,-121.75309
"97601","Klamath Falls","OR","Tech Fit","3201 Campus Dr","97601",42.25703430175781,-121.7840347290039
"97601","Klamath Falls","OR","Hilltop Fitness Center","1401 Bryant Williams Dr","97601",42.25244903564453,-121.78291320800781
"97701","Bend","OR","Orangetheory Fitness","320 SW Powerhouse Dr","97702",44.04765192688088,-121.31425629520815
"97701","Bend","OR","Resort Sports Center at Eagle Crest Resort","1580 Swallow Lane","97756",44.260349172821,-121.2497705154189
"97701","Bend","OR","Shift Fitness","155 SW Century Drive, Suite 110","97702",44.04893328183286,-121.33332613588576
"97701","Bend","OR","Athletic Club of Bend","61615 Athletic Club Dr","97702",44.03609096286029,-121.33612966799451
"97701","Bend","OR","Anytime Fitness","915 SW Rimrock Way Suite 101","97756",44.26818,-121.19277
"97701","Bend","OR","Norm's Extreme Fitness","120 NW 3rd St","97754",44.302813563842726,-120.84784488651961
"97701","Bend","OR","Prineville Athletic Club","211 N Main St","97754",44.302296000000005,-120.847475
"97701","Bend","OR","CYCLEBAR","655 SW Powerhouse Dr Ste 150","97702",44.0437965841274,-121.31565890674591
"97701","Bend","OR","Les schwab Athletic Club","not_available","97701",44.11096532314051,-121.27829864044531
"97701","Bend","OR","Deschutes County Rocks Boxing","20 NW Greenwood Ave","97703",44.060157775878906,-121.30743408203125
"97701","Bend","OR","Tompkins Chiropractic, LLC","1230 Northeast 3rd Street","97701",44.06259199999999,-121.30106
"97701","Bend","OR","Crossfit","not_available","97702",44.03512954711914,-121.28411102294922
"97701","Bend","OR","Sisters Athletic Club","1001 Desperado Trl","97759",44.28635,-121.537
"97701","Bend","OR","Holiday Inn Express Bend - Fitness Room","20615 Grandview Dr","97701",44.11457061767578,-121.29345703125
"97701","Bend","OR","Ridge Sports Center at Eagle Crest Resort","8100 Coopers Hawk Dr","97756",44.264286041259766,-121.27029418945312
"97701","Bend","OR","FITNESS:1440","1569 NE 2nd St","97701",44.0655471,-121.3045381
"97701","Bend","OR","Renew Fitness","564 NE Greenwood Ave","97701",44.060294,-121.29750200000001
"97701","Bend","OR","High Desert Gym","not_available","97754",44.300799,-120.839367
"97701","Bend","OR","Xcel Fitness","2410 NE Twin Knolls Dr","97701",44.0528381666081,-121.26637875844033
"97701","Bend","OR","The Gym","1717 NE 2nd St","97756",44.291595458984375,-121.1677017211914
"97701","Bend","OR","Snap Fitness","2753 NW Lolo Dr","97703",44.053655493640655,-121.35822340007472
"97701","Bend","OR","Free Spirit Yoga + Fitness + Play","320 SW Powerhouse Dr Ste 150","97702",44.0485311,-121.3139989
"97701","Bend","OR","Body By Schliebe","1441 SW Chandler Ave","97702",44.04172897338867,-121.3327865600586
"97701","Bend","OR","inmotion","1279 NE 2nd St","97701",44.063121,-121.304363
"97701","Bend","OR","Cascade Fitness","172 E Main Ave","97759",44.2923958,-121.5493542
"97701","Bend","OR","Snap Fitness","19550 Amber Meadow Dr","97702",44.009796142578125,-121.34451293945312
"97702","Bend","OR","FIT PIT LLC","61445 S Highway 97 Ste A","97702",44.031700134277344,-121.31011962890625
"97702","Bend","OR","Crossfit Type 44","1129 SE Centennial","97702",44.03781115184678,-121.29267472133266
"97702","Bend","OR","Max Fitness","61470 S Hwy 97, #3","97702",44.0321126,-121.3077753
"97702","Bend","OR","Strength Warehouse","345 SW Cyber Dr Ste 105","97702",44.04689025878906,-121.32597351074219
"97712","Brothers","OR","CrossFit GP","not_available","97712",43.804132497827794,-120.55419599173781
"97734","Culver","OR","3 Peaks CrossFit","2061 NW Andrews Dr","97741",44.665681,-121.137468
"97739","La Pine","OR","Anytime Fitness","16487 Bluewood Pl","97739",43.67582,-121.50031
"97739","La Pine","OR","The Fit Zone","16410 Bluewood Place Suite A","97739",43.6773522,-121.5041108
"97756","Redmond","OR","CrossFit Magnify","611 NE Jackpine Ct. Building C","97756",44.28607600000001,-121.162563
"97801","Pendleton","OR","Nixaawii Gym","not_available","97801",45.66565610895325,-118.65558452611862
"97801","Pendleton","OR","Pendleton Recreation Center","500 SW Dorion Ave","97801",45.669728000000006,-118.791191
"97814","Baker City","OR","YMCA Gym","Main Street","97814",44.795519780698285,-117.8513588815128
"97823","Condon","OR","Avilla","Avila Garden Condo","97823",45.234378,-120.190243
"97828","Enterprise","OR","Vault Health and Fitness","106 SW 1st St","97828",45.424946999999996,-117.27916
"97838","Hermiston","OR","Club 24","Plaza","not_available",45.83433188393652,-119.28789245775877
"97838","Hermiston","OR","Umatilla Army Depot Gym","not_available","97838",45.80780684576823,-119.42372694177723
"97838","Hermiston","OR","Columbia court club","80903 ,N HWY 395","97838",45.87961435317993,-119.29507613182068
"97850","La Grande","OR","La Grande CrossFit","62846 Buchanan Ln","97850",45.32559,-118.042546
"97850","La Grande","OR","Anytime Fitness","2212 Island Ave Ste 400","97850",45.32872,-118.07812
"97850","La Grande","OR","La Grande Armory","440 S 12th St, La Grande, OR 97850","97850",45.31935701917887,-118.07868374824787
"97850","La Grande","OR","Grande Ronde Fitness Club","not_available","97850",45.31921049471368,-118.07965687101988
"97862","Milton Freewater","OR","SoFo Strength","not_available","97862",45.90364864282907,-118.34523616365456
"97914","Ontario","OR","The Treadmill","The Obuch's","83672",43.980812,-116.960543
"97914","Ontario","OR","Fit For Life Health Club","not_available","97914",44.027635874781005,-116.9623680166418
"97914","Ontario","OR","Ontario Cross Training Academy","432 N Oregon St","97914",44.030357360839844,-116.96142578125
"97914","Ontario","OR","bodyshop fitness center","not_available","83619",44.0234149517418,-116.9232051184557
