"zip","city","state","name","address","postalCode","lat","lon"
"89002","Henderson","NV","Black Mountain Recreation Center","599 Greenway Rd","89015",36.013323317378614,-114.97602289733696
"89002","Henderson","NV","CD Young's Karate in Henderson","70 E Horizon Ridge Pkwy, Suite 120","89002",36.0091552,-114.9907183
"89002","Henderson","NV","Xpress Fitness","not_available","not_available",36.01334922,-114.99279122
"89002","Henderson","NV","Undeniable Fitness","not_available","89015",36.00297876495211,-114.97332896443993
"89002","Henderson","NV","Koko Fit Club","55 Horizon Ridge Pkwy.","89012",36.00878292150979,-114.9928085091838
"89002","Henderson","NV","Edge Fitness and Tanning","771 E Horizon Dr","89015",36.013408028037816,-114.96028770768905
"89002","Henderson","NV","Protogym","not_available","89012",36.0132761368494,-114.99267169122191
"89004","Blue Diamond","NV","BD Rec Hall","not_available","89004",36.04661178588867,-115.4061279296875
"89005","Boulder City","NV","Westin Workout","not_available","89011",36.11369814335241,-114.93143409860559
"89005","Boulder City","NV","The Pool @ Ravella","1610 Lake Las Vegas Pkwy","89011",36.101737,-114.931372
"89005","Boulder City","NV","Planet Fitness","260 E Lake Mead Pkwy","89015",36.0407799380742,-114.97785717896296
"89005","Boulder City","NV","Valley View Recreation Center","500 Harris St","89015",36.034849464367525,-114.97140554110683
"89005","Boulder City","NV","Express Fitness Henderson","200 E Lake Mead Pkwy","89015",36.04023595335204,-114.97971326074563
"89005","Boulder City","NV","Anytime Fitness","806 Buchannan Blvd Ste 101","89005",35.97209,-114.84553
"89005","Boulder City","NV","Gym @ V","1 Via Vasari","89011",36.11463,-114.933371
"89007","Bunkerville","NV","Iron City Crossfit","140 Riverside Rd","89027",36.801231384277344,-114.09294128417969
"89011","Henderson","NV","Las Vegas Athletic Club - Henderson","1195 WELLNESS PLACE","89011",36.07635498046875,-115.03718566894531
"89011","Henderson","NV","Veritas Combat Arts & Fitness Academy","980 American Pacific Dr #107","89014",36.04243994732344,-115.02750471757
"89011","Henderson","NV","Orangetheory Fitness","not_available","89014",36.066991623742936,-115.0368304927208
"89011","Henderson","NV","Not Now Chief, I'm In The Zone","524 Dutchman Ave","89011",36.064709,-114.996627
"89011","Henderson","NV","Sincity Crossfit","958 Empire Mesa Way","89011",36.069198,-115.02533999999999
"89011","Henderson","NV","Tha Dragon's Lair","1281 Galleria Dr","89014",36.070145000000004,-115.043668
"89011","Henderson","NV","Vegas Fitness","6325 E Russell Rd","89122",36.08367919921875,-115.03453063964844
"89011","Henderson","NV","Fit Body Boot Camp","950 W Warm Springs Rd","89011",36.056806819527026,-115.02609681899136
"89011","Henderson","NV","Copper Creek Estates Pool","Glitter Rock","89122",36.08111413165917,-115.01408344699709
"89011","Henderson","NV","Remington Gym","not_available","89074",36.042634,-115.031047
"89011","Henderson","NV","24 Hr Fitness - Boulder and Basic","Boulder Hwy","not_available",36.059370738027845,-114.99460175639338
"89011","Henderson","NV","Van Hook Sports Performance","900 W Warm Springs Rd Ste 103","89011",36.05681726450501,-115.02490698438265
"89011","Henderson","NV","Forbus Batting Cage","3497 Gloucester Gate St","89122",36.123374938964844,-115.03423309326172
"89012","Henderson","NV","EOS Fitness - Las Vegas Southeast","35 S Stephanie St","89012",36.0266594,-115.0474949
"89012","Henderson","NV","The Spa at Green Valley Ranch Resort","2300 Paseo Verde Pkwy","89052",36.02159733156819,-115.09185877360805
"89012","Henderson","NV","PROTOGYM","1441 Paseo Verde Pkwy","89012",36.02582550048828,-115.04859161376953
"89012","Henderson","NV","E≈çS Fitness","35 S Stephanie","89012",36.0279493,-115.050417
"89012","Henderson","NV","DragonRidge Gym at MacDonald Ranch","552 S Stephanie St","89012",36.007652282714844,-115.04476165771484
"89012","Henderson","NV","Pure Barre","725 S Green Valley Pkwy Ste 130","89052",36.00172424316406,-115.08386993408203
"89012","Henderson","NV","Pure Barre","725 S Green Valley Pkwy","89052",36.001164,-115.083681
"89012","Henderson","NV","Fitness Center","Mission Hills","89052",36.00502746923219,-115.08861871929804
"89012","Henderson","NV","Centennial YMCA","not_available","89149",36.02612268,-115.09093291
"89012","Henderson","NV","CYCLEBAR","2280 Paseo Verde Pkwy Ste 160","89052",36.0199358,-115.0869922
"89012","Henderson","NV","The Gym @ Allegro","951 Las Palmas Entrada Ave","89012",36.02896982282855,-115.02694332841558
"89012","Henderson","NV","Anytime Fitness","1510 W Horizon Ridge Pkwy","89012",36.019176379663094,-115.05326229577658
"89014","Henderson","NV","Home Gym","6530 Annie Oakley Dr Apt Gym","89014",36.06837463378906,-115.085205078125
"89014","Henderson","NV","Copper Hills Apt Fitness Center","981 Whitney Ranch Dr","89014",36.07801818847656,-115.0540771484375
"89014","Henderson","NV","Outcast Crossfit","3655 E Patrick Ln Ste 700","89120",36.07853414713732,-115.09492238548115
"89014","Henderson","NV","Resort Villas Gym (Private)","2050 W Warm Springs Rd","89014",36.059497,-115.073792
"89014","Henderson","NV","AMPD Fitcamp","3950 E Sunset Rd","89120",36.071805445855354,-115.08812537401208
"89014","Henderson","NV","The Pit Vegas","930 Wigwam Pkwy","89014",36.03596527935206,-115.02498065411302
"89014","Henderson","NV","BECKY'S GYM","Tierra","89014",36.053834224462115,-115.06300694571911
"89014","Henderson","NV","Silver Springs Recreation Center","1951 Silver Springs Pkwy","89074",36.04561599784427,-115.07543407985246
"89014","Henderson","NV","Galleria Palms Fitness Center","625 Whitney Ranch Dr","89014",36.064853,-115.05293300000001
"89014","Henderson","NV","CrossFit Stripped","6360 S Pecos Rd #10","89120",36.07290876288519,-115.09937971830367
"89018","Indian Springs","NV","Creech AFB Gym","3rd St","89018",36.59113943021661,-115.66172885124078
"89018","Indian Springs","NV","CREECH GYM","Veterans Memorial Hwy","89124",36.57626180529637,-115.64272224719674
"89027","Mesquite","NV","Mesquite Fitness","not_available","89027",36.80732,-114.10861
"89027","Mesquite","NV","Anytime Fitness","550 W Pioneer Blvd","89027",36.810796999999994,-114.081199
"89029","Laughlin","NV","Anytime Fitness","3699 Hwy 95 Suite 660","86442",35.05317,-114.59105
"89029","Laughlin","NV","Mad Dogs Fitness","2270 Hwy 95","86442",35.10108226949816,-114.59437266062001
"89029","Laughlin","NV","Avi Resort Gym","not_available","86442",35.095516204833984,-114.59398651123047
"89029","Laughlin","NV","Bullhead Health Club","967 Hancock Rd #65","86442",35.10874493699774,-114.61409297939203
"89029","Laughlin","NV","Gym on the water","not_available","89029",35.14566171044107,-114.57674749417905
"89030","North Las Vegas","NV","Planet Fitness","1570 N Eastern Ave","89101",36.18775,-115.114366
"89030","North Las Vegas","NV","Planet Fitness","1531 Sunset Rd.","89011",36.18492468794116,-115.15373926687458
"89030","North Las Vegas","NV","UFC Gym","479 W Craig Rd","89032",36.23907923698425,-115.14795184135437
"89030","North Las Vegas","NV","Teridise Gym","not_available","89031",36.242975,-115.155954
"89031","North Las Vegas","NV","Las Vegas Athletic Club - North","6050 N DECATUR BLVD","89031",36.2702619,-115.2051264
"89031","North Las Vegas","NV","E?S Fitness","2745 W Centennial Pkwy #115","89084",36.276222229003906,-115.1779556274414
"89031","North Las Vegas","NV","Centennial Gym","not_available","89084",36.275934412479884,-115.13626596398665
"89031","North Las Vegas","NV","VIP Gym LVAC","not_available","89130",36.269506,-115.205663
"89031","North Las Vegas","NV","iLoveKickboxing - North Las Vegas, NV","3000 West Ann Road, Suite 105","89031",36.2630128,-115.1805607
"89031","North Las Vegas","NV","Fitness 19","5465 Simmons St #8","89031",36.26021176383389,-115.18143606349936
"89031","North Las Vegas","NV","Broadstone Indigo Fitness Center","675 E Azure Ave","89081",36.272183,-115.13258400000001
"89031","North Las Vegas","NV","Centennial at 5th Apartments","245 E Centennial Pkwy","89084",36.27537578970844,-115.13611401454806
"89032","North Las Vegas","NV","24 Hr Fitness","Rainbow","89015",36.19547621417341,-115.17401605613817
"89032","North Las Vegas","NV","Go For It USA","3105 Coleman St","89032",36.21595085544818,-115.17536808901859
"89032","North Las Vegas","NV","Dr. William U. Pearson Community Center","1625 W Carey Ave","89032",36.201845885351865,-115.16281823991113
"89044","Henderson","NV","Anytime Fitness","2920 Bicentennial Pkwy","89044",35.94146,-115.11741
"89044","Henderson","NV","Anthem Country Club Fitness Center","2 Club Side Dr","89052",35.966889821429085,-115.0803984476574
"89048","Pahrump","NV","Fitness for 10","S Loop Road","89048",36.200321,-115.972656
"89048","Pahrump","NV","custom health fitness","not_available","89061",36.18158212232924,-115.94679685345444
"89052","Henderson","NV","Life Time Athletic Green Valley","121 Carnegie St","89074",36.021511,-115.092313
"89052","Henderson","NV","Planet Fitness","9850 S Maryland Pkwy","89183",36.01042262559517,-115.1344072895701
"89052","Henderson","NV","EOS Fitness - Las Vegas South","9310 South Eastern Ave, #110","89123",36.01907201434315,-115.11691036966539
"89052","Henderson","NV","Gym","not_available","89052",36.000843,-115.12544
"89052","Henderson","NV","Fitness 19","10624 S Eastern Ave","89052",35.998543362988066,-115.10183623075204
"89052","Henderson","NV","Gilad's Bodies in Motion, Total Body Sculpt","Discover Health and Fitness","not_available",36.01754051472652,-115.13902012945351
"89052","Henderson","NV","Avalon Gym","2900 Sunridge Heights Pkwy","89052",35.99319076538086,-115.11660766601562
"89052","Henderson","NV","The Gym @ Veritas","not_available","89123",35.994098451092064,-115.13525068883715
"89052","Henderson","NV","Copper Creek Gym 1","9490 Bermuda Rd","89123",36.017283,-115.15423799999999
"89074","Henderson","NV","Weight loss center Los Vegas","2520 St Rose Pkwy","89074",36.01630288593657,-115.10185003280638
"89081","North Las Vegas","NV","Ravello Gym","not_available","89115",36.239407,-115.085464
"89081","North Las Vegas","NV","Gym @ Broadstone Sonata","4201 E Craig Rd","89030",36.239243,-115.08239099999999
"89081","North Las Vegas","NV","Gold's Gym","1817 Great Sandy Ct","89081",36.24898,-115.121926
"89084","North Las Vegas","NV","Snap Fitness","8360 n decatur","89131",36.3127892472858,-115.20610755610977
"89084","North Las Vegas","NV","Angeline Falls Gym","Opal Falls Street","89085",36.311592,-115.19737
"89084","North Las Vegas","NV","A Fitter Tomorrow Personal Training","2417 Silvereye Dr","89084",36.281867,-115.175527
"89086","North Las Vegas","NV","EOS Fitness - Centennial","6564 Losee Rd","89086",36.279599,-115.115265
"89101","Las Vegas","NV","The Ogden's gym","150 Las Vegas Blvd N","89101",36.169158100080764,-115.14025707996835
"89101","Las Vegas","NV","Soho Gym","900 Las Vegas Blvd S","89101",36.15982437133789,-115.14714050292969
"89101","Las Vegas","NV","Third Floor Gym","not_available","89101",36.16606764446805,-115.13826736233776
"89101","Las Vegas","NV","Clark County Government Center Gym","not_available","89106",36.166177876420434,-115.15408863381393
"89101","Las Vegas","NV","Freestyle Crossfit","727 S Main St","89101",36.163204084391595,-115.1513673288802
"89101","Las Vegas","NV","Kids School","Robert lunt","89101",36.173938,-115.11572
"89101","Las Vegas","NV","Chuck Minker Sports Complex","275 N Mojave Rd","89101",36.165953832681396,-115.10626287576281
"89102","Las Vegas","NV","Allure ( gym )","200 W Sahara Ave","89102",36.144119776199595,-115.15874199821846
"89102","Las Vegas","NV","Palace Station Gym","2411 W Sahara Ave","89102",36.14205196155742,-115.17503507260408
"89102","Las Vegas","NV","Stratosphere Fitness Center","2000 Las Vegas Blvd S","89104",36.147357402884836,-115.15636352317438
"89102","Las Vegas","NV","City Athletic Boxing","3401 Sammy Davis Jr Dr","89109",36.12786,-115.175917
"89102","Las Vegas","NV","Springhill Marriott Rooftop Gym","not_available","89109",36.13512005307066,-115.15558634925321
"89102","Las Vegas","NV","HGVC Gym","LV Boulevard S","89109",36.14003904228186,-115.16104266064626
"89102","Las Vegas","NV","Epic Performance Sports Training Facility","3400 Procyon St","89102",36.12895965576172,-115.1872329711914
"89102","Las Vegas","NV","The Spa Gym at Wynn","3131 Las Vegas Blvd S","89109",36.12647789391406,-115.16548612632036
"89102","Las Vegas","NV","The Gym","2683 S Decatur Blvd","89102",36.141910552978516,-115.20836639404297
"89102","Las Vegas","NV","Inner Strength Fitness","4720 W Sahara Ave","89102",36.146549224853516,-115.20552062988281
"89102","Las Vegas","NV","24 Hr Fitness Sports","Sahara Blvd","not_available",36.14665063755024,-115.18963096668293
"89102","Las Vegas","NV","Tone in 12","1325 S Commerce St","89102",36.155540466308594,-115.15480041503906
"89102","Las Vegas","NV","Renaissance Las Vega Fitness Center","3400 Paradise Rd","89169",36.12737648361942,-115.15428178704956
"89102","Las Vegas","NV","Stirling Club Gym","2777 Paradise Rd","89109",36.13825607299805,-115.15550994873047
"89102","Las Vegas","NV","Fitness Center @ Courtyard Marriot","3275 Paradise Rd","89109",36.1302490234375,-115.15579986572266
"89102","Las Vegas","NV","Real Results Fitness","1201 S Commerce St","89102",36.157325468499245,-115.15481262476887
"89102","Las Vegas","NV","Fitness4Ten","not_available","89102",36.145818,-115.196563
"89102","Las Vegas","NV","Gym at Trump International","Trump International Hotel","not_available",36.12945111010736,-115.17266581435558
"89102","Las Vegas","NV","Stirling Club Spa, Mens Locker Room","2777 paridae rd","not_available",36.13749427413046,-115.15553286599005
"89102","Las Vegas","NV","Sky Gym","2700 Las Vegas Blvd S","89109",36.13867784995623,-115.1615038892554
"89103","Las Vegas","NV","Caesars Entertainment Health & Wellness Center","4100 W Flamingo Rd","89103",36.115940805142024,-115.1955021290135
"89103","Las Vegas","NV","gym @ Westgate Flamingo Bay","not_available","89103",36.11356761327607,-115.21849654697013
"89103","Las Vegas","NV","Box Baby Gym","3061 Business Ln","89103",36.10922622680664,-115.18248748779297
"89103","Las Vegas","NV","Super Fit","not_available","89146",36.125833,-115.23003
"89103","Las Vegas","NV","Bella Vita Gym","5440 River Glen Dr","89103",36.11091938656699,-115.21030487449708
"89103","Las Vegas","NV","Panorama Gym","4575 Dean Martin Dr","89103",36.107791330479934,-115.18282468202536
"89103","Las Vegas","NV","Tapout Gym","4040 W Hacienda Ave","89118",36.09430609589281,-115.19236764982783
"89103","Las Vegas","NV","Club De Soleil Exercise Room","not_available","89104",36.09926241755773,-115.21921829101622
"89103","Las Vegas","NV","Wand Fight Team","4631 Dean Martin Dr Ste 300","89103",36.10603931220833,-115.18185149699515
"89103","Las Vegas","NV","Renaissance Workout Room","5445 W Reno Ave, Las Vegas, NV 89118","89118",36.09501266479492,-115.21538543701172
"89103","Las Vegas","NV","The Palms Gym","Palms hotel","89103",36.114491,-115.194161
"89103","Las Vegas","NV","Revolution Laboratories, LLC","5052 S Jones Blvd #155","89118",36.09682846069336,-115.22444152832031
"89103","Las Vegas","NV","Veer Tower (West) Gym - 37th Floor","Las Vegas Blvd. S.","not_available",36.099549490694045,-115.18334919849251
"89103","Las Vegas","NV","Bootylates","4381 W Flamingo Rd","89103",36.1143399,-115.1965409
"89103","Las Vegas","NV","Area 51 Fit","5045 Rogers St Ste 10","89118",36.0981330871582,-115.20191955566406
"89103","Las Vegas","NV","Gloria Park Villas Gym","3625 S Decatur Blvd","89103",36.125545501708984,-115.20943450927734
"89103","Las Vegas","NV","E≈çS Fitness","5035 W Tropicana Ave","89103",36.099314,-115.209543
"89103","Las Vegas","NV","Orleans Spa & Fitness Center","4500 W Tropicana Ave","89103",36.103892215094874,-115.2020061271151
"89103","Las Vegas","NV","Top Rank Gym","3041 Business Ln","89103",36.109362,-115.18188
"89103","Las Vegas","NV","Califreakinvegas Baby!","not_available","89118",36.0942242,-115.19367173333332
"89104","Las Vegas","NV","Las Vegas Athletic Club - Central","2655 S MARYLAND PKWY","89109",36.14139031773357,-115.13839600176115
"89104","Las Vegas","NV","Hawks Gym","957 E Sahara Ave","89104",36.142550627886386,-115.14069762218995
"89104","Las Vegas","NV","Sweatbox","Hawksmore Ct","89142",36.149963,-115.063207
"89104","Las Vegas","NV","24hr fitness","4480 E Charleston Blvd","89104",36.160191,-115.07764399999999
"89104","Las Vegas","NV","Turnberry Towers Gym","322 Karen Ave","89109",36.14073521837841,-115.15249170423813
"89104","Las Vegas","NV","Planet Fitness","1221 E Sahara Ave","89104",36.14535896021471,-115.13570170862874
"89106","Las Vegas","NV","south point","not_available","89107",36.17075729370117,-115.19029998779297
"89107","Las Vegas","NV","Planet Fitness","230 S Decatur Blvd, Ste B-100","89107",36.171577528711374,-115.20742119731305
"89107","Las Vegas","NV","Mirabelli Community Center","6200 Hargrove Ave","89107",36.17306769921121,-115.22690913751724
"89107","Las Vegas","NV","Bill & Lillie Heinrich YMCA","4141 Meadows Ln","89107",36.16904216510466,-115.19630629437958
"89107","Las Vegas","NV","Rene Durruthy","10300 W Charleston Blvd #21","89135",36.15963720069978,-115.19628524780275
"89107","Las Vegas","NV","Smakkfitness LLC","304 S jones blvd","89107",36.1700354,-115.2236054
"89108","Las Vegas","NV","Planet Fitness","4488 N Rancho Dr","89130",36.24179629202948,-115.23135962154313
"89108","Las Vegas","NV","Las Vegas Athletic Club - Northwest","1725 N RAINBOW BLVD","89108",36.191860693117455,-115.2434605711499
"89108","Las Vegas","NV","LVAC Women Only Gym","1725 N Rainbow Blvd","89108",36.190555572509766,-115.24325561523438
"89108","Las Vegas","NV","I Love Kickboxing - Northwest Las Vegas","2230 N. Rainbow Blvd","89108",36.20109,-115.24229
"89108","Las Vegas","NV","Rocky's Training Spot","not_available","89108",36.19021243692994,-115.23913042818286
"89108","Las Vegas","NV","FS #9 Cardio Gym","4747 N Rainbow Blvd","89108",36.247375,-115.242581
"89108","Las Vegas","NV","Never Settle Fitness","4085 N Rancho Dr #140","89130",36.2346305847168,-115.22924041748047
"89108","Las Vegas","NV","Gym @ Inspirado","6885 W Lone Mountain Rd","89108",36.246376037597656,-115.24557495117188
"89108","Las Vegas","NV","Anytime Fitness","6070 W Craig Rd","89130",36.239482,-115.227929
"89108","Las Vegas","NV","Workout Quest","4325 N Rancho Dr Ste 160","89130",36.23871786038912,-115.23254871368408
"89108","Las Vegas","NV","Joe's Gym","Light Breeze St","89108",36.21627697,-115.23901253
"89108","Las Vegas","NV","Zumba","not_available","89128",36.191937135425356,-115.24334593304015
"89109","Las Vegas","NV","Paris Hotel Spa & Gym By Mandara","3655 Las Vegas Blvd S","89109",36.113160785909784,-115.1704072448205
"89109","Las Vegas","NV","Qua Fitness Center","Caesars Palace Hotel & Casino","89109",36.11515955391674,-115.17611447979314
"89109","Las Vegas","NV","Palazzo Wellness Center","Palazzo Las Vegas","89109",36.12352294853691,-115.16777096036826
"89109","Las Vegas","NV","Westin Workout","160 E Flamingo Rd","89109",36.11525238180788,-115.16608753337631
"89109","Las Vegas","NV","Treasure Island Gym","3300 Las Vegas Blvd S","89109",36.12477273377776,-115.17199516296387
"89109","Las Vegas","NV","Grand Spa & Health Club","3799 Las Vegas Blvd S","89109",36.104483712241404,-115.1674095102469
"89109","Las Vegas","NV","Fitness Center @ Bellagio","Bellagio Resort","89109",36.11192805969583,-115.17686396336654
"89109","Las Vegas","NV","Flamingo Spa & Fitness Center","3555 Las Vegas Blvd S","89109",36.11636205825146,-115.17060001122123
"89109","Las Vegas","NV","Spa & Salon Vdara","2600 W Harmon Ave","89158",36.10998734731008,-115.17769710056301
"89110","Las Vegas","NV","BLACC'S GYM","not_available","89110",36.18925911719413,-115.06964817479911
"89110","Las Vegas","NV","Zumba/ Club Nutricional","1260 Ebbetts Pass","89110",36.182579040527344,-115.0463638305664
"89110","Las Vegas","NV","Anytime Fitness","5635 E. Charleston Blvd","89142",36.15911,-115.0508
"89110","Las Vegas","NV","With Trainer","Charleston Blvd","89119",36.16054039835575,-115.05283429985927
"89113","Las Vegas","NV","EOS Fitness - Las Vegas Durango Gym","7070 S Durango Dr","89113",36.05969820593735,-115.2772422092437
"89113","Las Vegas","NV","Anytime Fitness","7537 S Rainbow Blvd Ste 109","89139",36.05163,-115.24387
"89113","Las Vegas","NV","Spanish Trails Gym","not_available","89113",36.099713775404545,-115.2777318977993
"89113","Las Vegas","NV","R Club Gym @ Rhodes Ranch","133 Rhodes Ranch Pkwy","89148",36.04270259533756,-115.29234756334921
"89113","Las Vegas","NV","Yak's Fitness","7375 S Durango Dr #101","89113",36.054454291358944,-115.2795576663229
"89113","Las Vegas","NV","Jenn Boo & Heather Boo's Gym","not_available","89148",36.056658,-115.285011
"89113","Las Vegas","NV","Polecats Aerial Fitness","7920 S Rainbow Blvd #105","89139",36.04319763183594,-115.2428207397461
"89113","Las Vegas","NV","My Gym Ôí™","Hacienda","89120",36.091864984427986,-115.24720318518234
"89113","Las Vegas","NV","Fit Foreal","8090 S Durango Dr Ste 114","89113",36.042049407958984,-115.27830505371094
"89113","Las Vegas","NV","Gym Time","Hacienda Heights","89118",36.092336,-115.246171
"89113","Las Vegas","NV","Extreme Circus Bootcamp","7020 W Warm Springs Rd, # 170","89113",36.057146275538486,-115.24568242943042
"89113","Las Vegas","NV","I.S.S.A.C.","6445 S Tenaya Way","89113",36.07133102416992,-115.25379943847656
"89113","Las Vegas","NV","Omalza Fitness","6675 S Tenaya Way Ste 230","89113",36.06734876321098,-115.25198987913325
"89113","Las Vegas","NV","Progressive F.O.R.C.E. CrossFit","8840 W Russell Rd Ste 230","89148",36.08637388273931,-115.28448939094666
"89113","Las Vegas","NV","EDGE Fitness Center","8180 Blue Diamond Rd","89178",36.0209234862745,-115.26935490626745
"89113","Las Vegas","NV","IGT Fitness Center","6355 S Buffalo Dr","89113",36.07257080078125,-115.26209259033203
"89113","Las Vegas","NV","Body Fit  (boot Camp)","8930 W Sunset Rd #190","89148",36.071922302246094,-115.28662109375
"89113","Las Vegas","NV","Gym at San Tropez","8025 W Russell Rd","89113",36.08406774377248,-115.26733906255875
"89113","Las Vegas","NV","SmoothFIT","7375 S Durango Dr","89113",36.0545175,-115.27967849999999
"89113","Las Vegas","NV","Body Fit","6415 S Tenaya Way","89113",36.07204055786133,-115.25293731689453
"89113","Las Vegas","NV","Spanish Trails","Spanish Trails","not_available",36.098872237063695,-115.24711041199375
"89113","Las Vegas","NV","Gym","Hacienda","89118",36.09131375964213,-115.25830538765138
"89113","Las Vegas","NV","Lifestyle Fitness 24/7 Gym","8680 W Warm Springs Rd #140","89148",36.05630583363782,-115.28089945257346
"89113","Las Vegas","NV","Vista√±a","7111-7135 S Durango Dr","89113",36.057812147596756,-115.28142744925375
"89113","Las Vegas","NV","TSPT-Physioforce","6440 Medical Center St","89148",36.071529999999996,-115.291408
"89115","Las Vegas","NV","Anytime Fitness","6520 E. Lake Mead Blvd. Ste.107","89156",36.19664,-115.03045
"89115","Las Vegas","NV","Nellis Sports And Fitness Center","Nellis AFB","89115",36.230259501665415,-115.05796479676737
"89115","Las Vegas","NV","Nellis AFB Gym","not_available","89156",36.21078396811628,-115.06208985664661
"89115","Las Vegas","NV","24Hour Fitness","at Craig Rd","89031",36.24074467925352,-115.053471
"89115","Las Vegas","NV","Warrior Fitness Center","3705 Freedom Cir, Bldg 1705","89115",36.23038134559601,-115.05797532584681
"89117","Las Vegas","NV","F45 Training Summerlin","1000 S Rampart Blvd","89145",36.16044998168945,-115.28984832763672
"89117","Las Vegas","NV","E≈çS Fitness","8125 W Sahara Ave #100","89117",36.142531389185976,-115.2681629504637
"89117","Las Vegas","NV","Anytime Fitness","8490 West Desert Inn Rd Ste G1-G2","89117",36.130451,-115.276473
"89117","Las Vegas","NV","GymCats","850 Cimarron","89145",36.161205,-115.26934
"89117","Las Vegas","NV","Redemption Fitness","not_available","89145",36.160006,-115.292592
"89117","Las Vegas","NV","Canyon Gate Country Club Gym","2001 Canyon Gate Dr","89117",36.14891074647485,-115.2860739471219
"89117","Las Vegas","NV","B-Fit Training","7035 W Sahara Ave Ste 300","89117",36.14372246346711,-115.24562478875984
"89117","Las Vegas","NV","Team Beachbody","not_available","89117",36.143034,-115.251469
"89117","Las Vegas","NV","My Gym","2251 S Fort Apache Rd","89117",36.14838790893555,-115.30036163330078
"89117","Las Vegas","NV","Bikini Fitness, LLC.","3555 S Fort Apache Rd","89147",36.125063,-115.297954
"89117","Las Vegas","NV","J & D Fitness Group","Peccole Ranch","89117",36.14238357543945,-115.27936553955078
"89117","Las Vegas","NV","PFCrossFit","7925 W Sahara Ave","89117",36.14255142211914,-115.26372528076172
"89117","Las Vegas","NV","The Fitness Source","8933 W Sahara Ave","89117",36.14318870410066,-115.29188914212561
"89117","Las Vegas","NV","Personal Training with Forget The Gym","7980 W Sahara Ave","89117",36.144859313964844,-115.26502227783203
"89117","Las Vegas","NV","Dungeon of Pain","not_available","89147",36.123207092285156,-115.30917358398438
"89117","Las Vegas","NV","Gym at Talavera","2251 s fory apache","89149",36.14856657,-115.30114889144897
"89117","Las Vegas","NV","Iron Trainer Personal Training","1922 Rock Springs Drive","89128",36.14370578453191,-115.26153802871703
"89117","Las Vegas","NV","Progressive F.O.R.C.E Crossfit","950 S Durango Dr","89145",36.160396575927734,-115.2791976928711
"89118","Las Vegas","NV","Lets Lose It","6832 Ponderosa","89113",36.07899408300321,-115.24109043768566
"89118","Las Vegas","NV","Camp Fit Force","3070 W Post Rd","89118",36.07509994506836,-115.18231964111328
"89118","Las Vegas","NV","South Vegas Crossfit (SVC)","6610 W Arby Ave #100","89118",36.0600700378418,-115.2354965209961
"89118","Las Vegas","NV","A-Team Training Center","3515 W Post Rd","89118",36.07439410965457,-115.18708163543005
"89118","Las Vegas","NV","Orangetheory Fitness","5990 S Rainbow Blvd","89118",36.079917,-115.242075
"89118","Las Vegas","NV","Phase 1 Sports","5137 W Oquendo Rd","89118",36.082305588297075,-115.21140116305227
"89118","Las Vegas","NV","Project Fitness","5066 W Post Rd","89118",36.07598523748002,-115.20994046774777
"89118","Las Vegas","NV","Nevada Elite All Stars","3265 W Post Rd","89118",36.073516845703125,-115.18401336669922
"89119","Las Vegas","NV","Cardio Center at Mandalay Bay Resort and Casino","3950 Las Vegas Blvd S","89119",36.09178739334543,-115.17456680764788
"89119","Las Vegas","NV","Camp Rhino 2.0","7211 S Eastern Ave Ste 120","89119",36.059161467759566,-115.12017791035292
"89119","Las Vegas","NV","Erica Noelani Yoga and Wellness","2180 E Warm Springs Rd","89119",36.05877685546875,-115.1220474243164
"89119","Las Vegas","NV","Four Seasons Fitness Center","not_available","89119",36.09129733250233,-115.17463846712201
"89119","Las Vegas","NV","Aristocrat Employees Gym","7230 Amigo St","89119",36.05839157104492,-115.1491928100586
"89119","Las Vegas","NV","Tahiti Village 3rd Floor Fitness Center","7200 S. Las Vegas Blvd","not_available",36.05950212825129,-115.1697373093338
"89119","Las Vegas","NV","Doubletree Gym","7250 Pollock Dr","89119",36.0584831237793,-115.14485931396484
"89119","Las Vegas","NV","Planet Hollywood Towers Fitness Center","80 E Harmon Ave","89109",36.10873794555664,-115.16873168945312
"89119","Las Vegas","NV","Las Vegas Elements Training Center","6560 Spencer St Ste A2","89119",36.07062652184248,-115.12700706943195
"89119","Las Vegas","NV","Kaizen Crossfit MB","3950 Las Vegas Blvd","not_available",36.08948575330494,-115.17606566548119
"89120","Las Vegas","NV","E≈çS Fitness","3325 E Russell Rd","89120",36.0850218550644,-115.10287660978702
"89120","Las Vegas","NV","Crossfit Toolbox","6255 S Mojave Rd","89120",36.07622340647938,-115.10617399404549
"89120","Las Vegas","NV","Filthy Power Gym","not_available","89120",36.079362,-115.111105
"89120","Las Vegas","NV","Hybrid Performance","5975 Topaz St","89120",36.08169669398291,-115.11528395605954
"89120","Las Vegas","NV","The Monkey Gym","1999 Whitney Mesa Dr","89014",36.077614000000004,-115.07228500000001
"89120","Las Vegas","NV","Professional Fitness Institute","6375 S Pecos Rd Ste 119","89120",36.07371198249291,-115.10147909240358
"89120","Las Vegas","NV","The Passage Apartments","2950 N Green Valley Pkwy","89014",36.077499,-115.080994
"89120","Las Vegas","NV","Camden Fitness Center","6530 Annie Oakley Dr","89014",36.06837463378906,-115.085205078125
"89120","Las Vegas","NV","Monkey Gym","Whitney Mesa dr.","not_available",36.077631,-115.07252
"89121","Las Vegas","NV","Oasis meadows gym","not_available","89121",36.132394641471514,-115.06306379511994
"89121","Las Vegas","NV","Planet Fitness","3300 Flamingo Rd","89121",36.11636896740981,-115.10265797875438
"89121","Las Vegas","NV","Gold's Gym","3750 E Flamingo Rd","89121",36.11657807065479,-115.09387937554172
"89121","Las Vegas","NV","Sports Deli in Sam's Town Hotel And Gambling Hall","Bouvelard Highway","89122",36.11325346054623,-115.06372493285738
"89121","Las Vegas","NV","Las Vegas Athletic Club - East","3830 E FLAMINGO RD","89121",36.11704533524269,-115.0910226224278
"89121","Las Vegas","NV","NIFTY AFTER FIFTY","4285 Hildebrand Ln","89121",36.11223602294922,-115.10822296142578
"89121","Las Vegas","NV","Curves","4180 S Sandhill Rd","89121",36.113985,-115.091052
"89122","Las Vegas","NV","Stallion Mountain Community Gym","not_available","89122",36.12559071030843,-115.05327478746385
"89122","Las Vegas","NV","Homeowners Club House","5280 Muir Woods Pkwy","89122",36.12455749511719,-115.05856323242188
"89122","Las Vegas","NV","Planet Fitness","5436 Boulder Hwy","89122",36.102498,-115.054733
"89123","Las Vegas","NV","Las Vegas Athletic Club - Green Valley","9065 S EASTERN AVE","89123",36.025248116221704,-115.12094293781183
"89123","Las Vegas","NV","Anytime Fitness","500 E Windmill Ln Ste 150","89123",36.04294,-115.15207
"89123","Las Vegas","NV","ONE LAS VEGAS","8255 Las Vegas Blvd S","89123",36.03980910515159,-115.17574722421848
"89123","Las Vegas","NV","Loft 5","2715 W Pebble Rd","89123",36.026844422512845,-115.17712672774326
"89123","Las Vegas","NV","Summerwinds","2725 W Wigwam Ave","89123",36.032621613327855,-115.17798483315198
"89123","Las Vegas","NV","Worldmark gym / fitness center","Las Vegas Blvd S","89123",36.033471049790116,-115.17395815737734
"89123","Las Vegas","NV","Unleashed Body & Mind","9272 Tamarus St","89123",36.020975,-115.131591
"89123","Las Vegas","NV","CrossFit 622","8790 S Maryland Pkwy #125","89123",36.02997970581055,-115.13549041748047
"89123","Las Vegas","NV","Manhattan Running Loop","Las Vegas Blvd","not_available",36.023174,-115.170291
"89123","Las Vegas","NV","Tony Cress Personal Training","2550 Windmill Ln","89074",36.04246641897172,-115.11651959464183
"89123","Las Vegas","NV","Sedona Gym","9000 Las Vegas Blvd S","89123",36.026867609363116,-115.17020173005884
"89123","Las Vegas","NV","E?S Fitness","9310 S Eastern Ave #110","89123",36.0191006,-115.1169315
"89123","Las Vegas","NV","Sin City Training","9065 S Eastern Ave","89123",36.02535629272461,-115.1206283569336
"89124","Las Vegas","NV","Las Vegas Athletic Club - Southwest","9615 W FLAMINGO RD","89147",36.11258309316848,-115.30149433497664
"89124","Las Vegas","NV","Life Time Athletic","10721 W Charleston Blvd","89135",36.15888,-115.328114
"89124","Las Vegas","NV","Durango YMCA","3521 N Durango Dr","89129",36.22479610105636,-115.2805986071921
"89124","Las Vegas","NV","Las Vegas Athletic Club - West","5200 W SAHARA AVE","89146",36.1458438,-115.2129072
"89124","Las Vegas","NV","UFC GYM","4360 Blue Diamond Rd","89139",36.038827990910725,-115.19862113159652
"89128","Las Vegas","NV","Crossfit 702","7520 W Washington Ave Ste 180","89128",36.18216652724823,-115.25593216598116
"89128","Las Vegas","NV","Golds Gym - Lake Mead","7501 W. Lake Mead Blvd","89032",36.194720256977476,-115.25747254032294
"89128","Las Vegas","NV","Camden Gym","7101 Smoke Ranch Rd","89128",36.20153045654297,-115.24773406982422
"89128","Las Vegas","NV","Bellglen Gym","7551 Vegas Dr","not_available",36.188946,-115.257214
"89128","Las Vegas","NV","Fitness Center @ San Moritz Apartments","7401 W Washington Ave","89128",36.180416107177734,-115.2537612915039
"89128","Las Vegas","NV","Kaia Fit Las Vegas","7595 W Washington Ave #120","89128",36.180877685546875,-115.2591552734375
"89128","Las Vegas","NV","Good Shepherd Center For Physical & Cardiopulmonary Rehabilitation","7455 W Washington Ave Ste 185","89128",36.178831458091736,-115.2549022436142
"89128","Las Vegas","NV","The CrossFit Combine","2402 N Tenaya Way Ste 210","89128",36.20430939574005,-115.25032419386893
"89128","Las Vegas","NV","E?S Fitness","7501 W Lake Mead Blvd Ste 109","89128",36.19463579504635,-115.25750090775193
"89128","Las Vegas","NV","Gold's Gym - Summerlin Group X","7501 W Lake Mead Blvd","89128",36.19461425101358,-115.25756915832713
"89129","Las Vegas","NV","Snap Fitness","3350 Novat St Ste 160","89129",36.22095332243685,-115.32880075738943
"89129","Las Vegas","NV","Raw Fitness","4450 N Tenaya Way","89129",36.241764,-115.250079
"89129","Las Vegas","NV","Cheateau Versailles Gym","10550 W Alexander Rd","89129",36.23439583432202,-115.32700220277364
"89129","Las Vegas","NV","Estancia Gym","not_available","89129",36.221739,-115.277549
"89129","Las Vegas","NV","The Gym","3350 N Durango Dr","89129",36.221920013427734,-115.27820587158203
"89129","Las Vegas","NV","Open Gym Fitness","10010 W Cheyenne Ave","89129",36.218654,-115.31344299999999
"89129","Las Vegas","NV","Sin City Strongman","7129 Maybrook Dr","89129",36.227893,-115.25098500000001
"89129","Las Vegas","NV","Yoga For The Soul LLC","4450 N Tenaya Way Ste 245","89129",36.241764,-115.250079
"89130","Las Vegas","NV","On The Elliptical","5500 Mesquite Meadow Ct","89131",36.277652740478516,-115.21702575683594
"89130","Las Vegas","NV","Amp Fitness","7455 W Azure Dr Ste 120","89130",36.27418899536133,-115.25791931152344
"89131","Las Vegas","NV","Orangetheory Fitness","8431 Farm Rd","89131",36.299766540527344,-115.28176879882812
"89131","Las Vegas","NV","Las Vegas Volleyball Academy","6601 N Buffalo Dr","89131",36.28262710571289,-115.26292419433594
"89131","Las Vegas","NV","@FinesseLV Gym","4944 Lone Wolf Ave","89131",36.312186,-115.209565
"89131","Las Vegas","NV","Crossfit Apollo","6535 N Buffalo Dr #160","89131",36.2814826965332,-115.2662353515625
"89131","Las Vegas","NV","Flex Fitness","8500 Sweet Cedar Ave","89143",36.30806350708008,-115.28163146972656
"89131","Las Vegas","NV","Snap Fitness 24/7","8011 N Durango Dr","89131",36.306933,-115.279478
"89131","Las Vegas","NV","The Gym","not_available","89131",36.289843412486654,-115.25705510727353
"89134","Las Vegas","NV","Steele Shape","9691 Trailwood Dr","89134",36.190788,-115.307401
"89134","Las Vegas","NV","Anytime Fitness","9436 W Lake Mead Blvd Ste 10","89134",36.20726591845714,-115.30251902752131
"89134","Las Vegas","NV","Fitness In Motion","9691 Trailwood Dr #101","89134",36.1906623840332,-115.30704498291016
"89134","Las Vegas","NV","Curves","1499 N Town Center Dr","89144",36.18690861731461,-115.30703923272574
"89135","Las Vegas","NV","Willowbrooke Fitness Center","not_available","89135",36.14294125412211,-115.33460921056177
"89135","Las Vegas","NV","The Ridges Fitness Center","11550 Granite Ridge Dr, Las Vegas, NV 89135","89135",36.11375045776367,-115.34687042236328
"89135","Las Vegas","NV","Home Gym","2601 S Pavilion Center Dr","89135",36.1427001953125,-115.33390808105469
"89135","Las Vegas","NV","Barre Fitness Studio Las Vegas","3700 S Hualapai Way Ste 109","89147",36.1219621,-115.3141464
"89135","Las Vegas","NV","Red Rock CC Gym","2250 Red Springs Dr","89135",36.1489582379076,-115.34747262596112
"89135","Las Vegas","NV","Kaizen Crossfit","Hualaupi","89147",36.10732932289798,-115.31429247175271
"89135","Las Vegas","NV","Pure Barre Vegas","1875 Festival Plaza Dr Ste 220","89135",36.1512106,-115.333801
"89135","Las Vegas","NV","sweat squared","11700 W Charleston Blvd Spc B110","89135",36.16028661033408,-115.35016975309307
"89135","Las Vegas","NV","Ultimate Training Center","3700 S Hualapai Way Ste 104","89147",36.12191484363812,-115.31451119538113
"89139","Las Vegas","NV","Home Gym","not_available","89139",36.037442,-115.203539
"89139","Las Vegas","NV","Xtreme Strength Training","7540 Dean Martin Dr","89139",36.05256271362305,-115.1829605102539
"89139","Las Vegas","NV","LA Boxing","4360 Blue Diamond Rd Ste 101","89139",36.03657212397431,-115.19954681396484
"89139","Las Vegas","NV","Phase 1 Sports","7770 Dean Martin Dr","89139",36.0478630065918,-115.18318939208984
"89139","Las Vegas","NV","SinCity CrossFit West","8755 Lindell Rd #150","89139",36.030791015830864,-115.21818862708736
"89139","Las Vegas","NV","iLovekickboxing - Southwest Las Vegas, NV","7960 S Rainbow, Suite 8000B","89139",36.0433052,-115.2430625
"89139","Las Vegas","NV","E≈çS Fitness","4935 Blue Diamond Rd","89139",36.0323894,-115.2079709
"89141","Las Vegas","NV","Fitness 19 - Southern Highlands","10660 Southern Highlands Parkway","89141",35.99531781,-115.205248
"89141","Las Vegas","NV","Grandview Fitness Center","not_available","89141",35.988007,-115.181749
"89142","Las Vegas","NV","Stonegate Fitness Center","not_available","89142",36.140803,-115.055716
"89143","Las Vegas","NV","BS Gym","You Know Where","89143",36.31878970407571,-115.28802121558638
"89143","Las Vegas","NV","Grand Canyon Estates Fitness Room","8250 N Grand Canyon Dr","89166",36.311275482177734,-115.30482482910156
"89143","Las Vegas","NV","Satin Carnation Gym","satin carnation lane","89166",36.310416,-115.29914
"89143","Las Vegas","NV","Ceron Fitness Ctr","Rockville Avenue","89143",36.326517,-115.3056551
"89144","Las Vegas","NV","JW Marriott Resort Fitness Center","not_available","89144",36.17522612521578,-115.29101440257875
"89144","Las Vegas","NV","Suncoast Fitness Center","9090 Alta Dr","89145",36.16910442080838,-115.2910852432251
"89144","Las Vegas","NV","Gym At Queensridge","800 Lacey Tree St","89145",36.161478,-115.30478500000001
"89145","Las Vegas","NV","Downsize Fitness","321 N Buffalo Dr #120","89145",36.17638491312229,-115.26033708253638
"89145","Las Vegas","NV","Gym @ Park One","8600 W Charleston Blvd","89117",36.159332,-115.281838
"89146","Las Vegas","NV","Noble Park Fitness Center","5353 W Desert Inn Rd","89146",36.12950134277344,-115.2125015258789
"89146","Las Vegas","NV","The Gym","not_available","89151",36.14588835,-115.2246352
"89146","Las Vegas","NV","JMG Health","5818 Spring Mountain Rd","89146",36.126956939697266,-115.22130584716797
"89146","Las Vegas","NV","GYM @ TELUS","2251 S Decatur Blvd","89102",36.14719009399414,-115.20963287353516
"89146","Las Vegas","NV","Eiden Fitness","1142 S Rainbow Blvd","89146",36.157249450683594,-115.24337005615234
"89147","Las Vegas","NV","Orangetheory Fitness","4245 S Grand Canyon Dr","89147",36.112717,-115.30759
"89147","Las Vegas","NV","Hot Hula @ LVAC","9615 W Flamingo Rd","89147",36.11259460449219,-115.30145263671875
"89147","Las Vegas","NV","The Fit Labs","8645 W Flamingo Rd Ste 104","89147",36.11431966165013,-115.28013944571232
"89147","Las Vegas","NV","A.C.E Fitness","8665 W. Flamingo Rd., Ste 114","89147",36.11385033452726,-115.28114398413084
"89147","Las Vegas","NV","Body Fit","4440 S Durango Dr","89147",36.10883242213479,-115.2782927203523
"89147","Las Vegas","NV","My House Fitness","9460 W Flamingo Rd","89147",36.11568069458008,-115.29924774169922
"89147","Las Vegas","NV","I Love Kickboxing - Las Vegas","4205 Grand Canyon, Suite 17","89147",36.113092,-115.306436
"89147","Las Vegas","NV","Burn Factor Fitness","4245 S Grand Canyon Dr #105","89147",36.11246878058882,-115.3077742328856
"89147","Las Vegas","NV","Legends Gym","10080 W Tropicana","89147",36.10120663388143,-115.31216683489666
"89147","Las Vegas","NV","F45 Training Southwest Las Vegas","4985 South Fort Apache Road","89148",36.0984571,-115.2983685
"89147","Las Vegas","NV","Inner Strength Fitness","8645 W Flamingo Rd","89147",36.1144905090332,-115.27999114990234
"89147","Las Vegas","NV","Curves","4375 S Buffalo Dr Ste 108","89147",36.109438,-115.261737
"89147","Las Vegas","NV","Sculpt and Sweat","9720 W Tropicana Ave #120","89147",36.1009248,-115.3048697
"89147","Las Vegas","NV","The Gym At Rancho Viejo","7885 W Flamingo Rd","89147",36.113426,-115.262939
"89147","Las Vegas","NV","Sin City Training","1922 N Rock Springs Dr","89128",36.1148551,-115.3041453
"89148","Las Vegas","NV","S.P.O.R.T.S Physical Therapy","5546 S Fort Apache Rd #B","89148",36.08810806274414,-115.29642486572266
"89148","Las Vegas","NV","CKO Kickboxing Las Vegas","5752 South Fort Apache Road #130","89148",36.083831,-115.296505
"89148","Las Vegas","NV","Gym at So Terrace","Oquendo","89148",36.082127921898476,-115.3053203672084
"89148","Las Vegas","NV","Anytime Fitness","6125 S Fort Apache Rd Ste 212","89148",36.07628193,-115.2986343
"89148","Las Vegas","NV","The Gym @ Tesora Apts.","9465 W Post Rd","89148",36.072879791259766,-115.2998275756836
"89148","Las Vegas","NV","The Compound - CFF","6115 S Fort Apache Rd","89148",36.077056884765625,-115.29864501953125
"89148","Las Vegas","NV","Core Studios","6070 S Fort Apache Rd","89148",36.07726657414782,-115.29851547108302
"89148","Las Vegas","NV","Mosaic","6355 S Riley St","89148",36.0726765,-115.2842678
"89148","Las Vegas","NV","Circuit Fitness","5970 S Fort Apache Rd","89148",36.079994201660156,-115.29669952392578
"89148","Las Vegas","NV","Abode Red Rock Gym","9450 W Hacienda Ave","89148",36.093253,-115.298827
"89148","Las Vegas","NV","Spectrum Fitness Center","9206 W Russell Rd #111","89148",36.08552169799805,-115.29338836669922
"89148","Las Vegas","NV","Raw Fitness Summerlin","9275 W Russell Rd","89148",36.083980560302734,-115.29373168945312
"89149","Las Vegas","NV","Loreto Apt Gym","7545 Oso Blanca Rd","89149",36.29835510253906,-115.29096221923828
"89149","Las Vegas","NV","I Love Kickboxing - Las Vegas Centennial","6275 Centennial Center blvd #130, #130","89149",36.274744,-115.269218
"89149","Las Vegas","NV","iLoveKickboxing - Centennial Hills, NV","6275 Centennial Center blvd, #130","89149",36.27326,-115.2678762
"89149","Las Vegas","NV","Diesel Fitness Headquarters","9115 Bushy Tail Ave","89149",36.291235,-115.294903
"89149","Las Vegas","NV","Athletic Strength and Conditioning, Las Vegas","5848 Drift Boat St","89149",36.26853561401367,-115.26537322998047
"89166","Las Vegas","NV","Avanti Fitness Center","10657-10799 W Centennial Pkwy","89166",36.2763787986815,-115.33079562775326
"89169","Las Vegas","NV","Wells Fargo Gym","3800 Howard Hughes Pkwy","89169",36.11920166015625,-115.15604400634766
"89169","Las Vegas","NV","F45 Training Las Vegas Paradise","3900 Paradise Rd","89169",36.117836,-115.154288
"89169","Las Vegas","NV","Summer Bay Resort Gym","3950 Koval Ln","89109",36.11740192377606,-115.16052536036273
"89169","Las Vegas","NV","Hilton Fitness Center","3000 Paradise Rd","89109",36.136141777185834,-115.15103101730347
"89169","Las Vegas","NV","Spa at Bally's","3645 Las Vegas Blvd S","89109",36.112188610513314,-115.16770362854004
"89169","Las Vegas","NV","Cambridge Towers Fitness Room","3875 Cambridge St Fl 1","89119",36.11878967285156,-115.14298248291016
"89169","Las Vegas","NV","Gym @ Las Vegas Golf & Country Club","668 Oakmont Ave","89109",36.134009460315156,-115.14738730660683
"89169","Las Vegas","NV","Fitness Center @ Wyndham Grand Desert (Tower 1)","265 E Harmon Ave","89169",36.10763931274414,-115.16060638427734
"89178","Las Vegas","NV","Orangetheory Fitness","8085 Blue Diamond Rd","89178",36.01977401588447,-115.26795387268068
"89178","Las Vegas","NV","Snap Fitness","7611 Jasmine Falls Dr","89179",35.995685813960044,-115.25779587857006
"89178","Las Vegas","NV","MJHO Fitness Club","Thunder Sky St.","not_available",36.016613,-115.280165
"89178","Las Vegas","NV","CFS","7822 Sleeping Trail Dr","89124",36.0146768936577,-115.26064964980084
"89179","Las Vegas","NV","Mountain Trails Apartments","9350 S Cimarron Rd","89178",36.01879796255844,-115.26714401553274
"89183","Las Vegas","NV","South Blvd Fitness Center","South Blvd","89183",36.004231,-115.16869
"89183","Las Vegas","NV","Anytime Fitness","855 Seven Hills Stes 120-150","89052",35.99609,-115.1238
"89183","Las Vegas","NV","Grandview Fitness Center","9400 Las Vegas Blvd. South","not_available",36.008920922605,-115.17534102067366
"89183","Las Vegas","NV","gym","555 E Silverado Ranch Blvd","89183",36.01115417480469,-115.15220642089844
"89301","Ely","NV","Anytime Fitness","1500 Great Basin Blvd","89301",39.24723,-114.869882
"89406","Fallon","NV","Sports World Gym","not_available","89406",39.381966,-118.594067
"89406","Fallon","NV","Total Fitness","1925 W Williams Ave","89406",39.475467681884766,-118.79948425292969
"89408","Fernley","NV","Anytime Fitness","1201 Penny Ln Ste 120-130","89408",39.6066,-119.22309
"89408","Fernley","NV","Curves","not_available","89408",39.608592,-119.223921
"89410","Gardnerville","NV","Anytime Fitness","1352 Hwy 395 Unit #101-104","89410",38.93613,-119.74061
"89410","Gardnerville","NV","Montana Health & Fitness Center","468 Mountain Meadows Dr","89411",38.923095884770206,-119.72257977641266
"89411","Genoa","NV","genoa lakes resort golf course","468 Mountian Meadows Dr.","89411",39.03708631450334,-119.82863187789917
"89423","Minden","NV","Pulse Gym","885 Mahogany Dr","89423",38.955401035850215,-119.78264995209592
"89431","Sparks","NV","Fitness For 10","1575 E Lincoln Way","89434",39.533172839539546,-119.71722816947808
"89431","Sparks","NV","CrossFit Captivate","10 Greg St #158","89431",39.5224701612368,-119.744135617641
"89431","Sparks","NV","Alf Sorensen Community Center","1400 Baring Blvd","89434",39.55874186849153,-119.71841112966789
"89431","Sparks","NV","DRT Gym","not_available","89431",39.54582,-119.750372
"89431","Sparks","NV","Pure Barre","2858 Vista Blvd","89434",39.55558776855469,-119.7037124633789
"89431","Sparks","NV","The Lean Lemon","96 Glen Carran Circle","not_available",39.5294326949186,-119.74071333661429
"89431","Sparks","NV","Eastland Hills Gym","1855 Baring Blvd","89434",39.55796813964844,-119.70902252197266
"89431","Sparks","NV","Gym @ Canyon Vista","5200 S Los Altos Pkwy","89436",39.56687545776367,-119.69271850585938
"89431","Sparks","NV","Momentum Martial Arts","920 Matley Ln Ste 5","89502",39.5169,-119.77984
"89431","Sparks","NV","Park Vista Gym","565 Sparks Blvd","89434",39.537503,-119.71695
"89431","Sparks","NV","Any Time Fitness Vista","3170 Vista","not_available",39.56070839888236,-119.70494278281225
"89431","Sparks","NV","Kaia F.I.T. Sparks","216 Lemon Drive #265","89506",39.52242929916263,-119.76107591639804
"89431","Sparks","NV","Sierra Spirit Cheerleading","920 Matley Ln","89502",39.516902923583984,-119.77973175048828
"89431","Sparks","NV","Scott Norman Fitness","not_available","89434",39.55802762050959,-119.70749966198461
"89431","Sparks","NV","Fitness Connection - Sparks","255 Disc Dr","89436",39.575121319382575,-119.73869439319087
"89431","Sparks","NV","Sparks YMCA","850 Baring Blvd","89434",39.556976318359375,-119.7318115234375
"89431","Sparks","NV","Elite Boxing and Fitness Club","920 Matley Ln Ste 4","89502",39.516908,-119.77973100000001
"89431","Sparks","NV","Fitness Center at JA Nugget","JA Nugget Hotel","89509",39.533140593789746,-119.7588300704956
"89431","Sparks","NV","Anytime Fitness","3170 Vista Blvd Ste 106","89436",39.56081521,-119.704998
"89431","Sparks","NV","The Soccer Academy","1315 Greg St #105","89431",39.52229690551758,-119.76026153564453
"89434","Sparks","NV","Eagle Fitness","5265 Vista Blvd","89436",39.587107444468934,-119.71595308085945
"89434","Sparks","NV","WaterStone Fitness Center","815 Kiley Pkwy Unit 100","89436",39.60261442,-119.7307022
"89434","Sparks","NV","studio 2 at redhawk","6414 Wingfield Springs Rd","89436",39.60883331298828,-119.68975830078125
"89434","Sparks","NV","Bodyfuel","not_available","89436",39.57744891323727,-119.72277102492355
"89434","Sparks","NV","Body Fuel","1266 Disc Dr","89436",39.577536,-119.722319
"89434","Sparks","NV","Anytime Fitness","2494 Wingfield Hills Rd Ste 120","89436",39.60724157,-119.6955818
"89439","Verdi","NV","Knight Klub Gym","1625 Cricketwood Cir","89523",39.528909000000006,-119.951198
"89445","Winnemucca","NV","Club Fitt","591 Anderson St","89445",40.96456527709961,-117.7389144897461
"89447","Yerington","NV","Anytime Fitness","243 N Main St","89447",38.99168,-119.16367
"89448","Zephyr Cove","NV","Anytime Fitness","212 Elks Point Rd","89448",38.98483,-119.94262
"89448","Zephyr Cove","NV","Crossfit Lake Tahoe","not_available","89448",38.986901,-119.942918
"89449","Stateline","NV","Fitness Center at The Landing Resort","4104 Lakeshore Blvd","96150",38.960626,-119.949354
"89449","Stateline","NV","Kahle Community Center","236 Kingsbury Grade","89449",38.969844632513855,-119.93272227999319
"89449","Stateline","NV","Gym Love","3979 Lake Tahoe Blvd","96150",38.954559326171875,-119.9460678100586
"89449","Stateline","NV","Elevated Fitness","4000 Lake Tahoe Blvd., #8","96150",38.95368550145184,-119.94370937347412
"89449","Stateline","NV","Harvey's Gym","not_available","96150",38.96032826363573,-119.94303435753534
"89449","Stateline","NV","Club 100","276 Kingsbury Grade","89449",38.96877670288086,-119.92910766601562
"89451","Incline Village","NV","Stay Fit At Hyatt","not_available","89451",39.240384,-119.943538
"89501","Reno","NV","Saint Mary's Center for Health and Fitness","645 N Arlington Ave Ste 100","89503",39.531582622303894,-119.82006944100971
"89501","Reno","NV","Anytime Fitness","50 W Liberty St Ste 105","89501",39.521311,-119.81161399999999
"89501","Reno","NV","Taebo workout shop","not_available","89509",39.5184,-119.81466
"89501","Reno","NV","Silver Legacy Resort Gym","405 North Virginia St","89501",39.52949799996933,-119.8174351806412
"89501","Reno","NV","The Concrete Lotus","239 S Sierra St","89501",39.522742,-119.81310800000001
"89501","Reno","NV","KOR Fitness","100 N Sierra St Fl 3","89501",39.52558210263316,-119.81419637183339
"89501","Reno","NV","Achieve Fitness","600 S Center St","89501",39.52022,-119.808536
"89502","Reno","NV","American Iron Gym","650 S Rock Blvd","89502",39.50310465246545,-119.76239820379857
"89502","Reno","NV","Fitness For $10 Reno","not_available","89511",39.45730662861133,-119.78184837683516
"89502","Reno","NV","European Fitness Center","2999 S Virginia St","89502",39.495824534296574,-119.79909977416125
"89502","Reno","NV","Crunch Fitness - Reno","5353 Meadowood Mall Circle","89502",39.474174,-119.78269085
"89502","Reno","NV","iLoveKickboxing - Reno, NV","9333 Double R Boulevard, Suite 1500","89521",39.4507093,-119.7585222
"89502","Reno","NV","Orangetheory Fitness","8056 S Virginia St","89511",39.454023,-119.77734299999999
"89502","Reno","NV","Hyatt Fitness Center","1790 E Plumb Ln","89502",39.50432586669922,-119.7794189453125
"89502","Reno","NV","Classic Fitness","5655 Riggins Ct Ste 8","89502",39.47062207873219,-119.77519004047548
"89502","Reno","NV","Base Gym","1776 National Guard Way","89502",39.498199462890625,-119.78050231933594
"89502","Reno","NV","Crossfit StoneAgeFuel","5301 Longley Ln Ste C81","89511",39.4733619409209,-119.76686310960474
"89502","Reno","NV","Studio One Pilates Reno","9736  Virginia St, Suite E","89511",39.4424004,-119.7705786
"89502","Reno","NV","Camie Cragg Fitness","not_available","89502",39.487796591917174,-119.76082918340613
"89502","Reno","NV","FIT University","9393 Gateway Drive Reno","89521",39.44569778442383,-119.76617431640625
"89502","Reno","NV","Double Edge Fitness","1065 S Virginia St","89502",39.513555,-119.807363
"89502","Reno","NV","Fitness Connection - Reno","5390 Longley Ln","89511",39.47185734708752,-119.76512051236993
"89502","Reno","NV","Push Your Limits","5301 Longley Ln","89511",39.473462,-119.76681
"89502","Reno","NV","Elite Fitness","not_available","89521",39.44934282734672,-119.7499968098721
"89502","Reno","NV","Anytime Fitness","5255 Longley Ln Stes 120, 125, 130","89502",39.47608,-119.76569
"89502","Reno","NV","IGT Employee Gym","9295 Prototype Dr","89521",39.45151901245117,-119.76128387451172
"89502","Reno","NV","The Gym at Our Place","Kirman","89502",39.522601,-119.798584
"89503","Reno","NV","Northwest Reno Wrestling","not_available","89503",39.52552244831337,-119.82689116476111
"89503","Reno","NV","Vizcaya gym","1350 Grand Summit Dr","89523",39.524620056152344,-119.865478515625
"89503","Reno","NV","Montebello Gym","McCarran Blvd & Interstate 80","89523",39.52020413983273,-119.86682076491098
"89503","Reno","NV","iLoveKickboxing - Northwest Reno, NV","5110 Mae Anne Ave #704","89523",39.52996063232422,-119.86616516113281
"89503","Reno","NV","Plumas Gym","575 Monroe","89501",39.512992787237884,-119.81358396129066
"89503","Reno","NV","Pure Barre","5110 Mae Anne Ave Ste 701","89523",39.52981444987631,-119.86552192903787
"89503","Reno","NV","Millenium Fitness","California Ave","not_available",39.51481801217329,-119.8282351320658
"89506","Reno","NV","No limit sports lab","360 Western Rd","89506",39.588395,-119.82098
"89506","Reno","NV","Exercise Room @ The Bluffs","4050 Gardella Ave","89512",39.566854,-119.811206
"89506","Reno","NV","Kaia F.I.T.","216 Lemmon Dr #265","89506",39.61349105834961,-119.84784698486328
"89506","Reno","NV","Anytime Fitness","1130 N Hills Blvd","89506",39.60646,-119.84331
"89506","Reno","NV","Anytime Fitness","202 Silver Lake Rd","89508",39.627687,-119.918374
"89509","Reno","NV","The MAC Reno","not_available","89523",39.51346679017956,-119.80822161676542
"89509","Reno","NV","Personal Trainer Reno","606 W Plumb Ln #1","89509",39.5048713684082,-119.81832885742188
"89509","Reno","NV","Sports West Athletic and Fitness Club","1575 S Virginia St","89502",39.50916244093728,-119.80677695939238
"89509","Reno","NV","Anytime Fitness","4784 Caughlin Pkwy. Ste. 401","89519",39.48327,-119.8546
"89511","Reno","NV","Caughlin Athletic Club","4100 Caughlin Pkwy","89519",39.49473777560014,-119.86735780367425
"89511","Reno","NV","Anytime Fitness","18603 Wedge Pkwy Stes D-E","89511",39.39162,-119.76813
"89511","Reno","NV","Pure Barre","748 S Meadows Pkwy Ste A6","89521",39.4372356,-119.7575419
"89511","Reno","NV","Kaia F.I.T Sierra","3929 S McCarran Blvd","89502",39.477881,-119.763259
"89512","Reno","NV","Planet Fitness","2863 Northtowne Ln","89512",39.554001,-119.786097
"89512","Reno","NV","Evelyn Mount Northeast Community Center","1301 Valley Rd","89512",39.54098010491743,-119.80891124212573
"89512","Reno","NV","Verity Fitness","not_available","89512",39.554016,-119.784584
"89512","Reno","NV","Rocksport","1901 Silverada Blvd Ste 10","89512",39.54677655218052,-119.78435925443743
"89519","Reno","NV","high sierra gym","white fir","not_available",39.509189,-119.896005
"89519","Reno","NV","Kaia","120 Woodland Ave Ste B","89523",39.505592346191406,-119.8962631225586
"89521","Reno","NV","Personal Trainer Reno","7111 S. Virginia St A-18","89511",39.4618566,-119.7832429
"89521","Reno","NV","Flex Appeal","1101 Steamboat Pkwy #350","89521",39.42350959417339,-119.74008330773715
"89521","Reno","NV","CrossFit Initiative","9410 Prototype Dr","89521",39.44653358100836,-119.76180997941648
"89521","Reno","NV","F45 Training Reno Summit","13925 S Virginia St","89511",39.407071,-119.749944
"89521","Reno","NV","Dallyon","9410 Prototype Dr Ste 18","89521",39.44630432128906,-119.76153564453125
"89521","Reno","NV","Transformation Gym","Double Diamond Blvd","89521",39.453809,-119.754949
"89523","Reno","NV","Anytime Fitness","6370 Mae Anne Ave Stes 4-5","89523",39.52697,-119.88661
"89523","Reno","NV","Eagle Fitness","6295 Sharlands Ave #2","89523",39.51787007180733,-119.88465250457543
"89523","Reno","NV","Somersett Gym","Somersett Way","89523",39.52247,-119.9092
"89523","Reno","NV","Orangetheory Fitness","1575 Robb Dr","89523",39.526282,-119.882493
"89523","Reno","NV","Sharlands Terrace Fitness Center","6400 Sharlands Ave","89523",39.51869201660156,-119.89080047607422
"89701","Carson City","NV","Fitness for 10","829 Fairview Dr","89701",39.14953463020128,-119.75961702285628
"89701","Carson City","NV","Anytime Fitness","2629 N Carson St","89706",39.18400955200195,-119.7684097290039
"89701","Carson City","NV","Crossfit RAD","not_available","89701",39.15895396898567,-119.77010036060744
"89701","Carson City","NV","Anytime Fitness","4530 S Carson St","89701",39.12574,-119.77165
"89701","Carson City","NV","Fitness for Life Personal Training Gym","195 E Winnie Ln","89706",39.178005999999996,-119.764738
"89801","Elko","NV","Anytime Fitness","278 Spring Creek Pkwy Ste 103","89815",40.74844,-115.59546
"89801","Elko","NV","Townplace Suites by Marriott Gym","not_available","89801",40.85544477361547,-115.75111416509013
"89801","Elko","NV","Curves","1250 Lamoille Hwy #732","89801",40.83053970336914,-115.74371337890625
"89801","Elko","NV","Performance Athletic Club","3250 Sagecrest Dr","89801",40.83882759725918,-115.80398784855839
"89801","Elko","NV","hampton inn","674 Cimarron Way","89801",40.831443786621094,-115.78329467773438
"89801","Elko","NV","Gold's Gym Elko","780 W Silver Stcr","89801",40.825957,-115.772591
"89801","Elko","NV","Straight Blast Gym","559 W Silver St","89801",40.824955,-115.768577
"89801","Elko","NV","Warrior Field","1320 Cedar St","89801",40.84122848510742,-115.75971221923828
"89801","Elko","NV","CrossFit Elko","653 River Street","89801",40.831934,-115.759175
"89820","Battle Mountain","NV","New U Fitness","184 S Scott St","89820",40.64005661010742,-116.93328857421875
"89883","West Wendover","NV","Animal House","Mesa St","89883",40.73661375128205,-114.07404086131356
