"zip","city","state","name","address","postalCode","lat","lon"
"05001","White River Junction","VT","Anytime Fitness","66 Benning St. Ste. 2","03784",43.6324,-72.31411
"05001","White River Junction","VT","curves","Hartford Ave","05001",43.660683,-72.314514
"05001","White River Junction","VT","Quechee Club Gym","not_available","05059",43.657113729351074,-72.44003362456296
"05037","Brownsville","VT","The Climb Fitness Center","223 Hotel Rd","05037",43.466148376464844,-72.46614074707031
"05037","Brownsville","VT","Sports & Fitness","not_available","05037",43.466167243423904,-72.46606593669907
"05043","East Thetford","VT","Mighty Panther Dome","not_available","not_available",43.815086020607204,-72.23118535561751
"05051","Newbury","VT","Planet Fitness","179 Central St","03785",44.14653778076172,-72.03408813476562
"05051","Newbury","VT","The Railyard Raquetball Club","not_available","03785",44.14504207,-72.03276655
"05055","Norwich","VT","Lacorte Workout Room","not_available","03755",43.705094,-72.296037
"05060","Randolph","VT","Curves","10 S Main St","05060",43.9220674143047,-72.66423135995865
"05091","Woodstock","VT","Woodstock Recreation Center","not_available","05091",43.621884318262694,-72.52682298766436
"05101","Bellows Falls","VT","Flex Fitness","5 The Square","05101",43.134254455566406,-72.44497680664062
"05101","Bellows Falls","VT","Greater Rock Fitness","not_available","05101",43.126780417854576,-72.44415571393147
"05143","Chester","VT","Snap Fitness","not_available","05156",43.32136689925254,-72.50621341833684
"05143","Chester","VT","Grafton Village Fitness Center","193 Townshend Rd","05146",43.17008590698242,-72.6099853515625
"05155","South Londonderry","VT","Stratton Sports Center","43 Sports Center Rd","05360",43.11259100540363,-72.89774587273835
"05201","Bennington","VT","Anytime Fitness","120 Depot St","05201",42.88048,-73.19897
"05201","Bennington","VT","Bennington CrossFit","190 North St","05201",42.880581,-73.197582
"05201","Bennington","VT","Off The Wall","Benmont Ave","05201",42.88391876220703,-73.20269775390625
"05201","Bennington","VT","Curves","748 Main St","05201",42.87952,-73.18442
"05255","Manchester Center","VT","The Manchester Gym","320 Airport Rd","05255",43.160369873046875,-73.04718017578125
"05255","Manchester Center","VT","Body Lab","369 Depot St","05255",43.174949645996094,-73.05087280273438
"05301","Brattleboro","VT","Supreme Fitness","1589 Putney Rd","05301",42.89624513310937,-72.55065885361637
"05301","Brattleboro","VT","BUHS Girl Locker Room","BUHS Gym","05301",42.81084458507417,-72.66055880359852
"05301","Brattleboro","VT","C&S Company Gym","not_available","05301",42.8863366,-72.5561857
"05301","Brattleboro","VT","BODHIFIT","green st","05301",42.8528820306014,-72.55945475415434
"05356","West Dover","VT","Sugarhouse","not_available","05356",42.971897905928046,-72.88701100280498
"05401","Burlington","VT","Hilton Gym","60 Battery St","05401",44.477966,-73.218039
"05401","Burlington","VT","Snap Fitness Burlington","1127 North Ave","05408",44.50780882859333,-73.24701182392774
"05401","Burlington","VT","Dealer.com GYM","1 Howard St","05401",44.466166846264954,-73.2143872886733
"05401","Burlington","VT","Gym at The Sheraton","870 Williston Rd","05403",44.47203063964844,-73.18714141845703
"05401","Burlington","VT","J-Ba Fitness Center","not_available","05403",44.460203,-73.180332
"05401","Burlington","VT","Marketplace Fitness","27 Church St","05401",44.47941345970764,-73.2130119872954
"05401","Burlington","VT","PT 360","64 Colchester Ave","05401",44.481128,-73.197238
"05401","Burlington","VT","Courtyard By Mariott Gym","25 Cherry St","05401",44.478990945405286,-73.21862892209306
"05401","Burlington","VT","All Wellness Physical Therapy & Pilates","128 Lakeside Ave","05401",44.4618035,-73.21789603
"05401","Burlington","VT","Pure Barre","150 Dorset St","05403",44.46496644270812,-73.17898379046454
"05401","Burlington","VT","Crossfit TT","35 San Remo Dr","05403",44.460735420868744,-73.17898329331862
"05401","Burlington","VT","Body Pump","266 College St","05401",44.477649,-73.209371
"05401","Burlington","VT","Orangetheory Fitness","580 Shelburne Rd","05403",44.44866254188968,-73.20833112960167
"05401","Burlington","VT","YMCA Winooski","32 Malletts Bay Ave","05404",44.492491333748085,-73.19090692882622
"05401","Burlington","VT","Wright Fitness Center","436 S Prospect St","05405",44.468069,-73.199537
"05401","Burlington","VT","Hotel Vermont Fitness Center","41 Cherry St","05401",44.478336334228516,-73.21755981445312
"05401","Burlington","VT","Gym at Keen's Crossing","65 Winooski Falls Way","05404",44.49044418334961,-73.18360137939453
"05401","Burlington","VT","The EDGE","75 Eastwood Dr","05403",44.45099494188534,-73.20428680359532
"05401","Burlington","VT","BFD Gym","not_available","05401",44.476807,-73.210706
"05401","Burlington","VT","The Woolen Mill Health Club","20 W Canal St","05404",44.48999633897493,-73.18803809522429
"05401","Burlington","VT","Gym At The Cascades","60 Winooski Falls Way","05404",44.49005126953125,-73.18360137939453
"05401","Burlington","VT","Greater Burlington YMCA","298 College St","05401",44.47775,-73.2079
"05401","Burlington","VT","OnTrack Gym","1 Main St #102A","05401",44.47573147533028,-73.21951329582598
"05401","Burlington","VT","Redstone Lofts Fitness Center","165 Davis Rd","05401",44.46923828125,-73.19351196289062
"05403","South Burlington","VT","YogaSix","57 Fayette Dr Ste 1","05403",44.438053131103516,-73.21186065673828
"05403","South Burlington","VT","Norm Grangier Twin Oaks Trainer","Twin Oaks Terrace","05403",44.451848,-73.171004
"05403","South Burlington","VT","All American Fitness","1881 Williston Rd","05403",44.46149444580078,-73.15186309814453
"05403","South Burlington","VT","Holiday Inn Fitness Center","1270 Shelburne Rd","05403",44.43476867675781,-73.20989227294922
"05403","South Burlington","VT","Your Personal Best Fitness Consulting","4050 Williston Rd","05403",44.458287,-73.138602
"05403","South Burlington","VT","Curves","23 Shepard Ln","05403",44.47081756591797,-73.17240905761719
"05403","South Burlington","VT","St John Vianney Gym","150 Hinesburg Rd","not_available",44.462972,-73.169757
"05403","South Burlington","VT","Perkins Fitness","Williston Road","05403",44.45938821589746,-73.14258437802725
"05403","South Burlington","VT","Body Resolution","2069 Williston Rd","05403",44.458752395929004,-73.1459083237499
"05443","Bristol","VT","Bristol Health and Fitness","14 School St","05443",44.134311,-73.07982
"05446","Colchester","VT","Residence Inn Fitness Center","not_available","05446",44.513612,-73.180666
"05446","Colchester","VT","The EDGE","4 Gauthier Dr","05452",44.51125680585502,-73.13469672408128
"05446","Colchester","VT","VIP Gym","402 Watertower Cir","05446",44.51169204711914,-73.18348693847656
"05446","Colchester","VT","Colchester Health and Fitness","278 Prim Rd","05446",44.54877853393555,-73.239013671875
"05452","Essex Junction","VT","Hammerfit Health & Fitness Center","21 Essex Way #115","05452",44.50746307771295,-73.08285042464733
"05452","Essex Junction","VT","Essex Fitness Center","not_available","05452",44.496986,-73.077002
"05454","Fairfax","VT","Genesis Fitness","Yankee Park Rd","05454",44.6906852722168,-73.09990692138672
"05454","Fairfax","VT","BFA Fairfax Gymnasium","not_available","05489",44.66343190445421,-73.01306515663782
"05455","Fairfield","VT","Duke's Fitness Center","18 Swanton Rd","05478",44.826122602968496,-73.08098578490406
"05455","Fairfield","VT","Fitness Zone","248 N Main St","05478",44.8223680671762,-73.08195319725476
"05455","Fairfield","VT","Planet Fitness","133 N Main St","05478",44.81442,-73.082351
"05455","Fairfield","VT","Weight Room","not_available","05478",44.808155,-73.082433
"05456","Ferrisburgh","VT","Del's Zumba Class","100 Panton Rd","05491",44.16400909423828,-73.26306915283203
"05456","Ferrisburgh","VT","Chemis DrugStore","211 Main St","05491",44.1674808,-73.25238449999999
"05456","Ferrisburgh","VT","Vermont Sun Fitness Center","11 Main St","05491",44.17685,-73.245173
"05464","Jeffersonville","VT","Tamarak Work Out Room","not_available","05464",44.59281573162614,-72.78660402515214
"05465","Jericho","VT","MMU Weight Room","not_available","05465",44.485892588245854,-72.96182529180639
"05468","Milton","VT","Ultimate Fitness","36 Bombardier Rd","05468",44.61960983276367,-73.12303161621094
"05468","Milton","VT","Snap Fitness","384 Route 7 S","05468",44.6238899230957,-73.1341781616211
"05471","Montgomery Center","VT","The Fitness Center at Scott Chalet","not_available","05471",44.860672,-72.567219
"05478","Saint Albans","VT","Babcock Gym","Grand Ave","05488",44.91460378830292,-73.11403796361972
"05478","Saint Albans","VT","gym","not_available","05488",44.9285,-73.1017
"05482","Shelburne","VT","The Field House","166 Athletic Dr","05482",44.383180454609416,-73.22879496841696
"05495","Williston","VT","Synergy Fitness","426 Industrial Ave Ste 180","05495",44.460346478363434,-73.12343157412923
"05495","Williston","VT","WFD Gym","not_available","05495",44.44611517,-73.12560221
"05495","Williston","VT","Urban Fitness","8 Krupp","05495",44.45048,-73.130724
"05495","Williston","VT","The EDGE","115 Wellness Dr","05495",44.44649547126029,-73.12563981529492
"05495","Williston","VT","Champlain Valley Crossfit","1191 S Brownell Rd #10","05495",44.44730816005658,-73.12705162295254
"05495","Williston","VT","The RehabGYM","30 Hawthorne St #20","05495",44.446605,-73.110595
"05495","Williston","VT","Jazzercise","59 Day Ln","05495",44.454540329951854,-73.10921479913318
"05495","Williston","VT","CrossFit","11 Adams Dr","05495",44.459099,-73.135112
"05602","Montpelier","VT","First In Fitness","1 Blanchard Ct","05602",44.25882394872407,-72.57547790861081
"05602","Montpelier","VT","Main Street Middle School Gym","170 Main St","05602",44.263077,-72.569525
"05602","Montpelier","VT","The Confluence","654 Granger Rd","05602",44.21587942017002,-72.55941017157011
"05602","Montpelier","VT","Snap Fitness","1400 US Route 302","05641",44.22822379545827,-72.5520375457234
"05602","Montpelier","VT","First in Fitness","652 Granger Rd","05602",44.21481761487986,-72.55999338432908
"05602","Montpelier","VT","Studio Zenith","50-54 Main St","05602",44.259413,-72.576031
"05602","Montpelier","VT","Capitol Plaza Hotel Guest Fitness Room","100 State St","05602",44.2606315612793,-72.57856750488281
"05641","Barre","VT","Barre Jazzercise Fitness Center","131 S Main St","05641",44.189322330736516,-72.49992031555723
"05641","Barre","VT","Body Tech","65 Elm St","05641",44.19896041131533,-72.49981511387936
"05641","Barre","VT","Barre RehabGYM","219 N Main St #103","05641",44.19951629638672,-72.50326538085938
"05641","Barre","VT","Parks Memorial Gymnasium","not_available","05679",44.126278,-72.54668
"05641","Barre","VT","Gym for Women","100 N Main St","05641",44.1978874206543,-72.50249481201172
"05655","Hyde Park","VT","Green Mountain Crossfit","576 E Main St","05655",44.588787,-72.605916
"05661","Morrisville","VT","The Swimming Hole","75 Weeks Hill Rd","05672",44.47439634143956,-72.68987770928402
"05661","Morrisville","VT","Green Mountain Inn Gym","18 Main St","05672",44.4637336730957,-72.68751525878906
"05661","Morrisville","VT","Curves","197 Harrel St","05661",44.569357,-72.593264
"05661","Morrisville","VT","Studio 108","1056 Mountain Rd","05672",44.474509,-72.699398
"05661","Morrisville","VT","Snap Fitness","125 Munson Ave","05661",44.57050081886704,-72.59378751254408
"05661","Morrisville","VT","Phit","512 Mountain Rd","05672",44.472877502441406,-72.68891906738281
"05672","Stowe","VT","Stowe Fitness Center","not_available","05672",44.529523322268865,-72.78124098329461
"05673","Waitsfield","VT","Sugarbush Health and Racquet Club","not_available","05674",44.1385867134076,-72.88909423990509
"05676","Waterbury","VT","Daves Community Fitness","35 Commercial Dr","05676",44.32646179199219,-72.74413299560547
"05701","Rutland","VT","The Gymnasium","11 Cottage St","05701",43.60870369419191,-72.98044626296785
"05701","Rutland","VT","Peak Performance All Starb Cheer And Fitness","scale avenue","05701",43.58185920141066,-72.97444979572754
"05701","Rutland","VT","Spartan Arena","100 Diamond Run Mall","05701",43.58209672102415,-72.96230778785399
"05701","Rutland","VT","Ultimate Workout Zumba","not_available","05701",43.6263427734375,-72.97525024414062
"05701","Rutland","VT","Spa At the Woods","53 Woods Ln","05751",43.65931,-72.80018
"05701","Rutland","VT","Ultimate Workout Inc.","256 N Main St","05701",43.62616729736328,-72.97486877441406
"05701","Rutland","VT","Vermont Sport & Fitness Club","40 Curtis Ave","05701",43.591831620926044,-72.96321708159505
"05701","Rutland","VT","Rutland Fitness","132 Granger St","05701",43.6003532409668,-72.97956085205078
"05701","Rutland","VT","Anytime Fitness","217 Woodstock Ave","05701",43.61956,-72.9557
"05701","Rutland","VT","Killington Bootcamp","not_available","05751",43.652016581285984,-72.78091632637955
"05701","Rutland","VT","Killington Boot Camp","2910 Killington Rd","05751",43.6367301940918,-72.79457092285156
"05701","Rutland","VT","Pyramid Fitness","Merchants Row","05701",43.606956481933594,-72.9805908203125
"05701","Rutland","VT","Curves","235 S Main St","05701",43.592411,-72.969543
"05701","Rutland","VT","Head Over Heels","152 N Main St","05701",43.61959217920574,-72.95571361942257
"05753","Middlebury","VT","Middlebury Fitness","175 Wilson Rd","05753",43.9993704675078,-73.14509386531071
"05819","Saint Johnsbury","VT","Alumni Gym","1000 Main St","05819",44.416222,-72.01929
"05819","Saint Johnsbury","VT","The Club at Old Mill","49 Perkins St","05819",44.42406780861937,-72.01323840039727
"05819","Saint Johnsbury","VT","Wickeds Gym","70 Fifth Ave","05819",44.415470123291016,-72.01847839355469
"05819","Saint Johnsbury","VT","unbound fitness","2000 Memorial Drive","05819",44.4604606628418,-72.01368713378906
"05819","Saint Johnsbury","VT","Fitness Jungle","560 Railroad St","05819",44.42055098,-72.01490381
"05843","Hardwick","VT","East Hardwick Community Fitness","4 S Main St","05836",44.5047492980957,-72.36636352539062
"05851","Lyndonville","VT","NEK Fitness","50 Depot St","05851",44.53464973649305,-72.00351476669312
"05855","Newport","VT","Kingdom Racquet & Fitness Center","102 Union St, Newport, VT 05855","05855",44.943763732910156,-72.20287322998047
"05902","Beecher Falls","VT","Bridge St Gym And Fitness Center","Bridge St","03576",45.00626754760742,-71.50886535644531
