"zip","city","state","name","address","postalCode","lat","lon"
"57002","Aurora","SD","Hard Core Fitness","728 34th Ave","57006",44.31386184692383,-96.7479476928711
"57003","Baltic","SD","Baltic Fitness Center","not_available","57003",43.75934835155058,-96.73392266764311
"57005","Brandon","SD","Anytime Fitness","4720 E 41st St","57110",43.515176,-96.669182
"57005","Brandon","SD","Anytime Fitness","908 E Redwood Blvd","57005",43.60221,-96.57793
"57005","Brandon","SD","Farrell's eXtreme Bodyshaping East FXB","1618 S Sycamore Ave","57110",43.53073424441216,-96.6708624898589
"57005","Brandon","SD","Tryon Gym","4601 E Arrowhead Pkwy","57110",43.54231848547651,-96.66918659203759
"57005","Brandon","SD","3 Degrees Infrared Sauna Studio","1616 S Sycamore Ave","57110",43.530772,-96.6705362
"57005","Brandon","SD","Sanford Wellness Center East","5322 E Arrowhead Pkwy","57110",43.544598,-96.657606
"57005","Brandon","SD","Tryon Gym","Aspen Blvd","57005",43.58663359401957,-96.57553573623058
"57005","Brandon","SD","off the Grid","3225 S Sycamore Ave, Sioux Falls, SD 57103","57103",43.51617431640625,-96.67192077636719
"57005","Brandon","SD","Downstairs Gym","not_available","57005",43.600223,-96.587275
"57005","Brandon","SD","MJ's 'Get Big' Gym","4500-4518 E Oak St","57103",43.52646288333333,-96.671381
"57005","Brandon","SD","Snap Fitness","1516 S Sycamore Ave","57110",43.532481594232884,-96.67092195060488
"57005","Brandon","SD","Washington Heights Fitness Center","not_available","57110",43.55306248587349,-96.66963036134898
"57006","Brookings","SD","Powershop Gym","not_available","57006",44.311000867686566,-96.79824572932571
"57006","Brookings","SD","Anytime Fitness","720 22nd Ave S","57006",44.29863,-96.76979
"57006","Brookings","SD","crossfit brooking","1325 Main Ave S","57006",44.29054260253906,-96.79728698730469
"57006","Brookings","SD","Snap Fitness","1009 Main Ave S","57006",44.281760551941105,-96.79925054127038
"57006","Brookings","SD","Timeless Fitness","2405 10th St","57006",44.318033,-96.76438900000001
"57013","Canton","SD","Tryon Gym","not_available","57032",43.431044805807744,-96.70645677974963
"57013","Canton","SD","Sunnyside Fitness","not_available","57013",43.300281,-96.59106
"57022","Dell Rapids","SD","Revive Fitness Dell Rapids","410 W 4th St","57022",43.82406234741211,-96.72355651855469
"57022","Dell Rapids","SD","Tryon","Highway 115","57022",43.8251385558346,-96.72231133572443
"57024","Egan","SD","FSST Diabetes And Wellness Center","not_available","not_available",44.03734326795849,-96.6072299996525
"57025","Elk Point","SD","Elk Point Athletic Club","205 W Main St","57025",42.68729019165039,-96.68621063232422
"57026","Elkton","SD","Elkton Fitness Center","117 Elk St","57026",44.23694581966758,-96.4810556273575
"57030","Garretson","SD","The Exercise Place","637 Main Street","57030",43.71679436163101,-96.5029794112681
"57032","Harrisburg","SD","Orangetheory Fitness","419 W 85th St","57108",43.474436,-96.728561
"57032","Harrisburg","SD","Showplace - Fitness Center","1 Enterprise St","57032",43.44008964677947,-96.70397695295692
"57033","Hartford","SD","Great Life Fitness","418 E. Hwy 38","57033",43.629156621329756,-96.94096100781208
"57033","Hartford","SD","Tryon Gym Hartford","Hwy 38","57033",43.631744693305365,-96.94586833585963
"57038","Jefferson","SD","Four Seasons North","not_available","57049",42.533002,-96.489719
"57042","Madison","SD","Anytime Fitness","105 S Egan Ave","57042",44.00491605220365,-97.11440920829773
"57042","Madison","SD","The Community Center","500 NE 11th St","57042",44.01749048817147,-97.10852482955562
"57046","Mission Hill","SD","Fitness 365","201 Capitol St","57078",42.868933,-97.39093199999999
"57046","Mission Hill","SD","Empower fitness","1804 Broadway Ave","57078",42.88646697998047,-97.39620208740234
"57049","North Sioux City","SD","Crossfit Beo","4101 War Eagle Dr","51109",42.49600601196289,-96.46334838867188
"57049","North Sioux City","SD","Snap Fitness","700 Dakota Dunes Blvd","57049",42.501974,-96.496225
"57064","Tea","SD","Fitness First","not_available","57064",43.44781880094213,-96.82757618799626
"57064","Tea","SD","Body Works","510 Figzel Court","57064",43.44815,-96.826864
"57064","Tea","SD","Kim's Gym","not_available","57106",43.493594,-96.812531
"57064","Tea","SD","Venom Events Center","27083 Katie Rd","57064",43.46348459417393,-96.81802084655762
"57069","Vermillion","SD","Anytime Fitness","838 E. Cherry St.","57069",42.78704303,-96.91802993
"57078","Yankton","SD","Anytime Fitness","2509 Fox Run Pkwy","57078",42.899547999999996,-97.39986999999999
"57103","Sioux Falls","SD","9Round East","1216 East 57th St","57108",43.50094099,-96.70905306
"57103","Sioux Falls","SD","Avera McKennan Fitness Center","3400 S Southeastern Ave","57103",43.512194796511054,-96.68770253736496
"57103","Sioux Falls","SD","Raven Fitness Center","200 E 6th St","57104",43.551675355484036,-96.72445093236509
"57103","Sioux Falls","SD","Helpline Suicide Walk","not_available","57104",43.560226417503564,-96.72259140196708
"57103","Sioux Falls","SD","Morningside Community Center","2400 S Bahnson Ave","57103",43.52339907208104,-96.68078500998494
"57103","Sioux Falls","SD","""Gym"" at Country Inn & Suites","not_available","57103",43.54888574786675,-96.72473374047202
"57103","Sioux Falls","SD","605 Fit Studio & Apparel","401 E 8th St Ste 122","57103",43.548126220703125,-96.72203063964844
"57103","Sioux Falls","SD","Harvester Gym","Harvester Bldg","57104",43.55134170772775,-96.72519879407713
"57103","Sioux Falls","SD","INSANITY ROOM","not_available","57105",43.53487777709961,-96.71722412109375
"57103","Sioux Falls","SD","Capital One Fitness Center","2200 E Benson Rd","57104",43.58847427368164,-96.69749450683594
"57103","Sioux Falls","SD","Citi Health and Fitness Center","701 E 60th St N","57104",43.60034697235723,-96.71816219906475
"57103","Sioux Falls","SD","Crossfit Dunamis","209 S Blauvelt Ave","57103",43.54621769552065,-96.70659291691861
"57104","Sioux Falls","SD","YMCA Family Gym","307 S Holly Ave","57104",43.544694,-96.755208
"57104","Sioux Falls","SD","Power & Grace Gymnastics","1901 N Jenifer Pl","57107",43.568142,-96.766581
"57104","Sioux Falls","SD","The Weight Room","620 S Western Ave, Sioux Falls, SD 57104","57104",43.54046630859375,-96.75084686279297
"57104","Sioux Falls","SD","Wellmark Well For Life Center","1601 W Madison St","57104",43.558008,-96.749179
"57104","Sioux Falls","SD","Sanford Pentagon","2210 West Pentagon Place","57107",43.591651916503906,-96.75479125976562
"57104","Sioux Falls","SD","Gwb Fitness Room","not_available","57107",43.601681984441406,-96.76614707952197
"57105","Sioux Falls","SD","Sanford Wellness Center","4201 S Oxbow Ave","57106",43.50690164750588,-96.76676655264362
"57105","Sioux Falls","SD","CrossFit Sioux Falls","3505 S Phillips Ave","57105",43.51259562767774,-96.72790963975456
"57105","Sioux Falls","SD","Great Life Woodlake Athletic Club","4600 S Tennis Ln","57106",43.50334909557362,-96.76770854018436
"57105","Sioux Falls","SD","Tryon Gym","1220 S Minnesota Ave","57105",43.5342882389509,-96.730973172744
"57105","Sioux Falls","SD","Welcyon, Fitness After 50, Sioux Falls","1608 S Western Ave","57105",43.530345,-96.750575
"57105","Sioux Falls","SD","X Fitness","112 W 39th St","57105",43.51689910888672,-96.72723388671875
"57105","Sioux Falls","SD","Avera Sports Institute","1601 W 44th Pl","57105",43.5121986,-96.7443379
"57105","Sioux Falls","SD","Airborne Cheer Elite","3009 S Phillips Ave","57105",43.51730728149414,-96.72705078125
"57106","Sioux Falls","SD","Results Personal Training, Inc.","5020 S Tennis Ln Ste B","57108",43.49973717988878,-96.76729556898421
"57106","Sioux Falls","SD","Sanford Women's Health Plaza","5019 S Western Ave Ste 200","57108",43.498297673730335,-96.748535809364
"57106","Sioux Falls","SD","Lairds Fitness aka The Treadmill","7600 S Courtyard Cir","57108",43.476912,-96.757658
"57106","Sioux Falls","SD","Bodyworks","5035 S Louise Ave","57108",43.49891869561563,-96.77283295838394
"57106","Sioux Falls","SD","Platinum Valley Gym","not_available","57108",43.487345694957675,-96.77079551636385
"57106","Sioux Falls","SD","Sanford Family Wellness Center","8701 W 32nd St","57106",43.52116315220607,-96.83416440215102
"57106","Sioux Falls","SD","Kuehn Community Center","2801 S Valley View Rd","57106",43.52083087578904,-96.80131349347191
"57106","Sioux Falls","SD","Cuong Strong Personal Training & Nutrition","705 S Marion Rd","57106",43.54072303,-96.79142027
"57106","Sioux Falls","SD","Boulder Creek Townhomes","7800-7808 Boulder Creek Pl","57106",43.51612459238119,-96.82157352747093
"57106","Sioux Falls","SD","Anytime Fitness","2320 S. Marion Rd Ste. 100","57106",43.52275,-96.78982
"57106","Sioux Falls","SD","9Round Fitness","8605 W 26th St","57106",43.52886779106377,-96.83218084492259
"57106","Sioux Falls","SD","Row House","5005 S Western Ave Ste 170","57108",43.499220304878826,-96.74940615211487
"57106","Sioux Falls","SD","Burn Boot Camp","7640 S Louise Ave","57108",43.47559,-96.76607
"57107","Sioux Falls","SD","Maple Complex Gym","2601 N Maple Ln","57107",43.57525634765625,-96.7794189453125
"57107","Sioux Falls","SD","greatlife","4101 W benson Rd. Suite 5","57107",43.58699417114258,-96.77875518798828
"57107","Sioux Falls","SD","LodgeNet Fitness Center","3900 W Innovation St","57107",43.577999,-96.778565
"57108","Sioux Falls","SD","GreatLIFE Performance & Fitness Center","5901 S Southeastern Ave","57108",43.490554951365766,-96.68840199815216
"57108","Sioux Falls","SD","Farrell's eXtreme Bodyshaping","6010 S Minnesota Ave","57108",43.490069965672944,-96.72662684978299
"57108","Sioux Falls","SD","Tryon Gym","5122 S Cliff Ave","57108",43.49756443537386,-96.7068978940354
"57201","Watertown","SD","Anytime Fitness","501 1st Ave NE","57201",44.90024,-97.10564
"57201","Watertown","SD","Prairie Lakes Wellness Center","1515 15th Street NE","57201",44.921056574907226,-97.09231853485106
"57201","Watertown","SD","Planet Fitness","1300 9th Ave","57201",44.887857000000004,-97.096234
"57201","Watertown","SD","Viking Power Sports Gym","not_available","57201",44.900456,-97.108787
"57226","Clear Lake","SD","Sanford Clear Lake Wellness Center","305 Third Ave. S.","57226",44.7569376,-96.6827203
"57262","Sisseton","SD","Ben Reifel Gymnasium","516 8th Ave W, Sisseton, SD 57262","57262",45.66476821899414,-97.0613021850586
"57262","Sisseton","SD","Johnny's Gym","419 Veterans Ave","57262",45.66395950317383,-97.04947662353516
"57301","Mitchell","SD","Anytime Fitness","1620 S Burr St","57301",43.69363,-98.01282
"57301","Mitchell","SD","Mitchell High School Weight Room","not_available","57301",43.71898925909969,-98.01659772879341
"57301","Mitchell","SD","Mitchell Recreation Center","1300 N Main St","57301",43.722042083740234,-98.02495574951172
"57301","Mitchell","SD","Linda Feterl School Of Dance","101-299 S Lawler St","57301",43.70909665196471,-98.0238297654571
"57325","Chamberlain","SD","River City Fitness","not_available","57325",43.812907,-99.330147
"57349","Howard","SD","Howard High School Gym","not_available","57349",44.01546603276139,-97.52890481003708
"57350","Huron","SD","Anytime Fitness","2350 Dakota Ave S","57350",44.33836,-98.21519
"57350","Huron","SD","Nordby Center for Recreation","21st Street","57350",44.346496447073534,-98.23057633422782
"57384","Wolsey","SD","Anytime Fitness","Hwy 14","not_available",44.37062454223633,-98.45913696289062
"57401","Aberdeen","SD","TM Fitness","not_available","57401",45.46296345468815,-98.48683605558686
"57401","Aberdeen","SD","Boys & Girls Club","1111 1st Ave SE","57401",45.464463314879346,-98.4711711949117
"57401","Aberdeen","SD","Avera Human Performance Center Aberdeen","815 1st Ave SE","57401",45.464889,-98.4760434
"57401","Aberdeen","SD","Gold's Gym","13th Ave SW","57401",45.451919977514706,-98.50823521614075
"57401","Aberdeen","SD","Anytime Fitness","321 S Main Street","57401",45.46128,-98.48795
"57428","Bowdle","SD","Bowdle Community Center","not_available","57428",45.44807434082031,-99.66083526611328
"57437","Eureka","SD","Eureka Fitness Center","716 7th St.","57437",45.769021,-99.619783
"57445","Groton","SD","Timeless Fitness","200-298 E 1st Ave","57445",45.44600931666667,-98.09834878333334
"57469","Redfield","SD","Anytime Fitness","519 1/2 N Main St","57469",44.87733685,-98.5183686
"57501","Pierre","SD","Anytime Fitness","740 E Sioux Ave Ste 114","57501",44.36265,-100.34465
"57501","Pierre","SD","River City Fitness","1515 E Sioux Ave","57501",44.358825,-100.331044
"57501","Pierre","SD","GMMS Gym","not_available","57501",44.366642,-100.348172
"57501","Pierre","SD","Boss's Gym","221 N Buchanan Ave","57501",44.36595916748047,-100.32186126708984
"57501","Pierre","SD","DCI - Gym","1302 E Highway 14 #5","57501",44.38417434692383,-100.34295654296875
"57501","Pierre","SD","YMCA","900 E Church St","57501",44.37097405662262,-100.33918849717448
"57701","Rapid City","SD","Planet Fitness","2200 N Maple Ave, Unit 460B","57701",44.107374,-103.212171
"57701","Rapid City","SD","Weight Room & Cardio Fitness","601 12th St #4","57701",44.081467470341764,-103.2385571809008
"57701","Rapid City","SD","Anytime Fitness","1624 E St. Patrick St Ste. 106","57703",44.06819,-103.18864
"57701","Rapid City","SD","Snap Fitness","5622 Sheridan Lake Rd","57702",44.028437528465474,-103.27120893269215
"57701","Rapid City","SD","Trifecta Secret Gym","not_available","57702",44.07652,-103.27858
"57701","Rapid City","SD","Spa '80 for Women","512 Main St Ste 5","57701",44.08124923706055,-103.22584533691406
"57701","Rapid City","SD","Carol White's Personal Fitness Studio","710 Saint Joseph St Ste 100","57701",44.080788,-103.23003
"57701","Rapid City","SD","The Studio","100 Stumer Rd #123","57701",44.033047,-103.214229
"57701","Rapid City","SD","Spin2Cycle","not_available","57703",44.099218,-103.1473
"57701","Rapid City","SD","Fitness Plus","2001 W Main St","57702",44.080513254847986,-103.25348127406673
"57701","Rapid City","SD","Hurricane Fitness","157 E Main St N","57701",44.079029,-103.211128
"57701","Rapid City","SD","Your Momma's First Stop 4 Fitness","325 E College Ave","57701",44.095027923583984,-103.20652770996094
"57701","Rapid City","SD","Anytime Fitness","772 Mountain View Rd","57702",44.079125,-103.250404
"57701","Rapid City","SD","LadyFit","601 12th St #1","57701",44.081373,-103.238534
"57701","Rapid City","SD","Snap Fitness","1565 Haines Ave","57701",44.09996496365956,-103.22253495611156
"57701","Rapid City","SD","Blackhills CrossFit","1420 Deadwood Ave Ste B","57702",44.099098205566406,-103.26641845703125
"57702","Rapid City","SD","Monument Health Sports Performance Institute powered by EXOS","1635 Caregiver Cir","57702",44.0167998892203,-103.248240740198
"57702","Rapid City","SD","Hill City Fitness Center","not_available","57745",43.93049925131484,-103.57490855333269
"57706","Ellsworth Afb","SD","Firestation Gym","not_available","57706",44.14617521651607,-103.09450751787861
"57717","Belle Fourche","SD","Upper Level Fitness","710 7th Ave","57717",44.671176,-103.850993
"57717","Belle Fourche","SD","Barefoot Fitness","613 6th Ave","57717",44.67203903198242,-103.85193634033203
"57754","Lead","SD","Klein's Inferno Gym","364 Grier Ave","57754",44.348472595214844,-103.78561401367188
"57783","Spearfish","SD","Champion's Choice Boxing","not_available","57783",44.50387954711914,-103.85822296142578
"57783","Spearfish","SD","Downtown Gym","646 N 5th St","57783",44.48963665782778,-103.85987860367199
"57783","Spearfish","SD","Anytime Fitness","2735 1st Ave","57783",44.48015,-103.81226
"57783","Spearfish","SD","Destination Health","1930 North Ave","57783",44.50387954711914,-103.85822296142578
"57783","Spearfish","SD","Full Throttle Fitness","222 W Illinois St","57783",44.48988564753021,-103.86142501544863
"57785","Sturgis","SD","Flex Fitness","901 Main St","57785",44.414676666259766,-103.50674438476562
"57790","Wall","SD","Powerhouse","Glen Street","57790",43.99244400589032,-102.23949909210205
