"zip","city","state","name","address","postalCode","lat","lon"
"03901","Berwick","ME","Orthopedic and Sport Therapy Services","388 High St","03878",43.24193396165093,-70.87760110052494
"03901","Berwick","ME","rehab3 Center for Athletes","7 Marsh Brook Dr","03878",43.24844741821289,-70.896240234375
"03901","Berwick","ME","The Shop MMA","35 High Street","03878",43.2764483,-70.8454907
"03902","Cape Neddick","ME","York Fitness Center","1090 US Route 1","03909",43.181252712048895,-70.62712288887762
"03902","Cape Neddick","ME","Meadowmere Resort","74 Main St","03907",43.24301011023423,-70.60158069794669
"03903","Eliot","ME","Coastal Fitness","75 US Route 1 Byp","03904",43.09622983212883,-70.75070322563023
"03903","Eliot","ME","Planet Fitness","26 Fox Run Rd","03801",43.099159240722656,-70.80838775634766
"03903","Eliot","ME","Great Bay CrossFit","32 Nimble Hill Rd","03801",43.11153793334961,-70.82198333740234
"03904","Kittery","ME","Fletchers Fitness Center","Portsmouth Naval Shipyard","03904",43.07964863914704,-70.73148573911635
"03904","Kittery","ME","Perfected Heath - Personal Training and Nutrition","1 Raynes Ave","03801",43.080230712890625,-70.76343536376953
"03904","Kittery","ME","Gym @156","not_available","not_available",43.078997664689666,-70.73403596878052
"03904","Kittery","ME","Core Fitness","Sheraton Harborside","not_available",43.079775,-70.760403
"03904","Kittery","ME","Hilton Fitness Center","not_available","03801",43.077843,-70.759459
"03904","Kittery","ME","Alfredo Palace Gym","Kittery Point","03905",43.081501,-70.712541
"03906","North Berwick","ME","crossfit207","not_available","04073",43.41356527381423,-70.74668573847057
"03908","South Berwick","ME","H's Gym","not_available","03908",43.22879422143213,-70.73863853470294
"03908","South Berwick","ME","Velocity Cycling Indoors","3 Front St Ste 103","03869",43.23571002992516,-70.8176365210673
"03909","York","ME","Perfected Health - Personal Training and Nutrition","647 US Route 1","03909",43.157684326171875,-70.65184020996094
"03909","York","ME","Vision Fitness","Route 1","not_available",43.17426495629672,-70.63639079415341
"04002","Alfred","ME","Gym Rat","67.222 Tardiff label","04002",43.496258,-70.585652
"04002","Alfred","ME","Pink Diamonds Dance Center","Rt 5","not_available",43.542019,-70.576991
"04005","Biddeford","ME","Saco Sport & Fitness","329 North St","04072",43.51793027522471,-70.45463324489259
"04005","Biddeford","ME","Quest Fitness","2 Livewell Dr","04043",43.39395,-70.5286
"04005","Biddeford","ME","Planet Fitness","510 Alfred St","04005",43.47885725313353,-70.494416213769
"04005","Biddeford","ME","Impact Fitness Center","North Dam Mill Complex","04005",43.49364281263158,-70.4513076251997
"04005","Biddeford","ME","Walnut Street Gym","42 Walnut St","04064",43.523005,-70.372943
"04005","Biddeford","ME","OPTA","360 Route 1","04074",43.585861,-70.353678
"04005","Biddeford","ME","Foley's Fitness Center","33 Haigis Pkwy","04074",43.587486267089844,-70.3623046875
"04005","Biddeford","ME","Family 24 Fitness","442 US Route 1","04074",43.58147410712133,-70.36634280146993
"04005","Biddeford","ME","LivFit Athletica","380 Elm St","04005",43.484753,-70.470688
"04005","Biddeford","ME","Snap Fitness","2 Cascade Rd","04064",43.52298237363992,-70.37296700403934
"04005","Biddeford","ME","Fitness Nuthouse","45 Portland Rd","04043",43.39418918373689,-70.53059570767435
"04005","Biddeford","ME","k* gym","Pool St","04005",43.46569061279297,-70.40389251708984
"04005","Biddeford","ME","Bear Essentials Fitness","11 Mill Brook Rd","04072",43.53227335537331,-70.42075296034052
"04005","Biddeford","ME","One2One Bodyscapes","25 Plaza Dr Ste 4","04074",43.59264,-70.332362
"04005","Biddeford","ME","Maine coast athletics","Morin St, Biddeford, ME 04005","04005",43.466482163675295,-70.49168124406263
"04005","Biddeford","ME","Impulse Motions Studio","632 US Route 1","04074",43.56862258911133,-70.38893127441406
"04005","Biddeford","ME","Perfect Fit Health and Fitness","25 Plaza Dr, Scarborough, ME, Suite 4","04074",43.5927029,-70.3323344
"04008","Bowdoinham","ME","Planet Fitness","295 Bay Rd","04008",43.988014221191406,-69.89070129394531
"04011","Brunswick","ME","Maine Pines Racquet & Fitness","120 Harpswell Rd","04011",43.89848094650559,-69.9550448780523
"04011","Brunswick","ME","The Landing YMCA","24 Venture Avenue","04011",43.89437484741211,-69.92578125
"04011","Brunswick","ME","Health Source","not_available","04086",43.938093,-69.980263
"04011","Brunswick","ME","Buck Center","not_available","04011",43.908681404679655,-69.96030286458758
"04011","Brunswick","ME","New England Medical Fitness","51 Topsham Fair Mall Rd","04086",43.938099607844435,-69.9803063169894
"04011","Brunswick","ME","Women's Fitness Studio","Stanwood St","04011",43.9108518467447,-69.97595613863122
"04015","Casco","ME","Bootcamp @ The Redneck","Rt 11","04055",43.985271,-70.505434
"04021","Cumberland Center","ME","Shapely Solutions","383 Walnut Hill Rd","04097",43.824341,-70.24502799999999
"04021","Cumberland Center","ME","Planet Fitness","14 Hemlock Rdg","04097",43.822017669677734,-70.2514419555664
"04021","Cumberland Center","ME","Barn Gym","Main St","04021",43.805296,-70.251713
"04037","Fryeburg","ME","Curves Of Fryeburg","not_available","04037",44.00861312295291,-70.98814500987939
"04037","Fryeburg","ME","Sir-swells-a-lot Gym","58 Leach Rd","04037",44.03229522705078,-70.96153259277344
"04038","Gorham","ME","Gym","not_available","04062",43.74960379392001,-70.39578230244311
"04038","Gorham","ME","Planet Fitness","68 Windham Center Rd","04062",43.800233909485044,-70.43671681251105
"04038","Gorham","ME","My Fit 24","not_available","04038",43.67913473737275,-70.43736732354002
"04039","Gray","ME","YMCA - Pineland","Athletic Center","04260",43.9051092483876,-70.2554015484953
"04043","Kennebunk","ME","Gym at Chestnut","Chestnut","not_available",43.382292,-70.560602
"04046","Kennebunkport","ME","Meadow View Gym","not_available","04046",43.36292967338989,-70.45640358299647
"04047","Parsonsfield","ME","Back Bay","not_available","03894",43.79530380650876,-70.93603328462531
"04055","Naples","ME","Naples Fitness","not_available","04055",43.9663,-70.583498
"04062","Windham","ME","Planet Fitness","759 Roosevelt Trail","04062",43.835967,-70.43847
"04074","Scarborough","ME","Orangetheory Fitness","364 Maine Mall Rd","04106",43.6329806,-70.333325
"04074","Scarborough","ME","NXGen Fitness Center","29 Pleasant Hill Rd","04074",43.6093,-70.31182
"04074","Scarborough","ME","Maniac CrossFit","172 US Route 1","04074",43.59544372558594,-70.3255386352539
"04074","Scarborough","ME","DoubleTree Pool & Fitness Center","not_available","04106",43.635133433025786,-70.33886742350968
"04074","Scarborough","ME","Snap Fitness","747 Broadway","04106",43.63314338809937,-70.26166896328584
"04074","Scarborough","ME","Crossfit Vindicta","125 John Roberts Rd Ste 9","04106",43.629014,-70.328869
"04074","Scarborough","ME","Realistic Fitness","798 Main St","04106",43.6157163,-70.30955940000001
"04074","Scarborough","ME","Days Inn Fitness Center","461 Maine Mall Rd","04106",43.632445,-70.341037
"04074","Scarborough","ME","CrossFit Casco Bay","1000 Congress St","04102",43.65294781884697,-70.28173657461772
"04074","Scarborough","ME","Zone 3 Fitness","71 US Route 1","04074",43.60565185546875,-70.31737518310547
"04074","Scarborough","ME","Healthy Body,Fit Mind","184 1B Main Street","04106",43.632999420166016,-70.2892074584961
"04074","Scarborough","ME","LiveVital","40 Maple St","04101",43.652875,-70.258364
"04074","Scarborough","ME","Choi Institute","616 Congress St","04101",43.653473,-70.263933
"04074","Scarborough","ME","Jacked and Jilled","184 Main St","04106",43.632999420166016,-70.2892074584961
"04074","Scarborough","ME","Anytime Fitness","180 Waterman Dr","04106",43.63734,-70.25514
"04074","Scarborough","ME","TRUFIT30","333 Clarks Pond Pkwy","04106",43.631129,-70.323955
"04074","Scarborough","ME","Anytime Fitness","700 Gallery Blvd","04074",43.6231,-70.341
"04074","Scarborough","ME","Homewood Suites Fitness Center","not_available","04074",43.627134,-70.343719
"04090","Wells","ME","Seacoast Fitness","952 Post Rd","04090",43.301944732666016,-70.58660888671875
"04090","Wells","ME","Gym @ Seaglass Village","1 Old County Rd","04054",43.2794303894043,-70.59577941894531
"04092","Westbrook","ME","Heath & Spa At Fireside Inn","not_available","04103",43.67999197609818,-70.32741714033499
"04092","Westbrook","ME","Impact Fitness Center","not_available","04092",43.675897,-70.369333
"04092","Westbrook","ME","Obie's Fitness","39 Mechanic St","04092",43.68050930421707,-70.35152533594753
"04092","Westbrook","ME","CrossFit MF","429 Warren Ave","04103",43.68803312078082,-70.31680528268502
"04092","Westbrook","ME","Workout Anytime","1100 Brighton Ave, Ste 12","04102",43.675259390575334,-70.32565355300903
"04092","Westbrook","ME","Body by John Inc","190 Riverside St Unit 5A","04103",43.6835853,-70.3284118
"04092","Westbrook","ME","Unum Gym","2211 Congress St Portland Me","04122",43.65386199951172,-70.33035278320312
"04092","Westbrook","ME","racket & fitness center","not_available","04102",43.651405334472656,-70.34037017822266
"04092","Westbrook","ME","Ballroom Dance Portland","865 Spring St Stop B","04092",43.650279,-70.357699
"04096","Yarmouth","ME","The fitness centre at yarmouth pointe","Juniper Dr","04096",43.8049160471924,-70.17335973985963
"04096","Yarmouth","ME","Balance Fitness","28 Yarmouth Crossing Dr","04096",43.803053999999996,-70.19019499999999
"04096","Yarmouth","ME","Tyler Works Out!","370 US Route 1","04105",43.739073045902664,-70.22224264184273
"04096","Yarmouth","ME","Simms Weight Room","286 W Elm St","04096",43.794092,-70.194889
"04096","Yarmouth","ME","Strong Bodies LLC","81 Bridge St","04096",43.80147171020508,-70.18029022216797
"04101","Portland","ME","Westin Portland Harborview Gym","157 High St","04101",43.65487682821739,-70.26402064369107
"04101","Portland","ME","Orangetheory Fitness","23 Marginal Way","04101",43.66024684060357,-70.26691067876673
"04101","Portland","ME","Marriott Residence Inn Fitness Center","not_available","04101",43.66126113837222,-70.24841476292782
"04101","Portland","ME","Portland Harbor Hotel Gym","468 Fore St","04101",43.6552734375,-70.25568389892578
"04101","Portland","ME","Foreside Fitness","not_available","04105",43.66386419282389,-70.26841542014928
"04101","Portland","ME","Foley's Fitness","265 Marginal Way","04101",43.665992,-70.257855
"04101","Portland","ME","Shift Training Center","24 Preble St","04101",43.65768814086914,-70.26053619384766
"04101","Portland","ME","Hampton Inn Fitness Center","209 Fore St","04101",43.659295,-70.250714
"04101","Portland","ME","Gymski, @ BBTower","401 Cumberland Ave","04101",43.656842646075226,-70.26428013139254
"04101","Portland","ME","Spin Class","Fore st","not_available",43.657773,-70.250761
"04101","Portland","ME","Pure Barre","477 Fore St","04101",43.655514587767556,-70.25575965834344
"04101","Portland","ME","The Rooted Collective","36 Market St Fl 2","04101",43.656862,-70.253179
"04101","Portland","ME","The Fitness room","CIEE","not_available",43.65777372729979,-70.25084221309305
"04101","Portland","ME","Bay Club","1 City Ctr","04101",43.65743032022671,-70.2572143340054
"04101","Portland","ME","Beacon Crossfit","341 Marginal Way","04101",43.66882,-70.257735
"04101","Portland","ME","Tumble Tikes","275B Marginal Way","04101",43.666371,-70.257709
"04101","Portland","ME","YMCA","70 Forest Ave","04101",43.656687114513744,-70.26517583778868
"04101","Portland","ME","University of Southern Maine Gym","66 Falmouth St.","04101",43.6633352565217,-70.27596204401706
"04102","Portland","ME","Anytime Fitness","1364 Congress St","04101",43.65813,-70.29691
"04102","Portland","ME","Basics Fitness Center","380 Western Ave","04106",43.641228,-70.3287
"04102","Portland","ME","CYCLEBAR","82 Hanover St Ste 12","04101",43.65976,-70.265182
"04103","Portland","ME","Liberty Fitness","Liberty","04105",43.70263573304647,-70.27343007028553
"04103","Portland","ME","The Treadmill","Carriage Ln","04103",43.69301456,-70.29643841
"04103","Portland","ME","Nautical Mile","331 Veranda St","04103",43.688815,-70.246257
"04103","Portland","ME","Anytime Fitness","91 Auburn St","04103",43.70382,-70.28881
"04103","Portland","ME","Fournier's Fitness Center","55 Warren Ave","04103",43.689320694111686,-70.29826785017445
"04103","Portland","ME","Natural Fitness","390 Presumpscot St","04103",43.695729,-70.25934
"04103","Portland","ME","SMTC","20 Allen Ave, Portland, ME 04103","04103",43.68944549560547,-70.2935562133789
"04105","Falmouth","ME","Planet Fitness","251 US-1","04105",43.725445,-70.229835
"04105","Falmouth","ME","FIT 212","183 US Route 1","04105",43.71548595292624,-70.23286899133673
"04105","Falmouth","ME","Goalz & Gainz Trainers, LLC","60 Gray Rd","04105",43.73196,-70.29708
"04105","Falmouth","ME","Foreside Fitness & Tennis","196 US Route 1","04105",43.717193603515625,-70.23533630371094
"04105","Falmouth","ME","TD Fitness Center","70 Gray Rd","04105",43.73426331446339,-70.29904110970456
"04107","Cape Elizabeth","ME","Fitness ME","936 Broadway","04106",43.630304,-70.269711
"04210","Auburn","ME","J Jacks MMA Gym","not_available","04210",44.105703,-70.26699
"04210","Auburn","ME","Planet Fitness","730 Center St, Unit 1B","04210",44.12551856448303,-70.22725939750671
"04210","Auburn","ME","Planet Fitness","2-46 East Ave","04240",44.08689101593493,-70.20162894363891
"04210","Auburn","ME","CMMC Fitness Center","12 High St","04240",44.10288619995117,-70.21464538574219
"04210","Auburn","ME","CMMC Gym","346-354 Main St","04240",44.10346439170214,-70.21314548155588
"04210","Auburn","ME","The House Gym","32 Sunderland Dr, Auburn, ME 04210","04210",44.091590881347656,-70.27254486083984
"04210","Auburn","ME","THE GYM","746 Main St","04240",44.126121,-70.203189
"04210","Auburn","ME","Orange Curcuit Fitness","600 Turner St","04210",44.11699676513672,-70.23255920410156
"04210","Auburn","ME","Holy Spirit Gym","Bardwell St","04240-6006",44.087453633464655,-70.22261837709702
"04210","Auburn","ME","Planet Fitness","not_available","04240",44.094316185497476,-70.19137247140563
"04210","Auburn","ME","Gold gym","Center st","04210",44.1302467,-70.2319994
"04210","Auburn","ME","Geiger Fitness Center","70 Mount Hope Ave","04240",44.071038,-70.202987
"04217","Bethel","ME","Workout 24/7","Parkway Rd","04217",44.413220085003715,-70.79261664606585
"04217","Bethel","ME","River View Resort Gym","Rte 2","04217",44.43467578328145,-70.80289053523697
"04224","Dixfield","ME","Austin's Gym","not_available","04276",44.55524264168446,-70.5335502325972
"04224","Dixfield","ME","Dw's Fitness Factory","not_available","04257",44.55697428008311,-70.53919947606788
"04239","Jay","ME","Fitness Stylz","main street","04254",44.472291999999996,-70.18767199999999
"04240","Lewiston","ME","Maine Event Cheer and Dance","1929 Lisbon Rd","04240",44.061561584472656,-70.14872741699219
"04240","Lewiston","ME","GoZone Fitness","1967 Lisbon Rd","04240",44.05983592536113,-70.14625668525696
"04240","Lewiston","ME","Health Club And Spa","1977 Lisbon Rd","04240",44.0592041,-70.1460494
"04268","Norway","ME","Curves","295 Lake Rd","04268",44.213233947753906,-70.57526397705078
"04280","Sabattus","ME","SPRQ Studio","not_available","04280",44.119422976779504,-70.10771406782837
"04281","South Paris","ME","Personal Best Health Club","141 Western Ave","04281",44.22731018066406,-70.51901245117188
"04287","Bowdoin","ME","Cathance Fitness Center","1201 main street","not_available",44.03410720825195,-69.96080017089844
"04294","Wilton","ME","Academy Hill GYM","585 Depot St","04294",44.593121999999994,-70.225741
"04294","Wilton","ME","Riverside gym","174 main street","04294",44.59274475633798,-70.2283214517406
"04294","Wilton","ME","UMF Fitness & Recreation Center (FRC)","Lincoln St","not_available",44.669238334412476,-70.14351122837925
"04330","Augusta","ME","Kennebec Valley YMCA","31 Union St","04330",44.30313231777612,-69.77784725973942
"04330","Augusta","ME","Camp keyes Gym","BLD. 3,194 Winthrop street","04330",44.31753158569336,-69.79151153564453
"04330","Augusta","ME","Team Lawton","599 Maine Ave","04344",44.259723,-69.777112
"04330","Augusta","ME","Smith's true fitness","16 Hospital St","04330",44.3087158203125,-69.7651138305664
"04330","Augusta","ME","United Fitness","not_available","04330",44.331258288518214,-69.76182342892602
"04330","Augusta","ME","Augusta Armory Gym","33 State House Sta","04333",44.3124758,-69.784237
"04353","Whitefield","ME","Fitness Center","Whitfield","04353",44.170074,-69.625322
"04401","Bangor","ME","Union Street Athletics","366 Griffin Rd","04401",44.817667673280425,-68.81490709184098
"04401","Bangor","ME","Brewer High School Gym","not_available","04412",44.78183513040531,-68.75550462657188
"04401","Bangor","ME","Snap Fitness","242 State St","04412",44.78634994349243,-68.75344065170327
"04401","Bangor","ME","EMMC - Fitness Center","not_available","04401",44.8085192184499,-68.752145108999
"04401","Bangor","ME","Johnston gymnasium","Emcc","not_available",44.8250203250653,-68.74485493343947
"04401","Bangor","ME","SuperSlow Zone","667 Hogan Rd","04401",44.83723068237305,-68.7413330078125
"04401","Bangor","ME","Gold's Gym","424 Odlin Rd","04401",44.78528966630017,-68.81298845683465
"04401","Bangor","ME","Hilton Garden Inn Fitness Center","250 Haskell Rd","04401",44.835079193115234,-68.73712158203125
"04401","Bangor","ME","Crossfit Bangor","615 Odlin Rd","04401",44.78409124321428,-68.7940911292471
"04401","Bangor","ME","Relentless Strength","2 South St","04401",44.796978894856935,-68.77257308544803
"04401","Bangor","ME","Bangor Brewer Athletic","Abbott Street","04412",44.78132252933525,-68.77216800896566
"04401","Bangor","ME","Big 10 Cheer","102 Freedom Pkwy","04401",44.80021286010742,-68.84954833984375
"04401","Bangor","ME","Ucb fitness center","Taft St.","04401",44.80755276550498,-68.80261223478372
"04401","Bangor","ME","Valance Fitness and Pilates Studio","Main Street","04401",44.799066822015845,-68.77214177646167
"04401","Bangor","ME","Big10 Cheer Magic All-Stars","Downtown Bangor","04401",44.80314925715339,-68.77147913592263
"04401","Bangor","ME","Curves","153 State St","04412",44.791053771972656,-68.75789642333984
"04401","Bangor","ME","Sunshine's Fitness Studio & Wellness Center","663 Stillwater Ave Ste 1091A","04401",44.8299919,-68.7487125
"04411","Bradley","ME","UMaine Recreation Center","Hilltop Rd","04469",44.90528844478249,-68.66417195848055
"04411","Bradley","ME","The Grove Mini Gym","not_available","04473",44.89755196848972,-68.65198783959237
"04427","Corinth","ME","Corinth health and fitness","not_available","04435",45.00650414797207,-69.02743184935306
"04434","Etna","ME","Lupo's Gym","1178 Stage Rd","04434",44.816856384277344,-69.15547180175781
"04438","Frankfort","ME","The Maine Fitness & Training Center","Chickadee Ln, Winterport, ME 04496","04496",44.63091551124813,-68.85278741461245
"04444","Hampden","ME","Jazzercise 101","not_available","04444",44.75483434174079,-68.94644669292333
"04530","Bath","ME","Bath YMCA","303 Centre St","04530",43.91400905911111,-69.82776529542016
"04530","Bath","ME","coastal orthopedics","not_available","04530",43.89912414550781,-69.81924438476562
"04543","Damariscotta","ME","The Comefit Zone","not_available","04553",44.02565159749755,-69.52751018643322
"04605","Ellsworth","ME","KPNE Gym","not_available","04605",44.590790691853925,-68.43391469790583
"04607","Gouldsboro","ME","YMCA","21 Park St","04609",44.383065486291,-68.20460828712929
"04730","Houlton","ME","Main Street Fitness","58 Main St","04730",46.125887,-67.839214
"04730","Houlton","ME","Foster's House Of Pain Gym","Grange St","04740",46.12065312835695,-67.84827796906221
"04743","Fort Kent","ME","Wellness Center","not_available","04743",47.24969458360605,-68.5978364956808
"04745","Frenchville","ME","Long Lake Regional Wellness And Fitness Center","not_available","04772",47.243238017545195,-68.3094623174181
"04841","Rockland","ME","Rockland Harbor YMCA","12 Water St","04841",44.09885659176439,-69.10777512216916
"04841","Rockland","ME","Stone Coast CrossFit","Rockport Park Center","04856",44.171972779483085,-69.08476306300679
"04841","Rockland","ME","Sphere","328 Main St, Rockland, ME 04841","04841",44.10288619995117,-69.10928344726562
"04841","Rockland","ME","RPD Gym","1 Police Plz","04841",44.101979,-69.107853
"04841","Rockland","ME","Wii Active","65 Acadia Dr","04841",44.120518616666665,-69.10418155
"04841","Rockland","ME","Hampton Inn gym","not_available","04861",44.09477053739622,-69.13808740224466
"04841","Rockland","ME","Midcoast Gym","park street","04841",44.10182958163385,-69.11160983903126
"04848","Islesboro","ME","Islesboro Fitness Center","not_available","04848",44.28895304150007,-68.90898326545702
"04848","Islesboro","ME","Point Lookout Fitness Center","67 Atlantic Hwy","04849",44.30172215081415,-68.99671201663224
"04854","Owls Head","ME","Sphere Outdoor Bootcamp","10 Ash Point Dr, Owls Head, ME 04854","04854",44.07080352850898,-69.09728319787862
"04864","Warren","ME","CJ Strength & Conditioning","2060 Camden Road","04864",44.145823,-69.1988664
"04901","Waterville","ME","Anytime Fitness","51 Western Ave","04937",44.59181,-69.60499
"04901","Waterville","ME","Harold Alfond Athletic Center","4000 Mayflower Hl","04901",44.568170536284946,-69.65862206792183
"04901","Waterville","ME","Riverside Fitness","713 A  Main St","04927",44.624628,-69.51220839999999
"04901","Waterville","ME","Littlefield's Gym","not_available","04963",44.569403,-69.689954
"04901","Waterville","ME","Curves","165 Main St","04901",44.551327,-69.630224
"04901","Waterville","ME","Harold Alfond Boys and Girls Club and YMCA","126 North St","04901",44.55989074707031,-69.64212036132812
"04915","Belfast","ME","Waldo County YMCA","157 Lincolnville Ave","04915",44.414259853106685,-69.02350112552836
"04915","Belfast","ME","Bay Area Fitness","not_available","04915",44.43146007936892,-68.97232394439366
"04915","Belfast","ME","Belfast Curves","9 Field St #450","04915",44.431785583496094,-69.01366424560547
"04915","Belfast","ME","Belfast Bay CrossFit","85 Waldo Avenue","04915",44.427779098551646,-69.01054474295657
"04930","Dexter","ME","Millside Fitness","Main Street","not_available",45.02354,-69.29164
"04947","Kingfield","ME","Peak Performance","Rt 27 (next to Orange Cat)","not_available",44.96260070800781,-70.16060638427734
"04947","Kingfield","ME","Sugarloaf Sports & Fitness Center","5092 Access Road","04947",45.05827338921125,-70.309209832016
"04947","Kingfield","ME","Boston Sports Club","2257 Caribou Mountain Rd","04947",45.05359649658203,-70.30233764648438
"04953","Newport","ME","Follow Through Fitness","not_available","04953",44.83560918409392,-69.27391149464522
"04963","Oakland","ME","F3 Fitness: Lisa's Basement Gym","78 Summer St","04963",44.54623063713726,-69.73284882128657
"04967","Pittsfield","ME","Phoenix Health and Fitness","121 Somerset Plz Ste 205","04967",44.78583908081055,-69.3981704711914
"04976","Skowhegan","ME","Somerset Sports and Fitness","Commerce Dr","04976",44.76200144236507,-69.68850299917997
"04988","Unity","ME","Unity Rock Wall","not_available","04988",44.60230987915506,-69.33070073394255
