"zip","city","state","name","address","postalCode","lat","lon"
"55001","Afton","MN","Zumba","not_available","55043",44.94408416748047,-92.77195739746094
"55001","Afton","MN","Garage Bells","not_available","not_available",44.91771132094745,-92.8410883531709
"55001","Afton","MN","Snap Fitness","356 St Croix Trail S","55043",44.94396620272483,-92.77198575091089
"55008","Cambridge","MN","Snap Fitness","234 Main St N","55008",45.574444,-93.22365
"55008","Cambridge","MN","Total Wellness Coaching LLC","538 Main St S Ste 110","55008",45.56818000036466,-93.22407960891724
"55008","Cambridge","MN","Anytime Fitness","120 Heritage Blvd NE","55040",45.49263,-93.24337
"55008","Cambridge","MN","Snap Fitness","1820 Second Avenue","55008",45.57196921667841,-93.2016380891141
"55008","Cambridge","MN","curves","not_available","55008",45.573002,-93.225852
"55008","Cambridge","MN","Snap Fitness","404 Whiskey RD NE","55040",45.494263000000004,-93.257925
"55008","Cambridge","MN","Anytime Fitness","113 Main St S","55008",45.57232,-93.22476
"55009","Cannon Falls","MN","Snap Fitness 24-7","31265 County 24 Blvd","55009",44.49583435058594,-92.90800476074219
"55011","Cedar","MN","Snap Fitness","18447 Highway 65 NE","55011",45.30437964321013,-93.23360858043003
"55013","Chisago City","MN","Anytime Fitness","11183 Lake Blvd","55013",45.37648,-92.87988
"55013","Chisago City","MN","Hogie's House","not_available","55013",45.331973,-92.917171
"55013","Chisago City","MN","Snap Fitness","12715 Lake Blvd","55045",45.38965352812855,-92.84898883743996
"55014","Circle Pines","MN","Snap Fitness","6511 Ware Rd","55014",45.14312825800246,-93.12388192626494
"55014","Circle Pines","MN","Anytime Fitness","552 & 554 Lilac St","55014",45.18162536621094,-93.11506652832031
"55014","Circle Pines","MN","Lino Lakes YMCA","7690 Village Dr","55014",45.1782844,-93.1081673
"55014","Circle Pines","MN","UFC Gym Blaine","10301 Lexington Ave NE","55014",45.157266,-93.162577
"55014","Circle Pines","MN","Tier 1 Performance","474 Apollo Dr #10","55014",45.18080520629883,-93.11708068847656
"55014","Circle Pines","MN","Camp Gladiator","St Joseph's Church","55014",45.168279,-93.134333
"55014","Circle Pines","MN","Anytime Fitness","552-554 Lilac St","55014",45.18164,-93.11528
"55016","Cottage Grove","MN","Anytime Fitness","7750 Harkness Ave S","55016",44.83682,-92.96016
"55016","Cottage Grove","MN","Cottage Grove Police Gym","12800 Ravine Pkwy","55016",44.82333755493164,-92.90018463134766
"55016","Cottage Grove","MN","Hodge Fitness","8086 Jocelyn Ave S","55016",44.832378000000006,-92.912408
"55016","Cottage Grove","MN","gym","hastings ave","55071",44.84626987546288,-92.98729419708252
"55016","Cottage Grove","MN","Activity Center","not_available","55016",44.83471996424167,-92.9407232584491
"55016","Cottage Grove","MN","Orangetheory Fitness","8621 E Point Douglas Rd S","55016",44.81673,-92.931606
"55019","Dundas","MN","CrossFit Skopos","396 Schilling Dr S #100","55019",44.427995,-93.199331
"55019","Dundas","MN","Snap Fitness","1500 Clinton Ln","55057",44.44425219920838,-93.17564174236657
"55020","Elko New Market","MN","Anytime Fitness","321 Main St Ste 104","55054",44.57334137,-93.3534317
"55021","Faribault","MN","Anytime Fitness","1620 17th St NW","55021",44.30936,-93.29225
"55021","Faribault","MN","Anytime Fitness","618 Division St S","55057",44.45317,-93.16032
"55021","Faribault","MN","v fitness","not_available","55021",44.29443359375,-93.26890563964844
"55021","Faribault","MN","The Conveyor Belt","not_available","55057",44.450128455319266,-93.1680555586495
"55021","Faribault","MN","Fit Ergonomics","711 Division St S","55057",44.45212173461914,-93.1597671508789
"55021","Faribault","MN","curves","1620 Highway 60 W, Ste B","55021",44.294978,-93.292348
"55021","Faribault","MN","Northfield Area Family Y","519 Division St S","55057",44.454322814941406,-93.15996551513672
"55024","Farmington","MN","Northstar Crossfit","21034 Heron Way","55044",44.6439034,-93.2333029
"55024","Farmington","MN","TITLE Boxing Club Lakeville","7360 160th St","55044",44.716103929708815,-93.2208202361631
"55024","Farmington","MN","work out room","not_available","55024",44.642234802246094,-93.14151763916016
"55024","Farmington","MN","Olympus 24 Hr Health & Fitness","Elm ave","55024",44.642113,-93.146502
"55024","Farmington","MN","PainFree Posture MN","17463 Grove Avenue","55044",44.6959381,-93.22916029999999
"55024","Farmington","MN","Snap Fitness Lakeville","7409 179th St W","55044",44.69272064186886,-93.21536311144176
"55024","Farmington","MN","Anytime Fitness","20700 Chippendale Ave. W.","55024",44.64813,-93.1359
"55024","Farmington","MN","Total Hockey Minnesota Weightroom","not_available","55044",44.64842190933994,-93.24232165047611
"55024","Farmington","MN","Cold Steel Subterranean Gym","not_available","55124",44.71752087764279,-93.16431059249985
"55025","Forest Lake","MN","Believer's Boxing","24799 Forest Blvd, Forest Lake, MN 55025","55025",45.30931091308594,-92.98314666748047
"55025","Forest Lake","MN","Forest Lake YMCA","19845 Forest Road North","55025",45.23876965,-92.99084662
"55025","Forest Lake","MN","Capital G's Gym","Forest Blvd Trail, Wyoming, MN 55092","55092",45.31896222276806,-92.98351893491818
"55025","Forest Lake","MN","Snap Fitness - Forest Lake","56 E Broadway Ave","55025",45.27876,-92.983848
"55025","Forest Lake","MN","believers gym","not_available","55025",45.27426528930664,-92.97399139404297
"55025","Forest Lake","MN","Farrell's Extreme Bodyshaping Forest Lake","808 Lake St S","55025",45.270311,-92.98480099999999
"55025","Forest Lake","MN","Anytime Fitness","1432 S Lake St","55025",45.26474,-92.98544
"55025","Forest Lake","MN","Hialeah Fire Gym","95 E 5 St","not_available",45.28049087524414,-92.99009704589844
"55032","Harris","MN","Anytime Fitness North Branch","38874 14th Avenue","55056",45.53828555720398,-92.97800410058072
"55033","Hastings","MN","Hastings YMCA","85 Pleasant Dr","55033",44.746507,-92.87682
"55033","Hastings","MN","Snap Fitness","281-419 Cari Park Ln","55033",44.713900615906496,-92.846449066934
"55033","Hastings","MN","Snap Fitness","600 North Acres Road","54021",44.76292419433594,-92.79202270507812
"55033","Hastings","MN","TT Nutrition","1206 N Frontage Rd","55033",44.7391613,-92.87388470000002
"55033","Hastings","MN","Anytime Fitness","1355 S Frontage Rd Ste 340","55033",44.73626,-92.87976
"55038","Hugo","MN","Anytime Fitness","14643 Mercantile Dr Ste 100","55038",45.16256,-93.01708
"55038","Hugo","MN","Farrell's eXtreme Bodyshaping","1210 County Road J, Suite 104","55127",45.12309287265247,-93.0516142927077
"55038","Hugo","MN","180 Kettlebell Gym-Centerville","6845 20th Ave Ste 120","55038",45.154454890157844,-93.04120057888855
"55038","Hugo","MN","Water's Edge Community Center","15290 Farnham Ave N","55038",45.17123402901591,-93.00117071418009
"55038","Hugo","MN","Snap Fitness","14755 Victor Hugo Blvd N","55038",45.1646632181976,-93.01634754357566
"55041","Lake City","MN","Anytime Fitness","1205 N 7th St","55041",44.454681,-92.285765
"55042","Lake Elmo","MN","Fitness Center - Pioneer","not_available","55128",45.00065295833587,-92.95107356402113
"55042","Lake Elmo","MN","hilton garden inn gym Oakdale","not_available","55125",44.95141280417292,-92.93508345050736
"55042","Lake Elmo","MN","Tenacity Fitness and Endurance","1019 Helmo Ave N","55128",44.964368176179676,-92.95079962400247
"55042","Lake Elmo","MN","ECMC","1 Imation Pl","55128",45.00119668362464,-92.9539035871067
"55042","Lake Elmo","MN","Twin Cities Orthopedics Stillwater PT","5805 Neal Ave N","55082",45.031028747558594,-92.84768676757812
"55042","Lake Elmo","MN","Victory Sports and Fitness","5825 Neal Ave N","55082",45.032919,-92.844181
"55043","Lakeland","MN","Riverfront Athletic Club","109 2nd St","54016",44.97206845660399,-92.75684896564427
"55044","Lakeville","MN","Life Time Fitness","18425 Dodd Blvd","55044",44.683224,-93.249522
"55044","Lakeville","MN","Anytime Fitness","17811 Kenwood Trl","55044",44.69129,-93.28372
"55044","Lakeville","MN","moveology fitness","12299 Lucerne Trl","55044",44.649552,-93.316028
"55044","Lakeville","MN","Mi5 Fitness","17630 Juniper Path","55044",44.69283676147461,-93.28652954101562
"55044","Lakeville","MN","Fitness 19 Lakeville","16331 Kenrick Ave","55044",44.71283985362222,-93.2804131076686
"55044","Lakeville","MN","Train America","991 214th Street W","not_available",44.638729664683325,-93.26492177840333
"55044","Lakeville","MN","Saints Sports Academy","9913 214th St W","55044",44.638566762332196,-93.26494633704309
"55044","Lakeville","MN","Holiday Inn Gym","20800 Kenrick Ave","55044",44.64798,-93.292097
"55044","Lakeville","MN","Puravida Fitness","10551 165th St W","55044",44.710814,-93.27940500000001
"55046","Lonsdale","MN","Snap Fitness","739 Ash St. NE","55046",44.479862304858685,-93.41838243903784
"55046","Lonsdale","MN","Wellentin Exercise Equipment Repair","Lonsdale","55046",44.480141336852704,-93.42821717262267
"55051","Mora","MN","Anytime Fitness","901 Forest Ave E","55051",45.87647,-93.28105
"55051","Mora","MN","30 minute fitness","not_available","55051",45.87409973144531,-93.29023742675781
"55056","North Branch","MN","Anytime Fitness","38873 14th Ave","55056",45.51221,-92.99042
"55056","North Branch","MN","North Branch Tae Kwon Do & Kickboxing","6272 Main St","55056",45.511802673339844,-92.98100280761719
"55056","North Branch","MN","180 Kettlebell Gym-North Branch","4628 Isanti Trl","55056",45.510780334472656,-93.01527404785156
"55057","Northfield","MN","YMCA Health and Wellness Center","900 Cannon Valley Dr","55057",44.46939468383789,-93.17761993408203
"55060","Owatonna","MN","Crossfit Holdfast","not_available","55060",44.065907,-93.223721
"55060","Owatonna","MN","Dynamic Fitness","110 W Broadway St","55060",44.085060119628906,-93.22650146484375
"55060","Owatonna","MN","Anytime Fitness","1010 Hoffman Dr.","55060",44.0961,-93.23446
"55060","Owatonna","MN","Snap Fitness","S Cedar Ave.","55060",44.06557367975559,-93.22643867106261
"55063","Pine City","MN","Pine City Health & Fitness","1670 Main Street N","55063",45.84802550020591,-92.97311761823661
"55063","Pine City","MN","Anytime Fitness","925 Main St S","55063",45.8182,-92.97084
"55066","Red Wing","MN","Anytime Fitness","1105 Bench St","55066",44.554867003843036,-92.56703495979309
"55068","Rosemount","MN","Eastview High School","6200 140th St W","55124",44.744818341824804,-93.19187243354583
"55068","Rosemount","MN","Orangetheory Fitness","15624 Pilot Knob Rd #700","55124",44.7222808103875,-93.17369346934285
"55068","Rosemount","MN","Life Time Fitness","5995 149th St W","55124",44.733501,-93.187001
"55068","Rosemount","MN","Snap Fitness - Rosemount","14855 S. Robert Trail","55068",44.7334450138456,-93.12827744787475
"55068","Rosemount","MN","9Round Fitness","15050 Cedar Ave, #117","55124",44.73094678,-93.21517126
"55068","Rosemount","MN","iLoveKickboxing - Apple Valley","14050 Pilot Knob Rd Ste 124","55124",44.745018005371094,-93.17562866210938
"55068","Rosemount","MN","LA Fitness","15135 Galaxie Ave","55124",44.72957761025048,-93.20826957206296
"55068","Rosemount","MN","Hearthstone Fitness Center","15734 Foliage Ave","55124",44.721257,-93.201427
"55068","Rosemount","MN","Snap Fitness","14050 Pilot Knob Rd","55124",44.74543432103119,-93.17609478557159
"55068","Rosemount","MN","iLoveKickboxing - Apple Valley, MN","14050 Pilot Knob Road, Suite 124","55124",44.7448619,-93.1758479
"55068","Rosemount","MN","Get In Shape For Women","not_available","55068",44.72964096069336,-93.14103698730469
"55068","Rosemount","MN","C4 Fitness","5708 Upper 147th St W Ste 103","55124",44.736372721259265,-93.18132857116393
"55068","Rosemount","MN","Planet Fitness","7382 153rd St W","55124",44.726385,-93.215975
"55068","Rosemount","MN","Pure Barre","15594 Pilot Knob Rd Ste 300","55124",44.722939000000004,-93.173053
"55068","Rosemount","MN","CrossFit 5885","5885 149th St W","55124",44.73360824584961,-93.18434143066406
"55068","Rosemount","MN","Minnesota School Of Basketball","145th Street","not_available",44.736443,-93.181271
"55068","Rosemount","MN","Valley Pond Fitness Room","Valley Pond Apartments","55124",44.73198381823708,-93.17820371115667
"55068","Rosemount","MN","EOSP","5708 Upper 147th St W","55124",44.736454010009766,-93.1812744140625
"55068","Rosemount","MN","CrossFit Templar","14608 Felton Ct","55124",44.736469240514666,-93.18061417285787
"55068","Rosemount","MN","Anytime Fitness","2678 149th St W","55068",44.73254,-93.11915
"55068","Rosemount","MN","Olympus 24 Hour Health & Fitness","14555 S Robert Trl","55068",44.73808898377584,-93.12663193175395
"55069","Rush City","MN","Snap Fitness","906-1198 W 4th St","55069",45.6840555,-92.98018291666666
"55070","Saint Francis","MN","Anytime Fitness","23212 St. Francis Blvd Suite 900","55070",45.39048,-93.36861
"55072","Sandstone","MN","Anytime Fitness","418 Main St","55072",46.13262,-92.86638
"55075","South Saint Paul","MN","Anytime Fitness","1205 Southview Blvd","55075",44.88882,-93.04938
"55075","South Saint Paul","MN","Snap Fitness","3056 65th St E","55076",44.854605185382496,-93.04377535462122
"55075","South Saint Paul","MN","Gym","not_available","55075",44.890737761832014,-93.04020938268971
"55076","Inver Grove Heights","MN","Anytime Fitness","9070 Buchanan Trl","55076",44.81901,-93.04222
"55076","Inver Grove Heights","MN","SnapFitness","not_available","55076",44.823632965892514,-93.04036583183705
"55077","Inver Grove Heights","MN","Salem Green Work Out Room","1455 Upper 55th St E","55077",44.87218475341797,-93.07687377929688
"55077","Inver Grove Heights","MN","Workout Area","5220 Greystone Dr","55077",44.873398,-93.065724
"55077","Inver Grove Heights","MN","Eagle Pointe Gym","not_available","55118",44.884402,-93.069849
"55077","Inver Grove Heights","MN","The Grove: Aquatic and Fitness Center","8055 Barbara Ave","55077",44.8323343042726,-93.06332279240077
"55082","Stillwater","MN","LA Fitness","7360 33rd St N","55128",44.9967117679234,-92.95648730665225
"55082","Stillwater","MN","Anytime Fitness","7077 10th St N","55128",44.96028,-92.96182
"55082","Stillwater","MN","Sky Zone","595 Hale Ave N","55128",44.9566478,-92.9606657
"55082","Stillwater","MN","Anytime Fitness","1270 W Frontage Rd Valley Rdg Mall","55082",45.03721,-92.82512
"55082","Stillwater","MN","Snap Fitness","not_available","55082",45.044066,-92.83791
"55082","Stillwater","MN","Victory4You Studio","1093-1099 Sommers St N","54016",44.99908268451691,-92.74359405040741
"55082","Stillwater","MN","The Gym At The Top Of The Stairs","Orange Street","54016",44.979034424768656,-92.74703115890037
"55082","Stillwater","MN","Spartan Fitness","430 Hayward Ave N","55128",44.95462496474589,-92.95755386352539
"55082","Stillwater","MN","Uncommon Age","450 Main St N","55082",45.06006687,-92.80739126
"55089","Welch","MN","Prairie Island Fitness Center","5636 Sturgeon Lake Rd","55089",44.629791259765625,-92.6446762084961
"55092","Wyoming","MN","Snap Fitness","5377 266th St","55092",45.333739847750145,-92.99671479731539
"55101","Saint Paul","MN","Skyway YMCA (Downtown Saint Paul)","194 6th St E","55101",44.94932,-93.08909
"55101","Saint Paul","MN","Embody Health - St Paul","56 6th St E #318","55101",44.94694137573242,-93.09356689453125
"55101","Saint Paul","MN","Union Depot Fitness Center","214 4th St E","55101",44.94766616821289,-93.08627319335938
"55101","Saint Paul","MN","Comcast Employee Fitness Center","10 River Park Plaza, St Paul, MN 55107","55107",44.9440803527832,-93.08192443847656
"55101","Saint Paul","MN","Crossfit Slipstream","not_available","55107",44.942767,-93.080386
"55101","Saint Paul","MN","Freeman Building Exercise Room","625 Robert St N","55155",44.95396041870117,-93.09815216064453
"55101","Saint Paul","MN","Police Gym","367 Grove St","55101",44.95673370361328,-93.086669921875
"55101","Saint Paul","MN","Lifetime Fitness","340 Cedar St Ste 500","55101",44.946036750135335,-93.09318668154778
"55101","Saint Paul","MN","Lofts at Farmer's Market Cardio & Weight Room","260 5th St E","55101",44.94950485229492,-93.08592987060547
"55101","Saint Paul","MN","Galtier Fitness Center","5th st e","55101",44.9491328,-93.0892219
"55101","Saint Paul","MN","Renaissance Fitness Center","not_available","55414",44.952231756072216,-93.09126811285525
"55101","Saint Paul","MN","Embassy Suites Fitness Center","3rd Floor","55101",44.9526840351309,-93.09298601135494
"55101","Saint Paul","MN","First National Bank Building - Fitness Center","332 Minnesota Street","55101",44.946559168165486,-93.09093530767736
"55101","Saint Paul","MN","Lot 270 - Fitness Room (Private)","270 4th St E","55101",44.948707,-93.08509000000001
"55101","Saint Paul","MN","Fitness Center","Lowertown Lofts","55101",44.946277400563964,-93.08991732960826
"55101","Saint Paul","MN","'Swole City' aka Gym At 180 East Fifth","180 5th St E","55101",44.947914123535156,-93.08858489990234
"55101","Saint Paul","MN","Rugged North Fitness","375 Jackson St","55101",44.948272705078125,-93.09014892578125
"55101","Saint Paul","MN","Gallery Tower Workout Room","26 10th St W","55102",44.949256896972656,-93.09906768798828
"55101","Saint Paul","MN","Hilton Gym Room","not_available","55101",44.94800188377869,-93.093543974443
"55101","Saint Paul","MN","Wells Fargo Place Fitness Center","30 7th St E","55101",44.948183799789554,-93.09568276727316
"55102","Saint Paul","MN","Anytime Fitness","1059 Grand Ave.","55106",44.9402,-93.14497
"55102","Saint Paul","MN","Snap Fitness","1016 Smith Ave S","55118",44.91569137573242,-93.1013412475586
"55102","Saint Paul","MN","Riverview Gym","360 Spring St","55102",44.937049865722656,-93.10381317138672
"55102","Saint Paul","MN","Saint Paul College Fitness Lab","235 Marshall Ave","55102",44.948429107666016,-93.11290740966797
"55102","Saint Paul","MN","Anytime Fitness","226 Spring St","55102",44.94,-93.09972
"55102","Saint Paul","MN","YWCA - Cathedral Hill","375 Selby Ave","55102",44.946958474815446,-93.11505287285637
"55102","Saint Paul","MN","Timberwolf Crossfit","West 7th Street","55102",44.926281921669506,-93.128667182011
"55102","Saint Paul","MN","James J Hill Staircase From Hell","300 Pleasant Ave W","55102",44.943414328818854,-93.10647681939082
"55102","Saint Paul","MN","Pure Barre","1045 Grand Ave","55105",44.94035,-93.144407
"55102","Saint Paul","MN","CorePower Yoga","867 Grand Ave","55105",44.9401345,-93.136569
"55103","Saint Paul","MN","Scheffer Recreation Center","237 Thomas Ave","55103",44.959699,-93.11018299999999
"55103","Saint Paul","MN","Spin Club","not_available","55103",44.977458,-93.146538
"55103","Saint Paul","MN","exercise room","not_available","55117",44.9675178527832,-93.1156005859375
"55103","Saint Paul","MN","Como Park Ski Center","1431 Lexington Pkwy N","55103",44.98366165161133,-93.14469146728516
"55104","Saint Paul","MN","LA Fitness","1370 University Ave W","55104",44.95494891628434,-93.15808981493012
"55104","Saint Paul","MN","Gangelhoff Center","235 Hamline Ave. N","55104",44.94811969465008,-93.15723351474263
"55104","Saint Paul","MN","YMCA Midway","1761 University Ave W","55104",44.9563626490826,-93.17513131011854
"55104","Saint Paul","MN","Snap Fitness","80 Snelling Ave N","55104",44.94352432390197,-93.16652229903539
"55104","Saint Paul","MN","P90X Torture Chamber","Summit Avenue","55104",44.945657,-93.147741
"55104","Saint Paul","MN","Snap Fitness","2650 University Ave W","55114",44.96741811169283,-93.20665177288693
"55104","Saint Paul","MN","Pavilion on Berry Fitness Center","950 Jefferson Commons Cir","55114",44.969817361530914,-93.20726919465746
"55104","Saint Paul","MN","Carleton Workout Rooms","not_available","55114",44.963146060450676,-93.19440137240228
"55105","Saint Paul","MN","Life Time Fitness Highland Park","2145 Ford Pkwy","55116",44.91821309,-93.19055604
"55105","Saint Paul","MN","The Leonard Center - Macalester College","125 Snelling Ave N","55104",44.93758748488527,-93.1677581812029
"55105","Saint Paul","MN","Fisico","617 Snelling Ave S","55116",44.923055,-93.167292
"55105","Saint Paul","MN","SweatWorks Studio","1821 Saint Clair Avenue","55105",44.934106,-93.177824
"55105","Saint Paul","MN","alohacoach","1946 Saint Clair Avenue","55105",44.93409177,-93.18267327
"55105","Saint Paul","MN","CorePower Yoga","680 Cleveland Ave S","55116",44.921005,-93.186985
"55105","Saint Paul","MN","Fitness on Grand","1420 Grand Ave.","not_available",44.939795,-93.160357
"55105","Saint Paul","MN","Cretin-Derham Hall Field House","not_available","55105",44.925003,-93.15822
"55105","Saint Paul","MN","Mgayle Studio","714 Cleveland Ave S","55116",44.920183,-93.187358
"55106","Saint Paul","MN","Planet Fitness","2167 Old Hudson Rd","55119",44.952304999999996,-93.008626
"55106","Saint Paul","MN","Snap Fitness","1320 Maryland Ave E","55106",44.97734055482349,-93.044411170589
"55106","Saint Paul","MN","Vertical Endeavors","845 Phalen Blvd","55106",44.96632665783381,-93.06462432601325
"55106","Saint Paul","MN","Anytime Fitness","1700 Suburban Ave","55106",44.950638,-93.028532
"55106","Saint Paul","MN","The Baby Maker's","not_available","55119",44.950322,-93.009875
"55106","Saint Paul","MN","LA Fitness","1615 Robert St S","55118",44.897421,-93.080905
"55106","Saint Paul","MN","Sun Cliffe Gym","400 Luella St N","55119",44.953545,-93.017107
"55106","Saint Paul","MN","El Rio Vista Recreation Center","179 Robie St E","55107",44.930843353271484,-93.07703399658203
"55108","Saint Paul","MN","MacLaren Hill","1351 Carling Dr","55108",44.97219574165148,-93.15645631910728
"55108","Saint Paul","MN","Snap Fitness","1557 Larpenteur Ave W","55113",44.99195963237316,-93.1657478907976
"55108","Saint Paul","MN","J@B Fitness Center","950 Jefferson Commons Circle","55114",44.970906300046074,-93.2069323344921
"55108","Saint Paul","MN","Le Fitness Room","not_available","55113",44.99107251849083,-93.15441154963794
"55108","Saint Paul","MN","TIES Weightroom","not_available","55108",44.991545,-93.168189
"55109","Saint Paul","MN","Minnesota Baseball Academy","3210 Labore Rd","55110",45.038570404052734,-93.05574798583984
"55109","Saint Paul","MN","Anytime Fitness","2515 White Bear Ave","55109",45.01791,-93.02126
"55109","Saint Paul","MN","Planet Fitness","1930 Buerkle Rd","55110",45.038914,-93.020831
"55109","Saint Paul","MN","Success Boot Camp","not_available","55109",45.02839202771339,-93.05042967695367
"55109","Saint Paul","MN","LA Fitness","1940 County Road D E","55109",45.03530964627359,-93.02053707154657
"55109","Saint Paul","MN","Orangetheory Fitness","3095 White Bear Ave N","55109",45.03541230324075,-93.01952362060547
"55109","Saint Paul","MN","Body fitness","White Bear ave","55109",45.03195,-93.01698
"55109","Saint Paul","MN","JW's P90X Gym","not_available","55127",45.03932189941406,-93.06935119628906
"55109","Saint Paul","MN","Norsemen Croffsit","1686 Rosewood Ave S","55109",45.002154716666666,-93.02917511666666
"55109","Saint Paul","MN","Health Strategies","2734 Co Rd D","55110",45.03590757894029,-92.98595470513796
"55109","Saint Paul","MN","Success Personal Training","1862 Beam Ave","55109",45.02758090316685,-93.02162569593186
"55110","Saint Paul","MN","Anytime Fitness","4600 Centerville Rd","55127",45.08086,-93.05486
"55110","Saint Paul","MN","The Gym I","5170-5298 Division St","55110",45.0984392,-93.00937172
"55110","Saint Paul","MN","Underground Gym","1999 Spruce Pl","55110",45.05080122765868,-93.01606288329009
"55110","Saint Paul","MN","Tri Fitness","2193 4th St","55110",45.08561325073242,-93.00785827636719
"55110","Saint Paul","MN","Tri Fitness Training Center","3014 Hwy 96 E","55127",45.07877668392516,-93.04406910100467
"55110","Saint Paul","MN","Snap Fitness","4703 Highway 61 N","55110",45.08453534515422,-93.01149498172437
"55110","Saint Paul","MN","Anytime Fitness","955 Wildwood Rd","55115",45.0513,-92.98407
"55110","Saint Paul","MN","Stronger U Fitness","4708 Highway 61 N","55110",45.08409553136129,-93.01072845139294
"55110","Saint Paul","MN","White Bear Boxing Gym","not_available","55110",45.100978,-93.001941
"55110","Saint Paul","MN","BearFitness","1873 Buerkle Rd","55110",45.040237,-93.026569
"55110","Saint Paul","MN","Park Ave Exercise Room","1480 Park St","55110",45.07648468017578,-93.03834533691406
"55110","Saint Paul","MN","Snap Fitness","2676 County Road E E","55110",45.04984920829976,-92.98738582465617
"55110","Saint Paul","MN","Holiday Inn Express Workout Room","1132 County Road E E","55110",45.049156188964844,-93.05308532714844
"55110","Saint Paul","MN","White Bear Area YMCA","2100 Orchard Lane","55110",45.04241858,-93.01132184
"55110","Saint Paul","MN","Life Time Fitness","4800 White Bear Pkwy","55110",45.08361986510299,-93.04759046155903
"55110","Saint Paul","MN","Tiger Training & Family Fitness","3584 Hoffman Rd E","55110",45.049339294433594,-93.03124237060547
"55111","Saint Paul","MN","Building 507 Gym","507 Constitution Ave","55111",44.895851135253906,-93.20133209228516
"55112","Saint Paul","MN","Shoreview YMCA","3760 Lexington Ave N","55126",45.05514,-93.14703
"55112","Saint Paul","MN","Anytime Fitness","2541 W County Rd 10","55112",45.10725,-93.20987
"55112","Saint Paul","MN","Boston Scientific","4100 Hamline Ave N","55112",45.067569159818575,-93.14880561262491
"55112","Saint Paul","MN","Anytime Fitness","5922 Lexington Ave N","55126",45.11833,-93.15901
"55112","Saint Paul","MN","The CORE Roseville","3050 Centre Point Drive, Sutie 200","55113",45.0333952,-93.18777476666668
"55112","Saint Paul","MN","LA Fitness","1101 Silver Lake Rd NW","55112",45.065683875417704,-93.21650732975594
"55112","Saint Paul","MN","In Motion Fitness","3764 Dunlap St N","55112",45.055580139160156,-93.15019226074219
"55112","Saint Paul","MN","Mounds View YMCA","Edgewood Middle School, 5100 Edgewood Dr, Mounds View, MN 55112-4994","55112-4994",45.09548568725586,-93.20113372802734
"55112","Saint Paul","MN","Anytime Fitness","3673 Lexington Ave","55126",45.051819,-93.14831
"55112","Saint Paul","MN","Homewood Suites Gym","not_available","55112",45.0786513062956,-93.18703193432493
"55112","Saint Paul","MN","Crossfit Northern Lights","2250 Woodale Dr","55112",45.09586715698242,-93.1970443725586
"55112","Saint Paul","MN","Phenix Personal Training","2541 Highway 10 NE","55112",45.10599899291992,-93.20999145507812
"55112","Saint Paul","MN","New Brighton Community Center","400 10th St NW","55112",45.0659394317758,-93.19132412195229
"55112","Saint Paul","MN","P90X BRING IT GYM","3746 Stinson Blvd","55421",45.036693,-93.22738299999999
"55112","Saint Paul","MN","Pure Barre","3833 Lexington Ave N Ste 105","55126",45.056888580322266,-93.14783477783203
"55112","Saint Paul","MN","Anytime Fitness","2701 39th Ave NE","55421",45.03892,-93.21997
"55112","Saint Paul","MN","Equinox Gym","not_available","55421",45.04011662234433,-93.2240634058494
"55112","Saint Paul","MN","The Francko-Venti You Eat It, We Burn It Fitness Corral","666 McCallum Dr","55112",45.037479,-93.20394300000001
"55112","Saint Paul","MN","Minnesota Muscle","2544 County Rd I","not_available",45.10708409179439,-93.21262281731713
"55112","Saint Paul","MN","YMCA Downtown St. Paul","6th Street","55101",45.116976,-93.156112
"55112","Saint Paul","MN","Snap Fitness","2216 County Road D W Ste D","55112",45.03482958224784,-93.19409508627376
"55112","Saint Paul","MN","Acceleration North","3808 Dunlap St N","55112",45.05684301992371,-93.14963685716641
"55112","Saint Paul","MN","Boston Scientific Fitness Center","4211 Lexington Ave N","55126",45.06758511019451,-93.14877291273211
"55112","Saint Paul","MN","The Landings Gym","2551 38th Ave NE","55421",45.037074,-93.224238
"55113","Saint Paul","MN","LA Fitness","2420 Cleveland Ave N","55113",45.0132425295702,-93.18510684314965
"55113","Saint Paul","MN","CorePower Yoga","2480 Fairview Ave North, Suite 155","55113",45.01657426002425,-93.17505687475199
"55113","Saint Paul","MN","Snap Fitness","2800 Rice St","55113",45.025814329566906,-93.10602564031498
"55113","Saint Paul","MN","Orangetheory Fitness","2195 Snelling Ave N","55113",45.00727844238281,-93.16748809814453
"55113","Saint Paul","MN","Fitness Center","500-656 Sandhurst Dr W","55113",45.00739113228803,-93.12253990956175
"55113","Saint Paul","MN","Roseville Corporate Center Workout Room","2700 Snelling Ave N","55113",45.02335739135742,-93.1626205444336
"55113","Saint Paul","MN","Shape Me Fitness","2770 Rice St","55113",45.024623,-93.10559599999999
"55113","Saint Paul","MN","Lifetime Outdoor Spin Class","Marquette plaza","55401",45.01369176868204,-93.18582044314941
"55113","Saint Paul","MN","Curves for Women","1537 Larpenteur Ave W","55113",44.992136,-93.165324
"55113","Saint Paul","MN","Rosedale Estates North Gym","Roseville","55113",45.02673625946045,-93.10730695724487
"55113","Saint Paul","MN","Fairview Community Center","1910 County Road B W","55113",45.005668983841154,-93.18131446838379
"55113","Saint Paul","MN","Maximus Nutrition","1700 Lexington Ave N","55113",44.992618560791016,-93.14637756347656
"55113","Saint Paul","MN","Rosedale Estates South Gym","2755 Rice St","55113",45.024079,-93.107487
"55113","Saint Paul","MN","Curves for Women","2900 Rice St","55113",45.02879333496094,-93.10514068603516
"55113","Saint Paul","MN","The Lexington's Gym","2775 Lexington Ave N","55113",45.02531984412912,-93.14971566723932
"55113","Saint Paul","MN","Roseville Ice Arena Skating Center","2661 Civic Center Dr","55113",45.021562,-93.150445
"55113","Saint Paul","MN","Office Fitness Center","2815 Cleveland Ave N","55113",45.027259826660156,-93.18809509277344
"55113","Saint Paul","MN","Anytime Fitness","2680 Rice St","55117",45.02202,-93.10548
"55116","Saint Paul","MN","Anytime Fitness 7th St","2501 7th St W","55116",44.902386,-93.17103399999999
"55116","Saint Paul","MN","Highland Ridge Hottub & Pool","2285 Stewart Ave","55116",44.903038024902344,-93.16162109375
"55116","Saint Paul","MN","Snap Fitness","Stonebridge Rd","55118",44.89978727384366,-93.13960148469356
"55116","Saint Paul","MN","Hillcrest Rec Center Workout Room","1960-1998 Ford Pkwy","55116",44.91751168333333,-93.18334401666667
"55116","Saint Paul","MN","The Pointe At River crossing gym","not_available","55116",44.89992889871581,-93.17275678222032
"55116","Saint Paul","MN","Work It Out","Around","not_available",44.91758,-93.170498
"55117","Saint Paul","MN","LA Fitness","71 Minnesota Ave","55117",45.01352685334123,-93.09455012444786
"55117","Saint Paul","MN","Anytime Fitness","1686 Lexington Ave N","55113",44.99239,-93.14574
"55117","Saint Paul","MN","Hillsborough Workout Room","240 Grandview Ave W","55113",45.012264251708984,-93.11015319824219
"55118","Saint Paul","MN","Goga Studios Mendota Heights","750 Main St Ste 108","55118",44.884647369384766,-93.12211608886719
"55118","Saint Paul","MN","LA Fitness","1611 Robert St S","55118",44.89769305491943,-93.08115805041021
"55118","Saint Paul","MN","Anytime Fitness","1201 S Robert St Ste 2","55118",44.90929,-93.08175
"55118","Saint Paul","MN","Anytime Fitness","756 North Plaza Dr","55120",44.8818,-93.12394
"55119","Saint Paul","MN","Snap Fitness","1807 Geneva Ave N","55128",44.97559081427861,-92.9847420594714
"55119","Saint Paul","MN","LA Fitness","408 Oday St S","55119",44.928619384765625,-92.98983764648438
"55119","Saint Paul","MN","3M Center - Fitness Center, Building 220","3M Road","not_available",44.95188639420807,-92.99663608331238
"55119","Saint Paul","MN","Gym","177 McKnight Rd N","55119",44.9471,-93.006557
"55119","Saint Paul","MN","Bells Underground","715 Ferndale St S","55119",44.919921875,-92.99172973632812
"55120","Saint Paul","MN","Futhold Soccer Center","2614 Northland Dr","55120",44.86415316,-93.17064517
"55120","Saint Paul","MN","LPS Workout Room","1270 Northland Dr, Mendota Heights, MN 55120","55120",44.86241149902344,-93.15912628173828
"55120","Saint Paul","MN","CrossFit Mendota","2535 Pilot Knob Rd #122","55120",44.864158630371094,-93.1693115234375
"55121","Saint Paul","MN","Orangetheory Fitness","3325 Central Park Commons Dr","55121",44.83662374090161,-93.17047161250736
"55121","Saint Paul","MN","Eagan Community Center","1501 Central Pkwy","55121",44.83930100542007,-93.17215367314462
"55121","Saint Paul","MN","Training HAUS","2645 Vikings Cir Ste 200","55121",44.85879790103929,-93.11713356633987
"55121","Saint Paul","MN","Union Fitness","not_available","55121",44.851229,-93.147948
"55121","Saint Paul","MN","Exercise Room At Carriage Hills","not_available","55123",44.830952268388174,-93.14277774363408
"55121","Saint Paul","MN","Northern Elite All Star Cheerleading","2995 Lone Oak Cir #3","55121",44.84872817993164,-93.1436767578125
"55121","Saint Paul","MN","Fitness Center @ BCBSM Yankee Place","not_available","55122",44.8328428919336,-93.19529367244736
"55121","Saint Paul","MN","farrell's extreme bodyshaping","1278 Town Centre Dr","55123",44.830555024176284,-93.16207924191299
"55122","Saint Paul","MN","Life Time Fitness","1565 Thomas Center Dr","55122",44.791516,-93.180891
"55122","Saint Paul","MN","Curves - Eagan West","4130 Blackhawk Rd","55122",44.80576705932617,-93.19536590576172
"55122","Saint Paul","MN","F45 Training Eagan West","2139 Cliff Rd","55122",44.791053,-93.216761
"55122","Saint Paul","MN","Pure Barre","1380 Duckwood Dr Ste 108","55123",44.826942443847656,-93.1650619506836
"55122","Saint Paul","MN","Renegade","4576-4598 Scott Trail","55122",44.7846906748512,-93.2137978068468
"55122","Saint Paul","MN","The Power Room","not_available","55126",44.807246662030295,-93.20702228021824
"55122","Saint Paul","MN","Anytime Fitness","1981 Silver Bell Rd Ste 1800","55122",44.82065,-93.20529
"55122","Saint Paul","MN","Fitness Center","1950 Rahncliff Ct","55122",44.78776931762695,-93.20579528808594
"55122","Saint Paul","MN","Snap Fitness - Eagan","1960 Cliff Lake Rd","55122",44.79391703553269,-93.2050850774815
"55122","Saint Paul","MN","Body Blast Studio","2020 Silver Bell Rd","55122",44.82030487060547,-93.21135711669922
"55122","Saint Paul","MN","Gleason's Gymnastics School","2015 Silver Bell Rd Ste 180","55122",44.821379103049814,-93.20795318021771
"55122","Saint Paul","MN","Undisputed Strength and Conditioning - Hellcat CrossFit Eagan","4130 Blackhawk Rd Ste 112-114","55122",44.805749,-93.194785
"55123","Saint Paul","MN","Eagan YMCA","550 Opperman Drive","55123",44.82727887,-93.10835977
"55123","Saint Paul","MN","Snap Fitness","525 Diffley Rd","55123",44.80561476507711,-93.10797976659997
"55123","Saint Paul","MN","Fitness 19","4250 Lexington Ave S","55123",44.80320176500866,-93.1426872014779
"55123","Saint Paul","MN","Anytime Fitness","1012 Diffley Rd","55123",44.80372,-93.13869
"55123","Saint Paul","MN","Snap Fitness","1340 Duckwood Dr","55123",44.8273005165065,-93.16283982485658
"55124","Saint Paul","MN","Apple Valley Senior High School","14450 Hayes Rd","55124",44.74236857817318,-93.23091989712329
"55124","Saint Paul","MN","CorePower Yoga","7586 W 150th Street, Suite 6A","55124",44.73064295275176,-93.21975031779095
"55124","Saint Paul","MN","Fonda's","7759 142nd St W","55124",44.74373,-93.221817
"55124","Saint Paul","MN","Anytime Fitness","6520 150th St W Ste 100","55124",44.73135,-93.19915
"55125","Saint Paul","MN","Anytime Fitness","1125 Woodbury Dr","55129",44.93218571,-92.90392814
"55125","Saint Paul","MN","Xperience Fitness","1555 Queens Dr","55125",44.92624919027732,-92.95590988195305
"55125","Saint Paul","MN","Snap Fitness","1750 Weir Dr","55125",44.92483590409994,-92.97387803996789
"55125","Saint Paul","MN","Conquer Ninja Athletics","707 Commerce Dr Ste 120","55125",44.940671,-92.913833
"55125","Saint Paul","MN","Life Time Fitness","675 Commons Dr","55125",44.939387,-92.93194
"55125","Saint Paul","MN","CYCLEBAR","265 Radio Dr Ste E","55125",44.943751,-92.932089
"55125","Saint Paul","MN","gold's Gym Studio 1","1555 Queens Dr, Woodbury, MN 55125","55125",44.926361083984375,-92.95789337158203
"55125","Saint Paul","MN","Orangetheory Fitness","530 Woodbury Dr","55125",44.940965000000006,-92.90408000000001
"55125","Saint Paul","MN","Snap Fitness - Woodbury","9900 Valley Creek Rd","55125",44.92055759721162,-92.90503590370335
"55125","Saint Paul","MN","F45 Training Woodbury","650 Commerce Drive","55125",44.942475,-92.91354
"55125","Saint Paul","MN","Crossfit Woodbury","680 Commerce Dr #110","55125",44.94437079453366,-92.91474773620448
"55125","Saint Paul","MN","RAD Boot Camp (Kinetic Edge)","779 Bielenberg Dr Ste 103","55125",44.93903488468437,-92.95237731983921
"55125","Saint Paul","MN","Woodbury Park At City Centre Gym","2150 Vining Dr","55125",44.91762924194336,-92.92858123779297
"55125","Saint Paul","MN","Fitaholic Fitness Woodbury","707 Commerce Drive Suite 300","55125",44.940634,-92.9140065
"55125","Saint Paul","MN","REDLine Human Performance","1524 Woodlane Dr","55125",44.926699,-92.966262
"55125","Saint Paul","MN","Woodland Club Fitness Center","6850 Ashwood Rd, Woodbury, MN 55125","55125",44.94752883911133,-92.96795654296875
"55125","Saint Paul","MN","CorePower Yoga","8160 Coller Way, Suite C","55125",44.9375742,-92.9402751
"55125","Saint Paul","MN","Perpetual Motion","257 Rivertown Dr","55125",44.94556581286368,-92.90996721211923
"55125","Saint Paul","MN","Anytime Fitness","755 Bielenberg Dr.","55125",44.93792,-92.95359
"55125","Saint Paul","MN","Pure Barre","1605 Queens Dr Ste 102","55125",44.92561891484353,-92.95829590895073
"55125","Saint Paul","MN","Premier Fitness Studio","3100 Woodbury Dr","55129",44.904287674764426,-92.90405005824377
"55126","Saint Paul","MN","Blue Star Fitness Room","4660 Churchill St","55126",45.081729888916016,-93.1427230834961
"55126","Saint Paul","MN","Turbo Fire Fitness Club","328 Oakwood Dr","55126",45.111759185791016,-93.11466979980469
"55126","Saint Paul","MN","Carmen's P90X Studio, Shoreview","Oakwood Drive","55126",45.11178193418623,-93.11464365845255
"55126","Saint Paul","MN","Bravo Fitness","3999 Rice St","55126",45.062590688467026,-93.10675643384457
"55126","Saint Paul","MN","The Power Room","Rice Street","55126",45.04812147541858,-93.11153515957348
"55126","Saint Paul","MN","Fitness Center - Hilton Garden Inn","1050 Gramsie Rd","55126",45.06043243408203,-93.14442443847656
"55127","Saint Paul","MN","Xperience Fitness","905 Co Rd E East","55127",45.05138793506754,-93.0638803512345
"55129","Saint Paul","MN","City Walk Fitness Center","10225 City Walk Dr","55129",44.943386,-92.899661
"55129","Saint Paul","MN","Total Cycling Performance","7420 Military Rd","55129",44.87504380972818,-92.95570489947511
"55129","Saint Paul","MN","iLoveKickboxing.com","2230 Eagle Creek Lane, Suite H","55129",44.91596019510628,-92.90207458399198
"55301","Albertville","MN","STMA Knights Activity Center","not_available","55301",45.23448782342444,-93.69120997568056
"55301","Albertville","MN","Farrell's Extreme Bodyshaping","5262 Kyler Ave NE","55301",45.22677,-93.66501
"55301","Albertville","MN","Wendy's Gym","4918 Kagan Ave NE","55301",45.22234354906681,-93.68288014204953
"55301","Albertville","MN","Rockford Co-Rec Volleyball","not_available","55313",45.233191367240394,-93.64801976377542
"55301","Albertville","MN","Anytime Fitness","6589 Laketowne Pl NE","55301",45.24717,-93.66169
"55303","Anoka","MN","Anytime Fitness","7876 Sunwood Dr.NW Ste 100A","55303",45.2352,-93.46725
"55303","Anoka","MN","Anytime Fitness","3450 Bunker Lake Blvd NW","55304",45.21894114325802,-93.3537010309169
"55303","Anoka","MN","Snap Fitness","103 St Francis Blvd","not_available",45.223694248042584,-93.39684140369529
"55303","Anoka","MN","Koru Fitness","14007 Saint Francis Blvd","55303",45.22552359918393,-93.39683161804182
"55303","Anoka","MN","Anytime Fitness","5922 167th Ave NW","55303",45.27296,-93.41754
"55303","Anoka","MN","Fitness 19","13050 Riverdale Dr NW","55448",45.20814550129429,-93.3606437821504
"55303","Anoka","MN","Snap Fitness","12460 Champlin Dr","55316",45.18013,-93.393293
"55303","Anoka","MN","Sala De Fitness","not_available","55303",45.23107050538278,-93.40363785717662
"55303","Anoka","MN","LifeStyle Fitness","13735 Round Lake Blvd NW","55304",45.2198896098924,-93.35607353381506
"55304","Andover","MN","Snap Fitness Andover","1574 154th Ave NW #104","55304",45.24873733520508,-93.30525207519531
"55304","Andover","MN","Andover YMCA","15200 Hanson Boulevard Northwest","55304",45.24652639,-93.3084802
"55304","Andover","MN","Fitaholic Fitness Ham Lake","13352 Aberdeen St NE Ste C","55304",45.213365725956244,-93.23322382513123
"55304","Andover","MN","Gym Fitness 19","13050","55443",45.20803994,-93.3214567
"55304","Andover","MN","Jam Hops Gymnastics, Dance, Cheer & Leap-N-Learn","1460 133rd Lane NE","55304",45.212097109673365,-93.23214600602286
"55304","Andover","MN","FXB Andover","2246 Bunker Lake Blvd NW","55304",45.21923828125,-93.32269287109375
"55304","Andover","MN","Ascension Fitness Training","1321 Andover Blvd NE Ste 106","55304",45.2377307,-93.2366149
"55304","Andover","MN","Fitaholic Fitness Andover","1714 Bunker Lake Blvd NW","55304",45.218691,-93.30855799999999
"55304","Andover","MN","Crossfit Ham Lake","not_available","55304",45.227234,-93.238818
"55304","Andover","MN","Fitaholic Fitness","13352 Aberdeen St NE","55304",45.21306228637695,-93.23336029052734
"55304","Andover","MN","Life Style Fitness","13658 Highway 65 NE","55304",45.218509674072266,-93.23545837402344
"55304","Andover","MN","Anytime Fitness","1460 133rd Ln NE Unit B","55304",45.21216,-93.23216
"55305","Hopkins","MN","Anytime Fitness","11104 Cedar Lake Rd","55305",44.95317,-93.41929
"55305","Hopkins","MN","Planet Fitness","11323 MN-7","55343",44.933867,-93.424529
"55305","Hopkins","MN","Ridgedale YMCA","12301 Ridgedale Drive","55305",44.96481,-93.43473
"55305","Hopkins","MN","Snap Fitness","15 8th Ave N","55343",44.92524090051579,-93.40989657532003
"55305","Hopkins","MN","Fitness on Request","11104 Cedar Lake Rd, Minnetonka, MN 55305","55305",44.9529914855957,-93.41964721679688
"55305","Hopkins","MN","Mini-Hops Rec Open Gym","131 Cheshire Ln Ste 100","55441",44.97704864500706,-93.45882654190063
"55305","Hopkins","MN","CYCLEBAR","12401 Wayzata Blvd Ste 2085","55305",44.96767610000001,-93.4365661
"55305","Hopkins","MN","Gym @ Marriott Minneapolis West","9960 Wayzata Blvd","55426",44.974916,-93.408427
"55305","Hopkins","MN","S.W.E.A.T.","2837 Hedberg Dr, Minnetonka, MN 55305","55305",44.94967006103151,-93.41915089766974
"55305","Hopkins","MN","Parkone Gym","not_available","55305",44.97697444593942,-93.40769373813704
"55305","Hopkins","MN","Boudior","301 Shelard Pkwy","55426",44.977641,-93.407877
"55305","Hopkins","MN","Interchange Gym","600 Ford Rd, St Louis Park, MN 55426","55426",44.97533731044517,-93.4028548164634
"55305","Hopkins","MN","Shelard Village Apartments - Gym","400 Ford Rd","55426",44.97648405,-93.40369036
"55305","Hopkins","MN","LA Fitness","1710 State Highway 7","55343",44.93209148046107,-93.42171696464118
"55305","Hopkins","MN","Optimum Fitness","10924 Greenbrier Rd","55305",44.95130920410156,-93.41837310791016
"55305","Hopkins","MN","Dojo Karate - Minnetonka","11301 MN-7 #333","55305",44.9334272,-93.42450769999999
"55305","Hopkins","MN","Life Cycle Bike","2200 Plymouth Rd","55305",44.961795806884766,-93.444580078125
"55305","Hopkins","MN","Carlson Fitness Center","301 Carlson Pkwy","55305",44.976436614990234,-93.46607971191406
"55305","Hopkins","MN","CrossFit Minnetonka","2806 Hedberg Dr.","55305",44.9505323,-93.4178574
"55305","Hopkins","MN","Mini-Hops Preschool Open Gym","131 Cheshire Ln Ste 100","55305",44.97776794433594,-93.45869445800781
"55305","Hopkins","MN","Roots Natural Health","not_available","55343",44.924895831976606,-93.40852446024725
"55306","Burnsville","MN","LA Fitness","1801 County Road 42 W","55306",44.74469529196686,-93.3021680775073
"55306","Burnsville","MN","Snap Fitness","1020 County Road 42 E","55337",44.738468170166016,-93.26029205322266
"55306","Burnsville","MN","Coventry Court Workout Room","14661 Chicago Ave","55306",44.737324,-93.261155
"55306","Burnsville","MN","Conquer Ninja Athletics","3203 Corporate Center Dr Ste 190","55306",44.7438313,-93.3201843
"55306","Burnsville","MN","Welcyon, Fitness After 50, Burnsville","14635 County Road 11","55337",44.737553,-93.2580139
"55306","Burnsville","MN","Planet Fitness","14232 Burnhaven Dr","55306",44.744052,-93.294929
"55306","Burnsville","MN","Crossfit South Metro","3200 Corporate Center Dr Ste 114B","55306",44.74530436941779,-93.3193149472595
"55306","Burnsville","MN","Coventry Court","14751 Chicago Ave","55306",44.73612586817085,-93.26239009238657
"55306","Burnsville","MN","HealthPartners Physicians Neck and Back Clinic Burnsville","14300 Nicollet Ct,Suite 335","55306",44.744076,-93.281824
"55306","Burnsville","MN","The Gym","1701 W 143rd St","55306",44.74199295043945,-93.30117797851562
"55306","Burnsville","MN","Fairfield Inn-Burnsville Workout Room","not_available","55306",44.74312447525578,-93.28148200983452
"55306","Burnsville","MN","Soccer Blast Minnesota","3601 W 145th St","55306",44.73967,-93.32564
"55308","Becker","MN","Snap Fitness","14281 Bank St","55308",45.38473129272461,-93.8626937866211
"55308","Becker","MN","Anytime Fitness","14030 Bank St Ste 4","55308",45.39016,-93.86972
"55309","Big Lake","MN","Golds Gym","133 Sandberg Road","55362",45.29587413418058,-93.8030527872653
"55309","Big Lake","MN","BLFD Gym","20430 County Road 43, Big Lake, MN 55309","55309",45.338962325228174,-93.73094658935578
"55309","Big Lake","MN","Xperience Fitness","not_available","55362",45.295904854762476,-93.80305356277748
"55309","Big Lake","MN","Anytime Fitness","570 Humboldt Dr","55309",45.3316,-93.73927
"55309","Big Lake","MN","The Rink","102 Thomas Park Dr","55362",45.295103000000005,-93.79528
"55310","Bird Island","MN","RAF","not_available","55310",44.76727010333276,-94.89536404429485
"55311","Maple Grove","MN","Life Time Fitness","12601 82nd Ave N","55369",45.10346,-93.44011
"55311","Maple Grove","MN","Snap Fitness","9475 Garland Ave","55311",45.12633104977678,-93.49652939412839
"55311","Maple Grove","MN","YogaSix","8056 Wedgwood Ln N","55369",45.10129928588867,-93.44976806640625
"55311","Maple Grove","MN","CorePower Yoga","12872 Bass Lake Rd","55369",45.066337,-93.442629
"55311","Maple Grove","MN","Dojo Karate - Maple Grove","15615 Grove Cir N","55369",45.13450549373617,-93.47790890782534
"55311","Maple Grove","MN","Anytime Fitness","16445 CR-30","55311",45.12458,-93.48916
"55311","Maple Grove","MN","Anytime Fitness","6450 Wedgewood Rd N","55311",45.07083,-93.44805
"55311","Maple Grove","MN","Snap Fitness","13408 Bass Lake Rd","55311",45.0689397287112,-93.44978439927888
"55311","Maple Grove","MN","Data Recognition Corp. Fitness Center","13490 Bass Lake Rd","55311",45.071795725196964,-93.45052511210775
"55311","Maple Grove","MN","Orangetheory Fitness","8121 Wedgwood Ln N","55369",45.10232925415039,-93.45011901855469
"55311","Maple Grove","MN","Hilton Garden Inn Gym","not_available","55311",45.06980514526367,-93.44800567626953
"55311","Maple Grove","MN","Pure Barre","7891 Main St N","55369",45.097807950473296,-93.44193051165678
"55311","Maple Grove","MN","Life Time Fitness","12601 82nd Avenue North","55369",45.1034454,-93.4414074
"55313","Buffalo","MN","Gymnation","1500-1598 1st St NE","55313",45.17206892689381,-93.85024269366603
"55313","Buffalo","MN","Dojo Karate - Buffalo","409 Highway 55 E","55313",45.179435496195254,-93.86964821815491
"55313","Buffalo","MN","Snap Fitness","990 Elm St E #300","55302",45.23249294092206,-94.00421403384063
"55313","Buffalo","MN","Anytime Fitness","610 Crossroads Campus Dr. Ste 101","55313",45.17797,-93.86623
"55313","Buffalo","MN","Fitness Evolution","101 14th St NE","55313",45.18659,-93.87395
"55313","Buffalo","MN","Snap Fitness","8022 State Highway 55","55373",45.08261549427505,-93.72912634549292
"55313","Buffalo","MN","Anytime Fitness","4081 Cedar St","55362",45.28819,-93.80397
"55313","Buffalo","MN","Hotova CrossFit","220 Capitol Dr Ste 100","55313",45.170957002323036,-93.85114789009094
"55313","Buffalo","MN","Dojo Karate - Monticello","9375 Deegan Ave NE Ste 1","55362",45.28614241593525,-93.80802811681059
"55316","Champlin","MN","Anytime Fitness","2421 Coon Rapids Blvd NW","55433",45.16696,-93.32858
"55316","Champlin","MN","Life Time Fitness","11989 Champlin Dr","55316",45.172961,-93.393176
"55316","Champlin","MN","Velocity Sports Performance","8900 109th Ave N #700","55316",45.153921000000004,-93.393097
"55316","Champlin","MN","Anytime Fitness","11460 Marketplace Dr","55316",45.1614936,-93.39004011
"55316","Champlin","MN","Curves","11656 Winnetka Ave N","55316",45.165529798179904,-93.38069181048934
"55317","Chanhassen","MN","Life Time Athletic Chanhassen","2901 Corporate Pl","55317",44.8611801,-93.59471649999999
"55317","Chanhassen","MN","The Transfomation Club","1363 Park Rd Ste A","55317",44.857983000000004,-93.555614
"55317","Chanhassen","MN","warriors cove","Texas Ave S, St Louis Park, MN","55426",44.83529452416649,-93.57440113433998
"55317","Chanhassen","MN","Chanhassen Fitness Revolution","W 79th St.","55317",44.859775633197614,-93.53329980302678
"55317","Chanhassen","MN","Chanhassen Recreational Center","2310 Coulter Blvd","55317",44.861196625759774,-93.57784764487266
"55317","Chanhassen","MN","Chanhassen Pickle Ball Courts","not_available","55317",44.860717,-93.576968
"55317","Chanhassen","MN","Orangetheory Fitness","460 Lake Dr","55317",44.85633563114695,-93.53279125531323
"55317","Chanhassen","MN","Koko FitClub of Chanhassen","820 W 78th St","55317",44.86324427306576,-93.54173284676355
"55317","Chanhassen","MN","Snap Fitness (Gym within corporate office)","2411 Galpin Ct Ste 110","55317",44.84985433090177,-93.58261308465575
"55318","Chaska","MN","Shakopee Community Center","1255 Fuller St S","55379",44.78407857413062,-93.52799942814627
"55318","Chaska","MN","Anytime Fitness","2980 N Chestnut St","55318",44.83013,-93.60418
"55318","Chaska","MN","Victoria Recreational Center","8475 Kochia Ln","55386",44.85080495817199,-93.64527649621063
"55318","Chaska","MN","Orangetheory Fitness","1451 Adams St S","55379",44.7789405597006,-93.538132130981
"55318","Chaska","MN","Victoria Field House","8475 Kochia Lane","not_available",44.85071389972734,-93.6453030114075
"55318","Chaska","MN","Chaska Place Gym","325 Engler Blvd, Chaska, MN 55318","55318",44.80466079711914,-93.61028289794922
"55318","Chaska","MN","Anytime Fitness","1206 Shakopee Town Sq.","55379",44.78365,-93.55478
"55318","Chaska","MN","Curves, Chaska","not_available","55318",44.828873012026314,-93.6037781858605
"55318","Chaska","MN","Snap Fitness","1012 Gateway Drive,","55318",44.803218,-93.578104
"55318","Chaska","MN","Snap Fitness","700 N Chestnut St","55318",44.79071119788162,-93.6018396209625
"55318","Chaska","MN","Snap Fitness","1772 Steiger Lake Ln","55386",44.860069274902344,-93.66230773925781
"55319","Clear Lake","MN","Snap Fitness","not_available","55320",45.41360419851433,-94.05380475915933
"55322","Cologne","MN","Snap Fitness- Waconia","not_available","55387",44.84907150268555,-93.78944396972656
"55322","Cologne","MN","Dehning treadmill","not_available","55322",44.736606178331044,-93.82775224110289
"55322","Cologne","MN","Dojo Karate - Waconia","546 S Elm St","55387",44.8438588,-93.78675369999999
"55324","Darwin","MN","Snap Fitness","70170 218th St","55325",45.063541412353516,-94.3548812866211
"55324","Darwin","MN","Anytime Fitness","2226 E Frontage Rd Ste 200","55355",45.118761,-94.491434
"55328","Delano","MN","Tiger Activity Center","700 Elm Ave E","55328",45.044497110638844,-93.77861462418362
"55328","Delano","MN","Snap Fitness","13th St","55328",45.036613714932,-93.77150336667025
"55328","Delano","MN","My Bodyshop Fitness","Babcock Blvd, Delano, MN 55328","55328",45.03194153082876,-93.80602993431162
"55328","Delano","MN","My Bodyshop Fitness Center","901 Babcock Blvd E","55328",45.0351633,-93.7761405
"55328","Delano","MN","Snap Fitness","605 Lewis Ave N","55388",44.96904754638672,-93.84343719482422
"55330","Elk River","MN","Crossfit Una Stamus","13469 Business Center Dr NW","55330",45.305882671819965,-93.60957744518693
"55330","Elk River","MN","Fitness 101","not_available","55330",45.302785331460925,-93.56858438170937
"55330","Elk River","MN","Anytime Fitness","18850 Dodge St NW","55330",45.313302662304544,-93.55773568153381
"55330","Elk River","MN","The Gym 365","520 Freeport Ave NW, Elk River, MN 55330","55330",45.30733871459961,-93.55931854248047
"55330","Elk River","MN","R2 Studio","815 Highway 10 #103","55330",45.3042668,-93.56923619999999
"55330","Elk River","MN","The Sweat Box","not_available","55398",45.42039611571393,-93.623798527067
"55330","Elk River","MN","Three Rivers Fitness","9201 Quaday Ave NE Ste 101","55330",45.283999816232125,-93.56437959391786
"55330","Elk River","MN","Snap Fitness","19022 Freeport St NW","55330",45.31371717680767,-93.56198514840446
"55331","Excelsior","MN","Anytime Fitness","340 State Hwy 7","55331",44.90019,-93.5635
"55331","Excelsior","MN","Snap Fitness Excelsior","470 Water St","55331",44.90044989665363,-93.56991581656695
"55331","Excelsior","MN","Bayview Fitness Room","2400 Interlachen Rd","55384",44.93443956,-93.63063593333334
"55331","Excelsior","MN","Koko FitClub of Tonka Bay/Excelsior","5633 Manitou Rd","55331",44.90238571166992,-93.58944702148438
"55331","Excelsior","MN","L.A. Basement Gym","not_available","55331",44.899673,-93.627763
"55332","Fairfax","MN","Fairfax Fitness Center","Highway 4","55332",44.527327,-94.711802
"55334","Gaylord","MN","Anytime Fitness","518 Main Ave","55334",44.55336,-94.22262
"55336","Glencoe","MN","Snap Fitness","not_available","55336",44.77115419219709,-94.15356332377135
"55337","Burnsville","MN","Life Time Fitness","1001 W 98th St","55431",44.8235391,-93.2924769
"55337","Burnsville","MN","Orangetheory Fitness","1008 County Rd 42 W","55337",44.74709707601859,-93.29297441320098
"55337","Burnsville","MN","Kennedy Activity Center","150 E 98th St","55420",44.828499014311774,-93.27593095476196
"55337","Burnsville","MN","Burnsville YMCA","13850 Portland Ave S","55337",44.75306905,-93.27000443
"55337","Burnsville","MN","SouthSide Athletic","1121 Riverwood Dr","55337",44.784960054451126,-93.26100509768776
"55337","Burnsville","MN","Skateville Family Rollerskating Center","201 S River Ridge Cir","55337",44.7767476887482,-93.28361776764733
"55337","Burnsville","MN","International Village Clubhouse","96th Street W","55420",44.828365036117376,-93.28136400107768
"55337","Burnsville","MN","YMCA","not_available","55423",44.806111636180525,-93.29834274416257
"55337","Burnsville","MN","SZ Fitness Center","not_available","55337",44.773644,-93.292234
"55337","Burnsville","MN","Fitness Cave","9810 Drew Ave S","55431",44.824865,-93.32786999999999
"55337","Burnsville","MN","USTA Northern Section","not_available","55431",44.82468882,-93.29243394
"55337","Burnsville","MN","Burn Personal Training","726 W 98th St","55420",44.82689169056914,-93.29014999309156
"55340","Hamel","MN","9Round Medina","302 Clydesdale Trl #316, Highway 101 & Highway 55 (in the Target Center)","55340",45.04540189025543,-93.530677318573
"55340","Hamel","MN","Anytime Fitness","5145 County Rd 101 Ste 1010","55340",45.0459,-93.52674
"55340","Hamel","MN","Dojo Karate - Medina","212 Clydesdale Trl Ste 1020","55340",45.045399,-93.527062
"55341","Hanover","MN","Anytime Fitness","10981 4th St NE","55341",45.158258000000004,-93.666503
"55343","Hopkins","MN","The Little Gym of Edina","8223 Highway 7","55426",44.935340100714136,-93.38388344052078
"55343","Hopkins","MN","UnitedHealth Care - On Site Gym","9701 Data Park","not_available",44.8943977355957,-93.40393829345703
"55343","Hopkins","MN","The Grove Strength & Conditioning","6130","55343",44.89233484383228,-93.40627587556418
"55343","Hopkins","MN","Curves","8570 Excelsior Blvd","55343",44.92586510590334,-93.38761273661112
"55343","Hopkins","MN","FountainWood gym","not_available","55436",44.89422,-93.394178
"55343","Hopkins","MN","Hopkins 24 Fit Club","815 Mainstreet","55343",44.92466354370117,-93.41083526611328
"55343","Hopkins","MN","Envision Fitness - Bootcamps & Personal Training","7900 Excelsior Boulevard","55343",44.9270903,-93.380151
"55343","Hopkins","MN","43 Hoops","1002 2nd St NE","55343",44.92856575920873,-93.38741065013018
"55343","Hopkins","MN","Snap Fitness","5757 Sanibel Dr","55343",44.90039522196849,-93.42242928224557
"55343","Hopkins","MN","Flex Appeal Gym","Cambridge St.","55343",44.933921789735614,-93.39167520293131
"55343","Hopkins","MN","Cloud 9 Fitness Center","5601 Smetana Dr","55343",44.901286,-93.402581
"55343","Hopkins","MN","Full Motion Fitness","801 First Street South","55343",44.92396232689932,-93.41859844714506
"55344","Eden Prairie","MN","Life Time Fitness","6233 Baker Rd","55346",44.89034,-93.44684
"55344","Eden Prairie","MN","Fountain Place Gym","Magnolia Trail","55344",44.848455879167105,-93.4418902020027
"55344","Eden Prairie","MN","Watertower Apartments Gym","not_available","55344",44.85727444233451,-93.43381819444775
"55344","Eden Prairie","MN","Life Time Athletic","755 Prairie Center Dr","55344",44.8563077,-93.43733540000001
"55344","Eden Prairie","MN","Champions Hall","7000 Washington Ave S","55344",44.87584137895983,-93.40061306818417
"55344","Eden Prairie","MN","Cigna Fitness Center","11095 Viking Dr","55344",44.86223324795184,-93.41803544992435
"55344","Eden Prairie","MN","Anytime Fitness","14711 Martin Dr","55344",44.86258,-93.46398
"55344","Eden Prairie","MN","Pure Barre","582 Prairie Center Dr Ste 225","55344",44.85269811636186,-93.42914553577651
"55344","Eden Prairie","MN","Sarah's Fitness Center","12125 Technology Dr","55344",44.861122131347656,-93.43888092041016
"55344","Eden Prairie","MN","CorePower Yoga","7739 Flying Cloud Dr","55344",44.86414964291127,-93.42161424458027
"55344","Eden Prairie","MN","Eden Commons","8580 Gweneth Ln","55344",44.84867579061944,-93.42452203459813
"55344","Eden Prairie","MN","Snap Fitness","8767 Columbine Rd","55344",44.84523221711295,-93.4410030525557
"55344","Eden Prairie","MN","Fit Body Bootcamp by Altman Health and Fitness","9940 Hamilton Rd, Eden Prairie, MN 55344","55344",44.88132858276367,-93.40239715576172
"55344","Eden Prairie","MN","Southwest Station Clubhouse Gym","13560 Technology Dr","55344",44.86037412884187,-93.44669453735814
"55344","Eden Prairie","MN","Orangetheory Fitness","8264 Commonwealth Dr","55344",44.85469938424745,-93.43433383587457
"55344","Eden Prairie","MN","Eden Commons","11605 Wilder Dr","55344",44.84943977,-93.42529319
"55344","Eden Prairie","MN","Digital River, Inc Fitness Center","9625 W 76th St","55344",44.864813,-93.40122099999999
"55344","Eden Prairie","MN","Higher Power Training","10360 W 70th St","55344",44.877820579312775,-93.40824782850495
"55345","Minnetonka","MN","Life Time Athletic","3310 County Road 101","55391",44.942775,-93.5034027
"55345","Minnetonka","MN","Anytime Fitness","3428 County Rd 101 S","55391",44.94138,-93.50333
"55345","Minnetonka","MN","Full Strength","3434 Minnetonka Blvd","55345",44.941076,-93.503036
"55345","Minnetonka","MN","Orangetheory Fitness","4703 County Road 101","55345",44.918182373046875,-93.50243377685547
"55345","Minnetonka","MN","QuickHIT Fitness Lab of Deephaven","18128 Minnetonka Blvd","55391",44.94235,-93.51026
"55345","Minnetonka","MN","Snap Fitness","14401-14573 Excelsior Blvd","55345",44.90524619581201,-93.46309516646342
"55345","Minnetonka","MN","Snap Fitness","Hwy 7","55345",44.921197361450915,-93.47580620473828
"55346","Eden Prairie","MN","Fit Body Bootcamp by Altman Health and Fitness","18690 Lake Dr E","55317",44.860931396484375,-93.51255798339844
"55346","Eden Prairie","MN","Healthy Training","6585 Edenvale Blvd #100A","55346",44.88526782995337,-93.45907063112728
"55347","Eden Prairie","MN","Anytime Fitness","10165 Hennepin Town Rd","55347",44.821162096253204,-93.40141654014587
"55347","Eden Prairie","MN","The Lonely treadmill","not_available","55347",44.819944,-93.429676
"55347","Eden Prairie","MN","Farrell's Extreme Bodyshaping","HWY 169","not_available",44.83576498546775,-93.40010340168104
"55347","Eden Prairie","MN","Lincoln Parc Workout Room","12100 Singletree Ln","55344",44.858378394988975,-93.43012511718003
"55349","Howard Lake","MN","Snap Fitness","613 8th Ave","55349",45.06007766723633,-94.07087707519531
"55349","Howard Lake","MN","Vital Fitness","1116 6th street","55349",45.061403,-94.048146
"55350","Hutchinson","MN","Snap Fitness","114 Main St N","55350",44.893663011686655,-94.36960960714237
"55350","Hutchinson","MN","America's Fitness Center","1000-1098 Echo Dr SE","55350",44.87728447497201,-94.37359651761491
"55350","Hutchinson","MN","Rec Center","Harrington St.","55350",44.87952953583514,-94.3815981051581
"55350","Hutchinson","MN","Anytime Fitness","525 S Grade Rd SW","55350",44.87838,-94.37701
"55352","Jordan","MN","Dakotah! Sport and Fitness","2100 Trail of Dreams","55372",44.724577261032465,-93.47850216752852
"55352","Jordan","MN","Anytime Fitness","115 S. Broadway","55352",44.666635,-93.625778
"55352","Jordan","MN","Jordan Community Center","500 Sunset Drive","55352",44.66045379638672,-93.63920593261719
"55352","Jordan","MN","Knippel gym","not_available","56011",44.61247253417969,-93.74729919433594
"55352","Jordan","MN","Golds Gym","not_available","55379",44.73144496474155,-93.53841002104042
"55356","Long Lake","MN","Anytime Fitness","2073 Wayzata Blvd W Ste 300","55356",44.98809,-93.57793
"55357","Loretto","MN","Snap Fitness","145 Railway St W","55357",45.05406,-93.636744
"55359","Maple Plain","MN","Snap Fitness","not_available","55384",44.9360842608966,-93.64233162049271
"55359","Maple Plain","MN","all in 1 fitness","2191 Commerce Blvd","55364",44.93814468383789,-93.66720581054688
"55359","Maple Plain","MN","Anytime Fitness","2200 Commerce Blvd.","55364",44.93885,-93.66516
"55359","Maple Plain","MN","Fit 24 Club","not_available","55359",45.007777000000004,-93.657811
"55368","Norwood Young America","MN","Snap Fitness","not_available","55368",44.77322618635803,-93.9279367167432
"55369","Osseo","MN","Snap Fitness","8507 Jefferson Ln N","55445",45.109173072246726,-93.40073057837095
"55369","Osseo","MN","Ralia Sports Center","8686 Valley Forge Ln N","55369",45.11252343871204,-93.41473715631213
"55369","Osseo","MN","Skye Gym","not_available","55369",45.101265,-93.430868
"55369","Osseo","MN","Anytime Fitness","8829 Jefferson Hwy","55369",45.11435,-93.40287
"55369","Osseo","MN","Ninjas United","8752 Monticello Ln N","55369",45.11341,-93.40491
"55369","Osseo","MN","Eagle Ridge Apartments Gym","7020 Magda Dr","55369",45.081384,-93.405325
"55369","Osseo","MN","Bristlecone Family Fitness","6826 Hemlock Ln N","55369",45.07910919189453,-93.43034362792969
"55369","Osseo","MN","TITLE Boxing Club Maple Grove","11615 Fountains Drive","55369",45.0929212,-93.4273605
"55369","Osseo","MN","Snap Fitness","6272 Boone Ave N","55428",45.06824698594919,-93.3901834487915
"55369","Osseo","MN","Fitness Together - Maple Grove","11250 86th Ave N","55369",45.109637,-93.4243371
"55371","Princeton","MN","Anytime Fitness","2025 2nd St N","55371",45.57094,-93.6033
"55372","Prior Lake","MN","Life Time Fitness","6544 Loftus Lane","55378",44.74967059999999,-93.36225429999999
"55372","Prior Lake","MN","River Valley YMCA","3575 N. Berens Road NW","55379",44.749289,-93.448703
"55372","Prior Lake","MN","The Gold Standard","not_available","55372",44.668108,-93.449121
"55372","Prior Lake","MN","Row House","14166 State Hwy. 13 S.","55378",44.74738317249939,-93.38069696455688
"55372","Prior Lake","MN","Snap Fitness","not_available","55378",44.741741331550124,-93.38128502088443
"55372","Prior Lake","MN","Anytime Fitness","14233 O'Connell Ct.","55378",44.7458,-93.35001
"55372","Prior Lake","MN","Snap Fitness","6304 Egan Dr","55378",44.74722059496861,-93.3594456513147
"55372","Prior Lake","MN","Koko FitClub of Savage","7709 Egan Dr","55378",44.745478000000006,-93.379013
"55372","Prior Lake","MN","iLoveKickboxing - Savage, MN","8160 County Road 42, Ste. 800","55378",44.7483727,-93.3828293
"55372","Prior Lake","MN","Snap Fitness","16731 Lake Village","55372",44.707284730323735,-93.4279946375587
"55374","Rogers","MN","Curves For Women","not_available","55376",45.209343,-93.655462
"55374","Rogers","MN","Larson's BBVI 90 Day Challenge Gym","not_available","55374",45.194837428146066,-93.5662937518629
"55374","Rogers","MN","Snap Fitness","13635 Northdale Blvd","55374",45.2019464762138,-93.55508657544482
"55374","Rogers","MN","Anytime Fitness","14142 Northdale Blvd","55374",45.21084,-93.5552
"55374","Rogers","MN","Dojo Karate - Rogers","21410 136th Ave Ste 102","55374",45.202880714561935,-93.55194154117396
"55374","Rogers","MN","STRIKE Fitness","21897 S Diamond Lake Rd #100","55374",45.19759533955838,-93.55749575768948
"55376","Saint Michael","MN","Snap Fitness","1 Central Ave W","55376",45.21015994862453,-93.665344557053
"55379","Shakopee","MN","Starters Sports Training","1690 Vierling Dr E","55379",44.779920000000004,-93.50169100000001
"55379","Shakopee","MN","Snap Fitness","1282 Vierling Dr E","55379",44.77959799822083,-93.50629545058898
"55391","Wayzata","MN","Life Time Fitness","3600 Plymouth Blvd","55446",45.022734597552436,-93.47527401618696
"55391","Wayzata","MN","Snap Fitness","1400 County Road 101 N Ste H","55447",44.99444018445004,-93.50160519865905
"55391","Wayzata","MN","McMorris Fitness","3255 Garland Ln N","55447",45.01632308959961,-93.49553680419922
"55391","Wayzata","MN","Wayzata Executive Office Park Gym","1907 Wayzata Blvd","55391",44.97179410781335,-93.48666889200639
"55391","Wayzata","MN","Fly Feet Running","881 Lake St. E","55391",44.96903991699219,-93.50605010986328
"55391","Wayzata","MN","Westside Kettlebells And Fitness","not_available","55447",45.01908,-93.493681
"55391","Wayzata","MN","Park Place Gym","14300 34th Ave N","55447",45.01994705200195,-93.46461486816406
"55391","Wayzata","MN","Wolf Studios Health & Fitness","15730 Wayzata Blvd","5539w",44.9716,-93.47806
"55391","Wayzata","MN","Steele Fitness","714 Lake St E","55391",44.96893685627625,-93.51072516394872
"55391","Wayzata","MN","Creo Arts & Dance Conservatory","1250 Wayzata Blvd E","55391",44.97090968,-93.49743369
"55398","Zimmerman","MN","Anytime Fitness","12530 Fremont Ave Ste 300","55398",45.442703,-93.586159
"55398","Zimmerman","MN","Fitness Evolution","26275 Fremont Dr","55398",45.44682465233912,-93.5840864757101
"55401","Minneapolis","MN","Life Time Athletic Target Center","600 North 1st Avenue","55403",44.97941506,-93.27610333
"55401","Minneapolis","MN","Farrell's Extreme Bodyshaping - North Loop","304 6th Ave N","55401",44.9856975,-93.2777882
"55401","Minneapolis","MN","Anytime Fitness","111 Washington Ave N Ste 100","55401",44.98308,-93.27092
"55401","Minneapolis","MN","F45 Training Downtown Minneapolis","365 Nicollet Mall","55401",44.97981,-93.268996
"55401","Minneapolis","MN","The Fitness Center","not_available","55401",44.977402182234414,-93.27339826569941
"55401","Minneapolis","MN","Crossfit 612","201 6th St SE","55414",44.98933792114258,-93.25054168701172
"55401","Minneapolis","MN","CorePower Yoga","501 S Washington Ave, Suite 200","55415",44.978525,-93.261007
"55401","Minneapolis","MN","MW FAME Yoga","not_available","55402",44.978085,-93.270861
"55401","Minneapolis","MN","George Wellbeing Center","651 Nicollet Avenue","55402",44.9772351,-93.2713916
"55401","Minneapolis","MN","Rivergate Gym","115 2nd Ave S","55401",44.981868743896484,-93.26372528076172
"55401","Minneapolis","MN","Fields Fitness","701 Washington Ave N","55401",44.987552642822266,-93.27743530273438
"55401","Minneapolis","MN","Pinnacle Fitness Center","2nd St","55413",44.987214478551536,-93.2585191851833
"55401","Minneapolis","MN","Basset Creek Gym","901 N 3rd St","55401",44.989070892333984,-93.28192138671875
"55401","Minneapolis","MN","Fly Feet Running","15 S 5th St","55402",44.97926430143221,-93.2720782496797
"55401","Minneapolis","MN","Advanced Movement Professionals","800 Washington Avenue North","55401",44.98912981001084,-93.27800273895264
"55401","Minneapolis","MN","Falls And Pinnacle Gym","20 2nd St NE Fl 4","55413",44.98770867607082,-93.25902062880814
"55401","Minneapolis","MN","Graves 601 Hotel Health Club","601 1st Ave N","55403",44.97878646850586,-93.27484893798828
"55401","Minneapolis","MN","Hotel Minneapolis Fitness Center","10th Floor, 219 S 4th St","55401",44.977996826171875,-93.26644897460938
"55402","Minneapolis","MN","Ivy Spa Club","201 S 11th St","55403",44.97166950664812,-93.27255748724578
"55402","Minneapolis","MN","FIT at W Minneapolis-The Foshay","821 Marquette Ave Fl 2","55402",44.974603,-93.271669
"55402","Minneapolis","MN","The Marquette Fitness Center","710 Marquette Ave","55402",44.97629928588867,-93.27147674560547
"55402","Minneapolis","MN","Accenture Tower Fitness Center","333 S 7th St","55402",44.974515865349694,-93.26790207625213
"55402","Minneapolis","MN","Oracle Center Gym","900 2nd Ave S #900","55402",44.973834994318324,-93.2719164018832
"55402","Minneapolis","MN","Marriott City Center Fitness Center","30 S 7th St","55402",44.97743508062811,-93.27302882248587
"55402","Minneapolis","MN","701 Building Gym","701 4th Ave S","55415",44.97440268421478,-93.26727490349258
"55402","Minneapolis","MN","Graves 601 Fitness Center","not_available","601 1st Ave",44.976903582881185,-93.27209522584099
"55402","Minneapolis","MN","Snap Fitness","250 2nd Ave S Ste 280","55401",44.97842811487196,-93.26769450505347
"55402","Minneapolis","MN","Corrective Exercise Specialists","Northstar West","not_available",44.976185,-93.270206
"55402","Minneapolis","MN","Welsh Fitness Center","900 2nd Ave S #P1","55402",44.973697662353516,-93.27185821533203
"55403","Minneapolis","MN","The FIRM","1010 2nd Ave N","55405",44.979266401085404,-93.2933548525398
"55403","Minneapolis","MN","StayFit Athletic Club","1300 Nicollet Mall","55403",44.97068967913172,-93.27786166003989
"55403","Minneapolis","MN","Marquette Place Fitness Center","not_available","55403",44.97008152244909,-93.27683035367465
"55403","Minneapolis","MN","YWCA - Downtown","1130 Nicollet Mall","55403",44.96369100505668,-93.2821989050795
"55403","Minneapolis","MN","Groveland Terrace Gym","52 Groveland Ter","55403",44.96875396390951,-93.29138265930119
"55403","Minneapolis","MN","chateau LaSalle gym","1818 Lasalle Ave","55403",44.964804,-93.279964
"55403","Minneapolis","MN","Oak Grove Tower Fitness Center","215 Oak Grove St","55403",44.966033,-93.281522
"55403","Minneapolis","MN","Loring Way Health Club","210 W Grant St","55403",44.970454,-93.281497
"55403","Minneapolis","MN","Gym @ Millennium Hotel","1313 Nicolette Mall","not_available",44.97093727175832,-93.27484019974496
"55403","Minneapolis","MN","Strength Box Gym","1629 Hennepin Ave #250","55403",44.971736907958984,-93.28607940673828
"55403","Minneapolis","MN","The Miller Gym","1800 Girard Ave S","55403",44.96515655517578,-93.29727172851562
"55404","Minneapolis","MN","Move Fitness Center","2508 Nicollet Ave","55404",44.95705264894684,-93.27794085322768
"55404","Minneapolis","MN","Skinny B*tch Work","1300 East Franklin Avenue","55404",44.962982177734375,-93.25656127929688
"55404","Minneapolis","MN","Big Brother Time","not_available","55404",44.95837542142816,-93.28098765133912
"55404","Minneapolis","MN","Sexton Fitness Room","521 S 7th St","55415",44.97331237792969,-93.26472473144531
"55404","Minneapolis","MN","Si Melby Hall","715 23rd Ave S","55454",44.96573077423151,-93.23916808961921
"55404","Minneapolis","MN","North Central Workout Center","910 Elliot Ave","55404",44.96823275871863,-93.26140391533578
"55404","Minneapolis","MN","Symphony Place Gym","1117 Marquette Ave Fl 7","55403",44.971614326236896,-93.27441930770874
"55404","Minneapolis","MN","Vertical Endeavors Rock Climbing","2540 Nicollet Ave","55404",44.956008696128286,-93.278102768043
"55404","Minneapolis","MN","Loring Park Apts Athletic Center","1300 Yale Pl","55403",44.972599029541016,-93.28105163574219
"55404","Minneapolis","MN","807-813 Fitness","807-813 13th Ave S","55404",44.96784026054744,-93.25486548412651
"55404","Minneapolis","MN","Eitel Fitness Center","1367 Willow St","55403",44.96977021059501,-93.28159212871955
"55405","Minneapolis","MN","Twintown Crossfit","723 W 26th St","55405",44.955390414400604,-93.28913543269883
"55405","Minneapolis","MN","Target HQ: Target Campus West - Fitness Center","3701 Wayzata Blvd","55416",44.96851435155764,-93.32657768771317
"55405","Minneapolis","MN","Weight Room","2808 Hennepin Ave","55408",44.95148849487305,-93.29869079589844
"55405","Minneapolis","MN","Be Complete America","1624 Harmon Pl Ste 300I","55403",44.9713249206543,-93.28580474853516
"55405","Minneapolis","MN","STEELE Fitness","1206","not_available",44.973845325417685,-93.28020594620291
"55405","Minneapolis","MN","Cora McCorvey YMCA","1015 North 4th Avenue","55405",44.98144869,-93.29251822
"55405","Minneapolis","MN","CrossFit Minneapolis","1313 Chestnut Ave","55403",44.97620059098079,-93.28350309567365
"55405","Minneapolis","MN","Wilson Park Tower Fitness Center","1400 Laurel Ave","55403",44.974273602639485,-93.28198023181122
"55405","Minneapolis","MN","Megan K Fitness","2100 Lyndale Ave S Ste B","55405",44.96163558959961,-93.28844451904297
"55406","Minneapolis","MN","YWCA - Midtown","2121 E Lake St","55407",44.948092566505,-93.24154636261993
"55406","Minneapolis","MN","RHS Weight Room","4029 28th Ave S","55406",44.9297187256713,-93.23183552888796
"55406","Minneapolis","MN","Gymnasi-fun","3300","55407",44.942125092342266,-93.24187156614512
"55406","Minneapolis","MN","N2Living","3260 Minnehaha Ave","55406",44.942989349365234,-93.230712890625
"55406","Minneapolis","MN","Anytime Fitness","4725 Hiawatha Ave","55406",44.91792,-93.21618
"55406","Minneapolis","MN","Seeley Gym","4258 40th Ave S","55406",44.925312,-93.21557299999999
"55406","Minneapolis","MN","Southside Kettlebells","3107 E 42nd St","55406",44.926694,-93.22668
"55406","Minneapolis","MN","Snap Fitness","E 46th St.","55406",44.919856046480604,-93.21690399739444
"55406","Minneapolis","MN","Oaks Station Place Fitness Center","not_available","55406",44.91987377415463,-93.22081514220483
"55406","Minneapolis","MN","Los Campeones Gym","2721 E Franklin Ave","55406",44.96271625492018,-93.23163703971561
"55406","Minneapolis","MN","Hiawatha Flats Apartments Workout Room North","3635 E 43rd St","55406",44.92420866835464,-93.21988976630199
"55407","Minneapolis","MN","LiveWell Fitness Center","800 E 28th St","55407",44.95265230441174,-93.26154081779322
"55407","Minneapolis","MN","Top Gun Crossfit","3712 Cedar Ave S","55407",44.93558470647679,-93.24745583380074
"55408","Minneapolis","MN","CycleBar Uptown MPLS","2927 Girard Ave S","55408",44.9488043,-93.2967665
"55408","Minneapolis","MN","CorePower Yoga","2930 Emerson Ave S","55408",44.94892662694906,-93.29474868803572
"55408","Minneapolis","MN","LA Fitness","3001 Hennepin Ave Ste 2210","55408",44.94761627903755,-93.29781419277877
"55408","Minneapolis","MN","Blaisdell YMCA","3335 Blaisdell Avenue","55408",44.9422065,-93.27933
"55408","Minneapolis","MN","Tangletown Crossfit","4632 Nicollet Ave, Minneapolis, MN 55419","55419",44.91844940185547,-93.27825164794922
"55408","Minneapolis","MN","Elan West Fitness Center","2832 Emerson Ave S","55408",44.95057176603034,-93.29490125708267
"55408","Minneapolis","MN","Uptown Lake Apartments Fitness Center","720 W Lake St","55408",44.948829650878906,-93.28909301757812
"55408","Minneapolis","MN","HeartYoga","1408 W Lake St #B","55408",44.9487877,-93.2976137
"55408","Minneapolis","MN","Body Pump! Uptown YWCA","not_available","55408",44.950956,-93.298956
"55408","Minneapolis","MN","Anytime Fitness","2910 Lyndale Ave S","55408",44.94969940185547,-93.28850555419922
"55408","Minneapolis","MN","Kirk DeWindt Personal Trainer","2922 Aldrich Ave S","55408",44.948890686035156,-93.28973388671875
"55408","Minneapolis","MN","Martin Luther King Recreation Center","4055 Nicollet Ave","55409",44.923772451416475,-93.27047351171267
"55408","Minneapolis","MN","Balance Fitness Studio","2902 Garfield Ave","55408",44.94991948119789,-93.28717623894322
"55408","Minneapolis","MN","Bliss Fit LLC","2908 Harriet Ave","55408",44.94987,-93.28591
"55408","Minneapolis","MN","LIME Gym & Yoga","2904 Lyndale Ave S","55408",44.94966125488281,-93.2885513305664
"55408","Minneapolis","MN","Jack's Gym & Wellness Center","2701 Wells Fargo Way Fl 2","55467",44.952131768953265,-93.27011489674244
"55408","Minneapolis","MN","Snap Fitness","1207 Lagoon Ave","55408",44.949102846539546,-93.29488802721282
"55410","Minneapolis","MN","Snap Fitness","5409 Penn Ave S","55419",44.904665808366495,-93.308502530493
"55410","Minneapolis","MN","Elliptical","5816 Abbott Ave S","55410",44.8973274230957,-93.32300567626953
"55410","Minneapolis","MN","Steele Fitness","3918 W 49 1/2 St","55424",44.91265140019401,-93.32954702072041
"55410","Minneapolis","MN","AQ Fit Lab","4420 Drew Ave S Ste B","55410",44.92245101928711,-93.3266830444336
"55410","Minneapolis","MN","Crossfit Linden Hills","not_available","55410",44.922098,-93.326335
"55410","Minneapolis","MN","The Fixx Workout Studio","5004 Xerxes Ave S","55410",44.912551204195424,-93.31928052711262
"55410","Minneapolis","MN","Edina Towers Fitness Center","6300 Barrie Rd","55435",44.887245,-93.323964
"55410","Minneapolis","MN","Transformation Training","2313 W 50th St","55410",44.91228415946555,-93.30934168265568
"55410","Minneapolis","MN","Snap Fitness","4507 France Ave","55410",44.92124211252357,-93.3289428116446
"55411","Minneapolis","MN","North Memorial Fitness Center","3300 Oakdale Ave N","55422",45.01331854009263,-93.32188823141266
"55411","Minneapolis","MN","CrossFit Nordeast","2400 N 2nd St Minneapolis, MN 55411","not_available",45.004024207484356,-93.27936170825784
"55411","Minneapolis","MN","North Community YMCA Youth & Teen Enrichment Center","1711 W Broadway Ave","55411",44.999259,-93.302748
"55411","Minneapolis","MN","SBJ Body Reboot","not_available","55411",45.011173248291016,-93.28779602050781
"55411","Minneapolis","MN","Anytime Fitness","2104 W. Broadway Ave.","55411",45.00338,-93.30721
"55411","Minneapolis","MN","ElseWarehouse Gym","730 Washington Ave N","55401",44.988477397749286,-93.27801781862689
"55411","Minneapolis","MN","North Loop Fitness","800 Washington Ave N","not_available",44.98911527888077,-93.27819427580052
"55411","Minneapolis","MN","The Bar Method","323 North Washington Avenue,","55401",44.984199,-93.274748
"55412","Minneapolis","MN","JJ's ""Poor Man's"" Gym","Thomas","55412",45.0322397532103,-93.31380205288197
"55412","Minneapolis","MN","P90X @home","3900 Aldrich Ave N","55412",45.025917,-93.288977
"55413","Minneapolis","MN","Anytime Fitness","not_available","55418",45.010508,-93.247113
"55413","Minneapolis","MN","Uppercut Boxing Gym","1324 Quincy St NE","55413",45.00134365940752,-93.25133079626119
"55413","Minneapolis","MN","Bodies By Burgoon","1620 Central Ave NE #134","55413",45.00534596883805,-93.24903229943189
"55413","Minneapolis","MN","CorePower Yoga","945 Broadway Street N E, Suite 120","55413",44.999303,-93.2467518
"55413","Minneapolis","MN","NE Yoga Lab","681 17th Ave NE #110","55413",45.00522994995117,-93.2547378540039
"55413","Minneapolis","MN","Pump It Gym","not_available","55413",44.99663602871369,-93.25124136461761
"55413","Minneapolis","MN","Dollhouse Pole Dance Studio","1519 Central Ave NE","55413",45.00427581562667,-93.2468231978985
"55413","Minneapolis","MN","Revolution Cycle + Fitness Studio","1828 Marshall St NE #19","55418",45.007200753249116,-93.27204636954201
"55413","Minneapolis","MN","Marie's Kettlebells","1618 Central Ave NE","55413",45.00433939379774,-93.24828609333463
"55413","Minneapolis","MN","AX Fitness","575 9th St SE Ste 95","55414",44.990101049384876,-93.24245810508728
"55413","Minneapolis","MN","5 Rings Fitness","2303 Kennedy St NE","55413",44.995399475097656,-93.22822570800781
"55413","Minneapolis","MN","The Personal Trainer Academy","945 Broadway St NE","55413",44.99909591674805,-93.24665069580078
"55413","Minneapolis","MN","Hotel Minneapolis Fitness Center","2nd Floor, 215 4th Street","55415",44.987934933333335,-93.25378068333333
"55414","Minneapolis","MN","University Recreation and Wellness Center","1906 SE University Ave","55455",44.97514996368085,-93.22955374720318
"55414","Minneapolis","MN","Anytime Fitness","2718 University Ave SE","55414",44.97171,-93.21801
"55414","Minneapolis","MN","Peik Gymnasium","157 Pillsbury Drive SE","55455",44.97935008135392,-93.23734566775586
"55414","Minneapolis","MN","U Flats","2600 University Ave SE","55414",44.97231298173116,-93.22021006656604
"55414","Minneapolis","MN","Stadium View Workout Room","2508 Delaware St SE","55414",44.971738519252305,-93.22207078263548
"55414","Minneapolis","MN","Grmbo","920 Weeks Ave SE","55414",44.980094,-93.21407
"55414","Minneapolis","MN","Seven Corners gym","1400 S 2nd St","55454",44.974540000000005,-93.24709399999999
"55414","Minneapolis","MN","Solhaus Tower Fitness Room","515 Huron Blvd SE","55414",44.970685,-93.222736
"55414","Minneapolis","MN","Bridgewater Fitness Room","215 10th Ave S","55415",44.97578219894612,-93.25337165870017
"55414","Minneapolis","MN","University Village Fitness Center","2601 University Ave SE","55414",44.97306823730469,-93.21886444091797
"55414","Minneapolis","MN","FloCo Fitness Center","1000 University Ave SE","55414",44.98125982247026,-93.24204186996597
"55414","Minneapolis","MN","Fitness Center","1906 University Ave SE","55414",44.975802,-93.229883
"55414","Minneapolis","MN","Fitness Together Downtown.","1024 washington Ave","not_available",44.975975517306644,-93.25405663381261
"55414","Minneapolis","MN","MDCA Fitness Center","225 Portland Ave","55401",44.97861862182617,-93.25906372070312
"55415","Minneapolis","MN","Snap Fitness","625 4th Ave S","55415",44.975634507332636,-93.26614337361089
"55415","Minneapolis","MN","Village Fitness Center","433 S 7th St","55415",44.97368240356445,-93.26622009277344
"55415","Minneapolis","MN","Star Tribune Fitness Center","not_available","55415",44.975855409788885,-93.26195847271245
"55415","Minneapolis","MN","Humbolt Lofts Gym","720 S 2nd St #410","55401",44.97831296468698,-93.25670204188611
"55415","Minneapolis","MN","Aloft Gym","900 Washington","55401",44.97673823223293,-93.25554816795679
"55415","Minneapolis","MN","Depot Photo Studio","500 Washington Ave S","55415",44.97906435725829,-93.26073211482107
"55416","Minneapolis","MN","Park Nicollet Heart and Vascular Center","6500 Excelsior Blvd","55426",44.930636,-93.362111
"55416","Minneapolis","MN","Performance Running","4940 W 35th St","55416",44.940855653689084,-93.34283466544522
"55416","Minneapolis","MN","Calhoun Beach Athletic Club","2925 Dean Parkway","55416",44.94980010437695,-93.31541362565618
"55416","Minneapolis","MN","LA Fitness","3555 Highway 100 S","55416",44.938680912371865,-93.34690590397828
"55416","Minneapolis","MN","Orangetheory Fitness","5602 Cedar Lake Rd S","55416",44.9641227722168,-93.35055541992188
"55416","Minneapolis","MN","CorePower Yoga","4611 Excelsior Blvd","55416",44.933381141603704,-93.33843178582242
"55416","Minneapolis","MN","Cardio Machines at Life Time Fitness St. Louis Park","5526 Cedar Lake Rd S","55417",44.96167717232449,-93.34997510235524
"55416","Minneapolis","MN","Free Weights at Life Time Fitness St. Louis Park","5527 Cedar Lake Rd S","55418",44.96173747009667,-93.34986796735105
"55416","Minneapolis","MN","Lapakko's Gold's Gym","not_available","55416",44.9345326423645,-93.3409434556961
"55416","Minneapolis","MN","Forté Fitness","6510 W Lake St","55426",44.941281371455354,-93.36127636769973
"55416","Minneapolis","MN","Minikahda Court Apartments Fitness Center","3504 Minikahda Ct","55416",44.939589967722824,-93.33153963088989
"55416","Minneapolis","MN","Blast Boxing & Fitness","5601 Wayzata Blvd","55416",44.969120025634766,-93.35151672363281
"55416","Minneapolis","MN","Vinna Fitness","3550 Dakota Ave S","55416",44.938838958740234,-93.36093139648438
"55416","Minneapolis","MN","Club Room @ The Edge","Ottawa Av S","55416",44.948062225928616,-93.3396664416233
"55416","Minneapolis","MN","LifeCafe","5525 Cedar Lake Rd S","55416",44.96162216536253,-93.34996761205369
"55417","Minneapolis","MN","VA Employee Fitness Center","not_available","55417",44.901509677393484,-93.2062257824507
"55417","Minneapolis","MN","Wallys Gym","Mpls","not_available",44.89887559076171,-93.24095842413296
"55418","Minneapolis","MN","The Cellar Gym","2828 Anthony Ln S","55418",45.01926854498837,-93.20965241089522
"55418","Minneapolis","MN","Fitness Crossroads","2912 Pentagon Dr","55418",45.01559406244145,-93.21957070673983
"55418","Minneapolis","MN","Waldorf's Power Fitness","211 Saint Anthony Pkwy","55418",45.0283088684082,-93.26610565185547
"55419","Minneapolis","MN","Anytime Fitness","5309-25 Lyndale Ave S","55419",44.90602,-93.28773
"55419","Minneapolis","MN","TITLE Boxing Club of Southwest Minneapolis","5450 Lyndale Ave S","55419",44.90379249999999,-93.2883913
"55419","Minneapolis","MN","Studio TimeOut","6001 Lyndale Ave S","55419",44.89409556333197,-93.28777796422999
"55419","Minneapolis","MN","F 45 Training Southwest","5445 Lyndale Ave S","55419",44.903545,-93.288065
"55419","Minneapolis","MN","Snap Fitness","5409 Nicollet Ave","55419",44.90467462727063,-93.27768919447927
"55419","Minneapolis","MN","Mystery Alaska Gym","not_available","55409",44.913355,-93.30136
"55419","Minneapolis","MN","Jones Workout Room","6037 DuPont Ave S","55419",44.89345237584334,-93.29434078346193
"55420","Minneapolis","MN","Anytime Fitness","8599 Lyndale Ave S","55420",44.84854,-93.288
"55420","Minneapolis","MN","Moose's Muscle Madhouse","9136 Fremont Ave S","55420",44.837543,-93.29656899999999
"55420","Minneapolis","MN","Quality Inn & Suites Workout Room","American Blvd.","55420",44.8605337433309,-93.26234810128994
"55420","Minneapolis","MN","Snap Fitness","9505 Lyndale Ave S","55420",44.831202,-93.288534
"55420","Minneapolis","MN","International Village Gym","96th","55420",44.829298635053156,-93.26944077561684
"55420","Minneapolis","MN","Fitness @ Holiday Inn","1201 W 94th St","55431",44.83259,-93.296338
"55421","Minneapolis","MN","Planet Fitness","5045 51st Ct","55421",45.06045194621537,-93.24610344133603
"55421","Minneapolis","MN","Hylander Center","1400 49th Ave NE","55421",45.055605,-93.239804
"55421","Minneapolis","MN","Fire House Gym","555 Mill St NE","55421",45.040321350097656,-93.2575912475586
"55422","Minneapolis","MN","Snap Fitness","4064 Lakeland Ave N","55422",45.03006084097699,-93.33537216988796
"55422","Minneapolis","MN","Beach South Gym","4199 46th Ave N","55422",45.038169860839844,-93.33477020263672
"55422","Minneapolis","MN","Curves","3471 W Broadway Ave","55422",45.018890380859375,-93.32698822021484
"55422","Minneapolis","MN","Octane Basement","not_available","55422",45.03119775127388,-93.3424740533979
"55422","Minneapolis","MN","MetroBeat","not_available","55427",45.021190627600426,-93.36042062888437
"55422","Minneapolis","MN","Robbinsdale Community Gym and Fitness Center","3730 Toledo Ave N","55422",45.022413418446625,-93.34536871607159
"55423","Minneapolis","MN","LA Fitness","6501 Lyndale Ave S","55423",44.8847034011279,-93.28513090355099
"55423","Minneapolis","MN","Orangetheory Fitness","1635 E 66th St","55423",44.883217,-93.250635
"55423","Minneapolis","MN","Anytime Fitness","6401 Richfield Pkwy","55423",44.88664,-93.24875
"55423","Minneapolis","MN","Best Buy Wellness Zone","7601 Penn Ave S","55423",44.86423769228654,-93.30623438606298
"55423","Minneapolis","MN","NeuLife Wellness","6461 Lyndale Ave S","55423",44.8857962464036,-93.2859742641449
"55423","Minneapolis","MN","York Place Apts Fitness Center","not_available","55435",44.87707399795249,-93.31977716416951
"55423","Minneapolis","MN","Radisson fitness center - 2nd floor","not_available","55450",44.876404,-93.244685
"55423","Minneapolis","MN","YogaSix","1624 E 66th St","55423",44.88393783569336,-93.25065612792969
"55423","Minneapolis","MN","Therapy Of Champions","1415 E 66th St","55423",44.883313,-93.254372
"55423","Minneapolis","MN","Gym Candlewood","650 W 78th St","55423",44.86247696666667,-93.2841125
"55423","Minneapolis","MN","Snap Fitness","6441 Lyndale Ave S","55423",44.88540970041402,-93.28678392314956
"55423","Minneapolis","MN","Curves","6603 Queen Ave S","55423",44.883184,-93.309522
"55424","Minneapolis","MN","Welcyon, Fitness After 50","4420 Valley View Road","55424",44.89186,-93.33871
"55425","Minneapolis","MN","Homewood Suites Fitness Center","1st Floor","55425",44.85117918448291,-93.23873946200541
"55425","Minneapolis","MN","Freight Elevator","not_available","55425",44.85510225833235,-93.24109097594653
"55425","Minneapolis","MN","Marriott Fitness Center","2020 American Blvd W","55431",44.86042889113358,-93.24472974555883
"55425","Minneapolis","MN","Snap Fitness","8009 34th Ave S","55425",44.857695,-93.221533
"55425","Minneapolis","MN","Fitness Center","3 Appletree Sq","55425",44.85829544067383,-93.22234344482422
"55425","Minneapolis","MN","Northland Fitness","3500 americian blvd","not_available",44.858305,-93.24032843112946
"55426","Minneapolis","MN","Snap Fitness","5107 Minnetonka Blvd","55416",44.94970485377759,-93.37132215499878
"55426","Minneapolis","MN","Westwood Lake Gym","not_available","55426",44.97304140891101,-93.38743498228602
"55426","Minneapolis","MN","Newport On Seven - Exercise Room","7450 Highway 7","55426",44.93756866455078,-93.3741226196289
"55426","Minneapolis","MN","Paul's House Of Pain","Basement","55426",44.95506182870531,-93.39297258034522
"55426","Minneapolis","MN","Creekside Gym","200 Nathan Ln N","55441",44.98098373413086,-93.40338134765625
"55426","Minneapolis","MN","Gym at Louisianna Oaks","7201 Walker St","55426",44.939098232086465,-93.37069032977737
"55426","Minneapolis","MN","General Mills Fitness Center","1 General Mills Blvd","55426",44.97719865230401,-93.39774544324415
"55426","Minneapolis","MN","CrossFit MSP","7600 W 27th St #201","55426",44.954877002884295,-93.37651690277633
"55427","Minneapolis","MN","New Hope YMCA","7601 42nd Ave N","55427",45.03168098,-93.3773502
"55427","Minneapolis","MN","APEX Personal Training","830 Decatur Ave N","55427",44.988202,-93.39200699999999
"55427","Minneapolis","MN","Fitness Center","6300 Minnesota 55","55427",44.9866409339939,-93.36239576339722
"55427","Minneapolis","MN","Farrell's Extreme Bodyshaping","7550 42nd Ave N","55427",45.03326058458814,-93.37610487657511
"55427","Minneapolis","MN","The Plecko's Gym","30th Ave N","not_available",45.0049295,-93.371557
"55427","Minneapolis","MN","Crossfit City Of Lakes","701 Decatur Ave N #111","55427",44.98616409301758,-93.3942642211914
"55427","Minneapolis","MN","relative strength gym","8808 7th Ave N","55427",44.986255,-93.391599
"55427","Minneapolis","MN","Anytime Fitness","3540 Winnetka Ave N","55427",45.021141,-93.378732
"55427","Minneapolis","MN","Snap Fitness","687 Winnetka Ave N","55427",44.986101475218575,-93.38089386671928
"55427","Minneapolis","MN","Planet Spirit, Inc.","840 Decatur Ave N","55427",44.987895998302875,-93.39269892017579
"55427","Minneapolis","MN","crossfit sisu","701 Decatur Ave N","55427",44.98616409301758,-93.3942642211914
"55428","Minneapolis","MN","Life Time Fitness","4239 Winnetka Ave N","55428",45.0340551,-93.3816543
"55428","Minneapolis","MN","Unstoppable Bodies","8230 47th Ave N","55428",45.04121148960559,-93.38515392381089
"55428","Minneapolis","MN","Anytime Fitness","5580 W Broadway Ave","55428",45.05421,-93.36345
"55428","Minneapolis","MN","CrossFit Twin Cities","5610 International Pkwy","55428",45.05509567260742,-93.39607238769531
"55428","Minneapolis","MN","Golds Gym","not_available","55428",45.08434920562912,-93.3733053412129
"55429","Minneapolis","MN","LA Fitness","1500 Shingle Creek Xing","55430",45.05846049178799,-93.31927059195844
"55429","Minneapolis","MN","keswin gym","not_available","55430",45.06552212447738,-93.31969802389467
"55431","Minneapolis","MN","The Jefferson Activity Center","4001 W 102nd St","55437",44.81731188804328,-93.33279969889112
"55431","Minneapolis","MN","Gym Rat","not_available","55437",44.843943,-93.330668
"55431","Minneapolis","MN","Northwestern Health Sciences Gym","2501 W 84th St","55431",44.85067367553711,-93.31217193603516
"55431","Minneapolis","MN","9Round Fitness","10700 France Ave S","55431",44.80956511,-93.32994038
"55431","Minneapolis","MN","Hilton Fitness Center","3900 American Blvd W","55437",44.85647201538086,-93.33032989501953
"55431","Minneapolis","MN","Pennbrooke Fitness Center","2400 W 102nd St","55431",44.8198356628418,-93.31049346923828
"55431","Minneapolis","MN","Velocity Sports Performance - Bloomington","1701 W 94th St #700, Bloomington, MN 55431","55431",44.83213806152344,-93.30180358886719
"55431","Minneapolis","MN","Blue Point Gym","4400 W 78th St","55435",44.85984420776367,-93.33599853515625
"55431","Minneapolis","MN","M1 Volleyball","1701 W 94th St Ste 300","55431",44.83236302911508,-93.30156576174085
"55431","Minneapolis","MN","Market Pointe Gym","4300 Marketpointe Dr","55435",44.861454010009766,-93.33538818359375
"55432","Minneapolis","MN","Life Time Fitness","1200 East Moore Lake Drive","55432",45.0800874,-93.2389604
"55432","Minneapolis","MN","Curves","1281 Moore Lake Rd","55432",45.08138396100126,-93.23920105610202
"55432","Minneapolis","MN","Snap Fitness","8097 Highway 65 NE","55432",45.114503,-93.241227
"55432","Minneapolis","MN","Georgetown Fitness Building","5750 E River Rd","55432",45.073347999999996,-93.277776
"55432","Minneapolis","MN","Bally Total Fitness","7200 Commerce Cir E","55432",45.098945434318516,-93.26474932989889
"55432","Minneapolis","MN","Aggressive Gentlemen","7153 Commerce Cir W","55432",45.0980552,-93.26769539999998
"55432","Minneapolis","MN","Snap Fitness","6528 University Ave NE","55432",45.08654071523406,-93.26584354326211
"55432","Minneapolis","MN","Protégé Fitness Studios","7245 University Ave NE","55432",45.1004929,-93.26347319999999
"55433","Minneapolis","MN","Emma B Howe Northtown Family YMCA","8950 Springbrook Dr NW","55433",45.132648,-93.273115
"55433","Minneapolis","MN","Farrell's eXtreme Bodyshaping","9618 Colorado Ln N","55445",45.13156452884963,-93.35730423565107
"55433","Minneapolis","MN","VonderLand","123rd Ave NW","55448",45.1935933,-93.27611113
"55433","Minneapolis","MN","A To Z Fitness","11415 Foley Blvd NW","55448",45.17683029174805,-93.27619171142578
"55433","Minneapolis","MN","Gym the Gym","not_available","55433",45.1683248988835,-93.28956782895816
"55433","Minneapolis","MN","Life Time Fitness","2100 Northdale Blvd NW","55433",45.1807604,-93.3207339
"55433","Minneapolis","MN","LA Fitness","6600 96th Ln N","55445",45.13125800509495,-93.36202614281241
"55433","Minneapolis","MN","Snap Fitness","455 99th Ave NW","55433",45.150539504408016,-93.27868240289152
"55433","Minneapolis","MN","Turbo Fire Gym","94th Circle NW","55448",45.137723043299445,-93.26938830223612
"55434","Minneapolis","MN","LA Fitness","100 Northtown Dr NE","55434",45.128206200529526,-93.26220527424277
"55434","Minneapolis","MN","Anytime Fitness","10731 University Ave NE","55434",45.16614,-93.26431
"55434","Minneapolis","MN","TurboFire Gym","not_available","55449",45.17201,-93.233231
"55434","Minneapolis","MN","Conquer Ninja Athletics","1467 101st Ave NE","55449",45.15365982055664,-93.23410034179688
"55434","Minneapolis","MN","Courthouse Raquet & Fitness - Gym","46 Northtown Dr, Blaine, MN 55434","55434",45.12864303588867,-93.26547241210938
"55434","Minneapolis","MN","Tanning bed #1","not_available","55434",45.19549560546875,-93.23320007324219
"55434","Minneapolis","MN","Pure Barre","10450 Baltimore St NE Ste 120","55449",45.160374,-93.2336992
"55434","Minneapolis","MN","Xperience Fitness","12420 Aberdeen St NE","55449",45.195384842322234,-93.23306542290285
"55434","Minneapolis","MN","Fitness 19","11724 Ulysses St NE","55434",45.18359068441582,-93.23868191138418
"55435","Minneapolis","MN","Life Time Edina at Southdale","250 Southdale Center","55435",44.8817707,-93.32540929999999
"55435","Minneapolis","MN","7700 France Fitness","7700 France Ave S, Minneapolis, MN 55435","55435",44.86297218109342,-93.33068115387161
"55435","Minneapolis","MN","Orangetheory Fitness","3523 W 70th St","55435",44.87597395755356,-93.32597909919014
"55435","Minneapolis","MN","LA Fitness","4175 W 76th St","55435",44.86489984432582,-93.33170059366341
"55435","Minneapolis","MN","Anytime Fitness","4451 W 76th St","55435",44.864956,-93.334537
"55435","Minneapolis","MN","Southdale YMCA","7355 York Avenue South","55435",44.86979,-93.31999
"55435","Minneapolis","MN","CorePower Yoga","7495 France Ave S","55435",44.8672018,-93.3264488
"55435","Minneapolis","MN","Workout Room","7700 France Ave S","55435",44.862689,-93.330338
"55435","Minneapolis","MN","york gym","7240 York Ave S, Edina, MN 55435","55435",44.87571526936853,-93.3260027644062
"55435","Minneapolis","MN","2nd Wind Exercise Equipment- Edina","7441 France Ave S","55435",44.867851,-93.32664399999999
"55435","Minneapolis","MN","Pure Barre","7101 France Ave S Ste 201","55435",44.874573999999996,-93.32750899999999
"55435","Minneapolis","MN","Cedars of Edina","7320 Gallagher Dr","55435",44.87002516177826,-93.33253513706508
"55435","Minneapolis","MN","Southdale Fitness Center","6600 France Ave S","55435",44.88132168,-93.32813592
"55435","Minneapolis","MN","Life Time Work","200 Southdale Ctr","55435",44.88113918,-93.32558749
"55435","Minneapolis","MN","Life Time Sport Edina","10 Southdale Ctr","55435",44.87971855,-93.32516714
"55436","Minneapolis","MN","Dojo of Pain Derby Dungeon","9705 Data Park","not_available",44.89022906888164,-93.39408329518118
"55437","Minneapolis","MN","Anytime Fitness","5107 W 98th St","55437",44.82478,-93.34726
"55437","Minneapolis","MN","Life Time Fitness","5250 W 84th St","55437",44.8535251,-93.34681936
"55437","Minneapolis","MN","Staybridge Fitness","8001-8213 Normandale Service Rd","55437",44.85559664,-93.3491478
"55437","Minneapolis","MN","Normandale Lake Exercise Facility","8500 Tower","not_available",44.85669783032536,-93.34906795606886
"55437","Minneapolis","MN","Fitness Center","8000 Norman Center Dr","55437",44.85205820572379,-93.35058306921952
"55437","Minneapolis","MN","Crowne Plaza Workout Room","5401 Green Valley Dr, Bloomington, MN 55437","55437",44.85618279663969,-93.3513509598843
"55437","Minneapolis","MN","Hyland Apt Gym","5200 W 98th St","55437",44.82633590698242,-93.34812927246094
"55437","Minneapolis","MN","Snap Fitness","10800 Nesbitt Ave S","55437",44.80677237489185,-93.35892060118681
"55437","Minneapolis","MN","Le Sweat Box by Carlson Hotels","5120 American Blvd W","55437",44.856953999999995,-93.348507
"55438","Minneapolis","MN","Rolandlab","not_available","55438",44.84358719903908,-93.37692389129434
"55438","Minneapolis","MN","Katun - Workout Room","10951 Bush Lake Rd","55438",44.80496597290039,-93.37519836425781
"55438","Minneapolis","MN","Hampshire Hills Workout Center","10660 Hampshire Ave S","55438",44.80986022949219,-93.37064361572266
"55439","Minneapolis","MN","Opportunity Knocks","7401 Washington Ave S","55439",44.867891,-93.397915
"55439","Minneapolis","MN","Horsepower Strength And Conditioning","7417 Washington Ave S","55439",44.868099212646484,-93.39779663085938
"55439","Minneapolis","MN","Farmhouse Crossfit","7615 Washington Ave S","55439",44.865111,-93.397863
"55439","Minneapolis","MN","Areté HealthFit, Inc.","7037 Cahill Rd","55439",44.875648498535156,-93.36312866210938
"55439","Minneapolis","MN","Obstacle Academy","7399 Bush Lake Rd","55439",44.8684271,-93.35916910000003
"55439","Minneapolis","MN","Gym","not_available","55439",44.86295856392213,-93.35705160826511
"55439","Minneapolis","MN","Velocity Training Center","7505 Ikola Way Ste 201","55439",44.868446999999996,-93.394759
"55439","Minneapolis","MN","TITLE Boxing Club Edina","5237 Edina Industrial Boulevard","55439",44.86382576,-93.35867418
"55439","Minneapolis","MN","Art of Strength - Minnesota","7501 Washington Ave S","55439",44.86692308866997,-93.39765886101348
"55441","Minneapolis","MN","Anytime Fitness","4190 Vinewood Ln N Ste 136","55442",45.02903,-93.447
"55441","Minneapolis","MN","Discover Strength Personal Fitness, Inc.","10160 6th Ave N","55441",44.98562332480666,-93.40932847737712
"55441","Minneapolis","MN","Megan K Fitness","2075 E Center Cir","55441",45.0010986328125,-93.45079040527344
"55441","Minneapolis","MN","BodyFit","3700 Annapolis Ln N","55447",45.0229606628418,-93.45555877685547
"55441","Minneapolis","MN","Orangetheory Fitness","2700 Annapolis Cir N","55441",45.009474341172364,-93.45150771022156
"55441","Minneapolis","MN","FSA","not_available","55441",44.99395372230291,-93.43653863694256
"55441","Minneapolis","MN","CrossFit Sisu","2072 E Center Cir","55441",45.00103628381323,-93.44809336735509
"55441","Minneapolis","MN","HiLo FIT Club","13605 27th Ave N","55441",45.008487701416016,-93.45318603515625
"55442","Minneapolis","MN","Shadow Hills","4540 Nathan Ln N","55442",45.0380049,-93.4051354
"55442","Minneapolis","MN","Prudential Fitness Center","13001 Bass Lake Rd","55442",45.06319808959961,-93.4439697265625
"55442","Minneapolis","MN","Snap Fitness","4445 Nathan Ln N","55442",45.03492866467427,-93.4100782192345
"55442","Minneapolis","MN","Julia's Gym","not_available","55442",45.03791046142578,-93.40509796142578
"55443","Minneapolis","MN","Anytime Fitness","4646 85th Ave N","55443",45.10994,-93.3405
"55443","Minneapolis","MN","The Greens At Edinburgh Workout Room","not_available","55443",45.1115100937254,-93.32988341490227
"55443","Minneapolis","MN","Fit12 Brooklyn Park","1460 85th Ave N","55444",45.1093558,-93.29947380000002
"55445","Minneapolis","MN","Xperience Fitness","7970 Brooklyn Blvd","55445",45.09524302046762,-93.37509176309317
"55445","Minneapolis","MN","NHCC Health and Wellness Center","7411 85th Ave N","55445",45.10598938535786,-93.37460739190323
"55445","Minneapolis","MN","Planet Fitness","8026 Brooklyn Blvd","55445",45.09630528461533,-93.3792134484913
"55446","Minneapolis","MN","Stoneleigh Fitness Center","not_available","55446",45.04794823390423,-93.45436804249431
"55447","Minneapolis","MN","Atria Fitness Center","3033 Campus Drive Suite N100","55441",45.01506805419922,-93.45486450195312
"55449","Minneapolis","MN","Club West Fitness Center","Club west parkway","not_available",45.17322512725738,-93.23036759775323
"55449","Minneapolis","MN","Tracks Brazilian Jiu-Jitsu","1610 99th Ln NE","55449",45.150322,-93.229501
"55449","Minneapolis","MN","Prodigy Martial Arts","1630 101st Ave NE Ste 190","55449",45.153114318847656,-93.22901153564453
"55449","Minneapolis","MN","Snap Fitness","10950 Club West Pkwy Ste 200","55449",45.16942196529214,-93.23137102478566
"55449","Minneapolis","MN","Fitness 1st","10130 Davenport St NE","55449",45.154211229374525,-93.23042122863372
"55454","Minneapolis","MN","University YMCA","1801 University Avenue Southeast","55414",44.97739559,-93.23073664
"55616","Two Harbors","MN","Bodies In Balance","1451 Highway 2","55616",47.03744256702813,-91.66803518791798
"55707","Barnum","MN","C&C Boxing Club and Fitness Center","3761 Front St","55707",46.501703000000006,-92.6944
"55709","Bovey","MN","GRHS Gym","800 NW Conifer Dr","55744",47.247106,-93.542076
"55709","Bovey","MN","Itasca County Family YMCA","400 River Rd","55744",47.22936017635966,-93.5212921799339
"55709","Bovey","MN","Anytime Fitness","1200 SE 4th Ave","55744",47.21843,-93.5228
"55710","Britt","MN","Gulbranson Gym","not_available","55768",47.513215,-92.565957
"55710","Britt","MN","Anytime Fitness","5482 Mountain Iron Dr.","55792",47.51561,-92.56165
"55710","Britt","MN","Minnesota Twistars Gymnstics","not_available","55792",47.521284001224856,-92.53127105207525
"55720","Cloquet","MN","Anytime Fitness","910 SR-33 S","55720",46.70987,-92.45769
"55720","Cloquet","MN","Esko fitness Center","not_available","55733",46.71321,-92.37252
"55731","Ely","MN","Studio North","not_available","55731",47.90582601438203,-91.84312941067573
"55746","Hibbing","MN","Anytime Fitness","3923 1st Ave.","55746",47.40305,-92.94236
"55746","Hibbing","MN","CURRENT ATHLETIC CLUB","11070 W Wegener Rd","55746",47.38172832476048,-92.8451340903901
"55746","Hibbing","MN","Mesaba Athletic Club","1515 7th Ave E","55746",47.43254089355469,-92.93487548828125
"55746","Hibbing","MN","Anytime Fitness","1610 E 25th St","55746",47.4200325012207,-92.91796112060547
"55746","Hibbing","MN","Women's Athletic Club","1101 E 37th St","55746",47.40821075439453,-92.92677307128906
"55746","Hibbing","MN","Snap Fitness","2518 E. Berliner Suite A","55746",47.419587,-92.92268100000001
"55802","Duluth","MN","YMCA","302 W 1st St","55802",46.784628740242056,-92.10316866205518
"55802","Duluth","MN","Marcovich Wellness Center","1810 Catlin Ave","54880",46.71604181158493,-92.08713354456093
"55802","Duluth","MN","St Lukes Cardiac Rehab Gym","not_available","55805",46.79699302692581,-92.08576050717079
"55802","Duluth","MN","Club 105","105 W Superior St","55802",46.786014,-92.099985
"55802","Duluth","MN","baypoint clubhouse","not_available","55802",46.763851165771484,-92.0852279663086
"55802","Duluth","MN","North Star Health & Fitness","2806 Belknap St","54880",46.72039810957586,-92.1197644272241
"55802","Duluth","MN","Superior YMCA","9 N 21st St","54880",46.713910866045936,-92.07741279389262
"55802","Duluth","MN","Fitger's Fitness Center","not_available","55804",46.7922824606323,-92.0905336103687
"55802","Duluth","MN","Z Studio","116 W 1st St","55802",46.78605,-92.100797
"55802","Duluth","MN","Evolve Duluth Fitness Studio","132 E Superior St","55802",46.78875163567457,-92.09554592132812
"55802","Duluth","MN","Lorenzi Boxing","not_available","55806",46.767728,-92.123092
"55802","Duluth","MN","Anytime Fitness","823 Belknap St","54880",46.72107,-92.0907
"55802","Duluth","MN","Curves","1420 Belknap St","54880",46.720314025878906,-92.09905242919922
"55802","Duluth","MN","Basement Laundry/Gym","not_available","54880",46.72538874363781,-92.09791660308838
"55802","Duluth","MN","STEPS","9th Ave E","55805",46.798322,-92.102256
"55803","Duluth","MN","Snap Fitness","4415 E Superior St","55804",46.826996518990555,-92.03371458440031
"55803","Duluth","MN","peak fitness","not_available","55811",46.82766623681079,-92.19557513618264
"55803","Duluth","MN","The Gym","not_available","55803",47.111903,-92.003734
"55803","Duluth","MN","Anytime Fitness","4865 Miller Trunk Hwy","55811",46.82536,-92.19096
"55803","Duluth","MN","Pride Fitness of Duluth, MN","1816 Vermilion Rd","55803",46.823931,-92.068334
"55803","Duluth","MN","Curves","4310 Menard Dr","55811",46.823421478271484,-92.18366241455078
"55805","Duluth","MN","Anytime Fitness","1502 E Superior St","55812",46.80131,-92.0793
"55806","Duluth","MN","Northwood Childrens Services - West","4000 W 9th St","55807",46.757754999999996,-92.15529599999999
"55807","Duluth","MN","Anytime Fitness","215 N. Central Ave.","55807",46.73697,-92.16864
"55810","Duluth","MN","Fitness Center","not_available","55810",46.743496,-92.237102
"55810","Duluth","MN","Crossfit Duluth","2510 Maple Grove Rd","55811",46.807108,-92.172234
"55810","Duluth","MN","Lifetime Wellness Center Of Duluth","4925 Matterhorn Dr","55811",46.804922999999995,-92.170845
"55811","Duluth","MN","801 Summit Ridge Fitness Center","801 Boulder Dr","55811",46.80655288696289,-92.11680603027344
"55811","Duluth","MN","Snap Fitness","102 E Central Entrance","55811",46.79995,-92.13075
"55901","Rochester","MN","Rochester Athletic Club","3100 19th St NW","55901",44.042072962270964,-92.5081893968915
"55901","Rochester","MN","Northgate Health Club","1112 7th St NW","55901",44.031048,-92.480026
"55901","Rochester","MN","Dan Abraham Healthy Living Center - Mayo Clinic","565 1st St SW","55902",44.0230979,-92.4704589
"55901","Rochester","MN","Anytime Fitness","1629 N Broadway Ave","55906",44.04009,-92.46161
"55901","Rochester","MN","CrossFit Detour","945 37th Ave NW","55901",44.036919,-92.521261
"55901","Rochester","MN","Total Solution","7th St Nw","55901",44.023578,-92.479062
"55901","Rochester","MN","Crossfit Credence","3020 Broadway Ave N","55906",44.05532372047123,-92.45367662197579
"55901","Rochester","MN","Prairie Walls Climbing Gym","4420 19th St NW","55901",44.04310660716398,-92.53000801986242
"55901","Rochester","MN","Breathe Yoga Studios","3003 43rd St NW Ste 108","55901",44.068540000000006,-92.506597
"55901","Rochester","MN","iLoveKickboxing - Rochester, MN","3462 55th St NW Ste 200","55901",44.07769821236473,-92.5164613958375
"55901","Rochester","MN","CrossFit Progression","2625 Highway 14 W Ste Hij","55901",44.03435130000246,-92.50119296831443
"55901","Rochester","MN","The Gym","not_available","55901",44.082325,-92.495111
"55901","Rochester","MN","Exercisabilities","2530 North Broadway Avenue","55906",44.0511596,-92.45457119999999
"55901","Rochester","MN","broadway residance GyM","15 1st ST","not_available",44.022938,-92.462783
"55901","Rochester","MN","MRJJA MMA & Fitness Center","4915 US 52 N Suite B","55901",44.07445739053613,-92.50660895401563
"55901","Rochester","MN","CrossFit Epitome","424 37th St NE #2","55906",44.058953136227196,-92.45667278766632
"55901","Rochester","MN","The Club at Shorewood","2205 Second St","55902",44.02172138267749,-92.49477624893187
"55902","Rochester","MN","Rochester Area Family YMCA","709 1st Avenue","55902",44.01551431,-92.46502355
"55902","Rochester","MN","Farrell's XB","1300 Salem Rd SW","55902",44.00404622321319,-92.48515383826106
"55902","Rochester","MN","Pure Barre","154 5th St SW","55902",44.017864,-92.46552199999999
"55902","Rochester","MN","Dan Abraham Healthy Living Center (Generose)","2nd Street SW","55902",44.01924963765642,-92.48252101310116
"55902","Rochester","MN","CrossFit Unshackled","25 9 1/2 St SE","55904",44.011725,-92.46207700000001
"55902","Rochester","MN","4th St Boxing Gym","615 1st Ave SW","55902",44.016363,-92.464938
"55902","Rochester","MN","Orangetheory Fitness","not_available","55902",44.005157,-92.479101
"55904","Rochester","MN","P90X Gym","not_available","55904",44.017817,-92.441553
"55906","Rochester","MN","Snap Fitness","2477 Clare Ln NE","55906",44.04380699568548,-92.44439257905164
"55906","Rochester","MN","9Round Fitness","2571 Clare Ln NE","55906",44.04946,-92.43102192
"55906","Rochester","MN","P90X Gym","not_available","55906",44.05354122957703,-92.42277477619878
"55912","Austin","MN","Holiday Inn Fitness Room","not_available","55912",43.68242680801493,-92.98121550955877
"55912","Austin","MN","YMCA of Austin, MN","704 1st Dr NW","55912",43.67257545672628,-92.97635284680197
"55912","Austin","MN","Anytime Fitness","1301 18th Ave NW","55912",43.683074951171875,-92.99079132080078
"55912","Austin","MN","Lewis Therapy and Fitness","130 3rd Ave NW","55912",43.66945266723633,-92.97576141357422
"55920","Byron","MN","Anytime Fitness","827 High Pointe Dr NE","55920",44.03051,-92.6338
"55920","Byron","MN","Snap Fitness","1407 4th St Ne","55920",44.03414554965688,-92.62156096634246
"55923","Chatfield","MN","Studio 223","223 Main St S","55923",43.84482955932617,-92.18842315673828
"55923","Chatfield","MN","Jackie's Health & Fitness Center","South Main Street","55923",43.845359802246094,-92.1877670288086
"55934","Eyota","MN","Eyota Workout 24/7","not_available","55934",43.98830251035492,-92.22944884855467
"55939","Harmony","MN","Work It Curcuit","not_available","55939",43.5545525,-91.97304249999999
"55944","Kasson","MN","Anytime Fitness","110 Main St W","55944",44.029215,-92.749866
"55944","Kasson","MN","Xtreme Fitness","122 W Main St","55944",44.029324,-92.750485
"55947","La Crescent","MN","Anytime Fitness","112-114 5th Ave S","54601",43.81146,-91.25034
"55947","La Crescent","MN","Coulee Region Boot Camp (Fitness Revolution)","131 6th St","not_available",43.810604000142185,-91.24808925395563
"55947","La Crescent","MN","Studio Fit","400 Main St","54650",43.812291230636404,-91.2509784277224
"55947","La Crescent","MN","Hampton  Inn  Gym","not_available","54601",43.817295,-91.2503
"55947","La Crescent","MN","Posh-Fit","127 6th St.","54601",43.81071066769324,-91.24823958004409
"55947","La Crescent","MN","Flex House","not_available","54603",43.846633,-91.247823
"55947","La Crescent","MN","Premier Fitness","505 King St Ste 5","54601",43.81048140875896,-91.24936350357167
"55947","La Crescent","MN","Holiday Inn Fitness Room","200 Pearl St","54601",43.81185531616211,-91.25444793701172
"55947","La Crescent","MN","Iron Physique","Lacrosse St","54603",43.84656158521294,-91.24794616756509
"55947","La Crescent","MN","Snap Fitness- La Crescent","136 S Walnut St Ste 3","55947",43.82733562196228,-91.30411751470437
"55947","La Crescent","MN","Anytime Fitness","Mormon Coulee Rd & Losey Blvd","54601",43.81157572889104,-91.25055581331253
"55947","La Crescent","MN","CrossFit La Crosse","303 Causeway Blvd","54603",43.825477600097656,-91.25261688232422
"55949","Lanesboro","MN","Coffee Street Fitness","not_available","55949",43.722265,-91.97676899999999
"55952","Lewiston","MN","path to a better you","540 E Main St","55952",43.984491,-91.861395
"55962","Peterson","MN","Mill Street Fitness","310 S Mill St","55971",43.807586669921875,-91.75276184082031
"55963","Pine Island","MN","Hurcules' Gym","not_available","55963",44.221291,-92.67255
"55972","Saint Charles","MN","Cutting Edge Fitness","942 Whitewater Ave","55972",43.968609,-92.065297
"55972","Saint Charles","MN","st. Charles athletic club","925 Whitewater Ave","55972",43.968996000000004,-92.06456800000001
"55975","Spring Valley","MN","Workout 24/7","not_available","55975",43.69046173,-92.39035005
"55976","Stewartville","MN","Anytime Fitness","99 20th St NE","55976",43.870624,-92.486746
"55981","Wabasha","MN","Anytime Fitness","611 Broadway Ave","55981",44.379540999999996,-92.02815
"55987","Winona","MN","Saint Mary's Fieldhouse","701 Terrace Heights","55987",44.044105658089414,-91.69455528259277
"55987","Winona","MN","Snap Fitness","not_available","55987",44.046543,-91.668712
"55987","Winona","MN","Tremplo Finess","not_available","54661",44.00617033867242,-91.43095727170676
"55987","Winona","MN","Anytime Fitness","975 Frontenac Dr","55987",44.03494,-91.61782
"55987","Winona","MN","P90X Gym","157 saint charles street","55987",44.04658885051712,-91.61975383758544
"55992","Zumbrota","MN","snap","not_available","55992",44.292888322232756,-92.67010895696377
"56001","Mankato","MN","Mankato Family YMCA","1401 S Riverfront Dr","56001",44.15936440737718,-94.01905304287565
"56001","Mankato","MN","Otto Recreation Center","Minnesota State University (MNSU)","56001",44.14548405586513,-93.9988194749767
"56001","Mankato","MN","Fitness For $10","1351 Madison Ave","56001",44.166293587682034,-93.97321659799968
"56001","Mankato","MN","Anytime Fitness","600 S. Riverfront Dr","56001",44.16295,-94.00983
"56001","Mankato","MN","Skala Gym","not_available","56003",44.167713,-94.021327
"56001","Mankato","MN","Kato CrossFit","not_available","56001",44.18167904029376,-93.98922179281614
"56001","Mankato","MN","Curves","1826 Commerce Dr","56003",44.17971420288086,-94.04008483886719
"56001","Mankato","MN","Build N Tone","340 Stadium Rd","56001",44.146036724414316,-93.9879631863298
"56001","Mankato","MN","X-Force Fitness","103 Homestead Rd","56001",44.14920310437753,-93.98827370756638
"56001","Mankato","MN","Snap Fitness","1754 Commerce Dr #101","56003",44.17924556386234,-94.03788328170776
"56001","Mankato","MN","Anytime Fitness","1751 N. Victory Dr","56001",44.18193,-93.95467
"56001","Mankato","MN","JP Fitness","1400 Madison Ave Ste # Ste 50","56001",44.1692769,-93.9718374
"56003","Mankato","MN","Nicollet Recreation Center","not_available","56074",44.28047031674577,-94.18593982393138
"56007","Albert Lea","MN","YMCA","303-499 Wedgewood Rd","56007",43.64676450122959,-93.39804388664507
"56007","Albert Lea","MN","Anytime Fitness","2508 Bridge Ave","56007",43.68194,-93.35643
"56007","Albert Lea","MN","Snap Fitness","Parkway Plaza","56007",43.66424928898312,-93.32834863345609
"56011","Belle Plaine","MN","Snap Fitness","320 Laredo St S","56011",44.61853931357232,-93.75618180326822
"56031","Fairmont","MN","Anytime Fitness","462 S State St Five Lks Ctr","56031",43.64936,-94.44897
"56048","Janesville","MN","janesville tanning and fitness","not_available","56048",44.1132841468891,-93.71536637489672
"56054","Lafayette","MN","Snap Fitness","58615 370th St","56054",44.411938,-94.442303
"56057","Le Center","MN","Snap Fitness","100 E Minnesota St","56057",44.389717,-93.729885
"56058","Le Sueur","MN","Anytime Fitness","100 Dodd Rd","56082",44.34806,-93.95199
"56058","Le Sueur","MN","Le Sueur Community Center","821 Ferry St","56058",44.45727166074274,-93.90536584773905
"56058","Le Sueur","MN","Snap Fitness","not_available","56058",44.46079531806595,-93.91476419770466
"56062","Madelia","MN","Anytime Fitness","3 W. Main St.","56062",44.050968170166016,-94.41657257080078
"56071","New Prague","MN","Snap Fitness","130 Main St W","56071",44.54351759533477,-93.5788287981653
"56071","New Prague","MN","Anytime Fitness","221 Chalupsky Ave. SE.","56071",44.54295,-93.55543
"56071","New Prague","MN","New prague fitness center","410 Central Ave N Ste 300","56071",44.547508239746094,-93.57847595214844
"56073","New Ulm","MN","Anytime Fitness","512 1st  St S","56073",44.312157,-94.45867700000001
"56073","New Ulm","MN","Snap Fitness","1704 Westridge Rd, New Ulm, MN 56073","56073",44.327171325683594,-94.50233459472656
"56073","New Ulm","MN","Vogel Arena","198 S Garden St.","56073",44.30661221362353,-94.46891975764578
"56073","New Ulm","MN","The Slimmer Weigh Weight Loss and Body Wrap Center- Slim Meals","1433 10th St N","56073",44.3146,-94.483005
"56081","Saint James","MN","Anytime Fitness","512 1st Ave. S.","56081",43.98145,-94.628947
"56082","Saint Peter","MN","The Pulse","not_available","56082",44.325718,-93.954324
"56085","Sleepy Eye","MN","Sleepy Eye Fitness Center","not_available","56085",44.297019,-94.723563
"56085","Sleepy Eye","MN","Anytime Fitness","128 Main St E Ste B","56085",44.297494,-94.721901
"56085","Sleepy Eye","MN","Fitness Revolution","not_available","56266",44.40955277824173,-94.93048054749647
"56087","Springfield","MN","Anytime Fitness","220 E Maple St","56087",44.24586868286133,-94.97274780273438
"56093","Waseca","MN","Snap Fitness - Waseca","122 Elm Ave E","56093",44.077377170236005,-93.5065074244991
"56093","Waseca","MN","Anytime Fitness","115 4th St SW","56093",44.07715,-93.51182
"56110","Adrian","MN","T3 Fitness","not_available","56110",43.634757,-95.932806
"56137","Heron Lake","MN","Wellness Center Southwest Star Concept","Milwaukee","56161",43.741383,-95.316451
"56143","Jackson","MN","Body Balance Fitness","602","56150",43.66820722060443,-95.02804176473053
"56143","Jackson","MN","Anytime Fitness","508 2nd St","56143",43.621959000000004,-94.987433
"56156","Luverne","MN","Power Fitness","205 E Main St, Luverne, MN 56156","56156",43.6544568283744,-96.20768549704339
"56156","Luverne","MN","LAAF","not_available","56156",43.649705936822635,-96.20057039819491
"56164","Pipestone","MN","Elkton Fitness Center","117 Elk St","57026",44.23694581966758,-96.4810556273575
"56164","Pipestone","MN","Anytime Fitness","507 8th Ave SE","56164",43.995391,-96.307011
"56187","Worthington","MN","Prairie Fitness","not_available","56187",43.616246865377974,-95.63584226266356
"56187","Worthington","MN","Anytime Fitness","1151 Ryans Rd. Ste. 112","56187",43.636306,-95.599345
"56187","Worthington","MN","YMCA of Worthington","1501 Collegeway","56187",43.62311320932819,-95.62893403816841
"56201","Willmar","MN","City Auditorium","not_available","56201",45.120585,-95.050291
"56201","Willmar","MN","Snap Fitness","300 South Highway 23","56288",45.22501603057523,-94.94067853775942
"56201","Willmar","MN","Snap Fitness","812 1st St S","56201",45.115787,-95.04337
"56201","Willmar","MN","Anytime Fitness","1605 S 1st St","56201",45.10646,-95.042028
"56215","Benson","MN","Snap Fitness","not_available","56215",45.314374,-95.60231999999999
"56223","Clarkfield","MN","I Fit Gym","929 10th street","56223",44.79465277777778,-95.79819444444445
"56241","Granite Falls","MN","Kilowatt Community Center","600 Kilowatt Dr","56241",44.81352702026032,-95.5454137491378
"56258","Marshall","MN","milroy","not_available","56258",44.45015335083008,-95.75999450683594
"56258","Marshall","MN","Anytime Fitness","201 E College Dr","56258",44.448156,-95.78784300000001
"56258","Marshall","MN","Marshall YMCA","200 A Street","56258",44.44411756556167,-95.78774794530915
"56258","Marshall","MN","Milroy Fitness Center","not_available","56180",44.4519882744787,-95.75966151621698
"56265","Montevideo","MN","Snap Fitness 24-7","684-698 N 12th St","56265",44.94924,-95.712733
"56265","Montevideo","MN","Zumba Fitness With Nora Guerra","not_available","56265",44.958853669367684,-95.72006633413474
"56267","Morris","MN","Snap Fitness","not_available","56267",45.588353,-95.916585
"56283","Redwood Falls","MN","Tatanka Bluffs Corridor","200 S Mill St","56283",44.54045104980469,-95.11975860595703
"56283","Redwood Falls","MN","Snap Fitness","Bridge st","not_available",44.54151153564453,-95.11105346679688
"56301","Saint Cloud","MN","Rejuv Medical","901 3rd Street North","56387",45.55953896,-94.22859598
"56301","Saint Cloud","MN","Orangetheory Fitness","110 2nd St S","56387",45.54893018106493,-94.21634408839142
"56301","Saint Cloud","MN","Snap Fitness","24086 Hwy 15","56301",45.47324010874375,-94.2460193897876
"56301","Saint Cloud","MN","Anytime Fitness","1143 2nd St S","56387",45.550025,-94.232105
"56301","Saint Cloud","MN","Energy Zone","not_available","56301",45.55947679823771,-94.15911639141673
"56301","Saint Cloud","MN","Midtown Fitness","3333 W Division St #105","56301",45.55455920393782,-94.2002833075753
"56301","Saint Cloud","MN","Gym","not_available","56387",45.56131467936923,-94.22904540385176
"56301","Saint Cloud","MN","Planet Fitness","2540 W Division St","56301",45.552457,-94.189338
"56301","Saint Cloud","MN","CrossFit Epoch","250 Sundial Dr Ste 1","56387",45.54161704195338,-94.22027669848303
"56301","Saint Cloud","MN","Golds Gym South St. Cloud","1124 Kuhn Dr","56301",45.51696016354636,-94.16297484280572
"56301","Saint Cloud","MN","Granite City Crossfit","410 37th Ave N","56303",45.5615234375,-94.2021713256836
"56301","Saint Cloud","MN","Apex Fitness","700 Division St","56387",45.553097,-94.225893
"56301","Saint Cloud","MN","Crossfit Fast Factory","2605 5th St N","56303",45.562138916512666,-94.18935609795874
"56301","Saint Cloud","MN","Gym","16th Ave S","56301",45.54900588545072,-94.16887578350261
"56301","Saint Cloud","MN","Snap Fitness","not_available","56304",45.56247337141249,-94.13742684832368
"56301","Saint Cloud","MN","Grand River Estates Gym/Pool","4010 Clearwater Rd","56301",45.51284302244328,-94.15699481964111
"56301","Saint Cloud","MN","Sta Fit","3123 Roosevelt Rd","56301",45.51671,-94.16131
"56301","Saint Cloud","MN","Holiday Inn Cardio Room","75 37th Ave S","56301",45.55031204223633,-94.20421600341797
"56301","Saint Cloud","MN","Downtown Gym","220 7th Ave S","56301",45.5577121694456,-94.15794978417883
"56301","Saint Cloud","MN","The Gym at Regency Park Appartments","1615 15th Ave SE","56304",45.54737854003906,-94.13175964355469
"56303","Saint Cloud","MN","Anytime Fitness","225 2nd Ave N","56379",45.59169,-94.16829
"56303","Saint Cloud","MN","Fitness Evolution","805 Co Rd. #120","56377",45.587116,-94.220047
"56303","Saint Cloud","MN","St. Cloud Area Family YMCA","2001 Stockinger Dr","56303",45.5796088795413,-94.17992605325819
"56303","Saint Cloud","MN","Zen Den Basement Gym","not_available","56303",45.568912506103516,-94.1981201171875
"56303","Saint Cloud","MN","Kensington Gym","Co Rd 120","56303",45.5855630046601,-94.2366311159788
"56303","Saint Cloud","MN","H.V. Workout Room","1535 7th Ave S","56377",45.59823989868164,-94.21830749511719
"56304","Saint Cloud","MN","st. cloud golden gloves boxing gym","101 Wilson Ave NE","56304",45.56675561996729,-94.15247437273327
"56307","Albany","MN","Snap Fitness","1550 Railroad Ave","56307",45.63202667236328,-94.58706665039062
"56307","Albany","MN","AT Wellness Center","341 Railroad Avenue","not_available",45.629995,-94.567844
"56308","Alexandria","MN","Anytime Fitness","301 30th Ave W","56308",45.86299,-95.38023
"56308","Alexandria","MN","Cross Fit Repo","602 22nd Ave W","56308",45.867042,-95.385885
"56308","Alexandria","MN","Lakes Area Recreation","not_available","56308",45.88360404308152,-95.37977875318475
"56308","Alexandria","MN","Noonan Sport Specialists","503 Hawthorne St Ste 400","56308",45.886726,-95.375654
"56308","Alexandria","MN","The Gym","not_available","56378",45.88880285102182,-95.3697006471661
"56308","Alexandria","MN","Alexandria Area YMCA","110 Karl Dr","56308",45.8946231,-95.4057293
"56308","Alexandria","MN","Racquetball Plus","112 6th Ave E","56308",45.885663,-95.376855
"56309","Ashby","MN","Destiny Center","not_available","56309",46.03283106781185,-95.83114013592905
"56310","Avon","MN","Palestra","not_available","56374",45.58127988428584,-94.39368041104267
"56312","Belgrade","MN","To B Determined","not_available","56312",45.45534534055006,-95.00127560194636
"56318","Burtrum","MN","Orangetheory Fitness St. Cloud","110 2nd St. Suite 117","56387",45.9157649,-94.6386634
"56327","Farwell","MN","The Club Fit","10081 County Road 138","56301",45.799243,-95.57211
"56329","Foley","MN","JVG Fitness","109 Lone Ridge Ln","56329",45.676466,-93.912678
"56329","Foley","MN","Snap Fitness","Minnesota 25, Foley, MN 56329","56329",45.65993100932915,-93.91957336897327
"56330","Foreston","MN","Snap fitness","not_available","56353",45.74694201089046,-93.66732153958444
"56334","Glenwood","MN","Minnewaska Wellness & Fitness","not_available","56334",45.649737,-95.368015
"56342","Isle","MN","garage gym","955 W Main St, Isle, MN 56342","56342",46.13823850687352,-93.4813657942978
"56342","Isle","MN","IREC","402-798 Mille Lacs Ave","56386",46.13736391067505,-93.47440481185913
"56345","Little Falls","MN","Camp Ripley Wellness Center","not_available","56345",46.09585991769019,-94.35165576921375
"56345","Little Falls","MN","Anytime Fitness","205 16th St NE Ste B","56345",45.976775,-94.338265
"56345","Little Falls","MN","Fitness Connection","505 E Broadway","56345",45.975660999999995,-94.355087
"56345","Little Falls","MN","The Hub","107 Pacific ave","56475",46.09267044067383,-94.50393676757812
"56352","Melrose","MN","Ashley Noel Fitness","36543 335th Ave","56352",45.6513779,-94.80941639999999
"56359","Onamia","MN","Onamia Fitness Center","not_available","56359",46.0847269304837,-93.65324890763014
"56360","Osakis","MN","Osakis strength and fitness","not_available","56360",45.86755275025193,-95.15216316918485
"56361","Parkers Prairie","MN","Theo Gym's","Ngampel","56361",46.2035767,-95.2544183
"56362","Paynesville","MN","Snap Fitness","Dieckman Dr","56362",45.3714736396971,-94.73030090332031
"56364","Pierz","MN","Amp fitness","not_available","56364",45.982302000000004,-94.10548100000001
"56374","Saint Joseph","MN","Snap Fitness","Lake Wobegon Trail","56374",45.56821312087098,-94.30678277512737
"56377","Sartell","MN","Crossfit Fast Factory","234 Pinecone Rd","56377",45.614165684165236,-94.22617584207207
"56377","Sartell","MN","Sartell Fitness 24/7","1090 2nd St S","56377",45.615028381347656,-94.22557830810547
"56377","Sartell","MN","Snap Fitness","1001 7th St N","56377",45.6306757407601,-94.22524453993913
"56377","Sartell","MN","Grandview II Fitness Room","not_available","56377",45.61611964392245,-94.2329395284689
"56378","Sauk Centre","MN","Raise The Bar Fitness","1140 Sinclair Lewis Ave Ste 3","56378",45.737466,-94.9624508
"56379","Sauk Rapids","MN","Deb's Workout Palace","1515 5th Ave N","56379",45.608046,-94.171971
"56401","Brainerd","MN","YMCA","Oak St","not_available",46.35188055742093,-94.19946380621182
"56401","Brainerd","MN","Holiday Inn Fitness Room","not_available","56425",46.36845779418945,-94.24905395507812
"56401","Brainerd","MN","Planet Fitness","14136 Baxter Dr Suite 1, Suite 1","56425",46.357832,-94.222317
"56401","Brainerd","MN","In Motion Fitness","15860 Audubon Way, Brainerd, MN 56401","56401",46.382551626313564,-94.25385756538535
"56401","Brainerd","MN","Anytime Fitness","14091 Baxter Dr Ste 101","56425",46.35595,-94.22654
"56401","Brainerd","MN","Snap Fitness","1301-1499 Minnesota 371 Business","56401",46.3447194,-94.20036536666667
"56401","Brainerd","MN","Anytime Fitness","302 5th Ave NE","56401",46.362343,-94.181726
"56401","Brainerd","MN","FitQuest Athletic Club","15840 Audubon Way","56401",46.383887159674515,-94.25132097038764
"56431","Aitkin","MN","Snap Fitness","10 2nd St NE","56431",46.533188,-93.70623
"56433","Akeley","MN","Walker Area Community Center","105 Tower Ave","56484",47.09372129389957,-94.57444738826065
"56441","Crosby","MN","Crosslake Fitness","not_available","56442",46.639094,-94.116126
"56441","Crosby","MN","Hallett Center","not_available","56441",46.48918094444005,-93.94513273025831
"56443","Cushing","MN","Scandia Valley Gym","7283-7337 County Road 204","56443",46.217376,-94.505423
"56464","Menahga","MN","NAI 24/7 Fitness","Main Street","56464",46.750939994369176,-95.10004092137466
"56468","Nisswa","MN","P90X Eng","not_available","56472",46.57242740766574,-94.33527721528428
"56468","Nisswa","MN","Anytime Fitness","24400 Smiley Rd N","56468",46.50619,-94.29566
"56470","Park Rapids","MN","Park Rapids Fitness Center","Main Ave, S","not_available",46.91647020250046,-95.06254645122425
"56470","Park Rapids","MN","Anytime Fitness","200 Gilbert Ave.","56470",46.920935,-95.054672
"56472","Pequot Lakes","MN","Pelican Center","30199 County Road 4","56472",46.59065246582031,-94.22003936767578
"56472","Pequot Lakes","MN","Snap Fitness","30199 County Road 4 N","56472",46.59063863635843,-94.21998060970131
"56479","Staples","MN","Snap Fitness","not_available","56479",46.354865374375464,-94.79464677183823
"56501","Detroit Lakes","MN","Azure Club Fitness","not_available","56501",46.702624,-95.988234
"56501","Detroit Lakes","MN","Wilson Workout Emporium","not_available","56511",46.87172396420914,-96.02453721098746
"56501","Detroit Lakes","MN","CrossFit Detroit Lakes","1900 E Shore Dr","56501",46.781132880935864,-95.79825338910547
"56501","Detroit Lakes","MN","Anytime Fitness","1647 Hwy 10 W","56501",46.82828,-95.87865
"56514","Barnesville","MN","Anytime Fitness","602 Front St N","56514",46.659,-96.41966
"56515","Battle Lake","MN","Insanity Gym","not_available","56515",46.2600101316262,-95.67820273657378
"56520","Breckenridge","MN","Anytime Fitness","1651 Wheatland Rd","58072",46.2830810546875,-96.62432098388672
"56520","Breckenridge","MN","Wellness Center","2400 St Francis Dr","56520",46.291473388671875,-96.58831787109375
"56520","Breckenridge","MN","Life fitness pro","not_available","56520",46.2630729675293,-96.59354400634766
"56520","Breckenridge","MN","Snap Fitness","Dakota Ave","58075",46.263633,-96.605779
"56520","Breckenridge","MN","Community Center","401-499 3rd Ave S","58075",46.26162968512632,-96.60654029406759
"56529","Dilworth","MN","Pro Fittness","not_available","56529",46.876949239117565,-96.71965109537891
"56529","Dilworth","MN","Anytime Fitness","1710 Center Ave","56529",46.87486,-96.72364
"56529","Dilworth","MN","Snap Fitness","1203 Center Ave W","56529",46.8770945034558,-96.71949535486684
"56537","Fergus Falls","MN","Athletic Republic","619 S Cascade St","56537",46.277689688434364,-96.07208597092416
"56542","Fosston","MN","Anytime Fitness","903 S. Hilligoss Blvd. E.","56542",47.57213,-95.73709
"56549","Hawley","MN","Hawley High School Gymnasium","not_available","56549",46.88389432642906,-96.32024629662524
"56554","Lake Park","MN","Hanson Household","14321 Oak Ridge Rd","56554",46.72374725341797,-96.10433959960938
"56560","Moorhead","MN","Wallman Wellness Center","18th St","58105",46.894532158757656,-96.80790504227147
"56560","Moorhead","MN","YMCA Fercho Branch","400 1st Ave S","58103",46.872705394694684,-96.78669612753058
"56560","Moorhead","MN","Anytime Fitness","2614 N Broadway Ste B","58102",46.91109,-96.78892
"56560","Moorhead","MN","Max Training","1132 28th Ave S","56560",46.84636593480906,-96.75453201622616
"56560","Moorhead","MN","Crossfit Icehouse","1620 1st Ave N","58102",46.88140545894523,-96.77937093357234
"56560","Moorhead","MN","Pure Barre","615 2nd Ave N","58102",46.878328,-96.788878
"56560","Moorhead","MN","Snap Fitness","1375 21st Ave N","58102",46.90738580844761,-96.79948972076463
"56560","Moorhead","MN","TNT Kid's Fitness & Gymnastics Academy","2800 Main Ave","58103",46.87580855281691,-96.82571447967203
"56560","Moorhead","MN","Insanity","not_available","58021",46.81596326926229,-96.83536206341012
"56560","Moorhead","MN","EHP Crossfit","not_available","56560",46.840555,-96.766489
"56560","Moorhead","MN","Welcyon, Fitness After 50, Fargo","2603 Kirsten Ln S","58104",46.83196,-96.8223299
"56560","Moorhead","MN","Stonebridge Apartments Work Out Room","2510 36th Ave S","58104",46.82346439747116,-96.82025682970728
"56560","Moorhead","MN","Snap Fitness","1525 32nd Ave S","58103",46.83312281374276,-96.80391519542334
"56560","Moorhead","MN","Sunlighten Saunas Fargo ND","1330 Page Dr S","58103",46.860576,-96.826819
"56560","Moorhead","MN","T Lofts Fitness Room","not_available","58102",46.88883357376808,-96.8054686773201
"56560","Moorhead","MN","Courts Plus Fitness Center","3491 University Dr S","58104",46.82738706066256,-96.80363323231276
"56560","Moorhead","MN","Edge Fitness","3501 8th St S","56560",46.83951051077735,-96.76882003343005
"56560","Moorhead","MN","Elite Sports Training","1518 29th Ave S","56560",46.84639358520508,-96.75524139404297
"56560","Moorhead","MN","Derik's Workout World","1123 11th St S","58103",46.86278898788632,-96.79690225304401
"56560","Moorhead","MN","Elements","3120 25th St S Ste N","58103",46.833399711271,-96.81890206782168
"56560","Moorhead","MN","Jensen Treadmill","not_available","58103",46.857135,-96.795395
"56560","Moorhead","MN","Anytime Fitness","5050 Timber Pkwy S Suite 116","58104",46.80498,-96.82646
"56572","Pelican Rapids","MN","Rehab Plus And Fittness","not_available","56572",46.57088084119914,-96.083624573703
"56573","Perham","MN","Prairie Wind Gymnasium","not_available","56573",46.58701700678885,-95.58392260295163
"56573","Perham","MN","PACC","620 3rd Ave SE","56573",46.58860778808594,-95.57513427734375
"56601","Bemidji","MN","Snap Fitness","Supreme Ct NW, Bemidji, MN 56601","56601",47.50566673995452,-94.88971269471445
"56601","Bemidji","MN","Elite Performance & Fitness","not_available","56601",47.45243264882962,-94.86058986449603
"56601","Bemidji","MN","Wolf Lake Fitness","13000 Scenic Point Rd SE","56601",47.41432385482178,-94.69677965271725
"56601","Bemidji","MN","Radar Fitness","12164 Radar Rd NW","56601",47.56941223144531,-95.05491638183594
"56601","Bemidji","MN","InCharge Fitness","619 5th St NW","56601",47.47294932459212,-94.88803088665009
"56601","Bemidji","MN","Anytime Fitness","2526 Hannah Ave","56601",47.49257,-94.90566
"56630","Blackduck","MN","Fitness Center","Lakin Ave","56650",47.94304113497555,-94.44963455200195
"56649","International Falls","MN","Snapp Fitness","617 3rd Ave","56649",48.59881591796875,-93.40338897705078
"56649","International Falls","MN","Stride fitness","1307 16th St","56649",48.59027691949381,-93.4206877850859
"56655","Longville","MN","The Gym","not_available","56655",47.00332455966264,-94.20414234329732
"56666","Ponemah","MN","Red Lake High School Gym","not_available","56671",48.022937,-94.906643
"56671","Redlake","MN","Red Lake House of Pain","Red Lake, MN","56671",47.87682878333333,-95.03056491666666
"56673","Roosevelt","MN","Weight room","not_available","56763",48.904456946169056,-95.31500103398523
"56676","Shevlin","MN","Dungeon Of Fitness","not_available","56461",47.30721763181705,-95.2163494115991
"56701","Thief River Falls","MN","Anytime Fitness","1845 Hwy. 59 S.","56701",48.10967,-96.14953
"56701","Thief River Falls","MN","Sanford Thief River Falls Wellness Center","120 Labree Ave S","56701",48.11686045851803,-96.17970860965583
"56713","Argyle","MN","Weight Room","not_available","56757",48.3370431,-96.8297908
"56716","Crookston","MN","Snap Fitness","404 N Broadway","56716",47.77666799105425,-96.6043818949539
"56716","Crookston","MN","JJs Body Shop Inc","120 N Main St","56716",47.774803161621094,-96.60741424560547
"56716","Crookston","MN","Anytime Fitness","2115 Shalstrom Dr","56716",47.7939,-96.61037
"56721","East Grand Forks","MN","Anytime Fitness","3750 32nd Ave S","58201",47.89069,-97.08187
"56721","East Grand Forks","MN","Orangetheory Fitness","2800 S Columbia Rd","58201",47.892936999999996,-97.071507
"56721","East Grand Forks","MN","Snap Fitness","4571 S Washington St","58201",47.87716078167302,-97.04379767717177
"56721","East Grand Forks","MN","Club Buckalew","not_available","56721",47.94206237792969,-97.03260803222656
"56721","East Grand Forks","MN","Red River Valley Gymnastics","1602 32nd Ave S","58201",47.89085228164155,-97.04965607256034
"56721","East Grand Forks","MN","Medical Fitness Center","Columbia Road","58201",47.908935546875,-97.0687255859375
"56721","East Grand Forks","MN","Bridgestone Exercise Room","4600 S Washington St","58201",47.8763542175293,-97.04705047607422
"56721","East Grand Forks","MN","Insanity Gym","1825 11th Ave N","58203",47.929997,-97.053801
"56721","East Grand Forks","MN","Ironworks Gym","1823 S Washington St, Grand Forks, ND 58201","58201",47.90289770018511,-97.04441199521682
"56721","East Grand Forks","MN","Center Court Fitness","1538-1698 32nd Ave S","58201",47.890310474055575,-97.04966686341224
"56721","East Grand Forks","MN","Snap Fitness","2750 Gateway Dr","58203",47.933889398091566,-97.06772486270596
"56721","East Grand Forks","MN","Hammer Time","not_available","58203",47.919907,-97.05572
"56721","East Grand Forks","MN","Anytime Fitness","1010 Central Ave NE","56721",47.93534,-97.01951
"56721","East Grand Forks","MN","Altru medical fitness center","Columbia road","58201",47.90945008252926,-97.06990100542525
"56721","East Grand Forks","MN","Ts Gym","28th Ave s","58201",47.893653,-97.051616
"56750","Red Lake Falls","MN","1 Body Health & Fitness","not_available","56750",47.875799,-96.272784
"56762","Warren","MN","40:31 Wellness Center","not_available","56762",48.19777789598154,-96.7712023558302
"56762","Warren","MN","Go Beyond Fitness","523 E Fletcher Ave","56762",48.19807052612305,-96.76545715332031
