"zip","city","state","name","address","postalCode","lat","lon"
"71601","Pine Bluff","AR","Planet Fitness","2901 S Olive St","71603",34.199616,-92.006428
"71601","Pine Bluff","AR","Raw Fhiit","not_available","not_available",34.199362,-92.037218
"71601","Pine Bluff","AR","Crossfit 1210","3200 S. Catalpa St.","71603",34.19785363872191,-92.0339298248291
"71602","White Hall","AR","JRMC White Hall Health Complex","1600 W Holland Ave","71602",34.285193,-92.116314
"71602","White Hall","AR","White Hall Fitness Center","not_available","71602",34.268729,-92.088737
"71602","White Hall","AR","P90X Dungeon","Terry Pond Cove","71602",34.281195402145386,-92.1060436964035
"71655","Monticello","AR","Union Bank GYM","not_available","71655",33.629941,-91.790702
"71701","Camden","AR","Anytime Fitness","206 Garden Oaks Dr","71701",33.58399,-92.85062
"71730","El Dorado","AR","Healthworks","not_available","71730",33.21316847093054,-92.66033745115143
"71730","El Dorado","AR","Strong Performance","not_available","71765",33.111026,-92.358346
"71730","El Dorado","AR","Planet Fitness","2028 N West Ave","71730",33.23252,-92.667138
"71753","Magnolia","AR","Curves For Women","not_available","71753",33.28544028645306,-93.2352001315389
"71753","Magnolia","AR","Physiques Fitness Center","Dudney","71753",33.27581035921352,-93.23038142964876
"71801","Hope","AR","Anytime Fitness","1301 N Hervey","71801",33.68081,-93.60374
"71822","Ashdown","AR","Anytime Fitness","1420 S Constitution Ave","71822",33.65775,-94.1145
"71822","Ashdown","AR","Start To Finish Fitness","61 E Main St","71822",33.67432403564453,-94.1309585571289
"71832","De Queen","AR","AMP Fitness","109 N. 2nd St","71832",34.0374,-94.33932
"71833","Dierks","AR","Sweat Shop","not_available","71833",34.11533737182617,-94.01427459716797
"71834","Doddridge","AR","Monster Activity Center","205 N Hwy 71","71837",33.26261,-93.88571
"71851","Mineral Springs","AR","Bell's Gym","1315 S 4th St","71852",33.93104934692383,-93.85081481933594
"71854","Texarkana","AR","Anytime Fitness","2229 Trinity Blvd","71854",33.474629,-94.01937099999999
"71854","Texarkana","AR","Fitness Center At Best Western Plus","not_available","71854",33.472781,-94.03517
"71854","Texarkana","AR","crossfit","3911 E 19th St","71854",33.44249845499421,-94.0004825592041
"71901","Hot Springs National Park","AR","Y.M.C.A.","not_available","71913",34.466722,-93.062696
"71901","Hot Springs National Park","AR","Planet Fitness","3310 Central Ave","71913",34.475804,-93.061517
"71901","Hot Springs National Park","AR","Hot Springs Athletic & Racquet","150 Peters Pt","71913",34.444732666015625,-93.09276580810547
"71901","Hot Springs National Park","AR","Hot Springs Health And Fitness","281 Lake Hamilton Dr","71913",34.446531618721814,-93.08247282836814
"71901","Hot Springs National Park","AR","Hot Springs Family YMCA","130 Werner St","71913",34.467093,-93.062221
"71901","Hot Springs National Park","AR","Pulse","Central Avenue","71913",34.454086087702535,-93.0746159869538
"71913","Hot Springs National Park","AR","Lake Hamilton Health And Fitness","Airport Road","71913",34.46297941666667,-93.1457208
"71923","Arkadelphia","AR","A-Town Fitness","not_available","71923",34.121906,-93.085223
"71945","Hatfield","AR","Hatfield Gym","not_available","71945",34.48377,-94.374779
"71953","Mena","AR","Non-Stop Fitness","1142 Highway 71 S Ste A","71953",34.57456970214844,-94.23965454101562
"71953","Mena","AR","Ouachita Rehabilitation And Fitness","not_available","71953",34.58645878506745,-94.22547869104322
"72002","Alexander","AR","Planet Fitness","1515 Military Rd","72015",34.578881,-92.573891
"72002","Alexander","AR","Bowman Pointe Gym","3321 S Bowman Rd","72211",34.72508158249745,-92.40710751212022
"72002","Alexander","AR","24 AtHletic Club","not_available","72015",34.63436319903899,-92.5155832683412
"72002","Alexander","AR","LA Fitness","11700 Chenal Pkwy","72211",34.74930547618476,-92.4042434625425
"72002","Alexander","AR","10 Fitness","not_available","72022",34.620532484594385,-92.50184540979967
"72002","Alexander","AR","Your Total Fitness Shop -Little Rock","4700 Bowman Rd Ste 200","72210",34.711814880371094,-92.40928649902344
"72002","Alexander","AR","Mckenzie Gym","not_available","72223",34.744996,-92.432279
"72002","Alexander","AR","Anytime Fitness","5313 Hwy 5 N Ste 300","72022",34.62335,-92.50259
"72002","Alexander","AR","Otter Creek Fitness Boot Camp","10506 Stagecoach Rd","72210",34.66328747015145,-92.42926597595215
"72002","Alexander","AR","Wellness Revolution","13401 Chenal Pkwy","72211",34.75433127,-92.42330828
"72002","Alexander","AR","Snap Fitness","400 N Bowman Rd","72211",34.75733190847057,-92.40633389585058
"72002","Alexander","AR","Express Fitness","3400 Winchester","72015",34.592767,-92.553933
"72002","Alexander","AR","Fitness Unlimited","1212 Highway 35 N","72019",34.574785643684244,-92.59195663966463
"72002","Alexander","AR","Bryant Fitness Zone","519 W Commerce Dr","72022",34.6201057434082,-92.50243377685547
"72002","Alexander","AR","HOTWORX - Benton AR","20320 Interstate 30 N","72019",34.6051393,-92.5416542
"72002","Alexander","AR","Chenal Health & Fitness","16105 Chenal Pkwy Ste E","72223",34.75673013437899,-92.4477446244563
"72002","Alexander","AR","Your Total Fitness Shop","not_available","72210",34.71169502780419,-92.4089189521698
"72002","Alexander","AR","Straightright Fitness","301 S Bowman Rd","72211",34.752357482910156,-92.40650177001953
"72002","Alexander","AR","Wellness Revolution Crossfit","not_available","72211",34.75513939480694,-92.42305463749716
"72002","Alexander","AR","Gym","500 Napa Valley Dr","72211",34.759231,-92.413094
"72002","Alexander","AR","Pulse Premier Fitness","3525 Highway 5 N Ste 200","72019",34.61613845825195,-92.51655578613281
"72002","Alexander","AR","B-Town Barbell Club","6948 Alcoa Rd Ste J","72015",34.600608825683594,-92.53555297851562
"72002","Alexander","AR","Fit Factory of Little Rock","16015 Chenal Pkwy, Suite E","72223",34.75646632296796,-92.44738496459277
"72004","Altheimer","AR","Motivation Training Center","not_available","72160",34.475519,-91.553186
"72004","Altheimer","AR","Streamlines Fitness & Tanning","E 21st St","72160",34.480248208222314,-91.55299411478485
"72007","Austin","AR","Beebe High School 9-10 Gym","not_available","72012",35.066041,-91.893971
"72007","Austin","AR","Prevail Fitness","205 N 10th St","72023",34.977518473236465,-92.02497697699052
"72010","Bald Knob","AR","Hour Of Power","not_available","72020",35.431757890869704,-91.54852304343181
"72015","Benton","AR","Orangetheory Fitness","7357 Alcoa Rd","72022",34.60361,-92.5335
"72016","Bigelow","AR","Bigelow High School Gym","not_available","72016",34.998963,-92.631926
"72023","Cabot","AR","LRAFB gym","Bldg 827 6th St","72076",34.901530029821764,-92.14011010553746
"72023","Cabot","AR","The Gym","not_available","72076",34.89940542969639,-92.09277410049819
"72023","Cabot","AR","Anytime Fitness","120 John Harden Dr","72076",34.86994,-92.12621
"72023","Cabot","AR","HardCore 24 Gym","1108 S Redmond Rd","72076",34.85758972167969,-92.12322235107422
"72023","Cabot","AR","Huff 'N Puff Fitness","613 Stonewall Square","72023",34.873096971374515,-92.1089169568122
"72023","Cabot","AR","Lighten Up for Women","1336 John Harden Dr","72076",34.87950611871181,-92.11458921432495
"72032","Conway","AR","McGee Center","College Ave","72034",35.08765637107071,-92.49514669549332
"72032","Conway","AR","Don Owen Sports Center","10 Lower Ridge Rd","72032",35.11139631782843,-92.42492557032956
"72032","Conway","AR","The Fieldhouse","3605 London Rd","72034",35.06528884817089,-92.49065726469645
"72032","Conway","AR","burn fitness","923 parkway","72034",35.09118080534598,-92.44212448596954
"72032","Conway","AR","Conway Regional Health & Fitness Center","700 Salem Rd","72034",35.08790463811189,-92.47109873203209
"72032","Conway","AR","Conway Regional Personal Training Studio/ Cardiac Rehab","college & donaghey","72034",35.085084763481845,-92.4542312473326
"72032","Conway","AR","Pointe Gym","2010 Rumker Rod","72032",35.10016036413751,-92.39787878192413
"72032","Conway","AR","Sync Fitness & Movement","605 Dave Ward Dr","72034",35.06626227,-92.43078903
"72032","Conway","AR","Central Arkansas Cheer","1270 Dons Ln","72032",35.09348694230894,-92.4348055268807
"72032","Conway","AR","Fitness Center","835 S Donaghey Ave","72034",35.06850814819336,-92.45509338378906
"72032","Conway","AR","Parisi Speed School","575 Club Ln","72034",35.08730697631836,-92.4754409790039
"72032","Conway","AR","Curves","2850 Prince St Ste 1","72034",35.09236070623105,-92.47047231022944
"72032","Conway","AR","Jazzercise","2225 Prince St","72034",35.09104537963867,-92.4586410522461
"72040","Des Arc","AR","New Creation Fitness Inc.","218 Main St","72040",34.97720718383789,-91.49494934082031
"72044","Edgemont","AR","West Side High School Weight Room","not_available","72067",35.581110145698965,-92.16425238857103
"72046","England","AR","H1","Willow Lane","72142",34.63613867680298,-92.13611125946045
"72058","Greenbrier","AR","Anytime Fitness","47 S Broadview St","72058",35.23052,-92.38844
"72065","Hensley","AR","imagine fitness","not_available","72065",34.55965497820138,-92.33659619611264
"72076","Jacksonville","AR","10 Fitness","6929 John F Kennedy Blvd","72116",34.82002526990188,-92.23745117715254
"72076","Jacksonville","AR","Best Western Sherwood Inn & Suites Fitness Center","7533 Warden Rd","72120",34.825732,-92.19410400000001
"72076","Jacksonville","AR","Sherwood Crossfit","15517 AR-107","72120",34.87837071892338,-92.19361145038016
"72076","Jacksonville","AR","Links Resident Gym","3434 E Kiehl Ave","72120",34.831022999999995,-92.194845
"72076","Jacksonville","AR","Iron sharpens iron","Hidden Creek Drive","72120",34.854592710813385,-92.23157360527786
"72076","Jacksonville","AR","peak nutrition","not_available","72120",34.83430939551139,-92.23209635287957
"72076","Jacksonville","AR","Curves of Sherwood","2001 E Kiehl Ave","72120",34.833262,-92.211453
"72082","Kensett","AR","Planet Fitness","3500 E Race St","72143",35.25158,-91.687402
"72082","Kensett","AR","The Flats Gym","not_available","72143",35.247491,-91.695233
"72104","Malvern","AR","Better Life Women's Fitness Studio","1721 MLK Jr. Blvd.","72104",34.38563919067383,-92.8262710571289
"72104","Malvern","AR","Anytime Fitness","608 Martin Luther King Blvd","72104",34.37323,-92.82494
"72104","Malvern","AR","Body Works Health & Recreation Club","1002 Elmo St","not_available",34.37193298339844,-92.82063293457031
"72106","Mayflower","AR","Advanced Fitness Concepts","1800 Club Manor Dr","72113",34.853895978748305,-92.40440899371445
"72106","Mayflower","AR","Home Gym","8 Chicot Cv","72113",34.85457992553711,-92.41400909423828
"72106","Mayflower","AR","Spartan Fitness","not_available","72113",34.870057,-92.4003943
"72106","Mayflower","AR","Elite Performance and Fitness","100 Commerce Dr","72113",34.857089,-92.40158000000001
"72110","Morrilton","AR","Fitness Center","1 Rockefeller Dr","72110",35.13645553588867,-92.94585418701172
"72110","Morrilton","AR","Anytime Fitness","20 Bruce St","72110",35.17093,-92.71853
"72113","Maumelle","AR","Highland Pointe Gym","5500 Highland Dr","72223",34.802556,-92.42485699999999
"72113","Maumelle","AR","KOA Fitness Center","not_available","72118",34.814836,-92.349343
"72113","Maumelle","AR","F45 Training Maumelle","13501 Crystal Hill Rd","72113",34.832404,-92.392399
"72113","Maumelle","AR","River Pointe Fitness Center","River Pointe Drive","72113",34.824875919555836,-92.39003797074318
"72113","Maumelle","AR","Treadmill","Here","72223",34.802000643882224,-92.43509994096517
"72113","Maumelle","AR","Garver Fitness Center","4701 Northshore Dr","72118",34.807369232177734,-92.353515625
"72113","Maumelle","AR","Rockcity Crossfit","Maumelle Blvd","72113",34.82120820435414,-92.37081293550777
"72114","North Little Rock","AR","Brightwater Gym","not_available","72202",34.774475,-92.30835735797882
"72114","North Little Rock","AR","Foothills Gym","2401 Lakeview Rd","72116",34.785465240478516,-92.23303985595703
"72114","North Little Rock","AR","Rivermarket Bootcamp","1200 President Clinton Ave","72201",34.74547087411836,-92.25850253600824
"72114","North Little Rock","AR","Arkansas Commerce Bldg Fitness center","200 River Market Ave","72201",34.745994567871094,-92.26617431640625
"72114","North Little Rock","AR","Fitness Center","not_available","72114",34.780193,-92.268752
"72114","North Little Rock","AR","LIV Gym","1200 Brookwood Dr","72202",34.764352,-92.307556
"72114","North Little Rock","AR","River Market Tower Gym","not_available","72201",34.745383,-92.267142
"72114","North Little Rock","AR","Block 2 Gym","111 E Markham St","72201",34.74789047241211,-92.2712631225586
"72114","North Little Rock","AR","Arkansas Fitness And Athletics","2400 Cantrell Rd Ste 107","72202",34.75655746459961,-92.29563903808594
"72114","North Little Rock","AR","Chenal Health & Fitness Downtown","400 W Capitol Ave","72201",34.74491803143371,-92.27491799507395
"72114","North Little Rock","AR","Crossfit Little Rock","Off Cantrell Rd","72202",34.75893048428577,-92.30132232857429
"72114","North Little Rock","AR","Downtown Athletic Club","111 Center St","72201",34.747890000000005,-92.27243100000001
"72114","North Little Rock","AR","Snap Fitness","1401 W Capitol Ave","72201",34.74610243526952,-92.28669044063767
"72114","North Little Rock","AR","Residence Inn Fitness Center","219 River Market Ave","72201",34.74574279785156,-92.265625
"72114","North Little Rock","AR","North Little Rock Community Center","2700 Willow St","72114",34.77847671508789,-92.27205657958984
"72114","North Little Rock","AR","Train with William","2516 Cantrell Rd Ste F","72202",34.758949279785156,-92.30500793457031
"72114","North Little Rock","AR","300 Third Tower Gym","300 E 3rd St","72201",34.746075,-92.267735
"72114","North Little Rock","AR","Club Fit","400 W Capitol Ave Ste 300","72201",34.744932,-92.274776
"72114","North Little Rock","AR","Members Fitness Club","2516 Cantrell Rd #F","72202",34.75931909353066,-92.30483636580657
"72114","North Little Rock","AR","JP Fitness","425 W Capitol Ave Fl 29","72201",34.7445446143286,-92.27556718408015
"72114","North Little Rock","AR","Carousel Fit-4-Life Wellness","513 Main St","72114",34.758757,-92.267949
"72114","North Little Rock","AR","ABCBS Enterprise Gym","Louisiana","72201",34.74552680353029,-92.27348327636719
"72116","North Little Rock","AR","Orangetheory Fitness","not_available","72116",34.798526,-92.236584
"72116","North Little Rock","AR","Anytime Fitness","5923 John F. Kennedy Blvd","72116",34.80953,-92.24871
"72116","North Little Rock","AR","North Little Rock Athletic Club","3804 McCain Park Dr","72116",34.79434262938485,-92.22470801033863
"72116","North Little Rock","AR","LA Fitness","2939 Lakewood Village Dr","72116",34.7941967,-92.2305083
"72116","North Little Rock","AR","5301 Crossfit North Little Rock","5301 McClanahan Dr Ste A1","72116",34.80250549316406,-92.21646881103516
"72118","North Little Rock","AR","D1 Sports Training and Therapy","10 View Point Cv","72223",34.7990447,-92.4132224
"72118","North Little Rock","AR","10 Fitness","10901 N Rodney Parham Rd","72212",34.7695863361372,-92.39373465424254
"72118","North Little Rock","AR","IM=X Pilates & Fitness Little Rock","8128 Cantrell Rd Ste A","72227",34.7772331237793,-92.36627197265625
"72118","North Little Rock","AR","Pure Barre","11525 Cantrell Rd Ste 306","72212",34.79310086641777,-92.40293218220108
"72118","North Little Rock","AR","Health & Fitness In The Heights","5116 Kavanaugh Blvd","72207",34.7699861120558,-92.33044632580254
"72118","North Little Rock","AR","Anytime Fitness","7403 Cantrell Rd","72207",34.77032,-92.35627
"72118","North Little Rock","AR","Ageless Health & Fitness","12600 Cantrell Rd","72223",34.798208521665785,-92.41341488186922
"72118","North Little Rock","AR","Forever In Training","Cantrell Ave, Suite 108","72207",34.7699469500001,-92.35781603305125
"72118","North Little Rock","AR","Fitness FX","10720 N Rodney Parham Rd","72212",34.771701,-92.39301400000001
"72135","Roland","AR","Unleashed Health & Fitness","27220 Jess Morgan Rd","72135",34.83818817138672,-92.56714630126953
"72135","Roland","AR","The Ridge at Chenal Valley-Fitness Center","5400 Chenonceau Blvd","72223",34.805564880371094,-92.4732437133789
"72143","Searcy","AR","Gym Stars","1720 Queensway St","72143",35.23025078462141,-91.7200625183734
"72143","Searcy","AR","Gym Stars-Home of the Diamonds","1800 Queensway St","72143",35.230242887787895,-91.72008515934937
"72143","Searcy","AR","Searcy Athletic Club","954 Skyline Dr","72143",35.24573806759224,-91.7557570067253
"72143","Searcy","AR","ProFitness","2904 E Race Ave","72143",35.251117,-91.700611
"72143","Searcy","AR","Anytime Fitness","417 S Main St","72143",35.2447374,-91.73724867
"72143","Searcy","AR","Zion Climbing Center","118 N Spruce St","72143",35.249244689941406,-91.7383041381836
"72150","Sheridan","AR","Pink Gym","601 Little Creek Cut Off Rd","72150",34.321145153159456,-92.39431142807007
"72150","Sheridan","AR","Gym Dandy","506 N Cliff St","72150",34.311716,-92.406461
"72173","Vilonia","AR","Vilonia High School Gym","not_available","72173",35.0847383919287,-92.19455589702838
"72173","Vilonia","AR","Get Fit","22 S Church St","72173",35.081275939941406,-92.20800018310547
"72202","Little Rock","AR","LA Fitness","304 S University Ave","72205",34.75051360328141,-92.34242131790383
"72202","Little Rock","AR","Orangetheory Fitness","6813 Cantrell Rd","72207",34.768517,-92.352644
"72202","Little Rock","AR","Sparkfit","1324B Main St","72202",34.735913000000004,-92.273036
"72202","Little Rock","AR","Eye Of The Tiger Gym","not_available","72206",34.72847078065124,-92.28075412485816
"72202","Little Rock","AR","UAMS Fitness Center","4301 W Markham St","72205",34.75040729770072,-92.32087917136063
"72202","Little Rock","AR","Bess Chisum Stephens Community Center","1200 S Cleveland St","72204",34.740765,-92.345546
"72204","Little Rock","AR","Baptist Health Fitness Center","not_available","72205",34.74474941683094,-92.38081010220974
"72204","Little Rock","AR","Omnis CrossFit","3204 Shackleford Pass Ste C","72205",34.72483444213867,-92.39620971679688
"72204","Little Rock","AR","Cheer City Unitef","7 Clearwater Dr Ste B","72204",34.704999,-92.392667
"72204","Little Rock","AR","WOW Fitness","5523 Mabelvale Pike","72209",34.69887725,-92.34396505
"72204","Little Rock","AR","Arkansas Sports Performance Center","not_available","72204",34.71466,-92.389539
"72204","Little Rock","AR","LRFD Fitness","7000 Murray St","72209",34.685055,-92.313388
"72204","Little Rock","AR","Fitness 4 U","6701 W 12th St","72204",34.740726470947266,-92.35099792480469
"72204","Little Rock","AR","Shayla's Gym","not_available","72209",34.689485579593565,-92.33412560605173
"72205","Little Rock","AR","ACT Fitness","10300 N Rodney Parham Rd Ste T","72227",34.7674605,-92.3880136
"72205","Little Rock","AR","Full Out Barre","1521 Merrill Dr","72211",34.768712,-92.399252
"72205","Little Rock","AR","Inches-A-Weigh","10300 N Rodney Parham Rd Ste D2","72227",34.768313,-92.387999
"72205","Little Rock","AR","Results by tina","not_available","72227",34.76594504780613,-92.38576129241746
"72205","Little Rock","AR","ProMotion","1602 Merrill Dr","72211",34.767915,-92.400864
"72205","Little Rock","AR","Body Core Wellness","10515 W Markham St, Little Rock, AR 72205","72205",34.75339889526367,-92.39077758789062
"72205","Little Rock","AR","Fitness Premier","9100 N Rodney Parham Rd","72205",34.759633652492575,-92.37615830380469
"72210","Little Rock","AR","Turtle Creek Fitness Center","601 Napa Valley Dr","72211",34.759778000000004,-92.41071099999999
"72210","Little Rock","AR","Orlando's Personal Fitness","17200 Chenal Pkwy Ste 140","72223",34.762231,-92.453547
"72210","Little Rock","AR","Orangetheory Fitness","16900 Chenal Pkwy","72223",34.759425,-92.452075
"72211","Little Rock","AR","Carrington Park Gym","1801 Champlin Dr","72223",34.770924,-92.44652099999999
"72211","Little Rock","AR","Turtle Creek Gym","Napa Valley Dr","not_available",34.76648259,-92.4063578
"72211","Little Rock","AR","zen studio","27 Rahling Cir","72223",34.769989013671875,-92.45616912841797
"72212","Little Rock","AR","Little Rock Athletic Club","4610 Sam Peck Rd","72223",34.79433636078018,-92.41629607536623
"72212","Little Rock","AR","Westside Family YMCA","4701 Sam Peck Rd","72223",34.795646999999995,-92.41453800000001
"72223","Little Rock","AR","CYCLEBAR","17711 Chenal Pkwy Ste I111","72223",34.7662944,-92.4589331
"72301","West Memphis","AR","Anytime Fitness","113 N Missouri St","72301",35.14768,-90.18457
"72315","Blytheville","AR","Anytime Fitness","1701 E. Main","72315",35.92723,-89.92419
"72315","Blytheville","AR","IronWorx","East Hwy 18","not_available",35.926446008598084,-89.84044089001702
"72315","Blytheville","AR","Hampton Gym","not_available","72315",35.931449,-89.876122
"72326","Colt","AR","Frazier Fitness Facility, LLC","not_available","72335",35.043529162916386,-90.7732005795088
"72335","Forrest City","AR","Gym 2000","not_available","72396",35.02127434386812,-90.75544628694855
"72354","Lepanto","AR","My Sports Medicine Doctor","500-698 State Highway 135","72354",35.607192,-90.330974
"72364","Marion","AR","The Works","not_available","72364",35.20199320489949,-90.18690962617895
"72364","Marion","AR","Anytime Fitness","203 E Military Rd","72364",35.21405,-90.1942
"72370","Osceola","AR","Osceola Community Center","not_available","72370",35.7091015266573,-90.01676268359836
"72370","Osceola","AR","Osceola Fitness","916 W Keiser Ave","72370",35.69855880737305,-89.9831314086914
"72401","Jonesboro","AR","Planet Fitness","1525 S Caraway Rd, Ste A","72401",35.826003,-90.679114
"72401","Jonesboro","AR","NEA Health & Wellness Center @ Jonesboro","2617 Phillips Dr","72401",35.808881,-90.675248
"72401","Jonesboro","AR","Push Fitness","2704 Alexander Dr","72401",35.810951232910156,-90.72183227539062
"72401","Jonesboro","AR","Home Gym","1411 Woodsprings Rd","72401",35.81998825073242,-90.72441101074219
"72401","Jonesboro","AR","Joey Perry 24 Hour Fitness","Fowler","72401",35.81639293333333,-90.68209511666667
"72401","Jonesboro","AR","Red W.O.L.F. Center","2505 Aggie Rd","72401",35.84170590897522,-90.67498053522948
"72401","Jonesboro","AR","Crossfit Natural State","4614 Stadium Blvd","72404",35.79780313417255,-90.66866299012106
"72401","Jonesboro","AR","Crossfit870","not_available","72401",35.83056963609604,-90.62133017660233
"72401","Jonesboro","AR","Arkansas Cheer Company","6003 Dalton Farmer Dr","72404",35.802028,-90.627721
"72401","Jonesboro","AR","Trim Gym","1916 Race St","72401",35.81523257322059,-90.68396708220756
"72401","Jonesboro","AR","10 Fitness","1226 S Caraway Rd","72401",35.83101679409208,-90.67698337648437
"72401","Jonesboro","AR","Fitness Bootcamp @ Jonesboro","3402 Willow Rd","72404",35.804664,-90.650563
"72401","Jonesboro","AR","Orangetheory Fitness","2110 Fair Park Blvd","72401",35.81855010986328,-90.67288970947266
"72401","Jonesboro","AR","Jonesboro Total Health","1312 Red Wolf Blvd","72401",35.831031799316406,-90.66796875
"72401","Jonesboro","AR","Workout Anytime Hilltop-Jonesboro","3410 East Jonesboro Ave. Ste V","72401",35.858387,-90.658134
"72404","Jonesboro","AR","Bell Athletics","4758-5388 Cash Hwy","72404",35.79200548277988,-90.79276531408101
"72410","Alicia","AR","Buffers","not_available","72410",35.893177,-91.082562
"72433","Hoxie","AR","Sweat","not_available","72476",36.070275,-90.969989
"72450","Paragould","AR","Teleflora Gym","3309 E Kingshighway","72450",36.053417018253064,-90.44329776159067
"72450","Paragould","AR","Workout Anytime","1704 Linwood Dr, Ste 1","72450",36.039724,-90.512166
"72450","Paragould","AR","Anytime Fitness","1725 W Kings Hwy Ste 17A","72450",36.05471,-90.50763
"72455","Pocahontas","AR","Black River Health Club","not_available","72455",36.25042532786977,-90.96400442683945
"72501","Batesville","AR","Curves","not_available","72501",35.765892028808594,-91.64454650878906
"72501","Batesville","AR","Anytime Fitness","3050 Harrison St","72501",35.76365,-91.61584
"72519","Calico Rock","AR","harold ray jeffery gymnasium","not_available","72519",36.1228990300654,-92.12664857029048
"72530","Drasco","AR","For Women Only","not_available","72543",35.507997,-92.03044
"72530","Drasco","AR","Anytime Fitness","203 Tulaka Blvd","72543",35.51147,-92.02648
"72560","Mountain View","AR","Von Dean Jeffery Gymnasium","not_available","72560",35.85930369710464,-92.08442562569252
"72601","Harrison","AR","Spin Time","not_available","72601",36.22990036010742,-93.10026550292969
"72601","Harrison","AR","Mrs. Christy's dance tumble cheer","Golbin Dr","72601",36.23495562754483,-93.13489031253783
"72601","Harrison","AR","Anytime Fitness","115 Industrial Park Rd","72601",36.2511,-93.12287
"72616","Berryville","AR","Kerusso Fitness Center","not_available","72616",36.3792705535889,-93.5750102996826
"72631","Eureka Springs","AR","Floyds 24hr Gym","4085 E Van Buren","72632",36.394412994384766,-93.70771026611328
"72653","Mountain Home","AR","Anytime Fitness","40 Plaza Way Ste 30","72653",36.357009,-92.340731
"72653","Mountain Home","AR","Weststar Fitness","130 eastside centre court","72653",36.352234198197586,-92.36359812107048
"72687","Yellville","AR","Shape Fitness","not_available","72687",36.21869228872619,-92.68112691502905
"72701","Fayetteville","AR","Planet Fitness","1768 N Crossover Rd","72701",36.084797,-94.119796
"72701","Fayetteville","AR","HPER","155 N Stadium Dr","72701",36.06462421658214,-94.1774989297041
"72701","Fayetteville","AR","Boys and Girls Club","560 N Rupple Rd","72704",36.072684858207246,-94.21613919611025
"72701","Fayetteville","AR","Mountain Ranch Fitness Center","not_available","72701",36.070088,-94.209331
"72701","Fayetteville","AR","Fayetteville Fitness Kickboxing","1822 N Crossover Rd","72701",36.086178000000004,-94.119324
"72701","Fayetteville","AR","En Fuego Fitness","2371 B Green Acres","72703",36.093893879197104,-94.1572424881633
"72701","Fayetteville","AR","Stonecrest Workout Room","Stonecrest","72701",36.033257,-94.04251
"72701","Fayetteville","AR","DoFitness","not_available","72703",36.093101000000004,-94.15498199999999
"72701","Fayetteville","AR","WCSO Fitness Center","1155 Clydesdale","72701",36.03353783688298,-94.17702241863346
"72701","Fayetteville","AR","Imagination Land Gym","not_available","72704",36.094769,-94.198199
"72701","Fayetteville","AR","Fitness 4 Less","2668 E Citizens Dr","72703",36.089144221278715,-94.12375004282282
"72701","Fayetteville","AR","Garden Park Apartments Fitness Room","1225 W Mount Comfort Rd","72703",36.080226,-94.17810300000001
"72701","Fayetteville","AR","The Links Fitness Center","3600 W Player Ln","72704",36.080639,-94.211533
"72701","Fayetteville","AR","CrossFit Fayetteville","2716 S School Ave","72701",36.0346547863263,-94.16904072883608
"72701","Fayetteville","AR","CrossFit","6th Street","72701",36.05199727742667,-94.20535657722223
"72701","Fayetteville","AR","Diva Dance Northwest Arkansas","1877-2 N Pluto Dr","72703",36.087098,-94.1675379
"72701","Fayetteville","AR","The Chancellor Fitness Center","70 N East Ave","72701",36.063164,-94.159279
"72701","Fayetteville","AR","World Gym","2035 N College Ave","72703",36.08983142787202,-94.15495247619629
"72703","Fayetteville","AR","valley lake apartment gym","4311 N Valley Lake Dr, Fayetteville, AR 72703","72703",36.129129,-94.121964
"72703","Fayetteville","AR","Pure Barre","3115 N College Ave","72703",36.10796929971006,-94.14690922905214
"72703","Fayetteville","AR","Fayetteville Athletic Club","2920 E Zion Rd","72703",36.12946282921447,-94.11930032683411
"72703","Fayetteville","AR","Orangetheory Fitness","100 E Joyce Blvd","72703",36.12514114379883,-94.1548080444336
"72703","Fayetteville","AR","Crossfit Born Again","not_available","72764",36.13298927917395,-94.14910468256855
"72703","Fayetteville","AR","Williams Center","2842 N Crossover Rd","72703",36.10256485047573,-94.12109968265342
"72703","Fayetteville","AR","GFitNWA","1428 Chester St","72764",36.150597999999995,-94.145993
"72704","Fayetteville","AR","Fitness Center - Residence Inn Springdale","not_available","72762",36.17356491088867,-94.180908203125
"72704","Fayetteville","AR","World Gym","866 S 48th St","72762",36.17837,-94.18498
"72704","Fayetteville","AR","Anytime Fitness","6315 Wedington Dr Unit 2","72704",36.078633,-94.251915
"72712","Bentonville","AR","South Walton Suites Gym","1120 S Walton Blvd","72712",36.358453978586944,-94.2162548969029
"72712","Bentonville","AR","Biltmore Fitness Club","not_available","72718",36.280748982325974,-94.20939522369916
"72712","Bentonville","AR","Crossfit Aftershock","1706 SE Walton Blvd.","72712",36.3346205918478,-94.18947696473722
"72712","Bentonville","AR","iNFiNiTi Athletics","1300 Melissa Dr Ste 100","72712",36.362000408436955,-94.22712053105504
"72712","Bentonville","AR","Holiday Inn Gym","not_available","72758",36.318153,-94.186156
"72712","Bentonville","AR","Precision Fitness","1380 Westpark Dr","72712",36.357788909509864,-94.22496876011006
"72712","Bentonville","AR","P90X2","not_available","72712",36.405803,-94.219946
"72712","Bentonville","AR","Home Fitness","Home Fitness","72714",36.44048094749451,-94.23946738243103
"72712","Bentonville","AR","Fitness By Precor","not_available","72756",36.333197,-94.178147
"72712","Bentonville","AR","Riordon Gym","Kingsdale Ln","72715",36.455684857795475,-94.2495257404869
"72712","Bentonville","AR","Go Performance & Fitness","1400 SE Walton Blvd Ste 10","72712",36.334048865573614,-94.19161060913036
"72712","Bentonville","AR","pops gym","2620 Od Bancroft Ln","72751",36.466324,-94.143448
"72712","Bentonville","AR","Waterside Apartments Fitness Center","300 NE Moberly Ln","72712",36.373558044433594,-94.18202209472656
"72712","Bentonville","AR","Worlds Gym","2103 SW Regional Airport Blvd","72712",36.34102031390057,-94.23318551590467
"72712","Bentonville","AR","Crybox Private Fitness Studio","2805 Mid Cities Dr Ste 5","72712",36.341121673583984,-94.19447326660156
"72718","Cave Springs","AR","warrior fit","2619 W Monroe Ave","72745",36.258434,-94.194984
"72732","Garfield","AR","Hawkins Family Gym","not_available","72732",36.363908,-93.897918
"72734","Gentry","AR","OAS","not_available","72734",36.25222222222222,-94.41284722222223
"72736","Gravette","AR","Gravette Gym","Main St","72736",36.42191508341528,-94.452730496848
"72736","Gravette","AR","Power 90 Central","not_available","72736",36.421144,-94.458947
"72745","Lowell","AR","Anytime Fitness","106 Bloomington Rd","72745",36.25564,-94.13738
"72751","Pea Ridge","AR","Dye Hards Gym","1978 Slack St","72751",36.443095,-94.139028
"72753","Prairie Grove","AR","The Fitness Factor","not_available","72753",35.976678,-94.3233415
"72756","Rogers","AR","S.A.F.E. Center Gym","220 N 14th Pl","72756",36.335025,-94.138267
"72756","Rogers","AR","NWACC Gym","1 College Dr","72712",36.35996627807617,-94.17219543457031
"72756","Rogers","AR","homewood suites fitness center","4302 W Walnut St","72756",36.33301665430005,-94.17785257867028
"72756","Rogers","AR","Pure Barre","2203 S Promenade Blvd Ste 8140","72758",36.30491270013816,-94.17517965654041
"72758","Rogers","AR","NWA Mercy YMCA","5214 W Village Pkwy","72758",36.316967038163746,-94.19016830623761
"72758","Rogers","AR","The Ranch at Pinnacle Point Gym","5900 W Stoney Brook Rd","72758",36.315391999999996,-94.196066
"72758","Rogers","AR","Orangetheory Fitness","5100 W Pauline Whitaker Pkwy","72758",36.2967953,-94.18756719999999
"72761","Siloam Springs","AR","Anytime Fitness","1007 S Mt Olive St","72761",36.17346,-94.54089
"72761","Siloam Springs","AR","Planet Fitness","2137 Ravenwood Plaza","72761",36.182521,-94.51727
"72762","Springdale","AR","Arkansas Airborne Cheer","5300 Hailey","72762",36.182263,-94.188501
"72762","Springdale","AR","Worlds Gym Sauna","not_available","72745",36.17516478002649,-94.14578094236438
"72762","Springdale","AR","Anytime Fitness","7058 W Sunset Ave Suite 2","72762",36.17673,-94.2086
"72762","Springdale","AR","Burn Boot Camp Springdale","7321 W Sunset Ave Unit I","72762",36.17526070093031,-94.21178695277862
"72762","Springdale","AR","Ballistic Fitness Kettlebell Gym","2505 S Thompson St Ste 10","72764",36.16123962402344,-94.14232635498047
"72764","Springdale","AR","Anytime Fitness","1602 E Robinson Ave","72764",36.16739,-94.1132
"72801","Russellville","AR","Maxx Nutrition","300 E 3rd St","72801",35.275576,-93.130377
"72801","Russellville","AR","Snap Fitness","501 N Arkansas Ave","72801",35.283203125,-93.1340103149414
"72801","Russellville","AR","CrossFit Revolution","1509 E Main St Ste 1","72801",35.27860641479492,-93.11402893066406
"72801","Russellville","AR","The Locker Room","not_available","72801",35.289158,-93.111622
"72801","Russellville","AR","Village Square Gym House","1940 S Elmira Ave","72802",35.259609000000005,-93.105172
"72801","Russellville","AR","Anytime Fitness","2005 N Arkansas Ave","72802",35.301053,-93.138343
"72801","Russellville","AR","St. Mary's Wellness And Fitness Center","3808 W Main St","72801",35.292710259698104,-93.16539521962999
"72802","Russellville","AR","Flex Fitness Center","not_available","72837",35.40142363162283,-93.11256751795946
"72830","Clarksville","AR","Alltime Family Fitness","1102 S Crawford St","72830",35.45613098144531,-93.48383331298828
"72830","Clarksville","AR","Anytime Fitness","1151 Rogers Ave","72830",35.458683013916016,-93.46088409423828
"72855","Paris","AR","Paris Boys And Girls Club","not_available","72855",35.29791246039218,-93.72479921585501
"72901","Fort Smith","AR","World Class Fitness","6206 S 31st St","72908",35.323619872633415,-94.40141835387112
"72901","Fort Smith","AR","Knuckles Boxing","1422 N 8th St","72901",35.39794158935547,-94.4118423461914
"72901","Fort Smith","AR","Gym place","not_available","72908",35.324167,-94.424269
"72903","Fort Smith","AR","Elite 24 Fitness","1200 S Waldron Rd","72903",35.37003491786373,-94.37641306455335
"72903","Fort Smith","AR","Motivation Fitness Personal Training","not_available","72903",35.366275787353516,-94.37693786621094
"72903","Fort Smith","AR","Planet Fitness","5825 Rogers Ave","72903",35.361656,-94.366941
"72903","Fort Smith","AR","UAFS Fitness Center","5100 grand ave","72903",35.38225232383642,-94.37646546818641
"72903","Fort Smith","AR","Gym at The Links","5100 S Zero St","72903",35.3221321105957,-94.37693786621094
"72904","Fort Smith","AR","River Valley CrossFit","103 South 11th","72956",35.43562,-94.348223
"72904","Fort Smith","AR","Curves","5107 Wilson Rd","72904",35.399613,-94.37424
"72908","Fort Smith","AR","Arkansas Cheer Unlimited","9923 Highway 253","72916",35.290659000000005,-94.422308
"72908","Fort Smith","AR","The Next Level","3805 Planters Rd","72908",35.306573,-94.393695
"72916","Fort Smith","AR","Rye Hill Crossfit","6315 Old Harrison Lane","not_available",35.266517,-94.365366
"72916","Fort Smith","AR","Shodown MMA & Family Fitness","14631 US-71","72916",35.2460067,-94.339145
"72916","Fort Smith","AR","Anytime Fitness","11735 Old Hwy 71 S","72916",35.27304,-94.37061
"72921","Alma","AR","workin out!","not_available","72921",35.47632598876953,-94.1830062866211
"72923","Barling","AR","Body Masters fitness & training","12920 Brittany Dr","72916",35.315153,-94.28989399999999
"72923","Barling","AR","FC Gym","Fort Smith Blvd, Bldg 1318","72905",35.306244,-94.288772
"72927","Booneville","AR","Shodown MMA","345 E 2nd St","72927",35.13891,-93.91768
"72933","Charleston","AR","I-Earn Fitness","101 AR-96","72941",35.336007501313,-94.18029312512245
"72933","Charleston","AR","Workin Out","not_available","72941",35.335786,-94.181821
"72936","Greenwood","AR","Anytime Fitness","2427 W Center St","72936",35.22267,-94.29769
"72936","Greenwood","AR","Greenwood Athletic Club","1201 Center","not_available",35.2070198059082,-94.24040985107422
"72936","Greenwood","AR","Club Blue - Fitness Center","not_available","72936",35.21233677565641,-94.25684767100242
"72937","Hackett","AR","My Gym(:","1430-2198 Doc Woods Woods Skinner","72937",35.19123544,-94.37314996
"72956","Van Buren","AR","River Valley Crossfit","2707 S 4th St","72956",35.41473611328315,-94.33006659232224
"72956","Van Buren","AR","Van Buren Fit Body Boot Camp","2710 Kibler Rd","72956",35.43613815307617,-94.32936096191406
"72956","Van Buren","AR","Van Buren Athletic Club","106 Pointer Trl W","72956",35.459497,-94.359111
"72956","Van Buren","AR","Anytime Fitness","1514 Fayetteville Rd","72956",35.457526,-94.356098
"72956","Van Buren","AR","Planet Fitness","280 Cloverleaf Plaza","72956",35.441656,-94.326258
"72956","Van Buren","AR","Knuckles Gym","401 Northview Dr","72956",35.45590591430664,-94.35636901855469
