"zip","city","state","name","address","postalCode","lat","lon"
"63005","Chesterfield","MO","CrossFit at Chesterfield","18161 Edison Ave","63005",38.664612,-90.640517
"63005","Chesterfield","MO","Row House","2-4 Clarkson WIlson Center","63017",38.62828708570357,-90.5792028834324
"63005","Chesterfield","MO","Forest Hills Country Club","not_available","63005",38.616073240526816,-90.59264756778262
"63005","Chesterfield","MO","Club Fitness","15890 Manchester Rd","63011",38.59055716564299,-90.58470085344598
"63005","Chesterfield","MO","Curves","317 Ozark Trail Dr","63011",38.602900156960935,-90.5897840248346
"63005","Chesterfield","MO","Fitzmaurice Performance","15623 Manchester Rd #140","63011",38.593264000000005,-90.573559
"63005","Chesterfield","MO","F45 Training Ellisville - Clarkson Valley","15860 Clayton Rd","63011",38.603931,-90.584765
"63005","Chesterfield","MO","Home Gym","not_available","not_available",38.61403363393396,-90.6384376074208
"63005","Chesterfield","MO","Orangetheory Fitness","15949 Manchester Rd","63011",38.593049,-90.588835
"63005","Chesterfield","MO","Knockouts","not_available","63011",38.593209973848474,-90.58483625695142
"63005","Chesterfield","MO","Club Fitness","17017 North Outer 40 Rd","63005",38.6712979,-90.591343
"63005","Chesterfield","MO","F45 Training Chesterfield","17065 Baxter Rd","63005",38.6665046,-90.5774196
"63005","Chesterfield","MO","Gym","2005 Shepard Rd","63038",38.59763,-90.644613
"63005","Chesterfield","MO","House of Pain","251 Chesterfield Industrial Blvd","63005",38.66077135886454,-90.6213988207586
"63005","Chesterfield","MO","The J - Chesterfield Gym & Fitness Center","not_available","63005-1668",38.66155242919922,-90.58079528808594
"63005","Chesterfield","MO","Fitness Center @ The Hampton","5 McBride and Son Center Dr","63005",38.669693,-90.602707
"63005","Chesterfield","MO","20 Minutes to Fitness","17107 Chesterfield Airport Rd","63005",38.669183000000004,-90.59108
"63005","Chesterfield","MO","Douchebag Workout","155 THF Blvd, Chesterfield, MO 63005","63005",38.66661163258805,-90.58710950594889
"63005","Chesterfield","MO","Life Time Fitness","3058 Clarkson Rd","63017",38.6071209,-90.5829796
"63010","Arnold","MO","Xist Fitness","3823 Vogel Rd","63010",38.412921871545834,-90.39899234036957
"63010","Arnold","MO","Club Fitness","2218 Michigan Ave","63010",38.4412513,-90.37814589999999
"63010","Arnold","MO","Arnold Rec Center","1695 Missouri State Rd","63010",38.44131124423556,-90.40236638347868
"63010","Arnold","MO","Snap Fitness","not_available","63052",38.40079262168262,-90.43249942144436
"63010","Arnold","MO","Grey Eagles Boxing Club","not_available","63010",38.447975,-90.394828
"63010","Arnold","MO","Gold's Gym","215 Arnold Crossroads Ctr","63010",38.44682080865042,-90.37540298143105
"63010","Arnold","MO","Judies Workout Room At Home","5497 Oakcrest Dr","63052",38.38883590698242,-90.39827728271484
"63010","Arnold","MO","Safety National Gym","Lower Level","63146",38.41393,-90.391454
"63010","Arnold","MO","Contours Express","118 Richardson Xing","63010",38.41318130493164,-90.38456726074219
"63010","Arnold","MO","FBCA Fitness Center","2012 Arnold Church Rd","not_available",38.43788167217569,-90.39015575665395
"63010","Arnold","MO","Family Life Center","2012 Missouri State Rd","63010",38.437896728515625,-90.39071655273438
"63011","Ballwin","MO","The Pointe at Ballwin Commons","1 Ballwin Commons Cir","63021",38.58407397192893,-90.55133916462532
"63011","Ballwin","MO","Gold's Gym","13867 Manchester Road","63011",38.5977626,-90.4842091
"63011","Ballwin","MO","Gold's Gym","14885 West Clayton Road","63017",38.6169772,-90.5400301
"63011","Ballwin","MO","CrossFit Ballwin","14520 Manchester Rd","63011",38.592622,-90.524191
"63011","Ballwin","MO","E2 Fitness","233 Lamp and Lantern Vlg","63017",38.62569808959961,-90.5179443359375
"63011","Ballwin","MO","OsteoStrong Chesterfield","1077 S Woods Mill Rd","63017",38.624507904052734,-90.5163345336914
"63011","Ballwin","MO","St Louis Fitness Results Boot Camp For Women","417 Weidman Rd","63011",38.599779999999996,-90.49408299999999
"63011","Ballwin","MO","The Beauty Angel","Manchester Pacific Beach","63011",38.59274258904469,-90.49663107932075
"63011","Ballwin","MO","St. Louis Fitness Boot Camp","150 Enchanted Pkwy","63021",38.5901137999685,-90.50093473023492
"63011","Ballwin","MO","Lights Out Fitness & Training (The Loft)","14532 Manchester Rd","63011",38.592622,-90.524191
"63011","Ballwin","MO","Wild Horse Fitness","920 Kehrs Mill Rd","63011",38.60502586709283,-90.5659606884287
"63011","Ballwin","MO","Yoga Renaissance","14833 Clayton Rd","63017",38.617465,-90.539326
"63011","Ballwin","MO","workin out","not_available","63021",38.5880382450206,-90.52128954490658
"63012","Barnhart","MO","B. Well Fitness","1730 Primrose Ln","63012",38.331344,-90.406942
"63012","Barnhart","MO","Home gym","not_available","63012",38.332556,-90.415886
"63014","Berger","MO","24/7 Fitness","not_available","63068",38.6017108992896,-91.23431791099672
"63017","Chesterfield","MO","The Club At Chesterfield","16625 Swingley Ridge Rd","63017",38.663772590610186,-90.56966362497046
"63017","Chesterfield","MO","Orangetheory Fitness","1674 Clarkson Rd","63017",38.64370681485915,-90.56482774243622
"63017","Chesterfield","MO","CenturyLink Technology Solutions","1 Solutions Pkwy","63017",38.64046527859998,-90.50697230502927
"63017","Chesterfield","MO","West County YMCA","16464 Burkhardt Pl","63017",38.65537176673216,-90.5716386875202
"63017","Chesterfield","MO","Schoettlers Fitness Room","not_available","63017",38.64850868043137,-90.55474519729614
"63017","Chesterfield","MO","Desloge Outpatient Center- Cardiac Rehab Gym","121 Saint Lukes Center Dr","63017",38.656761169433594,-90.50859069824219
"63017","Chesterfield","MO","Title Boxing Club","1645 Clarkson Rd, Chesterfield, MO 63017","63017",38.64448896966099,-90.56631511980855
"63017","Chesterfield","MO","Anytime Fitness","62 Four Season Shopping Ctr","63017",38.67908,-90.50179
"63017","Chesterfield","MO","CYCLEBAR","1657 Clarkson Rd","63017",38.645599,-90.566238
"63017","Chesterfield","MO","Gym","16201-16207 Swingley Ridge Rd","63017",38.66129169741266,-90.56260656557546
"63017","Chesterfield","MO","Illuminate Gym","1761 Clarkson Rd","63017",38.642775,-90.568867
"63017","Chesterfield","MO","The Fitness Centre","not_available","63141",38.63814435325361,-90.49745766627683
"63017","Chesterfield","MO","Pure Barre","1740 Clarkson Rd Ste 7","63017",38.64123285001924,-90.56534505727507
"63017","Chesterfield","MO","atrium work out  facility","16305 Swingley Ridge Rd","63017",38.6566276550293,-90.56275177001953
"63017","Chesterfield","MO","Chesterfield Family YMCA","16464 Burkhardt Place","63017",38.6552793,-90.5716666
"63019","Crystal City","MO","Flipside Cheer!","501-513 Bailey Rd","63019",38.21911612,-90.38662115
"63019","Crystal City","MO","Bodies@Work Fitness","N Truman Blvd","63019",38.21881178,-90.38573435
"63019","Crystal City","MO","Hahn Extreme Fitness","407 W Main St","63028",38.220047069052605,-90.39491194979117
"63019","Crystal City","MO","Douglas Gym","not_available","63028",38.22186694508876,-90.39340315315108
"63020","De Soto","MO","Jefferson County Family YMCA","1303 YMCA Drive","63028",38.207547814613484,-90.40347194172068
"63020","De Soto","MO","Snap Fitness","not_available","63020",38.14853839515714,-90.57739894989615
"63021","Ballwin","MO","P90X Torture Room","not_available","63088",38.549114,-90.504094
"63021","Ballwin","MO","Pear Tree Inn Gym","1100 S Highway Dr","63026",38.54117,-90.468
"63021","Ballwin","MO","The Proving Ground","1720 W Park Center Dr","63026",38.539515,-90.468531
"63021","Ballwin","MO","CrossFit","555 Saint Louis Ave","63088",38.552748286018016,-90.47780229028933
"63021","Ballwin","MO","Title Boxing Club","2961 Dougherty Ferry Rd.","63088",38.5690439727301,-90.47754795684124
"63021","Ballwin","MO","Anytime Fitness","14557 Manchester Rd","63011",38.59369,-90.52452
"63021","Ballwin","MO","Kensington West Gym","220 Sweetcreek Dr","63021",38.58982849121094,-90.55079650878906
"63025","Eureka","MO","Energy Fitness","not_available","63051",38.41159525216534,-90.58413893131384
"63025","Eureka","MO","Collum Trained School Of Wrestling","4575 Hunter Lane Byrnes Mill Road","not_available",38.41133117675781,-90.58434295654297
"63025","Eureka","MO","Snap Fitness","431 Meramec Blvd","63025",38.507491328187065,-90.63265256258795
"63025","Eureka","MO","Complete Fitness","4567 Hunter Ln","63051",38.41142654418945,-90.5843276977539
"63025","Eureka","MO","Academia Haltere","Luiz Boss","not_available",38.516029357910156,-90.6775131225586
"63026","Fenton","MO","Fenton Cycle Studio","not_available","63026",38.513057708740234,-90.44163513183594
"63026","Fenton","MO","ZFit Studio","300 Biltmore Dr Ste 340","63026",38.4995590124787,-90.46135533708294
"63026","Fenton","MO","WOMEN'S FITNESS Personal Training","954 Brookwood Ctr","63026",38.522271,-90.47267
"63026","Fenton","MO","Holiday Inn Gym","not_available","63127",38.556153075295505,-90.40857553482056
"63026","Fenton","MO","Gym at Drury Fenton","1088 S Highway Rd","not_available",38.542745738228966,-90.44023497602466
"63026","Fenton","MO","Insanity Sweatshop","Dig Deep Ave","not_available",38.502676376471406,-90.49266039995551
"63026","Fenton","MO","Xtreme Krav Maga & Fitness","639 Gravois Bluffs Blvd Ste C","63026",38.50768517897318,-90.43549883218054
"63026","Fenton","MO","Infrared Sauna @ Strength360","133 Matrix Commons Dr","63026",38.538211822509766,-90.45210266113281
"63026","Fenton","MO","Gold's Gym","635 Gravois Road","63026",38.51420380423386,-90.44236063957214
"63026","Fenton","MO","CrossFit Xtra Mile","776 Merus Ct","63026",38.539820822409375,-90.45590707782614
"63026","Fenton","MO","Row House","10746 Sunset Hills Plz","63127",38.55447047043453,-90.40768457116394
"63026","Fenton","MO","Orangetheory Fitness","528 Old Smizer Mill Rd","63026",38.5163928,-90.4521726
"63026","Fenton","MO","Monkey Gym","Fenway","63026",38.533312072271244,-90.4739785194397
"63026","Fenton","MO","CrossFit Valley Park","814 Saint Louis Ave","63088",38.552681,-90.477812
"63028","Festus","MO","My Basement Gym","967 Providence Way","63048",38.25607681274414,-90.4078140258789
"63031","Florissant","MO","Club Fitness","745 N Highway 67 St","63031",38.7994278,-90.3361621
"63031","Florissant","MO","The Blue Zoo","345 James S McDonnell Blvd","63042",38.76756640557141,-90.37156428525024
"63031","Florissant","MO","Kettlbells","2","63031",38.801761,-90.378978
"63031","Florissant","MO","Hazelwood Central Fieldhouse","15875 New Halls Ferry Rd","63031",38.83064012847183,-90.31544109061178
"63031","Florissant","MO","The Boxing Gym Florissant","22 Mullanphy Garden Shopping Center","63031",38.8140899992695,-90.34512793333906
"63031","Florissant","MO","hazelwood Civic Center","not_available","63042",38.78682327270508,-90.35820770263672
"63031","Florissant","MO","Home Gym","W Hazelwood St, Phoenix, AZ","63042",38.78644278274093,-90.37038738198066
"63031","Florissant","MO","JFK Fitness Center","not_available","63031",38.80758965912463,-90.36165365507364
"63031","Florissant","MO","James J Eagan Fitness Center","1 James J Eagan Center Drive","63033",38.7979597721958,-90.31259610948031
"63031","Florissant","MO","Eagle Fitness","23 Mullanphy Garden Shopping Ctr","63031",38.81403583150126,-90.34514365247186
"63031","Florissant","MO","K.I.S.S Fitness","not_available","63033",38.80299758911133,-90.3094711303711
"63033","Florissant","MO","BKM Fitness Boot Camp","110 Jamestown Mall","63034",38.80446059843533,-90.25835285454794
"63033","Florissant","MO","Veterans Memorial County Park and North County Recreation Complex","2577 Redman Rd","63136",38.78156661987305,-90.2503890991211
"63033","Florissant","MO","Curves","3421 N Highway 67","63033",38.813423,-90.292048
"63038","Wildwood","MO","Results Performance","174 Plaza Dr","63040",38.5816686,-90.629411
"63038","Wildwood","MO","My personal gym.","407 Arlington Terrace Dr Bsmt","63040",38.57023620605469,-90.6272964477539
"63038","Wildwood","MO","Anytime Fitness","2450 Taylor Rd","63040",38.580503,-90.627179
"63038","Wildwood","MO","Crossfit Wildwood","16966 Manchester Rd","63040",38.575291,-90.636777
"63038","Wildwood","MO","Home Gym","not_available","63040",38.573563,-90.614285
"63038","Wildwood","MO","Wildwood Family YMCA","2641 Highway 109","63040",38.57345689248746,-90.64601085742473
"63038","Wildwood","MO","My Gym","not_available","63038",38.57201219023335,-90.60336529668598
"63038","Wildwood","MO","Lafayette Girls Volleyball","17050 Clayton Rd","63011",38.595611572265625,-90.63751983642578
"63043","Maryland Heights","MO","Freedom Fitness - House of Pain","12632 Dorsett Rd Ste A","63043",38.7136199,-90.4556152
"63043","Maryland Heights","MO","Edward Jones Family YMCA","12521 Marine Avenue","63146",38.70415637949368,-90.45888089348334
"63043","Maryland Heights","MO","W.S. Fitness Center","Westport Station","63043",38.717564694304386,-90.42267400307867
"63043","Maryland Heights","MO","Spectrum Brands Gym","13260 Corporate Exchange Dr","63044",38.75773620605469,-90.44764709472656
"63043","Maryland Heights","MO","Max Muscle Sports Nutrition St. Louis Store","12638 Dorsett Rd","63043",38.713563,-90.45595
"63043","Maryland Heights","MO","Arlington United Methodist Church","3770 McKelvey Rd","63044",38.75209098594118,-90.42208761529038
"63043","Maryland Heights","MO","Spectrum Brands Rider Trail Gym","1 Rider Trail Plaza Dr","63045",38.759456634521484,-90.45714569091797
"63043","Maryland Heights","MO","Gym","1 Rider Trail Plaza Dr Ste 200","63045",38.759456634521484,-90.45714569091797
"63043","Maryland Heights","MO","Westpointe Apartments Gym","not_available","63146",38.69823649514813,-90.46673855394172
"63043","Maryland Heights","MO","Holiday Inn Express Fitness Center","not_available","63043",38.756312246320604,-90.46614867564271
"63043","Maryland Heights","MO","Advanced OB-GYN Services","12277 De Paul Dr #402","63044",38.75107192993164,-90.4337387084961
"63043","Maryland Heights","MO","CrossFit Maryland Heights","386 Fee Fee Rd","63043",38.713328000000004,-90.42748
"63043","Maryland Heights","MO","My Gym","not_available","63044",38.75176239013672,-90.40743255615234
"63043","Maryland Heights","MO","Boner Farm Fitness","1235 Fordyce Ln","63303",38.763328552246094,-90.51180267333984
"63043","Maryland Heights","MO","SpringHill Suites Fitness Center","3099 Rider Trl S","63044",38.753361,-90.447862
"63043","Maryland Heights","MO","Maryland Heights - Fitness Centre","2344 McKelvey Rd, Maryland Heights, MO 63043","63043",38.7237346693372,-90.44618095584153
"63043","Maryland Heights","MO","Maryland Heights Community Center","2344 McKelvey Rd","63043",38.723710914811065,-90.44698926782901
"63044","Bridgeton","MO","Bridgeton Community Center","4201 Fee Fee Rd","63044",38.74678098943729,-90.40122376277506
"63044","Bridgeton","MO","St. Ann Community Center","1 Community Center Dr","63074",38.731653842781775,-90.3839228995167
"63044","Bridgeton","MO","Cypress Village","Cypress Village Dr","63074",38.73840368791506,-90.38826999786303
"63044","Bridgeton","MO","Cypress Village Fitness Center","not_available","63074",38.73805574389413,-90.39026027365084
"63044","Bridgeton","MO","Curves","10475 Saint Charles Rock Rd","63074",38.730515000000004,-90.385199
"63044","Bridgeton","MO","Beauty Angel","Heaven","not_available",38.744416,-90.390602
"63044","Bridgeton","MO","The Edge Fitness Clubs","950 Northwest Plaza Drive","63074",38.735050201416016,-90.40087890625
"63048","Herculaneum","MO","Kinder's treadmill","not_available","63070",38.27950629771379,-90.39268557504887
"63049","High Ridge","MO","Anytime Fitness","7 Dillon Plz Dr","63049",38.47829,-90.52001
"63049","High Ridge","MO","Boxing Gym","2224 Gravois Rd Ste B","63049",38.47956848144531,-90.5159912109375
"63049","High Ridge","MO","P90x Pain Style","not_available","63049",38.45942351578201,-90.52549385314607
"63049","High Ridge","MO","Boot Camp Challenge Anytime High Ridge","7 Dillon Plaza Dr","63049",38.47822189331055,-90.52018737792969
"63049","High Ridge","MO","Rockwood South Middle School Gymnasium","1628 Hawkins Rd","63026",38.511323,-90.497
"63050","Hillsboro","MO","Jefferson College Field House","Viking Dr","63050",38.2615732863377,-90.55765165336943
"63050","Hillsboro","MO","Angel Fittness","not_available","63050",38.22280781743761,-90.57227611541748
"63055","Labadie","MO","Moeller's Gym","not_available","63055",38.57784,-90.775584
"63055","Labadie","MO","WIGG GYM","not_available","63089",38.491098,-90.87876
"63056","Leslie","MO","Exersize Bikes And Soda?","not_available","63056",38.314329,-91.225424
"63060","Lonedell","MO","CJ's Dungeon","3557","63060",38.230642702302895,-90.84263054991457
"63080","Sullivan","MO","Anytime Fitness","250 S Service Rd E","63080",38.22154998779297,-91.15911102294922
"63080","Sullivan","MO","sullivan sports fitness & rehab","not_available","63080",38.208789493424106,-91.16120186620648
"63080","Sullivan","MO","Snap Fitness","Walmart Dr","63080",38.21959121943686,-91.15548650465159
"63084","Union","MO","Lighthouse Ministry Center","51 Highway M","63089",38.455631256103516,-90.8962173461914
"63084","Union","MO","Snap Fitness","1213-1355 Old U.S. 50","63084",38.433311315962406,-90.9747274955798
"63084","Union","MO","Anytime Fitness","110 Union Plz Dr","63084",38.46091,-91.00315
"63088","Valley Park","MO","forest woods fitness center","Forest Parkway","63088",38.56456794550591,-90.49485091140977
"63090","Washington","MO","Four Rivers YMCA","400 Grand Ave","63090",38.55842586140902,-91.03328968193506
"63090","Washington","MO","Anytime Fitness","2022 Phoenix Ctr Dr","63090",38.53739,-90.98552
"63090","Washington","MO","HomeFront Fitness","not_available","63090",38.553589,-91.005196
"63090","Washington","MO","Four Rivers Family YMCA","400 Grand Avenue","63090",38.5591974,-91.033225
"63090","Washington","MO","The Competitive Edge","545 Commercial Dr","63084",38.490203857421875,-91.00604248046875
"63090","Washington","MO","Home Front Fitness","432 MacArthur St","63090",38.55379867553711,-91.00514221191406
"63090","Washington","MO","Snap Fitness","848 Country Corners","63090",38.539518143099585,-91.00769813765176
"63090","Washington","MO","Rhino Fitness","not_available","63357",38.5770792798147,-90.99725130884472
"63101","Saint Louis","MO","The Gym - Hardee's Corporate Office","100 N Broadway","63102",38.62645721435547,-90.18891906738281
"63101","Saint Louis","MO","Dorsa Gym","not_available","63101",38.63140944377459,-90.1940092262287
"63101","Saint Louis","MO","YMCA","601 Locust","63101",38.62909861028908,-90.19050062016102
"63101","Saint Louis","MO","Schupp Gym","Schupp","63102",38.626952162704974,-90.18879697020084
"63101","Saint Louis","MO","8th Floor Gym","1000 Washington Ave Fl 8","63101",38.63087656797201,-90.19470943343084
"63101","Saint Louis","MO","The Boxing Gym: Downtown","916 Olive St","63101",38.62885665893555,-90.1943359375
"63101","Saint Louis","MO","Gentrys Landing Gym","400 N 4th St","63102",38.628971099853516,-90.18666076660156
"63101","Saint Louis","MO","Broadway Fitness","100 N Broadway Ste 175","63102",38.6263659,-90.1889411
"63101","Saint Louis","MO","Ironworks Fitness","not_available","63102",38.62703323971529,-90.18961605795009
"63101","Saint Louis","MO","720 Olive Gym","720 Olive St","63101",38.628108978271484,-90.19222259521484
"63101","Saint Louis","MO","Mansion House Fitness Center","300 N 4th St","63102",38.628047943115234,-90.18699645996094
"63101","Saint Louis","MO","500 N. Broadway Gym","500 N Broadway","63102",38.62957763671875,-90.18793487548828
"63101","Saint Louis","MO","Peabody Gym","701 Market St","63101",38.626522064208984,-90.1926040649414
"63101","Saint Louis","MO","The Da Vinci Machines Exhibition","800 Market St","63101",38.62617480589701,-90.19341945648193
"63101","Saint Louis","MO","The Gym","5F Embassy Suites","not_available",38.63075224970168,-90.18935065331945
"63101","Saint Louis","MO","The Merchandise Mart Lofts","1000 Washington Ave","63101",38.63102891225611,-90.1943654840268
"63102","Saint Louis","MO","Onelife Fitness","3 Cardinal Way","63102",38.624507,-90.193446
"63102","Saint Louis","MO","12th and Park Recreation Center","1410 S Tucker Blvd","63104",38.613929748535156,-90.20430755615234
"63102","Saint Louis","MO","Fitness Now","333 S 18th St","63103",38.62602,-90.207685
"63102","Saint Louis","MO","8 1/2 Hour Fitness","1000 Clark Ave Fl 4","63102",38.62438201904297,-90.19689178466797
"63102","Saint Louis","MO","The Westin St. Louis - WestinWORKOUT Gym","811 Spruce St","63102",38.62338422954109,-90.19526287429564
"63102","Saint Louis","MO","Hilton Fitness Center","1 S Broadway","63102",38.624909088913896,-90.19047273506374
"63102","Saint Louis","MO","SLMPD Academy Gym","315 S Tucker Blvd","63102",38.624656677246094,-90.19981384277344
"63102","Saint Louis","MO","Lift for Life Gym","1315 Cass Ave.","63106",38.641717395821225,-90.19551491618263
"63102","Saint Louis","MO","Leather Fitness Center","not_available","63103",38.63171783090836,-90.2030808635308
"63102","Saint Louis","MO","Fitness Center at Millennium Hotel","400 S 4th St","63102",38.62125015258789,-90.18982696533203
"63102","Saint Louis","MO","Annex Lofts Gym","1511 Locust St","63103",38.6319694519043,-90.20191955566406
"63102","Saint Louis","MO","ParkPacific Fitness & Yoga Center","1226 Olive St Fl 22","63103",38.62966323063593,-90.19896758350488
"63102","Saint Louis","MO","Fitness Factory","1314 Washington Ave","63103",38.63220853679645,-90.1991400924131
"63103","Saint Louis","MO","Apollo Fit","3001 Locust St","63103",38.63607406616211,-90.22184753417969
"63103","Saint Louis","MO","Blast Fitness","1601 S. Jefferson Ave","63104",38.61628037485982,-90.22137406536255
"63103","Saint Louis","MO","Edge Lofts Gym","715 N 21st St","63103",38.63512,-90.209338
"63103","Saint Louis","MO","WFA Fitness Center","1 N Jefferson Ave","63103",38.632062791153025,-90.21621692806501
"63103","Saint Louis","MO","Booty Camp!","Melissa's Apartment","not_available",38.620112,-90.233019
"63103","Saint Louis","MO","Boss of This Gym","not_available","63108",38.635257720947266,-90.23609924316406
"63103","Saint Louis","MO","V Fit Gym","1807 Park Ave","63104",38.61697991841309,-90.2118333054254
"63103","Saint Louis","MO","M Lofts Fitness Center","1107 Mississippi Ave","63104",38.61988830566406,-90.21330261230469
"63103","Saint Louis","MO","Majestic Stove Gym","2017 Washington Ave","63103",38.634605407714844,-90.2088394165039
"63104","Saint Louis","MO","Gym","1531 S 8th St","63104",38.61170959472656,-90.20099639892578
"63104","Saint Louis","MO","ABECU GYM","1001 Lynch St","63118",38.59995651245117,-90.21142578125
"63104","Saint Louis","MO","South Broadway Athletic Club Gym","3331 S. 7th st.","not_available",38.5927734375,-90.21424865722656
"63104","Saint Louis","MO","Treadmill Of Doom","not_available","63104",38.60788345336914,-90.23123168945312
"63104","Saint Louis","MO","CPH Fitness Center","3558 S Jefferson Ave","63118",38.590702056884766,-90.22557830810547
"63104","Saint Louis","MO","South Broadway Athletic Gym","not_available","63118",38.590776,-90.214505
"63104","Saint Louis","MO","MyTreadmill","Soulard","63104",38.60870869789599,-90.21632138873636
"63104","Saint Louis","MO","Urban Fitness","1800 S Broadway","63104",38.6077880859375,-90.20010375976562
"63104","Saint Louis","MO","Smln Gym","1551 S 9th St","63104",38.610468166666664,-90.19848068333333
"63105","Saint Louis","MO","TruFusion STL","7447 Forsyth Blvd","63105",38.649677782737186,-90.32964642729189
"63105","Saint Louis","MO","Performance Lab","8011 Maryland Ave","63105",38.651856,-90.339818
"63105","Saint Louis","MO","The Center of Clayton","50 Gay Ave","63105",38.65092237547371,-90.34769531383812
"63105","Saint Louis","MO","Muscle up fitness","7622 Wydown Blvd","63105",38.64275325090705,-90.33406092625236
"63105","Saint Louis","MO","Red Fitness Lounge","139 Carondelet Plz","63105",38.6490592956543,-90.33235168457031
"63105","Saint Louis","MO","Fitness Center - Ritz-Carlton St. Louis","not_available","63105",38.648206208528265,-90.3316336582964
"63105","Saint Louis","MO","Snap Fitness","6451 Clayton Rd","63117",38.63409962397934,-90.31110017768037
"63105","Saint Louis","MO","Lionheart Fitness","1039 S Big Bend Blvd","63117",38.63394212415833,-90.31884305633918
"63105","Saint Louis","MO","Club Fitness","6665 Delmar Blvd","63130",38.656469,-90.30756099999999
"63105","Saint Louis","MO","Pederson Fieldhouse","801 Seminary Pl","63105",38.63827133178711,-90.31291961669922
"63105","Saint Louis","MO","Gymboree","1432 Street Louis Galleria","63117",38.63547577333284,-90.34770670573135
"63105","Saint Louis","MO","Fitness Center Marriot Residence","not_available","63117",38.632996,-90.342556
"63105","Saint Louis","MO","Blast Fitness","not_available","63130",38.649663,-90.327257
"63105","Saint Louis","MO","Bally Total Fitness","7393 Forsyth Blvd","63105",38.64945324567641,-90.3272238225848
"63105","Saint Louis","MO","Rocky's Gym","618 County Rd","63130",38.657975,-90.320556
"63105","Saint Louis","MO","Outside Gym","not_available","63110",38.641569,-90.302453
"63105","Saint Louis","MO","Fit Chix Fitness Studio","7642 Forsyth Blvd","63105",38.64936962905207,-90.33400814056368
"63105","Saint Louis","MO","Mark Twain Athletic and Fitness Center","1 University Blvd","63121",38.64899129809581,-90.31269806875653
"63105","Saint Louis","MO","Naturally Fit Stl","8029 Clayton Rd","63117",38.638118743896484,-90.34303283691406
"63105","Saint Louis","MO","Wellbridge Athletic Club & Spa - Clayton","7676 Forsyth Boulevard #100","63105",38.6496224,-90.3339747
"63105","Saint Louis","MO","Fit By Definition","7921 Forsyth Blvd","63105",38.65073013305664,-90.33910369873047
"63105","Saint Louis","MO","Butzweilerhof","7930 Clayton Rd","63117",38.636051177978516,-90.34107208251953
"63106","Saint Louis","MO","Hitting Lessons","not_available","63109",38.65299,-90.21108
"63108","Saint Louis","MO","St. Louis Workout","245 Union","63108",38.6463999,-90.2747357
"63108","Saint Louis","MO","The Boxing Gym","4151 Lindell Blvd.","63108",38.641277121974554,-90.24637699127197
"63108","Saint Louis","MO","6 North","4055 Laclede Ave","63108",38.637288,-90.246141
"63108","Saint Louis","MO","Pure Barre","4931 Lindell Blvd Ste 100","63108",38.643777871637,-90.26286935198209
"63108","Saint Louis","MO","Evolution Fitness","5290 Waterman Blvd","63108",38.64881561,-90.27376411
"63108","Saint Louis","MO","ez body Fitness","not_available","63112",38.65646860954426,-90.26847577634149
"63108","Saint Louis","MO","E2 - Fitness Center (in DuPont)","4300 Duncan Ave","63110",38.634864807128906,-90.25345611572266
"63108","Saint Louis","MO","BJC WellAware Center","600 S Taylor Ave","63110",38.63484866295854,-90.25949465361002
"63108","Saint Louis","MO","The Lab Gym","3684 Forest Park Ave","63108",38.6333310315377,-90.23699286817495
"63108","Saint Louis","MO","No Shelter Crossfit","4160 Olive Street","63108",38.64403229558817,-90.24587982459556
"63108","Saint Louis","MO","Lindell Towers W - Workout Room","3745 Lindell Blvd","63108",38.63856887817383,-90.2375717163086
"63108","Saint Louis","MO","Lindell Towers West Gym","Lindell Blvd.","62040",38.638689477912756,-90.2378812372835
"63108","Saint Louis","MO","Sante Fitness & Wellness","212 North Kingshighway Boulevard","63108",38.643935272633996,-90.26407712415698
"63108","Saint Louis","MO","Stair Climb Training","kingshighway @ 40","not_available",38.6430506091896,-90.26626574747638
"63108","Saint Louis","MO","Snap Fitness","4477 Forest Park Ave","63108",38.638399370642325,-90.25867789403549
"63108","Saint Louis","MO","Coronado Place","3701 Lindell Blvd","63108",38.638657,-90.236913
"63108","Saint Louis","MO","The Fitness Formula","4630 Lindell Blvd","63108",38.6427775741091,-90.2612209624512
"63109","Saint Louis","MO","Club Fitness","12 Hampton Village Street","63109",38.5925955,-90.2922182
"63109","Saint Louis","MO","Concordia Turners","6432 Gravois Ave","63116",38.57291662640893,-90.28120180023497
"63109","Saint Louis","MO","Hellfish Fitness Boot Camp","5000 Donovan Avenue","63109",38.58676018333333,-90.30381325
"63109","Saint Louis","MO","Club Fitness","4318 Loughborough Ave","63116",38.5659515,-90.2781722
"63109","Saint Louis","MO","Park Forest Fitness Center","not_available","63123",38.572487394433544,-90.30856229358089
"63109","Saint Louis","MO","CYC @ MYC","not_available","63116",38.588391,-90.273549
"63109","Saint Louis","MO","Gym / Fitness Center","4924 Hampton Ave","63109",38.586219787597656,-90.29232788085938
"63110","Saint Louis","MO","Club Fitness","6554 Manchester Ave","63139",38.6186827,-90.2982105
"63110","Saint Louis","MO","D.N.A. On The Hill","1647 Macklind Ave","63110",38.62107776717317,-90.27660356324554
"63110","Saint Louis","MO","Sully's Gym","not_available","63139",38.61653514979428,-90.29032230377197
"63110","Saint Louis","MO","Project Deliverance","5231A Manchester Ave","63110",38.62453451263616,-90.27375959089679
"63110","Saint Louis","MO","Snap Fitness","Clayton Rd.","63105",38.63080038671807,-90.28768812902264
"63110","Saint Louis","MO","SLUH Field House","Oakland Ave","63110",38.627500276533965,-90.26817315087658
"63110","Saint Louis","MO","D.N.A.","1301 Candle enter","63110",38.62666675418897,-90.25124362479607
"63110","Saint Louis","MO","City Cages","900 S Boyle Ave","63110",38.62997817993164,-90.25324249267578
"63110","Saint Louis","MO","The Lab Gym 3.0: The Glass Castle","5035 Manchester Ave","63110",38.625331734683975,-90.26946981819918
"63111","Saint Louis","MO","Carondelet Park Rec Complex","930 Holly Hills Ave","63111",38.56043589520724,-90.2659310444877
"63111","Saint Louis","MO","The Temtor Gym","8125 Michigan Ave, St Louis, MO 63111","63111",38.545745849609375,-90.26570892333984
"63111","Saint Louis","MO","southside fight club","not_available","63125",38.54568516787906,-90.2659402143943
"63111","Saint Louis","MO","Torture Chamber","not_available","63111",38.573753755327786,-90.23389082442286
"63112","Saint Louis","MO","Monsanto YMCA","5555 Page Blvd","63112",38.66428588010239,-90.27710584052738
"63112","Saint Louis","MO","WellAware","600 A Taylor Suite 110","63110",38.6490475283717,-90.29696976682763
"63112","Saint Louis","MO","Police Acadmey Weight Room","1266 Sutter Ave","63133",38.67137145996094,-90.30006408691406
"63112","Saint Louis","MO","Fit By Definition St Louis","1 Fine Arts Dr","63110",38.640071868896484,-90.29515838623047
"63114","Saint Louis","MO","Murphy Company Gym","1233 N Price Rd","63132",38.68027114868164,-90.36904907226562
"63114","Saint Louis","MO","Dynamic Fitness Studio","not_available","63114",38.704219818115234,-90.3614730834961
"63115","Saint Louis","MO","St. Louis Fire Dept. Engine House #24","5245 Natural Bridge Ave","63115",38.67910726621091,-90.2575012864339
"63115","Saint Louis","MO","ymca","4343 W Florissant Ave","63115",38.679588317871094,-90.2236099243164
"63115","Saint Louis","MO","O'Fallon Park Rec Complex","4343 West Florissant","63115",38.682584,-90.222735
"63115","Saint Louis","MO","115 Federal Bldg","not_available","63120",38.69072126733827,-90.26410169127354
"63116","Saint Louis","MO","GarageFit Q&R","4102 Quincy","not_available",38.56335387612273,-90.27567681564202
"63116","Saint Louis","MO","South City Family YMCA","3150 Sublette Ave","63139",38.60431037503093,-90.2808470087809
"63116","Saint Louis","MO","Wyoming Workout Kitchen","42** Wyoming St","63116",38.60049583,-90.2609983
"63116","Saint Louis","MO","Fitness Fuzion","715 Sonderen","63366",38.58270030819533,-90.26113547899409
"63116","Saint Louis","MO","7247 Fitness","4360 Taft Ave","63116",38.5869026184082,-90.26760864257812
"63116","Saint Louis","MO","Trophy Wife Gym","3630 Connecticut St","63116",38.59989547729492,-90.24386596679688
"63117","Saint Louis","MO","The Heights","8001 Dale Ave","63117",38.62867398754596,-90.33123243269644
"63117","Saint Louis","MO","Studio Element Personal Training","2001 S Hanley Rd","63144",38.62133,-90.33519
"63117","Saint Louis","MO","faster fitness","1432 Strassner Dr","63144",38.62139129638672,-90.33692932128906
"63117","Saint Louis","MO","CYCLEBAR","8025 Dale Ave","63117",38.62826,-90.332614
"63117","Saint Louis","MO","TONE Fitness Studio","not_available","63144",38.62549752558187,-90.34306384811877
"63117","Saint Louis","MO","CrossFit Saint Louis","567 Hanley Industrial Court","63144",38.6214918,-90.3404447
"63117","Saint Louis","MO","Physio Preformance Systems","Strassner","63144",38.622780952616004,-90.33957978268882
"63117","Saint Louis","MO","Mid-County Family YMCA","1900 Urban Drive","63144",38.624483,-90.345144
"63117","Saint Louis","MO","Iron Tribe Fitness Brentwood MO","1336 Strassner Dr","63144",38.62239108792227,-90.33922593988115
"63117","Saint Louis","MO","Flexologyâ„¢ Strength and Fitness Club","7750 Clayton Rd #305","63117",38.637481689453125,-90.33759307861328
"63117","Saint Louis","MO","Club Basement","8700 Garden Ct","63144",38.622033,-90.345344
"63118","Saint Louis","MO","Cloister's Fitness Center","2500 S 18th St","63104",38.603355407714844,-90.2136001586914
"63118","Saint Louis","MO","NexCore Fitness","2657 Gravois Ave","63118-1543",38.604303,-90.22525
"63119","Saint Louis","MO","Orangetheory Fitness","9434 Manchester Rd","63119",38.60909698487773,-90.36277450435976
"63119","Saint Louis","MO","Nerinx Hall Weight Room","not_available","63119",38.5902045035959,-90.34166533314905
"63119","Saint Louis","MO","Westborough Country Club","631 S Berry Rd","63122",38.58038007480236,-90.3794863131303
"63119","Saint Louis","MO","TITLE Boxing Club Maplewood","3515 South Big Bend Boulevard","63143",38.6029911,-90.32598279999999
"63119","Saint Louis","MO","Club Fitness","9550 Manchester Rd","63119",38.607709855369514,-90.36471280891624
"63119","Saint Louis","MO","Webster Groves Recreational Center","33 E Glendale Rd","63119",38.5776821298962,-90.35559634780395
"63119","Saint Louis","MO","Vetta Sports Clubs - Soccerdome","220 East Ave","63119",38.60167,-90.35156
"63119","Saint Louis","MO","Maplewood Highschool","not_available","63143",38.61442772366922,-90.32447434074577
"63119","Saint Louis","MO","jazzercise","Shrewsbury Ave, Shrewsbury, MO 63119","63119",38.58527644606091,-90.3282030842999
"63119","Saint Louis","MO","The Edge Fitness Clubs","7315 Watson Rd","63119",38.58169937133789,-90.32074737548828
"63119","Saint Louis","MO","Dynamic Personal Fitness, LLC","607 E Lockwood Ave","63119",38.591343195839656,-90.34109310470596
"63119","Saint Louis","MO","Blues City Athletics","8500 Manchester Rd","63144",38.6119675,-90.34306749999999
"63119","Saint Louis","MO","Crossfit 26","8229 Brentwood Industrial Dr","63144",38.61002613551651,-90.34027216591949
"63119","Saint Louis","MO","Club Fitness","1101-1115 S Berry Rd","63119",38.60225694418027,-90.37708148931277
"63119","Saint Louis","MO","Sculpted Fitness","9228 Manchester Rd","63144",38.61151885986328,-90.35713958740234
"63119","Saint Louis","MO","Wise Warriors Kick 30","7403 Manchester Rd","63143",38.61282509999999,-90.3202829
"63119","Saint Louis","MO","Stretch U","9426 Manchester Rd.","63119",38.608890533447266,-90.36273956298828
"63119","Saint Louis","MO","SMTC","20 Allen Ave, St Louis, MO 63119","63119",38.593849182128906,-90.36116027832031
"63119","Saint Louis","MO","Max Effort Strength And Conditioning","3101 Bartold Ave","63143",38.606980543330096,-90.33356880672335
"63119","Saint Louis","MO","Magnolia Fitness","7600 Hazel Avenue","63119",38.5855789,-90.33214329999998
"63119","Saint Louis","MO","Webster Groves YMCA","226 E Lockwood Ave","63119",38.59210219687537,-90.35129243160354
"63119","Saint Louis","MO","The Exercise Coach","235 W Lockwood Ave","63119",38.593584,-90.363294
"63119","Saint Louis","MO","Faster Fitness","8204 Exchange Way","63144",38.60928569783511,-90.33812332328206
"63121","Saint Louis","MO","St. Vincent's County Park & Community Center","7335 Saint Charles Rock Rd","63133",38.6976119205373,-90.30855770361838
"63121","Saint Louis","MO","Basement Fitness","not_available","63121",38.70584,-90.287766
"63121","Saint Louis","MO","Mark Twain Athletic and Fitness Center","1 University Ln","63121",38.7167263661246,-90.30875972867857
"63122","Saint Louis","MO","Gold's Gym","10320 Manchester Road","63122",38.599637,-90.397711
"63122","Saint Louis","MO","All-Star Performance","not_available","63122",38.567075278274125,-90.39039762660798
"63122","Saint Louis","MO","All N 1 Fitness","9744 Watson Rd","63126",38.556366,-90.386339
"63122","Saint Louis","MO","Kirkwood Family YMCA","325 N Taylor Ave","63122",38.5840107,-90.4045134
"63122","Saint Louis","MO","Shark Fitness Headquarters","Bonroyal Dr","63131",38.598455,-90.467276
"63122","Saint Louis","MO","Planet Fitness","9450 Watson Road","63126",38.556869718335484,-90.37644042646258
"63122","Saint Louis","MO","Greenbriar Gym","1980 Hunting Lake Ct","63122",38.57263683895535,-90.44060433951303
"63122","Saint Louis","MO","Yoga Six","12360 Manchester Rd Ste 206","63131",38.6031773,-90.4437632
"63122","Saint Louis","MO","Anytime Fitness","343 Watson Plz","63126",38.55822,-90.39011
"63122","Saint Louis","MO","BARx CrossFit","12309 Old Big Bend Rd","63122",38.60192522408747,-90.43733508137042
"63122","Saint Louis","MO","The Compound Sweat Shop","818 Des Peres Rd","63131",38.591148376464844,-90.45248413085938
"63122","Saint Louis","MO","Kirkwood HS Sports Complex","801 W Essex Ave","63122",38.59163405413821,-90.42416550720667
"63122","Saint Louis","MO","Kirkwood Bluffs Gym","Timberbrook","63122",38.56554917704382,-90.44245719909668
"63122","Saint Louis","MO","Kirkwood Bluffs Fitness Center","2300 Timberview Rd","63122",38.563358306884766,-90.44743347167969
"63122","Saint Louis","MO","Gym at LCMS","1333 S Kirkwood Rd","63122",38.560752868652344,-90.4083023071289
"63122","Saint Louis","MO","Pure Barre","11684 Manchester Rd","63131",38.59923272315988,-90.42684176519543
"63122","Saint Louis","MO","Strive 2 Fitness","2350 Timberview Rd","63122",38.56351089477539,-90.4481430053711
"63122","Saint Louis","MO","Powerplay Fitness and Training","12076 Manchester Rd","63131",38.601671996472916,-90.43723102871331
"63123","Saint Louis","MO","Center St. Louis","6727 Langley Ave","63123",38.56175649029517,-90.32935925334911
"63123","Saint Louis","MO","Mi Casa Gym","8700 Mackenzie Rd","63123",38.55469512939453,-90.3227310180664
"63123","Saint Louis","MO","Back Alley Strength And Conditioning","315 Lemay Ferry Rd","63125",38.54221725463867,-90.27767181396484
"63123","Saint Louis","MO","Christ Memorial Fitness Center","5252 S Lindbergh Blvd","63126",38.528194427490234,-90.36573791503906
"63123","Saint Louis","MO","Club Fitness","10047 Gravois Rd","63123",38.55173509999999,-90.334931
"63123","Saint Louis","MO","All American","not_available","63128",38.51680043046947,-90.33745300301818
"63123","Saint Louis","MO","Affton White-Rodgers Community Center","9801 Mackenzie Rd","63123",38.541342847583635,-90.32484393149849
"63123","Saint Louis","MO","Trivium Personal Fitness","9335 Gravois Rd","63123",38.55425263,-90.31930842
"63123","Saint Louis","MO","Xist Fitness","151 Concord Plaza","63128",38.52369991904903,-90.36309310162382
"63124","Saint Louis","MO","Mary Institute And St Louis Country Day School","101 N Warson Rd","63124",38.65618930264543,-90.39741907212155
"63124","Saint Louis","MO","The Gym","not_available","63124",38.624341,-90.404562
"63124","Saint Louis","MO","The Pilates Center of St. Louis","9825 Clayton Rd, Ladue Marketplace","63124",38.6380043206102,-90.3909079268994
"63124","Saint Louis","MO","Orangetheory Fitness","10277 Clayton Rd","63124",38.63369233767611,-90.40471913205612
"63124","Saint Louis","MO","Pure Barre","8885 Ladue Rd","63124",38.654048211463596,-90.35351982040322
"63125","Saint Louis","MO","Club Fitness","4438 Lemay Ferry Rd","63129",38.4990558,-90.3317455
"63125","Saint Louis","MO","The Battlefield (If you can dodge a chair)","Barracksview","63125",38.49905289180334,-90.30810015963499
"63125","Saint Louis","MO","Gymboree","405 S County Center Way","63129",38.50516128540039,-90.33482360839844
"63126","Saint Louis","MO","SMTC Crestwood","119 Watson Plz","63126",38.55772018432617,-90.38780975341797
"63128","Saint Louis","MO","South County Family YMCA","12736 Southfork Rd","63128",38.50200466725985,-90.38241196218078
"63128","Saint Louis","MO","Orangetheory Fitness","12434 Tesson Ferry Rd","63128",38.5085956,-90.3745945
"63128","Saint Louis","MO","PowerFit Bootcamp","4355 Butler Hill Rd","63128",38.48632049560547,-90.36018371582031
"63128","Saint Louis","MO","bills gym","5851 Cedar View Pl, St Louis, MO 63128","63128",38.478248596191406,-90.39103698730469
"63128","Saint Louis","MO","Rehab Care","4866 Lemay Ferry Rd","63129",38.48969268798828,-90.3464126586914
"63128","Saint Louis","MO","Anytime Fitness","4329F Butler Hill Rd","63128",38.48778,-90.35806
"63128","Saint Louis","MO","Give Me Five","5439 Ringer Rd","63129",38.478355407714844,-90.34709930419922
"63128","Saint Louis","MO","Share the Burden Crossfit","4004 Butler Hill Rd Ste C","63129",38.485433118720856,-90.34712394872618
"63128","Saint Louis","MO","Vetta Sports","12320 Old Tesson Rd","63128",38.51111,-90.37016
"63128","Saint Louis","MO","Southmoor Fitness Ctr","8125 Golf Ridge","63128",38.48451721415856,-90.38581426663839
"63129","Saint Louis","MO","The Workout Company","5571 Oakville Shopping Ctr","63129",38.470792100557276,-90.3068866476588
"63129","Saint Louis","MO","Burnin Them Cals Fo Free::home Gym","not_available","63129",38.47799425232112,-90.30634540440998
"63129","Saint Louis","MO","Curves","5670 Telegraph Rd","63129",38.46724319458008,-90.30519104003906
"63129","Saint Louis","MO","Fitwize4kids","5626 Telegraph Rd","63129",38.46693801879883,-90.30349731445312
"63129","Saint Louis","MO","Snap Fitness Oakville","6070 Telegraph Rd","63129",38.45623309975921,-90.30560275596183
"63129","Saint Louis","MO","Oakville Fit Body Boot Camp","5445 Telegraph Rd","63129",38.47380416472441,-90.30554437640603
"63130","Saint Louis","MO","Centennial Commons","7210 Olive Blvd","63130",38.66846587722331,-90.3215484184933
"63130","Saint Louis","MO","Washington University Weight Room","Athletic Complex","not_available",38.647137,-90.30933086666667
"63130","Saint Louis","MO","20 MInutes to Fitness","130 S Bemiston Ave Ste 101","63105",38.6475953488886,-90.3370463848114
"63131","Saint Louis","MO","Hilton St. Louis Frontenac Fitness Center","not_available","63131",38.633643,-90.407843
"63131","Saint Louis","MO","LHM Fitness Center","660 Mason Ridge Center, St. Louis, MO 63141","63141",38.63939160151293,-90.47398924827576
"63131","Saint Louis","MO","Sports Medicine and Training Center","12691 Conway Rd","63141",38.651057866084585,-90.46750356545824
"63131","Saint Louis","MO","Nutriformance","10407 Clayton Rd","63131",38.63368006852924,-90.40877697169049
"63131","Saint Louis","MO","KHS weight room","801 W Essex Ave, St Louis, MO 63122","63122",38.59151077270508,-90.42373657226562
"63131","Saint Louis","MO","St. Peter Gym","215 N Clay Ave","63122",38.582678,-90.409352
"63131","Saint Louis","MO","Fitness Together - Des Peres","13321 Manchester Rd","63131",38.60148723,-90.46695829
"63131","Saint Louis","MO","Des Peres Lodge","1050 Des Peres Rd","63131",38.59989622706815,-90.45410501039233
"63131","Saint Louis","MO","Core Fitness","1050 Old des Peres Rd","63131",38.60001370811951,-90.45175583698875
"63131","Saint Louis","MO","Station Plaza Fitness","141 E Madison Ave","63122",38.58025,-90.405767
"63131","Saint Louis","MO","Life Time Frontenac","2051 South Lindbergh Blvd","63131",38.626468166417936,-90.40605425834656
"63131","Saint Louis","MO","F45 Training Des Peres","11735 Manchester Rd","63131",38.601611,-90.428778
"63132","Saint Louis","MO","Snap Fitness","Olive Blvd","63132",38.67359597198511,-90.36731196920684
"63132","Saint Louis","MO","Anytime Fitness","9654 Olive Blvd","63132",38.67346954345703,-90.38758087158203
"63132","Saint Louis","MO","Monsanto Wellness Center","800 N Lindbergh Blvd","63167",38.66933059692383,-90.39977264404297
"63134","Saint Louis","MO","Fitness Center - Renaissance","9801 Natural Bridge Rd","63134",38.732123,-90.34636400000001
"63134","Saint Louis","MO","Gym Marriott Hotel","not_available","63134",38.73778280901796,-90.36824973771701
"63134","Saint Louis","MO","Boeing Fitness Center","Airport Rd.","63134",38.75375508366691,-90.34553237822335
"63135","Saint Louis","MO","Emerson Family YMCA","3390 Pershall Road","63135",38.76916596867703,-90.28252324981995
"63135","Saint Louis","MO","Planet Fitness","10803 W. Florissant Ave","63136",38.767025,-90.283194
"63135","Saint Louis","MO","Curves","252 S Florissant Rd","63135",38.740089416503906,-90.30300903320312
"63136","Saint Louis","MO","Total Body Beautiful Fitness LLC","10113 Lewis and Clark Blvd","63136",38.754073383599625,-90.2393657203855
"63136","Saint Louis","MO","home gym","not_available","63136",38.74079132080078,-90.2550048828125
"63139","Saint Louis","MO","Yoga Six","5724 Oakland Ave","63110",38.6302025923877,-90.2823122306711
"63141","Saint Louis","MO","Club Fitness","957 Woodcrest Executive Dr","63141",38.674616952163746,-90.45174170000001
"63141","Saint Louis","MO","CYCLEBAR","11625 Olive Boulevard","63141",38.6716389,-90.4398056
"63141","Saint Louis","MO","YogaSix","11641 Olive Blvd","63141",38.67097854614258,-90.44046783447266
"63141","Saint Louis","MO","Fitness Edge","10571 Old Olive Street Rd","63141",38.674016,-90.413543
"63141","Saint Louis","MO","HBE Fitness Center","11330 Olive Blvd","63141",38.67036437988281,-90.43061065673828
"63141","Saint Louis","MO","Camden Gym","10900 Chase park lane","63141",38.6736935377121,-90.41903078556061
"63141","Saint Louis","MO","BUFF","11628 Old Ballas Rd","63141",38.666196610891475,-90.44046985057683
"63141","Saint Louis","MO","The Little Gym","12802 Olive Blvd","63141",38.67950692748362,-90.47298247097525
"63141","Saint Louis","MO","Fit Chix","12295 Olive Blvd","63141",38.67356298370115,-90.45551191454672
"63141","Saint Louis","MO","Next Step Fitness (CityPlace Fitness Center)","3 Cityplace Dr","63141",38.672642348020815,-90.4408526761846
"63141","Saint Louis","MO","Fitness Center at The Hallmark","1 New Ballas Pl, Creve Coeur, MO 63146","63146",38.67441177368164,-90.4364013671875
"63146","Saint Louis","MO","Doubletree Fitness Center","Doubletree Westport","63146",38.69409482061465,-90.4491105205278
"63146","Saint Louis","MO","Upper Limits","1874 Lackland Hill Pkwy","63146",38.69474941111473,-90.41248226499961
"63146","Saint Louis","MO","Talx Woodlands Gym","11840 Borman Dr","63146",38.69329833984375,-90.43743133544922
"63146","Saint Louis","MO","Gym","11801-11809 Borman Dr","63146",38.69335412979126,-90.43676555156708
"63147","Saint Louis","MO","Kettlebells","2","63147",38.65623,-90.19094
"63301","Saint Charles","MO","CrosstFit TNT","3683 New Town Blvd","63301",38.82865762966914,-90.51882263703145
"63301","Saint Charles","MO","St. Peters Rec-Plex","5200 Mexico Rd","63376",38.791878263255676,-90.5943119100378
"63301","Saint Charles","MO","New Town Fitness","3233-1 Domain St","63301",38.83748279408871,-90.49416838117746
"63301","Saint Charles","MO","Vetta Sports","1425 St Peters Cottleville Rd","63376",38.76662,-90.6373799
"63301","Saint Charles","MO","Game Time Sports Complex","4160 Ehlmann Rd","63376",38.79970222628343,-90.57268884333891
"63301","Saint Charles","MO","FZE Gymnasium","600 First Executive Ave","63376",38.788448333740234,-90.58500671386719
"63301","Saint Charles","MO","Homemade Gym","not_available","63376",38.772431,-90.613988
"63301","Saint Charles","MO","Premier Fitness","439 N Kingshighway St","63301",38.78842181856513,-90.49124415053222
"63301","Saint Charles","MO","Crestview Workout Center","not_available","63301",38.76974747305674,-90.49027633872088
"63301","Saint Charles","MO","Kor Fitness","1012 1st Capitol Dr","63301",38.783653259277344,-90.49391174316406
"63301","Saint Charles","MO","Curves","3766 Elm Street","63301",38.82183868578969,-90.5160140991211
"63301","Saint Charles","MO","St. Charles County Family YMCA","3900 Shady Springs Lane","63376",38.80096385,-90.57128262
"63301","Saint Charles","MO","Residences Gym","not_available","63303",38.76445608169071,-90.4942467793231
"63301","Saint Charles","MO","Premier Fitness","4029 S Cloverleaf Dr","63376",38.79201889038086,-90.5698013305664
"63301","Saint Charles","MO","Weight Room","300 1st Capitol Dr","63301",38.780975341796875,-90.48475646972656
"63301","Saint Charles","MO","Advanced OB-GYN Services","4200 N Cloverleaf Dr","63376",38.79447937011719,-90.57575225830078
"63301","Saint Charles","MO","dfm","5th Steeet","63301",38.78592621480374,-90.5167273047242
"63303","Saint Charles","MO","Club Fitness","251 Centre Pointe Dr.","63376",38.7492115054491,-90.58734449258081
"63303","Saint Charles","MO","Dynamic Fitness Management HQ","not_available","63304",38.74897135743162,-90.58763646708479
"63303","Saint Charles","MO","Draig's Wehr","2416 Eagle Forest Dr","63303",38.753403999999996,-90.540223
"63303","Saint Charles","MO","The Gym","Sequoia dr","not_available",38.752803,-90.563898
"63303","Saint Charles","MO","The Fitness Underground","1860 Scherer Pkwy","63303",38.762408,-90.525175
"63303","Saint Charles","MO","YogaSix","1450 Beale St., Unit 115","63303",38.767114,-90.49329039999999
"63303","Saint Charles","MO","CF2 Premium Crossfit","3643 N Saint Peters Pkwy","63376",38.749565999999994,-90.586919
"63303","Saint Charles","MO","BABY BOOMERS TRAINER & SENIOR","1272 Harvest Ridge Drive","63303",38.751229,-90.527496
"63303","Saint Charles","MO","St. Peters CrossFit","929 Jungermann Rd","63376",38.771961,-90.581698
"63303","Saint Charles","MO","Garage Gym","3608 Arlington Dr","63303",38.73139190673828,-90.57467651367188
"63304","Saint Charles","MO","Burn Boot Camp","6706 State Highway N","63304",38.755257,-90.69786
"63304","Saint Charles","MO","MC Fitness Center","not_available","63366",38.7470931860867,-90.7472054079108
"63304","Saint Charles","MO","Freedom Fitness - Cottleville","5991 Mid Rivers Mall Dr","63304",38.74995494904068,-90.63587996162414
"63304","Saint Charles","MO","Boot Camp Challenge","460 Saint Peters Howell Rd","63304",38.74609042021798,-90.61177789562228
"63304","Saint Charles","MO","Club Fitness","2947 State Highway K","63366",38.75957436613098,-90.7038671865082
"63304","Saint Charles","MO","Barre Harmony","6119 Mid Rivers Mall Dr","63304",38.74319802428952,-90.63658600859833
"63304","Saint Charles","MO","Transform Fitness & Nutrition","1259 Stephenridge Dr","63304",38.73130416870117,-90.62470245361328
"63304","Saint Charles","MO","Crossfit St. Charles","81 Jason Ct","63304",38.727719,-90.65540899999999
"63304","Saint Charles","MO","Excel Sports Athletic Enhancement","5055 Highway N","63304",38.74483108520508,-90.64041137695312
"63304","Saint Charles","MO","F45 Training O'Fallon Dardenne Prairie","2347 State Hwy K","63368",38.7189547,-90.7046255
"63304","Saint Charles","MO","Excel Sports","Hwy N","63304",38.74532997608185,-90.64080655574799
"63304","Saint Charles","MO","Orangetheory Fitness","6201 Mid Rivers Mall Dr","63304",38.740478515625,-90.63642883300781
"63304","Saint Charles","MO","Bell Prairie Point Pool","1 Prairie Pt","63368",38.747928619384766,-90.69139862060547
"63304","Saint Charles","MO","O'Fallon Missouri YMCA","3451 Pheasant Meadow Drive","63368",38.7454772,-90.6951729
"63341","Defiance","MO","Curves","30 W Highway D Ste 205","63365",38.709739685058594,-90.87980651855469
"63348","Foristell","MO","CrossFit 70","1854 W Pearce Blvd","63385",38.805367,-90.891875
"63348","Foristell","MO","Stacys Gym","not_available","63390",38.873185509361576,-91.00187429928198
"63353","Louisiana","MO","twin pike ymca","800 Kelly Ln","63353",39.43719482421875,-91.0838394165039
"63361","Montgomery City","MO","Average Joe's Fitness","3rd Street","5735642012",38.977698115773585,-91.50546375909865
"63362","Moscow Mills","MO","Ultimate Fitness","425 S Lincoln Dr","63379",38.97222137451172,-90.96656036376953
"63362","Moscow Mills","MO","winchester chiropractic Weight Training With Sheila","not_available","63362",38.94688415527344,-90.92549133300781
"63362","Moscow Mills","MO","Aim High Elite","not_available","63379",38.974004049246155,-90.96619267620737
"63366","O Fallon","MO","Club Fitness","3651 N St Peters Pkwy","63376",38.807780974947846,-90.6969536923378
"63366","O Fallon","MO","CA Workout Facility","not_available","63367",38.795953450683115,-90.7883359818033
"63366","O Fallon","MO","mobile life fitness","251 Tyndale Dr","63366",38.80059814453125,-90.74507904052734
"63366","O Fallon","MO","The Fitness Room","Winter Wind Dr","63366",38.78955563547987,-90.70722732740974
"63366","O Fallon","MO","The Fitness Fuzion Zumba","925 Highway K","63366",38.79786892324547,-90.70079775743729
"63366","O Fallon","MO","Club Fitness","hwy n","63368",38.83121872880995,-90.73531499750374
"63366","O Fallon","MO","Edstrom Elite Fitness","1299 Bryan Rd","63366",38.787473999999996,-90.737402
"63366","O Fallon","MO","Gold's Gym","2601 Hwy K","63368",38.7733724,-90.7018349
"63366","O Fallon","MO","Snap Fitness","1084 Tom Ginnever Ave","63366",38.82130764232263,-90.67740721740219
"63366","O Fallon","MO","Powerbody USA Fitness Center","403 Sonderen St","63366",38.806139402235125,-90.69588436470286
"63366","O Fallon","MO","Collins Fit","1082 Tom Ginnever Ave","63366",38.82109451293945,-90.67689514160156
"63366","O Fallon","MO","Jim's Gym","909 Jacobs Ln","63366",38.82057189941406,-90.69515991210938
"63366","O Fallon","MO","Excel Training","175 Mid Rivers Mall Dr","63376",38.7978515625,-90.62207794189453
"63366","O Fallon","MO","Dfm Warehouse","108 Crafton Dr","63366",38.80472946166992,-90.75473022460938
"63367","Lake Saint Louis","MO","Orangetheory Fitness","6307 Ronald Reagan Dr","63367",38.768193,-90.783965
"63367","Lake Saint Louis","MO","YMCA","5293 Quail Ridge Pkwy","63385",38.80178450303774,-90.83001334378922
"63367","Lake Saint Louis","MO","Fitness Now","3010 Winghaven Blvd","63368",38.749080657958984,-90.7492904663086
"63367","Lake Saint Louis","MO","Jacks Basketball Court","not_available","63368",38.759408,-90.749032
"63367","Lake Saint Louis","MO","Freedom Fitness -- Lake St. Louis (Complete Fitness)","6225 Ronald Reagan Dr","63367",38.770366,-90.783475
"63367","Lake Saint Louis","MO","Doran Fitness","2315 Technology Dr #115","63368",38.751067870514156,-90.75420790887533
"63367","Lake Saint Louis","MO","F45 Training West Lake St Louis","107 Pond Fort Trl","63367",38.76323318481445,-90.78797149658203
"63367","Lake Saint Louis","MO","iLoveKickboxing - Lake St. Louis, MO","20 Meadows Circle Dr","63367",38.781375,-90.78763000000001
"63368","O Fallon","MO","Dynamic Fitness Management HQ","1021 Rondale Ct","63368",38.766103,-90.73175
"63368","O Fallon","MO","O'Fallon Family YMCA - Missouri","3451 Pheasant Meadow Dr","63368",38.745498449323925,-90.69513201713562
"63368","O Fallon","MO","C4Ex Fitness","2766 Highway K","63368",38.766910552978516,-90.69963836669922
"63383","Warrenton","MO","REPS","not_available","63383",38.81901879129443,-91.15808919330286
"63385","Wentzville","MO","Rhino fitness","Wentzville Pkwy","not_available",38.82601211089206,-90.86683041210213
"63385","Wentzville","MO","The Boxing Gym","982 Wentzville Pkwy","63385",38.824467,-90.857975
"63385","Wentzville","MO","Club Fitness","7 Wentzville Center","63385",38.8078864,-90.8725218
"63385","Wentzville","MO","Boot Camp Challenge @ Rhino","Rhino Fitness","63385",38.825913,-90.866603
"63385","Wentzville","MO","Timberland Weight Room","559 E Highway N","63385",38.76858139038086,-90.84657287597656
"63385","Wentzville","MO","Holt Weight Room","600 Campus Dr","63385",38.81608200073242,-90.86582946777344
"63386","West Alton","MO","Ketterer's Alternative Gym","1823 Crest Dr","62002",38.90888595581055,-90.12792205810547
"63386","West Alton","MO","The Max Sports","2300 Henry St","62002",38.910439103064725,-90.17719224211122
"63386","West Alton","MO","Club Fitness","47 Eastgate Plaza","62024",38.879921331993664,-90.11973066338555
"63386","West Alton","MO","my lil gym","not_available","62002",38.89198684692383,-90.14600372314453
"63386","West Alton","MO","Nautilus","4425 Industrial Dr","62002",38.9266288350159,-90.18336858326523
"63390","Wright City","MO","Snap Fitness","10 Wildcat Dr","63390",38.82965152784129,-91.04138640814827
"63401","Hannibal","MO","YMCA of Hannibal","1 YMCA Drive","63401",39.721431609310265,-91.38613608188582
"63401","Hannibal","MO","Gracie Barra Hannibal","2905 Saint Marys Ave","63401",39.7064208984375,-91.38705444335938
"63501","Kirksville","MO","Student Recreation Center","900 S. Franklin St.","not_available",40.18927069436187,-92.58372929625064
"63501","Kirksville","MO","Curves","not_available","63501",40.211891,-92.581061
"63501","Kirksville","MO","24 Hour Fitness and Tanning","915 E Jefferson St","63501",40.193325877189636,-92.57344543933868
"63501","Kirksville","MO","Anytime Fitness","2002 N Baltimore St","63501",40.21226,-92.58088
"63501","Kirksville","MO","warehouse 660","616 E Shepherd Ave","63501",40.167572021484375,-92.57781219482422
"63501","Kirksville","MO","FKS Training","111 W Potter Ave","63501",40.209869384765625,-92.58300018310547
"63501","Kirksville","MO","The Fitness Center @ ARCC","2309 N Industrial Road","63501",40.2253251,-92.59376248333334
"63552","Macon","MO","South Rollins Gym","686 South Rollins Street","63552",39.730862,-92.473122
"63601","Park Hills","MO","Universal Fitness","not_available","63601",37.850677,-90.515892
"63601","Park Hills","MO","Sassy Gals Fitness & Tanning Class","243 W Main St","63601",37.85057830810547,-90.5204086303711
"63601","Park Hills","MO","Mac's Gym","202 E Main St","63601",37.84709247147693,-90.51214896035428
"63621","Arcadia","MO","Elevated Fitness","not_available","63650",37.59391155428878,-90.62898330059197
"63630","Cadet","MO","Fit 4 Life","307 Lilac Dr","63664",37.93129348754883,-90.78378295898438
"63638","Ellington","MO","Planet Fitness","Granite Run Dr, Lancaster, PA 17601","17601",37.136314392089844,-91.04683685302734
"63640","Farmington","MO","Anytime Fitness","759 Market St Ctr","63640",37.79179,-90.43658
"63640","Farmington","MO","Silverback Gym","Columbia St","63640",37.78027399245364,-90.41790507077782
"63640","Farmington","MO","F.H.S. Weightroom","not_available","63640",37.779522,-90.438351
"63640","Farmington","MO","Elemental CrossFit","305 Forster St","63640",37.77667999267578,-90.41763305664062
"63640","Farmington","MO","Civic Center","2 Black Knight Dr","63640",37.77922780186538,-90.43573865974989
"63670","Sainte Genevieve","MO","The Spa at Chaumette","24345 State Route Ww","63670",37.76325607299805,-90.15435791015625
"63673","Saint Mary","MO","Moeckels","203 west st joe","not_available",37.724654,-89.865085
"63673","Saint Mary","MO","Therapy Solutions","not_available","63775",37.7277289048015,-89.88663112757764
"63701","Cape Girardeau","MO","Student Recreation Center - North","750 New Madrid","63701",37.31985605027821,-89.52757142494548
"63701","Cape Girardeau","MO","Muddy Water Crossfit","749 Enterprise St","63703",37.28986740112305,-89.558837890625
"63701","Cape Girardeau","MO","Planet Fitness","2136 William Street","63703",37.304375,-89.550016
"63701","Cape Girardeau","MO","dreadmill","1520 NW End Blvd Ste A","63701",37.325565338134766,-89.53402709960938
"63701","Cape Girardeau","MO","Live Laugh And Love Fitness","West Park Mall","63703",37.296942,-89.569763
"63701","Cape Girardeau","MO","Anytime Fitness","2451 N High St","63755",37.40033,-89.66033
"63701","Cape Girardeau","MO","Anytime Fitness","1131 N Kingshighway St","63701",37.3225,-89.55999
"63701","Cape Girardeau","MO","curves Fitness Center","not_available","63701",37.3078727722168,-89.5519790649414
"63701","Cape Girardeau","MO","Treadmill","323 E Cape Rock Dr","63701",37.3280029296875,-89.51121520996094
"63736","Benton","MO","Kelso C-7 Gym","not_available","63740",37.12711137132231,-89.59383925260981
"63801","Sikeston","MO","YMCA of Southeast Missouri","511 Taylor St","63801",36.88216685556222,-89.58230647543525
"63801","Sikeston","MO","Sikeston Wellness Center","not_available","63801",36.891136,-89.586067
"63830","Caruthersville","MO","Rec Center","?","63830",36.17843312015038,-89.66899472188761
"63834","Charleston","MO","Body FX Health Club","Washington","not_available",36.77923142719578,-89.38585996627808
"63841","Dexter","MO","Dexter Parks & Rec Center","Hwy 114","63841",36.807905370850534,-89.91922524911071
"63841","Dexter","MO","Ozark Fitness","1521 U.S. Business 60","63841",36.802476,-89.982357
"63841","Dexter","MO","Ozark Gymsports","not_available","63841",36.77285,-90.005507
"63841","Dexter","MO","Fitness Connection","515 W Market St","63841",36.79513587247658,-89.96567845344543
"63845","East Prairie","MO","nonstop fitness","1308 S 7th St","42050",36.566734313964844,-89.17874145507812
"63857","Kennett","MO","Ultimate Fitness","not_available","63857",36.23703261253902,-90.0676992195479
"63869","New Madrid","MO","SEMO Health Network","not_available","63869",36.58675878517379,-89.52598402091829
"63873","Portageville","MO","Swedes Gym","not_available","63873",36.4244526292882,-89.69439353071137
"63901","Poplar Bluff","MO","PARC Fitness","not_available","63901",36.785011760009944,-90.42733744268907
"63901","Poplar Bluff","MO","Ozark Gymsports","1911 Speedway Dr","63901",36.77085876464844,-90.36885833740234
"63901","Poplar Bluff","MO","Ozark Fitness","2725 N Westwood Blvd","63901",36.784487746097945,-90.42892515050401
"63901","Poplar Bluff","MO","BRC Aquatic & Fitness Center","301 S 5th St","63901",36.75516891479492,-90.39608764648438
"63901","Poplar Bluff","MO","Anytime Fitness","2875 James Blvd","63901",36.78808,-90.43325
"64011","Bates City","MO","C&J Gym","not_available","64011",38.91532282673659,-94.06132559096066
"64012","Belton","MO","Southwick Stadium Weight Room","801 W North Ave","64012",38.81195786773822,-94.55391883850098
"64012","Belton","MO","Planet Fitness","124 Cedar Tree Sq","64012",38.8146069719941,-94.50882852109736
"64012","Belton","MO","Curves","150 Cunningham Industrial Pkwy","64012",38.815064,-94.508201
"64012","Belton","MO","New Wowy Gym","not_available","64012",38.814545931712956,-94.54753200230707
"64012","Belton","MO","M&C's Gym","1706 Red Barn Rd","64083",38.79307556152344,-94.48751068115234
"64012","Belton","MO","TITLE Boxing Club","910 E North Ave","64012",38.81468078182536,-94.51836235300021
"64014","Blue Springs","MO","Anytime Fitness","772 SW US-40","64015",39.0087949331275,-94.27467942237854
"64014","Blue Springs","MO","Planet Fitness","601 US 40 Highway","64014",39.01025008112147,-94.26927632831736
"64014","Blue Springs","MO","treadmill","not_available","64014",39.03670676846914,-94.2602886275967
"64014","Blue Springs","MO","Blue Springs Fitness","1300 NW State Route 7","64014",39.032962435517184,-94.27119867366055
"64014","Blue Springs","MO","Fike's Gym","not_available","64015",39.01075,-94.275985
"64014","Blue Springs","MO","Blue Springs Family YMCA","1300 SE Adams Dairy Pkwy","64014",39.00179052316272,-94.25253825741005
"64014","Blue Springs","MO","Artistry Yoga by MickiD","3100 S 7 Highway, Suite B","64014",38.98909764077529,-94.27268163096619
"64014","Blue Springs","MO","Club 7 Fitness","1241 SW State Route 7","64014",39.00384987432895,-94.27551245363621
"64014","Blue Springs","MO","Fig Fitness","628 NW 5th St","64014",39.02230987623993,-94.26926544683597
"64015","Blue Springs","MO","Sweat World ï˜œ","not_available","64057",39.06306388250005,-94.35359850008021
"64015","Blue Springs","MO","Grupo AxÃ© Capoeira - Kansas City","3004 U.S. 40 Highway","not_available",39.00994598865509,-94.3005895614624
"64015","Blue Springs","MO","Supergym","Little Blue Pkwy","not_available",39.038420699181195,-94.33976828483846
"64015","Blue Springs","MO","Fitness Together - Lakewood","905 NE Woods Chapel Rd","64064",38.981644,-94.3595231
"64015","Blue Springs","MO","cornerstone gym","S. Jackson Dr.","64057",39.04322692825398,-94.35420227045856
"64015","Blue Springs","MO","Survival bootcamp","not_available","64125",39.049022249881496,-94.3462447820698
"64020","Concordia","MO","Galloway Fitness","601 S Main St","64020",38.98284149169922,-93.5678939819336
"64024","Excelsior Springs","MO","Ganzer Bros Baseball Academy","not_available","64024",39.339696199884244,-94.2259742410256
"64024","Excelsior Springs","MO","Anytime Fitness","959 N Jesse James Rd","64024",39.35115,-94.23481
"64029","Grain Valley","MO","Curves","not_available","64029",39.00883483886719,-94.22383880615234
"64029","Grain Valley","MO","Eagle Fitness","557 R D Mize Rd","64029",39.020615,-94.202901
"64029","Grain Valley","MO","D & Mel's Gym","2914 S Owens School Rd","64057",39.06276321411133,-94.25885009765625
"64030","Grandview","MO","The View Fitness Center","13500 Byars Rd","64030",38.877600372970434,-94.50933545471935
"64030","Grandview","MO","Wii fit","13915 Grandboro Ln","64030",38.87141036987305,-94.5351333618164
"64030","Grandview","MO","Grand Summit Fitness Center","not_available","64030",38.854272,-94.515858
"64030","Grandview","MO","Frank's Powerhouse Gym","The View","64106",38.85376726408966,-94.5249712155993
"64030","Grandview","MO","Fit Nation","3600 Blue Ridge Ext","64030",38.89642333984375,-94.5501480102539
"64030","Grandview","MO","Cheerleading Practice","11920 Grandview Rd","64030",38.90804672241211,-94.53450775146484
"64034","Greenwood","MO","MFit Studios","1481 SW Market St","64081",38.893089294433594,-94.37484741210938
"64034","Greenwood","MO","LaPietra Gym","not_available","64034",38.84029442877448,-94.35606387223257
"64037","Higginsville","MO","Downtown Fitness","2101 Main St","64037",39.0738639831543,-93.71678924560547
"64050","Independence","MO","Zen Fitness","411 E 23rd St S","64055",39.07879638671875,-94.41014099121094
"64050","Independence","MO","BVAC","500 W Pacific Ave","64050",39.087259,-94.422248
"64050","Independence","MO","Independence School District Wellness Center","not_available","64050",39.0929892785064,-94.43465155830397
"64055","Independence","MO","Genesis Health Clubs - Independence","3850 Crackerneck Rd","64055",39.0498064,-94.3743159
"64055","Independence","MO","The Mansion Apartments Gym","not_available","64055",39.06595305684941,-94.38792690936566
"64055","Independence","MO","The weight room","not_available","64133",39.04127883911133,-94.43954467773438
"64055","Independence","MO","Mansion Gym/hot Tub","2905 S Lees Summit Rd","64055",39.06475067138672,-94.39118957519531
"64055","Independence","MO","Wilcox Karate Academy","1600 S. Noland Road","64055",39.07223473208516,-94.41683140265502
"64055","Independence","MO","Drummfarmfitness","15004","64055",39.059048,-94.396908
"64056","Independence","MO","Gregg Community Center","not_available","64108",39.12128210882317,-94.35853774562011
"64056","Independence","MO","Curves","not_available","64056",39.121652,-94.364945
"64058","Independence","MO","Fort Osage HS Gym","2101 N Twyman Rd","64058",39.13908386230469,-94.29074096679688
"64058","Independence","MO","Frosty's Fitness Dungeon","not_available","64068",39.227036979561134,-94.40065635983409
"64060","Kearney","MO","Premier Fitness","971 Premier Dr","64060",39.37173080444336,-94.3781509399414
"64060","Kearney","MO","Anytime Fitness","105 S Jefferson B7-8","64060",39.37197,-94.36103
"64060","Kearney","MO","Gym Room","N Ditzler Ave","64157",39.28835641639515,-94.4643038126822
"64060","Kearney","MO","King's Gym","not_available","64060",39.34643264174927,-94.35099103490624
"64062","Lawson","MO","emPOWer Fitness","318 North Pennsylvania","64062",39.43783670265341,-94.20426951617009
"64063","Lees Summit","MO","Genesis Health Clubs - Lee's Summit West","178 NW Oldham Parkway","64081",38.9159898,-94.402427
"64063","Lees Summit","MO","Planet Fitness","300 SW Blue Pkwy,Suite D","64063",38.90545042646105,-94.3803099392619
"64063","Lees Summit","MO","Curves","565 SE Melody Ln","64063",38.908613,-94.361692
"64063","Lees Summit","MO","Denise's *Fit 4 Life* Workout Area","not_available","64063",38.91057205200195,-94.34220886230469
"64063","Lees Summit","MO","The W. Creek Fitness Center","not_available","64064",38.919171483661884,-94.32945567683136
"64063","Lees Summit","MO","Shredd KC","129 SE 3rd St","64063",38.91289,-94.37474
"64063","Lees Summit","MO","The Fitness Center","850 NW Chipman Rd","64063",38.925865173339844,-94.39698028564453
"64063","Lees Summit","MO","Total Body Fittness","3680 NE Akin Blvd #128","64064",38.912009,-94.378347
"64063","Lees Summit","MO","Title Boxing Club","336 SW Blue Pkwy","64063",38.90561602859908,-94.38209779302163
"64063","Lees Summit","MO","Jazzercise","450 SW Ward Rd","64081",38.907897999999996,-94.395945
"64063","Lees Summit","MO","The Mill","Bordner Dr","64063",38.90853596,-94.34240172
"64064","Lees Summit","MO","Training for Warriors - Lees Summit","1737 NE Rice Rd","64086",38.944053649902344,-94.35877990722656
"64064","Lees Summit","MO","Snap Fitness 24-7","637 NE Woods Chapel Rd","64064",38.982375,-94.36529
"64068","Liberty","MO","CrossFit 816","6601B Royal St","64068",39.213680267333984,-94.48126983642578
"64068","Liberty","MO","Beyond The Lines CrossFit","1114 Southview Dr Bldg E","64068",39.23154067993164,-94.41558837890625
"64068","Liberty","MO","Genesis Health Clubs - Liberty","8260 N Ditzler Ave","64158",39.243001,-94.4687103
"64068","Liberty","MO","Combat CrossFit","1021 S Brown St Ste G","64068",39.23409455670065,-94.43182927124579
"64068","Liberty","MO","Orangetheory Fitness","117 S Stewart Rd","64068",39.24275291920908,-94.45253543139175
"64068","Liberty","MO","THE Weight Room","not_available","64157",39.2834358215332,-94.48423767089844
"64068","Liberty","MO","Anytime Fitness","888 Haines","64068",39.26826802679084,-94.45449069474098
"64068","Liberty","MO","StudioFit KC","1520 N Church Rd","64068",39.26755142211914,-94.44602966308594
"64068","Liberty","MO","Performance Edge Crossfit","640 Haines Dr Ste 300","64068",39.25537449999999,-94.4552319
"64068","Liberty","MO","Fit By Burn","913 W Liberty Dr","64068",39.23899841308594,-94.4345474243164
"64068","Liberty","MO","South Valley Weight Room","800 Midjay Dr","64068",39.22556668049584,-94.463545542146
"64068","Liberty","MO","Fit By Burn","10 W Kansas St","64068",39.246421000000005,-94.420733
"64068","Liberty","MO","Combat Crossfit","1321 Brown St","64068",39.238942,-94.418325
"64068","Liberty","MO","Cordillera Ranch Apartments","8330 N Donnelly Ave","64158",39.243557798086236,-94.48079173722091
"64068","Liberty","MO","Liberty Community Center","1600 S Withers Rd","64068",39.22411113889496,-94.43752146881988
"64075","Oak Grove","MO","Life Fitness","1506 S Broadway","64075",39.00049481921443,-94.1299256377218
"64076","Odessa","MO","Ladies Fitness Of Odessa","not_available","64076",39.007227244985856,-93.94653426408608
"64079","Platte City","MO","Hilton Airport Fitness Center","not_available","64153",39.29494050287333,-94.68303863751461
"64079","Platte City","MO","Embassy Suites Fitness Center","7640 NW Tiffany Springs Pkwy","64153",39.275245666503906,-94.66664123535156
"64079","Platte City","MO","KCI CrossFit","10767 N Ambassador Dr","64153",39.28936004638672,-94.67713928222656
"64079","Platte City","MO","Citi Fitness Facility","7920 NW 110th St","64153",39.292733,-94.677775
"64079","Platte City","MO","Anytime Fitness","347 Main St","64079",39.35081400259642,-94.76237064496698
"64079","Platte City","MO","Genesis Health Clubs - Leavenworth","2924 S. 4th Trafficway","66048",39.287869716676454,-94.9077819158471
"64079","Platte City","MO","Williamsburg Plaza Fitness Center","2900 Williamsburg Ter","64079",39.34592056274414,-94.75664520263672
"64079","Platte City","MO","Hyatt Place Gym & Fitness Center","7600 NW 97th Ter","64153",39.27078628540039,-94.66966247558594
"64079","Platte City","MO","Platte County Community Center North YMCA","3101 Running Horse Rd","64079",39.34718219483986,-94.75988393998364
"64079","Platte City","MO","The Gym","11212 N Newark Cir","64153",39.29814910888672,-94.6842269897461
"64080","Pleasant Hill","MO","Harrisonville Community Center","2400 S Jefferson Pkwy","64701",38.670795630759756,-94.3530496628848
"64080","Pleasant Hill","MO","Anytime Fitness","2001 N 7 Hwy Stes FGHI","64080",38.81221,-94.26414
"64080","Pleasant Hill","MO","Anytime Fitness","1911 N 291 Hwy","64701",38.66882,-94.36617
"64081","Lees Summit","MO","Orangetheory Fitness","910 NW Blue Pkwy","64086",38.930843353271484,-94.40172576904297
"64081","Lees Summit","MO","Genesis Health Clubs - Lee's Summit","900 NE Deerbrook ST","64086",38.9359876,-94.3587657
"64081","Lees Summit","MO","Complete Strength","100 NE Tudor Rd Ste 105","64086",38.9314079284668,-94.37860107421875
"64081","Lees Summit","MO","CYCLEBAR","910W NW Blue Pkwy","64086",38.930843353271484,-94.40172576904297
"64081","Lees Summit","MO","Summit Strength PT","not_available","64086",38.926783401019094,-94.38316230573767
"64081","Lees Summit","MO","Y.E.S Kids Fitness","12 NE Skyline Dr","64086",38.935550689697266,-94.38096618652344
"64081","Lees Summit","MO","New Longview Apts Gym","not_available","64081",38.909907,-94.448605
"64081","Lees Summit","MO","Longview Gym","500 SW Longview Rd","64081",38.912454,-94.45709000000001
"64081","Lees Summit","MO","Pure Barre","910U NW Blue Pkwy","64086",38.930843353271484,-94.40172576904297
"64081","Lees Summit","MO","Boost Sports Performance","1231 SE Century Dr","64081",38.89664871975464,-94.35946610503528
"64081","Lees Summit","MO","Summit Ridge Apartments Gym","Tudor Road","64063",38.92978748038421,-94.36752594810015
"64081","Lees Summit","MO","Xtreme Family Fitness","725 NW Commerce Dr","64086",38.92632475962807,-94.38439053753096
"64082","Lees Summit","MO","Anytime Fitness","913 W Foxwood Dr","64083",38.81146,-94.46786
"64082","Lees Summit","MO","Fitness Center @ Manor Homes of Arborwalk","Manor Lake Dr","64082",38.85601683475911,-94.40790056057061
"64083","Raymore","MO","Gym","not_available","64083",38.809776306152344,-94.47588348388672
"64085","Richmond","MO","Anytime Fitness","218 S. Thornton St.","64085",39.27701,-93.97662
"64086","Lees Summit","MO","Legacy Park Community Center","901 NE Bluestem Dr","64086",38.92727938393531,-94.31266074327166
"64089","Smithville","MO","9Round Fitness","14462 N US 169 Highway","64089",39.35587201,-94.58484745
"64089","Smithville","MO","Anytime Fitness","1010 S. US Hwy. 169","64089",39.37278,-94.58385
"64089","Smithville","MO","Purple Dress Fitness Center","not_available","64089",39.44767761230469,-94.56486511230469
"64092","Waldron","MO","Workout Area","not_available","64152",39.233703,-94.783585
"64093","Warrensburg","MO","Love","101-199 Commercial","64093",38.7623389,-93.73940175000001
"64093","Warrensburg","MO","Fitness Center","not_available","64093",38.773797,-93.7225
"64093","Warrensburg","MO","Planet Fitness","723 N Charles St,Suite A","64093",38.772316,-93.732798
"64093","Warrensburg","MO","Warrior Training Center","121 E Pine St","64093",38.76380920410156,-93.73946380615234
"64093","Warrensburg","MO","Warrensburg Community Center","445 E Gay St","64093",38.765284486288074,-93.72765965159111
"64101","Kansas City","MO","Hitman Fitness","not_available","64101",39.10080991,-94.602591
"64101","Kansas City","MO","ROX Extreme Fitness","1416 Saint Louis Ave","64101",39.103676,-94.60205400000001
"64102","Kansas City","MO","Freight House Fitness","1618 Wyoming St","64102",39.0939619744318,-94.60399245840676
"64105","Kansas City","MO","Onelife Fitness","1261 Main St","64105",39.098829,-94.582885
"64105","Kansas City","MO","Hard Bodies Personal Training","510 W 5th St","64105",39.10783179710079,-94.59013648569672
"64105","Kansas City","MO","700 Broadway Gym","700 Broadway Blvd","64105",39.10515,-94.588419
"64105","Kansas City","MO","Riverbend Lofts Gym","200 Main St","64105",39.11032072044503,-94.58424895319479
"64105","Kansas City","MO","Downtown Fitness Work out","922 Walnut St","64106",39.102481842041016,-94.58232116699219
"64105","Kansas City","MO","Chambers Loft Gym","25 E 12 St, Kansas City, MO 64106","64106",39.09884626820825,-94.58291010663277
"64105","Kansas City","MO","Market Station Gym","not_available","64105",39.11050430935317,-94.5872560648833
"64105","Kansas City","MO","Gym at Graphic Arts Lofts","934 Wyandotte St","64105",39.102563,-94.585736
"64105","Kansas City","MO","DE Underground","512 Delaware St","64105",39.10754,-94.584295
"64105","Kansas City","MO","Rivergate Gym","600 Broadway Blvd","64105",39.10618209838867,-94.58883666992188
"64105","Kansas City","MO","KC Fitness Repair","127 West 10th Street Suite 806","64105",39.102149963378906,-94.58495330810547
"64105","Kansas City","MO","21c Fitness Center","219 W 9th St","64105",39.103450775146484,-94.58646392822266
"64105","Kansas City","MO","Quality Hill YMCA","1051 Washington St","64105",39.10171195822319,-94.58984176858172
"64105","Kansas City","MO","McCownGordon Fitness Center","850 Main St","64105",39.103905,-94.583587
"64106","Kansas City","MO","Kansas City MLB Urban Youth Academy","1622 E 17th Ter","64108",39.094025,-94.56236
"64106","Kansas City","MO","Metropolitan Gym","600 E 8th St","64106",39.10467966114138,-94.57576655573608
"64106","Kansas City","MO","River Market Crossfit","450 E 4th St #101","64106",39.1104042676185,-94.57844849015757
"64106","Kansas City","MO","Della Lamb Community Center","500 Woodland Ave","64105",39.108825,-94.560285
"64106","Kansas City","MO","Century Towers Gym","612 Garfield Ave","64124",39.105342566304515,-94.55963946177874
"64106","Kansas City","MO","Grand Blvd Fitness","not_available","64106",39.10615905475462,-94.58002277435017
"64106","Kansas City","MO","Power Life Yoga","1480 Grand Blvd","64106",39.0964861253579,-94.581142921426
"64108","Kansas City","MO","Orangetheory Fitness","1706 Baltimore Ave","64108",39.09252684217588,-94.58501745107337
"64108","Kansas City","MO","Union Hill Athletic Club","2900 Gillham Street","64108",39.073615611011775,-94.57904679691471
"64108","Kansas City","MO","Westin Crown Center Health Club","1 West Pershing Blvd","64108",39.08313481431752,-94.58317588918565
"64108","Kansas City","MO","CrossFit on 18th","516 E 18th St","64108",39.09174986009806,-94.57672545775644
"64108","Kansas City","MO","Hitch Fit Gym","3036 Gillham Rd","64108",39.07119520084426,-94.57918440419178
"64108","Kansas City","MO","Calvary Community Wellness Center","3002 Holmes St","64109",39.072344,-94.576763
"64108","Kansas City","MO","Ralph L. Smith Wellness Center","2301 Holmes St","64108",39.08514404296875,-94.57521057128906
"64108","Kansas City","MO","CORE Strong Fitness","2540 W Pennway St","64108",39.081106,-94.592355
"64108","Kansas City","MO","Gregg-Klice Community Center","1600 E 17th Ter","64108",39.092825500214715,-94.5633455485332
"64108","Kansas City","MO","Western Auto Lofts Fitness Center","2107 Grand Blvd","64108",39.087428178220485,-94.58137511173828
"64108","Kansas City","MO","Gym @ Windows Lofts","380 W 22nd St","64108",39.08649842555922,-94.58860414006475
"64108","Kansas City","MO","Fitness Center","2 Pershing Square","64108",39.08873232075049,-94.59045417671638
"64108","Kansas City","MO","Internal Revenue Service Fitness Center","333 W Pershing Rd","64106",39.081995,-94.589362
"64108","Kansas City","MO","58 Fitness","2820 Cherry St","64108",39.07463455200195,-94.577880859375
"64108","Kansas City","MO","theGYMkc: Westside","2020 Washington St","64108",39.088616420112,-94.59043626154318
"64108","Kansas City","MO","Olo's Dojo","2717 Holly St","64108",39.078121,-94.598559
"64108","Kansas City","MO","F45 Training Crossroads (F45 Training)","1827 Walnut St","64108",39.0906372,-94.5822013
"64108","Kansas City","MO","Stuart Hall Gym","Stuart Hall Basement","64108",39.08691729670549,-94.58769747100284
"64109","Kansas City","MO","Clyde manor fitness center","350 E Armour Blvd","64111",39.063959000000004,-94.581435
"64109","Kansas City","MO","Hitting the Pavement","not_available","64109",39.05880796001567,-94.58035029994845
"64109","Kansas City","MO","Mayweather Boxing + Fitness","3110 Gillham Plz","64109",39.070376629559576,-94.57894757194153
"64110","Kansas City","MO","Fountain View on the Plaza Fitness Center","4800 Oak St","64112",39.03967447493928,-94.58292446817146
"64110","Kansas City","MO","Kauffmam Gym","not_available","64110",39.03974376475728,-94.57745302679255
"64110","Kansas City","MO","Brookside Crossfit","701 E 63rd St","64110",39.01329379678175,-94.57890295735204
"64110","Kansas City","MO","Planet Fitness","1201 E Emanuel Cleaver II Blvd","64110",39.040886,-94.571172
"64110","Kansas City","MO","Kauffman Foundation Exercise Room","4801 Rockhill Rd","64110",39.039336999999996,-94.57712
"64111","Kansas City","MO","theGYMkc: Uptown","3600 Broadway Blvd","64111",39.06216368655764,-94.59234005254106
"64111","Kansas City","MO","Real Fitness & Conditioning","3612 Karnes Blvd #108","64111",39.06111983174002,-94.60336266360353
"64111","Kansas City","MO","Bodyfit KC Gym","3838 Main St","64111",39.056803,-94.586478
"64111","Kansas City","MO","Infinity at Plaza West Gym","not_available","64111",39.046546,-94.601252
"64111","Kansas City","MO","BPM Indoor Cycling Studio","3904 Terrace St","64111",39.056775,-94.603044
"64111","Kansas City","MO","FitReality, LLC","3719 Wyoming St Apt 8","64111",39.05989456176758,-94.60330200195312
"64111","Kansas City","MO","Fitness Center","4601 Broadway","64112",39.04350280761719,-94.59092712402344
"64111","Kansas City","MO","Sheraton Suites Fitness Center","not_available","64112",39.04301833041613,-94.59608897620345
"64111","Kansas City","MO","City Place Fitness Center","701 Westport Rd","64111",39.051303852753044,-94.59453661279372
"64111","Kansas City","MO","Impact Fitness","4448 Belleview Avenue","64111",39.046314,-94.598687
"64111","Kansas City","MO","Madison Gym","4600 Madison Ave","64112",39.044681549072266,-94.59790802001953
"64111","Kansas City","MO","Synergy Fitness Studio","4233 Roanoke Rd Ste 200","64111",39.0510558684453,-94.5969660011875
"64111","Kansas City","MO","Gym At Belleview","4700 Belleview Ave","64112",39.04209899902344,-94.59889221191406
"64111","Kansas City","MO","Hampton Gym","not_available","66215",39.043929366941725,-94.5968954354347
"64111","Kansas City","MO","Our Lady of Angels Gymnasium","4232 Mercier St","64111",39.05073,-94.60242
"64112","Kansas City","MO","Power Life Yoga","4800 Main St Ste G003","64112",39.0392193,-94.5879346
"64112","Kansas City","MO","CorePower Yoga","4725 Wyandotte St","64112",39.04139738009276,-94.58874419332233
"64112","Kansas City","MO","InterContinental Health & Fitness Center","401 Ward Pkwy","64112",39.039358413393394,-94.59253494679493
"64112","Kansas City","MO","Carriage Club Fitness Center","5301 State Line Rd","64112",39.03191375732422,-94.60684204101562
"64113","Kansas City","MO","Orangetheory Fitness","6236 Main St","64113",39.014554639484935,-94.5885974422558
"64113","Kansas City","MO","Superior Fit Body","114 W Gregory Blvd","64114",38.99981689453125,-94.59149169921875
"64113","Kansas City","MO","Parthenon Of Push Ups","not_available","64113",39.01402439027868,-94.60631173336114
"64114","Kansas City","MO","Title Boxing Club","8029 State Line Road","64114",38.98205488,-94.60766557
"64114","Kansas City","MO","City Gym","7416 Wornall Rd","64114",38.99330871615625,-94.5945433047357
"64114","Kansas City","MO","Red Bridge Family YMCA","11300 Holmes Rd","64131",38.92043902406721,-94.58422722549838
"64114","Kansas City","MO","Rockhurst High School Gym","9301 State Line Rd","64114",38.960109048377134,-94.60654206445915
"64114","Kansas City","MO","St. Elizabeth Gym","112 W 75th St","64114",38.99242587,-94.59085822105408
"64114","Kansas City","MO","The C&B Dojo","not_available","64114",38.979572,-94.601406
"64114","Kansas City","MO","Waldo Gymnastics","217 E Gregory Blvd","64114",38.99901,-94.58622
"64114","Kansas City","MO","BM Gym","81st and Oak","not_available",38.98253438295973,-94.585928616627
"64114","Kansas City","MO","Burns & McDonnell - Company Gym","9400 Ward Pkwy","64114",38.95827721875805,-94.60001630314532
"64114","Kansas City","MO","Genesis Health Clubs - Ward Parkway","8600 Ward Parkway Ctr Ste 1002","64114",38.9695608,-94.6060482
"64114","Kansas City","MO","Gym","8600 Ward Pkwy","64114",38.96967045,-94.60593032
"64114","Kansas City","MO","Ashbringer Weightlifting","305 W 80th St","64114",38.9828358,-94.59303709999999
"64114","Kansas City","MO","Inspired Fitness KC","505 W 75th St","64114",38.992621448113795,-94.59782123565674
"64114","Kansas City","MO","Snap Fitness","8015 State Line Rd","64114",38.982534325912404,-94.60793333419561
"64114","Kansas City","MO","Mindful Child Aerial Yoga","8016 State Line Rd Ste 206","66208",38.9829055,-94.60825589999999
"64114","Kansas City","MO","Health House","8029 State Line Rd","64114",38.982243907863904,-94.6079544445474
"64114","Kansas City","MO","Migliazzo Gym","not_available","64145",38.91245,-94.602367
"64114","Kansas City","MO","Willow Raquetball Court","E 100th Terrace","64114",38.94535331666667,-94.59157681666667
"64114","Kansas City","MO","Willow Creek Fitness Center","101st Ter","64114",38.9469199545116,-94.59428456707171
"64114","Kansas City","MO","Sky's Limit Crossfit","303 W 73rd St","64114",38.99569120513672,-94.593120301402
"64114","Kansas City","MO","Insanity Workout @ Center of Life Chiropractic","336 W 75th St","64114",38.992469787597656,-94.59396362304688
"64116","Kansas City","MO","Genesis Health Clubs - Vivion","1141 NE Vivion Rd","64118",39.1805728,-94.5654247
"64116","Kansas City","MO","NKCH Fitness Center","2800 Clay Edwards Dr","64116",39.14888163672621,-94.55194864059514
"64116","Kansas City","MO","North Kansas City Community Center","1999 Iron St","64116",39.142569586539814,-94.57062111416148
"64116","Kansas City","MO","Kansas City North Community Center","3930 NE Antioch Rd","64117",39.166124262470085,-94.54960741870285
"64116","Kansas City","MO","Club North Volleyball Facility","5110 NW Waukomis Dr","64151",39.187381744384766,-94.60677337646484
"64116","Kansas City","MO","Ironworks at CityView","not_available","64116",39.14737733737945,-94.57900452970543
"64116","Kansas City","MO","Regal Athletic","121 E 10th Ave","64116",39.12636184692383,-94.57878112792969
"64116","Kansas City","MO","Hybrid 180","1308 NE Vivion Rd","64118",39.183095510566396,-94.60000041533293
"64116","Kansas City","MO","Supplement Supersource","1404 NW Vivion Rd","64118",39.183405,-94.598128
"64116","Kansas City","MO","YMCA","not_available","64119",39.176699327797536,-94.58750596831442
"64116","Kansas City","MO","River Market Crossfit","2223 Guinotte Ave","64120",39.117494,-94.5551
"64116","Kansas City","MO","JPATS Gym","1251 NW Briarcliff Pkwy","64116",39.166059999999995,-94.59636400000001
"64116","Kansas City","MO","North Kansas City Hospital Fitness Center","Clay Edwards","not_available",39.14886,-94.55206
"64116","Kansas City","MO","CrossfitEdge","3930","64116",39.166179,-94.549325
"64116","Kansas City","MO","Zone 6 Fitness","2700 Burlington St","64116",39.1487469,-94.58109189999999
"64116","Kansas City","MO","Province of Briarcliff Gym","not_available","64118",39.18438078405757,-94.59696292098744
"64116","Kansas City","MO","John Scott Fitness","4157 N Mulberry Dr","64116",39.169830322265625,-94.59883117675781
"64116","Kansas City","MO","Extreme A.C.","2516 NE Vivion Rd","64118",39.186363220214844,-94.54945373535156
"64117","Kansas City","MO","Club House Workout Room","not_available","64117",39.18013000488281,-94.49646759033203
"64118","Kansas City","MO","Gladstone Community Center","6901 N Holmes St","64118",39.220176286971096,-94.57049378054388
"64118","Kansas City","MO","Falcon Falls","6943 N Bedford Ave","64151",39.220527000000004,-94.604253
"64118","Kansas City","MO","RAW Fitness","304 B 74th Terrace","not_available",39.22922607088236,-94.5770045931354
"64118","Kansas City","MO","Curves","5601 NE Antioch Rd Ste P","64119",39.19569778442383,-94.54773712158203
"64118","Kansas City","MO","Curves","5601 NE Antioch Rd","64119",39.19569778442383,-94.54773712158203
"64118","Kansas City","MO","NKC Crossfit Gym","311 E 18th Ave","64116",39.224715385110315,-94.57605231374235
"64118","Kansas City","MO","Dark","6442 N Jarboe St","64118",39.212771648000704,-94.59349422050232
"64118","Kansas City","MO","NKC Crossfit Gym","727 NE 76th St","64118",39.23178158263116,-94.57169514065605
"64118","Kansas City","MO","Impact Elite Gym & MMA","7932 N Oak Tfwy","64118",39.23890736444175,-94.57689933688839
"64118","Kansas City","MO","Northland Fitness Boxing","7371-7395 N Oak Trafficway","64118",39.22784503529747,-94.5757607292237
"64118","Kansas City","MO","Glory MMA & Fitness","7932 N Oak Trfy # 64118","64118",39.23870086669922,-94.57685852050781
"64118","Kansas City","MO","Impact Fitness","1406 NW Vivion Rd","64118",39.18277393260078,-94.5982100164755
"64119","Kansas City","MO","Maple Woods CC - Gym","2601 NE Barry Rd","64156",39.244396649245125,-94.54244226978982
"64119","Kansas City","MO","The Athletic & Golf Club at Maple Creek","5410 NE Oak Ridge Rd","64119",39.1912875359124,-94.51583120178935
"64120","Kansas City","MO","Brave Enough CrossFit","1527 Howell St","not_available",39.136741638183594,-94.57244110107422
"64126","Kansas City","MO","police athletic league","not_available","64126",39.08941927078417,-94.51237833124247
"64127","Kansas City","MO","Crazy A's Boxing Gym","12th street","64108",39.09790685,-94.55164968967438
"64127","Kansas City","MO","Community Center Gym","Moulton Ave, Kansas City, MO 64127","64127",39.081092834472656,-94.54441833496094
"64127","Kansas City","MO","WSD Workout Facility","1901 Brooklyn Ave","64127",39.090534000000005,-94.558526
"64128","Kansas City","MO","KCVA Workout Room","4801 E Linwood Blvd","64128",39.06329345703125,-94.52699279785156
"64129","Kansas City","MO","Planet Fitness","8720 E 63rd St","64133",39.01107124590253,-94.48316095484078
"64130","Kansas City","MO","Research Medical Center Gym","2316 E Meyer Blvd, Kansas City, MO 64132","64132",39.02080365666813,-94.55458260592167
"64131","Kansas City","MO","INSANITY","not_available","64131",38.99419021606445,-94.57428741455078
"64131","Kansas City","MO","Rehab Gym","6715 Holmes Rd","64131",39.006915,-94.57770699999999
"64131","Kansas City","MO","Workout Room @timberlakes","11201 Montgall Ave","64137",38.921625,-94.55761700000001
"64131","Kansas City","MO","Brookside Health & Fitness","6675 Holmes Rd","64131",39.006519366955494,-94.57803134879808
"64132","Kansas City","MO","Stonehaven South Apartments","5600 E 84th Ter","64132",38.97427115704433,-94.52393274417341
"64132","Kansas City","MO","Southeast Fieldhouse","not_available","64130",39.00906595599228,-94.5433373293259
"64132","Kansas City","MO","Hickman Weight Room","9010 Old Santa Fe Rd","64138",38.96221,-94.507308
"64133","Kansas City","MO","The ROC Gym","10500 E State Route 350","64138",38.985344119209394,-94.45617017278698
"64134","Kansas City","MO","KC Cheer","not_available","64134",38.93791198730469,-94.50218200683594
"64134","Kansas City","MO","Workout room @ Madison Park","10508 Hillcrest Rd","64134",38.9340705871582,-94.52359008789062
"64134","Kansas City","MO","King's Quarters Gym","not_available","64137",38.918735745255155,-94.52889262171136
"64138","Kansas City","MO","The Y","E 350 Hwy","64133",38.98199038716961,-94.46011561325174
"64138","Kansas City","MO","Halls High Speed Development","7707 East 87th Street","64138",38.96606373,-94.498367
"64145","Kansas City","MO","MC CROSSFIT","201 W 135th St","64145",38.882755279541016,-94.59858703613281
"64145","Kansas City","MO","The Pump Room","Smitty's Pad","not_available",38.910222,-94.588174
"64150","Riverside","MO","Queen of The Court (Levo Gym)","700 Argosy Pkwy","64150",39.165103912353516,-94.61934661865234
"64150","Riverside","MO","Club Fitness","777 Argosy Pkwy","64150",39.1613290835774,-94.62012660114033
"64151","Kansas City","MO","Picture Hills Shopping Center","6401-6405 N Cosby Ave","64151",39.21041872014458,-94.64980008842855
"64151","Kansas City","MO","Orangetheory Fitness","6006 NW 63rd Ter","64151",39.209267,-94.650309
"64151","Kansas City","MO","Crossfit Northland","6600 NW Tower Dr","64151",39.232725,-94.656487
"64151","Kansas City","MO","Anytime Fitness","7000 NW 83rd St","64152",39.24446,-94.66143
"64151","Kansas City","MO","My Gym","6273 N London Ave Apt A","64151",39.20866775512695,-94.63299560546875
"64151","Kansas City","MO","Snap Fitness","not_available","64151",39.235591,-94.650459
"64151","Kansas City","MO","Snap Fitness","6300 N Chatham Ave","64151",39.20960235595703,-94.64456176757812
"64151","Kansas City","MO","Northland Passage Fitness Center","6360 N London Ave","64151",39.20988231547393,-94.6337004297897
"64151","Kansas City","MO","faithful fitness kc","7601 Ne Roanridge Road","64151",39.234129534967465,-94.65569837744107
"64151","Kansas City","MO","Picture Hills Fitness","6501 N Crosby Ave","64151",39.21333450213636,-94.64541666469313
"64151","Kansas City","MO","Impact Fitness","6200 NW 63rd Ter","64151",39.20973420355999,-94.65168251778925
"64151","Kansas City","MO","Curves","Green Hills","not_available",39.24368941398821,-94.62505683969324
"64152","Kansas City","MO","Platte County Community Center South YMCA","8875 Clark Ave","64152",39.20641008927524,-94.68412751829244
"64152","Kansas City","MO","Parkville Athletic Complex","6014 N State Route 9","64152",39.20503502772565,-94.68284319333496
"64152","Kansas City","MO","get thin!","7301 NW 72nd St","64152",39.225406646728516,-94.66499328613281
"64152","Kansas City","MO","Title Boxing Club","6270 NW Jefferson St","64152",39.20823595492269,-94.68327815598565
"64153","Kansas City","MO","Pure Barre","8526 NW Prairie View Rd Ste 100","64153",39.24973808259443,-94.66149295703258
"64154","Kansas City","MO","Snap Fitness","8560 N Green Hills Rd","64154",39.24875132273253,-94.63232321653284
"64154","Kansas City","MO","Genesis Health Clubs - Boardwalk","8628 North Boardwalk Ave","64154",39.25341662430927,-94.65262949466705
"64154","Kansas City","MO","The Gym","not_available","64154",39.251722153518834,-94.64612722489919
"64155","Kansas City","MO","Planet Fitness","470 NE Barry Rd","64155",39.248979080795735,-94.57361493417328
"64155","Kansas City","MO","Carrington Park Gym","not_available","64155",39.248880281856934,-94.59888139237005
"64155","Kansas City","MO","Snap Fitness","9572 N McGee St","64155",39.266658782958984,-94.5772705078125
"64155","Kansas City","MO","New Mark Apartments Gym","400 NE 103rd St","64155",39.28061294555664,-94.57322692871094
"64156","Kansas City","MO","Barrewoods Fitness Center","2900 NE Barry Rd","64156",39.25090549575458,-94.54528487560206
"64157","Kansas City","MO","Paks Tae Kwon Do Academy","Industrial Way","not_available",39.25526718913021,-94.45272028086059
"64424","Bethany","MO","Bethany Community Gym","1901 Miller St","64424",40.26588574918386,-94.03211144682076
"64429","Cameron","MO","Anytime Fitness","603 E Platte Clay Way","64429",39.75988,-94.23253
"64429","Cameron","MO","Wellness Center","not_available","64429",39.74015244597253,-94.23952608404244
"64429","Cameron","MO","YMCA","402 E Evergreen St","64429",39.731082916259766,-94.23548126220703
"64446","Fairfax","MO","cooper nuclear station gym","not_available","68321",40.39073963067537,-95.65757784844432
"64454","Gower","MO","Tasty Freeze Alternative Fitness Complex","not_available","64454",39.59875222771512,-94.58501649489132
"64468","Maryville","MO","Fitness Center","not_available","64468",40.3486943440838,-94.87919003025262
"64468","Maryville","MO","Get Fit 24","1506 S Main St","64468",40.33076858520508,-94.87472534179688
"64477","Plattsburg","MO","Joe's Fitness Center","not_available","64477",39.571809,-94.420217
"64482","Rock Port","MO","skinny ginnys","not_available","64446",40.41479717060196,-95.51729804217042
"64491","Tarkio","MO","Heartland Rec Center","not_available","64491",40.44064818513632,-95.3917235128605
"64501","Saint Joseph","MO","Mitchell Park Gym","not_available","64503",39.75490110854211,-94.8469785756982
"64501","Saint Joseph","MO","Radisson Fitness Center","102 S 3rd St","64501",39.766183,-94.857345
"64501","Saint Joseph","MO","Cuckoo's Nest Exclusive Gym","not_available","64501",39.775108337402344,-94.83824920654297
"64501","Saint Joseph","MO","metro boxing club","St Joseph Avenue","64505",39.76152256867901,-94.83818258860477
"64503","Saint Joseph","MO","TITLE Boxing Club St.Joseph","139 N Beltway, Suite M","64506",39.77075365801513,-94.80383634567261
"64503","Saint Joseph","MO","Club Fit","5940 King Hill Ave","64504",39.71453883475465,-94.86251902564507
"64503","Saint Joseph","MO","Plaza Fitness","not_available","64506",39.794776,-94.81099
"64503","Saint Joseph","MO","Baker Fittness Center","Downs Dr.","64507",39.76066102451218,-94.78545968995458
"64503","Saint Joseph","MO","Burns Gym","My Garage","64505",39.7841796875,-94.85408020019531
"64503","Saint Joseph","MO","Snap Fitness","4311 Commonwealth Ct.","63507",39.72383117675781,-94.79078674316406
"64503","Saint Joseph","MO","Anytime Fitness","1209 N. Belt Hwy Ste F","64506",39.77883,-94.80177
"64505","Saint Joseph","MO","Genesis Health Club","3107 N Belt Hwy","64506",39.797874450683594,-94.8120346069336
"64505","Saint Joseph","MO","Controlled Chaos MMA","not_available","64505",39.82692337036133,-94.85504150390625
"64601","Chillicothe","MO","YMCA","1725 locust","not_available",39.804926457190916,-93.55183687751544
"64601","Chillicothe","MO","Anytime Fitness","348 W Business 36 Hwy","64601",39.77447,-93.54631
"64620","Altamont","MO","Barclay's Gym","not_available","64640",39.933989,-94.054548
"64628","Brookfield","MO","Life Time Fitness","4819 Jackson Rd.","65261",39.725228,-92.945982
"64628","Brookfield","MO","6 North Gym","Laclede","64651",39.785579,-93.166593
"64633","Carrollton","MO","Core Total Health & Fitness","not_available","64633",39.36431121826172,-93.48210906982422
"64633","Carrollton","MO","Shapes Dance","1018 E 10th St","64633",39.369720458984375,-93.4819107055664
"64735","Clinton","MO","House Of Pong","corner of 8th and Clinton","64735",38.36501772746221,-93.76351056371838
"64759","Lamar","MO","Lamar High School Gym","not_available","64759",37.500892639160156,-94.28145599365234
"64772","Nevada","MO","24hr Fitness","not_available","64772",37.85029731666667,-94.34284076666667
"64801","Joplin","MO","Jay's Yoga Center","not_available","64801",37.125046764461494,-94.59129810333252
"64801","Joplin","MO","Olympic Fitness Center","2132 Connecticut Ave","not_available",37.06639099121094,-94.4952163696289
"64801","Joplin","MO","Cooper's Little Weight Room","732 Crockett Dr","64870",37.153995513916016,-94.48298645019531
"64801","Joplin","MO","Jeffery C M Johnson DC LLC","1420 S Joplin Ave","64801",37.07547590000001,-94.5152878
"64801","Joplin","MO","Powerhouse Gym","530 S Northpark Ln","64801",37.0856052642777,-94.46878843847401
"64801","Joplin","MO","Fitness Evolution","1506 S Madison St","64870",37.129573822021484,-94.47586822509766
"64801","Joplin","MO","Leggett & Platt Fitness Center","not_available","64836",37.17841892016479,-94.3861075776306
"64801","Joplin","MO","JOMO CrossFit","N Main St","64801",37.113117885594114,-94.47609084631894
"64801","Joplin","MO","Colaw Fitness","2706 E 7th St","64801",37.0832633972168,-94.4828109741211
"64804","Joplin","MO","Amplify","not_available","64804",37.05394,-94.461214
"64804","Joplin","MO","Gym Holiday Inn","3402 Arizona Ave","64804",37.0443115234375,-94.48072814941406
"64804","Joplin","MO","Freeman Rehabilitation & Sports Center","2206 E 32nd St","64804",37.05430603027344,-94.49089813232422
"64850","Neosho","MO","Neosho High School Mini Gym","511 S Neosho Blvd","64850",36.86471939086914,-94.381103515625
"64850","Neosho","MO","LiftOut","587 Nelson Ave","64850",36.829872131347656,-94.3766098022461
"64855","Oronogo","MO","Girlfriends  Oronogo","not_available","64855",37.19975662231445,-94.4561996459961
"65010","Ashland","MO","Southern Boone Area YMCA","101 W Broadway","65010",38.774539947509766,-92.26249694824219
"65010","Ashland","MO","The Body Zone","108 Industrial Dr","65010",38.776458740234375,-92.24947357177734
"65018","California","MO","Xtreme Fitness","1021 W Buchanan St Ste 12","65018",38.62948989868164,-92.58104705810547
"65018","California","MO","Git Fit","not_available","65018",38.630123604264845,-92.5664609746332
"65020","Camdenton","MO","Tri-County YMCA","off Airport Rd","65065",38.11462224438489,-92.6797756080067
"65020","Camdenton","MO","NRGX Fitness","not_available","65020",38.022513739096595,-92.72809510049498
"65020","Camdenton","MO","Tan-Tar-A Fitness Center","not_available","65065",38.1279127123884,-92.71879967642235
"65020","Camdenton","MO","Central Fitness","522 Missouri 5 Business","65020",38.012247,-92.75171139999999
"65020","Camdenton","MO","Crossfit LOTO","1032 Rowan Rd","65065",38.12752151489258,-92.66934204101562
"65034","Fortuna","MO","The Workout Room Of Death","not_available","65034",38.55817146599508,-92.8294194839124
"65037","Gravois Mills","MO","Camden On The Lake Spa","not_available","65049",38.205265666567094,-92.74873227078302
"65037","Gravois Mills","MO","Ship Shape Fitness","not_available","65079",38.18865203857422,-92.81302642822266
"65041","Hermann","MO","Hermann Fitness Source","124 E 4th St","65041",38.703521728515625,-91.43468475341797
"65041","Hermann","MO","Renaissance Therapy & Fitness","2064 Village Ln","65041",38.68340301513672,-91.45104217529297
"65043","Holts Summit","MO","Curves","not_available","65043",38.655802,-92.117051
"65043","Holts Summit","MO","Capitol Plaza Fitness Center","not_available","65101",38.578761737567966,-92.17806257716492
"65043","Holts Summit","MO","Crossfit Unstoppable","605 Missouri Boulevard Ct","65109",38.580684661865234,-92.19396209716797
"65043","Holts Summit","MO","Knowles YMCA","424 Stadium Blvd","65101",38.56111673431619,-92.18220589217533
"65043","Holts Summit","MO","Doubletree Fitness By Precor","422 Monroe St","65101",38.573585510253906,-92.1722640991211
"65043","Holts Summit","MO","High Street Total Fitness","114 E High St","65101",38.57640838623047,-92.1720962524414
"65047","Kaiser","MO","Anytime Fitness","965 Hwy 42","65065",38.15548,-92.60346
"65047","Kaiser","MO","Fit Physique","111 Crossings West","65049",38.187801361083984,-92.64099884033203
"65072","Rocky Mount","MO","Timberlake Village","not_available","27583",38.24330558205649,-92.70918080260851
"65084","Versailles","MO","Versailles Total Fitness","131 N Monroe St","65084",38.432579040527344,-92.84196472167969
"65101","Jefferson City","MO","Wilson's Total Fitness","not_available","65109",38.58643429115899,-92.25332367580678
"65101","Jefferson City","MO","Fairfield Inn Fitness Center","3621 W Truman Blvd","65109",38.59035110473633,-92.2525634765625
"65101","Jefferson City","MO","Capital City Xtreme Cheer","1301 Creek Trail Dr","65109",38.56925964355469,-92.21839141845703
"65101","Jefferson City","MO","Capital Region Healthplex West","3308 W Edgewood Dr","65109",38.569508594860494,-92.24297046661377
"65101","Jefferson City","MO","YMCA Climbing Wall","525 Ellis Blvd","65101",38.55257797241211,-92.19184875488281
"65101","Jefferson City","MO","Anytime Fitness","3220 W Edgewood Dr","65109",38.56923,-92.24128
"65201","Columbia","MO","Insane Asylum","not_available","65201",38.916972428184465,-92.30812270874215
"65201","Columbia","MO","Copper Beech Gym","3217 Old 63 S","65201",38.91524128470472,-92.30430767506475
"65201","Columbia","MO","The Reserve Pump Room","2500 Old 63 S","65201",38.921413,-92.306484
"65201","Columbia","MO","Boone Electric Gym","1413 Rangeline St","65201",38.966034,-92.326853
"65201","Columbia","MO","Bouldering Gardens","5400-5434 E Saint Charles Rd","65201",38.95723576,-92.25528753
"65201","Columbia","MO","Jazzercise","124 E Nifong Blvd","65203",38.908589695899565,-92.33713078585482
"65201","Columbia","MO","Peak Performance","Nifong","not_available",38.90969454539771,-92.33730416765823
"65201","Columbia","MO","Pure Barre","3310 Bluff Creek Dr Ste 107","65201",38.913697113878726,-92.29691144096091
"65201","Columbia","MO","Eierman Elite Wrestling","not_available","65251",38.910792,-92.129641
"65201","Columbia","MO","Anytime Fitness","3200 Penn Ter Ste 117","65202",38.96563,-92.28497
"65201","Columbia","MO","Key Largo Fitness And Tanning","not_available","65203",38.90438484368513,-92.33624178071842
"65201","Columbia","MO","The Cottages - Fitness Center","2400 E Nifong Blvd","65201",38.90663089470976,-92.3029633747193
"65201","Columbia","MO","Key Largo Fitness And Tanning","701 Hillsdale Rd","65201",38.95789519174663,-92.27677556494434
"65201","Columbia","MO","The Workout Room","not_available","65202",38.9545572952303,-92.22573014599045
"65201","Columbia","MO","Pump Room","Campus Mail Service Facility","65211",38.94147266166488,-92.3265172228263
"65201","Columbia","MO","Women's Rothwell Club","MU Recreation Complex","65201",38.94161724610269,-92.3266734106964
"65202","Columbia","MO","ARC","1701 W Ash St","65203",38.9576822823098,-92.36293397005745
"65202","Columbia","MO","Pro Fitness","3210 Vandiver Dr","65202",38.97387581020153,-92.29020748150452
"65202","Columbia","MO","Mexico Gravel Gym","3016 Mexico Gravel Rd Ste B","65202",38.97848129272461,-92.29204559326172
"65202","Columbia","MO","Heart of America Premiere Fitness Center","2604 Paris Rd","65202",38.976173,-92.298301
"65202","Columbia","MO","Orangetheory Fitness","3103 W Broadway","65203",38.955691,-92.383841
"65202","Columbia","MO","CrossFit United","612 Big Bear Blvd #1A","65202",38.97609329223633,-92.3294448852539
"65202","Columbia","MO","CrossFit Aggregate","609 Big Bear Blvd","65202",38.977965,-92.329871
"65202","Columbia","MO","Fit Central","3410 Broadway Business Park Court, Suite 107","65203",38.9539328,-92.38741739999999
"65202","Columbia","MO","Anytime Fitness","1729 West Broadway","65203",38.953786,-92.364444
"65202","Columbia","MO","2 Real Fitness LLC","300 Tiger Ln.","65203",38.9590871,-92.3706112
"65202","Columbia","MO","Mo' Fitness","901 Safari Dr.","65202",38.987308502197266,-92.32681274414062
"65203","Columbia","MO","Wilson's Fitness","2902 Forum Blvd","65203",38.92449,-92.361422
"65203","Columbia","MO","Anytime Fitness","2101 Corona Rd Ste 103","65203",38.93193,-92.39921
"65203","Columbia","MO","MizzouRec Business Office","213 Campus Mail Service Facility","65211",38.948856,-92.387842
"65203","Columbia","MO","The Office","Garage","not_available",38.88784110546112,-92.34817206859589
"65203","Columbia","MO","Bakedizzle's A Bad Man","4634 Lake Valley Ln","65203",38.9005012512207,-92.35397338867188
"65251","Fulton","MO","Fulton CrossFit","South Business 54","65251",38.83259,-91.959785
"65251","Fulton","MO","""Curves"" Womens Fitness Center","715 Nichols St","65251",38.85073665636852,-91.948813306919
"65251","Fulton","MO","Fulton Cross fit","601 Commons Dr.","65251",38.83097446811068,-91.96007221482492
"65251","Fulton","MO","YMCA Of Callaway County","Wood St","65251",38.864171010629946,-91.9359406202069
"65251","Fulton","MO","The Annex","600 E 5th St","65251",38.847164154052734,-91.9378890991211
"65251","Fulton","MO","Westminster Historic Gym","501 Westminster Ave","65251",38.84822871185372,-91.95612888790924
"65265","Mexico","MO","Darby's Total Fitness","1636 E Liberty St","65265",39.166751861572266,-91.86407470703125
"65265","Mexico","MO","Mexico YMCA","1127 Adams St","65265",39.16084289550781,-91.89710998535156
"65265","Mexico","MO","MMA Weight Room","not_available","65265",39.172881518834146,-91.86748451888985
"65281","Salisbury","MO","With All Our Might Gym","214 South Broadway","65281",39.423580169677734,-92.80149841308594
"65301","Sedalia","MO","Anytime Fitness","110 W 3rd St","65301",38.70874,-93.22891
"65301","Sedalia","MO","Total Fitness Gym","not_available","65301",38.70039156852335,-93.26780132060209
"65305","Whiteman Air Force Base","MO","Swoll Station (MUNS GYM)","not_available","65305",38.71964271606523,-93.53535069527774
"65338","Lincoln","MO","Lovin' Fitness","not_available","65355",38.26327,-93.370928
"65338","Lincoln","MO","Warsaw Fitness","Main Street","not_available",38.24252847778858,-93.38268405938194
"65340","Marshall","MO","Snap.","807 Cherokee Dr","65340",39.11302185058594,-93.21394348144531
"65340","Marshall","MO","Salt Fork YMCA","740 E Yerby St","65340",39.11404037475586,-93.18270874023438
"65340","Marshall","MO","Ymca","758 E Yerby St","65340",39.11363181380537,-93.18243028179492
"65401","Rolla","MO","Anytime Fitness","201 S Bishop Ave","65401",37.94162,-91.77689
"65401","Rolla","MO","Therapypros & Fitness","117 E Springfield St","65559",37.99817657470703,-91.61400604248047
"65401","Rolla","MO","Kappa Sigma Gym","1701 White Columns Dr","65401",37.958178376341536,-91.78317577886679
"65401","Rolla","MO","Feel Good Fitness","not_available","65401",37.93808462993524,-91.75403618072559
"65401","Rolla","MO","Planet Infinity","Mother Ignacia","1100",37.96362108427343,-91.82896614074707
"65401","Rolla","MO","Planet Fitness","1056 South Bishop Ave","65401",37.92813,-91.780985
"65401","Rolla","MO","The Centre","1200 Holloway St","65401",37.95301374148504,-91.75989494161449
"65452","Crocker","MO","MiMi's Corner","not_available","65452",37.94905755484675,-92.26390717064577
"65453","Cuba","MO","Git Fit Gym","800 Hwy P","65453",38.07959,-91.395782
"65473","Fort Leonard Wood","MO","Crossfit Bldg 767","not_available","65473",37.750767,-92.127442
"65473","Fort Leonard Wood","MO","Specker Gym","Bldg. 1714 Cooley Ave","65473",37.75352341930506,-92.1073481483231
"65473","Fort Leonard Wood","MO","The ARK Community & Sports Center","25625 Highway 17","65583",37.78690452139469,-92.25579085401367
"65473","Fort Leonard Wood","MO","D co Jail House Gym","7542 Loyalty Loop Bldg 934","65473",37.73977892600627,-92.12620754413891
"65486","Iberia","MO","Iberia Fitness","not_available","65486",38.084765020349906,-92.29552861049304
"65536","Lebanon","MO","The Warehouse","309 Commercial St","65536",37.66212186666482,-92.65951553573016
"65536","Lebanon","MO","Anytime Fitness","1300 W Elm St","65536",37.66085,-92.66729
"65542","Licking","MO","Friend Fitness & Performance","100B Deer Lick St","65542",37.49209105687563,-91.8551230430603
"65552","Plato","MO","Just-In-Time Tannin & Fitness","not_available","65557",37.50932312011719,-92.14057922363281
"65556","Richland","MO","Bap Gym II","not_available","65583",37.82365,-92.267384
"65560","Salem","MO","Kettner Fitness Center","not_available","65560",37.6370984030735,-91.52251490446763
"65583","Waynesville","MO","Young At Heart","27420 Highway 17","65583",37.827486,-92.200293
"65583","Waynesville","MO","Anytime Fitness","1104 Historic Rte 66","65583",37.81647,-92.21909
"65583","Waynesville","MO","Young At Heart","24738 Missouri 17","65583",37.8029402,-92.23965271
"65583","Waynesville","MO","Curves","Historic Route 66","65583",37.81642908929269,-92.21865892410278
"65583","Waynesville","MO","Dropping Plates CrossFit","not_available","65584",37.82840548178923,-92.17666601044242
"65584","Saint Robert","MO","Empower Studios","839 Vfw Memorial Dr","65584",37.8024007,-92.1439886
"65584","Saint Robert","MO","Ingles Hamster Wheel","24372 Tanglewood Rd","65584",37.809599,-92.13312
"65605","Aurora","MO","My Gym :D","19055 Lawrence 1240","65705",36.994869232177734,-93.6288833618164
"65605","Aurora","MO","My Gym","not_available","65705",37.003112,-93.637421
"65608","Ava","MO","JM Workout","Ozark Plateau","65762",36.72271728515625,-92.72509002685547
"65610","Billings","MO","Myers Gym","2140 Homestead Ct, Nixa, MO 65714","65714",37.052137824585266,-93.39613198954768
"65610","Billings","MO","Anytime Fitness","581 E Elm St","65738",37.11945,-93.47161
"65610","Billings","MO","Cox Fitness Center - Republic","711 E Miller Rd","65738",37.1115407784469,-93.46563903008649
"65613","Bolivar","MO","SBU Wellness Center","not_available","65613",37.602420562417606,-93.41102697337516
"65613","Bolivar","MO","YMCA","2154-2160 W Broadway","65613",37.611972695084454,-93.4307017236354
"65616","Branson","MO","Landing Fitness","not_available","65616",36.64826,-93.22154
"65616","Branson","MO","Branson Sports Club","418 Buchanan Rd","65616",36.701416015625,-93.22573852539062
"65616","Branson","MO","Ozark Mountain Family YMCA","175 Industrial Park Dr","65672",36.6097208010238,-93.2237533023334
"65616","Branson","MO","Evolution Personal Training","554 Gretna Rd","65616",36.64407730102539,-93.27326965332031
"65616","Branson","MO","First Baptist Church Life Center","400 S Sunshine St","65616",36.64166259765625,-93.22967529296875
"65616","Branson","MO","BPA Fitness Center","301 Scott Blvd","65616",36.638474,-93.255287
"65619","Brookline","MO","Denver's gym","not_available","65807",37.169943435122164,-93.35068671294566
"65622","Buffalo","MO","Buffalo Fitness Center","not_available","65622",37.634634,-93.095068
"65622","Buffalo","MO","Dallas County Area YMCA","932 Main St","65622",37.64411093727655,-93.10180649803118
"65625","Cassville","MO","Mercy St Johns Hospital Fitness","not_available","65625",36.674645672045195,-93.87155794508304
"65633","Crane","MO","Rachels tea","217 Main St","65633",36.9053955078125,-93.57215118408203
"65656","Galena","MO","my gym","not_available","65737",36.739410400390625,-93.37718200683594
"65682","Lockwood","MO","Lockwood Fitness Center","not_available","65682",37.390666930985624,-93.955003945836
"65708","Monett","MO","Monett Area YMCA","115 S Lincoln Rd","65708",36.90988410815783,-93.92644362874414
"65708","Monett","MO","The Mac Gym","not_available","65708",36.92074255328746,-93.92569710097567
"65711","Mountain Grove","MO","YMCA","not_available","65711",37.135643096885126,-92.25823842154134
"65712","Mount Vernon","MO","DFine Gym","not_available","65712",37.11466048937475,-93.76374373446774
"65714","Nixa","MO","Anytime Fitness","833 N Main St","65714",37.05549,-93.29489
"65714","Nixa","MO","Fitness Center","940 W Mount Vernon St","65714",37.04247193564344,-93.31467538223798
"65714","Nixa","MO","Access Fitness","1201 Flora St","65714",37.0620231628418,-93.29631805419922
"65714","Nixa","MO","Park Place Pool","14 Park Place","65714",37.04219698905945,-93.27934920787811
"65714","Nixa","MO","Nixa Fitness","not_available","65714",37.04300940171,-93.31407351505118
"65714","Nixa","MO","CrossFit of the Ozarks","750 W. Enterprise Ln","65714",37.07788848876953,-93.30317687988281
"65714","Nixa","MO","Snap Fitness","830 W Mount Vernon St","65714",37.04229736328125,-93.31194305419922
"65721","Ozark","MO","Ozark Community Center","not_available","65721",37.02236023318452,-93.22104674517227
"65721","Ozark","MO","Anytime Fitness","1508 W.  Hwy. J","65721",37.06919,-93.2213
"65721","Ozark","MO","The River Fitness Center","6100 N 19th St","65721",37.076090853157076,-93.2260412803577
"65742","Rogersville","MO","Apartment Gym","Ingram Mill Rd.","65804",37.16626267,-93.22501401
"65742","Rogersville","MO","Prime Inc Gym","not_available","65803",37.24640450204869,-93.22712307919443
"65742","Rogersville","MO","Snap Fitness","3659 E Sunshine St","65809",37.18024186993943,-93.2194286789619
"65742","Rogersville","MO","Extra Mile Fitness","not_available","65809",37.17869186401367,-93.22225952148438
"65742","Rogersville","MO","Fitness Center","not_available","65804",37.180548150471,-93.2264928018686
"65742","Rogersville","MO","Big Time Results","3240 E Ridgeview St","65804",37.1590557847626,-93.22938101584076
"65742","Rogersville","MO","My Gym","5507 E Riverview St","65809",37.1597900390625,-93.17800903320312
"65746","Seymour","MO","gym barlow","not_available","65746",37.10644328142303,-92.76231557627668
"65770","Walnut Grove","MO","Cox Fitness - Willard","133 N. Hwy. Z","65781",37.31440091514054,-93.43410728830273
"65775","West Plains","MO","Crossfit","not_available","65775",36.72235107421875,-91.84114074707031
"65775","West Plains","MO","Anytime Fitness","1651 Gibson St","65775",36.74317,-91.87503
"65775","West Plains","MO","Hampton Inn Gym","1064 London Ln","65775",36.715639,-91.86803
"65775","West Plains","MO","CrossFit Somo","220 N Kentucky Ave","65775",36.72929000854492,-91.8761978149414
"65781","Willard","MO","Zeal Bodyworks","304 E Jackson St Ste 2G","65781",37.302486419677734,-93.42473602294922
"65781","Willard","MO","Squatting Monkey Fitness","304 E Jackson St","65781",37.302486419677734,-93.42473602294922
"65785","Stockton","MO","CCMH Exercise Center","807 Owens Mill Rd, Stockton, MO 65785","65785",37.7063102722168,-93.78522491455078
"65785","Stockton","MO","Curves","not_available","65785",37.699561,-93.802262
"65802","Springfield","MO","10 Fitness","1444 S Glenstone Ave","65804",37.1873770138679,-93.26071654498062
"65802","Springfield","MO","Ozark Fitness Center","1828 N Glenstone Ave","65803",37.23053778939233,-93.26052991931282
"65802","Springfield","MO","Planet Fitness","2633 N Kansas Expressway","65803",37.245725,-93.312154
"65802","Springfield","MO","Planet Fitness","1730 S Campbell Ave","65807",37.183448,-93.293869
"65802","Springfield","MO","Mercy Fitness Center Sports Med","Freemont","65804",37.178832262974204,-93.27341980332281
"65802","Springfield","MO","Hammons gym","901 E St Louis St, Springfield, MO 65806","65806",37.20560966902186,-93.27926612187906
"65802","Springfield","MO","My Gym","4336 W Page St","65802",37.19979978,-93.36874592
"65802","Springfield","MO","Elite Athletics Gym","555 S Cavalier Ave","65802",37.20270176006038,-93.23186301239932
"65802","Springfield","MO","Fitness Center","not_available","65802",37.21644015495107,-93.28032246394682
"65802","Springfield","MO","Anytime Fitness","319N E Battlefield St","65807",37.16163,-93.29179
"65802","Springfield","MO","St. John's Clinic-Sports Medicine","2135 S Fremont Ave","65804",37.17505293512546,-93.27278471577364
"65802","Springfield","MO","Sunset Place Apartments Workout Room","2752 S Meadowbrook Ave","65807",37.16531721483223,-93.31361959912698
"65802","Springfield","MO","Staff Development Center For Federal Officers","S Cireone Dr","65807",37.184318,-93.32052
"65802","Springfield","MO","Evolved Training Systems","1912 S Stewart Ave","65804",37.17866897583008,-93.25977325439453
"65802","Springfield","MO","Genesis Health Clubs - Springfield North","1828 North Glenstone","65803",37.2309924,-93.2607986
"65802","Springfield","MO","Crossfit Springfield","1900 W Sunset St","65807",37.16558185923475,-93.31743662114798
"65802","Springfield","MO","Ken Meyer Fitness Center - SIFE WHQ","1959 E Kerr St","65803",37.249793195527694,-93.25788255253012
"65803","Springfield","MO","Barber Fitness Center","900 N Benton Ave","65802",37.21883858424488,-93.28531264325133
"65803","Springfield","MO","Bass Pro Gym","2500 E Kearney St","65803",37.237298667165234,-93.24731826782227
"65803","Springfield","MO","Big Rock Climbing Gym","916 N Cedarbrook Ave","65802",37.2169,-93.238253
"65803","Springfield","MO","Fitness Center","1423 N Jefferson Ave","65802",37.223971947941436,-93.2890393835445
"65804","Springfield","MO","Ozark Fitness Center","1249 E Battlefield St","65804",37.16011725807203,-93.27557196096545
"65804","Springfield","MO","YMCA South","1901 E Republic Rd","65804",37.13937251697013,-93.26144963520886
"65804","Springfield","MO","Propel Fitness Center","1440 E Lark Street","65804",37.1352653503418,-93.27095794677734
"65804","Springfield","MO","TR Fitness","1301 East Battlefield rd","65804",37.1598548275309,-93.27430665493011
"65804","Springfield","MO","Midwest Fitness Solutions","3433 S Campbell Ave","65807",37.15132534503937,-93.29738438129425
"65804","Springfield","MO","Extreme Fitness","1440 E Lark St","65804",37.135384621013515,-93.2711993677357
"65804","Springfield","MO","Orangetheory Fitness","2862 S Glenstone Ave","65804",37.160948,-93.261725
"65804","Springfield","MO","CYCLEBAR","3326 S Glenstone Ave","65804",37.152278900146484,-93.26007080078125
"65804","Springfield","MO","Revelation MMA","1515 E Lark St","65804",37.13594436645508,-93.26972961425781
"65804","Springfield","MO","Body-Weight USA","3641 South Ave","65807",37.14781188964844,-93.29389953613281
"65806","Springfield","MO","Downtown YMCA","417 S Jefferson Ave","65806",37.20644969964639,-93.29007903136504
"65806","Springfield","MO","Crackhead City","S Campbell Ave","65806",37.20352247,-93.29460024
"65806","Springfield","MO","Strong Gym","not_available","65806",37.20519433399537,-93.28914105074695
"65807","Springfield","MO","Goldenpond Workout Center","not_available","65810",37.13866704,-93.33879147
"65807","Springfield","MO","Lakeshore Workout Room","3660 S Cox Ave","65807",37.14723587036133,-93.32319641113281
"65807","Springfield","MO","F45 Training South Springfield MO","1937 W Republic Rd","65807",37.138754,-93.320321
"65807","Springfield","MO","Kensington Park Fitness Center","1735 W Bennett St","65807",37.1906852722168,-93.31578826904297
"65807","Springfield","MO","Marion Park Fitness Center","1725 S Marion Ave","65807",37.183755,-93.321433
"65807","Springfield","MO","Anytime Fitness","2767 W Republic Rd","65807",37.13914019,-93.33463037
"65810","Springfield","MO","Kelly Greens Workout Room","4355 S National Ave","65810",37.133758544921875,-93.27830505371094
"65810","Springfield","MO","Crossfit Provision Axim","330 W Plainview Rd","65810",37.115840911865234,-93.29593658447266
"65810","Springfield","MO","WCC Gym","Weaver Creek Community","not_available",37.12105426943987,-93.29994048437088
