"zip","city","state","name","address","postalCode","lat","lon"
"24701","Bluefield","WV","Anytime Fitness","537 Commerce Dr","24605",37.24060821533203,-81.24971008300781
"24701","Bluefield","WV","weight watchers","not_available","24701",37.255409240722656,-81.220458984375
"24701","Bluefield","WV","GBCC Gym","703 College Ave","24701",37.252782,-81.225206
"24701","Bluefield","WV","Crossfit Princeton","not_available","not_available",37.362655,-81.093852
"24701","Bluefield","WV","Planet Fitness","261 Mercer Mall Rd,Suite 800","24701",37.297541,-81.167686
"24701","Bluefield","WV","Anytime Fitness","1284 Stafford Dr","24740",37.36035,-81.09627
"24740","Princeton","WV","fairfield inn princeton gym","not_available","24739",37.365729,-81.040809
"24801","Welch","WV","Tug River Fitness Center","not_available","24895",37.378959,-81.562836
"24801","Welch","WV","Superior Gym","not_available","24801",37.42326,-81.548541
"24901","Lewisburg","WV","Greenbrier Valley Fitness South","not_available","24970",37.77062780637608,-80.46932780659611
"24901","Lewisburg","WV","WVSOM Founders Activity Center","not_available","24901",37.80271787434624,-80.43734179947194
"24901","Lewisburg","WV","Greenbrier Valley Fitness North","2-16 Coleman Dr.","24901",37.814930338743785,-80.42783093118655
"25003","Alum Creek","WV","Orangetheory Fitness","310 Southridge Blvd","25309",38.318241119384766,-81.71565246582031
"25022","Blair","WV","Jetts Logan Central","not_available","25654",37.83251335581467,-81.8867432622401
"25053","Danville","WV","Hill Gym","not_available","25130",38.062591,-81.823135
"25064","Dunbar","WV","Anytime Fitness","34 River Walk Mall","25314",38.36596,-81.70888
"25064","Dunbar","WV","MFC Family Life Center","2910 Kanawha Ter","25177",38.375728607177734,-81.79287719726562
"25064","Dunbar","WV","Electric Beach Tan","21 River Walk Mall","25303",38.36531014202668,-81.70852766481684
"25064","Dunbar","WV","South Charleston Community Center","601 Jefferson Rd","25309",38.35721777452989,-81.7163793705766
"25064","Dunbar","WV","Roxalana Hills Apt Gym","Roxalana Hills Dr, Dunbar, WV 25064","25064",38.372886,-81.72429
"25071","Elkview","WV","Anytime Fitness","303 Crossing Mall","25071",38.45779,-81.50213
"25109","Hometown","WV","Putnam County Sheriff's Department Weightroom","3389 Winfield Rd","25213",38.53504180908203,-81.87052917480469
"25143","Nitro","WV","Planet Fitness","125 Lakeview Dr,Suite A","25313",38.41156841981416,-81.8045300517364
"25143","Nitro","WV","Anytime Fitness","1433 MacCorkle Ave","25177",38.38801193237305,-81.82809448242188
"25143","Nitro","WV","Nautilus Sports Fitness Center","917 Cross Lanes Dr","25313",38.42095879309086,-81.79443678245447
"25143","Nitro","WV","universal health club","808 B St","25177",38.38542556762695,-81.83815002441406
"25143","Nitro","WV","Brickhouse cardio club","not_available","25177",38.3860529677656,-81.83747183061843
"25168","Red House","WV","Snap Fitness","12510 Winfield Rd","25213",38.531009674072266,-81.89864349365234
"25177","Saint Albans","WV","Cheer One","5715 Maccorkle Ave","25177",38.35497108601604,-81.75030590711312
"25177","Saint Albans","WV","Active Sports Complex","2400 Kanawha Ter","25177",38.37741352084672,-81.80660392564748
"25213","Winfield","WV","SNAP Fitness","3703 Teays Valley Rd","25526",38.44529843325411,-81.97008257369201
"25213","Winfield","WV","PowerUp Sports & Wellness","not_available","25526",38.44555918999663,-81.9985083926713
"25213","Winfield","WV","YMCA","120 Carls Ln","25560",38.452076710928004,-81.92748077356214
"25213","Winfield","WV","Anytime Fitness","7 Liberty Plz","25526",38.45911,-81.93295
"25266","Newton","WV","Gym @ CentreStage","108 Hollywood Rd","not_available",38.5925936,-81.1780536
"25267","Normantown","WV","Gilmer Fitness","not_available","26351",38.93894092952863,-80.83391070476524
"25270","Reedy","WV","Roane General Hospital Fitness center","Hospital Drive","not_available",38.813322,-81.369351
"25271","Ripley","WV","Curves of Ripley","2367 Route 21 S, Suite K","25271",38.77943420410156,-81.69957733154297
"25271","Ripley","WV","Community Fitness Center","not_available","25271",38.823323284589165,-81.72397422396325
"25301","Charleston","WV","Fairfield Inn Fitness Room","not_available","25301",38.34806289382429,-81.62696141912578
"25301","Charleston","WV","Charleston Police Gym","not_available","25311",38.344376093878,-81.6217866470314
"25301","Charleston","WV","Crossfit elite fitness","901 Brooks St","25301",38.351469,-81.625078
"25301","Charleston","WV","Grind Time Training LLC","1500 Hansford St","25311",38.34724,-81.61855
"25301","Charleston","WV","Capitol Fitness","100 Capitol St","25301",38.349419,-81.635363
"25301","Charleston","WV","Marriott Fitness Center - Town Center","200 Lee St E","25301",38.354189,-81.637775
"25301","Charleston","WV","YWCA","1114 Quarrier St","25301",38.34712776687881,-81.6308660832974
"25301","Charleston","WV","CAMC Nautilus Fitness Center","Brooks St","25302",38.34834883467037,-81.626613591518
"25302","Charleston","WV","Famous Superstars","711 Park Ave","25302",38.360564466962735,-81.62378681086682
"25302","Charleston","WV","Energy Rock Gym","2636 Surface Dr.","25302",38.38446823609758,-81.61561605125878
"25302","Charleston","WV","Doghouse Boxing Gym","1007 Bigley Ave","25302",38.36091613769531,-81.63324737548828
"25303","South Charleston","WV","Longwood Fitness","not_available","25314",38.35154679509274,-81.66017375777469
"25303","South Charleston","WV","Legends Weight Room","not_available","25303",38.3559,-81.68742
"25303","South Charleston","WV","S.C.P.D. Gym & Wellness Center","235 4th Ave","25303",38.36613082885742,-81.6955795288086
"25304","Charleston","WV","Anytime Fitness","5707 MacCorkle Ave SE Ste  80","25304",38.3107,-81.56818
"25304","Charleston","WV","Capital Physical Therapy and Fitness","4216 Maccorkle Ave SE","25304",38.325084,-81.587051
"25304","Charleston","WV","Kim's Dance And Fitness Studio","not_available","25304",38.310776282761566,-81.56804843183835
"25304","Charleston","WV","Nautilus Fitness Center","3200 Chesterfield Ave","25304",38.3272474,-81.6031833
"25311","Charleston","WV","Charleston Family YMCA","100 Ymca Dr","25311",38.343777187153364,-81.60485616331975
"25401","Martinsburg","WV","Planet Fitness","1220 N Queen St","25404",39.4718071,-77.9560504
"25401","Martinsburg","WV","The Equinox Studio","129 Equinox Way W","25401",39.447391510009766,-77.95752716064453
"25401","Martinsburg","WV","Martinsburg Wellness Center","2000 Foundation Way","25401",39.47376111150473,-77.98055537189738
"25401","Martinsburg","WV","Extreme CrossFit","329 Monroe St","25404",39.48259735107422,-77.95023345947266
"25401","Martinsburg","WV","Extreme Family Fitness","not_available","25401",39.484154432310994,-77.94853618314418
"25401","Martinsburg","WV","Gold's Gym","167 Eagle School Rd","25404",39.475029355212975,-77.95448026982929
"25403","Martinsburg","WV","Crossfit Lat 39","54 Gm Access Rd","25403",39.50491714477539,-77.96419525146484
"25411","Berkeley Springs","WV","Home Gym","21 Erin Ln","25411",39.615116119384766,-78.22433471679688
"25411","Berkeley Springs","WV","Rankin Fitness","23 Fitness Lane","25411",39.60376131793487,-78.24031943634851
"25413","Bunker Hill","WV","Berryville Community Center","not_available","22611",39.32587542495785,-78.05224373957006
"25413","Bunker Hill","WV","Total Fitness And Tanning","89 Hovatter Dr, Inwood, WV 25428","25428",39.36003494262695,-78.04056549072266
"25414","Charles Town","WV","Curves","305 S West St","25414",39.28953,-77.8504
"25414","Charles Town","WV","Max Extreme Gym","not_available","25438",39.302305,-77.857305
"25414","Charles Town","WV","Anytime Fitness","136 Patrick Henry Way","25414",39.300845,-77.829364
"25414","Charles Town","WV","Gold's Gym","64 Somerset Blvd","25414",39.29613621122804,-77.83083260651608
"25430","Kearneysville","WV","A & T Athletic Training","not_available","25414",39.358773,-77.866316
"25504","Barboursville","WV","Absolute Fitness","6005 U.S. 60 E","not_available",38.412547173343235,-82.30966287887384
"25504","Barboursville","WV","Fitness Center","Country Club Drive","25705",38.414891227690056,-82.33897662502804
"25504","Barboursville","WV","Planet Fitness","800 Mall Rd,Unit 975","25504",38.41901355482216,-82.26475104045338
"25504","Barboursville","WV","Orangetheory Fitness","3034 Champion Dr","25504",38.42047119140625,-82.2879867553711
"25504","Barboursville","WV","Ruckus Workout Center","5343 Country Club Dr","25705",38.412269592285156,-82.33621978759766
"25504","Barboursville","WV","Snap Fitness","3554 Route 60E","25504",38.41301187173399,-82.26194483369983
"25506","Branchland","WV","The Work Out Place","not_available","25523",38.27907868428712,-82.12103969083762
"25510","Culloden","WV","Gym at the Cane","Hurricane","25526",38.444472,-82.013412
"25510","Culloden","WV","Anytime Fitness","not_available","25510",38.422632,-82.077415
"25514","Fort Gay","WV","Toms Creek Weightroom","not_available","25570",38.214256286621094,-82.45378875732422
"25526","Hurricane","WV","River Cities Gym","3546 Teays Valley Rd","25526",38.44301986694336,-81.98348236083984
"25526","Hurricane","WV","Power Up Sports & Wellness","3540 Teays Valley Road","25526",38.443506,-81.9850891
"25526","Hurricane","WV","Sports City U Basketball","3542 Teays Valley Rd","25526",38.44282913208008,-81.9840087890625
"25530","Kenova","WV","C-K Community Center","Poplar Street","25507",38.39951974479014,-82.57446475836448
"25537","Lesage","WV","Alcon Huntington North Wellness Center","2 Vision Lane","25537",38.572200775146484,-82.28447723388672
"25550","Point Pleasant","WV","PVH Wellness Center","not_available","25550",38.87001408510942,-82.12552012272171
"25601","Logan","WV","Southern Elite Allstar Gym","49 Harvest Hill","25653",37.835873183333334,-82.00164681666666
"25606","Accoville","WV","Tanning Bed","1271 Buffalo creek  RD","25606",37.75800323486328,-81.84795379638672
"25661","Williamson","WV","Gem Kids","not_available","25661",37.672392,-82.277266
"25669","Crum","WV","My Personal TurboFire Gym","Off Road","41267",37.897972992693305,-82.43747936129259
"25701","Huntington","WV","CrossFit Huntington","555 5th Ave","25701",38.41802978515625,-82.44908142089844
"25701","Huntington","WV","American Health Centers","not_available","25704",38.41159049060009,-82.48290362870361
"25701","Huntington","WV","Cam Henderson Center","Marshall University","25703",38.42457272784172,-82.42488818925155
"25701","Huntington","WV","CTC Health and Life Center","2400 Johnstown Rd","25701",38.39982604980469,-82.45550537109375
"25701","Huntington","WV","Tri State MC Gym","not_available","25702",38.426106,-82.407051
"25701","Huntington","WV","YMCA","935 10th Ave","25701",38.41197257223398,-82.44102295781192
"25701","Huntington","WV","On The Treadmill","not_available","45619",38.426813,-82.462157
"25701","Huntington","WV","Marshall University Recreation Center","420 Thundering Herd Dr","25755",38.423583533157704,-82.42322677812842
"25701","Huntington","WV","HIT Center","not_available","25701",38.417575394726654,-82.39114890936477
"25701","Huntington","WV","Master Kim's Tae Kwon Do School","2640 5th Ave","25702",38.4263157,-82.4066133
"25702","Huntington","WV","Alcon","6065 Kyle Ln","25702",38.45808741118369,-82.30895136786118
"25703","Huntington","WV","Chesapeak Community Center","not_available","25703",38.43425018911062,-82.42545538636062
"25801","Beckley","WV","YMCA","121 E Main St","25801",37.77887697992938,-81.18622600957654
"25801","Beckley","WV","Bodyworks","9 Yellow Wood Way","25801",37.81210454372403,-81.19315401762441
"25801","Beckley","WV","Planet Fitness","19 By Pass Plaza Shpg Ctr,Beckley","25801",37.808353,-81.18349
"25801","Beckley","WV","Redline fitness","1320 S Eisenhower Dr","25801",37.7627847620373,-81.15876317024231
"25801","Beckley","WV","SSJH GYM","not_available","25832",37.74641842481082,-81.12598111736814
"25801","Beckley","WV","Crossfit Beckley","122 Appalacian Dr","not_available",37.81269114173589,-81.18690118451848
"25801","Beckley","WV","The Place","201 Templeview Dr","25801",37.803709000000005,-81.188224
"25801","Beckley","WV","LA East Fitness","122 Appalachian Dr","25801",37.815735,-81.18436899999999
"25840","Fayetteville","WV","New River Gorge CrossFit","211 W Maple Ave","25840",38.0507955,-81.10521967
"25840","Fayetteville","WV","Curves","402 Virginia St","25901",37.97595977783203,-81.15657806396484
"25840","Fayetteville","WV","Active Fitness","not_available","25901",37.9757623203176,-81.15364387622371
"25840","Fayetteville","WV","Anytime Fitness","345 Mall Rd","25840",38.01150894165039,-81.12841796875
"25951","Hinton","WV","Bobcat Fitness Center","301 Summers St","25951",37.67543029785156,-80.89037322998047
"26003","Wheeling","WV","CentreTown Fitness","20th & Chapline St","26003",40.0616200995204,-80.72218115649163
"26003","Wheeling","WV","Linsly Fieldhouse","not_available","26003",40.070964,-80.682784
"26034","Chester","WV","YMCA","500 E 4th St","43920",40.61733123005127,-80.57532689171182
"26034","Chester","WV","Power Fitness FT","1571 Pennsylvania Ave","43920",40.63803482055664,-80.54229736328125
"26034","Chester","WV","YMCA","not_available","43920",40.633268,-80.573279
"26035","Colliers","WV","rue21 Gym","not_available","26062",40.388745,-80.553471
"26038","Glen Dale","WV","JM Weight Room","1100-1160 Wheeling Ave","26038",39.9415727,-80.753747
"26041","Moundsville","WV","Metro Fitness","not_available","43947",39.937503814697266,-80.77726745605469
"26041","Moundsville","WV","Anytime Fitness","1410 Lafayette Ave","26041",39.9108,-80.74806
"26047","New Cumberland","WV","Fitness Center","not_available","26047",40.58355796643547,-80.65555276953076
"26050","Newell","WV","FOP Lodge 11 Gym","not_available","43968",40.612635,-80.639322
"26055","Proctor","WV","Work's Fitness World","27 Rose St","26155",39.67661026618804,-80.85557112814737
"26055","Proctor","WV","Anytime Fitness","265 N State Rt 2","26155",39.675636291503906,-80.85542297363281
"26062","Weirton","WV","Quick Fit","3520 Pennsylvania Ave","26062",40.4095089589388,-80.52995229411151
"26062","Weirton","WV","Be Salon Spa Yogafit","241 Three Springs Dr","26062",40.40040588378906,-80.54821014404297
"26062","Weirton","WV","Best Western Gym","not_available","43952",40.374961,-80.624282
"26062","Weirton","WV","Dube Dome","California Avenue","26062",40.40984067040525,-80.55055903422523
"26062","Weirton","WV","Snap Fitness","241 Three Springs Dr Ste 16","26062",40.40040588378906,-80.54821014404297
"26062","Weirton","WV","Anytime Fitness","1528 Parkview Cir","43952",40.377705999999996,-80.623225
"26101","Parkersburg","WV","Planet Fitness","104 Gihon Vlg","26101",39.232127680117756,-81.54515931828433
"26101","Parkersburg","WV","curves south parkersburg","not_available","26101",39.25498010410652,-81.52853122964275
"26101","Parkersburg","WV","YMCA","716 Market St","26101",39.267363049820055,-81.5574542122153
"26101","Parkersburg","WV","Taylor Castle Underground Gym","not_available","45714",39.28237696804594,-81.5742080180945
"26101","Parkersburg","WV","ELITE sports","2000 1st Ave","26101",39.25825366198621,-81.5515972799526
"26104","Parkersburg","WV","Greenmont Racquet Club","816 55th St","26105",39.33995819091797,-81.53368377685547
"26105","Vienna","WV","Sherry's Custom Fitness","1601 Grand Central Ave","26105",39.316202000000004,-81.55414300000001
"26105","Vienna","WV","Revolutions Men's Total Fitness","not_available","26105",39.314947,-81.553988
"26105","Vienna","WV","Anytime Fitness","1500 Grand Central Ave","26105",39.31398,-81.55221
"26142","Davisville","WV","Underground Gym","not_available","26150",39.1863,-81.503559
"26155","New Martinsville","WV","Prodigy Wellness Center","313 N Main St","26155",39.641998291015625,-80.86530303955078
"26164","Ravenswood","WV","Jailhouse","222 Mulberry St","26164",38.94889831542969,-81.7608413696289
"26175","Sistersville","WV","Infinity Fitness","717 Wells St","26175",39.56374049265169,-80.99638521280869
"26187","Williamstown","WV","Swishers baseball camp","not_available","26187",39.4051399230957,-81.44549560546875
"26187","Williamstown","WV","Anytime Fitness","223 Captain D Seeley Mia Dr","45750",39.40355,-81.41649
"26187","Williamstown","WV","Curves","23 Pierce St","45750",39.40790557861328,-81.43022918701172
"26201","Buckhannon","WV","Anytime Fitness","90 Skyline Plaza Dr","26201",38.973011,-80.23149000000001
"26201","Buckhannon","WV","Iron Works","not_available","26201",38.982398,-80.21731
"26201","Buckhannon","WV","WVWC Wellness Center","59 College Ave","26201",38.99021911621094,-80.22097778320312
"26201","Buckhannon","WV","Rob's Fitness Factory - Buckhannon","17 S Florida St","26201",38.99300751502251,-80.22792448551915
"26241","Elkins","WV","Anytime Fitness","90 Stone Mountain Ln","26241",38.8956,-79.844
"26241","Elkins","WV","Total Fitness Training Center","not_available","26241",38.900412,-79.844694
"26250","Belington","WV","Belington Wellness Center","210 Sturmer Street","26250",39.02696346481987,-79.93866312621509
"26301","Clarksburg","WV","Anytime Fitness","1198 W Main St","26330",39.28247,-80.27392
"26301","Clarksburg","WV","Planet Fitness","2399 Meadowbrook Rd,Unit 20","26330",39.31522507995368,-80.270521362966
"26301","Clarksburg","WV","Champs Central","208 N Ohio Ave","26301",39.28859329223633,-80.34375
"26301","Clarksburg","WV","WV 24 Fitness","119 Tolley Dr","26330",39.2839538124263,-80.27690666373402
"26301","Clarksburg","WV","Ronin Fitness- RoF CrossFit","1997 E Pike St","26301",39.278776,-80.2970519
"26330","Bridgeport","WV","Mary's Tanning/gym/hair","not_available","26431",39.39122772216797,-80.30301666259766
"26330","Bridgeport","WV","Hoffman Family Fitness Den","Field Crest","26330",39.26984650691195,-80.2034672617507
"26330","Bridgeport","WV","Wingate Fitness Center","not_available","26330",39.325976,-80.232601
"26354","Grafton","WV","Tygart Valley Rehabilitation and Fitness Center","501 Blueville Dr","26354",39.34438705444336,-79.99823760986328
"26416","Philippi","WV","Alderson-Broaddus Gymnasium","345 Coliseum Way","not_available",39.157521908695585,-80.05159044027252
"26431","Shinnston","WV","Fairmont General HealthPlex","51 Southland Dr","26554",39.43267742225269,-80.18312830274014
"26501","Morgantown","WV","Campus Evolution Villages","1000 District Dr","26505",39.666323463365025,-79.95534485238896
"26501","Morgantown","WV","Mountain Valley Apartments","1000 Mountain Valley Dr","26508",39.673209587972565,-79.96498102734995
"26501","Morgantown","WV","National Energy Technology Laboratory","3610 Collins Ferry Rd","26505",39.670183355855706,-79.97596134074462
"26501","Morgantown","WV","ProPerformance","2161 University Ave","26505",39.64018249511719,-79.95618438720703
"26501","Morgantown","WV","Gym","not_available","26505",39.630092,-79.953249
"26501","Morgantown","WV","Waterfront Hotel Gym","not_available","26501",39.62412813588919,-79.9641306124522
"26501","Morgantown","WV","Anytime Fitness","475 Oakland St","26505",39.651100158691406,-79.96281433105469
"26501","Morgantown","WV","Redman's Pound 4 Pound","59 Don Knotts Blvd","26508",39.605838775634766,-79.96859741210938
"26501","Morgantown","WV","Die Heimturnhalle von Wilhelm Minji","Dille St","26505",39.64509,-79.95899
"26501","Morgantown","WV","Viking Performance Training","141 Greenbag Rd","26501",39.6088209,-79.9627818
"26501","Morgantown","WV","Natalie's 24-hr Fitness","156 meadowridge","26505",39.653582,-79.9465891
"26501","Morgantown","WV","Crossfit Ridgeline - Downtown","180 Willey St","26505",39.6323127746582,-79.95439147949219
"26501","Morgantown","WV","Downstairs Fitness SRC","2001 Rec Center Dr.","not_available",39.648170471191406,-79.97090911865234
"26501","Morgantown","WV","Anu Strength and Fitness","227 Chestnut St","26505",39.629730224609375,-79.95746612548828
"26501","Morgantown","WV","Anu Strength and Fitness","512 Beechurst Ave","26505",39.640842946324554,-79.96068477630615
"26501","Morgantown","WV","HealthWorks Rehab & Fitness","943 Maple Dr","26505",39.658403,-79.952822
"26505","Morgantown","WV","Club 24 Fitness","3007 Northpointe Plz","26505",39.651992200019286,-79.92121119442946
"26505","Morgantown","WV","Copper Beech Workout Room","Morgantown, WV 26505","26505",39.655070123783354,-79.92718060723124
"26505","Morgantown","WV","West Run Gym","Koehler Dr.","26505",39.65641298551548,-79.92459997678098
"26508","Morgantown","WV","Planet Fitness","900 Fort Pierpont Dr","26508",39.65323458567214,-79.89078640937804
"26508","Morgantown","WV","Wii Fit Gym-Brookhaven Location","not_available","26508",39.613974,-79.899854
"26508","Morgantown","WV","pro performancerx","308 Cheat Rd","26508",39.64837732769669,-79.90081787109374
"26554","Fairmont","WV","Nautalius Gym","Locust Ave","26554",39.47227325730208,-80.18236884106958
"26554","Fairmont","WV","5th Street Gym","5th St.","26554",39.48061346795326,-80.15225919052908
"26554","Fairmont","WV","Hoilday Inn Express/ Fitness Center","not_available","26554",39.440575230191634,-80.17038197437331
"26554","Fairmont","WV","Main Street Yoga","228 Adams Street  ,","26554",39.484554290771484,-80.1429214477539
"26554","Fairmont","WV","Fairmont Fitness","1509 Fairmont Ave","26554",39.46440124511719,-80.16028594970703
"26554","Fairmont","WV","SuperKeen Treadmill","00 Circle Dr","not_available",39.47755,-80.16692
"26570","Fairview","WV","Noah's Ark Gym","not_available","26570",39.583396911621094,-80.2436363697052
"26570","Fairview","WV","B East RealRyder Fitness Studio","199 Main St","11930",39.71312921033968,-80.155348777771
"26601","Sutton","WV","Kids Club 24 Hour Fitness","Denton","26624",38.711987,-80.779532
"26651","Summersville","WV","The Gym","138 W Webster Rd","26651",38.29631936315562,-80.83066463470459
"26651","Summersville","WV","Anytime Fitness","235 Merchant Walk","26651",38.29967,-80.8352
"26710","Burlington","WV","Torch'd Fitness","Potomac plaza","not_available",39.40693082999376,-79.00384633671375
"26753","Ridgeley","WV","Planet Fitness","1050 W Industrial Blvd","21502",39.63135864447832,-78.75046871719667
"26753","Ridgeley","WV","Miller's Ironhouse Gym","218 Williams St","21502",39.648311614990234,-78.75680541992188
"26753","Ridgeley","WV","WMHS Gym","not_available","21502",39.624473571777344,-78.73871612548828
"26757","Romney","WV","Underground Baggage","1 Aviation Cir","20001",39.43597479487257,-78.70356988933054
"26802","Brandywine","WV","Weaver's Gym & Tanning","Red Bud Hill Lane","not_available",38.718438,-79.142826
"26812","Mathias","WV","Creekside Fitness","2742 Fairway Dr.","22810",38.82632827758789,-78.76045227050781
"26836","Moorefield","WV","Hardy County Health & Wellness Center","409 County Route 55/3","26836",39.07001854292729,-78.96080457222737
