"zip","city","state","name","address","postalCode","lat","lon"
"19701","Bear","DE","LA Fitness","900 Eden Cir","19701",39.632371,-75.657995
"19701","Bear","DE","Bear Glasgow Family YMCA","351 George Williams Way","19702",39.60560908994035,-75.73231952341152
"19701","Bear","DE","Brandywine Woods Gym","Brandywine Drive","19701",39.635124,-75.64999
"19701","Bear","DE","home gym","not_available","19701",39.620330810546875,-75.70941162109375
"19701","Bear","DE","1614 Fitness & Aerobics","1877 Pulaski Hwy","19701",39.61094123622752,-75.70772537082365
"19701","Bear","DE","Delaware Rock Gym","520 Carson Dr","19701",39.6110088791191,-75.68916065539369
"19701","Bear","DE","Gym","not_available","19702",39.62154758347051,-75.67566444541444
"19701","Bear","DE","Cheer Force All Stars","101 Peoples Dr","19702",39.64619064331055,-75.72862243652344
"19701","Bear","DE","Astrazeneca newark Fitness Center","not_available","not_available",39.65325257193437,-75.70356021985968
"19701","Bear","DE","Hardbat Crossfit","61 McMillan Way","19713",39.64469878862719,-75.72898805429182
"19701","Bear","DE","Gym","808 N Gwynn Ct","19701",39.657098,-75.66171899999999
"19701","Bear","DE","Anytime Fitness","235 Governors Pl","19701",39.63469,-75.66177
"19701","Bear","DE","Red Lion Chase Fitness Center","Audubon Drive","19701",39.56224787425801,-75.67184121055318
"19701","Bear","DE","Jewels Bellydance Co.","4 Meadow Knoll Ct","19701",39.62234115600586,-75.65653991699219
"19701","Bear","DE","CrossFit Petram","18 Shea Way, Suite 110  .","19713",39.654598236083984,-75.72689056396484
"19701","Bear","DE","Crossfit Bear","2611 Del Laws Rd","19701",39.600455,-75.714928
"19701","Bear","DE","Legion Transformation Center Newark","250 Corporate Blvd, Units G & H","19702",39.615971,-75.752049
"19701","Bear","DE","Jaxx's Gym","101 Country Woods Dr","19701",39.612525233333336,-75.66398445
"19701","Bear","DE","Anytime Fitness","660 Plaza Dr","19702",39.62718,-75.74639
"19701","Bear","DE","Deery gym","not_available","19720",39.56644058227539,-75.66297149658203
"19702","Newark","DE","The Edge Fitness Clubs","2800 Fashion Center Blvd","19702",39.671158417945065,-75.64519564418032
"19702","Newark","DE","Christina Mill Apartments","100 Christina Mill Drive","19711",39.668867,-75.774425
"19702","Newark","DE","Orangetheory Fitness","3136 Fashion Center Blvd","19702",39.67074966430664,-75.6470718383789
"19702","Newark","DE","B-fit","35 Salem Church Rd","19713",39.67500769633628,-75.69792908876032
"19702","Newark","DE","Rittenhouse Cardio Center","not_available","19711",39.67752537134253,-75.76615417255078
"19702","Newark","DE","Orangetheory Fitness","230 E Main St","19711",39.684131097946555,-75.74318708257772
"19702","Newark","DE","Sallie Mae Gym","not_available","19713",39.68400580735458,-75.66078186035156
"19702","Newark","DE","Christiana Hospital Fitness Center","4755 Ogletown Stanton Rd","19718",39.6875,-75.669569
"19702","Newark","DE","SM Fitness Center","300 Continental Dr","19713",39.6843147277832,-75.66084289550781
"19702","Newark","DE","Anytime Fitness","247 S Main St","19711",39.67663,-75.76235
"19702","Newark","DE","Jazzercise","750 Otts Chapel Rd","19713",39.651912689208984,-75.78216552734375
"19702","Newark","DE","DoJo Rizzbanik","Lorewood Grove Rd","19709",39.539599233333334,-75.66881616666667
"19702","Newark","DE","Snap Fitness New Castle","1216 Bever Brook Plaza","19720",39.64107525548217,-75.62438518807282
"19702","Newark","DE","Carpenter Sports Building #UDel","26 N College Ave","19716",39.68423176678307,-75.75216337880937
"19703","Claymont","DE","Top Of The Hill Gym","not_available","19809",39.7957436326535,-75.48375606536865
"19703","Claymont","DE","Nolans Gym","109 Lexington Dr","19703",39.789773,-75.46866800000001
"19703","Claymont","DE","Fitness Center","7120 Society Dr","19703",39.8213005065918,-75.45897674560547
"19707","Hockessin","DE","Snap Fitness Hockessin","not_available","19707",39.785808589478336,-75.68524194394608
"19707","Hockessin","DE","Ashland Fitness Center","500 Hercules Rd","19808",39.75596618652344,-75.6373062133789
"19707","Hockessin","DE","Crossfit Reconstructed","7288 Lancaster Pike","19707",39.7871687,-75.69346872
"19707","Hockessin","DE","Anytime Fitness","702 Lantana Dr","19707",39.774606,-75.710628
"19707","Hockessin","DE","Police Athletic League Center Hockessin","7259 Lancaster Pike","19707",39.787079339646624,-75.68864554752221
"19709","Middletown","DE","The Village Gym","600 N Broad St. St. #1","19709",39.454828245461094,-75.71913445545695
"19709","Middletown","DE","middletown ymca","404 N Cass St","19709",39.452484999999996,-75.720138
"19709","Middletown","DE","Snap Fitness","98 Springfield Cir","19709",39.448271000000005,-75.673264
"19709","Middletown","DE","East Coast Nitros","112 Patriot Dr","19709",39.436204,-75.748864
"19709","Middletown","DE","Orangetheory Fitness","474 Middletown Warwick Rd","19709",39.452467999999996,-75.723558
"19709","Middletown","DE","Gym","not_available","19709",39.446029,-75.721832
"19709","Middletown","DE","Planet Fitness","703 N Broad St","19709",39.4586941,-75.7173868
"19709","Middletown","DE","Working Out Demcak Gym","not_available","19734",39.4442652937647,-75.68187343729112
"19709","Middletown","DE","Crossfit First State","120 Sleepy Hollow Dr","19709",39.452453243091895,-75.73204647586775
"19709","Middletown","DE","Anytime Fitness","404 South Ridge Ave","19709",39.44895935058594,-75.73278045654297
"19709","Middletown","DE","Legion Transformation Center Middletown","128 Patriot Drive, Suite 8 & 9","19709",39.434601,-75.75346
"19711","Newark","DE","Orangetheory Fitness","4754 Limestone Rd","19808",39.740590999999995,-75.69168499999999
"19711","Newark","DE","Little Gym","4758 Limestone Rd Ste A","19808",39.74062931476206,-75.69210668184199
"19711","Newark","DE","Delaware Swim And Fitness","4905 Mermaid Blvd","19808",39.737919136067696,-75.70315316031963
"19711","Newark","DE","Western Family YMCA Fitness Center","2600 Kirkwood Hwy","19808",39.705624657406005,-75.68549712340169
"19711","Newark","DE","Q's Kickboxing Class","208 Astro Shopping Center, Newark, DE 19711","19711",39.707035064697266,-75.68584442138672
"19711","Newark","DE","Gym@fairway park apts","Limerc circle","19808",39.720293,-75.701234
"19711","Newark","DE","Bank of America Fitness Center","655 Paper Mill Rd","19711",39.715553537149596,-75.74331022940879
"19711","Newark","DE","Reale","2610 Eastburn Center, S. Meadowood Drive","19711",39.706263,-75.682581
"19711","Newark","DE","Anytime Fitness","201 Louviers Dr","19711",39.71085,-75.74193
"19711","Newark","DE","Pros 2 Professionals","1908 Kirkwood Hwy","19711",39.700665,-75.698927
"19711","Newark","DE","Paradigm Fitness","101 John F Campbell Rd","19711",39.682509585612955,-75.7290031152555
"19711","Newark","DE","RealeSolutions, Inc.","2610 Eastburn Center, S. Meadowood Dr.","19711",39.70670700073242,-75.68345642089844
"19711","Newark","DE","Apartments At Pinebrook Fitness Center","1314 Wharton Dr","19711",39.694969177246094,-75.74899291992188
"19713","Newark","DE","Delaware Health & Wellness Center","550 Stanton Christiana Rd","19713",39.699917,-75.650356
"19720","New Castle","DE","The Training Center Gym","807 Churchmans Road Ext","19720",39.66478470297609,-75.61128110506006
"19720","New Castle","DE","Richey ES Gym","not_available","19804",39.71835048495268,-75.60840520440469
"19720","New Castle","DE","Fitness Center Sheraton Wilmington South","365 Airport Rd","19720",39.69488525390625,-75.61705780029297
"19720","New Castle","DE","Thunderstix","4060 N DuPont Hwy","19720",39.713618,-75.557677
"19720","New Castle","DE","Planet Fitness","148 Sunset Blvd","19720",39.671067,-75.595382
"19720","New Castle","DE","Legion Sports Performance - Wilmington","109 Rogers Rd Suite 1&2","19801",39.71780776977539,-75.5526123046875
"19720","New Castle","DE","The Gym","not_available","08070",39.64672727414677,-75.53376862894633
"19720","New Castle","DE","New Castle County Employees Fitness Center","57 Reads Way","19720",39.687277,-75.612954
"19720","New Castle","DE","Legion Transformation Center Wilmington","109 Rogers Road, Suites 1 & 2","19801",39.71780776977539,-75.5526123046875
"19801","Wilmington","DE","Central YMCA","501 W 11th St","19801",39.74902562457228,-75.55154899619603
"19801","Wilmington","DE","Gym @ Residences","902 N. Market st Residences @ Rodney Square","19801",39.744375719843475,-75.54781942786663
"19801","Wilmington","DE","Gym @ The Westin","818 Shipyard Dr Fl 2","19801",39.73064779363489,-75.56350936088398
"19801","Wilmington","DE","Walnut Street YMCA","1000 N Walnut St","19801",39.744712829589844,-75.54462432861328
"19801","Wilmington","DE","Sheraton Gym","422 Delaware Ave","19801",39.747318267822266,-75.55144500732422
"19801","Wilmington","DE","Courtyard Marriott Downtown Gym","1102 N West St","not_available",39.748027,-75.549654
"19801","Wilmington","DE","CrossFit CR10","1007 N Orange St","19801",39.74682353539803,-75.54863768114292
"19801","Wilmington","DE","The Residences At Rodney Square Gym","902 N Market St","19801",39.74504852294922,-75.54786682128906
"19801","Wilmington","DE","Energy Zone","802 Delaware Ave","19801",39.75024107384239,-75.55434851984147
"19801","Wilmington","DE","CSAA","1 River Pl","19801",39.7373046875,-75.55866241455078
"19801","Wilmington","DE","FitBody Personal Training","727 N Market St","19801",39.743431,-75.54961899999999
"19801","Wilmington","DE","Total Fitness","4401 Governor Printz Blvd","19802",39.75365779372193,-75.51330599945732
"19801","Wilmington","DE","2nd & LOMA Lofts Fitness Center","233 N Market St","19801",39.739715000000004,-75.552157
"19801","Wilmington","DE","Wilmington Turners","not_available","19805",39.740764,-75.573155
"19801","Wilmington","DE","River Tower Gym","not_available","19801",39.73508808089732,-75.55415087616392
"19801","Wilmington","DE","DuPont Fitness Center","not_available","19802",39.7473813925158,-75.54157571074677
"19802","Wilmington","DE","Core Fitness Studio","3701-3845 Miller Rd","19802",39.769048,-75.533582
"19802","Wilmington","DE","DVA Practice","Delaware ave","19802",39.764748,-75.552346
"19802","Wilmington","DE","Frontline CrossFit","1005 W 27th St","19802",39.764527,-75.54186899999999
"19802","Wilmington","DE","Backyard Iron","304-1 Blue Rock Rd","19809",39.762876,-75.504553
"19803","Wilmington","DE","Siegel Jewish Community Center","101 Garden of Eden Rd","19803",39.81004170953573,-75.55319743676772
"19803","Wilmington","DE","Orangetheory Fitness","4120 Concord Pike","19803",39.81051532024359,-75.55055363105687
"19803","Wilmington","DE","Brandywine YMCA Studio B","not_available","19803",39.806953,-75.551561
"19803","Wilmington","DE","FIT: A Personal Fitness Studio","62 Rockford Rd","19806",39.767974866536576,-75.56601131664289
"19803","Wilmington","DE","AstraZeneca Gym","1801 Concord Pike, FOC","19803",39.78704812596545,-75.55130939683741
"19803","Wilmington","DE","Fitness center at Doubletree Concord Pike","4727 Concord Pike","19803",39.819547,-75.546614
"19803","Wilmington","DE","Anytime Fitness","1812 Marsh Rd","19810",39.80546,-75.50575
"19803","Wilmington","DE","Curves Weight Loss Center","2001 Concord Pike","19803",39.788225333894424,-75.54551124572754
"19803","Wilmington","DE","Brandywine YMCA Movement Studio","3 Mount Lebanon Rd","19803",39.80705261230469,-75.55133056640625
"19803","Wilmington","DE","iLoveKickboxing - Wilmington, DE","4401 Concord Pike","19803",39.814699,-75.548321
"19803","Wilmington","DE","Concord High Wrestling Room","not_available","19810",39.82976375116051,-75.52585129653738
"19803","Wilmington","DE","Lizzie's ""gym""","Shipley Heights, Wilmington, DE 19803","19803",39.78567921007435,-75.52237853750304
"19803","Wilmington","DE","Fitness Gallery","1 Beaver Valley Rd","19803",39.83082580566406,-75.54534912109375
"19803","Wilmington","DE","Wellness Within By Ellyn","2426 Riddle Ave","19806",39.76524999999999,-75.558323
"19803","Wilmington","DE","Fitness Showrooms Superstore LLC","3300 Concord Pike","19803",39.801485,-75.548601
"19803","Wilmington","DE","Cc Apt Gym 2","2520 Berwyn Rd","19810",39.819908142089844,-75.52467346191406
"19803","Wilmington","DE","Healthy Weigh Fitness Center","1600 Rockland Rd","19803",39.77970960919386,-75.5547312442292
"19803","Wilmington","DE","Gym","My Personal Gymnasium","19803",39.80807874976531,-75.55875780308637
"19803","Wilmington","DE","Gymboree Play & Music","4723 Concord Pike","19803",39.818670506666976,-75.54621403758463
"19804","Wilmington","DE","The Basement Gym","not_available","19808",39.73882266007485,-75.6535928283203
"19804","Wilmington","DE","Five Points Fire Co Gym","209 S Maryland Ave","19804",39.726989,-75.589097
"19804","Wilmington","DE","Aikens Athletic Club","202 N Maryland Ave","19804",39.729488372802734,-75.5843276977539
"19804","Wilmington","DE","Xcelerate Fitness","1300 First State Blvd","19804",39.708161725194785,-75.63657523434483
"19805","Wilmington","DE","Curves Weight Loss Center","24B Trolley Square","19806",39.757748026545464,-75.56113243103027
"19805","Wilmington","DE","1912 the basement Gym","not_available","19806",39.76040267944336,-75.56068420410156
"19805","Wilmington","DE","The Stone Power House Training Systems","2518 W 4th St","19805",39.751609802246094,-75.57945251464844
"19805","Wilmington","DE","Elsmere Nutrition","15 Sanders Rd","19805",39.740313,-75.598799
"19805","Wilmington","DE","Balance Strength & Fitness Center","2801 Lancaster Ave","19805",39.75055694580078,-75.58311462402344
"19807","Wilmington","DE","PhysiCore Pilates & Personal Training Studios","3704 Kennett Pike","19807",39.773538,-75.59423100000001
"19808","Wilmington","DE","Hyde Park Fitness Center","205 Wordsworth Dr, Wilmington, DE 19808","19808",39.749061584472656,-75.65164947509766
"19808","Wilmington","DE","RealeSolutions, Inc.","2610 eastburn center, south Meadowood drive","19711",39.744645,-75.654496
"19809","Wilmington","DE","YMCA","Virginia Ave","08069",39.71921799202542,-75.46966457312404
"19809","Wilmington","DE","VAF Gym","Kynlyn Dr","not_available",39.764782,-75.490456
"19901","Dover","DE","Planet Fitness","1005 N State St","19901",39.178221,-75.529013
"19901","Dover","DE","Dover Downs Fitness Center","1131 N DuPont Hwy","19901",39.18813555914623,-75.53313176220719
"19901","Dover","DE","Lifestyles Fitness Center","not_available","19901",39.1417421856915,-75.521826923301
"19901","Dover","DE","Club Fitness","1700 S. Governers Ave.","19934",39.12622107614405,-75.5326767567971
"19901","Dover","DE","Sunlighten Saunas Dover","32 W Loockerman St","19904",39.157344818115234,-75.52545166015625
"19901","Dover","DE","CrossFit Sweat Angel","not_available","19934",39.10634475188903,-75.56158338973843
"19901","Dover","DE","Forever Fit Foundation","1510 E Lebanon Rd Bldg F2","19901",39.1197395324707,-75.50142669677734
"19901","Dover","DE","Crossfit Dover","155 Commerce Way","19904",39.1094105967575,-75.56327394026215
"19901","Dover","DE","The Jungle Gym","1695 S State St","19901",39.128631591796875,-75.5162353515625
"19901","Dover","DE","Lifetime Wellness","1012 College Rd","19904",39.17539978027344,-75.55381774902344
"19901","Dover","DE","YMCA","1137 S State St","19901",39.14481105822439,-75.52201996657725
"19901","Dover","DE","Gym Starz","155 Commerce Way Ste D","19904",39.1540748,-75.55057599999999
"19901","Dover","DE","Snap Fitness","1030 Forrest Ave","19904",39.15674554830113,-75.54394523414116
"19901","Dover","DE","YMCA resource center","120 N State St","19901",39.163230895996094,-75.52774047851562
"19901","Dover","DE","Orangetheory Fitness","50 N DuPont Hwy","19901",39.16400146484375,-75.51704406738281
"19901","Dover","DE","Club Fitness","650 S Bay Rd","19901",39.151345978875746,-75.50723178322286
"19901","Dover","DE","First State Health And Fitness","15 Maggies Way","19901",39.155851,-75.486207
"19901","Dover","DE","Punch Gym","22 Maggies Way","not_available",39.15580829564983,-75.4859574890499
"19904","Dover","DE","Insanity Workout","not_available","19962",39.05876541137695,-75.5343017578125
"19933","Bridgeville","DE","The Dog Pound Boxing","not_available","19933",38.74517454149885,-75.61214485016455
"19934","Camden Wyoming","DE","Boot Camp Dougie's Style","not_available","19943",39.04584863137808,-75.55731940524687
"19938","Clayton","DE","Results Personal Training & Fitness","1000 Smyrna Clayton Blvd","19977",39.294352,-75.623903
"19939","Dagsboro","DE","Bethany Bay Fitness Center","Clubhouse Ln.","19970",38.570600074051875,-75.10132842616395
"19939","Dagsboro","DE","World Gym Group X Studio","401 U.S. 113","19966",38.5907151901995,-75.30300638994572
"19939","Dagsboro","DE","Zumba","not_available","19967",38.548757,-75.124817
"19939","Dagsboro","DE","Bay Forest Fitness Center","36115 Bay Forest Dr","19970",38.566715,-75.116375
"19939","Dagsboro","DE","World Gym Millsboro","28632 Dupont Blvd Unit 14","19966",38.57644301917513,-75.28865567127333
"19940","Delmar","DE","Anytime Fitness","38627 Benro Dr","19940",38.45725,-75.55604
"19941","Ellendale","DE","Jim's Gym","12461 DuPont Blvd","19941",38.81125259399414,-75.43777465820312
"19945","Frankford","DE","Sun Ridge Recreation Center","Boxwood Terrace","19975",38.46066535,-75.1168325
"19945","Frankford","DE","RACC Fitness","35025 Pyle Center Rd","19945",38.498382,-75.171511
"19945","Frankford","DE","Energy Gym","36666 Bluewater Run W","19975",38.47122150538401,-75.11326651538782
"19947","Georgetown","DE","Hammond's Gym","not_available","19947",38.69608002291337,-75.39412188145774
"19947","Georgetown","DE","Sweet Briar Work Out Room","not_available","19958",38.74992611595021,-75.22619603849564
"19947","Georgetown","DE","Sussex Central Weight Room","26026 Patriots Way","19947",38.6309749871397,-75.32596022994078
"19947","Georgetown","DE","302 Fitness Headquarters","16892 Ole Grist Run","19968",38.75561176521655,-75.22684982338738
"19951","Harbeson","DE","Ali's gym","Lewes, DE","19958",38.6964528652004,-75.17788940821309
"19956","Laurel","DE","The End Result Gym","not_available","19973",38.59989381720952,-75.59066616582126
"19958","Lewes","DE","Sussex Family YMCA","20080 Church St","19971",38.712196136570654,-75.09871314913646
"19958","Lewes","DE","Boardwalk Plaza Hotel","Olive Ave","19971",38.7185572021147,-75.07654452264002
"19958","Lewes","DE","Every1 Fitness","18908 Rehoboth Mall Blvd","19971",38.72811098771053,-75.13332169487786
"19958","Lewes","DE","Body Shop","S 1st St.","19971",38.71582364134365,-75.07872413180188
"19958","Lewes","DE","Anytime Fitness","17400 N Village Main Blvd","19958",38.7541,-75.17141
"19958","Lewes","DE","Canal Pointe | Clubhouse & Pool","at Manchester Dr.","19971",38.721823555494524,-75.09866112999161
"19958","Lewes","DE","Dagesse Gym","not_available","19971",38.755586,-75.12274
"19958","Lewes","DE","Quest Fitness Lewes DE","17252 N Village Main Blvd","19958",38.752235492538695,-75.16819818773106
"19958","Lewes","DE","Crossfit Rehoboth","37395 Oyster House Rd","19971",38.7112044953557,-75.09817990343188
"19958","Lewes","DE","The Firm Fitness Center","19897 Rte 1","19971",38.71301828753228,-75.10129551759059
"19958","Lewes","DE","Nassau Grove Club house","Janice rd","not_available",38.75169639699667,-75.19574459000879
"19963","Milford","DE","Planet Fitness","696 N Dupont Blvd, A","19963",38.91868867,-75.43847883
"19963","Milford","DE","Extreme Total Fitness","239 NE Front St","19963",38.915843207987024,-75.42457138290003
"19966","Millsboro","DE","Athletic Club Lakeside Village Center","not_available","19966",38.613057545042516,-75.17636065325009
"19966","Millsboro","DE","Mariners' Cove Gym","Pine Drive","not_available",38.62447500228882,-75.1327782869339
"19968","Milton","DE","Kal El Crossfit","not_available","19968",38.789905,-75.315409
"19968","Milton","DE","302 Fitness","113 Union St","19968",38.77853468620851,-75.31081402288785
"19973","Seaford","DE","Crossfit seaford","620 W Stein Hwy","19973",38.646541595458984,-75.62642669677734
"19973","Seaford","DE","Planet Fitness","800 Norman Eskridge Hwy","19973",38.6505858,-75.6038044
"19977","Smyrna","DE","Snap Fitness","Carter Rd","19977",39.28069573473515,-75.60235763195213
"19977","Smyrna","DE","Anytime Fitness","599 Jimmy Dr Stes 17,18,19-20","19977",39.28186,-75.59659
"19977","Smyrna","DE","Fat Boys Gym","not_available","19977",39.278412,-75.607948
