"zip","city","state","name","address","postalCode","lat","lon"
"20601","Waldorf","MD","LA Fitness","2916 Festival Way","20601",38.62942498870189,-76.91074737481473
"20601","Waldorf","MD","Planet Fitness","3245 Plaza Way","20603",38.624171,-76.915945
"20601","Waldorf","MD","Waldorf Fitness Center","3317 Plaza Way","20603",38.62164674123665,-76.91780154752398
"20601","Waldorf","MD","iLoveKickboxing - Waldorf","11483 Berry Rd","20603",38.6307416,-76.9198358
"20601","Waldorf","MD","Art Of Strength","not_available","not_available",38.625641,-76.917068
"20601","Waldorf","MD","Snap Fitness 24-7","173 Saint Patricks Dr","20603",38.620765686035156,-76.93109130859375
"20601","Waldorf","MD","Forever Nutrition","Technology Dr","20601",38.63081255112318,-76.91842077348525
"20601","Waldorf","MD","Southern Maryland CrossFit","60","20602",38.61349076689089,-76.91456291866893
"20601","Waldorf","MD","301 Strong","4540 Graphics Dr","20695",38.586694,-76.934072
"20601","Waldorf","MD","Fitness Unleashed Private Fitness Studio","15638 Livingston Rd Ste 2","20607",38.669473445838484,-76.9966416401709
"20601","Waldorf","MD","Curves","4453 Crain Hwy","20695",38.59064974796747,-76.94287369913769
"20601","Waldorf","MD","Kinetic Fitness Solutions","4417 Southern Business Park Drive","20695",38.590162,-76.948104
"20601","Waldorf","MD","My Gym - for kids","1090 Smallwood Dr W","20603",38.611224,-76.930006
"20601","Waldorf","MD","Svetness Fitness","12110 Ell Ln","20602",38.6150737,-76.8924097
"20601","Waldorf","MD","Thunderdome Gym","not_available","20602",38.607902,-76.907159
"20601","Waldorf","MD","Jazzercise","Irongate drive","20602",38.613336,-76.909444
"20601","Waldorf","MD","La plata Fitness for Women","not_available","20646",38.5776655154966,-76.90499153270298
"20601","Waldorf","MD","World Gym","3033 Waldorf Market Pl","20603",38.62576943871556,-76.91699433154803
"20601","Waldorf","MD","elliptical","van buren rd","20602",38.59976744457708,-76.916184425354
"20601","Waldorf","MD","Courtyard Gym","not_available","20603",38.625183,-76.914026
"20601","Waldorf","MD","CrossFit Route 5","1504 Jillian Ct","20607",38.674787,-76.981024
"20603","Waldorf","MD","Fit Fast Gym","Bishopsgate Lane","20695",38.60908561666667,-77.01110491666667
"20603","Waldorf","MD","Sweat Factory","not_available","20695",38.60489,-77.011731
"20607","Accokeek","MD","Preserves Community Fitness Center","not_available","20607",38.699120792524745,-76.95988496473238
"20613","Brandywine","MD","biggest loser gym","not_available","20735",38.73172761643695,-76.89988914942359
"20613","Brandywine","MD","Middleridge Gym","not_available","20613",38.71385955810547,-76.8497543334961
"20619","California","MD","Planet Fitness","23415 Three Notch Rd","20619",38.3099,-76.53444
"20619","California","MD","Lineage BJJ","44727 Saint Andrews Church Rd Ste 102","20619",38.29490083905569,-76.52878363624572
"20619","California","MD","CWR Fitness","26 5th Street","20688",38.341235,-76.468706
"20619","California","MD","California Fitness And Spa","45325 Alton Ln, California, MD 20619","20619",38.29736132250749,-76.5081388089171
"20619","California","MD","Fitness center with yoga","45086 Voyage Path","20619",38.299049377441406,-76.52146911621094
"20619","California","MD","park villas gym","Mayfaire Lane","not_available",38.251632,-76.481475
"20619","California","MD","Row House","44940 Saint Andrews Church Rd Ste G-H","20619",38.302941,-76.522973
"20619","California","MD","Maximum Health and Fitness","22599 MacArthur Blvd","20619",38.28878813314606,-76.48605554896602
"20619","California","MD","The Running Nation","not_available","20688",38.341403,-76.468318
"20622","Charlotte Hall","MD","World Gym of Mechanicsville","29020 Three Notch Rd","20659",38.466070112294986,-76.76917629089104
"20622","Charlotte Hall","MD","Jazzercise","30170 Three Notch Road","20622",38.49720574444717,-76.77446028296711
"20634","Great Mills","MD","World Gym","St Marys Square","20653",38.25919847600311,-76.46571401323067
"20634","Great Mills","MD","World Gym","21660 Great Mills Rd Ste 23","20653",38.26156234741211,-76.46040344238281
"20636","Hollywood","MD","World Gym","40845 Merchants Ln Unit 200","20650",38.30758686330534,-76.66374084916254
"20636","Hollywood","MD","P90X","Joy Lane","20636",38.36295958693383,-76.5835690498352
"20636","Hollywood","MD","Crossfit Lak√°s","43925 Commerce Ave Ste 1","20636",38.29522957513565,-76.62614412272002
"20639","Huntingtown","MD","Curves","25 Dalrymple Rd #201","20689",38.667089000000004,-76.600678
"20639","Huntingtown","MD","Calvert MMA Academy - Lineage BJJ / Gracie Jiu-Jitsu","25 Dalrymple Rd (Suites 103 & 104)","20689",38.667089000000004,-76.600678
"20640","Indian Head","MD","Indianhead Naval Base Gym","4355 Security Dr Bldg 1660","20640",38.594447291623666,-77.17744475321209
"20640","Indian Head","MD","Potomac Pointe Fitness Center","not_available","22191",38.61088701613302,-77.25717064616848
"20640","Indian Head","MD","Occoquan Bay Performance","1235 Featherstone Rd","22191",38.630023,-77.254543
"20646","La Plata","MD","World Gym","6685 Crain Hwy","20646",38.529916834743915,-76.98392821494829
"20650","Leonardtown","MD","werrunners fitness academy","not_available","20650",38.331586971729536,-76.68461244441768
"20653","Lexington Park","MD","Drill Hall","47424 Keane Rd","20670",38.274676314525,-76.43639087677002
"20653","Lexington Park","MD","Spyglass Fitness Centre","Spyglass Way","20653",38.261226,-76.402558
"20653","Lexington Park","MD","NAS Patuxent River - Family Friendly Fitness Center","Cedar Point Road","20653",38.26669126278577,-76.43678265405765
"20653","Lexington Park","MD","nas pax fitness center","nas patuxent river","20670",38.274047049594124,-76.41188856495513
"20653","Lexington Park","MD","103 Fitness Room","not_available","20670",38.28935,-76.42324
"20657","Lusby","MD","World Gym","236 Town Square Dr","20657",38.37481701692463,-76.43335892933705
"20657","Lusby","MD","Diane's Gym","Commanche Rd","20657",38.37450051398958,-76.41343116760254
"20676","Port Republic","MD","Calvert CrossFit","2192 Solomons Island Rd S","20678",38.50904083251953,-76.5602035522461
"20678","Prince Frederick","MD","RESULTS Health & Fitness Club - Prince Frederick","230 W Dares Beach Rd Ste 102","20678",38.54501889877696,-76.59282498919646
"20701","Annapolis Junction","MD","NBP Fitness","114 National Business Pkwy","20701",39.122717,-76.778504
"20701","Annapolis Junction","MD","Kicked Up Fitness NBP","114 National Business Pkwy Ste 100","20701",39.122753,-76.77851
"20701","Annapolis Junction","MD","Terrapin Crossfit","10840 Guilford Rd Suite 403","20701",39.13109447976957,-76.79599517629373
"20705","Beltsville","MD","Wellness For Life","13800 Old Gunpowder Rd","20707",39.07891655683088,-76.92146117399646
"20705","Beltsville","MD","Fairland Sports Complex","13950 Old Gunpowder Rd","20707",39.08126886410724,-76.92012043018336
"20705","Beltsville","MD","Seven Springs Gym","Cherry Hill Rd","20740",39.01677093711353,-76.93880970636559
"20705","Beltsville","MD","Wynfield Park Fitness Center","10209 Baltimore Ave","20740",39.021143,-76.92477
"20705","Beltsville","MD","Laurel Raquet And Fitness Club","not_available","20705",39.04694762024922,-76.91618642075841
"20705","Beltsville","MD","World GYM","not_available","20708",39.083066333333335,-76.85164491666667
"20705","Beltsville","MD","Fairfield Inn Fitness Center","13700 Baltimore Ave","20707",39.078670501708984,-76.86714935302734
"20705","Beltsville","MD","Aventine Fitness Center","not_available","20904",39.079351,-76.93289
"20705","Beltsville","MD","Golding's Gym","12051 Indian Creek Ct","20705",39.05599495172554,-76.89576888888483
"20705","Beltsville","MD","Soldierfit - Silver Spring","12210 Plum Orchard Dr","20904",39.057430267333984,-76.95796203613281
"20705","Beltsville","MD","Body By Lo","4600 Powder Mill Rd","20705",39.046334,-76.914131
"20706","Lanham","MD","LA Fitness","7415 Greenbelt Rd","20770",38.993122516472994,-76.88012382281465
"20706","Lanham","MD","Retro Fitness","8827 Annapolis Rd","20706",38.9590929,-76.8641795
"20706","Lanham","MD","Sugar Ray Leonard Community Center","7707 Barlowe Rd","20785",38.9185905456543,-76.8720932006836
"20706","Lanham","MD","LiveNow Bootcamp","8400 Ardwick Ardmore Rd","20785",38.94235610961914,-76.86280822753906
"20706","Lanham","MD","Tyson Training","4501 Forbes Blvd, Suite A","20706",38.95158496405859,-76.83163862565613
"20706","Lanham","MD","WOWY","not_available","20770",38.986836714661976,-76.85899119144598
"20706","Lanham","MD","Neighborhood Gym","6914 Hanover Pkwy","20770",38.98350143432617,-76.87492370605469
"20706","Lanham","MD","Gigante Vacante Gym","not_available","20784",38.969076,-76.888032
"20706","Lanham","MD","Fitness Center @ The Hanover","7100 Hanover Pkwy, Greenbelt, MD 20770","20770",38.98523712158203,-76.87791442871094
"20706","Lanham","MD","NCFB Fitness Center","5000 Ellin Rd","20706",38.948997497558594,-76.87323760986328
"20706","Lanham","MD","Greenbelt Sportsplex","not_available","20706",38.99539486216156,-76.83239251779236
"20706","Lanham","MD","Jazzercise Lanham","8813 Annapolis Rd","20706",38.958805,-76.864186
"20706","Lanham","MD","Gold's Gym","4504 Morning Glory Trail","20720",38.95079803466797,-76.8228530883789
"20706","Lanham","MD","Curves- Glenn Dale","10621 Greenbelt Rd","20706",38.98798380994134,-76.82185800170836
"20706","Lanham","MD","Woodland Landing Apts. - Gym","10023 Greenbelt Rd","20706",38.98994064331055,-76.83087158203125
"20706","Lanham","MD","CDI Fitness & Personal Training Facility","4230 Forbes Blvd Ste A","20706",38.94802474975586,-76.82841491699219
"20707","Laurel","MD","Planet Fitness - Temporarily Closed","9644 Fort Meade Rd","20707",39.0967253,-76.838782
"20707","Laurel","MD","LA Fitness","327 Montrose Ave","20707",39.096205752802106,-76.85385712406887
"20707","Laurel","MD","Sport Fit","204 Fort Meade Rd","20707",39.093603843392785,-76.84112404810152
"20707","Laurel","MD","Cloud 10 Transformation","14300 Cherry Lane Ct Ste 101","20707",39.087566,-76.856376
"20707","Laurel","MD","The Season's Gym","9501-9599 Sylvan Still Rd","20723",39.1204066260301,-76.84408686580181
"20707","Laurel","MD","XelleFit Sweat Zone","not_available","20707",39.0921386298791,-76.86720619279504
"20707","Laurel","MD","Power Fit LLC","9865 Washington Blvd N Unit E","20723",39.115,-76.831512
"20707","Laurel","MD","Fitness 4 Less Gym (Laurel)","12647 Laurel Bowie Rd","20708",39.063337646155965,-76.84051141783053
"20707","Laurel","MD","North Laurel Weightroom","9411 Whiskey Bottom Rd","20723",39.116878509521484,-76.83806610107422
"20707","Laurel","MD","Alpha & Omega Martial Arts","129 Bowie Rd","20707",39.096956,-76.848122
"20707","Laurel","MD","Laurel Crossfit","701 Montgomery St","20707",39.107208,-76.855479
"20707","Laurel","MD","Sport Fit Laurel Swim","314 Marshall Ave","20707",39.09801414723862,-76.85337073415619
"20710","Bladensburg","MD","Bladensburg Community Center","4500 57th Ave","20710",38.94690144433787,-76.91664198334436
"20715","Bowie","MD","Gold's Gym","1625 Crofton Ctr","21114",39.01812481232923,-76.69520580711563
"20715","Bowie","MD","Future Of Fitness","1612 Professional Blvd Ste E","21114",39.01909122489061,-76.70147719094558
"20715","Bowie","MD","Sport Fit","100 White Marsh Park Dr","20715",38.97711088535486,-76.71898676297072
"20715","Bowie","MD","Athletic Republic","4891 Tesla Drive","not_available",38.95658874511719,-76.71047973632812
"20715","Bowie","MD","Fitness 4 Less","6824 Laurel Bowie Rd","20715",38.977214694123745,-76.75333380874964
"20715","Bowie","MD","Sport Fit Bowie Basketball Court","100 White Marsh Park Dr, Bowie, MD 20715","20715",38.977104896722814,-76.7189247350039
"20715","Bowie","MD","Temple Boxing","2129 Baldwin Ave Ste 122","21114",38.99039840698242,-76.6967544555664
"20715","Bowie","MD","CFI Fitness","2140 Priest Bridge Ct Ste 10","21114",38.988548278808594,-76.69403839111328
"20715","Bowie","MD","Finally Fit Boot Camp","6950 Laurel Bowie Rd","20715",38.984821000000004,-76.758776
"20715","Bowie","MD","Bowie Community Center","not_available","20715",38.977629873114836,-76.73619758519344
"20716","Bowie","MD","LA Fitness","15401 Emerald Way","20716",38.94397822556971,-76.73663602647889
"20716","Bowie","MD","South Bowie Community Center","1717 Pittsfield Ln","20716",38.914066,-76.719761
"20716","Bowie","MD","Professional sports care and rehab","4367 Northview Dr","20716",38.94997024536133,-76.73473358154297
"20716","Bowie","MD","Bowie City Cymnasium","4100 Northview Dr","20716",38.944904,-76.74078
"20716","Bowie","MD","Fitness Center","not_available","20716",38.94914298260727,-76.71631049658986
"20720","Bowie","MD","Gold's Gym","12510 Fairwood Pkwy","20720",38.96413230779003,-76.78760855210803
"20720","Bowie","MD","Glenn Dale Community Center & Splash Park","11901 Glenn Dale Blvd","20769",38.97403397473719,-76.80071042233025
"20721","Bowie","MD","LA Fitness","50 Watkins Park Dr","20774",38.899373447815,-76.79025621743557
"20721","Bowie","MD","Cloud 10 Transformations","9475 Lottsford Rd #140","20774",38.908713,-76.840144
"20721","Bowie","MD","New Living Fit","not_available","20721",38.94055978338504,-76.80750975204178
"20723","Laurel","MD","Life Time Athletic","7220 Lee Deforest Dr","21046",39.17431,-76.81949
"20723","Laurel","MD","Supreme Sports Club","7080 Deepage Dr","21045",39.17612278646242,-76.83904143632101
"20723","Laurel","MD","Maple Lawn Gym","not_available","20759",39.15844929922266,-76.90502975636423
"20723","Laurel","MD","Skyzone Columbia","7175 Oakland Mills Rd","21046",39.17549133300781,-76.82888793945312
"20723","Laurel","MD","Apt Gym","not_available","21046",39.173901320869405,-76.8576566948623
"20723","Laurel","MD","Pure Barre","8175 Westside Blvd Ste B","20759",39.14883349980982,-76.90828286441803
"20723","Laurel","MD","Dominion Eden Brook Fitness Center","7332 Eden Brook Dr","21046",39.169156,-76.86939100000001
"20723","Laurel","MD","Chiseled Life Gym","9309 Snowden River Pkwy, Suite A","21046",39.1771444267683,-76.8320470578569
"20723","Laurel","MD","Columbia BJJ","9520 Gerwig Ln","21046",39.1718635559082,-76.83955383300781
"20723","Laurel","MD","Inside Out Performance","9305 Gerwig Ln Ste Q","21046",39.168797999999995,-76.83936899999999
"20723","Laurel","MD","No Excuses Fitness, LLC","9570 Berger Rd","21046",39.173091888427734,-76.84432220458984
"20723","Laurel","MD","Harriday's Karate and Fitness","8681 D Robert Fulton Drive","21046",39.17566559999999,-76.8152809
"20723","Laurel","MD","Treadmill","Savage Guilford Rd","20794",39.14476847650307,-76.8263373450745
"20723","Laurel","MD","VZW WBV HQ Gym","7600 Montpelier Rd","20723",39.161452637414044,-76.89007035803732
"20723","Laurel","MD","NinjaBE","9301 Snowden River Pkwy","21046",39.174877,-76.832819
"20723","Laurel","MD","Savage Mill Crossfit","9445 Washington Blvd N Ste E","20723",39.124351501464844,-76.82347869873047
"20723","Laurel","MD","CrossFit Critical Mass","11830 West Market Place, Suite L","20759",39.151641845703125,-76.90997314453125
"20723","Laurel","MD","CoreWorks Fitness Studio","8161 Maple Lawn Blvd","20759",39.14880354511441,-76.9045723665837
"20723","Laurel","MD","Performance Private Training","9365 Gerwig Ln","21046",39.16978621016787,-76.83798198115453
"20723","Laurel","MD","Gym at Huntington","9755 Clocktower Lane","21046",39.163661216319355,-76.84865268984267
"20724","Laurel","MD","Russet Gym","8500 Summit View Rd","20724",39.103135,-76.800274
"20724","Laurel","MD","The Seasons gym","Old Lantern Way","20723",39.105934,-76.801412
"20724","Laurel","MD","Fitness Evolution","3541 Fort Meade Rd,","20724",39.09973,-76.82293
"20724","Laurel","MD","Gold's Gym","3541 Laurel Fort Meade Rd","20724",39.09926488912137,-76.82245196344581
"20735","Clinton","MD","Planet Fitness - Temporarily Closed","7610 Old Branch Ave","20735",38.7848656,-76.8975062
"20735","Clinton","MD","Fitness 4 Less","8821 Woodyard Rd","20735",38.77148697491742,-76.88448627722076
"20735","Clinton","MD","The Little Gym In Clinton","8887 Woodyard Rd","20735",38.76921081542969,-76.88337707519531
"20735","Clinton","MD","Cardio Center","not_available","20744",38.75993949514325,-76.97458137147217
"20735","Clinton","MD","Anytime Fitness","9130 Piscataway Rd","20735",38.76446,-76.90141
"20735","Clinton","MD","Housing Gym","not_available","20762",38.800532218844616,-76.89413337482118
"20735","Clinton","MD","Cheer Connection","7456 Old Alexandria Ferry Rd","20735",38.78204,-76.876092
"20735","Clinton","MD","bellytox","6196 Oxon Hill Rd, Suite 210  Oxon Hill, MD 20745","20745",38.803348541259766,-76.98265075683594
"20735","Clinton","MD","The Maxx Fitness Club","Branch Ave.","not_available",38.74865808237513,-76.883201073718
"20735","Clinton","MD","box w/o b","5609 Chris Mar Ave","20735",38.770468,-76.91
"20735","Clinton","MD","Dream Team Boxing Gym","5824 Kirby Rd","20735",38.785433000000005,-76.905328
"20736","Owings","MD","Poston's Fitness For Life","10735 Town Center Blvd Ste 3","20754",38.722964000000005,-76.655365
"20736","Owings","MD","RESULTS Health & Fitness Club - Owings","1990 E Chaneyville Rd","20736",38.69074303569511,-76.63817277841206
"20737","Riverdale","MD","Gold's Gym","4595 Woodberry St","20737",38.9703297,-76.93629829999999
"20737","Riverdale","MD","The Maranatha Weir Group","5711 Sarvis Ave Ste 502","20737",38.96956,-76.91436
"20737","Riverdale","MD","Body Natural Fitness Center","306 County Road","not_available",38.980533,-76.931063
"20737","Riverdale","MD","My Body Shop","6001 66th Ave","20737",38.960618,-76.902971
"20740","College Park","MD","Planet Fitness - Temporarily Closed","6100 Greenbelt Rd, Unit 201","20770",38.99986911221503,-76.91030611944414
"20740","College Park","MD","University View","8204 Baltimore Ave","20740",38.99276050377626,-76.93444316237468
"20740","College Park","MD","Orangetheory Fitness","8321 Baltimore Ave","20740",38.992958068847656,-76.93207550048828
"20740","College Park","MD","College Park Community Center","5051 Pierce Ave","20740",38.987200151699035,-76.92712278933112
"20740","College Park","MD","Insanity Workout!","not_available","20740",38.99932098388672,-76.94764709472656
"20740","College Park","MD","Ritchie Coliseum","University of Maryland","20742",38.985092162530414,-76.93664474338348
"20740","College Park","MD","Parkside Rec Room","8125 48th Ave","20740",38.99003,-76.931283
"20740","College Park","MD","University Club Gym","4800 Berwyn House Rd","20740",38.9911994934082,-76.929931640625
"20740","College Park","MD","National Archives Employee Gym","8601 Adelphi Rd","20740",39.001098999999996,-76.959409
"20740","College Park","MD","Eppley Recreation Center Gym","1115 Eppley Recreation Center","20740",38.99348917051481,-76.94499050326961
"20740","College Park","MD","Marriott Inn & Conference Center - Fitness Room","3501 University Blvd E","20783",38.98614580153471,-76.95496237736721
"20740","College Park","MD","Gold's Gym","6000 Greenbelt Rd","20770",38.999613634869945,-76.90944331738288
"20740","College Park","MD","LVL 10 Lifestyle & Fitness University","9324 Cherry Hill Rd","20740",39.014755,-76.93840300000001
"20740","College Park","MD","Berwyn Heights Iron Works","8811 60th Ave","20740",38.99576950073242,-76.91129302978516
"20743","Capitol Heights","MD","Gold's Gym","1723 Ritchie Station Ct","20743",38.8680283834062,-76.85390651346407
"20743","Capitol Heights","MD","Da GYM","not_available","20785",38.89461509518821,-76.86731317001933
"20743","Capitol Heights","MD","Home Gym","not_available","20746",38.858541,-76.936948
"20743","Capitol Heights","MD","Complex Fitness","not_available","20747",38.861251934174845,-76.89333966163007
"20743","Capitol Heights","MD","The Sweatbox","not_available","20743",38.8885,-76.86162
"20743","Capitol Heights","MD","Perfect 4rm Fitness","Brightseat Road","not_available",38.90074731783196,-76.85254380678366
"20743","Capitol Heights","MD","Enigma Gym","9100 Edgeworth Dr","20743",38.88188552856445,-76.84881591796875
"20743","Capitol Heights","MD","Cedar Heights Rec Center","Sheriff Road","not_available",38.90716858254143,-76.90297082837169
"20743","Capitol Heights","MD","12 Rounds Boxing Gym","8741 Ashwood Dr Ste Q","20743",38.883872985839844,-76.85458374023438
"20743","Capitol Heights","MD","F.I.T. Center","8709 Darcy Rd","20747",38.85773849487305,-76.85430908203125
"20743","Capitol Heights","MD","Fitness 4 Less","9195 Central Ave","20743",38.88944517643781,-76.84770164451037
"20743","Capitol Heights","MD","Torch Gym","541 Ritchie Rd","20743",38.88125228881836,-76.86033630371094
"20744","Fort Washington","MD","Planet Fitness","12746 Old Fort Rd","20744",38.712455928377835,-76.98840904524235
"20744","Fort Washington","MD","Aloft re:Charge Fitness Center","not_available","20745",38.78400949167871,-77.01612952805763
"20744","Fort Washington","MD","Andrews Air Force Base West Gym","not_available","20748",38.80848622844088,-76.92602402166541
"20744","Fort Washington","MD","Gaylord STARS gym","201 Waterfront St","20745",38.7813537477949,-77.01624155044556
"20744","Fort Washington","MD","Decaloweightloss","6196 Oxon Hill Rd, Suite 210","20745",38.80264423451995,-76.98992586148961
"20744","Fort Washington","MD","Jackson House","Glen Lane","20744",38.76697,-77.00202
"20744","Fort Washington","MD","Westin Workout","171 Waterfront St","20745",38.78403091430664,-77.01705169677734
"20745","Oxon Hill","MD","Planet Fitness","5001 Indian Head Hwy","20745",38.81953641304899,-77.00217595718594
"20745","Oxon Hill","MD","Naval Research Lab Fitness Center","4555 Overlook Ave SW","20375",38.82184874147297,-77.02050455893352
"20745","Oxon Hill","MD","Mary Virginia Merrick Center","4275 4th St SE","20032",38.824043411290816,-76.99997453699903
"20746","Suitland","MD","Planet Fitness","5644 Silver Hill Rd","20747",38.852691650390625,-76.91278076171875
"20746","Suitland","MD","Andrews West Fitness Center","1444 Concord Avenue","20762",38.80820189729314,-76.88674259490384
"20746","Suitland","MD","Fit Club @ Grand Hyatt Hotel","not_available","20001",38.82842923177459,-76.87671554295864
"20746","Suitland","MD","Elite Zone","8169 Penn Randall Pl","20772",38.835568,-76.868436
"20746","Suitland","MD","Census Bureau Gym (C. W. E. T.)","4700 Silver Hill Rd.","20746",38.84754590011663,-76.93106633040762
"20746","Suitland","MD","C.W.E.T. Shop","4600 Silver Hill Rd","20746",38.84765992636625,-76.93072868228495
"20747","District Heights","MD","Gym @ Wesphalia Community Center","8900 Westphalia Rd","20774",38.84402847290039,-76.85320281982422
"20747","District Heights","MD","Marlboro Competitive Cheer (MCC)","not_available","20772",38.83510646256351,-76.86557538068166
"20747","District Heights","MD","Cheer Spot","8043 Penn Randall Pl Ste C","20772",38.835304260253906,-76.86536407470703
"20747","District Heights","MD","Fab Body Factory","8027 Penn Randall Pl Ste C","20772",38.835154968136685,-76.86539349745257
"20748","Temple Hills","MD","Hillcrest Heights Boxing Club","4108 23rd Pkwy","20748",38.83449935913086,-76.95995330810547
"20748","Temple Hills","MD","Marlborough House Fitness Center","3001 Branch Ave","20748",38.852900881997144,-76.96008370619391
"20748","Temple Hills","MD","Spartan Gym","2455 Alabama Ave","20020",38.853956618552,-76.96934958391283
"20755","Fort George G Meade","MD","Transformations Fitness for Women","2288 Blue Water Blvd","21113",39.10105278755409,-76.71723923437358
"20755","Fort George G Meade","MD","Planet Fitness","2659 Annapolis Road, Unit B","21076",39.1314622,-76.74251799999999
"20755","Fort George G Meade","MD","Eagle Fitness Center","9831-9899 Emory Rd","20755",39.10486848258628,-76.7647576335153
"20755","Fort George G Meade","MD","Gaffney Fitness Center","Broad Foot Rd","20755",39.09406445702581,-76.74460887908936
"20755","Fort George G Meade","MD","Hertiage Park Community Center Gym","Ninninger Ave","20755",39.101364565546554,-76.73198656734311
"20755","Fort George G Meade","MD","Heritage Park Community Center","2699 Nininger Ave","20755",39.10090519444436,-76.73243660333266
"20755","Fort George G Meade","MD","Murphy Field House","6401 Zimborski Ave","20755",39.094210105731015,-76.74960637144122
"20759","Fulton","MD","Specht's Gym","not_available","21029",39.18475,-76.931246
"20759","Fulton","MD","ForeverStrong¬Æ Fitness","11845 Scaggsville Rd, Suite E","20759",39.15224075317383,-76.92442321777344
"20762","Andrews Air Force Base","MD","Andrews AFB East Fitness Center","3705 Felchet Ave","20762",38.81779646734603,-76.85674922890759
"20770","Greenbelt","MD","Marriott Fitness Center","6400 Ivy Ln","20770",39.006528,-76.89625
"20772","Upper Marlboro","MD","Excellence Academy","9010 Frank Tippett Rd","20772",38.765872955322266,-76.82901000976562
"20772","Upper Marlboro","MD","Upper Marlboro Community Center","5400 Marlboro Race Track Rd","20772",38.81438087629324,-76.74362127292484
"20772","Upper Marlboro","MD","Fitness 4 Less","15201 Marlboro Pike","20772",38.822537524548046,-76.7420357385933
"20774","Upper Marlboro","MD","MyoFlex Fit Camp","North Hampton Fitness Park","not_available",38.885223,-76.834866
"20774","Upper Marlboro","MD","FBCG Family Life Center","600J Watkins Park Dr","20774",38.881141,-76.775995
"20774","Upper Marlboro","MD","Strong Results","605 Commerce Drive","20774",38.8797777157096,-76.73088765464026
"20781","Hyattsville","MD","LA Fitness","2970 Belcrest Center Dr","20782",38.96627909980872,-76.95560980554444
"20781","Hyattsville","MD","Mosaic at Metro Fitness Center","6210 Belcrest Rd","20782",38.96491669841143,-76.95413290509825
"20782","Hyattsville","MD","Planet Fitness","3500 East West Hwy","20782",38.9670795,-76.9592474
"20782","Hyattsville","MD","Takoma Park Recreation Center","7315 New Hampshire Ave","20912",38.982452,-76.987941
"20782","Hyattsville","MD","Lishion's Hair Studio and Barber","6840 New Hampshire Ave","20903",38.974382,-76.995903
"20782","Hyattsville","MD","Fitness Center @ The Towers","not_available","20782",38.96836911933512,-76.95256697054162
"20782","Hyattsville","MD","Gym at Towers Apartments","6515 Belcrest Rd","20782",38.96862030029297,-76.95368957519531
"20782","Hyattsville","MD","iLoveKickboxing","6451 America Blvd, Suite 104","20782",38.967633,-76.95194900000001
"20782","Hyattsville","MD","Fitness Heights International","Sligo Creek Park near Hampshire Rd","20901",38.980929567581995,-76.98907613754272
"20782","Hyattsville","MD","Post Park Fitness Center","3300 East West Hwy","20782",38.96730005072785,-76.96301248218772
"20783","Hyattsville","MD","Planet Fitness","11130 New Hampshire Ave","20904",39.0379712,-76.9910219
"20783","Hyattsville","MD","Curves","5402 Queens Chapel Rd","20782",39.03396386666667,-77.00157118333334
"20783","Hyattsville","MD","Spunk Fitness","11313 Lockwood Dr.","20904",39.03956859167132,-76.98887654143549
"20783","Hyattsville","MD","FDA Gym","Mahan Rd.","not_available",39.03556788561565,-76.98244580289062
"20783","Hyattsville","MD","Suburban Hill's Apartmets Gym","8500 New Hampshire Ave. T Level","20903",39.000057220458984,-76.98345184326172
"20783","Hyattsville","MD","WO Gym","not_available","20903",39.032457,-76.992052
"20794","Jessup","MD","The Palisades At Arundel Preserve","7694 Dorchester Blvd","21076",39.15574214630145,-76.74294306372946
"20794","Jessup","MD","Anytime Fitness","8160 Washington Blvd","20794",39.16333,-76.79329
"20794","Jessup","MD","Maryland Juniors Sports Center","8221 Preston Ct #F","20794",39.14765297171901,-76.79400122043046
"20794","Jessup","MD","Arbors at Arundel Preserve - Gym","2109 Piney Branch Cir","21076",39.153987884521484,-76.74140930175781
"20794","Jessup","MD","Earth Treks Climbing Center","7125 Columbia Gateway Dr Ste C","21046",39.177102239115854,-76.8101220008874
"20794","Jessup","MD","Columbia Fitness Center @ SAIC","7035 Albert Einstein Dr","21046",39.174383,-76.805599
"20794","Jessup","MD","Play For Keeps","8221 Preston Ct","20794",39.14804458618164,-76.79405975341797
"20814","Bethesda","MD","Avalon at Grosvenor Station | Fitness Center","10301 Strathmore Hall St","20852",39.02702969811624,-77.10276438327172
"20814","Bethesda","MD","YMCA","9401 Old Georgetown Rd","20814",39.010063944361455,-77.11255967617035
"20814","Bethesda","MD","Bethesda Sport&Health","4400 Montgomery Avenue","20814",38.98385059828218,-77.08960689353262
"20814","Bethesda","MD","[solidcore]","7101 Wisconsin Ave","20814",38.98037349396954,-77.0921770382496
"20814","Bethesda","MD","The Bar Method","7710 Woodmont Ave.,","20814",38.986917,-77.096441
"20814","Bethesda","MD","Jane E. Lawton Community Recreation Center","4301 Willow Ln","20815",38.98259648142393,-77.08771241403521
"20814","Bethesda","MD","Equinox Bethesda","4905 Elm Street","20814",38.982242,-77.096435
"20814","Bethesda","MD","The Metropolitan Gym","not_available","20814",38.98535633197038,-77.09663733404594
"20814","Bethesda","MD","Washington Sports Clubs","6828 Wisconsin Ave","20815",38.978398680811004,-77.09164029199593
"20814","Bethesda","MD","CorePower Yoga","6708 Wisconsin Ave., Suite 300","20815",38.9773458,-77.0910088
"20814","Bethesda","MD","Casa De Boogie's Gym","8123 Wisconsin Ave","20814",38.991775,-77.09543199999999
"20814","Bethesda","MD","FitnessWise","4801 Montgomery Ln Ste B","20814",38.983646392822266,-77.09520721435547
"20814","Bethesda","MD","GP1 Gym","10201 Grosvenor Pl","20852",39.02475,-77.105576
"20814","Bethesda","MD","The Clark Building Fitness Center","7500 Old Georgetown Rd","20814",38.9851397338951,-77.0951312230639
"20814","Bethesda","MD","Promenade Pool & Health Club","5225 Pooks Hill Rd","20814",39.016849204099444,-77.10713863585728
"20814","Bethesda","MD","Gables Gym","not_available","20852",39.03194242044476,-77.11636775625118
"20814","Bethesda","MD","Fitness Together - Bethesda","6708 Wisconsin Ave","20815",38.990427000000004,-77.097718
"20814","Bethesda","MD","Tough Temple Crossfit","4907 Rugby Ave","20814",38.991096999999996,-77.09948299999999
"20814","Bethesda","MD","TM HR","somebody took me in...","20814",39.01938358333334,-77.11218735
"20814","Bethesda","MD","Crestwood Crossfit","10107 Crestwood Rd","20895",39.021805,-77.092999
"20814","Bethesda","MD","Topaz House Gym","4400 East West Hwy","20814",38.9847294700786,-77.09035862465876
"20814","Bethesda","MD","WRNMMC Gym","8901 Wisconsin Ave","20889",39.00301152943386,-77.0917873643343
"20814","Bethesda","MD","Personal Trainer Fitness","not_available","20817",38.99689909299033,-77.08659052848816
"20815","Chevy Chase","MD","My Gym Bethesda","5110 Ridgefield Rd","20816",38.965754964518936,-77.10614868142743
"20815","Chevy Chase","MD","Park Bethesda- Fitness Center","not_available","20816",38.961979582356115,-77.10651088433679
"20815","Chevy Chase","MD","Rock Creek Sports Club","8325 Grubb Rd.","20815",38.992983154132524,-77.04862772315705
"20815","Chevy Chase","MD","Gym at the Willard","4701 Willard Ave","20815",38.963103000000004,-77.094385
"20815","Chevy Chase","MD","N park ave rooftop gym","not_available","20815",38.96379023401157,-77.0922594441543
"20815","Chevy Chase","MD","Crossfit Silver Spring","2700 Garfield Ave","20910",39.001727296658856,-77.05564281092275
"20815","Chevy Chase","MD","GEICO Tone Zone","5260 Western Ave","20815",38.96113204956055,-77.09056854248047
"20815","Chevy Chase","MD","The gym","not_available","20015",38.962153,-77.072935
"20816","Bethesda","MD","SDS Fitness","5420 Butler rd gym","not_available",38.96247482299805,-77.10358428955078
"20817","Bethesda","MD","Washington Sports Clubs","10400 Old Georgetown Rd","20814",39.02553544802458,-77.12751300665337
"20817","Bethesda","MD","IBM Fitness Center","6710 Rockledge Dr","20817",39.02943420410156,-77.13571166992188
"20817","Bethesda","MD","Precision Health and Fitness","6500 Rock Spring Dr","20817",39.026831,-77.13326
"20817","Bethesda","MD","Inigo's Gym","5405 Tuckerman Ln","20852",39.02976989746094,-77.1081314086914
"20817","Bethesda","MD","The Club","6903 Rockledge Dr","20817",39.0277099609375,-77.140380859375
"20817","Bethesda","MD","Potomac Tennis Club","10800 Potomac Tennis Ln","20854",39.03269285871829,-77.20192057414847
"20817","Bethesda","MD","Health Club Marriott Suites Bethesda","6701 Democracy Blvd","20817",39.02211679433864,-77.1382733050323
"20817","Bethesda","MD","GP III Gym","10401 grosvenor place","not_available",39.02820044996629,-77.10627487269981
"20817","Bethesda","MD","Gym","10400 Fernwood Rd","20817",39.02437704050383,-77.13887585316283
"20832","Olney","MD","Gold's Gym","18330 Village Center Dr","20832",39.155556617330134,-77.06469339318573
"20832","Olney","MD","Orangetheory Fitness","18205 Hillcrest Ave","20832",39.154789,-77.065853
"20832","Olney","MD","Pure Barre","18200 Georgia Ave Ste E","20832",39.15487289428711,-77.06739807128906
"20832","Olney","MD","Go Fit Yourself LLC","not_available","20832",39.15362568462385,-77.06694602966309
"20833","Brookeville","MD","GST Fitness & Wellness","22314 Flintridge Dr","20833",39.22233581542969,-77.0701675415039
"20837","Poolesville","MD","Performance Edge","19277 Citrine Dr","20176",39.08267250800946,-77.49547719955444
"20837","Poolesville","MD","Anytime Fitness","19942 Fisher Ave","20837",39.1455,-77.41664
"20837","Poolesville","MD","River Creek Fitness Center","43800 Olympic Blvd","20176",39.105411529541016,-77.48467254638672
"20837","Poolesville","MD","Janelia Farms Gym","not_available","20170",39.08560193250848,-77.48256831465756
"20837","Poolesville","MD","Lansdowne Potomac Club","43459 Riverpoint Dr","20176",39.086900186288084,-77.48301641774238
"20841","Boyds","MD","Planet Fitness","13031 Wisteria Dr","20874",39.17916777161856,-77.27112194669427
"20841","Boyds","MD","CrossFit Germantown Performance","13220 Wisteria Dr Ste N11","20874",39.180724218868484,-77.27621371013201
"20841","Boyds","MD","Hampton Inn Fitness Center","not_available","20876",39.186448,-77.251504
"20841","Boyds","MD","Fitness Center","not_available","20874",39.16588520732062,-77.26142461152436
"20841","Boyds","MD","Ashmore Fitness Center","19611 Galway Bay Cir","20874",39.1790131914237,-77.27582891000809
"20841","Boyds","MD","iLoveKickboxing - Germantown, MD","12627 Wisteria Dr","20874",39.1713232,-77.2604822
"20841","Boyds","MD","Retro Fitness","12623 Wisteria Dr Ste A","20874",39.17034721879171,-77.24925435079267
"20841","Boyds","MD","GoPerformance & Fitness","22530 Gateway Center Dr Ste 100","20871",39.230339,-77.281408
"20841","Boyds","MD","CJ'S TM HR","U CAN DO IT!!","20874",39.169209783333336,-77.28562346666666
"20841","Boyds","MD","Anytime Fitness","18319 Leaman Farm Rd.","20874",39.1592,-77.27815
"20841","Boyds","MD","Gym at rolling hills","Rolling Hills","not_available",39.171669006347656,-77.26421356201172
"20841","Boyds","MD","SNAP Fitness 24-7","18018 Mateny Rd","20874",39.148315000000004,-77.274648
"20841","Boyds","MD","Washington Sports Club","12623 Wisteria Dr","20874",39.171636912786866,-77.26150408002904
"20841","Boyds","MD","Pinnacle Fitness Center","19860 Century Blvd","20874",39.182573,-77.2648
"20841","Boyds","MD","Orangetheory Fitness","22750 Newcut Rd","20876",39.22994960643354,-77.24866610492093
"20842","Dickerson","MD","Canal Run Fitness Center","not_available","21777",39.281358820443856,-77.52716835605122
"20842","Dickerson","MD","Fitness Factory","9639 Doctor Perry Rd","21754",39.298621999999995,-77.331818
"20850","Rockville","MD","Life Time Athletic","10121 Washingtonian Blvd","20878",39.12035470980369,-77.2041683381034
"20850","Rockville","MD","LA Fitness","314 Copley Pl","20878",39.11484304635962,-77.20676744731513
"20850","Rockville","MD","North Potomac Community Center Gym","not_available","20850",39.08334,-77.23236
"20850","Rockville","MD","Gold's Gym","835 Rockville Pike","20852",39.0747867,-77.1385803
"20850","Rockville","MD","Rockville Municipal Swim Center","355 Martins Ln","20850",39.09057254200917,-77.15921497446693
"20850","Rockville","MD","Life Time Athletic","1151 Seven Locks Rd","20854",39.0628124,-77.15804299999999
"20850","Rockville","MD","Gold's Gym","26 Maryland Ave","20850",39.086286422220574,-77.1507847914699
"20850","Rockville","MD","Freestate Gym","9200 Gaither Rd","not_available",39.11670684814453,-77.18989562988281
"20850","Rockville","MD","Onelife Fitness - Rockville","1407 Research Blvd","20850",39.09119685838222,-77.17662396367905
"20850","Rockville","MD","Gold's Gym","12171 Darnestown Rd","20878",39.118122651235375,-77.25076586008072
"20850","Rockville","MD","Rockville Body & Brain Yoga","1065 Rockville Pike","20852",39.07115173339844,-77.13310241699219
"20850","Rockville","MD","20Maryland Ave Gym","20 Maryland Ave","20850",39.08670425415039,-77.1507797241211
"20850","Rockville","MD","Fitness Room","38 Maryland Ave","20850",39.08531951904297,-77.15058898925781
"20850","Rockville","MD","Pure Barre Rockville","402 King Farm Blvd Ste 140","20850",39.1138508,-77.172205
"20850","Rockville","MD","The Residences at Congressional Village","198 Halpine Rd","20852",39.06037318528884,-77.12450259272859
"20850","Rockville","MD","Gym At Clear Channel","1801 Rockville Pike, Rockville, MD 20852","20852",39.05961608886719,-77.12307739257812
"20850","Rockville","MD","WRIT Fitness Center","51 Monroe St","20850",39.0836707624521,-77.14816565450411
"20850","Rockville","MD","G House of Beauty Luxury Beaut","9711 Washingtonian Blvd Ste 550","20878",39.1123979,-77.192602
"20850","Rockville","MD","CrossFit Become","9103 Gaither Rd Ste C","20877",39.11774826049805,-77.18653106689453
"20850","Rockville","MD","9737 Gym","not_available","20878",39.114320976850024,-77.19544843414104
"20850","Rockville","MD","Crossfit Firebourne","1610 Rockville Pike","20852",39.062706,-77.12379
"20850","Rockville","MD","368 Performance Training Center - Rockville","50 Southlawn Ct","20850",39.103481,-77.129349
"20850","Rockville","MD","Curves","1614 E Jefferson St","20852",39.06158052216362,-77.12767065245413
"20850","Rockville","MD","Moco Crossfit","15265 Display Ct","20850",39.10548295198884,-77.14661044956122
"20850","Rockville","MD","Avalon Fields - Fitness Center","15681-15699 Marathon Cir","20878",39.113037952085364,-77.19593133412019
"20850","Rockville","MD","IM=X Pilates & Fitness","15912 Luanne Dr","20877",39.11817857178674,-77.18577851349181
"20850","Rockville","MD","The Perfect Workout Rockville","15825 Shady Grove, Rd #45,","20850",39.1161457,-77.18333
"20850","Rockville","MD","Gym @ Avalon at Decoverly","9901 Gable Ridge Ter","20850",39.108601508459905,-77.20519781112671
"20851","Rockville","MD","KICK Fitness","1101 Higgins Pl","20852",39.063971755455846,-77.11780884168431
"20851","Rockville","MD","Urban Warriors Martial Arts, Fitness & Music Club","14615 Bauer Dr","20853",39.093379974365234,-77.10749053955078
"20851","Rockville","MD","CorePower Yoga","1601 Rockville Pike # 210C","20852",39.06347,-77.126575
"20851","Rockville","MD","HD Training","1739 Redgate Farms Ct","20850",39.090414,-77.130876
"20851","Rockville","MD","LUMIFIT Transformation Studios","1592 Rockville Pike","20852",39.06402338174724,-77.12324023246764
"20852","Rockville","MD","LA Fitness","11416 Rockville Pike Ste A","20852",39.04285920201252,-77.11158015515198
"20852","Rockville","MD","North Bethesda Sport&Health","11594 Old Georgetown Road","20852",39.0492980026256,-77.11750566959381
"20852","Rockville","MD","White Flint Station GYM","11800 Old Georgetown Rd","20852",39.05017081979254,-77.11069158485749
"20852","Rockville","MD","JCC Of Greater Washington","6125 Montrose Rd","20852",39.05342877853496,-77.12471328527602
"20852","Rockville","MD","The Fitness Center @ Wentworth House","5411 McGrath Blvd","20852",39.04950213777934,-77.10878849029541
"20852","Rockville","MD","LA Fitness","11820 Rockville Pike","20852",39.05017061336767,-77.11673760867649
"20852","Rockville","MD","NRC Gym","11555 Rockville Pike, Rockville, MD 20852","20852",39.046871185302734,-77.11182403564453
"20852","Rockville","MD","Champion Boxing & Fitness","11540 Rockville Pike","20852",39.04630464,-77.11318119
"20852","Rockville","MD","Retro Fitness","5238 Nicholson Lane","20895",39.0432624610278,-77.1066887245135
"20853","Rockville","MD","Parklawn Building","5600 Fishers Ln","20852",39.06196975708008,-77.1117935180664
"20853","Rockville","MD","Pure Barre","1801 Chapman Ave Ste A","20852",39.06064697803659,-77.12100423867514
"20853","Rockville","MD","Gym","4212 Frankfort Dr","not_available",39.080497,-77.084505
"20853","Rockville","MD","LA Boxing","192 Halpine Rd Ste A","20852",39.06086288904175,-77.12490150376637
"20853","Rockville","MD","Charlie's Gym","not_available","20906",39.074260833333334,-77.07850698333333
"20854","Potomac","MD","My Gym Potomac","11325 Seven Locks Rd","20854",39.04230808083631,-77.15796996533373
"20854","Potomac","MD","Athletic Center","8400 Postoak Rd","20854",39.05256271362305,-77.17267608642578
"20854","Potomac","MD","Gym At The Compound","not_available","22066",38.98699741934852,-77.27761408712182
"20854","Potomac","MD","School Of Theatrical Dance","760 Walker Rd, Village Centre","22066",38.996227,-77.288394
"20854","Potomac","MD","Great Falls Sunlighten Sauna Dealer","10135 Colvin Run Rd","22066",38.973765,-77.29777
"20854","Potomac","MD","Rock N Body","11520 Gainsborough Rd","20854",39.046909,-77.164797
"20854","Potomac","MD","Pure Barre","9935 Falls Rd","20854",39.018725567832405,-77.20808870859832
"20854","Potomac","MD","Churchill High School Gym","8410 Buckhannon Dr","20854",39.044706,-77.174087
"20854","Potomac","MD","Marquis Fitness Center","not_available","22182",38.97481265,-77.31355692
"20854","Potomac","MD","Gym On The Hill","9710 Falls Rd","20854",39.015325,-77.214726
"20854","Potomac","MD","orange theory","Kentlands","not_available",39.0805979801963,-77.23766665986346
"20855","Derwood","MD","Mallard Cove Gym","Needwood Rd, Redland, MD 20855","20855",39.12657917082349,-77.15058632260191
"20855","Derwood","MD","Prime Performance Athlete Training","8524 Anniversary Cir","20877",39.128644,-77.176001
"20855","Derwood","MD","Fearless Allstars","16814 Oakmont Ave","20877",39.13140106201172,-77.1759262084961
"20855","Derwood","MD","Gaithersburg Fit Body Boot Camp","7537 Lindbergh Dr","20879",39.164291999999996,-77.152686
"20855","Derwood","MD","Warrior Fit","16840 Oakmont Ave","20877",39.132856,-77.175965
"20855","Derwood","MD","The Residences at King Farm","105 King Farm Blvd","20850",39.116888315482974,-77.16981591660421
"20855","Derwood","MD","Standish Gym","7529 Standish Pl","20855",39.108970642089844,-77.15411376953125
"20855","Derwood","MD","Xtreme Acro & Cheer","20 Southlawn Ct","20850",39.101993560791016,-77.130859375
"20855","Derwood","MD","Prime Fitness","7537 Lindbergh Drive","20879",39.11654550100102,-77.1649038254145
"20855","Derwood","MD","Iamcorefit","7926 Cessna Ave","20879",39.17198181152344,-77.1623764038086
"20855","Derwood","MD","Huntington at King Farm | Gym","800 Elmcroft Blvd.","20850",39.114686037965576,-77.16874504008294
"20855","Derwood","MD","Gold's Gym","18810 Woodfield Road","20879",39.1651783,-77.1582994
"20855","Derwood","MD","All Star Dream","7516 Lindbergh Dr","20879",39.164859,-77.15392
"20860","Sandy Spring","MD","The Pedal Studio","17810 Meetinghouse Rd #225","20860",39.14911026269009,-77.02705556294414
"20866","Burtonsville","MD","Paint Branch Weight Room","not_available","20866",39.08698415405173,-76.94658025746162
"20872","Damascus","MD","Dpauls Gym","24305 Empress Ct","20882",39.258763,-77.200396
"20872","Damascus","MD","MMA & Sport","26123 Ridge Rd","20872",39.28626,-77.207116
"20872","Damascus","MD","Anytime Fitness","9815 Main St","20872",39.28883,-77.20183
"20872","Damascus","MD","dunnavant drive, Gaithersburg,md","not_available","20872",39.27729415893555,-77.19467163085938
"20872","Damascus","MD","Fitness 4 You","9930 Main St","20872",39.288007160780175,-77.20535431502532
"20872","Damascus","MD","Damascus Community Recreation Center","25520 Oak Dr","20872",39.27748223470097,-77.21529468698351
"20874","Germantown","MD","Orangetheory Fitness","622 Center Point Way","20878",39.12194612276266,-77.23272617323943
"20874","Germantown","MD","Fitness Center at Beacon Place Apartments","916 Beacon Square Ct","20878",39.12583923339844,-77.24149322509766
"20874","Germantown","MD","Contemporary Fighting Arts","618 Center Point Way, Gaithersburg,, #84028","20878",39.121974,-77.235422
"20874","Germantown","MD","RedZone","228 Main St","20878",39.122374,-77.238474
"20874","Germantown","MD","Ttsgym","11407 Stoney Point Pl","20876",39.184833000000005,-77.23760300000001
"20874","Germantown","MD","Fitness Together - Gaithersburg","12189 Darnestown Rd","20878",39.1182360919287,-77.25172259155079
"20874","Germantown","MD","Gold's Gym","19757 N Frederick Rd","20876",39.18020707808164,-77.23620347678661
"20876","Germantown","MD","Soldierfit - Gaithersburg","18777 N Frederick Ave","20879",39.165966981000075,-77.22598150222723
"20876","Germantown","MD","PR Strength","18775-C","20879",39.16586295500228,-77.22602248191833
"20877","Gaithersburg","MD","Bohrer Park (Activity Center-Gym)","506 S Frederick Ave","20877",39.13340947080635,-77.19462157991396
"20877","Gaithersburg","MD","Hidden Creek Gym","659 Cedar Spring St.","20877",39.154035398320794,-77.19040407060426
"20877","Gaithersburg","MD","WGH Gym","not_available","20879",39.15698,-77.210545
"20877","Gaithersburg","MD","Cedar Court Gym","108 Olde Towne Ave","20877",39.1421276,-77.2082231
"20877","Gaithersburg","MD","Gables Upper Rock Gym Facility","70 Upper Rock Cir","20850",39.112536,-77.183518
"20877","Gaithersburg","MD","Little Wolverine Gym","not_available","20886",39.160493,-77.200872
"20877","Gaithersburg","MD","Clubgolf","9811 Washingtonian Blvd","20878",39.11560072451298,-77.19809890979167
"20877","Gaithersburg","MD","Lakeforest Sport&Health","700 Russell Avenue","20877",39.15061803505033,-77.2049510478974
"20878","Gaithersburg","MD","LA Fitness","602 Quince Orchard Rd","20878",39.14251756847764,-77.2227283998907
"20879","Gaithersburg","MD","Homewood Suites Fitness Center","805 Russell Ave","20879",39.156478,-77.210127
"20895","Kensington","MD","interaction play","5801 Farragut st","not_available",39.031886019457275,-77.07591533660889
"20895","Kensington","MD","Sweat Shop Kensington","10410 Montgomery Ave","20895",39.026488,-77.072435
"20895","Kensington","MD","Rock Creek Cross-Fit","4233 Howard Ave","20895",39.031593322753906,-77.08358001708984
"20895","Kensington","MD","10101 grosvenor place gym","10101 Grosvenor Place","20852",39.02378698741823,-77.10475764393689
"20895","Kensington","MD","The Gym at The Meridian at Grosvenor Station","5230 Tuckerman Ln","20852",39.02795211097004,-77.10188140063728
"20895","Kensington","MD","Rockville Fitness","4961 Nicholson Ct","20852",39.04563485599069,-77.10359741746922
"20895","Kensington","MD","Anytime Fitness","4265 Howard Ave","20895",39.03111,-77.08472
"20895","Kensington","MD","Curves","3704 Decatur Ave","20895",39.033607482910156,-77.07366943359375
"20895","Kensington","MD","Beco Gym","11140 Rockville Pike","20852",39.04022773073272,-77.11006224141838
"20895","Kensington","MD","TITLE Boxing Club North Bethesda","5268-R Nicholson Lane","20895",39.0444105,-77.1066861
"20901","Silver Spring","MD","LA Fitness","8616 Cameron St","20910",38.998259311192086,-77.02888675943991
"20901","Silver Spring","MD","YMCA","9800 Hastings Dr","20901",39.015117329704196,-77.0139586120518
"20901","Silver Spring","MD","Washington Sports Clubs","901 Wayne Ave","20910",38.9955537,-77.0248217
"20901","Silver Spring","MD","Gym @ Twin Towers","1110 Fidler Ln","20910",38.99625778198242,-77.02924346923828
"20901","Silver Spring","MD","Gold's Gym","916 Ellsworth Dr","20910",38.9959602355957,-77.02620697021484
"20901","Silver Spring","MD","United Therapeutics Fitness Center","1110 Spring St","20910",38.999685,-77.028563
"20901","Silver Spring","MD","The Point Health Club","Georgia Ave","20910",38.998637,-77.031942
"20901","Silver Spring","MD","Results Gym","10750 Columbia Pike","20901",39.032630920410156,-77.00458526611328
"20901","Silver Spring","MD","Jazzercise Silver Spring Fitness Center","8455 Colesville Road","20910",38.995694200686266,-77.03003865458946
"20901","Silver Spring","MD","Sergents Bootcamp Winter Location","801 University Blvd W","20901",39.031673431396484,-77.02159118652344
"20901","Silver Spring","MD","The Sargeant's Boot Camp","1401 Dennis Ave","20902",39.027687072753906,-77.03273010253906
"20901","Silver Spring","MD","Enclave Fitness Center","11225 Oak Leaf Dr","20901",39.0406494140625,-76.99439239501953
"20901","Silver Spring","MD","Sheraton Silver Spring Gym","not_available","20910",38.998771443859354,-77.03047993812382
"20901","Silver Spring","MD","#mybootcamp","not_available","20901",39.0232904895737,-77.01538159566124
"20901","Silver Spring","MD","The Portico - Gym","1203 Fidler Ln","20910",38.995837,-77.030353
"20901","Silver Spring","MD","Gym","8560 2nd Ave","20910",38.99616241455078,-77.03287506103516
"20902","Silver Spring","MD","LA Fitness","11010 Veirs Mill Rd","20902",39.03715769231473,-77.05046166278254
"20902","Silver Spring","MD","metro gym","not_available","20902",39.038498113052924,-77.0491970174668
"20902","Silver Spring","MD","Westwood Garden Gym","Amherst Ave","20902",39.033377309356084,-77.0457956611027
"20904","Silver Spring","MD","Fitness Evolution","2144 Industrial Parkway","20904",39.053439,-76.9680016
"20904","Silver Spring","MD","Total Gym XLS","not_available","20905",39.0935187,-76.9843342
"20904","Silver Spring","MD","full circle fitness","12844 New Hampshire Ave, Silver Spring, MD 20904","20904",39.066001892089844,-77.00112915039062
"20904","Silver Spring","MD","4STM In Home Training Silver Spring","217 Stubblefield Way","20905",39.089412,-77.009091
"20904","Silver Spring","MD","Gold's Gym","2144 Industrial Pkwy","20904",39.054271190177644,-76.96900708325059
"20904","Silver Spring","MD","Courage Karate","13460 New Hampshire Ave","20904",39.076881408691406,-77.00190734863281
"20906","Silver Spring","MD","LA Fitness","2219 Bel Pre Rd","20906",39.09194102470536,-77.04671076154575
"20906","Silver Spring","MD","Gold's Gym","14348 Layhill Rd","20906",39.09198832711792,-77.04596063587815
"20906","Silver Spring","MD","Lifetime Fitness","not_available","22101",39.11059943069515,-77.05041136280546
"20906","Silver Spring","MD","Power Train Rockville","4960 Boiling Brook Parkway","20852",39.04761,-77.0994
"20906","Silver Spring","MD","Olympic Fitness Rockville Personal Training Studio","11832 Rocking Horse Rd","20852",39.0514061,-77.0967235
"20906","Silver Spring","MD","Complex Gym","Hewitt Avenue","20906",39.079838909995345,-77.06490385573271
"20910","Silver Spring","MD","Planet Fitness","1100 Wayne Ave","20910",38.9942322,-77.0284537
"20910","Silver Spring","MD","Orangetheory Fitness","8455 Fenton St.","20910",38.994570582643526,-77.02406844579266
"20910","Silver Spring","MD","Fitness Together","912 Thayer Ave Ste 102","20910",38.99278293957748,-77.02510461717928
"20910","Silver Spring","MD","Gym @ Eleven55 Ripley","1155 Ripley St","20910",38.992699,-77.028481
"20910","Silver Spring","MD","The Blair Building","8380 Colesville Rd","20910",38.99240642380891,-77.03448335403671
"20910","Silver Spring","MD","Olympus Gym (at Summit Hills)","8500 16th St","20910",38.99739240286656,-77.03941996815072
"20910","Silver Spring","MD","Bennington Gym","1215 E West Hwy","20910",38.991406240954376,-77.02959678179583
"20910","Silver Spring","MD","Falkland Chase Gym","8330 Colesville Rd","20910",38.992934000000005,-77.03491
"20910","Silver Spring","MD","The Crescent Fitness Room","930 Wayne Ave","20910",38.9946403503418,-77.02519226074219
"20910","Silver Spring","MD","Silverton Gym","1201 E West Hwy","20910",38.99003219604492,-77.02880096435547
"20910","Silver Spring","MD","Blair East Gym","1220 E West Hwy","20910",38.991531216170344,-77.03042140258592
"20910","Silver Spring","MD","Pure Barre","8455 Fenton St","20910",38.9950483,-77.0239957
"20910","Silver Spring","MD","NOAA Fitness Center","1315 E West Hwy","20910",38.992194547885674,-77.03092418779445
"20912","Takoma Park","MD","Takoma Fitness Center","300 Van Buren St NW","20012",38.968902,-77.017999
"20912","Takoma Park","MD","Takoma Fit Body Bootcamp","not_available","20912",38.97559726777577,-77.0138126097018
"20912","Takoma Park","MD","Gym @ Gables Takoma Park","7035 Blair Rd NW","20012",38.975625,-77.018826
"20912","Takoma Park","MD","MAD Fitness","7302 Carroll Ave","20912",38.978752,-77.00579599999999
"20912","Takoma Park","MD","PR Gym","The Main Strip","20912",38.98323449460259,-77.00777829174915
"20912","Takoma Park","MD","Maryland Systema","7117 Maple Ave - Studio 3","20912",38.9757094,-77.0140291
"21001","Aberdeen","MD","Planet Fitness","1008 Beards Hill Rd","21001",39.5223382,-76.1837791
"21001","Aberdeen","MD","APG Big Gym","3300 Susquehanna ave","21005",39.48235729765513,-76.13565345822836
"21001","Aberdeen","MD","Bulle Rock Fitness and Aquatic Center","1200 Bulle Rock Pkwy","21078",39.55375905998231,-76.12737754875002
"21001","Aberdeen","MD","Wingate Hotel Gym","not_available","21017",39.47667421925041,-76.24990058029397
"21001","Aberdeen","MD","All Access Fitness","not_available","21001",39.513642101515856,-76.1625107858888
"21001","Aberdeen","MD","MITRE Gym","not_available","21005",39.47826417062699,-76.13605804596565
"21001","Aberdeen","MD","Debra Curry Certified Advanced Personal Trainer & Sports Nutrition","Abingdon, MD 21009","21009",39.45174183450772,-76.25230498579087
"21009","Abingdon","MD","Calvert's Walk Community Gym","Foxhall Drive","21015",39.49461690524381,-76.32990726159319
"21009","Abingdon","MD","Sortino Fitness Center","not_available","21009",39.458299,-76.275376
"21009","Abingdon","MD","Baltimore Vipers Cheerleading","12226 Pulaski Hwy","21085",39.47418905611919,-76.29470512189631
"21009","Abingdon","MD","Tease fitness","3502 woodadale road","not_available",39.464813742185,-76.31290434921867
"21009","Abingdon","MD","Anytime Fitness","5 Bel Air S Pwy Ste 1401","21015",39.49461,-76.32635
"21009","Abingdon","MD","Grand Slam USA","2213 Old Emmorton Rd","21015",39.497372999999996,-76.32285
"21009","Abingdon","MD","True Cycling Studio","3473 Merchant Blvd, #B","21009",39.467747,-76.306435
"21010","Gunpowder","MD","Hoyle Fitness Center","Edgewood Area, Bldg E4210","21010",39.38912398166659,-76.29333241224401
"21012","Arnold","MD","Greater Annapolis Family Center Y","1209 Ritchie Hwy","21012",39.04975395793289,-76.51913615607215
"21012","Arnold","MD","Xcelerated Fitness","820 Ritchie Hwy Ste 220","21146",39.06536865234375,-76.53580474853516
"21012","Arnold","MD","Bay Dog CrossFit","not_available","21146",39.064262592209225,-76.53563191189681
"21012","Arnold","MD","Ivey League Mixed Martial Arts","1517 Ritchie Hwy #1","21012",39.027319,-76.501384
"21013","Baldwin","MD","Snap Fitness","not_available","21047",39.543808,-76.471862
"21014","Bel Air","MD","Fundamentals","not_available","21050",39.57816601138313,-76.36814029319063
"21014","Bel Air","MD","Bel Air Athletic Club","658 Boulton St","21014",39.52546,-76.36169
"21014","Bel Air","MD","Anytime Fitness","1 Newport Dr","21050",39.578,-76.38585
"21014","Bel Air","MD","Bel Air Athletic Club","658 Boulton Street","21014",39.5257029,-76.3618292
"21014","Bel Air","MD","Personal Power Fitness","1609 Bel Air Rd Ste 2","21047",39.50242173450739,-76.38342927660939
"21014","Bel Air","MD","Kinetic Youth Academy","not_available","21015",39.579187,-76.338392
"21014","Bel Air","MD","Gladiatorivs CrossFit Bel Air","350 Granary Rd","21050",39.576339202358874,-76.37097836163065
"21014","Bel Air","MD","Anytime Fitness","1206 Agora Dr.","21014",39.5484,-76.31538
"21014","Bel Air","MD","CrossFit Harford","1659 Robin Cir Ste D","21050",39.568647,-76.35854
"21014","Bel Air","MD","iLoveKickboxing - Bel Air, MD","331 Baltimore Pike, Suite 4","21014",39.5298334,-76.3498901
"21014","Bel Air","MD","Orangetheory Fitness","331 Baltimore Pike","21014",39.52971649169922,-76.34973907470703
"21014","Bel Air","MD","Xfit Studio","Suite 104","not_available",39.5723534157769,-76.34033863152692
"21014","Bel Air","MD","Womens Fitness Floor","Boulton Street","21014",39.525736,-76.361215
"21014","Bel Air","MD","CrossFit Everlasting","not_available","21014",39.52856474550159,-76.36381297591998
"21014","Bel Air","MD","Retro Fitness","802 Baltimore Pike","21014",39.520382,-76.361417
"21014","Bel Air","MD","My Gym","1206 Agora Dr Ste C","21014",39.548376179654504,-76.31550959416612
"21014","Bel Air","MD","Gorillaz Fitness","4 Newport Drive. Suites G and H","21050",39.5786018371582,-76.3838882446289
"21014","Bel Air","MD","VFIT","18 Newport Dr Ste 18B","21050",39.57791519165039,-76.37906646728516
"21014","Bel Air","MD","Beyond Fit","112 Connolly Rd","21047",39.50352204827818,-76.38462682296665
"21014","Bel Air","MD","Snap Fitness","1517 Rock Spring Rd Ste B","21050",39.56058456251629,-76.36964608368129
"21014","Bel Air","MD","Legion Transformation Center Bel Air","2205 Commerce Road Suite D","21050",39.5753047,-76.3694308
"21015","Bel Air","MD","The Arena Club","2304 Churchville Road","21015",39.55687412970961,-76.27776867686757
"21029","Clarksville","MD","fitness corner @ noah's ark","not_available","21044",39.22244974737802,-76.8919294664691
"21029","Clarksville","MD","Gym","11311 Little Patuxent Pkwy","21044",39.210636138916016,-76.89253234863281
"21030","Cockeysville","MD","Brick Bodies","2430 Broad Ave","21093",39.4543798,-76.636512
"21030","Cockeysville","MD","307 Fitness Center","307 International Cir","21030",39.501191,-76.665834
"21030","Cockeysville","MD","Orangetheory Fitness","118 Shawan Rd","21030",39.499445956014966,-76.65540280302646
"21030","Cockeysville","MD","Executive Plaza Fitness Center","11350 McCormick Rd","21031",39.49316701146764,-76.66012825737273
"21030","Cockeysville","MD","PHH Wellness Center","not_available","21152",39.526648849748625,-76.6501632155173
"21030","Cockeysville","MD","Titan CrossFit","100 Cockeysville Rd Ste 150","21030",39.48219680786133,-76.64606475830078
"21030","Cockeysville","MD","Indoor Intensity","not_available","21030",39.49783506218047,-76.66583621371389
"21030","Cockeysville","MD","Pulse Health & Fitness","14361 York Rd","21152",39.52563522815544,-76.644662817236
"21030","Cockeysville","MD","MAC Express Hunt Valley","11212 McCormick Rd","21031",39.49118740546546,-76.65901443538026
"21030","Cockeysville","MD","JDyer Strength & Conditioning","10534 York Rd","21030",39.47661209106445,-76.64286041259766
"21030","Cockeysville","MD","Merritt Athletic Club","598 Cranbrook Rd","21030",39.47235668025218,-76.62151224390898
"21030","Cockeysville","MD","Outsiders CrossFit","47 Loveton Cir","21152",39.515394296001325,-76.64740515422788
"21030","Cockeysville","MD","443 MP Co Weight Room","not_available","21117",39.455152014761616,-76.72860462454292
"21030","Cockeysville","MD","Under Armour Performance Center","11270 Pepper Rd","21031",39.490296,-76.65518
"21030","Cockeysville","MD","200 International Circle Gym","200 International Cir","21030",39.497440338134766,-76.66178131103516
"21030","Cockeysville","MD","Burn Boot Camp","104 Lake Front Dr","21030",39.4805914,-76.6582937
"21032","Crownsville","MD","Regatta Bay Fitness Center","1-99 Regatta Bay Ct","21401",38.990462871522396,-76.55508570040328
"21032","Crownsville","MD","Sport Fit","551 Baltimore Annapolis Blvd","21146",39.073945013723225,-76.54645151119789
"21032","Crownsville","MD","Body In Motion Fitness","1015 Generals Hwy Ste D","21032",39.0545294,-76.6197629
"21032","Crownsville","MD","Team Randori Martial Arts","910 Bestgate Rd Ste E","21401",38.99225616455078,-76.54734802246094
"21032","Crownsville","MD","Work It Out","not_available","21401",39.000288,-76.565725
"21032","Crownsville","MD","SP fittness","116 Stone Point Dr","21401",38.99106979370117,-76.5553207397461
"21032","Crownsville","MD","Retro Fitness","2505 Annapolis Mall Rd, Unit #1330","21401",38.99012640963046,-76.54683470444441
"21032","Crownsville","MD","The Adaptive Gym","not_available","21032",39.062643,-76.58668
"21032","Crownsville","MD","Orangetheory Fitness","2645 Housley Rd","21401",38.987599,-76.5566
"21037","Edgewater","MD","Annapolis Overlook Fitness Center","Cobblestone Dr","not_available",38.95370058180027,-76.50520265014346
"21037","Edgewater","MD","Annapolis Athletic Club","1031 Bay Ridge Ave","21403",38.96441253399008,-76.48929752201092
"21037","Edgewater","MD","Annapolis Boot-Camp","273 Hilltop Ln","21403",38.9644889831543,-76.50817108154297
"21037","Edgewater","MD","Parisi Speed School","3277 Solomons Island Rd","21037",38.928663,-76.565331
"21037","Edgewater","MD","Edgewater Fitness","5 Mayo Rd","21037",38.939783603109966,-76.56264438058639
"21037","Edgewater","MD","Evolutions","1834 George Ave","21401",38.97650310398878,-76.52324991548056
"21037","Edgewater","MD","Xpose Fitness","302 Harry S Truman Pkwy Ste C","21401",38.97510420521584,-76.55557336236092
"21037","Edgewater","MD","Spa Cove Gym","1012 Primrose Rd","21403",38.965722,-76.49905600000001
"21037","Edgewater","MD","Archstone Apartments Gym","S Cherry Grove Ave","21401",38.96643196338834,-76.52218627747966
"21037","Edgewater","MD","Yogavibez Edgewater","48 South River Rd S Ste 103","21037",38.94795991610615,-76.55462682195127
"21037","Edgewater","MD","iLoveKickboxing - Annapolis, MD","302 C Harry S Truman Parkway","21401",38.9749504,-76.5556845
"21037","Edgewater","MD","South River Fitness","Solomons Island Rd.","21037",38.92770868952468,-76.56610328793985
"21040","Edgewood","MD","Kinetic Youth Academy","1809 Fashion Ct","21085",39.443549,-76.320461
"21040","Edgewood","MD","Edgewood Rec Center","Brookside dr","not_available",39.43342033605274,-76.30986566803051
"21040","Edgewood","MD","Shepherds Retreat Gym","301 Broadneck Crossing Rd","21040",39.42432,-76.284953
"21042","Ellicott City","MD","Columbia Athletic Club","5435 Beaverkill Rd","21044",39.22271192860378,-76.88656784832999
"21042","Ellicott City","MD","Meadowbrook Athletic Complex","5001 Meadowbrook Ln","21043",39.24911848684342,-76.82177252060974
"21042","Ellicott City","MD","Gym at The Elms at Montjoy","not_available","21045",39.236972413362196,-76.81857265623582
"21042","Ellicott City","MD","YMCA - Ellicot City","9222 Spring Valley Rd","21043",39.24241,-76.82969200000001
"21042","Ellicott City","MD","Canpanaro Strength & Conditioning","not_available","21042",39.277462,-76.860833
"21042","Ellicott City","MD","Strength In You Fitness","9159 Red Branch Rd","21045",39.23065185546875,-76.8203353881836
"21042","Ellicott City","MD","PrecorUSA Fitness Center","5485 Twin Knolls Rd","21045",39.222496032714844,-76.8416976928711
"21042","Ellicott City","MD","PSTC Gym","2200 Scott Wheeler Dr","21104",39.308316999999995,-76.919547
"21042","Ellicott City","MD","Nefarious Xfit","not_available","21104",39.31845453182017,-76.89187043434944
"21042","Ellicott City","MD","Ellicott City Health and Fitness","9449 Baltimore National Pike","21042",39.27676010131836,-76.83695983886719
"21042","Ellicott City","MD","Gold's Gym","9160 Red Branch Rd","21045",39.231571197509766,-76.82148742675781
"21042","Ellicott City","MD","12 Labours CrossFit Columbia","9017 Red Branch Rd","21045",39.22849987,-76.82009609
"21042","Ellicott City","MD","David Johnston Training","9159 Red Branch Rd #101","21045",39.23065185546875,-76.8203353881836
"21042","Ellicott City","MD","Ronasium","2120 Troon Overlook","21163",39.3075,-76.887215
"21042","Ellicott City","MD","Coreworks Fitness","9160 Rumsey Rd Ste B4","21045",39.232677,-76.820208
"21042","Ellicott City","MD","Quest Fitness","10065 Baltimore National Pike","21042",39.27801073022458,-76.85906690279486
"21042","Ellicott City","MD","misako ballet","5485 Harpers Farm Rd","21044",39.223341999999995,-76.889364
"21042","Ellicott City","MD","Snap Fitness","10825 Birmingham Way","21163",39.30760747973961,-76.88977303575813
"21042","Ellicott City","MD","Gym Reeling","10528 Chester Way, Woodstock, MD 21163","21163",39.31201934814453,-76.87788391113281
"21042","Ellicott City","MD","Lights Out Gym","9570 Berger Rd Ste F","21046",39.231264642547785,-76.81695126843633
"21042","Ellicott City","MD","Baltimore Fencing Center, Columbia","9160 Rumsey Rd #D4","21045",39.233544644195206,-76.82004190080423
"21042","Ellicott City","MD","Fit Philosophy Training","9159 Red Branch Rd Ste F","21045",39.23065185546875,-76.8203353881836
"21042","Ellicott City","MD","Pure Barre","8801-1 Centre Park Dr","21045",39.2275712,-76.81757689999999
"21042","Ellicott City","MD","Columbia Boxing","Red Branch Rd","21045",39.227255,-76.820447
"21043","Ellicott City","MD","Howard Crossing Gym","Town and Country Blvd","not_available",39.287509135932694,-76.81523811660703
"21043","Ellicott City","MD","Insanity Gym @ Casa de Luz","not_available","21244",39.31489562988281,-76.77638244628906
"21043","Ellicott City","MD","DTM-Fitness","6341 Gray Sea Way","21045",39.196718,-76.806522
"21043","Ellicott City","MD","Fitness Center UMH","200 E 33rd St Fl 2","21218",39.225155934463885,-76.75784978165441
"21043","Ellicott City","MD","39-Minute Workout","4920 Waterloo Rd Ste A","21043",39.23556900024414,-76.7992935180664
"21043","Ellicott City","MD","Merrit Properties fitness center","not_available","21043",39.210143905744,-76.79810285568237
"21043","Ellicott City","MD","Fitness 19 Elkridge","6030 Marshalee Dr","21075",39.2098448,-76.7783486
"21043","Ellicott City","MD","EG Fitness Center","3005 Oak Green Cir","21043",39.287247,-76.801059
"21043","Ellicott City","MD","Retro Fitness","6516 Baltimore National Pike","21228",39.28706009,-76.76309372
"21044","Columbia","MD","Sheraton Fitness Center","10209 Wincopin Cir","21044",39.216156,-76.855624
"21044","Columbia","MD","Beco Gym","10630 Little Patuxent Pkwy","21044",39.2146110534668,-76.87044525146484
"21044","Columbia","MD","Grand Pointe Apartments Fitness Room","5764 Stevens Forest Rd","21045",39.212392292527696,-76.85160904889725
"21044","Columbia","MD","F45 Training Columbia MD","10960 Grantchester Way","21044",39.210459,-76.865975
"21044","Columbia","MD","Potomac Valley Sports Medicine","10700 Charter Dr","21044",39.21201888515113,-76.88215533466591
"21044","Columbia","MD","Title Boxing Club Columbia m.flats","10101 Twin Rivers Road Suite 110","21044",39.21511922,-76.86594146
"21045","Columbia","MD","Columbia Corporate Park Gym","8830 Stanford Blvd","21045",39.19021987915039,-76.81626892089844
"21045","Columbia","MD","Maximum Fitness","9009 Mendenhall Ct","21045",39.186973571777344,-76.82650756835938
"21045","Columbia","MD","Maxxfit","6822 Oak Hall Ln","21045",39.183445,-76.82498199999999
"21045","Columbia","MD","Crossfit 10-10","8865 Stanford Blvd","21045",39.190961,-76.818335
"21045","Columbia","MD","HCDFRS HQ Gym","6751 Columbia Gateway Dr","21046",39.18396759033203,-76.8013687133789
"21045","Columbia","MD","COPT Gym","6711 Columbia Gateway Dr","21046",39.185072,-76.806276
"21045","Columbia","MD","Fitness Center","6750 Alexander Bell Dr","21046",39.18925094604492,-76.81214904785156
"21046","Columbia","MD","Gold's Gym","8271 Gateway Overlook Drive","21075",39.184179,-76.793209
"21047","Fallston","MD","Anytime Fitness","2315 Belair Rd","21047",39.493111,-76.39205600000001
"21048","Finksburg","MD","Living Fit Club","not_available","21048",39.49284854164623,-76.8840842902625
"21048","Finksburg","MD","Relentless Strength & Conditioning CrossFit RSC","2950 Dede Rd, Finksburg, MD 21048","21048",39.492942810058594,-76.88456726074219
"21054","Gambrills","MD","LA Fitness","2625 Brandermill Blvd","21054",39.0391512616821,-76.67778251605054
"21054","Gambrills","MD","API","not_available","21054",39.050866422656725,-76.66377215835223
"21054","Gambrills","MD","Athletic Performance","740 State Route 3 S","21054",39.0511589050293,-76.66323852539062
"21054","Gambrills","MD","My Gym Children's Fitness Center","1119 State Route 3 N Ste 205","21054",39.02296398946112,-76.69167254097162
"21054","Gambrills","MD","Pure Barre","1153 Route 3, Suite 70","21054",39.020656,-76.693187
"21054","Gambrills","MD","The Gym","not_available","21218",39.050726227599704,-76.70705951557882
"21054","Gambrills","MD","north forest fitness center","1827 Crofton Pkwy, Crofton, MD 21114","21114",38.99886703491211,-76.68193054199219
"21054","Gambrills","MD","Shelter Cove Gym","not_available","21113",39.081512,-76.683983
"21054","Gambrills","MD","Crossfit","750 Route 3 #5","21054",39.049409321317306,-76.66405743064611
"21054","Gambrills","MD","The Groves GYM","700 Linden Grove Pl","21113",39.067988,-76.715695
"21054","Gambrills","MD","Lil Bit Fitness","1202 Annapolis Rd","21113",39.083290100097656,-76.69119262695312
"21057","Glen Arm","MD","Planet Fitness","9634 Belair Rd","21236",39.41512424420289,-76.46307532191577
"21060","Glen Burnie","MD","Gold's Gym","6324 Ritchie Hwy","21061",39.203503954193565,-76.61744238668354
"21060","Glen Burnie","MD","Gold's Gym","7900 Ritchie Hwy Ste C129","21061",39.138585040652984,-76.60468227655014
"21060","Glen Burnie","MD","glen burnie high weightroon","not_available","21061",39.1538533958767,-76.62135008754032
"21060","Glen Burnie","MD","Hardcore Boxing and Fitness","7900 Ritchie Hwy","21061",39.139256,-76.606339
"21060","Glen Burnie","MD","Tanyard Springs Fitness Center","not_available","21226",39.17024290721281,-76.56358637391493
"21060","Glen Burnie","MD","workouttt","not_available","21060",39.157290763739,-76.60597628488968
"21060","Glen Burnie","MD","CG Yard GYM","2401 Hawkins Point Rd","21226",39.20056885431049,-76.5696867831877
"21061","Glen Burnie","MD","LA Fitness","8120 Jumpers Hole Rd","21122",39.124538287182105,-76.5904539202489
"21061","Glen Burnie","MD","Transformations Fitness for Women in Pasadena","8043 Ritchie Hwy - C","21122",39.128860222951104,-76.59074202844727
"21061","Glen Burnie","MD","CrossFit BWI","501 McCormick Dr","21061",39.1606396779644,-76.67340708470364
"21061","Glen Burnie","MD","The East Maple Gym","not_available","21090",39.20525930157143,-76.65085131424883
"21061","Glen Burnie","MD","Regency Club Fitness Center & Pool","Heritage Hill Dr","21061",39.196881,-76.62546
"21061","Glen Burnie","MD","Jazzercise Linthicum Center","7089 Baltimore Annapolis Blvd Ste E","21061",39.198543548583984,-76.64091491699219
"21061","Glen Burnie","MD","Total Fitness Rx","7671 Quarterfield Rd Ste 304B","21061",39.150489,-76.636516
"21061","Glen Burnie","MD","Snap Fitness","529 S Camp Meade Rd","21090",39.200134081515145,-76.65525052527683
"21061","Glen Burnie","MD","Roam Fitness","Friendship Rd","21240",39.18017727692435,-76.66584849357605
"21061","Glen Burnie","MD","Old Mill Gym","425 Shetlands Ln","21061",39.12735366821289,-76.62281799316406
"21061","Glen Burnie","MD","World Gym","802 Landmark Dr","21061",39.14727581749096,-76.64106108478191
"21061","Glen Burnie","MD","Cloud 10 Transformation","6934 Aviation Blvd","21061",39.1748632,-76.64594509999999
"21061","Glen Burnie","MD","Jones Backyard Workout","not_available","21144",39.14544128852303,-76.65384053744008
"21074","Hampstead","MD","Hirsch Gym","not_available","21102",39.66666142,-76.87898755073547
"21074","Hampstead","MD","Snap Fitness","2233-2299 Maryland 30","21074",39.63877164521224,-76.86595088910217
"21074","Hampstead","MD","Living Fit","2275 Hanover Pike","21074",39.63695366749083,-76.86548705664586
"21074","Hampstead","MD","Four Seasons Sports Complex","Hampstead Mexico Road-482","not_available",39.61032196755036,-76.90016733062951
"21075","Elkridge","MD","Blue Crab Crossfit","6785 Business Pkwy Ste 103","21075",39.183433532714844,-76.7657470703125
"21075","Elkridge","MD","Volleyball House and Soccer Arena","5635 Furnace Ave","21075",39.21558825639893,-76.70628925344016
"21075","Elkridge","MD","Powerhouse Gym","7476 New Ridge Rd","21076",39.16530776719751,-76.7077991003601
"21075","Elkridge","MD","The Body Factoy","6801 Douglas Legum Dr","21075",39.18318557739258,-76.75276947021484
"21075","Elkridge","MD","Verizon Wireless Fitness Center","7401 Coca Cola Dr","21076",39.18737736168703,-76.73077941204167
"21075","Elkridge","MD","Leach Wallace Associates Gym","6522 Meaowridge Road","21075",39.18832217681315,-76.7774310360071
"21075","Elkridge","MD","Belmont Station Gym","Belmont Station","21075",39.19249053791308,-76.74660115015858
"21075","Elkridge","MD","Penniman Park Gym","not_available","21075",39.20504570599152,-76.73167092319737
"21075","Elkridge","MD","Grounded Crossfit","7476 New Ridge Rd Ste F","21076",39.164886474609375,-76.7083969116211
"21075","Elkridge","MD","Foxhill Farms","8 Old Cistern Ct","21228",39.243642,-76.734815
"21075","Elkridge","MD","Mark's Training Facility","Highridge Street","not_available",39.246736221725406,-76.7019528415738
"21076","Hanover","MD","Merritt Athletic Club","7585 Buckingham Blvd","21076",39.15197487171502,-76.69220198784481
"21076","Hanover","MD","Northrop Grumman WQC","1550 W Nursery Rd","21090",39.20857270377322,-76.68115457506357
"21076","Hanover","MD","Corporate Gym","870 Elkridge Landing Rd","21090",39.199588775634766,-76.69026184082031
"21076","Hanover","MD","Hilton BWI Airport Hotel Employee Fitness Center","1739 W Nursery Rd","21090",39.19573974609375,-76.68087005615234
"21076","Hanover","MD","Gym At The Elms At Stoney Run","not_available","21076",39.150803,-76.72532163333334
"21076","Hanover","MD","My gym","Executive Park Dr, Columbia, MD 21045","21045",39.15786969340117,-76.72336807036642
"21076","Hanover","MD","Gym @ SpringHill Suites","7544 Teague Rd","21076",39.155759,-76.71835
"21078","Havre De Grace","MD","Curves","not_available","21078",39.54479217529297,-76.1089096069336
"21085","Joppa","MD","Harborside Village Fitness Center","not_available","21085",39.411246250009825,-76.35214855113995
"21085","Joppa","MD","Hanleys fitness Center","Paul's Lane","not_available",39.434488,-76.349958
"21090","Linthicum Heights","MD","Anytime Fitness","810 Nursery Rd","21090",39.22503,-76.66369
"21090","Linthicum Heights","MD","Courtyard Fitness Room","1671 W Nursery Rd","21090",39.200889,-76.681071
"21090","Linthicum Heights","MD","BWI Airport Marriott Gym","1743 W Nursery Rd","21090",39.196366,-76.682667
"21093","Lutherville Timonium","MD","Orokawa Family Center Y","600 W Chesapeake Ave","21204",39.401248033479426,-76.61371338065491
"21093","Lutherville Timonium","MD","LA Fitness","435 York Rd Ste 300","21204",39.39982807903412,-76.60258048954537
"21093","Lutherville Timonium","MD","Gym @ Colony at Kenilworth","not_available","21204",39.40871,-76.616556
"21093","Lutherville Timonium","MD","EA Fit Club","11341 York Road","21030",39.44509067286014,-76.6247273605431
"21093","Lutherville Timonium","MD","Brick Bodies Green Spring","10803 Falls Rd","21093",39.421712026887704,-76.66862301101776
"21093","Lutherville Timonium","MD","Fitness Together - Timonium","1756 York Rd","21093",39.4296679542508,-76.62170964780947
"21093","Lutherville Timonium","MD","Rebounders","7 W Aylesbury Rd","21093",39.43323529018686,-76.62657033379949
"21093","Lutherville Timonium","MD","Retro Fitness","2125 Greenspring Dr","21093",39.44081587542272,-76.63122568051381
"21093","Lutherville Timonium","MD","zumba","not_available","21286",39.40886872000143,-76.60309313823896
"21093","Lutherville Timonium","MD","Core Fitness","Aylesbury Rd","not_available",39.433627,-76.626844
"21093","Lutherville Timonium","MD","Gold's Gym","111 Allegheny Ave","21204",39.401595,-76.605746
"21093","Lutherville Timonium","MD","Earth Treks Climbing Center","1930 Greenspring Dr","21093",39.43245213760357,-76.62951919755541
"21093","Lutherville Timonium","MD","A Better Weigh","not_available","21093",39.432735443115234,-76.60540008544922
"21093","Lutherville Timonium","MD","Pro Fit RX","15 W Aylesbury Rd","21093",39.43509292602539,-76.62743377685547
"21093","Lutherville Timonium","MD","Providence Fitness Club","1416 Providence Rd","21286",39.42329406738281,-76.56471252441406
"21093","Lutherville Timonium","MD","20 Lambourne Apartments: Fitness Center","20 Lambourne Rd","21204",39.406524658203125,-76.60408782958984
"21093","Lutherville Timonium","MD","F45 Training Timonium","1811 York Rd","21093",39.43192,-76.620511
"21093","Lutherville Timonium","MD","Gym @ Berkshire Apartments","204 E Joppa Rd","21286",39.40229034423828,-76.59803009033203
"21093","Lutherville Timonium","MD","Sztajer's Martial Arts","29 Greenmeadow Dr Ste 13","21093",39.444775,-76.624862
"21093","Lutherville Timonium","MD","Crossfit Towson","909 York Rd","21204",39.408346,-76.607287
"21104","Marriottsville","MD","Working It Out In Woodstock","not_available","21163",39.32804835947108,-76.87735302348219
"21108","Millersville","MD","Planet Fitness","8145 Ritchie Hwy","21122",39.12462430000001,-76.5855124
"21108","Millersville","MD","Old Line Crossfit","301 Najoles Rd Ste 201 & 202","21108",39.08818109904527,-76.62658076373228
"21108","Millersville","MD","Severna Park Raquetball & Fitness","8514 Veterans Hwy","21108",39.096903402548946,-76.6268652885222
"21108","Millersville","MD","Star Power Flyers","not_available","21108",39.08861504592071,-76.62513542596047
"21108","Millersville","MD","Comcast gym","Najoles RD","21108",39.09189979024052,-76.63017860831596
"21108","Millersville","MD","Flip - N - Shout","301 Najoles Rd","21108",39.088479,-76.626333
"21108","Millersville","MD","Pre Sale Office","8131 Ritchie Hwy","21108",39.12368909321294,-76.5870343458957
"21108","Millersville","MD","Feel Better Fitness","657 Old Mill Rd","21108",39.117,-76.631919
"21113","Odenton","MD","Riverscape Fitness Center","Riverscape 1","20701",39.06216494558003,-76.72443907334169
"21113","Odenton","MD","Fitness Center @ The Village","Duckens St","21113",39.08887517441149,-76.71009983940094
"21113","Odenton","MD","Gym at Piney Orchard Community Center","2400 Stream Valley Dr","21113",39.064420253034115,-76.72009426146762
"21113","Odenton","MD","CrossFit Fort Meade","8266 Lokus Road - Unit 101","20755",39.099464416503906,-76.69818115234375
"21113","Odenton","MD","gym @ LSO","Old Forge Ln, Severn, MD 21113","21113",39.09762866033711,-76.71485045391896
"21113","Odenton","MD","Crossfit Glen Burnie","8266 Lokus Rd Ste 101","21113",39.098806559974165,-76.6983957948037
"21117","Owings Mills","MD","JCC Owings Mills","3506 Gwynnbrook Ave","21117",39.44709682870441,-76.7729782919193
"21117","Owings Mills","MD","LA Fitness","10040 Reisterstown Rd","21117",39.41062096812929,-76.77178538385202
"21117","Owings Mills","MD","Fitness Center - Owings Run","4606 Cascade Mills Dr","21117",39.39708539548908,-76.80014132235347
"21117","Owings Mills","MD","Annen Woods Apartments","1 Harness Court","21208",39.38943975,-76.7311712
"21117","Owings Mills","MD","Lynne Brick's Owings Mills","9906 Reisterstown Rd","21117",39.4109048159397,-76.76945682770989
"21117","Owings Mills","MD","Gold's Gym","10221 S Dolfield Rd","21117",39.41315196493035,-76.77968640636989
"21117","Owings Mills","MD","Pure Barre","1809 Reisterstown Rd Ste 149","21208",39.38897981919626,-76.73605469733525
"21117","Owings Mills","MD","Fitness Together","1862A Reisterstown Rd","21208",39.39039611816406,-76.74102020263672
"21117","Owings Mills","MD","PJ's","not_available","21208",39.389485269396545,-76.78309353223482
"21117","Owings Mills","MD","CareFirst Fitness Center - Red Run","10802 Red Run Blvd","21117",39.418773,-76.799981
"21117","Owings Mills","MD","Lynne Brick's Brick Bodies","9950 Reisterstown Rd","21117",39.4104953,-76.7702159
"21117","Owings Mills","MD","Merritt Athletic Club","9710 Groffs Mill Dr","21117",39.40649869813866,-76.80959906455729
"21117","Owings Mills","MD","Orangetheory Fitness","9175 Reisterstown Rd","21117",39.39700698852539,-76.74738311767578
"21117","Owings Mills","MD","Lamont‚Äôs Fitness Studio","10999 Red Run Blvd #105","21117",39.4226524,-76.806189
"21117","Owings Mills","MD","Jesse Robinson","10210 S Dolfield Rd","21117",39.412074,-76.779485
"21117","Owings Mills","MD","Brick Bodies","2 Chartley Dr","21136",39.4566771,-76.82452099999999
"21117","Owings Mills","MD","Planet Fitness","not_available","21136",39.46804,-76.83097
"21117","Owings Mills","MD","Crazy 88 Mixed Martial Arts","11407 Cronhill Dr","21117",39.4211547,-76.8111613
"21117","Owings Mills","MD","Club Symmetry","11460 Cronhill Dr.","21117",39.4404075,-76.77661453333333
"21117","Owings Mills","MD","CareFirst Gym - Owings Mills 2","10453 Mill Run Cir","21117",39.405681,-76.794706
"21120","Parkton","MD","Hereford Weight Room","not_available","21111",39.63742652083782,-76.65858931403459
"21122","Pasadena","MD","The Y of Pasadena","26 Magothy Beach Rd","21122",39.120345559874586,-76.51848468847025
"21122","Pasadena","MD","Curves","474 Ritchie Hwy Ste C","21146",39.08279,-76.552003
"21122","Pasadena","MD","iLoveKickboxing - Severna Park, MD","348 Ritchie Hwy","21146",39.0872542,-76.55539879999999
"21122","Pasadena","MD","Snap Fitness","354 Mountain Rd","21122",39.13184356689453,-76.5582275390625
"21122","Pasadena","MD","Jazzercise Pasadena Fitness Center","8541 Ft. Smallwood Rd","21122",39.154487594135986,-76.51747470743624
"21122","Pasadena","MD","Baile Gym","3464-3478 Old Crown Dr","21122",39.12618304769361,-76.52499784631144
"21122","Pasadena","MD","Fitness Together- Timonium/Pikesville","485 Ritchie Hwy","21146",39.083673,-76.55042900000001
"21128","Perry Hall","MD","Southfield Apartments","4335 Bedrock Cir","21236",39.381135521901506,-76.47594419988322
"21128","Perry Hall","MD","Anytime Fitness","5002 Honeygo Ctr. Dr.","21128",39.40466,-76.4437
"21128","Perry Hall","MD","Holter's GYM","not_available","21162",39.40008449938662,-76.42304236463148
"21128","Perry Hall","MD","Perry Hall Family Center Y","4375 Ebenezer Rd #C","21236",39.39619781810038,-76.47542124663102
"21128","Perry Hall","MD","Radiator Springs Gym","not_available","21128",39.39200897677573,-76.47481298708013
"21128","Perry Hall","MD","Active Life & Sports","4337 Ebenezer Rd","21236",39.396836231561046,-76.47715315962272
"21131","Phoenix","MD","Anytime Fitness","3430 Sweet Air Rd","21131",39.51683,-76.55723
"21132","Pylesville","MD","Curves","717 Wheeler School Rd","21160",39.70112298454287,-76.36939513052975
"21133","Randallstown","MD","Debra Baker Fitness","8020 Pink Azalea Ct","21244",39.34907913208008,-76.78012084960938
"21133","Randallstown","MD","T. Rowe Price Fitness Center","4515 Painters Mill Rd","21117",39.39577928661008,-76.783950757057
"21133","Randallstown","MD","Youfit Health Clubs","8606 Liberty Rd","21133",39.36300377463583,-76.7781794071197
"21133","Randallstown","MD","Owings Park Gym","9202 Owings Park Dr","21117",39.393451,-76.790791
"21133","Randallstown","MD","Fitness Center at Riverstone Apts","4700 Painters Mill Rd","21117",39.400508,-76.78741
"21136","Reisterstown","MD","American Kenpo Karate Studio","220 Business Center Dr","21136",39.46599696898517,-76.82669372305342
"21136","Reisterstown","MD","Medifast Fitness & Wellness Center","11460 Cronridge Dr","21117",39.440565601490306,-76.77698873068145
"21136","Reisterstown","MD","Cloud 10 Transformations","3 Easter Ct Ste L","21117",39.4202432,-76.809349
"21136","Reisterstown","MD","Chizel-It","Owings Mills Town Center","21117",39.40715560564087,-76.79088033232755
"21157","Westminster","MD","Gold's Gym","400 N Center St","21157",39.58002342939503,-76.98265562792622
"21157","Westminster","MD","Planet Fitness","18 Englar Rd, 19","21157",39.58139647135146,-76.99002294641878
"21157","Westminster","MD","Living Fit Club","437 Manchester Rd","21157",39.58330393671014,-76.97939776532196
"21157","Westminster","MD","Dani K Gym & Wellness","332 140 Village Rd","21157",39.56358600128686,-76.9807635921613
"21157","Westminster","MD","Choe's HapKiDo Martial Arts Westminster","1030 Baltimore Blvd #170","21157",39.556026458740234,-76.95868682861328
"21157","Westminster","MD","W.F.C.","11 Longwell Ave","21157",39.57384600515677,-76.99276534052174
"21157","Westminster","MD","Curves","520 Jermor Ln","21157",39.565511,-76.978904
"21157","Westminster","MD","Muscle Mine","not_available","21157",39.577863,-76.992726
"21157","Westminster","MD","Living Fit","1030 Maryland 140","21157",39.5564689,-76.95980606666667
"21157","Westminster","MD","Anytime Fitness","410 Meadow Creek Dr","21158",39.58903839016433,-77.01101124286652
"21157","Westminster","MD","Planet Fitness","Route 140 and Englar Rd, Ste 19","21157",39.581444,-76.990008
"21162","White Marsh","MD","MyGym","not_available","21237",39.369409799214424,-76.4522839437744
"21162","White Marsh","MD","Freestate Sports Arena","5811 Allender Rd","21162",39.39891387401131,-76.40715650724968
"21201","Baltimore","MD","South Baltimore CrossFit","1100 Russell St","21230",39.27906522325771,-76.62454309270403
"21201","Baltimore","MD","Under Armour Performance Center","10 Light St","21202",39.28912636166403,-76.61397305246449
"21201","Baltimore","MD","MV Fitness - Baltimore Gyms","1016 N Charles St","21201",39.301636269300225,-76.61614905165456
"21201","Baltimore","MD","Twelve 09 Gym","1209 N Charles St","21201",39.304111,-76.615661
"21201","Baltimore","MD","Hilton Fitness Center","401 W Pratt St Fl 4","21201",39.28546173733562,-76.6209857023819
"21201","Baltimore","MD","The Beethoven","Park Ave","21217",39.30797938809548,-76.625969254437
"21201","Baltimore","MD","Fallon Fitness Center","31 Hopkins Plaza, Baltimore, MD 21201","21201",39.28810119628906,-76.61669921875
"21201","Baltimore","MD","gym @charles towers","225 N Liberty St","21201",39.292105819931685,-76.61664505427898
"21201","Baltimore","MD","Fitness Center at Camden Court Apartments","300 W Lombard St","21201",39.28788757324219,-76.61978912353516
"21201","Baltimore","MD","1217 Saint Paul St (Agora's Gym)","1217 St Paul St, Baltimore, MD 21202","21202",39.3071098010872,-76.6160526816798
"21201","Baltimore","MD","The Cecil Apartments Gym","not_available","21201",39.30266571044922,-76.62371063232422
"21201","Baltimore","MD","Campus Recreation & Wellness (CRW)","1420 N Charles St","21201",39.30597776711111,-76.61666067317086
"21201","Baltimore","MD","Le Gym","not_available","21202",39.295966903621704,-76.62046438110796
"21201","Baltimore","MD","The Greenhouse Apartments Workout Center","519 W Pratt St","21201",39.285642311366544,-76.62277385499527
"21201","Baltimore","MD","URecFit","621 W Lombard St","21201",39.286819183589486,-76.62445359998372
"21201","Baltimore","MD","Whirl-Wynn Fitness Center","36 S Charles St","21201",39.287965,-76.61547
"21201","Baltimore","MD","Hotel Monaco Gym","2 N Charles St","21201",39.28981399536133,-76.61560821533203
"21201","Baltimore","MD","Avalon Centerpoint Gym","8 N Howard St","21201",39.28977055759902,-76.61959011268777
"21201","Baltimore","MD","Sutton Place Apartments Fitness Center","1111 Park Ave","21201",39.305516,-76.62141
"21201","Baltimore","MD","Hilton Home2 Suites Fitness Center","8 E Pleasant St","21202",39.29376983642578,-76.61469268798828
"21201","Baltimore","MD","The Gym @ The Atrium Apartments","118 N Howard St Fl 2","21201",39.29106903076172,-76.61980438232422
"21201","Baltimore","MD","Gym @ Avalon","5 N Howard St, Baltimore, MD 21201","21201",39.28981399536133,-76.61918640136719
"21201","Baltimore","MD","Sheraton Core Performance Fitness Center","300 S Charles St Fl 3","21201",39.28472825238883,-76.61522335542203
"21201","Baltimore","MD","Hyatt Health Club","300 Light","21201",39.28499371522789,-76.61391921481551
"21202","Baltimore","MD","Merritt Downtown Athletic Club","210 E Centre St","21202",39.29692531365595,-76.61176419253259
"21202","Baltimore","MD","Maryland Athletic Club","655 President Street","21202",39.28341141619894,-76.60136912453686
"21202","Baltimore","MD","Four Season Fitness Room","100 International Dr","21202",39.28267357552087,-76.60227329285964
"21202","Baltimore","MD","Gym at the Standard","501 Saint Paul St","21202",39.29548645019531,-76.61347198486328
"21202","Baltimore","MD","The Munsey Workout Room","7 N Calvert St","21202",39.29014205932617,-76.61190795898438
"21202","Baltimore","MD","Horizon House Gym","1101 N Calvert St","21202",39.30278015136719,-76.61286163330078
"21202","Baltimore","MD","LifeBridge Fitness Center","100 E Pratt St","21202",39.28801597126059,-76.61296665805507
"21202","Baltimore","MD","414 Gym","414 Water St","21202",39.28876876831055,-76.60923767089844
"21202","Baltimore","MD","Alex Brown Gym","1 South St Ste 860","21202",39.289310455322266,-76.61079406738281
"21202","Baltimore","MD","Gym @ Spinnaker Bay Apartments","707 President St","21202",39.28274154663086,-76.60079193115234
"21202","Baltimore","MD","Carmelo Anthony Youth Development Center","1100 E Fayette St","21202",39.2919713825035,-76.60284885508784
"21202","Baltimore","MD","Private Gym","120 E Baltimore St, Baltimore, MD 21202","21202",39.28984832763672,-76.6131591796875
"21202","Baltimore","MD","Fitness 100","100 Light St","21202",39.28741389806848,-76.61371958777852
"21202","Baltimore","MD","gym At 1010 St Paul","1010 St Paul St, Baltimore, MD 21202","21202",39.30236919913331,-76.61472688542406
"21202","Baltimore","MD","Fitness Center at Residence Inn","17 Light St","21202",39.288665771484375,-76.61324310302734
"21202","Baltimore","MD","Pandion Performance Center","601 E Pratt St Ste 401","21202",39.2861442565918,-76.60720825195312
"21204","Towson","MD","Burdick Hall Fitness Center","York Rd","21252",39.39524700561536,-76.61238670349121
"21204","Towson","MD","S3 Training Center","1412 Shoemaker Rd","21209",39.383573999999996,-76.65969399999999
"21204","Towson","MD","Anytime Fitness","40 York Rd","21204",39.39588,-76.60336
"21204","Towson","MD","Coppermine Crossfit","not_available","21209",39.38594553581408,-76.66121821548468
"21204","Towson","MD","Sport Speed And Strength Training Center","1400 Coppermine Ter","21209",39.385833,-76.661201
"21204","Towson","MD","Rennisance Gym, The Quarters","900 Southerly Rd","21204",39.4083137512207,-76.60346984863281
"21204","Towson","MD","Underground Athletics: CrossFit Humble Beginnings","406 York Rd.","21204",39.399658203125,-76.60224151611328
"21204","Towson","MD","Palisades Gym","212 Washington Ave","21204",39.398244961653376,-76.60631570438514
"21205","Baltimore","MD","Fitness, Fun & Games @ HHA","501 N Streeper St","21205",39.29725,-76.577077
"21206","Baltimore","MD","Exile Fitness Mixed Martial Arts","8101 Pulaski Hwy","21237",39.31947920947643,-76.50958590489475
"21206","Baltimore","MD","Universal Fitness at The Overlea","6809 Belair Rd","21206",39.356361389160156,-76.5283203125
"21206","Baltimore","MD","kickboxing","not_available","21214",39.3499641418457,-76.56304168701172
"21206","Baltimore","MD","LT Fit Boot Camp","6425 Harford Rd","21214",39.361197,-76.55348199999999
"21206","Baltimore","MD","GYM @ 2204","2204 Gibbons Ave","21214",39.35543,-76.570943
"21206","Baltimore","MD","Silhouettes","6247 Kenwood Ave Ste B","21237",39.34206771850586,-76.50550079345703
"21207","Gwynn Oak","MD","The Rec","2120 Gwynn Oak Ave","21207",39.322841,-76.72597900000001
"21207","Gwynn Oak","MD","physique fitness","not_available","21215",39.348220759592984,-76.69286321140619
"21207","Gwynn Oak","MD","Planet Fitness","6512 Reisterstown Rd","21215",39.356676,-76.706137
"21207","Gwynn Oak","MD","Woodlawn High School","1801 Woodlawn Dr","21207",39.29843994429458,-76.73681365864836
"21207","Gwynn Oak","MD","MTA Police Training Facility","4701 Mount Hope Dr","21215",39.34698998,-76.70554385
"21207","Gwynn Oak","MD","Zion Fitness","6020 Marian Dr","21215",39.347413907712884,-76.7125617294788
"21207","Gwynn Oak","MD","SSA Fitness Center","6401 Security Blvd","21235",39.30950550986545,-76.7319095351796
"21207","Gwynn Oak","MD","Phil Mor Fit","1718 Belmont Ave Ste C","21244",39.315379,-76.746538
"21208","Pikesville","MD","ReSet Personal Training Studio","1328 Reisterstown Rd Ste D","21208",39.37565994262695,-76.7247314453125
"21208","Pikesville","MD","Rays Boot Camp","not_available","21207",39.352324256160564,-76.75397261183569
"21208","Pikesville","MD","Curves - Pikesville","1498 Reisterstown Rd","21208",39.37601867027128,-76.72658725233046
"21208","Pikesville","MD","The Gym @ St. Charles","Tentmill Lane","21208",39.36314369716411,-76.75117685903527
"21208","Pikesville","MD","Arenal Fitness","2638 Quarry Lake Dr","21209",39.38485754389654,-76.69025128818151
"21208","Pikesville","MD","Fitness Together- Timonium/Pikesville","1348 Reisterstown Rd","21208",39.375935999999996,-76.72532700000001
"21209","Baltimore","MD","Life Enhancement","1500 Serpentine Rd","21209",39.38264083862305,-76.6591567993164
"21209","Baltimore","MD","Bare Hills Racquet & Fitness Club","1420 Clarkview Rd","21209",39.38027,-76.65783
"21209","Baltimore","MD","Johns Hopkins MTW Fitness Center","5801 Smith Ave","21209",39.370120322532244,-76.65548209353565
"21209","Baltimore","MD","Cross Keys Tennis Club","4 Hamill Rd","21210",39.35275631714497,-76.64595344283423
"21209","Baltimore","MD","No Limit Fitness/Sports Performance","1421 Clarkview Rd Ste 124","21209",39.38059616088867,-76.65647888183594
"21210","Baltimore","MD","The Dr. William H. B. Howard Training Room @ The Gilman School","5407","21210",39.358723461000494,-76.6322135925293
"21210","Baltimore","MD","The Carlyle","500 W University Pkwy","21210",39.33708667486495,-76.62463126388695
"21210","Baltimore","MD","Pure Barre","711 W 40th St Ste 158","21211",39.3358297,-76.6303843
"21210","Baltimore","MD","Loyola F.A.C.","4628 North Charles St","21210",39.35260108578611,-76.62448103867943
"21210","Baltimore","MD","JHU Ralph S. O'Connor Recreation Center","3400 N Charles St","21218",39.33225368742074,-76.6211527636471
"21210","Baltimore","MD","Gilman Tim Holly Weight Room","not_available","21210",39.35835481038048,-76.6307370692541
"21210","Baltimore","MD","CorePower Yoga","727 West 40th Street","21211",39.335505228640564,-76.63048034314284
"21210","Baltimore","MD","Elkridge Country Club Fitness Center","Bellona Avenue","21210",39.378348512622495,-76.62769088894262
"21210","Baltimore","MD","BM Gym","109 W Melrose Ave","21210",39.3651237487793,-76.62957000732422
"21210","Baltimore","MD","Meadow Mill Athletic Club","3600 Clipper Mill Rd","21211",39.33034530517984,-76.64218016568444
"21212","Baltimore","MD","Utkatasana Yoga","5853 York Rd","21212",39.3632698059082,-76.60962677001953
"21212","Baltimore","MD","Parkway fitness","not_available","21212",39.368842162407304,-76.60166000396886
"21212","Baltimore","MD","Lynne Brick's","5911 York Rd Ste 300","21212",39.3638,-76.6086
"21212","Baltimore","MD","Dumbarton Gym","300 Dumbarton Rd","21212",39.380655,-76.611236
"21214","Baltimore","MD","RC Gym","1747 Waverly Way, Baltimore, MD 21239","21239",39.36677169799805,-76.58021545410156
"21215","Baltimore","MD","SP Fitness Circle","3610 Fairview Ave","21216",39.323364,-76.67894100000001
"21217","Baltimore","MD","Palace Fitness","Eutaw Place","21217",39.31070334343496,-76.63475340306171
"21218","Baltimore","MD","Charles Commons Gym","3301 N Charles St","21218",39.32848358154297,-76.61676025390625
"21218","Baltimore","MD","Sheritha's Bodies On Line","2539 Saint Paul St Lowr Level","21218",39.31901168823242,-76.61512756347656
"21219","Sparrows Point","MD","Bubba Gym","not_available","21219",39.231777,-76.456375
"21219","Sparrows Point","MD","SPHS WEIGHT ROOM","7400 N Point Rd","21219",39.239078521728516,-76.44104766845703
"21220","Middle River","MD","LA Fitness","8221 Town Center Dr","21236",39.37124140440908,-76.46062698786145
"21220","Middle River","MD","Living Fit Club","Carroll Island Road","21220",39.33628060438517,-76.4007073378006
"21220","Middle River","MD","Curves","8114 Sandpiper Circle, #110","21236",39.37126416434206,-76.47228488976447
"21220","Middle River","MD","Bowley's Quarters Fitness Club","118 Carroll Island Rd","21220",39.335784999999994,-76.399603
"21220","Middle River","MD","lockheed gym","not_available","21220",39.33184107935537,-76.43291473388672
"21220","Middle River","MD","Gym @ Comcast","8031 Corporate Dr, White Marsh, MD 21236","21236",39.36878967285156,-76.46717834472656
"21220","Middle River","MD","iFLY - Baltimore","8209 Town Center Dr","21236",39.369289,-76.464126
"21220","Middle River","MD","Rosedale Flc","9202 Philadelphia Rd","21237",39.35018539428711,-76.46985626220703
"21220","Middle River","MD","Be Fit Personal Trainers","5022 Campbell Blvd Ste H","21236",39.37427520751953,-76.45771789550781
"21221","Essex","MD","Spunk Fitness","8502 Kelso Dr.","21221",39.32994219163301,-76.48421459669441
"21221","Essex","MD","Arvin Boxing & Fitness Inc","122 Eastern Boulevard","21221",39.3048886,-76.4834204
"21221","Essex","MD","Planet Fitness","8821 Pulaski Hwy","21237",39.3375564,-76.4785247
"21222","Dundalk","MD","Planet Fitness","1401B Merritt Blvd","21222",39.277531,-76.5033122
"21222","Dundalk","MD","Gold's Gym","1131 Merritt Blvd","21222",39.282153491216995,-76.50484244658584
"21222","Dundalk","MD","Patapsco High School Gym","7800 Wise Ave","21222",39.26884841918945,-76.49897003173828
"21222","Dundalk","MD","Action Therapy","40 S Dundalk Ave","21222",39.2568393,-76.52409559
"21222","Dundalk","MD","Urban Evolution Baltimore","6801 Eastern Ave #221","21224",39.28706884492834,-76.53028990957633
"21223","Baltimore","MD","T48 fitness","1200 W Baltimore St Ste 206","21223",39.28892135620117,-76.63697814941406
"21223","Baltimore","MD","XLHealth Montgomery Park","1800 Washington Blvd","21230",39.27599820062951,-76.64493480434045
"21223","Baltimore","MD","Montgomery Park Health Club (MPHC)","not_available","21223",39.29042768558484,-76.65331037796373
"21223","Baltimore","MD","Youfit Health Clubs","1201 W Pratt St #29A","21223",39.28489452100924,-76.63556098937994
"21224","Baltimore","MD","Merritt Athletic Club","3401 Boston St","21224",39.27651174098594,-76.56788031295875
"21224","Baltimore","MD","LA Fitness","5711 FLEET ST","21224",39.286376,-76.546826
"21224","Baltimore","MD","Crunch Fitness - Canton","3991 Boston Street","21224",39.27582728,-76.56213434
"21224","Baltimore","MD","REV Brewers Hill","not_available","21224",39.27849455365672,-76.56507252524676
"21224","Baltimore","MD","INLINE Private Training","2318 Boston St","21224",39.28293887305162,-76.5840546253446
"21224","Baltimore","MD","Charm City Fitness","3039 Eastern Ave","21224",39.28634408393701,-76.5731489909357
"21224","Baltimore","MD","CorePower Yoga","3700 Toone Street, Suite D","21224",39.2787022,-76.564987
"21224","Baltimore","MD","Dom's Gym","606 S East Ave","21224",39.284988,-76.571641
"21224","Baltimore","MD","Charm City Iron Works","not_available","21231",39.28592091091359,-76.58604175285389
"21224","Baltimore","MD","Hanover Brewers Hill Gym","3700 Toone St","21224",39.278737878680694,-76.5656098999694
"21224","Baltimore","MD","Allure Allstars","7910 E Baltimore St","21224",39.299607,-76.514628
"21224","Baltimore","MD","Fit2Go Personal Training","101 N Haven St Ste 301","21224",39.29428482055664,-76.5624771118164
"21224","Baltimore","MD","CareFirst Gym","1501 S Clinton St","21224",39.275425,-76.568771
"21224","Baltimore","MD","Du Burns Crossift","3100 Boston At","21224",39.2781065690753,-76.57210226429127
"21224","Baltimore","MD","Pure Barre","2400 Boston St Ste 104","21224",39.2820907993905,-76.58247720122336
"21225","Brooklyn","MD","Harbor Fitness - Harbor Hospital Center","3001 S Hanover St","21225",39.25340831638185,-76.61575555801392
"21227","Halethorpe","MD","LA Fitness","3551 Washington Blvd","21227",39.25134422954821,-76.66737821417233
"21227","Halethorpe","MD","Catonsville Family Center Y","850 S Rolling Rd","21228",39.252819861115725,-76.72780267073689
"21227","Halethorpe","MD","Prem1er Combat Academy","3701 Commerce Dr Ste 109","21227",39.25088745761019,-76.67242019073791
"21227","Halethorpe","MD","Gold's Gym XR37","not_available","21227",39.23609819647114,-76.68456344152017
"21227","Halethorpe","MD","Crossfit Catonsville","3916 Vero Rd Ste F","21227",39.26044845581055,-76.67759704589844
"21228","Catonsville","MD","Academies of Fencing in Baltimore","1030 Leslie Ave","21228",39.28646216532895,-76.75119671296693
"21228","Catonsville","MD","Daddy's Gym","not_available","21228",39.27559398077868,-76.73328859106655
"21228","Catonsville","MD","the workout","Coventry Rd","21229",39.27879162667078,-76.70045206189181
"21228","Catonsville","MD","Twister's Gym","Glenn Bernie","21229",39.28950072105903,-76.72275928566495
"21228","Catonsville","MD","DTM-Fitness","5621 Old Frederick Rd","21228",39.28832,-76.725385
"21230","Baltimore","MD","Merritt Athletic Club","921 E Fort Ave","21230",39.27058532483936,-76.60124062444066
"21230","Baltimore","MD","Harborview Fitness Center","100 Harborview Dr","21230",39.27775538839702,-76.60438025089556
"21230","Baltimore","MD","CorePower Yoga","1321 Dock St","21231",39.2813814,-76.59805949999999
"21230","Baltimore","MD","Knockout Fitness","1108 Light St","21230",39.27654240363097,-76.61238339963322
"21230","Baltimore","MD","Boxing Charlie's","1924 Fleet St","21231",39.284813908504006,-76.58910528714068
"21230","Baltimore","MD","Life F/X @ Silo Point","1200 Steuart St","21230",39.26982879638672,-76.58887481689453
"21230","Baltimore","MD","Federal Hill Fitness - Baltimore Gyms","39 E Cross St","21230",39.27663384362049,-76.61294342524673
"21230","Baltimore","MD","Baltimore Boxing Club","506 1/2 S Broadway","21231",39.28530502319336,-76.59387969970703
"21230","Baltimore","MD","Chalean's Gym","Heath st","not_available",39.270628,-76.616508
"21230","Baltimore","MD","Henderson's Wharf Gym & Fitness","1000 Fell St","21231",39.280025,-76.58948199999999
"21230","Baltimore","MD","CorePower Yoga","1420 Key Hwy, Suite #201","21230",39.2726842,-76.6010822
"21230","Baltimore","MD","Under Armour Performance Center","1020 Hull St","21230",39.275070856319154,-76.59127947175612
"21230","Baltimore","MD","1211 Dungeon Gym","1211 Light St","21230",39.275577545166016,-76.61172485351562
"21230","Baltimore","MD","Orangetheory Fitness","1415 Aliceanna St","21231",39.283310399507236,-76.59741914720738
"21230","Baltimore","MD","Under Armour Combine Training Center","1010 Hull St","21230",39.27503653298172,-76.59082500009133
"21231","Baltimore","MD","FiveX3 Training","1400 Aliceanna St","21231",39.28344283869924,-76.5982357173811
"21231","Baltimore","MD","Eden Fitness Center","777 S Eden St","21231",39.28330407769812,-76.59804793782075
"21231","Baltimore","MD","Crossfit Harbor East","510 S Eden St","21231",39.28478366998766,-76.59852285084766
"21234","Parkville","MD","Merritt Athletic Club","8757 Mylander Ln","21286",39.39714320884115,-76.57165062609066
"21234","Parkville","MD","Planet Fitness","6859 Loch Raven Blvd","21286",39.3841906,-76.5773924
"21234","Parkville","MD","Fox Hall Community Gym","not_available","21236",39.383101903348326,-76.50921161955259
"21234","Parkville","MD","Empowered Fitness","8019 Belair Road","21236",39.3748893737793,-76.50580596923828
"21234","Parkville","MD","Hamilton Gym","6101 Old Harford Rd","21214",39.393025716470916,-76.54037291895042
"21234","Parkville","MD","pine grove middle school gym","not_available","21234",39.4063606262207,-76.52787017822266
"21234","Parkville","MD","Gym - White Springs Apts","White Springs Apts","21236",39.375634198041496,-76.5151411174229
"21234","Parkville","MD","Curves","2160 E Joppa Rd #101","21234",39.39836883544922,-76.54023742675781
"21234","Parkville","MD","Fitness 19","7617 Harford Rd","21234",39.37187024240269,-76.54292899997104
"21234","Parkville","MD","Living Proof Weight Loss","8304 Harford Rd","21234",39.379297,-76.53857
"21234","Parkville","MD","Dunfield Fitness Center","74 Insley Way","21236",39.38310159328615,-76.5091361090077
"21234","Parkville","MD","Xpose Fitness","1700 Joan Ave","21234",39.393188166655754,-76.56331280065174
"21234","Parkville","MD","Fitness Together - Perry Hall","8806 Belair Rd","21236",39.39393997192383,-76.48625946044922
"21239","Baltimore","MD","Youfit Health Clubs","1700 E Northern Pkwy","21239",39.3671636,-76.5827214
"21239","Baltimore","MD","Morgan View Gym","not_available","21239",39.3474547478725,-76.58994262594166
"21239","Baltimore","MD","Gym","7001 Loch Raven Blvd","21239",39.36847533275822,-76.58302779778805
"21244","Windsor Mill","MD","Merritt Athletic Club","2076 Lord Baltimore Dr","21244",39.3156034959566,-76.75304838504849
"21286","Towson","MD","Fit Body By Sasha","109 Burke Ave","21286",39.39461135864258,-76.598388671875
"21286","Towson","MD","back to basics gym","8641 Loch Raven Boulvard","21286",39.40173034196455,-76.59599304199219
"21286","Towson","MD","Curves","1710 Dulaney Valley Rd","21093",39.430057525634766,-76.59799194335938
"21286","Towson","MD","Courthouse Square Gym","Acorn Cir","21286",39.3946002970739,-76.58526420593262
"21401","Annapolis","MD","Holiday Inn Express and Suites Fitness Center","2451 Riva Rd","21401",38.982843,-76.540865
"21401","Annapolis","MD","CrossFit Old Bay","1981 Moreland Pkwy (Bldg. 4B, Bay 3)","21401",38.98234939575195,-76.52696228027344
"21401","Annapolis","MD","Harbour Gates Gym","2001 Harbour Gates Dr","21401",38.995231156694175,-76.53042924820633
"21401","Annapolis","MD","Excellence In Fitness","53 Old Solomons Island Rd Ste A","21401",38.978674,-76.535889
"21401","Annapolis","MD","7th Wing Gym","not_available","21402",38.982218916130606,-76.48138907505398
"21402","Annapolis","MD","Brigade Sports Complex","64 Greenbury Point Rd","21402",38.993710549900094,-76.45918562546738
"21403","Annapolis","MD","Annapolis Roads Gym","1100 Edgewood Road","21403",38.95289336654024,-76.47816427837353
"21403","Annapolis","MD","Fitness Together","111 Chinquapin Round Rd, Ste 201","21401",38.97879947453909,-76.5235137318945
"21403","Annapolis","MD","Gym @ The Point","1901 West St","21401",38.97905731201172,-76.52472686767578
"21403","Annapolis","MD","Port Annapolis Gym","not_available","21403",38.96316141702822,-76.47869516108751
"21502","Cumberland","MD","Planet Fitness","1050 W Industrial Blvd","21502",39.63135864447832,-78.75046871719667
"21502","Cumberland","MD","Miller's Ironhouse Gym","218 Williams St","21502",39.648311614990234,-78.75680541992188
"21502","Cumberland","MD","Energy Health & Fitness","7 Lane Ave","21502",39.662039712244706,-78.80498078966238
"21502","Cumberland","MD","WMHS Gym","not_available","21502",39.624473571777344,-78.73871612548828
"21502","Cumberland","MD","Physical Education Building","12401 Willowbrook Rd","21502",39.652895521389695,-78.7282768882826
"21502","Cumberland","MD","Resolutions","Cumberland, MD","21502",39.65523164425745,-78.75867076541827
"21532","Frostburg","MD","Dynamic Fitness","11050 New Georges Creek Rd SW","21532",39.642578125,-78.91018676757812
"21550","Oakland","MD","Wildwood Athletic Club","not_available","21550",39.41403509757861,-79.4131348160223
"21601","Easton","MD","YMCA of Talbot County","202 Peach Blossom Ln","21601",38.761876405426236,-76.07587103448815
"21601","Easton","MD","New Preston Gym Training Center","3702 Payne Rd","21655",38.70966778866161,-75.90106910547371
"21601","Easton","MD","BodyWatts","108 Marlboro Ave","21601",38.77964782714844,-76.07889556884766
"21601","Easton","MD","Commitment Fitness","101 Marlboro Ave #37","21601",38.78096643428241,-76.07804174166851
"21601","Easton","MD","Gym Lockers","101 Marlboro Ave","21601",38.78119111061096,-76.07798874378204
"21601","Easton","MD","CrossFit Nation","411 Needwood Ave","21601",38.76866912841797,-76.06927490234375
"21601","Easton","MD","Meatopia","not_available","21601",38.75062179597004,-76.05293934521275
"21601","Easton","MD","Preston Gym","215 Railroad Ave","21655",38.709043,-75.909576
"21601","Easton","MD","Preston Gym","147 Main St","21655",38.714343,-75.90951899999999
"21601","Easton","MD","Mark's Fitness Studio, Inc.","Talbottown Shopping Center","21601",38.77776,-76.07513
"21613","Cambridge","MD","Powerhouse Gym","Rt 50","21613",38.56216512475123,-76.06372806796229
"21613","Cambridge","MD","Ymca","Talbot ave","21613",38.57954007323513,-76.08369646726457
"21613","Cambridge","MD","Training room station 1","8 Washington St","21613",38.55906677246094,-76.06465148925781
"21617","Centreville","MD","Ted Rock Sports Performance/Holloway Formula","625 Railroad Ave","21617",39.039716,-76.055878
"21619","Chester","MD","Island Athletic Club","448 Kent Narrow Way N","21638",38.97378713149536,-76.24426901915537
"21619","Chester","MD","Club One","210 Country Day Rd","21619",38.97422181014414,-76.27166071073576
"21619","Chester","MD","Temple Fitness","155 Salutation Drive","not_available",38.967513,-76.292946
"21620","Chestertown","MD","Cardiac Rehab Gym","not_available","21620",39.217673,-76.065332
"21620","Chestertown","MD","Aqua Center","818 High St","21620",39.216153018328946,-76.07522633196575
"21629","Denton","MD","Denton Gym","1101 Industrial Park Way","21629",38.87097930908203,-75.82378387451172
"21635","Galena","MD","Merves","169 suck street","21635",39.3413356,-75.87849328
"21666","Stevensville","MD","Fitness RX","Sallitt Drive","21666",38.985176,-76.31590600000001
"21668","Sudlersville","MD","Sms Gym","not_available","21668",39.18236,-75.852164
"21701","Frederick","MD","Onelife Fitness - South Frederick","5728 Buckeystown Pike","21704",39.3929951,-77.4118264
"21701","Frederick","MD","Onelife Fitness - North Frederick","2500 Osprey Way","21701",39.44819446652521,-77.3944730965377
"21701","Frederick","MD","Orangetheory Fitness","7820 Wormans Mill Rd","21701",39.445718,-77.396753
"21701","Frederick","MD","DOWNTOWN Y","1000 N Market St","21701",39.4279886030136,-77.40666374390706
"21701","Frederick","MD","Little Gym of Frederick","5805 Buckeystown Pike","21704",39.393741607666016,-77.40853118896484
"21701","Frederick","MD","SoldierFit","Liberty rd","not_available",39.44184407610919,-77.40062275213589
"21701","Frederick","MD","William Talley Recreation Center (Armory)","121 N Bentz St","21701",39.41676144608661,-77.41448609072549
"21701","Frederick","MD","Ft. Detrick Racquetball Courts","47424 Keane Rd.","21702",39.43552906483839,-77.42939405490674
"21701","Frederick","MD","Odom Fitness Center","1507 Porter St., Bldg. 1507","21702",39.437677721137256,-77.42142342460298
"21701","Frederick","MD","CrossFit SRT","1341 Hughes Ford Rd Ste 110","21701",39.416431177549875,-77.38250720546115
"21701","Frederick","MD","FMH Employee Gym","400 W 7th St","21701",39.42325210571289,-77.41459655761719
"21701","Frederick","MD","Flips","82 Wormans Mill Ct Ste E","21701",39.44388016161636,-77.39968193648374
"21701","Frederick","MD","368 Performance Training Center - Frederick","1845 Brookfield Ct","21701",39.441834754716595,-77.40067943762834
"21701","Frederick","MD","WC Gym","not_available","21701",39.41313768781533,-77.42577948621867
"21701","Frederick","MD","East Coast Nitros Cheer Gym","1501 Tilco Dr Unit B","21704",39.40155193640912,-77.38698719604598
"21701","Frederick","MD","Anytime Fitness","6077 Spring Rdg. Pkwy.","21701",39.39846,-77.34555
"21701","Frederick","MD","Curves","9211 Baltimore Rd","21704",39.395472,-77.34394300000001
"21702","Frederick","MD","Gold's Gym","1051 W Patrick St # B","21702",39.4195371,-77.446145
"21702","Frederick","MD","Anytime Fitness","2405 Whittier Dr","21702",39.455067,-77.44844300000001
"21702","Frederick","MD","iLoveKickboxing - Frederick","1170 W Patrick St","21703",39.41759657688196,-77.44977655952454
"21702","Frederick","MD","Hank's Gym","Jefferson Blvd.","21714",39.447506,-77.506058
"21703","Frederick","MD","Kingscrest Fitness Center","6955 Castle Ct","21703",39.378041512942204,-77.42706780383389
"21703","Frederick","MD","Gym at the Loft","not_available","21703",39.40891653384007,-77.44481445657016
"21703","Frederick","MD","GymTech Solutions","5722 Jefferson Pike","21703",39.391277,-77.46753199999999
"21703","Frederick","MD","Crossfit Frederick","5172-5198 Pegasus Ct","21704",39.37083801,-77.40513496666667
"21703","Frederick","MD","Gym @ The Reserve","Ballenger Creek","21703",39.39587343047411,-77.44015863302904
"21703","Frederick","MD","All Star Fusion","4821 Winchester Blvd #103","21703",39.34531428474342,-77.5045490925269
"21703","Frederick","MD","Gold's Gym","5245 Westview Drive","21703",39.3803916,-77.411349
"21703","Frederick","MD","Excellence Gym Sports","4821 Winchester Blvd #108","21703",39.344967,-77.504313
"21703","Frederick","MD","Crossfit Intel","4012 Ballenger Center Dr.","21703",39.36050125391704,-77.43045878994731
"21703","Frederick","MD","Anytime Fitness","5850 Ballenger Crk Pike","21703",39.39383,-77.43952
"21703","Frederick","MD","MAD Fitness","7450 New Technology Way Ste C","21703",39.3764857,-77.4001128
"21703","Frederick","MD","Pure Barre","5239 Buckeystown Pike","21704",39.37443923950195,-77.41033172607422
"21703","Frederick","MD","The Quiddich Pitch Gym","Marsden Place","21703",39.36877120145133,-77.4396767421603
"21704","Frederick","MD","In Fitness","3280 Urbana Pike Ste 102","21754",39.32142175863256,-77.33966324930914
"21704","Frederick","MD","Centerville Rec Center","3601 Carriage Hill Dr","21704",39.33536911010742,-77.33409881591797
"21704","Frederick","MD","Tony's Personal Training","3636 Urbana Pike","21704",39.33557536179314,-77.36694574356079
"21704","Frederick","MD","Dynamic Fitness","8927 Fingerboard Rd Ste B","21704",39.32399,-77.348096
"21722","Clear Spring","MD","4 Star Gym","30 Milestone Ter","21795",39.605838775634766,-77.80953979492188
"21722","Clear Spring","MD","Zumba","not_available","21795",39.602608,-77.811294
"21737","Glenelg","MD","American Fitness","3883-3915 10 Oaks Rd","21737",39.26599651588866,-76.98621426158597
"21740","Hagerstown","MD","Onelife Fitness - Hagerstown Valley Mall","17301 Valley Mall Rd","21740",39.62464980000001,-77.76787039999999
"21740","Hagerstown","MD","YMCA","1100 Eastern Blvd N","21742",39.65997921111793,-77.69151941227553
"21740","Hagerstown","MD","Community Center Gym","Perigee","21740",39.658162310282506,-77.75943767343819
"21740","Hagerstown","MD","Rosewood Fitness Center & Pool","11205 John F Kennedy Dr","21742",39.62540054321289,-77.67558288574219
"21740","Hagerstown","MD","Onelife Fitness - Hagerstown North","562 Northern Ave","21742",39.6657149,-77.7089009
"21740","Hagerstown","MD","Courtyard Hagerstown","not_available","21740",39.6380731,-77.7639104
"21740","Hagerstown","MD","Anytime Fitness","19405 Emerald Sq","21742",39.67292446124191,-77.69750654697418
"21740","Hagerstown","MD","Woodbridge Fitness Center","11520 Selema Dr","21742",39.62869644165039,-77.66166687011719
"21740","Hagerstown","MD","Planet Fitness","1121 Maryland Ave","21740",39.6225221,-77.7355916
"21740","Hagerstown","MD","Studio 6 Health Club","12814 Shank Farm Way","21742",39.652297713006675,-77.71190783493974
"21740","Hagerstown","MD","Hagerstown Sports Club & Fitness","20321 The Gdns","21742",39.62406620825181,-77.67719121135428
"21740","Hagerstown","MD","Ruff Fitness","13204 Fountain Head Plz","21742",39.67586898803711,-77.72083282470703
"21740","Hagerstown","MD","FHCC Fitness Center","13316 Fountain Head Rd","21742",39.67690658569336,-77.71405792236328
"21740","Hagerstown","MD","Shape Up Shop","not_available","21742",39.66517472555792,-77.7105415359866
"21740","Hagerstown","MD","Curves","73 Eastern Blvd N","21740",39.634300231933594,-77.69966125488281
"21740","Hagerstown","MD","South Pointe Fitness","118 E Oak Ridge Dr","21740",39.6126405,-77.7268246
"21740","Hagerstown","MD","Fitness Revolution Hagerstown","934 Sweeney Drive, 7A","21740",39.63203054214381,-77.74106432786617
"21754","Ijamsville","MD","Jazzercise","11791 Fingerboard Rd","21770",39.343199,-77.254329
"21754","Ijamsville","MD","Green Valley YMCA","3939 Rosewood Rd","21770",39.343429954105474,-77.25427303520857
"21755","Jefferson","MD","Anytime Fitness","18 Town Sq","20180",39.27542917411935,-77.63946622610092
"21769","Middletown","MD","Valley Fitness","not_available","21769",39.444998999999996,-77.544285
"21771","Mount Airy","MD","Crossfit Train For Life","2902 Back Acre Cir","21771",39.36788558959961,-77.13717651367188
"21771","Mount Airy","MD","Curves","1401 S Main St","21771",39.366153717041016,-77.16478729248047
"21771","Mount Airy","MD","Snap Fitness","1311 S Main St","21771",39.36671706285068,-77.16460093320296
"21771","Mount Airy","MD","Just A Gym","710 Lisbon Center Dr # M","21797",39.349159240722656,-77.06710052490234
"21784","Sykesville","MD","TZ Sport","6440-6472 Ridge Rd","21784",39.396317433487674,-76.93242843633591
"21784","Sykesville","MD","Triangle Fitness","1430 Progress Way #109","21784",39.41273693233508,-76.94486682858148
"21784","Sykesville","MD","Golds Gym","1332 Londontown Blvd","21784",39.40809448702753,-76.94528149484445
"21784","Sykesville","MD","momentum personal training","Enterprise Street","not_available",39.427914210688854,-76.99584374322903
"21784","Sykesville","MD","iLoveKickboxing - Eldersburg, MD","1209 Liberty RD, Building 3 Units 112&113","21784",39.40324634819942,-76.95386806931151
"21784","Sykesville","MD","Merritt Athletic Club","1388 Progress Way","21784",39.41471209801326,-76.94621340303537
"21784","Sykesville","MD","Blackbird CrossFit","5320 Enterprise St","21784",39.42863845825195,-76.99748992919922
"21787","Taneytown","MD","Anytime Fitness","520 E Baltimore St","21787",39.64813,-77.15811
"21787","Taneytown","MD","TSC Gym","not_available","21787",39.65784334875245,-77.17128408002507
"21787","Taneytown","MD","120 E. Baltimore St. Gym","120 East Baltimore St.","not_available",39.65703582763672,-77.1752700805664
"21788","Thurmont","MD","Anytime Fitness","130 Frederick Rd.","21788",39.61622,-77.41685
"21801","Salisbury","MD","main st Gym","Northwood Dr","21801",38.385725,-75.58676
"21801","Salisbury","MD","World Gym","800 S Salisbury Blvd","21801",38.35476542837701,-75.60154112891468
"21801","Salisbury","MD","Mid Shore Family YMCA","715 S Schumaker Dr","21804",38.35643768310547,-75.58089447021484
"21801","Salisbury","MD","Mitchells Fitness","103 Williamsport Cir","21804",38.350429999999996,-75.5987
"21801","Salisbury","MD","Planet Fitness","125 W College Ave","21804",38.3495755,-75.5994296
"21801","Salisbury","MD","Mixed Martial Fitness","1147 Mulberry Pl","33414",38.36775306844319,-75.57338352392577
"21801","Salisbury","MD","Swift Fitness Training","not_available","21801",38.354687,-75.638924
"21801","Salisbury","MD","Pole Power","927 Mount Hermon Rd","21804",38.368491,-75.578374
"21801","Salisbury","MD","Crossfit Salisbury","Shipley Drive","21801",38.3957984220526,-75.5854018751017
"21801","Salisbury","MD","Greens Gym","700 College Ln","21804",38.35177230834961,-75.57826232910156
"21801","Salisbury","MD","Crossfit Salisbury","2020 Shipley Dr","21801",38.39631652832031,-75.58554077148438
"21804","Salisbury","MD","Anytime Fitness","4804 Nutters Cross Rd","21804",38.324318,-75.55805500000001
"21804","Salisbury","MD","Pond Pump Gym","8460 Teal Cir","21875",38.42410659790039,-75.55952453613281
"21804","Salisbury","MD","Zumba","not_available","21804",38.374781030976536,-75.53870425354054
"21804","Salisbury","MD","Marvel Fitness","321 Tilghman Rd","21804",38.36492919921875,-75.54595184326172
"21804","Salisbury","MD","Pond's Edge Gym","not_available","21875",38.430980749553456,-75.55638131216591
"21811","Berlin","MD","Powerhouse Gym","9936 Stephen Decatur Hwy","21842",38.33626728917926,-75.11184956091265
"21811","Berlin","MD","Atlantic Health & Fitness","11070 Cathell Rd","21811",38.37767791748047,-75.1694107055664
"21811","Berlin","MD","Live Long Fitness","not_available","21842",38.33324010226273,-75.11426795379626
"21811","Berlin","MD","WOC Fitness","12318-201 Ocean Gateway","21842",38.3402452701966,-75.12605138636115
"21811","Berlin","MD","Gym","12319-201 Ocean Gtwy","21842",38.340056,-75.126337
"21811","Berlin","MD","Card's Gym","not_available","21811",38.37746538800297,-75.15910690354498
"21811","Berlin","MD","Glenn Riddle Gym","Maid At Arms Lane","21811",38.34147941650365,-75.152987621252
"21811","Berlin","MD","Pole Power Studio","12417 Ocean Gateway #22","not_available",38.34031048097259,-75.12638399248858
"21842","Ocean City","MD","Gold Coast Gym","11545 Coastal Hwy","21842",38.420527924289956,-75.05832191640837
"21851","Pocomoke City","MD","Pocomoke High School Gym","1817 Old Virginia Rd","21851",38.059008371801994,-75.55324860673518
"21851","Pocomoke City","MD","YMCA","Worcester hwy","not_available",38.0809440612793,-75.53813171386719
"21853","Princess Anne","MD","New You Gym","not_available","21851",38.17870866164178,-75.69044515921732
"21875","Delmar","MD","Anytime Fitness","38627 Benro Dr","19940",38.45725,-75.55604
"21901","North East","MD","Body Force Fitness","2562 Pulaski Hwy","21901",39.60649,-75.950774
"21904","Port Deposit","MD","WnaGym","1079 Firetower Rd","21917",39.669852,-76.07718
"21911","Rising Sun","MD","NLX FITNESS","50 Rising Sun Town Ctr","21911",39.697608947753906,-76.0548095703125
"21921","Elkton","MD","YMCA Of Cecil County","25 Ymca Blvd","21921",39.608948113965084,-75.85197156254132
"21921","Elkton","MD","Jazzercise","750 Otts Chapel Rd","19713",39.651912689208984,-75.78216552734375
"21921","Elkton","MD","Stone Gate Apartments Gym","not_available","19711",39.651716875723565,-75.78931548790264
