"zip","city","state","name","address","postalCode","lat","lon"
"73003","Edmond","OK","Anytime Fitness","1333 N Santa Fe Ave Stes 119-120","73003",35.66875,-97.51476
"73003","Edmond","OK","Mitch Park YMCA","ADDRES2901 Marilyn Williams Dr.","73003",35.68465297000648,-97.50829893264134
"73003","Edmond","OK","Planet Fitness","2209 W Edmond Rd","73003",35.654166038318195,-97.51318786331207
"73003","Edmond","OK","Gym","not_available","73003",35.683605219250026,-97.48582143624094
"73003","Edmond","OK","Evolution Personal Training And Bootcamp","640 W Edmond Rd","73003",35.65251159667969,-97.4928207397461
"73003","Edmond","OK","Tan & Tone America","2117 W Edmond Rd","73003",35.653141021728516,-97.51162719726562
"73003","Edmond","OK","Green Strength","not_available","not_available",35.64044905847154,-97.48685736312564
"73003","Edmond","OK","Fitness Xpress 24/7","not_available","73034",35.65283659044784,-97.47955344277855
"73003","Edmond","OK","Gold's Gym","2121 West Danforth Road","73003",35.66935,-97.510645
"73003","Edmond","OK","YMCA","261 S Santa Fe Ave","73003",35.65353025336979,-97.51512050628662
"73003","Edmond","OK","Pure Barre","1380 W Covell Rd Ste 108","73003",35.6810175,-97.5019515
"73004","Amber","OK","ampo basketball court","not_available","73004",35.15956783915,-97.87487316607515
"73004","Amber","OK","Tread","not_available","73018",35.083968,-97.934541
"73004","Amber","OK","The Kennedy's Basketball Court","not_available","73089",35.181697845458984,-97.81216430664062
"73005","Anadarko","OK","Lions Gym","not_available","73006",34.940548,-98.357849
"73008","Bethany","OK","Edens Eliptical Exercise","not_available","73008",35.49437,-97.629543
"73008","Bethany","OK","Anytime Fitness","7140 NW 23rd St","73008",35.4928,-97.6386
"73008","Bethany","OK","Mat Trotters","NW 63rd st","73122",35.53701757732932,-97.62511830173108
"73008","Bethany","OK","Tru You Fitness & Nutrition","5001-5099 N Rockwell Ave","73008",35.522046,-97.63651728630066
"73008","Bethany","OK","Broadhurst Gymnasium","NW 39th Expressway","73008",35.51137792118789,-97.62588092040764
"73008","Bethany","OK","Goodway Fitness","7823 NW 23rd St","73008",35.493764602100455,-97.65211135550983
"73008","Bethany","OK","YMCA","3400 N Mueller Ave","73008",35.50489736336774,-97.63187094453855
"73008","Bethany","OK","Snap Fitness","4415 N MacArthur Blvd","73122",35.51699646259961,-97.61927183563957
"73008","Bethany","OK","FIIT Fitness Studio","7307 North Macarthur Boulevard #300","73132",35.5482177734375,-97.61946105957031
"73010","Blanchard","OK","Pride Fitness Center","110 N. Main","73010",35.13738994494023,-97.65815156169728
"73010","Blanchard","OK","Blanchard Fitness","not_available","73010",35.13799588070905,-97.65890394418183
"73010","Blanchard","OK","The Body Shop Fitness Center","not_available","73065",35.255901,-97.598845
"73012","Edmond","OK","Rose Creek Insanity Club House","not_available","73013",35.64136529726085,-97.57117906308373
"73012","Edmond","OK","fitness together","16616 N Western Ave","73012",35.63958,-97.531024
"73012","Edmond","OK","Valencia Muscle Beach","not_available","73012",35.663331,-97.563372
"73012","Edmond","OK","Next Level Fitness","16622 N Penn","not_available",35.64103607643906,-97.54851614849198
"73012","Edmond","OK","Live Pure Fitness & Nutrition","21477 N Western Ave","73012",35.68983840942383,-97.5333023071289
"73013","Edmond","OK","YMCA","12100 N Rockwell Ave","73162",35.59270997994522,-97.63734260930235
"73013","Edmond","OK","Planet Fitness Quail Plaza","Hafner","73120",35.580565,-97.565943
"73013","Edmond","OK","Gold's Gym","2301 West Memorial Road","73134",35.6112611,-97.5538883
"73013","Edmond","OK","Anytime Fitness","58 E 15th St","73013",35.637758221831184,-97.48094379901885
"73013","Edmond","OK","Life Time Fitness","2563 W Memorial Rd","73134",35.61399891497031,-97.56045641329561
"73013","Edmond","OK","Anytime Fitness","2820 NW 122nd Street","73120",35.59429,-97.56503
"73013","Edmond","OK","The Park Gym","4201 W Memorial Rd","73134",35.611821,-97.596417
"73013","Edmond","OK","Lighthouse Sport, Fitness and Health","3333 W Hefner Rd","73120",35.58139709010245,-97.57802535226857
"73013","Edmond","OK","Endurance Training Systems","14416 N Lincoln Blvd","73013",35.61651,-97.502907
"73013","Edmond","OK","Edge Sports Performance","418 Enterprise Dr","73013",35.63119888305664,-97.49022674560547
"73013","Edmond","OK","Planet Fitness","10908 N May Ave,SuiteA","73120",35.581492,-97.565434
"73013","Edmond","OK","Primo Gymnastics","13717 Santa Fe Crossings Dr","73013",35.61018371582031,-97.5111083984375
"73013","Edmond","OK","YogaSix","1332 W. Memorial Rd., Suite 102","73114",35.6063247,-97.5373295
"73013","Edmond","OK","All American Express","3325 S Boulevard","73034",35.62245178222656,-97.47956848144531
"73013","Edmond","OK","Pride Mixed Martial Arts","14400 N. Lincoln Blvd","73013",35.61672383460001,-97.50325067459111
"73013","Edmond","OK","Orangetheory Fitness","12220 N MacArthur Blvd","73162",35.5939326,-97.61879259999999
"73013","Edmond","OK","Title Boxing Club","3209 S Broadway Ste 101","73013",35.62509843887497,-97.48689964618649
"73013","Edmond","OK","EDGE Sports Fitness","100 NW 142nd St #300","73013",35.614524841308594,-97.51495361328125
"73018","Chickasha","OK","Anytime Fitness","1211 W Grand Ave","73018",35.02926,-97.94868
"73018","Chickasha","OK","CrossFit Laoch","3rd Street and Tennessee","73018",35.03574176966074,-97.9356050491333
"73018","Chickasha","OK","PoleBody Studio","210 S 4th St Ste K","73018",35.04966735839844,-97.93702697753906
"73020","Choctaw","OK","jurassic crossfit","12007 NE 23rd St","73020",35.4941520690918,-97.3152847290039
"73020","Choctaw","OK","Legacy Elite","not_available","73020",35.435317304481714,-97.26497235122336
"73020","Choctaw","OK","Shape Fitness","14439 NE 23rd St","not_available",35.494779439108655,-97.27422661848843
"73020","Choctaw","OK","Legacy Elite Cheer","1760 Harper St","73020",35.48820877075195,-97.27338409423828
"73020","Choctaw","OK","Bldg. 4049 Tinker AFB","Bldg 4049","not_available",35.401332,-97.317393
"73026","Norman","OK","Cheri's Exercise Room","not_available","73026",35.18867017506484,-97.29445975346593
"73034","Edmond","OK","Gold's Gym","1409 East Danforth Road","73034",35.6680803,-97.461272
"73034","Edmond","OK","Gym","Edmond","73003",35.65000912721133,-97.45208305667349
"73034","Edmond","OK","We Rock the Spectrum","64 E 33rd St","73013",35.62196350097656,-97.4815673828125
"73034","Edmond","OK","Evolved Fitness","not_available","73044",35.774027777777775,-97.42875000000001
"73034","Edmond","OK","Orangetheory Fitness","3325 S Boulevard","73013",35.62245178222656,-97.47956848144531
"73036","El Reno","OK","Jenk Simmons Field House","El reno","73036",35.53499400615692,-97.971778
"73036","El Reno","OK","Anytime Fitness","1627A Hwy 66","73036",35.50963,-97.94198
"73036","El Reno","OK","Bickford Brawlroom","not_available","73036",35.532542,-97.9551
"73044","Guthrie","OK","Anytime Fitness","1726 S Division St Ste D - E","73044",35.86071,-97.42342
"73047","Hinton","OK","UBU Fitness","Main St, Hinton, OK 73047","73047",35.46683216456182,-98.35549412291253
"73055","Marlow","OK","flexworks","not_available","73055",34.6468931,-97.9596076
"73064","Mustang","OK","Anytime Fitness","216 N Mustang Mall Ter","73064",35.39333,-97.70288
"73064","Mustang","OK","Teeter","not_available","73064",35.39671003818512,-97.72829174995422
"73064","Mustang","OK","Gym","Pebble Creek","73064",35.39459559303954,-97.71729120782334
"73064","Mustang","OK","F5 Crossfit Mustang","321 N Mustang Rd","73064",35.39382553100586,-97.72494506835938
"73065","Newcastle","OK","Anytime Fitness","745 NW 32nd Pl","73065",35.292415999999996,-97.60771700000001
"73068","Noble","OK","The Ave Norman Gym","3301 12th Ave SE","73072",35.17774963378906,-97.42008209228516
"73068","Noble","OK","NCED Fitness Center","2801 Highway 9","73071",35.19153890524994,-97.39816290435944
"73068","Noble","OK","Hitachi Gym","not_available","73071",35.17036868392104,-97.40483492522861
"73068","Noble","OK","The Commons","1111 Oak Tree Ave","73072",35.1839127,-97.42567620000001
"73069","Norman","OK","CYCLEBAR","1942 24th Ave NW Ste H-4","73069",35.2419018,-97.4827525
"73069","Norman","OK","Crunch Fitness - Norman","2300 W Main St","73069",35.216927,-97.475267
"73069","Norman","OK","YMCA - Cleveland County Family","1350 Lexington Ave","73069",35.23990832750595,-97.46117568595237
"73069","Norman","OK","Downtown Fitness of Norman","119 W Main St","73069",35.220515594591625,-97.44483074320995
"73069","Norman","OK","All American Fitness Express","not_available","73069",35.234184473475665,-97.48836191133336
"73069","Norman","OK","Fitness Center @ Embassy Suites","2501 Conference Dr","73069",35.24360656738281,-97.47892761230469
"73069","Norman","OK","Pure Barre","1680 24th Ave NW","73069",35.23935112359941,-97.48413965746408
"73069","Norman","OK","Tan & Tone America (Main St.)","2203 W Main St","73069",35.220041,-97.473681
"73069","Norman","OK","Boyer's Fitness","not_available","73072",35.20124111111533,-97.46780620026168
"73069","Norman","OK","BA Fitness","480 24th Ave NW Ste 114","73069",35.223907470703125,-97.4780044555664
"73069","Norman","OK","The Gauntlet","1237","not_available",35.21250244142386,-97.44026136925575
"73069","Norman","OK","Red Effect Infrared Fitness","480 24th Ave NW #174","73069",35.223907470703125,-97.4780044555664
"73069","Norman","OK","Burn Boot Camp","1344 N Interstate Dr","73072",35.23508,-97.48702
"73071","Norman","OK","Steel Fitness & Tanning","1051 12th Ave NE","73071",35.23066356699174,-97.42276975182774
"73071","Norman","OK","Gold's Gym","1000 Alameda St","73071",35.2178074,-97.4255332
"73072","Norman","OK","Fitness One","2301 36th Ave NW","73072",35.24586016383054,-97.49383118895588
"73072","Norman","OK","The Health Club","3720 W Robinson St","73072",35.23087584909851,-97.49615058532265
"73072","Norman","OK","Shock Sports","3400 Bart Conner Dr","73072",35.250133,-97.492312
"73072","Norman","OK","Twisters","3543 Bart Conner Dr","73072",35.250436742072246,-97.49303625049734
"73072","Norman","OK","Orangetheory Fitness","3700 W Robinson St","73072",35.23194885253906,-97.49604034423828
"73072","Norman","OK","Traditions Square West Workout Room","2730 Chautauqua Ave","73072",35.19013014342568,-97.45100153112213
"73075","Pauls Valley","OK","Donald W Reynolds Recreation Center","1005 N Willow St","73075",34.74741825301095,-97.229724158454
"73078","Piedmont","OK","The Looby Gym","not_available","73162",35.594506,-97.671425
"73078","Piedmont","OK","Impulse Fitness","12301 Meritt Ave","73099",35.59526443481445,-97.68513488769531
"73089","Tuttle","OK","C & D Fitness","323 W Main St","73089",35.291059999999995,-97.81662
"73089","Tuttle","OK","Big Mike's Little Gym","705 SW 3rd St","73089",35.28371047973633,-97.81661224365234
"73099","Yukon","OK","Crossfit 66","500-528 W Main St","73099",35.50761267,-97.75543857
"73099","Yukon","OK","Travis Garza Fat Loss Camp","755 Industrial Dr","73099",35.50544357299805,-97.73113250732422
"73099","Yukon","OK","Jackie Cooper Gym","not_available","73099",35.506498604948554,-97.72555362763781
"73099","Yukon","OK","Biff's Around The Clock Fitness","718 S Mustang Rd","73099",35.46376750829509,-97.72240570081553
"73099","Yukon","OK","Sports Plus","not_available","73132",35.54847,-97.684701
"73099","Yukon","OK","Fitness Together","6048 S Yale Ave # 1201","73099",35.49199145885994,-97.76170117972968
"73099","Yukon","OK","Biff's Crossfit","539 S Mustang Rd","73099",35.46034622192383,-97.725341796875
"73099","Yukon","OK","Forge Wellness","921 Cornwell Dr","73099",35.497650146484375,-97.7418212890625
"73099","Yukon","OK","Jackie Cooper Gymnasium","1024 E Main St","73099",35.506634000000005,-97.725942
"73099","Yukon","OK","The Vitality Mill","900 Westport Blvd","73099",35.494903564453125,-97.76593017578125
"73099","Yukon","OK","Planet Fitness","1101 Garth Brooks Blvd","73099",35.49302829358463,-97.7585205240331
"73099","Yukon","OK","Biff's Crossfit","330 South Mustang Road","73099",35.462756,-97.72333
"73099","Yukon","OK","Gold's Gym","12701 NW 10th Street","73099",35.4794755,-97.7532002
"73102","Oklahoma City","OK","Skirvin Hotel Gym","not_available","73102",35.468328,-97.514007
"73102","Oklahoma City","OK","YMCA","1 NW 4th St","73102",35.472347892293946,-97.5131530462588
"73102","Oklahoma City","OK","Four star fitness - Downtown","911 N Broadway Ave","73102",35.47646858040921,-97.51434073186348
"73102","Oklahoma City","OK","Valir Rehab Hospital.","700 NW 7th St","73102",35.474891007208974,-97.5248078077733
"73102","Oklahoma City","OK","Koko FitClub of Oklahoma City - Deep Deuce","1 NE 2nd St Ste 104","73104",35.469970703125,-97.51153564453125
"73102","Oklahoma City","OK","Federal Building Fitness/gym center","301 NW 6th St","73102",35.474422454833984,-97.51821899414062
"73102","Oklahoma City","OK","Barons Training Center","not_available","73129",35.46531233731278,-97.51383922604994
"73102","Oklahoma City","OK","Sandridge Gym","123 Robert S Kerr Ave","73102",35.47042465209961,-97.51522827148438
"73102","Oklahoma City","OK","The Well","1 N Hudson Ave","73102",35.46777418527898,-97.519456928199
"73102","Oklahoma City","OK","Courtyard by Marriott Gym","2 W Reno Ave","73102",35.46373748779297,-97.51373291015625
"73102","Oklahoma City","OK","Downtown Personal Fitness","321 N Walker Ave","73101",35.47069660685779,-97.52131608325456
"73102","Oklahoma City","OK","Main Street YMCA","100 W Main St Ste 125","73102",35.46716739004608,-97.51537492469718
"73102","Oklahoma City","OK","Regency Towers Gym","333 NW 5th St","73102",35.473480224609375,-97.51890563964844
"73103","Oklahoma City","OK","YMCA","1110 Classen Dr","73103",35.47960266357675,-97.52172146796333
"73103","Oklahoma City","OK","Anytime Fitness","519 NW 23rd St Ste 106","73103",35.493565000000004,-97.521575
"73103","Oklahoma City","OK","Crossfit 405","1501 N Broadway Ave","73103",35.48393947312219,-97.51433492619691
"73104","Oklahoma City","OK","University Health Club","1000 N Lincoln Blvd","73104",35.477217949282846,-97.50095596531916
"73104","Oklahoma City","OK","Residence Inn Gym","400 E Reno Ave","73104",35.463539000000004,-97.505503
"73104","Oklahoma City","OK","SRB Gym","not_available","73104",35.472362,-97.510347
"73105","Oklahoma City","OK","Santa Fe Family Life Center","6300 N Santa Fe Ave","73118",35.53573543347803,-97.5110794021881
"73106","Oklahoma City","OK","Oklahoma Therapy Institute","2240 N Classen Blvd","73106",35.491689,-97.53043100000001
"73106","Oklahoma City","OK","Classen Sas Gym","not_available","73106",35.487918194784676,-97.53381280645334
"73106","Oklahoma City","OK","Casady School- Gym","Penn","not_available",35.48084768556575,-97.54784059464073
"73107","Oklahoma City","OK","Gold's Gym","2117 N.W. 23rd Street","73107",35.4941718,-97.5490507
"73107","Oklahoma City","OK","Fitness 19","4617 NW 23rd St","73127",35.49436566705539,-97.60413228533412
"73107","Oklahoma City","OK","Indian Clinic Wellness Center","4901 W Reno Ave, Oklahoma City, OK 73127","73127",35.46503829956055,-97.60658264160156
"73107","Oklahoma City","OK","Vasa Fitness","not_available","73107",35.492517,-97.556963
"73107","Oklahoma City","OK","Mathis Brothers Gym","not_available","73108",35.46198285238785,-97.57977339170097
"73107","Oklahoma City","OK","Wellness Center","Administration Building","not_available",35.47472943016491,-97.58131206035614
"73108","Oklahoma City","OK","Natural Athlete Strength Association, Hight  School Nationals","not_available","73128",35.443533,-97.601563
"73108","Oklahoma City","OK","iLoveKickboxing - Moore, OK","937 SW 25th Street","73160",35.43976974487305,-97.53189086914062
"73108","Oklahoma City","OK","Fit Zone inside Dell","3501 SW 15th St","73108",35.450740814208984,-97.57581329345703
"73109","Oklahoma City","OK","Waxahachie Cheer","Ninth Grade Academy","73109",35.418117,-97.512538
"73109","Oklahoma City","OK","colcord gym","not_available","73109",35.456667338583394,-97.51853992796492
"73110","Oklahoma City","OK","All American Fitness - Midwest City","711 S Air Depot Blvd","73110",35.457436230676116,-97.40727469606593
"73110","Oklahoma City","OK","Crossfit complete","not_available","73110",35.47695598311905,-97.37121903751756
"73110","Oklahoma City","OK","Planet Fitness","5701 E Reno Ave,Suite B","73110",35.46561,-97.422419
"73110","Oklahoma City","OK","Curves","1621 Douglas Blvd","not_available",35.44855276,-97.37105067
"73110","Oklahoma City","OK","Cheer Unlimited","8903 Newey Cir","73110",35.43852996826172,-97.37165832519531
"73110","Oklahoma City","OK","YMCA Midwest City","2817 N Woodcrest Dr","73110",35.4645795566409,-97.41814970718694
"73111","Oklahoma City","OK","JFHQ Gym","not_available","73111",35.50688658954326,-97.47990743773586
"73112","Oklahoma City","OK","weight room.","not_available","73112",35.52005856319137,-97.59094672527985
"73112","Oklahoma City","OK","The Weight Room","3901 N Tulsa Ave","73112",35.51040467719585,-97.5927186830711
"73112","Oklahoma City","OK","Oklahoma City Personal Training Studio","3630 NW 50th St","73112",35.521745,-97.582714
"73112","Oklahoma City","OK","Bistro At Teleflora","3737 NW 34th St","73112",35.50727460833179,-97.58480504297276
"73112","Oklahoma City","OK","W S Fitness Center","4401 NW 39th St","73112",35.512228,-97.598639
"73112","Oklahoma City","OK","Aspen Athletic Clubs","1901 NW Expressway Ste 2002","73118",35.52492958446448,-97.5468460726136
"73112","Oklahoma City","OK","Family Fitness","5125 N Portland Ave","73112",35.523045,-97.584282
"73112","Oklahoma City","OK","Exercise Room of Tower Hotel","3233 NW Expressway","not_available",35.5311393737793,-97.57344818115234
"73112","Oklahoma City","OK","Marriott Fitness Center","not_available","73120",35.53071143155697,-97.57395719455235
"73112","Oklahoma City","OK","Gold's Gym","3625 Northwest Expy","73112",35.53471452591394,-97.582728266716
"73114","Oklahoma City","OK","CYCLEBAR","13220 Pawnee Drive, Suite B","73114",35.6040726,-97.5339434
"73114","Oklahoma City","OK","Fitness 19","Britton","73120",35.56654917592311,-97.53649965887689
"73114","Oklahoma City","OK","iFLY - Oklahoma City","13600 Pawnee Dr","73114",35.607959,-97.53839
"73114","Oklahoma City","OK","Workout Nichols Hills","not_available","73114",35.553734925673524,-97.52645094244083
"73115","Oklahoma City","OK","Gold's Gym","4721 SE 15th Street","73115",35.4504935,-97.4293649
"73115","Oklahoma City","OK","TFW Firehouse Fit OKC","2901 Epperly Dr","73115",35.435856,-97.438064
"73116","Oklahoma City","OK","Four Star Fitness","6900 N May Ave","73116",35.54075675080442,-97.56529228556852
"73116","Oklahoma City","OK","Oklahoma City Golf & Country Club Fitness Center","not_available","73116",35.54604374257905,-97.55050036061549
"73116","Oklahoma City","OK","Planet Fitness","4202 NW Expressway","73116",35.538543709599416,-97.59577466991063
"73116","Oklahoma City","OK","Koda Crossfit","6015 N Harvey Ave","73118",35.53388271457475,-97.51844487192643
"73116","Oklahoma City","OK","Koko Fit Club Nichols Hills","7316 N Western Ave","73116",35.546268463134766,-97.52922058105469
"73116","Oklahoma City","OK","Fit Spa","6447 Avondale Dr","73116",35.53816604614258,-97.53255462646484
"73116","Oklahoma City","OK","fitness together","2816 W Country Club Dr","73116",35.546873,-97.564555
"73118","Oklahoma City","OK","CYCLEBAR","5730 N Classen Boulevard, Suite 1 & 2","73118",35.530457121671816,-97.53390416380637
"73118","Oklahoma City","OK","Western avenue boxing gym","not_available","73118",35.5160026550293,-97.52955627441406
"73118","Oklahoma City","OK","Brewhouse Barbell","1124 NW 51st St","73118",35.52323532104492,-97.53119659423828
"73119","Oklahoma City","OK","Planet Fitness","2936 SW 59th St","73119",35.40446509064752,-97.56720996614263
"73120","Oklahoma City","OK","Fit For Her","9440 N May Ave","73120",35.566767959095515,-97.56585482571083
"73120","Oklahoma City","OK","YMCA","10000 N Pennsylvania Ave","73120",35.5726007289374,-97.54798455610957
"73120","Oklahoma City","OK","Golftec","12312 N May Ave","73120",35.596402000000005,-97.565859
"73120","Oklahoma City","OK","Fitness 19 - OKC Casady Square","2103 W Britton Rd","73120",35.566607,-97.5497273
"73127","Oklahoma City","OK","ISA","100 N McCormick St","73127",35.467295,-97.613486
"73127","Oklahoma City","OK","F5 Crossfit","8117 Bourbon St","73128",35.46177806095231,-97.65644591457699
"73127","Oklahoma City","OK","Homewood Suites Gym","not_available","73127",35.462928,-97.635349
"73127","Oklahoma City","OK","Gym Springhill suites Oklahoma city","510 S MacArthur Blvd","73128",35.461693,-97.616968
"73128","Oklahoma City","OK","Providence Place Gym","6001 SW 12th St","73128",35.45431137084961,-97.6221694946289
"73129","Oklahoma City","OK","Ohhh","Gk","73129",35.41453584063848,-97.49176765700201
"73131","Oklahoma City","OK","Fountain Lake - Gym","14025 N Eastern Ave","73013",35.611690796778326,-97.48021395958531
"73132","Oklahoma City","OK","10 Gym","6209 NW Expressway","73132",35.5537007,-97.6255295
"73132","Oklahoma City","OK","YMCA","8300 Glade Ave","73132",35.554794483789,-97.6425652899124
"73132","Oklahoma City","OK","CrossFit Kaze","7413 NW 83rd St","73132",35.55623,-97.645238
"73132","Oklahoma City","OK","CoreFit Toning","5801 W Britton Rd Ste E","73132",35.56684112548828,-97.61970520019531
"73132","Oklahoma City","OK","All American Fitness - Northwest","6209 NW Expwy.","73132",35.553642955055544,-97.62581583107773
"73132","Oklahoma City","OK","Sprint Fitness Center","8525 Silver Xing","73132",35.55724334716797,-97.64955139160156
"73132","Oklahoma City","OK","Aspen Athletic Club","Rockwell","73132",35.558114647865295,-97.638114
"73134","Oklahoma City","OK","The Retreat Gym","2701 Watermark Blvd","73134",35.620557,-97.56214399999999
"73134","Oklahoma City","OK","Life Time Athletic Oklahoma City","2563 West Memorial Road","73134",35.61434434,-97.56029385
"73134","Oklahoma City","OK","Red Rock Fitness & Training","2137 NW 138th St","73134",35.61237486056331,-97.55127094142361
"73135","Oklahoma City","OK","Bldg 1103","Bldg 1103","not_available",35.409994,-97.396629
"73135","Oklahoma City","OK","Anytime Fitness","5901 S Sooner Rd","73135",35.40707,-97.42426
"73135","Oklahoma City","OK","Tribe Cheer","not_available","73135",35.4180081,-97.4490606
"73135","Oklahoma City","OK","Tinker AFB Bldg 820","not_available","73145",35.40928484746573,-97.3955443926585
"73139","Oklahoma City","OK","24 Fit Gym","9101 S Western Ave Suite #104","73139",35.3757719,-97.53085589999999
"73139","Oklahoma City","OK","Planet Fitness","9118 S Western Ave,Suite A","73139",35.37622903075718,-97.52861393756139
"73139","Oklahoma City","OK","Super Fit Gym","not_available","73139",35.377463,-97.522776
"73139","Oklahoma City","OK","Hampton Inn Gym","920 SW 77th St","73139",35.38812255859375,-97.53129577636719
"73139","Oklahoma City","OK","Fitness 19","S. Western","73160",35.36440656151625,-97.52896092429455
"73142","Oklahoma City","OK","Paycom Gym","7501 W Memorial Rd","73142",35.611703000000006,-97.648548
"73142","Oklahoma City","OK","Warrior Fitness Gym","13325 N MacArthur Blvd #4","73142",35.60484539999999,-97.6212939
"73142","Oklahoma City","OK","Zone 4 Fitness","5500 W Memorial Rd","73142",35.60847473144531,-97.61520385742188
"73142","Oklahoma City","OK","Montague/Sonador Gym","not_available","73142",35.63446551309381,-97.60119537833454
"73145","Oklahoma City","OK","Gerity Fitness Center","Arnold St.","73145",35.42839716182507,-97.41788364096044
"73145","Oklahoma City","OK","Herd Gym","7016 S Air Depot Blvd","73145",35.42507968225707,-97.41719434464419
"73149","Oklahoma City","OK","Anytime Fitness","138 E Ranchwood Dr","73160",35.37097930908203,-97.50850677490234
"73149","Oklahoma City","OK","Bodyfit Club","737 SE 89th St","73149",35.377778456407995,-97.49813200289535
"73159","Oklahoma City","OK","Anytime Fitness","2209 SW 104th St","73159",35.363639,-97.550509
"73159","Oklahoma City","OK","City Gym","not_available","73159",35.375961,-97.546437
"73159","Oklahoma City","OK","Mademoiselle Figure & Fitness","7720 S Pennsylvania Ave","73159",35.388753,-97.54727
"73159","Oklahoma City","OK","CrossFit Redman","8209 S Pennsylvania Ave","73159",35.383733,-97.54829000000001
"73159","Oklahoma City","OK","Will Rogers Air Guard Gym","5901 Air Guard Dr","73179",35.406748,-97.609545
"73159","Oklahoma City","OK","Anytime Fitness SW OKC","2219 W I 240 Service Rd","73159",35.393310546875,-97.55078125
"73160","Oklahoma City","OK","Gold's Gym","647 SW 19th Street","73160",35.3214522,-97.4983285
"73160","Oklahoma City","OK","Case de Gravéz Insanity Gym","not_available","73160",35.321608,-97.463648
"73160","Oklahoma City","OK","Anytime Fitness","811 SW 19th St","73160",35.32035,-97.50515
"73160","Oklahoma City","OK","Orangetheory Fitness","825 SW 19th St","73160",35.3207246,-97.50657729999999
"73160","Oklahoma City","OK","Fitness One","647 SW 19th St","73160",35.32108688354492,-97.49825286865234
"73160","Oklahoma City","OK","Body Tech Gym","642 N Broadway St","73160",35.343631744384766,-97.4869384765625
"73160","Oklahoma City","OK","Tan & Tone America","101 N Eastern Ave","73160",35.338565441771344,-97.47742888877109
"73160","Oklahoma City","OK","Twisted Axes Throw House","609 Northwest 8th Street","73160",35.347469329833984,-97.49598693847656
"73160","Oklahoma City","OK","crossfit exile","524 Tower Dr","73160",35.33339309692383,-97.48140716552734
"73160","Oklahoma City","OK","Crossfit Exile","Messenger Ln","not_available",35.33359147221745,-97.48158275483927
"73162","Oklahoma City","OK","Fitness Together","7829 W Hefner Rd","73162",35.581729888916016,-97.65424346923828
"73162","Oklahoma City","OK","Anytime Fitness","7019 W Hefner Rd","73162",35.582,-97.63674
"73170","Oklahoma City","OK","SouthMoore High School Baseball Field","not_available","73170",35.31105670872444,-97.51928022513611
"73170","Oklahoma City","OK","Montclair Parc Fitness Center","10900 S Pennsylvania Ave","73170",35.359048,-97.546414
"73170","Oklahoma City","OK","Pure Barre","12201 S Western Avenue, C-3","73170",35.3417358,-97.52997289999999
"73401","Ardmore","OK","Chickasaw Nation Wellness Center","not_available","73401",34.20077862987462,-97.13906369107751
"73401","Ardmore","OK","Crossfit Ardmore","235 W Main St","73401",34.17369842529297,-97.13158416748047
"73401","Ardmore","OK","Lone Grove HS Gym","6286 Meridian Rd","73443",34.16071732810289,-97.24698543548584
"73401","Ardmore","OK","Planet Fitness","1211 N Commerce St","73401",34.189572,-97.145699
"73401","Ardmore","OK","Anytime Fitness","1513 N Rockford Rd","73401",34.19241,-97.16164
"73401","Ardmore","OK","Gymnasium","Lone Grove High School","73401",34.17728157387386,-97.24584817886353
"73401","Ardmore","OK","Sculpture Fitness Club","2 W Main St #105","73401",34.17248501120103,-97.12862665123433
"73401","Ardmore","OK","Muscles in Motion","2302 Knox Rd","73401",34.19902565455221,-97.15824895768228
"73439","Kingston","OK","Christ Fit at Faith Baptist Youth Center","not_available","76245",33.844327,-96.836886
"73446","Madill","OK","Madill Fitness Center","not_available","73446",34.091161329125974,-96.77101513580348
"73459","Thackerville","OK","Best Western Fitness Center","not_available","73459",33.749896,-97.13349
"73501","Lawton","OK","Springhill Suites Fitness Center","3 SE Interstate Dr","73501",34.60778389245435,-98.3801078267671
"73501","Lawton","OK","Lawton Xtreme Athletics","810 SE 2nd St","73501",34.599098205566406,-98.382568359375
"73501","Lawton","OK","Freedom Fitness","4413 NW Cache Rd","73505",34.6249667,-98.44946709999999
"73501","Lawton","OK","Grady Brewer Bad boy boxing & fitness","not_available","73501",34.606037,-98.389741
"73501","Lawton","OK","Diamond Cutter Gym","Wilson St","73503",34.651747490005334,-98.42707831131035
"73501","Lawton","OK","3 Mile Track","Mow-Way Rd","73503",34.64885,-98.418911
"73501","Lawton","OK","Lawton Fit","201 SW C Ave Ste B","73501",34.605525,-98.3908189
"73501","Lawton","OK","Anytime Fitness","6414 NW Cache Rd","73505",34.62319,-98.47251
"73501","Lawton","OK","Physical Readiness Training (Fort Sill)","not_available","73503",34.65021114890751,-98.41998855659175
"73501","Lawton","OK","Lawton Family YMCA","5 SW 5th St","73501",34.607915999999996,-98.395818
"73501","Lawton","OK","Aggie Rec Center","2800 W Gore Blvd","73505",34.60545489406483,-98.43357448104457
"73501","Lawton","OK","CrossFit Havoc","206 SE B Ave","73501",34.606679810917576,-98.38423944499849
"73501","Lawton","OK","Anytime Fitness","2304 E Gore Blvd Ste 1","73507",34.609211,-98.360396
"73501","Lawton","OK","LHS Gym","not_available","73507",34.61783556215427,-98.4028399109327
"73503","Fort Sill","OK","Richard Simmons Pound Town","1347 McGruder","73501",34.67911102529927,-98.40153906583902
"73507","Lawton","OK","24 Hr Pride Fitness","not_available","73538",34.783750051635714,-98.29382978673189
"73521","Altus","OK","Fusion Fitness","1211 N Thomas St","73521",34.64992904663086,-99.32144927978516
"73521","Altus","OK","Stand Strong Fitness Center","300 W Commerce","73521",34.6387136,-99.3368696
"73529","Comanche","OK","A NU You","203 Oak Main Ave","73529",34.369006,-97.96345
"73531","Devol","OK","burkburnett high school weight room","not_available","76354",34.08040237426758,-98.5772705078125
"73533","Duncan","OK","Planet Fitness","1318 N Highway 81","73533",34.519909,-97.966114
"73533","Duncan","OK","Shape Fitness","not_available","73533",34.49059545993805,-97.96648800373077
"73533","Duncan","OK","Insanity gym","Southwest","73533",34.497769671383274,-97.98254021881978
"73547","Granite","OK","Phillip's Fitness Center","102 E Lincoln St, Mangum, OK 73554","73554",34.871910095214844,-99.5057601928711
"73548","Hastings","OK","Temple high school Gym","not_available","73568",34.266685,-98.235968
"73601","Clinton","OK","acme brick park & recreation","not_available","73601",35.50315475463867,-98.98898315429688
"73601","Clinton","OK","Anytime Fitness","2013 Jaycee Ln","73601",35.5053,-98.98526
"73632","Cordell","OK","Main Street Muscle","114 E Main St","73632",35.299796,-98.99728102436312
"73644","Elk City","OK","Route 66 fitness clarion","not_available","73644",35.38721466064453,-99.40248107910156
"73701","Enid","OK","FGF Gym","not_available","73703",36.390560150146484,-97.89863586425781
"73701","Enid","OK","Planet Fitness-Enid","802 W Broadway Ave","73701",36.3970832824707,-97.8884048461914
"73701","Enid","OK","Planet Fitness","800 W Broadway Ave","73703",36.397149,-97.888573
"73701","Enid","OK","Spirit Express","302 S Jefferson St","73701",36.394241136827986,-97.88405229236284
"73703","Enid","OK","Finer Physiques","Willow","73703",36.41895583094228,-97.90560954364453
"73703","Enid","OK","Anytime Fitness","3324 W Owen K Garriot Rd","73703",36.391536712646484,-97.91832733154297
"73750","Kingfisher","OK","Athletic Loft","N Main st","73750",35.86383861716484,-97.93268891952634
"73763","Okeene","OK","Al's","216-298 N Main St","73763",36.11726403236389,-98.31711709499359
"73801","Woodward","OK","Peak Fitness","not_available","73801",36.43624967182397,-99.39422551267013
"73801","Woodward","OK","Anytime Fitness","2122 Oklahoma Ave","73801",36.434383392333984,-99.40670013427734
"73843","Gage","OK","Pulse Fitness","not_available","73858",36.27316164242128,-99.88128439011349
"73942","Guymon","OK","Snap Fitness","Northridge Cir, Guymon, OK 73942","73942",36.6990040620527,-101.48506136378897
"73942","Guymon","OK","Anytime Fitness","1402-B Main St","73942",36.69208,-101.48225
"73945","Hooker","OK","Kings Fitness","804 N Cottage Grove","73951",36.96080017089844,-101.06575012207031
"74002","Barnsdall","OK","Tone Ur Hyde LLC","508 W Main St","74002",36.5618896484375,-96.16243743896484
"74003","Bartlesville","OK","Bartlesville Jazzercise Studio","308 S Dewey Ave","74003",36.7505989074707,-95.97575378417969
"74003","Bartlesville","OK","First Baptist Family Life Center","not_available","74003",36.74965768368333,-95.97429147616104
"74006","Bartlesville","OK","Xtreme Fitness","1914 SE Washington Blvd","74006",36.7233677,-95.93434610000001
"74006","Bartlesville","OK","Colaw Fitness","not_available","74006",36.74839808045491,-95.9326157900232
"74006","Bartlesville","OK","Vibe 24/7 Fitness for Women","3023 SE Washington Blvd","74006",36.7048454284668,-95.9355697631836
"74006","Bartlesville","OK","Planet Fitness","514 SE Washington Blvd","74006",36.74927,-95.933661
"74008","Bixby","OK","Fitness Together - Jenks","12141 S Elm St","74037",35.9862875,-95.9751203
"74008","Bixby","OK","Anytime Fitness","6450 S Elm Pl","74011",35.98892,-95.80005
"74008","Bixby","OK","Crossramp","YMCA","not_available",35.969445,-95.888216
"74008","Bixby","OK","Adreneline Body Worx","5085 S 151st ST S","not_available",35.9449671303158,-95.92113715429137
"74008","Bixby","OK","K. O. Boxing - Bixby","12814 S Memorial Dr Unit 108","74008",35.977691650390625,-95.89249420166016
"74008","Bixby","OK","Crossfit Bellator","12804 S Memorial Dr Unit 118","74008",35.97780227661133,-95.88969421386719
"74008","Bixby","OK","Jimmy Lee's Total Fitness","11021 S Memorial Dr","74133",36.004459381103516,-95.88629150390625
"74010","Bristow","OK","Body Progressions","not_available","74010",35.83537875046604,-96.39112860455418
"74011","Broken Arrow","OK","Home Gym (private)","not_available","74011",36.009855,-95.799875
"74012","Broken Arrow","OK","Ninowski Recreation Center","1025 W Kenosha St","74012",36.060242508659165,-95.80897955860793
"74012","Broken Arrow","OK","Prime Performance Strength & Conditioning","2001 W Detroit St Ste A","74012",36.05394744873047,-95.81181335449219
"74012","Broken Arrow","OK","Jazzercise Broken Arrow","1181 S Aspen Ave","74012",36.043724060058594,-95.81486511230469
"74012","Broken Arrow","OK","Gold's Gym","2360 W. Kenosha Street","74012",36.06231530798845,-95.81849158396692
"74012","Broken Arrow","OK","All-American 24-hour Fitness","1800 S Aspen Ave","74012",36.033349242746404,-95.81591830738381
"74012","Broken Arrow","OK","Crossfit 51","11634 E 51st St","74146",36.08835220336914,-95.84710693359375
"74012","Broken Arrow","OK","Max Fitness","not_available","66502",36.028147,-95.797036
"74012","Broken Arrow","OK","Kettlebell 360","1045 N 9th St","74012",36.062522888183594,-95.7789306640625
"74012","Broken Arrow","OK","Genesis Health Clubs - Broken Arrow","2360 W Kenosha St","74012",36.0625,-95.8184
"74012","Broken Arrow","OK","Crossfit BA","2284 W New Orleans St, Broken Arrow, OK 74011","74011",36.017799377441406,-95.81625366210938
"74012","Broken Arrow","OK","Villas At Aspen Park Gym","not_available","74012",36.066498,-95.813668
"74012","Broken Arrow","OK","The Platinum Center","4808 S 109th East Ave","74146",36.09399652915975,-95.8570530335563
"74012","Broken Arrow","OK","Soccer City Tulsa","5817 S 118th East Ave","74146",36.0776207269521,-95.84292889075161
"74012","Broken Arrow","OK","Ideal CrossFit","1113 E Houston St","74012",36.04610824584961,-95.77626037597656
"74012","Broken Arrow","OK","Avid/Budget Fitness Gym","4500 S 129th East Ave","74134",36.099578857421875,-95.83824920654297
"74012","Broken Arrow","OK","Curves","747 N Aspen Ave","74012",36.06025314331055,-95.81409454345703
"74012","Broken Arrow","OK","9Round Fitness","4654 W. Houston","74012",36.04694948,-95.84770008
"74012","Broken Arrow","OK","Tiger Phit","1521 S Main St","74012",36.03960418701172,-95.79027557373047
"74012","Broken Arrow","OK","Homewood Suites Fitness Center","4900 W Madison Pl","74012",36.063937,-95.84920100000001
"74012","Broken Arrow","OK","Oklahoma Fight Club","113 N Main St","74012",36.052935,-95.790476
"74014","Broken Arrow","OK","Adams gym","not_available","74014",36.03873417241382,-95.68406741260902
"74014","Broken Arrow","OK","Amber's Gym","not_available","74015",36.148289,-95.736896
"74014","Broken Arrow","OK","The Ridge Club","7751 E Freeport Pl","74014",36.057395935058594,-95.69387817382812
"74015","Catoosa","OK","Fitness Center at Hard Rock Hotel and Casino","not_available","74103",36.16467474625313,-95.76550604823693
"74015","Catoosa","OK","Fieldhouse","1003 S 129th Ave","74116",36.193070255647164,-95.76075732231463
"74017","Claremore","OK","CrossFit Parts Unknown","321 W Will Rogers Blvd","74017",36.3114126,-95.61362369999999
"74017","Claremore","OK","Claremore Super Rec Center","not_available","74017",36.31263223721235,-95.63164805686945
"74017","Claremore","OK","Infinity Fit Club","810 W 1st St Claremore‎ Oklahoma‎ 74017 United States","74017",36.31253433227539,-95.62030029296875
"74020","Cleveland","OK","LAUGH Gym","LAUGH","74020",36.249432,-96.500877
"74021","Collinsville","OK","Owasso180 Gym","11693 N Garnett Rd","74021",36.32365798950195,-95.84740447998047
"74021","Collinsville","OK","The Rock Gym","not_available","74021",36.36457282289261,-95.83838974766165
"74033","Glenpool","OK","Crossfit Bellator","811 E 141st St","74033",35.95960580812347,-95.99425516137694
"74036","Inola","OK","Inola Fitness Center","not_available","74036",36.13990020751953,-95.50714874267578
"74037","Jenks","OK","Insanity Workout Room","not_available","74137",36.0369873046875,-95.94999694824219
"74037","Jenks","OK","Club House Riverwalk","Riverwalk Apt.","74037",36.03120686492298,-95.96262425550852
"74037","Jenks","OK","Fitness Together","9708 Riverside Pkwy","74137",36.0226011,-95.9501063
"74037","Jenks","OK","Aerobic Center","7779 S. Lewis Ave.","not_available",36.04718307001795,-95.94911683375037
"74037","Jenks","OK","Select Fitness","732 W Main St","74037",36.022132698040885,-95.97864615042613
"74037","Jenks","OK","Jenks High School Gym","not_available","74132",36.035,-95.983099
"74044","Mannford","OK","Treadmill 'O Wyrick","not_available","74044",36.116763,-96.353707
"74048","Nowata","OK","nowata middle school gym","not_available","74048",36.69595718383789,-95.64073181152344
"74055","Owasso","OK","Owasso Family YMCA","8300 N Owasso Expy","74055",36.27291362824997,-95.84896101298226
"74055","Owasso","OK","All American Fitness","not_available","74055",36.28000259399414,-95.84601593017578
"74055","Owasso","OK","Verizon Health & Wellness Center","6929 N Lakewood Ave, Tulsa, OK 74117","74117",36.254856887606,-95.90498299612518
"74055","Owasso","OK","Coffee Creek Apartments","14100 E 106th St N","74055",36.30680413306025,-95.81402664994623
"74055","Owasso","OK","All American Fitness","12202 E 93rd St N","74055",36.28785389624636,-95.83873462900029
"74055","Owasso","OK","Owasso Adventure Bootcamp for Women","12324 E 86th St N #228","74055",36.27802658081055,-95.8359375
"74055","Owasso","OK","Anytime Fitness","12912 E 86th St N","74055",36.27686,-95.82829
"74056","Pawhuska","OK","Osage Nation Fitness Center","1222 Lynn Ave","74056",36.67029673072373,-96.33108674427214
"74056","Pawhuska","OK","Mashunk's Gym","not_available","74056",36.669228518727046,-96.3168414590411
"74059","Perkins","OK","JR's Gym","not_available","74059",35.972749,-96.985577
"74063","Sand Springs","OK","Anytime Fitness","3802 SW 113th Ave","74063",36.10772,-96.11948
"74063","Sand Springs","OK","Fitness Xpress","not_available","74063",36.138200542262844,-96.10510191010594
"74066","Sapulpa","OK","Access Fitness","not_available","74066",36.01656774987187,-96.09719643679607
"74066","Sapulpa","OK","Anytime Fitness","619 S Main St","74066",35.99142,-96.11319
"74070","Skiatook","OK","Fitness Time Gym","not_available","74070",36.367130279541016,-96.0472640991211
"74070","Skiatook","OK","The Swole Shack","00","74002",36.44055775714355,-96.04944385301852
"74074","Stillwater","OK","Colvin Recreation Center","Oklahoma State University","74078",36.125984544804446,-97.07719073608754
"74074","Stillwater","OK","Red Dirt CrossFit","517 N Husband St","74075",36.12852478027344,-97.06021881103516
"74074","Stillwater","OK","Total Health","1810 N Perkins Rd","74075",36.140389411709194,-97.05378970552253
"74074","Stillwater","OK","StepForward Fitness","not_available","74074",36.116629,-97.049425
"74074","Stillwater","OK","Bodyworks Gym","707 N Perkins Rd","74075",36.12941805169063,-97.05015287943687
"74074","Stillwater","OK","Orangetheory Fitness","705 N Main St","74075",36.130036,-97.05860799999999
"74074","Stillwater","OK","Stillwater YMCA","204 S Duck St","74074",36.120343330732375,-97.06288663711082
"74074","Stillwater","OK","Pioneer Wrestling Room","not_available","74075",36.136423,-97.062029
"74074","Stillwater","OK","Gym One","1317 S Western Rd","74074",36.10697344491038,-97.08589457971692
"74074","Stillwater","OK","Holiday Inn Workout Room","715 S Country Club Rd, Stillwater, OK 74074","74074",36.11365509033203,-97.12215423583984
"74074","Stillwater","OK","Rock House Gym","5302 W 6th Ave","74074",36.116812,-97.131282
"74079","Stroud","OK","The SweatBox","not_available","74834",35.760499,-96.795678
"74103","Tulsa","OK","YMCA Downtown","418 S Main St","74103",36.15141411815252,-95.99022791399129
"74103","Tulsa","OK","South Boston Fitness","616 S Boston Ave","74119",36.150148,-95.988364
"74103","Tulsa","OK","Tower Fitness","401 S Boston Ave Ste 1600","74103",36.15483105182648,-95.99083721637726
"74103","Tulsa","OK","F45 Training Tulsa","2 N Elgin Ave","74120",36.158215,-95.988301
"74104","Tulsa","OK","St. John Siegfried Health Club","1819 E 19th St","74104",36.135498268795565,-95.9655165985331
"74104","Tulsa","OK","YWCA","1910 S Lewis Ave","74104",36.134547437460064,-95.95866680145264
"74104","Tulsa","OK","Vital Performance Fitness","565 South Utica Avenue","74104",36.152363,-95.966894
"74104","Tulsa","OK","Orangetheory Fitness","1551 E 15th St","74120",36.140808,-95.96998
"74105","Tulsa","OK","the gym","not_available","74105",36.09089279174805,-95.9629898071289
"74105","Tulsa","OK","Dr. Frank's Gym","5121 S Lewis Ave","74105",36.08905792236328,-95.9572982788086
"74105","Tulsa","OK","Jazzercise Midtown","5800 S Lewis Ave","74105",36.08020782470703,-95.95846557617188
"74105","Tulsa","OK","Gym","3900 Peoria","74105",36.105276606798284,-95.97560288822788
"74106","Tulsa","OK","Hutcherson YMCA","1120 E Pine St","74106",36.17571710331857,-95.97721776009766
"74107","Tulsa","OK","The Bat Gym","not_available","74107",36.104006,-96.038157
"74107","Tulsa","OK","Studio Y","not_available","74119",36.140501,-95.991788
"74112","Tulsa","OK","p90x Zone","not_available","74112",36.14562978893377,-95.91812877786474
"74112","Tulsa","OK","Eastside Jazzercise","1438 S Indianapolis Ave","74112",36.140972,-95.939674
"74112","Tulsa","OK","Turner Park Total Fitness","803 1/2 S Jamestown","74112",36.149942,-95.937795
"74114","Tulsa","OK","Curves","1314 E 15th St","74120",36.140480041503906,-95.97527313232422
"74114","Tulsa","OK","23rd St. Body Fitness","not_available","74114",36.12957000732422,-95.95883178710938
"74114","Tulsa","OK","Warrior Fitness LLC","East 28th St & South Maplewood Ave","74114",36.122120875534264,-95.90714693069458
"74119","Tulsa","OK","Fitness Center","909 S Boston Ave","74119",36.14763641357422,-95.98616027832031
"74119","Tulsa","OK","Okie CrossFit","409 E 8th St","74120",36.150711,-95.983496
"74120","Tulsa","OK","Vixen Studio","416 E 2nd St, Tulsa, OK 74120","74120",36.156075,-95.985858
"74120","Tulsa","OK","CYCLEBAR","1513 E 15th St","74120",36.140838623046875,-95.97129821777344
"74120","Tulsa","OK","forge fitness","1314 E 3rd St","74120",36.156377,-95.974912
"74129","Tulsa","OK","Fitness Protection Program","2605 S Memorial Dr, Suite A & B","74129",36.125648498535156,-95.88461303710938
"74129","Tulsa","OK","Tulsa Boxing","not_available","74129",36.13123736198651,-95.86058565871909
"74129","Tulsa","OK","Just Ladies Fitness","11125 E 31st St","74146",36.11931228637695,-95.85225677490234
"74132","Tulsa","OK","Titan Sports and Performance Center","101 E 81st St S","74132",36.05198393,-95.98798551
"74133","Tulsa","OK","Life Time Fitness","10642 S Memorial Dr","74133",36.009081,-95.886649
"74133","Tulsa","OK","Sky Fitness & Well Being","10121 S Sheridan Rd","74133",36.01627093217966,-95.90334989302862
"74133","Tulsa","OK","The Little Gym of SE Tulsa","6556 E. 91st St","74133",36.031262365414285,-95.90264081954956
"74133","Tulsa","OK","Jazzercise","8988 S Sheridan Rd","74133",36.03210396866494,-95.90446472167969
"74133","Tulsa","OK","Extreme Performance Center","8211 E 61st St","not_available",36.075816,-95.885027
"74133","Tulsa","OK","Courtyards Gym","not_available","74133",36.02941,-95.901264
"74133","Tulsa","OK","Body Sculpting by Landy","7935 S Memorial Dr","74133",36.0488166809082,-95.88545227050781
"74133","Tulsa","OK","Orangetheory Fitness","9118 S Sheridan Rd","74133",36.030941009521484,-95.90509796142578
"74133","Tulsa","OK","Fitness Together","1300 Vandament Ave","not_available",36.04977555962666,-95.88497042655945
"74133","Tulsa","OK","Genesis Health Clubs - Woodland Hills","6612 S Memorial Dr","74133",36.06657791137695,-95.8873062133789
"74133","Tulsa","OK","Exodus Gym","8495-8699 E 60th St","74145",36.07828080654144,-95.88407456874847
"74133","Tulsa","OK","Re:Charge","6716 S 104th East Ave","74133",36.06589889526367,-95.86197662353516
"74133","Tulsa","OK","CrossFit Eclipse","8922 S Memorial Dr","74133",36.033984999999994,-95.887813
"74133","Tulsa","OK","Bodymasters","8222 E 103rd St Ste 105","74133",36.01332641851012,-95.88480831689914
"74133","Tulsa","OK","Student Fitness Center","10300 E 81st St","74133",36.043033693232715,-95.86351394538949
"74133","Tulsa","OK","Genesis Health Clubs - South Tulsa","10121 South Sheridan Road","74133",36.0159023,-95.9030846
"74133","Tulsa","OK","Life Time Fitness","10642 South Memorial Drive","74133",36.0093424,-95.889969
"74135","Tulsa","OK","Sky Fitness & Wellbeing of Midtown","4103 S Yale Ave","74135",36.10259776206594,-95.9209886420303
"74135","Tulsa","OK","Tulsa Fit Body Bootcamp","not_available","74135",36.11766354111826,-95.92215230286988
"74135","Tulsa","OK","PC Dance Co.","3903 S Harvard Ave","74135",36.105453999999995,-95.939661
"74135","Tulsa","OK","Sedona Fitness","3133 S Harvard Ave","74135",36.11783885702542,-95.93961131549791
"74135","Tulsa","OK","The Gym","3113 S Jamestown Ave","74135",36.1184,-95.937629
"74135","Tulsa","OK","Just Ladies Fitness","3350 E 51st St","74135",36.088600158691406,-95.93779754638672
"74135","Tulsa","OK","Thunderkick Fitness","4107 S Yale Ave #244","74135",36.1028129,-95.9192334
"74135","Tulsa","OK","Genesis Health Clubs - Midtown Tulsa","4103 S Yale Avenue","74135",36.1024424,-95.9211765
"74136","Tulsa","OK","Planet Fitness","1331 E 71st St S","74136",36.06087272346313,-95.97540077069566
"74136","Tulsa","OK","St. Francis Health Zone","5353 E 68th St","74136",36.06489861884276,-95.91690151966107
"74136","Tulsa","OK","Southern Hills Gym","not_available","74136",36.070463,-95.94387
"74136","Tulsa","OK","Row House","4820 E 61st St Ste 120","74136",36.0748214,-95.92318139999999
"74136","Tulsa","OK","Snap Fitness","7125 S Yale Ave Ste C","74136",36.06051331589725,-95.9206068718248
"74136","Tulsa","OK","All American Fitness","2121 E 69th St","74136",36.06403486450307,-95.96012592315674
"74137","Tulsa","OK","CYCLEBAR","9110 S Yale Ave Ste B","74137",36.0315031342728,-95.92267088592052
"74137","Tulsa","OK","Pure Barre","8921 S Yale Ave Ste C","74137",36.033521741915195,-95.92131267296429
"74137","Tulsa","OK","South Neighborhood YMCA","10031 S Yale Ave","74137",36.017922672660795,-95.92122490824612
"74145","Tulsa","OK","Smiley's Champion Fitness","7715 E 41st St","74145",36.10501163729678,-95.89046359062195
"74145","Tulsa","OK","Embassy Suites Fitness Room","3332 S 79th East Ave","74145",36.11487579345703,-95.89276123046875
"74145","Tulsa","OK","Excel Performance Training","7246 E 38th St","74145",36.10725021362305,-95.89505004882812
"74145","Tulsa","OK","Next Generation CrossFit","7709 E 42nd Pl #116","74145",36.10223121512009,-95.89003929913375
"74145","Tulsa","OK","Treadmill Express plus","3805 S 90th East Ave","74145",36.10865020751953,-95.87660217285156
"74145","Tulsa","OK","Park Villas Gym","5030 S 76th East Ave","74145",36.0909,-95.894162
"74145","Tulsa","OK","Crossfit Tulsa","5418 S. 94th E Ave","74145",36.086332636098334,-95.8724341878196
"74145","Tulsa","OK","10 Gym","9142 E 31st St","74145",36.1175059,-95.87088609999999
"74145","Tulsa","OK","Body Fulfillment","5050 S Memorial Dr","74145",36.090431213378906,-95.88675689697266
"74145","Tulsa","OK","10gym East Tulsa","9142 E. 31 St","74146",36.117601244038894,-95.8708593249321
"74146","Tulsa","OK","Lee's Studio","not_available","74146",36.083357532180486,-95.86849644449909
"74301","Vinita","OK","Ladies Reclaim Fitness","not_available","74301",36.6380646626092,-95.15660993398723
"74301","Vinita","OK","Buff And Stuff Gym","S Wilson St, Vinita, OK 74301","74301",36.63296033520229,-95.15715343255819
"74337","Chouteau","OK","Hampton Inn Gym","not_available","74361",36.2292,-95.338615
"74344","Grove","OK","YMCA","206 Elk St","74344",36.59410858154297,-94.77622985839844
"74352","Locust Grove","OK","Golds gym","not_available","74364",36.209715,-95.046241
"74354","Miami","OK","Bearskin Healthcare & Wellness Center","not_available","74370",36.801613,-94.727067
"74354","Miami","OK","Girlfriend's Fitness Center","Main Street","74354",36.902299697847184,-94.8774877472949
"74354","Miami","OK","Eliptical Workout","not_available","74354",36.877635,-94.884277
"74361","Pryor","OK","Anytime Fitness","29 N Mill St","74361",36.30931,-95.31762
"74363","Quapaw","OK","Downstream Fitness Center","69300 Nee Rd","74363",36.99808120727539,-94.6247787475586
"74370","Wyandotte","OK","Eastern Shawnee Wellness Center","10135 S Bluejacket Rd","74370",36.86679030662946,-94.63074802331356
"74401","Muskogee","OK","Champion Fitness","2250 E Shawnee St","74403",35.772102661567885,-95.34470364365086
"74401","Muskogee","OK","Muskogee Swim And Fitness Center","not_available","74401",35.75590410453005,-95.37248801431676
"74401","Muskogee","OK","Destiny Community Development Center","301 South D Street","74401",35.73803102032125,-95.36699994197099
"74403","Muskogee","OK","Masters Health & Fitness","120 W. Poplar","74434",35.79841995239258,-95.24842071533203
"74403","Muskogee","OK","Fort Gibson Wrestling Room","not_available","74434",35.79175065135449,-95.23908228847674
"74427","Cookson","OK","Frank And Andy's Gym","not_available","74427",35.664628,-94.958957
"74437","Henryetta","OK","Anytime Fitness","303 E Main St","74437",35.43953679057443,-95.9789751470089
"74447","Okmulgee","OK","Select Fitness","not_available","74447",35.60298473806653,-95.96301140600474
"74464","Tahlequah","OK","Anytime Fitness","1741 S Muskogee Ave Ste 5","74464",35.89441,-94.9758
"74464","Tahlequah","OK","Marcoma Gym","not_available","74464",35.91969575970202,-94.96219268489077
"74467","Wagoner","OK","The Ice House","not_available","74467",35.96113611649781,-95.37181399839055
"74469","Warner","OK","CSC gym","not_available","74469",35.49390445007174,-95.31930527128932
"74501","Mcalester","OK","Signature Fitness","not_available","74501",34.9298095703125,-95.7664566040039
"74578","Wilburton","OK","Briarhill Apartments Gym","Briarhill Apartments","74578",34.912523,-95.328162
"74601","Ponca City","OK","Planet Fitness","not_available","74601",36.728622656735496,-97.068659786421
"74601","Ponca City","OK","Planet Fitness","2620 N 14th St","74601",36.736005,-97.068746
"74631","Blackwell","OK","Snap Fitness","2211 S 29th St","74631",36.793521881103516,-97.32023620605469
"74631","Blackwell","OK","Snap Fitness","827 W Doolin Ave","74631",36.81045913696289,-97.29618835449219
"74701","Durant","OK","Anytime Fitness","3601 W Main Street","74701",33.99847,-96.41106
"74701","Durant","OK","Xtreme Fitness","not_available","74701",34.004582,-96.39941
"74701","Durant","OK","Choctaw Wellness Center","not_available","74730",33.93434047401249,-96.4279463342752
"74701","Durant","OK","Choctaw Nation Wellness Center","4124 S Highway 69/75","74701",33.956616550845965,-96.41479429861621
"74701","Durant","OK","Workout Anytime","905 W Main St","74701",33.99229880851611,-96.38608753681183
"74728","Broken Bow","OK","BMW Fitness","8843 N HWY 259","74728",34.1464812,-94.7480812
"74743","Hugo","OK","Anytime Fitness","1800 E Jackson St","74743",34.00555,-95.49119
"74801","Shawnee","OK","OBU Wellness Center","not_available","74804",35.35918085066522,-96.93691067654423
"74801","Shawnee","OK","Planet Fitness","600 W Independence St","74804",35.348241,-96.932738
"74801","Shawnee","OK","The Rock Fitness Center","not_available","74873",35.34741831556326,-96.93715493508184
"74801","Shawnee","OK","Planet Fitness","1510 N Kickapoo Ave Ste A-15","74804",35.348304748535156,-96.93170166015625
"74801","Shawnee","OK","Bones Gym--Crossfit Training","not_available","74801",35.32248984991834,-96.92507237728799
"74801","Shawnee","OK","Fitness Xpress 24/7","1609 N Harrison St","74804",35.350189208984375,-96.91166687011719
"74801","Shawnee","OK","Anytime Fitness","1601 N Kickapoo Ave Ste 100","74804",35.34872,-96.92963
"74804","Shawnee","OK","Chapel Ridge Office/Gym/Pool A","130 E 45th St","74804",35.37833065148088,-96.92253558462468
"74820","Ada","OK","Gym 210","230 N Broadway Ave","74820",34.77632141113281,-96.67831420898438
"74820","Ada","OK","First Baptist Church Gym","521 S Broadway Ave","74820",34.77056680206986,-96.6793888399128
"74820","Ada","OK","Perks Club","not_available","74820",34.77399921139751,-96.68025563569498
"74864","Prague","OK","samson fitness","not_available","74864",35.48564147949219,-96.68605041503906
"74868","Seminole","OK","Reynold's Wellness Center","not_available","74868",35.23121569609431,-96.65926214842274
"74937","Heavener","OK","The Micah Baker Basketball Stadium","not_available","74940",34.95173862840159,-94.63770277266146
"74953","Poteau","OK","Anytime Fitness","2205 N Broadway St","74953",35.073448181152344,-94.62928771972656
"74955","Sallisaw","OK","Home Gym","1503 N Wheeler","74955",35.474912912393876,-94.784095287323
"74960","Stilwell","OK","FTH Studio","not_available","74960",35.81035614013672,-94.63299560546875
