"zip","city","state","name","address","postalCode","lat","lon"
"99501","Anchorage","AK","New Sagaya's City Market","900 W 13th Ave","99501",61.20945889951725,-149.90057887449547
"99501","Anchorage","AK","Carrs","3101 Penland Pkwy","99508",61.216374,-149.8233662
"99501","Anchorage","AK","Red Apple Market","131 Bragaw St","99508",61.223480052045474,-149.80755868151292
"99501","Anchorage","AK","Carrs","1340 Gambell St","99501",61.2093785343525,-149.87182363668805
"99501","Anchorage","AK","Sagway's","not_available","99501",61.215453,-149.907573
"99501","Anchorage","AK","Grocery Mini Stop","not_available","99508",61.207489013671875,-149.80392456054688
"99501","Anchorage","AK","Alaska Grocery Shippers","not_available","not_available",61.21207688446877,-149.85465655234935
"99501","Anchorage","AK","New Asian Market","4040 Mountain View Dr","99508",61.223901,-149.805175
"99501","Anchorage","AK","Lucky Grocery & Deli","326 W 4th Ave","99501",61.218272,-149.888531
"99502","Anchorage","AK","Fred Meyer","2000 W Dimond Blvd","99515",61.1364491,-149.9195538
"99502","Anchorage","AK","Carrs","1650 W Northern Lights Blvd","99517",61.1943057,-149.9161072
"99502","Anchorage","AK","Carrs","4000 W Dimond Blvd","99502",61.136418,-149.953534
"99502","Anchorage","AK","Clicklist","not_available","99515",61.13659,-149.921045
"99502","Anchorage","AK","Blue Market AK","1406 W 31st Ave","99503",61.19189,-149.91045
"99503","Anchorage","AK","Walmart Supercenter","3101 A St","99503",61.19227450750149,-149.8806832281777
"99503","Anchorage","AK","Carrs","2920 Seward Hwy","99503",61.1938,-149.871844
"99503","Anchorage","AK","Fred Meyer","1000 E Northern Lights Blvd","99508",61.1943115,-149.8648926
"99503","Anchorage","AK","New Sagaya's Midtown Market","3700 Old Seward Hwy","99503",61.18713834111906,-149.86958965183075
"99503","Anchorage","AK","New Central Market","555 W Northern Lights Blvd","99503",61.195864,-149.89411
"99503","Anchorage","AK","Willow Creek Grocery","not_available","99688",61.734847,-150.040122
"99503","Anchorage","AK","Mexico Lindo","1201 W Tudor Rd #1","99503",61.181066,-149.906014
"99503","Anchorage","AK","APA Asian Market","300 W 36th Ave","99503",61.187723,-149.887567
"99503","Anchorage","AK","Alaska International Grocery/ Alaska Halal Grocery","401 W Intl Airport Rd Ste 23","99518",61.1746275,-149.8911859
"99503","Anchorage","AK","Greatland Grocery & Supply, LLC","314 E Intl Airport Rd","99518",61.17326378872109,-149.87824760978697
"99503","Anchorage","AK","Oroweat","1200 E Intl Airport Rd","99518",61.17305699999999,-149.859736
"99503","Anchorage","AK","Mom And Pop's Grocery","Being Village Mall","99503",61.18956897837074,-149.8954146271417
"99503","Anchorage","AK","Eastern European Store & Deli","601 W 36th Ave Ste 12","99503",61.1885605,-149.8957794
"99503","Anchorage","AK","Oriental Shopping Center","480 E Fireweed Ln","99503",61.197573,-149.875238
"99504","Anchorage","AK","Walmart Supercenter","7405 Debarr Road","99504",61.21172902164422,-149.74360607344386
"99504","Anchorage","AK","Fred Meyer","7701 Debarr Rd","99504",61.2111422,-149.7358294
"99504","Anchorage","AK","Carrs","7731 E Northern Lights Blvd","99504",61.1964691,-149.7369688
"99504","Anchorage","AK","Carrs","5600 Debarr Rd","99504",61.2082887,-149.7763682
"99504","Anchorage","AK","Alaska International Grocery/ Alaska Halal Grocery","7211 akutan cir","99504",61.20004,-149.746434
"99504","Anchorage","AK","Dragon Oriental Market & Gifts","171 Muldoon Rd","99504",61.223142,-149.733034
"99504","Anchorage","AK","Walmart Grocery Pickup","7405 Debarr Rd","99504",61.20972,-149.742961688312
"99505","Jber","AK","Carrs","11409 Business Park Blvd","99577",61.3244867,-149.5727724
"99506","Jber","AK","Anchorage Area Commissary","5800 Westover Ave","99506",61.23429687311286,-149.76558022643653
"99507","Anchorage","AK","Fred Meyer","2300 Abbott Rd","99507",61.1358186,-149.8377243
"99507","Anchorage","AK","Carrs","1725 Abbott Rd","99507",61.142257,-149.844381
"99507","Anchorage","AK","Carrs","1501 Huffman Rd","99515",61.1093097,-149.8538578
"99507","Anchorage","AK","A.C. Oriental Market","5905 Lake Otis Pkwy Ste D","99507",61.16719200000001,-149.836944
"99507","Anchorage","AK","Tudor Asian Grocery","2808 E Tudor Rd","99507",61.180579,-149.828686
"99507","Anchorage","AK","Northern Aurora Seafood","4325 Laurel Street","99508",61.181358337402344,-149.83384704589844
"99507","Anchorage","AK","Walmart Neighborhood Market","8801 Old Seward Hwy.","99515",61.14076614379883,-149.8600616455078
"99515","Anchorage","AK","Walmart Supercenter","8900 Old Seward Hwy","99515",61.140094720094766,-149.86849041283963
"99518","Anchorage","AK","Demilyn Asian Market","7049 Arctic Blvd","99518",61.15637670950172,-149.89135250515537
"99559","Bethel","AK","Swanson's Grocery","830 River Street","99559",60.79480126647739,-161.78191402433922
"99559","Bethel","AK","Corina's","165 East St.","99559",60.79165267944336,-161.74295043945312
"99566","Chitina","AK","McCarthy Center Store","not_available","99573",61.432766,-142.923167
"99567","Chugiak","AK","Walmart Supercenter","18600 Eagle River Rd","99577",61.30949090080836,-149.53499120477045
"99574","Cordova","AK","Safeway","1313 Meals St","99686",61.1313838,-146.3488764
"99574","Cordova","AK","Eagle Quality Center","Meales Ave","99686",61.13146665860722,-146.34925488126493
"99576","Dillingham","AK","AC Alaska Commercial Co","not_available","99576",59.04493421272033,-158.5007566804598
"99577","Eagle River","AK","Fred Meyer","13401 Old Glenn Hwy","99577",61.3410323,-149.5562462
"99583","False Pass","AK","Isanotski Store","Hillside Rd","99583",54.868358,-163.421168
"99587","Girdwood","AK","Eagle","147 Hightower Rd","99587",60.962642669677734,-149.13424682617188
"99588","Glennallen","AK","Omni Park's Place","Milepost 187.5 Glenn Hwy.","99588",62.108129,-145.529178
"99603","Homer","AK","Safeway","90 Sterling Hwy","99603",59.643345475824084,-151.53417670978695
"99603","Homer","AK","Save-U-More","3611 Greatland St","99603",59.6425434264191,-151.54799052497344
"99603","Homer","AK","Kachemak Wholesale","601 E Pioneer Ave","99603",59.647982999999996,-151.52862199999998
"99605","Hope","AK","Alaska Dacha","19842 Hope Hwy","99605",60.919566806963786,-149.62023854255676
"99610","Kasilof","AK","Safeway","44428 Sterling Hwy","99669",60.4840862,-151.0710256
"99611","Kenai","AK","Fred Meyer","43843 Sterling Hwy","99669",60.4897261,-151.049834
"99611","Kenai","AK","Safeway","10576 Kenai Spur Hwy","99611",60.5600709,-151.2404437
"99611","Kenai","AK","Three Bears","10575 Kenai Spur Hwy","99611",60.558099375445366,-151.237921175261
"99611","Kenai","AK","Walmart Supercenter","10096 Kenai Spur Hwy","99611",60.56335048260168,-151.226083486861
"99611","Kenai","AK","Save U More","43531 Kalifornsky Beach Rd","99669",60.490950505591236,-151.15523014575373
"99611","Kenai","AK","IGA","not_available","99611",60.55730045594539,-151.25299592794286
"99611","Kenai","AK","Country Foods","140 S Willow St","99611",60.55750134169137,-151.2522474424498
"99611","Kenai","AK","Bing Brown's RV Park & Liqour Store","32708 Sterling Hwy","99672",60.52790069580078,-150.72511291503906
"99613","King Salmon","AK","Alaska Commercial Company","not_available","99613",58.68292,-156.66968
"99615","Kodiak","AK","Walmart","2911 Mill Bay Rd","99615",57.81136453659936,-152.36499868288334
"99615","Kodiak","AK","Safeway","2685 Mill Bay Rd","99615",57.8105865,-152.3671142
"99615","Kodiak","AK","Kodiak Commissary","USCG Bldg N-27","99619-5028",57.733581173772954,-152.5055797536471
"99615","Kodiak","AK","Cost-Savers: Kodiak's Costco Connection","2161 Mill Bay Rd","99615",57.80496742190512,-152.37358465866302
"99645","Palmer","AK","Fred Meyer","535 E Palmer Wasilla Hwy","99645",61.60067160000001,-149.124495
"99645","Palmer","AK","Walmart Supercenter","1350 S Seward Meridian Pkwy","99654",61.568618379476284,-149.36364497534274
"99645","Palmer","AK","Carrs","664 W Evergreen Ave","99645",61.598038,-149.1269948
"99652","Big Lake","AK","Three Bears Biglake","3261 S Big Lake Rd","99623",61.545824,-149.816694
"99652","Big Lake","AK","Big Lake Superstore","not_available","99652",61.54630970407516,-149.81715269783965
"99652","Big Lake","AK","Steve's Food Boy","3261 S Big Lake Rd","99652",61.545679039860744,-149.81682749178518
"99654","Wasilla","AK","Fred Meyer","1501 E Parks Hwy","99654",61.579397078855486,-149.40900722426056
"99654","Wasilla","AK","Carrs","595 E Parks Hwy","99654",61.5826545,-149.4358585
"99654","Wasilla","AK","Mat Su Water","not_available","99654",61.57946,-149.491782
"99654","Wasilla","AK","Three Bears","not_available","99623",61.534576,-149.59352
"99654","Wasilla","AK","Three Bears Alaska","3960 S Knik Goose Bay Rd","99654",61.53641485090584,-149.5813564416278
"99654","Wasilla","AK","Fred Meyer West","not_available","99505",61.336376,-149.661205
"99654","Wasilla","AK","Eastern European Store & Deli","447 W Parks Hwy","99654",61.5827846,-149.4605045
"99659","Saint Michael","AK","St. Michael AC store","not_available","99659",63.478619647030946,-162.0356908683771
"99664","Seward","AK","Safeway","1907 Seward Hwy","99664",60.1262196,-149.4363947
"99664","Seward","AK","Seward Marketplace","1711 Seward Highway","99664",60.124165,-149.438293
"99676","Talkeetna","AK","Nagley's Store","13650 E Main St","99676",62.32303868586382,-150.112774265636
"99676","Talkeetna","AK","Cubby's Marketplace IGA","not_available","99676",62.13326747031529,-150.0374166296049
"99685","Unalaska","AK","Safeway","2029 Airport Beach Rd","99692",53.88524779858389,-166.54774013226415
"99701","Fairbanks","AK","Walmart Supercenter","537 Johansen Expy","99701",64.85695725314608,-147.6906073151903
"99701","Fairbanks","AK","Fred Meyer","3755 Airport Way","99709",64.8357021,-147.8179637
"99701","Fairbanks","AK","Safeway","3627 Airport Way","99709",64.8356859,-147.8084422
"99701","Fairbanks","AK","Safeway","30 College Rd","99701",64.8514782,-147.7005299
"99701","Fairbanks","AK","Fred Meyer","930 Old Steese Hwy Ste A","99701",64.8545619,-147.689942
"99701","Fairbanks","AK","AAFES PX/Commissary","not_available","99703",64.82498007792509,-147.63589162014787
"99701","Fairbanks","AK","McPeaks","not_available","99705",64.81794030757628,-147.5673804725523
"99701","Fairbanks","AK","Co-Op Market Grocery & Deli","526 Gaffney Rd","99701",64.8372498805762,-147.71544778740113
"99701","Fairbanks","AK","Fisher's","not_available","99701",64.82231903076172,-147.74029541015625
"99701","Fairbanks","AK","Taco Loco","3815 S Cushman St Ste F","99701",64.80995659999999,-147.7088808
"99701","Fairbanks","AK","Eurostyle","not_available","99709",64.837351,-147.811954
"99701","Fairbanks","AK","Fort Wainwright Commissary","3703A Santiago Ave","99703",64.82497874913122,-147.63582067693878
"99701","Fairbanks","AK","Quality Sales Food Service","1900 Phillips Field Rd","99701",64.846376,-147.761007
"99702","Eielson Afb","AK","Eielson AFB Commissary","2540 CENTRAL AVE STE 100","99702-2399",64.67698163774267,-147.0857445226516
"99705","North Pole","AK","Safeway","301 N Santa Claus Ln","99705",64.7576671,-147.3538528
"99723","Barrow","AK","Alaska Commercial","229 Pisokak St.","99723",71.28684997558594,-156.79800415039062
"99723","Barrow","AK","Alaska Commercial Company","4725 Ahkovak St","99723",71.299088,-156.754921
"99723","Barrow","AK","Arctic Grocery","not_available","99723",71.288177,-156.798585
"99743","Healy","AK","Three Bears Grocery","248.7 GEORGE PARKS HWY","99743",63.86690482771474,-149.02376771708944
"99752","Kotzebue","AK","AC Value Center","Bison Street","not_available",66.8977021271657,-162.5860180875692
"99753","Koyuk","AK","Koyuk Native Store","2nd & Spruce St","99753",64.933307,-161.159585
"99760","Nenana","AK","Coghillâ€™s General Store","not_available","99760",64.563696,-149.096255
"99762","Nome","AK","Eagle","415 Bering St","99762",64.5008318,-165.4080919
"99780","Tok","AK","Three Bears Food Center","1314 Alaska Highway","99780",63.33570623230911,-142.98461437225342
"99801","Juneau","AK","Fred Meyer","8181 Glacier Hwy","99801",58.3593021,-134.5615877
"99801","Juneau","AK","Safeway","3033 Vintage Blvd","99801",58.3709524,-134.5957274
"99801","Juneau","AK","Rainbow Foods","224 4th St","99801",58.302373030804596,-134.40909574899388
"99801","Juneau","AK","Super Bear Supermarket","9103 Mendenhall Mall Rd.","99801",58.371643613835644,-134.58766834248243
"99801","Juneau","AK","A&P","631 W Willoughby Ave","99801",58.2999771472349,-134.4183659954372
"99825","Elfin Cove","AK","Hoonah Trading  Company","not_available","99829",58.113353,-135.449252
"99835","Sitka","AK","Market Center","210 Baranof St","99835",57.052953600988154,-135.33034290332267
"99835","Sitka","AK","Lakeside","705 Halibut Point Rd","99835",57.05708502740671,-135.34612068924224
"99835","Sitka","AK","Sea Mart Quality Foods","1867 Halibut Point Rd","99835",57.06834069704364,-135.36720003200318
"99901","Ketchikan","AK","Alaskan And Proud Market","3816 Tongass Ave","99901",55.35709719829223,-131.69438426811016
"99901","Ketchikan","AK","Walmart","4230 Don King Rd","99901",55.375961817685386,-131.72018452733914
"99901","Ketchikan","AK","Safeway","2417 Tongass Ave","99901",55.348294,-131.6739109
"99901","Ketchikan","AK","Tatsuda's","633 Stedman St.","99901",55.33921672854683,-131.63636641601755
