"zip","city","state","name","address","postalCode","lat","lon"
"70001","Metairie","LA","Rouses Market","2701 Airline Dr","70001",29.974773063248957,-90.15066237602228
"70001","Metairie","LA","Winn-Dixie","5901 Airline Dr","70003",29.977652510569442,-90.19708968002365
"70001","Metairie","LA","Langenstein's Market","800 Metairie Road","70005",29.98756,-90.13127
"70001","Metairie","LA","Canseco's Markets","1519 Metairie Rd","70005",29.987113816971394,-90.14059051578421
"70001","Metairie","LA","Rouses Market","717 Clearview Pkwy","70001",29.981683861995794,-90.17799139022827
"70001","Metairie","LA","Zummo's Supermarket","3423 Metairie Rd","70001",29.976459503173828,-90.1620864868164
"70001","Metairie","LA","Reyes Tiana Latina","not_available","70001",29.99811764121357,-90.18065279404902
"70001","Metairie","LA","Discount Stop","1001 Metairie Rd","70005",29.988986,-90.13271102454613
"70002","Metairie","LA","Whole Foods Market","3420 Veterans Memorial Blvd","70002",30.002174421916322,-90.15895696212503
"70002","Metairie","LA","Trader Joe's","2949 Veterans Blvd","70002",30.004376290046956,-90.15199645499837
"70002","Metairie","LA","Rouses Market","2900 Veterans Memorial Blvd","70002",30.001569230735413,-90.15116930007935
"70002","Metairie","LA","Ideal Market","3805 Hessmer Ave","70002",30.00881363376366,-90.16311234417225
"70002","Metairie","LA","Breaux Mart","2904 Severn Ave","70002",30.005057892697295,-90.16003935630305
"70002","Metairie","LA","International Market","3940 Barron St","70002",30.0023554459289,-90.1740825908166
"70002","Metairie","LA","Golden City Asian Market","2712 N Arnoult Rd","70002",30.000307,-90.161153
"70002","Metairie","LA","Las Villas Grocery","3601 Division St","70002",30.007238388061523,-90.1642837524414
"70002","Metairie","LA","Houma Foods Market","3400 Houma Blvd","70006",30.005741999999998,-90.180255
"70003","Metairie","LA","Walmart Supercenter","8912 Veterans Memorial Blvd","70003",30.003576130734317,-90.22924304008484
"70003","Metairie","LA","Rouses Market","3711 Power Blvd","70003",30.011463969342817,-90.22067070007324
"70003","Metairie","LA","Zuppardo's","5010 Veterans Memorial Blvd","70006",30.00534855299451,-90.19540503625298
"70003","Metairie","LA","Robert Fresh Market","5016 W Esplanade Ave","70006",30.01649162128225,-90.19930603919768
"70003","Metairie","LA","Save A Lot","6525 Airline Dr","70003",29.978175653109833,-90.20587326779656
"70003","Metairie","LA","Oriental Market","3324 Transcontinental Dr","70006",30.006793729304036,-90.19573230792913
"70003","Metairie","LA","Roberts","west esplanade","70003",30.020869950779243,-90.22465626184692
"70005","Metairie","LA","Dorignac's","710 Veterans Memorial Blvd","70005",30.000955792994404,-90.130431194995
"70005","Metairie","LA","Winn-Dixie","211 Veterans Memorial Blvd","70005",30.001717635884376,-90.12511545835625
"70005","Metairie","LA","Walmart Grocery Pickup","615 Veterans Boulevard","70005",30.001895904541016,-90.12904357910156
"70005","Metairie","LA","The Fresh Market","755 Veterans Memorial Blvd, Ste A","70005",30.00354033103355,-90.13045025824411
"70005","Metairie","LA","Seminole","1518 Seminole St.","70124",30.018924998687904,-90.12594735394732
"70005","Metairie","LA","Paul's Stop and Shop","1030 Veterans Memorial Blvd","70005",30.001352,-90.13415400000001
"70030","Des Allemands","LA","Frank's Supermarket","17235 Highway 90","70030",29.82297706604004,-90.46619415283203
"70032","Arabi","LA","Canseco's Market","6735 Saint Claude Ave","70032",29.957478,-90.003827
"70032","Arabi","LA","Magnolia Discount","6100 N Claiborne Ave","70117",29.964233,-90.008685
"70032","Arabi","LA","Walmart Grocery Pickup and Delivery","8101 W Judge Perez Dr","70043",29.9557227272727,-89.9843843434343
"70036","Barataria","LA","Piggly Wiggly","Lafitte","70067",29.733985598951712,-90.12500718310133
"70037","Belle Chasse","LA","Walmart Supercenter","1501 Manhattan Blvd","70058",29.895415225019953,-90.05728125572205
"70037","Belle Chasse","LA","Walmart Neighborhood Market","3265 Manhattan Blvd","70058",29.861692596479337,-90.04501819610596
"70037","Belle Chasse","LA","Balestra's","7902 Highway 23","70037",29.8617611002692,-89.99587063988447
"70037","Belle Chasse","LA","Hong Kong Food Market","925 Behrman Hwy","70056",29.890862286112316,-90.01845194125342
"70037","Belle Chasse","LA","Rouses Food Market","2851 Belle Chasse Hwy","70056",29.882094986524613,-90.01916170120239
"70037","Belle Chasse","LA","New Orleans NAS JRB Commissary","400 Russell Ave Bldg 502B","70037",29.825617843129283,-90.02080814316194
"70037","Belle Chasse","LA","Winn-Dixie","2112 Belle Chasse Hwy.","70056",29.887927927808843,-90.03229299719959
"70037","Belle Chasse","LA","Balestras","Hwy 23","70037",29.852436,-89.986618
"70037","Belle Chasse","LA","Latino Express","700 Terry Pkwy","70056",29.900084999999997,-90.030638
"70037","Belle Chasse","LA","Ideal Market","not_available","70056",29.901431902156947,-90.02916044778031
"70037","Belle Chasse","LA","J & K Discount Store","514 Gretna Blvd","70053",29.898666,-90.045676
"70037","Belle Chasse","LA","Budget Saver","lafeyette street","not_available",29.90410951824185,-90.05268108509911
"70037","Belle Chasse","LA","BAD HEN Commissary","not_available","not_available",29.828733444213867,-90.0182113647461
"70037","Belle Chasse","LA","Kien Giang Market","not_available","70053",29.9038156829824,-90.05268108509911
"70037","Belle Chasse","LA","Becnel Market","14117 Highway 23","70037",29.718019485473633,-89.99507904052734
"70037","Belle Chasse","LA","Breaux Mart","605 Lapalco Blvd","70056",29.87795697258275,-90.03610817417083
"70037","Belle Chasse","LA","Save-A-Lot","601 Terry Pkwy","70056",29.903184690739383,-90.02950641866795
"70039","Boutte","LA","Walmart Supercenter","13001 Highway 90","70039",29.904678810559446,-90.37237644195557
"70039","Boutte","LA","Majoria's","13413 Highway 90","70039",29.901796,-90.38429617881775
"70043","Chalmette","LA","Winn-Dixie","3300 Paris Rd","70043",29.949950800827256,-89.9622361044551
"70043","Chalmette","LA","Breaux Mart","315 E Judge Perez Dr","70043",29.941986148303247,-89.96079410415219
"70043","Chalmette","LA","Ponstein's Food Store","3523 Paris Rd","70043",29.951833412040603,-89.9587609784825
"70043","Chalmette","LA","B&G Fresh Market","501 W Judge Perez Dr","70043",29.944201442119596,-89.96692803851731
"70043","Chalmette","LA","Jeanfreau's","2324 Paris Rd","70043",29.940478326170325,-89.9649863095508
"70043","Chalmette","LA","Save-A-Lot","8700 W Judge Perez Dr","70043",29.950094160374334,-89.97366920495098
"70047","Destrehan","LA","Winn-Dixie","12519 Airline Hwy Ste A","70047",29.98648298978792,-90.3622172916242
"70047","Destrehan","LA","cashios","13572 river road","70079",29.951583862304688,-90.38074493408203
"70047","Destrehan","LA","Save-A-Lot","6525 Airline Hwy","70003",29.98061943,-90.3378067
"70047","Destrehan","LA","Cashio's FoodVilla","not_available","70047",29.951493329254863,-90.38062670166303
"70052","Gramercy","LA","Winn-Dixie","1803 Highway 3125","70052",30.0612312854613,-90.69999912479953
"70052","Gramercy","LA","Veron's Supermarket","not_available","70071",30.043428999999996,-90.695042
"70053","Gretna","LA","Walmart Supercenter","1901 Tchoupitoulas St","70130",29.92513749302936,-90.07018804550171
"70053","Gretna","LA","Walmart Neighborhood Market","99 Westbank Expy","70053",29.913364964638866,-90.0537621974945
"70053","Gretna","LA","Rouses Market","91 Westbank Expy Ste 600","70053",29.91882364811949,-90.05090832710266
"70053","Gretna","LA","Poeyfarre Market","925 Poeyfarre St","70130",29.941709528393265,-90.06853061453361
"70053","Gretna","LA","Nesbit's Julia Street Market","333 Julia St","70130",29.945187,-90.067001
"70056","Gretna","LA","Rouses Market","4001 General Degaulle Dr","70114",29.919168187017394,-90.01477897167206
"70056","Gretna","LA","Winn-Dixie","3008 Holiday Dr","70131",29.92361744850523,-90.01201438587641
"70056","Gretna","LA","Walmart Supercenter","4001 Behrman Pl","70114",29.911365542325797,-90.02043843269348
"70056","Gretna","LA","Save-A-Lot","3640 MacArthur Blvd Suite A-B","70114",29.925480530888994,-90.01905414697494
"70057","Hahnville","LA","Greaud Fine Foods Grocery","not_available","70079",30.001346,-90.412111
"70058","Harvey","LA","Dong Khanh","3709 Westbank Expy","70058",29.897108000000003,-90.088201
"70058","Harvey","LA","Winn-Dixie","3645 Lapalco Blvd","70058",29.87033384773319,-90.08134653317295
"70058","Harvey","LA","Rotollo's Supermarket","4th Street","70058",29.906282398197906,-90.08811743070612
"70062","Kenner","LA","Winn-Dixie","2104 Williams Blvd","70062",29.994869843403695,-90.24050730948476
"70062","Kenner","LA","Jerusalem Market","2544 Williams Blvd","70062",30.002666,-90.240579
"70065","Kenner","LA","Walmart Supercenter","300 W Esplanade Ave","70065",30.024980538109965,-90.2681028842926
"70065","Kenner","LA","Walmart Neighborhood Market","3520 Williams Blvd","70065",30.020651720749687,-90.2376651763916
"70065","Kenner","LA","Rouses Market","4041 Williams Blvd","not_available",30.029629323839078,-90.23967190938855
"70065","Kenner","LA","La Unica Xpress","not_available","70065",30.019396,-90.238729
"70065","Kenner","LA","Save-A-Lot","3406 Williams Blvd","70065",30.018537,-90.237687
"70065","Kenner","LA","Eastern European Foods","3320 Williams Blvd","70065",30.016605377197266,-90.2393798828125
"70065","Kenner","LA","Chateau Supermarket","600 Vintage Dr","70065",30.03441579061869,-90.26110602784195
"70068","La Place","LA","Walmart Supercenter","1616 W Airline Hwy","70068",30.074766917751955,-90.49819350242615
"70068","La Place","LA","Winn-Dixie","1830 W Airline Hwy","70068",30.07518368703935,-90.50246099680828
"70068","La Place","LA","Matherne's Supermarket","1424 W Airline Hwy","70068",30.073220460901734,-90.4942001950155
"70068","La Place","LA","Lynn's Grocery","not_available","70084",30.052577,-90.546301
"70068","La Place","LA","Food 4 Less","1709 W Airline Hwy","70068",30.071956634521484,-90.49798583984375
"70070","Luling","LA","Walmart Supercenter","5110 Jefferson Hwy","70123",29.949496439234156,-90.17950415611267
"70070","Luling","LA","Winn-Dixie","12125 Highway 90","70070",29.91301727402052,-90.34310715169808
"70070","Luling","LA","Winn-Dixie","8601 Jefferson Hwy","70123",29.942828299216373,-90.2123602517382
"70070","Luling","LA","Marques wholesale market","not_available","70123",29.942563692469413,-90.18689345884847
"70070","Luling","LA","Suda Salvage","Clearview Pkwy","70123",29.948879,-90.18277
"70070","Luling","LA","Winn-Dixie","3001 Highway 90 W","70094",29.90935308403647,-90.20557860631985
"70072","Marrero","LA","Walmart Supercenter","4810 Lapalco Blvd","70072",29.87864371266933,-90.09330868721008
"70072","Marrero","LA","Rouses Market","6205 Lapalco Blvd","70072",29.874492645263672,-90.1125259399414
"70072","Marrero","LA","Ragusa Grocery","Garden Road","70072",29.89435029180039,-90.11909166845453
"70072","Marrero","LA","Winn-Dixie","4627 Westbank Expy","70072",29.894062427837415,-90.09697153192515
"70072","Marrero","LA","Laborie's","not_available","70072",29.852235162334434,-90.10978352196986
"70072","Marrero","LA","Piggly Wiggly","909 Westbank Expy","70094",29.899009377160628,-90.14300940372955
"70072","Marrero","LA","Sterling Farms","5969 Lapalco Blvd","70072",29.87433523696118,-90.11106720533203
"70072","Marrero","LA","Winn Dixie","lapalco blvd","not_available",29.853107145535873,-90.11657042771802
"70072","Marrero","LA","Winn-Dixie","1070 Westbank Expy","70094",29.896647572140147,-90.14186117841095
"70072","Marrero","LA","Save-A-Lot","5003 Lapalco Blvd","70072",29.87377,-90.099226
"70072","Marrero","LA","Jalisco Spanish Supermarket","3511 Ames Blvd","70072",29.85540008544922,-90.1092300415039
"70075","Meraux","LA","Walmart Neighborhood Market","2500 Archbishop Hannan Blvd","70075",29.934156576773557,-89.92422223091125
"70084","Reserve","LA","Gregg's Neighborhood Market","148 Central Ave","70084",30.05524697,-90.55157482624054
"70085","Saint Bernard","LA","South Lake Food Store","7532 E Judge Perez Dr","70092",29.879412032451494,-89.87775212153792
"70090","Vacherie","LA","Schexnayder's Supermarket","not_available","70090",29.934347999999996,-90.678302
"70094","Westwego","LA","Breaux Mart","9647 Jefferson Hwy","70123",29.957390339594795,-90.21745433576699
"70094","Westwego","LA","Canseco’s Market","1133 S Carrollton Ave","70118",29.94696,-90.12957
"70094","Westwego","LA","Shopper’s Value Foods","3623 Jefferson Hwy","70121",29.96367835998535,-90.16265106201172
"70094","Westwego","LA","Singleton's Mini Mart","7446 Garfield St","70118",29.934831988607417,-90.13153838099743
"70094","Westwego","LA","don's food Mart","not_available","70118",29.95548,-90.12998
"70094","Westwego","LA","Brother's Food Mart","not_available","70121",29.957654100912826,-90.17461217064154
"70094","Westwego","LA","Elmwood Oaks Shopping Center","800 S Clearview Pkwy","70123",29.95235032230296,-90.18133878707886
"70094","Westwego","LA","LANGENSTIENS","122 Sauve Rd","70123",29.961703999999997,-90.220072
"70112","New Orleans","LA","Brother's Food Mart And Fried Chicken","148 Carondelet St","70130",29.95269085611283,-90.07084171374967
"70112","New Orleans","LA","Unique Grocery","127 Royal St","70130",29.953820072555647,-90.06852913951475
"70112","New Orleans","LA","Casa Angelo Inc.","212 Magazine St","70130",29.950740814208984,-90.0673828125
"70112","New Orleans","LA","Toulouse House Grocery & Deli","605 Dauphine St","70112",29.958540301860758,-90.06718355452415
"70112","New Orleans","LA","Quarter Grocery","836 Burgundy St","70116",29.961376518507848,-90.06602209458278
"70112","New Orleans","LA","Compac","501 Dauphine St","70112",29.956928620768743,-90.06684915789826
"70113","New Orleans","LA","Rouses Market","701 Baronne St","70113",29.94787749143497,-90.07413264573105
"70113","New Orleans","LA","Chicken Mart","LaSalle","70113",29.938788670865023,-90.08459422968879
"70113","New Orleans","LA","Magnolia Supermarket","2201 Jackson Ave","70113",29.942837,-90.088298
"70113","New Orleans","LA","Louisiana Grocery & Deli","Julia Street","not_available",29.943767009137066,-90.07320197851566
"70113","New Orleans","LA","RedZone","2025 Saint Charles Ave","70130",29.935033922545824,-90.07929121168014
"70114","New Orleans","LA","Faubourg Fresh Market","541 Bermuda St","70114",29.951139,-90.051511
"70114","New Orleans","LA","Save-A-Lot","3640 Macarthur","70114",29.938155,-90.03667
"70115","New Orleans","LA","Rouses Market","4500 Tchoupitoulas St","70115",29.916581153710336,-90.10293942746462
"70115","New Orleans","LA","Whole Foods Market","5600 Magazine St","70115",29.92117191681296,-90.11743635377712
"70115","New Orleans","LA","Winn-Dixie","5400 Tchoupitoulas St","70115",29.916206528842217,-90.11642098397519
"70115","New Orleans","LA","Breaux Mart","3233 Magazine St","70115",29.92385489021762,-90.08772059259599
"70115","New Orleans","LA","The Fresh Market","3338 Saint Charles Ave,","70115",29.928227340929094,-90.09103646271575
"70115","New Orleans","LA","Langenstein's (Uptown)","1330 Arabella St","70115",29.92671,-90.11683
"70115","New Orleans","LA","Zara's Little Giant Supermarket","4838 Prytania St","70115",29.92442178602682,-90.10744973289351
"70115","New Orleans","LA","Pick Up n Go Food Store","Magazine","not_available",29.920703000000003,-90.10544
"70115","New Orleans","LA","Pick Up And Go","4713 Magazine St","70115",29.92070770263672,-90.10543060302734
"70115","New Orleans","LA","Las Acacias Supermercado","4929 Freret St","70115",29.934517285911895,-90.10960750999273
"70115","New Orleans","LA","Crescent Cart","3436 Magazine St","70115",29.922442999999998,-90.089809
"70115","New Orleans","LA","Save-A-Lot","2841 S Claiborne Suite B","70125",29.942737,-90.095861
"70116","New Orleans","LA","Robert’s Fresh Market","2222 St. Claude Avenue","70117",29.968495,-90.056062
"70116","New Orleans","LA","Rouses Market","701 Royal St","70116",29.958165748175656,-90.06478607654572
"70116","New Orleans","LA","Napoleon House","500 Chartres Street","70130",29.9558754,-90.065056
"70116","New Orleans","LA","Manchu Food Store","1413 N Claiborne Ave","70116",29.96961813009377,-90.06853043377384
"70116","New Orleans","LA","New Orleans Food Co-op","2372 Saint Claude Ave","70117",29.96828008349928,-90.05245090390036
"70116","New Orleans","LA","Central Grocery Co.","923 Decatur St","70116",29.958837,-90.061055
"70116","New Orleans","LA","Verti Marte","1201 Royal St","70116",29.96203379095481,-90.06119572079055
"70116","New Orleans","LA","Frenchmen Grocery Deli","602 Frenchmen St","70116",29.96365194725517,-90.05774446960113
"70116","New Orleans","LA","Esplanade Mini Mart","839 Esplanade Ave","70116",29.96472050068359,-90.06168078783628
"70116","New Orleans","LA","Mattasa's","1001 Dauphine St","70116",29.961835999999998,-90.064359
"70116","New Orleans","LA","Neighborhood Food Mart","2101 Governor Nicholls St","70116",29.970627,-90.073502
"70116","New Orleans","LA","Rampart Food Store","1700 N Rampart St","70116",29.966624,-90.062623
"70116","New Orleans","LA","Circle Food Store","1522 Saint Bernard Ave","70116",29.972360094233913,-90.06548308842537
"70117","New Orleans","LA","Kaylas","not_available","70117",29.967464,-90.042973
"70117","New Orleans","LA","Schneider's","2809 N Robertson St","70117",29.972903999999996,-90.046398
"70117","New Orleans","LA","Pasar sejumput","Jl. Sakapermai","70117",29.96843444111895,-90.03278302341103
"70117","New Orleans","LA","PT Supermarket","3340 Saint Claude Ave","70117",29.966578000000002,-90.04092
"70117","New Orleans","LA","Magnolia Super Market","3233 N Galvez St","70117",29.977595,-90.038859
"70117","New Orleans","LA","Save-A-Lot","1841 Almonaster Ave","70117",29.976384021347737,-90.04745770138398
"70118","New Orleans","LA","Robert Fresh Market","8115 S Claiborne Ave","70118",29.95694651251698,-90.1205920962832
"70118","New Orleans","LA","Harriford Kitchenn","not_available","70119",29.976366,-90.107915
"70118","New Orleans","LA","Save-A-Lot","3033 S Carrollton Ave","70118",29.960548992519467,-90.1150695017786
"70119","New Orleans","LA","Canseco's","3135 Esplanade Ave","70119",29.98046800392605,-90.08446987396239
"70119","New Orleans","LA","Winn-Dixie","401 N Carrollton Ave","70119",29.978040402104075,-90.09901036185992
"70119","New Orleans","LA","Whole Foods Market","300 North Broad Street","70119",29.967318031503844,-90.08483872106993
"70119","New Orleans","LA","Rouses Market","400 N Carrollton Ave","70119",29.97638662011097,-90.09660243988037
"70119","New Orleans","LA","Orleans Center Food Mart","12","70119",29.971235613567536,-90.08283731356806
"70119","New Orleans","LA","Terranova Brothers Superette","3308 Esplanade Ave","70119",29.98077634753523,-90.08501365074625
"70119","New Orleans","LA","Yuriko mart HKSN","Jl. Perdagangan","70125",29.9566647,-90.1073935
"70119","New Orleans","LA","Broad and Banks Meat Market","325 S Broad St","70119",29.96338653564453,-90.08968353271484
"70122","New Orleans","LA","Walmart Supercenter","4301 Chef Menteur Highway","70126",30.0057316447807,-90.03714323043829
"70122","New Orleans","LA","Rouses Market","6600 Franklin Ave","70122",30.02841744732689,-90.05439519882202
"70122","New Orleans","LA","Canseco's Market","5217 Elysian Fields Ave","70122",30.012220326278676,-90.059887615372
"70122","New Orleans","LA","Walmart Grocery Pickup","4301 Chef Menteur Hwy","70126",30.0044510204082,-90.0388332653061
"70122","New Orleans","LA","Save-A-Lot","4726 Paris Ave","70122",30.006066999999998,-90.075804
"70122","New Orleans","LA","T&H Grocery","3704 Clematis St","70122",29.996581,-90.053294
"70124","New Orleans","LA","Lakeview Grocery","801 Harrison Ave","70124",30.00475957598959,-90.10522489275603
"70124","New Orleans","LA","Roberts Fresh Market","135 Robert E Lee Blvd","70124",30.020383047506293,-90.11150582767056
"70124","New Orleans","LA","Lakeview Mini Mart","207 W Harrison Ave","70124",30.005937,-90.117273
"70124","New Orleans","LA","lakeview grocery:-)","not_available","70124",29.99714226544281,-90.10739121675984
"70125","New Orleans","LA","Rousse's Market","not_available","70113",29.948126670292176,-90.10183908443992
"70125","New Orleans","LA","Aeren's Supermarket","3911 Washington Ave","70125",29.950164,-90.099356
"70126","New Orleans","LA","Hayne Discount Supermarket","6318 Hayne Blvd","70126",30.034253999999997,-90.021054
"70126","New Orleans","LA","USA Neighboorhood Market","not_available","70127",30.03573446792581,-89.99555328805818
"70127","New Orleans","LA","Walmart Supercenter","6000 Bullard Ave","70128",30.043343397266394,-89.96193408966064
"70127","New Orleans","LA","Winn-Dixie","9701 Chef Menteur Hwy","70127",30.018582349969645,-89.97216466115773
"70127","New Orleans","LA","Save-A-Lot","9999 Lake Forest Blvd","70127",30.03296,-89.973929
"70129","New Orleans","LA","Restaurant Depot","not_available","70115",30.097389245692465,-89.90399983544721
"70129","New Orleans","LA","Minh Canh","not_available","70129",30.03785790140344,-89.915779977358
"70301","Thibodaux","LA","Walmart Supercenter","410 N Canal Blvd","70301",29.80938716,-90.81787607
"70301","Thibodaux","LA","Rouses Market","1653 Saint Mary St","70301",29.800581432197728,-90.84797501564026
"70301","Thibodaux","LA","Rouse's Epicurean Market","204 N Canal Blvd","70301",29.800969811335854,-90.81873564901419
"70301","Thibodaux","LA","Walmart Neighborhood Market","224 W Main St","70301",29.774260276157843,-90.81696262539079
"70301","Thibodaux","LA","Rouses Market","1030 S Acadia Rd","70301",29.780790328979492,-90.80770874023438
"70301","Thibodaux","LA","Rouses Market","4560 Highway 1 Ste 7","70394",29.703338920465622,-90.56710842149624
"70301","Thibodaux","LA","L&N Food Store","622 Lafourche Dr","70301",29.80132,-90.82415
"70301","Thibodaux","LA","Walmart Supercenter","4858 Highway 1","70394",29.6915275,-90.55410972
"70301","Thibodaux","LA","Robert's Food Store","not_available","70372",29.84088,-90.955822
"70301","Thibodaux","LA","Rouses Market","1175 Audubon Ave","70301",29.7820620108954,-90.8075487613678
"70301","Thibodaux","LA","Rouses Market","3880 Highway 1","70394",29.728214263916016,-90.60406494140625
"70339","Pierre Part","LA","Templet's Grocery","not_available","70339",29.951919,-91.21306
"70339","Pierre Part","LA","Pierre Part Store","3421 Highway 70 S","70339",29.957583770155907,-91.21283859014511
"70341","Belle Rose","LA","Payless #3","not_available","70390",30.0002029425073,-91.02431484280972
"70342","Berwick","LA","Mayon's Market","not_available","70380",29.708135,-91.212096
"70345","Cut Off","LA","Walmart Supercenter","16759 Highway 3235","70345",29.470559391628033,-90.32406165229227
"70345","Cut Off","LA","Rouse Market","not_available","70373",29.56079,-90.37937
"70345","Cut Off","LA","Rouses Market","13980 W Main St","70345",29.549249240241803,-90.34709930419922
"70346","Donaldsonville","LA","Walmart Supercenter","37000 Hwy 3089","70346",30.09489582930131,-90.98044904087192
"70346","Donaldsonville","LA","Ralph's Market","6431 Highway 44","70737",30.164566841068304,-90.92025207861177
"70346","Donaldsonville","LA","Walmart Grocery Pickup","1351 Marchand Dr","70346",30.09606,-90.98633
"70346","Donaldsonville","LA","Payless #9","not_available","70346",30.098803640856367,-91.00165014232334
"70346","Donaldsonville","LA","Rouses Market","3439 Highway 1 S","70346",30.0975399017334,-91.00212097167969
"70354","Galliano","LA","Frank's Supervalue","not_available","70357",29.37631736762479,-90.26379239537549
"70354","Galliano","LA","Galliano Food Store","18210 W Main St","70354",29.4273665903171,-90.29589024582184
"70354","Galliano","LA","Frank's Supervalu","1917 S Bayou Dr","70357",29.378494262695312,-90.25951385498047
"70355","Gheens","LA","Rouses Market","1428 Crescent Ave","70374",29.64205481867978,-90.52594900131226
"70358","Grand Isle","LA","Sureway","not_available","70358",29.233495825088752,-89.99324567602345
"70360","Houma","LA","Walmart Supercenter","1633 Martin Luther King Jr Blvd","70360",29.60771514,-90.75191975
"70360","Houma","LA","Cannata's Family Market","6307 W Park Ave","70364",29.624942859231115,-90.74846463360801
"70360","Houma","LA","Rouse's","5818 W Main St","70360",29.635138715030106,-90.76217178064685
"70360","Houma","LA","Rouse's Supermarkets Inc","1410 Saint Charles St","70360",29.584476698095816,-90.74710614062914
"70360","Houma","LA","Walmart Neighborhood Market","6411 W Park Ave","70364",29.62267516260915,-90.74750870502612
"70360","Houma","LA","Heavenly Scent of Houma","1437 St Charles St #109","70360",29.582152,-90.747116
"70360","Houma","LA","Holsum Bread outlet","233 New Orleans Blvd","70364",29.603914000000003,-90.715985
"70363","Houma","LA","Walmart Supercenter","933 Grand Caillou Rd","70363",29.58428377,-90.69270488
"70363","Houma","LA","Rouses Market","9465 E Park Ave","70363",29.593461017526092,-90.67413568496704
"70363","Houma","LA","Rouses Market","561 Grand Caillou Rd","70363",29.589218,-90.702475
"70363","Houma","LA","Aloe Vera Center, Nature's Sunshine Herbs","1905-A Prospect Ave","70363",29.58123,-90.685787
"70363","Houma","LA","Save-A-Lot","836 Grand Caillou Rd","70363",29.5837597047401,-90.69771986391119
"70380","Morgan City","LA","Rouses Market","6403 Highway 182 E","70380",29.699329938153078,-91.19572877883911
"70380","Morgan City","LA","Walmart Supercenter","973 Highway 90 E","70380",29.68307163,-91.26675259
"70380","Morgan City","LA","Save-A-Lot","849 Hwy 90 E","70380",29.68221,-91.272095
"70380","Morgan City","LA","Save A Lot","849 Highway 90 E","70380",29.6821346,-91.2721788
"70380","Morgan City","LA","Walmart Grocery Pickup","1002 La Hwy 70","70380",29.7053617,-91.2005555
"70380","Morgan City","LA","Quick General Food Store","2207 Lake Palourde Rd","70340",29.68003016717666,-91.10178251325459
"70401","Hammond","LA","Walmart Supercenter","2799 W Thomas St","70401",30.501650981062788,-90.49356425948996
"70401","Hammond","LA","Winn-Dixie","2302 W Thomas St","70401",30.50201360484567,-90.48681902447032
"70401","Hammond","LA","Albertsons","1801 W Thomas St","70401",30.499151719395783,-90.47995448112488
"70401","Hammond","LA","Leblanc's Associated Food Store","2706-2768 U.S. 190","70401",30.502944519737028,-90.4908437629751
"70401","Hammond","LA","Bickie's Health Foods","not_available","70403",30.500429153442383,-90.49612426757812
"70401","Hammond","LA","Guy's Quality Foods","300 N Cate St","70401",30.506364,-90.461116
"70401","Hammond","LA","Save-A-Lot","11077 Highway 190 W","70401",30.507192611694336,-90.54816436767578
"70401","Hammond","LA","Save-A-Lot","113 N Morrison Blvd","70401",30.501217246055603,-90.48336088657379
"70403","Hammond","LA","Walmart Supercenter","1331 Hwy 51","70454",30.443672253126355,-90.45353971703312
"70403","Hammond","LA","Rouses Market","145 Berryland Shopping Ctr","70454",30.43666522776686,-90.45410335063934
"70403","Hammond","LA","Carter's Supermarket","not_available","70711",30.493200345151916,-90.58139505687868
"70403","Hammond","LA","Robert Supermarket","not_available","70455",30.505665126350227,-90.34433516628621
"70403","Hammond","LA","Doo's Seafood & Deli","18331 Highway 22","70454",30.4426,-90.4251
"70420","Abita Springs","LA","Artigue's Market","22069 Highway 59","70420",30.47859310906139,-90.03843685124836
"70422","Amite","LA","Winn-Dixie","804 W Oak St","70422",30.72739539689448,-90.52080960825987
"70422","Amite","LA","Walmart Supercenter","1200 W Oak St","70422",30.7284502,-90.52937686
"70426","Angie","LA","Piggly Wiggly","30278 Highway 21","70426",30.964916,-89.810235
"70427","Bogalusa","LA","Walmart Supercenter","401 Ontario Ave","70427",30.79332815300648,-89.86504694198746
"70427","Bogalusa","LA","The Savage Store Discount Grocery","not_available","70427",30.792488,-89.834053
"70427","Bogalusa","LA","Main Street Grocery","Highland Park","not_available",30.764321799180806,-89.85189763974384
"70427","Bogalusa","LA","Winn-Dixie","400 Georgia Ave","70427",30.786521698836808,-89.85809091592783
"70431","Bush","LA","Dollar General Market ( New )","78258 Highway 437","70435",30.570741653442383,-90.0753173828125
"70433","Covington","LA","Rouses Market","13330 LA-1085","70433",30.46642268096167,-90.1804239659903
"70433","Covington","LA","Walmart Supercenter","880 N Highway 190","70433",30.443182523660493,-90.07917356181927
"70433","Covington","LA","Sam's Club","69630 Stirling Blvd","70433",30.442535,-90.134581
"70433","Covington","LA","Winn-Dixie","4100 Highway 59","70471",30.41088401824564,-90.04264474573147
"70433","Covington","LA","Winn-Dixie","70431 Highway 21","70433",30.453654303978723,-90.13717412112152
"70433","Covington","LA","Winn-Dixie","1001 Ronald Reagan Hwy Ste 132","70433",30.498797330291506,-90.10839884423207
"70433","Covington","LA","Rouses Market","1200 Business 190 #8","70433",30.47468301969036,-90.08489578083454
"70433","Covington","LA","Rouses Market","50 Park Place Dr","70433",30.44151449690971,-90.08045847070815
"70433","Covington","LA","Piggly Wiggly","207 Covington St","70447",30.410218125083077,-90.16018170878586
"70433","Covington","LA","Walmart Neighborhood Market","2800 N Hwy 190","70433",30.471964197631987,-90.08499076298419
"70433","Covington","LA","Amigo's Tortilla & Grocery Inc.","1600 N Highway 190","70433",30.453824996948242,-90.08128356933594
"70435","Covington","LA","Main's Market","82205 Highway 25","70437",30.626768990485225,-90.18724796502181
"70435","Covington","LA","The Salvage Store","not_available","70438",30.635365536260505,-90.18946047570475
"70438","Franklinton","LA","Winn-Dixie","731 Washington St","70438",30.845788135789512,-90.15890304334151
"70438","Franklinton","LA","Save A Lot","716 Washington St","70438",30.8436796,-90.1579015
"70441","Greensburg","LA","Darlington Grocery","not_available","70441",30.878575,-90.78407
"70443","Independence","LA","Piggly Wiggly","not_available","70443",30.630373001098633,-90.50013732910156
"70443","Independence","LA","Black Cat Grocery","51555 Highway 51","70466",30.605850219726562,-90.49250793457031
"70444","Kentwood","LA","Sunflower Grocery Store","Highway 38 East","70444",30.93646164447191,-90.51869856473758
"70444","Kentwood","LA","Grocery Store","not_available","70444",30.927871,-90.439003
"70445","Lacombe","LA","Walmart Supercenter","167 Northshore Blvd","70460",30.308133466508973,-89.82890725135803
"70445","Lacombe","LA","Lishmans supermarket","27417 Highway 190","70445",30.315438,-89.94718898333333
"70445","Lacombe","LA","Target","61121 Airport Rd","70460",30.316911889063785,-89.82984974890292
"70445","Lacombe","LA","Winn Dixie","Pontchartrain Dr","70458",30.26184299893188,-89.80690148186119
"70448","Mandeville","LA","Walmart Neighborhood Market","3009 E Causeway Approach","70448",30.372325235618984,-90.07699991882039
"70448","Mandeville","LA","Rouses Market","4350 Highway 22","70471",30.396013455310765,-90.09965182641974
"70448","Mandeville","LA","Rouses Market","3461 E Causeway Approach","70448",30.375497632980387,-90.08895998444353
"70448","Mandeville","LA","Whole Foods Market","3450 Highway 190","70471",30.39062805793033,-90.0856787713098
"70448","Mandeville","LA","The Fresh Market","1816 N Causeway Blvd,","70471",30.394064066435035,-90.0918156224513
"70448","Mandeville","LA","Winn-Dixie","619 N Causeway Blvd","70448",30.373666011276022,-90.0913663458081
"70448","Mandeville","LA","Saia's Super Meat Market","2225 Florida St","70448",30.36562843702016,-90.06524304838159
"70448","Mandeville","LA","Super Latino Mini Market","2186 Florida St Ste C","70448",30.3644866,-90.0646068
"70448","Mandeville","LA","Tienda La Latina La Mexican","2201 11th Street, Suite 3","70471",30.395712,-90.09041
"70449","Maurepas","LA","Whitehall grocery","Hwy 22","not_available",30.2877605879428,-90.70181527557763
"70449","Maurepas","LA","Hoovers Grocery & Hardware","22615 Highway 22","70449",30.288202,-90.701598
"70449","Maurepas","LA","Thunder Bayou","11191 River Highlands Dr","70774",30.226229503164575,-90.73912886999447
"70449","Maurepas","LA","Brian's Market","not_available","70449",30.25818459885464,-90.76838606795896
"70452","Pearl River","LA","Jubilee Foods","61461 Highway 1090","70452",30.358589094984282,-89.74840822476011
"70452","Pearl River","LA","jubilee grocery","not_available","70452",30.362675491555336,-89.74659303326543
"70458","Slidell","LA","Rouses Market","1644 Gause Blvd","70458",30.286169712010004,-89.75277543067932
"70458","Slidell","LA","Walmart Supercenter","39142 Natchez Dr","70461",30.278396458678188,-89.74907398223877
"70458","Slidell","LA","Walmart Neighborhood Market","637 Robert Blvd","70458",30.29811097158221,-89.76223826408386
"70458","Slidell","LA","Rouses Market","110 US Hwy. 190 W.","70460",30.289069468813437,-89.7796082496643
"70458","Slidell","LA","Walmart Neighborhood Market","3130 Pontchatrain Drive","70458",30.260809401443346,-89.78394269943237
"70458","Slidell","LA","Winn-Dixie","3030 Pontchartrain Dr","70458",30.261988407204,-89.78423824422099
"70458","Slidell","LA","Lishman's City Market","Ponchartrain Blvd.","not_available",30.248919880358645,-89.79218108583477
"70458","Slidell","LA","Winn-Dixie","851 Brownswitch Rd","70458",30.30929882275429,-89.74702361439198
"70458","Slidell","LA","Quick EZ","Brownswitch","70458",30.310745239257812,-89.75564575195312
"70458","Slidell","LA","Winn-Dixie","Ponchartrain","not_available",30.222548460770163,-89.80672300306713
"70458","Slidell","LA","Lishman's City Market","39522 Highway 190 E","70461",30.266225814819336,-89.7391586303711
"70461","Slidell","LA","Mizer's","3060 Gause Blvd E","70461",30.29166030883789,-89.72084045410156
"70461","Slidell","LA","Winn-Dixie","2985 Gause Blvd E","70461",30.289894422307004,-89.7208461519899
"70501","Lafayette","LA","Piggly Wiggly","University Ave","70506",30.23162031630365,-92.03267883233625
"70501","Lafayette","LA","Tammy's Grocery","1301 Jefferson St","70501",30.219112,-92.0155
"70501","Lafayette","LA","Super 1 Foods Fuel Center","215 W Willow St","70501",30.243960933596828,-92.01563085721097
"70501","Lafayette","LA","Shoppers Value Foods","not_available","70506",30.231346,-92.032291
"70501","Lafayette","LA","Mello Joy Holding Company L.L.C.","313 N Chestnut St Ste C","70501",30.230335235595703,-92.01509094238281
"70501","Lafayette","LA","Kirk's U-Needa-Butcher","713 Surrey St","70501",30.22722,-92.002627
"70501","Lafayette","LA","Breaux's Mart","2600 Moss St Ste 1232","70501",30.256033000000002,-92.004988
"70501","Lafayette","LA","H&C Grocery","904 N St Antoine St, Lafayette, LA 70501","70501",30.24286537477963,-92.03453495392796
"70501","Lafayette","LA","M&S Grocery","2800 Louisiana Ave","70501",30.254763,-91.999027
"70501","Lafayette","LA","Winn-Dixie","3803-F Moss Street","70507",30.273855730286535,-92.00897488850366
"70503","Lafayette","LA","Walmart Supercenter","3142 Ambassador Caffery Pkwy","70506",30.18741785,-92.07776904
"70503","Lafayette","LA","Albertsons","2678 Johnston St","70503",30.2088634,-92.0387259
"70503","Lafayette","LA","Rouses Market","601 Bertrand Dr","70506",30.213584125494364,-92.04742826893873
"70503","Lafayette","LA","Target","4313 Ambassador Caffery Pkwy","70508",30.16060388823309,-92.04971601741322
"70503","Lafayette","LA","Rouses Market","6136 Johnston St","70503",30.1652858413253,-92.08497762680054
"70503","Lafayette","LA","Walmart Supercenter","2428 W Pinhook Rd","70508",30.178180105876237,-92.00590968910394
"70503","Lafayette","LA","Champagne's Market","not_available","70503",30.20336968411891,-92.01658253135473
"70503","Lafayette","LA","Corner Pantry","801 Foreman Dr","70506",30.214398,-92.063716
"70503","Lafayette","LA","Heleaux's Grocery","3002 Verot School Rd","70508",30.137769,-92.033102
"70503","Lafayette","LA","Super 1 Foods Fuel Center","1500 Bonin Road","70592",30.134203,-92.008036
"70503","Lafayette","LA","Adrien's Supermarket","3842 W Congress St","70506",30.20063427544412,-92.06747688029327
"70503","Lafayette","LA","Super 1 Foods","3747 Ambassador Caffery Pkwy","70503",30.172546522121156,-92.06602044865254
"70503","Lafayette","LA","Asian Market","110 Arnould Blvd","70506",30.202784474810578,-92.05311478075501
"70503","Lafayette","LA","Albertsons","2863 Ambassador Caffery","70506",30.198351768778565,-92.07385370138581
"70503","Lafayette","LA","Albertsons","4400 Ambassador Caffery","70508",30.15627454784213,-92.05089214508916
"70503","Lafayette","LA","Whole Foods Market","4247 Ambassador Caffery Parkway","70508",30.160806016564294,-92.05203196909804
"70503","Lafayette","LA","Bismillah Groceries and Kitchen","2441 W Congress St","70506",30.210398276615003,-92.05153584480286
"70503","Lafayette","LA","Shoppers Value Foods","2240 Ambassador Caffery Pkwy","70506",30.211578369140625,-92.07733154296875
"70503","Lafayette","LA","Desi  Spice Bazaar","105 Guilbeau Rd","70506",30.194119,-92.05944
"70503","Lafayette","LA","PSP Palace","not_available","70508",30.124347,-92.032052
"70503","Lafayette","LA","The Fresh Market","1810 Kaliste Saloom Rd,","70508",30.169600191683525,-92.03446826064004
"70503","Lafayette","LA","Ambassador Row Courtyards","3600A-3619F Ambassador Caffery","70503",30.175303337492355,-92.06882536411285
"70503","Lafayette","LA","Smart Coffee Brew","2851 Johnston St #516","70503",30.2049682,-92.04006340000001
"70506","Lafayette","LA","Piggly Wiggly","5525 Cameron St","70583",30.23285297160342,-92.08844800125804
"70506","Lafayette","LA","NuNu's Fresh Market","1410 Saint Mary St","70583",30.243114000000002,-92.097573
"70506","Lafayette","LA","Cracker Barrel Old Country Store","116 Alcide Dominique Dr. I-10 & University","70506",30.249346242453598,-92.03746492209436
"70506","Lafayette","LA","La Morenita Meat Market","412 Ambassador Caffery Pkwy","70583",30.239623410591776,-92.06628368945259
"70506","Lafayette","LA","Adam's Convenience Store","316 Marigny Cl","70529",30.190814292194197,-92.1132231853261
"70507","Lafayette","LA","Walmart Supercenter","3810 Ne Evangeline Thruway","70520",30.3181374151746,-92.0323367033641
"70507","Lafayette","LA","Super 1 Foods","3916 NE Evangeline Thruway","70520",30.321340924457584,-92.0306740939131
"70507","Lafayette","LA","R & L Food Mart","4600 Moss St","70507",30.295068740844727,-92.0068359375
"70507","Lafayette","LA","Karen's Grocery","not_available","70520",30.318988,-92.049826
"70507","Lafayette","LA","Angelle Cajun Products Cajun Mayo","111 S Saint John St","70520",30.316527,-92.047856
"70508","Lafayette","LA","NuNu's Fresh Market","509 Lafayette Street","70592",30.104542333064973,-91.99085712531244
"70508","Lafayette","LA","Rouses Market","2900 E Milton Ave","70592",30.10821288807331,-92.01486802588029
"70508","Lafayette","LA","NuNu's Fresh Market","113 Espasie Drive","70558",30.1030706,-92.0760597
"70508","Lafayette","LA","Broussard's Supermarket (Nunu’s)","113 Espasie Dr","70592",30.103076,-92.076144
"70510","Abbeville","LA","Walmart Supercenter","3005 Charity Street","70510",29.97237816,-92.09536565
"70510","Abbeville","LA","Winn-Dixie","2210 Veterans Memorial Dr","70510",29.97934913635254,-92.11009216308594
"70510","Abbeville","LA","Robies Food Center","N State St, Abbeville, LA 70510","70510",29.977058664914484,-92.10912112073764
"70510","Abbeville","LA","Piggly Wiggly","not_available","70548",29.996586,-92.279307
"70510","Abbeville","LA","Stelly's Grocery","22240 Hwy 82","not_available",29.825959861641323,-92.31513109990102
"70510","Abbeville","LA","Maxie Pierce Grocery","25191 LA Hwy 333","70510",29.784824034665668,-92.1545714691273
"70510","Abbeville","LA","Robie's Food Center","604 S State St","70510",29.968190457276183,-92.13733974720598
"70512","Arnaudville","LA","Guidry's Food Store","1030 Coteau Rodaire Hwy","70512",30.397911,-91.925873
"70515","Basile","LA","Foret's Grocery","not_available","70543",30.373672741647642,-92.49353257641673
"70517","Breaux Bridge","LA","Walmart Supercenter","1932 Rees St","70517",30.293069963348447,-91.91049188183752
"70517","Breaux Bridge","LA","Piggly Wiggly","2300 Cecilia Sr H South Hwy","70517",30.334482946405796,-91.85186330261465
"70517","Breaux Bridge","LA","Hebert's Super Market Main Street","218 S Main St","70517",30.272299721888746,-91.89828515052795
"70517","Breaux Bridge","LA","Dugas/Randall's","not_available","70582",30.217272,-91.828285
"70517","Breaux Bridge","LA","Winn-Dixie","924 Rees St","70517",30.282906189932397,-91.90201197347889
"70517","Breaux Bridge","LA","Hebert's Grocery","1101 Grand Pointe Ave #3917","70517",30.277923928788713,-91.89033508300781
"70517","Breaux Bridge","LA","Cajun Palms Store & Check-In Desk","1055 N Barn Rd","70517",30.324008167852927,-91.82220330976965
"70517","Breaux Bridge","LA","Goula's Grocery","Ruth Bridge","70517",30.23399744934566,-91.87914821800342
"70518","Broussard","LA","Albertsons","1210 Albertson Pkwy","70518",30.14005,-91.9484828
"70518","Broussard","LA","Walmart Supercenter","123 Saint Nazaire Rd","70518",30.14372028,-91.94329888
"70518","Broussard","LA","Billeauds","not_available","70518",30.148134887014642,-91.96342149750174
"70520","Carencro","LA","Don's Speciality Meats","4120 NE Evangeline Trwy","70520",30.332342548221952,-92.03654766082764
"70526","Crowley","LA","Walmart Supercenter","729 Odd Fellows Rd","70526",30.23222603,-92.36489296
"70526","Crowley","LA","Super 1 Foods","2004 N Parkerson Ave","70526",30.228811264038086,-92.38032531738281
"70526","Crowley","LA","Winn-Dixie","1411 The Blvd","70578",30.250924,-92.27088655
"70528","Delcambre","LA","Shawn’s Cajun Meats & Grocery","410 Canal St","70528",29.951667,-91.984702
"70529","Duson","LA","Super 1 Foods","200 Destination Pointe Lane","70583",30.251427,-92.111416
"70529","Duson","LA","The Best Stop Express","3002 Daulaut Dr","70529",30.24614906311035,-92.19548034667969
"70535","Eunice","LA","Walmart Supercenter","1538 Highway 190","70535",30.49180622501795,-92.44681046396022
"70535","Eunice","LA","Winn-Dixie","1800 W Laurel Ave","70535",30.49658278057095,-92.43456457659046
"70535","Eunice","LA","Super 1 Foods","2210 W Laurel Ave","70535",30.49661636352539,-92.43795013427734
"70535","Eunice","LA","Los Tucanes Grocery","1400 W Laurel Ave","70535",30.495202,-92.430033
"70538","Franklin","LA","Walmart","200 Northwest Blvd","70538",29.81360248,-91.51291305
"70538","Franklin","LA","Super 1 Foods","204 Northwest Blvd","70538",29.81305591801555,-91.51448248230943
"70538","Franklin","LA","Centerville Market","not_available","70522",29.75715780976264,-91.427442468043
"70541","Grand Coteau","LA","Janise's Supermarket","147 Oak Tree Park Dr","70584",30.41245,-92.05713
"70542","Gueydan","LA","Market Basket","8th St","70549",30.090960257898907,-92.67144785690833
"70542","Gueydan","LA","Spring Market","620 N Highway 26","70549",30.086530685424805,-92.6720962524414
"70542","Gueydan","LA","Water Bulk Ice","not_available","70549",30.083833,-92.672355
"70542","Gueydan","LA","Spring Market","620 N Hwy 26","70549",30.0901286,-92.6722167
"70544","Jeanerette","LA","Lydia Food Store","not_available","70560",29.939222140407843,-91.73610280897208
"70546","Jennings","LA","Walmart Supercenter","303 E Interstate Dr","70546",30.24546217,-92.65989304
"70546","Jennings","LA","Piggly Wiggly","1326 N Cutting Ave","70546",30.234432220458984,-92.65457153320312
"70546","Jennings","LA","Market Basket","Hwy 90","70591",30.23268516469604,-92.81563534525903
"70546","Jennings","LA","Super Food","not_available","70546",30.222439,-92.65708
"70552","Loreauville","LA","Miller's Market","not_available","70552",30.055040979040623,-91.73856658641118
"70554","Mamou","LA","Piggly Wiggly","not_available","70554",30.641892571773305,-92.4058366972513
"70554","Mamou","LA","Mels Grocery","not_available","70580",30.670473098754883,-92.42498779296875
"70554","Mamou","LA","Spring Market","1445 Old Hwy 13","70554",30.642925262451172,-92.4211196899414
"70555","Maurice","LA","Nunu's Market","309 E Lafayette St","70555",30.108762,-92.1215
"70555","Maurice","LA","Hebert's Specialty Meats","8212 US 167","70555",30.112382425426013,-92.12489913884991
"70560","New Iberia","LA","Walmart Supercenter","1205 E Admiral Doyle Dr","70560",29.98603437437502,-91.81555594765297
"70560","New Iberia","LA","Super 1 Foods","939 S Lewis St","70560",29.98657244467863,-91.8181590527341
"70560","New Iberia","LA","Simoneaud's Grocery & Market","623 E Admiral Doyle Dr","70560",29.990069000000002,-91.827996
"70560","New Iberia","LA","Walmart Neighborhood Market","1201 Parkview Drive","70563",30.001110076904297,-91.7982177734375
"70560","New Iberia","LA","Wasana Food Market","1203 W Main St","70560",30.02218,-91.833867
"70560","New Iberia","LA","Rouses Market","900 E Admiral Doyle Dr","70560",29.985029342879145,-91.8233871459961
"70570","Opelousas","LA","Walmart Supercenter","1629 E Cresswell Ln","70570",30.52004116501857,-92.06627798135555
"70570","Opelousas","LA","Walmart Neighborhood Market","2310 S Union Street","70570",30.508460343059514,-92.0862865447998
"70570","Opelousas","LA","Piggly Wiggly","not_available","70570",30.556744982075315,-92.07305734698829
"70570","Opelousas","LA","Save-A-Lot","619 Creswell Ln","70570",30.520599365234375,-92.07884979248047
"70570","Opelousas","LA","Super 1 Foods","2418 S Union St","70570",30.50792225141589,-92.08610060687703
"70578","Rayne","LA","Piggly Wiggly","not_available","70578",30.23189307353522,-92.26806181863826
"70578","Rayne","LA","Ridge Grocery","815 Golden Grain Rd","70578",30.169458389282227,-92.26193237304688
"70582","Saint Martinville","LA","Cade's Market","2030 N Main St","70582",30.143735499510786,-91.82332277297974
"70582","Saint Martinville","LA","Joyce's Supermarket","1620 S Main St","70582",30.110156588933986,-91.83574854350331
"70582","Saint Martinville","LA","Piggly Wiggly","714 S Main Hwy.","70582",30.13167243790795,-91.82709303668466
"70582","Saint Martinville","LA","Piggly Wiggly","1714 S Main St","70582",30.110227584838867,-91.8359146118164
"70583","Scott","LA","The Best Stop Supermarket","615 Louisiana 93 North","70583",30.26082148318655,-92.10846238743036
"70583","Scott","LA","Romero's Grocery","Hwy 931335 Highway 93 N.","705834211",30.27569007873535,-92.1125717163086
"70585","Turkey Creek","LA","Leger's Grocery","14532 Veterans Memorial Hwy","70586",30.888675689697266,-92.41136169433594
"70586","Ville Platte","LA","Walmart Supercenter","891 E Lasalle St","70586",30.68671988,-92.2613059
"70592","Youngsville","LA","Charlie's Grocery","310 Church St","70592",30.098403,-91.992725
"70601","Lake Charles","LA","Walmart Supercenter","2500 N Martin Luther King Hwy","70601",30.268885692974663,-93.17986181910005
"70601","Lake Charles","LA","Walmart Neighborhood Market","2011 Ryan St","70601",30.21219825744629,-93.21825408935547
"70601","Lake Charles","LA","Market Basket","2830 Ryan St","70601",30.20401322333305,-93.21920175876296
"70601","Lake Charles","LA","Market Basket","2013 Sampson St","70669",30.257338204716888,-93.25848249510163
"70601","Lake Charles","LA","Save A Lot","3039 Gerstner Memorial Dr","70601",30.20136642,-93.18009186
"70601","Lake Charles","LA","Market Basket","not_available","70601",30.225276273202766,-93.19550948078367
"70601","Lake Charles","LA","Market Basket","Ryan","not_available",30.204429,-93.222848
"70605","Lake Charles","LA","Walmart Supercenter","3451 Nelson Rd","70605",30.1951577876856,-93.24621906175302
"70605","Lake Charles","LA","Kroger","2010 Country Club Rd","70605",30.1706723,-93.2514901
"70605","Lake Charles","LA","Cormie's Grocery","4907 Big Lake Rd","70605",30.168102811682623,-93.28271114305379
"70605","Lake Charles","LA","Albertsons","4060 Ryan St S","70605",30.18526226052389,-93.22006569073892
"70605","Lake Charles","LA","Albertsons","2750 Country Club Rd","70605",30.1704407,-93.2654512
"70605","Lake Charles","LA","Market Basket","4950 Lake St","70605",30.16674041748047,-93.23330688476562
"70605","Lake Charles","LA","Market Basket","4431 Nelson Rd","70605",30.176986387656825,-93.24807215887589
"70605","Lake Charles","LA","Latin Grocery","not_available","70605",30.1864,-93.218036
"70607","Lake Charles","LA","Walmart Supercenter","3415 Gerstner Memorial Blvd","70607",30.195605670869703,-93.1768946275029
"70611","Lake Charles","LA","Rouse’s","1351 Sam Houston Jones Pkwy","70611",30.299687,-93.22088
"70611","Lake Charles","LA","Market Basket","362 Sam Houston Jones Pkwy","70611",30.30182990899532,-93.20077785305952
"70611","Lake Charles","LA","Walmart Neighborhood Market","260 Sam Houston Jones Parkway","70611",30.301837760501908,-93.19933134748324
"70611","Lake Charles","LA","Around The World Market","909 Sam Houston Jones Pkwy","70611",30.30031,-93.21232
"70615","Lake Charles","LA","Pigley Wigley","not_available","70615",30.232189178466797,-93.15845489501953
"70631","Cameron","LA","H-E-B","3401 Gulfway Dr","77642",29.9051392,-93.9236929
"70631","Cameron","LA","Bruce's Market Basket","6001 39th St","77619",29.944864941247587,-93.92180860854009
"70631","Cameron","LA","Brown’s Food Center","620 Main St","70645",29.99515083419116,-93.35392438629218
"70631","Cameron","LA","H-E-B","5000 32nd St","77619",29.928961,-93.922528
"70631","Cameron","LA","Walmart","795 Texas Ave","77611",30.02443737,-93.84474828
"70631","Cameron","LA","Market Basket","2005 Texas Ave","77611",30.03432767322608,-93.83295329355056
"70631","Cameron","LA","In And Out Food Store","2735 East 7 Th St","77640",29.891566336180382,-93.92078521813318
"70631","Cameron","LA","La Morenita","Twin City","77642",29.930974225220336,-93.92785210726643
"70631","Cameron","LA","La Vaquita","not_available","77642",29.918982,-93.911036
"70633","Dequincy","LA","Brookshire Brothers","300 W 4th St","70633",30.450913,-93.43786800000001
"70634","Deridder","LA","Walmart Supercenter","1125 N Pine St","70634",30.866207632754747,-93.2875321877391
"70634","Deridder","LA","Brookshire Brothers Pharmacy","1203 W 1st St","70634",30.84693521,-93.30052458
"70634","Deridder","LA","Save-A-Lot","1011 N Pine St","70634",30.86300468,-93.28887177
"70634","Deridder","LA","Brookshire Brothers","820 E 1st St","70634",30.84647445466535,-93.27050181805096
"70634","Deridder","LA","Brookshire Brothers","1203 W 1st St.","70634",30.845945358276367,-93.2999267578125
"70647","Iowa","LA","Market Basket","112 North Thomson Avenue","70647",30.239354,-93.013216
"70647","Iowa","LA","Spring Market","501 W Hwy 90","70647",30.2308064,-93.0195846
"70647","Iowa","LA","Spring Market","not_available","70647",30.239442,-93.012959
"70655","Oberlin","LA","Walmart Supercenter","1900 Highway 165 S","71463",30.79327802,-92.67723079
"70656","Pitkin","LA","tisa","4366","71459",31.044464111328125,-93.19766235351562
"70656","Pitkin","LA","Fort Polk Commissary","7906 Colorado Ave","71459",31.04179903389079,-93.21727393905806
"70663","Sulphur","LA","Rouse’s","800 E Carlyss Blvd","70665",30.20123279111742,-93.37547421455383
"70663","Sulphur","LA","Kroger","1421 Beglis Pkwy","70663",30.2266363,-93.3606783
"70663","Sulphur","LA","Walmart Supercenter","525 N Cities Service Hwy","70663",30.2329671441237,-93.32749898136625
"70663","Sulphur","LA","Brookshire Brothers","1612 Ruth St","70663",30.22477499851858,-93.37550945447605
"70663","Sulphur","LA","Market Basket","Maplewood Dr","70663",30.226929932888517,-93.35164647315219
"70706","Denham Springs","LA","Walmart Supercenter","34025 La Highway 16","70706",30.562002276204215,-90.95876097679138
"70706","Denham Springs","LA","Oak Point Fresh Market","35045 LA Highway 16","70706",30.575212334542947,-90.9573994452314
"70706","Denham Springs","LA","John's grocery and hardware","34019 Walker Rd N","70785",30.560889336746126,-90.8696618854293
"70714","Baker","LA","Walmart Supercenter","14507 Plank Rd","70714",30.580012287304932,-91.1309569110515
"70714","Baker","LA","Walmart Neighborhood Market","11825 Hooper Road","70818",30.546720792614394,-91.05690971016884
"70714","Baker","LA","Winn-Dixie","10974 Joor Rd","70818",30.546752653795245,-91.05211048803953
"70714","Baker","LA","Baker Boulevard Grocery","3306 Baker Blvd","70714",30.593971040078813,-91.1641538143158
"70714","Baker","LA","Walmart Neighborhood Market","2830 Gateway Drive","27834",30.546794711263605,-91.0569740831852
"70714","Baker","LA","Save-A-Lot","12200 Plank Rd","70811",30.55705643,-91.13373566
"70715","Batchelor","LA","Soprano's Supermarket","8389 U.S.190","70755",30.55509220333373,-91.55007327762851
"70721","Carville","LA","Stop N Go","5691 Martin Luther King Jr Pkwy","70721",30.214354,-91.095633
"70726","Denham Springs","LA","Walmart Supercenter","904 S Range Ave","70726",30.472496583006343,-90.95443725585938
"70726","Denham Springs","LA","Walmart Supercenter","17585 Airline Hwy","70769",30.330425673796178,-90.98692417144775
"70726","Denham Springs","LA","Rouses Market","10130 Crossing Way #300","70726",30.469075173298624,-90.92065215110779
"70726","Denham Springs","LA","Walmart Supercenter","28270 Walker Rd S","70785",30.476348959795665,-90.86005782586808
"70726","Denham Springs","LA","Walmart Neighborhood Market","40567 La Hwy 42","70769",30.323370831080506,-90.92111332763128
"70726","Denham Springs","LA","Walmart Neighborhood Market","25820 La Hwy 16","70726",30.443922472989396,-90.9452748298645
"70726","Denham Springs","LA","Leblanc's Food Store","40017 Highway 42","70769",30.32210026211048,-90.93881607055664
"70726","Denham Springs","LA","Bargain Depot","not_available","70726",30.445959,-90.955762
"70726","Denham Springs","LA","carters supermarket","not_available","70785",30.485879,-90.8612
"70726","Denham Springs","LA","Leblanc's Food Store","29760 Walker Rd S","70785",30.485903534387898,-90.86138383808327
"70726","Denham Springs","LA","Carter's Supermarket","8439 Vincent Rd","70726",30.443921571292908,-90.9477691860771
"70726","Denham Springs","LA","Winn-Dixie","17682 Airline Hgwy","70769",30.334172153140294,-90.98375609823513
"70729","Erwinville","LA","Langlois Grocery","not_available","70760",30.6315840058682,-91.34811301769317
"70734","Geismar","LA","Harvest Supermarket","12513 Highway 73","70734",30.254371035004585,-90.99017682123085
"70737","Gonzales","LA","Walmart Supercenter","308 N Airline Hwy","70737",30.23511811,-90.90783119
"70737","Gonzales","LA","Walmart Neighborhood Market","15047 Airline Hwy","70769",30.28460018932564,-90.95672842303284
"70737","Gonzales","LA","Rouses Market","14635 Airline Hwy","70737",30.282111761471885,-90.95522046089172
"70737","Gonzales","LA","Ralph's Market","15013 Highway 44","70737",30.284482568206933,-90.922034886559
"70737","Gonzales","LA","LeBlanc's Food Store","209 S Airline Hwy","70737",30.231473988779815,-90.90857169426896
"70737","Gonzales","LA","D&J's Grocery","Near 12071 Smooth Ln","70737",30.26191520690918,-90.8934326171875
"70737","Gonzales","LA","Le Blanc's Food Store","13354 Airline Hwy","70737",30.26289939880371,-90.93470001220703
"70739","Greenwell Springs","LA","Walmart Supercenter","10200 Sullivan Rd","70818",30.54187899852795,-91.0252583026886
"70739","Greenwell Springs","LA","Oak Point Fresh Market","14485 Greenwell Springs Rd","70739",30.514274312936998,-91.02848002527689
"70744","Holden","LA","Carter's Supermarket","29700 South Frost Rd.","70754",30.494443893432617,-90.74761962890625
"70748","Jackson","LA","Walmart Supercenter","5801 Main St","70791",30.651203962756956,-91.14214897155762
"70748","Jackson","LA","Winn-Dixie","5005 Church St","70791",30.65031969739425,-91.15061740214315
"70748","Jackson","LA","Rouses Market","2300 Church St","70791",30.652092747868238,-91.18177940571537
"70748","Jackson","LA","Zachary Rouse's","2090-2096 Church Street","70791",30.653154,-91.181465
"70749","Jarreau","LA","Super 1 Foods","213 Hospital Rd","70760",30.6825416,-91.4645932
"70750","Krotz Springs","LA","Kartchner's Grocery","418 Division Street","70750",30.542477858459222,-91.75732168109525
"70757","Maringouin","LA","Bobbens","77385 Landry Dr","70757",30.491533279418945,-91.51861572265625
"70760","New Roads","LA","Walmart Supercenter","460 Hospital Rd","70760",30.68824932,-91.46453945
"70760","New Roads","LA","Langlois' Grocery","419 E Main St","70760",30.69374432419546,-91.43133401870726
"70764","Plaquemine","LA","Walmart Supercenter","59690 Belleview Dr","70764",30.263691374278736,-91.25482320785522
"70764","Plaquemine","LA","Rouse's Market","58440 Belleview Rd","70764",30.275765086822346,-91.23664855957031
"70764","Plaquemine","LA","V & C Grocery","58720 Belleview Rd","70764",30.272249,-91.240664
"70764","Plaquemine","LA","Leblanc's Food Store","58440 Belleview Dr","70764",30.27558030633757,-91.23621659350974
"70767","Port Allen","LA","Walmart Supercenter","3255 La Highway 1 S","70767",30.420302402073066,-91.21649980545044
"70767","Port Allen","LA","Hubben's Supermarket","560 N Alexander Ave","70767",30.456525752564623,-91.21009077400726
"70769","Prairieville","LA","Tureau's Grocery","not_available","70769",30.284351348876953,-90.85597229003906
"70774","Saint Amant","LA","R&B Grocery","not_available","70737",30.190826223022608,-90.854908219813
"70774","Saint Amant","LA","Murray's Superette","44269 LA 429","70774",30.223176160099484,-90.86146049166868
"70775","Saint Francisville","LA","St. Francisville IGA","7135 US Highway 61","70775",30.78761863708496,-91.37818908691406
"70776","Saint Gabriel","LA","St. Gabriel Grocery","not_available","70776",30.257455389334428,-91.1033460785005
"70802","Baton Rouge","LA","Walmart Supercenter","3132 College Dr","70808",30.42076499314597,-91.14294290542603
"70802","Baton Rouge","LA","Trader Joe's","3535 Perkins Rd","70808",30.422626847283507,-91.15367122802324
"70802","Baton Rouge","LA","Calandro's Supermarket","4142 Government Street","70806",30.444235365851323,-91.14714904784444
"70802","Baton Rouge","LA","Bet-R-Store","2812 Kalurah St","70808",30.425827866605562,-91.15985488793834
"70802","Baton Rouge","LA","Albertsons","4857 Government St","70806",30.4451062,-91.1405271
"70802","Baton Rouge","LA","Albertsons","2950 College Dr","70808",30.4220912,-91.1413532
"70802","Baton Rouge","LA","Capital Grocery","not_available","70802",30.454743084390508,-91.1835420411338
"70802","Baton Rouge","LA","LSU - Mini Mart","Mini Mart","70803",30.416064965800874,-91.18182420730591
"70802","Baton Rouge","LA","Mercadona La Carlota","Polígono La Carlota","70802",30.419003,-91.172675
"70802","Baton Rouge","LA","Jim Lu Grocery Food Mart","1701 Government St","70802",30.443924123887754,-91.17138504981993
"70802","Baton Rouge","LA","Owen's Deli","2444 Balis Dr","70808",30.426090000000002,-91.140866
"70802","Baton Rouge","LA","International Foods","4433 Perkins Rd","70808",30.41746711730957,-91.14395141601562
"70802","Baton Rouge","LA","Acadian Groceries","1150 S Acadian Thruway","70806",30.43855594369153,-91.1530034733989
"70802","Baton Rouge","LA","Terrace Grocery","1457 Terrace St","70802",30.437126,-91.17325
"70805","Baton Rouge","LA","Hi Nabor","7201 Winbourne Ave","70805",30.48010667329359,-91.1169056877213
"70805","Baton Rouge","LA","Save-A-Lot","5186 Evangeline","70805",30.49300776800923,-91.13871053456845
"70805","Baton Rouge","LA","Triangle Food Market","2799 Senic Highway","70805",30.472934999999996,-91.168592
"70805","Baton Rouge","LA","Real Star Grocery","not_available","70805",30.478802894279863,-91.15877827405286
"70805","Baton Rouge","LA","Piggly Wiggly","Plank Road","not_available",30.50408613625124,-91.15309252675016
"70805","Baton Rouge","LA","Winn-Dixie","6800 Greenwell Springs Rd","70805",30.471978755743553,-91.12159252166748
"70806","Baton Rouge","LA","Whole Foods Market","7529 Corporate Blvd","70809",30.432092452515384,-91.1114005175178
"70806","Baton Rouge","LA","Walmart Supercenter","9350 Cortana Pl","70815",30.46219317,-91.09088601
"70806","Baton Rouge","LA","La Morenita","7981 Florida Blvd","70806",30.453050983262997,-91.10559322150084
"70806","Baton Rouge","LA","Piggly Wiggly","5355 Government St","70806",30.445003999999997,-91.134745
"70808","Baton Rouge","LA","Sprouts Farmers Market","4841 Rouzan Square Ave","70808",30.4143137,-91.1387183
"70808","Baton Rouge","LA","Walmart Neighborhood Market","5255 Highland Rd","70808",30.395412252681655,-91.1601169329172
"70808","Baton Rouge","LA","Winn-Dixie","5555 Burbank Dr","70820",30.393068524632234,-91.1622421855099
"70808","Baton Rouge","LA","Albertsons","7515 Perkins Rd","70808",30.3969971,-91.1095664
"70808","Baton Rouge","LA","Calvin's Market","7675 Jefferson Hwy","70809",30.429603664552477,-91.10745922824475
"70808","Baton Rouge","LA","Rouses Market","600 Arlington Creek Centre Blvd","70820",30.389785766601562,-91.16156005859375
"70808","Baton Rouge","LA","Hebert’s Specialty Meats","7949 Jefferson Hwy Ste A70809","70809",30.426681518554688,-91.10556030273438
"70809","Baton Rouge","LA","Walmart Supercenter","10606 N Mall Dr","70809",30.37761431777479,-91.06168270111084
"70809","Baton Rouge","LA","Walmart Neighborhood Market","11550 Coursey Boulevard","70816",30.40985651186606,-91.0543441772461
"70809","Baton Rouge","LA","Walmart Supercenter","10550 Burbank Dr","70810",30.35193511209823,-91.10986590385437
"70809","Baton Rouge","LA","Winn-Dixie","13002 Coursey Blvd","70816",30.408549622835917,-91.03465492378308
"70809","Baton Rouge","LA","Albertsons","9650 Airline Hwy","70815",30.43215329367077,-91.08319938182836
"70809","Baton Rouge","LA","Calandro's Supermarket","12732 Perkins Rd","70810",30.36749032455478,-91.07607172268062
"70809","Baton Rouge","LA","Rouses Market","3446 Drusilla Ln","70809",30.41997858701717,-91.08982443809509
"70809","Baton Rouge","LA","Albertsons","9960 Bluebonnet Blvd","70810",30.355648,-91.1108313
"70809","Baton Rouge","LA","Rouses Market","7580 Bluebonnet Blvd","70810",30.381617811368738,-91.09857648611069
"70809","Baton Rouge","LA","Walmart Neighborhood Market","9830 Old Hammond Hwy","70816",30.43111720757672,-91.07790470123291
"70809","Baton Rouge","LA","Ideal Market","1817 S Sherwood Forest Blvd","70816",30.43610954284668,-91.05623626708984
"70809","Baton Rouge","LA","The Fresh Market","10555 Perkins Rd,","70810",30.377763795732744,-91.09365068025235
"70809","Baton Rouge","LA","Albertsons","15232 George O'Neal Rd","70817",30.406187,-91.0150836
"70809","Baton Rouge","LA","Walmart Neighborhood Market","14241 Coursey Blvd","70817",30.40950490355418,-91.0206663608551
"70809","Baton Rouge","LA","Rouses Market","14630 Village Market Street","70817",30.362449573358678,-91.01358398852908
"70809","Baton Rouge","LA","Albertsons","15128 Airline Hwy","70817",30.3573504,-91.0086205
"70809","Baton Rouge","LA","Winn-Dixie","8601 Siegen Ln","70810",30.370563977217913,-91.07222554714396
"70809","Baton Rouge","LA","A-z international fine foods","13461 Tiger Bend Rd","70817",30.392674,-91.034762
"70809","Baton Rouge","LA","Get Your Grub","not_available","70809",30.410692,-91.072928
"70809","Baton Rouge","LA","Reeves Supermarket","10770 N Harrells Ferry Rd","70816",30.4340885,-91.0642668
"70809","Baton Rouge","LA","Kroger's","600 12th St","70601",30.411158133343232,-91.0492173845864
"70810","Baton Rouge","LA","Bluebonnet Village Shopping Center","not_available","70810",30.381112980911475,-91.09843969345093
"70810","Baton Rouge","LA","Amigos Mercadito & Carniceria","Perkins Rd","not_available",30.367630004882812,-91.07139587402344
"70814","Baton Rouge","LA","Piggly Wiggly","9702 Greenwell Springs Rd","70814",30.486330032348633,-91.07923126220703
"70814","Baton Rouge","LA","Piggly Wiggly","3901-4099 Platt Dr","70814",30.48713959178888,-91.07621675158602
"70815","Baton Rouge","LA","Hi Nabor","9620 Florida Blvd","70815",30.454153714299437,-91.07865789171244
"70815","Baton Rouge","LA","Shoppers Choice","not_available","70816",30.447257,-91.033091
"70815","Baton Rouge","LA","Asian Supermarket","11244 Florida Blvd","70815",30.457713000000002,-91.059641
"70815","Baton Rouge","LA","Le's Market","not_available","70815",30.462064609724756,-91.04292022279368
"70815","Baton Rouge","LA","Jerusalem International Market","9515 Delcourt Ave","70815",30.437388000000002,-91.083048
"70815","Baton Rouge","LA","Winn-Dixie","13555 Old Hammond Hwy","70816",30.44746960359086,-91.033012681771
"70815","Baton Rouge","LA","Saigon Hong Kong Seafood Market","1295 N Sherwood Dr","70815",30.460334032399388,-91.05878003683424
"70816","Baton Rouge","LA","Walmart Supercenter","2171 Oneal Ln","70816",30.437712817662188,-91.00471258163452
"70816","Baton Rouge","LA","Hi neighbor grocery","not_available","70817",30.432026654034416,-91.00745993726204
"71001","Arcadia","LA","Brookshire's","1335 Hazel St","71001",32.55813063661649,-92.9138041311158
"71001","Arcadia","LA","Brookshire's","1335 N Hazel St","71001",32.5489447,-92.9204365
"71004","Belcher","LA","Brookshire's","not_available","71107",32.722532,-93.838288
"71006","Benton","LA","Brookshire's","6280 Louisiana 3","71006",32.67801111248013,-93.74491541612652
"71006","Benton","LA","Benton Country Store","6560 Highway 3","71006",32.69529724121094,-93.74143981933594
"71019","Coushatta","LA","Dollar General Campti","not_available","71411",31.946314470521205,-93.16235489382593
"71019","Coushatta","LA","Rivertown Market","5115 Cut Off Rd","71019",32.01993942260742,-93.33221435546875
"71032","Grand Cane","LA","Walmart Supercenter","7292 Hwy #509","71052",32.05268595723661,-93.68176434984886
"71032","Grand Cane","LA","Brookshire's","1117 Polk St","71052",32.03853702248028,-93.69704303396337
"71037","Haughton","LA","Brookshire's","1125 Hwy 80 E","71037",32.55703734204334,-93.61057963963336
"71037","Haughton","LA","Hzhahshsh","8003 east Texas","71111",32.54878472110763,-93.62558484077454
"71037","Haughton","LA","Dhahran","8002 east Texas","71111",32.54797078468894,-93.6281168460846
"71037","Haughton","LA","Food","8001 east Texas","71111",32.54592686737086,-93.62635731697083
"71037","Haughton","LA","Shshshhs","8006 east Texas","71111",32.55310750417685,-93.62574577331543
"71037","Haughton","LA","Dhushsdhh","8010 E Texas St","71111",32.549476,-93.62833499999999
"71038","Haynesville","LA","Piggly Wiggly","1728 Main St","71038",32.960438,-93.141468
"71040","Homer","LA","Brookshire's Pharmacy","817 W Main St","71040",32.80065155029297,-93.05706024169922
"71040","Homer","LA","Piggly Wiggly","E Main","71040",32.79290307,-93.05443525314331
"71047","Keithville","LA","Walmart Supercenter","9550 Mansfield Rd","71118",32.388420645716536,-93.81884605885244
"71049","Logansport","LA","Brookshire Brothers","113 Haslam","75954",31.970862,-94.020676
"71049","Logansport","LA","Brookshire Brothers","113 Haslam Sawmill Road","75954",31.9655387,-94.0268922
"71055","Minden","LA","Walmart Supercenter","1379 Homer Rd","71055",32.62746679,-93.25147041
"71055","Minden","LA","Save-A-Lot","505 E Union St","71055",32.611933,-93.277541
"71055","Minden","LA","Brookshire's","205 Homer Rd","71055",32.62185510768507,-93.27661816086373
"71055","Minden","LA","Super 1 Foodd  West Monroe La","2907 West Monroe","not_available",32.58769695,-93.28419131666666
"71064","Plain Dealing","LA","Piggly Wiggly","On Hwy 2","71064",32.90576907677222,-93.70138144300827
"71071","Sarepta","LA","Walmart Supercenter","1920 S Arkansas St","71075",32.984511,-93.46182247
"71075","Springhill","LA","Brookshire's","400 Butler St","71075",33.00613673250035,-93.46680471761645
"71075","Springhill","LA","Piggly Wiggly","501 S Main St","71075",32.9966926574707,-93.45968627929688
"71082","Vivian","LA","Walmart","929 S Pine St","71082",32.857974238601095,-93.98617234577304
"71101","Shreveport","LA","Monjunis Italian Cafe & Grocery","1315 Louisiana Ave","71101",32.4992657,-93.744771
"71101","Shreveport","LA","Golden Touch In-Home Care","333 Texas St #1300","71101",32.51666480972157,-93.74039947986603
"71103","Shreveport","LA","Cotton's Grocery.","not_available","71109",32.492993,-93.796844
"71103","Shreveport","LA","Super 1 Foods","3705 Jewella Ave","71109",32.47698770629346,-93.79619465185345
"71103","Shreveport","LA","Super1Foods","Jewella","not_available",32.47726958680732,-93.79617619507654
"71104","Shreveport","LA","Walmart Supercenter","1125 Shreveport Barksdale Hwy","71105",32.48436139,-93.70578167
"71104","Shreveport","LA","Super 1 Foods","745 Shreveport Barksdale Hwy","71105",32.47853641230962,-93.71507664710775
"71104","Shreveport","LA","Brookshire's","510 Kings Hwy","71104",32.482030196804274,-93.74041799339965
"71104","Shreveport","LA","Super 1 Foods","not_available","71104",32.488977,-93.7439622
"71104","Shreveport","LA","Asiana Market","900 Shreveport Barksdale Hwy","71105",32.48204040527344,-93.7127685546875
"71105","Shreveport","LA","Walmart Supercenter","1645 E Bert Kouns Industrial Loop","71105",32.42904339,-93.71232326
"71105","Shreveport","LA","Target","7110 Youree Dr","71105",32.4399377078617,-93.71983370852116
"71105","Shreveport","LA","Kroger","6652 Youree Dr","71105",32.44466087668692,-93.72200757265091
"71105","Shreveport","LA","Albertsons","105 E Southfield Rd","71105",32.4553126,-93.7095017
"71105","Shreveport","LA","Whole Foods Market","1380 E. 70th St.","71105",32.444128625548615,-93.72699143439733
"71105","Shreveport","LA","Fairfield Market & Cafe","6955 Fern Loop","71105",32.4469376,-93.7257188
"71105","Shreveport","LA","Barksdale Air Force Base Commisarry","not_available","71112",32.494444585004324,-93.6949354029254
"71105","Shreveport","LA","Walmart Grocery Pickup and Delivery","1645 E Bert Kouns Industrial L","71105",32.428421,-93.712165
"71105","Shreveport","LA","Sunshine Health Market & Cafe","5751 Youree Dr","71105",32.45488400000001,-93.7213565
"71106","Shreveport","LA","Kroger Marketplace","9484 Ellerbe Rd Ste 100","71106",32.39372750049285,-93.72912365463787
"71106","Shreveport","LA","Save-A-Lot","300 W 84th St","71106",32.42809352988384,-93.76250099636805
"71106","Shreveport","LA","Walmart Neighborhood Market","412 Bert Kouns Industrial Loop","71106",32.399306191381854,-93.76506392966974
"71106","Shreveport","LA","Brookshire's","388 W Bert Kouns Industrial Loop","71106",32.39943690922548,-93.76265796173622
"71106","Shreveport","LA","Brookshire's","5828 Line Ave","71106",32.45600383272184,-93.74713266409141
"71106","Shreveport","LA","Cush's Grocery & Market","9535 Ellerbe Rd","71106",32.39519696373419,-93.72538864899997
"71106","Shreveport","LA","Conco Foods","524 W 61st St","71106",32.450512,-93.769013
"71106","Shreveport","LA","County Market","not_available","71108",32.448063,-93.780135
"71106","Shreveport","LA","Maxwell's Market","not_available","71106",32.456825,-93.745632
"71106","Shreveport","LA","Super 1 Foods Fuel Center","2640 Waggoner Ave","71108",32.454554280129955,-93.77951145172119
"71107","Shreveport","LA","Walmart Supercenter","4701 Northport Blvd","71107",32.59620600297998,-93.83834135363867
"71107","Shreveport","LA","Brookshire's","3000 N Market St #140","71107",32.55849388291559,-93.78172001802388
"71107","Shreveport","LA","Walmart Grocery Pickup and Delivery","4701 Northport Boulevard","71107",32.59843826293945,-93.83910369873047
"71107","Shreveport","LA","Bergeron's Boudin & Cajun Meats","3933 Benton Rd","71111",32.57168411,-93.73118935
"71109","Shreveport","LA","Save-A-Lot","3723 Lakeshore Dr","71109",32.49237831874544,-93.7984435084094
"71109","Shreveport","LA","I'll get it Grocery Delivery Service","not_available","71119",32.49472,-93.82623
"71110","Barksdale Afb","LA","Walmart Neighborhood Market","4000 Barksdale Blvd","71112",32.4796257019043,-93.67874145507812
"71110","Barksdale Afb","LA","Barksdale AFB Commissary","1265 Twining Dr Bldg 4765","71110",32.492072848046156,-93.67478582213228
"71110","Barksdale Afb","LA","Commissary","not_available","71110",32.487001983333336,-93.66858775
"71110","Barksdale Afb","LA","Kroger","4100 Barksdale Blvd","71112",32.477435434313364,-93.67768659258218
"71111","Bossier City","LA","Super 1 Foods","1870 Airline Dr","71112",32.51971346451943,-93.69501467283492
"71111","Bossier City","LA","Walmart Supercenter","2536 Airline Dr","71111",32.54825724802052,-93.7072980547997
"71111","Bossier City","LA","Kroger Marketplace","1050 George Dement Blvd","71111",32.550435939347615,-93.70663949821432
"71111","Bossier City","LA","Kroger Marketplace","9484 Ellibie Road","71106",32.55029052190917,-93.70694301344794
"71111","Bossier City","LA","Target","2735 Beene Blvd","71111",32.558949637638946,-93.70708129477582
"71111","Bossier City","LA","Walmart Neighborhood Market","5700 Shed Road","71111",32.5601470699599,-93.6482521731896
"71111","Bossier City","LA","Super One Foods","Airline Dr.","71112",32.51394105,-93.70709351
"71112","Bossier City","LA","Brookshire's","4918 Barksdale Blvd","71112",32.45831787223219,-93.66276786336974
"71118","Shreveport","LA","Kroger","9155 Mansfield Rd","71118",32.40377202095357,-93.80079209804535
"71118","Shreveport","LA","Brookshire's","9250 Mansfield Rd","71118",32.401767228817846,-93.80565739743076
"71119","Shreveport","LA","Walmart Supercenter","6235 W Port Ave","71129",32.44671198361374,-93.8679694217096
"71119","Shreveport","LA","Brookshire's","3620 Pines Rd","71119",32.47882694186492,-93.86681815938717
"71201","Monroe","LA","Walmart Grocery Pickup & Delivery","2701 Louisville Ave","71201",32.525841,-92.098476
"71201","Monroe","LA","Brookshire's","1801 N 18th St","71201",32.5260243694768,-92.1159998115478
"71201","Monroe","LA","Walmart Neighborhood Market","1840 Mckeen Place","71201",32.52673266893904,-92.1141064114389
"71201","Monroe","LA","County Market","1900 Louisville Ave","71201",32.518062591552734,-92.10344696044922
"71201","Monroe","LA","Super 1 Foods","2810 Louisville Ave","71201",32.52399061737794,-92.09402589316339
"71201","Monroe","LA","Walmart Grocery Pickup","1840 McKeen Place","71201",32.526989,-92.113661
"71202","Monroe","LA","Mac's Fresh Market","1427 Winnsboro Rd","71202",32.48517990112305,-92.08679962158203
"71203","Monroe","LA","Brookshire's","4070 Sterlington Rd","71203",32.567414967962875,-92.07276176007773
"71203","Monroe","LA","Walmart Neighborhood Market","4430 Desiard Street","71203",32.5254107701781,-92.0677429266022
"71203","Monroe","LA","Brookshire's","7920 Desiard St","71203",32.52589064505871,-92.0403005465133
"71203","Monroe","LA","Bao Bao International Market","4334 Desiard St","71203",32.526291,-92.068508
"71203","Monroe","LA","Mac's Fresh Market","520 Lincoln Road","not_available",32.54426193237305,-92.01453399658203
"71220","Bastrop","LA","Walmart Supercenter","6091 Mer Rouge Rd","71220",32.77520847946994,-91.87030602120295
"71220","Bastrop","LA","Sav U Mor","1003 E Madison Ave","71220",32.78102111816406,-91.90251922607422
"71220","Bastrop","LA","Super 1 Foods","2211 E Madison Ave","71220",32.77824401855469,-91.8843765258789
"71220","Bastrop","LA","Bastrop Super Foods","not_available","71220",32.78238296508789,-91.91342163085938
"71222","Bernice","LA","IGA Super Value","not_available","71222",32.82777921980638,-92.65942823729074
"71225","Calhoun","LA","Mac's Fresh Market","1401-1445 Arkansas Rd","71291",32.57077218400168,-92.26537229127044
"71225","Calhoun","LA","Calhoun Groceries","not_available","71225",32.5195,-92.327401
"71232","Delhi","LA","Brookshire's","902 Broadway St","71232",32.44955825805664,-91.4937515258789
"71241","Farmerville","LA","Walmart Supercenter","833 Sterlington Hwy","71241",32.77327786593846,-92.39438239318845
"71241","Farmerville","LA","Brookshire's","1018 Sterlington Hwy","71241",32.76861572265625,-92.39059448242188
"71241","Farmerville","LA","MARION FOOD MART","280 Main St","71260",32.90132546666667,-92.24720555
"71241","Farmerville","LA","Marion Food Mart","Main St","71260",32.880191227247344,-92.22245850468968
"71241","Farmerville","LA","The Store","not_available","71260",32.835841,-92.342019
"71241","Farmerville","LA","GOOSENECK LLC","601 HICKORY STREET","71241",32.7804067,-92.4123535
"71251","Jonesboro","LA","Walmart Supercenter","184 Old Winnfield Rd","71251",32.227900365826244,-92.70656071051611
"71251","Jonesboro","LA","Brookshire's","325 E Main St","71251",32.23981945707973,-92.70913384821826
"71251","Jonesboro","LA","Traina's Bakery & Grocery","211 6th St","71251",32.23964320852725,-92.71525216555557
"71251","Jonesboro","LA","Jimmy Holden's Louisiana Cajun Sauce","107 Holley Dr","71251",32.24604034423828,-92.69876861572266
"71254","Lake Providence","LA","Walmart Supercenter","705 S Constitution Ave","71263",32.853458404541016,-91.3951187133789
"71254","Lake Providence","LA","Mac's Fresh Market Oak Grove, LA","905-1099 Louisiana 2","71263",32.86082929452693,-91.3802920115951
"71269","Rayville","LA","Walmart Supercenter","1806 Julia St","71269",32.46305696,-91.76282166
"71269","Rayville","LA","Brookshire's","1952 Julia St","71269",32.46180725097656,-91.7608413696289
"71270","Ruston","LA","Walmart Supercenter","1201 N Service Rd E","71270",32.54313745855376,-92.62402719158908
"71270","Ruston","LA","Super 1 Foods","1500 N Trenton St","71270",32.544719056975744,-92.63837752270798
"71270","Ruston","LA","Amigos of Ruston","307 E Georgia Ave","71270",32.5315458,-92.6342011
"71270","Ruston","LA","Walmart Neighborhood Market","321 W California","71270",32.52310992062955,-92.64288351419405
"71270","Ruston","LA","Jefferson Corner Ruston","5665 Highway 167","71270",32.5232053,-92.637927
"71280","Sterlington","LA","Simpson's One Stop","378 LA-2","71280",32.6996354,-92.09780169999999
"71282","Tallulah","LA","Kroger","3408 Pemberton Square Blvd","39180",32.3149317,-90.8816189
"71282","Tallulah","LA","Walmart Supercenter","2150 Iowa Blvd","39180",32.30784417374776,-90.89109347182418
"71282","Tallulah","LA","Exito Express","Cr 13 Calle 37","39180",32.199394,-90.942316
"71291","West Monroe","LA","Walmart Neighborhood Market","2400 Cypress Street","71291",32.5193918681839,-92.14446835460629
"71291","West Monroe","LA","Walmart Neighborhood Market","5251 Cypress St","71291",32.515193011538855,-92.18935342983669
"71291","West Monroe","LA","Super 1 Foods Fuel Center","2907 Cypress St","71291",32.51659430010793,-92.14996043176065
"71291","West Monroe","LA","Walmart Supercenter","1025 Glenwood Dr","71291",32.5083036324892,-92.1549675767367
"71291","West Monroe","LA","Brookshire's","3426 Cypress St #16","71291",32.51818075384845,-92.16096623630203
"71291","West Monroe","LA","Walmart Grocery Pickup","5251 Cypress Street","71291",32.5160493046337,-92.188828601049
"71291","West Monroe","LA","Mac's Fresh Market","5336 Cypress St","71291",32.51691436767578,-92.19158172607422
"71295","Winnsboro","LA","Walmart Supercenter","3360 Front St","71295",32.18147218,-91.72739582
"71295","Winnsboro","LA","Fords Food Market","not_available","71295",32.153837558732185,-91.72770936089633
"71295","Winnsboro","LA","Kaye's Food Market","9 Fair Ave","71295",32.178466796875,-91.72441864013672
"71301","Alexandria","LA","Kroger","1422 MacArthur Dr","71301",31.2825194,-92.4765553
"71301","Alexandria","LA","Walmart Supercenter","2050 N Mall Dr","71301",31.278547732251923,-92.45226609572323
"71301","Alexandria","LA","Walmart Neighborhood Market","812 Belleau Wood","71303",31.270718270695223,-92.48688948057341
"71301","Alexandria","LA","Mac's Fresh Market","4615 Jackson St","71303",31.276781481911335,-92.4804151217352
"71301","Alexandria","LA","Albertsons","2265 S MacArthur Dr","71301",31.2739086,-92.4633102
"71301","Alexandria","LA","Bunny Bread Store","not_available","71301",31.280477680171572,-92.44920506862525
"71301","Alexandria","LA","Save alot","not_available","71303",31.316710558984518,-92.47916264163527
"71301","Alexandria","LA","Walmart Grocery Pickup","812 Belleau Wood","71301",31.270945,-92.487255
"71301","Alexandria","LA","Super 1 Foods","604 MacArthur Dr","71303",31.296823812766497,-92.48052518340369
"71302","Alexandria","LA","Walmart Grocery Pickup","7162 Highway 1","71351",31.11007,-92.23126
"71303","Alexandria","LA","Walmart Supercenter","6225 Coliseum Blvd","71303",31.29247149020418,-92.51357775138385
"71323","Center Point","LA","CBD Oils and Beauty Products","263 Willie Clark Rd","71360",31.1978662,-92.2236855
"71325","Cheneyville","LA","Water Street Market","not_available","71346",31.086227,-92.405052
"71328","Deville","LA","Vajayjay's Shop, Drop & Roll","not_available","71328",31.369243918084226,-92.27639149559009
"71328","Deville","LA","Loolie's Supermarket","not_available","71360",31.369243918084226,-92.27639149559009
"71328","Deville","LA","Deville Grocery","970 Highway 1207","71328",31.357644,-92.165955
"71334","Ferriday","LA","Walmart Supercenter","4283 Carter St","71373",31.57716641015198,-91.46245546153109
"71334","Ferriday","LA","Natchez Market","not_available","39120",31.544665778165424,-91.40594998478495
"71334","Ferriday","LA","Vidalia Market","not_available","71373",31.573251724243164,-91.4469223022461
"71334","Ferriday","LA","Super Market Operations","116 Lower Woodville Rd","39120",31.53857421875,-91.39778137207031
"71334","Ferriday","LA","Southside Market","31 Sgt. S Prentiss Dr.","39120",31.524211883544922,-91.38843536376953
"71341","Hessmer","LA","Odell's Grocery","not_available","71351",31.10922400437652,-92.21441252398131
"71342","Jena","LA","Walmart Supercenter","3670 W Oak St","71342",31.69249213063295,-92.14048269288551
"71343","Jonesville","LA","Monterey Market","not_available","71354",31.450016,-91.71748
"71350","Mansura","LA","Walmart Supercenter","7162 Highway 1","71350",31.095841622403313,-92.0612366716271
"71357","Newellton","LA","Dixie Dandy","1109 Verona St","71357",32.06995545293436,-91.25532430742885
"71360","Pineville","LA","Walmart Neighborhood Market","2750 Hwy 28 East","71360",31.33227707327207,-92.40557640838115
"71360","Pineville","LA","Super 1 Foods","2951 Cottingham Expy","71360",31.35558006364185,-92.41571250516735
"71360","Pineville","LA","Walmart Supercenter","3636 Monroe Hwy","71360",31.36705257356619,-92.40683775245543
"71360","Pineville","LA","Mac's Fresh Market","3005 Highway 28 E","71360",31.334053,-92.3998231
"71360","Pineville","LA","Super 1 Foods","3123 Hwy 28 E","71360",31.333880462509647,-92.39709609646496
"71360","Pineville","LA","Mac's Fresh Market","4617 Shreveport Hwy","71360",31.382576430967106,-92.43488516334416
"71360","Pineville","LA","Parkside Grocery","not_available","71485",31.144786,-92.496722
"71366","Saint Joseph","LA","mac's fresh grocery","not_available","71366",31.92107428456671,-91.23776032290246
"71403","Anacoco","LA","Market Basket","not_available","71446",31.16159871628019,-93.26906216988277
"71403","Anacoco","LA","Walmart Supercenter","2204 S 5th St","71446",31.11856773972689,-93.2741861717224
"71403","Anacoco","LA","Market Basket","900 N 5th St","71446",31.14797772149514,-93.26425869978897
"71416","Cloutierville","LA","Louisiana Crawfish Company","140 Russell Cemetery Rd","71457",31.5404471,-93.002381
"71417","Colfax","LA","Spring Market","1506 Main St","71417",31.52469825744629,-92.68687438964844
"71418","Columbia","LA","Brookshire","not_available","71418",32.08341501405307,-92.09116942471671
"71418","Columbia","LA","Brookshire's","7713 U.S. 165","71418",32.0830786,-92.0908844
"71418","Columbia","LA","Kaye's Food","Pine St","71418",32.08361342904732,-92.09110715487628
"71430","Forest Hill","LA","La Mexicana Grocery","not_available","71430",31.044387030442874,-92.53108270221271
"71435","Grayson","LA","Mac's Fresh Market","4755 Main Street US 165","71465",31.890091361793626,-92.24039058256297
"71435","Grayson","LA","Olla, La","not_available","71465",31.901341627142774,-92.24068854958384
"71449","Many","LA","Walmart Grocery Pickup","25800 Highway 171","71449",31.578866,-93.508692
"71449","Many","LA","Brookshire Brothers","223 Elizabeth St","71449",31.566116333007812,-93.4870376586914
"71449","Many","LA","Market Basket","not_available","71449",31.56451942923901,-93.48473531644599
"71449","Many","LA","Brookshire Brothers","175 San Antonio Ave","71449",31.566656,-93.486712
"71449","Many","LA","Big Star - IGA","not_available","71486",31.629787166541313,-93.64394604233162
"71449","Many","LA","Spring Market","1495 Obrie St","71486",31.64200782775879,-93.64183044433594
"71457","Natchitoches","LA","Brookshire's","5696 Highway 1 Byp","71457",31.754206963244,-93.10687885447622
"71457","Natchitoches","LA","Walmart Supercenter","925 Keyser Ave","71457",31.750651361746378,-93.06662951899993
"71457","Natchitoches","LA","Super1Foods","not_available","71457",31.754196,-93.106803
"71457","Natchitoches","LA","Save-A-Lot","229 Keyser Ave Broadmore Shopping Center","71457",31.75298500061035,-93.0833740234375
"71457","Natchitoches","LA","Save-A-Lot","250 Keyser Ave","71458",31.752914,-93.083727
"71457","Natchitoches","LA","Super 1 Foods","318 Dixie Plaza","71457",31.752398,-93.0809284
"71483","Winnfield","LA","Walmart Supercenter","5940 Highway 167 N","71483",31.95017642122404,-92.65634929341361
"71483","Winnfield","LA","Brookshire's","817 W Court St","71483",31.925020217895508,-92.65021514892578
