"zip","city","state","name","address","postalCode","lat","lon"
"38603","Ashland","MS","Websters","not_available","not_available",34.833021085877526,-89.17677258706563
"38606","Batesville","MS","Walmart Supercenter","205 House Carlson Dr","38606",34.30824069876521,-89.91601727750022
"38606","Batesville","MS","Kroger","110 Keating Rd","38606",34.311085280273424,-89.9282830953598
"38606","Batesville","MS","Piggly Wiggly","122 US-51","38606",34.31287758107671,-89.94246125221252
"38606","Batesville","MS","Save-A-Lot","220 Hwy 6 W","38606",34.311246327440145,-89.94713196546014
"38606","Batesville","MS","Save A Lot","220 Highway 6 W","38606",34.3109835,-89.9472893
"38606","Batesville","MS","Piggly Wiggly","hwy 6","38606",34.310804893334094,-89.87769259680012
"38610","Blue Mountain","MS","Food Giant","not_available","38663",34.73596993148604,-88.94548416137695
"38610","Blue Mountain","MS","Walmart","822 City Ave S","38663",34.72335691384794,-88.9507034466324
"38611","Byhalia","MS","Piggly Wiggly","19 Fuller St","38611",34.87124252319336,-89.68427276611328
"38611","Byhalia","MS","Piggly Wiggly","not_available","38611",34.88074703075713,-89.73919498954844
"38614","Clarksdale","MS","Walmart Supercenter","1000 S State St","38614",34.180689889938755,-90.5907940864563
"38614","Clarksdale","MS","Save A Lot","535 E 2nd St","38614",34.2046271,-90.5691531
"38614","Clarksdale","MS","Hooker Grocery","316 John Lee Hooker Ln","38614",34.201026916503906,-90.57278442382812
"38614","Clarksdale","MS","Macau 88 Quic Pic","1541 Cheyenne St","38614",34.206736,-90.588655
"38614","Clarksdale","MS","Save-A-Lot","535 E Second St","38614",34.203746,-90.569506
"38614","Clarksdale","MS","Eighth Street Grocery","not_available","38614",34.194273,-90.569878
"38618","Coldwater","MS","Walmart Supercenter","5219 Highway 51 N","38668",34.62935917320998,-89.97156405019939
"38626","Dundee","MS","Hays","Midland Heights","72342",34.53916143740013,-90.6210155830649
"38629","Falkner","MS","Shopezy","Hwy 15","38683",34.950435056190834,-88.90321675522982
"38632","Hernando","MS","Kroger","2380 Mount Pleasant Rd","38632",34.82633577962775,-89.98169993442832
"38632","Hernando","MS","Walmart Supercenter","2600 Mcingvale Rd","38632",34.822425535175675,-89.96904318920517
"38632","Hernando","MS","WIC Center","1939 Oak Tree Cv","38632",34.83214569091797,-89.99440002441406
"38632","Hernando","MS","Walmart Grocery Pickup","2600 McIngvale Rd","38632",34.8223225543399,-89.9720648814699
"38635","Holly Springs","MS","Walmart Supercenter","950 Mackie Dr","38635",34.74667416030647,-89.45877092141838
"38635","Holly Springs","MS","Save-A-Lot","Hwy 7 South","38635",34.712644,-89.463881
"38635","Holly Springs","MS","Save A Lot","not_available","38635",34.7541208999203,-89.45332093146047
"38637","Horn Lake","MS","Walmart Supercenter","4150 Goodman Road West","38637",34.96437475850285,-90.06273204964766
"38637","Horn Lake","MS","Walmart Neighborhood Market","2401 Goodman Rd W","38637",34.96135028849075,-90.03257523429846
"38637","Horn Lake","MS","Kroger","7251 Interstate Dr","38637",34.9644235,-90.0053411
"38637","Horn Lake","MS","Kroger","3926 Goodman Rd W","38637",34.96443590340345,-90.0595879345201
"38637","Horn Lake","MS","Super Mercado ""El Sol""","2510 Goodman Rd W","38637",34.963576,-90.022214
"38637","Horn Lake","MS","Fortuna Supermercado","7058 Highway 51 N","38637",34.9638786315918,-90.01514434814453
"38646","Marks","MS","Lexico","215 Pecan St","38646",34.258063,-90.27165
"38652","New Albany","MS","Walmart Supercenter","202 Park Plaza Dr","38652",34.49310473187805,-89.03230487615302
"38652","New Albany","MS","Reed's Market","300 W Bankhead St","38652",34.509769439697266,-89.03475189208984
"38652","New Albany","MS","The Vintage Market","127 W Bankhead St Apt A","38652",34.49431904690455,-89.00909873837588
"38652","New Albany","MS","Piggly Wiggly","500-682 W Bankhead St","38652",34.49797058105469,-89.02346801757812
"38652","New Albany","MS","Stokes","400-408 Mississippi 15","38652",34.491811655045595,-88.99546855671045
"38654","Olive Branch","MS","Kroger","7427 Goodman Rd","38654",34.9601688,-89.8575725
"38654","Olive Branch","MS","Walmart Supercenter","7950 Craft Goodman Frontage Rd","38654",34.96482972873556,-89.84968048731868
"38654","Olive Branch","MS","ALDI","6626 Goodman Rd","38654",34.96302055134035,-89.87268225119806
"38654","Olive Branch","MS","Super Suppers","5960 Getwell Rd","38672",34.94727325439453,-89.9349594116211
"38654","Olive Branch","MS","Kroger Grocery Pickup and Delivery","3095 Goodman Rd E","38672",34.9608134372165,-89.93462383747107
"38654","Olive Branch","MS","Michael's Discount Grocery","not_available","38654",34.94987106323242,-89.83149719238281
"38655","Oxford","MS","Walmart Supercenter","2530 Jackson Ave W","38655",34.35992565609296,-89.56438061122334
"38655","Oxford","MS","Kroger","2013 University Ave","38655",34.36350589054027,-89.50370147824287
"38655","Oxford","MS","3-Way Grocery & Deli","1500 Old Highway 7 N","38655",34.38598982956164,-89.506237954323
"38655","Oxford","MS","Larson's Big Star/Cash Saver","1936 University Ave","38655",34.36147965866585,-89.50803159475858
"38655","Oxford","MS","Bargain Basket","not_available","38655",34.25684213787177,-89.53615545219225
"38668","Senatobia","MS","Kaye's Food","150 Norfleet Dr","38668",34.623582362111414,-89.95415790196844
"38671","Southaven","MS","Walmart Supercenter","6811 Southcrest Pkwy","38671",34.95990608041726,-89.99616289260207
"38671","Southaven","MS","Superlo Foods","not_available","38671",34.96147684139882,-89.97343613874932
"38671","Southaven","MS","Kroger","465 Stateline Rd W","38671",34.99031457718799,-89.99751257804871
"38671","Southaven","MS","ALDI","7051 Sleepy Hollow Dr","38671",34.9634747,-89.9967988
"38671","Southaven","MS","Sunbeam Bakery Store","821 Stateline Rd E","38671",34.99135208129883,-89.97523498535156
"38671","Southaven","MS","Super Mercado El Rey","8565 US-51","38671",34.985038290797185,-90.01841068267822
"38671","Southaven","MS","Spice Market Of India","1215 Main Street","38671",34.991389,-90.011568
"38671","Southaven","MS","WIC Food Center","8791 Northwest Dr","38671",34.98908615112305,-90.00536346435547
"38676","Tunica","MS","Piggly Wiggly","1084 Highway 61","not_available",34.68580546193984,-90.37574809401325
"38676","Tunica","MS","Jeffcoats Grocery","not_available","38676",34.6899884361462,-90.38287078859669
"38676","Tunica","MS","Piggly Wiggly","PO Box 336","38676",34.684546,-90.382877
"38701","Greenville","MS","Walmart Supercenter","1831 Highway 1 S","38701",33.36778450950876,-91.04286412766795
"38701","Greenville","MS","Kroger","1778 Highway 1 S","38701",33.36983177111376,-91.0379853996892
"38701","Greenville","MS","Bings country market","not_available","38701",33.415194,-91.037401
"38701","Greenville","MS","Supervalu Foods","W Reed Rd.","71653",33.384968969749345,-91.05508998984246
"38701","Greenville","MS","Delta Vapors","1422 S Main St","38701",33.3843023,-91.0532921
"38721","Anguilla","MS","Stop & Shop","not_available","39159",32.908253,-90.87772
"38732","Cleveland","MS","Walmart Supercenter","710 N Davis Ave","38732",33.75689374,-90.71289838
"38732","Cleveland","MS","Kroger","602 N Davis Ave","38732",33.7525204,-90.7138262
"38732","Cleveland","MS","Vowell's Marketplace","207 N Davis Ave","38732",33.74654483777365,-90.7167286872219
"38732","Cleveland","MS","Save-A-Lot","403 South St","38732",33.742618560791016,-90.71849060058594
"38751","Indianola","MS","Walmart Supercenter","633 Highway 82 W","38751",33.4592222327742,-90.6632404583689
"38751","Indianola","MS","Sunflower Food Store","not_available","38751",33.458873708738565,-90.63887730497207
"38754","Isola","MS","SuperValu Foods","1st St","39038",33.184599980961,-90.49638664738755
"38769","Rosedale","MS","Piggly Wiggly","not_available","38769",33.84518123461028,-91.02563717908897
"38801","Tupelo","MS","Walmart Supercenter","2270 W Main St","38801",34.2578451969394,-88.7410662257914
"38801","Tupelo","MS","Kroger","960 W Main St","38801",34.2581228,-88.7188036
"38801","Tupelo","MS","Walmart Neighborhood Market","316 S Gloster Street","38801",34.25505186257966,-88.71428698337695
"38801","Tupelo","MS","Check Out Counter","not_available","38801",34.258015136383996,-88.74067238705982
"38801","Tupelo","MS","Todd's Big Star","W. Main St","38841",34.25608809706144,-88.72873068562382
"38801","Tupelo","MS","Kroger-Barnes Crossing","not_available","38866",34.291957,-88.673738
"38801","Tupelo","MS","Better Buy","not_available","38862",34.210893,-88.664908
"38801","Tupelo","MS","Palmer's","not_available","38804",34.2576641415503,-88.68130068426917
"38804","Tupelo","MS","Walmart Supercenter","3929 N Gloster St","38804",34.30887716188801,-88.70934674886936
"38804","Tupelo","MS","Kroger","930 Barnes Crossing Rd","38804",34.31765812443002,-88.70341597124934
"38804","Tupelo","MS","ALDI","3990 N Gloster St","38804",34.31348312937719,-88.70614215742535
"38804","Tupelo","MS","Save-A-Lot","119 City Market Dr","38866",34.376492,-88.68172
"38821","Amory","MS","Walmart Supercenter","1515 Highway 278 E","38821",33.968428640224765,-88.45749442550232
"38821","Amory","MS","Piggly Wiggly","105 Highway 6 N","38821",33.99420166015625,-88.49178314208984
"38821","Amory","MS","Piggly Wiggly","not_available","38821",33.994307038011996,-88.491771268291
"38824","Baldwyn","MS","Food Giant","218 Hwy 145","38824",34.510868072509766,-88.63475799560547
"38826","Belden","MS","Wild Bills At Sherman","not_available","38869",34.35747463364059,-88.84137670431895
"38829","Booneville","MS","Walmart Supercenter","300 Walmart Cir","38829",34.67745440368145,-88.56399467642369
"38829","Booneville","MS","Piggly Wiggly","not_available","38829",34.65556963450709,-88.56721680295571
"38829","Booneville","MS","Save-A-Lot","212 Walmart Cir","38829",34.67634963989258,-88.56207275390625
"38833","Burnsville","MS","Dollar Wise Discount Grocery","not_available","38852",34.807886688895636,-88.30244711039936
"38834","Corinth","MS","Walmart Supercenter","2301 S Harper Rd","38834",34.91049623241315,-88.50209992645772
"38834","Corinth","MS","Kroger","104 Highway 72 W","38834",34.928198822480006,-88.52432600421537
"38834","Corinth","MS","Gardner's Supermarket","1802 Highway 72 E","38834",34.91473388671875,-88.50494384765625
"38834","Corinth","MS","ALDI","1825 S Harper Rd","38834",34.914217,-88.5010673
"38834","Corinth","MS","Roger's Supermarket","410 Cass Street","38834",34.933544,-88.517165
"38834","Corinth","MS","Rogers","not_available","38834",34.92841949480399,-88.5183170776218
"38843","Fulton","MS","Walmart Supercenter","100 Interchange Dr","38843",34.2419651810703,-88.39787745095639
"38843","Fulton","MS","Dorsey Food Mart","3130 Hwy 178 Wes","38843",34.2547077,-88.4914412
"38843","Fulton","MS","Food Giant","1401 S Adams St","38843",34.252437591552734,-88.40382385253906
"38843","Fulton","MS","Walmart Neighborhood Market","2795 Hwy 371 S","38855",34.314938,-88.499175
"38851","Houston","MS","Walmart","660 E Madison St","38851",33.89531069,-88.98945736
"38851","Houston","MS","Save A Lot","945 E Madison St","38851",33.8959693908691,-88.9866790771484
"38851","Houston","MS","Grocer's Pride","not_available","38851",33.89680152298215,-89.00539150105601
"38852","Iuka","MS","Walmart","1110 Battleground Dr","38852",34.80426216083814,-88.20418954299451
"38858","Nettleton","MS","Piggly Wiggly","7195 Will Robbins Hwy","38858",34.086271,-88.624709
"38860","Okolona","MS","Todd's Okolona Food Center","not_available","38860",34.00178563042478,-88.75489836536248
"38863","Pontotoc","MS","Walmart Supercenter","100 Mccord Rd","38863",34.28537485748096,-89.02177687011104
"38863","Pontotoc","MS","Piggly Wiggly","W. Oxford St","38863",34.25307846069336,-89.01226806640625
"38863","Pontotoc","MS","Save A Lot","168 Highway 15 N","38863",34.243929,-89.016073
"38863","Pontotoc","MS","Walmart Grocery Pickup","100 McCord Rd","38863",34.28554382,-89.02562412
"38863","Pontotoc","MS","Save-A-Lot","168 Hwy 15 N","38863",34.24391556,-89.01641083
"38865","Rienzi","MS","Benjamin Grocery And Hay","289 Highway 45","38865",34.79802703857422,-88.5604476928711
"38865","Rienzi","MS","Suitor's Meat Company","95 County Road 516","38865",34.79433822631836,-88.57485961914062
"38901","Grenada","MS","Walmart Supercenter","1655 Sunset Dr","38901",33.78187553247146,-89.83702138420907
"38901","Grenada","MS","Spain's","318 2nd St","38901",33.783262959400304,-89.80164027957767
"38901","Grenada","MS","Grocery Basket","1770 Commerce St","38901",33.76502990722656,-89.80779266357422
"38901","Grenada","MS","B Grocery","32320-32336 State Hig. 8","38929",33.75705436262629,-89.6151517335628
"38901","Grenada","MS","Discount Grocery","not_available","38901",33.780467,-89.765126
"38901","Grenada","MS","Save-A-Lot","1234 Sunset Dr","38901",33.77483353453602,-89.82132351181413
"38915","Bruce","MS","Dollar General","727 MS-9","38915",34.037574,-89.354008
"38916","Calhoun City","MS","Piggly Wiggly","595 East Veterans Avenue","38916",33.855430603027344,-89.29835510253906
"38921","Charleston","MS","Family Dollar","310 W Main St","38921",34.006805419921875,-90.06137084960938
"38922","Coffeeville","MS","The Grocery List","not_available","38922",33.961933,-89.674622
"38930","Greenwood","MS","Walmart Supercenter","2202 Highway 82 W","38930",33.52980534839625,-90.22127758344288
"38930","Greenwood","MS","Market Place","410 W Park Ave","38930",33.53112201399515,-90.19575381834443
"38930","Greenwood","MS","Big Star","206 Cotton St","38930",33.5192341847213,-90.18535687056982
"38930","Greenwood","MS","Save-A-Lot","719 W Park Ave","38930",33.52707143991224,-90.2007143438529
"38930","Greenwood","MS","Freds grocery Store","not_available","38930",33.516232,-90.179528
"38930","Greenwood","MS","Big Star","2606 Highway 82 E","38930",33.508628,-90.14695
"38930","Greenwood","MS","Big Lots","701 W Park Ave","38930",33.52694859372956,-90.1987665090623
"38965","Water Valley","MS","Larson Cash Saver","not_available","38965",34.145065,-89.63524
"38967","Winona","MS","Supervalu Foods","not_available","38967",33.4872280720142,-89.7373929044989
"39040","Bentonia","MS","Poli Supermarkt","Marconi Strasse","39040",32.6496133,-90.4313729
"39040","Bentonia","MS","Rameys Grocery Store","130 Edwards Cir","39071",32.5519416987552,-90.32277449228314
"39042","Brandon","MS","Kroger","1811 W Government St","39042",32.2853244,-90.0377043
"39042","Brandon","MS","Walmart Supercenter","5520 Highway 80 E","39208",32.28606237,-90.0462842
"39042","Brandon","MS","Walmart Supercenter","5341 Highway 25","39232",32.3510724956074,-90.02385755447447
"39042","Brandon","MS","Kroger","143 Fresh and Friendly Drive","39232",32.355481889604825,-90.01399916614923
"39042","Brandon","MS","King's Corner Grocery","200 Applewood Ln","39042",32.207500186656894,-89.96913309747339
"39042","Brandon","MS","Piggly Wiggly","not_available","39042",32.284285598919034,-90.02362381687965
"39042","Brandon","MS","Piggly Wiggly - Brandon","1574 West Government Street","39042",32.28498840332031,-90.02339172363281
"39042","Brandon","MS","Cash Saver","not_available","39047",32.381108722532915,-90.03575454023341
"39044","Braxton","MS","Vowell's Market Place","not_available","39114",31.966283364139713,-89.88205935321295
"39046","Canton","MS","Kroger","115 Colony Crossing Way","39110",32.474935538706696,-90.14192374082995
"39046","Canton","MS","Walmart Supercenter","244 Feather Lane","39046",32.5959958,-90.07307350000002
"39046","Canton","MS","Piggly Wiggly","1150 East Peace St","39046",32.6103575,-90.00878120000002
"39046","Canton","MS","Save-A-Lot","1050 E Peace St","39046",32.61153793334961,-90.01206970214844
"39046","Canton","MS","Piggly Wiggly - Canton","110 East Academy Street","39045",32.6094985,-90.03421809999999
"39047","Brandon","MS","Kroger","1070 Spillway Cir","39047",32.383501,-90.0393693
"39047","Brandon","MS","Kroger","1070 Highway 51","39110",32.463674895294986,-90.10813057422638
"39047","Brandon","MS","Kroger","7045 Old Canton Rd","39157",32.4159926,-90.1069657
"39047","Brandon","MS","Kroger","110 Promenade Blvd","39232",32.342316289919594,-90.0634664598328
"39047","Brandon","MS","We Go Shop  Mississippi","750 Avignon Drive Ste.5","39157",32.415356,-90.1138922
"39047","Brandon","MS","Saigon Asian Market","115 Village Sq","39047",32.38380432128906,-90.04402923583984
"39051","Carthage","MS","Walmart Supercenter","905 Highway 16 W","39051",32.7263970558517,-89.54736794911769
"39051","Carthage","MS","Piggly Wiggly","not_available","39051",32.734535432813196,-89.5335149104674
"39051","Carthage","MS","Bryan's Grocery (Doolittle)","2707 Mississippi 488","39051",32.704472264289,-89.46583271026611
"39056","Clinton","MS","Walmart Supercenter","950 Highway 80 E","39056",32.32635441238482,-90.30465032598431
"39056","Clinton","MS","Kroger","107 Highway 80 E","39056",32.33481067930316,-90.3250703215599
"39056","Clinton","MS","Walmart Supercenter","2711 Greenway Dr","39204",32.28827966089767,-90.2681960769659
"39056","Clinton","MS","Corner Market","Northside Dr","39056",32.34829366207123,-90.31375408172607
"39056","Clinton","MS","Frank's Produce","6031 Clinton Blvd","39209",32.334909,-90.288854
"39056","Clinton","MS","Grocery Depot","Northside Drive","39056",32.34794235229492,-90.31373596191406
"39057","Conehatta","MS","Piggly Wiggly","16851 Hwy 21 South","39359",32.56597,-89.342525
"39059","Crystal Springs","MS","Ramey's Grocery Store","509 W Marion Ave","39059",31.987388610839844,-90.36544036865234
"39059","Crystal Springs","MS","Save-A-Lot","160 Trade Center Lane","39083",31.87395859,-90.39750671
"39059","Crystal Springs","MS","Piggly Wiggly","not_available","39059",31.988335534269176,-90.36479297643024
"39059","Crystal Springs","MS","Kib's Super Market","E. Georgetown Street","39059",31.987606048583984,-90.35713195800781
"39059","Crystal Springs","MS","Piggly Wiggly","28064 Highway 28","39083",31.872657,-90.403822
"39059","Crystal Springs","MS","Walmart Supercenter","527 Lake St","39083",31.871570441291947,-90.40921740494446
"39063","Durant","MS","Ingels","Emory Rd","39063",33.22532653808594,-89.92306518554688
"39067","Ethel","MS","Walmart Supercenter","220 Veterans Memorial Dr","39090",33.05447267358776,-89.5668957948546
"39067","Ethel","MS","Sunflower","not_available","39090",33.06570515741696,-89.58380233733641
"39073","Florence","MS","Monterey Grocery","1324 Monterey Rd","39073",32.18509263327773,-90.08183307925694
"39073","Florence","MS","Kroger","1167 Highway 49 S","39218",32.216273609099865,-90.15543377620713
"39073","Florence","MS","IGA/Ramey's","not_available","39073",32.15213778563126,-90.1304392927076
"39073","Florence","MS","Bridges Quickie No. 1","1451 Highway 469 S","39073",32.071279,-90.135421
"39074","Forest","MS","Walmart Supercenter","1309 Highway 35 S","39074",32.33884685856072,-89.48562282903445
"39079","Goodman","MS","Piggly Wiggly - Pickens","740 Highway 51,Highway 51","39146",32.89308547973633,-89.97087097167969
"39096","Lorman","MS","mac's fresh grocery","not_available","71366",31.92107428456671,-91.23776032290246
"39096","Lorman","MS","Piggly Wiggly","not_available","39150",31.95782016052352,-90.98640566250143
"39108","Mc Cool","MS","Sunflower","Inv 580","39735",33.26656406,-89.28885119
"39110","Madison","MS","Walmart Supercenter","127 Grandview Blvd","39110",32.46730364356274,-90.13442741678377
"39110","Madison","MS","The Fresh Market","1000 Highland Colony Pkwy, Ste 1001","39157",32.43323880460394,-90.14840314250478
"39111","Magee","MS","Walmart Supercenter","1625 Simpson Hwy #49","39111",31.86718909,-89.74697113
"39111","Magee","MS","Piggly Wiggly","339 Simpson Highway 149","39111",31.868799209594727,-89.72757720947266
"39111","Magee","MS","Walmart Grocery Pickup","1625 Simpson Hwy 49","39111",31.867085,-89.746913
"39119","Mount Olive","MS","Collins Asian Mart","3623 Highway 49 Ste 70","39428",31.671085357666016,-89.5897445678711
"39120","Natchez","MS","Walmart Supercenter","314 Sgt. S. Prentiss","39120",31.553394868846233,-91.3714203081123
"39120","Natchez","MS","Walmart Supercenter","4283 Carter St","71373",31.57716641015198,-91.46245546153109
"39120","Natchez","MS","Natchez Market","61 North","39120",31.56283867763795,-91.35353387423699
"39120","Natchez","MS","Natchez Market","not_available","39120",31.544665778165424,-91.40594998478495
"39120","Natchez","MS","Vidalia Market","not_available","71373",31.573251724243164,-91.4469223022461
"39120","Natchez","MS","Super Market Operations","116 Lower Woodville Rd","39120",31.53857421875,-91.39778137207031
"39120","Natchez","MS","Southside Market","31 Sgt. S Prentiss Dr.","39120",31.524211883544922,-91.38843536376953
"39153","Raleigh","MS","Sullivan's Grocery Raleigh, MS","263 Magnolia Dr","39153",32.019927978515625,-89.5168228149414
"39154","Raymond","MS","Sunflower","122 Port Gibson St","39154",32.25875346461173,-90.42335804486805
"39157","Ridgeland","MS","Walmart Supercenter","815 S Wheatley St","39157",32.401681975557906,-90.1338360239632
"39157","Ridgeland","MS","Mac's Fresh Market","398 Highway 51","39157",32.42055977848991,-90.13324194079664
"39168","Taylorsville","MS","Piggy Wiggly","not_available","39168",31.8487,-89.38659
"39168","Taylorsville","MS","Grocery Depot","hwy 37","39168",31.835358,-89.4244755
"39168","Taylorsville","MS","Piggly Wiggly","221 Welcome Street","39168",31.83088181204509,-89.43188880428237
"39170","Terry","MS","Walmart Supercenter","131 Handley Boulevard","39272",32.18579560548628,-90.26447839193905
"39170","Terry","MS","Kroger","6745 S Siwell Rd","39272",32.20452755223062,-90.29682285485336
"39170","Terry","MS","Vowells Market Place","5777 Terry Rd","39272",32.18754959106445,-90.25975036621094
"39175","Utica","MS","Sunflower","247 Cayuga St","39175",32.114835,-90.625626
"39180","Vicksburg","MS","Kroger","3408 Pemberton Square Blvd","39180",32.3149317,-90.8816189
"39180","Vicksburg","MS","Walmart Supercenter","2150 Iowa Blvd","39180",32.30784417374776,-90.89109347182418
"39180","Vicksburg","MS","Super Junior","4300 Nailor Rd","39180",32.269775294834524,-90.86520301446856
"39180","Vicksburg","MS","Piggly Wiggly","not_available","39180",32.291300080606874,-90.86662673260601
"39180","Vicksburg","MS","Exito Express","Cr 13 Calle 37","39180",32.199394,-90.942316
"39183","Vicksburg","MS","Super Junior","1095 Oak Ridge Road","39183",32.39203431,-90.80230247
"39194","Yazoo City","MS","Save-A-Lot","110 N Jerry Clower Blvd Suite F","39194",32.841178379792744,-90.38600720664468
"39194","Yazoo City","MS","Save A Lot","110 N Jerry Clower Blvd Ste F","39194",32.8605514,-90.3914732
"39201","Jackson","MS","Organo Gold","1756 S Gallatin St","39201",32.2795647,-90.19276200000002
"39202","Jackson","MS","Save-A-Lot","2441 Bailey Ave","39213",32.327613008415625,-90.19340971246638
"39202","Jackson","MS","Corner Market","not_available","39202",32.312514,-90.174499
"39203","Jackson","MS","Star Grocery","1723 Bailey Ave","39203",32.321605,-90.19467
"39204","Jackson","MS","Save-A-Lot","2875 W McDowell Rd","39204",32.267936706543,-90.2603378295898
"39204","Jackson","MS","Food Depot","not_available","39212",32.267938,-90.219241
"39204","Jackson","MS","Save A Lot","2875 McDowell Road Ext","39204",32.267936999999996,-90.260751
"39204","Jackson","MS","Ambica Bazaar","2672 Highway 80 W","39204",32.293731689453125,-90.23138427734375
"39204","Jackson","MS","Save-A-Lot","1411 Ellis Ave","39204",32.29379653930664,-90.22863006591797
"39204","Jackson","MS","Save-A-Lot","835 Cooper Rd","39212",32.253177221522115,-90.2520090307657
"39206","Jackson","MS","Kroger","4910 I 55 N","39211",32.3640159,-90.1478728
"39206","Jackson","MS","Whole Foods Market","4500 I-55 North","39211",32.354750102509705,-90.14960136841614
"39206","Jackson","MS","McDade's Market","1200 E Northside Dr","39211",32.35641143969863,-90.14932169010147
"39206","Jackson","MS","Piggly Wiggly","225 Meadowbrook Rd","39206",32.34904,-90.176671
"39206","Jackson","MS","Mr. Chen's","5465 I 55 N","39206",32.377234508744394,-90.14893181782662
"39206","Jackson","MS","Oriental Supermarket And Restaurant","not_available","39206",32.37741244612704,-90.14886820414841
"39206","Jackson","MS","Save-A-Lot","5465 I-55 North","39206",32.377892,-90.149147
"39208","Pearl","MS","McDade's Market","653 Duling Ave","39216",32.33555520872517,-90.17485238766774
"39208","Pearl","MS","Kroger","201 Lonnie T Jenkins Dr","39208",32.284404,-90.1169882
"39208","Pearl","MS","Walmart Supercenter","200 Marketplace Drive","39218",32.22003546,-90.15197396
"39208","Pearl","MS","Aladdin Mediterranean Grocery","Lakeland Dr","39216",32.33403015136719,-90.1735610961914
"39208","Pearl","MS","Save-A-Lot","3111 Highway 80 E Ste D","39208",32.28273010253906,-90.11688232421875
"39208","Pearl","MS","Save-A-Lot","3111 Hwy 80 E Ste D","39208",32.281075,-90.11743299999999
"39209","Jackson","MS","Food Depot","NorthSide Dr","39056",32.357547,-90.229726
"39209","Jackson","MS","Sysco Foods","not_available","39209",32.339279366289645,-90.24534087959087
"39209","Jackson","MS","McDade's Market","2526 Robinson St","39209",32.305143789661734,-90.22827744483948
"39301","Meridian","MS","Walmart Supercenter","2400 Highway 19 N","39307",32.38677318909901,-88.7488430477008
"39301","Meridian","MS","Walmart Supercenter","1733 2nd St S","39301",32.35532444,-88.68276982
"39301","Meridian","MS","Walmart Neighborhood Market","3310-a Highway 39 North","39301",32.391571196220376,-88.6815268149975
"39301","Meridian","MS","Cashsaver","1700 N Frontage Rd","39301",32.358378,-88.688011
"39301","Meridian","MS","Winn-Dixie","5100 Highway 39 N","39301",32.41249220405512,-88.6774449769475
"39301","Meridian","MS","Big Lots","832 Highway 19 N Ste 580","39307",32.36658790445613,-88.73081524999202
"39301","Meridian","MS","Save A Lot","832 Hwy 19 N Suite 570","39307",32.36618299293453,-88.73018304540814
"39301","Meridian","MS","Walmart Grocery Pickup","3310-A Highway 39 North","39301",32.3916336870822,-88.6823580212858
"39301","Meridian","MS","Meridian Fruit & Produce","2915 5th St","39301",32.360626220703125,-88.70802307128906
"39301","Meridian","MS","M&B Grocery","1802 26th Ave","39301",32.37596130371094,-88.70462036132812
"39305","Meridian","MS","Piggly Wiggly","9095 Collinsville Rd","39325",32.49655111354971,-88.84746053835217
"39305","Meridian","MS","Meridian NAS Commissary","431 Allen Road","39309",32.54525484451775,-88.60832594813617
"39305","Meridian","MS","Flowers' Discount Bakery Store","5536 Highway 19 N","39307",32.41747283935547,-88.77793884277344
"39322","Buckatunna","MS","Rameys","1155-1167 Azalea Dr","39367",31.681609999308034,-88.63760672061736
"39322","Buckatunna","MS","Walmart Grocery Pickup","1350 Azalea Dr","39367",31.6847297668111,-88.63299240564
"39322","Buckatunna","MS","Rameys","not_available","39367",31.679786921855367,-88.64417727053834
"39322","Buckatunna","MS","Save-A-Lot","907 Herbert Mart Shpg Ctr - Highway 45","39367",31.681046348929723,-88.64539507424219
"39327","Decatur","MS","Big G","39 7th Street","39327",32.43828,-89.109254
"39330","Enterprise","MS","Piggly Wiggly","323 Erwin Rd","39363",32.138023376464844,-88.79584503173828
"39330","Enterprise","MS","piggly wiggly","not_available","39363",32.13530349731445,-88.78878021240234
"39339","Louisville","MS","Vowell's Market Place","403 S Church Ave","39339",33.118961334228516,-89.05509185791016
"39339","Louisville","MS","Walmart Supercenter","159 Highway 15 S","39339",33.12214335317126,-89.08323609625319
"39345","Newton","MS","Walmart Supercenter","231 Eastside Dr","39345",32.33905519093563,-89.14180860153363
"39345","Newton","MS","Piggly Wiggly","110 Northside Plz","39345",32.3336181640625,-89.15190124511719
"39350","Philadelphia","MS","Walmart Supercenter","1002 W Beacon St","39350",32.76834008,-89.12783861
"39350","Philadelphia","MS","Piggly Wiggly","100 Choctaw Town Center","39350",32.779288,-89.101904
"39401","Hattiesburg","MS","Walmart Supercenter","6072 U S Highway 98","39402",31.319023701845293,-89.37966460953719
"39401","Hattiesburg","MS","Walmart Supercenter","5901 U S Highway 49","39402",31.308399383598847,-89.32097693217823
"39401","Hattiesburg","MS","Corner Market","University Mall Shopping Center","not_available",31.32363186845226,-89.34421663392035
"39401","Hattiesburg","MS","Walmart Supercenter","36 Byrd Blvd","39465",31.352818230434004,-89.2324016955666
"39401","Hattiesburg","MS","Winn-Dixie","2800 Lincoln Rd","39402",31.303452442936507,-89.33182307019263
"39401","Hattiesburg","MS","Winn-Dixie","4400 Hardy St","39402",31.323086321230388,-89.35441205985249
"39401","Hattiesburg","MS","Target","6143 U S Highway 98 Ste 80","39402",31.32364291777078,-89.38516678843125
"39401","Hattiesburg","MS","Corner Market","116 S Main St","39465",31.345756061931347,-89.26370353452545
"39401","Hattiesburg","MS","Corner Market","5266 Old Highway 11","39402",31.311615743115567,-89.4096537668029
"39401","Hattiesburg","MS","Sunflower","1900 Hardy St","39401",31.324423545768315,-89.31889057159424
"39401","Hattiesburg","MS","Suenos Tienda Mexicana","300 E Central Ave","39465",31.346559524536133,-89.25753021240234
"39401","Hattiesburg","MS","Del's Grocery","2107 Oak Grove Rd","39402",31.319259643554688,-89.36082458496094
"39401","Hattiesburg","MS","Big Star","810 James St","39401",31.317010999999997,-89.28444300000001
"39401","Hattiesburg","MS","Eastabuchie Store","not_available","39465",31.404378,-89.280299
"39401","Hattiesburg","MS","Side Door Cafe","not_available","39401",31.324901,-89.287592
"39401","Hattiesburg","MS","E & B Discount Grocery","5395 Old Highway 42","39401",31.3427,-89.300219
"39401","Hattiesburg","MS","B&K Seafood & International Market","4600 Hardy St #15","39402",31.32228660583496,-89.35791778564453
"39402","Hattiesburg","MS","Corner Market","7123 U.S. 98","not_available",31.31454777063624,-89.46709871292114
"39422","Bay Springs","MS","Piggly Wiggly","9 Bay Ave","39422",31.96465113397012,-89.2894721031189
"39425","Brooklyn","MS","ALDI","Carnes Hill","not_available",30.98227882385254,-89.25682830810547
"39426","Carriere","MS","Claiborne Hill","2308 U.S. 11 N","39466",30.545893759124752,-89.66808573748335
"39426","Carriere","MS","Winn-Dixie","1701 Highway 43 N","39466",30.544158566056467,-89.65315093480693
"39429","Columbia","MS","Walmart Supercenter","1001 Highway 98 Byp","39429",31.243822580964196,-89.81346461689651
"39429","Columbia","MS","Piggly Wiggly","not_available","39429",31.259325,-89.83456
"39429","Columbia","MS","Save-A-Lot","924 Hwy 13 S","39429",31.25526237,-89.83541107
"39429","Columbia","MS","Save A Lot","924 Highway 13 S","39429",31.23493003845215,-89.82286834716797
"39429","Columbia","MS","Winn-Dixie","771 Highway 98 Byp","39429",31.23926884810441,-89.82154031761138
"39439","Heidelberg","MS","Bob's Grocrey","not_available","39477",31.78692138,-89.03308056
"39440","Laurel","MS","Walmart Supercenter","1621 Highway 15 N","39440",31.709541255965032,-89.14711588412034
"39440","Laurel","MS","Kroger","2340 Highway 15 N","39440",31.719364,-89.1506486
"39440","Laurel","MS","Saeed Dba King Grocery","not_available","39440",31.70343,-89.12638
"39440","Laurel","MS","Piggly Wiggly","300-398 N 15th Ave","39440",31.692584991455078,-89.14569091796875
"39440","Laurel","MS","Winn-Dixie","170 Leontyne Price Blvd","39440",31.689159393310547,-89.13334655761719
"39440","Laurel","MS","Grocery Depot","125 Leontyne Price Blvd","39440",31.690948486328125,-89.13278198242188
"39440","Laurel","MS","Big Lots","1910 Highway 15 N","39440",31.7123474227803,-89.15052206106418
"39440","Laurel","MS","Saverite","becon st","39440",31.689314,-89.147548
"39443","Laurel","MS","David's Grocery","959 Lower Myrick Rd","39443",31.649877496614486,-89.04319870921813
"39451","Leakesville","MS","Piggly Wiggly Supermarket","816 Main St","39451",31.1573760951527,-88.55994063267181
"39452","Lucedale","MS","Greer's Hurley Market","7100 Hwy 614","39555",30.65214655900686,-88.48958742609013
"39452","Lucedale","MS","Walmart Supercenter","11228 Old 63 S","39452",30.90204059,-88.59580994
"39452","Lucedale","MS","Wayne Lees's Grocery And Market","1209 Old Hwy 63 S","39452",30.908765584279582,-88.59917303250656
"39452","Lucedale","MS","Super-Sav","7000 Mississippi 614","39562",30.650320791410838,-88.4923195505615
"39452","Lucedale","MS","Save-A-Lot","4278 Main St","39452",30.925124593973,-88.59370155485685
"39455","Lumberton","MS","Ramey's","not_available","39455",30.99997155411471,-89.43548318524904
"39455","Lumberton","MS","Campbell Commodities, Inc","24 Talowah Ed","39455",31.06786,-89.422821
"39455","Lumberton","MS","Greers","1221 S Main St","39470",30.833629509817765,-89.52769864561733
"39466","Picayune","MS","Walmart Supercenter","235 Frontage Rd","39466",30.51430858824024,-89.66216433983958
"39466","Picayune","MS","Shoppers Value Foods","801 US-11","39466",30.518190383911133,-89.68179321289062
"39466","Picayune","MS","Warehouse Discount Grocery","S. Main St.","39466",30.52203355113425,-89.68257554850331
"39470","Poplarville","MS","The Savage Store Discount Grocery","not_available","70427",30.792488,-89.834053
"39470","Poplarville","MS","Piggly Wiggly","30278 Highway 21","70426",30.964916,-89.810235
"39476","Richton","MS","Sunflower","Front St","39476",31.35502244,-88.93515127
"39501","Gulfport","MS","Walmart Neighborhood Market","1733 East Pass Road","39507",30.399936970295144,-89.0186333656311
"39501","Gulfport","MS","Rouseâ€™s Market","1444 E Pass Rd","39507",30.400243759155273,-89.02494812011719
"39501","Gulfport","MS","Winn-Dixie","109 N Cleveland Ave","39560",30.3538150366184,-89.14817454700096
"39501","Gulfport","MS","Save-A-Lot","1225 Pass Rd","39501",30.384376,-89.073087
"39501","Gulfport","MS","Lucky 7 Food Mart","2821 Hewes Ave","39507",30.385680999999998,-89.06110100000001
"39501","Gulfport","MS","Thai Asia Market","12100 Highway 49","39503",30.386926000000003,-89.130061
"39501","Gulfport","MS","costa latina","not_available","39507",30.396221953772606,-89.03636415806648
"39501","Gulfport","MS","Froogel's Foods","25 Hardy Court Shopping Ctr","39507",30.391428404582804,-89.04651687827462
"39503","Gulfport","MS","Walmart Neighborhood Market","11333 Highway 49","39503",30.451402141014736,-89.10152435302734
"39503","Gulfport","MS","Walmart Supercenter","9350 Highway 49","39503",30.423494235836493,-89.08876776695251
"39503","Gulfport","MS","Winn-Dixie","11312 Highway 49","39503",30.45125095104972,-89.09819206606025
"39503","Gulfport","MS","Necos market place","Cable bridge rd","39571",30.4671289546846,-89.30107937934794
"39503","Gulfport","MS","Food Giant","12057 Highway 49","39503",30.457492976667123,-89.10256505012512
"39520","Bay Saint Louis","MS","Walmart Supercenter","460 Highway 90","39576",30.30629948211,-89.38493728637695
"39520","Bay Saint Louis","MS","Froogel's","not_available","39520",30.32108278865941,-89.33633532011396
"39525","Diamondhead","MS","Rouses Market","4407 E Aloha Dr","39525",30.374883792606912,-89.37310338020325
"39530","Biloxi","MS","Walmart Neighborhood Market","2050 Pass Road","39531",30.40384198472974,-88.95855188369751
"39530","Biloxi","MS","Walmart Supercenter","2681 Ct Switzer Sr Dr","39531",30.392339326560684,-88.99500846862793
"39530","Biloxi","MS","Winn-Dixie","1515 Bienville Blvd","39564",30.416944914271323,-88.81753690992166
"39530","Biloxi","MS","Keesler AFB Commissary","508 Larcher Blvd","39534",30.406034235699202,-88.90849132868787
"39530","Biloxi","MS","Broome's Inc","1801 Government St","39564",30.413862906617997,-88.81828308105469
"39530","Biloxi","MS","Andy's Food Mart","295 Oak St","39530",30.40290892124176,-88.86782
"39530","Biloxi","MS","Winn-Dixie","2384 Pass Rd","39531",30.403205876612496,-88.97453704870553
"39530","Biloxi","MS","Lee's Marketplace","917 Division St","39530",30.402877863299384,-88.89336834399448
"39532","Biloxi","MS","Walmart Supercenter","3615 Sangani Blvd","39540",30.45652589322574,-88.8952624797821
"39532","Biloxi","MS","Walmart Neighborhood Market","10290 D'iberville Rd","39540",30.4365777174722,-88.89180216563857
"39532","Biloxi","MS","Walmart Neighborhood Market","1820-a Popps Ferry Rd","39532",30.443996266323055,-88.9440693963128
"39532","Biloxi","MS","Winn-Dixie","10511 Diberville Blvd","39540",30.439425929624065,-88.8979199468573
"39532","Biloxi","MS","Cruthirds Country Corner","10500 Daisy Vestry Rd","39565",30.493139266967773,-88.86493682861328
"39532","Biloxi","MS","Big Ridge Grocery","16312 Big Oak Dr","39532",30.448270440101624,-88.88299405574799
"39532","Biloxi","MS","Saigon Oriental","10090 Central Ave Ste D","39540",30.43050193786621,-88.8908462524414
"39532","Biloxi","MS","Winn-Dixie","D'iberville Blvd","39530",30.43753133662652,-88.898428142232
"39532","Biloxi","MS","Walmart Grocery Pickup","1820-A Popps Ferry Rd","39532",30.44355,-88.944229
"39553","Gautier","MS","Jerry Lees","Highway 90","39553",30.390403581628615,-88.64965846973573
"39560","Long Beach","MS","Walmart Supercenter","1617 E Beach Blvd","39571",30.33565763378529,-89.18872833251953
"39561","Mc Henry","MS","Big Level Grocery","not_available","39573",30.74836,-89.13551
"39562","Moss Point","MS","Piggly Wiggly","not_available","39563",30.455738870847973,-88.54231564609456
"39562","Moss Point","MS","Walmart Supercenter","4253 Denny Ave","39581",30.38598213,-88.51871386
"39562","Moss Point","MS","Family Frozen Foods","5703 Telephone Rd","39567",30.38849863623295,-88.53585720062256
"39562","Moss Point","MS","Save-A-Lot","3501 Denny Ave","39581",30.381349563598633,-88.52536010742188
"39562","Moss Point","MS","Dollar General","17007 Highway 613","39562",30.58945083618164,-88.48480987548828
"39562","Moss Point","MS","Big Lots","4201 Denny Ave","39581",30.384540672997385,-88.5197486876516
"39562","Moss Point","MS","Four Seasons Produce","4224 Main St","39563",30.406636,-88.53919599999999
"39562","Moss Point","MS","Mary's Grocery","9216 Forts Lake Rd","39562",30.476564,-88.414652
"39562","Moss Point","MS","Save-A-lot","denny avenue","39567",30.380859995216436,-88.52533587211683
"39562","Moss Point","MS","Wayne Lee's","1317 Telephone Rd","39567",30.37263578616754,-88.55091505253996
"39562","Moss Point","MS","Piggly Wiggly","7831 Hwy 613","39563",30.455658,-88.542811
"39562","Moss Point","MS","Save A Lot","not_available","39581",30.379419326782227,-88.5309829711914
"39564","Ocean Springs","MS","Walmart Supercenter","3911 Bienville Blvd","39564",30.41209567192788,-88.76020789146423
"39564","Ocean Springs","MS","Walmart Neighborhood Market","6412 Washington Ave","39564",30.43469968272836,-88.82888176780291
"39564","Ocean Springs","MS","Walmart Grocery Pickup","6412 Washington Avenue","39564",30.434844,-88.828825
"39564","Ocean Springs","MS","Vaporio","4010 Bienville Blvd. Ste. C","39564",30.4083613,-88.7575953
"39564","Ocean Springs","MS","Infinity & Beyond Health Food Store","914 Bechtel Blvd","39564",30.41522979736328,-88.80599212646484
"39565","Vancleave","MS","Greer's Vancleave Market","11628 Highway 57","39565",30.512293271045948,-88.69800395815783
"39567","Pascagoula","MS","Jerry Lee's Grocery","Sunset St.","39567",30.354240220380756,-88.54538602608294
"39577","Wiggins","MS","Piggly Wiggly","530 Central Ave W","39577",30.85080909729004,-89.14302825927734
"39577","Wiggins","MS","Walmart Supercenter","1053 Frontage Dr E","39577",30.845427291166725,-89.14447517707038
"39577","Wiggins","MS","Campbell's Lots","not_available","39577",30.84969150515124,-89.13872566695602
"39601","Brookhaven","MS","Walmart Supercenter","960 Brookway Blvd","39601",31.58144195,-90.46835661
"39601","Brookhaven","MS","Sullivan's Grocery","not_available","39601",31.584267,-90.45833
"39601","Brookhaven","MS","Piggly Wiggly - Brookhaven Hwy","215 North,Highway 51","39601",31.5840323,-90.45782419999999
"39601","Brookhaven","MS","Piggly Wiggly - Brookhaven","364 West Monticello St.","39601",31.5818527,-90.4465617
"39601","Brookhaven","MS","Save A Lot","840 Brookway Blvd","39601",31.580098378005005,-90.46292781829834
"39630","Bude","MS","Sullivan's Grocery","40 Hwy 184 E","39630",31.459845839599886,-90.8601573991486
"39638","Gloster","MS","Piggly Wiggly","169 North 1st Street","39638",31.198371,-91.020139
"39645","Liberty","MS","Blalocks","Broken St","39645",31.159531120895114,-90.807742522748
"39648","Mccomb","MS","McComb Market","not_available","39648",31.246747149713958,-90.46677816191718
"39648","Mccomb","MS","Kroger","1617 Delaware Ave","39648",31.2464391,-90.4729123
"39648","Mccomb","MS","Walmart Supercenter","1608 Veterans Blvd","39648",31.26338495266755,-90.4734274106472
"39648","Mccomb","MS","Sunflower","1220 Lasalle St","39648",31.23049545288086,-90.45317077636719
"39666","Summit","MS","Piggly Wiggly","605 S Laurel St","39666",31.28271,-90.468244
"39667","Tylertown","MS","Piggly Wiggly","5044 Plaza Dr","39667",31.131393432617188,-90.14683532714844
"39669","Woodville","MS","Treppendahls","not_available","39669",31.10296729327563,-91.29292905461892
"39701","Columbus","MS","Walmart Supercenter","1913 Highway 45 N","39705",33.51879852,-88.43828477
"39701","Columbus","MS","Kroger","1829 Highway 45 N","39705",33.51687889031941,-88.43645524252804
"39701","Columbus","MS","Piggly Wiggly","3610 New Hope Rd","39702",33.44839016090417,-88.32631702666096
"39701","Columbus","MS","sunflower","not_available","39701",33.514248220234236,-88.41650503079262
"39701","Columbus","MS","Food Giant","201 Alabama St","39702",33.497901916503906,-88.38294219970703
"39701","Columbus","MS","Save-A-Lot","511 N 18th Ave","39705",33.5166854858398,-88.4307632446289
"39701","Columbus","MS","Southern Family Markets","939 Alabama St","39702",33.49433590453132,-88.36502822382552
"39701","Columbus","MS","Fairway Ice","802 Moss St","39701",33.50516,-88.40335
"39701","Columbus","MS","Sunflower","225 Alabama St","39702",33.4964485168457,-88.3819808959961
"39701","Columbus","MS","sunflower","not_available","39705",33.52419662475586,-88.40725708007812
"39702","Columbus","MS","Steens Superette","2647 Steens Rd","39766",33.563845976920895,-88.31652760505676
"39705","Columbus","MS","Columbus AFB Commissary","323 Similer Blvd","39710",33.62478880839261,-88.43991151099898
"39730","Aberdeen","MS","Hamilton Market","40124 Hamilton Rd","39746",33.73947525024414,-88.42456817626953
"39730","Aberdeen","MS","Food Giant","105 Highway 145 N","39730",33.827491760253906,-88.56149291992188
"39735","Ackerman","MS","SuperValu","W Mabus Ave","39735",33.318366266410045,-89.1776755658007
"39735","Ackerman","MS","Frugal Pantry","not_available","39735",33.31433868408203,-89.18016815185547
"39744","Eupora","MS","Piggly Wiggly","not_available","39744",33.54148864746094,-89.2612533569336
"39747","Kilmichael","MS","Greenlee's Shoprite","not_available","39747",33.441867,-89.57024
"39750","Maben","MS","Piggly Wiggly","15 Horton St.","39752",33.53800920858459,-89.12414221863956
"39759","Starkville","MS","Walmart Neighborhood Market","105 Market Street","39759",33.479382688685114,-88.79406062857956
"39759","Starkville","MS","Walmart Supercenter","1010 Highway 12 W","39759",33.44457044948111,-88.85123875062082
"39759","Starkville","MS","Kroger","826 Highway 12 W","39759",33.4492994,-88.8425031
"39759","Starkville","MS","Asian Market","210B Mississippi 12","39759",33.45428435,-88.8209009
"39759","Starkville","MS","Tienda Hispana La Villeta","210 Highway 12 W","39759",33.45408,-88.82
"39773","West Point","MS","Walmart Supercenter","5509 Highway 45 Alt S","39773",33.58677832603897,-88.66126063370075
"39773","West Point","MS","Kroger","411 W Main St Ste A","39773",33.60819110362577,-88.65670380799934
"39773","West Point","MS","Grocery 3","not_available","39773",33.601922,-88.64353
"39773","West Point","MS","Sunflower Food Store","539 E Main St","39773",33.6073889298198,-88.64604227302573
"39773","West Point","MS","Save A Lot","411 West Main St","39773",33.6071297,-88.6561244
