"zip","city","state","name","address","postalCode","lat","lon"
"97001","Antelope","OR","Tumbleweeds Grocery and Gas","93458 4th St.","97057",45.0032844543457,-120.75411224365234
"97002","Aurora","OR","Fred Meyer","30300 SW Boones Ferry Rd","97070",45.301168421885116,-122.77102937907247
"97002","Aurora","OR","Hubbard Market","3574 Pacific Hwy","97032",45.18056869506836,-122.80460357666016
"97005","Beaverton","OR","Fred Meyer","11425 SW Beaverton Hillsdale Hwy","97005",45.4880214,-122.7947306
"97005","Beaverton","OR","WinCo Foods","3025 SW Cedar Hills Blvd","97005",45.497726103767704,-122.81007846843569
"97005","Beaverton","OR","Uwajimaya","10500 SW Beaverton Hillsdale Hwy","97005",45.485558626820854,-122.785155660932
"97005","Beaverton","OR","Market of Choice","250 NW Lost Springs Ter","97229",45.52057869615276,-122.80208092930542
"97005","Beaverton","OR","Safeway","6194 SW Murray Blvd","97008",45.4751577,-122.8251802
"97005","Beaverton","OR","Trader Joe's","11753 SW Beaverton Hillsdale Hwy","97005",45.48806542108145,-122.79824976019154
"97005","Beaverton","OR","New Seasons Market","3495 SW Cedar Hills Blvd","97005",45.4944128914033,-122.81258881229006
"97005","Beaverton","OR","Asian Food Center 百佳超市","not_available","not_available",45.49183840917736,-122.79994724620134
"97005","Beaverton","OR","Natural Grocers","12155 SW Broadway St","97005",45.48832532039391,-122.80187535424638
"97005","Beaverton","OR","Gobugi Asian Market","4425 SW 110th Ave Southwest Portland Beaverton, OR 97005","not_available",45.48765507407593,-122.78975470754412
"97005","Beaverton","OR","GMart","3975 SW 114th Ave","97005",45.491114517961584,-122.79473406769783
"97005","Beaverton","OR","Center Market","14295 SW Allen Blvd","97005",45.47672,-122.823742
"97005","Beaverton","OR","Salsa Mexican Grocery Market","4265 SW Cedar Hills Blvd","97005",45.489292,-122.81160700000001
"97005","Beaverton","OR","Bazaar International Market","10255 SW Canyon Rd","97005",45.49312678382924,-122.78229117393494
"97005","Beaverton","OR","La Morena","12050 SW Allen Blvd, Beaverton, OR 97005","97005",45.47584915161133,-122.80136108398438
"97005","Beaverton","OR","Mart & Mail","10192 SW Park Way","97225",45.507304,-122.782051
"97005","Beaverton","OR","Rose International Food & Grocery","6153 SW Murray Blvd","97008",45.475250244140625,-122.82659149169922
"97005","Beaverton","OR","Dutch American Market & Import","9575 SW Beaverton Hillsdale Hwy","97005",45.486827022436984,-122.77565027355014
"97005","Beaverton","OR","Ire-Tex Corporation, dba Box+Foam","10100 SW Allen Blvd","97005",45.4746848,-122.7805859
"97005","Beaverton","OR","Walker Center","2606-2850 SW Cedar Hills Blvd","97005",45.5000297,-122.8055726
"97005","Beaverton","OR","Plaid Pantry","3120 SW Cedar Hills Blvd,","97005",45.497384,-122.807763
"97005","Beaverton","OR","Guatemex","not_available","97005",45.49205671679056,-122.79156686827189
"97005","Beaverton","OR","Beaverton Halal","11527 SW Canyon Rd","97005",45.490358,-122.795354
"97005","Beaverton","OR","Grocery Outlet","38555 SW Murray Blvd.","97005",45.491432,-122.827926
"97005","Beaverton","OR","Sala Thai","12755 SW Broadway St","97005",45.487660999999996,-122.80721000000001
"97005","Beaverton","OR","Asia Market - Beaverton","12350 SW Broadway St","97005",45.487227000000004,-122.802856
"97006","Beaverton","OR","Fred Meyer","15995 SW Walker Rd","97006",45.5184245,-122.8416286
"97006","Beaverton","OR","Walmart Neighborhood Market","7650 Ne Shaleen Street","97006",45.51569070941086,-122.89893387596979
"97006","Beaverton","OR","Whole Foods Market","9940 Ne Cornell Road","97124",45.53392614882954,-122.87698534607932
"97006","Beaverton","OR","Trader Joe's","2285 NW 185th Ave","97124",45.53672960632692,-122.86918497889795
"97006","Beaverton","OR","Safeway","2177 NW 185th Ave","97124",45.53609208860344,-122.86984920501709
"97006","Beaverton","OR","Safeway","20535 SW Tualatin Valley Hwy","97003",45.4967461,-122.8880379
"97006","Beaverton","OR","QFC","4756 NW Bethany Blvd","97229",45.5535493,-122.8354428
"97006","Beaverton","OR","Walmart Neighborhood Market","17275 Nw Cornell Rd","97006",45.53533538096678,-122.85281144061807
"97006","Beaverton","OR","Grocery Outlet","1355 Nw 185th Avenue","97006",45.52987114560992,-122.86879522879339
"97006","Beaverton","OR","Smart Foodservice Warehouse Stores","3950 Sw 170th Ave","97007",45.491532560952564,-122.85129327264136
"97006","Beaverton","OR","Apna Bazaar","1815 NW 169th Pl","97006",45.53265408485268,-122.85407866004266
"97006","Beaverton","OR","Manila Market","17065 SW TV Hwy","not_available",45.49280345181671,-122.85239117503573
"97006","Beaverton","OR","India Supermarket","not_available","97006",45.53621600386618,-122.85424221477835
"97006","Beaverton","OR","Grocery Outlet Bargain Market","1355 NW 185th Ave","97006",45.5300016,-122.8689302
"97006","Beaverton","OR","India Connect","16055 SW Regatta Ln","97006",45.51740044499659,-122.84260101855968
"97006","Beaverton","OR","GREEN LIGHT FOOD MART","18535 SW Tualatin Valley Hwy","97003",45.494720458984375,-122.86756134033203
"97006","Beaverton","OR","Can Tho Market","NW 185th","97006",45.529023,-122.869962
"97006","Beaverton","OR","Nuevo Horizonte Market","3460 SW 185th Ave","97003",45.494966999999995,-122.866552
"97006","Beaverton","OR","India Imports","2079 NW Aloclek Dr","97124",45.535295,-122.89704499999999
"97006","Beaverton","OR","Reser's Outlet Store","15570 SW Jenkins Rd","97006",45.50651934161609,-122.84021101278068
"97006","Beaverton","OR","Quick Shop","17020 Baseline","97006",45.512729,-122.85258999999999
"97007","Beaverton","OR","New Seasons Market","14805 SW Barrows Rd","97007",45.430309592105665,-122.82917312289754
"97007","Beaverton","OR","Walmart Neighborhood Market","9055 Sw Murray Blvd","97008",45.45489212375261,-122.82801755476606
"97007","Beaverton","OR","Safeway","14555 SW Teal Blvd","97007",45.44193495305962,-122.82683214499764
"97007","Beaverton","OR","Albertsons","6055 SW 185th Ave","97078",45.4755691,-122.8691329
"97007","Beaverton","OR","Albertsons","14300 SW Barrows Rd","97223",45.4312625,-122.8237717
"97007","Beaverton","OR","Bales Thriftway - Aloha","17675 SW Farmington Rd","97007",45.48037830738882,-122.8593733135935
"97007","Beaverton","OR","Albertsons","not_available","97007",45.47261525014437,-122.84904914143263
"97008","Beaverton","OR","Whole Foods Market","12220 Sw Scholls Ferry Road","97223",45.442796477143276,-122.80191643117718
"97008","Beaverton","OR","99 Ranch Market","8155 SW Hall Blvd","97008",45.46041465323135,-122.7966196520069
"97008","Beaverton","OR","Grocery Outlet","8620 Sw Hall Boulevard","97008",45.4581284,-122.7829603
"97008","Beaverton","OR","Progress Grocery & Deli","8624 SW Hall Blvd","97008",45.45821,-122.78305800000001
"97009","Boring","OR","Fred Meyer","16625 362nd Ave","97055",45.40308825546503,-122.29243551990687
"97009","Boring","OR","Safeway","37601 Highway 26","97055",45.4012293,-122.2768953
"97009","Boring","OR","Weece's Market","7310 SE Pleasant Home Rd","97080",45.470052,-122.336555
"97009","Boring","OR","Grocery Outlet","36701 Highway 26","97055",45.4035537,-122.2849858
"97009","Boring","OR","Lacima LLC","39365 Proctor Blvd","97055",45.397569,-122.258425
"97009","Boring","OR","McCall's Store","28087 SE Highway 212","97009",45.430527000000005,-122.374622
"97009","Boring","OR","Green Food Market","28190 SE Highway 212","97009",45.431671,-122.37277399999999
"97013","Canby","OR","Fred Meyer","1401 SE 1st Ave","97013",45.2665091511313,-122.67662823200226
"97013","Canby","OR","Safeway","1525 W Main St","97038",45.1516281,-122.6035692
"97013","Canby","OR","Cutsforth's Thriftway","225 NE 2nd Ave","97013",45.2639394074798,-122.69103700924151
"97013","Canby","OR","Freds Food O Mart","13481 Woodburn-Estacada Hwy","97038",45.14904826355317,-122.58941622064319
"97013","Canby","OR","TNT Market","164 SE 1st Ave","97013",45.262844299206726,-122.69133715270279
"97013","Canby","OR","Safeway","1051 SW 1st Ave","97013",45.255351359492415,-122.70259201526642
"97013","Canby","OR","El Torrito Mexican Market","not_available","97013",45.28320514987,-122.66235020265826
"97014","Cascade Locks","OR","Columbia Market","450 SW Wanapa St","97014",45.665760999999996,-121.89497800000001
"97014","Cascade Locks","OR","North Bonneville Food Mart","51 E Cascade Dr","98639",45.640297692780244,-121.97170615196227
"97015","Clackamas","OR","Fred Meyer","17005 SE Sunnyside Rd","97015",45.42853804408942,-122.48771151673668
"97015","Clackamas","OR","Safeway","12032 SE Sunnyside Rd","97015",45.428135,-122.5401987
"97015","Clackamas","OR","Fred Meyer","16301 SE 82nd Dr","97015",45.4043126,-122.5702615
"97015","Clackamas","OR","New Seasons Market","15861 SE Happy Valley Town Center Dr","97086",45.428312260506374,-122.49979177493209
"97015","Clackamas","OR","Grocery Outlet","14800 Se Sunnyside Road","97015",45.42407428572405,-122.51142495467128
"97015","Clackamas","OR","Smart Foodservice Warehouse Stores","15700 Se 82nd Drive","97015",45.4094323836608,-122.56843475784436
"97015","Clackamas","OR","Safeway","16300 SE Evelyn St","97015",45.4036750793457,-122.56197357177734
"97016","Clatskanie","OR","Safeway","401 W. Columbia River Hwy.","97016",46.1059696,-123.2075623
"97016","Clatskanie","OR","Cathlamet Market Fresh","95 Main St","98612",46.20172882080078,-123.38390350341797
"97019","Corbett","OR","Big Bear's Country Market","31701-31841 E Historic Columbia River Hwy","97060",45.519055,-122.335544
"97021","Dufur","OR","Azure Farms Inc.","79709 Dufur Valley Rd","97021",45.42901611328125,-121.28622436523438
"97023","Estacada","OR","Harvest Market by Thriftway","280 S Broadway St","97023",45.28813393634285,-122.33438096076883
"97023","Estacada","OR","Iron Kettle Grocery","not_available","97023",45.289854,-122.336428
"97024","Fairview","OR","Walmart Supercenter","23500 Ne Sandy Blvd","97060",45.54174163,-122.4208504
"97024","Fairview","OR","Fred Meyer","22855 NE Park Ln","97060",45.5300139,-122.4286782
"97024","Fairview","OR","Fairview Minit Mart","not_available","97024",45.534494519233704,-122.43348166
"97024","Fairview","OR","Trading Post","3302-3324 NW Marine Dr","97060",45.54974019527435,-122.41966187953949
"97026","Gervais","OR","Walmart Supercenter","3002 Stacey Allison Way","97071",45.14744745473773,-122.88030337152591
"97026","Gervais","OR","El Mercadito","247 N Front St","97071",45.142124,-122.8573
"97026","Gervais","OR","La Morenita Tortillas","270 Grant St","97071",45.1440343,-122.8568672
"97026","Gervais","OR","Grocery Outlet","1535-1775 Mt Hood Ave","97071",45.152446999999995,-122.833202
"97026","Gervais","OR","Safeway","1550 N Pacific Hwy","97071",45.15013772312091,-122.82968580722809
"97026","Gervais","OR","La Azteca Inc","153 Grant St","97071",45.1438,-122.85564
"97026","Gervais","OR","Mega Foods","2216 National Way","not_available",45.15047009,-122.83585974
"97026","Gervais","OR","Mega foods woodburn or.","not_available","97071",45.14659785813319,-122.88345213187445
"97027","Gladstone","OR","Safeway","95 82nd Dr","97027",45.3813813,-122.5820959
"97030","Gresham","OR","Fred Meyer","2497 SE Burnside Rd","97080",45.4959669,-122.4060979
"97030","Gresham","OR","Albertsons","25691 SE Stark","97060",45.52024798695067,-122.40019440650934
"97030","Gresham","OR","WinCo Foods","2511 SE 1st St","97080",45.49862959583068,-122.407532999494
"97030","Gresham","OR","Safeway","1455 NE Division St","97030",45.5058941,-122.41697
"97030","Gresham","OR","Safeway","1001 SW Highland Dr","97080",45.4892190602371,-122.47677259391787
"97030","Gresham","OR","Natural Grocers","407 NW Burnside Rd","97030",45.510438885862136,-122.43466852456865
"97030","Gresham","OR","Albertsons","451 NE 181st St","97230",45.52562269262304,-122.47900978491998
"97030","Gresham","OR","Walmart Neighborhood Market","3900 W Powell Blvd","97030",45.488870389588826,-122.47239045971563
"97030","Gresham","OR","Grocery Outlet","2925 NW Division Street","97030",45.504964,-122.4613944
"97030","Gresham","OR","Walmart Neighborhood Market","2444 E Powell Blvd","97080",45.492983943142356,-122.40711863448561
"97030","Gresham","OR","Smart Foodservice Warehouse Stores","2521 Nw Division St.","97030",45.50475125145686,-122.45917774680251
"97030","Gresham","OR","Asian Food Market","2300 SE 182nd Ave","97233",45.5062265954691,-122.47470617294312
"97030","Gresham","OR","Izobilie Euro Foods","not_available","97236",45.503828999999996,-122.47786599999999
"97030","Gresham","OR","Lillian's Natural Marketplace","283 NW Miller Ave","97030",45.499528999999995,-122.43305500000001
"97030","Gresham","OR","Step In Market","23450 NE Stark St","97030",45.518784000000004,-122.42158500000001
"97030","Gresham","OR","La Tapatia","1025 E Powell Blvd","97030",45.498509000000006,-122.420727
"97030","Gresham","OR","Frontier Missions","20012 SE Stark Street","97223",45.51888521575215,-122.45656644828786
"97030","Gresham","OR","Market","not_available","97060",45.520034716666665,-122.38713888333334
"97031","Hood River","OR","McIsaac's","4990 Baseline Dr","97041",45.51976508703163,-121.59683635744355
"97031","Hood River","OR","Safeway","2249 Cascade Ave","97031",45.7090057,-121.5349336
"97031","Hood River","OR","Walmart","2700 Wasco St","97031",45.711964063721084,-121.53914759481107
"97031","Hood River","OR","Rosauers","1867 12th St","97031",45.695166297012925,-121.52225259096068
"97031","Hood River","OR","Juanita's Marketa","A St","97031",45.70012513474162,-121.52407765388489
"97031","Hood River","OR","Windmaster Market","1650 Tucker Rd","97031",45.67817334297492,-121.5448808670044
"97031","Hood River","OR","Mercado Guadalajara","12th St","97031",45.695170257816024,-121.52393890686812
"97031","Hood River","OR","grow organic","not_available","97031",45.69272232055664,-121.52379608154297
"97034","Lake Oswego","OR","Walmart Neighborhood Market","19133 Willamette Dr","97068",45.38654464628533,-122.6416567440304
"97034","Lake Oswego","OR","Whole Foods Market 365","11 S State St","97034",45.41581495431416,-122.66222359824408
"97034","Lake Oswego","OR","Safeway","401 A Ave","97034",45.4206682,-122.668533
"97034","Lake Oswego","OR","New Seasons Market","3 Monroe Pkwy","97035",45.43376464805534,-122.70313617033503
"97034","Lake Oswego","OR","Wizers Oswego Foods","330 1st St","97034",45.418399810791016,-122.66497802734375
"97035","Lake Oswego","OR","Albertsons","16199 Boones Ferry Rd","97035",45.4095238,-122.7228605
"97035","Lake Oswego","OR","Trader Joe's","15391 SW Bangy Rd","97035",45.413806093588164,-122.74352164176528
"97035","Lake Oswego","OR","Zupan's Market","16380 Boones Ferry Rd","97035",45.40731524354235,-122.72416472103819
"97035","Lake Oswego","OR","Safeway","17779 Boones Ferry Rd","97035",45.3984349,-122.7418813
"97045","Oregon City","OR","Fred Meyer","1839 Molalla Ave","97045",45.3313405,-122.5834688
"97045","Oregon City","OR","Safeway","22000 Salamo Rd","97068",45.3645715,-122.6475579
"97045","Oregon City","OR","Market of Choice","5639 Hood St","97068",45.366637881889645,-122.61189485082899
"97045","Oregon City","OR","Grocery Outlet","15810 Se Mcloughlin Boulevard","97267",45.4085776,-122.6246279
"97045","Oregon City","OR","Winco Foods","19701 Highway 213","97045",45.3212776184082,-122.58069610595703
"97045","Oregon City","OR","Plaid Pantry","1025 Linn Ave,","97045",45.340379,-122.60469
"97045","Oregon City","OR","Grocery Outlet","878 Molalla Avenue","97045",45.3433024,-122.5964437
"97045","Oregon City","OR","Albertsons","19007 S Beavercreek Rd","97045",45.3300804,-122.5735135
"97045","Oregon City","OR","Safeway","13434 Colton Pl","97045",45.3345565,-122.5913196
"97045","Oregon City","OR","Redland store","18151 S Redland Rd","97045",45.34723087008381,-122.52570820201424
"97045","Oregon City","OR","Steves Market","13927 Holcomb Blvd","97045",45.36658485916502,-122.58090472288305
"97045","Oregon City","OR","Willamette General Store","not_available","97068",45.34400517135834,-122.6568330201142
"97045","Oregon City","OR","Sunset Market","4480 Cornwall St","97068",45.35959104797427,-122.63074240105179
"97045","Oregon City","OR","Haggen Food & Pharmacy","1855 Blankenship Rd","97068",45.349708557128906,-122.65460968017578
"97045","Oregon City","OR","Spicer Brothers Produce","508 14th St","97045",45.36144872897076,-122.60046829593105
"97045","Oregon City","OR","Fred Meyer ClickList #4","not_available","97045",45.331647,-122.584198
"97045","Oregon City","OR","Green Grocer","891 Molalla Ave","97045",45.343177000000004,-122.595321
"97048","Rainier","OR","Fred Meyer","3184 Ocean Beach Hwy","98632",46.148796,-122.9638214
"97048","Rainier","OR","Safeway","411 Three River Drive","98626",46.1409459,-122.9021108
"97048","Rainier","OR","Walmart Supercenter","540 7th Ave","98632",46.11968333,-122.9305473
"97048","Rainier","OR","Walmart Supercenter","3715 Ocean Beach Hwy 2","98632",46.15384885,-122.9834777
"97048","Rainier","OR","WinCo Foods","120 Triangle Center","98632",46.143361954779444,-122.93386023700403
"97048","Rainier","OR","Safeway","1227 15th Ave","98632",46.1367721,-122.9385472
"97048","Rainier","OR","Safeway","2930 Ocean Beach Hwy","98632",46.1484185,-122.961106
"97048","Rainier","OR","Grocery Outlet","920 Ocean Beach Hwy","98632",46.1466648,-122.928714
"97048","Rainier","OR","Your Market Place","not_available","98632",46.12969,-122.938275
"97048","Rainier","OR","grocery liquidator","not_available","97048",46.08975763578357,-122.93821415694617
"97048","Rainier","OR","West Side Shopper","1809 Washington Way","98632",46.13647389116255,-122.94110907704521
"97048","Rainier","OR","J & R Sales","215 W B St","97048",46.08985226666667,-122.93809038333333
"97048","Rainier","OR","Smart Foodservice Warehouse Stores","2303 Talley Way","98626",46.117858,-122.89283700000001
"97048","Rainier","OR","Grocery Outlet","215 West B Street","97048",46.090012,-122.9385582
"97049","Rhododendron","OR","Hoodland Thriftway","Hwy 26","97067",45.34719501033681,-121.9622852392843
"97049","Rhododendron","OR","Mt. Hood Foods","Hwy 26","97049",45.329530225972064,-121.9103081293584
"97051","Saint Helens","OR","IGA Market","1111 Columbia Blvd","97051",45.861745,-122.80950800000001
"97051","Saint Helens","OR","Safeway","795 Lower Columbia River Hwy","97051",45.8497156,-122.8321064
"97051","Saint Helens","OR","Walmart","2295 Gable Rd","97051",45.84713060989684,-122.83087101015556
"97051","Saint Helens","OR","West Street Grocery","305 N 7th St","97051",45.86833968862262,-122.80749765850366
"97056","Scappoose","OR","Fred Meyer","51501 Columbia River Hwy","97056",45.74269258302098,-122.87858247756958
"97056","Scappoose","OR","Grocery Outlet","52115 SW Chinook Way","97056",45.7517998,-122.8786607
"97056","Scappoose","OR","Grocery Outlet Bargain Market","52115 Sw Chinook Way","97056",45.751644134521484,-122.8802261352539
"97056","Scappoose","OR","Bi Mart","not_available","97056",45.742768,-122.874146
"97056","Scappoose","OR","Rose Valley Market","33666 E Columbia Ave","97056",45.75775109349057,-122.8744315606221
"97058","The Dalles","OR","Fred Meyer","1215 W 6th St","97058",45.6065391,-121.1994258
"97058","The Dalles","OR","Safeway","520 Mount Hood St","97058",45.604311525840096,-121.19354426494294
"97058","The Dalles","OR","Lyle Grocery Store","State Street","98635",45.69301857258824,-121.28303342215507
"97058","The Dalles","OR","Smart Foodservice Warehouse Stores","1820 W 2Nd St.","97058",45.61236460359693,-121.2056977843658
"97058","The Dalles","OR","Hood River Fruit and Produce","2200 W 2nd St","97058",45.614620208740234,-121.20744323730469
"97058","The Dalles","OR","Grocery Outlet","1300 West 6th Street","97058",45.6066233,-121.2024227
"97060","Troutdale","OR","Safeway","2501 SW Cherry Park Rd","97060",45.53007215634515,-122.41144895553589
"97060","Troutdale","OR","V Well","31310 SE Division Dr","97060",45.496089000000005,-122.33987900000001
"97060","Troutdale","OR","7market","1461 SE Hogan Rd","97080",45.486329,-122.414427
"97060","Troutdale","OR","Speedy Market","725 NE 242nd Ave","97060",45.528337,-122.41376899999999
"97060","Troutdale","OR","Minute Mart Express","not_available","97080",45.485619,-122.39719199999999
"97062","Tualatin","OR","Fred Meyer","19200 SW Martinazzi Ave","97062",45.3810585,-122.7569039
"97062","Tualatin","OR","Whole Foods Market","7380 Sw Bridgeport Rd","97224",45.39438558347701,-122.75176944812094
"97062","Tualatin","OR","El Ranchito Alegre","8349 SW Tonka St","97062",45.38079225625299,-122.76263340948573
"97062","Tualatin","OR","Basics Market","8680 SW Old Tualatin Sherwood Rd","97062",45.38045120239258,-122.76685333251953
"97064","Vernonia","OR","Sentry Market","735 Jefferson Ave","97064",45.858062,-123.194351
"97070","Wilsonville","OR","Safeway","8255 SW Wilsonville Rd","97070",45.3043799,-122.7624514
"97080","Gresham","OR","Supermercados Mexico","17420 SE Division St","97236",45.503976,-122.483851
"97080","Gresham","OR","Everday Deals","17310 SE Division St","97236",45.504067,-122.485064
"97086","Happy Valley","OR","Fred Meyer","8955 SE 82nd Ave","97086",45.4587187,-122.5817021
"97086","Happy Valley","OR","Walmart","10000 Se 82nd Ave","97086",45.450309472236036,-122.57580478718643
"97086","Happy Valley","OR","Trader Joe's","9345 SE 82nd Ave","97086",45.45597668212489,-122.58038205384783
"97086","Happy Valley","OR","WinCo Foods","11250 SE 82nd Ave","97086",45.44366647401407,-122.57762150259303
"97086","Happy Valley","OR","Natural Grocers","11424 SE 82nd Ave","97086",45.441043853759766,-122.57866668701172
"97086","Happy Valley","OR","La Mexicana","10543 SE Fuller Rd","97222",45.446751,-122.57998
"97086","Happy Valley","OR","Morrow Brother's","9907 SE 82nd Ave","97086",45.451246,-122.580058
"97089","Damascus","OR","Safeway","20151 SE Highway 212","97089",45.4185082,-122.4559535
"97089","Damascus","OR","Damascus Market","20420 SE Highway 212","97089",45.41726,-122.452598
"97102","Arch Cape","OR","Fresh Foods Cannon Beach","3402 S Hemlock Street","97110",45.871948244518514,-123.95949153885842
"97103","Astoria","OR","Safeway","3250 Leif Erikson Dr","97103",46.1922934,-123.8081615
"97103","Astoria","OR","Astoria Co-op","501-577 14th St","97103",46.188957,-123.81554
"97103","Astoria","OR","Olney General Store","89523 Highway 202","97103",46.10001754760742,-123.7579574584961
"97103","Astoria","OR","Astoria Downtown Market","1020 Commercial St","97103",46.189264,-123.83254199999999
"97103","Astoria","OR","Natural Grocers","137 S Highway 101","97146",46.16205828646317,-123.89809012413023
"97103","Astoria","OR","Peter Pan Market","712 Niagara Ave","97103",46.181534,-123.83578200000001
"97106","Banks","OR","Snack Jacks","46892 U.S. 26","97106",45.65876991063584,-123.15814580340357
"97107","Bay City","OR","Garibaldi Deli Mart","not_available","97118",45.558952000000005,-123.913726
"97107","Bay City","OR","Garibaldi’s Bay Market","705 Garibaldi Ave","97118",45.558946,-123.915601
"97110","Cannon Beach","OR","Mariner Market","139 N. Hemlock","97001",45.89734514460426,-123.96061928118746
"97111","Carlton","OR","Carlton Grocery And Deli","320 N Yamhill St","97111",45.2959355020859,-123.17909139854764
"97112","Cloverdale","OR","Cape Kiwanda Marketplace","33260 Cape Kiwanda Dr","97112",45.215099908512215,-123.96924156184713
"97112","Cloverdale","OR","Cape Kiwanda RV Park","33305 Cape Kiwanda Dr","97135",45.21587937944104,-123.96765693240104
"97112","Cloverdale","OR","PC Market","not_available","97112",45.206638472061286,-123.95965059259642
"97112","Cloverdale","OR","Neskowin Marketplace","not_available","97149",45.102662240854904,-123.98191946701944
"97112","Cloverdale","OR","48880 Highway 101 S Neskowin‎ OR‎ 97149 United States","48880 Highway 101 S","97149",45.102577209472656,-123.98200988769531
"97113","Cornelius","OR","Safeway","2836 Pacific Ave","97116",45.5198491,-123.0955169
"97113","Cornelius","OR","Fred Meyer","2200 Baseline St","97113",45.521817,-123.045165
"97113","Cornelius","OR","WinCo Foods","1500 SW Oak St","97123",45.518607181564064,-123.00642111270088
"97113","Cornelius","OR","Walmart Supercenter","220 N Adair St","97113",45.52215789814273,-123.06938549237042
"97113","Cornelius","OR","Plaid Pantry","2436 19th Ave,","97116",45.517896,-123.103197
"97113","Cornelius","OR","duyek family farm produce stand","not_available","97123",45.519454563646384,-123.01813833841048
"97113","Cornelius","OR","Mountainview Market","not_available","97116",45.519408,-123.075579
"97113","Cornelius","OR","Mini Mart","2705 20th Pl","97116",45.520065716666664,-123.09899608333333
"97113","Cornelius","OR","Grocery Outlet","354 South First Avenue","97123",45.5196036,-122.9887448
"97114","Dayton","OR","Mercado Abastos","160 east 3rd stree","97127",45.24465,-123.116807
"97114","Dayton","OR","Putt's Market and Emporium","304 Ferry St","97114",45.22051166666667,-123.07594878333333
"97114","Dayton","OR","Center Market","901 Ferry St","97114",45.215348,-123.08601200000001
"97115","Dundee","OR","Naps Thriftway","112 E 1st St","97132",45.29993286852538,-122.97831981472727
"97121","Hammond","OR","Walmart Grocery Pickup","2501 S Market St","97146",46.1651049,-123.9237557
"97121","Hammond","OR","Smart Foodservice Warehouse Stores","595 Highway 101 Alt","97146",46.15053939819336,-123.92002868652344
"97123","Hillsboro","OR","Fred Meyer","6495 SE Tualatin Valley Hwy","97123",45.4998857,-122.9145959
"97123","Hillsboro","OR","Albertsons","7500 SW Baseline Rd","97123",45.5147307,-122.9039812
"97123","Hillsboro","OR","Safeway","2525 SE Tualatin Valley Hwy","97123",45.50593490879454,-122.95440049501849
"97123","Hillsboro","OR","Supermercados Mèxico","970 SE Oak St","97123",45.51806902154516,-122.97443342594016
"97123","Hillsboro","OR","Mamancy","2831 SE Cornelius Pass Rd Ste 210","97123",45.4994957,-122.902852
"97123","Hillsboro","OR","Safeway","TV Hwy","97124",45.50129820992043,-122.92058149797674
"97123","Hillsboro","OR","Su Casa Imports","1050 SE Walnut St","97123",45.51714198444865,-122.972926
"97124","Hillsboro","OR","Fred Meyer","7355 NE Imbrie Dr","97124",45.55107426457168,-122.90352186973234
"97124","Hillsboro","OR","WinCo Foods","7330 NE Butler St","97124",45.53560030263453,-122.9028318075946
"97124","Hillsboro","OR","New Seasons Market","1453 NE 61st Ave","97124",45.53439531638331,-122.91909023942313
"97124","Hillsboro","OR","Albertsons","888 NE 25th Ave","97124",45.5301504,-122.9551186
"97124","Hillsboro","OR","Reser's Fine Foods - Hillsboro","6999 NW Century Blvd","97124",45.570640563964844,-122.90991973876953
"97124","Hillsboro","OR","Madras Groceries","5749 NW Cornelius Pass Rd","97124",45.56104425939334,-122.898108959198
"97124","Hillsboro","OR","Fork Revolution","5823 NW Cornelius Pass Rd","97124",45.56261377,-122.89763042
"97128","Mcminnville","OR","Safeway","2490 NE Highway 99W","97128",45.2273021079604,-123.17276449533892
"97128","Mcminnville","OR","Albertsons","615 SW Keck Dr","97128",45.19633911411537,-123.20514410734177
"97128","Mcminnville","OR","Walmart","2375 Ne Highway 99w","97128",45.22995344292836,-123.17474664141929
"97128","Mcminnville","OR","Roth's Fresh Market - McMinnville","1595 SW Baker St","97128",45.19742984320797,-123.20811356420722
"97128","Mcminnville","OR","Grocery Outlet Bargain Market","568 NE Highway 99W","97128",45.2229211,-123.1935033
"97128","Mcminnville","OR","Parkway Health Foods LLC","1351 NE Highway 99W","97128",45.22670030593872,-123.18543255329132
"97128","Mcminnville","OR","WinCo Foods","2585 NE Highway 99W","97128",45.230710911122365,-123.17232772804702
"97130","Manzanita","OR","Manzanita Fresh Foods","730 Manzanita Ave","97130",45.72011997278207,-123.92926470322669
"97131","Nehalem","OR","Rockaway Beach Market","not_available","97136",45.61122129770665,-123.9439260388003
"97131","Nehalem","OR","Mohler Co-op","not_available","97131",45.708424,-123.86312
"97132","Newberg","OR","Fred Meyer","3300 E Portland Rd","97132",45.305894075663005,-122.94410856254825
"97132","Newberg","OR","Grocery Outlet","1510 Portland Road","97132",45.3006552,-122.962794
"97132","Newberg","OR","Safeway","1140 N Springbrook Rd","97132",45.30857590426072,-122.9454541087307
"97138","Seaside","OR","Safeway","401 S Roosevelt Dr","97138",45.9910649,-123.9201238
"97138","Seaside","OR","Grocery Outlet","825 Avenue N","97138",45.98585510253906,-123.88317108154297
"97138","Seaside","OR","Ken and Son's Select Market","250 Avenue U","97138",45.980282,-123.93141200000001
"97140","Sherwood","OR","Safeway","15570 SW Pacific Hwy","97224",45.4072213,-122.7927096
"97140","Sherwood","OR","Walmart Supercenter","21320 Sw Langer Farms Pkwy","97140",45.3658740530237,-122.8337984340843
"97140","Sherwood","OR","H-Mart","13600 SW Pacific Hwy","97223",45.421271326793445,-122.78301689456109
"97140","Sherwood","OR","Safeway","20685 SW Roy Rogers Rd","97140",45.3696743,-122.8452894
"97140","Sherwood","OR","Grocery Outlet","15705 SW 116th Avenue","97224",45.4060676,-122.7972497
"97140","Sherwood","OR","Natural Grocers","13115 SW Pacific Hwy","97223",45.42536826061145,-122.78128266334534
"97140","Sherwood","OR","Las Jaras","14363 SW Pacific Hwy","97224",45.416852,-122.791198
"97140","Sherwood","OR","Sherwood Crossroads","20649-20685 SW Roy Rogers Road","97140",45.369965,-122.8450439
"97141","Tillamook","OR","Fred Meyer","2500 Main Ave N","97141",45.4743086,-123.8456181
"97141","Tillamook","OR","Safeway","1815 4th St","97141",45.4554347,-123.8457105
"97141","Tillamook","OR","Netarts Grocery","4943-4959 Oregon 131","97141",45.43720420849881,-123.94791601451418
"97141","Tillamook","OR","Josi's","not_available","97141",45.43753566085169,-123.94750104666134
"97146","Warrenton","OR","Fred Meyer","695 S Highway 101","97146",46.160468574675896,-123.90313807194616
"97146","Warrenton","OR","Walmart Supercenter","1791 Se Ensign Lane","97146",46.14485549926758,-123.91654968261719
"97146","Warrenton","OR","Fred Meyer","1451 Highway 101","97146",46.16059093540454,-123.90326347623517
"97148","Yamhill","OR","T & E Grocery Store","195 W Main St","97148",45.341334,-123.18912399999999
"97201","Portland","OR","Safeway","1030 SW Jefferson St","97201",45.5159939,-122.6851605
"97201","Portland","OR","Green Zebra Grocery","1704 SW Broadway","97201",45.512512625591256,-122.68317690988646
"97201","Portland","OR","Plaid Pantry","950 SW Mill St,","97201",45.513102,-122.685254
"97201","Portland","OR","Galloway's Gift and Sundries","not_available","97204",45.515812,-122.67936031
"97201","Portland","OR","Peterson's","115 SW Yamhill St","97204",45.517553,-122.674049
"97201","Portland","OR","Peterson's","922 SW Morrison St","97205",45.519963138844865,-122.68170989320387
"97201","Portland","OR","Natural Mart","1726 SW 4th Ave","97201",45.51144608953336,-122.68028328307038
"97201","Portland","OR","West Side Grocery","not_available","97205",45.519293,-122.687283
"97201","Portland","OR","It's All Good - OHSU","3181 SW Sam Jackson Park Rd","97239",45.499514510981,-122.68531757045443
"97202","Portland","OR","Fred Meyer","3805 SE Hawthorne Blvd","97214",45.5125109,-122.6236719
"97202","Portland","OR","New Seasons Market","1954 SE Division St","97202",45.50451446986541,-122.64614554863468
"97202","Portland","OR","Safeway","2800 SE Hawthorne Blvd","97214",45.5118255,-122.6374664
"97202","Portland","OR","New Seasons Market","4034 SE Hawthorne Blvd","97214",45.512002851340206,-122.62076228873289
"97202","Portland","OR","Trader Joe's","4715 SE Cesar Chavez Blvd","97202",45.48888714288395,-122.62343930996832
"97202","Portland","OR","New Seasons Market","1214 SE Tacoma St","97202",45.464132897320084,-122.65372442812593
"97202","Portland","OR","QFC","6411 SE Milwaukie Ave","97202",45.4761249,-122.6491562
"97202","Portland","OR","Safeway","3930 SE Powell Blvd","97202",45.49718646089085,-122.6219728713634
"97202","Portland","OR","Clinton Food Market","3400 SE Clinton St","97202",45.503511961779225,-122.62944427426955
"97202","Portland","OR","Smart Foodservice Warehouse Stores","731 Se Stephens St","97214",45.50979191101147,-122.65818583678708
"97202","Portland","OR","Hawthorne Market","2950 SE Hawthorne Blvd","97214",45.51186394495568,-122.63504410502334
"97202","Portland","OR","Peoples Food Co-op","3029 SE 21st Ave","97202",45.5007611194991,-122.64479520767617
"97202","Portland","OR","Natural Grocers","3975 SE Powell Blvd","97202",45.49805091730877,-122.6208133613102
"97202","Portland","OR","Urbana Market","3550 SW River Pkwy","97239",45.49729628560317,-122.66969268121979
"97202","Portland","OR","Plaid Pantry","7210 SE Milwaukie Ave,","97202",45.472109,-122.648192
"97202","Portland","OR","Milwaukie Market","4401 SE Milwaukie Ave","97202",45.491287,-122.651799
"97202","Portland","OR","Quick Stop Deli Mart","1607 SE Holgate Blvd","not_available",45.490509033203125,-122.64865112304688
"97202","Portland","OR","Chief Mart","3606 SE Powell Blvd","97202",45.496472,-122.627074
"97202","Portland","OR","PORTLAND FOOD MART","2419 SE Powell Blvd","97202",45.49821065470046,-122.64015555381775
"97202","Portland","OR","Spring Market","3032 SE Hawthorne Blvd","97214",45.511977,-122.63379
"97202","Portland","OR","Albertsons","not_available","97222",45.45869014194344,-122.63170344399109
"97202","Portland","OR","Uncle Paul's Produce Market","2310 SE Hawthorne Blvd","97214",45.5118408203125,-122.6417236328125
"97202","Portland","OR","Smart Buy Market","4505 SE 17th Ave","97202",45.4901123046875,-122.64867401123047
"97203","Portland","OR","Fred Meyer","6850 N Lombard St","97203",45.5858228,-122.7382995
"97203","Portland","OR","New Seasons Market","6300 N Lombard St","97203",45.5848273928601,-122.73126447285505
"97203","Portland","OR","Grocery Outlet","7741 N Lombard","97203",45.5888744,-122.7459917
"97203","Portland","OR","Safeway","8330 N Ivanhoe St","97203",45.5877247,-122.7530193
"97203","Portland","OR","Lombard Market","4904-4908 N Lombard St","97203",45.580519,-122.719669
"97203","Portland","OR","Jerry's Jack & Jill","Main St.","58438",45.59351582178622,-122.73284196853638
"97203","Portland","OR","Fred Meyer Pick Up And Delivery","not_available","97203",45.584995,-122.73854
"97203","Portland","OR","Village Market","4632 N Trenton St","97203",45.58869682232549,-122.71576645120814
"97204","Portland","OR","T & K Grocery & Deli","332 SW 3rd Ave","97204",45.5204960551861,-122.67412304878235
"97205","Portland","OR","Fred Meyer","100 NW 20th Pl","97209",45.5238952,-122.6928634
"97205","Portland","OR","Whole Foods Market","1210 Nw Couch St","97209",45.523495,-122.683441
"97205","Portland","OR","Zupan's Market","2340 W Burnside St","97210",45.52324572067312,-122.69888781897824
"97205","Portland","OR","Helen's Market","2 NW Broadway","97209",45.523333,-122.677175
"97206","Portland","OR","Safeway","4515 SE Woodstock Blvd","97206",45.4799239,-122.6158737
"97206","Portland","OR","WinCo Foods","7979 SE Powell Blvd","97206",45.49845330602172,-122.58113956644114
"97206","Portland","OR","New Seasons Market","4500 SE Woodstock Blvd","97206",45.47905610438772,-122.61611960024763
"97206","Portland","OR","Johnson Creek Market","8409 SE 45th Ave","97222",45.46260124435602,-122.61620102806233
"97206","Portland","OR","Grocery Outlet","7120 SE Flavel Street","97206",45.4681286,-122.5898687
"97206","Portland","OR","Green Zebra Grocery","4990 SE Division St","97206",45.505193,-122.611157
"97206","Portland","OR","Tienda El Campesino","6611 SE Powell Blvd","97206",45.497749,-122.595202
"97206","Portland","OR","Bread & Roses Market","6360 SE Foster Rd","97206",45.489565999999996,-122.59716399999999
"97206","Portland","OR","Roswell Market","8929 SE 42nd Ave","97222",45.45582926304881,-122.61710756440928
"97206","Portland","OR","Division Market","2404 SE 79th Ave","97206",45.505106,-122.581391
"97206","Portland","OR","Duke Food mart","6503 SE 52nd Ave","97206",45.47573144157256,-122.60886318903022
"97206","Portland","OR","Good Neighbor","SE 82nd Ave","97206",45.492677,-122.579058
"97206","Portland","OR","Grocery Outlet Bargain Market","7120 Se Flavel Street","97206",45.4686502,-122.5899288
"97209","Portland","OR","Safeway","1303 NW Lovejoy St","97209",45.5302653,-122.6846569
"97209","Portland","OR","New Seasons Market","2170 NW Raleigh St","97210",45.53383994781194,-122.6960055706279
"97209","Portland","OR","Trader Joe's","2122 NW Glisan St","97210",45.52614927922684,-122.69513985987525
"97209","Portland","OR","World Foods","830 NW Everett St","97209",45.52497177823076,-122.67996670636862
"97209","Portland","OR","Basics Market","938 NW 14th Ave Suite 110","97209",45.529788,-122.684901
"97209","Portland","OR","Smart Foodservice Warehouse Stores","1825 Nw 19th Avenue","97209",45.536055403817656,-122.69117208247853
"97209","Portland","OR","McCormick Pier Market","600 NW Naito Pkwy","97209",45.52788470679475,-122.67264793293779
"97209","Portland","OR","Old Town Grocery","100 NW 3rd Ave","97209",45.524068,-122.67310400000001
"97209","Portland","OR","City Market NW","735 NW 21st Ave","97210",45.528285806822886,-122.69478968724303
"97209","Portland","OR","Conserva By Viridian Farms","1720 NW Lovejoy St","97209",45.529802,-122.689283
"97210","Portland","OR","Food Front Cooperative Grocery NW","2375 NW Thurman St","97210",45.53554237395925,-122.70031067235624
"97210","Portland","OR","Green Zebra Grocery","3011 N Lombard St","97217",45.577276232444106,-122.6975803031137
"97210","Portland","OR","Mary's Tienda Mexicana","not_available","97217",45.577034,-122.695783
"97210","Portland","OR","Mock Crest Grocery","3715 N Lombard St","97217",45.577342,-122.70506999999999
"97211","Portland","OR","Albertsons","5850 NE Prescott","97218",45.5542916,-122.6024687
"97211","Portland","OR","Alberta Cooperative Grocery","1500 NE Alberta St","97211",45.55903777936058,-122.64946707108604
"97211","Portland","OR","Safeway","5920 NE M L King Blvd","97211",45.565951896405245,-122.66010449097848
"97211","Portland","OR","Natural Grocers","5055 NE M L King Blvd","97211",45.559533,-122.661877
"97211","Portland","OR","Smart Foodservice Warehouse Stores","910 N Hayden Meadows Dr.","97217",45.59634003708556,-122.67629461002424
"97211","Portland","OR","Civic Food Mart","729 N Rosa Parks Way","97217",45.570278,-122.674507
"97211","Portland","OR","Grocery Outlet","10721 Ne Sandy Blvd","97220",45.5589072,-122.5520429
"97211","Portland","OR","Stop In Market","4509 NE 42nd Ave","97218",45.555772999999995,-122.620801
"97211","Portland","OR","Cherry Sprout Produce","722 N Sumner St","97217",45.56026319765572,-122.67455367538324
"97211","Portland","OR","Classic Foods","817 NE Madrona St","97211",45.5728,-122.657559
"97211","Portland","OR","Vieng Lao Oriental Food Center","1032 N Killingsworth St","97217",45.562468,-122.677811
"97211","Portland","OR","Amigo's Products Market","5240 NE 42nd Ave","97218",45.56089777942739,-122.62163490056992
"97211","Portland","OR","Ed's Market","207 N Lombard St","97217",45.57752,-122.66890900000001
"97211","Portland","OR","Mercado Don Poncho","not_available","97211",45.559061,-122.6447075
"97211","Portland","OR","Mama Pauline's African Market","4606 NE M L King Blvd","97211",45.55648,-122.66121
"97211","Portland","OR","La Playita Market","2815 NE Alberta St","97211",45.559177000000005,-122.63663899999999
"97211","Portland","OR","Nu-Rite-Way Food Center","3965 N Mississippi Ave","97227",45.55179423616228,-122.67572558383024
"97211","Portland","OR","Faloma Market","330 N Marine Dr","97211",45.60181796550751,-122.6697188615799
"97212","Portland","OR","Trader Joe's","4121 NE Halsey St","97232",45.53468233389774,-122.62075653237285
"97212","Portland","OR","New Seasons Market","3210 NE Broadway St","97232",45.534812380426885,-122.632492616662
"97212","Portland","OR","Safeway","1100 NE Broadway St","97232",45.5347303,-122.6542367
"97212","Portland","OR","Whole Foods Market","3535 Ne 15th Ave.","97212",45.548998175617946,-122.65128528997215
"97212","Portland","OR","Beaumont Market","4130 NE Fremont St","97212",45.54792372766967,-122.6200545504705
"97212","Portland","OR","Selam Mart","not_available","97212",45.55096697823665,-122.66083484812002
"97212","Portland","OR","Williams Street Market","3508 N Williams Ave","97227",45.548483000000004,-122.666471
"97213","Portland","OR","Fred Meyer","6615 NE Glisan St","97213",45.5271944,-122.5965006
"97213","Portland","OR","Safeway","6901 NE Sandy Blvd","97213",45.5476025,-122.5927272
"97213","Portland","OR","Whole Foods Market","4301 Ne Sandy Blvd","97213",45.536860135246776,-122.61865476344717
"97213","Portland","OR","Grocery Outlet","4420 Ne Hancock Street","97213",45.5358766,-122.6172815
"97213","Portland","OR","Basics","5035 NE Sandy Blvd","97213",45.539840000000005,-122.611521
"97213","Portland","OR","Nam Phuong Market","Sandy Blvd","97212",45.546685,-122.592603
"97213","Portland","OR","Pacific Market","6750 NE Broadway St","97213",45.53443781720431,-122.59375927461228
"97213","Portland","OR","Saigon Market","1111 NE 82nd Ave","97220",45.531123,-122.579449
"97213","Portland","OR","J & T Market","4438 NE Glisan St # R","97213",45.52632385097051,-122.616485960234
"97214","Portland","OR","H Mart","3301 SE Belmont St","97214",45.516544589802116,-122.63057002027695
"97214","Portland","OR","Whole Foods Market","2825 East Burnside St.","97214",45.523153417186045,-122.63668492709094
"97214","Portland","OR","Market of Choice","1090 SE Belmont St","97214",45.51637859612988,-122.65491016458343
"97214","Portland","OR","Sheridan Fruit Company","409 SE M L King Blvd","97214",45.519869399924225,-122.66225263438425
"97214","Portland","OR","Rinella Produce","231 SE Alder St","97214",45.51834941008254,-122.66286901657696
"97214","Portland","OR","Food Fight","1217 SE Stark St","97214",45.519482965325935,-122.6532263846558
"97214","Portland","OR","Market Supply","139 SE Taylor St","97214",45.51531982421875,-122.66410827636719
"97214","Portland","OR","Apples To Zinfandel","3400 SE Belmont St","97214",45.515975,-122.629208
"97215","Portland","OR","QFC","5544 E Burnside St","97215",45.5225783,-122.6066775
"97215","Portland","OR","Hồng Phát (Food Center & Deli)","101 SE 82nd Ave","97216",45.52203754395575,-122.5799329727901
"97215","Portland","OR","BooHan Oriental Market","1313 SE 82nd","not_available",45.513105736275044,-122.5791630875542
"97215","Portland","OR","La Bouffe","8015 SE Stark St","97215",45.519119,-122.580994
"97215","Portland","OR","Taylor Court Grocery","1135 SE 80th Ave","97215",45.515019,-122.58166100000001
"97215","Portland","OR","China Foods Inc.","110 SE 82nd Ave","97216",45.52182,-122.578725
"97216","Portland","OR","Smart Foodservice Warehouse Stores","8250 Se Stark Street","97216",45.51912790766395,-122.57811069488527
"97216","Portland","OR","Chang Fa Supermarket","8310 SE Division St","97266",45.50437,-122.57746200000001
"97216","Portland","OR","Tin Seng Trading Co.","8350 SE Division St","97266",45.504371916433065,-122.57704760313406
"97216","Portland","OR","DD One Stop Market","11227 SE Division St","97266",45.504597,-122.547293
"97217","Portland","OR","Fred Meyer","7404 N Interstate Ave","97217",45.5759049,-122.6808957
"97217","Portland","OR","New Seasons Market","6400 N Interstate Ave","97217",45.56887222800061,-122.68177894383473
"97217","Portland","OR","New Seasons Market","3445 N Williams Ave","97227",45.547998352711986,-122.66725114191831
"97217","Portland","OR","Walmart Supercenter","1123 Hayden Meadows Drive","97217",45.59568692088647,-122.67928250562998
"97217","Portland","OR","Fred Meyer","2500 Columbia House Blvd","98661",45.6200556,-122.6451058
"97217","Portland","OR","Safeway","3707 Main St","98663",45.6485737,-122.6669292
"97217","Portland","OR","Vancouver Food Co-op","1002 Main St","98660",45.62883,-122.671622
"97219","Portland","OR","Fred Meyer","7555 SW Barbur Blvd","97219",45.4705206,-122.6905388
"97219","Portland","OR","Barbur World Foods","9845 SW Barbur Blvd","97219",45.45440787268179,-122.71988014331208
"97219","Portland","OR","Safeway","8145 SW Barbur Blvd","97219",45.465912,-122.6985398
"97219","Portland","OR","Zupan's Market","7221 SW Macadam Ave","97219",45.47215320290217,-122.67195658904845
"97219","Portland","OR","Plaid Pantry","4404 SW Multnomah Blvd,","97219",45.467064,-122.722626
"97219","Portland","OR","Capital Hwy Deli Mart","not_available","97219",45.444346435941995,-122.72611671836782
"97219","Portland","OR","Plaid Pantry- Vermont Hills","4516 sw 45th","97219",45.47605837357014,-122.72354114576581
"97219","Portland","OR","Market of Choice","8502 SW Terwilliger Blvd","97219",45.463483830442314,-122.68401853446592
"97219","Portland","OR","Uncle John's Market","1103 SW Taylors Ferry Rd","97219",45.463026,-122.69041899999999
"97219","Portland","OR","Ares Halal Market LLC","9125 SW Barbur Blvd","97219",45.459259033203125,-122.70951080322266
"97220","Portland","OR","WinCo Foods","1222 NE 102nd Ave","97220",45.53114684917903,-122.55673496392907
"97220","Portland","OR","Fred Meyer","1111 NE 102nd Ave","97220",45.530602,-122.5609134
"97220","Portland","OR","WinCo Foods","1950 NE 122nd Ave","97230",45.53657579155307,-122.53607781713843
"97220","Portland","OR","Lily Market","11001 NE Halsey St","97220",45.533656594135095,-122.54975266364643
"97220","Portland","OR","Russian Elegant Food","not_available","97220",45.526634,-122.558945
"97220","Portland","OR","Right Price Market","11827 NE Halsey St","97220",45.53384780883789,-122.54141998291016
"97220","Portland","OR","Casmur Grocery","2502 NE 111th Ave","97220",45.540211,-122.548736
"97220","Portland","OR","New Day Market","1534 NE 119th Ave","97220",45.5337471036744,-122.54058876049024
"97221","Portland","OR","Albertsons","5415 SW Beaverton Hwy","97221",45.4878383,-122.7323529
"97222","Portland","OR","Safeway","4320 SE King Rd","97222",45.44739321501852,-122.61831701142347
"97223","Portland","OR","Walmart Supercenter","7600 Sw Dartmouth St.","97223",45.43182510164028,-122.75511627681583
"97223","Portland","OR","Fred Meyer","11565 SW Pacific Hwy","97223",45.4411545,-122.7521663
"97223","Portland","OR","Smart Foodservice Warehouse Stores","11745 Sw Pacific Hwy","97223",45.436882541250355,-122.75966579955015
"97223","Portland","OR","WinCo Foods","7501 SW Dartmouth St","97223",45.43511939398471,-122.75350567978107
"97223","Portland","OR","Lamb's Thriftway","7410 SW Garden Home Rd","97223",45.4661629346323,-122.7515175306184
"97223","Portland","OR","Cash & Carry Smart Foodservice","SW Pacific Hwy (99W)","not_available",45.43586406583826,-122.76382071587325
"97223","Portland","OR","H Mart","not_available","97223",45.44705257168766,-122.76518183322185
"97223","Portland","OR","Tienda Porvenir","11945 SW Pacific Hwy #209","97223",45.434959411621094,-122.76627349853516
"97223","Portland","OR","Walmart Grocery Pickup","7600 Sw Dartmouth St","97223",45.4339471187048,-122.75555423741
"97223","Portland","OR","Metzger Grocery","SW Hall Blvd","97223",45.44730057278696,-122.76606271723459
"97225","Portland","OR","Fred Meyer","7700 SW Beaverton Hillsdale Hwy","97225",45.4854351,-122.7559578
"97225","Portland","OR","QFC","7525 SW Barnes Rd","97225",45.5158472,-122.7549212
"97225","Portland","OR","New Seasons Market","7300 SW Beaverton Hillsdale Hwy","97225",45.48551090282429,-122.75182964195494
"97225","Portland","OR","Albertsons","185th","not_available",45.48259780266361,-122.754167065204
"97225","Portland","OR","Zombie Safeway","6745 SW Beaverton Hillsdale Hwy","97225",45.487762451171875,-122.74618530273438
"97225","Portland","OR","Parlour Cannabis Shoppe","4702 SW Scholls Ferry Rd","97225",45.48537546,-122.74963609
"97229","Portland","OR","Safeway","13485 NW Cornell Rd","97229",45.5279674,-122.8144201
"97229","Portland","OR","Bale's Thriftway","12675 NW Cornell Rd","97229",45.52580137666416,-122.80805230304554
"97229","Portland","OR","Albertsons","18425 NW West Union Rd","97229",45.5589934,-122.8664484
"97230","Portland","OR","QFC","3505 SE 192nd Ave","98683",45.59497600001221,-122.47624039649963
"97230","Portland","OR","Tortilleria Y Tienda","16223 NE Glisan St","97230",45.5268940059929,-122.49548464850884
"97230","Portland","OR","Toms Grocery Deli","not_available","97230",45.534017315817124,-122.48634757508144
"97230","Portland","OR","Natural Grocers","3311 SE 192nd Ave","98683",45.597023,-122.477425
"97230","Portland","OR","Safeway","1541 NE 181st Ave","97230",45.53413646472565,-122.47959175582692
"97231","Portland","OR","Kruger's Farm Market","17100 NW Sauvie Island Rd","97231",45.647702627249856,-122.82382460497566
"97232","Portland","OR","Fred Meyer","3030 NE Weidler St","97232",45.5330709,-122.6349476
"97232","Portland","OR","Dashen International Groceries","NE 31st and NE Glisan","not_available",45.526267,-122.63389
"97232","Portland","OR","Tower Sundry & News","825 NE Multnomah St","97232",45.531933,-122.657246
"97232","Portland","OR","Green Zebra Grocery","808 NE Multnomah","97232",45.531283575669136,-122.65747014206912
"97232","Portland","OR","Alfa swalayan","LATTA","97232",45.5295528,-122.6463158
"97233","Portland","OR","Su Casa Imports","16100 SE Stark St","97233",45.51853225836391,-122.49787574674873
"97233","Portland","OR","Minit Mart","13076 SE Stark St","97233",45.518705,-122.52923500000001
"97233","Portland","OR","Everday Deals Grocery Outlet","600 SE 146th Ave","97233",45.518436431884766,-122.51256561279297
"97236","Portland","OR","Safeway","3527 SE 122nd Ave","97236",45.4962789,-122.5392749
"97236","Portland","OR","Fred Meyer","14700 SE Division St","97236",45.5028982,-122.5122971
"97236","Portland","OR","Citymaxx Food Stores","3552 SE 122nd Ave","97236",45.495994,-122.536243
"97236","Portland","OR","Grocery Outlet","12102 SE Division Street","97266",45.5030601,-122.5390949
"97236","Portland","OR","UC Market","12540 SE Division St","97236",45.503597,-122.533826
"97236","Portland","OR","Pakse Asian Grocery","14800 SE Powell Blvd","97236",45.49772,-122.510348
"97236","Portland","OR","The Flowershop","12550 SE Division St","97236",45.5035514831543,-122.53378295898438
"97236","Portland","OR","Country Food Market","5708 SE 136th Ave","97236",45.480847999999995,-122.52327
"97239","Portland","OR","Food Front Hillsdale","6344 SW Capitol Hwy","97239",45.478051914017605,-122.69538506426031
"97239","Portland","OR","Swan Mart","4440 SW Barbur Blvd","97239",45.49115231614806,-122.67760595954043
"97266","Portland","OR","Walmart Supercenter","4200 Se 82nd Ave","97266",45.491477641730405,-122.5753894506298
"97266","Portland","OR","Roman Russian Food","SE Division St & SE 109th Ave","97266",45.503964,-122.551061
"97266","Portland","OR","Wing's Food Market","9191 SE Powell Blvd","97266",45.497853000000006,-122.569023
"97266","Portland","OR","Imperial Euro Market","11050 SE Powell Blvd","97266",45.49634561928165,-122.54956126213074
"97266","Portland","OR","Lents Park Grocery","4415 SE 92nd Ave","97266",45.490284,-122.569
"97266","Portland","OR","Franz Bakery Outlet","Foster Rd","97236",45.47647931126837,-122.54483885398334
"97266","Portland","OR","Woodstock Market","5926 SE 86th Ave","97266",45.479624,-122.57471799999999
"97266","Portland","OR","Food Depot","8535 SE Powell Blvd","97266",45.49767,-122.574543
"97266","Portland","OR","Oriental Food Value Supermarket","8303 SE Insley St","97266",45.483695030521126,-122.5776949495049
"97267","Portland","OR","Fred Meyer","14700 SE McLoughlin Blvd","97267",45.4169929,-122.6305522
"97267","Portland","OR","Walmart Neighborhood Market","15600 Se Mcloughlin Blvd","97267",45.41029442435843,-122.6258044463812
"97267","Portland","OR","Safeway","14840 SE Webster Rd","97267",45.415975,-122.591075
"97267","Portland","OR","Walmart Grocery Pickup and Delivery","15600 Se McLoughlin Blvd","97267",45.4097433333333,-122.62709
"97267","Portland","OR","S & K Grocery","not_available","97267",45.410319134839604,-122.61430120595394
"97301","Salem","OR","Walmart Supercenter","1940 Turner Rd Se","97302",44.91413473712759,-122.99614327853259
"97301","Salem","OR","Fred Meyer","3740 Market St NE","97301",44.9486254,-122.9870872
"97301","Salem","OR","WinCo Foods","1240 Lancaster Dr SE","97317",44.91387607368147,-122.9761942018863
"97301","Salem","OR","Walmart Supercenter","3025 Lancaster Dr Ne","97305",44.964639424266885,-122.98656179263023
"97301","Salem","OR","Fred Meyer","2855 Broadway St NE","97303",44.968399,-123.0304565
"97301","Salem","OR","Safeway","1265 Center St NE","97301",44.9408371,-123.0242462
"97301","Salem","OR","Roth's Fresh Market - Hayesville","4746 Portland Rd NE","97305",44.99028339337926,-122.98558759792289
"97301","Salem","OR","Roths Fresh Market - Lancaster","702 Lancaster Dr NE","97301",44.94025362184589,-122.98204546769365
"97301","Salem","OR","Grocery Outlet","299 D Street NE","97301",44.9493777,-123.0367926
"97301","Salem","OR","Safeway","3380 Lancaster Dr NE","97305",44.96875275311003,-122.98189955956332
"97301","Salem","OR","Capital Market","1420 State St","97301",44.936056227009225,-123.02412153024237
"97301","Salem","OR","Safeway","4990 River Rd N","97303",44.9964053,-123.0242787
"97301","Salem","OR","Salem Market","3390 Center St NE","97301",44.939432000000004,-122.99211399999999
"97301","Salem","OR","Plaid Pantry","4690 Portland Rd NE,","97305",44.989527,-122.987318
"97301","Salem","OR","LifeSource Natural Foods","2649 Commercial St SE","97302",44.9155443,-123.045946
"97301","Salem","OR","Grocery Outlet","2879 Lancaster Drive Ne","97305",44.9632268,-122.9850626
"97301","Salem","OR","Salem Health Foods","401 Center St NE #294","97301",44.943619,-123.036033
"97301","Salem","OR","Happy Curry Store","not_available","97301",44.93254018572685,-123.02833890549613
"97301","Salem","OR","Grocery Outlet","299 D St NE","97301",44.949676513671875,-123.0366439819336
"97301","Salem","OR","Plaid Pantry","4690 Silverton Rd NE","97305",44.971978132672604,-122.96935948821577
"97301","Salem","OR","La Amapola Mercado","3352 Silverton Rd NE","97301",44.96739196777344,-122.99314880371094
"97301","Salem","OR","mbs market","3691 Cherry Ave","97303",44.979122161865234,-123.0230484008789
"97301","Salem","OR","Smart Foodservice Warehouse Stores","1355 Salem Ind. Dr Ne","97301",44.96923788795485,-123.01528775704655
"97302","Salem","OR","WinCo Foods","4575 Commercial St SE","97302",44.88789552294425,-123.034985241837
"97302","Salem","OR","Walmart","5250 Commercial St Se","97306",44.87892965604109,-123.02643202357702
"97302","Salem","OR","Fred Meyer","3450 Commercial St SE","97302",44.9058075,-123.0406472
"97302","Salem","OR","Smart Foodservice Warehouse Stores","1410 Barnes Avenue Se","97306",44.8811982129565,-123.027326820576
"97302","Salem","OR","Roth's Fresh Market - Sunnyslope","4555 Liberty Rd S","97302",44.89224239787502,-123.06036127596442
"97302","Salem","OR","Roth's Fresh Market - Vista","3045 Commercial St SE","97302",44.9108960607371,-123.04557328001047
"97302","Salem","OR","Safeway","1455 Edgewater St NW","97304",44.9394281,-123.0636577
"97302","Salem","OR","Safeway","5660 Commercial St SE","97306",44.87294694355068,-123.02274054534251
"97302","Salem","OR","Trader Joe's","4450 Commercial St SE","97302",44.88978154809191,-123.03266909188814
"97302","Salem","OR","Natural Grocers","4250 Commercial St SE","97302",44.892896326034894,-123.03517085318153
"97303","Salem","OR","Waremart by WinCo","5450 River Rd N","97303",45.00314316692127,-123.02508339336632
"97303","Salem","OR","Curry & Company, Inc.","8855 Pueblo Ave NE","97305",45.04669189453125,-122.96077728271484
"97303","Salem","OR","Taste Of Europe","Lancaster Mall, 831 Lancaster Dr NE, Salem, OR 97301-2930","97301-2930",44.96748987736392,-122.98230110474299
"97303","Salem","OR","Koçaklar Manavı Ve Şarküteri","Kayakyolu","not_available",45.004112243652344,-123.01451110839844
"97304","Salem","OR","Roth's Fresh Market","1130 Wallace Rd NW","97304",44.950587047455386,-123.05000138968988
"97321","Albany","OR","Fred Meyer","2500 Santiam Hwy SE","97322",44.6311204,-123.0761341
"97321","Albany","OR","Safeway","1990 14th Ave SE","97322",44.6272589,-123.0795751
"97321","Albany","OR","Winco Foods","3100 Pacific Blvd SE","97321",44.63965,-123.06649099999998
"97321","Albany","OR","Grocery Outlet","1950 14th Avenue Se","97322",44.6273302,-123.0806573
"97321","Albany","OR","Franz Bakery Outlet","946 Santiam Highway","97322",44.632428000000004,-123.073901
"97321","Albany","OR","Big Lots","2000 14th Ave SE","97322",44.62726829932753,-123.07811953082307
"97321","Albany","OR","Tri Valley Food Mart","not_available","97322",44.63241,-123.072947
"97321","Albany","OR","Mega Foods","2000 Queen Ave SE","97322",44.62476901098937,-123.08136694200924
"97321","Albany","OR","Albertsons","1177 Waverly Dr SE","97322",44.630848269954356,-123.07206794422453
"97322","Albany","OR","Walmart Supercenter","1330 Goldfish Farm Rd Se","97322",44.62718839686368,-123.05089196578862
"97322","Albany","OR","Jefferson Grocery","159 S Main St","97352",44.71653366088867,-123.01123809814453
"97322","Albany","OR","U.S. Mini Mart","290 Oak St","97355",44.536311,-122.902763
"97322","Albany","OR","Jefferson Hometown Market","103 Old Pacific Hwy","not_available",44.7157175260076,-123.0120596156248
"97325","Aumsville","OR","Safeway","1535 N 1st Ave","97383",44.805771,-122.7960279
"97325","Aumsville","OR","Roths Fresh Market - Stayton","1770 Shaff Rd","97383",44.80885336541446,-122.81314532161863
"97325","Aumsville","OR","Grocery Outlet","1815 West Ida Street","97383",44.7973979,-122.8134618
"97325","Aumsville","OR","Grocery Outlet","1815 W Ida St","97383",44.797474333898215,-122.81339624337934
"97330","Corvallis","OR","Fred Meyer","777 NW Kings Blvd","97330",44.5752285,-123.2746546
"97330","Corvallis","OR","WinCo Foods","2335 NW Kings Blvd","97330",44.590857973303066,-123.27465225371105
"97330","Corvallis","OR","Market of Choice","922 NW Circle Blvd","97330",44.58812519601159,-123.25705468822711
"97330","Corvallis","OR","Safeway","450 SW 3rd St","97333",44.5609963,-123.2636547
"97330","Corvallis","OR","Trader Joe's","1550 NW 9th St","97330",44.581796340462155,-123.25976594491902
"97330","Corvallis","OR","Walmart Neighborhood Market","1840 Nw 9th St","97330",44.586527601489614,-123.25890839957924
"97330","Corvallis","OR","Safeway","590 NE Circle Blvd","97330",44.5866462,-123.2508228
"97330","Corvallis","OR","Grocery Outlet","1755 Nw 9th Street Suite 110","97330",44.5843795,-123.256382
"97330","Corvallis","OR","First Alternative Natural Foods Co-Op","2855 NW Grant Ave","97330",44.578900162817575,-123.28265184528524
"97330","Corvallis","OR","Hk Asian Market","930 NW Kings Blvd","97330",44.57665,-123.275808
"97330","Corvallis","OR","Rice n Spice","1075 NW Van Buren Ave","97330",44.568588,-123.268048
"97330","Corvallis","OR","Grocery Depot","not_available","97330",44.586376,-123.25447
"97330","Corvallis","OR","Market Of Choice (Upper Deck)","Circle & 9th","97330",44.58816496065147,-123.25711273191314
"97330","Corvallis","OR","Asia Market","1875 NW 9th St, Corvallis, OR 97330","97330",44.58623123168945,-123.25530242919922
"97330","Corvallis","OR","Devi Indian Groceries","919 NW Circle Blvd","97330",44.58903293924925,-123.25619047600844
"97330","Corvallis","OR","Corvallis Market Center","1550-1580 NW 9th St","97330",44.58232747451269,-123.25999466713256
"97330","Corvallis","OR","Natural Grocers","1235 NW 10th St","97330",44.57779985804477,-123.2617581416366
"97330","Corvallis","OR","T&G Market","1621 NW 9th St","97330",44.583194,-123.25743200000001
"97330","Corvallis","OR","Cascadia Market- ILLC (OSU)","International Living Learning Center, 1601  SW Western Blvd","97331",44.56002661978737,-123.27634254041045
"97330","Corvallis","OR","Sinbad Market","456 SW Monroe","97333",44.564523,-123.263091
"97333","Corvallis","OR","Safeway","5270 SW Philomath Blvd","97333",44.550659001595974,-123.30876229114672
"97333","Corvallis","OR","First Alternative Natural Foods Co-op: South Store","1007 SE 3rd St","97333",44.554080632360105,-123.26453469139595
"97333","Corvallis","OR","Thriftway","1740 Main St","97370",44.53928,-123.361066
"97333","Corvallis","OR","Rays","not_available","97370",44.53955932639442,-123.36077005658069
"97338","Dallas","OR","Safeway","138 W Ellendale Ave","97338",44.93070658265428,-123.3128036465223
"97338","Dallas","OR","Walmart","321 Ne Kings Valley Hwy","97338",44.931208310015904,-123.30723801935935
"97338","Dallas","OR","Grocery Outlet","258 W Ellendale Avenue","97338",44.9298793,-123.3173114
"97338","Dallas","OR","Dallas Select","121 SW Oak St","97338",44.92224884033203,-123.31724548339844
"97341","Depoe Bay","OR","Lincoln Beach Thriftway","not_available","97341",44.84977178761118,-124.04358056726312
"97347","Grand Ronde","OR","Monster Mash Potatoes","not_available","97347",45.052749,-123.619854
"97348","Halsey","OR","Halsey Select Market","360 W 2nd St","97348",44.3867301940918,-123.10934448242188
"97348","Halsey","OR","Shedd Market","not_available","97377",44.4200984989216,-123.06625134218136
"97351","Independence","OR","Roth's Fresh Market","1401 Monmouth St","97351",44.850445524001096,-123.20647332696997
"97351","Independence","OR","Waremart by WinCo","1737 Monmouth St","97351",44.850263434783585,-123.2146409704859
"97355","Lebanon","OR","Safeway","1983 S Main St","97355",44.5274886063061,-122.90534097368156
"97355","Lebanon","OR","Walmart Supercenter","3290 S Santiam Hwy","97355",44.51687689,-122.8998935
"97355","Lebanon","OR","Grocery Outlet","not_available","97355",44.52132426429095,-122.9065192459232
"97355","Lebanon","OR","Grocery Outlet","2540 S Santiam Highway","97355",44.52091979980469,-122.90583038330078
"97365","Newport","OR","Fred Meyer","150 NE 20th St","97365",44.65095960328151,-124.05114233493805
"97365","Newport","OR","Walmart Supercenter","160 Nw 25th St","97365",44.656278349688264,-124.05443869517576
"97365","Newport","OR","JC Market Thriftway","107 Northwest Coast Highway","97365",44.63727990914816,-124.05356070562802
"97365","Newport","OR","Safeway","2220 N Coast Hwy","97365",44.6525374,-124.0521099
"97365","Newport","OR","Grocery Outlet","721 N. Coast Hwy","97365",44.6412759,-124.0537683
"97365","Newport","OR","South Beach Grocery","3650 S Coast Hwy","97366",44.61170959472656,-124.05182647705078
"97365","Newport","OR","Mai's Asian Market","256 E Olive St","97365",44.636049,-124.049927
"97365","Newport","OR","Smart Foodservice Warehouse Stores","156 Ne 7th","97365",44.64080626388144,-124.05208336497017
"97365","Newport","OR","Walmart Grocery Pickup","160 NW 25th St","97365",44.65527,-124.05536
"97367","Lincoln City","OR","Safeway","4101 NW Logan Rd","97367",44.9970974,-124.0060389
"97367","Lincoln City","OR","Mckay's Market","801 SW Highway 101","97367",44.960728,-124.01541
"97367","Lincoln City","OR","Kenny's IGA","2429 NW Highway 101","97637",44.9830241700125,-124.00775573175868
"97367","Lincoln City","OR","IGA","not_available","97367",44.92920306676204,-124.016515733734
"97367","Lincoln City","OR","Grocery Outlet","4157 NW Highway 101 Suite 101","97367",44.9973991,-124.0040705
"97367","Lincoln City","OR","Mr. Bill's Village Smokehouse","2981 SW Highway 101","97367",44.94508221609439,-124.01903590556304
"97367","Lincoln City","OR","Super Oscar's Mexican Food","2048 NE Highway 101","97367",44.979428,-124.010271
"97367","Lincoln City","OR","Trillium Natural Foods","1026 SE Jetty Ave, Lincoln City, OR 97367","97367",44.959579,-124.012417
"97374","Scio","OR","Scio Thriftway","not_available","97374",44.70536817815895,-122.8485323408957
"97378","Sheridan","OR","Sheridan Select Markets","135 S Bridge St","97378",45.09836651328241,-123.39476914797584
"97378","Sheridan","OR","TJ's","not_available","97378",45.099441,-123.39565873146057
"97378","Sheridan","OR","Thriftway","Main Street","not_available",45.0788543487818,-123.486328125
"97381","Silverton","OR","Roth's Fresh Market - Silverton","918 N 1st St","97381",45.011457240090664,-122.78423440904669
"97381","Silverton","OR","Safeway","301 Westfield St","97381",45.00324558727095,-122.79393465849353
"97386","Sweet Home","OR","Thriftway","621 Main St","97386",44.397645000000004,-122.73823300000001
"97386","Sweet Home","OR","Safeway","1540 Main St","97386",44.39946956038903,-122.72577301420824
"97391","Toledo","OR","Jc Market","701-805 U.S. 20 Business","97391",44.62230716457002,-123.93310975822475
"97394","Waldport","OR","Ray's Food Place","580 NE Broadway St","97394",44.42969559681373,-124.06039398888875
"97401","Eugene","OR","Market Of Choice","1060 Green Acres Rd","97408",44.093814,-123.096771
"97401","Eugene","OR","Safeway","1500 Coburg Rd","97401",44.0782518,-123.069937
"97401","Eugene","OR","Safeway","145 E 18th Ave","97401",44.0405404,-123.0906309
"97401","Eugene","OR","Whole Foods Market","353 E Broadway","97401",44.05038737169589,-123.08763100277585
"97401","Eugene","OR","Walmart","1040 Green Acres Rd","97408",44.090913772543885,-123.09343095238857
"97401","Eugene","OR","Albertsons","1675 W 18th Ave","97402",44.04147839917737,-123.11680465942118
"97401","Eugene","OR","Trader Joe's","85 Oakway Center","97401",44.06619397323201,-123.0751987612589
"97401","Eugene","OR","Red Apple Market","849 W 6th Ave","97402",44.05356844264592,-123.10580167714052
"97401","Eugene","OR","Market of Choice","1960 Franklin Blvd","97403",44.044867621207466,-123.0637319016469
"97401","Eugene","OR","Red Barn Natural Grocery","357 Van Buren St","97402",44.055849232544574,-123.1093549060953
"97401","Eugene","OR","Albertsons","311 Coburg Rd","97401",44.06455033617767,-123.07387411594391
"97401","Eugene","OR","Market of Choice","2580 Willakenzie Rd","97401",44.08003495017812,-123.07009384171425
"97401","Eugene","OR","The Kiva","125 W 11th Ave","97401",44.04794241523433,-123.09460968196859
"97401","Eugene","OR","Eugene Asian Market","503 E 11th Ave","97401",44.047973,-123.085037
"97401","Eugene","OR","Tom's Market","1490 E 19th Ave","97403",44.03880855816437,-123.06994491704752
"97401","Eugene","OR","Carneceria Y Super Mercado","628 Blair Blvd","97402",44.052852630615234,-123.10693359375
"97401","Eugene","OR","Natural Grocers","201 Coburg Rd","97401",44.06378496531867,-123.07694918717976
"97401","Eugene","OR","El Rancho","not_available","97402",44.052722,-123.106554
"97402","Eugene","OR","Walmart Supercenter","4550 W 11th Ave","97402",44.04644194378257,-123.16958103366439
"97402","Eugene","OR","Fred Meyer","3333 W 11th Ave","97402",44.0489731,-123.1433048
"97402","Eugene","OR","WinCo Foods","4275 Barger Drive","97402",44.0862253082032,-123.16913813265995
"97402","Eugene","OR","Albertsons","4740 Royal Ave","97402",44.0688687,-123.1791863
"97402","Eugene","OR","Grocery Outlet Bargain Market","2060 River Rd","97404",44.094852,-123.1288164
"97402","Eugene","OR","Fred Meyer","60 Division Ave","97404",44.0982203,-123.126354
"97402","Eugene","OR","Albertsons","55 Division Ave","97404",44.1006765437228,-123.12832295894623
"97402","Eugene","OR","Dari Mart","1510 Highway 99 N","97402",44.07764031726515,-123.15001422718387
"97402","Eugene","OR","Community Market","1045 Maxwell Rd","97404",44.090621725739936,-123.14591935397993
"97402","Eugene","OR","4-Star Meat Co","90362 Prairie Rd","97402",44.1156018,-123.1668663
"97402","Eugene","OR","Churchill Market","2101 Bailey Hill Rd","97405",44.037256,-123.1507425
"97402","Eugene","OR","Friendly Street Market & Deli","2751 Friendly St","97405",44.02834864173816,-123.1053022658512
"97402","Eugene","OR","Organically Grown Company","1800 Prairie Rd Ste B","97402",44.0918606,-123.1597018
"97402","Eugene","OR","King's Asian Market","2100 W 11th Ave","97402",44.047352000000004,-123.125124
"97402","Eugene","OR","Smart Foodservice Warehouse Stores","4214 W Fifth Ave","97402",44.05420281756888,-123.1643069630219
"97402","Eugene","OR","North Park Market","925 N Park Ave","97404",44.077799,-123.137798
"97402","Eugene","OR","Laura & Daisy Mexican Bakery","2160 W 11th Ave Ste B","97402",44.047084000000005,-123.126117
"97403","Eugene","OR","Albertsons","3075 Hilyard St","97405",44.0229738,-123.0809196
"97403","Eugene","OR","Sundance Natural Foods","748 E 24th Ave","97405",44.033275837702824,-123.08141518952941
"97403","Eugene","OR","Dari Mart","4215 Franklin Blvd","97403",44.043582111847975,-123.03296915606582
"97405","Eugene","OR","Sunrise Asian Market","70 W 29th Ave","97405",44.02598650799664,-123.09287709454001
"97405","Eugene","OR","Safeway","350 E 40th Ave","97405",44.0109087,-123.0886439
"97405","Eugene","OR","Pasta Gardner","81 E 28th Ave","97405",44.02823236085626,-123.08970451354979
"97405","Eugene","OR","Farmlands Market","not_available","97426",43.918094635009766,-123.02122497558594
"97405","Eugene","OR","Vishnu Indian Imports","135 E 29th Ave","97405",44.026396000000005,-123.089524
"97408","Eugene","OR","Dari Mart","91145 N Willamette St","97408",44.13931389164462,-123.06714177131653
"97408","Eugene","OR","Smart Foodservice Warehouse Stores","3559 Gateway St","97477",44.086537,-123.042568
"97411","Bandon","OR","Price N' Pride","65 10th St. SE","97411",43.1145675978654,-124.41457779574593
"97411","Bandon","OR","Rays Food Place","66 Michigan Ave NE","97411",43.1210739378888,-124.39946775074401
"97411","Bandon","OR","Mother's Natural Grocery","975 2nd St SE","97411",43.119191178005174,-124.4005881687077
"97411","Bandon","OR","Big Wheel General Store","not_available","97411",43.119606,-124.413804
"97411","Bandon","OR","McKay’s Market","65 10th St SE","97411",43.11448,-124.414523
"97412","Blachly","OR","Lakeview Grocery","19385 Highway 36","97412",44.17100524902344,-123.57970428466797
"97415","Brookings","OR","Fred Meyer","325 5th St","97415",42.0536289,-124.2898064
"97415","Brookings","OR","Grocery Outlet Brookings","906 Chetco Ave","97415",42.05528259277344,-124.28856658935547
"97417","Canyonville","OR","Ray's Food Place","151 N Main St","97417",42.929291090859415,-123.28012994629589
"97419","Cheshire","OR","Dari Mart","93190 Long Tom Dr.","97419",44.190366999999995,-123.28172099999999
"97420","Coos Bay","OR","Safeway","230 E Johnson Ave","97420",43.358686,-124.2108733
"97420","Coos Bay","OR","Walmart Supercenter","2051 Newmark Ave","97420",43.38992142826034,-124.25166302066086
"97420","Coos Bay","OR","Safeway","1735 Virginia Ave","97459",43.4054199,-124.2356592
"97420","Coos Bay","OR","Fred Meyer","1020 1st St","97420",43.3572027,-124.2104824
"97420","Coos Bay","OR","Davey Jones' Locker","91139 Cape Arago Hwy","not_available",43.33991158260872,-124.32459354400635
"97420","Coos Bay","OR","McKay's","149 S 7th St","97420",43.36761474609375,-124.21976470947266
"97420","Coos Bay","OR","Natural Grocers","598 N Broadway","97420",43.371061075506695,-124.21280443668364
"97420","Coos Bay","OR","Old General Store","Cape Arago Hwy","97420",43.33959111343835,-124.325042975171
"97420","Coos Bay","OR","Smart Foodservice Warehouse Stores","751 S 2Nd St.","97420",43.361716845250434,-124.21494879040235
"97420","Coos Bay","OR","FRED MEYER","1020 South First Avenue","97423",43.41086548447607,-124.25280501567885
"97420","Coos Bay","OR","Ashworth's Market","1585 Sherman Ave","97459",43.412332916666664,-124.22385361666667
"97420","Coos Bay","OR","Grocery Outlet","1385 Newmark Avenue","97420",43.3912496,-124.2636605
"97420","Coos Bay","OR","Big Lots","2121 Newmark St.","97459",43.390534888930326,-124.24099922147843
"97423","Coquille","OR","McKay's","400-498 N Alder St","97423",43.187011413393805,-124.18965608187183
"97423","Coquille","OR","McKay's","418 8th St","97458",43.063733,-124.139905
"97423","Coquille","OR","Safeway","725 Ash St","97458",43.0659065246582,-124.13929748535156
"97423","Coquille","OR","Safeway","155 E 1st St","97423",43.17439199010379,-124.18732748196817
"97424","Cottage Grove","OR","Walmart Supercenter","901 Row River Rd","97424",43.800290654899925,-123.0427696196182
"97424","Cottage Grove","OR","Safeway","1500 E Main St","97424",43.798268,-123.0518825
"97424","Cottage Grove","OR","Grocery Outlet","200 Gateway Boulevard","97424",43.798606872558594,-123.04843139648438
"97424","Cottage Grove","OR","Eastside Market & Laundromat","3075 Row River Rd","97424",43.795442,-123.035633
"97424","Cottage Grove","OR","Paul's Bottle Shop","not_available","97424",43.797244626956235,-123.05974871811904
"97424","Cottage Grove","OR","Cottage Market","603 S 5th St","97424",43.792308,-123.063278
"97424","Cottage Grove","OR","Grocery Outlet","200 Gateway Blvd","97424",43.798534000000004,-123.047554
"97429","Days Creek","OR","Strong's Market","11245 Tiller Trail Hwy","97429",42.9709953,-123.1629678
"97430","Deadwood","OR","Swiss Home General Store","13298 Highway 36","97480",44.05743781754158,-123.80619857589468
"97431","Dexter","OR","The Bridge Town Market","105 N Moss St","97452",43.92014931666667,-122.7837775
"97438","Fall Creek","OR","Jasper Market","36763 Jasper Lowell Rd","97438",43.99764588789757,-122.90403699288899
"97439","Florence","OR","Fred Meyer","4701 Highway 101","97439",44.00746904588475,-124.10331687750647
"97439","Florence","OR","Grocery Outlet","2066 Hywy 101","97439",43.9847158,-124.0993573
"97439","Florence","OR","Safeway","700 Highway 101","97439",43.97300451038143,-124.10311639906169
"97441","Gardiner","OR","Safeway","1499 Highway 101 S","97467",43.699151,-124.1120359
"97441","Gardiner","OR","Price N' Pride","1300 Winchester Ave","97467",43.69945731333023,-124.10881519317627
"97444","Gold Beach","OR","McKays Market","29656 Ellensburg Ave","97444",42.41232799579698,-124.4212613143178
"97444","Gold Beach","OR","Ray's","29540-29562 U.S. 101","97444",42.40979957,-124.42085802555084
"97444","Gold Beach","OR","Blissful Coffee and More","29975 Harbor Way","97444",42.4212591,-124.4189488
"97446","Harrisburg","OR","Safeway","1755 Ivy St","97448",44.2294085,-123.2063766
"97446","Harrisburg","OR","Grocery Outlet","94582 Highway 99 East","97448",44.231754302978516,-123.20462799072266
"97446","Harrisburg","OR","4 Him Food Group LLC","120 W 1st Ave","97448",44.215396881103516,-123.2015609741211
"97448","Junction City","OR","Dari Mart","230 S 5th St","97456",44.314673,-123.297496
"97450","Langlois","OR","Langlois Market","48444 Highway 101","97450",42.92764940811652,-124.45011952596573
"97457","Myrtle Creek","OR","Grocery Outlet","130 Petite Street","97457",42.972459,-123.338601
"97457","Myrtle Creek","OR","Ray's Food Place","909 S Main St","97457",43.015107683070745,-123.29210927816108
"97457","Myrtle Creek","OR","Ray's Food Place","4601 Carnes Rd","97471",43.14719072551995,-123.38006054967892
"97457","Myrtle Creek","OR","Grocery Outlet","151 Nw Douglas Blvd.","97496",43.1227402,-123.4154238
"97462","Oakland","OR","Price Less Foods","811 E Central Ave","97479",43.393018,-123.301239
"97463","Oakridge","OR","Ray's Food Place","not_available","97463",43.745086,-122.466516
"97463","Oakridge","OR","Rascals","47393 Willamette Hwy","not_available",43.7475974,-122.4924406
"97465","Port Orford","OR","Ray's Foods","1555 Oregon St","97465",42.7506581104683,-124.49811624075033
"97465","Port Orford","OR","Natural Grocery","not_available","97465",42.745744,-124.497199
"97470","Roseburg","OR","Fred Meyer","929 NW Garden Valley Blvd","97471",43.227968,-123.368498
"97470","Roseburg","OR","Walmart Supercenter","2125 Nw Stewart Pkwy","97471",43.23533176551209,-123.3694224502603
"97470","Roseburg","OR","Safeway","1539 NE Stephens St","97470",43.2292752,-123.3495781
"97470","Roseburg","OR","Sherm's Thunderbird","2553 NW Stewart Pkwy","97471",43.23810484565919,-123.367893759064
"97470","Roseburg","OR","Grocery Outlet","930 W Harvard Ave","97471",43.2144537,-123.3595795
"97470","Roseburg","OR","Southgate Market","1967 SE Stephens St","97470",43.19650481072924,-123.35255941331874
"97470","Roseburg","OR","Colony Market","not_available","97471",43.22674136985015,-123.37706690242622
"97470","Roseburg","OR","Albertsons","3013 NW Stewart Pkwy","97471",43.2394143,-123.3641253
"97470","Roseburg","OR","Anderson Market & Deli","559-565 W Harrison St","97471",43.21422302126158,-123.36122441028684
"97470","Roseburg","OR","New Day Quality Groceries (Organic And Natural Foods)","not_available","97470",43.21362335,-123.33749022
"97470","Roseburg","OR","1 A.M. Market","NE Stephens St","97470",43.23250472545624,-123.35023635
"97470","Roseburg","OR","Vape Lyfestyle LLC","1943 SE Stephens St","97470",43.196754,-123.3521679
"97470","Roseburg","OR","Lyfestyle Vapkrew","1461 SE Stephens","97470",43.2021835,-123.3508796
"97470","Roseburg","OR","Short Cut Market","NE Winchester Street","97470",43.21667957326313,-123.34200905337403
"97471","Roseburg","OR","Lookingglass Store","7378 Lookingglass Rd","97471",43.18432352281814,-123.4861628387907
"97477","Springfield","OR","Walmart Supercenter","2659 Olympic St","97477",44.05737145847938,-122.98805287082428
"97477","Springfield","OR","Fred Meyer","650 Q St","97477",44.063552,-123.0185233
"97477","Springfield","OR","Grocery Outlet","160 S 14th St","97477",44.0450726,-123.0061885
"97477","Springfield","OR","Safeway","1891 Pioneer Pkwy E","97477",44.0633164,-123.0237174
"97477","Springfield","OR","WinCo Foods","1920 Olympic St","97477",44.060885415771686,-122.99579298026772
"97477","Springfield","OR","Albertsons","2000 Marcola Rd","97477",44.0654776,-122.9949064
"97477","Springfield","OR","Walmart Neighborhood Market","2730 Gateway Street","97477",44.070127432049844,-123.04640901367358
"97477","Springfield","OR","Walmart Grocery Pickup","2730 Gateway St","97477",44.0725820729832,-123.042552155474
"97477","Springfield","OR","FullHouse Lifestyle shop","679 West Centennial Boulevard","97477",44.056055,-123.0361168
"97477","Springfield","OR","Underground E-Juice","103 South 21st St","97478",44.0456,-122.99418
"97477","Springfield","OR","save-a-lot","4223 42nd st","97478",44.044891357421875,-122.96183013916016
"97478","Springfield","OR","Albertsons","5755 S Main St","97478",44.044169423941405,-122.92760387824273
"97478","Springfield","OR","John's Gas & Groceries","5390 Main St","97478",44.046051025390625,-122.93508911132812
"97487","Veneta","OR","Ray's Food Place","25013 Highway 126","97487",44.055097834355976,-123.35356293004564
"97487","Veneta","OR","Grocery Outlet","25110 Jeans Road","97487",44.05498123168945,-123.35176086425781
"97488","Vida","OR","Vida Market","45632 McKenzie Hwy","97488",44.14678925231892,-122.57362656893854
"97498","Yachats","OR","C & K Market","231 Coast Hwy N","97498",44.31132775225562,-124.10410169633211
"97501","Medford","OR","Fred Meyer","2424 Crater Lake Hwy","97504",42.3522766,-122.8713783
"97501","Medford","OR","Walmart Supercenter","1360 Center Dr","97501",42.31032429313022,-122.85636461917676
"97501","Medford","OR","Food 4 Less","2230 Biddle Rd","97504",42.34912307520989,-122.87190677221648
"97501","Medford","OR","Trader Joe's","55 Rossanley Dr","97501",42.34365739205055,-122.88177497030404
"97501","Medford","OR","Fred Meyer","1301 Center Dr","97501",42.314423,-122.8558524
"97501","Medford","OR","WinCo Foods","251 E Barnett Rd","97501",42.31773319302156,-122.86070823669434
"97501","Medford","OR","Safeway","3169 Crater Lake Hwy","97504",42.3626251,-122.8586044
"97501","Medford","OR","Cartwright’s Market - Medford","745 W Stewart Ave","97501",42.3123447,-122.87860339999997
"97501","Medford","OR","Safeway","1003 Medford Ctr","97504",42.3333033,-122.8638152
"97501","Medford","OR","Ray's Food Place","401 N 5th St","97530",42.316231270589,-122.9649196154342
"97501","Medford","OR","Medford Food Co-Op","945 S Riverside Ave","97501",42.31778460388118,-122.86340171378473
"97501","Medford","OR","Grocery Outlet","35 East Stewart Avenue","97501",42.3140508,-122.8600109
"97501","Medford","OR","Ray's Food Place","735 Main St","97535",42.279452495721664,-122.82216688808779
"97501","Medford","OR","Albertsons","113 N Ross Ln","97501",42.3251341,-122.9007147
"97501","Medford","OR","Quality Market","1211 E Jackson St","97504",42.331671,-122.856439
"97501","Medford","OR","Sherm's Thunderbird Market","2347 W Main St","97501",42.32264685778771,-122.90088382164929
"97501","Medford","OR","Natural Grocers","1990 N Pacific Hwy","97501",42.34728863176431,-122.88372478783599
"97501","Medford","OR","stop n shop market","not_available","97501",42.348567962646484,-122.89776611328125
"97501","Medford","OR","Stewart Market","1135 Lozier Ln","97501",42.312427,-122.899304
"97501","Medford","OR","Asia Market","225 E Barnett Rd","97501",42.31759866383665,-122.86242979116425
"97501","Medford","OR","White's Country Farm","3939 W Main St","97501",42.323211,-122.933419
"97501","Medford","OR","HealthWay Nutrition Center","845 Medford Ctr","97504",42.334389,-122.86783500000001
"97502","Central Point","OR","Walmart Supercenter","3615 Crater Lake Hwy","97504",42.36683475314555,-122.85895181109264
"97502","Central Point","OR","Rainey's Corner","4865 Highway 234","97503",42.504459381103516,-122.89984893798828
"97502","Central Point","OR","Smart Foodservice Warehouse Stores","2033 Cardinal Ave.","97504",42.36970475002036,-122.86122901838512
"97502","Central Point","OR","Ray's Food Place","868 2nd Ave.","97525",42.431681635861786,-123.05502630795691
"97502","Central Point","OR","Grocery Outlet","not_available","97503",42.426238,-122.851116
"97502","Central Point","OR","Ray's Food Place","11100 Crater Lake Hwy","97524",42.4712971980834,-122.81143057981532
"97502","Central Point","OR","The Buthcher Shop","1532 S Shasta Ave","97524",42.46008,-122.816474
"97502","Central Point","OR","Walmart Supercenter","11500 Hannon Rd","97524",42.46981773,-122.8135872
"97502","Central Point","OR","Flying Eagle Market","14406 Highway 62","97524",42.516684999999995,-122.811723
"97502","Central Point","OR","Price Less Foods","7251 Crater Lake Hwy","97503",42.42149353027344,-122.85356903076172
"97502","Central Point","OR","Albertsons","1360 Plaza Blvd","97502",42.3764685,-122.9042452
"97502","Central Point","OR","Mark-It 62","8380 Crater Lake Hwy","97503",42.43832778930664,-122.83746337890625
"97502","Central Point","OR","Grocery Outlet","7571 Highway 62, Bldg #1","97503",42.426553,-122.8507813
"97503","White City","OR","Shady Cove Market","22111 Highway 62","97539",42.618789284232136,-122.81047110318227
"97504","Medford","OR","Albertsons","910 N Phoenix Rd","97504",42.3169082,-122.8150952
"97504","Medford","OR","Taste Of The Orient","205 Fern Valley Rd","97535",42.282842983033525,-122.8179460507895
"97520","Ashland","OR","Safeway","585 Siskiyou Blvd","97520",42.1934195,-122.7062893
"97520","Ashland","OR","Ashland Food Cooperative","237 N 1st St","97520",42.198705425289845,-122.71164431499149
"97520","Ashland","OR","Albertsons","2301 Ashland St","97520",42.1865357,-122.6708955
"97520","Ashland","OR","Market of Choice","1475 Siskiyou Blvd","97520",42.18470369169709,-122.68915720976644
"97520","Ashland","OR","Shop'n Kart","2268 Ashland St","97520",42.18434135471585,-122.67285306167804
"97523","Cave Junction","OR","Diggin' Livin' Natural Foods, Farm, & Eatery","143 S. Redwood Highway","97523",42.16586,-123.6458
"97523","Cave Junction","OR","Shop Smart","205 Watkins St","97523",42.163817362764924,-123.64797061815494
"97523","Cave Junction","OR","Kerbymart","not_available","97523",42.194597125053406,-123.6495566368103
"97523","Cave Junction","OR","Grocery Outlet Bargain Market","330 S Redwood Hwy","97523",42.16346740722656,-123.64705657958984
"97523","Cave Junction","OR","Grocery Outlet","330 S. Redwood Highway","97523",42.16346740722656,-123.64705657958984
"97525","Gold Hill","OR","Ray's Food Place","506 E Main St","97537",42.431594,-123.164027
"97525","Gold Hill","OR","Wimer Market","8816 E Evans Creek Rd","97537",42.538494,-123.149371
"97526","Grants Pass","OR","Walmart Supercenter","135 Ne Terry Ln","97526",42.43530343,-123.3016205
"97526","Grants Pass","OR","Fred Meyer","1101 Grants Pass Pkwy","97526",42.4357397,-123.3054237
"97526","Grants Pass","OR","Safeway","115 E 7th St","97526",42.4387456,-123.3246483
"97526","Grants Pass","OR","Cartwright's Market","825 Union Ave","97527",42.42149548105707,-123.34746614902566
"97526","Grants Pass","OR","Safeway","1640 Williams Hwy","97527",42.4210493,-123.3363461
"97526","Grants Pass","OR","WinCo Foods","231 NE Terry Lane","97526",42.437354,-123.30061699999999
"97526","Grants Pass","OR","Albertsons","1690 Allen Creek Rd","97527",42.4195689,-123.3528147
"97526","Grants Pass","OR","Grocery Outlet","350 Ne Agness Avenue","97526",42.4354244,-123.300337
"97526","Grants Pass","OR","Ray's Food Place","3500 Merlin Rd","97526",42.496952,-123.36908799999999
"97526","Grants Pass","OR","Ray's Food Place","not_available","97527",42.427579,-123.330946
"97526","Grants Pass","OR","Lil Pantry, Merlin, Or","not_available","97526",42.437523,-123.420176
"97526","Grants Pass","OR","Gooseberries","1201 Redwood Ave","97527",42.421826,-123.351022
"97526","Grants Pass","OR","Gooseberries Real Food Market & Deli","1533 NE F St","97526",42.435089111328125,-123.31067657470703
"97526","Grants Pass","OR","SOUTHERN OREGON RENTALS","825 NE F St","97526",42.43810625,-123.31518496
"97526","Grants Pass","OR","Albertsons","340 NE Beacon Dr","97526",42.43878377663994,-123.30855418393381
"97527","Grants Pass","OR","Hidden Valley Market","7200 Williams Hwy","97533",42.337930888153274,-123.33277659207519
"97530","Jacksonville","OR","Ruch Country Store","7350 Highway 238","97530",42.239907,-123.036596
"97540","Talent","OR","Ray's Food Place","215 E Wagner St","97540",42.243629,-122.78770300000001
"97540","Talent","OR","Hwy 99 Market & Deli","102 S Pacific Hwy","97540",42.245174,-122.784138
"97601","Klamath Falls","OR","Fred Meyer","2655 Shasta Way","97603",42.2158048,-121.7559601
"97601","Klamath Falls","OR","Walmart Supercenter","3600 Washburn Way","97603",42.19356824609334,-121.75982745404237
"97601","Klamath Falls","OR","Family Food Center","135 S 1st Ave","not_available",42.575576743480305,-121.86329038973828
"97601","Klamath Falls","OR","Thunderbird Market","1877 Avalon St","97603",42.21148316221986,-121.75291508528493
"97601","Klamath Falls","OR","Smart Foodservice Warehouse Stores","2805 Maywood Dr","97603",42.20152,-121.75882
"97601","Klamath Falls","OR","Grocery Outlet","4333 S 6th Street","97603",42.2072754,-121.7356935
"97601","Klamath Falls","OR","Sherm's Thunderbird","1877 AVALON ST","not_available",42.21028137207031,-121.75296783447266
"97601","Klamath Falls","OR","Rocky point general store","29869 West HWY 140","97601",42.43663368650024,-122.08831787109375
"97601","Klamath Falls","OR","Greenway Ecomart","249 E Main St","97601",42.22637939453125,-121.76824188232422
"97601","Klamath Falls","OR","Lake Of The Woods General Store","not_available","97603",42.378593,-122.21173
"97603","Klamath Falls","OR","Albertsons","5500 S 6th St","97603",42.2056695,-121.7201415
"97623","Bonanza","OR","Malin's Farmers Market","Broadway","97632",42.01099991798401,-121.40810966491699
"97630","Lakeview","OR","Safeway","244 N F St","97630",42.191838,-120.3454392
"97633","Merrill","OR","Stateline General Store & Liquor","17608 Stateline Rd","96135",41.998329162597656,-121.55836486816406
"97638","Silver Lake","OR","Silver Lake Grocery","not_available","97638",43.127715,-121.049965
"97638","Silver Lake","OR","Silver Lake Mercantile & Motel","65554 Highway 31","97638",43.12717056274414,-121.0498275756836
"97701","Bend","OR","Newport Avenue Market","1121 NW Newport Ave","97703",44.06189778520718,-121.32835726289657
"97701","Bend","OR","Safeway","320 SW Century Dr","97702",44.0471572,-121.3296966
"97701","Bend","OR","Fred Meyer","61535 S Highway 97","97702",44.0341559,-121.3090168
"97701","Bend","OR","Walmart Supercenter","20120 Pinebrook Blvd","97702",44.02327480225844,-121.31733282715334
"97701","Bend","OR","Walmart Supercenter","300 Nw Oaktree Ln","97756",44.29224195621342,-121.17072905304065
"97701","Bend","OR","Ray's Food Place","635 N Arrowleaf Trail","97759",44.296679124500386,-121.56233435527562
"97701","Bend","OR","Sunriver Country Store","57100 Mall Dr","97707",43.872435316267996,-121.43686349285674
"97701","Bend","OR","Fred Meyer","944 SW 9th St","97756",44.2676322,-121.1767909
"97701","Bend","OR","Safeway","2650 NE Highway 20","97701",44.0577934,-121.2646382
"97701","Bend","OR","Albertsons","1800 NE 3rd St","97701",44.0681035,-121.3015211
"97701","Bend","OR","Food 4 Less","63455 N Highway 97","97703",44.09957422469938,-121.30285860480656
"97701","Bend","OR","Safeway","1705 S Highway 97","97756",44.2604817,-121.1792476
"97701","Bend","OR","Trader Joe's","63455 N Hwy 97","97701",44.09903196317523,-121.30257781878643
"97701","Bend","OR","Safeway","642 NE 3rd St","97701",44.0563953,-121.301045
"97701","Bend","OR","C.E. Lovejoy's Brookswood Market","19530 Amber Meadow Dr","97702",44.009611818063576,-121.34545254823792
"97701","Bend","OR","Sunriver Marketplace","18160 Cottonwood Rd","97707",43.89820338611291,-121.41811207672333
"97701","Bend","OR","Whole Foods Market","2610 Ne Hwy 20","97701",44.05643063698992,-121.26601376551073
"97701","Bend","OR","Grocery Outlet","1951 Ne 3rd Street","97754",44.3039998,-120.822981
"97701","Bend","OR","Albertsons","61155 S Hwy 97","97702",44.021039,-121.3179977
"97701","Bend","OR","Natural Grocers","31888 Hwy 97 Suite 115","97703",44.08163845321822,-121.30364466096276
"97701","Bend","OR","Bi-Mart","351 NE 2nd St","97701",44.05348208656662,-121.30506499215811
"97701","Bend","OR","Grocery Outlet","694-b Se Third Street","97702",44.043667,-121.3011814
"97701","Bend","OR","Erickson's Thriftway Market","315 NW 3rd St","97754",44.30308728799665,-120.84983418883843
"97701","Bend","OR","Grocery Outlet","798 Nw 5th St","97756",44.2835541,-121.1728907
"97701","Bend","OR","Smart Foodservice Warehouse Stores","1500 Ne 3rd St","97701",44.06534419564151,-121.30221712182329
"97701","Bend","OR","Wagner's IGA Market","930 N Main St","97754",44.30835475228403,-120.84706292384602
"97701","Bend","OR","Ray's","1535 NE 3rd St","97754",44.303830050158176,-120.82910191832029
"97701","Bend","OR","Dvdxpress, Sunriver Country Store(Kiosk#863)","57100 Beaver Dr.","97707",43.873844146728516,-121.43592071533203
"97701","Bend","OR","Colima","not_available","97701",44.060333251953125,-121.30326843261719
"97701","Bend","OR","Tortilleria Reyes","1155 SW Division St","97702",44.037454,-121.306448
"97702","Bend","OR","Produce Patch","220 SE Willow Ln","97702",44.045936584472656,-121.3033676147461
"97702","Bend","OR","Love Handles","not_available","97702",44.00959,-121.34559
"97702","Bend","OR","Bend Courier Company","105 SW Hayes Ave","97702",44.03653335571289,-121.30906677246094
"97720","Burns","OR","Safeway","246 W Monroe St","97720",43.5867474,-119.0571873
"97720","Burns","OR","Grocery Outlet","627 Hwy 20 N.","97738",43.5726813,-119.0736973
"97720","Burns","OR","Ericksons Thriftway","13011 Highway 20 N","97720",43.648006439208984,-118.61890411376953
"97720","Burns","OR","Jiffy Mart","not_available","97720",43.583694,-119.064391
"97733","Crescent","OR","Gilchrist Mall Grocery & Deli","138303 Highway 97 N","97737",43.47754339064579,-121.68706099188513
"97734","Culver","OR","Safeway","80 NE Cedar St","97741",44.643775,-121.1279016
"97734","Culver","OR","Thriftway","561 SW 4th St","97741",44.627959999999995,-121.13016699999999
"97734","Culver","OR","Grocery Outlet","1537 Sw Hwy 97","97741",44.6134914,-121.1344092
"97739","La Pine","OR","Corner Store","not_available","97739",43.70304096956854,-121.52664090944809
"97739","La Pine","OR","Grocery Outlet","51420 Us-97, Suite 200","97739",43.6678219,-121.5050021
"97739","La Pine","OR","Shop Smart","51370 Highway 97","97739",43.665844647975895,-121.5065220854834
"97750","Mitchell","OR","Lone elk market","not_available","97830",44.826746747772454,-119.84735071256505
"97754","Prineville","OR","Grocery Bandit","not_available","97754",44.313198,-120.86962199999999
"97754","Prineville","OR","Alfalfa Store","26161 Willard Rd","97701",44.07711410522461,-121.0189208984375
"97756","Redmond","OR","Terrebonne Thriftway","8431 11th St","97760",44.353278166837235,-121.17815559989809
"97756","Redmond","OR","Albertsons","1655 SW Odem Medo","97756",44.25327687242892,-121.18593582042102
"97756","Redmond","OR","food 4 less","not_available","97756",44.29231262207031,-121.1767578125
"97756","Redmond","OR","Fred Meyer Grocery Pickup and Delivery","944 SW Veterans Way","97756",44.26737976074219,-121.17721557617188
"97801","Pendleton","OR","Walmart Supercenter","2203 Sw Court Ave","97801",45.6681601553386,-118.80878161490406
"97801","Pendleton","OR","Safeway","201 SW 20th St","97801",45.6660675,-118.8076674
"97801","Pendleton","OR","Grocery Outlet","1810 Sw Court Avenue","97801",45.6665266,-118.8044066
"97801","Pendleton","OR","Smart Foodservice Warehouse Stores","4228 Westgate","97801",45.675146000000005,-118.83618600000001
"97801","Pendleton","OR","G & R Sari-Sari Store","1610 SW Emigrant Ave","97801",45.66569900512695,-118.80158996582031
"97801","Pendleton","OR","Southgate Mini-Mart","701-799 Southgate","97801",45.658489,-118.80956499999999
"97801","Pendleton","OR","Walmart Grocery Pickup","2203 SW Court Ave","97801",45.6663702684564,-118.808046979866
"97814","Baker City","OR","Safeway","1205 Campbell St","97814",44.780883,-117.8189918
"97814","Baker City","OR","Grocery Outlet","297 Campbell Street","97814",44.78376007080078,-117.80814361572266
"97814","Baker City","OR","The Geographic Center of the 50 United States","50281 Hwy 203","97814",45.0083073858381,-117.64315698828113
"97814","Baker City","OR","Albertsons","1120 Campbell St","97814",44.7835409,-117.8189523
"97814","Baker City","OR","Angie’s Gold Post","150 Mill St","not_available",44.744508,-118.201549
"97814","Baker City","OR","Bi-mart","not_available","97814",44.78333498729102,-117.81571697636261
"97818","Boardman","OR","Select Market","not_available","97818",45.83166215760317,-119.70122378674253
"97828","Enterprise","OR","Safeway","601 W North St","97828",45.4276392,-117.2859468
"97828","Enterprise","OR","joseph family food","not_available","97828",45.42287395367029,-117.28033750778793
"97828","Enterprise","OR","Wallowa Food City","302 E 1st St","97885",45.569856,-117.52654
"97834","Halfway","OR","Old Pine Market","not_available","97834",44.877088,-117.109068
"97836","Heppner","OR","Heppner Family Foods","217 N Main St","97836",45.355020162144996,-119.55322002500557
"97838","Hermiston","OR","Safeway","990 S Highway 395","97838",45.832633500590326,-119.28596466779709
"97838","Hermiston","OR","Walmart Supercenter","1350 N 1st St","97838",45.85073304616949,-119.28736480372214
"97838","Hermiston","OR","Columbia Harvest Foods","1411 6th St","97882",45.918995,-119.334975
"97838","Hermiston","OR","Grocery Outlet","1875 N 1st St Ste E","97838",45.856353759765625,-119.29146575927734
"97838","Hermiston","OR","Harvest Foods","5th St","97882",45.91824588891237,-119.33475633992418
"97838","Hermiston","OR","Eastside Market","582 E Main St","97838",45.84021,-119.28195
"97838","Hermiston","OR","Fiesta Foods","395","97838",45.85606515146263,-119.29126593692874
"97838","Hermiston","OR","Grocery Outlet","1875 N 1st Street, Suite E","97838",45.856353759765625,-119.29146575927734
"97845","John Day","OR","Chester’s Markets","not_available","97845",44.420306,-118.960662
"97850","La Grande","OR","Walmart Supercenter","11619 Island Ave","97850",45.335639967379386,-118.05883321164664
"97850","La Grande","OR","Safeway","2111 Adams Ave","97850",45.3213548,-118.081101
"97850","La Grande","OR","Grocery Outlet","11301 Island Avenue","97850",45.3372196,-118.0565076
"97850","La Grande","OR","Nature's Pantry","1907 4th St","97850",45.32880522295673,-118.09627096189952
"97850","La Grande","OR","Union Market","not_available","97883",45.209434841792735,-117.86606949900855
"97856","Long Creek","OR","Long Creek General Store","not_available","97856",44.714,-119.103523
"97862","Milton Freewater","OR","Safeway","455 N Columbia St","97862",45.9405942,-118.3879116
"97862","Milton Freewater","OR","SuperMex","not_available","97862",45.937961886060606,-118.38787343457302
"97864","Monument","OR","Boyer's Cash Store","335 John Day St","97864",44.81930160522461,-119.42080688476562
"97880","Ukiah","OR","Rhodes Supply","202 E. Main St.","97880",45.13376998901367,-118.93077087402344
"97913","Nyssa","OR","M & W Markets","424 Main St","97913",43.877439,-116.998484
"97914","Ontario","OR","Albertsons","1410 Westpark Plaza","97914",44.0235564,-116.9838772
"97914","Ontario","OR","Walmart Supercenter","1775 E Idaho Ave","97914",44.02591478,-116.9394377
"97914","Ontario","OR","Albertsons","405 S Main St","83661",44.07016242405431,-116.9340991973877
"97914","Ontario","OR","ridley's","652 E 1st St","83672",44.24866926,-116.9675624370575
"97914","Ontario","OR","Red Apple Store","301-399 SW 5th St","97914",44.024455791438974,-116.9706211779585
"97914","Ontario","OR","Logan's","not_available","97918",43.98313903808594,-117.2352294921875
"97914","Ontario","OR","Grocery Outlet Bargain Market","2670 SW 4th Ave","97914",44.02482639999999,-117.0023657
"97914","Ontario","OR","PanaderÃ­a Estrella","192 SW 2nd Ave","97914",44.025017,-116.965711
"97914","Ontario","OR","Grocery Outlet","2670 Southwest 4th Avenue","97914",44.0244957,-117.0021266
