"zip","city","state","name","address","postalCode","lat","lon"
"53002","Allenton","WI","Nature's Garden","6901-7099 Wisconsin 175","53002",43.44627472,-88.392287
"53005","Brookfield","WI","Pick 'n Save","12735 W Capitol Dr","53005",43.0871,-88.0706848
"53005","Brookfield","WI","Fresh Thyme Farmers Market","17300 W Bluemound Rd","53045",43.0375695,-88.1275365
"53005","Brookfield","WI","Trader Joe's","12665 W. Bluemound Rd","53005",43.03571375087599,-88.07039035046951
"53005","Brookfield","WI","Pick 'n Save","17295 W Capitol Dr","53045",43.0887629,-88.1268158
"53005","Brookfield","WI","Piggly Wiggly","2315 N 124th St","53005",43.060485841295936,-88.0679876060334
"53005","Brookfield","WI","Pick 'n Save","15170 W Greenfield Ave","53005",43.0176277,-88.101654
"53005","Brookfield","WI","Sendik's Elm Grove","13425 Watertown Plank Rd","53122",43.04187347202015,-88.0783600426156
"53005","Brookfield","WI","Pick 'n Save","2205 N Calhoun Rd","53005",43.058823,-88.1286621
"53005","Brookfield","WI","Sendik's Food Market","13950 W North Ave","53005",43.06095648450832,-88.08530530892811
"53005","Brookfield","WI","Hampton apartment country Store","not_available","not_available",43.10417556762695,-88.07477569580078
"53006","Brownsville","WI","Hoff’s Red Owl & Quality Meats","617 Main St.","53006",43.61627209986721,-88.49191359104606
"53010","Campbellsport","WI","Piggly Wiggly","940 Fond du Lac Ave","53040",43.512719125603105,-88.22169569776291
"53010","Campbellsport","WI","Piggly Wiggly","450 Grandview Ave","53010",43.602420806884766,-88.27970886230469
"53010","Campbellsport","WI","Piggly Wiggly","450 Grandview Avenue","53010",43.60085000333505,-88.28492651775426
"53010","Campbellsport","WI","Zahn's Trading Post","W476 County Rd SS","53010",43.615838,-88.179104
"53012","Cedarburg","WI","Sendik's Food Market","2195 1st Ave","53024",43.30266828347291,-87.9659974928283
"53012","Cedarburg","WI","Pick 'n Save","301 Falls Rd","53024",43.30805155922899,-87.96178670259906
"53012","Cedarburg","WI","Piggly Wiggly","W61 N286 Washington Ave","53012",43.28600527935304,-87.98547104459642
"53012","Cedarburg","WI","Slow Pokes Local Food","1229 12th Ave","53024",43.318943,-87.95188399999999
"53012","Cedarburg","WI","Piggly Wiggly","PO Box 349","53012",43.303070068359375,-88.00494384765625
"53013","Cedar Grove","WI","Piggly Wiggly","PO Box 298","53013",43.566375732421875,-87.83036041259766
"53013","Cedar Grove","WI","Piggly Wiggly","240 N Commerce St","53013",43.575382,-87.817723
"53014","Chilton","WI","New Holstein Piggly Wiggly","2243 Calumet Dr","53061",43.95467041261312,-88.1067040638393
"53014","Chilton","WI","Walmart Grocery Pickup","810 S Irish Rd","53014",44.023776,-88.142416
"53018","Delafield","WI","Albrecht's Sentry","3255 Golf Rd","53018",43.05294929706469,-88.36522841583964
"53018","Delafield","WI","Walmart Supercenter","2863 Heritage Dr","53018",43.04928746506908,-88.3695624168115
"53020","Elkhart Lake","WI","The Feedmill Market","not_available","53020",43.83388374980623,-88.0188215629066
"53022","Germantown","WI","Walmart Supercenter","W190n9855 Appleton Ave","53022",43.19626,-88.14586401
"53022","Germantown","WI","Sendik's Food Market","N112 W15800 Mequon Rd","53022",43.22204747499289,-88.10522956938728
"53022","Germantown","WI","Pick 'n Save","N112 W16200 Mequon Rd","53022",43.2220549,-88.1102309
"53022","Germantown","WI","Piggly Wiggly","1234 Richfield Square","53033",43.23424258288899,-88.18430549906992
"53022","Germantown","WI","ALDI","N96 W18838 County Line Rd","53022",43.1929839,-88.1434101
"53022","Germantown","WI","Gingers Discounts","W196N11378 Shadow Wood Dr","53022",43.224433,-88.15266629999999
"53022","Germantown","WI","Piggly Wiggly","1234 State Road 175","53033",43.234336853027344,-88.18383026123047
"53024","Grafton","WI","Meijer","1600 N Port Washington Rd","53024",43.3141588,-87.9218913
"53024","Grafton","WI","ALDI","1120 N Port Washington Rd","53024",43.321868939137396,-87.92420263912405
"53027","Hartford","WI","Walmart Supercenter","1220 Theil St","53027",43.3248499215677,-88.40033706132378
"53027","Hartford","WI","Piggly Wiggly","1566 E Sumner St","53027",43.31886548532698,-88.3506749808056
"53027","Hartford","WI","Walmart","919-923 Wheelock Ave","53027",43.31281093801294,-88.37285086243408
"53027","Hartford","WI","ALDI","1589 E Sumner St","53027",43.316697186123506,-88.3501477615664
"53029","Hartland","WI","Sendik's Food Market","600 Hartbrook Dr","53029",43.11063814711316,-88.3349442705076
"53029","Hartland","WI","Pick 'n Save","3161 Village Square Dr","53029",43.103178221614506,-88.36520165204996
"53029","Hartland","WI","Pick 'n Save","601 Ryan St","53072",43.09458243687712,-88.2773619890213
"53029","Hartland","WI","Piggly Wiggly","505 Cottonwood Ave","53029",43.09724044799805,-88.3491439819336
"53029","Hartland","WI","Pick 'n Save Grocery Pickup and Delivery","3161 Village Square Drive","53029",43.103152370544834,-88.36520390670498
"53029","Hartland","WI","Health & Happiness Natural Foods","230 Pawling Ave","53029",43.100648,-88.350325
"53032","Horicon","WI","Mayville Piggly Wiggly","1440 Horicon St","53050",43.495392062002864,-88.56336145748948
"53035","Iron Ridge","WI","Back to the Best","W1969 County Rd N","53078",43.33871078491211,-88.49596405029297
"53037","Jackson","WI","Piggly Wiggly","W194N16774 Eagle Dr","53037",43.32293110279513,-88.14921220151997
"53037","Jackson","WI","Piggly Wiggly","W194 N16774 Eagle Drive","53037",43.31988525390625,-88.16300201416016
"53039","Juneau","WI","Piggly Wiggly","100 S Western Ave","53039",43.40664398162338,-88.7127295232521
"53042","Kiel","WI","K & M Piggly Wiggly","80 E Park Ave","53042",43.92128913961885,-88.02433249278532
"53044","Kohler","WI","Woodlake Market","795 Woodlake Rd Ste A","53044",43.74471710994871,-87.78103397380868
"53045","Brookfield","WI","Metro Market","17630 W Bluemound Rd","53045",43.03778774082082,-88.1322625431676
"53045","Brookfield","WI","Sendik's Fine Foods","18985 W Capitol Dr","53045",43.08828177707388,-88.14768337463106
"53045","Brookfield","WI","Sendik's Food Market","20222 Lower Union St","53045",43.03536192205746,-88.16409953947054
"53045","Brookfield","WI","ALDI","19555 W Bluemound Rd","53045",43.0352238,-88.1557064
"53045","Brookfield","WI","Sri Gayathri Foods","19035 W Bluemound Rd Ste 7","53045",43.035415788083455,-88.14896428502188
"53045","Brookfield","WI","Health Hut","19035 W Bluemound Rd","53045",43.03551200449049,-88.14889895626597
"53045","Brookfield","WI","HRS Client","not_available","53045",43.035651,-88.156197
"53048","Lomira","WI","Piggly Wiggly","325 East Ave","53048",43.58469922489859,-88.43355646334868
"53049","Malone","WI","Ray's Handy Wipes","N10759 Hwy 151","53049",43.931799,-88.30409
"53050","Mayville","WI","Piggly Wiggly","PO Box 33","53050",43.49920654296875,-88.54652404785156
"53051","Menomonee Falls","WI","Pick 'n Save","N77 W14435 Appleton Avenue","53051",43.1586966,-88.0905677
"53051","Menomonee Falls","WI","Metro Market","N95 W18351 County Line Road","53051",43.1900294,-88.1369021
"53051","Menomonee Falls","WI","Fresh Thyme Farmers Market","N89W16849 Appleton Ave.","53051",43.179995052717274,-88.11979025602335
"53051","Menomonee Falls","WI","Peiffer's Piggly Wiggly","N81 W15182 Appleton Ave","53051",43.166707577449,-88.09898107140076
"53051","Menomonee Falls","WI","ALDI","N80W12540 Leon Rd","53051",43.163549,-88.0656566
"53051","Menomonee Falls","WI","Falls Area Food Pantry","N85W15382 Menomonee River Pkwy","53051",43.1739616394043,-88.10185241699219
"53051","Menomonee Falls","WI","Karl's Country Market","W156N5645 Pilgrim Rd","53051",43.12011064129836,-88.10598145387955
"53051","Menomonee Falls","WI","Pick N Save Liquor","not_available","53051",43.158565543182455,-88.09072255461334
"53051","Menomonee Falls","WI","Thai Asian Market LLC","N56W14108 Silver Spring Dr","53051",43.11973190307617,-88.08598327636719
"53066","Oconomowoc","WI","Pick 'n Save","1300 Pabst Farms Cir","53066",43.07593332360092,-88.469286923482
"53066","Oconomowoc","WI","Piggly Wiggly","1300 Brown St","53066",43.127296489464236,-88.46238467099191
"53066","Oconomowoc","WI","Pick 'n Save","36903 E Wisconsin Ave","53066",43.105831723177474,-88.47736358642578
"53066","Oconomowoc","WI","Brownberry Outlet","300 E Summit Ave","53066",43.10741858689962,-88.49478621998239
"53066","Oconomowoc","WI","ALDI","1521 Unity Dr","53066",43.08283350059035,-88.4715324640274
"53066","Oconomowoc","WI","Pick 'n Save Grocery Pickup and Delivery","N48 W36903 E. Wisconsin Ave.","53066",43.105847,-88.477369
"53066","Oconomowoc","WI","picknsave","not_available","53066",43.12120864329677,-88.50034919042865
"53070","Oostburg","WI","Piggly Wiggly","944 Center Avenue","53070-1354",43.62413026523392,-87.79787375984775
"53070","Oostburg","WI","General Store","not_available","53085",43.652191315418555,-87.82787373193112
"53070","Oostburg","WI","Mentink's Market","118 N 9th St","53070",43.62529656221692,-87.79552459716797
"53072","Pewaukee","WI","Metro Market","2160 Silvernail Rd","53072",43.04438984660622,-88.26091468334198
"53072","Pewaukee","WI","Walmart","411 Pewaukee Rd","53072",43.08779195173614,-88.22789901164097
"53072","Pewaukee","WI","Meijer","N51 W 24953 Lisbon Rd","53072",43.11083446725728,-88.2424987136746
"53072","Pewaukee","WI","Pick 'n Save","1405 Capitol Dr","53072",43.08519056075396,-88.22946996531533
"53072","Pewaukee","WI","ALDI","1201 George Towne Dr","53072",43.0845204,-88.2402543
"53072","Pewaukee","WI","Good Harvest Market","2205 Silvernail Rd","53072",43.04340275957803,-88.26280338774609
"53073","Plymouth","WI","Walmart Supercenter","428 Walton Dr","53073",43.751749571943314,-87.9451592473706
"53073","Plymouth","WI","Piggly Wiggly","1411 Eastern Ave","53073",43.746713321034534,-87.96421546090708
"53073","Plymouth","WI","Piggly Wiggly","PO Box 205","53073",43.75027847290039,-87.98002624511719
"53073","Plymouth","WI","Pick 'n Save","2643 Eastern Ave","53073",43.7464927255992,-87.9487806558609
"53074","Port Washington","WI","Walmart Supercenter","825 E Green Bay Ave","53080",43.383577007637626,-87.92399173293623
"53074","Port Washington","WI","Piggly Wiggly","810 E Green Bay Ave","53080",43.38545342680227,-87.92431648937213
"53074","Port Washington","WI","Piggly Wiggly","101 W Seven Hills Rd","53074",43.409724,-87.872217
"53081","Sheboygan","WI","Walmart Supercenter","3711 S Taylor Dr","53081",43.71526945921347,-87.7546793238073
"53081","Sheboygan","WI","Meijer","not_available","53081",43.754488,-87.752709
"53081","Sheboygan","WI","Pick 'n Save","1317 N 25th St","53081",43.75915805484508,-87.73806901308495
"53081","Sheboygan","WI","Festival Foods","595 S Taylor Dr","53081",43.75055005891068,-87.74595877483695
"53081","Sheboygan","WI","Piggly Wiggly","3124 S Business Dr","53081",43.72255841356663,-87.73913625408933
"53081","Sheboygan","WI","Save-A-Lot","1817 N 8th St","53081",43.76446959877909,-87.71247192475563
"53081","Sheboygan","WI","Fischer's Food and Liquor","4554 S 12th St","53081",43.70230410275353,-87.7209908073104
"53081","Sheboygan","WI","ALDI","919 S Taylor Dr","53081",43.7446148,-87.7428524
"53081","Sheboygan","WI","Pick 'n Save","2625 S Business Dr","53081",43.72612712085136,-87.73254258706845
"53081","Sheboygan","WI","Lucky Star","2919 S 12th St","53081",43.723397,-87.719369
"53081","Sheboygan","WI","Natures Best","837 Riverfront Dr Ste 100","53081",43.74537,-87.711577
"53081","Sheboygan","WI","Brockmans Meat Market","not_available","1708 s 12th",43.73552395584449,-87.72017904168902
"53081","Sheboygan","WI","Union Oriental Market","2022 S 17th St","53081",43.732642,-87.728595
"53081","Sheboygan","WI","Toy's Grocery Store","1922 N 15th St","53081",43.765623,-87.72484200000001
"53081","Sheboygan","WI","Park N Save","not_available","53083",43.77124353452892,-87.75376986749616
"53081","Sheboygan","WI","Jose's Mexican Super Market","1332 S 13th St","53081",43.74019241333008,-87.72171020507812
"53083","Sheboygan","WI","Walmart Supercenter","4433 Vanguard Dr","53083",43.79265720146953,-87.76729077995415
"53083","Sheboygan","WI","Bill's Piggly Wiggly","714 S Wisconsin Dr","53083",43.827013542643726,-87.824294894688
"53083","Sheboygan","WI","Piggly wiggly","2905 N 15th St","53083",43.77627131317414,-87.7230383401093
"53085","Sheboygan Falls","WI","Piggly Wiggly","1166 Fond du Lac Ave","53085",43.7341248146254,-87.82458152626256
"53086","Slinger","WI","Piggly Wiggly","1100 E Commerce Blvd","53086",43.325417962339536,-88.26481046458396
"53089","Sussex","WI","Pick 'n Save","N65 W24838 Main St.","53089",43.137413383441555,-88.24059116071317
"53089","Sussex","WI","Piggly Wiggly","N63 W23735 Main St","53089",43.133503525789685,-88.21942258151705
"53089","Sussex","WI","Piggly Wiggly","N63 W23735 Main Street","53089",43.1502571105957,-88.23374938964844
"53090","West Bend","WI","Pick 'n Save","2518 W Washington St","53095",43.42891606802797,-88.21699162290884
"53090","West Bend","WI","Sendik's Food Market","280 N 18th Ave","53095",43.42566577936467,-88.20239982354292
"53090","West Bend","WI","Piggly Wiggly","2575 E Washington St.","53095",43.425792038264504,-88.14570115903302
"53090","West Bend","WI","Piggly Wiggly","2575 East Washington Street","53095",43.425540924072266,-88.1456069946289
"53090","West Bend","WI","La Mexicana. Grocery","400-598 Wisconsin 144","53090",43.42801360990462,-88.18547556689752
"53090","West Bend","WI","Rie's Sausage Plus, Spirits Meat and Deli","not_available","53095",43.426431504820705,-88.19641082722725
"53092","Mequon","WI","Sendik's Food Market","10930 N Port Washington Rd","53092",43.216763125811084,-87.92267907737197
"53092","Mequon","WI","Metro Market","11558 N Port Washington Rd","53092",43.2283258,-87.9217652
"53092","Mequon","WI","Piggly Wiggly","6111 W Mequon Rd","53092",43.2208630107343,-87.98457603029782
"53092","Mequon","WI","Outpost Natural Foods","7590 W Mequon Rd","53092",43.22207853055613,-88.00313126562321
"53094","Watertown","WI","Walmart Supercenter","1901 Market Way","53094",43.1623178,-88.73102906
"53094","Watertown","WI","Pick 'n Save","624 S Church St","53094",43.18826091019262,-88.73153609658169
"53094","Watertown","WI","ALDI","1520 S Church St","53094",43.17759918836072,-88.7321104185412
"53094","Watertown","WI","Breselow's Family Market","100 E Cady St","53094",43.19684626099177,-88.7232156153442
"53095","West Bend","WI","Meijer","2180 S Main St","53095",43.39430507342227,-88.18412065498705
"53095","West Bend","WI","Meijer","2180 S. Main Street","53095",43.3936803,-88.1812946
"53095","West Bend","WI","Pick 'n Save","1629 S Main St","53095",43.3999218,-88.1804983
"53095","West Bend","WI","ALDI","1114 S Main St","53095",43.40599077722186,-88.18215832875467
"53095","West Bend","WI","Walmart Grocery Pickup","1515 W Paradise Dr","53095",43.3978453125,-88.196525625
"53098","Watertown","WI","Piggly Wiggly","1330 Memorial Dr","53098",43.20221697413582,-88.7007650828584
"53098","Watertown","WI","Breslows","not_available","53098",43.19824551680899,-88.72835936228627
"53103","Big Bend","WI","Big Bend Corner Market","230 Clark St","53103",42.884373934958504,-88.20877507090049
"53105","Burlington","WI","Walmart Supercenter","201 S Edwards Blvd","53147",42.591141891507384,-88.41181700078953
"53105","Burlington","WI","Walmart Supercenter","1901 Milwaukee Ave","53105",42.70315681296643,-88.25414004357242
"53105","Burlington","WI","Pick 'n Save","1008 Milwaukee Ave","53105",42.68921982683156,-88.26500505208969
"53105","Burlington","WI","Piggly Wiggly","100 E Geneva Sq","53147",42.60595584304519,-88.42376285843784
"53105","Burlington","WI","Pick 'n Save","515 N Milwaukee St","53185",42.7700386,-88.2029266
"53105","Burlington","WI","Gooseberries Fresh Food Market","690 W State St","53105",42.6741371533636,-88.29752889943522
"53105","Burlington","WI","Richter's Marketplace","not_available","53181",42.5374918140252,-88.24595601474368
"53105","Burlington","WI","Piggly Wiggly","3238 Main St","53120",42.78448066049571,-88.42265487378859
"53105","Burlington","WI","ALDI","2009 Lynch Way","53105",42.70270313329019,-88.2492790588608
"53105","Burlington","WI","ALDI","200 N Edwards Blvd","53147",42.59099327540599,-88.41462135314941
"53105","Burlington","WI","Burlington Health Foods","165 E Chestnut St","53105",42.67990026920562,-88.27672281417294
"53105","Burlington","WI","Beachview Grocery","not_available","53105",42.623986315924526,-88.27823054330915
"53105","Burlington","WI","Lakeside Country Store","Lakeshore Drive","not_available",42.54382933415946,-88.35347065711521
"53105","Burlington","WI","Richter's Marketplace","156 S Pine St","53105",42.676176,-88.271745
"53105","Burlington","WI","Lyons Grocery","6054-6098 N Railroad St","53105",42.65186011791229,-88.35768453
"53108","Caledonia","WI","roudys","not_available","53126",42.78810501098633,-87.95275115966797
"53110","Cudahy","WI","Pick 'n Save","4698 S Whitnall Ave","53235",42.9607418688435,-87.87605044236102
"53110","Cudahy","WI","pick and save parking lot","not_available","53235",42.96018321828055,-87.87660691332788
"53110","Cudahy","WI","Grange Food Market","2916 E Grange Ave","53110",42.944907,-87.873779
"53114","Darien","WI","Sorg's Quality Meats and Sausages","N4290 US Highway 14","53114",42.64525477972125,-88.74207239351917
"53115","Delavan","WI","Walmart Supercenter","1819 E Geneva St","53115",42.629990422306705,-88.61253506676509
"53115","Delavan","WI","Piggly Wiggly","58 W Market St","53121",42.69245845606585,-88.54315074561113
"53115","Delavan","WI","Supermercado America","28 S. Washington St","53121",42.6705198452563,-88.5424006289143
"53115","Delavan","WI","Piggly Wiggly","1414 E Geneva St","53115",42.625582475892976,-88.62402139582714
"53115","Delavan","WI","Sentry Foods","not_available","53121",42.72131038289505,-88.54204927588474
"53115","Delavan","WI","ALDI","2027 E Geneva St","53115",42.62862300968639,-88.60717154520898
"53121","Elkhorn","WI","Casey's General Store","454 E Geneva St","53121",42.670571972086634,-88.53375986496816
"53121","Elkhorn","WI","B&D Grocery","Plank Rd","53121",42.6816605599462,-88.49738610263972
"53126","Franksville","WI","Max's Supermarket","3303 County Road H","53126",42.76089859008789,-87.91401672363281
"53128","Genoa City","WI","Genoa City Foods","716 Walworth St","53128",42.498607,-88.33066099999999
"53129","Greendale","WI","Walmart Supercenter","5301 S. 76th St","53129",42.94785976946311,-88.01081935014307
"53130","Hales Corners","WI","Pick 'n Save","5800 S 108th St","53130",42.938965,-88.046152
"53130","Hales Corners","WI","Festival Foods","5600 S 108th St","53130",42.943081,-88.047326
"53130","Hales Corners","WI","Sendik's Fresh To Go","5101 S 108th St","53130",42.951491,-88.048514
"53130","Hales Corners","WI","Dolly Madison (Hostess)","10920 W Forest Home Ave","53130",42.934951,-88.050521
"53132","Franklin","WI","Walmart Supercenter","6701 S 27th St","53132",42.923670630158355,-87.95239824984121
"53132","Franklin","WI","Sendik's Food Market","5200 W Rawson Ave","53132",42.91698137523019,-87.98156343745859
"53132","Franklin","WI","Pick 'n Save","7201 S 76th St","53132",42.9139956,-88.012355
"53132","Franklin","WI","Pick 'n Save","7780 S Lovers Lane Rd","53132",42.9034584,-88.0361318
"53132","Franklin","WI","Gordon Food Service Store","6919 S 27th St","53132",42.919757820317884,-87.95051336288452
"53139","Kansasville","WI","sentry","not_available","53182",42.674556732177734,-88.07976531982422
"53140","Kenosha","WI","Tenuta's Italian Grocery & Delicatessen","3203 52nd St","53144",42.5880045355382,-87.848469418811
"53140","Kenosha","WI","Pick 'n Save","2811 18th St","53140",42.62315599662801,-87.84448027610779
"53140","Kenosha","WI","Piggly Wiggly","2801 14th Pl","53140",42.63084279955723,-87.84410412735868
"53140","Kenosha","WI","Harbor View Groceries","5710 4th Ave","53140",42.58409118652344,-87.8164291381836
"53140","Kenosha","WI","Roundy's","not_available","53140",42.58235168457031,-87.81836700439453
"53140","Kenosha","WI","San Luis Grocery Store","1824 52nd St","53140",42.588208,-87.831942
"53142","Kenosha","WI","Woodman's Food Market","7145 120th Ave.","53142",42.56981342583555,-87.94876710674389
"53142","Kenosha","WI","Festival Foods","3207 80th St","53142",42.55715940499164,-87.8478460725833
"53142","Kenosha","WI","Meijer","7701 Green Bay Rd","53142",42.563820097929955,-87.88521766662598
"53142","Kenosha","WI","Pick 'n Save","5710 75th St","53142",42.56846369599964,-87.87714332363981
"53142","Kenosha","WI","Piggly Wiggly","7600 Pershing Blvd","53142",42.56458744805641,-87.85873056328558
"53142","Kenosha","WI","Fresh Thyme Farmers Market","7100 Green Bay Rd","53142",42.5705162,-87.8867638
"53142","Kenosha","WI","La Canasta Supermarket","39th Avenue","53142",42.5813915586634,-87.85526562494402
"53142","Kenosha","WI","On Break At Work","not_available","53142",42.557354,-87.849769
"53142","Kenosha","WI","Truesdell Mini Mart","not_available","53158",42.56618521020865,-87.91160226739392
"53142","Kenosha","WI","ALDI","6404 75th St","53142",42.567592052416934,-87.88497358560562
"53143","Kenosha","WI","Piggly Wiggly","2215 80th St","53143",42.55753885539593,-87.83612896124372
"53143","Kenosha","WI","Pick 'n Save","1901 63rd St","53143",42.57568938114798,-87.83207641184589
"53143","Kenosha","WI","PicknSave","63rd St, Kenosha, WI 53143","53143",42.57427053265897,-87.84205627665243
"53144","Kenosha","WI","Walmart Supercenter","3500 Brumback Blvd","53144",42.60525258,-87.8834796
"53144","Kenosha","WI","Festival Foods","6000 31st St","53144",42.61153811288689,-87.87999272346495
"53144","Kenosha","WI","ALDI","3524 57th Ave","53144",42.60513520637387,-87.87717674603272
"53144","Kenosha","WI","Piggly Wiggly","3500 52nd St","53144",42.5897102355957,-87.85060119628906
"53144","Kenosha","WI","Piggly Wiggly","3408 52nd St","53144",42.59021623395469,-87.85161774365461
"53144","Kenosha","WI","Los Corrales","3933-52nd St","53144",42.587867975234985,-87.85677
"53144","Kenosha","WI","Safeway","not_available","53144",42.6486273,-87.856836
"53147","Lake Geneva","WI","Roses Fresh Market","not_available","53147",42.59507220161234,-88.435156478369
"53149","Mukwonago","WI","Pick 'n Save","1010 N Rochester St","53149",42.875030725664594,-88.33658537053486
"53149","Mukwonago","WI","Walmart Supercenter","250 Wolf Run","53149",42.85416412325654,-88.31462513254507
"53149","Mukwonago","WI","ALDI","111 Wolf Run","53149",42.84888428077763,-88.31738401719667
"53150","Muskego","WI","Pick 'n Save","S74 W17005 Janesville Rd","53150",42.90812499987194,-88.12600226732684
"53150","Muskego","WI","Walmart Supercenter","W159s6530 Moorland Rd","53150",42.92674392900152,-88.11008599621131
"53150","Muskego","WI","ALDI","S69 W15361 Janesville Rd","53150",42.918985883534106,-88.1061002612114
"53150","Muskego","WI","Piggly Wiggly","W189 S7847 Racine Ave","53150",42.90259304036955,-88.1519798665269
"53151","New Berlin","WI","Walmart Supercenter","15205 West Greenfield Avenue","53151",43.01471935170099,-88.10400400363052
"53151","New Berlin","WI","Sendik's Food Market","3600 S Moorland Rd","53151",42.97907635133776,-88.10721176453156
"53151","New Berlin","WI","Pick 'n Save","15445 W National Ave","53151",42.9748684742455,-88.10612163558199
"53151","New Berlin","WI","Pick 'n Save","13995 W National Ave","53151",42.9848323,-88.0876565
"53154","Oak Creek","WI","Meijer","171 W Town Square Way","53154",42.8983602,-87.9147489
"53154","Oak Creek","WI","Meijer Pharmacy","171 W. Town Square Way","53154",42.898962463859164,-87.91498572551242
"53154","Oak Creek","WI","Woodmans","8131 S Howell Ave","53154",42.896474430389006,-87.91497571163836
"53154","Oak Creek","WI","Walmart Supercenter","222 N Chicago Ave","53172",42.927637281356446,-87.86268940038427
"53154","Oak Creek","WI","Woodman's Produce Department","not_available","53154",42.89645382316316,-87.91476054909617
"53154","Oak Creek","WI","Pick 'n Save","6462 S 27th St","53154",42.927427,-87.9476292
"53154","Oak Creek","WI","Pick 'n Save","2320 W Ryan Rd","53154",42.8741832,-87.9476018
"53154","Oak Creek","WI","Pick 'n Save","8770 S Howell Ave","53154",42.8849648,-87.909664
"53154","Oak Creek","WI","Piggly Wiggly","2201 E Rawson Ave","53154",42.914701057412465,-87.8834164579099
"53154","Oak Creek","WI","Pick 'n Save","2931 S. Chicago Avenue","53172",42.902753329654466,-87.86326110363007
"53154","Oak Creek","WI","ALDI","410 W Drexel Ave","53154",42.90184871045876,-87.91833731779099
"53154","Oak Creek","WI","ALDI","3105 S Chicago Ave","53172",42.900107,-87.8640538
"53154","Oak Creek","WI","ALDI","6810 S 27th St","53154",42.92149693590304,-87.94890940189356
"53154","Oak Creek","WI","break room pns","6462 S 27th St, Oak Creek, WI 53154","53154",42.92761937525268,-87.94809696302916
"53156","Palmyra","WI","Jim & Judy's","117 w. Taft st","53156",42.87870734993019,-88.58615297720966
"53168","Salem","WI","Lakeside Foods","25300 75th St","53168",42.56936708978272,-88.11431050300598
"53177","Sturtevant","WI","McLane Food Service","1906 Grandview Pkwy","53177",42.71315315567689,-87.96229319539125
"53182","Union Grove","WI","Piggly Wiggly","4400 67th Dr","53182",42.68186730184243,-88.03497938823115
"53183","Wales","WI","Pick 'n Save","405 N Wales Rd","53183",43.0102252440424,-88.38507409673184
"53184","Walworth","WI","Daniels Foods Sentry","681 Kenosha St.","53184",42.529795308077816,-88.5860117955879
"53186","Waukesha","WI","Woodmans","1600 E. Main St.","53186",43.02180775193637,-88.20375992098984
"53186","Waukesha","WI","Meijer","801 E Sunset Dr","53189",42.986883,-88.2195213
"53186","Waukesha","WI","Pick 'n Save","220 E Sunset Dr","53189",42.989370674192884,-88.22233244776726
"53186","Waukesha","WI","Panos Fruit Market","426 W Sunset Dr","53189",42.98860292092097,-88.23543952075815
"53186","Waukesha","WI","Super Mexico","900 Arcadian Ave","53186",43.01311492919922,-88.2164077758789
"53186","Waukesha","WI","Shaklee Products Distributor","808 Madison St","53188",43.014007,-88.242615
"53186","Waukesha","WI","ALDI","1663 Arcadian Ave","53186",43.01312798590165,-88.20190774044022
"53186","Waukesha","WI","HRS Client","not_available","53186",43.01403573499218,-88.19910176220307
"53186","Waukesha","WI","Mary-Jane’s","335 W Main St","53186",43.0111096,-88.2326352
"53186","Waukesha","WI","Bon Mini Mart","904 Arcadian Ave","53186",43.013034999999995,-88.216352
"53188","Waukesha","WI","Pick 'n Save","1220 W Sunset Dr","53189",42.99157069965147,-88.25781138273669
"53188","Waukesha","WI","Sendik's Food Market","701 Meadowbrook Rd","53188",43.02187948894339,-88.2844805961994
"53188","Waukesha","WI","ALDI","2210 W Saint Paul Ave","53188",42.99179458618164,-88.26641845703125
"53188","Waukesha","WI","picknsave","not_available","53189",43.015712564894706,-88.25811700160901
"53188","Waukesha","WI","Sentry Foods","2304 W Saint Paul Ave","53188",42.989481000162215,-88.2681794005522
"53189","Waukesha","WI","Walmart Supercenter","2000 S West Ave","53189",42.97998481,-88.23796283
"53190","Whitewater","WI","Walmart Supercenter","1362 W Main St","53190",42.83602038352259,-88.75658467916718
"53190","Whitewater","WI","McCain Foods","801 W Rockwell Ave","53538",42.9160264344495,-88.84985550674236
"53190","Whitewater","WI","Groc","not_available","53190",42.8377346,-88.7170652
"53202","Milwaukee","WI","Metro Market","1123 N Van Buren St","53202",43.0449885,-87.9042049
"53202","Milwaukee","WI","Pick 'n Save","1100 E Garfield Ave","53212",43.0593132,-87.8971339
"53202","Milwaukee","WI","Pick 'n Save","605 E Lyon St","53202",43.04902843142195,-87.90400671844162
"53202","Milwaukee","WI","Whole Foods Market","2305 N. Prospect Ave","53211",43.06037552258971,-87.88385443024093
"53202","Milwaukee","WI","Fresh Thyme Farmers Market","470 E Pleasant St","53202",43.0511898,-87.9063531
"53202","Milwaukee","WI","Tropic Banana","300 N Van Buren St","53202",43.03457759753336,-87.90230269093018
"53202","Milwaukee","WI","Good Harvest Market","346 N Broadway","53202",43.034901,-87.907026
"53202","Milwaukee","WI","Maurer's Urban Market","777 N. Van Buren St","53202",43.040203,-87.90318
"53204","Milwaukee","WI","Cermak Fresh Market","1236 S Barclay St","53204",43.01869396862171,-87.90952617374124
"53204","Milwaukee","WI","El Rey Super Foods","916 S Cesar E Chavez Dr","53204",43.02173971280233,-87.93269004552526
"53204","Milwaukee","WI","El Rey Food Mart","1320 W Burnham St","53204",43.01085467514854,-87.92878388655971
"53204","Milwaukee","WI","Tropicana","1011 S 5th St","53204",43.0208,-87.917105
"53204","Milwaukee","WI","Campesino","635 W Greenfield Ave, Milwaukee, WI 53204","53204",43.016851,-87.919296
"53204","Milwaukee","WI","Layton foods","not_available","53204",43.01873,-87.94778
"53204","Milwaukee","WI","Carniceria El Indio Grocery","1709 S Muskego Ave","53204",43.009721910136555,-87.93520234101274
"53204","Milwaukee","WI","Garden Of Eden","1003 W Historic Mitchell St","53204",43.012035,-87.92451700000001
"53204","Milwaukee","WI","National Food Mart","530 W National Ave","53204",43.023455,-87.917825
"53204","Milwaukee","WI","La Hacienda","820 S Cesar E Chavez Dr","53204",43.022407,-87.932748
"53204","Milwaukee","WI","6950 w state sr wauwatosa,wis","not_available","53208",43.014448101044366,-87.91256661229495
"53204","Milwaukee","WI","El Indio","2009-2011 W Mitchell St","53204",43.01217635,-87.93826618333334
"53204","Milwaukee","WI","Karen Supermarket","not_available","53215",43.023418,-87.947854
"53205","Milwaukee","WI","L&A Foods","2631 W Vliet St","53205",43.048439,-87.947286
"53205","Milwaukee","WI","Save A Lot","2322 W Oak St","53206",43.062607,-87.942055
"53205","Milwaukee","WI","Lena's Food Mart","2232 w. Oak St","53206",43.06234559601452,-87.94213457993374
"53205","Milwaukee","WI","Food Castle","not_available","53205",43.04856783687599,-87.92785237342441
"53205","Milwaukee","WI","Galst Foods","1622 W North Ave","53205",43.060696,-87.93341600000001
"53206","Milwaukee","WI","De Lexus Food Mart","1200 W Keefe Ave","53206",43.08184051513672,-87.92630767822266
"53206","Milwaukee","WI","Magic Foods","2879 N 16th St","53206",43.071228000000005,-87.933493
"53206","Milwaukee","WI","Sparkle Foods","2526 W Hopkins St","53206",43.08060829596385,-87.94578614929578
"53207","Milwaukee","WI","Pick 'n Save","250 W Holt Ave","53207",42.984049938820874,-87.91295975446701
"53207","Milwaukee","WI","Outpost Natural Foods","2826 S Kinnickinnic Ave","53207",42.993843150152976,-87.89180527888446
"53207","Milwaukee","WI","G. Groppi Food Market","1441 E Russell Ave","53207",42.99868165155174,-87.89035407296194
"53207","Milwaukee","WI","Piggly Wiggly","123 W Oklahoma Ave","53207",42.986180795957864,-87.9101766832493
"53207","Milwaukee","WI","Morelia's Market","2107 S 6th St","53215",43.006263,-87.918929
"53207","Milwaukee","WI","The Paradirs Shop","not_available","53207",42.94786334037781,-87.90253937244415
"53208","Milwaukee","WI","Pick 'n Save","2355 N 35th St","53210",43.06194899479978,-87.95909911394119
"53208","Milwaukee","WI","Viet Hoa Supermarket","4900 W North Ave","53208",43.0607614420561,-87.974826412444
"53208","Milwaukee","WI","Asia Market","813 N 27th St","53208",43.040759,-87.94816999999999
"53208","Milwaukee","WI","C & S Vliet Supermarket","2729 W Vliet St","53208",43.048401,-87.948585
"53208","Milwaukee","WI","Market Mobile","714 N 27th St","53208",43.038970947265625,-87.94756317138672
"53209","Milwaukee","WI","Trader Joe's","5600 N Port Washington Rd","53217",43.11930713993852,-87.91616066018412
"53209","Milwaukee","WI","Pick 'n Save","9200 N Green Bay Rd","53209",43.18484756043543,-87.9626573156566
"53209","Milwaukee","WI","Pick 'n Save","1735 W Silver Spring Dr","53209",43.1180852,-87.9317641
"53209","Milwaukee","WI","The Hot Spot Supermarket","2643 W Atkinson Ave","53209",43.096484599203016,-87.94659861417153
"53209","Milwaukee","WI","ALDI","5301 N Hopkins St","53209",43.114240208832,-87.96565688628101
"53209","Milwaukee","WI","Villard Foodtown","3217 W Villard Ave","53209",43.111252,-87.95374
"53209","Milwaukee","WI","Burbach's Food Market","5308 W Hampton Ave","53218",43.10487303792058,-87.97909223239502
"53209","Milwaukee","WI","Delta Southern Groceries","3511 W Villard Ave","53209",43.111674,-87.95675
"53209","Milwaukee","WI","Piggly Wiggly","4061 N 54th St","53216",43.091481330709705,-87.98136395150688
"53209","Milwaukee","WI","Save-A-Lot","6201B N Teutonia Ave","53209",43.13059932565908,-87.95414182314698
"53210","Milwaukee","WI","Sentry","7101 W Lisbon Ave","53210",43.07450731987112,-88.00047405483073
"53210","Milwaukee","WI","Lena's Food Market","4623 W Burleigh St","53210",43.074967,-87.97197299999999
"53210","Milwaukee","WI","Dream Foods","not_available","53210",43.068085,-87.961266
"53210","Milwaukee","WI","Walter's Grocery Store","3821 W Locust St","53210",43.071377,-87.961624
"53210","Milwaukee","WI","Corner Store","3060 N 40th St","53210",43.074725,-87.962963
"53210","Milwaukee","WI","Kosher Meat Klub","4731 W Burleigh St","53210",43.07520521507138,-87.97303635774081
"53211","Milwaukee","WI","Metro Market","4075 N Oakland Ave","53211",43.091632621222566,-87.88776037981734
"53211","Milwaukee","WI","Walmart Supercenter","401 E Capitol Dr","53212",43.08801913689472,-87.90609895499591
"53211","Milwaukee","WI","Sendik's on Downer","2643 N Downer Ave","53211",43.067123200862774,-87.87822054574896
"53211","Milwaukee","WI","ALDI","225 E Capitol Dr","53212",43.088812067222854,-87.90890157222748
"53211","Milwaukee","WI","Sunrise Foods","2879 N Weil St","53212",43.071074281159696,-87.89936606459503
"53211","Milwaukee","WI","Shiraz Persian Market","2864 N Oakland Ave","53211",43.070896999999995,-87.88754399999999
"53211","Milwaukee","WI","Sendik’s on Oakland","4027 N Oakland Ave","53211",43.089988354575624,-87.88768155668487
"53211","Milwaukee","WI","Piggly Wiggly","709 E Capitol Dr","53212",43.08826482146998,-87.90210013169346
"53211","Milwaukee","WI","Lena's Food Market","526 E Concordia Ave","53212",43.078651,-87.904258
"53211","Milwaukee","WI","K D Supermarket","418 E Center St","53212",43.067766999999996,-87.905828
"53211","Milwaukee","WI","Community Food Store","3334 N Holton St","53212",43.079221999999994,-87.904744
"53211","Milwaukee","WI","Woodmans","1099 S Grand Ave","53590",43.164552,-89.266924
"53212","Milwaukee","WI","Outpost Natural Foods","100 E Capitol Dr","53212",43.08957654898973,-87.91017335837832
"53212","Milwaukee","WI","Penny Saver","510 W Vine St","53212",43.054032,-87.917684
"53212","Milwaukee","WI","Best Foods","not_available","53212",43.06282991864587,-87.91394312110491
"53213","Milwaukee","WI","Pick 'n Save","8151 W Bluemound Rd","53213",43.035403513994794,-88.01436066627502
"53213","Milwaukee","WI","Metcalfe's Market","6700 W State St","53213",43.04629112823267,-87.99601938622598
"53213","Milwaukee","WI","Sendik's Food Market","8616 W North Ave","53226",43.060676554559386,-88.02027397183495
"53213","Milwaukee","WI","Outpost Natural Foods","7000 W State St","53213",43.047901981929414,-87.99987356596627
"53213","Milwaukee","WI","Metro Market Grocery Pickup and Delivery","6950 W State St","53213",43.047550201416016,-87.9986572265625
"53214","Milwaukee","WI","Pick 'n Save","6760 W National Ave","53214",43.014678573663666,-87.9970520656795
"53214","Milwaukee","WI","Walmart Supercenter","4140 W Greenfield Ave","53215",43.01858848544133,-87.96542677470997
"53214","Milwaukee","WI","Walmart Neighborhood Market","7025 W Main St","53214",43.025510200061944,-88.00105489654617
"53214","Milwaukee","WI","Cermak Fresh Market","1401 Miller Park Way","53214",43.01429459784801,-87.96935820196134
"53214","Milwaukee","WI","El Rey Market","3524 W Burnham St","53215",43.01076606260432,-87.9584965336565
"53214","Milwaukee","WI","ALDI","1441 S 35th St","53215",43.01574034240432,-87.95788407325745
"53214","Milwaukee","WI","ALDI","1712 S 108th St","53214",43.01107976773943,-88.04475288095091
"53214","Milwaukee","WI","Asian International Market","3401 W National Ave","53215",43.02159953950776,-87.95667073845914
"53214","Milwaukee","WI","Grecian Imports","1530 S 84th St","53214",43.01327133178711,-88.01676177978516
"53214","Milwaukee","WI","White Trash Grocery Cache","6700-6832 W National Ave","53214",43.014564514160156,-87.9974627494812
"53215","Milwaukee","WI","Walmart Supercenter","3355 S 27th St","53215",42.98402443,-87.95010567
"53215","Milwaukee","WI","Pick 'n Save","2201 Miller Park Way","53219",43.0050277,-87.9695024
"53215","Milwaukee","WI","Gordon Food Service Store","2064 Miller Park Way","53219",43.00846611072553,-87.9672082797963
"53215","Milwaukee","WI","Natural Food Shop","3048 S 13th St","53215",42.98897962410215,-87.92870940886611
"53215","Milwaukee","WI","A&J Polish Deli","1215 W Lincoln Ave","53215",43.00288098128084,-87.92778984823879
"53215","Milwaukee","WI","Yadanarmon Superstore","3512","53215",42.983599899999994,-87.94678768
"53215","Milwaukee","WI","ALDI","1325 W Cleveland Ave","53215",42.995241183604726,-87.92959348128534
"53215","Milwaukee","WI","Attari Super Market","3042 S 13th St","53215",42.98919895963239,-87.92880516599483
"53215","Milwaukee","WI","Sharewi Warehouse","13111","53219",42.98745793333333,-87.96823123333333
"53216","Milwaukee","WI","Pick 'n Save","5700 W Capitol Dr","53216",43.0916006,-87.9840755
"53216","Milwaukee","WI","Vienna Mini Mart","not_available","53216",43.08601494745088,-87.96188174723433
"53216","Milwaukee","WI","Chu Hai Oriental Market","7510 W Appleton Ave","53216",43.092193,-88.005487
"53216","Milwaukee","WI","ALDI","6700 W Capitol Dr","53216",43.09042218431597,-87.99612700939178
"53217","Milwaukee","WI","Sendik's Food Market","500 E Silver Spring Dr","53217",43.118801459653206,-87.9037243169376
"53217","Milwaukee","WI","Pick 'n Save","6969 N Port Washington Rd","53217",43.14251610916535,-87.91359309325412
"53217","Milwaukee","WI","ALDI","6825 N Port Washington Rd","53217",43.1423907,-87.9129748
"53217","Milwaukee","WI","Sendik's Food Market","340 W Brown Deer Rd","53217",43.17713202176653,-87.91214024617625
"53218","Milwaukee","WI","Save-A-Lot","4821 N 76th St","53218",43.10547104377592,-88.00705668643621
"53218","Milwaukee","WI","Pacific Produce","not_available","53225",43.105721097967674,-88.0166525352864
"53218","Milwaukee","WI","Foodtown","6608 W Fond du Lac Ave","53218",43.10434138671948,-87.99388013230296
"53218","Milwaukee","WI","Silver Spring Food Town","6350 W Silver Spring Dr","53218",43.12464711233115,-87.99258801739411
"53218","Milwaukee","WI","ALDI","7601 W Villard Ave","53218",43.11294243134757,-88.00688864932562
"53218","Milwaukee","WI","Kilimanjaro Grocery Store","6730 W Villard Ave","53218",43.112390999999995,-87.99584200000001
"53219","Milwaukee","WI","Rupena's Fine Foods","7641 W Beloit Rd","53219",42.996326567502116,-88.0082849103705
"53219","Milwaukee","WI","El Rey","5200 W Oklahoma Ave","53219",42.9887848928922,-87.97898630630117
"53219","Milwaukee","WI","ALDI","5811 W Oklahoma Ave","53219",42.987882048422186,-87.98621198753608
"53219","Milwaukee","WI","Save-A-Lot","7540 W Oklahoma Ave","53219",42.989135,-88.006694
"53219","Milwaukee","WI","West Allis Liquor & Food Mart","5909 W Lincoln Ave","53219",43.002626,-87.986515
"53219","Milwaukee","WI","Paul's Wearhouse","not_available","53219",43.00640869140625,-87.98222351074219
"53219","Milwaukee","WI","Villager Food Mart-Morgan","6730 W Morgan Ave","53220",42.981375867675006,-87.99748672646095
"53220","Milwaukee","WI","Meijer","5800 W Layton Ave","53220",42.9608579,-87.9865363
"53220","Milwaukee","WI","Sendik's Food Market","7901 W Layton Ave","53220",42.95817190822459,-88.01193252833528
"53220","Milwaukee","WI","ALDI","4615 W Layton Ave","53220",42.95895162979914,-87.97221483068847
"53221","Milwaukee","WI","Al-Asalah Food Pantry","855 W Layton Ave","53221",42.958413,-87.923005
"53221","Milwaukee","WI","Pick 'n Save","3701 S 27th St","53221",42.977635327194534,-87.95036852359772
"53221","Milwaukee","WI","Amanah Food Market","1301 W Edgerton Ave","53221",42.95155888774743,-87.92966138814344
"53221","Milwaukee","WI","Pacific Produce","5455 S 27th St","53221",42.94548529450629,-87.94988073722699
"53221","Milwaukee","WI","Europa Grocery Store","5316 S 27th St","53221",42.948167,-87.94829
"53221","Milwaukee","WI","Myanmar Asian Market","3875 S 27th St","53221",42.974556,-87.949028
"53222","Milwaukee","WI","Meijer","11111 W Burleigh St","53222",43.07360984921376,-88.05248558521271
"53222","Milwaukee","WI","Whole Foods Market","11100 W Burleigh Street","53222",43.07559235976828,-88.05178795945858
"53222","Milwaukee","WI","Sentry","9210 W Lisbon Ave","53222",43.08569358045732,-88.02852467806001
"53222","Milwaukee","WI","ALDI","12120 W Burleigh St","53222",43.0759225,-88.0647039
"53222","Milwaukee","WI","Meijer","11111 W. Burleigh","53222",43.073036,-88.050673
"53223","Milwaukee","WI","Walmart Supercenter","6300 W Brown Deer Rd","53223",43.17860066580394,-87.98833547130842
"53223","Milwaukee","WI","Pick 'n Save","7401 W Good Hope Rd","53223",43.1470849,-88.0023146
"53223","Milwaukee","WI","ALDI","6720 W Brown Deer Rd","53223",43.1783766,-87.9930939
"53223","Milwaukee","WI","Rice 'n Spice","6814 W Brown Deer Rd","53223",43.178535,-87.99533000000001
"53223","Milwaukee","WI","Save-A-Lot","6410 N 76th St","53223",43.13530731201172,-88.00513458251953
"53225","Milwaukee","WI","Walmart Supercenter","10330 W Silver Spring Dr","53225",43.12185827140007,-88.04110617198546
"53225","Milwaukee","WI","Pick 'n Save","10202 W Silver Spring Dr","53225",43.12033174628284,-88.03973947390028
"53226","Milwaukee","WI","Indian Groceries & Spices","10633 W North Ave","53226",43.05976794648545,-88.04593532282924
"53227","Milwaukee","WI","Pick 'n Save","2625 S 108th St","53227",42.99676983991805,-88.04990110498028
"53227","Milwaukee","WI","Majdecki's Piggly Wiggly","10282 W National Ave","53227",42.996807966720816,-88.0438407234545
"53227","Milwaukee","WI","Parthenon Foods","9131 W Cleveland Ave","53227",42.99516269669581,-88.02696555377351
"53227","Milwaukee","WI","One Stop Pantry","9801 W Oklahoma Ave","53227",42.98589370415374,-88.03392191260626
"53227","Milwaukee","WI","Mei Hua Market","11066 W National Ave","53227",42.98846747870518,-88.04601050554888
"53228","Milwaukee","WI","Walmart Supercenter","10600 W Layton Ave","53228",42.96019071499729,-88.04446200208297
"53228","Milwaukee","WI","Fresh Thyme Farmers Market","8680 West Sura Lane","53228",42.9609559,-88.0211808
"53228","Milwaukee","WI","ALDI","4225 S 108th St","53228",42.9674909,-88.0490849
"53228","Milwaukee","WI","Little India","3779 S 108th St","53228",42.975577,-88.0484
"53233","Milwaukee","WI","Sav-On Foods","2030 W Clybourn St","53233",43.036945,-87.93900500000001
"53233","Milwaukee","WI","Sendik's Fresh 2 Go","824 N. 16th Street","53233",43.04081,-87.93257
"53233","Milwaukee","WI","Pick 'N' Choose","not_available","53233",43.04338546321437,-87.93709216771958
"53233","Milwaukee","WI","Mo's Food Market","2404 W Clybourn St","53233",43.036379,-87.94311
"53402","Racine","WI","Pick 'n Save","1202 N Green Bay Rd","53406",42.735616403330624,-87.84073859453201
"53402","Racine","WI","Pick 'n Save","5111 Douglas Ave","53402",42.78588373817136,-87.80731495371504
"53402","Racine","WI","Piggly Wiggly","5600 Spring St","53406",42.737892572270695,-87.84797680996105
"53402","Racine","WI","ALDI","3110 Douglas Ave","53402",42.75802000219303,-87.80121466736091
"53402","Racine","WI","Piggly Wiggly #344","3900 Erie St","53402",42.76889185088434,-87.78798757884756
"53402","Racine","WI","Olympic Liquor & Groceries","1629 Douglas Ave","53404",42.74089633566573,-87.79328166137697
"53402","Racine","WI","Taqueria La Mexicana","1336 State St, Racine, WI 53404","53404",42.73169347663636,-87.79706072605912
"53402","Racine","WI","Friendly's Organic Market","not_available","53402",42.79952702762533,-87.82370831966907
"53402","Racine","WI","Picknsave","not_available","53132",42.786238015975414,-87.80772933518146
"53402","Racine","WI","Save-A-Lot","1500 State St","53404",42.73178049413892,-87.79899960533845
"53402","Racine","WI","GFC","not_available","53406",42.756607908609425,-87.85139531392761
"53403","Racine","WI","Walmart Supercenter","3049 S Oakes Rd","53177",42.69538871585857,-87.86800711036173
"53403","Racine","WI","Pick 'n Save","2820 S Green Bay Rd","53406",42.6989461,-87.8560708
"53403","Racine","WI","Festival Foods","5740 Washington Ave","53406",42.721051445056546,-87.84976723271708
"53403","Racine","WI","Piggly Wiggly","5201 Washington Ave","53406",42.717580513518854,-87.84313032405177
"53403","Racine","WI","Walmart Neighborhood Market","5625 Washington Ave","53406",42.71813705802859,-87.84852801633349
"53403","Racine","WI","Piggly Wiggly","4011 Durand Ave","53405",42.695058434514266,-87.82826529266734
"53403","Racine","WI","Jimenez Super Mercado","not_available","53405",42.71282250177819,-87.80626507157118
"53403","Racine","WI","Belle City","16th street","53403",42.71267408565964,-87.7869899719249
"53403","Racine","WI","greater grain","4811 Washington Ave","53406",42.717594146728516,-87.83829498291016
"53403","Racine","WI","Matrainga's","not_available","53403",42.71820756196964,-87.7872109090892
"53403","Racine","WI","Save A Lot","3701 Durand Ave","53405",42.695892,-87.82273199999999
"53403","Racine","WI","ALDI","6925 Durand Ave","53406",42.6968873,-87.8660843
"53403","Racine","WI","Sunshine Supermarket","1559 Taylor Ave","53403",42.7126238,-87.80548345
"53502","Albany","WI","Detweilers Dent And Bent","W363 Atkinson Rd","53502",42.690339,-89.380543
"53502","Albany","WI","Bent N Dent, Albany, WI","Route 104","53521",42.700794116315855,-89.44716961274271
"53508","Belleville","WI","Roy's Market","601-999 Wisconsin 69","53574",42.81377197896122,-89.63102587151221
"53511","Beloit","WI","Walmart Supercenter","2785 Milwaukee Rd","53511",42.52615279631764,-88.98592131619213
"53511","Beloit","WI","Bushel & Peck's","328 State St","53511",42.499538120654776,-89.03568766138338
"53511","Beloit","WI","Woodman's Food Market","1877 Madison Rd","53511",42.52460571625539,-89.07033562660217
"53511","Beloit","WI","Kauffman's Country Store","9550 W State Road 81","53511",42.52613031004969,-89.18860876275753
"53511","Beloit","WI","Save-A-Lot","1223 Park Ave","53511",42.51155555820177,-89.02641158537037
"53511","Beloit","WI","Piggly Wiggly","1827 Prairie","53511",42.523775930237946,-89.01071545840944
"53511","Beloit","WI","Piggly Wiggly","1827 Prairie Ave","53511",42.52396011352539,-89.01045989990234
"53511","Beloit","WI","sam' club","not_available","53511",42.53895950317383,-89.0010986328125
"53511","Beloit","WI","ALDI","2701-2799 Cranston Rd","53511",42.52297131652133,-88.98423342909246
"53511","Beloit","WI","ALDI","2780 Milwaukee Rd","53511",42.52278899,-88.98395942
"53517","Blue Mounds","WI","BLUE MOUNDS GROCERY","11024 Division St","53517",43.017509000000004,-89.834039
"53518","Blue River","WI","Pierce's IGA","122 W. Nebraska St.","53573",43.185848236083984,-90.44410705566406
"53520","Brodhead","WI","Piggly Wiggly","1604 1st Center Ave","53520",42.61398963219592,-89.37641706199332
"53520","Brodhead","WI","Discount Grocery Plus","420 HWY 11","53537",42.67192034990752,-89.21005013683494
"53521","Brooklyn","WI","Piggly Wiggly","8 N County Road M","53536",42.77973223674504,-89.27395699448536
"53521","Brooklyn","WI","Piggly Wiggly","8 North Cty Highway M","53536",42.774898529052734,-89.28884887695312
"53523","Cambridge","WI","Piggly Wiggly","100 US Highway 12 & 18","53523",42.99727249145508,-89.01380157470703
"53523","Cambridge","WI","Piggly Wiggly","100 Hwy 12","53523",43.008380794283056,-89.02192587648739
"53525","Clinton","WI","Clinton Foods","603 Church St","not_available",42.56380832833703,-88.86450821432452
"53527","Cottage Grove","WI","Piggly Wiggly","421 W Cottage Grove Rd","53527",43.08776486534979,-89.21144978262201
"53528","Cross Plains","WI","Piggly Wiggly","Glacier Square","not_available",43.111072570543655,-89.64120906717896
"53529","Dane","WI","Piggly Wiggly","205 N Holiday Dr","53597",43.1930345925726,-89.46599985261004
"53530","Darlington","WI","Piggly Wiggly","149 Wells Street","53530",42.677486419677734,-90.11592102050781
"53530","Darlington","WI","Piggly Wiggly","not_available","53530",42.677818,-90.11550600000001
"53532","Deforest","WI","Woodman's Food Market","1099 South Grand Ave.","53590",43.16506112764371,-89.26739446857096
"53532","Deforest","WI","Walmart Supercenter","1905 Mccoy Rd","53590",43.1738607745948,-89.24633220083739
"53532","Deforest","WI","Pick 'n Save","2538 Ironwood Dr","53590",43.18600674705568,-89.26208364418028
"53532","Deforest","WI","Pick 'n Save","621 S. Main Street","53532",43.2400142,-89.3427368
"53532","Deforest","WI","Sunshine Food Pantry","18 Rickel Rd","53590",43.178782,-89.240601
"53532","Deforest","WI","ALDI","750 Bunny Trl","53590",43.1680813935835,-89.26564927116397
"53532","Deforest","WI","The Oilerie Sun Prairie","2824 Prairie Lakes Dr #102","53590",43.1670892,-89.26999390000002
"53533","Dodgeville","WI","Walmart Supercenter","601 E Leffler St","53533",42.9735776129218,-90.12000063445869
"53533","Dodgeville","WI","Piggly Wiggly","316 W Spring St","53533",42.964946414664944,-90.13484402053234
"53534","Edgerton","WI","Piggly Wiggly","1211 N Main St","53534",42.847004406865636,-89.05785794624373
"53534","Edgerton","WI","Save-A-Lot","200 Interstate Blvd","53534",42.8565899787515,-89.05199573137675
"53538","Fort Atkinson","WI","Walmart Supercenter","1520 South Main Street","53549",42.98767502436588,-88.80803299407266
"53538","Fort Atkinson","WI","Pick 'n Save","1505 Madison Ave","53538",42.93942555697127,-88.86058852455426
"53538","Fort Atkinson","WI","Festival Foods","328 Washington St","53538",42.93111772554973,-88.83875370025635
"53538","Fort Atkinson","WI","Piggly Wiggly","921 W Racine St","53549",43.00662676951412,-88.82560862805606
"53538","Fort Atkinson","WI","Jones Dairy Farm Retail Store","800 Jones Ave","53538",42.92009016940818,-88.84583881819118
"53538","Fort Atkinson","WI","La Tienda Mexicana Inc","809 S Main St","53538",42.917094,-88.835911
"53538","Fort Atkinson","WI","County Market","not_available","53549",43.013650727608486,-88.7620283329172
"53545","Janesville","WI","Woodmans","2819 Liberty Ln.","53545",42.71676594211123,-88.99519085884094
"53545","Janesville","WI","Walmart Supercenter","3800 Deerfield Dr","53546",42.72574795984028,-88.98685806631228
"53545","Janesville","WI","Festival Foods","2233 Humes Rd","53545",42.72132553969131,-88.9942340904596
"53545","Janesville","WI","Daniels Foods Sentry","2501 W. Court St.","53548",42.678354514722024,-89.0500480004621
"53545","Janesville","WI","Basics Cooperative Natural Foods","1711 Lodge Dr","53545",42.71753233414173,-89.00119140828114
"53545","Janesville","WI","ALDI","2717 Milton Ave","53545",42.715993633488374,-89.00131425697978
"53545","Janesville","WI","Daniels Foods Sentry East","2822 E. Milwaukee St","53545",42.695640973478255,-88.98608148023399
"53545","Janesville","WI","Maurer's Market","2822 E Milwaukee St","53545",42.695621490478516,-88.98577880859375
"53545","Janesville","WI","Festival Foods","not_available","53545",42.731557,-89.032987
"53545","Janesville","WI","Bent N Dent, Afton, WI","Route 104","53502",42.68139717570769,-89.03350870503363
"53545","Janesville","WI","Woodman's Food Market","2819 N. Lexington Dr.","53545",42.7163618,-88.9961199
"53545","Janesville","WI","Basics Co-op","not_available","53563",42.739863080937425,-89.01172701701998
"53551","Lake Mills","WI","Lake Mills Market","375 W Tyranena Park Rd","53551",43.09254248966319,-88.9135485265843
"53551","Lake Mills","WI","Sentry Grocery Store","not_available","53551",43.07930355117273,-88.91024099284434
"53551","Lake Mills","WI","Walmart Grocery Pickup","1520 S Main St","53549",43.0640935374846,-88.9138640136307
"53555","Lodi","WI","Piggly Wiggly","PO Box 255","53555",43.334136962890625,-89.55107116699219
"53555","Lodi","WI","D&D Piggly Wiggly","805 N Main St","53555",43.322571898965606,-89.53703583242526
"53558","Mcfarland","WI","Pick 'n Save","5709 US Highway 51","53558",43.0158547,-89.3003224
"53558","Mcfarland","WI","Pick 'n Save","6540 Monona Dr","53716",43.04573124753461,-89.3224804522921
"53562","Middleton","WI","Metcalfe's Market","726 N Midvale Blvd","53705",43.07405580736783,-89.45262980205017
"53562","Middleton","WI","Pick 'n Save","3650 University Ave","53705",43.076511491610844,-89.44956108927721
"53562","Middleton","WI","Whole Foods Market","3313 University Ave","53705",43.074823134950314,-89.4444155712702
"53562","Middleton","WI","Pick 'n Save","261 Junction Rd","53717",43.06492893935399,-89.52468127704799
"53562","Middleton","WI","Pick 'n Save","6800 Century Ave","53562",43.1075015,-89.4982662
"53562","Middleton","WI","402 N Eauclaire","not_available","53705",43.07196531493919,-89.46373721313293
"53562","Middleton","WI","Willy Street Co-op West","6825 University Ave","53562",43.09671011031041,-89.50042270547061
"53562","Middleton","WI","Knoche's Butcher Shop","5372 Old Middleton Rd","53705",43.074345941032114,-89.4729937598239
"53562","Middleton","WI","UW Provision, Co.","2315 Pleasant View Rd","53562",43.10203079604135,-89.53567761842977
"53562","Middleton","WI","Green Earth","not_available","53562",43.097160526428326,-89.49822627700767
"53563","Milton","WI","Cowley's Piggly Wiggly","727 S Janesville St","53563",42.76990907818059,-88.93806201007658
"53566","Monroe","WI","Walmart Supercenter","300 6th Ave West","53566",42.60953335509928,-89.66358138798736
"53566","Monroe","WI","Pick 'n Save","246 8th St","53566",42.6020851,-89.65632
"53566","Monroe","WI","Bargins Galore","not_available","53566",42.60685415492896,-89.65592282366124
"53566","Monroe","WI","ALDI","640 8th St","53566",42.60282243631275,-89.66595903799714
"53566","Monroe","WI","Piggly Wiggly","725 8th St","53566",42.60447155338983,-89.65294571545915
"53566","Monroe","WI","Walmart Grocery Pickup","300 6th Ave W","53566",42.61067,-89.66605
"53566","Monroe","WI","Dairy Directions Inc.","N3802 Hwy 59","53566",42.6440371,-89.54575179999999
"53572","Mount Horeb","WI","The New Millers Market","1845 US-18 BUS","53572",43.00875841142428,-89.71295748734524
"53572","Mount Horeb","WI","Miller and Sons Supermarket","1845 Springdale St","53572",43.008897,-89.713305
"53572","Mount Horeb","WI","Dicks Quality Meats-Groceries","201 E Main St.","53572",43.008516,-89.73876899999999
"53573","Muscoda","WI","Walmart Supercenter","2401 Us Hwy 14 E","53581",43.31274847321436,-90.34854292341076
"53573","Muscoda","WI","Ed's Family Foods","120 S Jefferson St","53581",43.335331,-90.388254
"53573","Muscoda","WI","Burnstad's Market","195 Richland Sq","53581",43.317299,-90.361777
"53575","Oregon","WI","Bill's Food Center","787 N Main St","53575",42.938058507227616,-89.38448734762487
"53578","Prairie Du Sac","WI","Piggly Wiggly","724 Phillips Blvd","53583",43.27112966968895,-89.7309500623874
"53578","Prairie Du Sac","WI","Sauk Prairie Market - Sentry","645 3rd St","53578",43.292573238958816,-89.72321247483671
"53578","Prairie Du Sac","WI","La Bambitas","803 Water St.","53583",43.271861,-89.721797
"53588","Spring Green","WI","Hometown Supermarket","171 S. Worcester","53588",43.175552379122976,-90.06633939690182
"53588","Spring Green","WI","Woody's","not_available","53588",43.18809,-90.0667655467987
"53589","Stoughton","WI","Walmart Grocery Pickup & Delivery","2600 State Highway 138","53589",42.9192698,-89.254244
"53589","Stoughton","WI","Pick 'n Save","1750 US Highway 51","53589",42.919624254339844,-89.24187362194061
"53589","Stoughton","WI","ALDI","1399 US Highway 51","53589",42.92149225096456,-89.25258622453691
"53589","Stoughton","WI","Yahara River Grocery","Main St","not_available",42.91660530436671,-89.21874278195254
"53590","Sun Prairie","WI","Pick 'n Save","640 E Main St","53590",43.1810522,-89.2046641
"53590","Sun Prairie","WI","Om Asian Market","934 W Main St","53590",43.18181,-89.228943
"53593","Verona","WI","Woodmans","711 S Gammon Rd.","53719",43.049238410546735,-89.50157349732427
"53593","Verona","WI","Hy-Vee","2920 Fitchrona Rd","53719",43.013667,-89.479767
"53593","Verona","WI","Festival Foods","660 Hometown Cir","53593",42.995583,-89.52029499999999
"53593","Verona","WI","Metcalfe's Market","7455 Mineral Point Rd","53717",43.05808529238673,-89.51061847091292
"53593","Verona","WI","Hy-Vee","675 S. Whitney Way","53711",43.0508999,-89.4716689
"53593","Verona","WI","Walmart","7202 Watts Rd","53719",43.05231422664368,-89.50844221020398
"53593","Verona","WI","Pick 'n Save","6655 McKee Rd","53719",43.0137721,-89.4985405
"53593","Verona","WI","ALDI","8222 Watts Rd","53719",43.056281527802305,-89.5262427704165
"53593","Verona","WI","ALDI","6261 McKee Rd","53719",43.0151883,-89.478484
"53593","Verona","WI","GFS Marketplace","406 Grand Canyon Dr","53719",43.05978608672551,-89.49727586467343
"53593","Verona","WI","Miller & Sons Grocery","210 S Main St","53593",42.988805237438946,-89.5336130697876
"53593","Verona","WI","Bombay Bazaar","753 S Gammon Rd","53719",43.04777,-89.50259100000001
"53593","Verona","WI","istanbul international market","not_available","53711",43.04813766479492,-89.50254821777344
"53593","Verona","WI","MyMenu","PD","not_available",43.014692,-89.481418
"53593","Verona","WI","Pick 'n Save","620 S Whitney Way","53711",43.05240468579521,-89.4759803641316
"53593","Verona","WI","Swagat Indian Grocery","6717 Odana Rd","53719",43.056005,-89.498188
"53593","Verona","WI","Namaste India Grocery Store","805 S Gammon Rd A, Madison, WI 53719","53719",43.047760009765625,-89.5027084350586
"53593","Verona","WI","Krishna Foods","6717 Odana Rd #1","53719",43.05622539096033,-89.49895270317995
"53593","Verona","WI","India House","709 S Gammon Rd","53719",43.04971,-89.502752
"53593","Verona","WI","Millers","main street","53593",43.01020549554899,-89.53409095990429
"53593","Verona","WI","ALDI","not_available","53719",43.019746473799906,-89.47850278840124
"53594","Waterloo","WI","Piggly Wiggly","810 N Monroe St","53594",43.19212902542502,-88.98949382902262
"53594","Waterloo","WI","Ayala's Market","112 E Madison St","53594",43.183622,-88.99004599999999
"53594","Waterloo","WI","The Wiggly","not_available","53594",43.197229778676395,-88.98151134276115
"53597","Waunakee","WI","Willy Street Co-op North","2817 N Sherman Ave","53704",43.127741342722764,-89.36271623282569
"53703","Madison","WI","Festival Foods","810 E. Washington St.","53703",43.08160876418695,-89.37516764824981
"53703","Madison","WI","Capitol Centre Market","111 N Broom St","53703",43.0726281728659,-89.38997970512503
"53703","Madison","WI","Willy Street Co-op","1221 Williamson St","53703",43.08376510304689,-89.36299535726307
"53703","Madison","WI","Pinkus McBride Market & Deli","301 N Hamilton St","53703",43.07918838457032,-89.38392258044534
"53703","Madison","WI","Alimentari","306 S Brearly St","53703",43.081056,-89.368831
"53703","Madison","WI","Market Basket","312 E Mifflin St","53703",43.07801250211011,-89.38190816801506
"53704","Madison","WI","Woodmans","3817 Milwaukee St","53714",43.097609240118196,-89.31884281906301
"53704","Madison","WI","Hy-Vee","3801 E Washington Ave","53704",43.117795,-89.318323
"53704","Madison","WI","Walmart Supercenter","4198 Nakoosa Trl","53714",43.11048283974498,-89.31311405963307
"53704","Madison","WI","Global Market & Food Hall","2161 Zeier Rd","53704",43.127753,-89.300261
"53704","Madison","WI","Pick 'n Save","2502 Shopko Dr","53704",43.1128807,-89.3495788
"53704","Madison","WI","ALDI","3925 Lien Rd","53704",43.12006357222155,-89.31665360927582
"53704","Madison","WI","Jenifer Street Market","2038 Jenifer St","53704",43.09032506109491,-89.35147131253379
"53704","Madison","WI","Maharaja Grocery","1701 Thierer Rd","53704",43.123389238671464,-89.31087288839349
"53704","Madison","WI","Lahispana","not_available","53704",43.129571,-89.309173
"53704","Madison","WI","Madison International Market","4261 Lien Rd Ste Q","53704",43.1210087162254,-89.30719345808029
"53704","Madison","WI","Hmoob Oriental Market","1197 N Sherman Ave","53704",43.113319396972656,-89.36280059814453
"53705","Madison","WI","Trader Joe's","1810 Monroe St","53711",43.06492905429733,-89.41732633608353
"53705","Madison","WI","Regent Market Co-Op","2136 Regent St","53726",43.06788745005857,-89.42353606141263
"53706","Madison","WI","Fresh Madison Market","702 University Ave","53715",43.07308669487354,-89.39762289053266
"53711","Madison","WI","Walmart Supercenter","2151 Royal Ave","53713",43.0424199308252,-89.34993462706716
"53711","Madison","WI","Pick 'n Save","3010 Cahill Main","53711",43.0181966,-89.4213097
"53711","Madison","WI","Pick 'n Save","1312 S Park St","53715",43.052167818517844,-89.39589412542773
"53711","Madison","WI","Midway Asian Market","S. Park","53715",43.06405475469516,-89.40010108434575
"53711","Madison","WI","Oriental Shop","1029 S Park St","53715",43.055668,-89.397492
"53711","Madison","WI","Yue Wah Oriental Foods","2328 S Park St","53713",43.04033317969312,-89.39502287820395
"53711","Madison","WI","Oriental Food Mart","1206 S Park St","53715",43.053601,-89.396523
"53711","Madison","WI","La Rosita Latina","6005 Monona Dr","53716",43.054204302624505,-89.32562117496921
"53711","Madison","WI","Madison Oriental Market","Fish Hatchery","53713",43.04290920100713,-89.40392658555231
"53711","Madison","WI","Luna's Groceries","2010 Red Arrow Trl","53711",43.0318,-89.45736
"53711","Madison","WI","Hmong Legacy Market","2119 Fish Hatchery Rd","53713",43.042921,-89.40336500000001
"53713","Madison","WI","El Mercado","2102 S Park St","53713",43.04310989379883,-89.39442443847656
"53718","Madison","WI","Metro Market","6010 Cottage Grove Rd","53718",43.085272069177314,-89.27587600068358
"53718","Madison","WI","Metro Market Bakery","not_available","53718",43.085055,-89.277078
"53805","Boscobel","WI","Piggly Wiggly","106 W Oak St","53805",43.134079,-90.70706700000001
"53805","Boscobel","WI","Johnson's One Stop","not_available","53805",43.113141,-90.702078
"53806","Cassville","WI","Okey's Market","213 W Amelia St","53806",42.71558,-90.9924
"53807","Cuba City","WI","IGA","101-199 E Yuba St","53807",42.60371,-90.43043553829193
"53807","Cuba City","WI","Kieler's Grocery & Liquor Store","115 S Main St","53808",42.626120506101444,-90.59208355641611
"53807","Cuba City","WI","Thompson's IGA","312 S Main St","53807",42.603766,-90.430104
"53809","Fennimore","WI","Just Like Home Country Market","13670 US-61","53809",43.000896634650836,-90.65460920333861
"53809","Fennimore","WI","Bender's Foods","Lincoln Ave","53809",42.988999,-90.65629100000001
"53813","Lancaster","WI","Piggly Wiggly","158 N Washington St","53813",42.84854245741031,-90.71258090045494
"53818","Platteville","WI","Walmart Supercenter","1800 Progressive Pkwy","53818",42.735791738730626,-90.43848752975464
"53818","Platteville","WI","Piggly Wiggly","255 McGregor Plz","53818",42.731244041647955,-90.47726282992319
"53818","Platteville","WI","ALDI","1530 E Business Highway 151","53818",42.73360493591762,-90.44955968856812
"53818","Platteville","WI","12 Baskets Discount Groceries","185 W IRVING PL.","53818",42.73449222760468,-90.4793006926775
"53818","Platteville","WI","ALDI","not_available","53818",42.73621368408203,-90.46947479248047
"53821","Prairie Du Chien","WI","Walmart Supercenter","38020 Us Highway 18","53821",43.01781581,-91.10873474
"53821","Prairie Du Chien","WI","Piggly Wiggly","30 Riverside Sq","53821",43.026466340769204,-91.12682861384789
"53821","Prairie Du Chien","WI","The Sweet Tooth","127 West Blackhawk Avenue","53821",43.0518619,-91.1475628
"53821","Prairie Du Chien","WI","Mississippi Meats","not_available","53821",43.042713,-91.14146
"53821","Prairie Du Chien","WI","ALDI","37547 US Highway 18","53821",43.02341514540126,-91.12181372023764
"53901","Portage","WI","Walmart Supercenter","2950 New Pinery Rd","53901",43.57055208576945,-89.47266460284544
"53901","Portage","WI","01","2915 New Pinery Rd","53901",43.56877828887272,-89.46731328964233
"53901","Portage","WI","piggly wiggly","not_available","53901",43.50569534301758,-89.50489807128906
"53901","Portage","WI","ALDI","2941 New Pinery Rd","53901",43.5706613,-89.4688378
"53910","Adams","WI","A-F County Market","215 W North St","53910",43.96642238662546,-89.81974998231233
"53910","Adams","WI","A-F County Market","500-504 W 3rd St","53934",43.96431331868213,-89.76106955059272
"53913","Baraboo","WI","Walmart Supercenter","920 State Road 136","53913",43.45839274213907,-89.77230836561168
"53913","Baraboo","WI","Walmart Supercenter","130 Commerce St","53965",43.585050755569554,-89.8121586627797
"53913","Baraboo","WI","Festival Foods","615 Linn Street","53913",43.47343,-89.770767
"53913","Baraboo","WI","ALDI","614 W Pine St","53913",43.475736949981155,-89.76755843323645
"53913","Baraboo","WI","Las Milpas","830 US Highway 12","53913",43.4611701965332,-89.76940155029297
"53916","Beaver Dam","WI","Piggly Wiggly","810 Park Ave","53916",43.457086960675575,-88.81830728891812
"53916","Beaver Dam","WI","Walmart Supercenter","120 Frances Ln","53916",43.48911550943052,-88.81146097517157
"53916","Beaver Dam","WI","Rechek's Food Pride","609 N Spring St","53916",43.46201530530202,-88.83444165508054
"53916","Beaver Dam","WI","ALDI","1733 N Spring St","53916",43.47903584274469,-88.8201767206192
"53916","Beaver Dam","WI","Casey's General Store","906 N University Ave","53916",43.465493549633884,-88.83009223914115
"53916","Beaver Dam","WI","Food Pride","not_available","53916",43.4638727612936,-88.83314878904115
"53923","Cambria","WI","Mishler's Country Store","W5115 Barry Rd","53926",43.64120101928711,-89.25289154052734
"53925","Columbus","WI","Pick 'n Save","210 Dix St","53925",43.345189,-89.0319878
"53925","Columbus","WI","Pick N Save break room","not_available","53925",43.34220562916519,-89.02728387624384
"53925","Columbus","WI","Maurer's Market","150 Commerce Dr","53925",43.3487434387207,-89.0384292602539
"53925","Columbus","WI","Englewood Local Foods","2200 W James St","53925",43.3533935546875,-89.03701782226562
"53926","Dalton","WI","Mast's Bent & Dent","W2086 Barry Rd","53926",43.644893646240234,-89.26292419433594
"53929","Elroy","WI","Hansen's IGA","1701 Omaha St","53929",43.75918305587058,-90.27416190360891
"53941","La Valle","WI","Bare Necessities","not_available","53941",43.5819191501342,-90.12861175243702
"53941","La Valle","WI","J&S Grocery","203 Center St","53968",43.6531982421875,-90.22354125976562
"53943","Loganville","WI","Valley View Discount Bulk Food & Grocery","E3675 Hwy 154","53937",43.44379806518555,-90.05007934570312
"53944","Lyndon Station","WI","Miller's Foods","not_available","53944",43.71218128770291,-89.90013775619771
"53946","Markesan","WI","Piggly Wiggly","450 Margaret Street","53946",43.716583251953125,-89.01351928710938
"53948","Mauston","WI","Festival Foods","750 N Union St","53948",43.80576060282905,-90.06844688992146
"53948","Mauston","WI","The Grocery Depot","201 Leer St","53950",43.882957458496094,-90.18372344970703
"53948","Mauston","WI","d&j thirfty mart","520","not_available",43.79466009165719,-90.07210589716765
"53948","Mauston","WI","Heinie's","607 N Union St","53948",43.804398,-90.070215
"53949","Montello","WI","Piggly Wiggly","101 E Main St","54968",43.85107476463685,-89.1214120112637
"53949","Montello","WI","Freitag's Food Center","628 Main St","53949",43.78015387405294,-89.32514466595829
"53949","Montello","WI","Country Values","W5798 State Road 23","54968",43.83226013183594,-89.17253875732422
"53949","Montello","WI","Grocery Store","not_available","53949",43.81218338012695,-89.346435546875
"53949","Montello","WI","Piggly Wiggly","PO Box 74","54968",43.84297561645508,-89.1296157836914
"53952","Oxford","WI","Brakebush outlet store","not_available","53964",43.888324,-89.484636
"53952","Oxford","WI","Harvest Market","W7341 State Road 82","53952",43.78179931640625,-89.52562713623047
"53954","Pardeeville","WI","Piggy Wiggly","514 S Main St","53954",43.525007095876525,-89.30344485662317
"53955","Poynette","WI","Piggly Wiggly","621 N US Highway 51","53955",43.397685795685106,-89.39637474970593
"53955","Poynette","WI","Johnson's Sausage Shoppe","416 State Road 16","53960",43.44451904296875,-89.2461166381836
"53956","Randolph","WI","Piggly Wiggly","164 Kienow Dr","53956",43.53082275390625,-89.0047378540039
"53956","Randolph","WI","Piggly Wiggly","not_available","53956",43.53096424128509,-89.00463634071882
"53959","Reedsburg","WI","IGA","60 W Main St","53959",43.532839,-90.012298
"53959","Reedsburg","WI","Jams 2 Bent and Dent","16 East Main Street","53959",43.532060392601814,-90.01087367534637
"53959","Reedsburg","WI","Village Market","114 2nd St","53959",43.53381011446299,-90.00951563839355
"53959","Reedsburg","WI","J.A.M.S. Bent N DENT Groceries","2015 E Main St","53959",43.53327941894531,-89.97948455810547
"53959","Reedsburg","WI","LaBombita","2670 Suite G East Main St.","53959",43.53187561035156,-89.96881866455078
"53963","Waupun","WI","Piggly Wiggly/Cattails Liquor Co.","100 Gateway Dr","53963",43.63517526995345,-88.71690415366838
"53963","Waupun","WI","Piggly Wiggly","Gateway Drive","not_available",43.66201505019357,-88.81520646236933
"53965","Wisconsin Dells","WI","Zinke's Village Market","216 Washington Ave","53965",43.62600422346788,-89.77461316759361
"53968","Wonewoc","WI","County Market","not_available","53968",43.66111324329623,-90.32749128932541
"54001","Amery","WI","Nilssen's Market","not_available","54005",45.255408309176076,-92.27075991256298
"54001","Amery","WI","Save-A-Lot","210 Keller Ave S","54001",45.31008794527679,-92.3625550609105
"54001","Amery","WI","Indigo's Iris","not_available","54001",45.312459000000004,-92.361778
"54002","Baldwin","WI","Nilssen's SuperValu","not_available","54002",44.95668698660051,-92.37410585746642
"54009","Dresser","WI","Walmart Supercenter","2212 Glacier Dr","54024",45.39967632319653,-92.60351222070848
"54009","Dresser","WI","MarketPlace Foods","2191 U.S. 8","54024-8326",45.398866933129874,-92.60916900000001
"54011","Ellsworth","WI","Nilssen's Foods","not_available","54011",44.72881381008949,-92.48053952606152
"54013","Glenwood City","WI","Ormson's SuperValu","224 Oak St","54013",45.05845157071261,-92.17565079200537
"54014","Hager City","WI","ALDI","160 Tyler Road N.","55066",44.57018298634383,-92.58669823408127
"54016","Hudson","WI","County Market","2310 Crest View Dr","54016",44.960510838011274,-92.72520902892477
"54016","Hudson","WI","Walmart","2222 Crest View Dr","54016",44.959582556773526,-92.72724945609053
"54016","Hudson","WI","Fresh & Natural Foods","1701 Ward Ave #200","54016",44.964408826250676,-92.73485949210827
"54016","Hudson","WI","Aldi's","2401 Hanley Rd","54016",44.954429459124576,-92.7234479784965
"54017","New Richmond","WI","Walmart Supercenter","250 Richmond Way","54017",45.09928522218309,-92.54014033752595
"54017","New Richmond","WI","Family Fresh Market","110 W 4th St","54017",45.1190207057123,-92.53872723490068
"54017","New Richmond","WI","Mercado El Dorado","not_available","54017",45.10087773840529,-92.53766362257875
"54017","New Richmond","WI","Econofoods","107 Parent St","54025",45.12483090410899,-92.66992103944963
"54017","New Richmond","WI","Indomaret","@ Fresh market","54017",45.1192961,-92.5376655
"54020","Osceola","WI","Dick's Fresh Market","112 chieftan","54020",45.32013227769889,-92.7042798577019
"54021","Prescott","WI","Ptacek's IGA","1005 Eagle Ridge Dr","54021",44.76244354248047,-92.78921508789062
"54022","River Falls","WI","ALDI","1567 Sullivan Ct","54022",44.8766989,-92.6223354
"54022","River Falls","WI","Family Fresh Market","303 S Main St","54022",44.85643,-92.62811
"54022","River Falls","WI","Dick's Fresh Market","1121 S Main St","54022",44.84611117961385,-92.63029907569427
"54022","River Falls","WI","Whole Earth Grocery","126 S Main St","54022",44.857601165771484,-92.62598419189453
"54024","Saint Croix Falls","WI","Wayne's IGA","not_available","54853",45.56961993172603,-92.48764339203663
"54102","Amberg","WI","Amberg Party Store","Dutton Ave","54102",45.50348054018023,-87.99332193254052
"54106","Black Creek","WI","Austins","3655 W Northridge Ln","54914",44.447294342648185,-88.45549342685383
"54107","Bonduel","WI","Countryside Bent And Dent","not_available","54107",44.75851058959961,-88.49134826660156
"54110","Brillion","WI","Tadych's EconoFoods","109 N Main St","54110",44.176880227668924,-88.06530015183473
"54110","Brillion","WI","Corner Cupboard Salvage Groceries","44 S 8th St","not_available",44.139092,-88.163708
"54112","Coleman","WI","Piggly Wiggly","216 Business 141 N","54112",45.06766218206431,-88.03582401217854
"54112","Coleman","WI","Piggly Wiggly","PO Box 235","54112",45.05479431152344,-88.04096221923828
"54114","Crivitz","WI","Piggly Wiggly","304 N US Highway 141","54114",45.228739544202625,-87.99595142814304
"54114","Crivitz","WI","Piggly Wiggly","PO Box 550","54114",45.2459831237793,-88.069580078125
"54114","Crivitz","WI","Piggly Wiggly","250 N US Highway 141","54114",45.228611,-87.995374
"54115","De Pere","WI","Walmart Supercenter","2292 Main St","54311",44.4783289559189,-87.97126051627544
"54115","De Pere","WI","Festival Foods","1001 Main Ave","54115",44.44995770844175,-88.08597564697266
"54115","De Pere","WI","Pick 'n Save","2064 Lime Kiln Rd","54311",44.464559858087775,-87.9871015486168
"54115","De Pere","WI","Festival Foods","2534 Steffens Ct","54311",44.46776120845768,-87.9568336301697
"54115","De Pere","WI","Pick 'n Save","1819 Main St","54302",44.4953627,-87.9766188
"54115","De Pere","WI","Walmart Supercenter","1415 Lawrence Dr","54115",44.43287748579991,-88.10278445134409
"54115","De Pere","WI","The Original Austin's Grocery Store","3823 S. Webster Ave.","54301",44.455614375487976,-88.04152478802582
"54115","De Pere","WI","Webster Avenue Market","1220 S Webster Ave","54301",44.4953190815893,-88.01569500453814
"54115","De Pere","WI","Fresh Thyme Farmers Market","2767 S Oneida St","54304",44.473624,-88.0717615
"54115","De Pere","WI","Piggly Wiggly","575 Swan Rd","54115",44.43711484335154,-88.03515538695467
"54115","De Pere","WI","ALDI","1100 Main Ave","54115",44.4527689,-88.0875893
"54115","De Pere","WI","Gordon Food Service Store","2609 S Oneida St","54304",44.47887029906977,-88.07016418337237
"54115","De Pere","WI","ALDI","2492 S Oneida St","54304",44.483864,-88.070961
"54115","De Pere","WI","ALDI","2440 E Mason St","54302",44.4856998,-87.9607774
"54115","De Pere","WI","Schreiber Foods","1775 E Matthew Dr","54115",44.426183405562554,-88.09115666084529
"54115","De Pere","WI","copps dairy","Main St","54302",44.49531173706055,-87.97662353515625
"54115","De Pere","WI","Astha","400 Reid St","54115",44.446467,-88.072019
"54115","De Pere","WI","copps produce","Main Street","54302",44.48597673446269,-87.9843192591753
"54115","De Pere","WI","Supervalu Foods","S Webster","not_available",44.49529181292939,-88.0157395297597
"54115","De Pere","WI","Dick's Family Foods","400 High St","54180",44.32026410078978,-88.15886312085314
"54115","De Pere","WI","Cub Foods","not_available","54311",44.48256119916409,-87.95436497338731
"54115","De Pere","WI","Mi Favorita","1908 E Mason St","54302",44.49087905883789,-87.97817993164062
"54115","De Pere","WI","Green Bay Olive Oil Company","2605 S Oneida St Ste 104","54304",44.479978463329054,-88.07087328095093
"54115","De Pere","WI","Grassroots Grocery","2200 Dickinson Rd","54115",44.4337874,-88.02016895
"54115","De Pere","WI","India Bazaar","not_available","54304",44.469561,-88.083024
"54115","De Pere","WI","Asian Taste Grocery Store","1300 S Webster Ave Apt 203","54301",44.494754791259766,-88.01604461669922
"54121","Florence","WI","Central Supermarket","not_available","49802",45.79332388769345,-88.08384338646876
"54121","Florence","WI","Trader Vic's","515 US Highway 2","54121",45.86910629272461,-88.08303833007812
"54124","Gillett","WI","Pat's Market","117 N McKenzie St","54124",44.891051000000004,-88.308578
"54128","Gresham","WI","Townmart","1129 Main Street","54128",44.85132598876953,-88.787353515625
"54128","Gresham","WI","Gresham Townmart","not_available","54128",44.796799261164274,-88.80749442716105
"54129","Hilbert","WI","Dicks Family Foods","W647 Knight Dr","54169",44.179125,-88.269952
"54130","Kaukauna","WI","Walmart Supercenter","3701 E Calumet St","54915",44.24168724006537,-88.35169243903844
"54130","Kaukauna","WI","Festival Foods","W3195 Van Roy Rd","54915",44.25628536938864,-88.35054664169162
"54130","Kaukauna","WI","Piggly Wiggly","300 E Ann St","54130",44.26003056200075,-88.27224900053936
"54130","Kaukauna","WI","Piggly Wiggly","1901 E Main St","54140",44.28438186645508,-88.29115295410156
"54130","Kaukauna","WI","Piggly Wiggly","PO Box 470","54130",44.28997039794922,-88.27266693115234
"54130","Kaukauna","WI","Freedom Foods","W2082 County Road S","not_available",44.386370488592156,-88.28437498340026
"54135","Keshena","WI","Save A Lot","W2818 Warrington Rd","54135",44.869869232177734,-88.62821197509766
"54135","Keshena","WI","Save-A-Lot","W2818 Warrington Road","54135",44.87043500893952,-88.62871248119188
"54139","Lena","WI","Piggly Wiggly","409 E Highland Dr","54154",44.88348,-88.13763
"54139","Lena","WI","Piggly Wiggly","PO Box 38","54154",44.8727912902832,-88.16370391845703
"54143","Marinette","WI","Walmart Supercenter","2900 Roosevelt Rd","54143",45.073850168095575,-87.65632370322783
"54143","Marinette","WI","Angeli's County Market","1401 8th Ave","49858",45.10641897451747,-87.62005905004085
"54143","Marinette","WI","Angeli's - Marinette","2515 Roosevelt Rd","54143",45.079417488617686,-87.66174158664481
"54143","Marinette","WI","Lee's Family Foods","613 French St","54157",45.05428470908331,-87.75921967583707
"54143","Marinette","WI","RK Health Food","2205 Hall Ave Ste 103","54143",45.09983444213867,-87.6368179321289
"54143","Marinette","WI","Angeli's Central Market","13th St","49858",45.1383912563324,-87.60285079479218
"54143","Marinette","WI","Budget Dollar","not_available","54143",45.07765668333333,-87.65113055706024
"54143","Marinette","WI","Curry's","1700 Cleveland Ave","54143",45.0849663975501,-87.62645326764078
"54143","Marinette","WI","ALDI","2871 Roosevelt Rd","54143",45.07490158198595,-87.66055182383758
"54151","Niagara","WI","Walmart Supercenter","1920 S Stephenson Ave","49801",45.80778525783029,-88.0383308248197
"54151","Niagara","WI","Tadych's EconoFoods","1600 S Stephenson Ave","49801",45.807447034704815,-88.05104367665753
"54151","Niagara","WI","Super One Foods","1130 S Stephenson Ave","49801",45.812174946743326,-88.06200467099954
"54151","Niagara","WI","Ebeling's","529 Main St","49870",45.78560701337987,-87.9076905748409
"54151","Niagara","WI","Pembine Food Depot","N18678 US-141","54156",45.6346516215763,-87.99058805900815
"54151","Niagara","WI","Walmart Grocery Pickup","1920 So. Stepehenson Ave","49801",45.807363,-88.038011
"54153","Oconto","WI","Thompson's County Market","722 Brazeau Ave","54153",44.89426028891011,-87.88379231909735
"54153","Oconto","WI","County Line Meats","not_available","54153",44.971872,-87.866765
"54162","Pulaski","WI","Publix","South Chase","not_available",44.689823150634766,-88.15095520019531
"54165","Seymour","WI","Don's Quality Market","147 W Wisconsin St","54165",44.51179454693665,-88.3310633938457
"54166","Shawano","WI","ALDI","1253 E Green Bay St","54166",44.782653819129486,-88.57904723505271
"54166","Shawano","WI","Charlie's County Market","521 S Main St","54166",44.77508652256763,-88.60968282353417
"54166","Shawano","WI","Walmart Supercenter","1244 East Green Bay","54166",44.77963378282226,-88.58100183720626
"54166","Shawano","WI","Pick 'n Save","190 Woodlawn Dr","54166",44.78526237315367,-88.58565512331552
"54171","Sobieski","WI","Waynes Jerky","6949 County Rd S","54171",44.720096999999996,-88.114375
"54175","Townsend","WI","Mike's Super Market","17887 Wisconsin 32","54175",45.327250957489014,-88.58925998210907
"54201","Algoma","WI","Denny's","510 5th St","54201",44.60802109620793,-87.43959729242684
"54201","Algoma","WI","Piggly Wiggly","2025 Lake St","54201",44.5949821472168,-87.44432830810547
"54202","Baileys Harbor","WI","The Main Course","not_available","54212",45.12409085,-87.2305816411972
"54204","Brussels","WI","Marchant's Foods","9000-9098 County Road DK","54204",44.73692296746792,-87.6194813532382
"54208","Denmark","WI","Main Street Market","100 Railroad Ave","54208",44.34578662855807,-87.82526127639782
"54209","Egg Harbor","WI","Main Street Market","7770 State Highway 42","54209",45.04909400869212,-87.27890873311799
"54209","Egg Harbor","WI","Door County Private Chef","6928 County Road T","54209",45.00651931762695,-87.2436752319336
"54210","Ellison Bay","WI","Pioneer General Store","not_available","54210",45.253939857149234,-87.07357955868432
"54216","Kewaunee","WI","Stodola's IGA","602 Center Dr","54217",44.54604272370337,-87.6987487229743
"54216","Kewaunee","WI","Piggly Wiggly","PO Box 239","54216",44.443538665771484,-87.5524673461914
"54216","Kewaunee","WI","Piggly Wiggly","931 Marquette Dr","54216",44.454711641173205,-87.52774974063591
"54220","Manitowoc","WI","Walmart Supercenter","4115 Calumet Ave","54220",44.07568534,-87.69754887
"54220","Manitowoc","WI","Festival Foods","2151 S 42nd St","54220",44.072595,-87.69843
"54220","Manitowoc","WI","Fox's Piggly Wiggly","1339 N 8th St","54220",44.11339039102366,-87.6573331526319
"54220","Manitowoc","WI","ALDI","Harbor Town Ln","54220",44.07688081803874,-87.69997909365743
"54220","Manitowoc","WI","Copps","3300 Calumet Ave","54220",44.086286790895,-87.68945129248095
"54220","Manitowoc","WI","Rob's Family Market","2330 Menasha Ave","54220",44.116117301698964,-87.67986540381595
"54220","Manitowoc","WI","Festival Foods","2151 S 42nd Street","54220",44.0726458,-87.6984284
"54220","Manitowoc","WI","Fast Taco By Lupita's Mexican Restaurant And Grocery Store","3949 Calumet Ave","54220",44.07926166360025,-87.69628286361694
"54220","Manitowoc","WI","Thai and Lao Market","Washington Street","54220",44.089090717326506,-87.66448259652623
"54220","Manitowoc","WI","ALDI","4111 Harbor Town Ln","54220",44.07714492476135,-87.6999570336693
"54220","Manitowoc","WI","Progreso Mexicano","not_available","54220",44.07961629166756,-87.69664199548929
"54228","Mishicot","WI","Mishicot Family Market","not_available","54228",44.23305130004883,-87.63426208496094
"54230","Reedsville","WI","The Village Pantry","not_available","54230",44.158912658691406,-87.9671859741211
"54230","Reedsville","WI","Piggly Wiggly","441 S Calumet Dr","54245",44.062670000000004,-87.886375
"54234","Sister Bay","WI","Piggly Wiggly","10576 Country Walk Dr","54234",45.18438252038732,-87.12689377393194
"54234","Sister Bay","WI","Piggly Wiggly","PO Box 437","54234",45.19050979614258,-87.11417388916016
"54235","Sturgeon Bay","WI","Walmart Supercenter","1536 Egg Harbor Rd","54235",44.85257857968238,-87.35871552233533
"54235","Sturgeon Bay","WI","Pick 'n Save","1847 Egg Harbor Rd","54235",44.85040400145344,-87.349414229393
"54235","Sturgeon Bay","WI","Tadych's EconoFoods","1250 N 14th Ave","54235",44.85089215579421,-87.3605664501352
"54235","Sturgeon Bay","WI","JP Express","5493 Monument Point Rd","54209",44.9646199,-87.33440100000001
"54235","Sturgeon Bay","WI","Healthy Way Market  llc","142 S 3rd Ave","54235",44.833,-87.37503
"54235","Sturgeon Bay","WI","Bley's Grocery","6318 State Highway 57","54235",44.97972766571006,-87.18408823013306
"54241","Two Rivers","WI","Pick 'n Save","1010 22nd St","54241",44.154351,-87.560528
"54241","Two Rivers","WI","Piggly Wiggly","2300 Forest Ave","54241",44.15460205078125,-87.57379913330078
"54241","Two Rivers","WI","Bent & Dent Depot","not_available","54241",44.15085983276367,-87.5678939819336
"54245","Valders","WI","Piggly Wiggly","PO Box 429","54245",44.032047271728516,-87.8797607421875
"54301","Green Bay","WI","Mason Bros Red Owl","923 9th St","54304",44.50614317563219,-88.04125694975185
"54301","Green Bay","WI","Asian Taste Supermarket","722 Bodart St","54301",44.51428461588617,-88.00609745749126
"54301","Green Bay","WI","Save-A-Lot","505 Dousman St","54303",44.51953737166668,-88.02148559690391
"54301","Green Bay","WI","Main Oriental Market","607 S Monroe Ave, Green Bay, WI 54301","54301",44.514602,-88.008406
"54301","Green Bay","WI","Mi Terra Food Market","not_available","54302",44.51132262214259,-87.99385333059098
"54301","Green Bay","WI","LPV Oriental Food Store","Walnut St","54301",44.518795,-88.028929
"54302","Green Bay","WI","Festival Foods","2430 University Avenue","54302",44.51317444061127,-87.9613148241377
"54302","Green Bay","WI","University Avenue Market","2080 University Ave","54302",44.51234897162465,-87.97002862500904
"54303","Green Bay","WI","Woodmans","2400 Duck Creek Parkway","54303",44.54313239004298,-88.07746641624048
"54303","Green Bay","WI","Festival Foods","2250 W Mason St","54303",44.525106448419145,-88.08639773545036
"54303","Green Bay","WI","Meijer","2015 Shawano Ave","54303",44.53520444417412,-88.07675124473863
"54303","Green Bay","WI","Walmart Supercenter","2440 W Mason St","54303",44.52626224360787,-88.09113280896541
"54303","Green Bay","WI","ALDI","1560 Western Ave","54303",44.5266881,-88.0609977
"54303","Green Bay","WI","woodman's grocery checkout","not_available","54303",44.543351990213914,-88.07761148898888
"54303","Green Bay","WI","Festival Foods","2250 W Mason Street","54303",44.5253874,-88.08650659999999
"54304","Green Bay","WI","Copps","1291 Lombardi Access Rd","54304",44.5068589,-88.0756126
"54313","Green Bay","WI","Festival Foods","2348 Lineville Rd","54313",44.59224030562647,-88.07443480630971
"54313","Green Bay","WI","Olsen's Piggly Wiggly","2465 Lineville Rd","54313",44.58961413639514,-88.07998858137049
"54401","Wausau","WI","Walmart Supercenter","4300 Rib Mountain Dr","54401",44.91880717909868,-89.65322138312243
"54401","Wausau","WI","Crossroads County Market","220 S 18th Ave","54401",44.96170282031469,-89.65869072141098
"54401","Wausau","WI","Pick 'n Save","205 Central Bridge St","54401",44.96720481684681,-89.63464561136789
"54401","Wausau","WI","Pick 'n Save","10101 Market St","54474",44.865471455809654,-89.63282170011439
"54401","Wausau","WI","Trig's","110 S 17th Ave","54401",44.963738688926334,-89.65679617346706
"54401","Wausau","WI","Quality Foods IGA","2900 Rib Mountain Dr","54401",44.93029105971702,-89.65595243322795
"54401","Wausau","WI","Aldi","225805 Rib Mountain Dr","54401",44.917265607581086,-89.64897528290749
"54401","Wausau","WI","The Planted Seed, LLC","1310 Cherry St","54401",44.97941589355469,-89.63626098632812
"54401","Wausau","WI","Tres Hermanos Grocery","not_available","54403",44.96989,-89.623634
"54401","Wausau","WI","Phou-Bia Oriental Market","316 Sherman St","54401",44.952232360839844,-89.64024353027344
"54401","Wausau","WI","El Mercadito","3001 Rib Mountain Dr","54401",44.9293,-89.65433
"54401","Wausau","WI","Downtown Grocery","607 N 3rd St","54403",44.96176968909745,-89.62768533814007
"54401","Wausau","WI","Pick 'n Save Grocery Pickup and Delivery","10101 Market Street","54474",44.86592,-89.63298
"54401","Wausau","WI","Kohlman & Lee's Grocery","735 S 3rd Ave","54401",44.954298,-89.638942
"54401","Wausau","WI","Wausau Super Oriental Market","510 W Thomas St","54401",44.94861602783203,-89.6425552368164
"54403","Wausau","WI","Lamb's Fresh Market","730 E Wausau Ave","54403",44.97457510433377,-89.61966354429455
"54403","Wausau","WI","Star Asian Market","not_available","54476",44.93679515045978,-89.61650848388672
"54403","Wausau","WI","Townline Market","916 Townline Rd","54403",44.9450819908331,-89.61692247646388
"54405","Abbotsford","WI","Kramer's County Market","206 4th St","54405",44.948829510258975,-90.31658637168475
"54409","Antigo","WI","Pick 'n Save","406 Highway 64","54409",45.16374851227779,-89.14678405523767
"54409","Antigo","WI","Walmart Supercenter","200 E State Highway 64","54409",45.16331639138125,-89.14296347349756
"54409","Antigo","WI","Natural Living","727 Superior St","54409",45.14256595342944,-89.15215085407743
"54409","Antigo","WI","Sentry Foods","115 S Superior St","54409",45.132328033447266,-89.15206146240234
"54409","Antigo","WI","BJs Market","not_available","54414",44.9967917114187,-89.00196422023951
"54411","Athens","WI","georges Marathon Foods","not_available","54426",44.95905303955078,-89.90380096435547
"54414","Birnamwood","WI","Backes Food Mart","382 Main St","54414",44.93050003051758,-89.2088851928711
"54421","Colby","WI","CUP Food Pantry","not_available","54421",44.91184842064503,-90.31898975372314
"54423","Custer","WI","ALDI","5632 US Highway 10 E","54482",44.52432047,-89.50699389
"54423","Custer","WI","Aldi","1081-1199 Amber Ave","54482",44.52422970368071,-89.50661961621913
"54426","Edgar","WI","Davels","307 N 3rd Ave","54484",44.80297114731139,-90.07671117782593
"54427","Eland","WI","Hanke's Super Valu","100 W Reed St","54499",44.82289505004883,-89.1678237915039
"54433","Gilman","WI","Skabroud's","not_available","54766",45.31224892826817,-90.95627145778383
"54433","Gilman","WI","Brost's Corner Store","W5593 Main St","54766",45.3104649,-90.96117149999999
"54435","Gleason","WI","Prairie pines","not_available","54435",45.31195057433789,-89.48696297198602
"54437","Greenwood","WI","Mayville's Market","not_available","54437",44.76429348260078,-90.59829274315237
"54443","Junction City","WI","Mancl's Grocery","523 Hayes St","54454",44.60402835973854,-89.85466302601111
"54449","Marshfield","WI","Pick 'n Save","641 S Central Ave","54449",44.66106826021281,-90.17524750546733
"54449","Marshfield","WI","Walmart Supercenter","2001 N Central Ave","54449",44.68638563,-90.15551274
"54449","Marshfield","WI","Festival Foods","1613 N Central Ave","54449",44.68099718665652,-90.16135096549988
"54449","Marshfield","WI","ALDI","2107 N Peach Ave","54449",44.68974647682352,-90.15931248664856
"54449","Marshfield","WI","Market La Central","not_available","54449",44.655709,-90.18104
"54449","Marshfield","WI","Great Lakes Fresh Market","1110 S Pacific St","54479",44.747147618439136,-90.28198514615956
"54451","Medford","WI","Walmart Supercenter","1010 N 8th St","54451",45.15335787309082,-90.33096739842591
"54451","Medford","WI","Medford County Market","Kmart Plaza","54451",45.13983079483637,-90.33164039220634
"54451","Medford","WI","Eds IGA","not_available","54470",45.323459851744104,-90.18375999172957
"54452","Merrill","WI","Dave's County Market","300 E 1st St","54452",45.180036824199156,-89.69594651932312
"54452","Merrill","WI","To Your Health Market","129 N Prospect St","54452",45.18025834735684,-89.705531001091
"54452","Merrill","WI","Walmart Supercenter","505 S. Pine Ridge Avenue","54452",45.17600483029103,-89.64915919932126
"54452","Merrill","WI","Piggly Wiggly","3404 E Main St","54452",45.17945098876953,-89.65097045898438
"54452","Merrill","WI","Piggly Wiggly","3404 E Main St","not_available",45.179832,-89.650029
"54455","Mosinee","WI","Piggly Wiggly","530 W State Highway 153","54455",44.78907674452768,-89.72956433176198
"54456","Neillsville","WI","Hansen's IGA","Grand Avenue","54456",44.560156,-90.599358
"54456","Neillsville","WI","Gordy's Market","S Pacific","54479",44.55261933728064,-90.59265681393694
"54456","Neillsville","WI","Green Leaf","not_available","54456",44.552993,-90.599166
"54457","Nekoosa","WI","Piggly Wiggly","1025 Market St","54457",44.314952415282725,-89.90570660467375
"54457","Nekoosa","WI","Papa's Live Bait and Tackle Shop","N14133 21st Ave N","54646",44.156620025634766,-89.98656463623047
"54460","Owen","WI","Family Foods","not_available","54460",44.949881283920725,-90.57385456165932
"54466","Pittsville","WI","baums","not_available","54466",44.439346731351904,-90.12779852485558
"54466","Pittsville","WI","braums","Hwy 80","not_available",44.41679000854492,-90.12651062011719
"54467","Plover","WI","Walmart Supercenter","250 Crossroads Dr","54467",44.49283082,-89.51092255
"54467","Plover","WI","Copps","1850 Plover Rd","54467",44.45632191767014,-89.52767103910446
"54467","Plover","WI","sav-a-lot","not_available","54467",44.45757787451487,-89.53713236188298
"54476","Schofield","WI","Pick 'n Save","2806 Schofield Ave","54476",44.90827340541458,-89.58871006965637
"54481","Stevens Point","WI","Metro Market","not_available","54481",44.521034,-89.550545
"54481","Stevens Point","WI","Copps","1500 Pinecrest Ave","54481",44.5211773,-89.5507609
"54481","Stevens Point","WI","Trig's","1600 Academy Ave","54481",44.53668640067006,-89.57642608133636
"54481","Stevens Point","WI","Save-A-Lot","3264 Church St","54481",44.50292549638648,-89.5662529023037
"54481","Stevens Point","WI","Stevens Point Area Cooperative","633 2nd St","54481",44.5288555870184,-89.58551094470351
"54481","Stevens Point","WI","The Market on Strongs","1332 Strongs Ave","54481",44.522696999999994,-89.58256899999999
"54481","Stevens Point","WI","Asian American Market","2810-2824 Stanley St","54481",44.53241952773713,-89.5590189470395
"54482","Stevens Point","WI","Nutrition Discount Center","5474 US Highway 10 E","54482",44.5241813659668,-89.51638793945312
"54486","Tigerton","WI","Cedar Street Market & Discount Foods","234 Cedar St","54486",44.74084869056192,-89.0629775051464
"54487","Tomahawk","WI","Great Lakes Foods","990 N 4th St","54487",45.48441406462337,-89.72858110699026
"54487","Tomahawk","WI","Nelson's County Market","662 N 4th St","54487",45.480645404468426,-89.72810646432829
"54494","Wisconsin Rapids","WI","Walmart Supercenter","4331 8th St S","54494",44.354551948549215,-89.81356786176089
"54494","Wisconsin Rapids","WI","Copps","900 E Riverview Expy","54494",44.37822810380038,-89.81553082201737
"54494","Wisconsin Rapids","WI","Quality Foods IGA","1811 Baker Dr","54494",44.39406404519131,-89.80409451468579
"54494","Wisconsin Rapids","WI","Quality Foods IGA","1021 W Grand Ave","54495",44.395382188315025,-89.83658320662722
"54494","Wisconsin Rapids","WI","Family Natural Foods","not_available","54495",44.395882,-89.834742
"54494","Wisconsin Rapids","WI","ALDI","1211 8th St S","54494",44.38119591754861,-89.81626734898782
"54494","Wisconsin Rapids","WI","Wally World 8th St","not_available","54494",44.391544342041016,-89.82288360595703
"54501","Rhinelander","WI","Walmart Supercenter","2121 Lincoln St","54501",45.63533796720635,-89.3826284689133
"54501","Rhinelander","WI","Trig's","232 S Courtney St","54501",45.635455839467255,-89.41529226901314
"54501","Rhinelander","WI","Bakers Three Lakes Food","1593 Hwy 32","not_available",45.79707708943661,-89.15209869128064
"54501","Rhinelander","WI","Golden Harvest","3215 County G","54501",45.62239074707031,-89.41064453125
"54501","Rhinelander","WI","The Country Sun Seed","not_available","54501",45.63469586237756,-89.3903425253181
"54501","Rhinelander","WI","ALDI","1405 Lincoln St","54501",45.63394758402548,-89.39058870077133
"54512","Boulder Junction","WI","Coontail Market","5462 Park St","54512",46.1111099,-89.64009
"54512","Boulder Junction","WI","Boulder market","not_available","54512",46.109413,-89.64154
"54520","Crandon","WI","Schaefers Food Mart","600 E Pioneer St","54520",45.56355903755771,-88.89522906463789
"54520","Crandon","WI","Schaffer's Food Mart","not_available","54520",45.57261335191787,-88.89774578198478
"54521","Eagle River","WI","Trigs Eagle River","925 E Wall St","54521",45.91545802751421,-89.23945276334351
"54521","Eagle River","WI","Camp's Supervalu Foods","401-499 Hiawatha Ave","54558",45.9123980920664,-89.48682111862183
"54521","Eagle River","WI","Pick 'n Save","711 US Highway 45 N","54521",45.925380629256175,-89.25412121097565
"54521","Eagle River","WI","St Germain Sentry Foods","not_available","54558",45.912212,-89.486508
"54530","Hawkins","WI","Village Store","not_available","54530",45.51341490717635,-90.7165368407366
"54534","Hurley","WI","Super One Foods","1480 East Cloverland Drive","49938",46.4642165734647,-90.14331264567093
"54534","Hurley","WI","Snow's family market","5126 N US Highway 51","54547",46.1632725870805,-90.05619992379121
"54534","Hurley","WI","Walmart Supercenter","10305 Country Club Road","49938",46.470502121651876,-90.12695695780715
"54534","Hurley","WI","Brite Spot","not_available","54534",46.449628000000004,-90.180707
"54534","Hurley","WI","Super One Foods","1009 Holiday Ln","54534",46.459692,-90.195258
"54538","Lac Du Flambeau","WI","LDF Country Market","501 Old Abe Rd","54538",45.972588,-89.890828
"54540","Land O Lakes","WI","Land O' Lakes Village Market","not_available","54540",46.161620285371455,-89.21477974807974
"54545","Manitowish Waters","WI","Village Market","Manitowish Waters","54545",46.13634937657536,-89.88667902732283
"54545","Manitowish Waters","WI","La Porte's IGA Grocery","not_available","54545",46.136396,-89.886629
"54548","Minocqua","WI","Trig's","9750 State Highway 70","54548",45.88747289026106,-89.71966174023413
"54548","Minocqua","WI","Save More Market Place","8522 US Highway 51 N","54548",45.87642026279272,-89.7042368591077
"54548","Minocqua","WI","Walmart Supercenter","8760 Northridge Way","54548",45.88973750039206,-89.72199151476296
"54548","Minocqua","WI","Sower And The Seed","not_available","54568",45.896590538002606,-89.69935989617716
"54555","Phillips","WI","Pick 'n Save","256 Lake Ave.","54555",45.687352198550826,-90.39523646238194
"54555","Phillips","WI","Pick 'n Save Grocery Pickup and Delivery","256 Lake St.","54555",45.6909847,-90.39826440000002
"54556","Prentice","WI","Prentice Market And Deli","not_available","54556",45.545573,-90.286266
"54601","La Crosse","WI","Festival Foods","30 Copeland Ave","54603",43.821888234133866,-91.24826436583926
"54601","La Crosse","WI","Festival Foods","1260 Crossing Meadows Dr","54650",43.86876580826268,-91.21190249919891
"54601","La Crosse","WI","Walmart Supercenter","4622 Mormon Coulee Rd","54601",43.766330032168284,-91.21339085172644
"54601","La Crosse","WI","Festival Foods","2500 State Rd","54601",43.794952178552364,-91.21828548077146
"54601","La Crosse","WI","Quillin's","201 Sky Harbour Dr","54603",43.859876627568525,-91.2633485554483
"54601","La Crosse","WI","People's Food Co-op","315 5th Ave S","54601",43.80921329249448,-91.24979211262105
"54601","La Crosse","WI","Oriental Goodies","2945 21st Pl S","54601",43.7800203,-91.22410719999999
"54601","La Crosse","WI","Potato King","N1078 Justin Rd","54601",43.761156,-91.17869300000001
"54601","La Crosse","WI","asian market","not_available","54603",43.84517010296479,-91.24002410928856
"54601","La Crosse","WI","Piggly Wiggly","1601 George Street","54603",43.846897033333335,-91.24007256666667
"54601","La Crosse","WI","Gordy's Market","1607 George St","54603",43.846778869628906,-91.24012756347656
"54601","La Crosse","WI","Festival Foods","2500 State Road","54601",43.7949489,-91.2176642
"54601","La Crosse","WI","St. Joe's Country Market","Ridgeview Dr","54601",43.784218007788645,-91.04459376239649
"54601","La Crosse","WI","bread outlet","66 Colpand avenue","54603",43.82481002807617,-91.24916076660156
"54612","Arcadia","WI","Piggly Wiggly","550 Dettloff Dr","54612",44.244747161865234,-91.47484588623047
"54615","Black River Falls","WI","Hansen’s IGA","449 County Road a","54615",44.309224,-90.85368
"54615","Black River Falls","WI","Walmart Supercenter","611 State Highway 54","54615",44.29209548922949,-90.83481642188772
"54616","Blair","WI","IGA","not_available","54773",44.367559,-91.317511
"54619","Cashton","WI","Hansen's IGA","US HWY 14/61","54667",43.658594,-90.85682299999999
"54619","Cashton","WI","Bent N Dent Discount Store (grocery)","30932-30972 Opal Rd","54651",43.726816421471774,-90.65183434755701
"54619","Cashton","WI","Hansen's IGA","830 Front St","54619",43.743418,-90.77823000000001
"54622","Cochrane","WI","Anderson's Village Market","101 N Main","54622",44.22742524930315,-91.83585510353507
"54627","Ettrick","WI","Our Town Fresh Market","17152 US Highway 53","54630",44.09273331593061,-91.34128840522273
"54627","Ettrick","WI","Gordy's Market","17512 N Main St","54630",44.09259796142578,-91.3411865234375
"54629","Fountain City","WI","Walmart Supercenter","955 Frontenac Dr","55987",44.033051952045916,-91.61761776658867
"54629","Fountain City","WI","Hy-Vee","1475 W Service Dr","55987",44.047051,-91.67842
"54629","Fountain City","WI","Midtown Foods","E 5th St.","55987",44.050288399068364,-91.63556475351305
"54629","Fountain City","WI","Bluff Country Co-op","121 W 2nd St","55987",44.0537579573456,-91.6384255267358
"54629","Fountain City","WI","Hyvee","not_available","55987",44.047030602737934,-91.6390142152726
"54636","Holmen","WI","Festival Foods","123 Hale Drive","54636",43.953343831973385,-91.25694751739502
"54636","Holmen","WI","Hmong Grocery Store","not_available","54636",43.948796,-91.259511
"54639","La Farge","WI","Bergums","101-199 N Maple St","54639",43.57453923561908,-90.63530432347609
"54650","Onalaska","WI","Woodman's Food Market","9515 State Road 16","54650",43.87923553851683,-91.17629496855598
"54650","Onalaska","WI","Walmart Supercenter","3107 Market Pl","54650",43.879627463604926,-91.18366047074633
"54650","Onalaska","WI","ALDI","3133 Market Pl","54650",43.88034456165726,-91.18061173452128
"54650","Onalaska","WI","Woodman's Food Market","9515 Hwy. 16","54650",43.8792497,-91.1760925
"54655","Soldiers Grove","WI","Xtra Discount Grocery","41129 Cty X","54321",43.39099,-90.68962
"54656","Sparta","WI","Walmart Supercenter","1600 W Wisconsin St","54656",43.94062471,-90.832923
"54656","Sparta","WI","Fort McCoy Commissary","1537 S J St","54656",44.016426639894966,-90.68430719385914
"54656","Sparta","WI","Specialty Food Distribution Co, LLC","4600 Theater Rd","54656",43.94717788696289,-90.76300811767578
"54660","Tomah","WI","Walmart Supercenter","222 W Mccoy Blvd","54660",44.02080951806004,-90.50846461903896
"54660","Tomah","WI","ALDI","1844 N Superior Ave","54660",44.01638067777376,-90.50655115140671
"54660","Tomah","WI","Festival Foods","701 E Clifton St","54660",43.97100541185989,-90.49655199050903
"54660","Tomah","WI","Walmart Grocery Pickup","222 W McCoy Blvd","54660",44.0180026785877,-90.5077933021645
"54660","Tomah","WI","Lark Inn General Store","247 N Superior Ave","54660",43.98994064331055,-90.50420379638672
"54665","Viroqua","WI","Viroqua Food Co-op","609 N Main St","54665",43.560519517856264,-90.88881327872633
"54665","Viroqua","WI","Walmart Supercenter","1133 N Main St","54665",43.5704898,-90.88707471
"54665","Viroqua","WI","Village Market","1230 N Main St","54665",43.574131116898975,-90.89026015210192
"54666","Warrens","WI","The Warrens Mall","257-299 County Hig. EW","54666",44.13078582395156,-90.50027038310112
"54669","West Salem","WI","Hansen's IGA","635 W City Highway 16","54669",43.898808315143285,-91.09251518254219
"54701","Eau Claire","WI","Festival Foods","3007 Mall Dr","54701",44.78819415473764,-91.45982449808912
"54701","Eau Claire","WI","Target","3649 S Hastings Way","54701",44.7808785418112,-91.43310983201211
"54701","Eau Claire","WI","Walmart Supercenter","3915 Gateway Dr","54701",44.77583474202105,-91.42887168184481
"54701","Eau Claire","WI","Aldi's","3650 S Hastings Way","54701",44.77915067056086,-91.4331450622285
"54701","Eau Claire","WI","Rons Castle Foods","1037 W Clairemont Ave","54701",44.790432859708126,-91.515021973606
"54701","Eau Claire","WI","LOriental Store","1607 Bellinger St","54703",44.815829,-91.511242
"54701","Eau Claire","WI","Just Local Foods","1117 S Farwell St","54701",44.8049365,-91.49188439999999
"54701","Eau Claire","WI","Amerasian Food Plus","2116 W Cameron St","54703",44.814466,-91.537686
"54701","Eau Claire","WI","Piggly Wiggly","not_available","54701",44.71843719482422,-91.41483306884766
"54703","Eau Claire","WI","Woodmans","2855 Woodman Drive","54720",44.81642056833691,-91.45769673110823
"54703","Eau Claire","WI","Festival Foods","2615 N Clairemont Ave","54703",44.82630375356938,-91.54204212682708
"54703","Eau Claire","WI","Festival Foods","2717 Birch St","54703",44.82038286601095,-91.47137724263949
"54703","Eau Claire","WI","Walmart Supercenter","2786 Commercial Blvd","54729",44.883711254497435,-91.42192615030024
"54703","Eau Claire","WI","ALDI","3064 Commercial Blvd","54729",44.88665298826121,-91.41995072364807
"54722","Augusta","WI","Weaver's Country Store","13765 US Highway 12 E","54742",44.757219203168944,-91.24955351571475
"54722","Augusta","WI","Gordy's County Market","155 W Lincoln St.","54722",44.68031311035156,-91.1217269897461
"54724","Bloomer","WI","Shadick's","1502 16th Ave","54724",45.10049057006836,-91.49231719970703
"54728","Chetek","WI","Gordy's County Market","719 2nd St","54728",45.31583849310929,-91.65185623196814
"54728","Chetek","WI","Kirkwood","not_available","54728",45.315978366300484,-91.65188780174473
"54728","Chetek","WI","Sugar 'N Spice","1600 Parker Dr","54728",45.32348727515592,-91.6673469543457
"54729","Chippewa Falls","WI","Gordy's County Market","17158 County Highway","54729",44.92343864710236,-91.32153311834065
"54729","Chippewa Falls","WI","Gordy's County Market","212 Bay St","54729",44.9355830814218,-91.39484555175171
"54729","Chippewa Falls","WI","Family Fare Supermarket","17158 County Hwy J","54729",44.92331314086914,-91.32137298583984
"54729","Chippewa Falls","WI","Gordys County Market","not_available","54729",44.96222755,-91.34686299
"54729","Chippewa Falls","WI","Family Fare Supermarket","212 Bay Street","54729",44.935550689697266,-91.39482879638672
"54732","Cornell","WI","Gordy's Market","522 Bridge St","54732",45.16530886388964,-91.14507903505981
"54738","Eleva","WI","BK Creations, LLC","W27750 Schmidt Rd","54738",44.534889221191406,-91.50408935546875
"54741","Fairchild","WI","Promotion Music Specialties","W12849 W Lange Rd","54741",44.5659927,-90.95559200000001
"54745","Holcombe","WI","Leyla's Place","30887 State Highway 27","54745",45.29046899999999,-91.109917
"54751","Menomonie","WI","Walmart Supercenter","180 Cedar Falls Rd","54751",44.91093120290168,-91.93149411728439
"54751","Menomonie","WI","Marketplace Foods","207 Pine Ave W","54751",44.90214681392206,-91.93438491534425
"54751","Menomonie","WI","Menomonie Market Food Co-op","814 Main Street East","54751",44.87618002486085,-91.92014761067091
"54751","Menomonie","WI","ALDI","2505 Hils Ct","54751",44.9130967,-91.9327224
"54751","Menomonie","WI","Menomonie Market Food Coop","not_available","54751",44.855303,-91.939981
"54751","Menomonie","WI","Lammer's Food Fest","1408 9th St E","54751",44.86983368805396,-91.91939666956718
"54755","Mondovi","WI","Mondovi Market","not_available","54755",44.567081746245364,-91.66955224685518
"54758","Osseo","WI","Gordy's Market","13307 10th St","54758",44.5789794921875,-91.21818542480469
"54759","Pepin","WI","Paul & Fran's Grocery","410 2nd St","54759",44.44002005342476,-92.14723780952761
"54767","Spring Valley","WI","Spring Valley SuperValu Foods","not_available","54767",44.843008868022594,-92.23779546889917
"54768","Stanley","WI","Stanley IGA","not_available","54768",44.9580152121319,-90.93736752768535
"54769","Stockholm","WI","Fiesta Foods","not_available","55041",44.44746447392133,-92.2643651987659
"54771","Thorp","WI","Auto Value","104 Prospect St","54771",44.95819810115197,-90.80146420565438
"54771","Thorp","WI","The Farmers Pantry","not_available","54771",44.959473,-90.800733
"54801","Spooner","WI","Economart","700 U.S. 63","54801",45.815692594070214,-91.89474305624033
"54806","Ashland","WI","Walmart Supercenter","2500 Lake Shore Dr E","54806",46.603742837371364,-90.85093993451346
"54806","Ashland","WI","Super One Foods","401 Ellis Ave","54806",46.58881980642863,-90.88177832978964
"54806","Ashland","WI","Washburn IGA","226 W Bayfield St","not_available",46.669757000000004,-90.89623
"54806","Ashland","WI","Frozen Side","not_available","54806",46.605367930976506,-90.85586792781028
"54806","Ashland","WI","Chequamegon Food Co-Op","700 Main Street West","54806",46.58782310046403,-90.89037459914418
"54812","Barron","WI","Gordy’s Market","not_available","54812",45.39941218,-91.84947247
"54812","Barron","WI","KJ's Fresh Market","622 E La Salle Ave","54812",45.399246,-91.849396
"54812","Barron","WI","Arrow  Taxi and Delivery","1643 15th St","54812",45.444156,-91.84629500000001
"54814","Bayfield","WI","Andy's IGA","Rittenhouse Ave","not_available",46.811197,-90.816333
"54817","Birchwood","WI","The Store","main street","54817",45.65624406073083,-91.55583073763064
"54822","Cameron","WI","Brion's Grocery","909 W Main St","54822",45.40879249918348,-91.7455466639788
"54829","Cumberland","WI","Main Street Market","1170 2nd Ave","54829",45.531502,-92.020651
"54830","Danbury","WI","Wayne's Foods Plus","7413 Main St","54830",46.00678890434122,-92.3643107490339
"54835","Exeland","WI","Exeland Depot & Mercantile","11033W State Hwy 48","54835",45.667725,-91.242906
"54838","Gordon","WI","IGA","9201-9223 E Main St","54873",46.35276039415813,-91.81916293
"54838","Gordon","WI","Stop-A-Sec","16389 Crystal Lake Rd","54890",46.172419,-91.945087
"54841","Haugen","WI","Village Grocery","100-198 County Highway V","54841",45.60816806610971,-91.7760988293261
"54843","Hayward","WI","Marketplace Foods","10514 Main St","54843",46.013244,-91.481478
"54843","Hayward","WI","Walmart Supercenter","15594 State Highway 77","54843",46.0179220955122,-91.47093705080475
"54843","Hayward","WI","Lakes Comunity Co-op Grocery Store","Hwy 70","not_available",45.84568305,-91.541506
"54843","Hayward","WI","Gordy's Market","15870 U.S. 63","54843",46.01182174682617,-91.4874267578125
"54843","Hayward","WI","Second Street Market","10583 Kansas Ave","54843",46.01514,-91.483795
"54847","Iron River","WI","Iron River Co-op Grocery","7840 Old us hwy 2","54847",46.5654627116803,-91.41682996239658
"54848","Ladysmith","WI","Walmart Supercenter","800 W 10th St S","54848",45.4574235798903,-91.11323321277744
"54848","Ladysmith","WI","Gordy's County Market","400 W 9th St N","54848",45.46744668949707,-91.11289477107758
"54859","Minong","WI","Henson's Country Foods","403 Business 53","54859",46.10181516565669,-91.82764819729492
"54859","Minong","WI","Gordy's County Market","Hwy 53","not_available",46.10056686401367,-91.83685302734375
"54868","Rice Lake","WI","Walmart Supercenter","2501 West Ave","54868",45.47565048165595,-91.76243343269904
"54868","Rice Lake","WI","Marketplace Foods","330 S Main St","54868",45.4955613562909,-91.7351651865082
"54868","Rice Lake","WI","ALDI","2200 S Main St","54868",45.47762786400445,-91.73678563674912
"54871","Shell Lake","WI","Dahlstroms Lakeside Market","37 W 5th Ave","54871",45.74310407189391,-91.92464279288315
"54871","Shell Lake","WI","Al's Market","37 5th Ave","54871",45.743350982666016,-91.92500305175781
"54872","Siren","WI","Fourwinds Market","not_available","54872",45.789294007664196,-92.38147085791321
"54874","South Range","WI","Super One Foods","2230 E 5th St","54880",46.7053437008348,-92.04814848363446
"54880","Superior","WI","Super One Foods","1515 Oakes Ave #2","54880",46.71979542009229,-92.10705582472107
"54880","Superior","WI","Walmart Supercenter","3705 Tower Ave","54880",46.69384312,-92.10568428
"54880","Superior","WI","Super One Foods","5300 Bristol St","55807",46.737092588918735,-92.16466503096784
"54880","Superior","WI","Whole Foods Co-op Denfeld","4426 Grand Ave","55807",46.746721907058685,-92.15712707265901
"54880","Superior","WI","ALDI","4429 Tower Ave","54880",46.6859724,-92.1050506
"54880","Superior","WI","Les's Grocery","2920 N 21st St","54880",46.71365136822671,-92.1212498089728
"54880","Superior","WI","1234","950 86th ave w","55808",46.693224971675356,-92.20928192138672
"54880","Superior","WI","Save-A-Lot","not_available","55807",46.737257078172966,-92.16783936752039
"54893","Webster","WI","Wayne's IGA","not_available","54893",45.87282515663435,-92.36511185306122
"54896","Winter","WI","Winter Co-Op Grocery/ Hardware Hank","5159 N South Main St","54896",45.821664194209944,-91.01146275610353
"54896","Winter","WI","Winter Co-Operative","5159N S Main St","54896",45.821744,-91.01179599999999
"54901","Oshkosh","WI","Pick 'n Save","1900 Jackson St","54901",44.0413888,-88.5416666
"54901","Oshkosh","WI","Piggly Wiggly","525 E Murdock Ave","54901",44.038219872159736,-88.53003590883954
"54901","Oshkosh","WI","Ski's Meat Market","502 N Main St","54901",44.01978917578652,-88.53719103720175
"54901","Oshkosh","WI","Lor Family store","425 Ohio St","54902",44.013345,-88.552705
"54901","Oshkosh","WI","Oshkosh Oriental Food & Video","1001 N Main St","54901",44.029507,-88.537904
"54901","Oshkosh","WI","Pick 'n Save","not_available","54140",44.027261485712806,-88.54772595183807
"54901","Oshkosh","WI","Super Oriental Foods","not_available","54901",44.039201,-88.539202
"54901","Oshkosh","WI","Golden Ocean Foods","1014 Ohio St","54902",44.008922036317195,-88.55230450756295
"54901","Oshkosh","WI","Nayarit Market Mexico","256 W 8th Ave","54902",44.011277,-88.543875
"54901","Oshkosh","WI","Nutrition Discount Center","457 N Main St","54901",44.018843,-88.53786
"54902","Oshkosh","WI","Pick 'n Save","1940 S Koeller St","54902",43.99874660161524,-88.57607647779332
"54902","Oshkosh","WI","ALDI","1995 S Koeller St","54902",43.996917086745164,-88.57983983542908
"54904","Oshkosh","WI","Walmart Supercenter","351 S Washburn St","54904",44.01583807566138,-88.58589227296575
"54904","Oshkosh","WI","Festival Foods","2415 Westowne Ave","54904",44.02776180465508,-88.59185099601746
"54904","Oshkosh","WI","Piggly Wiggly","142 Alder Ave","54963",44.0395145194925,-88.71919887645352
"54904","Oshkosh","WI","Wayne's Piggly Wiggly","910 E Main St","54986",44.112652950634484,-88.69603667389012
"54909","Almond","WI","Benny's Wild Rose Market","631 County Rd A","54984",44.17064094910237,-89.24674671911227
"54911","Appleton","WI","Pick 'n Save","2700 N Ballard Rd","54911",44.2862472,-88.3728027
"54911","Appleton","WI","Oriental Food Market","633 W Wisconsin Ave","54911",44.27269756411944,-88.41050907342603
"54911","Appleton","WI","The Granary Bulk Store","715 W Marquette St","54914",44.281855,-88.416379
"54911","Appleton","WI","Piggly Wiggly","520 E Northland Ave","54911",44.28791046142578,-88.39888763427734
"54913","Appleton","WI","Woodmans","595 N Westhill Blvd","54914",44.267116829287005,-88.46343898188276
"54913","Appleton","WI","Walmart Supercenter","955 Mutual Way","54913",44.26895175281408,-88.4797115095893
"54913","Appleton","WI","Meijer","3801 N. Richmond St","54913",44.300417981689236,-88.41745376586914
"54913","Appleton","WI","Pick 'n Save","2400 W Wisconsin Ave","54914",44.2746278,-88.4448962
"54913","Appleton","WI","Festival Foods","1200 W Northland Ave","54914",44.28879158882186,-88.42369794845581
"54913","Appleton","WI","ALDI","116 N Linwood Ave","54914",44.262375937518186,-88.43226657947531
"54913","Appleton","WI","Gordon Food Service Store","301 N Bluemound Dr","54914",44.263949166742954,-88.45646381378174
"54913","Appleton","WI","Bulk Priced Food Shoppe","not_available","54942",44.289919033429705,-88.51479647964638
"54913","Appleton","WI","The Free market","1000 W Wisconsin Ave","54914",44.27344692053456,-88.42089042580888
"54913","Appleton","WI","Penzey's","not_available","54913",44.26983872366987,-88.46965451676239
"54913","Appleton","WI","Appleton Asian Market","1828 W Wisconsin Ave","54914",44.27347523002333,-88.43403951275485
"54913","Appleton","WI","Stegers Nutrition Center","not_available","54914",44.26563114,-88.46288704
"54913","Appleton","WI","India Grocery","2333 W Wisconsin Ave","54914",44.272615,-88.442639
"54914","Appleton","WI","Piggly Wiggly","1151 Midway Rd","54952",44.228503651339246,-88.4255860695227
"54914","Appleton","WI","Freshline Keto Market","1750 Appleton Rd","54952",44.2329467123545,-88.4265947341919
"54915","Appleton","WI","Festival Foods","1355 Oneida Street","54952",44.227217387504645,-88.40242415879582
"54915","Appleton","WI","Pick 'n Save","511 W Calumet St","54915",44.24126072383696,-88.41457146412722
"54915","Appleton","WI","Pick 'n Save","N135 Stoney Brook Rd","54915",44.2453052,-88.3524563
"54915","Appleton","WI","ALDI","2310 S Kensington Dr","54915",44.24046086592177,-88.35928715247064
"54915","Appleton","WI","Asian Food Store","236 W Calumet St","54915",44.243613693488115,-88.40850997036195
"54923","Berlin","WI","Walmart Supercenter","861 County Road F","54923",43.97059351281629,-88.97906899177575
"54923","Berlin","WI","49 Meats & Groceries","W2281 Liberty St","54967",44.13737,-88.995417
"54923","Berlin","WI","Lucassen's Sentry Foods","275 Laing St","54970",44.03960282820996,-89.09387234312038
"54923","Berlin","WI","J&T's Family Foods","758 Broadway","54923",43.96776149800781,-88.97371808864521
"54923","Berlin","WI","Church Street Market","253 S Church St","54923",43.963856375,-88.94226551055908
"54929","Clintonville","WI","Econo foods","278 S Main St","54929",44.61139723754701,-88.76442858412605
"54929","Clintonville","WI","The Butcher's Corner","not_available","54950",44.671304310919574,-88.88808603681134
"54930","Coloma","WI","Coloma Supermarket","112 E Main St","54930",44.03472137451172,-89.52196502685547
"54930","Coloma","WI","Hilltop Grocery","not_available","54930",44.02861404418945,-89.51945495605469
"54935","Fond Du Lac","WI","Festival Foods","1125 E Johnson St","54935",43.784986,-88.403864
"54935","Fond Du Lac","WI","Pick 'n Save","760 W Johnson St","54935",43.78221188044925,-88.47550749868668
"54935","Fond Du Lac","WI","Pick 'n Save","55 W Pioneer Rd","54935",43.7556034,-88.4509949
"54935","Fond Du Lac","WI","Piggly Wiggly","131 University Dr","54935",43.78225486572773,-88.41411003927213
"54935","Fond Du Lac","WI","Philly's Grocery & Deli","321 4th St","54935",43.7731003587786,-88.43452334403992
"54935","Fond Du Lac","WI","Save-A-Lot","794 S Main St","54935",43.75700361524499,-88.44934077698593
"54935","Fond Du Lac","WI","Santos Market","241 W Scott St","54935",43.792141715305746,-88.45578253269196
"54935","Fond Du Lac","WI","DJ Food Mart","120 Forest Ave","54935",43.77725192844241,-88.4518502638955
"54935","Fond Du Lac","WI","La Esperanza","306 N Main St","54935",43.787376403808594,-88.44728088378906
"54937","Fond Du Lac","WI","Walmart Supercenter","377 N Rolling Meadows Dr","54937",43.78781885573592,-88.48440304398537
"54937","Fond Du Lac","WI","ALDI","N6666 Rolling Meadows Dr","54937",43.78285126695642,-88.48649650812149
"54941","Green Lake","WI","Home Grown local foods market","not_available","54941",43.846128534264196,-88.96010413078197
"54943","Hancock","WI","dent n bent","Hwy B","not_available",44.1259653447558,-89.6317456653234
"54944","Hortonville","WI","Gilbert's SuperValu","not_available","54944",44.33262555200235,-88.63887525850497
"54945","Iola","WI","IGA Foods","125 Meadow Rd","54945",44.50312359078799,-89.12163468568356
"54949","Manawa","WI","Quality Foods","214 S Bridge St","54949",44.464597999999995,-88.919632
"54952","Menasha","WI","Pick 'n Save","1530 S Commercial St","54956",44.15537831924089,-88.46137897362803
"54956","Neenah","WI","Pick 'n Save","828 Fox Point Plaza","54956",44.1759645,-88.4820837
"54956","Neenah","WI","Festival Foods","647 S Green Bay Rd","54956",44.17924941102484,-88.48713755607605
"54956","Neenah","WI","Walmart Grocery Pickup and Delivery","1155 W Winneconne Ave","54956",44.177492,-88.491799
"54956","Neenah","WI","ALDI","927 S Green Bay Rd","54956",44.1742741,-88.4861099
"54956","Neenah","WI","Red Radish Natural Foods","447 S Commercial St","54956",44.182823181152344,-88.46521759033203
"54961","New London","WI","Walmart","1717 N Shawano St","54961",44.41154807376331,-88.74341636253273
"54961","New London","WI","Piggly Wiggly","1919 N Shawano St","54961",44.412872891410636,-88.7437104023683
"54961","New London","WI","Festival Foods","308 N Shawano St","54961",44.39448852890441,-88.74489784240723
"54961","New London","WI","Red Owl (KD's IGA)","108 E Ann St","54983",44.323988568906216,-88.93393199046298
"54971","Ripon","WI","Save-A-Lot","111 E Fond du Lac St","54971",43.84241745401311,-88.83782755232076
"54981","Waupaca","WI","Pick 'n Save","955 W Fulton St","54981",44.355991639751515,-89.10709261894226
"54981","Waupaca","WI","ALDI","1040 W Fulton St","54981",44.35739840433161,-89.11001556002759
"54981","Waupaca","WI","Piggly Wiggly","810 W Fulton St","54981",44.358699798583984,-89.10031127929688
"54982","Wautoma","WI","Copps","N2573 Plaza Rd","54982",44.07240279520586,-89.27128079478837
"54982","Wautoma","WI","StoneRidge Piggly Wiggly","975 E Main St","54982",44.06921041090862,-89.27011728286743
"54982","Wautoma","WI","Pick 'n Save Grocery Pickup and Delivery","N2573 Plaza Dr.","54982",44.07237867813759,-89.27130510032522
"54982","Wautoma","WI","piggly wiggle","Wisconsin 21, Wautoma, WI 54982","54982",44.06936700720871,-89.26980671704422
