"zip","city","state","name","address","postalCode","lat","lon"
"87002","Belen","NM","Walmart Supercenter","1 I 25 Bypass","87002",34.69654902,-106.7684483
"87002","Belen","NM","Clariant Cargo  and  Device Protection","101 Christine Drive","87002",34.5953483581543,-106.73208618164062
"87004","Bernalillo","NM","Walmart Supercenter","460 Nm Highway #528","87004",35.319950095529904,-106.57273921804794
"87004","Bernalillo","NM","Smith's","1000 Rio Rancho Dr SE","87124",35.2397387,-106.6550527
"87004","Bernalillo","NM","Albertsons Market","4300 Ridgecrest Dr","87124",35.253899166956344,-106.65028722616626
"87004","Bernalillo","NM","Walmart Neighborhood Market","not_available","not_available",35.23959606349436,-106.65765698722942
"87004","Bernalillo","NM","Albertsons Market","7800 Enchanted Hills Blvd NE","87144",35.3235266,-106.5765502
"87004","Bernalillo","NM","Walmart Neighborhood Market","1115 Nm Highway 528 Se","87124",35.23917103749915,-106.65538996494433
"87004","Bernalillo","NM","Frontier Mart","3677 Corrales Rd","87048",35.21785388351942,-106.62487928121118
"87004","Bernalillo","NM","NB3 FOODS LLC","51 Jemez Dam Rd Ste 110A","87004",35.32879638671875,-106.56685638427734
"87004","Bernalillo","NM","St Felix Pantry","Barbara Loop","87124",35.235879,-106.655626
"87007","Casa Blanca","NM","Dancing Eagle Supermarket","Indn Service Route 22","87007",35.030609536767486,-107.4758575152501
"87010","Cerrillos","NM","Lone Butte General Store","3778-3790 New Mexico 14","87508",35.491452066598356,-106.06645847665587
"87013","Cuba","NM","Bashas'","Hwy 57 & Indian Service Rd. 9","87313",35.7867,-107.931069
"87015","Edgewood","NM","Walmart Supercenter","66 State Road #344","87015",35.07097027509293,-106.18883135484364
"87015","Edgewood","NM","Smith's","2B State Road 344","87015",35.0615469,-106.1896019
"87015","Edgewood","NM","Moriarty Foods","Moriarty, NM","87035",35.010799587899186,-106.06390594507654
"87020","Grants","NM","Walmart Supercenter","1000 Robert Rd","87020",35.12518606954439,-107.82555909785621
"87020","Grants","NM","John Brooks Milan Supermarket","1415 West Highway 66","87021",35.181006169768565,-107.89637067316401
"87020","Grants","NM","Smith's","700 E Roosevelt Ave","87020",35.16263948384227,-107.83254595133263
"87024","Jemez Pueblo","NM","Trail House Grocery","Mile Marker 11 Hwy 4","87025",35.7969986,-106.6883388
"87031","Los Lunas","NM","Walmart Supercenter","2250 Main St Nw","87031",34.817167651914,-106.7635767895328
"87031","Los Lunas","NM","Albertsons Market","2351 Main St SE","87031",34.8044668,-106.7033918
"87031","Los Lunas","NM","Smith's","2580 Main St NE","87031",34.80891434763913,-106.70241042042107
"87031","Los Lunas","NM","Giant","not_available","87031",34.806808683702386,-106.73476088358562
"87041","Pena Blanca","NM","Romero's Market","701-717 New Mexico 22","87041",35.56085718311487,-106.34102998001426
"87048","Corrales","NM","Albertsons Market","10131 Coors Blvd NW","87114",35.2006114,-106.650515
"87048","Corrales","NM","Walmart Supercenter","10224 Coors Byp Nw","87114",35.204306969384206,-106.65696142988118
"87048","Corrales","NM","Sprouts Farmers Market","10701 Corrales Rd NW, Ste 2","87114",35.20492,-106.646772
"87102","Albuquerque","NM","Silver Street Market","not_available","87102",35.082452360779826,-106.6497392417682
"87102","Albuquerque","NM","Smith's","320 Yale Blvd SE","87106",35.07612419452313,-106.62174852241151
"87102","Albuquerque","NM","Smith's","406 Yale Blvd SE","87106",35.07509231567383,-106.62174224853516
"87102","Albuquerque","NM","Hi Lo Market","2513 4th St NW","87102",35.110335851740274,-106.64718610901802
"87104","Albuquerque","NM","El Super","4201 Central Ave NW","87105",35.08704266207339,-106.68768022271928
"87104","Albuquerque","NM","La Montanita Co-op","2400 Rio Grande Blvd NW","87104",35.11785825857077,-106.67499200459164
"87104","Albuquerque","NM","Abq Health Pantry","119 San Pasquale Ave SW","87104",35.09299850463867,-106.6694107055664
"87104","Albuquerque","NM","Lowe's","Coronado Fwy","87104",35.10743420165468,-106.67229913783585
"87104","Albuquerque","NM","Old Town Olive","1919 Old Town Rd NW Ste 7","87104",35.09635,-106.66869
"87105","Albuquerque","NM","Smith's","200 Tramway Blvd SE","87123",35.0673519,-106.4964724
"87105","Albuquerque","NM","Trader Joe's","2200 Uptown Loop NE","87110",35.10230929818143,-106.56544893980026
"87105","Albuquerque","NM","Walmart Neighborhood Market","1820 Unser Blvd NW","87120",35.103261246675885,-106.72869432554664
"87105","Albuquerque","NM","Sprouts Farmers Market","5112 Lomas Blvd NE","87110",35.086716,-106.587823
"87105","Albuquerque","NM","Walmart Supercenter","400 Eubank Blvd Ne","87123",35.07970618025411,-106.5306043624878
"87105","Albuquerque","NM","Whole Foods Market","2103 Carlisle Blvd. Ne","87110",35.10266991547427,-106.60482179227598
"87105","Albuquerque","NM","Walmart Supercenter","2266 Wyoming Blvd Ne","87112",35.10661094464737,-106.5488418885144
"87105","Albuquerque","NM","Smith's","6001 Lomas Blvd NE","87110",35.08804673363785,-106.57916843891144
"87105","Albuquerque","NM","Smith's","3701 Constitution Ave NE","87110",35.095670940524656,-106.6029961570166
"87105","Albuquerque","NM","Walmart Supercenter","301 San Mateo Blvd Se","87108",35.075827176632124,-106.58809962621316
"87105","Albuquerque","NM","Walmart Neighborhood Market","4700 Cutler Ave Ne","87110",35.10490507881655,-106.59226871918851
"87105","Albuquerque","NM","Smith's","1601 Arenal Rd SW","87105",35.05415257334317,-106.67900348211421
"87105","Albuquerque","NM","La Montanita Co-Op Food Market","3500 Central Ave SE","87106",35.079521350474735,-106.6053065766001
"87105","Albuquerque","NM","Sprouts Farmers Market","13150 Central Ave SE","87123",35.0666481,-106.4992723
"87105","Albuquerque","NM","Albertsons Market","11825 Lomas Blvd NE","87112",35.0882275,-106.515956
"87105","Albuquerque","NM","Walmart Supercenter","3500 Coors Blvd Sw","87121",35.026065589592456,-106.71120949209397
"87105","Albuquerque","NM","Albertsons Market","1625 Rio Bravo Blvd SW","87105",35.027794,-106.6825289
"87105","Albuquerque","NM","Talin Market World Food Fare","88 Louisiana Blvd SE","87108",35.0750933063439,-106.56808525484661
"87105","Albuquerque","NM","El Mezquite","201 San Pedro Dr SE","87108",35.07499613711058,-106.57821500383936
"87105","Albuquerque","NM","Smith's","111 Coors Blvd NW","87121",35.08057100357342,-106.71323533401994
"87105","Albuquerque","NM","Arirang Oriental Market","1826 Eubank Blvd NE","87112",35.10261025822189,-106.5324804256346
"87105","Albuquerque","NM","A-1 Oriental Market","1410 Wyoming Blvd NE Ste F","87112",35.095884000000005,-106.55000700000001
"87106","Albuquerque","NM","Smith's","2620 Carlisle Se","871102802",35.073214570462426,-106.60323090320328
"87106","Albuquerque","NM","Sami Food Mart","1600 Carlisle Blvd SE","87106",35.059007,-106.603959
"87107","Albuquerque","NM","Sprouts Farmers Market","5600 Coors Blvd NW","87120",35.146894829656,-106.68630689814756
"87107","Albuquerque","NM","Albertsons","6200 Coors Blvd NW","87120",35.152688,-106.682199
"87107","Albuquerque","NM","Walmart Supercenter","2701 Carlisle Blvd Ne","87110",35.11207849123057,-106.60781507578824
"87107","Albuquerque","NM","Smith's","8301 Golf Course Rd NW","87120",35.178806973027534,-106.68985784053802
"87107","Albuquerque","NM","Walmart Neighborhood Market","8511 Golf Course Rd Nw","87114",35.18056160448194,-106.68955499706799
"87107","Albuquerque","NM","Eurozone","3700 Osuna Rd NE Ste 505","87109",35.15394,-106.60188
"87107","Albuquerque","NM","Smith's","6125 4th St NW","87107",35.1464623,-106.6405839
"87107","Albuquerque","NM","El Mezquite","4401 4th St NW","87107",35.12767028808594,-106.64372253417969
"87107","Albuquerque","NM","Frozen Foods","not_available","87107",35.10759735107422,-106.60868835449219
"87107","Albuquerque","NM","Village Market","141 Osuna Rd NW","87107",35.15283966064453,-106.63018798828125
"87107","Albuquerque","NM","Lowe's Market","4701 4th St NW","87107",35.13112153342523,-106.64336278287779
"87107","Albuquerque","NM","Cbd Warehouse Usa","5940 Midway Park Blvd NE","87109",35.149319,-106.60298369999998
"87107","Albuquerque","NM","Smith's","3621 Menaul Blvd NE","87110",35.110165,-106.601634
"87108","Albuquerque","NM","Damacio's Grocery","913 San Pedro Dr SE","87108",35.064382,-106.57824
"87108","Albuquerque","NM","Fair N Square","not_available","87108",35.074119567871094,-106.55757904052734
"87108","Albuquerque","NM","Kirtland AFB Commissary","7801 Gibson Blvd. S.E., Bldg 20180","87117",35.05941541184465,-106.56072255478709
"87109","Albuquerque","NM","Walmart Supercenter","8000 Academy Rd Ne","87111",35.145128634065166,-106.55035265912785
"87109","Albuquerque","NM","Smith's","8040 Academy Rd NE","87111",35.14579294879048,-106.54918940381322
"87109","Albuquerque","NM","Target","8510 Montgomery Blvd NE","87111",35.12998507543254,-106.54772401028708
"87109","Albuquerque","NM","Albertsons Market","7101 Wyoming Blvd NE","87109",35.1600825,-106.5605065
"87109","Albuquerque","NM","Whole Foods Market","5815 Wyoming Blvd Ne","87109",35.146701831743755,-106.55571798678456
"87109","Albuquerque","NM","Natural Grocers","4420 Wyoming Blvd NE","87111",35.130233294728974,-106.5494148862551
"87109","Albuquerque","NM","Sprouts Farmers Market","6300 San Mateo Blvd NE","87109",35.148587,-106.583659
"87109","Albuquerque","NM","Casa Blanca Market","not_available","87109",35.13162,-106.57793
"87109","Albuquerque","NM","Smith's","4016 Louisiana Blvd NE","87110",35.1295585,-106.5675466
"87109","Albuquerque","NM","Albertsons Market","4950 Montgomery Blvd NE","87109",35.12958461311132,-106.58801347039116
"87109","Albuquerque","NM","Tokyo Japanese Market","6207 Montgomery Blvd NE","87109",35.13160705566406,-106.57725524902344
"87110","Albuquerque","NM","J&C Food Mart","not_available","87110",35.11601686477559,-106.58600807189632
"87111","Albuquerque","NM","Smith's","5850 Eubank Blvd NE","87111",35.14667429251071,-106.5275251865387
"87111","Albuquerque","NM","Albertsons Market","2910 Juan Tabo Blvd NE","87112",35.115362981502216,-106.51384325357867
"87111","Albuquerque","NM","Trader Joe's","8928 Holly Ave NE","87122",35.175167832333905,-106.54297120240312
"87111","Albuquerque","NM","Smith's","8100 Wyoming Blvd NE Ste A","87113",35.17592445280508,-106.5576584637165
"87111","Albuquerque","NM","Albertsons Market","8100 Ventura St NE","87122",35.1751044,-106.5399742
"87111","Albuquerque","NM","Albertsons Market","12201 Academy Rd NE","87111",35.1540167661999,-106.49904012680054
"87111","Albuquerque","NM","Sprouts Farmers Market","11201 Montgomery Blvd NE","87111",35.1316201,-106.5150128
"87111","Albuquerque","NM","Smith's","4700 Tramway Blvd NE","87111",35.1326259,-106.4967315
"87111","Albuquerque","NM","Walmart Neighborhood Market","11018 Montgomery Blvd Ne","87111",35.129896777572675,-106.51659799062453
"87111","Albuquerque","NM","Albertsons Market","2801 Eubank Blvd NE Ste A","87112",35.1146432,-106.5346731
"87111","Albuquerque","NM","Keller's Farm Stores","2912 Eubank Blvd NE","87112",35.114837,-106.533172
"87111","Albuquerque","NM","North Heights Food Store","Chelwood Park","not_available",35.11576958937621,-106.50263290852328
"87111","Albuquerque","NM","Now We're Cooking","8100 Wyoming Blvd NE Ste F1","87113",35.17538,-106.55919
"87112","Albuquerque","NM","Walmart Neighborhood Market","11001 Menaul Blvd Ne","87112",35.10943056068885,-106.51765356844112
"87112","Albuquerque","NM","Aladdin Halal Market","1720 Juan Tabo Blvd NE Ste I","87112",35.100068,-106.514957
"87112","Albuquerque","NM","Kim's Market","2306 Morris St NE","87112",35.108057,-106.52405
"87112","Albuquerque","NM","Red Star Vapor & CBD","1500 Wyoming Blvd NE Suite A","87112",35.09607,-106.5502999
"87113","Albuquerque","NM","Crystal Springs Bottled Water","4446 Anaheim Ave NE","87113",35.177708,-106.597489
"87114","Albuquerque","NM","Smith's","4800 McMahon Blvd NW","87114",35.205031581967255,-106.67732450645417
"87114","Albuquerque","NM","Natural Grocers","9261 Coors Blvd NW","87114",35.18336765006356,-106.66643226371012
"87114","Albuquerque","NM","Shelby's Sugar Shop","10000 Coors Bypass NW Ste E229","87114",35.197542,-106.656166
"87120","Albuquerque","NM","Walmart Supercenter","2550 Coors Bldv. Nw","87120",35.11038401775314,-106.70068711457847
"87120","Albuquerque","NM","Organic Hippie Co-op","not_available","87120",35.120112,-106.722255
"87120","Albuquerque","NM","Neighborhood Walmart","not_available","87121",35.066092407020015,-106.74224158155097
"87120","Albuquerque","NM","Walmart Grocery Pickup","1820 Unser Boulevard Nw","87120",35.103194453983356,-106.72815442085266
"87120","Albuquerque","NM","The Authentic New Mexican Inc","540 Silver Creek Rd NW #A2","87121",35.085897,-106.724346
"87121","Albuquerque","NM","Walmart Neighborhood Market","9600 Sage Rd Sw","87121",35.05495253745466,-106.73932808900133
"87121","Albuquerque","NM","Walmart Grocery Pickup","9600 Sage Rd SW","87121",35.05601,-106.73904
"87124","Rio Rancho","NM","Walmart Supercenter","901 Unser Blvd Se","87124",35.24308651219599,-106.69917131467099
"87301","Gallup","NM","Walmart Supercenter","1650 W Maloney Ave","87301",35.52841062070147,-108.76902891318619
"87301","Gallup","NM","Albertsons","1702 E 66th Ave","87301",35.52913411449573,-108.7170352117846
"87301","Gallup","NM","Safeway","980 N Hwy 491","87301",35.5355203,-108.7565186
"87301","Gallup","NM","Alberstons Supermarkets","1702 E. Hwy. 66","87301",35.52847623825073,-108.6868965625763
"87301","Gallup","NM","Navajo nation food dist.","101 N Third St","87301",35.52785110473633,-108.74539184570312
"87301","Gallup","NM","The Filipino Store","611 West Coal Avenue","87301",35.52537536621094,-108.74755096435547
"87305","Gallup","NM","T&R Market","667 N. Hwy 491","87301",35.605027212907046,-108.77894997596741
"87323","Thoreau","NM","BJ's Country Store","not_available","87323",35.40690255,-108.21309781666666
"87401","Farmington","NM","Walmart Supercenter","4600 E Main St","87402",36.767406175042645,-108.15172930717031
"87401","Farmington","NM","Walmart Supercenter","1400 W Main St","87401",36.73187712,-108.2267267
"87401","Farmington","NM","Farmers Market","816 New Mexico 516","87415",36.802217416666664,-108.0872687
"87401","Farmington","NM","Safeway","730 W Main St","87401",36.72956819714361,-108.21696551176501
"87401","Farmington","NM","Safeway","3540 E Main St","87402",36.751583,-108.1611211
"87401","Farmington","NM","Natural Grocers","700 E 20th St","87401",36.748691209014424,-108.19740355438559
"87401","Farmington","NM","Albertsons","4909 E Main St","87402",36.76591160019921,-108.14641374356142
"87401","Farmington","NM","Smith's","600 E 20th St","87401",36.74946756213562,-108.19860847310332
"87401","Farmington","NM","Grocery Warehouse","not_available","87402",36.76857,-108.14782
"87401","Farmington","NM","Moonlight Vapors","915 Farmington Ave Suite G","87401",36.740157,-108.18088700000001
"87401","Farmington","NM","Anasazi Vapor","903 NM-516","87415",36.8085013,-108.0730418
"87401","Farmington","NM","Safeway","not_available","87401",36.7481304028723,-108.17098370060911
"87410","Aztec","NM","Safeway","415 N Main Ave","87410",36.8250884,-107.9945137
"87413","Bloomfield","NM","Farmers Market","401 E Broadway Ave","87413",36.710822395757454,-107.98370291846446
"87420","Shiprock","NM","King Soopers","5040 Us Hwy 668","87420",36.785378,-108.683409
"87501","Santa Fe","NM","Albertsons Market Street","600 N Guadalupe St","87501",35.6940018,-105.9512106
"87501","Santa Fe","NM","Whole Foods Market","753 Cerrillos Rd","87505",35.67899493684382,-105.95041568531703
"87501","Santa Fe","NM","Sprouts Farmers Market","199 Paseo De Peralta","87501",35.6925472,-105.949531
"87501","Santa Fe","NM","Trader Joe's","530 W Cordova Rd","87505",35.67326865418381,-105.95307365705413
"87501","Santa Fe","NM","Kaune's Neighborhood Market","511 Old Santa Fe Trl","87505",35.68098760322902,-105.93777618018983
"87501","Santa Fe","NM","La Montanita Coop","913 West Alameda St.","87501",35.68918361562437,-105.95842776343791
"87501","Santa Fe","NM","Mira Apparel & Folk Art","101 W Marcy St #A","87501",35.68948,-105.93779
"87505","Santa Fe","NM","Eldorado Supermarket","7 Avenida Vista Grande","87508",35.538675315205715,-105.89140991168382
"87505","Santa Fe","NM","Smith's","2110 S Pacheco St","87505",35.65745527192451,-105.95978198340163
"87505","Santa Fe","NM","Smith's","2308 Cerrillos Rd","87505",35.6596308,-105.9800944
"87505","Santa Fe","NM","Albertsons","3001 S St. Francis Dr","87501",35.6456412,-105.9554603
"87505","Santa Fe","NM","Natural Grocers","1090 S. St. Francis Dr.","87505",35.65597119612651,-105.98587989807129
"87505","Santa Fe","NM","Food King","1700 Saint Michaels Dr","87505",35.65682601928711,-105.97161102294922
"87505","Santa Fe","NM","Red Star Vapor & CBD","1704 Llano St Suite A","87505",35.65864,-105.97317
"87505","Santa Fe","NM","Lowe's Super Save","not_available","87505",35.66423416137695,-105.96717071533203
"87505","Santa Fe","NM","John Brookes Grocery","not_available","87508",35.538630920767446,-105.89146875794204
"87506","Santa Fe","NM","Walmart","3251 Cerrillos Rd","87507",35.652678655450714,-105.99918050139583
"87506","Santa Fe","NM","Pojoaque Supermarket","not_available","87506",35.883252689052235,-106.01138017596881
"87506","Santa Fe","NM","Shopwise Pacita","Pacita","87532",35.950136,-106.039022
"87507","Santa Fe","NM","Walmart Supercenter","5701 Herrera Drive","87507",35.619503101283335,-106.03200747658417
"87507","Santa Fe","NM","Albertsons Market","3542 Zafarano Dr","87507",35.6409103,-106.0134283
"87507","Santa Fe","NM","Sprouts Farmers Market","3201 Zafarano Dr, # 20","87507",35.64509099081988,-106.01297825574875
"87507","Santa Fe","NM","El Paisano","3140 Cerrillos Rd","87507",35.651616,-105.995241
"87514","Arroyo Seco","NM","Sol Food","591 Arroyo hondo arroyo seco Rd","87514",36.516375,-105.570668
"87520","Chama","NM","Chama Valley Supermarket","not_available","87520",36.88188,-106.58492
"87521","Chamisal","NM","Pacheo's Grocery","not_available","87553",36.171266,-105.687315
"87528","Dulce","NM","Jicarilla Supermarket","not_available","87528",36.9344367980957,-106.98845672607422
"87529","El Prado","NM","Cid's Food Market","623 Cam Del Paseo Pueblo Norte","87571",36.41780994021073,-105.57036014315048
"87532","Espanola","NM","Walmart Supercenter","1610 No. Riverside Drive","87532",36.01552344,-106.0667762
"87532","Espanola","NM","Centermarket","not_available","87532",36.00163619543873,-106.06218953085371
"87532","Espanola","NM","Food King","930 Riverside Drive","87532",36.00397872924805,-106.06310272216797
"87532","Espanola","NM","El Paisano","1115 North Riverside Dr. Ste. C-D","87507",36.0073640226436,-106.06467247009277
"87544","Los Alamos","NM","Smith's","751 Trinity Dr","87544",35.8787539,-106.2942166
"87544","Los Alamos","NM","Smith's","31 Sherwood Blvd","87544",35.82602681304898,-106.21066421275833
"87544","Los Alamos","NM","Los Alamos Cooperative Market","95 Entrada","87544",35.87664850569425,-106.26055335484644
"87544","Los Alamos","NM","Smith's Grocery Pickup and Delivery","31 Sherwood Blvd","87547",35.82605317276531,-106.2106409525081
"87556","Questa","NM","Der Markt Food Store","307 W Main","not_available",36.70769526708184,-105.40535220047784
"87557","Ranchos De Taos","NM","Walmart","926 Paseo Del Pueblo Sur","87571",36.38735151328782,-105.58580344381619
"87571","Taos","NM","Albertsons Market","710 Paseo del Pueblo Sur Ste A","87571",36.3932005,-105.582197
"87571","Taos","NM","Smith's","224 Paseo Pueblo Sur","87571",36.4040119,-105.5754017
"87571","Taos","NM","Supersave Discount Foods","not_available","87571",36.39660556870619,-105.57790870301463
"87571","Taos","NM","Smith's Grocery Pickup and Delivery","224 Paseo del Pueblo Sur","87571",36.40314483642578,-105.57506561279297
"87571","Taos","NM","Food King","519 Paseo del Pueblo Sur","87571",36.396358489990234,-105.57791137695312
"87701","Las Vegas","NM","Walmart Supercenter","2609 7th St","87701",35.619894806872246,-105.22713816103548
"87701","Las Vegas","NM","Lowe's","6th St","87701",35.60524702261851,-105.22207853214447
"87701","Las Vegas","NM","Lowes Super Save","2222-2298 7th St","87701",35.61726934886761,-105.22425562526618
"87701","Las Vegas","NM","Semilla Natural Foods","not_available","87701",35.596308270957486,-105.21523849857822
"87701","Las Vegas","NM","Food King","605 Mills Ave","87701",35.605140686035156,-105.22200012207031
"87701","Las Vegas","NM","Food King","2400 7th St","87701",35.62138748168945,-105.2251205444336
"87710","Angel Fire","NM","Valley Market","not_available","87710",36.39240381682359,-105.28659758896603
"87710","Angel Fire","NM","Family Dollar","3421 Mountain View Blvd","87710",36.39772,-105.287445
"87714","Cimarron","NM","Shamrock","not_available","87714",36.5107536315918,-104.92085266113281
"87740","Raton","NM","Food King","1265 S 2nd St","87740",36.87930679321289,-104.43875122070312
"87740","Raton","NM","Prather's Market","not_available","87740",36.91644287109375,-104.44319915771484
"87801","Socorro","NM","Walmart Supercenter","700 6th St N","87801",34.06492536053103,-106.88970624088351
"87801","Socorro","NM","John Brooks Super Mart","312 N California St","87801",34.060028,-106.89100900000001
"87901","Truth Or Consequences","NM","Walmart Supercenter","2001 H.r. Ashbaugh Dr.","87901",33.15282255447496,-107.24958607682423
"87901","Truth Or Consequences","NM","Bullocks","630 N Broadway St","87901",33.128315252238245,-107.25831985473633
"87901","Truth Or Consequences","NM","Walmart Grocery Pickup","2001 Hr Ashbaugh Dr","87901",33.1521,-107.2508
"88001","Las Cruces","NM","Walmart Supercenter","1550 S Valley Dr","88005",32.2887470716418,-106.78526401519774
"88001","Las Cruces","NM","Walmart Supercenter","571 Walton Blvd","88001",32.31508642,-106.7502818
"88001","Las Cruces","NM","Sprouts Farmers Market","2340 E Lohman Ave, Ste B","88001",32.311391537124244,-106.74988031387329
"88001","Las Cruces","NM","Albertsons","2501 N Main St","88001",32.3337433,-106.783186
"88001","Las Cruces","NM","Albertsons","2551 E Lohman Ave","88011",32.31742124763283,-106.74346902969774
"88001","Las Cruces","NM","Walmart Neighborhood Market","150 N Sonoma Ranch Blvd","88011",32.32806188090663,-106.72200892361187
"88001","Las Cruces","NM","Fiesta Foods Supermarket","2100 N Main St","88001",32.32756,-106.78248453333333
"88001","Las Cruces","NM","Toucan Market","1701 E University Ave","88001",32.28691801945834,-106.74682984783685
"88001","Las Cruces","NM","Natural Grocers","3970 E Lohman Ave","88011",32.31949499196177,-106.73282636644002
"88001","Las Cruces","NM","Albertsons","1285 S El Paseo Rd","88001",32.2982366,-106.7701504
"88001","Las Cruces","NM","Lowe's Fiesta Foods Las Cruces NM","2180 N Main St","88001",32.32754135131836,-106.7821273803711
"88001","Las Cruces","NM","Southwest Cash & Carry","2489 N Main St","88001",32.331006,-106.78418500000001
"88001","Las Cruces","NM","International Delights","1245 El Paseo Rd","88001",32.29907616243112,-106.77081744448056
"88001","Las Cruces","NM","Lowe's","1410 Missouri Ave","88001",32.29497181123573,-106.7580807546485
"88001","Las Cruces","NM","Walmart Grocery Pickup","150 N Sonoma Ranch Blvd","88001",32.32501220703125,-106.7198486328125
"88001","Las Cruces","NM","Pro's Ranch Markets","320 Wyatt Dr","88001",32.30122375488281,-106.77253723144531
"88001","Las Cruces","NM","Mountain View Market Co-Op","1300 El Paseo Rd #M","88001",32.29652246206371,-106.77280872365047
"88001","Las Cruces","NM","Pho's","not_available","88001",32.30083747511254,-106.77290091433065
"88001","Las Cruces","NM","La Mexicana Torterilla","1300 N Solano Dr","88001",32.321925,-106.772683
"88002","White Sands Missile Range","NM","Savers Supermarket","not_available","88012",32.409836,-106.643876
"88002","White Sands Missile Range","NM","White Sands Commissary","262 Picatinny","88002-5518",32.382677600938116,-106.48547811705777
"88005","Las Cruces","NM","Walmart Supercenter","3331 Rinconada Blvd","88011",32.36032513564344,-106.74631799005681
"88005","Las Cruces","NM","Save Mart","495 N Valley Dr","88005",32.308556,-106.79616999999999
"88005","Las Cruces","NM","The Hatch Chile Store","1447 Certified Pl","88007",32.29092788696289,-106.8026123046875
"88007","Las Cruces","NM","The Church of Jesus Christ of Latter-day Saints — Bishops’ Storehouse","1010 Parkhill Dr","88012",32.366322,-106.780197
"88008","Santa Teresa","NM","Walmart Supercenter","7555 N Mesa St","79912",31.83618579,-106.5661812
"88008","Santa Teresa","NM","Walmart Supercenter","7831 Paseo Del Norte Blvd- Ste A","79912",31.885176232881545,-106.57753449393414
"88008","Santa Teresa","NM","Albertsons","5630 N Desert Blvd","79912",31.8644299,-106.5752697
"88008","Santa Teresa","NM","Walmart Neighborhood Market","101 E. Redd Rd","79932",31.861727250690713,-106.5868834476455
"88008","Santa Teresa","NM","Valero","8004 Mesa","79932",31.841001000000002,-106.576552
"88008","Santa Teresa","NM","Lowe's Big 8 Spur","7945 N. Mesa St.","79932",31.83945892283238,-106.57579082257482
"88008","Santa Teresa","NM","Mando's Produce","5420 Doniphan Dr","79932",31.855657861769032,-106.584132326702
"88008","Santa Teresa","NM","Mercedes Grocery & Meat Market","3875 McNutt Rd","88063",31.81435203552246,-106.59632873535156
"88008","Santa Teresa","NM","Food King","7945 N Mesa St","79932",31.839366912841797,-106.57609558105469
"88008","Santa Teresa","NM","La Gualmarr","not_available","79912",31.83686955127442,-106.56545937912979
"88020","Animas","NM","Rodeo Grocery","not_available","88045",32.2909555677377,-108.8613423147815
"88021","Anthony","NM","Shur-Sav","not_available","79835",31.919826620660825,-106.60025438575583
"88021","Anthony","NM","Walmart Neighborhood Market","1110 Sunland Park Dr","79922",31.811237335205078,-106.55780029296875
"88021","Anthony","NM","Walmart Neighborhood Market","951 N Resler Dr","79912",31.860823757892536,-106.55904831599835
"88021","Anthony","NM","Westway Food Store","806 Westway Blvd","79835",31.95775595,-106.57847078
"88021","Anthony","NM","Vista Quality Food Market","3910 Doniphan Dr","79922",31.814250168252702,-106.55748892258306
"88021","Anthony","NM","Valley Super Market","120 Redd Rd","79932",31.85815768017266,-106.55744238869403
"88021","Anthony","NM","Big 8 Foods","2000 Antonio St","79821",31.998815536499023,-106.58610534667969
"88021","Anthony","NM","Walmart Grocery Pickup","1110 Sunland Park Drive","79922",31.8125189795918,-106.557915102041
"88021","Anthony","NM","La Feria","319 Main St","79821",31.998090744018555,-106.60449981689453
"88030","Deming","NM","Peppers Supermarket","Columbus Hwy","not_available",32.25366007582839,-107.74950773463213
"88030","Deming","NM","Walmart Supercenter","1021 E Pine St","88030",32.27028256224572,-107.74692862005877
"88061","Silver City","NM","Silver City Food Co-op","520 N Bullard St","88061",32.7724770788648,-108.27607708961722
"88061","Silver City","NM","Albertsons","1956 Hwy 180 E","88061",32.78642066824969,-108.25139611964914
"88061","Silver City","NM","Walmart Grocery Pickup","2501 Highway 180 E","88061",32.789624,-108.247563
"88063","Sunland Park","NM","Whole Foods Market","100 Pitt Street","79912",31.834283909291713,-106.54796696231779
"88063","Sunland Park","NM","Albertsons","7022 N Mesa St","79912",31.8371999,-106.5514462
"88063","Sunland Park","NM","Sprouts Farmers Market","655 Sunland Park Dr, Ste B","79912",31.821309260103792,-106.5447261929512
"88063","Sunland Park","NM","Spec's","655 Sunland Park Dr","79912",31.82153842270381,-106.54183785482198
"88063","Sunland Park","NM","Lowe's Big 8","6021 N Mesa St","79912",31.829797426629675,-106.53061621224826
"88063","Sunland Park","NM","Food King","6021 North Mesa (Coronado)","79912",31.841590881347656,-106.5381851196289
"88063","Sunland Park","NM","Buena Vida CBD","750 Sunland Park Dr L058","79912",31.8144216,-106.5440443
"88081","Chaparral","NM","Stelas Groceries","County Line Rd","not_available",32.031657570070806,-106.37768595598551
"88101","Clovis","NM","Walmart Supercenter","3728 N Prince St","88101",34.43771123953169,-103.20016450816348
"88101","Clovis","NM","Albertsons Market","1905 N Prince St","88101",34.4169188,-103.1949608
"88101","Clovis","NM","Stansell's Thriftway","not_available","88101",34.42063711964914,-103.20363300571266
"88101","Clovis","NM","K's Oriental Food","1548 N Thornton St","88101",34.41523742675781,-103.21481323242188
"88101","Clovis","NM","Cannon AFB Commissary","102 W Octagon St Bldg 77-A","88103",34.39154264988966,-103.33181563727643
"88130","Portales","NM","Walmart Supercenter","1604 E Spruce St","88130",34.19856188923405,-103.31894203192748
"88130","Portales","NM","SuperSave Discount Foods","543-599 W 18th St","88130",34.171070284916965,-103.33573705790553
"88201","Roswell","NM","Albertsons Market","1110 S Main St","88203",33.3810005,-104.5239715
"88201","Roswell","NM","Walmart Supercenter","4500 N Main St Ste A","88201",33.45009473148582,-104.52653973250797
"88201","Roswell","NM","Albertsons Market","900 W 2nd St","88201",33.3936927,-104.5356441
"88201","Roswell","NM","TKO Vapor & Sports","4501 North Main Street Suite 19","88201",33.4493849,-104.5215671
"88201","Roswell","NM","cash and carry","not_available","88201",33.399402271496676,-104.50806565931492
"88201","Roswell","NM","Farmers Country Market","800 W Hobbs St","88203",33.37138748168945,-104.53401947021484
"88201","Roswell","NM","Farmers Country Market","2nd and Garden","not_available",33.39386033944704,-104.51401002034667
"88201","Roswell","NM","Asian Market","5702 S. Main St.","88203",33.326006,-104.523309
"88201","Roswell","NM","Farmers Country Market","2800 N Main St","88201",33.43009155982223,-104.52429949017369
"88210","Artesia","NM","Fenn's Grocery","26th St and Main St","88210",32.8415360195055,-104.42178799906078
"88210","Artesia","NM","Walmart Supercenter","604 N 26th St","88210",32.847741419991124,-104.42690847629274
"88210","Artesia","NM","Gregg's Foods","1501-1599 N 1st St","88210",32.85694414412724,-104.39907910922211
"88220","Carlsbad","NM","Walmart Supercenter","2401 S Canal St","88220",32.39429993,-104.2223555
"88220","Carlsbad","NM","Albertsons","202 West Church Street","88220",32.42828766250981,-104.22805374209571
"88220","Carlsbad","NM","Healthy Choices","205 W Church St","88220",32.42827,-104.228064
"88220","Carlsbad","NM","stop n shop","not_available","88220",32.42867334375334,-104.25407529939463
"88231","Eunice","NM","Lowes","not_available","88231",32.45368605747715,-103.15541312302726
"88240","Hobbs","NM","Walmart Supercenter","3800 N Lovington Hwy","88240",32.74284562634037,-103.16030691684307
"88240","Hobbs","NM","Albertsons Market","2402 N Grimes St","88240",32.72741425533862,-103.14326675252232
"88240","Hobbs","NM","Thriftway","1317 N Turner St","88240",32.711929999999995,-103.138021
"88252","Jal","NM","Lowes","not_available","88252",32.112827,-103.194972
"88260","Lovington","NM","Natures Pantry","not_available","88260",32.948951721191406,-103.34882354736328
"88301","Carrizozo","NM","Family Dollar","8420 Us Hwy 380","88316",33.54708480834961,-105.59339141845703
"88301","Carrizozo","NM","Smokey's Country Market","105-123 Smokey Bear Blvd","88316",33.54578138875673,-105.5719084724898
"88310","Alamogordo","NM","Walmart Supercenter","233 S New York Ave","88310",32.88762392,-105.9575129
"88310","Alamogordo","NM","Albertsons Market","1300 10th St","not_available",32.899497963392456,-105.94528587082704
"88310","Alamogordo","NM","Lowes supermarket","675 10th St","88310",32.900371591164586,-105.95485914554456
"88310","Alamogordo","NM","Holloman AFB Commissary","751 New Mexico Ave Bldg 787","88330",32.83739787383923,-106.08233076789566
"88310","Alamogordo","NM","Walmart Neighborhood Market","2401 Indian Wells Road","88310",32.91617965698242,-105.93053436279297
"88310","Alamogordo","NM","Nature's Pantry","White Sands Blvd.","not_available",32.924413,-105.961155
"88312","Alto","NM","Albertsons Market","721 Mechem Dr","88345",33.34744252613107,-105.67615452440805
"88340","Mescalero","NM","Walmart Supercenter","26180 Us Highway 70","88346",33.32448181819795,-105.61445553611684
"88352","Tularosa","NM","Lowe's","not_available","88352",33.07950999054388,-106.01146173901049
"88401","Tucumcari","NM","Lowe's","not_available","88401",35.17234779201403,-103.72661446987311
"88424","Grenville","NM","kroger","not_available","88424",36.278533935546875,-103.83154296875
"88435","Santa Rosa","NM","T&D Food Market","not_available","88435",34.94247817993164,-104.68657684326172
