"zip","city","state","name","address","postalCode","lat","lon"
"35004","Moody","AL","Publix","not_available","not_available",33.57009681207424,-86.51788872885254
"35004","Moody","AL","J.m. Exotic Foods","2435 US Highway 78","35004",33.56966764,-86.48592555
"35004","Moody","AL","Food Giant","not_available","35004",33.57014646336843,-86.51804090744453
"35004","Moody","AL","Publix","hwy 11","not_available",33.666010849296626,-86.50919098551041
"35005","Adamsville","AL","Walmart Supercenter","2473 Hackworth Rd","35214",33.57954413518209,-86.92387220005158
"35007","Alabaster","AL","Walmart Supercenter","630 Colonial Promenade Pkwy","35007",33.23558386,-86.80201846
"35007","Alabaster","AL","Walmart Neighborhood Market","9085 Hwy 119","35007",33.21214898600467,-86.82942954784349
"35007","Alabaster","AL","Publix","90 Marketplace Cir","35040",33.155858885874835,-86.74850189009435
"35007","Alabaster","AL","Publix","9200 Highway 119 Ste 1400","35007",33.21293927258849,-86.82600172802825
"35007","Alabaster","AL","ALDI","113 Simmsville Rd","35007",33.2399282,-86.8154658
"35007","Alabaster","AL","Food Depot","not_available","35007",33.2633787559655,-86.81214622516917
"35007","Alabaster","AL","Britos","119","35007",33.217172636329245,-86.82626271757559
"35010","Alexander City","AL","Walmart Supercenter","2643 Highway 280","35010",32.940518313625276,-85.97647557273724
"35010","Alexander City","AL","Catherine's Market","17 Russell Farms Rd","35010",32.765884078085485,-85.94508886810702
"35010","Alexander City","AL","Winn-Dixie","1061 Highway 280","35010",32.92230320169133,-85.96084031392175
"35010","Alexander City","AL","Foodland","483 N Broadnax St","36853",32.83591711155171,-85.76409004662024
"35010","Alexander City","AL","Piggly Wiggly","13711 Highway 22 E","36256",33.04448318481445,-85.76859283447266
"35010","Alexander City","AL","Foodland","11510-16856 Alabama 49","36256",33.044379310660766,-85.76865965110758
"35010","Alexander City","AL","Save-A-Lot","1616 Mill Square","35010",32.93535144345024,-85.97192293381282
"35010","Alexander City","AL","Save A Lot","1616 Mill Sq","35010",32.935787,-85.9718448
"35010","Alexander City","AL","Piggly Wiggly","470 S Main St.","35072",33.05902099609375,-86.05465698242188
"35014","Alpine","AL","Winn-Dixie","33404 US Highway 280","35044",33.26851175349245,-86.35488170607246
"35016","Arab","AL","Walmart Supercenter","1450 No. Brindlee Mt","35016",34.34165079,-86.50070828
"35016","Arab","AL","Warehouse Discount Groceries","2250 N Brindlee Mountain Pkwy","35016",34.35710906982422,-86.504150390625
"35016","Arab","AL","Foodland","not_available","35016",34.31859832878494,-86.5043806130774
"35019","Baileyton","AL","Hoppers Family Market","7467 AL Highway 69 N","35058",34.24589832537681,-86.68786852467734
"35020","Bessemer","AL","Publix","3014 Allison Bonnett Memorial Dr Ste 130","35023",33.45276337298011,-86.97835381464904
"35020","Bessemer","AL","Piggly Wiggly","104 River Square Plz","35023",33.452014519871064,-86.98536954138493
"35020","Bessemer","AL","Save Mart","4000 Jefferson Ave SW","35221",33.45243835449219,-86.89904022216797
"35020","Bessemer","AL","ALDI","710 Academy Dr","35022",33.358688899169465,-86.99987411499023
"35020","Bessemer","AL","Highlander Foodland","2710 19th St N","35023",33.41717418603364,-86.98758896729323
"35020","Bessemer","AL","Fresh Value","700 19th St N","35020",33.4052058258927,-86.95875413222697
"35020","Bessemer","AL","Save-A-Lot","528 W Town Plz","35020",33.39056396484375,-86.97777557373047
"35020","Bessemer","AL","Walmart Grocery Pickup and Delivery","750 Academy Dr","35022",33.36179353,-86.99878471
"35020","Bessemer","AL","Food Giant","145 Hueytown Plz","35023",33.44760936198783,-86.99496565088867
"35020","Bessemer","AL","Publix","not_available","35022",33.382721075111704,-86.97825293008836
"35020","Bessemer","AL","Walmart Grocery Pickup and Delivery","1007 Red Farmer Dr","35023",33.45806173,-86.96730868
"35020","Bessemer","AL","Foodworld","not_available","35023",33.45240921995279,-86.96916685861366
"35020","Bessemer","AL","ALDI","2891 Allison Bonnett Memorial Dr","35023",33.4522354,-86.9686632
"35020","Bessemer","AL","Enrique Tomás JAMON-TAPAS-VINO","Carrer de Rogent, 19","08026",33.40413987636566,-86.9560307264328
"35020","Bessemer","AL","Publix","McCalla Rd","35022",33.348689,-86.990394
"35022","Bessemer","AL","Piggly Wiggly","4750 Eastern Valley Rd","35111",33.32914539495226,-86.99889147982088
"35022","Bessemer","AL","Winn-Dixie","2910 Morgan Rd Ste 128","35022",33.33594257659983,-86.91919942339493
"35022","Bessemer","AL","Publix","4965 Promenade Pkwy","35022",33.33484618168724,-86.99348038767766
"35022","Bessemer","AL","Walmart","Highway 150","not_available",33.399940633159254,-86.88171808271431
"35022","Bessemer","AL","VIRGINIA MINES GROCERY","2717 Virginia Dr","35023",33.42389402282174,-87.02875458141372
"35022","Bessemer","AL","Ross Bridge Grocery","not_available","35226",33.397232,-86.882537
"35023","Bessemer","AL","Hill's Foodland Supermarket","851 Park Rd","35127",33.49052169629535,-86.97846082138517
"35031","Blountsville","AL","Lucky's Supermarket","70532-70824 Alabama 53","35031",34.099490398579505,-86.57438400961051
"35031","Blountsville","AL","S&S Foods","10675 US Highway 278 E","35083",34.17505645751953,-86.61925506591797
"35034","Brent","AL","Walmart Supercenter","10675 Highway 5","35034",32.96398546698766,-87.17159585420046
"35040","Calera","AL","Walmart Supercenter","5100 Highway 31","35040",33.146320401035034,-86.7516582042928
"35040","Calera","AL","Piggly Wiggly","211 W College St","35051",33.17946665874506,-86.61314159664744
"35040","Calera","AL","Sav Mor","11028 Highway 25","35040",33.10284339777882,-86.7493954815214
"35040","Calera","AL","Jubilee Foods","westinghouse rd","14845",33.1842015,-86.6268548
"35043","Chelsea","AL","Walmart Garden Center","16077 Highway 280","35043",33.34835248,-86.6192213
"35043","Chelsea","AL","Walmart Neighborhood Market","2653 Valleydale Road","35244",33.3827595809279,-86.73911127533778
"35043","Chelsea","AL","Publix","501 Chelsea Xrds","35043",33.352993628433104,-86.60878926189213
"35043","Chelsea","AL","Piggly Wiggly","1324 Dunnavant Valley Road","35242",33.38899,-86.642365
"35043","Chelsea","AL","Publix","5188 Caldwell Mill Rd","35244",33.385606268161084,-86.74028770640439
"35043","Chelsea","AL","Winn-Dixie","150 Chelsea Cors","35043",33.34669654976622,-86.6309941128512
"35044","Childersburg","AL","Walmart Supercenter","41301 Us Highway 280","35150",33.175872232949295,-86.28578742718518
"35045","Clanton","AL","Walmart Supercenter","1415 7th St S","35045",32.81755964,-86.6090536
"35045","Clanton","AL","Winn-Dixie","640 Ollie Ave","35045",32.85013932880666,-86.63267641850982
"35045","Clanton","AL","Mizzell's Super Saver","not_available","35171",32.91667440895625,-86.71652311395864
"35045","Clanton","AL","Associated Foods","not_available","35045",32.83633232116604,-86.62892460823059
"35045","Clanton","AL","Headleys Big Peach","2675 Lay Dam Rd","35045",32.88571841536874,-86.62600100040436
"35049","Cleveland","AL","Locust Fork Food & Grocery","not_available","35049",33.9084754504801,-86.61838925365116
"35054","Cropwell","AL","Richey's Grocery","not_available","35054",33.47474545321843,-86.31622059750181
"35054","Cropwell","AL","Publix Produce Department","2040 Martin St S","35128",33.563804626464844,-86.26759338378906
"35055","Cullman","AL","Walmart Supercenter","626 Olive St Sw","35055",34.15008684,-86.8417278
"35055","Cullman","AL","Walmart Supercenter","5601 Highway 157","35058",34.20451664143977,-86.86965302270306
"35055","Cullman","AL","ALDI","1831 Cherokee Ave SW","35055",34.15341062835408,-86.84202075004578
"35055","Cullman","AL","Piggly Wiggly","4933 AL-157","35058",34.20503226786322,-86.85681581497192
"35055","Cullman","AL","Save-A-Lot","1734 2nd Ave SW","35055",34.15627434802605,-86.83373363005414
"35055","Cullman","AL","Warehouse Discount Gro","1615 Town Sq SW","35055",34.16158068137805,-86.83722964365697
"35055","Cullman","AL","LaMorenita Mexican Grocery Store","not_available","35055",34.17168283496329,-86.85144549112418
"35055","Cullman","AL","Warehouse Discount Grocery","5754 Alabama Hwy 157","35058",34.20751236825617,-86.87117839317251
"35062","Dora","AL","Walmart Supercenter","690 Highway 78","35148",33.74484204,-87.0421294
"35062","Dora","AL","C&C Food Mart","not_available","35062",33.726376184885716,-87.0908133432679
"35062","Dora","AL","Bozemans cost+10","not_available","35148",33.75228972656884,-87.04258915634972
"35062","Dora","AL","Graysville Wise Buys","not_available","35073",33.64613,-86.98583
"35064","Fairfield","AL","Piggly Wiggly","32 Phillips Dr","35228",33.463358952618755,-86.90938636334452
"35064","Fairfield","AL","Save-A-Lot","161 Bessemer Super Hwy","35228",33.46236038208008,-86.91327667236328
"35068","Fultondale","AL","Winn-Dixie","1721 Hwy 31 N","35068",33.61249696990965,-86.79582088719366
"35068","Fultondale","AL","ALDI","1601 Morris Ave","35068",33.60821299615059,-86.80160120890832
"35071","Gardendale","AL","Walmart Supercenter","890 Odum Rd","35071",33.64718401,-86.8236741
"35071","Gardendale","AL","Publix Super Market at Magnolia City Place","655 Fieldstown Rd","35071",33.65125105754854,-86.82265728659306
"35071","Gardendale","AL","Foodland","1014 Main St","35071",33.65302126609444,-86.81257009506226
"35071","Gardendale","AL","Southern Meats Inc","621 Decatur Hwy","35071",33.639997,-86.806702
"35071","Gardendale","AL","Icehouse","2709 Mount Olive Rd","35117",33.670088998730705,-86.85381820853536
"35071","Gardendale","AL","Food Depot","945 Main St","35071",33.65047634929559,-86.81068704798075
"35077","Hanceville","AL","Warehouse Discount Groceries","780 Main St NE","35077",34.07257336523384,-86.77705328710348
"35077","Hanceville","AL","Dollar General Market","872 Main St Ne","35077",34.07723535348822,-86.7815799683752
"35078","Harpersville","AL","Smiths Associated Foods","not_available","35178",33.365197402090494,-86.41153542597277
"35078","Harpersville","AL","Smith's Grocery","42712-42818 Alabama 53","35178",33.38536299,-86.41132784
"35078","Harpersville","AL","Smith's Associated Foods","42712-42818 Alabama 25","35178",33.38540361343979,-86.41130800579595
"35080","Helena","AL","Walmart Neighborhood Market","335 Helena Market Pl","35080",33.27953304579153,-86.8512933957558
"35080","Helena","AL","Publix","4730 Highway 17","35080",33.28007146112007,-86.85388729405501
"35080","Helena","AL","Winn-dixie","not_available","35080",33.28040123,-86.85113578
"35080","Helena","AL","Bashas","not_available","85138",33.2768066,-86.8346647
"35080","Helena","AL","Publix","not_available","35124",33.2752705824212,-86.81916330597156
"35080","Helena","AL","Walmart Grocery Pickup","335 Helena Marketplace","35080",33.2798293233083,-86.8512763157895
"35085","Jemison","AL","Piggly Wiggly","24716 US Highway 31","35085",32.95931964477104,-86.74334395936515
"35091","Kimberly","AL","Piggly Wiggly","415 Caldwell Dr","35180",33.807213124625655,-86.81060169185206
"35094","Leeds","AL","Walmart Garden Center","8551 Whitfield Ave","35094",33.562084248380884,-86.51891745204071
"35094","Leeds","AL","Warehouse Discount Groceries","not_available","35094",33.54693923668938,-86.5518145533651
"35096","Lincoln","AL","Piggly Wiggly","1-249 Magnolia St S","35096",33.60227929670269,-86.11939944450897
"35115","Montevallo","AL","Lucky’s Foodland","4000 Highway 25","35115",33.092064620199864,-86.86502641073442
"35115","Montevallo","AL","Piggly Wiggly","4563 Highway 25","35115",33.094520568847656,-86.85614776611328
"35115","Montevallo","AL","University Food Market","not_available","35115",33.10095,-86.86338
"35120","Odenville","AL","Piggly Wiggly","100 Sumner Boulevard","35120",33.67551486230854,-86.40652452728331
"35120","Odenville","AL","Piggly Wiggly","highway 411","35120",33.6454784,-86.44712893
"35121","Oneonta","AL","Walmart Supercenter","2453 2nd Ave E","35121",33.97176571,-86.44708157
"35121","Oneonta","AL","Hometown Market","723 2nd Ave E","35121",33.94982318648286,-86.46991076571244
"35121","Oneonta","AL","Price Less IGA","939 2nd Ave E","35121",33.95570755004883,-86.46487426757812
"35124","Pelham","AL","Walmart Supercenter","2780 John Hawkins Pkwy","35244",33.36214257385412,-86.82505177251775
"35124","Pelham","AL","Walmart Supercenter","2181 Pelham Pkwy","35124",33.3405237179464,-86.79121729307685
"35124","Pelham","AL","Publix","365 Huntley Pkwy","35124",33.274754714011955,-86.79274489067588
"35124","Pelham","AL","Publix","1944 Montgomery Hwy S","35244",33.346690099853475,-86.79684759182317
"35124","Pelham","AL","ALDI","200 Big Mountain Cir","35124",33.3438644813641,-86.79506444907378
"35124","Pelham","AL","Food World","3001-3167 Lee St","35124",33.293391596426964,-86.81296027806911
"35124","Pelham","AL","Spice World","not_available","35244",33.37453188292968,-86.80004171150077
"35124","Pelham","AL","B & C Smart Packaging","not_available","35223",33.35135160589206,-86.795594394207
"35124","Pelham","AL","Publix Pelham","Unnamed Rd","35124",33.29985794650591,-86.79046092523079
"35125","Pell City","AL","Walmart Supercenter","165 Vaughan Ln","35125",33.60942998,-86.27794705
"35125","Pell City","AL","Food Outlet","not_available","35125",33.587084000000004,-86.281754
"35126","Pinson","AL","Publix","5150 Old Springville Rd","35126",33.65575391904034,-86.64678431836865
"35126","Pinson","AL","Food Giant","6662 Highway 75 #113","35126",33.69777976354074,-86.68164130508065
"35126","Pinson","AL","Winn-Dixie","4701 Center Point Rd","35126",33.69563789425428,-86.6799427138776
"35126","Pinson","AL","Piggly Wiggly","6730 Deerfoot Pkwy","35126",33.69761633922864,-86.60733612507424
"35126","Pinson","AL","Piggly Wiggly","not_available","35126",33.68868181783434,-86.62629067950276
"35126","Pinson","AL","Piggly Wiggly - Clay","not_available","35173",33.65648211990248,-86.59421436574384
"35128","Pell City","AL","Winn-Dixie","1009 Martin St S","35128",33.57919399389537,-86.27632644084717
"35131","Ragland","AL","Food Barn Grocery","not_available","35131",33.744911,-86.164253
"35146","Springville","AL","Walmart Supercenter","160 Springville Station Blvd","35146",33.77928459,-86.43288361
"35147","Sterrett","AL","Mt. Laurel Piggly Wiggly","not_available","35242",33.406999,-86.629797
"35147","Sterrett","AL","Piggly Wiggly","1324 Dunnavant Valley Rd","35242",33.406518,-86.631655
"35150","Sylacauga","AL","Piggly Wiggly","not_available","35150",33.18505151938611,-86.244200477867
"35150","Sylacauga","AL","Piggly Wiggly","1301 W Fort Williams St","35150",33.16444363873095,-86.27340232851523
"35150","Sylacauga","AL","Save A Lot","204 W Fort Williams St","35150",33.1682086,-86.2544913
"35150","Sylacauga","AL","Save-A-Lot","204 W Fort Williams","35150",33.16919736516342,-86.25512971312335
"35160","Talladega","AL","Walmart Supercenter","214 Haynes St","35160",33.438256514578924,-86.08049546278372
"35160","Talladega","AL","Piggly Wiggly","320 Battle St W","35160",33.432797,-86.105178
"35160","Talladega","AL","Munford Foodmart","44201 Alabama Hwy 21","36268",33.53248596191406,-85.94136047363281
"35160","Talladega","AL","Save a Lot","Battle St.","35160",33.438323240485424,-86.08345444978737
"35173","Trussville","AL","Walmart Supercenter","5919 Trussville Crossings Pkwy","35235",33.63915065,-86.629107
"35173","Trussville","AL","Publix","7272 Gadsden Hwy","35173",33.64107464751488,-86.57966421017049
"35173","Trussville","AL","Winn-Dixie","465 Main St","35173",33.61558638929449,-86.61815499329545
"35173","Trussville","AL","ALDI","5485 Patrick Way","35235",33.6103969,-86.6234967
"35173","Trussville","AL","Honey & Spice Health Foods","218 Main St Ste 114","35173",33.61974334716797,-86.60939025878906
"35184","West Blocton","AL","Foodland","20000 Highway 11","35184",33.21236912837446,-87.16732037093855
"35184","West Blocton","AL","West Blocton Food Center","976","35184",33.117528963001256,-87.12298182519972
"35203","Birmingham","AL","Publix at 20 Midtown","230 20th St S","35233",33.5099483283419,-86.80305245455602
"35203","Birmingham","AL","Harvest Market","not_available","35203",33.515191,-86.806459
"35203","Birmingham","AL","Chai's Oriental Food Mart","2133 7th Ave S","35233",33.50708357236985,-86.7971159696009
"35205","Birmingham","AL","Piggly Wiggly","3000 Independence Dr","35209",33.47824508904384,-86.78761909455463
"35205","Birmingham","AL","Pig Wine Section","not_available","35209",33.478229,-86.787843
"35205","Birmingham","AL","Asian Food Market","22 Green Springs Hwy","35209",33.474392,-86.826606
"35205","Birmingham","AL","City Market","16th Avenue South","35205",33.49226065654032,-86.80651613707485
"35205","Birmingham","AL","Wilson's Market","1401 15th St S","35205",33.49409005438541,-86.80261314243833
"35205","Birmingham","AL","Western Market","2230 Highland Ave S","35205",33.50169699285532,-86.7902007202808
"35206","Birmingham","AL","Walmart Supercenter","9248 Parkway E","35206",33.58991747554148,-86.70034030702965
"35206","Birmingham","AL","Piggly Wiggly","not_available","35206",33.54885080198782,-86.74107105409871
"35206","Birmingham","AL","Publix","not_available","35210",33.555277777777775,-86.66972222222223
"35206","Birmingham","AL","Village Market","7737 2nd Ave S","35206",33.56014426011763,-86.72469256640136
"35207","Birmingham","AL","Forestwood Farm Inc","4101 Coalburg Rd","35207",33.56187057495117,-86.8418197631836
"35207","Birmingham","AL","Wild Child Catering","2708 20th Ave N","35234",33.54159,-86.8109
"35207","Birmingham","AL","Flowers' Bakery Outlet Store","Republic Road","35214",33.56122847574747,-86.8590056139622
"35208","Birmingham","AL","Piggly Wiggly","1697 Tuscaloosa Ave SW","35211",33.487129438492666,-86.86196884609325
"35208","Birmingham","AL","Marinos","not_available","35218",33.50857596354527,-86.90027395055425
"35208","Birmingham","AL","Winn-Dixie","2220 Bessemer Rd","35208",33.496395323826306,-86.87810519215671
"35208","Birmingham","AL","Ensley Foods","20th Street Ensley","not_available",33.509699,-86.890422
"35208","Birmingham","AL","Winn Dixie","2200 Bessemer Super Highway","35208",33.4964568902273,-86.87754080686156
"35209","Birmingham","AL","Publix","784 Montgomery Hwy","35216",33.44481049937326,-86.79291862481215
"35209","Birmingham","AL","The Fresh Market","549 Brookwood Village","35209",33.46817574192474,-86.77417671165917
"35209","Birmingham","AL","Publix","411 Green Springs Hwy","35209",33.465186887300625,-86.8199198799566
"35209","Birmingham","AL","Walmart Neighborhood Market","312 Palisades Blvd","35209",33.4677315517979,-86.8213254207319
"35209","Birmingham","AL","Super Oriental Market & Red Pearl Restaurant","243 W Valley Ave","35209",33.466914906947316,-86.83408238004083
"35209","Birmingham","AL","GreenWise Market","1000 Jemison Ln","35223",33.486255,-86.773036
"35209","Birmingham","AL","ALDI","428 Green Springs Hwy","35209",33.46395302103851,-86.82150319979883
"35209","Birmingham","AL","Gordo's Market","433 Valley Ave","35209",33.472504689584,-86.81955630114146
"35209","Birmingham","AL","Save-A-Lot","873 Dennison Ave","35211",33.47995328891211,-86.8418356237681
"35209","Birmingham","AL","Walmart Grocery Pickup and Delivery","209 Lakeshore Pkwy","35209",33.44662094116211,-86.82083129882812
"35209","Birmingham","AL","International Market","426 Carr Ave","35209",33.462479,-86.818314
"35209","Birmingham","AL","Halal Mediterranean Food Market","430 Green Springs Hwy #6","35209",33.46342468261719,-86.82115173339844
"35210","Birmingham","AL","Publix","1325 Montclair Rd","35210",33.52119364971406,-86.73076993726876
"35210","Birmingham","AL","Walmart Supercenter","1600 Montclair Rd","35210",33.52873029805227,-86.72004645923695
"35210","Birmingham","AL","Winn-Dixie","4476 Montevallo Rd","35213",33.52006813922307,-86.72839030421788
"35210","Birmingham","AL","ALDI","520 Gene Reed Rd","35215",33.59805608881696,-86.69440202795613
"35210","Birmingham","AL","ALDI","7400 Crestwood Blvd","35210",33.53054832785242,-86.72742919697629
"35210","Birmingham","AL","ALDI","9601 Parkway E","35215",33.59754180908203,-86.69291687011719
"35210","Birmingham","AL","S&G Foodmart","1200","35223",33.532678000000004,-86.681744
"35210","Birmingham","AL","Foodsmart","1036 Crestwood Blvd","35212",33.527658,-86.73261
"35210","Birmingham","AL","Food Giant","9520 Parkway E","35215",33.595572,-86.695114
"35210","Birmingham","AL","Concepts & Associates, Inc.","105 19th St S","35210",33.537556,-86.707858
"35210","Birmingham","AL","Food $mart","7309 Crestwood Blvd","35210",33.528831481933594,-86.72914123535156
"35211","Birmingham","AL","Piggly Wiggly","not_available","35225",33.414156,-86.852897
"35211","Birmingham","AL","Sheba","not_available","35211",33.49525451660156,-86.85093688964844
"35211","Birmingham","AL","piggly wiggly","Tyler road","not_available",33.407861935746496,-86.8392086281448
"35213","Birmingham","AL","Piggly Wiggly","3314 Clairmont Ave S","35222",33.51304349754678,-86.78035227664665
"35213","Birmingham","AL","Piggly Wiggly","93 Euclid Ave","35213",33.5030518407325,-86.75739201657207
"35213","Birmingham","AL","Walmart","not_available","35213",33.51703292726324,-86.74322118678975
"35214","Birmingham","AL","Piggly Wiggly","1633 Forestdale Blvd","35214",33.56951511853239,-86.89842969847246
"35214","Birmingham","AL","Lisa's Rolled Ice Cream","1450 Beauty Cir","35214",33.56300333,-86.89546667
"35215","Birmingham","AL","Walmart Neighborhood Market","1916 Center Point Pkwy","35215",33.63780035193024,-86.68444163315746
"35215","Birmingham","AL","Sue's Dirty Sundries","not_available","35215",33.631636,-86.707411
"35215","Birmingham","AL","Food Giant Centerpoint","101 Polly Reed Rd","35215",33.63254928588867,-86.68244934082031
"35215","Birmingham","AL","Winn-Dixie","2402 Old Springville Rd","35215",33.65222874851909,-86.64919712215462
"35215","Birmingham","AL","Food Giant","1675 Center Point Pkwy","35215",33.63434982299805,-86.68267059326172
"35215","Birmingham","AL","Save-A-Lot","1127 Huffman Rd","35215",33.610179649532604,-86.68568556833779
"35215","Birmingham","AL","Alfa Mart","Center Point, Bukit Golf Housing Estate","not_available",33.6456583,-86.68360009999999
"35216","Birmingham","AL","Publix","1584 Montgomery Hwy","35216",33.40349681790245,-86.80811775693604
"35216","Birmingham","AL","Walmart Neighborhood Market","1300 Montgomery Hwy","35216",33.4287124468051,-86.79145254083375
"35216","Birmingham","AL","Walmart Neighborhood Market","3320 Lorna Rd","35216",33.392940738909275,-86.7990029354589
"35216","Birmingham","AL","Tokyo Asian Food","Hwy 31","not_available",33.39187501727745,-86.80690986109254
"35216","Birmingham","AL","Organic Harvest Market & Café","1580 Montgomery Hwy","35216",33.404318385942176,-86.80667913183015
"35216","Birmingham","AL","India Heritage","3137 Lorna Rd #7","35216",33.39958281513779,-86.80286211637592
"35216","Birmingham","AL","Golden Temple Hoover","Lorna Rd","not_available",33.393926355397944,-86.79802072961859
"35217","Birmingham","AL","Associated Grocers","3600 Vanderbilt Rd","35217",33.558243,-86.784486
"35217","Birmingham","AL","Food Giant","1153 E Lake Blvd","35217",33.58185577392578,-86.77115631103516
"35223","Birmingham","AL","Piggly Wiggly","not_available","35243",33.48172736027024,-86.71189389288865
"35223","Birmingham","AL","Publix","3141 Overton Rd","35223",33.46630057999979,-86.73269440587275
"35223","Birmingham","AL","Winn-Dixie","3925 Crosshaven Drive","35243",33.46303808462781,-86.7306216719349
"35226","Birmingham","AL","Publix","2543 John Hawkins Pkwy","35244",33.35576518120528,-86.84305516894325
"35226","Birmingham","AL","Sprouts Farmers Market","5250 Medford Dr, Ste 120","35244",33.35580110396261,-86.85496240854263
"35226","Birmingham","AL","ALDI","1025 Marble Ter","35244",33.3542825,-86.8470824
"35242","Birmingham","AL","Walmart Supercenter","5335 Highway 280","35242",33.4213380757244,-86.6762888989493
"35242","Birmingham","AL","Publix","3040 Healthy Way","35243",33.42957118034183,-86.73743135740143
"35242","Birmingham","AL","Trader Joe's","205 Summit Blvd, Suite 100","35243",33.44662050400229,-86.7297922866139
"35242","Birmingham","AL","SuperTarget","4616 Highway 280","35242",33.42591140902238,-86.71242026400326
"35242","Birmingham","AL","Whole Foods Market","3100 Cahaba Village Plaza","35243",33.46028365322846,-86.75235577244086
"35242","Birmingham","AL","Publix","410 Doug Baker Blvd","35242",33.40891629158155,-86.66823106031765
"35242","Birmingham","AL","ALDI","4639 Highway 280","35242",33.42667007446289,-86.7046127319336
"35242","Birmingham","AL","Sprouts Farmers Market","5265 US 280","35242",33.420100729237646,-86.68343782424927
"35242","Birmingham","AL","The Fresh Market","4700 US-280, Ste 6","35242",33.42169640158114,-86.70005234479714
"35401","Tuscaloosa","AL","Publix","1101 Southview Ln","35405",33.123431668809836,-87.55264266928943
"35401","Tuscaloosa","AL","Winn-Dixie","9750 Highway 69 S","35405",33.11791743180705,-87.55281065001193
"35401","Tuscaloosa","AL","Publix","1190 University Blvd","35401",33.21183002765092,-87.55326143575023
"35401","Tuscaloosa","AL","ALDI","1349 McFarland Blvd","35404",33.1995982,-87.5243228
"35401","Tuscaloosa","AL","The Fresh Market","1320 McFarland Blvd E, Ste 100","35404",33.20029956688743,-87.52596987093392
"35401","Tuscaloosa","AL","Piggly Wiggly","1721 Greensboro Ave","35401",33.196515659260214,-87.56210130715667
"35401","Tuscaloosa","AL","Food World","not_available","35405",33.16921350404837,-87.52736685916312
"35401","Tuscaloosa","AL","Stacy's Food Market","not_available","35401",33.186104,-87.581936
"35401","Tuscaloosa","AL","A&M Store","not_available","35476",33.219077219537986,-87.58574087615182
"35401","Tuscaloosa","AL","Piggly wiggly","2001 lurleen wallace blvd","not_available",33.229849,-87.575266
"35404","Tuscaloosa","AL","Piggly Wiggly","2731 University Blvd","35401",33.205918484883234,-87.50217655901702
"35404","Tuscaloosa","AL","Winn-Dixie","4205 University Blvd E","35404",33.19767330464764,-87.4813172674055
"35404","Tuscaloosa","AL","Food World","4440 University Blvd E","35404",33.19669509940542,-87.47684496764238
"35405","Tuscaloosa","AL","Walmart Supercenter","1501 Skyland Blvd E","35405",33.16565902216787,-87.51879844490051
"35405","Tuscaloosa","AL","Walmart Neighborhood Market","4201 Hargrove Rd E","35405",33.170099173494066,-87.4826344802154
"35406","Tuscaloosa","AL","Publix","4851 Rice Mine Rd NE Ste 200","35406",33.262970714072544,-87.51358491821696
"35406","Tuscaloosa","AL","Ingram Farms","1196 Union Chapel Rd E","35473",33.264356,-87.542833
"35406","Tuscaloosa","AL","Winn-Dixie","10 McFarland Blvd","35476",33.2368786919116,-87.55255942133381
"35442","Aliceville","AL","Food Fare","not_available","35442",33.132591247558594,-88.1567153930664
"35443","Boligee","AL","Edgar's","not_available","35462",32.839113,-87.884241
"35443","Boligee","AL","Livingston Market Place","not_available","35470",32.67712165157901,-88.16680703555505
"35452","Coker","AL","ALDI","5801 McFarland Blvd.","35476",33.23196684032362,-87.62473522267828
"35466","Gordo","AL","Piggly Wiggly","not_available","35466",33.31676480918371,-87.90458644192209
"35466","Gordo","AL","Ashmores","not_available","35481",33.379242,-88.016852
"35470","Livingston","AL","Walmart Supercenter","969 Us Highway 80 W","36732",32.4931771514212,-87.84950621340548
"35470","Livingston","AL","Piggly Wiggly","205 Main St","36925",32.48611893052886,-88.29746205095076
"35473","Northport","AL","Walmart Neighborhood Market","1660 Mcfarland Boulevard","35476",33.23933178517382,-87.57327355371515
"35473","Northport","AL","Walmart Supercenter","5710 Mcfarland Blvd","35476",33.236185412649505,-87.61466297856371
"35473","Northport","AL","Publix","2300 McFarland Blvd","35476",33.24162091879659,-87.57798144479285
"35473","Northport","AL","Walmart Grocery Pickup & Delivery","5710 McFarland Blvd","35476",33.23608604,-87.61516984
"35473","Northport","AL","Winn-Dixie","13620 Highway 43 N","35475",33.30628577183321,-87.60246521575625
"35473","Northport","AL","Save-A-Lot","3067 Mcfarland Blvd","35476",33.240238,-87.585402
"35473","Northport","AL","Walmart Grocery Pickup","1660 McFarland Boulevard","35476",33.238205,-87.572876
"35501","Jasper","AL","Walmart Supercenter","1801 Highway 78 E","35501",33.843234159880005,-87.2544392277478
"35501","Jasper","AL","Winn-Dixie","2405 Highway 78 E","35501",33.8420304488255,-87.2450965451007
"35501","Jasper","AL","ALDI","40 N Walston Bridge Rd","35504",33.846926300380524,-87.25788093592087
"35501","Jasper","AL","Piggly Wiggly","not_available","35550",33.75851058959961,-87.18219757080078
"35501","Jasper","AL","Save-A-Lot","689 Hwy 78 W","35501",33.8483619689941,-87.2898635864258
"35501","Jasper","AL","Save A Lot","689 Highway 78 W","35501",33.8476687,-87.2827372
"35501","Jasper","AL","Bill & Son's","not_available","35549",33.88471303935477,-87.51502034535355
"35501","Jasper","AL","Save-A-Lot","680 Highway 78 W","35501",33.84941482543945,-87.28263854980469
"35540","Addison","AL","Gateway Foods, Inc.","14928 Highway 278","35553",34.1570049,-87.2856432
"35541","Arley","AL","Son's of Arley","not_available","35541",34.078814416374094,-87.21216443304445
"35546","Berry","AL","Piggly Wiggly","17884 AL-18","35546",33.659062,-87.601397
"35553","Double Springs","AL","Gateway Foodland","not_available","35553",34.15964569315279,-87.41555307531934
"35555","Fayette","AL","Fayette Shop N Save","not_available","35555",33.698697,-87.840176
"35555","Fayette","AL","Walmart Garden Center","3186 Highway 171 N","35555",33.73162250598269,-87.80935125858863
"35563","Guin","AL","Walmart Garden Center","2575 Us Highway 43","35594",33.935486950184234,-87.84062044673867
"35563","Guin","AL","Piggly wiggly","7270 US Highway 43","not_available",33.966391413486335,-87.90955066680908
"35563","Guin","AL","Gateway Foodland","not_available","35594",33.93837097019614,-87.83538777495264
"35564","Hackleburg","AL","CJS WHOLESALES","244 S Main St","35564",34.27662658691406,-87.82902526855469
"35565","Haleyville","AL","Walmart Supercenter","42466 Highway 195","35565",34.23946937,-87.59880318
"35565","Haleyville","AL","Piggly Wiggly","not_available","35565",34.225377,-87.621885
"35565","Haleyville","AL","Piggly Wiggly","3691-4181 State Route 5","35581",34.35355,-87.70602318333333
"35570","Hamilton","AL","Walmart Supercenter","1706 Military St S","35570",34.11961491356255,-87.99208823280544
"35576","Millport","AL","Piggly Wiggly","12205 Highway 96","35576",33.561004638671875,-88.07335662841797
"35579","Oakman","AL","Son's","Hwy 269","35580",33.7407234957117,-87.26785882406932
"35582","Red Bay","AL","Big Star Food Market","406 Golden Rd.","35582",34.44693374633789,-88.12956237792969
"35582","Red Bay","AL","Piggly Wiggly","518 4th Ave S","35582",34.43877410888672,-88.13892364501953
"35586","Sulligent","AL","SAV-MOR","not_available","35592",33.75904620606847,-88.10847797552843
"35601","Decatur","AL","Walmart Supercenter","2800 Spring Avn. S.w","35603",34.556494137976074,-86.99621860114384
"35601","Decatur","AL","Walmart Neighborhood Market","1203 6th Ave Se","35601",34.58882733480177,-86.98147294851076
"35601","Decatur","AL","Kroger","1101 Beltine Rd","35601",34.560154,-86.9765959
"35601","Decatur","AL","Publix","1605 Beltline Rd SW","35601",34.56500382569233,-87.01271944373006
"35601","Decatur","AL","Food World","2019 6th Ave SE","35601",34.573370000000004,-86.97574
"35601","Decatur","AL","La Guerrense","not_available","35601",34.58253678497173,-86.97827736583328
"35601","Decatur","AL","Pharaoh Vape and Phone Repair","1241 Point Mallard Pkwy #412","35601",34.55982506020872,-86.9722544029355
"35601","Decatur","AL","Food World","1652 Beltline Rd SW","35601",34.567954155192496,-87.00994779141853
"35601","Decatur","AL","Walmart Grocery Pickup and Delivery","2800 Spring Avn. S.W","35603",34.5565103,-86.9958752
"35601","Decatur","AL","Holaway's Market","2215 Danville Rd SW","35601",34.57346296747158,-87.01244453577652
"35601","Decatur","AL","Hancock Fabrics","1101 Beltline Rd SE","35601",34.56020736694336,-86.97650909423828
"35601","Decatur","AL","ALDI","1000 Beltline Rd","35601",34.56200813142374,-87.00434402392602
"35601","Decatur","AL","Hometown Market","1826 6th Ave SE","35601",34.57624488356117,-86.97406918950504
"35601","Decatur","AL","Decatur Coca-Cola Bottling Company","No1 Refreshment Pl","35601",34.6102233,-87.03459319999999
"35601","Decatur","AL","Kroger Grocery Pickup and Delivery","1101 Beltline Road S.W.","35601",34.5600829752756,-86.97661568528989
"35603","Decatur","AL","Publix","not_available","35603",34.541869,-86.920506
"35603","Decatur","AL","Foodland","470 Alabama 67","35603",34.52465751000857,-86.89354803264669
"35611","Athens","AL","Walmart Supercenter","1011 Us Highway 72 E","35611",34.7882611531721,-86.95866928904847
"35611","Athens","AL","ALDI","115 US 72","35611",34.7903924,-86.9677675
"35611","Athens","AL","Hometown Grocery","not_available","35611",34.796591814660694,-86.97313581124892
"35611","Athens","AL","Jiffy Food Store","US Hwy 31 N","35611",34.80261113553482,-86.95245379974375
"35611","Athens","AL","Save-A-Lot","625 US Hwy 72","35611",34.78863525390625,-86.97645568847656
"35611","Athens","AL","Foodland","not_available","35652",34.83825469,-86.99455415
"35611","Athens","AL","Piggly Wiggly","100 US Highway 31 N","35611",34.815155029296875,-86.94198608398438
"35613","Athens","AL","Publix","12070 County Line Rd Ste C","35756",34.73053177240777,-86.7876524653901
"35613","Athens","AL","Publix","22031 US Highway 72","35613",34.78364069627525,-86.92986083691575
"35614","Athens","AL","Piggly Wiggly","hwy 127","35620",34.925411224365234,-86.98725891113281
"35618","Courtland","AL","Foodland","Hwy 157","35650",34.60007212,-87.36070817
"35619","Danville","AL","Walmart Supercenter","15445 Highway 24","35650",34.495288442823906,-87.27710648429874
"35619","Danville","AL","Foodland","11659 Alabama 157","35650",34.48241873,-87.27411193
"35621","Eva","AL","Piggly Wiggly","not_available","35087",34.39469468076391,-86.67773161388394
"35621","Eva","AL","Jack's Foodland","5564 Highway 55 E","35621",34.3115234375,-86.73206329345703
"35622","Falkville","AL","KROGER","241 Hwy 31, SW St.,Hwy 60","not_available",34.33523833813412,-86.85902031169175
"35630","Florence","AL","Publix Super Market at Renaissance City Center","322 Cox Creek Pkwy","35630",34.837245672230985,-87.62970767291712
"35630","Florence","AL","Walmart Supercenter","2701 Cloverdale Road","35633",34.842925088021175,-87.69169119868863
"35630","Florence","AL","Walmart Supercenter","3100 Hough Rd","35630",34.834273989561325,-87.62616018788522
"35630","Florence","AL","Walmart Neighborhood Market","1410 Florence Blvd","35630",34.81829810044245,-87.65653117618466
"35630","Florence","AL","ALDI","411 Cox Creek Pkwy","35630",34.84115373464132,-87.64009193347192
"35630","Florence","AL","Foodland","1708 Darby Dr","35630",34.822669982910156,-87.6544418334961
"35630","Florence","AL","Big Star","2503 N Wood Ave","35630",34.83731859788509,-87.68754530875994
"35630","Florence","AL","Wilson Food Center","929 W College St, Florence, AL 35630","35630",34.79399490356445,-87.68778991699219
"35630","Florence","AL","Hometown Market","1421 N Wood Ave #1500","35630",34.82045346610709,-87.6824426651001
"35630","Florence","AL","Belle Foods","1604 Florence Blvd","35630",34.82077456986147,-87.6513505894806
"35630","Florence","AL","ALDI","not_available","35630",34.82670716155012,-87.69282064607431
"35630","Florence","AL","Belle Foods","990 Cox Creek Pkwy","35633",34.8401490399659,-87.68693994201563
"35630","Florence","AL","Latinos Market","3113 Florence Blvd","35634",34.83293914794922,-87.61618041992188
"35630","Florence","AL","Discount grocery","103 Simpson St, Florence, AL 35630","35630",34.81937789916992,-87.68106079101562
"35630","Florence","AL","El Patron Tienda Mexicana","1540 Florence Blvd","35630",34.819336,-87.655291
"35633","Florence","AL","Walmart Supercenter","301 Avalon Ave","35661",34.746403767496695,-87.67409115766176
"35633","Florence","AL","Foodland","not_available","35660",34.75322783912134,-87.70067475899482
"35633","Florence","AL","Foodland","103 W 1st St","35674",34.73612937704115,-87.70380367719014
"35633","Florence","AL","Walmart Grocery Pickup","517 Avalon Ave","35661",34.744858989899,-87.6697648484848
"35633","Florence","AL","ALDI","516 Avalon Ave","35661",34.7443115,-87.6694736
"35633","Florence","AL","Piggly Wiggly","Central Heights United Methodist, 3350 County Road 200, Florence, AL 35633-3933","35633-3933",34.894447326660156,-87.79148864746094
"35634","Florence","AL","Foodland","not_available","35645",34.85715047304661,-87.55175627451153
"35634","Florence","AL","Piggly Wiggly","not_available","35634",34.95451550941208,-87.52970702296842
"35640","Hartselle","AL","Kroger","241 Highway 31 SW Ste 60","35640",34.43944909368571,-86.94261968135834
"35640","Hartselle","AL","Walmart Supercenter","1201 Highway 31 Nw","35640",34.4530602510004,-86.94861300115178
"35640","Hartselle","AL","Kroger Grocery Pickup and Delivery","241 Highway 31 SW Ste K","35640",34.43939492608347,-86.94262173844015
"35640","Hartselle","AL","Hometown Market","not_available","35640",34.44702391238852,-86.93608413007145
"35650","Moulton","AL","Shop to Save Supermarket","not_available","35650",34.482007395985676,-87.29020259983712
"35652","Rogersville","AL","Foodland","16143 Highway 72","35652",34.825514,-87.296095
"35652","Rogersville","AL","Foodland Elgin Crossroads","Hwy 101","35652",34.85245010405081,-87.39121703212416
"35653","Russellville","AL","Price Less IGA","15160 Highway 43","35653",34.5106315612793,-87.71723937988281
"35653","Russellville","AL","Big Star Food Market","314 Jackson Ave S","35653",34.50273132324219,-87.7313003540039
"35653","Russellville","AL","Walmart Grocery Pickup and Delivery","13675 Highway 43","35653",34.4943378990415,-87.7260355525286
"35653","Russellville","AL","El Quetzal Buena Vista Super Market","not_available","35653",34.505444,-87.728975
"35653","Russellville","AL","Big Star Supermarket","200-298 Jackson Ave S","35653",34.50227096,-87.73108412
"35660","Sheffield","AL","Penny Pinchers","607 Davison Ave","35661",34.74824142456055,-87.66681671142578
"35660","Sheffield","AL","Discount Grocery","601-699 Davison Ave","35661",34.74823364,-87.66693848
"35661","Muscle Shoals","AL","Foodland","not_available","35661",34.78451156616211,-87.5293197631836
"35661","Muscle Shoals","AL","Food World","3413 Woodward Ave","35661",34.728003,-87.66575300000001
"35661","Muscle Shoals","AL","Belle Foods","3413 Woodward","not_available",34.727992315887015,-87.66642821155028
"35661","Muscle Shoals","AL","Wonder/Hostess Bakery Outlet","2417 Avalon Ave","35661",34.744811999999996,-87.639315
"35670","Somerville","AL","Piggly Wiggly","5276 Highway 67 S","35670",34.44800567626953,-86.75725555419922
"35672","Town Creek","AL","Big Star","Jones Rd","35672",34.68237767540973,-87.41732141313551
"35674","Tuscumbia","AL","Flowers Baking Company","not_available","35674",34.73005881839123,-87.68317921573086
"35674","Tuscumbia","AL","Piggly Wiggly","not_available","35501",34.717339,-87.681813
"35740","Bridgeport","AL","Save-A-Lot","Highway 72 North","35740",34.95137150591098,-85.7121706472775
"35740","Bridgeport","AL","Save A Lot","50468 AL Highway 277","35740",34.9475807,-85.7144155
"35740","Bridgeport","AL","Save-A-Lot","50468 AL Hwy 277","35740",34.94137573,-85.72611237
"35747","Grant","AL","Dennis Foodland","4560 Cathedral Caverns Hwy","not_available",34.51561344966002,-86.25742393380402
"35748","Gurley","AL","Piggly Wiggly","highway 72","35748",34.695577,-86.370964
"35748","Gurley","AL","Keel Mountain Market LLC","1570 Keel Mountain Rd","35748",34.66196772187938,-86.35981533407
"35749","Harvest","AL","Kroger","7090 Highway 72 W","35806",34.7568568,-86.7118363
"35749","Harvest","AL","Walmart Supercenter","8580 Hwy 72 W","35758",34.75096373759016,-86.77357138094973
"35749","Harvest","AL","Publix","7830 Highway 72 W","35758",34.75591208402691,-86.74167947565883
"35749","Harvest","AL","Sprouts Farmers Market","7504 US 72 West NW, Unit B","35758",34.758425504943524,-86.72939747571945
"35749","Harvest","AL","Publix @ Providence","not_available","35806",34.75822237838922,-86.68040015357727
"35749","Harvest","AL","Publix","5850 Highway 53","35749",34.84647735027487,-86.71064037677097
"35749","Harvest","AL","ALDI","7676 Highway 72 W","35758",34.75579011526973,-86.73610971139169
"35749","Harvest","AL","Walmart Neighborhood Market","7140 Wall Triana Highway","35757",34.794967735878465,-86.74960106647632
"35749","Harvest","AL","Star Super Market","not_available","35758",34.75381289321304,-86.74789772713265
"35749","Harvest","AL","Shop & Save","6024 Alabama 53","35749",34.852,-86.717871
"35750","Hazel Green","AL","Walmart Supercenter","14595 Hwy 231-431 N","35750",34.946052675982,-86.57368918730772
"35750","Hazel Green","AL","Publix","12290 Highway 231 431 N","35759",34.871017567906094,-86.56985351027797
"35750","Hazel Green","AL","Griner's","231/431 N. PKWY","35750",34.941138833979394,-86.57124495011051
"35750","Hazel Green","AL","Bruce's Foodland","14470 Hwy 231","35750",34.941070556640625,-86.57077026367188
"35752","Hollywood","AL","Walmart Supercenter","24833 John T Reid Pkwy","35768",34.66857723271106,-86.00623165677113
"35752","Hollywood","AL","Aave A Lot","not_available","35768",34.666293,-86.036342
"35754","Laceys Spring","AL","Hobbs Island Grocery & Beverage","981 Hobbs Island Rd SE","35803",34.563237,-86.544848
"35756","Madison","AL","Walmart Supercenter","8650 Madison Blvd","35758",34.68352327622788,-86.74112418361237
"35756","Madison","AL","Kroger","4579 Wall Triana Hwy","35758",34.708191124950126,-86.74837272019681
"35756","Madison","AL","Dollar General Market","8466 Madison Pike","35758",34.70720783370559,-86.74049422605283
"35756","Madison","AL","Kroger","300 Hughes Rd","35758",34.70797551009054,-86.7432653849524
"35756","Madison","AL","International Supermarket","8006 Madison Pike #7","35758",34.707325,-86.721744
"35756","Madison","AL","Crossroads IGA","5211 Wall Triana Hwy","35758",34.7291306,-86.7501407
"35756","Madison","AL","International Oriental Supermarket","Old Madison Pike","not_available",34.70732741524258,-86.72161824000897
"35756","Madison","AL","Discount Food Mart","not_available","35824",34.63777315196164,-86.7243208566004
"35758","Madison","AL","Publix","8000 Madison Blvd Ste A","35758",34.691422871285,-86.71818953522028
"35759","Meridianville","AL","Star Super Market - Meridianville","12078 Highway 231/431 N","35759",34.85236576,-86.58882732
"35760","New Hope","AL","T&L Grocery","1332 Cave Spring Rd","35763",34.603845,-86.408537
"35761","New Market","AL","Walmart Supercenter","2165 Winchester Rd","35811",34.819998572141635,-86.49256241915641
"35761","New Market","AL","Publix","2246 Winchester Rd NE","35811",34.816516818766274,-86.48987065184643
"35761","New Market","AL","FoodValue","not_available","35811",34.810382905742955,-86.50787845624377
"35761","New Market","AL","ALDI","2125 Winchester Road NE","35811",34.8170518,-86.49590730000001
"35763","Owens Cross Roads","AL","Walmart Supercenter","330 Sutton Rd","35763",34.65751064052014,-86.48598679090665
"35763","Owens Cross Roads","AL","Publix","6707 Highway 431 S","35763",34.65902618232534,-86.48154956631704
"35763","Owens Cross Roads","AL","Walmart Grocery Pickup and Delivery","330 Sutton Rd Se","35763",34.65998878,-86.48701854
"35763","Owens Cross Roads","AL","Produce Stockroom","not_available","35763",34.65752091468303,-86.48550092785176
"35768","Scottsboro","AL","Piggly wiggly","Broad St.","35768",34.6512206392173,-86.03517797612547
"35768","Scottsboro","AL","Flowers Baking Company","not_available","35769",34.629256,-86.050141
"35768","Scottsboro","AL","Food World","1402 County Park Rd","35769",34.64698665142374,-86.03225550726879
"35768","Scottsboro","AL","Save-A-Lot","3509 N Broad  Hwy 74","35769",34.64539,-86.0394
"35772","Stevenson","AL","Shop Rite","not_available","35772",34.87147410780992,-85.81410519201022
"35801","Huntsville","AL","Walmart Supercenter","3031 Memorial Pkwy Sw","35801",34.70312845094458,-86.58559556571655
"35801","Huntsville","AL","Publix Super Market at Twickenham Square","310 Pelham Ave SW","35801",34.72338317286451,-86.58371605416161
"35801","Huntsville","AL","Kroger","2110 Oakwood Ave NW","35810",34.7506315,-86.6006053
"35801","Huntsville","AL","Publix","4851 Whitesburg Dr SE Ste B","35802",34.69281279911165,-86.566520600241
"35801","Huntsville","AL","The Fresh Market","4800 Whitesburg Dr SW,","35802",34.69190248703158,-86.56972471089766
"35801","Huntsville","AL","Whole Foods Market","2501 Memorial Parkway Sw","35801",34.71206635957456,-86.58989057815468
"35801","Huntsville","AL","Star Super Market - Huntsville","702 Pratt Ave.","35801",34.73866573127461,-86.57636049425018
"35801","Huntsville","AL","Hi & Bye","2212 Clinton Ave W","35805",34.724273681640625,-86.6007308959961
"35801","Huntsville","AL","Halsey Cash And Carry","not_available","35801",34.733422999999995,-86.587829
"35802","Huntsville","AL","Kroger","8404 Memorial Pkwy SW","35802",34.6566561,-86.5713345
"35802","Huntsville","AL","Walmart Neighborhood Market","9020 Bailey Cove Rd Se","35802",34.64732859736873,-86.5412145948844
"35802","Huntsville","AL","Far East Market","not_available","35802",34.658335,-86.5701069
"35802","Huntsville","AL","Seoul Orienal grocery","7908 Memorial Pkwy SW","35802",34.662477971035614,-86.57155538131461
"35803","Huntsville","AL","Walmart Supercenter","11610 Memorial Pkwy Sw","35803",34.61601447384093,-86.57018575995885
"35803","Huntsville","AL","Publix","12796 Bailey Cove Rd SE","35803",34.623098812141116,-86.53842116998352
"35803","Huntsville","AL","ALDI","11909 Memorial Pkwy SE","35803",34.612722929573984,-86.56583235426979
"35803","Huntsville","AL","Kangaroo","Memorial Pkwy SW","35803",34.610766,-86.55905
"35803","Huntsville","AL","Publix Deli Mt. Gap Rd","not_available","35803",34.62446291808573,-86.54836834513357
"35805","Huntsville","AL","Walmart Neighborhood Market","2305 Jordan Ln Sw","35805",34.713751,-86.626533
"35805","Huntsville","AL","ALDI","4710 University Dr NW Unit R1","35816",34.73664237349033,-86.64891353468192
"35805","Huntsville","AL","Holiday International Market","2701 Patton Rd SW Ste A","35805",34.712022999999995,-86.625916
"35805","Huntsville","AL","Redstone Arsenal Commissary","Action Drive","35898-7210",34.69614280491314,-86.63181890243762
"35805","Huntsville","AL","Blue's Convenience Store","Charger Village Food Ct","35899",34.72557764653265,-86.63868918268433
"35805","Huntsville","AL","Jamo's Grocery","504 Holmes Ave","35805",34.726608,-86.626776
"35805","Huntsville","AL","John's Big Brother Super Market","Holmes Ave","35805",34.72781319986519,-86.62892152203321
"35805","Huntsville","AL","La Noche Buena","not_available","35816",34.73746,-86.62796800000001
"35805","Huntsville","AL","Alabama Super Market","712 Triana Blvd NW","35805",34.728097999999996,-86.609737
"35805","Huntsville","AL","Clinton Avenue Grocery","2310 Clinton Ave W","35805",34.72344081729295,-86.60215905860971
"35806","Huntsville","AL","Walmart Supercenter","6140a Univ Drive","35806",34.746694149568505,-86.67604250588654
"35806","Huntsville","AL","Ask Mart","university drive","35806",34.7406688,-86.675991
"35806","Huntsville","AL","Earth Fare","5900 University Dr NW Ste C","35806",34.74237631324732,-86.66599486364191
"35810","Huntsville","AL","Walmart Supercenter","2200 Sparkman Dr Nw","35810",34.76483664093591,-86.59270704501999
"35810","Huntsville","AL","Kroger","6070 Moores Mill Rd","35811",34.8007009,-86.5352369
"35810","Huntsville","AL","Grace's African Tropical Grocery Store","not_available","35810",34.763337,-86.589004
"35810","Huntsville","AL","Walmart Neighborhood Market","4226 Oakwood Ave Nw","35810",34.75067812693867,-86.63439482486865
"35810","Huntsville","AL","Save-A-Lot","3505 Pulaski Pike NW","35810",34.77231421011307,-86.6174931865804
"35811","Huntsville","AL","Publx","Winchester Road","35811",34.778418304187106,-86.50136464135109
"35816","Huntsville","AL","La Colonial Supermercado","1222 Jordan Ln NW","35816",34.741008,-86.62745799999999
"35901","Gadsden","AL","Walmart Supercenter","340 E Meighan Blvd","35903",34.01256394062658,-85.98732156900914
"35901","Gadsden","AL","ALDI","200 N Hood Ave","35903",34.01020800194752,-85.99355892108179
"35901","Gadsden","AL","Giant Johnson's Food","1720 E Meighan Blvd","not_available",33.997850679444554,-85.9671504619877
"35901","Gadsden","AL","Johnson's Giant Food","Walnut St","35901",34.01087463037813,-86.00857891974503
"35901","Gadsden","AL","Cash saver Cost Plus Food","not_available","35901",34.01676220643044,-85.99792693684154
"35901","Gadsden","AL","Save A Lot","301b N 12th St","35901",34.02154208344541,-86.02035089006988
"35901","Gadsden","AL","Johnson Foods","Hwy 431 East Meighan Blvd","35903",34.008828735974916,-85.96926995242055
"35901","Gadsden","AL","Apple A Day","280 N 3rd St","35901",34.016822814941406,-85.99686431884766
"35901","Gadsden","AL","Mr. G's","602 Main St W","35905",33.965159476168,-85.94193436206042
"35901","Gadsden","AL","278 grocery","not_available","35903",34.000795,-85.94850226666667
"35901","Gadsden","AL","Piggly Wiggly","5700 US 278 west","not_available",33.98656690624611,-85.86595384810423
"35901","Gadsden","AL","G & A Discount Groceries Glencoe","3200 East Meighan Blvd","35905",33.96764972982824,-85.94542194608957
"35904","Gadsden","AL","Walmart Supercenter","973 Gilbert Ferry Rd Se","35954",33.99394344143717,-86.09365774569748
"35904","Gadsden","AL","Winn-Dixie","3331 Rainbow Dr","35906",33.960020488914566,-86.03679375640205
"35904","Gadsden","AL","Food World","2519 W Meighan Blvd","35904",34.024015408983296,-86.04400509521999
"35904","Gadsden","AL","Shop N Save","2308 Forrest Ave","35904",34.019081654182656,-86.03689353535962
"35904","Gadsden","AL","Johnson's","not_available","35954",34.02095933234655,-86.0904700343682
"35904","Gadsden","AL","FoodWorld","101 Doc Prince Dr","35906",33.96189562397451,-86.03530892210318
"35904","Gadsden","AL","Foodland","Route 68","not_available",34.133737133333334,-86.10566913333334
"35904","Gadsden","AL","Food World","3225 Rainbow Dr Ste 200D","35906",33.96236801147461,-86.03567504882812
"35904","Gadsden","AL","Bray's Discount Foods","not_available","35906",33.98118652257229,-86.06700637042184
"35906","Rainbow City","AL","PUBLIX","128 W Grand Ave","35906",33.95545897484762,-86.04352270060234
"35906","Rainbow City","AL","Burton's","not_available","35907",33.91897748498661,-86.0228667495793
"35950","Albertville","AL","Walmart Supercenter","11697 Us Highway 431","35976",34.2996065989354,-86.27889034077778
"35950","Albertville","AL","Piggly Wiggly","not_available","35950",34.27812583685315,-86.2009007513221
"35950","Albertville","AL","Foodland","Marshall St","35950",34.2652589365685,-86.20662007025074
"35950","Albertville","AL","Bent And Dent Grocery","not_available","35976",34.29442949818527,-86.30180947424572
"35950","Albertville","AL","Save-A-Lot","5850 US Highway 431","35950",34.27832021,-86.21304275
"35950","Albertville","AL","ALDI","11100 US Highway 431","35976",34.29884978076832,-86.2667895423279
"35950","Albertville","AL","foodland plus","313","35950",34.280179164599176,-86.2376007034615
"35950","Albertville","AL","Save A Lot","5850 Us Hwy 431","35950",34.26354217529297,-86.18724060058594
"35952","Altoona","AL","Piggly Wiggly","Hwy 278","35952",34.11663055419922,-86.39224243164062
"35953","Ashville","AL","Piggy Wiggly Fuel Express","35771 US Hwy 231","35953",33.847443218357554,-86.27251386297242
"35954","Attalla","AL","Walmart Supercenter","1972 Hwy 431","35957",34.21494733,-86.15423307
"35954","Attalla","AL","Piggly Wiggly","101-151 Darnell St","35957",34.19920517004122,-86.16134854376244
"35954","Attalla","AL","Boaz Food Mart","not_available","35957",34.189453981145,-86.1893076668443
"35956","Boaz","AL","Camp’s Hometown Foods","11740 US Highway 431","35956",34.1690559387207,-86.13733673095703
"35956","Boaz","AL","Foodland","9464 AL Highway 168","35957",34.198036236604125,-86.17666369612921
"35958","Bryant","AL","Dobbins Supermarket","not_available","35958",34.857536,-85.61376
"35959","Cedar Bluff","AL","Walmart Supercenter","1950 W Main St","35960",34.162437087037134,-85.71276700537447
"35959","Cedar Bluff","AL","Piggly Wiggly","3802-4146 Alabama 9","35959",34.21756597649338,-85.6015549825774
"35959","Cedar Bluff","AL","Piggly Wiggly","not_available","35960",34.157363869474075,-85.69968567776667
"35961","Collinsville","AL","Piggly Wiggly","594 S Valley Ave","35961",34.257187,-85.86768
"35961","Collinsville","AL","Fants Foodland Crossville","14696 Al Highway 68","35962",34.28757250534047,-85.99294251719213
"35967","Fort Payne","AL","Walmart Supercenter","2001 Glenn Blvd Sw","35968",34.43958191133592,-85.7607342722968
"35967","Fort Payne","AL","Foodland","318 McCurdy Ave","35986",34.49776082510612,-85.84396263964042
"35967","Fort Payne","AL","Price Less IGA","2000A Gault Ave N","35967",34.46163558959961,-85.7052993774414
"35967","Fort Payne","AL","United Grocery Outlet","not_available","35967",34.432071685791016,-85.73504638671875
"35968","Fort Payne","AL","Dollar General","Hwy. 75","35988",34.563011866459576,-85.79792837812062
"35971","Fyffe","AL","Fyffe Foodland","not_available","35971",34.44330237325841,-85.9090305870817
"35976","Guntersville","AL","Publix Super Market at Guntersville Landing","2300 Gunter Ave","35976",34.333774777745916,-86.31635636197367
"35976","Guntersville","AL","Guntersville Foodland Plus","14214 US Highway 431","35976",34.32091302990865,-86.3109879464779
"35976","Guntersville","AL","Piggly Wiggly","1455 Alabama 69","35976",34.35266626946218,-86.31448463606021
"35976","Guntersville","AL","La Strada","524 Gunter Ave","35976",34.357723236083984,-86.2953872680664
"36005","Banks","AL","Blue's Old Stand Grocery","Inverness, AL","36005",31.98641590953537,-85.71272190289592
"36010","Brundidge","AL","Walmart Supercenter","1420 Highway 231 S","36081",31.780592512791106,-85.93931067765453
"36010","Brundidge","AL","Piggly Wiggly","not_available","36010",31.726468947231822,-85.81842154151387
"36010","Brundidge","AL","Piggly Wiggly","Hwy 231S","36081",31.780659149053793,-85.95076014115182
"36016","Clayton","AL","Food Giant","134 Eufaula Ave","36016",31.87881403510351,-85.45380750846887
"36016","Clayton","AL","Hometown Foods","not_available","36048",31.782876,-85.556144
"36016","Clayton","AL","Food Giant","not_available","36016",31.878592,-85.439161
"36022","Deatsville","AL","Walmart Supercenter","145 Kelley Blvd","36054",32.49415045863434,-86.398926882781
"36022","Deatsville","AL","Piggly Wiggly","not_available","36067",32.582203,-86.46516
"36022","Deatsville","AL","Winn-Dixie","3625 Highway 14","36054",32.517087709678265,-86.37701000705907
"36022","Deatsville","AL","Food Outlet","3543 Highway 14","36054",32.51546773588402,-86.37943543539508
"36022","Deatsville","AL","Piggly Wiggly","not_available","36092",32.635271,-86.318797
"36022","Deatsville","AL","Better Fitness Nutrition Center","not_available","36054",32.4991906460448,-86.38627560205643
"36024","Eclectic","AL","Piggly Wiggly","515 Kowaliga Rd","36024",32.640671,-86.040406
"36024","Eclectic","AL","Ingrams","525 Kowaliga Rd","36024",32.640846252441406,-86.04063415527344
"36027","Eufaula","AL","Walmart Supercenter","3176 S Eufaula Ave","36027",31.84392374,-85.1700841
"36027","Eufaula","AL","Winn-Dixie","1055 S. Eufaula Ave.","36027",31.878302561446894,-85.14739399355163
"36027","Eufaula","AL","Piggly Wiggly","120 W Broad St","36027",31.89353370666504,-85.14623260498047
"36027","Eufaula","AL","Winn Dixie Marketplace","1037 S. Eufaula Ave","36027",31.880382537841797,-85.14664459228516
"36037","Greenville","AL","Walmart Supercenter","501 Willow Ln","36037",31.84969522479803,-86.6466611661379
"36037","Greenville","AL","Piggly Wiggly","200-212 Cedar St","36037",31.830996999999996,-86.622709
"36040","Hayneville","AL","Hayneville Associated Grocers","not_available","36040",32.17923098772631,-86.59000754542852
"36049","Luverne","AL","Bobby's Discount Grocery","825-873 Montgomery Hwy","36049",31.734977294038206,-86.27613770288143
"36049","Luverne","AL","Piggly Wiggly","1297 S Forest Ave","36049",31.697725296020508,-86.2652359008789
"36049","Luverne","AL","Big Bear Of Luverne Inc","40 S Glenwood Ave","36049",31.7158954,-86.2628227
"36054","Millbrook","AL","Publix","2451 Cobbs Ford Rd","36066",32.461494660356784,-86.39792771990152
"36064","Pike Road","AL","Renfroe's Foodland","not_available","36117",32.36087677367158,-86.13777895031998
"36064","Pike Road","AL","Walmart Neighborhood Market","8035 Vaughn Road","36116",32.340145347694,-86.17511325302308
"36064","Pike Road","AL","Walmart Supercenter","10710 Chantilly Pkwy","36117",32.35480642987017,-86.13469614790533
"36064","Pike Road","AL","Publix","7700 Vaughn Rd","36116",32.33706499350657,-86.18273645131687
"36064","Pike Road","AL","Winn-Dixie","7946 Vaughn Rd","36116",32.33780238634082,-86.17724275688916
"36064","Pike Road","AL","Whole Foods Market","1450 Taylor Rd","36117",32.35859443437016,-86.1727420723073
"36064","Pike Road","AL","Publix","7076 Atlanta Hwy","36117",32.38160207018538,-86.17169695062307
"36064","Pike Road","AL","Walmart Supercenter","6495 Atlanta Hwy","36117",32.38442835,-86.18492776
"36066","Prattville","AL","Walmart Supercenter","1903 Cobbs Ford Rd","36066",32.46254245,-86.41630607
"36066","Prattville","AL","Winn-Dixie","701 E Main St","36067",32.461831765886195,-86.45531735967884
"36066","Prattville","AL","ALDI","1817 E Main St","36066",32.4614211,-86.4206481
"36066","Prattville","AL","Food Outlet","720a East Main St.","36066",32.45895656448368,-86.45587291590502
"36066","Prattville","AL","Food Outlet","not_available","36066",32.44844975130134,-86.43064492376936
"36067","Prattville","AL","Posey Crossroads Grocery","Co. Rd. 57","36067",32.57428027770276,-86.55198710399623
"36067","Prattville","AL","A&J Cash And Carry","Hwy 82 West","not_available",32.490165105544875,-86.56501047951244
"36078","Tallassee","AL","Piggly Wiggly","525 Gilmer Ave","36078",32.543235778808594,-85.90518951416016
"36078","Tallassee","AL","Walmart Supercenter","2190 Gilmer Avenue","36078",32.55155421160961,-85.91686585616422
"36079","Troy","AL","Ingram's Curb Market","not_available","36081",31.816857387706627,-85.96918517446423
"36079","Troy","AL","Piggly Wiggly","710 N 3 Notch St","36081",31.814477920532227,-85.97211456298828
"36079","Troy","AL","Food World","1327 S Brundidge St","36081",31.78734581958569,-85.96492558604851
"36083","Tuskegee","AL","Calhouns","not_available","36083",32.420293,-85.671224
"36083","Tuskegee","AL","Piggly Wiggly","202 S Elm St Ste A","36083",32.42094802856445,-85.69142150878906
"36083","Tuskegee","AL","Calhoun Foods","204A W Lee St","36083",32.42328643798828,-85.6954345703125
"36089","Union Springs","AL","Unionsprings AG","not_available","36089",32.12976096684688,-85.72074452848442
"36089","Union Springs","AL","Piggly wiggly","205-207 Conecuh Ave W","36089",32.14651506321916,-85.71238613879304
"36092","Wetumpka","AL","Walmart Supercenter","4538 Us Highway 231","36092",32.50735722,-86.21235804
"36092","Wetumpka","AL","Winn-Dixie","5326 US Highway 231","36092",32.518028370710155,-86.20987476038415
"36092","Wetumpka","AL","Holley mart","Highway 14","36092",32.55215166607764,-86.17641946687796
"36093","Wetumpka","AL","Piggly Wiggly","not_available","36110",32.420867919921875,-86.28550720214844
"36104","Montgomery","AL","Maxwell AFB Commissary","335 S Kelly St","36112",32.37502204939589,-86.35499826055049
"36104","Montgomery","AL","Holt Street Super Mart","1301 S Holt St, Montgomery, AL 36108","36108",32.3593301229021,-86.32033164645622
"36104","Montgomery","AL","Latino Supermercado","1503-1513 Mount Meigs Rd","36107",32.374886116666666,-86.28727653333334
"36105","Montgomery","AL","Capitol Super Market","not_available","36116",32.325930720804394,-86.26727075695746
"36105","Montgomery","AL","Walmart Supercenter","3801 Eastern Blvd","36116",32.325961104799646,-86.23222459455654
"36105","Montgomery","AL","Winn-Dixie","4724 Mobile Hwy","36108",32.310369307385756,-86.35100475918048
"36105","Montgomery","AL","Super Foods","2905 McGehee Rd","36111",32.338381,-86.26198199999999
"36105","Montgomery","AL","Spice Of Life Indian Grocery","2801 Vaughn Plaza Road Ste U&V","36116",32.34221,-86.220882
"36105","Montgomery","AL","Natural Gourmet","2580 Eastern Blvd","36117",32.34751,-86.22444
"36105","Montgomery","AL","Winn-Dixie","4035 Eastern Blvd","36116",32.32601962218634,-86.23773973728342
"36105","Montgomery","AL","Winn-Dixie","2730 Eastern Blvd","36117",32.34592099707615,-86.22553099718753
"36105","Montgomery","AL","Cash Bargain","5925","36105",32.2678337097168,-86.30181884765625
"36106","Montgomery","AL","Publix","3026 Zelda Rd","36106",32.3553785819176,-86.26563104203979
"36106","Montgomery","AL","Walmart Supercenter","851 Ann St","36107",32.37068067573314,-86.26852468484712
"36106","Montgomery","AL","The Fresh Market","1635 Perry Hill Rd,","36106",32.35536994670661,-86.24271887794917
"36106","Montgomery","AL","ALDI","1568 Eastern Blvd.","36117",32.3565417,-86.2195444
"36106","Montgomery","AL","Winn-Dixie","1740 Carter Hill Rd","36106",32.35798787234582,-86.28375089313198
"36106","Montgomery","AL","Seoul Market","1841 Eastern Blvd","36117",32.354328,-86.216954
"36107","Montgomery","AL","Walmart Neighborhood Market","1600 Federal Drive","36107",32.40265071183146,-86.2672038005343
"36107","Montgomery","AL","Cash & Carry","not_available","36107",32.385807,-86.28365
"36107","Montgomery","AL","Walmart Grocery Pickup and Delivery","1600 Federal Drive","36109",32.40262985229492,-86.26696014404297
"36109","Montgomery","AL","Publix","4045 Atlanta Hwy","36109",32.38338508091214,-86.24203016281832
"36109","Montgomery","AL","Piggly Wiggly","not_available","36109",32.384033203125,-86.24710083007812
"36109","Montgomery","AL","Healthwise foods","5147 Atlanta Hwy","36109",32.3822565,-86.2222616
"36109","Montgomery","AL","Gunter AFB Commissary","115 North Turner Blvd. Bldg 811","36114",32.41003029887005,-86.24576093095556
"36117","Montgomery","AL","Winn-Dixie","5841 Atlanta Hwy","36117",32.38353960485276,-86.19818053839535
"36117","Montgomery","AL","Elchido Market","152 N Burbank Dr, Montgomery, AL 36117","36117",32.384923,-86.19868100000001
"36117","Montgomery","AL","Indian Spices","3462 Eastdale Cir","36117",32.38528,-86.201444
"36201","Anniston","AL","Walmart Supercenter","92 Plaza Ln","36203",33.59957414458091,-85.83276347875477
"36201","Anniston","AL","Walmart Supercenter","5560 Mcclellan Blvd","36206",33.72022460599932,-85.81952683007466
"36201","Anniston","AL","Walmart Grocery Pickup","5560 McClellan Blvd","36206",33.7189394330886,-85.8180857415965
"36201","Anniston","AL","ALDI","75 Holmes Dr","36203",33.60954047610144,-85.82578495147573
"36201","Anniston","AL","Piggly Wiggly","not_available","36201",33.665592193603516,-85.82550048828125
"36201","Anniston","AL","Pick N Save","not_available","36206",33.716323,-85.855244
"36201","Anniston","AL","Winn-Dixie","2495 US Highway 431","36206",33.71596867243464,-85.8551460147672
"36201","Anniston","AL","Pick N Save","not_available","36203",33.612749,-85.8137
"36201","Anniston","AL","Save-A-Lot","3108 Mcclellan Blvd","36204",33.68793453637427,-85.82484289309953
"36201","Anniston","AL","Winn-Dixie","800 Noble St","36201",33.655448877244794,-85.83076552700057
"36201","Anniston","AL","Winn-Dixie","4920 US Highway 78 W","36203",33.59763914672625,-85.928097323588
"36203","Oxford","AL","Winn-Dixie","1408 Golden Springs Rd","36207",33.62794887005056,-85.78703920277499
"36203","Oxford","AL","Publix Super Market at Oxford Commons","115 Commons Way","36203",33.60768816892053,-85.78787731979138
"36203","Oxford","AL","Noypi Asian Market","1316 Greenbrier Dear Rd","36207",33.629356384277344,-85.80804443359375
"36207","Anniston","AL","Walmart Supercenter","1625 Pelham Rd S","36265",33.78820409816694,-85.76478299631692
"36207","Anniston","AL","Big B Grocery","3400 Choccolocco Rd","36207",33.64876937866211,-85.72955322265625
"36250","Alexandria","AL","Foodland","85 Big Valley Dr","36250",33.781028938511106,-85.89891314506531
"36250","Alexandria","AL","Food Outlet","not_available","36250",33.76295054285003,-85.89139058152976
"36251","Ashland","AL","Piggly Wiggly","88985 Highway 9","36266",33.31119082751063,-85.75160211005918
"36251","Ashland","AL","Piggly Wiggly","not_available","36251",33.27522375504166,-85.83443414723638
"36251","Ashland","AL","MAPCO Mart","83162 AL-9","36251",33.27351985803617,-85.83510842284011
"36251","Ashland","AL","Perryland Foods","60254 Highway 49","36266",33.31256690392457,-85.75424031711353
"36264","Heflin","AL","Piggly Wiggly","Ross st","36264",33.64775790217207,-85.58691118287774
"36265","Jacksonville","AL","Winn-Dixie","815 Pelham Rd S","36265",33.80531976647534,-85.76287365972675
"36265","Jacksonville","AL","Price Less IGA","802 Pelham Rd S","36265",33.806197999999995,-85.760318
"36265","Jacksonville","AL","Edwards Grocery and Valley Meats","6726 Alabama 204","36265",33.828853607177734,-85.8092269897461
"36271","Ohatchee","AL","Ohatchee Discount Supermarket","Highway 77","36271",33.78205131788764,-86.03685369192941
"36272","Piedmont","AL","Gregerson's","Highway 278","36272",33.934872349314645,-85.59861543394332
"36272","Piedmont","AL","Lively's Foodland","111-199 E Ladiga St","36272",33.922887326775324,-85.60958769661491
"36272","Piedmont","AL","Greggersons","not_available","36272",33.933151,-85.601274
"36274","Roanoke","AL","Piggly Wiggly","not_available","36274",33.15322029997825,-85.3769788905392
"36274","Roanoke","AL","Walmart Supercenter","4180 Us Hwy 431","36274",33.16447856,-85.36490501
"36278","Wedowee","AL","WM GROCERY","not_available","36278",33.31537409146245,-85.48400214461654
"36301","Dothan","AL","Walmart Supercenter","3300 S Oates St","36301",31.17884022078244,-85.4042787267795
"36301","Dothan","AL","Publix","1620 Ross Clark Cir","36301",31.197256265913186,-85.37439215994819
"36301","Dothan","AL","Winn-Dixie","1151 Ross Clark Cr","36301",31.2128638021705,-85.36057971916426
"36301","Dothan","AL","Piggly Wiggly","767 W Selma St","36301",31.209087,-85.401464
"36301","Dothan","AL","Bruno's Market","3090 Ross Clark Cir","36301",31.227073370479705,-85.43122708797455
"36301","Dothan","AL","Food Depot Main St","not_available","36301",31.22218928194616,-85.38560649100813
"36301","Dothan","AL","Winn-Dixie","2131 Ross Clark Cir","36301",31.189118218024582,-85.39905717198879
"36303","Dothan","AL","Walmart Supercenter","4310 Montgomery Hwy","36303",31.26765138420576,-85.4409448206125
"36303","Dothan","AL","Publix","4650 W Main St Ste 700","36305",31.239138618524848,-85.4622874576694
"36303","Dothan","AL","Publix","3525 Ross Clark Cir Ste 100","36303",31.2484533944329,-85.42866172830242
"36303","Dothan","AL","Walmart Neighborhood Market","3871 West Main Street","36305",31.232257110618605,-85.45094565339272
"36303","Dothan","AL","Winn-Dixie","1571 Westgate Pkwy","36303",31.259082146976844,-85.43211103071813
"36303","Dothan","AL","Food Depot","2423 Montgomery Hwy","36303",31.242063522338867,-85.41799926757812
"36303","Dothan","AL","Winn-Dixie","3850 W Main St","36305",31.23485610288749,-85.45037849925885
"36303","Dothan","AL","piggly wiggly","north oates","not_available",31.239162,-85.397986
"36303","Dothan","AL","Health Concepts","1901 Wise Dr","36303",31.254111,-85.395975
"36303","Dothan","AL","Jan's Health Foods","Shops On the Circle","36303",31.24655509078287,-85.4254491298279
"36310","Abbeville","AL","Food Giant","not_available","36310",31.572167449763157,-85.25040339444095
"36312","Ashford","AL","Food Depot","Old Hwy 84","36312",31.1827039,-85.2384444
"36312","Ashford","AL","Fresh Food Outlet","6340 E US Highway 84","36321",31.19073486328125,-85.2987060546875
"36319","Columbia","AL","Piggly Wiggly","119 E Church St","36319",31.293228,-85.110125
"36322","Daleville","AL","Fort Rucker Commissary","8900 Division Rd","not_available",31.343472398354034,-85.71036885619972
"36322","Daleville","AL","Seoul Oriental Food Store","4954 Rucker Blvd","36330",31.339109420776367,-85.76133728027344
"36322","Daleville","AL","KYC Enterprises","3781 Rucker Blvd","36330",31.338853,-85.782444
"36322","Daleville","AL","Pic-N-Save","not_available","36322",31.306998242536103,-85.7170365327885
"36322","Daleville","AL","Fort Rucker Commissary","Bldg 9213 Hutton Plaza Rd.","36362",31.337789859777097,-85.71329820945473
"36330","Enterprise","AL","Walmart Supercenter","600 Boll Weevil Cir","36330",31.316043148269497,-85.82732820550893
"36330","Enterprise","AL","Publix","847 Boll Weevil Cir Ste 112","36330",31.32620688222626,-85.83798332616566
"36330","Enterprise","AL","Piggly Wiggly","1020 Geneva Hwy","36330",31.300991,-85.857418
"36330","Enterprise","AL","Piggly Wiggly","Boll Weevil Circle","36330",31.321846,-85.832564
"36330","Enterprise","AL","Grocery Outlet","505 N Main St","36330",31.318368,-85.857838
"36330","Enterprise","AL","Food World","1032 Boll Weevil Cir","36330",31.336071267933534,-85.8509989909186
"36330","Enterprise","AL","Winn-Dixie","705 Boll Weevil Cir","36330",31.324189303369113,-85.83327854114637
"36340","Geneva","AL","Walmart","1608 W Magnolia Ave","36340",31.051226133491404,-85.8995796021774
"36340","Geneva","AL","Magnolia Market","507 E Magnolia Ave","36340",31.033296142816422,-85.86935966406759
"36340","Geneva","AL","Piggly Wiggly","Geneva, AL","36340",31.046949839950408,-85.87946759532088
"36340","Geneva","AL","C&M Grocery","College ave","not_available",31.046153507883044,-85.87748035569015
"36344","Hartford","AL","Piggly Wiggly","304 W Main St","36344",31.100406630442407,-85.70076581500405
"36344","Hartford","AL","Tate's Supermarket","not_available","36344",31.102090435165877,-85.69322902849412
"36344","Hartford","AL","Slocomb Marketplace","not_available","36375",31.1078492828428,-85.59869578822037
"36345","Headland","AL","Piggly Wiggly","302 E Main St, Headland, AL 36345","36345",31.35681915283203,-85.33548736572266
"36360","Ozark","AL","Walmart Supercenter","1537 S Us Highway 231","36360",31.444879930903994,-85.6512717663226
"36360","Ozark","AL","Super Sav Grocery","288 N Union Ave","36360",31.46170997619629,-85.64076232910156
"36360","Ozark","AL","Save A Lot","not_available","36360",31.441952338677027,-85.65156276260494
"36373","Shorterville","AL","Robo's","not_available","39851",31.612639,-85.049566
"36401","Evergreen","AL","Evergreen PIGGLY WIGGLY","90 Liberty Hill Pl","36401",31.4564722,-86.96246470000001
"36420","Andalusia","AL","Walmart Supercenter","1991 M.L.K. Jr Expy","36420",31.3212430691521,-86.44534528004178
"36420","Andalusia","AL","Piggly Wiggly","1130 M L King Jr Expy","36421",31.318439483642578,-86.46382141113281
"36420","Andalusia","AL","Cost Plus","three notch","36420",31.308571011854752,-86.47831968291241
"36420","Andalusia","AL","Winn-Dixie","1130 Dr M L K Expy","36420",31.317916848506183,-86.46263443448294
"36426","Brewton","AL","Pic-N-Sav","440 Douglas Ave","36426",31.111519652001014,-87.06851720809937
"36426","Brewton","AL","Walmart Supercenter","2578 Douglas Ave","36426",31.148354389234843,-87.06401955276183
"36426","Brewton","AL","Piggly Wiggly","201 Forrest Ave","36426",31.099053,-87.065295
"36426","Brewton","AL","Super Foods","not_available","36426",31.09926522447349,-87.06667184829712
"36426","Brewton","AL","Piggly Wiggly","2135 Douglas Ave","36426",31.141788482666016,-87.06900787353516
"36435","Coy","AL","Ad's Country Store","8347 Highway 41 S","36726",31.8640503,-87.3797594
"36441","Flomaton","AL","Food Giant","9511 N Century Blvd","32535",30.996495,-87.260743
"36442","Florala","AL","Piggly Wiggly","not_available","36442",31.00314760620097,-86.32480231890978
"36451","Grove Hill","AL","Walmart Supercenter","4206 N College Ave","36545",31.559146044807804,-87.87550008086555
"36451","Grove Hill","AL","Pic N Sav","not_available","36545",31.53602201490938,-87.88949399520328
"36451","Grove Hill","AL","Walmart Neighborhood Market","1100 S Main St","34287",31.64899755372436,-87.7054238319397
"36451","Grove Hill","AL","Grove Hill Market","124-156 N Jackson St","36451",31.709290316269083,-87.77537003588535
"36453","Kinston","AL","Howell's Supermarket","not_available","36477",31.121999740600586,-86.06816864013672
"36453","Kinston","AL","Wiggins Pecan Co","208 Highway 52","36467",31.269656717777252,-86.24219499528408
"36453","Kinston","AL","IGA","331 South","36467",31.27189666131501,-86.24791845315218
"36460","Monroeville","AL","Piggly Wiggly","1028 S Alabama Ave","not_available",31.512319564819336,-87.32067108154297
"36460","Monroeville","AL","Harvest Pantry","34808 Hwy. 41, 41","36475",31.4256,-87.172
"36460","Monroeville","AL","Darby's Red and White","not_available","36460",31.5003134,-87.3298456
"36460","Monroeville","AL","Walmart Supercenter","3371 S Alabama Ave","36460",31.480939122365847,-87.32896934066476
"36460","Monroeville","AL","Winn-Dixie","1834 S Alabama Ave","36460",31.500019422153265,-87.32004104213664
"36502","Atmore","AL","Walmart Supercenter","911 N Main Street","36502",31.037931442260742,-87.49513244628906
"36502","Atmore","AL","Food World","161 Lindberg Ave","36502",31.00604820251465,-87.48790740966797
"36502","Atmore","AL","Winn-Dixie","600 E Church St","36502",31.02155876159668,-87.4868392944336
"36507","Bay Minette","AL","Walmart Supercenter","701 Mcmeans Ave","36507",30.885455838009552,-87.78960272483715
"36507","Bay Minette","AL","Piggly Wiggly","615 Dolive St #6","36507",30.879108428955078,-87.78101348876953
"36507","Bay Minette","AL","Walmart Grocery Pickup","701 McMeans Ave","36507",30.885622024536133,-87.78987884521484
"36507","Bay Minette","AL","Winn-Dixie","710 McMeans Ave","36507",30.886030197143555,-87.78694152832031
"36509","Bayou La Batre","AL","Greer's Food Tiger","13298 N Wintzell Ave","36509",30.414390563964844,-88.24612426757812
"36509","Bayou La Batre","AL","Chang Huey","13875 S Wintzell Ave","36509",30.402315161185253,-88.24808299541473
"36521","Chunchula","AL","Piggly Wiggly","10760 Lott Rd","36521",30.91504,-88.277983
"36524","Coffeeville","AL","Greer's Food Tiger","not_available","36524",31.76492698762905,-88.08730202975104
"36526","Daphne","AL","Walmart Supercenter","27520 Us Highway 98","36526",30.625042957350843,-87.90460467338562
"36526","Daphne","AL","Publix","27955 US Highway 98 Ste 1","36526",30.631271316115768,-87.9125478275306
"36526","Daphne","AL","Publix","22530 US Highway 98 Ste 100","36532",30.555725403984425,-87.89123653693366
"36526","Daphne","AL","The Fresh Market","6900 US Highway 90, Ste 2","36526",30.65430582662631,-87.90404415187808
"36526","Daphne","AL","Rouses Market","3075 US-98","36526",30.619587,-87.90736
"36526","Daphne","AL","Piggly Wiggly","6530 Spanish Fort Blvd E","36527",30.667369,-87.909835
"36526","Daphne","AL","Winn-Dixie","3075 US Highway 98","36526",30.619487426921896,-87.90720610535362
"36527","Daphne","AL","Rouses Market","6729 Spanish Fort Blvd","36527",30.671729026853164,-87.9056453704834
"36527","Daphne","AL","Publix","10179 Eastern Shore Dr","36527",30.673795435251943,-87.84799542784059
"36530","Elberta","AL","Elberta Grocery","25250 State Ave.","36530",30.41428967505993,-87.59501703622453
"36532","Fairhope","AL","Walmart Supercenter","10040 County Road 48","36532",30.52223214360154,-87.84897565841675
"36532","Fairhope","AL","Greer's Fairhope Market","75 S Section St","36532",30.52122318160655,-87.90274697716984
"36532","Fairhope","AL","Piggly Wiggly","903 Fairhope Ave.","36532",30.524487205551633,-87.8842306137085
"36532","Fairhope","AL","Winn-Dixie","187 Baldwin Square","36532",30.52107374640521,-87.8847654915215
"36532","Fairhope","AL","Fairhope Health Foods","280 Eastern Shore Shopping Ctr","36532",30.522327423095703,-87.88484954833984
"36535","Foley","AL","Publix","2614 S McKenzie St","36535",30.377484735253528,-87.685489654541
"36535","Foley","AL","Publix","160 Cotton Creek Dr Ste 100","36542",30.29861757616795,-87.68186391361324
"36535","Foley","AL","Target","3820 Gulf Shores Pkwy","36542",30.303526941181126,-87.68047426075343
"36535","Foley","AL","Walmart Supercenter","2200 S Mckenzie St","36535",30.382394978666646,-87.68595104356845
"36535","Foley","AL","Winn-Dixie","1235 S McKenzie St","36535",30.39339610690934,-87.68203798545188
"36535","Foley","AL","Piggly Wiggly","1200 S McKenzie St","36535",30.392826721011467,-87.68446586060291
"36535","Foley","AL","Gourmet World Market","not_available","36542",30.301497,-87.68136
"36535","Foley","AL","Walmart Grocery Pickup and Delivery","2200 S McKenzie St","36535",30.3828728416801,-87.6833737971551
"36535","Foley","AL","Big Lots","3161 S McKenzie St","36535",30.36781241831797,-87.68012895362921
"36535","Foley","AL","Papa Vince Extra Virgin Olive Oil Single Source Family Owned Company","3757 Gulf Shores Pkwy Suite BB","36542",30.299246268014603,-87.68439251359598
"36541","Grand Bay","AL","Greer's CashSaver","10120 Grand Bay Wilmer Rd S","36541",30.480041753559934,-88.34027051925659
"36541","Grand Bay","AL","Grand Bay Grocery","12930 US Highway 90","36541",30.476028831230927,-88.3486819267273
"36542","Gulf Shores","AL","Walmart Neighborhood Market","25241 Perdido Beach Blvd Ste W","36561",30.26893942719978,-87.59411565687189
"36542","Gulf Shores","AL","Publix","25771 Perdido Beach Blvd","36561",30.271515532659492,-87.58797901432791
"36542","Gulf Shores","AL","Walmart Supercenter","170 E Fort Morgan Rd","36542",30.267183169222854,-87.68618542479169
"36542","Gulf Shores","AL","Rouses Market","1545 Gulf Shores Pkwy","36542",30.266096042506085,-87.69031763076782
"36542","Gulf Shores","AL","Pier 33","900 W Beach Blvd","36542",30.246167,-87.703856
"36542","Gulf Shores","AL","Waves Grocery & Package Store","1154 W Beach Blvd","36542",30.244863,-87.716367
"36542","Gulf Shores","AL","The Pines Grocery And Hardware","8818 Alabama 180","36542",30.23743990162447,-87.87220278634345
"36544","Irvington","AL","Palmers II Grocery Store","8989 Hwy 90 West","36568",30.513218129322517,-88.22546161278704
"36544","Irvington","AL","Minute Mart","9030 Bayou La Batre-Irvington Hwy.","36544",30.503110885620117,-88.23515319824219
"36545","Jackson","AL","Moms And Pops Grocery","802 Forest Ave","36545",31.519079,-87.891283
"36545","Jackson","AL","Harris Grocery","hwy 43","36585",31.422730613442802,-88.02645206451416
"36549","Lillian","AL","CASH SAVER Cost Plus Food Outlet","12255 Lillian Hwy.","32506",30.397196529128383,-87.39923474191089
"36551","Loxley","AL","Piggly Wiggly","1087 N Hickory St","36551",30.620522,-87.75377
"36551","Loxley","AL","251 Vapes","2135 N Hickory St","36551",30.6251532,-87.7535048
"36560","Mount Vernon","AL","Piggly Wiggly","19180 US-43","36560",31.091188,-88.014539
"36560","Mount Vernon","AL","Food For Less","Hwy. 43 N","36560",31.092390468337577,-88.01496540407817
"36567","Robertsdale","AL","Walmart Supercenter","21141 State Hwy 59","36567",30.531980602678882,-87.71093926921154
"36567","Robertsdale","AL","Greer's Cash Saver","21951-D Alabama 59","36567",30.54444776667923,-87.70960807800293
"36571","Saraland","AL","Walmart Supercenter","1095 Industrial Pkwy","36571",30.799651529334458,-88.09717238032637
"36571","Saraland","AL","Rouses Market","112 Saraland Loop","36571",30.825319216342773,-88.07466239431213
"36571","Saraland","AL","Saraland Produce","not_available","36571",30.81350326538086,-88.08888244628906
"36571","Saraland","AL","Piggly Wiggly","719 Saraland Blvd S","36571",30.806007385253906,-88.07379150390625
"36571","Saraland","AL","Publix Super Market At Saraland Crossing","21 Shell Rd","36571",30.80474,-88.110409
"36575","Semmes","AL","Walmart Supercenter","7855 Moffett Rd","36575",30.76186210826372,-88.22947382926941
"36575","Semmes","AL","Winn-Dixie","9082 Moffett Rd","36575",30.77962515636419,-88.25704146900785
"36575","Semmes","AL","Greer's Cash Saver","6350 McCrary Road Ext","36575",30.821409534088403,-88.25860261917114
"36582","Theodore","AL","Rouses Market","7361 Theodore Dawes Rd","36582",30.56201151458377,-88.21494698524475
"36582","Theodore","AL","Walmart Grocery Pickup and Delivery","5245 Rangeline Service Rd S","36619",30.593548056384073,-88.16289452732417
"36582","Theodore","AL","Walmart Neighborhood Market","7320 Theodore Dawes Rd","36582",30.563676485835543,-88.21319282054901
"36582","Theodore","AL","Greers Old Bay Market","10835 Dauphin Island Pkwy","36582",30.46546869240104,-88.11408519744873
"36582","Theodore","AL","Winn-Dixie","5827 Highway 90 Ste D","36582",30.553900541243223,-88.17048169671489
"36582","Theodore","AL","Sears Essentials","5451 Halls Mill Rd","36619",30.589866638183594,-88.16732788085938
"36582","Theodore","AL","Winn-Dixie","5440 Highway 90 W","36619",30.586920978516744,-88.17153893928213
"36582","Theodore","AL","Fluid Vape Shop","9097 Bellingrath Road","36582",30.502214431762695,-88.1693115234375
"36587","Wilmer","AL","Walmart Supercenter","2500 Dawes Rd","36695",30.63892744888569,-88.24635028839111
"36587","Wilmer","AL","Winn-Dixie","9948 Airport Blvd","36608",30.671987678475233,-88.2774224246642
"36587","Wilmer","AL","Snuffy Smith's","14860 Moffett Rd","36587",30.846589266918397,-88.39582594111562
"36602","Mobile","AL","Save-A-Lot","851 Government St","36602",30.685846999999995,-88.05288
"36603","Mobile","AL","Winn-Dixie","1550 Government St","36604",30.68041600808161,-88.07486747566217
"36603","Mobile","AL","Greers Food Tiger","670 S Broad St","36603",30.67377281188965,-88.05545043945312
"36603","Mobile","AL","Manning's Food For Less","563 S Broad St","36603",30.675488,-88.054027
"36605","Mobile","AL","Piggly Wiggly","1360 Navco Rd","36605",30.646331,-88.102605
"36605","Mobile","AL","Food World","2962 Dauphin Island Pkwy","36605",30.610761642456055,-88.0752944946289
"36605","Mobile","AL","B & H Grocery","2204 Halls Mill Rd","36606",30.662546157836914,-88.09467315673828
"36605","Mobile","AL","Food for Less","2601 Dauphin Island Pkwy","36605",30.61940574645996,-88.07463836669922
"36605","Mobile","AL","Walmart Grocery Pickup","2570 Government Blvd","36606",30.66919,-88.10326
"36605","Mobile","AL","Cash Saver","2501 Government Blvd","36606",30.671335220336914,-88.09856414794922
"36605","Mobile","AL","Cash n Carry","Halls Mill Rd.","36606",30.658794324122265,-88.09925601351377
"36605","Mobile","AL","Piggly Wiggly","2655 Dauphin Island Pkwy","36605",30.619695,-88.074709
"36605","Mobile","AL","Food World","not_available","36606",30.671595,-88.09827625751495
"36606","Mobile","AL","Publix","100 N Florida St","36607",30.692280853777746,-88.0990657137093
"36606","Mobile","AL","Walmart Supercenter","101 E I65 Service Rd S","36606",30.684178845930035,-88.12517526508272
"36606","Mobile","AL","Monarch Direct store","Beltline service rd","36693",30.659119137906398,-88.12590945003001
"36607","Mobile","AL","Old Shell Market","3251 Old Shell Rd","36607",30.69827877567013,-88.121987908331
"36607","Mobile","AL","Manning's Food For Less","2260 Saint Stephens Rd","36617",30.7161922454834,-88.0821533203125
"36607","Mobile","AL","Cash Saver","2980 Spring Hill Ave","36607",30.700529098510742,-88.11111450195312
"36608","Mobile","AL","Walmart Supercenter","685 Schillinger Rd S","36695",30.678151442650506,-88.2225751876831
"36608","Mobile","AL","Walmart Neighborhood Market","6575 Airport Blvd","36608",30.67809607882186,-88.19486260414124
"36608","Mobile","AL","Walmart Neighborhood Market","1970 S University Blvd","36609",30.64957949099433,-88.1623113155365
"36608","Mobile","AL","Publix Super Market at Sunset Point","4628 Airport Blvd","36608",30.676748882542977,-88.16776156425476
"36608","Mobile","AL","Rouses Market","4350 Old Shell Rd","36608",30.699242751551566,-88.1434714794159
"36608","Mobile","AL","Whole Foods Market","3968 Airport Blvd","36608",30.677108751881487,-88.15098166465759
"36608","Mobile","AL","Walmart Neighborhood Market","1300 North University","36618",30.717371928856405,-88.16356969228386
"36608","Mobile","AL","Publix Super Market at Hillwood Shopping Center","2370 Hillcrest Rd","36695",30.64177056970373,-88.19239497184753
"36608","Mobile","AL","Rouses Market","7765 Airport Blvd","36608",30.681209410951883,-88.22385542460631
"36608","Mobile","AL","Walmart Neighborhood Market","6350 Cottage Hill Rd","36609",30.641567492416723,-88.18928360939026
"36608","Mobile","AL","The Fresh Market","3940 Airport Blvd, Ste A","36608",30.676959338789167,-88.14721736117315
"36608","Mobile","AL","My Hoa Oriental Food Market","454 Azalea Rd","36609",30.662267804145813,-88.15123915672302
"36608","Mobile","AL","Piggly Wiggly","4720 Moffett Rd","36618",30.720975234543438,-88.14950262675761
"36608","Mobile","AL","Food Pak International Foods","5150 Old Shell Rd","36608",30.69152087788261,-88.16083610057831
"36608","Mobile","AL","Winn-Dixie","740 Schillinger Rd N","36608",30.705984510988344,-88.22431612295874
"36608","Mobile","AL","Winn-Dixie","6300 Grelot Rd","36609",30.662555085758243,-88.18884071051411
"36608","Mobile","AL","Cash Tyme","4055 Cottage Hill Rd","36609",30.651630401611328,-88.14710235595703
"36608","Mobile","AL","Asian Grocery Indian Grocery","6715 Old Shell Rd Suite A","36608",30.690115999999996,-88.19763
"36610","Mobile","AL","All American Market","not_available","36610",30.735324951162916,-88.10339060715563
"36610","Mobile","AL","Greers CashSaver","1010 N Wilson Ave","36610",30.744207500955724,-88.07859688997269
"36610","Mobile","AL","Piggly Wiggly","2306 St. Stephens Rd","36617",30.719195,-88.08258
"36612","Mobile","AL","Food For Less","3445 Saint Stephens Rd","36612",30.75184534484942,-88.11767571609005
"36612","Mobile","AL","Cash Saver","4731 Saint Stephens Rd","36613",30.766510009765625,-88.1315689086914
"36612","Mobile","AL","Greer's Food Tiger","4371 St. Stephens Rd.","36613",30.766382862264646,-88.13156229111084
"36618","Mobile","AL","Winn-Dixie","5651 C Moffat Road","36618",30.729215795638325,-88.17372587305795
"36701","Selma","AL","Winn-Dixie","1352 E Highland Ave","36703",32.43034744262695,-87.01544952392578
"36701","Selma","AL","Walmart Supercenter","1501 Al Highway 14 E","36703",32.43321055,-87.01283172
"36701","Selma","AL","Save-A-Lot","1320 E Highland Ave","36703",32.43030548095703,-87.01786041259766
"36701","Selma","AL","Valley Grande Market","not_available","36703",32.482474,-87.00124
"36701","Selma","AL","Winn-Dixie","1952 W Dallas Ave","36701",32.398070408310474,-87.06560060955243
"36701","Selma","AL","Valley Grande Grocery","not_available","36701",32.50263025,-86.99112471666666
"36726","Camden","AL","McDonald's Grocery & Sports Store","1535 Highway 221","36726",31.989272,-87.336467
"36726","Camden","AL","Bone's Grocery","2233 Camden Byp","36726",32.001343,-87.314407
"36732","Demopolis","AL","Papa's","not_available","36748",32.30332946777344,-87.79887390136719
"36732","Demopolis","AL","Vowell's Fresh Market","Hwy 80","not_available",32.50476020214957,-87.83114628547519
"36732","Demopolis","AL","Demopolis Marketplace","not_available","36732",32.50102717738743,-87.81417633016574
"36744","Greensboro","AL","Piggly Wiggly","not_available","36744",32.70045197416625,-87.58075097557027
"36783","Thomaston","AL","Dave's Market","343 5th Av","36783",32.270708,-87.626097
"36784","Thomasville","AL","Walmart Supercenter","34301 Highway 43","36784",31.93949257,-87.73876141
"36801","Opelika","AL","Kroger","2450 Enterprise Dr","36801",32.620818445898266,-85.41154925871723
"36801","Opelika","AL","Kroger","300 N Dean Rd","36830",32.610609065410344,-85.46304614874316
"36801","Opelika","AL","Walmart Supercenter","2900 Pepperell Pkwy","36801",32.63733775187147,-85.42171559762315
"36801","Opelika","AL","Publix","2900 E University Dr","36830",32.63793390716452,-85.48028383603807
"36801","Opelika","AL","Walmart Neighborhood Market","2047 E University Dr","36830",32.62450831311744,-85.44974644295273
"36801","Opelika","AL","Winn-Dixie","1441 Fox Run Pkwy","36801",32.66502317052996,-85.36396563326838
"36801","Opelika","AL","Aldi","not_available","36801",32.620205,-85.408055
"36801","Opelika","AL","Publix","not_available","36830",32.62878834232227,-85.46533801410875
"36801","Opelika","AL","Asian Market","Opelika road","36801",32.65045505706297,-85.3529545824229
"36801","Opelika","AL","Dayspring Nature Shoppe","223 Opelika Rd","36830",32.61246371816672,-85.47900527244752
"36801","Opelika","AL","Walmart Grocery Pickup","1810 Shug Jordan Parkway","36832",32.63043975830078,-85.49601745605469
"36801","Opelika","AL","Earth Fare","1550 Opelika Rd Ste 14","36830",32.623543962565,-85.44717464346093
"36801","Opelika","AL","Asian Supermarket","Operlika Road","36801",32.63446067376615,-85.43495341547145
"36801","Opelika","AL","Mr. P's Mini Mart","341 N College St","36830",32.61147689819336,-85.48228454589844
"36801","Opelika","AL","Wrights","501-521 Pleasant Dr","36801",32.64385747364219,-85.39742372795585
"36801","Opelika","AL","Kroger Grocery Pickup and Delivery","2460 Enterprise Dr","36801",32.62102127075195,-85.40978240966797
"36804","Opelika","AL","Walmart Supercenter","1717 S College St","36832",32.57112003140042,-85.49675779432091
"36804","Opelika","AL","Winn-Dixie","1617 S College St","36832",32.57651572405305,-85.49693928413015
"36804","Opelika","AL","Publix","2415 Moores Mill Rd","36830",32.585325659994574,-85.43677981892058
"36830","Auburn","AL","Walmart Neighborhood Market","1810 Shug Jordan Parkway","36830",32.64866166652252,-85.52330197239672
"36850","Camp Hill","AL","Sims Foods Inc.","21240 Highway 280","36853",32.81465148925781,-85.71531677246094
"36850","Camp Hill","AL","Corner Store","15989 Burgess Rd","97739",32.94515188909241,-85.65431714057922
"36852","Cusseta","AL","Annas way","not_available","36804",32.72410038235954,-85.24219929437267
"36854","Valley","AL","Kroger","1401 S Gilmer Ave","36863",32.8558013,-85.1912308
"36854","Valley","AL","Walmart Supercenter","3501 20th Ave","36854",32.83563092,-85.17881517
"36854","Valley","AL","Givorns","not_available","36854",32.786155,-85.193217
"36856","Fort Mitchell","AL","Rainbow Foods","802 Highway 165","36856",32.31216812133789,-85.0132827758789
"36863","Lanett","AL","Piggly Wiggly","Cherry Valley Shopping Center, 632 Cherry Valley Shopping Ctr, Lanett, AL 36863-6424","36863-6424",32.872352600097656,-85.19709777832031
"36866","Notasulga","AL","Super Foods","not_available","36866",32.566991,-85.773234
"36867","Phenix City","AL","Walmart Supercenter","3700 Hwy 280/431 N.","36867",32.50046686,-85.04321976
"36867","Phenix City","AL","Publix","5408 Summerville Rd Ste 200","36867",32.52098942951562,-85.02830138631043
"36867","Phenix City","AL","Piggly Wiggly","1837 Stadium Dr","36867",32.49648185768872,-85.01737604660029
"36867","Phenix City","AL","Piggly wiggly","not_available","36867",32.47133085069304,-85.00001214845334
"36867","Phenix City","AL","Fresh Vitamins","5408 Summerville Rd","36867",32.521270751953125,-85.0281982421875
"36867","Phenix City","AL","ALDI","3670 Marketplace Dr","36867",32.496768,-85.043993
"36867","Phenix City","AL","Don's Fine Foods","4th Ave.","36867",32.48326452,-85.00117592
"36867","Phenix City","AL","Piggly Wiggly","1130 280 Byp","36867",32.46864108144958,-85.02675722454885
"36869","Phenix City","AL","Piggly Wiggly","1359 13th St","31901",32.47147102386482,-84.9720385335469
"36869","Phenix City","AL","rainbow foods crawford","not_available","36870",32.45730675099397,-85.18784342436673
"36869","Phenix City","AL","Walmart Neighborhood Market","3864 Us Highway 80 W","36870",32.46989822387695,-85.08412170410156
"36869","Phenix City","AL","Winn-Dixie","3952 US Highway 80 W","36870",32.47117059097735,-85.09845181281041
"36869","Phenix City","AL","Marvin’s Market","318 General Colin Powell Pkwy","36869",32.451865,-85.002709
"36869","Phenix City","AL","Walmart Neighborhood Market","1401 West Georgia Rd.","29680",32.46987095509984,-85.08786678314209
"36869","Phenix City","AL","Rainbow Foods","not_available","36869",32.43829677749098,-85.02361972084522
"36870","Phenix City","AL","Terry's Grocery","9209 Lee Road 246","36877",32.509432689076384,-85.07396482014005
"36874","Salem","AL","Rainbow Foods","1454-1532 County Road 298","36877",32.53973213165256,-85.09879754683286
"36904","Butler","AL","Piggly Wiggly","30 W Pushmataha St","not_available",32.08938135842441,-88.22395399728651
"36908","Gilbertown","AL","Piggly Wiggly","116 Melvin Rd","36908",31.88016,-88.32397200000003
"36908","Gilbertown","AL","Piggly Wiggly","not_available","36908",31.880061103882788,-88.32188811915975
