"zip","city","state","name","address","postalCode","lat","lon"
"48001","Algonac","MI","Kroger","2600 Pointe Tremble Rd","48001",42.6177891,-82.548473
"48003","Almont","MI","Vinckier Foods","4545 Van Dyke Rd","48003",42.93363758454523,-83.0527206122679
"48009","Birmingham","MI","Whole Foods Market","2100 East Maple Road","48009",42.54670747414321,-83.19404288110773
"48009","Birmingham","MI","Kroger","1237 Coolidge Hwy","48084",42.5423331,-83.1896229
"48009","Birmingham","MI","Kroger","685 E Maple Rd","48009",42.547247,-83.2105001
"48009","Birmingham","MI","Market Square","1964 Southfield Rd","48009",42.53172038709626,-83.22416151196916
"48009","Birmingham","MI","Papa Joe's Birmingham","34244 Woodward Ave","48009",42.54114080617938,-83.20744562013824
"48009","Birmingham","MI","Grape Vine Market & Liquor","100 W 14 Mile Rd","48009",42.53189468383789,-83.21449279785156
"48009","Birmingham","MI","Eaton Market","not_available","48009",42.55773766245159,-83.19187942198653
"48009","Birmingham","MI","Holiday Select","1740 W Maple Rd","48009",42.546381,-83.23630899999999
"48009","Birmingham","MI","Vegano Foods LLC","33717 Woodward Ave Ste 210","48009",42.5371339,-83.2054002
"48015","Center Line","MI","Shopper's Market","25290 Van Dyke","48015",42.479932061541376,-83.02781117746156
"48015","Center Line","MI","Party Store","not_available","not_available",42.48030902731955,-83.02936399672016
"48017","Clawson","MI","ALDI","1035 W 14 Mile Rd","48017",42.531986477930054,-83.16124141216278
"48017","Clawson","MI","Noble Fish","45 E 14 Mile Rd","48017",42.5337108870465,-83.14516050133189
"48017","Clawson","MI","Off The Wagon","1500 N Crooks Rd","48017",42.54662412935078,-83.16616124433372
"48021","Eastpointe","MI","ALDI","18867 E 9 Mile Rd","48021",42.4663559,-82.9238916
"48021","Eastpointe","MI","Fresh Choice Market Place","18801 E 9 Mile Rd","48021",42.465776296403604,-82.92561872957863
"48025","Franklin","MI","Market Fresh","31201 Southfield Rd","48025",42.51799170689609,-83.22405881963503
"48025","Franklin","MI","Oriental Market","not_available","48076",42.508710621432726,-83.22022131053912
"48025","Franklin","MI","Fruitasia","30600 Southfield Rd","48076",42.515764000000004,-83.222319
"48026","Fraser","MI","Meijer","34835 Utica Rd","48026",42.5512782,-82.9622109
"48026","Fraser","MI","Oak Ridge Markets","31240 Groesbeck Hwy","48026",42.52565452163817,-82.94385535843055
"48026","Fraser","MI","Oakridge Market","not_available","48026",42.525970458984375,-82.94374084472656
"48026","Fraser","MI","Value Land","not_available","48088",42.536067848699716,-82.96953819453928
"48026","Fraser","MI","Roselli Wholesale Foods Inc.","33069 Groesbeck Hwy","48026",42.53967167166022,-82.93541059122309
"48030","Hazel Park","MI","Kroger","23101 John R Rd","48030",42.4626822,-83.1055323
"48030","Hazel Park","MI","Save-A-Lot","1839 E 8 Mile Rd","48030",42.44770812988281,-83.08563232421875
"48030","Hazel Park","MI","Hazel Park Food Center","24625 John R Rd","48030",42.475587197627924,-83.10247110940331
"48030","Hazel Park","MI","Player's Market","21305 Dequindre Rd","48030",42.452049,-83.08396
"48033","Southfield","MI","Plum Hollow Market","21999 W 9 Mile Rd","48075",42.4575894956017,-83.25947731733322
"48033","Southfield","MI","Gordon Food Service Store","24475 Telegraph Rd","48033",42.468771527778024,-83.2806805188658
"48033","Southfield","MI","한미","not_available","48034",42.457204437935445,-83.29806545052332
"48033","Southfield","MI","Save A Lot","telegraph","48034",42.47788540130109,-83.27895521772692
"48033","Southfield","MI","Han Mi Market","25840 W 9 Mile Rd","48033",42.45750045776367,-83.29917907714844
"48033","Southfield","MI","Darou Salam International African Market","21327 Telegraph Rd","48033",42.447773983333335,-83.27877551666667
"48034","Southfield","MI","Meijer","28800 Telegraph Rd","48034",42.50023974801169,-83.28231365994725
"48034","Southfield","MI","Chaldean Bakery","26317 W 12 Mile Rd","48034",42.50035095214844,-83.30545806884766
"48034","Southfield","MI","Open Market","27777 Franklin Rd Ste 1545","48034",42.49020336983968,-83.29933996106298
"48035","Clinton Township","MI","Randazzo Fresh Market","36800 Garfield Rd","48035",42.56707356749505,-82.95047141341121
"48035","Clinton Township","MI","ALDI","33650 S Gratiot Ave","48035",42.54365886001927,-82.90458486246905
"48035","Clinton Township","MI","Save-A-Lot","19100 E 15 Mile","48035",42.553468431932174,-82.92647109087783
"48035","Clinton Township","MI","Save A Lot","19100 15 Mile Rd","48035",42.553113,-82.926622
"48036","Clinton Township","MI","Walmart Supercenter","18400 Hall Rd","48038",42.62635249009149,-82.93770222886427
"48036","Clinton Township","MI","Meijer","40445 S Groesbeck Hwy","48036",42.5965936,-82.9026777
"48036","Clinton Township","MI","Kroger","41941 Garfield Rd","48038",42.6048303,-82.9548589
"48036","Clinton Township","MI","Nino Salvaggio International Marketplace","17496 Hall Rd","48038",42.627095678459334,-82.9430559317205
"48036","Clinton Township","MI","Vince & Joe's Gourmet Market","41790 Garfield Rd","48038",42.60417044571875,-82.95186783497603
"48036","Clinton Township","MI","ALDI","39827 S Groesbeck Hwy","48036",42.59202805719301,-82.90140040599454
"48036","Clinton Township","MI","Meijer Pharmacy","40445 S Groesbeck Hwy.","48036",42.5969563,-82.9034235
"48036","Clinton Township","MI","Heflings Amish Market","38953 Harper Ave","48036",42.5848119289095,-82.86758144160922
"48038","Clinton Township","MI","ALDI","41500 Hayes Rd","48038",42.6011224149839,-82.97130882740021
"48039","Marine City","MI","VGs Food Center & Pharmacy","6764 River Rd # M-29","48039",42.69699939990943,-82.5092451799283
"48039","Marine City","MI","Food Depot","not_available","48039",42.71751118308085,-82.4997215623425
"48039","Marine City","MI","VG's Grocery","6764 South River","48039-2252",42.69514083862305,-82.50655364990234
"48040","Marysville","MI","Meijer","205 S Range Rd","48040",42.908964,-82.4976993
"48040","Marysville","MI","Wally's Supermarket","3200 Gratiot Blvd","48040",42.91250328764124,-82.49800119344413
"48040","Marysville","MI","Foodland - Corunna","420 Lyndoch St","N0N 1G0",42.887405,-82.452488
"48040","Marysville","MI","Rob's No Frills","175 Bunker Ave","N0N 1G0",42.876228,-82.454349
"48040","Marysville","MI","Hostess Outlet","not_available","48040",42.923473828043946,-82.46952445745276
"48042","Macomb","MI","Kroger","21555 21 Mile Rd","48044",42.6448805812394,-82.89855614307271
"48042","Macomb","MI","Meijer","15055 Hall Rd","48315",42.6301276,-82.9764668
"48042","Macomb","MI","Kroger","16450 26 Mile Rd","48042",42.7144789,-82.9628626
"48042","Macomb","MI","Kroger Grocery Pickup and Delivery","14945 23 Mile Rd","48315",42.6734784,-82.976849
"48042","Macomb","MI","ATKO USA","46733 Hayes Rd","48315",42.6392406,-82.9738004
"48042","Macomb","MI","ALDI","39827 Groesbeck","not_available",42.63185636378505,-82.86483264392052
"48045","Harrison Township","MI","Walmart Supercenter","45400 Marketplace Blvd","48051",42.63460142766286,-82.85262186735427
"48045","Harrison Township","MI","Kroger","26300 Crocker Blvd","48045",42.5700102,-82.8507426
"48045","Harrison Township","MI","SANGB Commissary","701 George St","48045-5011",42.61235901463096,-82.82180137715501
"48047","New Baltimore","MI","Meijer","27255 23 Mile Rd","48051",42.676222199903336,-82.83583174910314
"48047","New Baltimore","MI","Kroger","35000 23 Mile Rd","48047",42.6745552,-82.7580838
"48047","New Baltimore","MI","Danny's Fresh Meat & Produce Market","52250 Gratiot Ave","48051",42.6838744,-82.8249726
"48047","New Baltimore","MI","Gordon Food Service Store","51630 Gratiot Ave","48051",42.67907544198982,-82.8283953666687
"48047","New Baltimore","MI","GFS","not_available","48051",42.686452286553624,-82.74282416914349
"48048","New Haven","MI","Meijer","36865 26 Mile Rd","48048",42.722444911780514,-82.7412492036865
"48049","North Street","MI","Ruby General Store","4570 Brott Rd","48049",43.037238392173464,-82.60944346898576
"48050","New Haven","MI","Kroger","66900 Gratiot Ave","48062",42.7937869,-82.734969
"48050","New Haven","MI","Richmond Family Nutrition","67346 S Main St","48062",42.79935073852539,-82.7373275756836
"48059","Fort Gratiot","MI","Meijer","4775 24th Ave","48059",43.0464568,-82.4591364
"48059","Fort Gratiot","MI","Walmart Supercenter","4845 24th Ave","48059",43.049138117061425,-82.46007815558411
"48059","Fort Gratiot","MI","Kroger","2907 Krafft Rd","48060",43.024729,-82.454223
"48059","Fort Gratiot","MI","ALDI","4189 24th Ave","48059",43.03009421567289,-82.45909810066223
"48059","Fort Gratiot","MI","Country Style Market Place","3900 Pine Grove Ave","48059",43.02312861854438,-82.45724076346166
"48059","Fort Gratiot","MI","Lakeport Market","7000-7098 3rd St","48059",43.11389265274507,-82.49219544752401
"48059","Fort Gratiot","MI","Gordon Food Service Store","4605 24th Ave","48059",43.042281423933126,-82.4579117868313
"48059","Fort Gratiot","MI","Sandler's Party Store","4473 Gratiot Ave","48059",43.03923762441317,-82.44512371211798
"48060","Port Huron","MI","Kroger","1215 24th St","48060",42.970209144710594,-82.45339346559035
"48060","Port Huron","MI","Moe’s Corner Deli","902 Military Street","48060",42.974829,-82.424419
"48060","Port Huron","MI","River District Supermarket","3550 Electric Ave","48060",42.941782,-82.449724
"48060","Port Huron","MI","Wolverine's","713 Huron Ave","48060",42.981790999999994,-82.424823
"48060","Port Huron","MI","Natures Bounty","4600-4808 Ashley Rd","48074",42.95379643871962,-82.50638758891435
"48060","Port Huron","MI","Save-A-Lot","657 24th St","48060",42.97572708129883,-82.4555435180664
"48065","Romeo","MI","Sheena's Marketplace","70920 Van Dyke Rd","48065",42.816832149945206,-83.01886504665961
"48066","Roseville","MI","Meijer","30800 Little Mack Rd","48066",42.5235311,-82.9066226
"48066","Roseville","MI","Curbside Pick Up","not_available","48066",42.524312,-82.906081
"48066","Roseville","MI","Kroger","30851 Gratiot Ave","48066",42.5237219,-82.9226308
"48066","Roseville","MI","Kroger Marketplace","20891 E 13 Mile Rd","48066",42.5262571,-82.9051777
"48066","Roseville","MI","Walmart Supercenter","28804 Gratiot Ave","48066",42.508383428551035,-82.92601910751999
"48066","Roseville","MI","Save A Lot","26150 Gratiot Ave","48066",42.488002,-82.93879799999999
"48066","Roseville","MI","Valuland Grocery Store","31902 Gratiot Ave","48066",42.530808,-82.91148000000001
"48066","Roseville","MI","Kroger Grocery Pickup and Delivery","26130 Gratiot Ave","48066",42.48795386790849,-82.94049561023712
"48066","Roseville","MI","Save-A-Lot","26150 Gratiot","48066",42.488049560817,-82.93948703934083
"48066","Roseville","MI","Sam's Club","31720 Gratiot Ave","48066",42.529292,-82.913512
"48067","Royal Oak","MI","Kroger Marketplace","2200 E 12 Mile Rd","48067",42.5024646,-83.1191537
"48067","Royal Oak","MI","Holiday Market","1203 S Main St","48067",42.479022494327744,-83.14317675298129
"48067","Royal Oak","MI","Trader Joe's","27880 Woodward Ave","48067",42.49555948050615,-83.16398414016514
"48067","Royal Oak","MI","Hollywood Market","714 Main St","48067",42.4955793803137,-83.14433642123072
"48067","Royal Oak","MI","Westborn Flower Market","27659 Woodward Ave","48072",42.493835001752664,-83.16404668774754
"48067","Royal Oak","MI","Fresh Approach","805 S Campbell Rd","48067",42.48258526746808,-83.12375928147435
"48071","Madison Heights","MI","Bj’s Wholesale","29329 John R Rd","48071",42.50807189941406,-83.10684967041016
"48071","Madison Heights","MI","Meijer","1005 E 13 Mile Rd","48071",42.522531,-83.0971962
"48071","Madison Heights","MI","Hollywood Market","29200 Campbell Rd","48071",42.506488910472946,-83.12463284256488
"48071","Madison Heights","MI","Kim Nhung Super Food","30925 Dequindre Rd","48071",42.51956547202916,-83.08669873390598
"48071","Madison Heights","MI","Value Center Marketplace","1485 W 14 Mile Rd","48071",42.532727514415036,-83.12513108658786
"48071","Madison Heights","MI","Tienda Mexicana Inc","31642 John R Rd","48071",42.52661556816031,-83.10630994665912
"48071","Madison Heights","MI","Meijer","1005 E. Thirteen Mile Rd","48071",42.5218306,-83.0967505
"48071","Madison Heights","MI","Chinatown Market","27651 John R Rd","48071",42.49538040161133,-83.10601806640625
"48071","Madison Heights","MI","c.k gift shop","30212 John R Rd, Madison Heights, MI 48071","48071",42.514559000000006,-83.105806
"48071","Madison Heights","MI","Save-A-Lot","27117 John R Road","48071",42.49219721359469,-83.10560365364094
"48071","Madison Heights","MI","saigon market","30573 John R Rd","48071",42.516927,-83.106726
"48071","Madison Heights","MI","Fuji Market","31722 John R Rd","48071",42.52682880667803,-83.10592352846636
"48071","Madison Heights","MI","China Merchandise","31805-31999 John R Rd","48071",42.52681622050423,-83.10600181314514
"48073","Royal Oak","MI","Meijer","5150 Coolidge Hwy","48073",42.5391408,-83.1817798
"48073","Royal Oak","MI","Woodward Corner Market","30955 Woodward Ave #305","48073",42.516458,-83.188638
"48073","Royal Oak","MI","Gordon Food Service Store","4849 Crooks Rd","48073",42.533667328663974,-83.16667607042989
"48073","Royal Oak","MI","Alta's Greenfield Market","29255","not_available",42.505401,-83.203465
"48073","Royal Oak","MI","Oak Ridge Market","2560 Crooks Rd","48073",42.512192927760665,-83.16045870732273
"48075","Southfield","MI","Kroger","23675 Greenfield Rd","48075",42.46446401419214,-83.2031402142457
"48075","Southfield","MI","8 Mile Foodland","18880 W 8 Mile Rd","48075",42.44451018690284,-83.22784692534307
"48075","Southfield","MI","New York International Foods","15600 W 10 Mile Rd","48075",42.474276,-83.203138
"48075","Southfield","MI","One Stop Kosher Food Market","25155 Greenfield Rd","48075",42.474851789746545,-83.20247054891809
"48075","Southfield","MI","Russian food","W 10 Mile Road","not_available",42.47423690011753,-83.2024472702656
"48076","Southfield","MI","Kroger","19855 W 12 Mile Rd","48076",42.5004849,-83.2408237
"48076","Southfield","MI","Save-A-Lot","27155 Greenfield Rd","48076",42.490297999999996,-83.203592
"48079","Saint Clair","MI","Neiman's Family Market","1167 S Carney Dr","48079",42.8197448479469,-82.50383275869112
"48080","Saint Clair Shores","MI","Kroger","23191 Marter Rd","48080",42.4599859,-82.8836853
"48080","Saint Clair Shores","MI","Kroger","22332 E 9 Mile Rd","48080",42.4658139,-82.8958533
"48081","Saint Clair Shores","MI","Nino Salvaggio International Marketplace","27900 Harper Ave","48081",42.49745474455565,-82.89737971804023
"48081","Saint Clair Shores","MI","Guastello's Village Market","28510 Harper Ave","48081",42.50346007459039,-82.89760916689718
"48083","Troy","MI","Kroger","3125 John R Rd","48083",42.5653084,-83.110005
"48083","Troy","MI","Fresh Thyme Farmers Market","901 E Big Beaver Rd","48083",42.5638556,-83.1304457
"48083","Troy","MI","Gordon Food Service Store","2822 E Maple Rd","48083",42.54894030259593,-83.09164379184563
"48083","Troy","MI","ALDI","2967 E Big Beaver Rd","48083",42.5656704,-83.0899301
"48083","Troy","MI","Polish Market","2924 E Maple Rd","48083",42.54923623916378,-83.08947711619413
"48083","Troy","MI","Troy Oriental Market","3142 Rochester Rd","48083",42.564859000000006,-83.12749699999999
"48083","Troy","MI","Sun Market","34713 Dequindre Rd","48083",42.54790115356445,-83.0885238647461
"48083","Troy","MI","Paradise Fruit Market","not_available","48310",42.56507127050417,-83.09044559815725
"48083","Troy","MI","Balaji Foods Indian & Sri Lankan Grocery","61 E Maple Rd","48083",42.54863739013672,-83.14572143554688
"48083","Troy","MI","C&L Oriental Food Market","37164 Dequindre Rd","48310",42.564819,-83.087676
"48083","Troy","MI","Spicehub","140 W Maple Rd","48084",42.548954010009766,-83.14928436279297
"48083","Troy","MI","India Town LLC","34714 Dequindre Rd","48310",42.547601,-83.087239
"48083","Troy","MI","Aakash Grocers","3656 Rochester Rd","48083",42.57194900512695,-83.1279067993164
"48083","Troy","MI","Patel Brothers Grocery Store","37196 Dequindre Rd","48310",42.565489,-83.087837
"48084","Troy","MI","Walmart Supercenter","2001 W Maple Rd","48084",42.544522951615065,-83.17298380461577
"48084","Troy","MI","Subzi Mandi","1953 W Maple Rd","48084",42.54646731345701,-83.17219835632964
"48084","Troy","MI","Najib's Lobby Shop","755 W Big Beaver Rd","48084",42.560054779052734,-83.16107177734375
"48085","Troy","MI","Kroger","31 E Long Lake Rd","48085",42.593116384653186,-83.14821526408195
"48085","Troy","MI","Han Mi Mart","5060 Rochester Rd","48085",42.59348801,-83.128649
"48085","Troy","MI","Healthsmart of Troy","6044 Rochester Rd","48085",42.60780724904848,-83.12799197668647
"48085","Troy","MI","All India Foods","4939 Rochester Rd","48085",42.59128189086914,-83.129150390625
"48085","Troy","MI","Kai Sun Market","1059 E Long Lake Rd","48085",42.59304428100586,-83.12655639648438
"48085","Troy","MI","Oriental Mart - Jung Won","2912 E Long Lake Rd","48085",42.592331,-83.091934
"48088","Warren","MI","Kroger","31200 Schoenherr Rd","48088",42.5236628,-82.985898
"48088","Warren","MI","Randazzo Fresh Market","13441 E 13 Mile Rd","48088",42.52214685606432,-82.98932651991714
"48088","Warren","MI","Sam's club","Gratiot","48066",42.50002409632786,-82.98712266022623
"48088","Warren","MI","Kroger","13700 E 14 Mile Rd","48088",42.5235336,-82.9859391
"48088","Warren","MI","ValuLand Grocery Store","30780 Schoenherr Rd","48088",42.52072063294602,-82.98696618117417
"48089","Warren","MI","Meijer","25225 Schoenherr Rd","48089",42.4796665,-82.9868042
"48089","Warren","MI","Kroger","26233 Hoover Rd","48089",42.4868578,-83.007854
"48089","Warren","MI","Glory Supermarket","12230 E 8 Mile Rd","48205",42.4481999874115,-83.00128519535065
"48089","Warren","MI","Save-A-Lot","11825 E Eight Mile Rd","48089",42.44993,-83.00103306770325
"48089","Warren","MI","Shoppers Market","22800 Van Dyke Ave","48089",42.461974531572125,-83.02607640527303
"48089","Warren","MI","Save A Lot","11825 E 8 Mile Rd","48089",42.450076,-83.000863
"48089","Warren","MI","ALDI","15415 Gratiot Ave","48205",42.4487849,-82.9703752
"48089","Warren","MI","Shopper's Market","14350 E 9 Mile Rd","48089",42.463542206849446,-82.97541032570781
"48091","Warren","MI","Oak Ridge Market","26700 Ryan Rd","48091",42.489938555846386,-83.06618411689129
"48091","Warren","MI","Conant Grocery","4200 E 10 Mile Rd","48091",42.475956,-83.063666
"48091","Warren","MI","Value Fresh Market","22700 Ryan Rd","48091",42.46053894559781,-83.06273378109363
"48091","Warren","MI","Seven Sea's International Market","4680 E 9 Mile Rd","48091",42.461751,-83.057425
"48092","Warren","MI","Meijer","29505 Mound Rd","48092",42.5099374,-83.0494294
"48092","Warren","MI","ALDI","29475 Mound Rd","48092",42.5083586,-83.0487515
"48092","Warren","MI","Kroger","28250 Dequindre Rd","48092",42.4996043,-83.0830639
"48092","Warren","MI","Gordon Food Service Store","7835 Convention Blvd","48092",42.53164943108466,-83.03056296308611
"48092","Warren","MI","Filipinas","3866 E 13 Mile Rd","48092",42.519307,-83.068603
"48092","Warren","MI","Sahara Market & Pastries","32836 Ryan Rd","48092",42.533943,-83.067677
"48093","Warren","MI","Walmart Garden Center","29176 Van Dyke Avenue","48093",42.508222773805414,-83.02667022003315
"48093","Warren","MI","Oakridge Supermarket","30800 Hoover Rd","48093",42.520580729528675,-83.00683938267434
"48093","Warren","MI","Walmart Grocery Pickup and Delivery","29176 Van Dyke Ave","48093",42.50818634033203,-83.02628326416016
"48094","Washington","MI","Meijer","8401 26 Mile Rd","48094",42.7154382,-83.0322708
"48095","Washington","MI","Kroger","64660 Van Dyke Rd","48095",42.7708326,-83.0165081
"48097","Yale","MI","Vinckier Foods","115 Main Street","48097",43.12856061360067,-82.79854304817823
"48098","Troy","MI","Kroger","2105 South Blvd W","48098",42.6211465,-83.1719784
"48101","Allen Park","MI","Meijer","3565 Fairlane Dr","48101",42.27880540782253,-83.20407898740086
"48101","Allen Park","MI","Meijer","3710 Dix Hwy","48146",42.23198101221431,-83.1964373588562
"48101","Allen Park","MI","Kroger","2060 Dix Hwy","48146",42.25455001182138,-83.19414616631212
"48101","Allen Park","MI","Trentwood Farms","11055 Allen Rd","48195",42.226706010872405,-83.22885990142822
"48101","Allen Park","MI","Jim & Shawn's Stars & Stripes","8246 Allen Rd","48101",42.249205289336416,-83.21857986732071
"48101","Allen Park","MI","Saveland Supermarket","8370 Pelham Rd","48180",42.24757512816892,-83.23123331373519
"48101","Allen Park","MI","Agemy and Sons","14730 Champaign Rd","48101",42.245954,-83.20444599999999
"48103","Ann Arbor","MI","Meijer","3145 Ann Arbor Saline Rd","48103",42.23937639374251,-83.76604199409485
"48103","Ann Arbor","MI","Meijer","5645 Jackson Rd","48103",42.2865714,-83.8411637
"48103","Ann Arbor","MI","Kroger","400 S Maple Rd","48103",42.2778562,-83.7816719
"48103","Ann Arbor","MI","Whole Foods Market","990 W. Eisenhower Parkway","48103",42.248246258671685,-83.75827925010778
"48103","Ann Arbor","MI","Plum Market","375 Maple Rd","48103",42.28466623000963,-83.78159445742747
"48103","Ann Arbor","MI","Busch's Fresh Food Market","2240 S Main St","48103",42.25404698595666,-83.75151737569615
"48103","Ann Arbor","MI","Arbor Farms Market","2103 W Stadium Blvd","48103",42.27224948162797,-83.77621868077989
"48103","Ann Arbor","MI","Gordon Food Service Store","2151 W Liberty St","48103",42.27379997457611,-83.77541363239288
"48103","Ann Arbor","MI","Produce Station","1629 S State St","48104",42.25914086809527,-83.74004184077967
"48103","Ann Arbor","MI","Tsai Grocery","3115 Oak Valley Dr","48103",42.242003401100426,-83.76961309802658
"48103","Ann Arbor","MI","ALDI","2340 Dexter Ave","48103",42.2854037,-83.7788428
"48103","Ann Arbor","MI","Tienda La Libertad","2231 W Liberty St","48103",42.273715,-83.777121
"48103","Ann Arbor","MI","By the Pound","615 S Main St","48104",42.27347744382024,-83.74895319459098
"48103","Ann Arbor","MI","Michigan Farm to Family","119 Jackson Industrial Dr","48103",42.286972,-83.843822
"48103","Ann Arbor","MI","Deb's Grocery","not_available","48103",42.279215,-83.81897
"48103","Ann Arbor","MI","Brazamerica","not_available","48104",42.279252,-83.748619
"48103","Ann Arbor","MI","Frog Holler","521 State Cir","48108",42.233813,-83.740854
"48103","Ann Arbor","MI","Country Market","7001 Dexter Ann Arbor Rd","48130",42.32515266616434,-83.87040948998677
"48104","Ann Arbor","MI","Kroger","3615 Washtenaw Ave","48104",42.25830529684652,-83.68879690674584
"48104","Ann Arbor","MI","Trader Joe's","2398 East Stadium Blvd","48104",42.25843955342363,-83.71291540134794
"48104","Ann Arbor","MI","Whole Foods Market","3135 Washtenaw Ave","48104",42.25791724378803,-83.69789349519475
"48104","Ann Arbor","MI","Patel Brothers","3426 Washtenaw Ave","48104",42.255333,-83.691477
"48104","Ann Arbor","MI","Bombay Grocers","3022 Packard St","48108",42.244645300446784,-83.69967023526075
"48104","Ann Arbor","MI","Better Health Market","3500 Washtenaw Ave","48104",42.25492477416992,-83.69029235839844
"48104","Ann Arbor","MI","Golam Produce Market","3150 Packard St","48108",42.244642999999996,-83.697192
"48104","Ann Arbor","MI","Euro Market","3108 Packard St","48108",42.244885866666664,-83.69779198333333
"48104","Ann Arbor","MI","Manna Oriental Market","1149 Broadway St","48105",42.290931,-83.73666999999999
"48104","Ann Arbor","MI","Galleria Market","3111 Packard St","48108",42.24529284634544,-83.69806160910863
"48104","Ann Arbor","MI","Shakti Bazaar","2925 Carpenter Rd","48108",42.24592971801758,-83.67967987060547
"48104","Ann Arbor","MI","Lucky's Market","1919 S Industrial Hwy","48104",42.26006507168851,-83.73675916898905
"48104","Ann Arbor","MI","Goodies Produce","3180 Packard St","48108",42.244510650634766,-83.69632720947266
"48104","Ann Arbor","MI","ZZ's Produce","4092 Packard St","48108",42.244854,-83.677954
"48104","Ann Arbor","MI","Aladdin's Market","3188 Packard St","48108",42.24482339147508,-83.69616788423578
"48105","Ann Arbor","MI","Kroger","2641 Plymouth Rd","48105",42.3047096,-83.7090107
"48105","Ann Arbor","MI","Plum Market","3601 Plymouth Rd","48105",42.30584057758716,-83.69102830477632
"48105","Ann Arbor","MI","Busch's Fresh Food Market","2020 Green Rd","48105",42.30383705835842,-83.69164855764744
"48105","Ann Arbor","MI","Way 1 Super Market","2789 Plymouth Rd","48105",42.30325204430583,-83.70568717664194
"48105","Ann Arbor","MI","Edith's Market","6023 Pontiac Trail","not_available",42.36566285701487,-83.6573052406311
"48105","Ann Arbor","MI","Om Market","2713 Plymouth Rd","48105",42.30401295843073,-83.70711824753475
"48108","Ann Arbor","MI","Meijer","3825 Carpenter Rd","48197",42.23356978165603,-83.6764669418335
"48108","Ann Arbor","MI","Walmart Supercenter","7000 E Michigan Ave","48176",42.18859332181452,-83.73505929541963
"48108","Ann Arbor","MI","Kroger","3200 Carpenter Rd","48197",42.2428896,-83.682046
"48108","Ann Arbor","MI","ALDI","3299 Carpenter Rd","48197",42.24050521850586,-83.67823028564453
"48108","Ann Arbor","MI","Mediterranean Market","4019 Stone School Rd","48108",42.22926813123289,-83.71860706695742
"48108","Ann Arbor","MI","Hyundai Asian Market","3893 Platt Rd","48108",42.23101043701172,-83.69896697998047
"48108","Ann Arbor","MI","Gordon Food Service Store","3800 Carpenter Rd","48197",42.233484982480505,-83.68104755844557
"48108","Ann Arbor","MI","Boess Market Place","3940 Trade Center Dr","48108",42.23134994506836,-83.68840789794922
"48108","Ann Arbor","MI","Yogi Indian Grocery","4015 E Ellsworth Rd","48197",42.229949951171875,-83.6795883178711
"48111","Belleville","MI","Meijer","9701 Belleville Rd","48111",42.232449,-83.4836776
"48111","Belleville","MI","Walmart Supercenter","10562 Belleville Rd","48111",42.22543682031495,-83.48738650988712
"48111","Belleville","MI","ALDI","10017 Belleville Rd","48111",42.2295136,-83.4845713
"48111","Belleville","MI","Willow Creek Market","49230 Michigan Ave","48111",42.26221442185448,-83.52369376014043
"48111","Belleville","MI","Country Farms Market","9090 Rawsonville Rd","48191",42.15757407066105,-83.54190647517736
"48111","Belleville","MI","Five Point Mini Mart","25 Main St","48111",42.204915584782114,-83.48598045813054
"48111","Belleville","MI","Walmart Supercenter","not_available","48111",42.240146430992255,-83.48906867348524
"48114","Brighton","MI","Meijer","8650 W Grand River Ave","48116",42.538785,-83.7874967
"48114","Brighton","MI","Kroger","9968 E Grand River Ave","48116",42.5193859,-83.7625973
"48114","Brighton","MI","ALDI","8385 W Grand River Ave","48116",42.5452386,-83.7877838
"48114","Brighton","MI","Busch's Fresh Food Market","9870 E Grand River Ave","48116",42.52016235051406,-83.76492716690264
"48114","Brighton","MI","Simply Fresh","not_available","48114",42.567085999999996,-83.809169
"48114","Brighton","MI","Simply Fresh","7300 Grand River Rd","48114",42.521021000000005,-83.760757
"48114","Brighton","MI","Livingston Organic Food Co Op","9912 E Grand River Ave #900","48116",42.52118871753143,-83.763771620795
"48114","Brighton","MI","Gordon Food Service Store","8144 Grand River Rd","48114",42.55411562698301,-83.79225254058838
"48114","Brighton","MI","The Natural View Market","128 W Main St","48116",42.529771999999994,-83.78137
"48116","Brighton","MI","Kroger","9700 Chilson Cmns","48169",42.46235430954031,-83.83080191952905
"48116","Brighton","MI","Country Acres Market","12596 10 Mile Rd","48178",42.45865313640204,-83.69528786271873
"48117","Carleton","MI","Busch's","Grafton","48117",42.05771526082169,-83.38087567527357
"48117","Carleton","MI","Mid Port Party Store","9001-9339 N Telegraph Rd","48166",42.007839108692146,-83.35444791992984
"48118","Chelsea","MI","Polly's Country Market","1255 S Main St","48118",42.3015654571523,-84.02171004187713
"48120","Dearborn","MI","Kroger","15255 Michigan Ave","48126",42.3155474,-83.1927003
"48120","Dearborn","MI","Freshland Market ماركة السلام","4006 Schaefer Rd","48126",42.316895,-83.1753
"48122","Melvindale","MI","Noor Fruit Market","not_available","48122",42.27220556619753,-83.17833750950076
"48122","Melvindale","MI","Oakwood Food Center","3600 Oakwood Blvd","48122",42.28122650086131,-83.18285619999897
"48124","Dearborn","MI","Kroger","23303 Michigan Ave","48124",42.3011508,-83.2615796
"48124","Dearborn","MI","Westborn Market","21770 Michigan Ave.","48124",42.306427054060826,-83.24201288956185
"48124","Dearborn","MI","Save-A-Lot","3031 Telegraph Rd","48124",42.289102510585096,-83.27064219874458
"48124","Dearborn","MI","Kroger","23000 Michigan Ave","48124",42.3008584,-83.2617235
"48124","Dearborn","MI","Bulk Foods","Michigan","not_available",42.30253679763631,-83.24014268129535
"48124","Dearborn","MI","Kroger Click List Pick Up","23003 Michigan Ave","48124",42.301636,-83.26286
"48125","Dearborn Heights","MI","Saturn Foods","not_available","48125",42.270444940300294,-83.28676921764595
"48125","Dearborn Heights","MI","ALDI","24130 Van Born Rd","48125",42.2697470852113,-83.27228115638718
"48125","Dearborn Heights","MI","Richter's Market","4633 S Telegraph Rd","48125",42.275757,-83.270043
"48125","Dearborn Heights","MI","Dollar Tree","3543 S Beech Daly St","48125",42.2844479658472,-83.29016187765018
"48126","Dearborn","MI","Walmart Supercenter","5851 Mercury Dr","48126",42.33074184,-83.20933114
"48126","Dearborn","MI","Dearborn Fresh Market - اسواق المدينة (Dearborn Fresh Market)","13661 Colson St","48126",42.323863968147414,-83.17706422722068
"48126","Dearborn","MI","Super Greenland","12715 W Warren Ave","48126",42.34340004140617,-83.16724061737612
"48126","Dearborn","MI","Alcamo's Market","4423 Schaefer Rd","48126",42.320592167210386,-83.17614168332513
"48126","Dearborn","MI","Papaya Fruit & Grocery","not_available","48228",42.34371419632049,-83.20509824443712
"48126","Dearborn","MI","Salam Meat","12922 W Warren Ave, Dearborn, MI 48126","48126",42.344398498535156,-83.17024230957031
"48126","Dearborn","MI","superland","not_available","48223",42.341374469807036,-83.2081856240016
"48126","Dearborn","MI","Chase Cash & Carry Inc.","6661 Chase Rd","48126",42.34,-83.18672
"48126","Dearborn","MI","Fordson Market ماركة فوردسن","Ford","48126",42.32905124146804,-83.18222560364805
"48126","Dearborn","MI","Fairline Food Center","16520 W Warren Ave","48228",42.343790999999996,-83.207637
"48126","Dearborn","MI","Habib southasian food and groceries","6606 Greenfield Rd","48126",42.339255,-83.195757
"48126","Dearborn","MI","Greenland Market Dearborn","15237 W Warren Ave","48126",42.343424,-83.193854
"48126","Dearborn","MI","Dearborn Produce","12717 Prospect St","48126",42.321441,-83.166315
"48127","Dearborn Heights","MI","Joe Randazzo's Fruit & Vegetable Market","24135 Joy Rd","48127",42.35649652850897,-83.27600302286847
"48127","Dearborn Heights","MI","Kroger","26400 Ford Rd","48127",42.328947,-83.2999734
"48127","Dearborn Heights","MI","Asian Supermarket","8641 N Telegraph Rd","48127",42.35523290000765,-83.27580336332922
"48127","Dearborn Heights","MI","wagon train food market","22436 W Warren Ave","48239",42.341984000000004,-83.259298
"48127","Dearborn Heights","MI","Gordon Food Service Store","5720 N Telegraph Rd","48127",42.328689720446945,-83.27160620447582
"48127","Dearborn Heights","MI","arabian market","not_available","48127",42.3268768783927,-83.29477981322778
"48127","Dearborn Heights","MI","Market Fresh of Dearborn Heights","20125 Ann Arbor Trl","48127",42.3356,-83.2358
"48131","Dundee","MI","Kroger","571 E Monroe St","48131",41.953159,-83.6416766
"48134","Flat Rock","MI","Kroger","23849 West Rd","48134",42.137182791318445,-83.2644650695419
"48134","Flat Rock","MI","Meijer","26100 Vreeland Rd","48134",42.1099629,-83.2893569
"48134","Flat Rock","MI","Foodtown","32825 Fort Street","not_available",42.06861744091021,-83.2489149098123
"48134","Flat Rock","MI","Save-A-Lot","32823 Fort Rd","48173",42.06839752,-83.24835205
"48135","Garden City","MI","Kroger","5866 Middlebelt Rd","48135",42.32824005997516,-83.32911820725712
"48135","Garden City","MI","Patel Brothers","28648 Ford Rd","48135",42.326102563387835,-83.32462579142133
"48135","Garden City","MI","Westside Oriental Store","29484 Ford Rd","48135",42.325852000000005,-83.332578
"48135","Garden City","MI","Food Deals","31210 Warren Rd","48185",42.33871841430664,-83.34957885742188
"48135","Garden City","MI","ALDI","30005 Ford Rd","48135",42.32479634431132,-83.33719889928943
"48137","Gregory","MI","Unadilla General Store","13329 Unadilla Rd","48137",42.429611,-84.057629
"48138","Grosse Ile","MI","Kroger","8999 Macomb St","48138",42.1300906,-83.1574121
"48138","Grosse Ile","MI","Save-A-Lot","3901 Fort St","48192",42.192682306691225,-83.17901048555727
"48141","Inkster","MI","food max","cherry hill road","usa",42.311268067026596,-83.3105274096168
"48144","Lambertville","MI","Kroger Marketplace","3462 Sterns Rd","48144",41.750914,-83.6283344
"48144","Lambertville","MI","Foodtown","Secor","48144",41.74781916206798,-83.62583533105037
"48144","Lambertville","MI","Food Town","7375 Secor Rd","48144",41.7482593307308,-83.62626419451013
"48146","Lincoln Park","MI","Los Arcos Market","2210 Fort Park Blvd","48146",42.248092,-83.180397
"48146","Lincoln Park","MI","ALDI","1200 Southfield Rd","48146",42.2504085,-83.1747534
"48146","Lincoln Park","MI","Kaylynn's Mexican Store","not_available","48146",42.249164,-83.174246
"48146","Lincoln Park","MI","Save A Lot","1716 Fort St","48146",42.2513686,-83.1767062
"48150","Livonia","MI","Meijer","13000 Middlebelt Rd","48150",42.37748134467857,-83.3308240923543
"48150","Livonia","MI","Walmart Supercenter","29555 Plymouth Rd","48150",42.36682052436595,-83.33643596068929
"48150","Livonia","MI","Larry's Foodland","33151 Plymouth Rd","48150",42.36696982389284,-83.37033490561164
"48150","Livonia","MI","Dollar Tree","29250 Joy Rd","48150",42.35503346747278,-83.3312206288689
"48150","Livonia","MI","Awrey's Bakery Outlet Store","12301 Farmington Rd","48150",42.37420447256063,-83.37378740610656
"48150","Livonia","MI","Plymouth Food Store","27600 Plymouth Rd","48150",42.369904,-83.315552
"48150","Livonia","MI","Entenmann's Bakery N Thrift Store","13280 Newburgh Rd","48150",42.379484722289654,-83.41150530246534
"48152","Livonia","MI","Value Center Market","27428 6 Mile Rd","48152",42.413892431747854,-83.31657373396665
"48152","Livonia","MI","Busch's Fresh Food Market","37083 6 Mile Rd","48152",42.409889700394054,-83.40962326639773
"48152","Livonia","MI","Kroger","33523 8 Mile Rd","48152",42.4394113,-83.3817723
"48152","Livonia","MI","Gordon Food Service Store","29150 6 Mile Rd","48152",42.41329458616468,-83.33329439163208
"48152","Livonia","MI","Better Health","20430 Farmington Rd","48152",42.43983711936792,-83.37492469709318
"48152","Livonia","MI","Cantoro's Italian Market","19710 Middlebelt Rd","48152",42.43270065515955,-83.33585319151241
"48152","Livonia","MI","Trader Joe's","18771 Traditions Drive","48167",42.4220887,-83.4336062
"48152","Livonia","MI","Koyama Shoten","37176 6 Mile Rd","48152",42.4117546081543,-83.41140747070312
"48152","Livonia","MI","Walmart Grocery Pickup and Delivery","29574 7 Mile Rd","48152",42.429378509521484,-83.3394775390625
"48152","Livonia","MI","Da-Zhong Oriental Food Market","28860 7 Mile Rd","48152",42.427732,-83.330962
"48152","Livonia","MI","Farmer Jack","2775 E Grand River Ave","48167",42.41332064234493,-83.43275186535517
"48152","Livonia","MI","Laxmi Foods","2913 W. Eight Mile","not_available",42.441198,-83.334327
"48154","Livonia","MI","Kroger","30935 5 Mile Rd","48154",42.3968998,-83.3483714
"48154","Livonia","MI","Westborn Flower Market","14925 Middlebelt Rd","48154",42.39557045297826,-83.33538007782299
"48154","Livonia","MI","Stan's Market","33503 5 Mile Rd","48154",42.396721382577965,-83.37500699827247
"48154","Livonia","MI","Value center market","not_available","48154",42.3871992,-83.3686726
"48158","Manchester","MI","Manchester Market","455 W Main St","48158",42.14743678204747,-84.04416422849619
"48158","Manchester","MI","Busch's Central Kitchen","1950 W Michigan Ave","49236",42.073238372802734,-83.99174499511719
"48158","Manchester","MI","Ft. Campbell Commissary","2702 Michigan Ave","not_available",42.07315444946289,-84.03852081298828
"48160","Milan","MI","Kroger","531 W Main St","48160",42.0888921118512,-83.69770386816299
"48160","Milan","MI","Milan City Market","825 Dexter St","48160",42.09206418787283,-83.67666593918753
"48160","Milan","MI","Gaskill Family Farm","12433 Crowe Rd","48160",42.05169899999999,-83.67608999999999
"48161","Monroe","MI","Meijer","1700 Telegraph Rd","48162",41.944853,-83.400449
"48161","Monroe","MI","Walmart Supercenter","2150 N Telegraph Rd","48162",41.95224552,-83.39700222
"48161","Monroe","MI","Kroger","850 S Monroe St","48161",41.9086474,-83.4060364
"48161","Monroe","MI","Danny's Fine Foods","1002 W Elm Ave","48162",41.92285616011399,-83.40837362485767
"48161","Monroe","MI","ALDI","1850 N Telegraph Rd","48162",41.94789279875486,-83.40024769306183
"48161","Monroe","MI","Gordon Food Service Store","1733 N Telegraph Rd","48162",41.945981654811526,-83.40302109718323
"48161","Monroe","MI","Ciolino Fruit And Vegetable Market","2101 Mall Rd","48162",41.95539093017578,-83.39993286132812
"48161","Monroe","MI","Foodtown","1432-1498 Custer Dr","48162",41.92559729227105,-83.41454400087144
"48161","Monroe","MI","Produce","1551 N Telegraph Rd","48162",41.943397521972656,-83.404296875
"48161","Monroe","MI","Dannys II","not_available","48162",41.936737,-83.38337
"48162","Monroe","MI","Kroger","3833 N Dixie Hwy","48162",41.947794,-83.3124164
"48162","Monroe","MI","Kroger","3383 N Dixie Hwy","48162",41.943463,-83.318368
"48164","New Boston","MI","Huron market","26012 Waltz Rd","48164",42.115127388137296,-83.40207921766446
"48165","New Hudson","MI","Walmart Supercenter","30729 Lyon Center Dr E","48165",42.51407975510957,-83.61334412437186
"48167","Northville","MI","Meijer","20401 Haggerty Rd","48167",42.435569,-83.4372917
"48167","Northville","MI","Kroger","425 N Center St","48167",42.43526779262058,-83.4839916229248
"48168","Northville","MI","Kroger","17447 Haggerty Rd","48168",42.4133142,-83.4354984
"48168","Northville","MI","Cantoro Italian Market – Plymouth","15550 N Haggerty Rd","48170",42.39835709383511,-83.43673284217333
"48168","Northville","MI","Fresh Thyme Farmers Market","15480 Sheldon Rd","48168",42.39741871815673,-83.48038673400879
"48168","Northville","MI","Busch's Fresh Food Market","15185 N Sheldon Rd","48170",42.394454208017144,-83.48290877823739
"48168","Northville","MI","Kroger","15455 N Haggerty Rd","48170",42.3974184,-83.4391525
"48168","Northville","MI","Salem General Store","not_available","48167",42.40630388259888,-83.57855558395386
"48168","Northville","MI","Anand Bazaar","16991 Ridge Rd","48168",42.40705108642578,-83.53142547607422
"48168","Northville","MI","Quality And Value Produce","16855 Ridge Rd","48168",42.406455993652344,-83.53129577636719
"48169","Pinckney","MI","Busch's Fresh Food Market","1277 E M 36","48169",42.45934959432684,-83.9314540937319
"48170","Plymouth","MI","Kroger","44525 Ann Arbor Rd W","48170",42.3574719,-83.4819354
"48170","Plymouth","MI","Picnic Basket","49471 Ann Arbor Rd W","48170",42.35331161188823,-83.52904444316451
"48170","Plymouth","MI","Westborn Market","860 Penniman Ave","48170",42.37176058802451,-83.4699608092947
"48170","Plymouth","MI","VG's Grocery","710 S Mill St, Plymouth, MI 48170, USA","not_available",42.36792996683762,-83.46047401428223
"48170","Plymouth","MI","Busch's Grocery","Sheldon Road","48170",42.37470001208902,-83.53070750757156
"48170","Plymouth","MI","Meat Local","1192 Ann Arbor Rd W","48170",42.359130859375,-83.47418975830078
"48170","Plymouth","MI","Mumbai Market","1472 S Sheldon Rd","48170",42.359039306640625,-83.47940063476562
"48173","Rockwood","MI","Kroger","20645 Gibraltar Rd","48183",42.0935322,-83.2345184
"48174","Romulus","MI","Meijer","14640 Pardee Rd","48180",42.200421,-83.2614997
"48174","Romulus","MI","Walmart Supercenter","7555 Telegraph Rd","48180",42.253566220816396,-83.26610201314267
"48174","Romulus","MI","Cattleman's Meat","11400 Telegraph Rd","48180",42.2232542,-83.2707501
"48174","Romulus","MI","Uncle Joe's Market","5650 S Merriman Rd","48184",42.268197,-83.348512
"48174","Romulus","MI","Save-A-Lot","27254 Eureka Rd","48180",42.19748379228043,-83.30460249094904
"48174","Romulus","MI","Gordon Food Service Store","10065 Telegraph Rd","48180",42.23327586232427,-83.26825618743896
"48174","Romulus","MI","Super Y Market","7130 Middlebelt Rd","48174",42.252718,-83.328861
"48174","Romulus","MI","Norm's Market","25760 Ecorse Rd","48180",42.255247999999995,-83.288613
"48174","Romulus","MI","ALDI","not_available","48180",42.21696853637695,-83.25963592529297
"48174","Romulus","MI","Cochran Bros Distributors Inc","27060 Trolley Industrial Dr","48180",42.24718,-83.304004
"48174","Romulus","MI","Romulus Market Place","36521 Goddard Rd","48174",42.22186903549554,-83.3963159494895
"48174","Romulus","MI","The Market","20175 Telegraph Rd","48174",42.15855,-83.26631
"48176","Saline","MI","Busch's Fresh Food Market","565 E Michigan Ave","48176",42.17313164308352,-83.7699580824679
"48176","Saline","MI","Saline Market Grocery","75 E Bennett St","48176",42.171656962232994,-83.78386391904279
"48178","South Lyon","MI","Kroger","20730 Pontiac Trl","48178",42.4327659,-83.6478347
"48178","South Lyon","MI","Busch's Fresh Food Market","22385 Pontiac Trl","48178",42.445535361517756,-83.6514063929124
"48178","South Lyon","MI","Kroger","51487 Ten Mile Rd","48178",42.462556768425635,-83.56181541344581
"48178","South Lyon","MI","Kroger Grocery Pickup and Delivery","51847 10 Mile Rd","48178",42.462406158447266,-83.56133270263672
"48178","South Lyon","MI","South Lyon IGA","not_available","48178",42.46040977889803,-83.65164662802947
"48180","Taylor","MI","Kroger","7000 Monroe Blvd","48180",42.2574136,-83.251667
"48180","Taylor","MI","Phil Mart Asian Store","13063 Pardee Rd","48180",42.21116256713867,-83.25364685058594
"48182","Temperance","MI","Food Town Supermarkets","Lewis Ave.","48182",41.77752620698333,-83.56826994302214
"48182","Temperance","MI","Food Town","8948 McClanathan Ave","48182",41.778883,-83.566088
"48183","Trenton","MI","Walmart Supercenter","23800 Allen Rd","48183",42.13588154,-83.22752953
"48183","Trenton","MI","Meijer","22600 Allen Rd","48183",42.1439531,-83.2284651
"48183","Trenton","MI","ALDI","20076 West Rd","48183",42.1415602,-83.2278058
"48183","Trenton","MI","Gordon Food Service","21860 Allen Rd","48183",42.149303142503726,-83.2271131699332
"48183","Trenton","MI","Manila Mart","Sibley Road","48183",42.17010833695209,-83.19115739735948
"48184","Wayne","MI","Kroger","36111 E Michigan Ave","48184",42.27911661303758,-83.39319882657544
"48185","Westland","MI","Kroger","7350 N Middlebelt Rd","48185",42.341745,-83.3306655
"48185","Westland","MI","Meijer","37201 Warren Rd","48185",42.3327192,-83.406004
"48185","Westland","MI","Kroger","36430 Ford Rd","48185",42.32611,-83.4000858
"48185","Westland","MI","Joe Randazzo's Fruit & Vegetable Market","6701 N Newburgh Rd","48185",42.334121090993655,-83.40982307836052
"48185","Westland","MI","Kroger","200 S Merriman Rd","48186",42.3091124,-83.352107
"48185","Westland","MI","Save-A-Lot","8244 Merriman Rd","48185",42.34821189541177,-83.3504627525053
"48185","Westland","MI","Dos Hermanos Market","34707 Ford Rd","48185",42.32439975766501,-83.38212130902613
"48185","Westland","MI","Heartland Marketplace","34414 Ford Rd","48185",42.32563152264849,-83.37994100567151
"48185","Westland","MI","Holiday Plaza Laundromat","Wayne","48185",42.34990940468197,-83.38664641410159
"48185","Westland","MI","Save A Lot","Merriman","48185",42.33006631,-83.41808721
"48185","Westland","MI","Save A Lot","8244 N Merriman Rd","48185",42.3480953,-83.3500497
"48185","Westland","MI","A-Z GROCERY","8553 N Wayne Rd","48185",42.3498649597168,-83.38673400878906
"48186","Westland","MI","Kroger","31300 Michigan Ave","48186",42.2872203,-83.3473215
"48186","Westland","MI","ALDI","707 S Wayne Rd","48186",42.304674836982116,-83.38730945767213
"48186","Westland","MI","Sak-N-Save","1647 S Merriman Rd","48186",42.297413,-83.348399
"48186","Westland","MI","Save A Lot","1663 S Merriman Rd","48186",42.2970085,-83.3484133
"48187","Canton","MI","Holiday Market","520 S Lilley Rd","48188",42.30619924685717,-83.4590737976228
"48187","Canton","MI","Meijer","45001 Ford Rd","48187",42.3193384,-83.4844945
"48187","Canton","MI","Walmart Supercenter","39500 Ford Rd","48187",42.32508172261207,-83.43051045741782
"48187","Canton","MI","Kroger","1905 N Canton Center Rd","48187",42.3191769,-83.4914678
"48187","Canton","MI","Fresh Thyme Farmers Market","43480 Ford Rd","48187",42.323619439398534,-83.46962828836058
"48187","Canton","MI","ALDI","42053 Ford Rd","48187",42.321344800369374,-83.45639840529657
"48187","Canton","MI","Pine Market","42400 Ford Rd","48187",42.32312774658203,-83.45935821533203
"48187","Canton","MI","Bombay Grocers","45510 Ford Rd","48187",42.32244257918628,-83.4889915473004
"48187","Canton","MI","Asian Mart","42073 Ford Rd","48187",42.321678161621094,-83.45675659179688
"48187","Canton","MI","Gordon Food Service Store","5727 N Lotz Rd","48187",42.324575908078565,-83.43440404357194
"48187","Canton","MI","Abdu Market","42468 Cherry Hill Rd","48187",42.30821228027344,-83.4586181640625
"48188","Canton","MI","Walmart Supercenter","45555 Michigan Ave","48188",42.269014041757416,-83.48900903821317
"48188","Canton","MI","Kroger","45540 Michigan Ave","48188",42.27417176842893,-83.48831579094622
"48188","Canton","MI","Master Chef Seasonings","4216 Coronet Ave","48188",42.274962,-83.513062
"48189","Whitmore Lake","MI","Polly Market","Main street","not_available",42.42352395210977,-83.76266696704033
"48189","Whitmore Lake","MI","Kroger","not_available","48189",42.418739598007946,-83.77046002929353
"48189","Whitmore Lake","MI","Whitmore Market","11900 Whitmore Lake Rd","48189",42.431751,-83.76871
"48192","Wyandotte","MI","Jerry's Food Market","1168 Oak St","48192",42.2039497780245,-83.16728094430614
"48192","Wyandotte","MI","ALDI","2931 Fort St","48192",42.20284383584714,-83.17956626415253
"48192","Wyandotte","MI","Shoppers Valley","750 Biddle Ave","48192",42.226429783859686,-83.15025908378054
"48192","Wyandotte","MI","Soltz's Quality Meats","1050 Ford Ave","48192",42.214173305095656,-83.16626050388321
"48192","Wyandotte","MI","Kielbasa Joe’s","1200 Oak St","48192",42.204145169790415,-83.16768723327131
"48193","Riverview","MI","Concessi's European Market","13620 Sibley Rd","48193",42.170814797700444,-83.19096535087475
"48195","Southgate","MI","Meijer","16300 Fort St","48195",42.1912159,-83.1848532
"48195","Southgate","MI","Kroger Marketplace","16705 Fort St","48195",42.1862106,-83.1854629
"48195","Southgate","MI","Walmart Supercenter","14900 Dix Toledo Rd","48195",42.201673786436835,-83.21046222598457
"48195","Southgate","MI","Kroger Clicklist Pickup","not_available","48195",42.18562,-83.18461
"48195","Southgate","MI","ALDI","17379 Eureka Rd","48195",42.19780499481032,-83.22122231887079
"48195","Southgate","MI","Crystal Market","18618 Eureka Rd","48195",42.199081778526306,-83.221812
"48195","Southgate","MI","Better Health Market","17825 Eureka Rd","48195",42.1982825759942,-83.22189787658715
"48195","Southgate","MI","Kroger","13333 Eureka Rd","48195",42.1857815,-83.1855627
"48197","Ypsilanti","MI","Kroger","2010 Whittaker Rd","48197",42.2120366,-83.6210503
"48197","Ypsilanti","MI","Fresh Thyme Farmers Market","2985 Washtenaw Rd.","48197",42.249181285535634,-83.6598694324494
"48197","Ypsilanti","MI","Ypsi Food Co-op","312 N River St","48198",42.24515657317909,-83.60848254931055
"48197","Ypsilanti","MI","Kroger","1771 E Michigan Ave","48198",42.2483906,-83.5753762
"48197","Ypsilanti","MI","Hua Xing Asia Market","2867 Washtenaw Rd","48197",42.249535253792004,-83.6565982019571
"48197","Ypsilanti","MI","Tom's Party Store","500 W Cross St","48197",42.24599137771244,-83.61936871816275
"48197","Ypsilanti","MI","Walmart Supercenter","2515 Ellsworth Rd","48197",42.22868123657652,-83.65015499299587
"48197","Ypsilanti","MI","Fatou African and Caribbean Mkt","4 N Adams St","48197",42.241273,-83.615827
"48197","Ypsilanti","MI","La Espiga Dorada Market","not_available","48197",42.238479109815486,-83.5970032698549
"48198","Ypsilanti","MI","Von's Supermarket","1521 Holmes Rd","48198",42.254066467285156,-83.58013916015625
"48198","Ypsilanti","MI","The Marketplace","Eastern Michigan University","48197",42.25384080809039,-83.62824649832534
"48198","Ypsilanti","MI","Latin American Grocery","1793 Washtenaw Rd","48197",42.2474656,-83.6416387
"48198","Ypsilanti","MI","Save-A-Lot","2830 Washtenaw Ave","48197",42.251249264203615,-83.65455448958747
"48198","Ypsilanti","MI","Save-A-Lot","1571 Holmes Rd","48198",42.2538070678711,-83.5798187255859
"48198","Ypsilanti","MI","Rose Market","2243 Ellsworth Rd","48197",42.229453,-83.645526
"48201","Detroit","MI","Whole Foods Market","115 Mack Ave.","48201",42.34847649058089,-83.05673834865114
"48201","Detroit","MI","University Foods","1131 W Warren Ave","48201",42.353005671140245,-83.07449782581435
"48201","Detroit","MI","Marcus Market","4614 2nd Ave","48201",42.35245728172139,-83.06708639993651
"48201","Detroit","MI","Eve's Downtown Gourmet","1431 Washington Blvd","48226",42.334171295166016,-83.051513671875
"48201","Detroit","MI","Food Pride","500 E Warren Ave","48201",42.35911883889656,-83.05771508908768
"48201","Detroit","MI","Eve's Market","1411 Washington Blvd","48226",42.334171295166016,-83.051513671875
"48201","Detroit","MI","Wigley's Meats & Produce","3405 Russell St","48207",42.350650695739084,-83.04372388511871
"48201","Detroit","MI","Tomboy Market","4120 2nd Ave","48201",42.34909561026599,-83.06529320733706
"48201","Detroit","MI","Little Asia Mart","4718 Anthony Wayne Dr","48201",42.352589,-83.069715
"48202","Detroit","MI","Al-Haramain International Foods","9329 Joseph Campau","48212",42.392289,-83.056531
"48202","Detroit","MI","King Cole Foods","40 Clairmount St","48202",42.382723538349396,-83.08252493198042
"48202","Detroit","MI","Glory Supermarket","9023 Joseph Campau St","48212",42.391856782824846,-83.05576187626716
"48202","Detroit","MI","Family Foods Super Store","8665 Rosa Parks Blvd","48206",42.37181512224551,-83.09736021845679
"48202","Detroit","MI","Srodek's Campau Quality Sausage","9601 Joseph Campau St","48212",42.39583675248039,-83.0572814183979
"48203","Highland Park","MI","Meijer","1301 W 8 Mile Rd","48203",42.444297976402275,-83.11922192573547
"48203","Highland Park","MI","Meijer Pharmacy","1301 W. Eight Mile Rd.","48203",42.444285,-83.119224
"48203","Highland Park","MI","ALDI","15111 Woodward Ave","48203",42.4098377699082,-83.10141771167412
"48203","Highland Park","MI","Merchant Food Center","2819 E 7 Mile Rd","48234",42.433234999999996,-83.07514
"48203","Highland Park","MI","Glory Supermarket","14100 Woodward Ave","48203",42.40822428726369,-83.09704581427663
"48203","Highland Park","MI","Kroger","not_available","48203",42.4265772062004,-83.1095065601091
"48203","Highland Park","MI","Pyramids Bakery & Grocery","736 E 7 Mile Rd","not_available",42.43239,-83.1107
"48204","Detroit","MI","Food farm market","11550 Dexter Ave","48206",42.37861251831055,-83.12284088134766
"48204","Detroit","MI","Thrifty Scot Supermarket","3431 Joy Rd","48206",42.370314,-83.11660400000001
"48204","Detroit","MI","Shop A Lot","10320 Plymouth Rd","48204",42.373635,-83.162903
"48205","Detroit","MI","Save-A-Lot","15001 Houston-Whittier","48205",42.42101988222772,-82.96697624683505
"48205","Detroit","MI","Del Pointe Food Center","16700 Harper Ave","48224",42.41581618268437,-82.94554600123071
"48205","Detroit","MI","Mazen Foods","12740 Gratiot Ave","48205",42.41985407276611,-82.98717785877741
"48205","Detroit","MI","Mike's Fresh Market","14383 Gratiot Ave","48205",42.43676266656427,-82.97810121705054
"48205","Detroit","MI","7 Star Food Center","11500 E McNichols Rd","48205",42.419709999999995,-83.005241
"48207","Detroit","MI","Metro","6740 Wyandotte St E","N8S 1P6",42.33149766931181,-82.9564118385315
"48207","Detroit","MI","Gordon Food Service","Jefferson","48207",42.33910369873047,-83.0199966430664
"48207","Detroit","MI","Family Fair Food Center","700 Chene St","48207",42.34105267951225,-83.02389960380403
"48207","Detroit","MI","Save-A-Lot","3681 Gratiot Ave","48207",42.363560906798675,-83.0255192700979
"48207","Detroit","MI","Gratiot Central Market","1429 Gratiot Ave","48207",42.344810838116516,-83.03843586127238
"48207","Detroit","MI","Lafayette Foods","1565 E Lafayette St","48207",42.338898151303496,-83.03195646238181
"48207","Detroit","MI","R. Hirt Jr.","2468 Market St","48207",42.3460849959318,-83.03894327578226
"48207","Detroit","MI","Envy Inc","234 E Larned St","48226",42.328745,-83.041222
"48207","Detroit","MI","Food Plaza","Brush St.","48226",42.331191727880935,-83.04357127871167
"48207","Detroit","MI","Red Truck Produce","not_available","48207",42.345005,-83.03836
"48207","Detroit","MI","Calumet Market & Spirits","Renaissance Center","48226",42.32920734638159,-83.03926588861916
"48207","Detroit","MI","XS Cab Service","400 Renaissance Center, Suit 2600","48243",42.32985960000001,-83.04045049999999
"48207","Detroit","MI","Dot’s Market Detroit","not_available","48214",42.358621,-82.999025
"48208","Detroit","MI","Save-A-Lot","5181 Grand River Ave","48208",42.34930281306782,-83.09263071216229
"48208","Detroit","MI","Spartan Foods","not_available","48075",42.351946543573725,-83.09369442235837
"48209","Detroit","MI","Azteca Supermercado","2411 Central St","48209",42.313611,-83.125506
"48209","Detroit","MI","La Fiesta Market","7403 W Vernor Hwy","48209",42.313359000000005,-83.12189599999999
"48209","Detroit","MI","Vernor Food Center‎/La Virgencita","8801 W Vernor Hwy","48209",42.308618,-83.133494
"48209","Detroit","MI","The New San Juan Market","4616 W Vernor Hwy","48209",42.319889068603516,-83.09750366210938
"48209","Detroit","MI","Algo Especial Super Mercado","2628 Bagley St, Detroit, MI 48216","48216",42.32571989396453,-83.07877994486803
"48209","Detroit","MI","Ryan's Foods","5858 W Vernor Hwy","48209",42.316831,-83.104945
"48210","Detroit","MI","La Tuna","7603 McGraw St, Detroit, MI 48210","48210",42.335539000000004,-83.140113
"48210","Detroit","MI","Garden Fresh Marketplace","6680 Michigan Ave.","48210",42.33153,-83.12604
"48210","Detroit","MI","Metro Food Center","6461 W Warren Ave","48210",42.344114000000005,-83.132632
"48210","Detroit","MI","hellenic grocery & bakery","not_available","48210",42.33729553222656,-83.13841247558594
"48210","Detroit","MI","Big Apple Market","not_available","48226",42.33651229032832,-83.13812948839055
"48211","Detroit","MI","Al-Haramain International Foods","3306 Caniff St","48212",42.401057705175006,-83.05611316872198
"48211","Detroit","MI","Polish Market","10200 Joseph Campau St","48212",42.3986144233151,-83.05885008634861
"48211","Detroit","MI","Hamtramck City Market","not_available","48212",42.39002035,-83.05344597
"48211","Detroit","MI","Asian Market","10224 Conant St","48212",42.40133919555147,-83.0536283277367
"48211","Detroit","MI","Fresh Valley Produce","10212 Joseph Campau St","48212",42.398526,-83.059032
"48211","Detroit","MI","A & C Supermarket","9006 Joseph Campau St","48212",42.39200856732663,-83.05416836560248
"48211","Detroit","MI","New Mini Market","9844 Conant St","48212",42.40030874,-83.05136441
"48211","Detroit","MI","Stan's Grocery","11325 Joseph Campau St, Hamtramck, MI 48212","48212",42.400192704689644,-83.06039158873192
"48211","Detroit","MI","Al-Amryah","9629 Conant St","48212",42.39875411987305,-83.05052947998047
"48211","Detroit","MI","Al-Noor Supermarket","8842 Joseph Campau St","48212",42.390929,-83.053558
"48212","Hamtramck","MI","Marhaba bazar","12151 Conant St","48212",42.40846269835589,-83.05662731690506
"48212","Hamtramck","MI","Khan Grocery Inc.","12696 Gallagher St","48212",42.412346,-83.06309399999999
"48213","Detroit","MI","Farmer John Food Center","9731 Harper Ave","48213",42.393578999999995,-83.00661099999999
"48213","Detroit","MI","Pak N Save","Mack Station Dr","48215",42.3862623,-82.97380415
"48213","Detroit","MI","Mack / Bewick Market","10300 Mack Ave","48214",42.37450890685726,-82.9885187190729
"48213","Detroit","MI","Save-A-Lot","4703 Conner Ave","48215",42.38880433717757,-82.97292947292132
"48213","Detroit","MI","Save A Lot","4703 Conner St","48215",42.3872875,-82.9723505
"48213","Detroit","MI","Harper Food Center","13999 Harper Woods","48213",42.40361022949219,-82.96907043457031
"48215","Detroit","MI","Fairfax Quality Market","899 Beaconsfield Ave","48230",42.37404043329696,-82.93363180184072
"48215","Detroit","MI","ALDI","14708 Mack Ave","48215",42.3860406,-82.9488644
"48215","Detroit","MI","Parkway Market","13210 E Jefferson Ave","48215",42.37070846557617,-82.95023345947266
"48216","Detroit","MI","Honey Bee Market - La Colmena","2443 Bagley St","48216",42.32564316602697,-83.07631871777083
"48217","Detroit","MI","riviera market","11292 W Jefferson Ave","48218",42.26383,-83.1374
"48218","River Rouge","MI","Bi-Rite Supermarket","W. Jefferson","48218",42.266192679705526,-83.13009264880112
"48219","Detroit","MI","Meijer","21431 Grand River Ave","48219",42.41205,-83.2527633
"48219","Detroit","MI","New Redford Food Cente","21673 Grand River Ave","48219",42.415729016724036,-83.2562799447117
"48219","Detroit","MI","Apollo Supermarket","20250 W 7 Mile Rd","48219",42.43020895472219,-83.24147613973614
"48219","Detroit","MI","Save A Lot","20811 W 8 Mile Rd","48219",42.4431906,-83.2485098
"48219","Detroit","MI","Old Redford Food Center","21673 Grand River Avenue","48219",42.415717,-83.256479
"48219","Detroit","MI","Glory Supermarket","19136 Telegraph Rd","48219",42.42968640650015,-83.27682860609166
"48219","Detroit","MI","Galoya African Market","22036 Grand River Ave","48219",42.41702651977539,-83.2580337524414
"48220","Ferndale","MI","Western Market","447 W 9 Mile Rd","48220",42.46027043153128,-83.14090004786873
"48220","Ferndale","MI","ALDI","8228 W 8 Mile Rd","48220",42.4466159,-83.1543468
"48220","Ferndale","MI","Kroger","8920 W 8 Mile Rd","48220",42.4465728,-83.160361
"48220","Ferndale","MI","Ferndale Foods","600 W 9 Mile Rd","48220",42.460718470278415,-83.142487207492
"48220","Ferndale","MI","Organic Food & Vitamin Center","170 W 9 Mile Rd","48220",42.460680708509365,-83.13591703659336
"48220","Ferndale","MI","Natural Food Patch","221 W 9 Mile Rd","48220",42.460546938406445,-83.13662124651684
"48220","Ferndale","MI","Onyx Food Market","10850 W 9 Mile Rd","48237",42.460347,-83.171583
"48220","Ferndale","MI","Vega Market","2800 Hilton Rd","48220",42.46862909688768,-83.12611777765272
"48220","Ferndale","MI","Organic Foods","9 mile","48220",42.453433438126396,-83.13391932603514
"48220","Ferndale","MI","Save-A-Lot","430 W 9 Mile Rd","48220",42.46078736712113,-83.1403173738551
"48221","Detroit","MI","Savon Foods Super Market","18000 Livernois Ave","48221",42.421647916945766,-83.14353218534819
"48221","Detroit","MI","Mikes Fresh Market","19195 Livernois Ave","48221",42.4325816132798,-83.14243243439384
"48221","Detroit","MI","Liberty Food Center","10620 W McNichols Rd","48221",42.41700443523947,-83.16812130305107
"48221","Detroit","MI","fresh market","Wyoming","48221",42.42726427806759,-83.15444915584966
"48223","Detroit","MI","Metro Foodland","18551 Grand River Ave","48223",42.40247590299937,-83.22374619698347
"48224","Detroit","MI","Kroger","16919 Kercheval Ave","48230",42.3898711,-82.9176316
"48224","Detroit","MI","Trader Joe's","17028 Kercheval Ave","48230",42.38985526853645,-82.91583630015587
"48224","Detroit","MI","Village Food Market","18330 Mack Ave","48236",42.40843903342902,-82.91405987138889
"48224","Detroit","MI","Lucky's Market","17241 E Warren Ave","48224",42.407253000000004,-82.92746600000001
"48224","Detroit","MI","family foods market","19230 Harper Ave","48225",42.42647023294553,-82.92596078555113
"48224","Detroit","MI","IN 'N' OUT FOOD STORES","17101 E Warren Ave","48224",42.406251,-82.929849998045
"48225","Harper Woods","MI","Kroger","20903 Harper Ave","48225",42.449753,-82.915834
"48227","Detroit","MI","Imperial Supermarket","14424 Schaefer Hwy","48227",42.39447880312624,-83.17802715245533
"48227","Detroit","MI","Grand Price Foodland","12955 Grand River Ave","48227",42.381456522773995,-83.17113839012642
"48227","Detroit","MI","Greenfield Market","15560 Puritan St","48227",42.40905335734927,-83.19973897736371
"48227","Detroit","MI","Americana Foods","15041 Plymouth Rd","48227",42.372395000000004,-83.192594
"48227","Detroit","MI","Food Giant","14040 Greenfield Rd","48227",42.389126,-83.197165
"48227","Detroit","MI","Save-A-Lot","13750 Fenkell St","48227",42.402387857437134,-83.18153500556946
"48227","Detroit","MI","All Star Fresh Fish & Seafood","13585 Greenfield Rd","48227",42.38618850708008,-83.19847869873047
"48227","Detroit","MI","Schaefer - Fish & Chicken","13465 Schaefer Hwy","48227",42.403645000000004,-83.179583
"48227","Detroit","MI","Food 4 Less","14020 Grand River Ave","48227",42.387164,-83.1824
"48227","Detroit","MI","Bobs Quality Meats","16728 Grand River Ave","48227",42.398109436035156,-83.21092987060547
"48228","Detroit","MI","U.S. Quality Foods","15690 Joy Rd","48228",42.35934829711914,-83.19914245605469
"48228","Detroit","MI","Save-A-Lot","20427 Plymouth Rd","48228",42.37153382983581,-83.23984572206275
"48229","Ecorse","MI","Save-A-Lot # 24616","3931 W Jefferson Ave","48229",42.25365,-83.138871
"48230","Grosse Pointe","MI","Fresh Farms Market","355 Fisher Rd","48230",42.39005239773753,-82.90372189009655
"48234","Detroit","MI","Seven Mile Foods","8139 E 7 Mile Rd","48234",42.434101,-83.0214
"48234","Detroit","MI","Joe Randazzo's Fruits & Vegetables","5240 E Outer Dr","48234",42.436553236914506,-83.01548593267144
"48234","Detroit","MI","7 Mile Food","8139 E 7 MIle Rd","48234",42.434295654296875,-83.02168273925781
"48235","Detroit","MI","Glory Supermarket","8000 W Outer Dr","48235",42.420247268771426,-83.21733644507133
"48235","Detroit","MI","Caribean African Market","not_available","48235",42.415831,-83.210664
"48235","Detroit","MI","All African Market","15800 W McNichols Rd","48235",42.41617202758789,-83.20286560058594
"48235","Detroit","MI","Savon","15025 W 7 Mile Rd","48235",42.430327,-83.194283
"48236","Grosse Pointe","MI","Kroger","20422 Mack Ave","48236",42.4390672,-82.9071256
"48236","Grosse Pointe","MI","Jerry's","383 Kercheval Ave","48236",42.4104009460359,-82.8914074141461
"48236","Grosse Pointe","MI","Better Health Market","19850 Mack Ave","48236",42.42998540303877,-82.90880712601383
"48237","Oak Park","MI","ALDI","26300 Greenfield Rd","48237",42.4856627,-83.2006997
"48237","Oak Park","MI","Glory Supermarket","22150 Coolidge Hwy","48237",42.45938526568175,-83.18057855918217
"48237","Oak Park","MI","Value Wholesale","not_available","48237",42.447796999999994,-83.196388
"48237","Oak Park","MI","Fruitasia Farmers Market","23035-23099 Coolidge Hwy","48237",42.461238333333334,-83.18257205
"48237","Oak Park","MI","Kashat Spices","23141 Coolidge Hwy","48237",42.46058178333333,-83.1819755
"48237","Oak Park","MI","Farm Fresh Market","13151 W 10 Mile Rd","48237",42.47370948780554,-83.17960175803222
"48237","Oak Park","MI","Save A Lot","23105 Coolidge Hwy","48237",42.460845,-83.182999
"48238","Detroit","MI","Value Save","not_available","48238",42.39577880720944,-83.13842262768021
"48239","Redford","MI","ALDI","9009 Telegraph Rd","48239",42.35907707314683,-83.27643692493439
"48239","Redford","MI","Sun Valley Market","not_available","48239",42.362462,-83.276501
"48240","Redford","MI","ALDI","25851 Grand River Ave","48240",42.43223698554071,-83.2991874217987
"48240","Redford","MI","Spartan Store","not_available","48240",42.43361631242632,-83.29813843164739
"48240","Redford","MI","Save-A-Lot","25451Grand River Ave","48240",42.42866588236791,-83.2934895410065
"48301","Bloomfield Hills","MI","Nino Salvaggio International Marketplace","6592 Telegraph Rd","48301",42.54352856602186,-83.28653556475112
"48301","Bloomfield Hills","MI","Plum Market","3675 W Maple Rd","48301",42.54456810521082,-83.26311517084439
"48301","Bloomfield Hills","MI","Kroger","3600 W Maple Rd","48301",42.5463847,-83.2622622
"48301","Bloomfield Hills","MI","Trader Joe's","6536 Telegraph Rd","48301",42.54423946404114,-83.28644976114334
"48301","Bloomfield Hills","MI","Market Square","Inkster","48323",42.55289937061075,-83.32297235537047
"48301","Bloomfield Hills","MI","Kroger","Orchard Lake","48322",42.543491819241595,-83.29215222755724
"48302","Bloomfield Hills","MI","Kroger","4099 Telegraph Rd","48302",42.5803773,-83.2795492
"48302","Bloomfield Hills","MI","ALDI","1967 S Telegraph Rd","48302",42.61137771606445,-83.3019027709961
"48302","Bloomfield Hills","MI","Long Lake Market","1075 W Long Lake Rd","48302",42.58086750949671,-83.2819104745666
"48302","Bloomfield Hills","MI","Better Health Market","2053 S Telegraph Rd","48302",42.609572037806046,-83.30088795161095
"48304","Bloomfield Hills","MI","Hollywood Market","1525 S Opdyke Rd","48304",42.61934876542203,-83.2472982019018
"48304","Bloomfield Hills","MI","Surra - fr3 Block 2","Surra","48304",42.582689,-83.227301
"48306","Rochester","MI","Kroger","4888 N Adams Rd","483061415",42.726373,-83.1990245
"48306","Rochester","MI","Kroger","2058 25 Mile Rd","48316",42.6957746,-83.0931976
"48306","Rochester","MI","Papa Joes Gourmet Market","6900 N Rochester Rd","48306",42.696864684828725,-83.13619835372744
"48306","Rochester","MI","Hollywood Market","1495 N Rochester Rd","48307",42.69498165428749,-83.13546548858895
"48306","Rochester","MI","Kroger Grocery Pickup and Delivery","4888 N Adams Rd","48306",42.72679901123047,-83.19654846191406
"48306","Rochester","MI","MARKET LINDA","123 ORION","48306",42.711642008862746,-83.14815759658813
"48307","Rochester","MI","Meijer","3175 S Rochester Rd","48307",42.634076,-83.1289353
"48307","Rochester","MI","Kroger","65 S Livernois Rd","48307",42.680288,-83.1517191
"48307","Rochester","MI","Gordon Food Service Store","1370 Walton Blvd","48309",42.682086053336214,-83.1568899338011
"48307","Rochester","MI","Fresh Thyme Farmers Market","2025 S Rochester Rd","48307",42.6516626,-83.1308423
"48307","Rochester","MI","ALDI","1106 S Rochester Rd","48307",42.664039611816406,-83.13426208496094
"48307","Rochester","MI","Farm Boy Produce","Avon","not_available",42.66531944274902,-83.13390970230103
"48307","Rochester","MI","India Grocers","2642 S Rochester Rd","48307",42.641661,-83.133262
"48307","Rochester","MI","Krishna Foods","1844 E Auburn Rd","48307",42.637882,-83.09513000000001
"48307","Rochester","MI","spicemart","933 Auburn Rd","48307",42.63490295410156,-83.15043640136719
"48307","Rochester","MI","White Lake Market","1400 Drexelgate Pkwy","48307",42.659678,-83.14374699999999
"48309","Rochester","MI","Trader Joe's","3044 Walton Blvd","48309",42.68264135956096,-83.19498222842515
"48309","Rochester","MI","Walmart Supercenter","2500 S Adams Rd","48309",42.64319279639434,-83.19833156799518
"48309","Rochester","MI","Meijer","3610 Marketplace Cir","48309",42.643437685130834,-83.20603966712946
"48309","Rochester","MI","Whole Foods Market","2918 Walton Blvd","48309",42.681842987469004,-83.19159000968328
"48309","Rochester","MI","Busch's Fresh Food Market","3188 Walton Blvd","48309",42.681917957483996,-83.19607028448516
"48309","Rochester","MI","Kroger","Crooks Rd.","48309",42.62972472399782,-83.19942880778214
"48310","Sterling Heights","MI","Kroger","2260 18 Mile Rd","48314",42.593853,-83.08871
"48310","Sterling Heights","MI","Dream Market","40832 Ryan Rd","48310",42.592830657958984,-83.0684585571289
"48310","Sterling Heights","MI","Krave Smoke Shop","3967 17 Mile Rd","48310",42.579856,-83.071508
"48310","Sterling Heights","MI","La Grusa's Meat Fruit Ranch","2127 Dequindre Rd","48310",42.57963384010365,-83.08775217536632
"48310","Sterling Heights","MI","Hanna's Fruit Market","4115 15 Mile Rd","48310",42.550862,-83.067588
"48310","Sterling Heights","MI","Palm Fruit Market","5814 15 Mile Rd","48310",42.55007526337482,-83.04922396990607
"48310","Sterling Heights","MI","Wholesale Fruit & Veg","St Bernards Rd","48310",42.537505,-83.048978
"48310","Sterling Heights","MI","Max's Deli Beer & Wine","4160 15 Mile Rd","48310",42.549465000000005,-83.066626
"48312","Sterling Heights","MI","Meijer","36600 Van Dyke Ave","48312",42.5627802,-83.0261548
"48312","Sterling Heights","MI","Walmart Supercenter","33201 Van Dyke Ave","48312",42.53832481,-83.03190255
"48312","Sterling Heights","MI","ALDI","34030 Van Dyke Ave","48312",42.54433257778181,-83.02769958972925
"48312","Sterling Heights","MI","Better Health Market","33452 Van Dyke Ave","48312",42.54020594313071,-83.0285286915945
"48313","Sterling Heights","MI","Kroger","43893 Schoenherr Rd","48313",42.6175712,-82.9944995
"48313","Sterling Heights","MI","Bozek's Polish Market","42354 Van Dyke Ave","48314",42.60478835470821,-83.03026613746687
"48314","Sterling Heights","MI","Walmart","44575 Mound Rd","48314",42.62180504352345,-83.05492809651805
"48314","Sterling Heights","MI","Hollywood Market","1495 North Rochester Road","48317",42.6209884252285,-83.0863162150699
"48314","Sterling Heights","MI","Kroger Grocery Pickup and Delivery","2051 18 Mile Rd","48314",42.594642639160156,-83.08842468261719
"48315","Utica","MI","Walmart Supercenter","51450 Shelby Pkwy","48315",42.67289143950137,-83.01041735046792
"48316","Utica","MI","Kroger Marketplace","7644 26 Mile Rd","48316",42.7107223,-83.0383289
"48316","Utica","MI","Vince & Joe's Gourmet Market","55178 Van Dyke Ave","48316",42.699658366472036,-83.03307848997187
"48316","Utica","MI","Balkan Market","52000 Van Dyke Ave","48316",42.67725272948605,-83.03374870448533
"48316","Utica","MI","Vim & Vigor health foods","51330 Van Dyke Ave","48316",42.67169952392578,-83.03388977050781
"48317","Utica","MI","ALDI","47342 Van Dyke Ave","48317",42.64307860004706,-83.03138494491583
"48317","Utica","MI","Cedar Valley DMG LLC","46691 Van Dyke Ave","48317",42.63825988769531,-83.03334045410156
"48317","Utica","MI","Krishna Foods","45557 Mound Rd","48317",42.62907028198242,-83.05280303955078
"48322","West Bloomfield","MI","Whole Foods Market","7350 Orchard Lake Rd","48322",42.52931128262043,-83.3626392480118
"48322","West Bloomfield","MI","Plum Market","6565 Orchard Lake Rd","48322",42.54208108426284,-83.35943592125301
"48322","West Bloomfield","MI","Busch's Fresh Food Market","33300 W 14 Mile Rd.","48322",42.52918175901089,-83.37874196189061
"48322","West Bloomfield","MI","Johnny Pomodoro's","32906 Middlebelt Rd","48334",42.5280716669224,-83.33920676260577
"48322","West Bloomfield","MI","Sinbad Fruit Market","6251 Haggerty Rd","48322",42.544503000000006,-83.437274
"48322","West Bloomfield","MI","Babylon Ethnic Foods","6609 Orchard Lake Rd","48322",42.54175449138628,-83.35928132399843
"48322","West Bloomfield","MI","Shell","6495 Orchard Lake Rd","48322",42.543031200145315,-83.36030413827555
"48322","West Bloomfield","MI","mediterranean market and bakery","32838 northwestern","not_available",42.526811,-83.35597
"48322","West Bloomfield","MI","Ishtar Ethnic Food","7380 Haggerty Rd","48322",42.52816199999999,-83.4361923
"48322","West Bloomfield","MI","6093 Haggerty RD, West Bloomfield, MI","6093 Haggerty Rd","48322",42.546958923339844,-83.43778228759766
"48323","West Bloomfield","MI","Walmart Supercenter","3301 Pontiac Trail Road","48390",42.559169409005236,-83.44225351645943
"48323","West Bloomfield","MI","Kroger","2905 Union Lake Rd","48382",42.5937436,-83.4437619
"48323","West Bloomfield","MI","Kroger","4395 Orchard Lake Rd","48323",42.5741134,-83.3611688
"48323","West Bloomfield","MI","Commerce Mediterranean Market","not_available","48324",42.588531494140625,-83.41279602050781
"48323","West Bloomfield","MI","ALDI","2155 Haggerty Hwy","48390",42.555566153507435,-83.44018311830956
"48324","West Bloomfield","MI","Food Castle","7770 Cooley Lake Rd","48327",42.615471,-83.438578
"48326","Auburn Hills","MI","Meijer","800 Brown Rd","48326",42.705603107569495,-83.28716039657593
"48326","Auburn Hills","MI","Carnival Market","1101 E Walton Blvd","48340",42.67833144757061,-83.26044312502833
"48326","Auburn Hills","MI","ALDI","475 Brown Rd.","48359",42.707786787698865,-83.29642017857361
"48326","Auburn Hills","MI","ALDI","2060 Dixie Hwy","48328",42.66620575954567,-83.32842886447906
"48326","Auburn Hills","MI","Joslyn Beverage","1124 Joslyn Ave","48340",42.668931,-83.280004
"48326","Auburn Hills","MI","Spices of india","Walton","not_available",42.67965,-83.228439
"48326","Auburn Hills","MI","super mercado la paloma panaderia","685 Martin Luther King Jr Blvd N","48342",42.654777,-83.276981
"48326","Auburn Hills","MI","Latino American Market","not_available","48342",42.64657389191053,-83.29444549416012
"48326","Auburn Hills","MI","Family Dollar","1220 Baldwin Ave","48340",42.670921325683594,-83.30010986328125
"48326","Auburn Hills","MI","Sav-Plus Marketplace","775 Baldwin Ave Ste B","48340",42.65741277115359,-83.30009937286377
"48326","Auburn Hills","MI","1249 Baldwin Road, Pontiac, MI","1249 Baldwin Ave","48340",42.67121887207031,-83.30145263671875
"48326","Auburn Hills","MI","Save-A-Lot","1249 Baldwin","48340",42.671152512984634,-83.30200642711486
"48326","Auburn Hills","MI","Pontiac Foodland","1925 N Perry St","48340",42.67743134105494,-83.2529728795214
"48326","Auburn Hills","MI","Walmart","not_available","48165",42.63359221902337,-83.2856063048733
"48326","Auburn Hills","MI","Huron Foods","1116 W Huron St","48328",42.635265941935465,-83.33343489078342
"48326","Auburn Hills","MI","People's Market","700 Auburn Ave","48342",42.63476498,-83.26508691
"48326","Auburn Hills","MI","Pontiac SuperMercado","Perry","not_available",42.65490769198238,-83.27632698723653
"48327","Waterford","MI","Kroger","5111 Highland Rd","48327",42.6587516,-83.3869381
"48327","Waterford","MI","VG's Grocery","7300 Highland Rd","48327",42.66101153127317,-83.4292177025659
"48327","Waterford","MI","ALDI","5038 Highland Rd","48327",42.66139141486766,-83.3872805611918
"48327","Waterford","MI","Oasis Health Foods","76 N Williams Lake Rd","48327",42.6451451,-83.44273799999999
"48327","Waterford","MI","Gordon Food Service, Waterford MI","Highland Rd","not_available",42.66159,-83.391131
"48328","Waterford","MI","Meijer","4200 Highland Rd","48328",42.6537136,-83.3698928
"48328","Waterford","MI","Gordon Food Service Store","4295 Highland Rd","48328",42.65232621194293,-83.3713191705972
"48328","Waterford","MI","Food Depot","3415 Elizabeth Lake Rd","48328",42.63894122777938,-83.35342591997498
"48329","Waterford","MI","Tenuta's Food Lane","3515 Sashabaw Rd","48329",42.690321999999995,-83.37340400000001
"48329","Waterford","MI","Clintonville Market","4494 Clintonville Rd","48329",42.705033445513116,-83.34850902944777
"48331","Farmington","MI","Busch's Fresh Food Market","24445 Drake Rd","48335",42.470851404873365,-83.39697035372006
"48331","Farmington","MI","Kroger","37550 W 12 Mile Rd","48331",42.4990858,-83.4187626
"48331","Farmington","MI","India Grocers - Michigan","24385 Halsted Rd","48335",42.471718,-83.41521
"48331","Farmington","MI","Gordon Food Service Store","39047 Grand River Ave","48335",42.47100639563423,-83.4329636589889
"48331","Farmington","MI","Vani Foods","38245 W 10 Mile Rd","48335",42.46870797789351,-83.42521416633288
"48331","Farmington","MI","Namaste Plaza","34703 Grand River Ave","48335",42.46842382777771,-83.38939781422334
"48331","Farmington","MI","Ishtar Arabic Ethnic Grocery","7480 Haggerty Road","48322",42.51329389278241,-83.43179032833473
"48331","Farmington","MI","Sri Balaji Foods Indian Restaurant & Grocery Store","24305 Halsted Rd","48335",42.46949005126953,-83.41654968261719
"48331","Farmington","MI","Gift of India","37033 Grand River Ave","48335",42.468355301924255,-83.41405193893999
"48331","Farmington","MI","China Merchandise","34701 Grand River Ave","48335",42.468353271484375,-83.39027404785156
"48334","Farmington","MI","ALDI","30790 Orchard Lake Rd","48334",42.52405348678323,-83.35838644047544
"48334","Farmington","MI","Heartland Marketplace","33250 W 12 Mile Rd","48334",42.49993147292023,-83.37668914717874
"48334","Farmington","MI","Gordon Food Service Store","29555 Orchard Lake Rd","48334",42.514622279403845,-83.35988586209747
"48334","Farmington","MI","Uri Oriental Market","Thirteen Mile Rd","not_available",42.51311651881313,-83.3618018011592
"48334","Farmington","MI","Orchard market place","31511 W 13 Mile Rd","48334",42.513385,-83.360775
"48334","Farmington","MI","Patel Brothers","28950 Orchard Lake Rd","48334",42.509847,-83.358225
"48334","Farmington","MI","Walmart","not_available","48334",42.49182555588264,-83.33610185803333
"48335","Farmington","MI","Fresh Thyme Farmers Market","23300 Farmington Rd","48336",42.4626512,-83.375625
"48335","Farmington","MI","Kroger","22455 Farmington Rd","48336",42.45584,-83.37674399999999
"48336","Farmington","MI","Kroger","25780 Middlebelt Rd","48336",42.4835966,-83.337125
"48336","Farmington","MI","Zamzam Market","24065 Orchard Lake Rd","48336",42.469260999999996,-83.35813900000001
"48336","Farmington","MI","Garden Of Eden Produce","22828 Orchard Lake Rd","48336",42.45887970729722,-83.3566403388977
"48346","Clarkston","MI","Kroger","5990 Sashabaw Rd","48346",42.7222985,-83.3764273
"48346","Clarkston","MI","Kroger","6625 Dixie Hwy","48346",42.7170104,-83.4159164
"48346","Clarkston","MI","Rudy's Quality Market","9 S Main St","48346",42.73555404561676,-83.41941101157411
"48346","Clarkston","MI","Eagle Noodle Factory","Gulick, Independence Township, MI 48346","48346",42.73073959350586,-83.39053344726562
"48348","Clarkston","MI","Kroger","9741 Dixie Hwy","48348",42.75709303851797,-83.48286149959706
"48348","Clarkston","MI","Cracker Barrel","5422-5492 Oak Hill Rd","48348",42.794652301972874,-83.37196098011583
"48353","Hartland","MI","Meijer","2160 Hartland Rd","48353",42.63873813862099,-83.74427588316394
"48353","Hartland","MI","Kroger","10059 E Highland Rd","48843",42.6350706,-83.7540498
"48353","Hartland","MI","Meijer Bottle Return Room","Highland Rd","48353",42.6380537588615,-83.74373837175774
"48356","Highland","MI","Colasanti's Market","468 S Milford Rd","48357",42.63495709151273,-83.61828467027962
"48356","Highland","MI","Wine Basket Market","3542 N Duck Lake Rd","48356",42.67259,-83.574439
"48357","Highland","MI","Save-A-Lot","722 W Highland Rd","48357",42.64246726563327,-83.62658363429024
"48359","Lake Orion","MI","Kroger","3097 S Baldwin Rd","48359",42.734231433253406,-83.30525994300848
"48362","Lake Orion","MI","Kroger","460 N Lapeer Rd","48362",42.7899932,-83.2443695
"48362","Lake Orion","MI","Lucky's Natural Foods","101 S Broadway St","48362",42.783698,-83.239506
"48371","Oxford","MI","Meijer","900 N Lapeer Rd","48371",42.8402318,-83.2708413
"48371","Oxford","MI","Oakwood Market","2487 W Oakwood Rd","48371",42.8673463,-83.335673
"48374","Novi","MI","Kroger","47650 Grand River Ave","48374",42.491871,-83.5184868
"48375","Novi","MI","Walmart Supercenter","26090 Ingersol Dr","48375",42.482048729039654,-83.47094683699882
"48375","Novi","MI","One World Market","42705 Grand River Ave #102B","48375",42.478400444154666,-83.46763533414506
"48375","Novi","MI","Better Health Market","42785 Market St","48375",42.47838051612065,-83.46879070280919
"48375","Novi","MI","Busch's Fresh Food Market","41840 W 10 Mile Rd","48375",42.467799685385,-83.457218609183
"48375","Novi","MI","Gordon food service marketplace","39247 Grand River","48335",42.48516781169222,-83.47403698610844
"48375","Novi","MI","SangDoe Korean Grocery","24257 Novi Rd","48375",42.46773910522461,-83.47553253173828
"48377","Novi","MI","Kroger","47060 W Pontiac Trl","48390",42.5263072,-83.5148631
"48377","Novi","MI","Gordon Food Service Stores","44055 W 12 Mile Rd","48377",42.49471664428711,-83.48296356201172
"48381","Milford","MI","Kroger","670 Highland Ave","48381",42.5938312,-83.6041899
"48381","Milford","MI","Milford Grocery","965 Summit","48381",42.59574622330996,-83.58886009529839
"48383","White Lake","MI","Kroger","10951 Highland Rd","48386",42.6480388,-83.5022846
"48383","White Lake","MI","Meijer","6001 Highland Rd","48383",42.6506906,-83.5316875
"48383","White Lake","MI","Kroger Gas Station","not_available","48386",42.646989,-83.500999
"48383","White Lake","MI","White Lake Supermarket","3393 Ormond Rd","48383",42.67198412959788,-83.55360450418085
"48383","White Lake","MI","The Country store","not_available","48383",42.67198828864384,-83.55363932136784
"48386","White Lake","MI","Walmart Supercenter","9190 Highland Rd","48386",42.66022022951846,-83.46772818760765
"48386","White Lake","MI","Lakeview Market","9775 Elizabeth Lake Rd","48386",42.63938113006215,-83.47730975906853
"48390","Walled Lake","MI","Meijer","1703 Haggerty Hwy","48390",42.5474983,-83.4421828
"48390","Walled Lake","MI","Kroger","39950 W 14 Mile Rd","48390",42.527682786857035,-83.44056576495859
"48390","Walled Lake","MI","Penny Lake Market","1270 S Commerce Rd","48390",42.54350784042544,-83.4775824421189
"48390","Walled Lake","MI","La Estrella Del Sur","not_available","48393",42.52542389636908,-83.52046433444896
"48390","Walled Lake","MI","Freshway Market","not_available","48390",42.537799,-83.476808
"48393","Wixom","MI","Meijer","49900 Grand River Ave","48393",42.4969482,-83.5413319
"48393","Wixom","MI","ALDI","28971 S Wixom Rd","48393",42.503171,-83.53704
"48393","Wixom","MI","Gordon Food Service Store","49200 Wixom Tech Dr","48393",42.51114441561298,-83.5362712762831
"48393","Wixom","MI","Al's Produce","49641 Grand River Ave","48393",42.4948616027832,-83.53925323486328
"48393","Wixom","MI","Little India Grocers","49833 Grand River Ave","48393",42.49435043334961,-83.5395278930664
"48412","Attica","MI","Rowley's Grocery","not_available","48412",43.03096389770508,-83.16596984863281
"48413","Bad Axe","MI","Walmart Supercenter","901 N Van Dyke Rd","48413",43.81759645547601,-83.00543546276393
"48413","Bad Axe","MI","Huron's Finest","1520 N Van Dyke Rd","48413",43.84595171424077,-82.99646135905193
"48413","Bad Axe","MI","Walmart Deli","not_available","48413",43.817605,-83.005219
"48413","Bad Axe","MI","McDonald's Food And Family","721 N Van Dyke Rd","48413",43.81014812755728,-83.00137790757401
"48415","Birch Run","MI","Meijer","9515 Birch Run Rd","48415",43.2523292,-83.7660398
"48415","Birch Run","MI","Rueckert's Market","Main Street","48415",43.25004298860795,-83.79239190186574
"48415","Birch Run","MI","Don's Foodland Inc.","7935 Main St","48415",43.25049808236754,-83.79535883324651
"48419","Carsonville","MI","IGA Supermarket","155-239 N Lakeshore Rd","48469",43.435536,-82.543497
"48420","Clio","MI","Walmart Supercenter","11493 N Linden Rd","48420",43.17511177977151,-83.7777452040002
"48420","Clio","MI","VG's Grocery","710 S. Mill","48420-1491",43.17118149683851,-83.73541814163937
"48420","Clio","MI","Simon's IGA","Birch Run Rd","not_available",43.17628858524141,-83.72761061653028
"48420","Clio","MI","Save-A-Lot","11972 N Saginaw St","48458",43.122501373291016,-83.69315338134766
"48420","Clio","MI","schwans","not_available","48420",43.17875,-83.746599
"48422","Croswell","MI","Rexfords (IGA)","not_available","48422",43.27440643310547,-82.6205062866211
"48423","Davison","MI","Meijer","8089 Lapeer Rd","48423",43.01479898756626,-83.5524952411651
"48423","Davison","MI","Kroger","700 N State Rd","48423",43.03635239485461,-83.5162827372551
"48423","Davison","MI","VG's Grocery","8503 Davison Rd","48423",43.03532823475719,-83.53799036216309
"48423","Davison","MI","VG's Grocery","8503 Davison","48423-2116",43.0347491,-83.5180063
"48423","Davison","MI","J Deans","not_available","48423",43.017513,-83.551409
"48427","Deckerville","MI","Deckerville Village Market","Black River","48427",43.52622985839844,-82.73715209960938
"48429","Durand","MI","Riverside Market","311 N Oak St","48429",42.9142275514834,-83.9881106647325
"48430","Fenton","MI","Walmart Supercenter","3700 Owen Rd","48430",42.79215806973133,-83.7442742060995
"48430","Fenton","MI","VG's Grocery","18005 Silver Parkway","48430-3421",42.79328359612386,-83.73822681036555
"48430","Fenton","MI","VG's Grocery","1390 N. Leroy","48430-2762",42.81412984864147,-83.7059201970277
"48430","Fenton","MI","VG's","18005 Silver Pkwy","48430",42.793128967285156,-83.73786926269531
"48430","Fenton","MI","Alpine Marketplace","604 W Broad St","48451",42.8130336115309,-83.78965660548685
"48430","Fenton","MI","VG's","not_available","48430",42.84721814174411,-83.75883521599533
"48430","Fenton","MI","V G'S Food Center 1354 N Leroy, Fenton, MI","1354 N Leroy St, Fenton, MI 48430","48430",42.802273155187194,-83.72594520938277
"48430","Fenton","MI","Runyan Lake Food Center","10005 Hartland Rd","48430",42.75281,-83.740802
"48430","Fenton","MI","Fenton Village Marketplace","15010-15110 Silver Pkwy","48430",42.80311889746709,-83.7362677417832
"48433","Flushing","MI","Kroger","1542 E Pierson Rd","48433",43.0593777,-83.8155149
"48433","Flushing","MI","ALDI","5340 W Pierson Rd","48433",43.0610749781933,-83.78582060337067
"48435","Fostoria","MI","Bryan's Supermarket","6002 N Lapeer Rd","48461",43.205335,-83.312437
"48435","Fostoria","MI","F B J Inc","6002 N Lapeer Rd Ste B","48461",43.2054622,-83.3124515
"48435","Fostoria","MI","Fostoria Grocery II","9294 Foster St","48435",43.2534242,-83.3724106
"48437","Genesee","MI","VG's Grocery","7461 N. Genesee","48437-0245",43.118718022387114,-83.61845848953423
"48439","Grand Blanc","MI","Kroger","12731 S Saginaw St","48439",42.92008584141768,-83.61882090568542
"48439","Grand Blanc","MI","Meijer","2474 W Hill Rd","48507",42.94615057162889,-83.72910088454431
"48439","Grand Blanc","MI","Walmart Supercenter","6170 S Saginaw Rd","48439",42.9384536323841,-83.64942435773017
"48439","Grand Blanc","MI","ALDI","6248 S Saginaw Rd","48439",42.93745422363281,-83.64469909667969
"48439","Grand Blanc","MI","Kroger","1200 E Bristol Rd","48529",42.9734053,-83.6861985
"48439","Grand Blanc","MI","Linden Market Place","6514 Linden Rd","48473",42.929223,-83.771198
"48439","Grand Blanc","MI","Mister Convenience Market","6012 Linden Rd","48473",42.942768,-83.772217
"48439","Grand Blanc","MI","Kroger","5186 Fenton Rd","48507",42.9544481,-83.6931965
"48441","Harbor Beach","MI","Sandman's Grocery","not_available","48441",43.84482412343233,-82.65220799619235
"48442","Holly","MI","Holly Foods","15191 N Holly Rd","48442",42.80871545801591,-83.62727476754081
"48442","Holly","MI","Food Castle","16853 Dixie Hwy","48350",42.788391318111415,-83.50708779298878
"48444","Imlay City","MI","Armando's Grocery Store","not_available","48444",43.024837,-83.07756
"48444","Imlay City","MI","Kroger","1821 S Cedar St","48444",43.0120693,-83.069795
"48444","Imlay City","MI","Save A Lot","875 Main","48446",43.03922577377039,-83.07284150901798
"48446","Lapeer","MI","Meijer","1555 Demille Rd","48446",43.04095543507831,-83.32646012306213
"48446","Lapeer","MI","Kroger","540 S Main St","48446",43.0441057,-83.3227103
"48446","Lapeer","MI","Walmart Supercenter","555 E Genesee St","48446",43.05321829,-83.2996168
"48446","Lapeer","MI","ALDI","815 East St","48446",43.040141573051876,-83.31906097420494
"48446","Lapeer","MI","slaterville market","not_available","48446",43.1031379699707,-83.28742980957031
"48449","Lennon","MI","ALDI","E. M-21","not_available",42.99705124829806,-83.98588886259927
"48449","Lennon","MI","Lennon Supermarket","11921 E Lennon Rd","48449",42.98468017578125,-83.93000030517578
"48450","Lexington","MI","Foleys Market","7256-7298 Huron Ave","48450",43.268194399426314,-82.53081468317633
"48451","Linden","MI","Northshore Market","16177 Seymour Rd","48451",42.791142,-83.84562199999999
"48451","Linden","MI","Richardson Meat Processing","4402 Cohoctah Rd","48451",42.7631366,-83.8674455
"48455","Metamora","MI","Metamora Foodland","3755-3905 S Lapeer Rd","48455",42.945006581501275,-83.31228713174548
"48457","Montrose","MI","Riverside Market","Vienna Road/M 57","48457",43.1769756712274,-83.88209261767585
"48458","Mount Morris","MI","Kroger","7188 N Saginaw Rd","48458",43.1102096,-83.6925835
"48460","New Lothrop","MI","Tip’n Point Diner","not_available","48460",43.116351,-83.974029
"48460","New Lothrop","MI","Tip’n Point","9390 Genesee St","48460",43.11661911010742,-83.97328186035156
"48462","Ortonville","MI","Bueche's Food World","400 N Ortonville Rd","48462",42.85700545131124,-83.45412734371006
"48462","Ortonville","MI","Toms market","465 South St","48462",42.844996,-83.447573
"48463","Otisville","MI","Denny's Supermarket","410 N State Rd","48463",43.172194,-83.522554
"48467","Port Austin","MI","Port Austin Market","8677 Lake St","48467",44.04537937679604,-82.99420921991201
"48468","Port Hope","MI","North Shore Grocery","4504 Main St","48468",43.94245147705078,-82.71404266357422
"48471","Sandusky","MI","Walmart Supercenter","655 W Sanilac Rd","48471",43.41834037224525,-82.85614717838179
"48471","Sandusky","MI","Jerry's Foodland","35 Kristian St","48471",43.421918068031424,-82.8423651072637
"48473","Swartz Creek","MI","Meijer","4141 Morrish Rd","48473",42.9682504,-83.8268451
"48473","Swartz Creek","MI","Kroger","7084 Miller Rd","48473",42.9639442,-83.8147409
"48473","Swartz Creek","MI","Walmart Supercenter","4313 Corunna Rd","48532",43.0001957,-83.76427976
"48473","Swartz Creek","MI","Gordon Food Service Store","2195 S Linden Rd","48532",42.99651030725116,-83.77137422561646
"48473","Swartz Creek","MI","Kroger","5249 Corunna Rd","48532",43.000394,-83.7820441
"48473","Swartz Creek","MI","Dale's Natural Foods","4290 Miller Rd","48507",42.9809379,-83.76199629999999
"48473","Swartz Creek","MI","Kroger","3288 Corunna Rd","48532",43.0027777,-83.7443432
"48473","Swartz Creek","MI","A.K. Groceries Indian & Pakistani Groceries","G-5316 Corunna Rd.","48532",43.007672,-83.788791
"48473","Swartz Creek","MI","Sindbad's","G-5342 Corunna Road","48532",43.00238511877558,-83.78536376723373
"48473","Swartz Creek","MI","VG's grocery","5080 Corunna Rd","48532",43.00304758379762,-83.77553426461097
"48473","Swartz Creek","MI","ALDI","4270 Corunna Rd","48532",43.00310551815071,-83.76369616607917
"48473","Swartz Creek","MI","Lucky Star Food Market","3917 W Court St","48532",43.006588,-83.737037
"48502","Flint","MI","The Grainery Organic  Foods","809 Church St","48502",43.011798999999996,-83.690513
"48502","Flint","MI","The Local Grocer","601 M L King Ave","48502",43.021136763741055,-83.69542101253725
"48503","Flint","MI","Gordon Food Service Store","2170 S Center Rd","48519",42.999126182034075,-83.63449495623371
"48503","Flint","MI","Save-A-Lot","2918 Flushing Rd","48504",43.025393,-83.732118
"48503","Flint","MI","Save-a-Lot","not_available","48506",43.033899312988076,-83.69222279955937
"48503","Flint","MI","Ojibwa Vitamin Co.","2480 S Center Rd","48519",42.99113082885742,-83.63452911376953
"48503","Flint","MI","Mr. B's Market Inc","2510 Fenton Rd","48507",42.997321,-83.69359200000001
"48503","Flint","MI","Woodcroft Market","2856 Miller Rd","48503",42.996514000000005,-83.724197
"48503","Flint","MI","Save-A-Lot","1918 N Dort Hwy","48506",43.034138,-83.654607
"48503","Flint","MI","Kroger","1916 Davison Rd","48506",43.03260406902531,-83.66481494351284
"48503","Flint","MI","mr b fenton","not_available","48507",42.99763107299805,-83.69364929199219
"48503","Flint","MI","Maxi Quality Meats","not_available","48503",43.009485999999995,-83.6448
"48504","Flint","MI","Landmark Food Center","206 W Pierson Rd","48505",43.060985,-83.70605
"48505","Flint","MI","Kroger","3838 Richfield Rd","48506",43.0496835,-83.6366337
"48505","Flint","MI","hanibals store","not_available","48505",43.076072692871094,-83.67393493652344
"48506","Flint","MI","ALDI","1054 N Center Rd","48509",43.0205578,-83.6340899
"48506","Flint","MI","Walmart Supercenter","5323 E Court St N","48509",43.02259357452588,-83.60148398158645
"48506","Flint","MI","Sams Beer Beer","5016 Richfield Rd","48506",43.050938,-83.615422
"48507","Flint","MI","Save a lot","Fenton Rd, Flint Township, MI 48507","48507",42.97735709587923,-83.69172964641757
"48519","Burton","MI","Meijer","2333 S Center Rd","48519",42.9933395,-83.6316467
"48601","Saginaw","MI","Meijer","3360 Tittabawassee Rd","48604",43.4825824,-83.9825552
"48601","Saginaw","MI","Walmart Supercenter","5650 Bay Rd","48604",43.48946808806799,-83.96965032268638
"48601","Saginaw","MI","Kroger","4672 State St","48603",43.4377329,-84.0090631
"48601","Saginaw","MI","Walmart Supercenter","5825 Brockway Rd","48638",43.43334713947446,-84.03158105019125
"48601","Saginaw","MI","ALDI","5275 Bay Rd","48604",43.48393263128623,-83.9755397162844
"48601","Saginaw","MI","Gordon Food Service Store","3800 Bay Rd","48603",43.46250910284547,-83.97496212875727
"48601","Saginaw","MI","Bill's Party Store","2422 Mackinaw St","48602",43.42625045776367,-83.98422241210938
"48601","Saginaw","MI","Grains & Greens Inc.","3641 Bay Rd","48603",43.460587,-83.976274
"48601","Saginaw","MI","Saginaw Supermarket","not_available","48601",43.397009,-83.935272
"48601","Saginaw","MI","Save-A-Lot","3805 N Michigan Ave","48604",43.461871514213954,-83.94905642282971
"48601","Saginaw","MI","Dom's Food Market","2326 N Michigan Ave","48602",43.438492,-83.949089
"48601","Saginaw","MI","Kroger","6370 Dixie Hwy","48722",43.3530577,-83.8712838
"48601","Saginaw","MI","Save-A-Lot","321 N Michigan Ave","48602",43.419198375736485,-83.96335688901196
"48601","Saginaw","MI","Save-A-Lot","3355 Holland Ave","48601",43.41507721,-83.89749908
"48601","Saginaw","MI","ALDI","6015 State St","48603",43.436120685411545,-84.03548061847692
"48601","Saginaw","MI","Heritage Natural Foods","717 Gratiot Ave, Saginaw, MI 48602","48602",43.41482778445743,-83.9710854139818
"48601","Saginaw","MI","Bridgeport Liquor and Wine","5974 Dixie Hwy","48601",43.364544,-83.885615
"48601","Saginaw","MI","Smokin' Vapor Saginaw LLC","3085 Bay Rd #11","48603",43.45321,-83.977065
"48601","Saginaw","MI","Shorthorn Meat Market","915 E Genesee Ave","48607",43.428498,-83.931362
"48601","Saginaw","MI","Save-A-Lot","3355 E Holland Rd","48601",43.41485595703125,-83.8974609375
"48601","Saginaw","MI","Discount Health & Gourmet Foods","3585 Bay Rd","48603",43.459590911865234,-83.97624969482422
"48601","Saginaw","MI","Kroger","3860 Dixie Hwy","48601",43.39670817360104,-83.91175444544973
"48601","Saginaw","MI","Food Value","1122 E Genesee Ave","48607",43.426023,-83.92891
"48601","Saginaw","MI","Kroger","5025 Gratiot Rd","48638",43.4377082,-84.0091737
"48602","Saginaw","MI","Food Depot","290 W Genesee Ave","48602",43.4357795715332,-83.94534301757812
"48603","Saginaw","MI","Nutritional Foods","not_available","48603",43.46035655321293,-83.97577227034459
"48609","Saginaw","MI","Meijer","8400 Gratiot Rd","48609",43.4182003,-84.079524
"48610","Alger","MI","Food pride","not_available","48756",44.18308386308215,-84.05050642384764
"48611","Auburn","MI","Auburn Food Center","985 W Midland Rd","48611",43.6027830284591,-84.08863138834087
"48612","Beaverton","MI","Fruchey Foods","360 N Ross St","48612",43.88814095329502,-84.49143173809364
"48612","Beaverton","MI","frucheys","not_available","48612",43.84335084340705,-84.35474664100856
"48612","Beaverton","MI","Edenville Market","6650 N. M30","48620",43.80381556452059,-84.38547989138948
"48613","Bentley","MI","Estey Supermarket","4002 Estey Rd","48652",43.869873046875,-84.20779418945312
"48614","Brant","MI","Nixon's Grocery","15998 W Brant Rd","48614",43.25927114892073,-84.22896489621905
"48616","Chesaning","MI","Frank's Supermarket","1045 W Broad St","48616",43.18563044072144,-84.12654700265624
"48617","Clare","MI","Glen's Market","10350 S Clare Ave","48617",43.83784866333008,-84.77043151855469
"48617","Clare","MI","Witbeck's Family Foods","1026 N McEwan St","48617",43.825319932818616,-84.76719978544268
"48617","Clare","MI","Surrey Amish Store","not_available","48617",43.857964,-84.650185
"48621","Fairview","MI","IGA","m33","48621",44.74349,-84.054329
"48621","Fairview","MI","Bill's IGA","1852-1998 Michigan 33","48621",44.72528705024864,-84.05137860474245
"48622","Farwell","MI","Carrows Super Market","2545 W Cadillac Dr","48622",43.85989460787739,-84.9036084858139
"48623","Freeland","MI","Pat's Food Center","7620 Midland Rd","48623",43.51988213963781,-84.11932311194202
"48624","Gladwin","MI","711","not_available","48415",43.98639,-84.48655
"48624","Gladwin","MI","Chappel Dam Grocery","4001 Pratt Lake Rd","48624",44.00910629421132,-84.5256120908029
"48624","Gladwin","MI","Save-A-Lot","160 Robertson Dr","48624",43.98226446892108,-84.46926148957395
"48625","Harrison","MI","Save a lot","24715 north first street","not_available",44.02001236175118,-84.79834556027389
"48625","Harrison","MI","Save-A-Lot","158 N First","48625",44.031203,-85.028574
"48625","Harrison","MI","Steve's Country Market","3170 N Clare Ave","48625",44.03342819213867,-84.80712127685547
"48625","Harrison","MI","Save A Lot","158 N 1st St","48625",44.0207992,-84.7985517
"48625","Harrison","MI","Glen's Markets","1570 N Clare Ave","48625",44.009498596191406,-84.78768157958984
"48626","Hemlock","MI","Midpoint Market And Deli","13405 Gratiot Rd","48626",43.416194915771484,-84.17928314208984
"48626","Hemlock","MI","Ric's Food Center","176 Hemlock Plaza Dr","48626",43.41342607490657,-84.2271510492069
"48629","Houghton Lake","MI","Walmart Supercenter","2129 W Houghton Lake Dr","48629",44.29672399599785,-84.6796990459396
"48629","Houghton Lake","MI","Bart's Fruit Market","431 W Houghton Lake Dr","48651",44.3010836606075,-84.64668908632318
"48629","Houghton Lake","MI","Glen's Market","3561 W Houghton Lake Dr","48629",44.297734763244904,-84.71106242229588
"48629","Houghton Lake","MI","Save-A-Lot","725 S Loxley Rd","48629",44.32255304939555,-84.77390404497184
"48629","Houghton Lake","MI","natural living and more","4376 W Houghton Lake Dr","48629",44.29851150512695,-84.72642517089844
"48629","Houghton Lake","MI","Naural Living And More","4376 W Houghton Lake Dr","not_available",44.29848569999999,-84.72162473333333
"48631","Kawkawlin","MI","Blue Knight Salvage Foods","3286 S Huron Rd","48706",43.6439401845337,-83.935447358322
"48631","Kawkawlin","MI","Beson's Supermarket","1480 S Huron Rd","48631",43.6961218540969,-83.96828055381775
"48631","Kawkawlin","MI","Linwood Party Store","211 W Center St","48634",43.73841857910156,-83.96210479736328
"48634","Linwood","MI","Ricker’s Market","not_available","48634",43.753355,-83.977407
"48634","Linwood","MI","Linda's Grocery Inc","493 N Garfield Rd","48634",43.75344,-84.08756
"48640","Midland","MI","Jack's Fruit & Meat Market","2000 S Saginaw Rd","48640",43.61281095785532,-84.21292944333415
"48640","Midland","MI","Kroger","2808 Ashman St","48640",43.6245056,-84.2283588
"48640","Midland","MI","Nature's Gift Organic Market","4306 N Saginaw Rd","48640",43.64179310250109,-84.27983556675026
"48640","Midland","MI","Health Hut","212 E Main St","48640",43.61231716282325,-84.24463405512228
"48640","Midland","MI","A2z Mart","152 Ashman Cir","48640",43.62630081176758,-84.22804260253906
"48640","Midland","MI","Save-A-Lot","1826 S Saginaw Rd","48640",43.613465000000005,-84.215182
"48642","Midland","MI","Meijer","7300 Eastman Ave","48642",43.66334593451453,-84.24389954660519
"48642","Midland","MI","Walmart Supercenter","910 Joe Mann Blvd","48642",43.66174677120836,-84.23849009792885
"48642","Midland","MI","ALDI","1200 Joe Mann Blvd","48642",43.662010159899225,-84.24137345176064
"48642","Midland","MI","Meijer Express Gas Station","7140 Eastman Ave","48642",43.6603381,-84.2471814
"48642","Midland","MI","Gordon Food Service Store","1511 Joe Mann Blvd","48642",43.66150745676822,-84.24490213394165
"48642","Midland","MI","Meijer","7300 Eastman Ave.","48642",43.66262435913086,-84.24645233154297
"48647","Mio","MI","Country Corner Bulk Foods","1284 W Kittle Rd","48647",44.69612121582031,-84.18216705322266
"48650","Pinconning","MI","Pinny Food Center","484 N Huron Rd","48650",43.850625122139085,-83.9664338729129
"48653","Roscommon","MI","Louie's Fresh Market #10","1025 N St Helen Rd","48656",44.34951455283694,-84.41084528388403
"48653","Roscommon","MI","Silver Dollar Express","9963 W Higgins Lake Dr","48653",44.50036582219171,-84.77866702840232
"48653","Roscommon","MI","Oak Park Grocery","East Higgins Lake Drive","48653",44.46851090379363,-84.67341818807108
"48654","Rose City","MI","Glen's Market","2206 S M 76","48661",44.40997585760951,-84.11587712498972
"48654","Rose City","MI","Glen's Markets","2626 N M 33","48654",44.433353424072266,-84.11781311035156
"48654","Rose City","MI","Family Fare Supermarket","2626 N, Michigan 33","48654",44.4101793,-84.11531029999999
"48655","Saint Charles","MI","Frank's Supermarket","115 E Belle Ave","48655",43.297630992619965,-84.14013293131889
"48657","Sanford","MI","Sanford Food Center","11 W Saginaw Rd","48657",43.667142095069686,-84.36935663223267
"48658","Standish","MI","Glen's Market","not_available","48658",43.97609083921439,-83.9580031585211
"48661","West Branch","MI","Walmart Supercenter","2750 Cook Rd","48661",44.25373663634456,-84.22874146728239
"48661","West Branch","MI","ALDI","2883 Cook Rd.","48661",44.2544536,-84.2247252
"48661","West Branch","MI","Save-A-Lot","417 W Houghton Ave","48661",44.27675247192383,-84.24068450927734
"48703","Au Gres","MI","IGA","212 W Saginaw St","48703",44.04975128173828,-83.69837188720703
"48703","Au Gres","MI","Whitestone Grocery","765 N Huron Rd","48703",44.108138,-83.568466
"48706","Bay City","MI","Meijer","2980 Wilder Rd","48706",43.6212682,-83.9341025
"48706","Bay City","MI","Walmart Supercenter","3921 Wilder Rd","48706",43.62529776160552,-83.89622263821423
"48706","Bay City","MI","Jack's Market","1000 Salzburg Ave","48706",43.58058342508565,-83.91414688029181
"48706","Bay City","MI","Kroger","2910 Center Ave","48732",43.59290284751031,-83.84624810549207
"48706","Bay City","MI","Gordon Food Service Store","3730 Wilder Rd","48706",43.62312197182587,-83.90631079673767
"48706","Bay City","MI","ALDI","4101 N Euclid Ave","48706",43.620574494465025,-83.91301095485687
"48706","Bay City","MI","Kroger","945 N Euclid Ave","48706",43.6145319,-83.9164613
"48706","Bay City","MI","Discount Health Foods","1006 W Ohio St","48706",43.6038885943294,-83.9156979834246
"48706","Bay City","MI","State Park Outpost","434 State Park Dr","48706",43.66124725341797,-83.89698028564453
"48706","Bay City","MI","Bosco's","N. Jefferson","48708",43.590944,-83.88687
"48706","Bay City","MI","Save-A-Lot","904 Lafayette Ave","48708",43.57857888829895,-83.88818327053768
"48706","Bay City","MI","Green Spot Grocery","108 N Walnut St","48706",43.60248565673828,-83.89788818359375
"48706","Bay City","MI","Tuthill Bros. Food Market","1315 Columbus Ave","48708",43.58961557563726,-83.87752532958984
"48706","Bay City","MI","Martha's Market","not_available","48708",43.599752,-83.871639
"48708","Bay City","MI","Meijer","595 N Pine Rd","48708",43.5827202,-83.8393901
"48708","Bay City","MI","Jack's Market","1511 W Center Rd","48732",43.59399974233773,-83.83764171006338
"48720","Bay Port","MI","Pigeon IGA","not_available","48755",43.83014362219498,-83.2797128388477
"48723","Caro","MI","Walmart Supercenter","1121 E Caro Rd","48723",43.5009262701443,-83.38418715980684
"48723","Caro","MI","VG's Grocery","1520 W. Caro","48723-9260",43.47603859339385,-83.414876413345
"48723","Caro","MI","Save-A-Lot","1253 E Caro Rd","48723",43.50332194243804,-83.37888937745525
"48725","Caseville","MI","Caseville Family Market","6730 Main St","48725",43.93965191682853,-83.2730358839035
"48725","Caseville","MI","LeBlanc's General Store","6611 Main St","48725",43.94222425746352,-83.27261713998962
"48730","East Tawas","MI","Walmart Supercenter","621 E Lake St","48763",44.277512763811714,-83.504269696986
"48730","East Tawas","MI","Neiman's Family Market","220 W. Lake","48763",44.271231687097874,-83.51342536949086
"48730","East Tawas","MI","Save A Lot","1700 E US 23","48730",44.2888005,-83.453848
"48730","East Tawas","MI","Save-A-Lot","1700 North Highway 23","not_available",44.289121597973974,-83.45390582662563
"48730","East Tawas","MI","Save-A-Lot","1700 East Huron Rd","48730",44.33133698,-83.37534332
"48734","Frankenmuth","MI","Kroger","435 N Main St","48734",43.3403164,-83.7365879
"48737","Glennie","MI","Roger's IGA","3257 State Rd","48737",44.560270058922434,-83.72475708791704
"48739","Hale","MI","Kocher's Market","3195 M 65","48739",44.37144957097499,-83.80538873564863
"48739","Hale","MI","Alward's","3237-3271 Michigan 65","48739",44.37676727771759,-83.804856
"48739","Hale","MI","long lake grocery","not_available","48739",44.42195411965804,-83.87502643161937
"48740","Harrisville","MI","Kris Mart","863 N Barlow Rd","48742",44.681240626029336,-83.4037551683525
"48740","Harrisville","MI","Mr Ed's IGA","415 E Main St","48740",44.65662216757369,-83.29091414310679
"48744","Mayville","MI","Wingert's Food Center","315 E Main St","48744",43.337784,-83.347786
"48746","Millington","MI","Rosati's Marketplace","8542 State Rd","48746",43.28022658824921,-83.53025436401367
"48750","Oscoda","MI","Louie's Fresh Market","not_available","48750",44.43041690943891,-83.32977968176176
"48750","Oscoda","MI","Skip The Store","7236 Loud Dr","48750",44.4907774,-83.3679591
"48759","Sebewaing","MI","Luke's Supermarket","8856 Unionville Rd","48759",43.72023010253906,-83.44532775878906
"48762","Spruce","MI","Spruce General Store","not_available","48762",44.84416067128899,-83.46651898943334
"48768","Vassar","MI","landmark","not_available","48768",43.37155532836914,-83.56793212890625
"48801","Alma","MI","Meijer","2805 W Cheesman Rd","48801",43.3983948,-84.6624102
"48801","Alma","MI","Walmart Supercenter","7700 N Alger Rd","48801",43.40328019,-84.66456765
"48801","Alma","MI","The Corner Market","Mill St.","48880",43.41041191171104,-84.61160970023604
"48801","Alma","MI","Rogers Natural Food","not_available","48801",43.37903119091556,-84.66304050450265
"48801","Alma","MI","Family Fare","1700 Wright Ave","48801",43.39593757755642,-84.66589557546945
"48801","Alma","MI","Meijer","2805 West Cheesman Road","48801",43.398231,-84.6626242
"48801","Alma","MI","Larry's IGA","724 E Superior St","48801",43.378316999999996,-84.650945
"48801","Alma","MI","Food Pride St. Louis","not_available","48880",43.4111091855718,-84.60829693688532
"48809","Belding","MI","Leppinks Food Center","302 W Main St","48809",43.09728704927813,-85.23119246215217
"48809","Belding","MI","Save-A-Lot","7434 Storey Rd","48809",43.09543991088867,-85.25946044921875
"48811","Carson City","MI","Village Market","10715 E Carson City Rd","48811",43.178476,-84.861786
"48813","Charlotte","MI","Walmart Supercenter","1680 Packard Hwy","48813",42.580397628847216,-84.80444331554072
"48813","Charlotte","MI","Meijer","1167 E Clinton Trl","48813",42.555176,-84.81473
"48813","Charlotte","MI","Frank's Food mart","Lansing Street","48813",42.567954224961376,-84.82817315624405
"48813","Charlotte","MI","Carl's Supermarket","Pearl St.","48876",42.626469,-84.742397
"48813","Charlotte","MI","Dragon's Den","635 W Lawrence Ave","48813",42.563638,-84.845504
"48813","Charlotte","MI","Charlotte IGA","225 S Washington St","48813",42.560997,-84.834089
"48817","Corunna","MI","Meijer","2591 E M 21","48817",43.0018429,-84.1158384
"48817","Corunna","MI","Walmart Supercenter","1621 E M 21","48867",42.999749834084746,-84.13898146527877
"48817","Corunna","MI","ALDI","1630 E M 21","48867",42.99745532924291,-84.13810501998589
"48817","Corunna","MI","Meijer","2591 E M-21","48817",43.0015965,-84.1154752
"48817","Corunna","MI","Save-A-Lot","115 W McArthur","48817",42.980641,-84.118219
"48820","Dewitt","MI","Meijer","12821 Cross Over Dr","48820",42.8290705,-84.5371038
"48820","Dewitt","MI","Wacousta General Store","13001-13257 S Wacousta Rd","48837",42.8271779533226,-84.70070174315894
"48820","Dewitt","MI","Terranova's","129 S Bridge St","48820",42.841665921502276,-84.56895027429958
"48822","Eagle","MI","Fabianos - Grocery & Deli","8949 W Grand River Hwy","48837",42.79038619995117,-84.70036315917969
"48823","East Lansing","MI","Meijer","1350 W Lake Lansing Rd","48823",42.76296499213269,-84.50040669771624
"48823","East Lansing","MI","Meijer","2055 W Grand River Ave","48864",42.71908368864989,-84.42466647939
"48823","East Lansing","MI","Kroger","1550 W Lake Lansing Rd","48823",42.7622324,-84.5051345
"48823","East Lansing","MI","Meijer","7157 E Saginaw St","48823",42.773912454822664,-84.41767394542694
"48823","East Lansing","MI","Whole Foods Market","2750 E. Grand River Avenue","48823",42.72801005972168,-84.4529601420188
"48823","East Lansing","MI","Fresh Thyme Farmers Market","940 Trowbridge Rd","48823",42.7205888,-84.4949403
"48823","East Lansing","MI","Kroger","4884 Marsh Rd","48864",42.7235315,-84.4128375
"48823","East Lansing","MI","Tom's Food Center","1619 W Grand River Ave","48864",42.71638584866516,-84.40748915513764
"48823","East Lansing","MI","Walmart","5110 Times Square Pl","48864",42.729008239568216,-84.40737292782728
"48823","East Lansing","MI","Sparty's Market At 1855 Place","not_available","48823",42.72836242486314,-84.49459606658945
"48823","East Lansing","MI","Oriental Mart","2800 W Grand River Ave","48823",42.72806629275831,-84.4547615392357
"48823","East Lansing","MI","Kroger","443 Mall Ct","48912",42.73852496589678,-84.50741932549136
"48823","East Lansing","MI","The Better Health Market","305 N Clippert St","48912",42.7366736399222,-84.50891190392291
"48823","East Lansing","MI","Gordon Food Service Store","1851 Newman Rd","48864",42.72230176194186,-84.41643383398839
"48823","East Lansing","MI","ALDI","5165 Marsh Rd","48864",42.73074424501778,-84.41291034221649
"48823","East Lansing","MI","Big Lots","2020 W Grand River Ave","48864",42.723314,-84.424187
"48823","East Lansing","MI","Meijer Express Gas Station","2055 W Grand River","48864",42.719088,-84.424662
"48823","East Lansing","MI","Lotte Market","2305 W Grand River Ave","48864",42.722681,-84.435766
"48823","East Lansing","MI","Better Asian Mart","909 Trowbridge Road","48823",42.71969,-84.494415
"48823","East Lansing","MI","Health Wellpreneurs Center","1982 W Grand River Ave","48864",42.72477,-84.41967
"48823","East Lansing","MI","East Lansing Food Co-op","4960 Northwind Dr","48823",42.72481736882177,-84.453076051319
"48823","East Lansing","MI","Swagath Foods Indian Cuisine & Grocery","1060 Trowbridge Rd #3","48823",42.72065196628548,-84.4974160194397
"48823","East Lansing","MI","Meridian Township Farmer's Market","5151 Marsh Rd","48864",42.728899509734354,-84.41560972528133
"48823","East Lansing","MI","The Village Market","16800 Chandler Rd","48823",42.77275645362201,-84.48510141113957
"48829","Edmore","MI","Jorgi's Supermarket","1111 E Main St","48829",43.408901,-85.030214
"48834","Fenwick","MI","Long Lake Market","2682 W Long Lake Rd,","48865",43.109275817871094,-85.12857818603516
"48836","Fowlerville","MI","Walmart Supercenter","970 Gehringer Dr","48836",42.6480047355456,-84.07706875297865
"48836","Fowlerville","MI","Save on Family Foods","305 Grand River","48836",42.66076431206626,-84.07285970889524
"48836","Fowlerville","MI","Curtis Grocery","130 S Grand St","48836",42.65984606128677,-84.07341182375858
"48837","Grand Ledge","MI","Meijer","730 E Saginaw Hwy","48837",42.7381646,-84.7415765
"48837","Grand Ledge","MI","Walmart Supercenter","409 N Marketplace Blvd","48917",42.73803592312449,-84.67536418481455
"48838","Greenville","MI","Meijer","606 S Greenville West Dr","48838",43.17449318310055,-85.27724953011784
"48838","Greenville","MI","Walmart Supercenter","10772 W Carson City Rd","48838",43.17944459,-85.29016302
"48838","Greenville","MI","Turk Lake Market","2023 S Greenville Rd","48838",43.26452661653649,-85.25658309459686
"48838","Greenville","MI","Jorgensen's Supermarket","M 57","48838",43.17671,-85.273941
"48842","Holt","MI","Kroger","2495 Cedar St","48842",42.6543058,-84.5343219
"48842","Holt","MI","Meijer","6200 S Pennsylvania Ave","48911",42.6684185,-84.5411038
"48842","Holt","MI","Gordon Food Service Store","454 E Edgewood Blvd","48911",42.663700929900415,-84.5454490184784
"48842","Holt","MI","ALDI","6555 Pennsylvania Ave","48911",42.661858730938015,-84.537633061409
"48842","Holt","MI","L & L Food Center","2380 Cedar St.","48842",42.651455,-84.527044
"48843","Howell","MI","Meijer","3883 E Grand River Ave","48843",42.5905825,-83.8768031
"48843","Howell","MI","Walmart Supercenter","3850 E Grand River Ave","48843",42.58564923,-83.87702424
"48843","Howell","MI","Kroger","108 W Highland Rd","48843",42.6240108,-83.927631
"48843","Howell","MI","ALDI","2260 E Grand River Ave","48843",42.59903551251018,-83.90918344259262
"48843","Howell","MI","VG's Grocery","2400 West Grand River Avenue","48843",42.61637615158445,-83.96124016721438
"48846","Ionia","MI","Meijer","2770 S State Rd","48846",42.9459798,-85.0775678
"48846","Ionia","MI","Walmart Supercenter","152 W Sprague Rd","48846",42.942953646378726,-85.07778975366483
"48846","Ionia","MI","Muir Village Market","278 Maple St","48860",43.001807954494566,-84.94384173900359
"48846","Ionia","MI","Supermercado","325 W Main St","48846",42.98213195800781,-85.06678771972656
"48846","Ionia","MI","ALDI","3065 S State Rd","48846",42.942355,-85.073982
"48847","Ithaca","MI","Save-A-Lot","210 Dilts Rd","48847",43.289344,-84.588487
"48847","Ithaca","MI","Ric's Food Center","1006 E. Center Road","48847",43.290182,-84.592086
"48848","Laingsburg","MI","Sunoco","9978 Round Lake Rd","48848",42.888574,-84.36515491666667
"48848","Laingsburg","MI","Mark's Food Pride","7400 Woodbury Rd","48848",42.88486099243164,-84.34107208251953
"48849","Lake Odessa","MI","Carl's Market","838 4th Ave","48849",42.780698352975634,-85.1377657710375
"48849","Lake Odessa","MI","Publix","12500 SR 55","33556",42.807045,-85.074684
"48849","Lake Odessa","MI","Will's IGA","8570 w grand ledge hwy","48890",42.75595308333333,-85.00717616666667
"48850","Lakeview","MI","Kings Trading Post","8493 5 Mile Rd","49332",43.539559000000004,-85.25393299999999
"48850","Lakeview","MI","Leppink's Food Center","9700 N Greenville Rd","48850",43.434457358411755,-85.26458144187927
"48854","Mason","MI","Meijer","550 Hull Rd","48854",42.5661827,-84.4450884
"48854","Mason","MI","La Frontera","5721 Valencia Blvd","48911",42.67446517944336,-84.57785034179688
"48854","Mason","MI","American International Bulk Food","6016 S Pennsylvania Ave","48911",42.670269,-84.53859
"48856","Middleton","MI","Curtis Grocery","116 S Newton St","48856",43.182037,-84.70910699999999
"48857","Morrice","MI","Synders IGA","520 N Main","48872",42.83051321191684,-84.21867845068884
"48858","Mount Pleasant","MI","Walmart Supercenter","4730 Encore Blvd","48858",43.57288878505642,-84.75999015392266
"48858","Mount Pleasant","MI","Ric's Food Center","705 S Mission St","48858",43.59789921977955,-84.76722387098535
"48858","Mount Pleasant","MI","Meijer","1015 E Pickard St","48858",43.6135427,-84.7646499
"48858","Mount Pleasant","MI","ALDI","4512 E Bluegrass Rd","48858",43.574733999014214,-84.75681413491816
"48858","Mount Pleasant","MI","GreenTree Cooperative Grocery","214 N Franklin St","48858",43.60569983838115,-84.774223026504
"48858","Mount Pleasant","MI","Kroger","4080 E Blue Grass Rd","48858",43.5722604,-84.7648576
"48858","Mount Pleasant","MI","Northside Market","250 W Bellows St","48858",43.592018316047884,-84.7782015857121
"48858","Mount Pleasant","MI","Gordon Food Service Store","1706 S Mission St","48858",43.58561487623568,-84.7680642861536
"48858","Mount Pleasant","MI","Shepherd IGA","520 E Wright Ave","48883",43.52396011352539,-84.68025970458984
"48858","Mount Pleasant","MI","Save A Lot","1721 s. mission","48858",43.58489990234375,-84.76651000976562
"48860","Muir","MI","woods deli","not_available","48873",43.002665648033016,-84.84650727274166
"48861","Mulliken","MI","Mulliken Thriftway","95 W Grand Ledge Hwy","48861",42.755772971737976,-84.89668744649748
"48866","Ovid","MI","Village Food Pride","Main Street","48866",43.001837668363905,-84.37134014870617
"48867","Owosso","MI","VG's Grocery","1341 North Michigan 52","48867-1232",43.014014821449486,-84.17800282796694
"48867","Owosso","MI","Kroger","1315 E M 21","48867",42.9997468,-84.1473061
"48867","Owosso","MI","H & H Grocery","not_available","48867",42.99700140953064,-84.1789036989212
"48867","Owosso","MI","Bannan's Foodland","632 N Shiawassee St","48867",43.00422286987305,-84.1765365600586
"48875","Portland","MI","Tom's Food Center","1462 E Grand River Ave","48875",42.86224045216629,-84.88782665535796
"48879","Saint Johns","MI","Kroger","900 S US Highway 27","48879",42.9923841,-84.5487423
"48879","Saint Johns","MI","Walmart Supercenter","1165 Superior Dr","48879",42.978785375588366,-84.53913554952746
"48879","Saint Johns","MI","Save-A-Lot","1701 Technical Dr","48879",43.02164840698242,-84.55597686767578
"48884","Sheridan","MI","Village Market","not_available","48884",43.2058988475109,-85.07309530302257
"48888","Stanton","MI","Leppink's Food Center","214 W Main St","48888",43.29214347281684,-85.07968297828836
"48888","Stanton","MI","Save-A-Lot","215 N State St","48888",43.29425040412115,-85.08538569738646
"48891","Vestaburg","MI","A J's Meat Market","8950 E Howard City Edmore Rd","48891",43.4077262878418,-84.90613555908203
"48895","Williamston","MI","D&W Fresh Market","151 W. Grand River","48895",42.68828511824594,-84.28473238057362
"48906","Lansing","MI","Horrock's Farm Market","7420 W Saginaw Hwy","48917",42.74154583675004,-84.66159094259044
"48906","Lansing","MI","Meijer","5125 W Saginaw Hwy","48917",42.7390732,-84.6239379
"48906","Lansing","MI","Kroger","6430 W Saginaw Hwy","48917",42.7422556,-84.6437886
"48906","Lansing","MI","Westlund's Apple Market","2301 E Grand River Ave","48912",42.743715110780784,-84.5183328788464
"48906","Lansing","MI","Walmart","3225 Towne Centre Blvd","48912",42.765586844905314,-84.5214194398634
"48906","Lansing","MI","ALDI","5625 W Saginaw Hwy","48917",42.73874836925695,-84.6302974957008
"48906","Lansing","MI","Lansing City Market","325 City Market Dr","48912",42.73567082929489,-84.54809591301351
"48906","Lansing","MI","L & L Food Center","3800 W Saginaw St","48917",42.74239730834961,-84.60169219970703
"48906","Lansing","MI","Eric's Market","838 N Pennsylvania Ave","48906",42.743451,-84.53753626
"48906","Lansing","MI","Vallarta Supermarket","312 W Willow St","48906",42.74891662597656,-84.55618286132812
"48906","Lansing","MI","Gorman's Food Market","2800 N Grand River Ave","48906",42.761841,-84.571018
"48906","Lansing","MI","Supermarcado La Estrella","2604 N East St","48906",42.76060787389652,-84.54249332317498
"48906","Lansing","MI","Valueland","Saginaw","48917",42.73788884460327,-84.55969307166922
"48906","Lansing","MI","Nature's Kyoor","4421 B West Saginaw Highway","48917",42.7405574,-84.6123842
"48910","Lansing","MI","Valu Land","1609 W. Mt. Hope Ave.","not_available",42.71156439452928,-84.57407819693194
"48910","Lansing","MI","Kroger","921 W Holmes Rd","48910",42.6949886,-84.564957
"48910","Lansing","MI","Great Giant Supermarket","3222 Martin Luther King Jr Blvd.","48910",42.69907760620117,-84.57025146484375
"48910","Lansing","MI","Corner Market","1300 E Malcolm X St","48912",42.725521087646484,-84.53272247314453
"48910","Lansing","MI","L&L Food Center","5016 S Martin Luther King Jr Blvd","48910",42.68388366699219,-84.56880950927734
"48910","Lansing","MI","1910 Meat Market","2203 W Holmes Rd","48911",42.69735644846582,-84.58250905979556
"48911","Lansing","MI","Cozy Food Mart","3280 S Waverly Rd","48911",42.699258,-84.60346
"48912","Lansing","MI","Jerusalem Bakery","1456 E Michigan Ave","48912",42.733318,-84.528803
"48912","Lansing","MI","Michigan Mart","1825 E Michigan Ave","48912",42.733806220233326,-84.52411726957877
"49001","Kalamazoo","MI","Meijer","5121 S Westnedge Ave","49002",42.242489979329726,-85.58726191520691
"49001","Kalamazoo","MI","Harding's Friendly Market","1000 E Cork St","49001",42.25924452981859,-85.56851722053581
"49001","Kalamazoo","MI","Pacific Rim Foods","229 W Kilgore Rd","not_available",42.244862,-85.587378
"49001","Kalamazoo","MI","Pacific Rim Foods","229 W Kilgore Rd","49002",42.24482506769273,-85.58710098266602
"49001","Kalamazoo","MI","Town & Country Supermarket","1824 Portage St","49001",42.27376691034565,-85.57186858852118
"49001","Kalamazoo","MI","United Wholesale","not_available","49001",42.26785156900054,-85.53565596293087
"49002","Portage","MI","Meijer","4500 S Hurstbourne Pkwy","49024",42.18877,-85.6039036
"49002","Portage","MI","Walmart Supercenter","8350 Shaver Rd","49024",42.194905165377904,-85.59946492074825
"49002","Portage","MI","Harding's Marketplace","6330 S Westnedge Ave","49002",42.22335329597847,-85.59204697608948
"49002","Portage","MI","ALDI","6291 S Westnedge Ave","49002",42.226054842786674,-85.58687544840723
"49002","Portage","MI","Fresh Thyme Farmers Market","6212 S Westnedge Ave","49002",42.2266825,-85.5916769
"49002","Portage","MI","Big Lots","6207 S Westnedge Ave","49002",42.226749420166016,-85.58782196044922
"49002","Portage","MI","Gordon Food Service Store","7421 S Westnedge Ave","49002",42.20973635015267,-85.58908530376688
"49002","Portage","MI","World Of Spices","5911 S Westnedge Ave","49002",42.23122633271949,-85.58907508850098
"49002","Portage","MI","Earth Fare","5070 S Westnedge Ave","49002",42.24415868510191,-85.59143323866931
"49002","Portage","MI","H&B Market","9113 Portage Rd","49002",42.18496804910565,-85.56285717297986
"49002","Portage","MI","Lakeshore Fresh Market","9119 S Sprinkle Rd","49002",42.18513277249231,-85.53961199485202
"49004","Kalamazoo","MI","Meijer","5800 Gull Rd","49048",42.3232599,-85.5156319
"49004","Kalamazoo","MI","Walmart Supercenter","6065 Gull Rd","49048",42.331651970848824,-85.51049817149207
"49004","Kalamazoo","MI","ALDI","3720 Gull Rd","49048",42.31683,-85.5341668
"49004","Kalamazoo","MI","Harding's Friendly Market","618 N Riverview Dr","49004",42.331919785271495,-85.56555381872863
"49004","Kalamazoo","MI","Lesman's Market","119 E Paterson St","49007",42.303489775166824,-85.58359208481022
"49004","Kalamazoo","MI","Save-A-Lot","806 Shoppers Lane","49004",42.31880271141368,-85.57184660659149
"49006","Kalamazoo","MI","Harding's Marketplace","5161 W Main St","49009",42.29361150177045,-85.65046464273028
"49006","Kalamazoo","MI","D&W Fresh Market","2103 Parkview Ave.","49008",42.25947494981417,-85.61467280713146
"49006","Kalamazoo","MI","Trader Joe's","5099 Century Ave","49006",42.270139276596566,-85.6500868143915
"49006","Kalamazoo","MI","ALDI","5317 W Main St","49009",42.2955856,-85.6542744
"49006","Kalamazoo","MI","Save-A-Lot","4404 Stadium Dr","49008",42.2716319749265,-85.64428897265037
"49006","Kalamazoo","MI","Gordon Food Service Store","827 N Drake Rd","49006",42.299587473679814,-85.64944624900818
"49006","Kalamazoo","MI","Sawall Health Foods","2965 Oakland Dr","49008",42.261583312220516,-85.61202489007638
"49006","Kalamazoo","MI","Asifiwe Super Market","1923 W Main St","49006",42.294297,-85.613138
"49007","Kalamazoo","MI","Park Street Market","512 N Park St","49007",42.296201586772554,-85.58708405375614
"49007","Kalamazoo","MI","People's Food Co-Op","507 Harrison St","49007",42.29615219785512,-85.57498662492128
"49009","Kalamazoo","MI","Meijer","6660 W Main St","49009",42.29869076339421,-85.67942798137665
"49009","Kalamazoo","MI","Walmart Grocery Pickup and Delivery","501 N 9th St","49009",42.29262161254883,-85.6850357055664
"49009","Kalamazoo","MI","Wagoner's","24064 W McGillen Ave","49071",42.21577548346945,-85.78563345622183
"49009","Kalamazoo","MI","Harding's Woodbridge Market","3750 W Centre Ave","49024",42.19834041893177,-85.63458750755771
"49009","Kalamazoo","MI","Harding's Friendly Market","6430 Stadium Dr","49009",42.2603639997653,-85.67683081954988
"49010","Allegan","MI","Village Market","100 Monroe St","49010",42.53109688956274,-85.84919076797567
"49010","Allegan","MI","Save-A-Lot","1236 Lincoln Rd","49010",42.508743350018094,-85.8162208977715
"49010","Allegan","MI","Grocery Outlet","400 Water St","49010",42.52880419968698,-85.84864050149918
"49011","Athens","MI","Elliott's One-Stop Grocery","106 W Burr Oak","49011",42.08829385815262,-85.23623880135843
"49013","Bangor","MI","Harding's Friendly Market","14 W Monroe St","49013",42.31306872025886,-86.1101956139195
"49013","Bangor","MI","Breedsville General Store","10 E Main St","49027",42.346420838322544,-86.07224822044373
"49014","Battle Creek","MI","Meijer","6405 B Dr N","49014",42.263320043491916,-85.172678232193
"49014","Battle Creek","MI","Meijer","6405 B Drive North","49014",42.2632887,-85.1728858
"49014","Battle Creek","MI","Walmart Supercenter","6020 B Dr N","49014",42.25781738221582,-85.1771628856659
"49014","Battle Creek","MI","Horrock's","235 Capital Ave SW","49037",42.314698277083075,-85.1888207766253
"49014","Battle Creek","MI","Main Street Market","540 Main St","49014",42.30177791817912,-85.17007948882963
"49014","Battle Creek","MI","BC VapingApe","668 Capital Ave SW","49015",42.30329895019531,-85.20003509521484
"49014","Battle Creek","MI","Family Fare Supermarket","1603 Capital NE","49017",42.3459545,-85.155552
"49014","Battle Creek","MI","Bailey Park Thriftway","1391 Capital Ave NE","49017",42.34136348614895,-85.15476674515374
"49014","Battle Creek","MI","Save-A-Lot","250 E Roosevelt Ave","49037",42.338890331628676,-85.18238410125
"49014","Battle Creek","MI","Save A Lot","250 Roosevelt Ave E","49037",42.3387932,-85.182536
"49014","Battle Creek","MI","nina market","282 E Michigan","49014",42.313392477022575,-85.1910262395373
"49014","Battle Creek","MI","Penny Pinchers","1346 Columbia Ave W","49015",42.302155,-85.16378
"49014","Battle Creek","MI","ALDI","870 Columbia Ave W","49015",42.29898467096164,-85.21526075389374
"49015","Battle Creek","MI","Meijer","2191 Columbia Ave W","49015",42.294548,-85.2358842
"49015","Battle Creek","MI","Grace Asian Grocery","Columbia st","49015",42.297577,-85.23249
"49015","Battle Creek","MI","M&M Food Mart","1004 Goguac St W","49015",42.31215594455279,-85.22303938865662
"49022","Benton Harbor","MI","Meijer","1920 Pipestone Rd","49022",42.0827811,-86.4215582
"49022","Benton Harbor","MI","Walmart Supercenter","1400 Mall Dr","49022",42.07724349200159,-86.42487041236492
"49022","Benton Harbor","MI","Harding's Friendly Market","6577 Paw Paw Ave","49038",42.19419651134687,-86.29864437503113
"49022","Benton Harbor","MI","Aldi's","1700 Pipestone Rd","49022",42.08725551572848,-86.42109632492065
"49022","Benton Harbor","MI","La Perla Produce","1231 Pipestone Rd","49022",42.09594721662663,-86.43208771314953
"49022","Benton Harbor","MI","Gordon Food Service Store","1350 Mall Dr","49022",42.07935771951485,-86.42396909144583
"49022","Benton Harbor","MI","La Perla","not_available","49022",42.093544,-86.262212
"49022","Benton Harbor","MI","Save A Lot","1630 S M-139","49022",42.08873748779297,-86.43651580810547
"49022","Benton Harbor","MI","Save-A-Lot","1630 M 139","49022",42.08879852294922,-86.43731689453125
"49022","Benton Harbor","MI","Red & White Grocery & Feed Store","4725 Territorial Rd","49022",42.12329624001629,-86.34287702783206
"49022","Benton Harbor","MI","Papa's Scotts Market","415 N Main St","49098",42.190608978271484,-86.26039123535156
"49026","Bloomingdale","MI","Wagoner's Grocery","110 N Van Buren St","49026",42.38336181640625,-85.9583740234375
"49028","Bronson","MI","Discount Foods Of Bronson","not_available","49028",41.870135,-85.20666
"49030","Burr Oak","MI","Meijer","408 W South St","49091",41.786641046175056,-85.42449474334717
"49030","Burr Oak","MI","Walmart Supercenter","1500 S Centerville Rd","49091",41.783905070936434,-85.4252564907074
"49030","Burr Oak","MI","Kroger","811 S Centerville Rd","49091",41.7899983,-85.4306364
"49030","Burr Oak","MI","Marathon","27010 Fawn River Road","49091",41.781501995519555,-85.42774026254023
"49030","Burr Oak","MI","La Esperanza Food Market","not_available","49091",41.801614440921945,-85.42859799547863
"49031","Cassopolis","MI","Save-A-Lot","609 North Front St","49047",41.99211502,-86.10805511
"49031","Cassopolis","MI","Save A Lot","609 N Front St","49047",41.9920633,-86.1081366
"49031","Cassopolis","MI","Harding's Friendly Market","102 Park Pl","49047",41.980753184922136,-86.11015334056027
"49031","Cassopolis","MI","Harding's Fresh Xpress","68977 M-62","49112",41.797008944883956,-86.07859273548537
"49031","Cassopolis","MI","Harding's Friendly Market","445 E State St","49031",41.91221798018375,-86.00811123847961
"49032","Centreville","MI","Millers Discount Store","24029 Truckenmiller Rd","49032",41.925785064697266,-85.48722076416016
"49034","Climax","MI","Sinclair's Market","14377 E On Ave","49034",42.23852198924962,-85.34720306658458
"49036","Coldwater","MI","Meijer","620 E Chicago Rd","49036",41.9375552,-84.9595567
"49036","Coldwater","MI","Walmart Supercenter","800 E Chicago St","49036",41.93427515,-84.96786875
"49036","Coldwater","MI","ALDI","811 E Chicago St","49036",41.93596217373798,-84.96654510498047
"49040","Colon","MI","Village Market","32360-33098 W M 86","49040",41.95669751690432,-85.33414947377821
"49045","Decatur","MI","The Little Store on the Prairie","not_available","49045",42.0639609400145,-85.93607629148815
"49045","Decatur","MI","Village Market","108 E Delaware St","49045",42.10595151819185,-85.97031266774349
"49048","Kalamazoo","MI","Harding's Friendly Market","2626 E Main St","49048",42.30295851659825,-85.54674082610946
"49048","Kalamazoo","MI","Harding's Market","54 W Michigan Ave","49053",42.28911973984146,-85.41892821610266
"49048","Kalamazoo","MI","Story's Grocery","7525 E N Ave","49048",42.24512523679443,-85.48195415921964
"49050","Dowling","MI","Dowling Corner Store","8975 S M 37 Hwy","49050",42.522658339549494,-85.25360786734603
"49053","Galesburg","MI","Peoples Co-op Harrison St Kalamaoo","not_available","49053",42.28975,-85.412579
"49055","Gobles","MI","Village Market","407 S State St","49055",42.35547570710373,-85.87779879570007
"49055","Gobles","MI","Gobles Grocery","102 South State St.","49055",42.360774993896484,-85.87932586669922
"49056","Grand Junction","MI","Frys","Baseline and 51st","not_available",42.418901,-86.043362
"49057","Hartford","MI","Harding's Friendly Market","10 N Center St","49057",42.207588382862674,-86.16597533226013
"49057","Hartford","MI","El Supermacado","not_available","49057",42.2076692965836,-86.15691133096372
"49058","Hastings","MI","Walmart Supercenter","1618 W M 43 Hwy","49058",42.647884759730005,-85.31973242867403
"49058","Hastings","MI","Tom's Meat Market","241 E State Rd","49058",42.65371154123614,-85.28495811628198
"49058","Hastings","MI","Save-A-Lot","1670 W M 43 Hwy","49058",42.64659546623685,-85.3216177207052
"49058","Hastings","MI","ALDI","1455 W State St","49058",42.64909201541263,-85.3067216277123
"49058","Hastings","MI","Save-A-Lot","not_available","49058",42.64638528333508,-85.29141561474893
"49058","Hastings","MI","Save-A-Lot","1670 W M43","49058",42.66249847,-85.34583282
"49064","Lawrence","MI","Walt & Maries Kountry Kitchen","44947 W Red Arrow Hwy","49079",42.2096625201211,-85.98515152931213
"49065","Lawton","MI","Wagoner's","101 N Main St","49065",42.16769790649414,-85.85001373291016
"49068","Marshall","MI","Save A Lot","106 Redfield Plz","49068",42.27119466783864,-84.9756830779672
"49068","Marshall","MI","Save-A-Lot","106 Redfield Plaza","49068",42.2658844,-84.95422363
"49070","Martin","MI","Hidden Ridge RV Resort Store & Snack Bar","2306 12th St","49328",42.58431917485772,-85.66940621097564
"49073","Nashville","MI","Bears Den Party Store","637 S Main St","49073",42.59638214111328,-85.0936508178711
"49073","Nashville","MI","Carl's Supermarket","999 Reed St","49073",42.607208251953125,-85.07953643798828
"49078","Otsego","MI","Meijer","1195 M-89","49080",42.45230964072518,-85.66018581390375
"49078","Otsego","MI","Walmart Supercenter","412 Oaks Xing","49080",42.44794768573996,-85.67262053489685
"49078","Otsego","MI","Natural Way","not_available","49078",42.46108,-85.697514
"49078","Otsego","MI","ALDI","1323 M 89","49080",42.45057810342737,-85.67280671219123
"49079","Paw Paw","MI","Walmart Supercenter","1013 South Kalamazoo Street","49079",42.20634841918945,-85.87980651855469
"49079","Paw Paw","MI","Walmart Neighborhood Market","6670 Mobile Highway","32526",42.206218529267666,-85.8798772277247
"49079","Paw Paw","MI","Walmart Grocery Pickup and Delivery","1013 S Kalamazoo St","49079",42.20634841918945,-85.87980651855469
"49079","Paw Paw","MI","Save-A-Lot","307 E Michigan Ave","49079",42.218025926628194,-85.88854908943176
"49080","Plainwell","MI","Pine Lake Grocery Store","942 Doster Rd","49080",42.490058544000114,-85.54371452887418
"49080","Plainwell","MI","Harding's Friendly Market","533 Allegan St","49080",42.44632473929457,-85.65086245536804
"49080","Plainwell","MI","Doster Country Store","10 106th Ave","49080",42.46506891254235,-85.54362886478776
"49080","Plainwell","MI","Eastside Grocery","519 E Bridge St","49080",42.44300350563397,-85.63388139009476
"49083","Richland","MI","Harding's Friendly Market","8900 Gull Rd","49083",42.37543387204083,-85.45676775087276
"49085","Saint Joseph","MI","Meijer","5019 Red Arrow Hwy","49127",42.0262862,-86.5160359
"49085","Saint Joseph","MI","Roger's Foodland","4039 Hollywood Rd","49085",42.044954,-86.453475
"49085","Saint Joseph","MI","Harding's Friendly Market","2644 Niles Ave.","49085",42.08383184200402,-86.485928333752
"49087","Schoolcraft","MI","Harding's Fresh Xpress","139 S Grand St.","49087",42.11496588739429,-85.63768794511356
"49090","South Haven","MI","Meijer","1223 Phoenix St","49090",42.4053854,-86.2561529
"49090","South Haven","MI","Walmart Supercenter","201 73rd St","49090",42.40641078345724,-86.24742848798633
"49090","South Haven","MI","ALDI","04353 73rd St","49090",42.401637622925925,-86.2496922723949
"49090","South Haven","MI","Save-A-Lot","237 Broadway St","49090",42.40498733520508,-86.27066040039062
"49093","Three Rivers","MI","Meijer","800 S US Highway 131","49093",41.9340109,-85.6549459
"49093","Three Rivers","MI","Walmart Supercenter","101 S Tolbert Dr","49093",41.94182402,-85.65574408
"49093","Three Rivers","MI","Meijer","800 US 131","49093",41.9336811,-85.653927
"49093","Three Rivers","MI","ALDI","1220 W Broadway St","49093",41.932055454102844,-85.64971167334988
"49093","Three Rivers","MI","Hoffman Street Grocery","115 W Hoffman St","49093",41.95491928333333,-85.63566833333333
"49093","Three Rivers","MI","Harding's Fresh Xpress","808 W Michigan Ave","49093",41.94229989000045,-85.64228602530794
"49093","Three Rivers","MI","Abarrotes Sin Limite","not_available","49093",41.92923,-85.63928
"49096","Vermontville","MI","Amish Grocery","not_available","49096",42.567356,-85.014
"49097","Vicksburg","MI","Stubbys Jerky","115 N Davis St","49097",42.12069444889729,-85.52950127691635
"49099","White Pigeon","MI","Wagoner's","350 W Chicago Rd","49099",41.798347,-85.647674
"49101","Baroda","MI","CJ's Quick Mart","1169 Lemon Creek Rd","49101",41.95763397216797,-86.48524475097656
"49103","Berrien Springs","MI","Apple Valley Natural Foods","9067 US Highway 31","49103",41.955228620317556,-86.35453006941242
"49103","Berrien Springs","MI","Harding's Friendly Market","106 E Mars St","49103",41.94804220456342,-86.33743596117066
"49103","Berrien Springs","MI","R&S Supermarket","9513 Old U.S. 31","49103",41.94805145263672,-86.3273696899414
"49103","Berrien Springs","MI","Mabuhay Ethnic Foods","111 N Cass St","49103",41.94577905072582,-86.33914777383305
"49106","Bridgman","MI","Harding's Friendly Market","3651 Shawnee Rd","49106",41.943868785583405,-86.54219020853672
"49107","Buchanan","MI","Harding's Market","4710 Niles Buchanan Rd","49107",41.826474272586246,-86.34490036499304
"49116","Lakeside","MI","Flagship Specialty Foods & Fish Market","14939 Red Arrow Hwy","49116",41.848846435546875,-86.66767883300781
"49117","New Buffalo","MI","Barney's Market","10 N Thompson St","49117",41.79491800211716,-86.74303526098771
"49117","New Buffalo","MI","Union Pier Market","9905 Town Line Rd.","49129",41.82835020143583,-86.69257342815399
"49120","Niles","MI","Walmart Supercenter","2107 S 11th St","49120",41.78983018,-86.24768037
"49120","Niles","MI","Harding's Friendly Market","407 Broadway St","49120",41.828375355483324,-86.2543230695669
"49120","Niles","MI","The Pop Shop","50510 Indiana State Route 933","46637",41.760033306396494,-86.25064078952563
"49128","Three Oaks","MI","Harding's Friendly Market","6832 US Highway 12","49128",41.7982660946734,-86.61837429155277
"49129","Union Pier","MI","Whistle Stop","15700 Red Arrow Hwy","49129",41.835120592838294,-86.68410371352579
"49201","Jackson","MI","Meijer","3333 E Michigan Ave","49202",42.2557711,-84.3596982
"49201","Jackson","MI","Meijer","2777 Airport Rd","49202",42.2714549,-84.4496239
"49201","Jackson","MI","Walmart Supercenter","1700 W Michigan Ave","49202",42.24837519,-84.43439484
"49201","Jackson","MI","Polly's (Ferguson)","2119 Ferguson Road","49203",42.19766632102795,-84.44004487303134
"49201","Jackson","MI","Polly's (Spring Arbor Rd)","1821 Spring Arbor Rd","49203",42.23798460466814,-84.43581987647755
"49201","Jackson","MI","Kroger","1100 W Argyle St","49202",42.2635734,-84.4266712
"49201","Jackson","MI","ALDI","1100 W North St","49202",42.2594767,-84.4269178
"49201","Jackson","MI","A&A II","2422 Page Ave","49203",42.240813165720716,-84.3738338176373
"49201","Jackson","MI","Gordon Food Service Store","1507 Boardman Rd","49202",42.26812356151406,-84.43322539329529
"49201","Jackson","MI","Hutch's Food Center","not_available","49283",42.207291619016814,-84.54166725856392
"49201","Jackson","MI","Franks Shop Rite","402 E Michigan Ave","49201",42.24875639876684,-84.21948552131653
"49201","Jackson","MI","Polly's (VCL)","not_available","49203",42.195644030843695,-84.3999846916214
"49201","Jackson","MI","Save-A-Lot","3525 Oneil Dr","49202",42.265894944864186,-84.456788
"49201","Jackson","MI","Polly's Country Market","1210 W Parnall Rd","49201",42.29184108326037,-84.4087985505834
"49201","Jackson","MI","Save-A-Lot","3525 O'Neil Dr","49202",42.24586868,-84.4013443
"49201","Jackson","MI","Kroger","3021 E Michigan Ave","49202",42.25404970334702,-84.36617286519322
"49201","Jackson","MI","Borchard Brothers Market","8100 Napoleon Rd","49261",42.16999931144926,-84.26388971326165
"49201","Jackson","MI","Mor For Less Food Store","3152 E Michigan Ave","49202",42.25675964355469,-84.36298370361328
"49201","Jackson","MI","Frank's Finer Food","418 1st St","49201",42.244041442871094,-84.4151611328125
"49220","Addison","MI","Jerry's Market(Formerly Tibbs Bros IGA)","1235 Elm St","49253",41.96902847290039,-84.30447387695312
"49221","Adrian","MI","Meijer","217 E US Highway 223","49221",41.87692825401248,-84.03595268726349
"49221","Adrian","MI","Walmart Supercenter","1601 E Us Highway 223","49221",41.873314025144566,-84.03099002625179
"49221","Adrian","MI","Country Market","1535 W Maumee St","49221",41.904483329698245,-84.0670163096746
"49221","Adrian","MI","S Main Country Market","1392 S Main St","49221",41.87724685668945,-84.04421997070312
"49221","Adrian","MI","ALDI","1427 E US Highway 223","49221",41.87385099,-84.03544307
"49221","Adrian","MI","Veronica's Market","not_available","49221",41.89005778094527,-84.01861416921552
"49221","Adrian","MI","Dicks Market","3369 N Adrian Hwy","49221",41.936104841271074,-84.00435066446026
"49221","Adrian","MI","ALDI","US 223","49221",41.874134466076306,-84.03522735051764
"49228","Blissfield","MI","Borchardt Brothers Market","628 W Adrian St","49228",41.83717106188352,-83.87748936166585
"49229","Britton","MI","Jerry's Market","109 Herrick Park Dr","49286",42.01261564275413,-83.9417259747016
"49229","Britton","MI","Macon Grocery","8160 Clinton Macon Rd","49236",42.06658181015307,-83.86868581181919
"49230","Brooklyn","MI","Country Market","11301 Brooklyn Rd","49230",42.096465864918756,-84.24656738972686
"49230","Brooklyn","MI","Borchardts Market","8901 Onsted Hwy","49265",42.01417541503906,-84.18846893310547
"49237","Concord","MI","Shannon's Food Market","101 N Main St","49237",42.1781616773524,-84.64498043060303
"49240","Grass Lake","MI","Hiller's","Grass Lake, MI","49240",42.29297916,-84.18087172
"49241","Hanover","MI","MiCannaDelivery.com - Michigan Cannabis Delivery","11990 Pulaski Rd","49241",42.086076,-84.642364
"49242","Hillsdale","MI","PS FOOD MART # 3002","27 Carleton Road E","49242",41.924733776811756,-84.63439404747581
"49242","Hillsdale","MI","Walmart Supercenter","701 Olds St","49250",41.96492301749755,-84.6679805953488
"49242","Hillsdale","MI","Kroger","290 W Carleton Rd","49242",41.93244241250102,-84.64332282543182
"49242","Hillsdale","MI","Market House","210 W Carleton Rd","49242",41.92973938597532,-84.64234594882333
"49242","Hillsdale","MI","Save A Lot","2990 W Carleton Rd # M-99","49242",41.941314824672055,-84.64985631087886
"49242","Hillsdale","MI","Hillsdale Natural Grocery","31 N Broad St","49242",41.921015999999995,-84.630843
"49246","Horton","MI","Jerome Country Market","8663 Jerome Rd","49249",42.05519847307862,-84.47891571202669
"49247","Hudson","MI","Bob's market house","not_available","49247",41.855355857629945,-84.35728852200499
"49247","Hudson","MI","Hudson Market House","325 Railroad St","49247",41.855821,-84.357327
"49251","Leslie","MI","Valu Land","810 W Bellevue St","49251",42.451445484956636,-84.44115296497128
"49255","Montgomery","MI","village foods","120","46737",41.73066598100823,-84.91528860269163
"49255","Montgomery","MI","Fremont Village Foods","104 S Wayne St","46737",41.73025473,-84.933218
"49255","Montgomery","MI","Ahoprite","not_available","46737",41.717350006103516,-84.93582153320312
"49256","Morenci","MI","Borchardt Brothers Market","248 W Main St","49256",41.719745,-84.218863
"49285","Stockbridge","MI","Ransom's Grocery","1001 S Clinton St","49285",42.440843,-84.17899200000001
"49286","Tecumseh","MI","Busch's Grocery Store","1450 W Chicago Blvd","49286",42.00536378058971,-83.96833019954275
"49301","Ada","MI","Meijer","5531 28th St SE","49512",42.91601786348752,-85.53225517272949
"49301","Ada","MI","Target","5120 28th St SE","49512",42.908283554887234,-85.54139077175445
"49301","Ada","MI","Ada Fresh Market","444 Ada Dr SE","49301",42.955393,-85.483279
"49301","Ada","MI","Walmart Supercenter","5859 28th St Se","49546",42.91430191919339,-85.52152786428013
"49301","Ada","MI","D&W Fresh Market","6425 28th St., SE","49546",42.91386007077576,-85.50933530289885
"49301","Ada","MI","Forest Hills Foods","4668 Cascade Road Southeast","49546",42.94550421652505,-85.55449470119576
"49301","Ada","MI","ALDI","5114 28th St SE Ste B","49512",42.910911071029254,-85.54002757175829
"49301","Ada","MI","Gordon Food Service Store","5665 28th St SE","49546",42.913380852007016,-85.52771043342507
"49301","Ada","MI","Harvest Health Foods","6807 Cascade Rd SE","49546",42.91451491101525,-85.49969947953609
"49304","Baldwin","MI","Houseman's Foods","9559 S M 37","49304",43.849529710091815,-85.85180346864334
"49304","Baldwin","MI","Save-A-Lot","740 Denmark St","49304",43.90487286239956,-85.85232979959002
"49305","Barryton","MI","Hometown Grocery","not_available","49305",43.750274,-85.145865
"49306","Belmont","MI","Meijer","3757 Plainfield Ave NE","49525",43.0333605,-85.6277214
"49306","Belmont","MI","Ric's Food Center","6767 Belding Rd NE","49341",43.086957477960595,-85.50202022548658
"49306","Belmont","MI","Save-A-Lot","4180 Plainfield Ave NE","49525",43.037743837695054,-85.61050655272956
"49306","Belmont","MI","Family Fare Produce Department","not_available","49525",43.05717549377892,-85.58111541392331
"49307","Big Rapids","MI","Meijer","15400 Waldron Way","49307",43.69086647658423,-85.51693709210662
"49307","Big Rapids","MI","Walmart Supercenter","21400 Perry Ave","49307",43.690033,-85.5093
"49307","Big Rapids","MI","ALDI","21481 Perry Ave","49307",43.687287,-85.513462
"49315","Byron Center","MI","North Dorr General Store","not_available","49323",42.76788355366474,-85.76179593801498
"49315","Byron Center","MI","Save-A-Lot","6718 S Division","49548",42.841701610304476,-85.66300326066326
"49316","Caledonia","MI","Meijer","1801 Marketplace Dr SE","49316",42.84630781489659,-85.62037475104714
"49316","Caledonia","MI","Target","1925 Marketplace Dr SE","49316",42.845949181148214,-85.6153774736172
"49316","Caledonia","MI","Meijer Pharmacy","1801 Marketplace Dr","49316",42.8463128,-85.6195699
"49316","Caledonia","MI","D&W Fresh Market","9375 Cherry Valley Av SE","49316",42.79372234821485,-85.50814671494321
"49316","Caledonia","MI","D&W Grocery","In D&W Plaza","49316",42.793803893447766,-85.50802619206682
"49316","Caledonia","MI","Middleville Market Place","4650 N M-37 Hwy.","49333",42.720527084086086,-85.47103977765967
"49319","Cedar Springs","MI","Meijer","3700 17 Mile Rd. NE","49319",43.2172422,-85.5790581
"49319","Cedar Springs","MI","Save-A-Lot","14301 White Creek Ave NE","49319",43.22457842763505,-85.5722096734972
"49321","Comstock Park","MI","Walmart Supercenter","3999 Alpine Ave Nw","49321",43.036354200476794,-85.6934245441637
"49321","Comstock Park","MI","Gordon Food Service Store","4322 Alpine Ave NW","49321",43.041851427733114,-85.68890499177496
"49321","Comstock Park","MI","ALDI","4101 Alpine Ave NW","49321",43.03826971677224,-85.6909453868866
"49321","Comstock Park","MI","Butternut Bakery Thrift Store","740 Lamoreaux Dr NW","49321",43.042972564697266,-85.68830108642578
"49323","Dorr","MI","Dick's Market","1623 142nd Ave","49323",42.72616922956354,-85.70467829704285
"49325","Freeport","MI","Freeport General Store","223 Division St","49325",42.76617834322253,-85.31373023986816
"49327","Grant","MI","Gene's Family Market","33 E State Rd","49327",43.337037,-85.81012799999999
"49327","Grant","MI","Ashcroft Grocery","10450 S Warner Ave","49412",43.364951,-85.938605
"49329","Howard City","MI","Leppinks","730 W Shaw St","49329",43.39598451909155,-85.48053220829023
"49329","Howard City","MI","Whites Bargain House","222 Ensley St","49329",43.399158,-85.468243
"49330","Kent City","MI","Kent City Marketplace","380 W Muskegon St","49330",43.218955993652344,-85.76026916503906
"49331","Lowell","MI","Meijer","11901 Fulton St E","49331",42.93328605819275,-85.37457080217791
"49332","Mecosta","MI","Hixson’s Family Market","not_available","49346",43.59021934613464,-85.2855934412695
"49333","Middleville","MI","Sam's Gourmet Foods","11080 Gun Lake Rd","49333",42.615882736657454,-85.50627529621124
"49337","Newaygo","MI","Leppinks","193 W River Valley Dr","49337",43.40631414778697,-85.79967262626496
"49337","Newaygo","MI","Save-A-Lot","257 E 82nd St","49337",43.40542097055345,-85.79518843333284
"49337","Newaygo","MI","Gerber Store","not_available","49337",43.414249420166016,-85.8343276977539
"49337","Newaygo","MI","Hardy Grocery & General Store","7607 E 36th St","49337",43.49021,-85.611884
"49340","Remus","MI","Fate's Food Market","2566 9 Mile Rd","49340",43.59687447840566,-85.13697439874002
"49341","Rockford","MI","Meijer","2799 10 Mile Rd NE","49341",43.119899,-85.602302
"49345","Sparta","MI","Family Fare Supermarket","565 S. State St.","49345",43.14802944896054,-85.71159839630127
"49345","Sparta","MI","Riveridge Produce Marketing Inc.","9000 Fruit Ridge Ave NW","49345",43.128264,-85.768132
"49348","Wayland","MI","Acqua In Vino","129 S Main St","49348",42.673266074682196,-85.64292043447495
"49348","Wayland","MI","Harding's Friendly Market","300 Reno Dr","49348",42.67251052137594,-85.65741037959324
"49349","White Cloud","MI","Houseman's Foods","47 S Evergreen Dr.","49349",43.552701836108305,-85.77242520079899
"49401","Allendale","MI","Daily Deals Food Outlet","not_available","49401",42.97284,-85.908607
"49401","Allendale","MI","Goods to Go","10897 48th Ave Ste A-400","49401",42.96648025512695,-85.90773010253906
"49402","Branch","MI","Sweetfern Cafe & Emporium","7595 W 5 Mile Rd","49644",44.060970306396484,-85.95426177978516
"49406","Douglas","MI","Isabel’s Market + Eatery","310 Blue Star Hwy","49406",42.636461,-86.212755
"49406","Douglas","MI","DeMond's Super Valu","237 Center St","49406",42.643066553482356,-86.20637628470045
"49408","Fennville","MI","Wagoners Grocery","121 E Main St","49408",42.59441327816565,-86.10382854938507
"49412","Fremont","MI","Walmart Supercenter","7083 W 48th St","49412",43.46911678,-85.97578526
"49412","Fremont","MI","Bill's Shop N Save","921 W Main St","49412",43.46755814304602,-85.9605052673572
"49412","Fremont","MI","Restaurant Recycling Services LLC","616 Industrial Dr","49412",43.463392,-85.9763969
"49415","Fruitport","MI","Orchard Market","6420-6598 Airline Rd","49415",43.13337667945481,-86.15438580594385
"49417","Grand Haven","MI","Meijer","15000 US Highway 31","49417",43.0393833,-86.2176524
"49417","Grand Haven","MI","Walmart Supercenter","14700 Us Highway 31","49417",43.035577220774,-86.21684384407892
"49417","Grand Haven","MI","D&W Fresh Market","1116 Robbins Road","49417",43.0433586138137,-86.21433959182708
"49417","Grand Haven","MI","Meijer","15000 US 31","49417",43.0393256,-86.2175276
"49417","Grand Haven","MI","Orchard Market","17046 Lloyds Bayou Dr","49456",43.0772462360981,-86.17273895145286
"49417","Grand Haven","MI","Botello Grocery","15791 Lake Michigan Dr","49460",42.972462335589476,-86.17839932441711
"49418","Grandville","MI","Meijer","550 Baldwin St","49428",42.9045483,-85.7948448
"49418","Grandville","MI","Meijer","3434 Century Center St SW","49418",42.88027244016162,-85.74845937927141
"49418","Grandville","MI","Walmart Supercenter","4542 Kenowa Ave Sw","49418",42.88189600943181,-85.78061698542392
"49418","Grandville","MI","ALDI","302 Chicago Dr","49428",42.902913,-85.788386
"49418","Grandville","MI","Gordon Food Service Store","7434 Cottonwood Dr","49428",42.90398412733313,-85.79140807432549
"49418","Grandville","MI","ALDI","3269 Century Center Street","49418",42.88226549082743,-85.74499189853668
"49419","Hamilton","MI","Hamilton Food Center","3416 Lincoln Rd","49419",42.666894155288055,-85.99523450341592
"49419","Hamilton","MI","Family Fare Supermarket","1185 Washington Ave","49423",42.7563591003418,-86.11438751220703
"49419","Hamilton","MI","Family Fare Supermarket","1185 S. Washington","49423",42.7469472,-86.1157205
"49420","Hart","MI","Hansen Foods","3750 W Polk Rd","49420",43.68913221664508,-86.37148810471882
"49421","Hesperia","MI","Ed's Orchard Market","75 W Michigan Ave","49421",43.571878151255696,-86.04077624650694
"49423","Holland","MI","Meijer","746 E 16th St","49423",42.78185433910574,-86.07544755391885
"49423","Holland","MI","Ottawa Beach General Store","2256 Ottawa Beach Rd","49424",42.77570858149975,-86.20072489679461
"49423","Holland","MI","Central Park Market","1158 S Shore Dr","49423",42.7752826308947,-86.15716534699199
"49423","Holland","MI","ALDI","571 E 24th St","49423",42.77667271598495,-86.08179688453674
"49423","Holland","MI","Kellys Marketplace","25 W 9th St","49423",42.789642333984375,-86.10826873779297
"49423","Holland","MI","Asian Market","not_available","49424",42.80217691131643,-86.11427608026403
"49423","Holland","MI","Viet Store","not_available","49423",42.802368536129826,-86.11443662451967
"49423","Holland","MI","Huynh Market","143 Douglas Ave","49424",42.802286591105286,-86.11397272951757
"49423","Holland","MI","Sam's Groceries","154 E 14th St","49423",42.78418970165733,-86.10059382760186
"49423","Holland","MI","Nature's Market","1013 Washington Ave","49423",42.760970093556125,-86.11607726007855
"49423","Holland","MI","La Consentida Supermarket","676 Michigan Ave","49423",42.771882,-86.115042
"49423","Holland","MI","Save-A-Lot","661 E 24th St Ste 810","49423",42.777037,-86.07822
"49424","Holland","MI","Meijer","3320 W Shore Dr","49424",42.8289599,-86.0905589
"49424","Holland","MI","Walmart Supercenter","2629 N Park Dr","49424",42.8089015907646,-86.09062778148349
"49424","Holland","MI","Meijer Pharmacy","3320 West Shore Drive","49424",42.8286219,-86.0912252
"49424","Holland","MI","D&W Fresh Market","50 Douglas Ave.","49424",42.80301686631924,-86.10888933679387
"49424","Holland","MI","ALDI","12511 Felch St","49424",42.8200211,-86.0906818
"49424","Holland","MI","Gordon Food Service Store","12600 Felch St","49424",42.818754145160995,-86.09212756850123
"49424","Holland","MI","Apple Valley Natural Foods","3013 W Shore Dr #70","49424",42.823114000000004,-86.091133
"49424","Holland","MI","Fresh Market","50 Douglas Ave","49424",42.803260803222656,-86.10850524902344
"49424","Holland","MI","Santa Fe Mexican Supermarket","981 Butternut Dr","49424",42.828759558142515,-86.13584836572826
"49425","Holton","MI","Holton Food Market","8764 Holton Duck Lake Rd","49425",43.41305985923968,-86.07857823371887
"49425","Holton","MI","John's Market","5974-5978 Main St","49457",43.364043927472196,-86.16444349776184
"49426","Hudsonville","MI","Meijer","4075 32nd Ave","49426",42.8438928,-85.8620166
"49426","Hudsonville","MI","AJ's Grocery & Liquor","4676 32nd Ave","49426",42.860070356832985,-85.87141852964142
"49426","Hudsonville","MI","Morries Grocery Outlet","2410 Chicago Dr","49426",42.87972884111516,-85.84357591963891
"49431","Ludington","MI","Meijer","3900 W US Highway 10","49431",43.95864265541953,-86.37727442448522
"49431","Ludington","MI","Walmart Supercenter","4854 W Us Highway 10","49431",43.95757643858225,-86.40078726977777
"49431","Ludington","MI","Shop-N-Save Food Center","5539 W US Highway 10","49431",43.954280630866535,-86.41763801464765
"49431","Ludington","MI","Hamlin Grocery","3611 N Jebavy Dr","49431",44.02133759932896,-86.42035514859995
"49431","Ludington","MI","Biercamp Market","222 W. Ludington Ave.","49431",43.955765266997005,-86.45047248545725
"49431","Ludington","MI","ALDI","4833 W US Highway 10","49431",43.9547761,-86.3996163
"49431","Ludington","MI","Save-A-Lot","5660 US 10","49431",43.95776164997036,-86.42609596252441
"49431","Ludington","MI","Orchard Market","212 S Pere Marquette Hwy","49431",43.952886,-86.414679
"49436","Mears","MI","Hanson's","W. Polk Rd.","not_available",43.66760201195355,-86.48840356507368
"49437","Montague","MI","Walmart Supercenter","2755 Holton-whitehall Road","49461",43.40744467968504,-86.30992203914226
"49437","Montague","MI","Montague Foods","8718 Water St","49437",43.4167587,-86.3538755
"49437","Montague","MI","Save-A-Lot","3001 Colby Rd","49461",43.408604737002165,-86.31833064753624
"49437","Montague","MI","Walmart Grocery Pickup","2755 Holton-Whitehall Road","49461",43.40913009643555,-86.31006622314453
"49440","Muskegon","MI","Gov's","1157 3rd St","49441",43.231201171875,-86.24890899658203
"49441","Muskegon","MI","Meijer","700 W Norton Ave","49441",43.1926956,-86.2616285
"49441","Muskegon","MI","Walmart Supercenter","3285 Henry St","49441",43.19279856495576,-86.26642926735018
"49441","Muskegon","MI","ALDI","2715 Henry St","49441",43.202739882873075,-86.26514599488473
"49441","Muskegon","MI","Save-A-Lot","870 W Sherman Blvd","49441",43.205901205112966,-86.2650644971106
"49441","Muskegon","MI","La Michoacana","2780 Peck St","49444",43.201236724853516,-86.24437713623047
"49441","Muskegon","MI","KB's Corner Store","not_available","49442",43.22624711100049,-86.22455666736668
"49441","Muskegon","MI","Pic n pac","5187 Henry St","49441",43.158579536207476,-86.26477253997423
"49442","Muskegon","MI","Walmart Supercenter","1879 E Sherman Blvd","49444",43.20278247278003,-86.19790422910214
"49442","Muskegon","MI","Meijer","1800 Holton Rd","49445",43.2836682,-86.2209327
"49442","Muskegon","MI","Daily Deals","1755 E Sherman Blvd","49444",43.20413136616974,-86.20176405216695
"49442","Muskegon","MI","Plumbs Apple","898-938 Shonat St","49442",43.23536732956497,-86.20268120890685
"49442","Muskegon","MI","Wolf Lake Market","5421-5475 Apple Ave","49442",43.23348247690387,-86.11008692418822
"49442","Muskegon","MI","E&A Grocery","2190 S Mill Iron Rd","49442",43.21272160882344,-86.15436261474899
"49442","Muskegon","MI","Save-A-Lot","2550 E APPLE AVE","49442",43.2362770360957,-86.18312654853912
"49442","Muskegon","MI","Great Lakes Fresh Market","520 Whitehall Rd","49445",43.268356,-86.25176
"49444","Muskegon","MI","Meijer","5300 Harvey St","49444",43.15660794413822,-86.20190620422363
"49444","Muskegon","MI","ALDI","1760 E Sternberg Rd","49444",43.1546315,-86.2010801
"49444","Muskegon","MI","Mejers South Harvey","Harvey St","49456",43.15537093703368,-86.19585695843648
"49445","Muskegon","MI","LJ's Pantry","3720 W Giles Rd","49445",43.27898025512695,-86.33525848388672
"49445","Muskegon","MI","The White Duck Market","5333 Scenic Dr","49461",43.35574722290039,-86.41085052490234
"49449","Pentwater","MI","Cenzo's","40 6th St","49449",43.776393863555455,-86.43227027331555
"49451","Ravenna","MI","Ravenna Foods","12444 Crockery Creek Dr","49451",43.18806255428571,-85.93916773796082
"49456","Spring Lake","MI","Leppinks","17717 174th Ave","49456",43.09062868738178,-86.22176341365648
"49503","Grand Rapids","MI","Bridge St Market","405 Seward Ave NW","49504",42.97094157486118,-85.68309725307736
"49503","Grand Rapids","MI","D&W Fresh Market","1814 Breton Rd SE","49506",42.929984165131366,-85.60848131821454
"49503","Grand Rapids","MI","El Especial Supermarket","1628 Division Ave S","49507",42.9338020842727,-85.66697827300067
"49503","Grand Rapids","MI","D&W Fresh Market","2181 Wealthy St. SE","49506",42.951762388221084,-85.61455913092675
"49503","Grand Rapids","MI","Fresh Thyme Farmers Market","2470 Burton St SE","49546",42.9260288,-85.6061187
"49503","Grand Rapids","MI","Ralph's Food Market","655 Leonard St NW","49504",42.98534755701356,-85.68498600609507
"49503","Grand Rapids","MI","Cherry Hill Market","721 Cherry St SE","49503",42.95954687721436,-85.65103080490807
"49503","Grand Rapids","MI","Duthler's Family Foods","1226 Madison Ave SE","49507",42.940543442201566,-85.65841555595398
"49503","Grand Rapids","MI","Great Giant Supermarket","not_available","49507",42.941046,-85.658135
"49503","Grand Rapids","MI","National Supermarket","1610 Clyde Park Ave SW","49509",42.934478138770686,-85.686277195797
"49503","Grand Rapids","MI","Supermercado Michoacan","602 Leonard St NW","49504",42.984580993652344,-85.68275451660156
"49503","Grand Rapids","MI","Gordon Food Service Store","1003 Michigan St NE","49503",42.970454,-85.64301
"49503","Grand Rapids","MI","Rodriguez Supermarket","2211 Division Ave S","49507",42.923584000000005,-85.666811
"49503","Grand Rapids","MI","Harvest Health Foods","1944 Eastern Ave SE","49507",42.92777875117337,-85.64798449007138
"49503","Grand Rapids","MI","Urban Grocery Market","933 Cherry St SE","49503",42.95955506359425,-85.64289239803693
"49503","Grand Rapids","MI","National Supermarket","1000 Fulton St W","49504",42.963635453924944,-85.69250705128333
"49503","Grand Rapids","MI","Fannies Corner","725 eastern","49503",42.949502,-85.649576
"49503","Grand Rapids","MI","Roosevelt Market","1428 Grandville Ave SW","49503",42.937128,-85.684727
"49503","Grand Rapids","MI","Parkside Foods","1153 Fulton St W","49504",42.96395405558383,-85.69669572474481
"49503","Grand Rapids","MI","United Church Outreach Ministry","not_available","49509",42.93573543402536,-85.70011676145033
"49503","Grand Rapids","MI","Franklin Big Save","747 Division Ave S","49503",42.949176,-85.667919
"49503","Grand Rapids","MI","La Mexicana Bakery & Grocery","1642 Division Ave S","49507",42.933665000000005,-85.666546
"49503","Grand Rapids","MI","Burton Meat Farm","435 Burton St SE","49507",42.927906,-85.67743
"49503","Grand Rapids","MI","Super Mercado Guanajuato","1411 Chicago Dr SW","49509",42.93572079742513,-85.70199608802795
"49503","Grand Rapids","MI","Five Star Store","757 Burton St SE","49507",42.927532,-85.648447
"49503","Grand Rapids","MI","Waalkes Food Market","1155 Chicago Dr SW","49509",42.935756143915555,-85.69611132144928
"49503","Grand Rapids","MI","La Esperanza Grocery Store","926 Wealthy St SE","49506",42.955306,-85.645752
"49503","Grand Rapids","MI","Frank's Market","750 Fulton St W","49504",42.96340272751579,-85.68695469280689
"49503","Grand Rapids","MI","Lewandoski's","1107 Walker","49504",42.98033893970752,-85.6955008220157
"49503","Grand Rapids","MI","Wealthy Market","1012 Wealthy St SE","49506",42.95546045553144,-85.64402960174615
"49504","Grand Rapids","MI","Meijer","2425 Alpine Ave NW","49544",43.008006336707545,-85.68992333816684
"49504","Grand Rapids","MI","United Wholesale","330 Ann St NW","49504",42.995181,-85.677655
"49504","Grand Rapids","MI","Family Fare Supermarket","2755 Lake Michigan Dr. NW","49504",42.9721624651021,-85.73586477778493
"49504","Grand Rapids","MI","Our Food Market","423 Webster St NW","49504",42.98999693582164,-85.67881107330322
"49505","Grand Rapids","MI","Meijer","1997 E Beltline Ave NE","49525",42.996640072698845,-85.59438319536639
"49505","Grand Rapids","MI","Kingma's Market","2225 Plainfield Ave NE","49505",43.00396452370107,-85.65325498580933
"49505","Grand Rapids","MI","ALDI","3101 Knapp St NE","49525",42.9998059671056,-85.59320032596588
"49505","Grand Rapids","MI","Save-A-Lot","1625 Leonard St","49505",42.98547680850086,-85.62709713958337
"49505","Grand Rapids","MI","Tillie's Market","1702 Monroe Ave NW","49505",42.9938956119806,-85.67044940941534
"49505","Grand Rapids","MI","Heffron Farms Market","3150 Plainfield Ave NE","49525",43.019777000000005,-85.633893
"49505","Grand Rapids","MI","Diya Spices","1971 E Beltline Ave NE","49525",42.994184000000004,-85.59286999999999
"49506","Grand Rapids","MI","Ken's Fruit Market","2420 Alger","49507",42.91939094383657,-85.64703132308638
"49508","Grand Rapids","MI","Meijer","1540 28th St SE","49508",42.9108497,-85.6293968
"49508","Grand Rapids","MI","Horrocks Market","4455 Breton Rd SE","49508",42.881495248303075,-85.60714737904514
"49508","Grand Rapids","MI","Meijer","1540 28th Street SE","49508",42.9109047,-85.6291941
"49508","Grand Rapids","MI","ALDI","2120 28th St SE","49508",42.91202426613978,-85.6142047047615
"49508","Grand Rapids","MI","Spice Of India","1414 28th St SE","49508",42.911778000000005,-85.632143
"49508","Grand Rapids","MI","Save-A-Lot","730 28th St","49548",42.91231285070496,-85.64878059421515
"49508","Grand Rapids","MI","Asian Delight Marketplace","4463 Breton Rd SE","49508",42.88105872452113,-85.60779422521591
"49508","Grand Rapids","MI","Mediterranean Island","4301 Kalamazoo Ave SE","49508",42.886245658766285,-85.62814704329949
"49509","Wyoming","MI","Meijer","5500 Clyde Park Ave SW","49509",42.86347932083788,-85.6807212028034
"49509","Wyoming","MI","ALDI","2840 Clyde Park Ave SW","49509",42.912320897368105,-85.68467438220983
"49509","Wyoming","MI","Clyde Park Foods","4227 Clyde Park Ave SW","49509",42.887298,-85.685264
"49509","Wyoming","MI","Save-A-Lot","1258 28th St SW","49509",42.91232312057835,-85.69686412334963
"49509","Wyoming","MI","Limson Trading, Inc.","1045 Gezon Pkwy SW","49509",42.86429214477539,-85.68994903564453
"49509","Wyoming","MI","Family Fare","1148 28th St SW","49509",42.91196271109159,-85.69370164740275
"49509","Wyoming","MI","Duthlers","830 28th St SW","49509",42.91271606520805,-85.68673205227951
"49509","Wyoming","MI","Seoul Market","660 36th St SW","49509",42.89849280339901,-85.68145891174167
"49512","Grand Rapids","MI","Trader Joe's","3684 28th St SE","49512",42.91189653553951,-85.57680536305095
"49512","Grand Rapids","MI","Super Green Market","3321 East Paris Ave SE","49512",42.9032096862793,-85.56935119628906
"49525","Grand Rapids","MI","D&W Fresh Market","2000 East Beltline Avenue Northeast","49525",42.99972872259186,-85.58762313087072
"49525","Grand Rapids","MI","Kens Fruit Market","3500 Plainfield Ave NE","49525",43.0269071390517,-85.63042342036383
"49525","Grand Rapids","MI","D&W Deli & Coffee","2000 E Beltline Ave NE","49525",42.99968210533014,-85.58762889912796
"49534","Grand Rapids","MI","Meijer","315 Wilson Ave NW","49534",42.970068011595146,-85.77906131744385
"49534","Grand Rapids","MI","Aunt Millies","3738 Fruit Ridge Ave NW","49544",43.02599345768714,-85.76317621271627
"49534","Grand Rapids","MI","ALDI","146 Wilson Ave. Northwest","49534",42.967438,-85.775566
"49544","Grand Rapids","MI","Save-A-Lot","555 Center Dr NW","49544",43.018918736123965,-85.68294276050334
"49544","Grand Rapids","MI","Fryear's Little Red Market","6778 Fruitridge Ave","49544",43.08823862563775,-85.76767729391781
"49548","Grand Rapids","MI","ALDI","289 54th St SW","49548",42.86653636980579,-85.67122042179108
"49548","Grand Rapids","MI","Walmart Supercenter","355 54th Street Sw","49548",42.86821751296442,-85.67285490842532
"49548","Grand Rapids","MI","Gordon Food Service Store","4990 Clay Ave SW","49548",42.87360482329127,-85.67698687430025
"49548","Grand Rapids","MI","Lee's Oriental Market","3004 Division Ave S","49548",42.909149,-85.665276
"49548","Grand Rapids","MI","Kim Nhung Market","4242 Division Ave S","49548",42.886565633532356,-85.66429253709973
"49548","Grand Rapids","MI","Sieu Thi Kim Nhung Super Store","4242 Division Ave S #11","49548",42.88657760620117,-85.66400909423828
"49548","Grand Rapids","MI","A Dông & Oriental Food Market","3614 Division Ave S","49548",42.8978884280553,-85.66486358642578
"49548","Grand Rapids","MI","La Corona","not_available","49548",42.87668897726765,-85.66423962483954
"49548","Grand Rapids","MI","KB's Oriental Supermarket","3617 Division Ave S","49548",42.898201,-85.665657
"49548","Grand Rapids","MI","Gordon Food Service HQ","1300 Gezon Pkwy SW","49509",42.87247309992136,-85.67572116851807
"49548","Grand Rapids","MI","Supermercado Mexico Division","3355 Division Ave S, Wyoming, MI 49548","49548",42.90318115783948,-85.66585951856935
"49548","Grand Rapids","MI","India Town Grocery & Food","3760 Division Ave S","49548",42.895846999999996,-85.664873
"49601","Cadillac","MI","Meijer","8605 E 34 Rd","49601",44.2839225,-85.4048707
"49601","Cadillac","MI","Walmart Supercenter","8917 E 34 Rd","49601",44.28391826938871,-85.39860838308088
"49601","Cadillac","MI","Willow Mercantile","916 S Mitchell St","49601",44.242146000000005,-85.39689
"49601","Cadillac","MI","Save-A-Lot","802 N Mitchell","49601",44.257629,-85.404084
"49601","Cadillac","MI","ALDI","not_available","49601",44.282004,-85.39638
"49601","Cadillac","MI","ALDI","9051 E 34 Rd","49601",44.28224785,-85.39594531
"49612","Alden","MI","Village Market","9556 Rapid City Rd NW","49676",44.85308701115103,-85.28184938281973
"49612","Alden","MI","Save-A-Lot","6133 US 131 NE","49646",44.80402210997613,-85.14610216590997
"49612","Alden","MI","Save A Lot","6133 US Highway 131 N","49646",44.80376434326172,-85.1466293334961
"49612","Alden","MI","Traverse Bay Farms","7053 S M 88 Hwy","49615",44.93163,-85.19233
"49614","Bear Lake","MI","IGA","not_available","49675",44.36115,-86.194814
"49614","Bear Lake","MI","Bear Lake Discount Grocery","11740 Chippewa Hwy","49614",44.41346178538238,-86.15201681560822
"49614","Bear Lake","MI","Larry's","14389 9 Mile Rd","49645",44.36983927751788,-86.01265807733411
"49614","Bear Lake","MI","Kaleva Meats","14468 Wuoksi Ave","49645",44.37362289428711,-86.01097106933594
"49616","Benzonia","MI","Shop And Save Grocery Store","U.S. 31","49616",44.607431677763046,-86.0981704704129
"49616","Benzonia","MI","Save-A-Lot","1579 Michigan Ave","49616",44.609419055246185,-86.09849449079766
"49617","Beulah","MI","Honor Family Market","10625 Main St","49640",44.66661035002028,-86.02562841124279
"49621","Cedar","MI","Buntings Cedar Market","9054 S Kasson St","49621",44.84667321875803,-85.7960248416013
"49621","Cedar","MI","Gabe's Country Market","8647 S Maple City Rd","49664",44.85417738803151,-85.85547486000836
"49622","Central Lake","MI","Central Foods","7993 W Old State Rd","not_available",45.0700233875851,-85.2637252399539
"49625","Copemish","MI","Copemish Family Market","18541 Cadillac Hwy","49625",44.4813117980957,-85.92643737792969
"49627","Eastport","MI","Eastport Market","5431 US-31","49648",45.113112589706155,-85.35078862185999
"49629","Elk Rapids","MI","Village Market","not_available","49629",44.8987485223153,-85.40136988374826
"49629","Elk Rapids","MI","The Moose Party Store","127 River St","49629",44.8983026577874,-85.41290110292947
"49630","Empire","MI","Deering's Food Market","10233 W Front St","49630",44.81090822736052,-86.0630333779246
"49631","Evart","MI","Fosters Supermarket","820 W 7th St","49631",43.901218646034486,-85.27289496567882
"49632","Falmouth","MI","Ebels General Store","420 E Prosper Rd","49632",44.24344,-85.085754
"49632","Falmouth","MI","Moddersville Store","710 E Finkle","not_available",44.220915867590854,-84.97352282861941
"49633","Fife Lake","MI","Fife Lake Market","620 Boyd St","49633",44.585009,-85.351961
"49635","Frankfort","MI","Riverside Canoe and Grocery","5042 N Scenic Hwy","49640",44.71087443118097,-86.11942042974488
"49635","Frankfort","MI","Family Fare Supermarket","1002 Forest Avenue","49635",44.6328504,-86.2281566
"49636","Glen Arbor","MI","Andersons Market","6545 Western Ave","49636",44.89753658320365,-85.99030810653252
"49637","Grawn","MI","Toms Food Markets Interlochen","not_available","49643",44.6562670490599,-85.76693237651712
"49637","Grawn","MI","Ric's Food Center","2048 State HWY 137","49643",44.65851153153788,-85.76797867293796
"49637","Grawn","MI","Sav-A-Lot","not_available","49637",44.662600366460616,-85.6956804420783
"49644","Irons","MI","Dublin General Store","18372 Hoxeyville Rd","49689",44.17953430028524,-85.93392598641734
"49646","Kalkaska","MI","Northland Foods","not_available","49646",44.74362185066056,-85.17602382415191
"49646","Kalkaska","MI","Pamida #673","770 S Cedar St","49646",44.72209930419922,-85.18720245361328
"49649","Kingsley","MI","Northland Food Center","2377 E M 113","49649",44.58510077619076,-85.528332974111
"49650","Lake Ann","MI","Lake Ann Grocery","19619 Maple St","49650",44.72388342196073,-85.84395416487017
"49651","Lake City","MI","Roger’s Grocery Store","not_available","49651",44.339557,-85.210536
"49651","Lake City","MI","Fosters","154-158 Oakwood Dr","49651",44.33977642251949,-85.21062701804235
"49653","Lake Leelanau","MI","Leland Mercantile","102 N Main St","49654",45.022713947058094,-85.76049058144858
"49653","Lake Leelanau","MI","NJ's Grocery","not_available","49653",44.98135802711256,-85.7130600117492
"49659","Mancelona","MI","Glen's Markets","not_available","49659",44.90856112971281,-85.05505050363479
"49659","Mancelona","MI","Family Fare Supermarket","619 North Williams Street","49659",44.9086047,-85.0554382
"49660","Manistee","MI","Meijer","15 Caberfae Hwy","49660",44.26685393590874,-86.29520955746557
"49660","Manistee","MI","Glen's Market","1057 Manistee Hwy","49660",44.23413848876953,-86.3132095336914
"49660","Manistee","MI","Port City Organics Real Food Market","328 1st St","49660",44.24594172133097,-86.3192159602386
"49660","Manistee","MI","Oleson's Food Store","160 Memorial Dr","49660",44.250203216805346,-86.32097536327137
"49665","Marion","MI","ValuLand Grocery","401 S Mill St","49665",44.09856033325195,-85.14729309082031
"49668","Mesick","MI","Ken's Food Pride","118 W Mesick Ave","not_available",44.405967712402344,-85.71443939208984
"49668","Mesick","MI","Yoeman's Market","125 E Mesick Ave","not_available",44.40560116663984,-85.71462619635086
"49670","Northport","MI","Omena Bay Country Store","5055 West Bay Shore","49674",45.0558490301787,-85.58761596679688
"49670","Northport","MI","Tom's Food Market","105 E Nagonaba St","49670",45.12946979129468,-85.61601519584656
"49677","Reed City","MI","Vics Supermarket","716 S Chestnut St","49677",43.86888035823663,-85.50950881174306
"49682","Suttons Bay","MI","Hansen's","Hansen Plaza","not_available",44.96875990484237,-85.64982980299789
"49683","Thompsonville","MI","Mountain Market","12450 Crystal Mountain Dr","49683",44.51913,-85.99123
"49684","Traverse City","MI","Meijer","3955 N US Highway 31 S","49684",44.74279362126802,-85.64459681510925
"49684","Traverse City","MI","Walmart Supercenter","2640 Crossing Cir","49684",44.72805328251303,-85.63265516989753
"49684","Traverse City","MI","Oryana Natural Foods Market","260 E Tenth St","49684",44.75696614267553,-85.61805361041888
"49684","Traverse City","MI","Fieldstone Market","7270 N Long Lake Rd","49685",44.745822531174596,-85.72132038288628
"49684","Traverse City","MI","Long Lake Grocery","9374 N Long Lake Rd","49685",44.747770280316374,-85.76386295391457
"49684","Traverse City","MI","ALDI","3123 W South Airport Rd","49684",44.7227287,-85.6352692
"49684","Traverse City","MI","Gordon Food Service Store","1781 Barlow St","49686",44.734177508394794,-85.60497807301121
"49684","Traverse City","MI","Tom's Food Market","1201 S Division St","49684",44.75049065096421,-85.63368646946219
"49684","Traverse City","MI","Save-A-Lot","701 US Highway 31 S","49685",44.67915725708008,-85.65513610839844
"49684","Traverse City","MI","Save-A-Lot","1115 S Garfield Ave","49684",44.747167,-85.59434300000001
"49684","Traverse City","MI","Family Fare Supermarket","905 East, West Eighth Street","49686-2749",44.7592905,-85.6346485
"49684","Traverse City","MI","Traverse Asian Market","533 533 W Fourteenth St","49684",44.751373291015625,-85.63197326660156
"49684","Traverse City","MI","T.C. Produce Market","not_available","49686",44.727087865246396,-85.60086028610378
"49684","Traverse City","MI","Oleson's","3850 N Long Lake Rd","49684",44.75780772621232,-85.65224078845544
"49684","Traverse City","MI","Cherry Bend Grocery","10200 East Cherry Bend Rd","not_available",44.793534916027674,-85.64961606754682
"49686","Traverse City","MI","Meijer","4900 M 72 E","49690",44.77054703322493,-85.47696570254504
"49686","Traverse City","MI","Oleson's Food Store #608","1100 Hammond Rd E","49686",44.71441424813935,-85.55538390489833
"49686","Traverse City","MI","Tom's Food Market East Bay","738 Munson Ave","49686",44.75382311593551,-85.57333052158361
"49686","Traverse City","MI","Old Mission General Store","18250 Mission Rd","49686",44.954091552456816,-85.49005094444489
"49686","Traverse City","MI","Peninsula Market","14111 Center Rd","49686",44.89329537728244,-85.50862060919457
"49688","Tustin","MI","Powell's Grocery","106 E Church St","49688",44.10259586240928,-85.45863998346341
"49701","Mackinaw City","MI","IGA","not_available","49701",45.78122743931381,-84.73258091781275
"49701","Mackinaw City","MI","Mackinaw Family Market IGA","101 W Central Ave","49701",45.78102269645283,-84.7326135635376
"49706","Alanson","MI","Oleson's Food Store #609","2000 N US Highway 31","49770",45.3976767684711,-84.88718365967915
"49706","Alanson","MI","Schafer bakeries","1842 N US Highway 31","49770",45.39644241333008,-84.89088439941406
"49706","Alanson","MI","Louie's Fresh Market","6977 Michigan 68","49706",45.442400087536654,-84.77188530365744
"49707","Alpena","MI","Meijer","1251 M 32 W","49707",45.0587656,-83.474882
"49707","Alpena","MI","Neiman's Family Market","2205 US Highway 23 S Ste 144","49707",45.043951983877086,-83.4538681148334
"49707","Alpena","MI","Walmart Supercenter","1180 M 32 W","49707",45.06371379512844,-83.47712605645195
"49707","Alpena","MI","Perches IGA","1025 US Highway 23 N","49707",45.08512718530904,-83.45676730752037
"49707","Alpena","MI","Save-A-Lot","245 E Chisholm Rd","49707",45.0606322510004,-83.43092845833846
"49707","Alpena","MI","Save A Lot","245 E Chisholm St","49707",45.0605952,-83.4303359
"49707","Alpena","MI","Marine Market","515 S Ripley Blvd","49707",45.04781,-83.452098
"49709","Atlanta","MI","Jones Trading Post","24330 M-33 North, MI 49709","49709",45.18996810913086,-84.20085144042969
"49718","Carp Lake","MI","B&L Camp Store","13489 Cecil Bay Rd","49718",45.74550759832267,-84.8303916787346
"49719","Cedarville","MI","Cedarville Foods","30 N M129","not_available",46.000101512569515,-84.36214628317956
"49719","Cedarville","MI","The Narley Whale Fish Market","54 W. M 134","49719",45.999595642089844,-84.36399841308594
"49720","Charlevoix","MI","Olesons Food Store","112 Antrim St","49720",45.315110661992286,-85.25955311928958
"49720","Charlevoix","MI","Family Fare Supermarket","111 Michigan 66","49720-9338",45.3038761,-85.2582463
"49720","Charlevoix","MI","Glen's Market","111 M 66 N","49720",45.303526596607156,-85.25891823083604
"49720","Charlevoix","MI","Dons Market","400-498 Petoskey Ave","49720",45.3223835,-85.25215086
"49721","Cheboygan","MI","Walmart Supercenter","1150 S Main St","49721",45.62560871058739,-84.48218453792462
"49721","Cheboygan","MI","Glen's Supermarket","992 S Main St","49721",45.628289162167185,-84.48185822324496
"49721","Cheboygan","MI","Family Fare Supermarket","992 S. Main","49721",45.6284,-84.481787
"49721","Cheboygan","MI","Save-A-Lot","10203 N Straits Hwy","49721",45.60748804836174,-84.47468785322816
"49724","Dafter","MI","Kinross Co-Op Grocery Store","16829 S Water Tower Dr","49788",46.261837005615234,-84.46757507324219
"49725","De Tour Village","MI","Sune's DeTour Village Market","Ontario St","49725",45.995760213687205,-83.9020183359611
"49726","Drummond Island","MI","Sune's Dry Goods & Grocery","29958 E Channel Rd","49726",45.99814987182617,-83.73895263671875
"49727","East Jordan","MI","Save-A-Lot","530 S Maple St","49727",45.148353758722095,-85.11960274446064
"49727","East Jordan","MI","Save A Lot","530 Maple St","49727",45.1482894,-85.1197633
"49727","East Jordan","MI","Family Fare Supermarket","240 South Lake Street","49727-9376",45.151126861572266,-85.14232635498047
"49735","Gaylord","MI","Meijer","250 Meijer Dr","49735",45.0247087,-84.7234082
"49735","Gaylord","MI","Walmart Supercenter","950 Edelweiss Parkway","49735",45.02280004379037,-84.69006363335527
"49735","Gaylord","MI","ALDI","1366 W Main St","49735",45.027958,-84.6979229
"49735","Gaylord","MI","Save-A-Lot","1310 W M 32","49735",45.02810287475586,-84.70049285888672
"49735","Gaylord","MI","Sara Lee bakery OUTLET","not_available","49735",45.01862929763413,-84.6820528339742
"49735","Gaylord","MI","Meijer","250 Meijer Drive","49735",45.0257414,-84.7238015
"49735","Gaylord","MI","Gordon Food Service Store","1466 W M 32","49735",45.02827743890439,-84.70173597335815
"49735","Gaylord","MI","Save-A-Lot","1396 W Main St #32","49735",45.02786222836034,-84.70043392459651
"49738","Grayling","MI","Save-A-Lot","2333 S I 75 Business Loop","49738",44.65177536066413,-84.707573486203
"49738","Grayling","MI","Save-A-Lot","2333 South I-75 Business Loop","49738",44.66140366,-84.7147522
"49738","Grayling","MI","Caid’s Corner Grocery","not_available","49738",44.806254,-84.480644
"49738","Grayling","MI","Family Fare Supermarket","2470 S. I-75 Business Loop","49738",44.65047073364258,-84.70999908447266
"49738","Grayling","MI","Moore's Bulk Foods","Interstate 75 Business","49738",44.65805545500171,-84.70934768046007
"49740","Harbor Springs","MI","Harbor Springs IGA","300 W Lake St","49740",45.435867416649685,-84.99255710668594
"49740","Harbor Springs","MI","Jurek's Meats and Grocery","1549 Robinson Rd","49769",45.55131530761719,-84.88246154785156
"49746","Hillman","MI","Morrison's IGA","531 State St","49746",45.067849633000506,-83.90096571406922
"49749","Indian River","MI","Ken's Village Market","6433 Barbara St","49749",45.40417759264978,-84.61739433549643
"49757","Mackinac Island","MI","Doud's Market (Mackinac Island)","7260 Main Street","49757",45.850304590441894,-84.61713236391036
"49759","Millersburg","MI","Tom's Family Market","20597 State St","49765",45.35710139336062,-84.2256279409527
"49762","Naubinway","MI","Valier's","11611 Rt. 2 West","not_available",46.094371,-85.474803
"49766","Ossineke","MI","Mr. Ed's IGA","not_available","49766",44.90266036987305,-83.44335174560547
"49770","Petoskey","MI","Meijer","1201 Lears Rd","49770",45.3466695,-84.9653185
"49770","Petoskey","MI","Walmart Supercenter","1850 Anderson Rd","49770",45.350459907970716,-84.97368969426681
"49770","Petoskey","MI","D&W Fresh Market","1163 U.S. 31 North","49770",45.39088744754892,-84.91828101314286
"49770","Petoskey","MI","Grain Train Natural Foods Market","220 E Mitchell St","49770",45.373939457762106,-84.9577885671774
"49770","Petoskey","MI","Gordon Food Service Store","1010 Spring St","49770",45.36323165893555,-84.97149658203125
"49770","Petoskey","MI","Bill & Carol's West Side Grocery","523 Charlevoix Ave","49770",45.369932,-84.96849
"49770","Petoskey","MI","Glen's Market South","1305 Spring St","49770",45.36192334368756,-84.96962428092957
"49770","Petoskey","MI","Meijer","1201 Lears Rd.","49770",45.3484872,-84.9657984
"49770","Petoskey","MI","Corner Grocer","1045 Kalamazoo Ave","49770",45.366845,-84.94500699999999
"49770","Petoskey","MI","Glen's Fresh Marketplace","Bay View","49770",45.373419637116974,-84.92978862217393
"49770","Petoskey","MI","Louie's Fresh Market","2394 E Mitchell Rd","49770",45.3735477606922,-84.92115487041062
"49770","Petoskey","MI","ALDI","2130 Anderson Rd","49770",45.3470283,-84.9715213
"49779","Rogers City","MI","Rygwelski's IGA And Meats","495 S 1st St","49779",45.415931,-83.80808
"49779","Rogers City","MI","Save-A-Lot","146 E Erie St","49779",45.4201011657715,-83.8157653808594
"49779","Rogers City","MI","Glens Supermarket","not_available","49779",45.42140197753906,-83.81832885742188
"49779","Rogers City","MI","Family Fare Supermarket","100 S. Bradley Hwy.","49779",45.4127082824707,-83.82504272460938
"49780","Rudyard","MI","Rudyard Co-op","not_available","49780",46.23263221308912,-84.59923102341574
"49781","Saint Ignace","MI","Doud's Market (St. Ignace)","399 N State St","49781",45.869208259158974,-84.72889778749484
"49781","Saint Ignace","MI","Glen Market","699 US Highway 2 W","49781",45.85726547241211,-84.71924591064453
"49783","Sault Sainte Marie","MI","Meijer","1098 W 3 Mile Rd","49783",46.46538400243817,-84.38752055168152
"49783","Sault Sainte Marie","MI","Rome's Your Independent Grocer","44 Great Northern Rd","P6B 4Y5",46.524037,-84.317183
"49783","Sault Sainte Marie","MI","Walmart Supercenter","3763 I-75 Business Spur","49783",46.46471544405722,-84.3655135786987
"49783","Sault Sainte Marie","MI","Metro","150 Churchill Blvd","P6A 3Z9",46.51037650352961,-84.29802104832106
"49783","Sault Sainte Marie","MI","Metro","248 Northern Ave E","P6B 4H6",46.53460565100296,-84.32215332979467
"49783","Sault Sainte Marie","MI","M&M Food Market","153 Great Northern Rd","P6B 4Y9",46.53062652965896,-84.31995464947431
"49783","Sault Sainte Marie","MI","M&M Food Market","357 Trunk Rd Unit 1","P6A 3S9",46.51640519312821,-84.28534892456355
"49783","Sault Sainte Marie","MI","National Grocers Cash & Carry","173 Trelawne Ave","P6B 2N3",46.515012,-84.327738
"49783","Sault Sainte Marie","MI","M&M Food Market","216 Second Line W","P6C 2J3",46.53782526613419,-84.36143882734217
"49783","Sault Sainte Marie","MI","Pino's Get Fresh Foods","219 Trunk Rd","P6A 3S5",46.514069,-84.291602
"49783","Sault Sainte Marie","MI","Bulk Barn","Bay Street","not_available",46.51173420115061,-84.33767470533417
"49783","Sault Sainte Marie","MI","Brunni's Fine Foods","Wellington Street West","not_available",46.507772,-84.310998
"49783","Sault Sainte Marie","MI","Joe's No Frills","519 Korah Rd","P6C 4J4",46.538151,-84.367541
"49783","Sault Sainte Marie","MI","City Meat Market","814 Queen St E","P6A 2B1",46.50669226035289,-84.32469003844959
"49783","Sault Sainte Marie","MI","Metro","275 Second Line W","P6C 2J4",46.53665437574615,-84.36459839344025
"49783","Sault Sainte Marie","MI","Pino's","219 Trunk Road","P6A 3S7",46.51368785071198,-84.29141701897986
"49783","Sault Sainte Marie","MI","Save-A-Lot","3356 I-75 Business Spur","49783",46.469285752979786,-84.36555862426758
"49783","Sault Sainte Marie","MI","Gordon Food Service Store","3195 I 75 Business Spur","49783",46.47063064575195,-84.36270904541016
"49783","Sault Sainte Marie","MI","Neville's","1512 I-75 Business Spur","49783",46.48573219710926,-84.35383406999408
"49783","Sault Sainte Marie","MI","Meijer","1138 W. 3 Mile Road","49783",46.4656241,-84.3876695
"49783","Sault Sainte Marie","MI","Harmony Health Foods","217 Ashmun St","49783",46.4998779296875,-84.34583282470703
"49783","Sault Sainte Marie","MI","Glen's Market","4284 I 75 Business Spur","49783",46.46303176879883,-84.37571716308594
"49783","Sault Sainte Marie","MI","Great Wall Chinese Restaurant","3440 I 75 Business Spur","49783",46.468799,-84.365994
"49783","Sault Sainte Marie","MI","Save A Lot","3356 I 75 Business Spur","49783",46.4708638,-84.3655152
"49801","Iron Mountain","MI","Walmart Supercenter","1920 S Stephenson Ave","49801",45.80778525783029,-88.0383308248197
"49801","Iron Mountain","MI","Tadych's EconoFoods","1600 S Stephenson Ave","49801",45.807447034704815,-88.05104367665753
"49801","Iron Mountain","MI","Super One Foods","1130 S Stephenson Ave","49801",45.812174946743326,-88.06200467099954
"49801","Iron Mountain","MI","Walmart Grocery Pickup","1920 So. Stepehenson Ave","49801",45.807363,-88.038011
"49801","Iron Mountain","MI","Trader Vic's","515 US Highway 2","54121",45.86910629272461,-88.08303833007812
"49801","Iron Mountain","MI","Sonny's","Railroad Ave","49815",46.14057159423828,-88.09368133544922
"49802","Kingsford","MI","Central Supermarket","not_available","49802",45.79332388769345,-88.08384338646876
"49805","Allouez","MI","Mohawk Superette","US Highway 41","not_available",47.303029581319024,-88.3682456417606
"49806","Au Train","MI","Au Train Grocery","County Highway 462","49806",46.43051542,-86.83750928
"49806","Au Train","MI","Chatham Co-op","not_available","49816",46.347306434053515,-86.92937192709482
"49807","Bark River","MI","Meijer","505 N 26th St","49829",45.75103323233371,-87.08722393720456
"49807","Bark River","MI","Fazer's","not_available","49874",45.69553867588913,-87.5126017767571
"49814","Champion","MI","581 Little Store","29907 County Road 581","49849",46.41788101196289,-87.7509994506836
"49816","Chatham","MI","Coop Grocery Store","not_available","49891",46.193341247643225,-86.9699531247039
"49829","Escanaba","MI","Walmart Supercenter","601 N Lincoln Rd","49829",45.752783969338445,-87.08208041303706
"49829","Escanaba","MI","Elmer's County Market","374-398 U.S. 41","49829",45.75006176310139,-87.07705635647525
"49829","Escanaba","MI","Sav-Mor","not_available","49829",45.748117030929286,-87.07130727195128
"49829","Escanaba","MI","ALDI","2520 3rd Ave N","49829",45.749565647752725,-87.0839774608612
"49829","Escanaba","MI","Meijer","505 N. 26th Street","49829",45.7654273,-87.0847492
"49829","Escanaba","MI","Gordon Food Service","1126 12th ave","49829",45.75977325439453,-87.0771713256836
"49829","Escanaba","MI","Healthway Nutrition Store","2307 1st Ave S","49829",45.744455,-87.080619
"49829","Escanaba","MI","Super One Foods","501 N Lincoln Rd","49829",45.751197814941406,-87.081298828125
"49835","Garden","MI","Mini Mart","not_available","49835",45.712317,-86.545591
"49836","Germfask","MI","connies helmer market","Goldthrope Road","49853",46.27436124091944,-85.72457719175955
"49837","Gladstone","MI","Supervalu","409 N 9th St","49837",45.850460052490234,-87.02172088623047
"49839","Grand Marais","MI","Superior Shores Market","n14274 lake ave","49839",46.671722412109375,-85.98512268066406
"49840","Gulliver","MI","BG's IGA Market","2844 US-2","49840",45.9925640053072,-86.01652264595032
"49841","Gwinn","MI","Larry's Family Foods","120 E State Highway M35","49841",46.276802561142354,-87.42300640815085
"49849","Ishpeming","MI","Jubilee Foods","900 US Highway 41 W","49849",46.498596475542044,-87.68452320535829
"49849","Ishpeming","MI","Super One","258-278 Michigan 28","49866",46.50950473533637,-87.60849411596054
"49849","Ishpeming","MI","Jim's IGA","not_available","49849",46.491201,-87.666324
"49849","Ishpeming","MI","City Green Market","201 Iron St","49866",46.499055,-87.60936
"49854","Manistique","MI","Jack's Fresh Market","735 E Lakeshore Dr","49854",45.94924749349757,-86.23296618461609
"49854","Manistique","MI","Save-A-Lot","200 Deer St","49854",45.96350912050244,-86.25349203623514
"49855","Marquette","MI","Meijer","3630 US Highway 41 W","49855",46.55314263735696,-87.47203778475523
"49855","Marquette","MI","Walmart Supercenter","3225 Us Highway 41 W","49855",46.54748339951367,-87.45987296104431
"49855","Marquette","MI","Tadych's EconoFoods","1401 Odovero Dr","49855",46.54279888303644,-87.42379562436122
"49855","Marquette","MI","Super One Foods","3070 US-41","49855",46.55106752902356,-87.45509326457977
"49855","Marquette","MI","Great Lakes Fresh Market","101 Carmen Dr","49855",46.485709942068205,-87.34953761100769
"49855","Marquette","MI","Marquette Food Co-Op","502 W Washington St","49855",46.54491182985561,-87.4026882648468
"49855","Marquette","MI","Cal's Party Store","123 Genesee St","49855",46.53374973207438,-87.39792466163635
"49855","Marquette","MI","Gordon Food Service Store","3480 US Highway 41 W","49855",46.54999213055966,-87.4682629108429
"49855","Marquette","MI","Valle's Village Market","1034 N 3rd St","49855",46.553238823010325,-87.39468137488358
"49855","Marquette","MI","The Dutch Shop, LLC","11 Oak Ln","49855",46.54045867919922,-87.47464752197266
"49858","Menominee","MI","Angeli's County Market","1401 8th Ave","49858",45.10641897451747,-87.62005905004085
"49858","Menominee","MI","RK Health Food","2205 Hall Ave Ste 103","54143",45.09983444213867,-87.6368179321289
"49858","Menominee","MI","Angeli's Central Market","13th St","49858",45.1383912563324,-87.60285079479218
"49858","Menominee","MI","Gary's Quality Foods","not_available","49893",45.32857059514751,-87.61513297983244
"49862","Munising","MI","Bob's IGA","131 West Superior Street","49862",46.41098163786627,-86.65740430355072
"49868","Newberry","MI","IGA SuperCenter","101 W Helen St","49868",46.35606002807617,-85.51081085205078
"49868","Newberry","MI","Macs Super Valu Foods","not_available","49868",46.336423553851176,-85.50768107784415
"49870","Norway","MI","Ebeling's","529 Main St","49870",45.78560701337987,-87.9076905748409
"49878","Rapid River","MI","Garth Bluff Gas and Grocery","9787 County 513 T Rd","49878",45.90052032470703,-86.94303131103516
"49905","Atlantic Mine","MI","Keweenaw Co-Op Natural Foods Market & Deli","1035 Ethel Ave","49930",47.13376505958422,-88.59962123200509
"49908","Baraga","MI","Pat's Foods","not_available","49946",46.75858210571635,-88.45276424471321
"49908","Baraga","MI","Larry's Market","US Hwy 41","not_available",46.777080344877916,-88.48832131202192
"49910","Bergland","MI","Bergland Foods","not_available","49947",46.592379303892685,-89.57241969530737
"49913","Calumet","MI","Louie's Fresh Market","5400 Bridge St","49945",47.18756885905771,-88.41412782669067
"49913","Calumet","MI","Pat's Foods","56845 Station Dr","49913",47.24012574166035,-88.45476524322227
"49913","Calumet","MI","La Estrellita","Larch","not_available",47.2529411315918,-88.43299102783203
"49920","Crystal Falls","MI","Jubilee Foods","1363 US Highway 2","49920",46.097367574969574,-88.35468161543983
"49930","Hancock","MI","Walmart Supercenter","995 Razorback Dr","49931",47.10691608267183,-88.58838158888499
"49930","Hancock","MI","Tadych's EconoFoods","1000 W Sharon Ave","49931",47.11420167056885,-88.58996146963963
"49930","Hancock","MI","Pat's Foods","801 Market St","49930",47.1313591434925,-88.59130760272761
"49930","Hancock","MI","Jim's Foodmart","300 Pearl St","49931",47.11967914153724,-88.55511745379613
"49930","Hancock","MI","Festival Foods / Ace Hardware","47401 State Highway M26","49931",47.1050180338656,-88.59520375728607
"49930","Hancock","MI","Monticellos grocery","Quincy st","not_available",47.12681564808487,-88.59131441808852
"49930","Hancock","MI","far east asian","not_available","49931",47.105209603510986,-88.59420948087008
"49935","Iron River","MI","Angeli's Central Market","833 Riverside Plz","49935",46.09625710140848,-88.63127518602435
"49935","Iron River","MI","Jubilee Foods","not_available","49935",46.093124132318714,-88.64083370590336
"49938","Ironwood","MI","Super One Foods","1480 East Cloverland Drive","49938",46.4642165734647,-90.14331264567093
"49938","Ironwood","MI","Walmart Supercenter","10305 Country Club Road","49938",46.470502121651876,-90.12695695780715
"49938","Ironwood","MI","Sunday Lake Supermarket","not_available","49968",46.476290150896645,-89.93188938015007
"49938","Ironwood","MI","Brite Spot","not_available","54534",46.449628000000004,-90.180707
"49938","Ironwood","MI","Super One Foods","1009 Holiday Ln","54534",46.459692,-90.195258
"49969","Watersmeet","MI","Land O' Lakes Village Market","not_available","54540",46.161620285371455,-89.21477974807974
