"zip","city","state","name","address","postalCode","lat","lon"
"37013","Antioch","TN","Lowe's","5520 Nolensville Pike","37211",36.0474211,-86.7117713
"37013","Antioch","TN","Lowe's","410 Genie Lane","37167",35.9876835,-86.5524164
"37013","Antioch","TN","The Home Depot","1155 Bell Rd","37013",36.04636213720502,-86.66634142398834
"37013","Antioch","TN","The Home Depot","551 President Place","37167",35.9816075,-86.5523402
"37013","Antioch","TN","Harbor Freight Tools","5211 Hickory Hollow Pkwy #101","37013",36.04824791309606,-86.66010129617253
"37013","Antioch","TN","Senox","not_available","37211",36.09846496582031,-86.70661926269531
"37013","Antioch","TN","Mr Nail","not_available","37086",36.01459503173828,-86.5715103149414
"37013","Antioch","TN","Dixie Lumber","not_available","not_available",36.08198101228884,-86.68187499541895
"37013","Antioch","TN","Hood Distribution","126 International Blvd","37086",36.015668,-86.594317
"37013","Antioch","TN","Murfreesboro Appliance Repair Services","not_available","37129",36.019271189048766,-86.57284158946152
"37013","Antioch","TN","Sherwin-Williams Paint Store","2332 Murfreesboro Pike","37217",36.08484723990888,-86.64789727274524
"37013","Antioch","TN","Ames Drywall Tools","93-99 Largo Dr","37211",36.081627,-86.709546
"37013","Antioch","TN","irby","1284 Heil Quaker Blvd","37086",36.00463876950909,-86.60501003265381
"37013","Antioch","TN","City Electric Supply La Vergne Tn","1296 Heil Quaker Blvd","37086",36.0054855,-86.6059494
"37013","Antioch","TN","Vallen","1430 Gould Blvd","37086",36.01288986206055,-86.61439514160156
"37013","Antioch","TN","Southern Fluidpower","155 Jones Blvd Bldg E","37086",36.0069343,-86.5897128
"37013","Antioch","TN","Sherwin Williams","not_available","37167",35.98358,-86.547058
"37013","Antioch","TN","The Tool Shed","not_available","37013",36.03832713396595,-86.66139117788799
"37014","Arrington","TN","Tractor Supply Co.","5111 Murfreesboro Rd","37046",35.853292,-86.657126
"37014","Arrington","TN","Husqvarna US","10122 Franklin Rd","37128",35.849063873291016,-86.56499481201172
"37015","Ashland City","TN","Tractor Supply Co.","356 Frey St","37015",36.297612423956075,-87.04732368845086
"37015","Ashland City","TN","MBM Pro Wash","3500 Petway Rd","37015",36.213503,-87.15652999999999
"37015","Ashland City","TN","co-op ashland city tn","not_available","37015",36.27342074731996,-87.06610196418183
"37015","Ashland City","TN","Guthrie Paint","1040 Industrial Dr Ste 114C","37146",36.3949696,-87.0318643
"37015","Ashland City","TN","Midway Supply Company","119 Cumberland St","37015",36.27347946166992,-87.06726837158203
"37015","Ashland City","TN","minuteKEY","1626 Highway 12 S","37015",36.248138427734375,-87.03315734863281
"37015","Ashland City","TN","Tennessee Hydraulic and Hose","not_available","37146",36.401449,-87.032493
"37018","Beechgrove","TN","Carden Gutters","429 Carden Hollow Rd","37355",35.588089000000004,-86.154607
"37020","Bell Buckle","TN","C and J Wood Design","2614 US-41A","37160",35.56668665,-86.54298544
"37022","Bethpage","TN","Home Pro","5200 Highway 31 E","37186",36.55031204223633,-86.23543548583984
"37025","Bon Aqua","TN","Hy-Demand Tools & Fasteners & Rentals","10291 Hwy. 46 S.","37025",35.96345342066239,-87.31237292289734
"37025","Bon Aqua","TN","Hy-Demand Tools","Hwy 46","37025",35.96324421368355,-87.31243867831988
"37025","Bon Aqua","TN","The Home Center Ace Hardware","9688 Highway 46","37025",35.962763,-87.31144
"37027","Brentwood","TN","Lowe's","3060 Mallory Lane","37067",35.9443135,-86.817713
"37027","Brentwood","TN","The Home Depot","8101 Moores Lane","37027",35.96290316109375,-86.80606665638379
"37027","Brentwood","TN","Tractor Supply Co.","2176 Hillsboro Rd Ste 122","37069",35.995861,-86.886215
"37027","Brentwood","TN","B & C Hardware","124 Pewitt Dr","37027",36.035462,-86.786503
"37027","Brentwood","TN","Porter Paint","Cadillac Drive","not_available",36.036077,-86.801572
"37027","Brentwood","TN","minuteKEY","3600 Mallory Ln","37067",35.939628,-86.8194369
"37027","Brentwood","TN","Johnson Lock & Key","not_available","37064",35.932800039524636,-86.87889246195498
"37027","Brentwood","TN","Hoover Paint Store","1701 Mallory Ln","37027",35.965753,-86.815018
"37027","Brentwood","TN","Sherwin-Williams Paint Store","428 Wilson Pike Cir","37027",36.021484375,-86.78817749023438
"37027","Brentwood","TN","Brentwood Rental and Sales","Franklin Rd","not_available",35.97604305627209,-86.8296502618671
"37027","Brentwood","TN","Ferguson Plumbing Supply","15578 Old Hickory Blvd","37211",36.041160583496094,-86.74181365966797
"37027","Brentwood","TN","Art Pancake's Rent-All","5025 Nolensville Pike","37211",36.060097999999996,-86.716962
"37027","Brentwood","TN","Tusculum Ace Hardware","5821 Nolensville Pike","37211",36.0416799,-86.714048
"37027","Brentwood","TN","Wholesale Building Materials","1722B General George Patton Dr Ste 100","37027",35.9651541,-86.8206456
"37027","Brentwood","TN","PPG Porter Paints","614 Brentwood E Dr, Nashville, TN 37211","37211",36.03035745436296,-86.79506268501918
"37027","Brentwood","TN","Garageworks","15455 Old Hickory Blvd","37211",36.038552,-86.735114
"37027","Brentwood","TN","Dickens Turf and Landscape Supply","1655 Mallory Ln","37207",35.97102,-86.81182
"37027","Brentwood","TN","City Electric Supply Cool Springs","331 Premier Ct S Ste 102","37067",35.9531575,-86.8294199
"37027","Brentwood","TN","Sherwin-Williams Paint Store","15124 Old Hickory Blvd","37211",36.045488119125366,-86.71616613864899
"37027","Brentwood","TN","minuteKEY","3060 Mallory Ln","37067",35.94451141357422,-86.81790924072266
"37029","Burns","TN","Real Handy","not_available","37055",36.058862,-87.345181
"37029","Burns","TN","WHITE BLUFF BLDG SPLY INC","4978 Highway 70 E","37187",36.10454177856445,-87.19325256347656
"37029","Burns","TN","White Bluff Building Supply Inc.","4978 Hwy 70 E","37187",36.10428237915039,-87.1938247680664
"37029","Burns","TN","City Electric Supply Dickson Tn","1600 Old Columbia Rd","37055",36.042779402514604,-87.34239757061005
"37030","Carthage","TN","Smith County Hardware","not_available","37030",36.251713,-85.953029
"37030","Carthage","TN","Husqvarna US","107 Water St","37030",36.25163269042969,-85.95344543457031
"37030","Carthage","TN","Carthage Ace Hardware","531 Industrial Dr","37030",36.2623889,-85.958036
"37030","Carthage","TN","Tractor Supply Co.","59 Dixon Springs Hwy","37030",36.26440358603375,-85.95759404163992
"37030","Carthage","TN","D.T. McCall & Sons - 1029 West Main Street","101 Water Street Carthage, TN 37030","37030",36.251426696777344,-85.95374298095703
"37033","Centerville","TN","Prince Hardware","not_available","37033",35.77977752685547,-87.46662902832031
"37033","Centerville","TN","Quality Building Supply","hwy 438 E","37033",35.72165,-87.702324
"37034","Chapel Hill","TN","Collins Sharpening","4699 Nashville Hwy","37034",35.614871978759766,-86.69866180419922
"37034","Chapel Hill","TN","Ace Hardware of Chapel Hill","305 S Horton Pkwy","37034",35.62342071533203,-86.69541931152344
"37036","Charlotte","TN","Hilltop Structures","1050 Harper Ln","37051",36.25259017944336,-87.35218811035156
"37036","Charlotte","TN","charlotte hardware","Highway 48 North","37036",36.187207115578516,-87.34144473813095
"37037","Christiana","TN","Moyer Paint & Trim","not_available","37128",35.737948909940314,-86.42563346328308
"37037","Christiana","TN","UrbanTimberSupply","234 Crescent Rd","37128",35.7429611,-86.41539565
"37040","Clarksville","TN","The Home Depot","2630 Wilma Rudolph Blvd","37040",36.5821107,-87.3003639
"37040","Clarksville","TN","Lowe's","2150 Lowe's Drive","37040",36.5751495,-87.30513
"37040","Clarksville","TN","Lowe's","1622 Madison Street","37043",36.5128682,-87.3185519
"37040","Clarksville","TN","Harbor Freight Tools","668 N Riverside Dr Ste C7","37040",36.539325722683536,-87.36749961217156
"37040","Clarksville","TN","Ferguson Bath, Kitchen & Lighting Gallery","1369 Ashland City Rd","37040",36.50364578731253,-87.35126458736536
"37040","Clarksville","TN","Tractor Supply Co.","3355 Guthrie Hwy","37040",36.60481253259953,-87.27644339569532
"37040","Clarksville","TN","Sunstate Equipment","777 Steel Rock Road","37043",36.57994,-87.25423
"37040","Clarksville","TN","Rsc Equipment Rental","147 Jack Miller Blvd","37042",36.615464126846526,-87.41922425027126
"37040","Clarksville","TN","minuteKEY","2150 Lowes Dr","37040",36.57566833496094,-87.30463409423828
"37040","Clarksville","TN","Jerry's Lock And Key","139 Dean Dr","37040",36.513356,-87.3662
"37040","Clarksville","TN","Border States Electric","1891 Wilma Rudolph Blvd","37040",36.5555419921875,-87.32111358642578
"37040","Clarksville","TN","Sherwin-Williams Paint Store","2273 Wilma Rudolph Blvd","37040",36.56996977769518,-87.30337142944335
"37040","Clarksville","TN","Farrell-Calhoun","not_available","37040",36.53960037231445,-87.33683776855469
"37040","Clarksville","TN","Baggett Carpet Service","1553 Ashland City Rd","37040",36.50044,-87.33759
"37040","Clarksville","TN","Thomas Lumber Co, Inc.","2128 Old Ashland City Rd","37043",36.5128307318492,-87.31104104321365
"37040","Clarksville","TN","Kight Home Center","2766 Wilma Rudolph Blvd Ste D","37040",36.5861903,-87.29672169999999
"37040","Clarksville","TN","M & M Glassworks","601 Kraft St Ste 102","37040",36.541308,-87.357623
"37040","Clarksville","TN","Grandpa's","1894 Fort Campbell Blvd","37042",36.593248,-87.41731
"37042","Clarksville","TN","Sherwin-Williams Paint Store","131 S Riverside Dr","37040",36.525587757060485,-87.36298084259033
"37042","Clarksville","TN","IR-G Industrial Rubber & Gasket","1776 Huskey Drive","37040",36.55625731855232,-87.32959270477295
"37042","Clarksville","TN","Rural King","1141 Fort Campbell Blvd","37042",36.5528836,-87.3933127
"37042","Clarksville","TN","Foundation Building Materials","139 Kraft Street","37040",36.53911152,-87.34071468
"37043","Clarksville","TN","Wolseley Industrial Group","575 International Blvd","37040",36.596494708623005,-87.2814237019236
"37043","Clarksville","TN","Commercial Lawn Equipment","1440 Corporate Parkway Blvd","37040",36.595146740179324,-87.27492145538332
"37043","Clarksville","TN","Southern Fluidpower","1011 Smokestack Drive, Ste A","37040",36.5966915,-87.27461029999999
"37043","Clarksville","TN","Thompson Machinery - Clarksville Cat Rental Store","527 Alfred Thun Rd","37040",36.5934095,-87.2720434
"37043","Clarksville","TN","City Electric Supply Clarksville","2068 Wilma Rudolph Blvd Ste B","37040",36.561176848966134,-87.31592229013592
"37046","College Grove","TN","Co/Op Ace Hardware","1217 N Main St","37060",35.7612999,-86.6487
"37048","Cottontown","TN","Jack's Yard","949 Highway 52 W","37148",36.58019256591797,-86.55653381347656
"37049","Cross Plains","TN","Moore Lumber Co","8277 Highway 49 E","37172",36.58876,-86.76295
"37050","Cumberland City","TN","Mitchum True Value Hardware","Corner Spring St & 17 E Front St","37061",36.317893981933594,-87.6943588256836
"37055","Dickson","TN","Lowe's","116 Jackson Brothers Boulevard","37055",36.0506053,-87.3620543
"37055","Dickson","TN","Tractor Supply Co.","715 Hwy 46 South","37055",36.053231,-87.366601
"37055","Dickson","TN","Porter Paints","Hwy 46","37055",36.06129,-87.37435
"37055","Dickson","TN","minuteKEY","116 Jackson Bros Blvd","37055",36.05052185058594,-87.36222076416016
"37055","Dickson","TN","Sherwin-Williams Paint Store","544 Highway 46 S","37055",36.058759689331055,-87.37374186515808
"37060","Eagleville","TN","Tennessee Garage Doors","4940 Morgan Rd","37060",35.78025213,-86.57943386
"37061","Erin","TN","Ace Hardware","945 State Route 49 Jnct147","37178",36.3312960887057,-87.7513713484834
"37062","Fairview","TN","Tool Box Hardware","not_available","37062",35.983412,-87.119028
"37062","Fairview","TN","Tractor Supply Co.","2320 Fairview Blvd","37062",35.967746999999996,-87.133487
"37064","Franklin","TN","Lowe's","2000 Belshire Way","37174",35.7686515,-86.9216835
"37064","Franklin","TN","The Home Depot","224 S Royal Oaks Blvd","37064",35.9104138,-86.8277901
"37064","Franklin","TN","The Home Depot","5411 Columbia Pike","37174",35.7467152,-86.9388279
"37064","Franklin","TN","Harpeth True Value Hardware","203 Downs Blvd","37064",35.90740060470795,-86.8753892674938
"37064","Franklin","TN","Tractor Supply Co.","1101 Hillview Ln","37064",35.890873,-86.87777
"37064","Franklin","TN","Ferguson Plumbing Supply","111 Century Ct","37064",35.89763939380646,-86.87934100627899
"37064","Franklin","TN","Tractor Supply Co.","4709 Traders Way","37179",35.783482,-86.914867
"37064","Franklin","TN","Sears","1415 Liberty Pike","37067",35.923236,-86.795156
"37064","Franklin","TN","Woodcraft","209 S Royal Oaks Blvd","37064",35.914348,-86.83284599999999
"37064","Franklin","TN","Complete Home Hardware","1227 Lakeview Dr Ste 6","37067",35.92167314638323,-86.82667851448059
"37064","Franklin","TN","Farrell-Calhoun Paint","116 Royal Oaks Blvd Ste 124","37067",35.91679303344063,-86.82775790674589
"37064","Franklin","TN","RSC Equipment Rental","109 Century Ct","37064",35.89741134643555,-86.87874603271484
"37064","Franklin","TN","Sherwin-Williams Paint Store","100 Farrier Ln","37064",35.93129348754883,-86.87603759765625
"37064","Franklin","TN","Dickens Turf & Landscape Supply","454 Downs Blvd Ste 160","37064",35.9088939,-86.8853
"37064","Franklin","TN","Sherwin-Williams Paint Store","1010 Murfreesboro Rd","37064",35.915687,-86.838756
"37066","Gallatin","TN","Lowe's","1301 Nashville Pike","37066",36.3658549,-86.4866806
"37066","Gallatin","TN","Tractor Supply Co.","670-a Nashville Pike","37066",36.383125,-86.46266
"37066","Gallatin","TN","Harbor Freight","not_available","37066",36.385491,-86.455446
"37066","Gallatin","TN","Tennessee Hardware","441 East Broadway","37066",36.3961589,-86.439797
"37066","Gallatin","TN","City Electric Supply Gallatin","1070 Old Highway 109 N Bldg A","37066",36.4094443,-86.4519868
"37066","Gallatin","TN","Commercial Lawn Equipment","1008 Lavern Cir","37075",36.3316535949707,-86.55730438232422
"37066","Gallatin","TN","Husqvarna US","450 Red River Rd","37066",36.38916778564453,-86.45528411865234
"37066","Gallatin","TN","AAA KC's Lock Services","330 S Water Ave","37066",36.386115,-86.445568
"37066","Gallatin","TN","Dickens Turf & Landscape Supply","1020 Avondale Rd Ste 101","37075",36.330519,-86.560677
"37066","Gallatin","TN","Sherwin-Williams Paint Store","697 Nashville Pike","37066",36.3798665407257,-86.46313190460205
"37066","Gallatin","TN","Gallatin Welding Supply","1357 south water ave","37066",36.36477,-86.439605
"37066","Gallatin","TN","Home Depot","Indian Lake Boulevard","37066",36.3421202,-86.5011675
"37069","Franklin","TN","Hart Ace Hardware - Bellevue","8203 TN-100","37221",36.043005,-86.959676
"37069","Franklin","TN","Sherwin-Williams Paint Store","8086 Highway 100","37221",36.045939,-86.954517
"37072","Goodlettsville","TN","Lowe's","10 E Campbell Rd","37115",36.2787579,-86.7112462
"37072","Goodlettsville","TN","The Home Depot","1584 Gallatin Pike N","37115",36.292969,-86.7046816
"37072","Goodlettsville","TN","Harbor Freight Tools","2113 Gallatin Pike N","37115",36.30222574734173,-86.6896390914917
"37072","Goodlettsville","TN","Tractor Supply Co.","911 Center Point Rd","37075",36.310134,-86.666675
"37072","Goodlettsville","TN","Guthrie's Ace Hardware - Goodlettsville","110 Rivergate Pkwy","37072",36.315496881396086,-86.71189069747925
"37072","Goodlettsville","TN","Northern Tool","1018 Gallatin Pike N","37115",36.27785867897831,-86.70883038615267
"37072","Goodlettsville","TN","Porter Paints","not_available","37115",36.292438691899584,-86.71864573809148
"37072","Goodlettsville","TN","Moss Electric, Inc.","339 Rockland Road,Ste. D","37075",36.30372,-86.653169
"37072","Goodlettsville","TN","Honey Do Hardware","1812 HWY 41s","37073",36.397694,-86.77180899999999
"37072","Goodlettsville","TN","minuteKEY","2232 Gallatin Pike N","37115",36.308441162109375,-86.68708038330078
"37072","Goodlettsville","TN","City Electric Supply Hendersonville Tn","234C Molly Walton Dr Ste A","37075",36.31362806435888,-86.652920189844
"37072","Goodlettsville","TN","Nashville Roofing Company","924 Myatt Industrial Dr","37115",36.280037,-86.68870799999999
"37073","Greenbrier","TN","Lowe's","3480 Tom Austin Highway","37172",36.4884033,-86.8838272
"37073","Greenbrier","TN","INFINITY FLOORING","3700 Old Greenbrier Pike","37172",36.48191566842518,-86.85031414031982
"37073","Greenbrier","TN","Sherwin-Williams Paint Store","2812 Memorial Blvd","37172",36.484095840023045,-86.86107794983992
"37074","Hartsville","TN","Home Pro","not_available","37074",36.394312,-86.16587
"37075","Hendersonville","TN","Lowe's","360 East Main Street","37075",36.315702,-86.594369
"37075","Hendersonville","TN","The Home Depot","205 N Anderson Lane","37075",36.3183453,-86.5986749
"37075","Hendersonville","TN","Sherwin-Williams Paint Store","118 Saundersville Rd","37075",36.32595061245705,-86.59280087334544
"37075","Hendersonville","TN","Death Star","not_available","37075",36.31590037094346,-86.59438676878202
"37075","Hendersonville","TN","minuteKEY","204 N Anderson Ln","37075",36.322541,-86.595359
"37075","Hendersonville","TN","Ace Hardware of Hendersonville","203 W Main St","37075",36.304771423339844,-86.6181640625
"37075","Hendersonville","TN","Sherwin-Williams Paint Store","333 W Main St","37075",36.30354743504577,-86.62452342989403
"37075","Hendersonville","TN","The Grove At Waterford Crossing Apartments","101 Spade Leaf Boulevard","37075",36.29489355,-86.61458671
"37075","Hendersonville","TN","Ferguson Plumbing Supply","28A Volunteer Dr","37075",36.30908487746074,-86.62903249860511
"37076","Hermitage","TN","The Home Depot","5010 Old Hickory Blvd","37076",36.1941052,-86.6148319
"37076","Hermitage","TN","Lowe's","5025 Old Hickory Blvd","37076",36.193386,-86.6195907
"37076","Hermitage","TN","Lowe's","300 Pleasant Grove Rd, Suite 200","37122",36.1794255,-86.514589
"37076","Hermitage","TN","Tractor Supply Co.","14925 Lebanon Rd","37138",36.218638,-86.575803
"37076","Hermitage","TN","Ace Hardware of Donelson","2730 Lebanon Pike","37214",36.1687371,-86.6657441
"37076","Hermitage","TN","Sherwin-Williams Paint Store","3438 Lebanon Pike","37076",36.18977588381227,-86.62758082151413
"37076","Hermitage","TN","Ace Hardware of Mount Juliet","4110 N Mt Juliet Road","37122",36.22783,-86.5149
"37076","Hermitage","TN","Sherwin-Williams Paint Store","2000 Herschel Dr","37122",36.169385908018185,-86.51618599891663
"37076","Hermitage","TN","Farrell-Calhoun Paint","14831 Lebanon Rd","37138",36.21967462238282,-86.57342985219293
"37076","Hermitage","TN","minuteKEY","300 Pleasant Grove Rd Ste 200","37122",36.17957305908203,-86.51441192626953
"37076","Hermitage","TN","Hoover Paint Store","518 Pleasant Grove Road","37122",36.1778094,-86.517349
"37076","Hermitage","TN","Ace Plumbing","3414 Lebanon Rd","not_available",36.189842224121094,-86.62689208984375
"37076","Hermitage","TN","Hermitage TN Garage Door Repair","248 Jackson Meadows Dr","37076",36.218367,-86.600413
"37076","Hermitage","TN","Hydro Design Service Inc.","315 Industrial Dr","37122",36.200395,-86.513116
"37076","Hermitage","TN","minuteKEY","300 Pleasant Grove Rd Ste 600","37122",36.17957305908203,-86.51441192626953
"37076","Hermitage","TN","Dickens Turf & Landscape Supply","145 Old Pleasant Grove Road","37122",36.1725854,-86.5162072
"37083","Lafayette","TN","Tuck's Building Center","646 Hwy 52 Bypass W","37083",36.529415130615234,-86.05184936523438
"37083","Lafayette","TN","Tractor Supply Co.","449 Hwy 52 Byp West","37083",36.521481,-86.039334
"37083","Lafayette","TN","Husqvarna US","114 E Locust St","37083",36.52108383178711,-86.02478790283203
"37083","Lafayette","TN","Ace Hardware","411 Highway 52 Byp E","37083",36.518873259425504,-86.01570743788368
"37083","Lafayette","TN","minuteKEY","419 Highway 52 Byp W","37083",36.5192028,-86.0390592
"37086","La Vergne","TN","Tractor Supply Co.","513 Nolan Dr","37167",35.9942458070936,-86.52664316818257
"37086","La Vergne","TN","Sherwin-Williams Paint Store","401 Smyrna Square Dr","37167",35.97679901123047,-86.51221466064453
"37086","La Vergne","TN","Hoover Paint Store","200 Jefferson St","37167",35.982687,-86.517906
"37086","La Vergne","TN","ProBuild- Smyrna, TN","111 Enon Springs Rd W, Smyrna, TN 37167","37167",35.9746208190918,-86.51354217529297
"37086","La Vergne","TN","minuteKEY","410 Genie Ln","37167",35.987724,-86.552068
"37086","La Vergne","TN","Good L Corp","5382 Murfreesboro Rd","37086",36.0155031,-86.5588645
"37086","La Vergne","TN","Hagemeyer","1460 Gould Blvd","37086",36.013007,-86.614338
"37087","Lebanon","TN","The Home Depot","955 S Hartmann Dr","37090",36.1859497,-86.3222684
"37087","Lebanon","TN","Lowe's","634 South Cumberland Street","37087",36.1911477,-86.2970914
"37087","Lebanon","TN","Lebanon Distributing Co Inc","804 Carthage Hwy","37087",36.20963,-86.2756141
"37087","Lebanon","TN","Lebanon Appliance","West Main Street","37087",36.215822,-86.328231
"37087","Lebanon","TN","Tractor Supply Co.","1455-b West Main St","37087",36.21861,-86.332803
"37087","Lebanon","TN","City Electric Supply Lebanon","300 N Cumberland St","37087",36.210626701215176,-86.2912285986198
"37087","Lebanon","TN","Husqvarna US","107 Babb Dr","37087",36.216861724853516,-86.32605743408203
"37087","Lebanon","TN","Ferguson HVAC Supply","713 E Main St","37087",36.2089351741461,-86.2783737298568
"37087","Lebanon","TN","Absolute Rental & Supply","1325 West Main St.","not_available",36.215518,-86.324624
"37087","Lebanon","TN","Harris Electric","not_available","37087",36.214316465149466,-86.30114554220198
"37087","Lebanon","TN","Builders First Source","not_available","37090",36.227947,-86.425083
"37087","Lebanon","TN","Sherwin-Williams Paint Store","212 N Cumberland St","37087",36.20953294467743,-86.29140615463257
"37091","Lewisburg","TN","Marshall Farmers Co-op","615 S Ellington Bypass","37091",35.4380999,-86.775099
"37091","Lewisburg","TN","Tractor Supply Co.","150 The Acres","37091",35.448358,-86.777734
"37091","Lewisburg","TN","Lewisburg Industrial & Welding","117 3rd Ave S","37091",35.448683188177505,-86.79029902171557
"37091","Lewisburg","TN","minuteKEY","1334 N Ellington Pkwy","37091",35.470847,-86.791188
"37096","Linden","TN","General Hardware & Supply","139 Tennessee Gas Dr","37097",35.774509,-87.788015
"37096","Linden","TN","Duncan's Ace Hardware & Bldg Sply","1220 Squirrel Hollow Dr","37096",35.606307,-87.843461
"37101","Mc Ewen","TN","Husqvarna US","2173 Highway 13 S","37185",36.05595016479492,-87.77933502197266
"37101","Mc Ewen","TN","Ace Hardware","9894 US Highway 70 E","37101",36.10642623901367,-87.62847137451172
"37101","Mc Ewen","TN","Jamesh Supply Ace Hardware","9894 Us Highway 70 E","37101",36.10642623901367,-87.62847137451172
"37110","Mcminnville","TN","Tractor Supply Co.","200 Hobson St Plaza Shop Ctr","37110",35.699559,-85.777041
"37110","Mcminnville","TN","Lowe's","1339 Smithville Highway, Suite 10","37110",35.7025879,-85.7839379
"37110","Mcminnville","TN","Harbor Freight","not_available","37110",35.699627,-85.78518
"37110","Mcminnville","TN","Burch Supply Co","1419 Smithville Hwy","37110",35.702978,-85.782195
"37110","Mcminnville","TN","Sherwin-Williams Paint Store","1003 Smithville Hwy","37110",35.698063,-85.78078599999999
"37110","Mcminnville","TN","Underwood True Value Hardware","409 Beersheba Hwy","37110",35.675585999999996,-85.76051899999999
"37110","Mcminnville","TN","Colonial Bldg. Sply. Inc.","606 N Chancery St","37110",35.69318,-85.77740899999999
"37110","Mcminnville","TN","NYP Corp.","340-348 McBrides Ln","37110",35.800329,-85.786327
"37115","Madison","TN","The Home Depot","1015 Joyce Ln","37216",36.2349648,-86.7281658
"37115","Madison","TN","Merchants Metals","Dickerson Pike","37115",36.24777771976903,-86.75745583984262
"37115","Madison","TN","Sherwin-Williams Paint Store","852 Madison Sq","37115",36.254861,-86.717623
"37115","Madison","TN","Myers Truck And Caster Sales","745 Douglas Ave","37207",36.194121,-86.755113
"37115","Madison","TN","AG Lighting Innovations","113 E Old Hickory Blvd","37115",36.2625864,-86.71110770000001
"37115","Madison","TN","Dickens Turf & Landscape Supply","814 Cherokee Ave","37207",36.20141,-86.75549
"37115","Madison","TN","Parts House Of Madison","111 E Old Hickory Blvd","37115",36.262594,-86.711062
"37115","Madison","TN","Bellshire Hardware","3837 Dickerson Pike","37207",36.26619,-86.756249
"37122","Mount Juliet","TN","TriGreen Equipment","10768 Lebanon Rd","37122",36.23049545288086,-86.50416564941406
"37122","Mount Juliet","TN","City Electric Supply Mt. Juliet","120 Lineberry Blvd","37122",36.23232947216918,-86.51112692351478
"37122","Mount Juliet","TN","H&H Supply","85 Athens Dr","37122",36.17250061035156,-86.49736022949219
"37127","Murfreesboro","TN","Habitat For Humanity Restore","850 Mercury Blvd","37130",35.835998,-86.378559
"37127","Murfreesboro","TN","City Electric Supply Murfreesboro","961 New Salem Hwy","37129",35.834975828752846,-86.40970900654793
"37127","Murfreesboro","TN","Ferguson Plumbing Supply","540 New Salem Rd","37129",35.8391878956037,-86.4086333179647
"37127","Murfreesboro","TN","Superior Overhead Doors","729 Middle Tennessee Blvd","37129",35.82903513213987,-86.39927387237549
"37127","Murfreesboro","TN","Tower Comm","340 Westgate Blvd","37128",35.808932,-86.400387
"37127","Murfreesboro","TN","Baker Distributing Company","970 New Salem Hwy","37129",35.83477783203125,-86.41102600097656
"37127","Murfreesboro","TN","Tractor Supply Co.","2310 Mercury Blvd","37130",35.834728,-86.35327
"37127","Murfreesboro","TN","Harris Electric Supply","715 Middle Tennessee Blvd","37130",35.828433990478516,-86.40099334716797
"37127","Murfreesboro","TN","minuteKEY","140 Joe B Jackson Pkwy","37127",35.77553176879883,-86.39977264404297
"37127","Murfreesboro","TN","Benjamin Moore Paint","710 Park Ave","37129",35.83903884887695,-86.39862823486328
"37127","Murfreesboro","TN","Metal Max","900 Cpt Joe Fulghum Dr","37129",35.83281326293945,-86.4041976928711
"37127","Murfreesboro","TN","Foundation Building Materials","1015 Old Salem Road","37129",35.83276394,-86.40623494
"37128","Murfreesboro","TN","The Home Depot","1750 Old Fort Pkwy","37129",35.84965245884891,-86.4227432012558
"37128","Murfreesboro","TN","Lowe's","1825 Old Fort Parkway","37129",35.8432175,-86.4239267
"37128","Murfreesboro","TN","Northern Tool","1705 Old Fort Pkwy","37129",35.84565605800346,-86.41549912808306
"37128","Murfreesboro","TN","Harbor Freight","1805 Old Fort Pkwy","37129",35.844768,-86.42083199999999
"37128","Murfreesboro","TN","Tractor Supply Co.","135 John R Rice Boulevard","37129",35.850396,-86.440796
"37128","Murfreesboro","TN","Keltons Hardware And Pet","2870 Old Fort Parkway","37128",35.84548416561169,-86.44858670948243
"37128","Murfreesboro","TN","MARS","920 W College St, Murfreesboro, TN 37129","37129",35.85624461834729,-86.40498926787481
"37128","Murfreesboro","TN","Ritter Computer Solutions","not_available","37153",35.745014534198475,-86.53402805328369
"37128","Murfreesboro","TN","Ewing Irrigation","190 Chaffin Pl","37129",35.8431,-86.429304
"37128","Murfreesboro","TN","minuteKEY","1825 Old Fort Pkwy","37129",35.843218,-86.42415799999999
"37128","Murfreesboro","TN","Farrer Brothers Hardware","1209 NW Broad St","37129",35.86073684692383,-86.40776824951172
"37128","Murfreesboro","TN","Sherwin-Williams Paint Store","1219 NW Broad St","37129",35.861294,-86.40813299999999
"37128","Murfreesboro","TN","Sherwin-Williams Paint Store","3284 Franklin Rd","37128",35.844697,-86.455648
"37128","Murfreesboro","TN","Dickens Turf & Landscape Supply","230 N Thompson Ln","37129",35.852277,-86.429765
"37128","Murfreesboro","TN","Farrell-Calhoun Paint","1257 NW Broad St","37129",35.862666691965664,-86.4089488494223
"37129","Murfreesboro","TN","Haynes True Value Hardware","1807 Memorial Blvd","37129",35.871617025204,-86.3874613959265
"37129","Murfreesboro","TN","Hooper Power Equipment","418 S Front St","37129",35.84298,-86.39632
"37129","Murfreesboro","TN","minuteKEY","2012 Memorial Blvd","37129",35.878543853759766,-86.38306427001953
"37129","Murfreesboro","TN","IMPELLER, LLC","1902 Haynes Dr","37129",35.89363932558485,-86.42186880111694
"37129","Murfreesboro","TN","Hoover Paint Store","830 Memorial Blvd","37129",35.85543,-86.394322
"37129","Murfreesboro","TN","84 Lumber Company","1935 NW Broad St","37129",35.87559892476813,-86.42416057191046
"37130","Murfreesboro","TN","Fraizers Appliance Repair","610 W College St","37130",35.848960876464844,-86.39690399169922
"37130","Murfreesboro","TN","Home Depot","not_available","37130",35.90153884887695,-86.38311767578125
"37134","New Johnsonville","TN","Dacus Hardware & Supply Co.","Broadway Ave, New Johnsonville, TN 37134","37134",36.02082597412856,-87.9655081013151
"37135","Nolensville","TN","Ace Hardware Of Nolensville","not_available","37135",35.974412,-86.677963
"37143","Pegram","TN","Eddie's Hardware","8898 Highway 70","37221",36.0936015032598,-87.0230046607094
"37148","Portland","TN","Tractor Supply Co.","404 Hwy 52 W","37148",36.57663,-86.52316
"37148","Portland","TN","Ace Hardware","511 S Broadway","37148",36.573371,-86.513282
"37148","Portland","TN","Paint And Paper","not_available","37188",36.464964,-86.658637
"37148","Portland","TN","Wholesales Supply Group","not_available","37148",36.599727,-86.53301
"37148","Portland","TN","Ace Hardware Whitehouse","429 Highway 76","37188",36.4682,-86.6704
"37160","Shelbyville","TN","Lowe's","1734 North Main Street","37160",35.5096589,-86.4540531
"37160","Shelbyville","TN","Shelbyville Lumber Co.","917 N Main St","37160",35.49702072143555,-86.45873260498047
"37160","Shelbyville","TN","Lowes","not_available","37160",35.45780650635041,-86.47301963847586
"37160","Shelbyville","TN","Bedford Farmers CO-OP","222 S. Cannon Blvd.","37160",35.480259924862544,-86.46540641784668
"37160","Shelbyville","TN","ABC Supply","2212 N Main St","37160",35.519479,-86.453355
"37160","Shelbyville","TN","Sherwin-Williams Paint Store","200 Lane Pkwy","37160",35.48581624725075,-86.46366834640503
"37160","Shelbyville","TN","Bubba's Fencing","2202 Sims Rd","not_available",35.479252338409424,-86.52098715305328
"37160","Shelbyville","TN","Tractor Supply Co.","1714 North Main St","37160",35.50814016384039,-86.45624126317287
"37160","Shelbyville","TN","City Electric Supply Shelbyville","627 N Main St","37160",35.488044783776665,-86.45959755775044
"37166","Smithville","TN","J.A.T. Locksmith","914 W Broad St","37166",35.96440124511719,-85.84561157226562
"37166","Smithville","TN","Ace Hardware","702 S Congress Blvd","37166",35.953459,-85.81189
"37166","Smithville","TN","Curtis Supply LLC","not_available","37166",35.964867817360826,-85.84901093799539
"37166","Smithville","TN","Tractor Supply Co.","620 West Broad St","37166",35.959559999999996,-85.83429
"37166","Smithville","TN","Potter's Home Center","615 E Broad St","37166",35.95833206176758,-85.79632568359375
"37167","Smyrna","TN","Gil's Hardware","415 Nissan Dr","37167",35.9952529,-86.492492
"37172","Springfield","TN","Tractor Supply Co.","3556 Tom Austin Hwy Ste 3","37172",36.491961,-86.878976
"37172","Springfield","TN","Walker Hardware","3551-3563 Tennessee 65","37172",36.4910774230957,-86.8763656616211
"37172","Springfield","TN","Ace Hardware Springfield","400 Central Ave E","37172",36.5065,-86.8705
"37172","Springfield","TN","Harbor Freight","not_available","37172",36.49367,-86.8803
"37174","Spring Hill","TN","Clyde Howell Roofing","2567 Greens Mill Rd","38401",35.69580078125,-86.97066497802734
"37174","Spring Hill","TN","Sherwin-Williams Paint Store","404A McLemore Ave","37174",35.75075858333334,-86.93015598333334
"37183","Wartrace","TN","Lowe's","2211 North Jackson Street","37388",35.3926824,-86.2443028
"37183","Wartrace","TN","Harbor Freight Tools","1600 N Jackson St Ste 320","37388",35.378751,-86.22511899999999
"37183","Wartrace","TN","Tractor Supply Co.","1905 North Jackson Street","37388",35.384562,-86.23520699999999
"37183","Wartrace","TN","minuteKEY","2111 N Jackson St","37388",35.3897749,-86.2398955
"37185","Waverly","TN","mid-west supply","not_available","37185",36.07912826538086,-87.83438873291016
"37185","Waverly","TN","PAC Lumber & Hardware","3856 Highway 70 W","37185",36.0761397,-87.8615552
"37185","Waverly","TN","Tractor Supply Co.","111 Brown Town Road","37185",36.081438,-87.835793
"37187","White Bluff","TN","White Bluff Ace Hardware","2010 Highway 47 N","37187",36.109259,-87.227208
"37190","Woodbury","TN","Potters Ace Home Center","948 S McCrary St","37190",35.8145999,-86.0661
"37190","Woodbury","TN","Reeds Building Supply","831 McMinnville Hwy","37190",35.823519,-86.054218
"37201","Nashville","TN","One Stop Hardware Plus","1234 Main St","37222",36.164678442842714,-86.78497552871704
"37201","Nashville","TN","City Electric Supply Nashville Downtown","50 Oldham Street","37213",36.1743231,-86.775964
"37203","Nashville","TN","Diversified Equipment Company","635 3rd Avenue S","37210",36.15370851,-86.77153875
"37203","Nashville","TN","West End Lock Co.","210 17th Ave N","37203",36.156321,-86.796265
"37203","Nashville","TN","Capitol City Bolt & Screw","1003 3rd Ave S","37210",36.148833,-86.768371
"37203","Nashville","TN","Chris-More Inc.","1700 Church St","37203",36.15597915649414,-86.79634094238281
"37203","Nashville","TN","Steinhouse Supply Co.","24 Andrew T Whitmore St","37210",36.141446,-86.759742
"37203","Nashville","TN","Sherwin-Williams Paint Store","833 4th Ave S","37210",36.15125173634245,-86.77126407623291
"37203","Nashville","TN","Sherwin-Williams Product Finishes","700 Drexel St","37203",36.153151,-86.778131
"37203","Nashville","TN","Habitat Homestore","908 Division St","37203",36.15108,-86.781461
"37203","Nashville","TN","PPG Paints","501 5th Ave S","37203",36.152672,-86.774097
"37203","Nashville","TN","the Safe House","1132 4th Ave S","37210",36.145299,-86.766535
"37203","Nashville","TN","Scott Bolt And Screw Co.","600 4th Ave S","37210",36.15464,-86.772596
"37203","Nashville","TN","Light Bulb Depot","not_available","37203",36.15028054274027,-86.77024335860185
"37203","Nashville","TN","Metro Roofing and Metal Supply","805 16th Ave N","37203",36.164179,-86.79990699999999
"37203","Nashville","TN","Sherwin-Williams Commercial Paint Store","701 Lea Ave","37203",36.153548,-86.778295
"37203","Nashville","TN","Farrell-Calhoun Paint","1201 Ft Negely Blvd.","37203",36.14162756031103,-86.77612051903111
"37203","Nashville","TN","Grainger","1021 Charlotte Ave","37203",36.162315,-86.789112
"37203","Nashville","TN","Werthan Granite","448 Chestnut St","37203",36.14373016357422,-86.76991271972656
"37203","Nashville","TN","Quality Machine  Torch Repair","939 4th Ave S","37210",36.1491813659668,-86.76988220214844
"37203","Nashville","TN","Foundation Building Materials","1619 Charlotte Avenue","37203",36.15856096,-86.79751672
"37204","Nashville","TN","The Home Depot","2535 Powell Ave","37204",36.1069585,-86.7661546
"37204","Nashville","TN","Sears","642 Thompson Lane","37204",36.1121653,-86.7555277
"37204","Nashville","TN","Hillsboro Hardware","2204 21st Ave S","37212",36.12990705860915,-86.80203956522244
"37204","Nashville","TN","Nashville Lawn Equipment","602 Thompson Ln","37204",36.11137569999999,-86.7528586
"37204","Nashville","TN","ProSource of Nashville","3078 Sidco Dr","37204",36.096088,-86.756407
"37204","Nashville","TN","Gale Lofts Apartments","811 Gale Ln","37204",36.117585999999996,-86.775748
"37204","Nashville","TN","Kentec Megatools","2177 Nolensville Pike","37211",36.127680244293,-86.75401908356075
"37204","Nashville","TN","John Deere Landscapes","2639 Grandview Ave","37211",36.114296,-86.748866
"37204","Nashville","TN","TATC","2711 Landers Ave","37211",36.113262,-86.749674
"37204","Nashville","TN","Care Supply co.","not_available","37204",36.1071854743587,-86.7583886319738
"37204","Nashville","TN","PDI Kitchen, Bath & Lighting Showroom - Nashville","4277 Sidco Dr","37204",36.08575971,-86.76233551
"37204","Nashville","TN","City Electric Supply Berry Hill","425 Craighead St","37204",36.12577452357752,-86.76919475197792
"37204","Nashville","TN","Creech Ladder","2507 Nolensville Pike","37211",36.118713,-86.749496
"37204","Nashville","TN","Sears","640 Thompson Lane","37204",36.112265,-86.755178
"37204","Nashville","TN","BDI - Bearing Distributors Inc","604 Fessey Park Rd","37204",36.123775482177734,-86.7660903930664
"37204","Nashville","TN","Tribles Appliance Parts","2603 Cruzen St","37211",36.11461639404297,-86.7519302368164
"37204","Nashville","TN","Manning Materials","509 Login St","37211",36.124703,-86.756532
"37204","Nashville","TN","Nashville Door Closer, Inc.","2301 Cruzen St","37211",36.12098599999999,-86.754615
"37204","Nashville","TN","Nashville Sash & Door","3040 Sidco Dr","37204",36.098506927490234,-86.75540924072266
"37204","Nashville","TN","minuteKEY","2421 Powell Ave","37204",36.11094284057617,-86.76861572265625
"37205","Nashville","TN","Lowe's","7034 Charlotte Pike","37209",36.1332208,-86.9063466
"37205","Nashville","TN","Richland Ace Hardware","6401 Charlotte Pike","37209",36.1438389,-86.8730247
"37205","Nashville","TN","Hart Ace Hardware - Belle Meade","5304 Harding Pike","37205",36.1143,-86.861999
"37205","Nashville","TN","Green Hills Lawnmower Co.","4016-Rear Hillsboro Pike","37215",36.101786,-86.817139
"37205","Nashville","TN","home depot","not_available","37215",36.08718271858006,-86.83167973386314
"37205","Nashville","TN","Sherwin-Williams Paint Store","101 Heady Dr","37205",36.098380999999996,-86.871646
"37205","Nashville","TN","Brentwood Blind Company","5133 Harding Pike","37205",36.1035832,-86.86907857
"37205","Nashville","TN","Blake Supply Company","992 Davidson Dr Ste I","37205",36.12434387207031,-86.90156555175781
"37206","Nashville","TN","Sherwin-Williams Paint Store","403 Gallatin Ave","37206",36.181011,-86.749187
"37206","Nashville","TN","Cumberland Hardware","Main Street","37206",36.177166,-86.750292
"37206","Nashville","TN","Real Wood Floors","1100 Fatherland St Ste 107","37206",36.1739359,-86.750126
"37206","Nashville","TN","Hosse & Hosse Keys","918 Woodland St","37206",36.175197,-86.75524300000001
"37207","Nashville","TN","Lowe's","3460 Dickerson Pike","37207",36.2464588,-86.7617442
"37207","Nashville","TN","H&E Equipment Services","2927 Brick Church Pike","37207",36.224461,-86.78115
"37207","Nashville","TN","City Electric Supply Nashville North","120 Ewing Dr","37207",36.229183,-86.76135500000001
"37207","Nashville","TN","Tri-State Distributing","not_available","37207",36.218546999999994,-86.764099
"37207","Nashville","TN","Ace Hardware","3007-3099 Dickerson Pike","37207",36.22870193126206,-86.75931845261209
"37207","Nashville","TN","Third Ave Hardware","1138 3rd Ave N","37208",36.176170349121094,-86.78502655029297
"37207","Nashville","TN","Wilson Steel","1429 Cowan Ct","37207",36.184796,-86.779391
"37207","Nashville","TN","Elder Building Supply","401 Cowan St","37207",36.177830548538964,-86.7754604893862
"37207","Nashville","TN","New Holland","Dickerson Rd","37207",36.257051,-86.759498
"37207","Nashville","TN","Bud's Hardware and Key Shop","1600 Buchanan St","37208",36.180240000000005,-86.810079
"37209","Nashville","TN","Dickens Turf & Landscape Supply","600 Old Hickory Blvd Ste 110","37209",36.107033,-86.92182700000001
"37209","Nashville","TN","Blue Ridge Floors","4004 Hillsboro Pike, 120R","37215",36.103597381214456,-86.81433620397002
"37209","Nashville","TN","Boral Brick","7140 Centennial Pl","37209",36.179331,-86.8785
"37209","Nashville","TN","Adams Swimming Pool Inc.","5918 Robertson Ave","37209",36.156826,-86.865349
"37209","Nashville","TN","City Electric Supply Nashville West","7000 Westbelt Dr","37209",36.17146145313003,-86.87682348272995
"37209","Nashville","TN","Sherwin-Williams Paint Store","713 51st Ave N","37209",36.156271000000004,-86.849145
"37209","Nashville","TN","Maenza's","not_available","37221",36.09835198472336,-86.92353460426915
"37209","Nashville","TN","Arhaus","2126 Abbott Martin Road","37215",36.1072983,-86.8160717
"37209","Nashville","TN","wiggs-haun & bohan","7013 Westbelt Dr","37209",36.172451,-86.878355
"37209","Nashville","TN","Fastenal","7004 Westbelt Dr","37209",36.171485,-86.876818
"37209","Nashville","TN","Hoover Paint Store","4004 Hillsboro Pike #140","37215",36.1036379,-86.8141019
"37209","Nashville","TN","Sherwin-Williams Paint Store","3900 Hillsboro Pike","37215",36.105586784836426,-86.8131564333575
"37210","Nashville","TN","Ferguson Plumbing Supply","1708 Elm Hill Pike","37210",36.14578628540039,-86.70811462402344
"37210","Nashville","TN","Ewing Irrigation","118 Park South Ct","37210",36.1270893,-86.73945599999999
"37210","Nashville","TN","Trane","1654 Elm Hill Pike","37210",36.14679718017578,-86.70960235595703
"37210","Nashville","TN","H G Lipscomb Hardware","621 Murfreesboro Pike","37210",36.140388,-86.739891
"37210","Nashville","TN","HD Supply White Cap","925 Fesslers Ln","37210",36.13576815,-86.74785632
"37210","Nashville","TN","Whitecap","not_available","37210",36.135558,-86.74708
"37210","Nashville","TN","Jeffco Flooring & Supply, Inc.","831 Fesslers Pkwy","37210",36.1469,-86.741366
"37210","Nashville","TN","Fastenal","820","37210",36.13788986206055,-86.74588775634766
"37210","Nashville","TN","Power Tool Service","1106 Elm Hill Pike","37210",36.144224,-86.733122
"37210","Nashville","TN","Hilti Inc","561 Murfreesboro Pike","37210",36.141702,-86.741845
"37210","Nashville","TN","Marcone Appliance Repair","883 Elm Hill Pike","37210",36.14444496238169,-86.7434492979041
"37210","Nashville","TN","General Industrial Supply","1136 Lebanon Pike","37210",36.154059000000004,-86.73344300000001
"37210","Nashville","TN","Tennessee Die Supply","725 Massman Dr","37210",36.14666596666667,-86.71110474
"37211","Nashville","TN","Johnson's Hardware","2928 Nolensville Pike","37211",36.109472,-86.743897
"37211","Nashville","TN","FloorAmerica Products","2200 Dortch Ave","37210",36.12543135134981,-86.74599766731262
"37212","Nashville","TN","Hillsboro Hardware","21st Ave","37212",36.122000005067285,-86.80724690829516
"37214","Nashville","TN","Harbor Freight Tools","2300 Lebanon Pike","37214",36.169695808120686,-86.68451636843592
"37214","Nashville","TN","Grainger Supply","1938 Elm Tree Dr","37210",36.15155668219018,-86.70175555725453
"37214","Nashville","TN","International Door Closers Inc East","1920 Air Lane Dr","37210",36.147301,-86.698074
"37214","Nashville","TN","Apollo Trading Company","1838 Elm Hill Pike Ste 100","37210",36.14901661618478,-86.70332908630371
"37214","Nashville","TN","Brookmeade Hardware & Supply","not_available","37206",36.14482145422381,-86.70442436681004
"37214","Nashville","TN","extreme energy Solutions","not_available","37214",36.16874313354492,-86.67994689941406
"37214","Nashville","TN","Ferguson Waterworks","660-A Massman Dr","37210",36.1527999493265,-86.7042101371167
"37217","Nashville","TN","Glidden Paint","409 Harding Pl","37211",36.079232,-86.727129
"37217","Nashville","TN","Tri-County Garage Door","946 Coles Ferry Pike","37087-5621",36.1436004,-86.7181697
"37217","Nashville","TN","Sherwin-Williams Floorcovering Store","1412 Antioch Pike","37013",36.08247098578556,-86.68779373168944
"37217","Nashville","TN","HGH Hardware Supply","402 Harding Industrial Drive","37211-3106",36.0901944,-86.6885769
"37218","Nashville","TN","Mendoza Rebuilding Houses Llc.","3328 Kings Ln","37218",36.219033,-86.834722
"37221","Nashville","TN","The Home Depot","7665 Highway 70 South","37221",36.0765346,-86.9540336
"37221","Nashville","TN","Sears","Hwy 70 S, Nashville, TN 37221","37221",36.0652851880307,-86.93367612472134
"37221","Nashville","TN","Westside Hardware","804 Creek Valley Ct","37221",36.06069564819336,-86.96643829345703
"37302","Apison","TN","Pittsburgh Paints","2220 W. Alabama","37353",35.053443908691406,-84.9859848022461
"37303","Athens","TN","Lowe's","1751 Congress Pkwy S","37303",35.445708,-84.62723
"37303","Athens","TN","Harbor Freight","not_available","37303",35.448758,-84.610136
"37303","Athens","TN","Wade's Ace Hardware","353 Able Street","37322",35.515814,-84.78995400000001
"37303","Athens","TN","Valley Farmers Co-op","920 Congress Pkwy N","37303",35.480893,-84.591954
"37303","Athens","TN","Tractor Supply Co.","622 South Congress Pkwy","37303",35.460237,-84.614896
"37303","Athens","TN","Sherwin-Williams Paint Store","1302 Decatur Pike","37303",35.449501007032836,-84.61669921875
"37303","Athens","TN","Valley Farmers COOP","920 Congress Parkway","37303",35.47943115234375,-84.59539794921875
"37303","Athens","TN","minuteKEY","1815 Decatur Pike","37303",35.452655,-84.6268423
"37303","Athens","TN","Husqvarna US","1310 Railroad Ave","37303",35.45512390136719,-84.60453796386719
"37306","Belvidere","TN","Sherwin-Williams Paint Store","715 Dinah Shore Blvd","37398",35.191626,-86.10641899999999
"37306","Belvidere","TN","Husqvarna US","918 S College St","37398",35.17998123168945,-86.09809875488281
"37306","Belvidere","TN","Tristate Installers","1773 Sunrise","37398",35.176716,-86.08042900000001
"37306","Belvidere","TN","Franklin County Lumber Co Inc","617 David Crockett Hwy","37398",35.181015,-86.116844
"37307","Benton","TN","Massengill Ace Hardware","6056 Highway 411","37307",35.1678179,-84.657128
"37309","Calhoun","TN","Lowes","not_available","37321",35.252532963808186,-84.79407916387997
"37309","Calhoun","TN","Ace Hardware","140 Water St NE","37310",35.288774,-84.7563
"37310","Charleston","TN","The Home Depot","546 Paul Huff Pkwy NW","37312",35.211402,-84.8543879
"37310","Charleston","TN","Elder's Ace Hardware-Cleveland","990 25th St NW","37311",35.186135,-84.875967
"37310","Charleston","TN","Lowe's","229 Paul Huff Parkway NW","37312",35.2037277,-84.850502
"37310","Charleston","TN","Glidden Professional Paint Center","99 Mouse Creek Rd NW","37312",35.197013,-84.851143
"37310","Charleston","TN","The Toilet Store","not_available","37312",35.186103,-84.835066
"37310","Charleston","TN","Farrell-Calhoun Paint","45 Mouse Creek Rd NW","37312",35.196358,-84.850618
"37310","Charleston","TN","Central Heat & Air","380 Mohawk Dr NW","37312",35.210776,-84.848269
"37310","Charleston","TN","Tractor Supply Co.","2750 Keith St Northwest","37312",35.18672429557315,-84.86972605334607
"37310","Charleston","TN","Dwayne Joyner","114 Stuart Rd NE PMB #330","37312",35.19975662231445,-84.84510803222656
"37310","Charleston","TN","bill owens plumbing","not_available","37311",35.19072136739196,-84.8757182582426
"37311","Cleveland","TN","International Furniture Supply Co Inc","481 Kile Ln SW","37311",35.141702,-84.898131
"37311","Cleveland","TN","City Electric Supply","181 Industrial Parkway","30528",35.1231708,-84.90873
"37311","Cleveland","TN","Bradley Rentals","336 Grove Ave SW","37311",35.158205276063825,-84.88710880279541
"37311","Cleveland","TN","Sherwin-Williams Paint Store","271 Keith St NW","37311",35.16039276123047,-84.88386535644531
"37311","Cleveland","TN","PPG Porter Paints","919 Keith St NW","37311",35.171143,-84.880422
"37311","Cleveland","TN","Homestead Lawn & Tractor","3529 Apd 40","37311",35.135101318359375,-84.90523529052734
"37312","Cleveland","TN","Ferguson Plumbing Supply","3375 Old Tasso Rd Ne","37312",35.1717768383118,-84.8355701705454
"37312","Cleveland","TN","Amazing Machinery","3811 Old Tasso Rd NE","37312",35.176549,-84.833398
"37312","Cleveland","TN","Husqvarna US","6529 Georgetown Rd NW","37312",35.256534576416016,-84.90950775146484
"37317","Copperhill","TN","J & B Hardware","5454 Highway 64","37317",35.029371,-84.377132
"37321","Dayton","TN","Lowe's","3535 Rhea County Highway","37321",35.4661894,-85.0410123
"37321","Dayton","TN","Tractor Supply Co.","200 Able Dr Ste 10","37321",35.476234,-85.027127
"37321","Dayton","TN","Quick Fix Lawn & Garden Equipment","257 Ferry Landing Rd","37321",35.49735723333333,-84.89055131666667
"37321","Dayton","TN","Ace Hardware","10259 Rhea County Hwy","37321",35.540428161621094,-84.97351837158203
"37321","Dayton","TN","Dayton Paint And Glass","290 Main St","37321",35.492656,-85.013377
"37321","Dayton","TN","Sherwin-Williams Paint Store","4155 Rhea County Hwy","37321",35.471993,-85.03404
"37321","Dayton","TN","84 Lumber","2307 Rhea County Hwy","37321",35.452382769173205,-85.05627224456005
"37324","Decherd","TN","The Home Depot","2965 Decherd Blvd","37398",35.22134886400822,-86.1042845249176
"37324","Decherd","TN","Tractor Supply Co.","1425 Dinah Shore Blvd","37398",35.198586999999996,-86.09769
"37324","Decherd","TN","Horticulture Equipment & Services LLC","8642 Veterans Memorial Drive","37324",35.26038520000001,-85.995136
"37324","Decherd","TN","Henley Ace Home Center","1765 Decherd Blvd","37324",35.203143,-86.094999
"37324","Decherd","TN","Henley Hardware","not_available","37324",35.203153,-86.094444
"37324","Decherd","TN","PRO Hardware","not_available","37398",35.217352,-86.100601
"37327","Dunlap","TN","Husqvarna US","PO Box 38","37327",35.39197540283203,-85.39122009277344
"37327","Dunlap","TN","Tractor Supply Co.","7342 State Rte 28 Ste B","37327",35.358739,-85.396467
"37327","Dunlap","TN","Daus Pro Hardware","Press Pickett Road","37397",35.28335211,-85.44431466
"37327","Dunlap","TN","Farley's Ace Hdwe & Bldg Product","16414 Rankin Ave","37327",35.3715589,-85.390264
"37330","Estill Springs","TN","Sherwin-Williams Paint Store","108 W Lauderdale St","37388",35.361408000000004,-86.20992
"37330","Estill Springs","TN","Briggs Paint","McArthur St","37355",35.337207261496026,-86.08265331864247
"37330","Estill Springs","TN","Hawk Hardware","102 E Warren St","37388",35.36056137084961,-86.20647430419922
"37334","Fayetteville","TN","minuteKEY","1224 Huntsville Hwy","37334",35.13679504394531,-86.56490325927734
"37334","Fayetteville","TN","Tractor Supply Co.","1332 Huntsville Hwy","37334",35.131084,-86.564732
"37334","Fayetteville","TN","Fastenal","not_available","37334",35.130259,-86.564607
"37334","Fayetteville","TN","Parkway Wholesale","1921 Wilson Pkwy","37334",35.14109408392616,-86.57776435354981
"37334","Fayetteville","TN","ASHBY TRUE VALUE HARDWARE","129 E COLLEGE ST","37334",35.15238571166992,-86.57023620605469
"37334","Fayetteville","TN","Husqvarna","2723 Huntsville Hwy","37334",35.08012008666992,-86.57151794433594
"37334","Fayetteville","TN","Husqvarna","11 Highland Rim Rd","37334",35.06380844116211,-86.57437896728516
"37338","Graysville","TN","McCosh's Landscaping And Supply","200 Industrial Blvd","37373",35.344894000000004,-85.128817
"37338","Graysville","TN","Daniels Farm Supply","13824 Dayton Pike","37373",35.350392,-85.123812
"37342","Hillsboro","TN","Airmax, Inc.","7469 Hillsboro Hwy","37342",35.414241790771484,-85.97433471679688
"37342","Hillsboro","TN","Mid Tenn Turf, Inc.","4698 New Bushy Branch Rd","37355",35.4844859,-86.009914
"37343","Hixson","TN","Lowe's","5428 Highway 153","37343",35.1375666,-85.2459365
"37343","Hixson","TN","The Home Depot","1944 Northpoint Blvd","37343",35.1373608,-85.2435405
"37343","Hixson","TN","Ace Hardware","8205 Daisy Dallas Rd","37343",35.200972906405646,-85.1599948278798
"37343","Hixson","TN","Sears","401 Northgate Mall","37415",35.12824818716216,-85.23946432223306
"37343","Hixson","TN","Lowes","hwy 153","37343",35.11492548239679,-85.24009625948878
"37343","Hixson","TN","Action Fence Company","6720 Hixson Pike","37343",35.16340637207031,-85.19017028808594
"37343","Hixson","TN","/:/ ThE GaRaGe /:/","not_available","37379",35.221290212577486,-85.22558514964751
"37343","Hixson","TN","Sherwin-Williams Paint Store","5112 Hixson Pike","37343",35.13549993679739,-85.2387262103237
"37343","Hixson","TN","Ace Hardware","Dayton Blvd","not_available",35.122586558132994,-85.23913065643252
"37343","Hixson","TN","Sears","5450 Highway 153, Suite 100","37343",35.139809313778706,-85.24388015270227
"37343","Hixson","TN","Home Outlet","5380 TN 153 #118","37343",35.1358671,-85.2441076
"37343","Hixson","TN","Benjamin Moore Paint Store","not_available","37343",35.145695,-85.222628
"37343","Hixson","TN","Elder's Ace Hardware-Dallas Bay","8531 Hixson Pike","37343",35.190651,-85.166874
"37347","Jasper","TN","Lowe's","525 Dixie Lee Center Road","37347",35.0414886,-85.6787948
"37347","Jasper","TN","Tractor Supply Co.","225 Wilson Carter Dr","37347",35.042683,-85.6756
"37347","Jasper","TN","minuteKEY","525 Kimball Crossing Dr","37347",35.0404552,-85.6820024
"37347","Jasper","TN","Badcock Home Furniture &more","3600 Main St","37347",35.0677884,-85.636341
"37347","Jasper","TN","Collins Building Supply","Hwy 41","37347",35.028259675988735,-85.6035469538787
"37347","Jasper","TN","Marion True Value Lumber Co","220 E 3rd St","37380",35.010836,-85.70265
"37354","Madisonville","TN","Miller's Wholesale Carpet","433 Isbill Rd","37354",35.50470281658023,-84.369768767772
"37354","Madisonville","TN","Foothills Farmers Co-op","776 New Highway 68","37874",35.59115514789778,-84.47949456297776
"37354","Madisonville","TN","Seiler brothers lumber","309 main st","not_available",35.6003543,-84.4688329
"37354","Madisonville","TN","Tates Building Supply","1300-1398 Tennessee 72","37885",35.58298937075427,-84.24363092546274
"37354","Madisonville","TN","Farmer's Co Op","not_available","37354",35.51470947265625,-84.3719253540039
"37354","Madisonville","TN","Plumbing job","not_available","37874",35.60704,-84.4325
"37354","Madisonville","TN","minuteKEY","4525 Highway 411","37354",35.512365,-84.360043
"37354","Madisonville","TN","Sweetwater security","PO Box 926","37874",35.60035266861976,-84.46781631437497
"37354","Madisonville","TN","Foothills Farmers Co-Op","760 New Highway 68","37874",35.591375883333335,-84.47948501666667
"37354","Madisonville","TN","Wright Hardware Co","101 N Main St","37874",35.59904334209301,-84.46326987237734
"37354","Madisonville","TN","Husqvarna US","5085 New Highway 68","37354",35.494869232177734,-84.3639907836914
"37355","Manchester","TN","The Home Depot","187 Roberts Blvd","37355",35.45183018325338,-86.0435163974762
"37355","Manchester","TN","C & G Sheetmetal","not_available","37355",35.51665181269221,-86.08393213695746
"37355","Manchester","TN","Tractor Supply Co.","2161 Hillsboro Blvd Ste 13","37355",35.461425,-86.058153
"37355","Manchester","TN","Coffee Farmers Co-Op","93 Interstate Dr.","37355",35.492653,-86.073228
"37355","Manchester","TN","Husqvarna US","PO Box 420","37349",35.50010681152344,-86.0838851928711
"37355","Manchester","TN","Eaton Ace Hardware","1084 Murfreesboro Hwy","37355",35.488316999999995,-86.092015
"37355","Manchester","TN","Don's Supply","851 McArthur St","37355",35.473087,-86.082257
"37355","Manchester","TN","Hoover Paint Store","830 McArthur St","37355",35.474305,-86.082996
"37356","Monteagle","TN","Ace Hardware","not_available","37356",35.237594,-85.85358
"37363","Ooltewah","TN","Lowe's","2180 Gunbarrel Road","37421",35.0352206,-85.1499003
"37363","Ooltewah","TN","The Home Depot","7421 Commons Blvd","37421",35.0358098,-85.1471009
"37363","Ooltewah","TN","Elder's Ace Hardware-East Brainerd","8164 E Brainerd Rd","37421",35.003075,-85.147651
"37363","Ooltewah","TN","True Value At Oakbrook","9814 E Brainerd Rd","37363",34.99620819091797,-85.08609771728516
"37363","Ooltewah","TN","Tractor Supply Co.","9408 Apison Pike Ste 122","37363",35.059303,-85.068519
"37363","Ooltewah","TN","J&L Lawnmower Repair","1042 Graysville Rd Ste 4","37421",35.00149489737782,-85.14925555479522
"37363","Ooltewah","TN","Elder's Ace Hardware-Ooltewah","9231 Lee Hwy","37363",35.083274,-85.06044
"37363","Ooltewah","TN","Southern Cabinets & Lightening","1814 Gunbarrel Rd","37421",35.023803,-85.15562299999999
"37363","Ooltewah","TN","Thompson Plumbing Supply","2835 Hickory Valley Rd","37421",35.065037,-85.157444
"37363","Ooltewah","TN","Sherwin-Williams Paint Store","5556 Little Debbie Pkwy","37363",35.08140947834319,-85.0676429271698
"37363","Ooltewah","TN","minuteKEY","2180 Gunbarrel Rd","37421",35.035282135009766,-85.14997863769531
"37363","Ooltewah","TN","Sherwin-Williams Paint Store","8150 E Brainerd Rd","37421",35.003048,-85.148222
"37363","Ooltewah","TN","Sherwin-Williams Paint Store","7323 Lee Hwy","37421",35.05399435271418,-85.14794826507568
"37363","Ooltewah","TN","City Electric Supply Chattanooga East","7331 Lee Hwy","37421",35.05384213323965,-85.14793767379562
"37367","Pikeville","TN","Old Maintenance","Park Road","38585",35.63903009275158,-85.35889229123973
"37367","Pikeville","TN","New Maintenance","not_available","38585",35.667808532714844,-85.34632873535156
"37374","Sequatchie","TN","Lowe's","3500 US Highway 41 W","49855",35.2426909,-85.690697
"37374","Sequatchie","TN","minuteKEY","4701 S US Highway 41","47802",35.2426909,-85.690697
"37377","Signal Mountain","TN","Ferguson Plumbing Supply","4121 S Creek Rd","37406",35.093287,-85.249624
"37377","Signal Mountain","TN","Elder's Ace Hardware-Dayton Blvd","1870 Dayton Blvd","37405",35.0854059,-85.316449
"37377","Signal Mountain","TN","River Bend Materials","4300 Amnicola Highway","37406",35.095562,-85.243063
"37377","Signal Mountain","TN","Sherwin-Williams Paint Store","3613 Dayton Blvd","37415",35.114906296887035,-85.29338836669922
"37377","Signal Mountain","TN","The Key Guys","On the move","37406",35.1001175,-85.2372998
"37377","Signal Mountain","TN","Tractor Supply Co.","684 Signal Mountain Rd","37405",35.098271999999994,-85.32522800000001
"37377","Signal Mountain","TN","Grainger Supply","not_available","37406",35.093249572648,-85.25512916837933
"37377","Signal Mountain","TN","Elder's Ace Hardware-Walden","2000 Taft Hwy","37377",35.15460968017578,-85.3171615600586
"37379","Soddy Daisy","TN","Tractor Supply Co.","222 Sequoyah Rd Ste J","37379",35.249133,-85.180923
"37380","South Pittsburg","TN","Smith's Ace Hardware","146 Highway 283","37397",35.180438,-85.527446
"37381","Spring City","TN","Ace Hardware","441 Front St","37381",35.694236,-84.860256
"37381","Spring City","TN","Husqvarna US","905 Cemetery Rd","37381",35.681190490722656,-84.8725814819336
"37385","Tellico Plains","TN","Tallent Hardware","not_available","37385",35.362553000000005,-84.294597
"37402","Chattanooga","TN","Ace Hardware","2700 Broad St","37408",35.0253313360515,-85.31771949643239
"37402","Chattanooga","TN","chattanooga paint & Decorating","not_available","37408",35.02818298339844,-85.30498504638672
"37402","Chattanooga","TN","Porter Paints","2409 Broad St","37408",35.029709999999994,-85.31604899999999
"37404","Chattanooga","TN","Rabbit Enterprises","1526 Dodds Ave","37404",35.021359999999994,-85.269789
"37404","Chattanooga","TN","Elder's Ace Hardware-East Ridge","3502 Ringgold Rd","37412",35.0045649,-85.260655
"37404","Chattanooga","TN","Barn Nursery","1801 E 24th Street Pl","37404",35.017252,-85.28635648333334
"37404","Chattanooga","TN","Sherwin-Williams Commercial Paint Store","1315 E 23rd St","37404",35.02236,-85.290925
"37404","Chattanooga","TN","Ed's Supply Co.","not_available","37404",35.00968744158691,-85.29208230881765
"37404","Chattanooga","TN","City Electric Supply Chattanooga","1515 Central Ave","37408",35.031338316410796,-85.29690876603121
"37404","Chattanooga","TN","Mechanical Drives Inc.","3806 Calhoun Ave","37407",34.999383,-85.292681
"37404","Chattanooga","TN","Walter A Woods","not_available","37407",34.990601,-85.290673
"37404","Chattanooga","TN","Atlas Bolt & Supply","3217 Rossville Blvd","37407",35.006029999999996,-85.2936
"37404","Chattanooga","TN","Wholesale Supply Group","2411 E 23rd St","37407",35.017013,-85.274857
"37404","Chattanooga","TN","T. T. Wilson Co.","1255 Central Ave","37408",35.034564,-85.29538199999999
"37404","Chattanooga","TN","Husqvarna US","4509 Rossville Blvd","37407",34.990840911865234,-85.29045104980469
"37405","Chattanooga","TN","Sherwin-Williams Paint Store","450 Cherokee Blvd","37405",35.067211,-85.315599
"37409","Chattanooga","TN","Ace Hardware of Lookout","3712 Cummings Hwy","37419",35.017559000000006,-85.37980400000001
"37411","Chattanooga","TN","Harbor Freight","5839 Brainerd Rd","37411",35.01456980021318,-85.21202303166056
"37411","Chattanooga","TN","Elder's Ace Hardware-Brainerd","5906 Lee Hwy","37421",35.0229629,-85.197558
"37411","Chattanooga","TN","Sherwin-Williams Paint Store","5256A Brainerd Rd","37411",35.00995458625089,-85.22159099578857
"37411","Chattanooga","TN","East Brainerd Lumber","6125-6199 Provence St","37421",35.02510718333333,-85.19448648333334
"37411","Chattanooga","TN","Access Door Company","7335 Hixson Pike","37343",35.009059,-85.197323
"37411","Chattanooga","TN","T J Snow Company","120 Nowlin Ln","37421",35.026599,-85.200572
"37411","Chattanooga","TN","Harbor Freight","Brainerd rd","37421",35.015777101041024,-85.20630018584279
"37412","Chattanooga","TN","East Ridge Hardware","5337 Ringgold Rd","37412",34.994892,-85.23223399999999
"37412","Chattanooga","TN","AAA Lock & Key","6806 Ringgold Rd","37412",34.98792,-85.190674
"37415","Chattanooga","TN","Duo-Fast","4009 Industry Dr","37416",35.075285,-85.202381
"37416","Chattanooga","TN","Elder's Ace Hardware-Chattanooga","4921 Highway 58","37416",35.092222,-85.18204
"37416","Chattanooga","TN","Fastenal","3740 Powers Ct","37416",35.071577000000005,-85.19560200000001
"37416","Chattanooga","TN","Trans Parts Center","6138 Preservation Dr","37416",35.074467,-85.184314
"37416","Chattanooga","TN","Keeling Company","not_available","37416",35.07398239747987,-85.1807462
"37416","Chattanooga","TN","E.R.C. Cell Phone and Computer Repair","4621 Highway 58","37416",35.086371,-85.192839
"37416","Chattanooga","TN","Southern Fluidpower","4816 Bonny Oaks Drive","37416",35.073679,-85.19314399999999
"37421","Chattanooga","TN","Southeastern Salvage","6052 Lee Hwy","37421",35.02491664748861,-85.19124987979633
"37421","Chattanooga","TN","Probuild","6006 Lee Hwy","37421",35.024375,-85.19329
"37421","Chattanooga","TN","Mid-South Equipment","1509 Church St","37421",35.038125,-85.17993055555556
"37421","Chattanooga","TN","Farrell-Calhoun Paint","6845 Lee Hwy","37421",35.0418444,-85.167872
"37421","Chattanooga","TN","Lee Paint Center","6620 Lee Highway","37421",35.03662,-85.17474
"37601","Johnson City","TN","The Home Depot","3207 Peoples Street","37604",36.3474255,-82.398393
"37601","Johnson City","TN","Benedict's Ace Hardware","3607 N Roan St","37601",36.365119,-82.397129
"37601","Johnson City","TN","Tractor Supply Co.","4534 Bristol Hwy","37601",36.402637,-82.345803
"37601","Johnson City","TN","Northern Tool","422 Marketplace Dr","37604",36.33849282052574,-82.40716010293123
"37601","Johnson City","TN","Lowes","3110 Browns Mill Rd","37604",36.3596076965332,-82.39502716064453
"37601","Johnson City","TN","Sears","2011 N Roan St","37601",36.33878705,-82.37708793
"37601","Johnson City","TN","GO GREEN INTERNATIONAL LLC","129 E Springbrook Dr","37601",36.352634,-82.379747
"37601","Johnson City","TN","minuteKEY","180 Marketplace Dr","37604",36.34413528442383,-82.4074935913086
"37601","Johnson City","TN","City Electric Supply Johnson City","3210 Hanover Rd","37604",36.3538194,-82.4064766
"37601","Johnson City","TN","Sherwin-Williams Paint Store","108 E Mountcastle Dr","37601",36.3410039663781,-82.37394332885742
"37601","Johnson City","TN","Airgas","716 W Walnut St","37604",36.309425,-82.360875
"37601","Johnson City","TN","Grainger Industrial Supply","3105 Hanover Rd","37604",36.351059,-82.403595
"37601","Johnson City","TN","Abc Supply","2801 E Oakland Ave","37601",36.358266,-82.37240600000001
"37601","Johnson City","TN","House Of Paneling","1207 E Market St","37601",36.325763,-82.33618100000001
"37601","Johnson City","TN","Habitat For Humanity Restore","3201 Kimberly Ct Unit 200","37604",36.3588981628418,-82.40087127685547
"37601","Johnson City","TN","Farrell-Calhoun Paint","3010 E Oakland Ave","37601",36.360708096904354,-82.38164878208136
"37601","Johnson City","TN","Irby","501 W Mountain View Rd","37604",36.354942465857604,-82.40659654140472
"37601","Johnson City","TN","Western Cedar Supply","3611 N Roan St","37601",36.365624,-82.398178
"37601","Johnson City","TN","Summers Hardware","400 Buffalo St","37604",36.313744,-82.352887
"37601","Johnson City","TN","My Office ""But Only For A Lil While""","not_available","37601",36.325069,-82.354754
"37604","Johnson City","TN","Lowe's","180 Market Place Blvd","37604",36.344171,-82.407521
"37604","Johnson City","TN","Harbor Freight Tools","3302 W Market St Ste 5","37604",36.31281231628059,-82.41280735822069
"37604","Johnson City","TN","Matheson","156 Perma R Rd","37604",36.30798,-82.41657
"37615","Johnson City","TN","Ferguson Plumbing Supply","1000 Quality Circle","37615",36.38264,-82.41812
"37615","Johnson City","TN","Twin Creeks Log Home Supply","17 Business Way","37615",36.4162712097168,-82.4638900756836
"37615","Johnson City","TN","McNany's Hardware","not_available","37615",36.413362,-82.470389
"37615","Johnson City","TN","ProBuild","691 Suncrest Dr","37615",36.400753021240234,-82.48313903808594
"37616","Afton","TN","Home Improvement Warehouse","not_available","37745",36.175794,-82.792937
"37616","Afton","TN","harbor freight tools","AJ hwy","37745",36.174555,-82.795565
"37616","Afton","TN","Sherwin-Williams Paint Store","3165 E Andrew Johnson Hwy","37745",36.184578,-82.770173
"37616","Afton","TN","Print Art","1621 Industrial Rd","37745",36.190686,-82.79394
"37616","Afton","TN","Tractor Supply Co.","1665 East Andrew Johnson Hwy Ste 2","37745",36.177793762409024,-82.79395135385346
"37616","Afton","TN","Grand Rental Station","2215 E Andrew Johnson Hwy","37745",36.179077,-82.783939
"37616","Afton","TN","Lowe's","2375 East Andrew Johnson Highway","37745",36.1801215,-82.7803805
"37617","Blountville","TN","Builders Mart","3302 Tennessee 126","37617",36.53356786646819,-82.32161077101799
"37618","Bluff City","TN","Superior Distribution Company","415 Century Ct","37686",36.42556381225586,-82.30467224121094
"37618","Bluff City","TN","Parkway Rentals","2513 Volunteer Pkwy","37620",36.5299419,-82.2482739
"37618","Bluff City","TN","General Shale Brick","not_available","37618",36.43808426865735,-82.27904968878167
"37618","Bluff City","TN","Builders First Source","260 Piney Flats Rd","37686",36.421634000000005,-82.310375
"37620","Bristol","TN","Lowe's","1340 Volunteer Pkwy","37620",36.5608749,-82.2113737
"37620","Bristol","TN","minuteKEY","220 Century Blvd","37620",36.545021057128906,-82.23530578613281
"37620","Bristol","TN","Farrell-Calhoun Paint","301 Gate City Hwy","24201",36.597771,-82.213695
"37620","Bristol","TN","Builders First Source","941 W State St","24201",36.595463,-82.19054399999999
"37620","Bristol","TN","Holston Hardware","not_available","37620",36.59410858154297,-82.1767349243164
"37620","Bristol","TN","Sherwin-Williams Paint Store","1410 W State St","37620",36.595077,-82.198472
"37620","Bristol","TN","Lowes","not_available","24201",36.601572552084846,-82.11521417697365
"37620","Bristol","TN","City Electric Supply Bristol","718 Martin Luther King Jr Blvd","24201",36.60195418217579,-82.17564708127463
"37620","Bristol","TN","The Door Store","1015 Sycamore St","24201",36.600444,-82.188742
"37620","Bristol","TN","ProBuild","196 Beacon Rd","24201",36.614463,-82.133477
"37620","Bristol","TN","Godsey Supply","435 Godsey Rd","37620",36.562239,-82.212554
"37620","Bristol","TN","HD Supply A.H. Harris","1049 Island Rd","24201",36.609373,-82.211182
"37642","Church Hill","TN","minuteKEY","2500 W Stone Dr","37660",36.556983,-82.603075
"37642","Church Hill","TN","Tractor Supply Co.","2606 Minnich Trl","37660",36.55696,-82.606509
"37643","Elizabethton","TN","Lowe's","925 Patriot Drive","37643",36.3514163,-82.2422223
"37643","Elizabethton","TN","Biomass Direct LLC: Alternative Heating","300 Cherokee Park Dr","37643",36.35329818725586,-82.23458099365234
"37643","Elizabethton","TN","Tractor Supply Co.","210 Cherokee Park Dr","37643",36.353179,-82.23369
"37643","Elizabethton","TN","Farm Supply Company","515 East E Street","37643",36.348876953125,-82.21588134765625
"37643","Elizabethton","TN","Lowes","not_available","37643",36.35137789125059,-82.24207677258897
"37643","Elizabethton","TN","minuteKEY","1001 Over Mountain Dr","37643",36.3481148,-82.2440608
"37643","Elizabethton","TN","Sherwin-Williams Paint Store","417 W Elk Ave","37643",36.35200881958008,-82.23312377929688
"37643","Elizabethton","TN","Elizabethton Lumber & Building Materials","106 Clay Little Rd","37643",36.31475,-82.199721
"37643","Elizabethton","TN","Warranty Plus Small Engine Repair","185 Lovers Ln","37643",36.358216,-82.211623
"37650","Erwin","TN","Liberty Lumber","101 S Elm Ave","37650",36.144277604234226,-82.41560339927673
"37650","Erwin","TN","Crackerbees","not_available","37692",36.198614,-82.350046
"37650","Erwin","TN","Tractor Supply Co.","1258 North Main Ave","37650",36.158809000000005,-82.397914
"37650","Erwin","TN","Lafoon Construction","not_available","37657",36.016094613277964,-82.55133926868439
"37659","Jonesborough","TN","Lowe's","1498 E Jackson Boulevard","37659",36.3027458,-82.4512634
"37659","Jonesborough","TN","Tractor Supply Co.","507 Boones Creek Rd","37659",36.301338,-82.468491
"37659","Jonesborough","TN","Olde Towne Small Engine","1412 Persimmon Ridge Rd","37659",36.29122671844928,-82.49631643295288
"37660","Kingsport","TN","Lowe's","2526 East Stone Drive","37660",36.5486183,-82.5009155
"37660","Kingsport","TN","Lowe's","2324 West Stone Drive","37660",36.5576784,-82.5992911
"37660","Kingsport","TN","The Home Depot","2000 Harrell Rd","37660",36.5551846,-82.5320288
"37660","Kingsport","TN","Col Hts Hardware","4225 Fort Henry Dr","37663",36.483048312659164,-82.5009920295518
"37660","Kingsport","TN","City Electric Supply Kingsport","509 E Main St","37660",36.54242976475898,-82.55787991563386
"37660","Kingsport","TN","Sherwin-Williams Paint Store","1532 Bridgewater Ln","37660",36.549834000000004,-82.519462
"37660","Kingsport","TN","Wholesale Supply Group","2746 E Center St","37664",36.534172,-82.515923
"37660","Kingsport","TN","Lowe's","2324 W Stone Dr","37660",36.5581043,-82.5994928
"37660","Kingsport","TN","Alvis Kilby Lumber And Hardware","5588 Fort Henry Dr","37663",36.45115661621094,-82.46511840820312
"37660","Kingsport","TN","East Tenn. Masonry","209 Shady View Rd","37660",36.49492263793945,-82.56218719482422
"37660","Kingsport","TN","Tractor Supply Company","Stone Dr.","37660",36.57660583733805,-82.52583166766287
"37660","Kingsport","TN","Fastenal","900 Wilcox Ct","37660",36.52592849731445,-82.55927276611328
"37660","Kingsport","TN","Wolfe Tool and Supply LLC","3924 Abilene Dr","37664",36.513645000000004,-82.505672
"37660","Kingsport","TN","Wolseley Industrial Group","1037 Tidewater Ct","37660",36.5045459142998,-82.5514794917752
"37660","Kingsport","TN","minuteKEY","2526 E Stone Dr","37660",36.548794,-82.500732
"37660","Kingsport","TN","Ferguson Plumbing Supply","1817 N Eastman Rd","37664",36.541969,-82.51943399999999
"37683","Mountain City","TN","Johnson County Building Supply","450 Jackson Ln","37683",36.433544,-81.79558399999999
"37683","Mountain City","TN","True Value Of Mountain City","1107 S Shady St","37683",36.463173,-81.800076
"37683","Mountain City","TN","Husqvarna US","341 S Shady St","37683",36.471771240234375,-81.80780029296875
"37701","Alcoa","TN","Rural King","not_available","37801",35.76503936409565,-83.9839091714298
"37701","Alcoa","TN","Lowe's","1098 Hunters Crossing Drive","37701",35.7677558,-83.9905589
"37701","Alcoa","TN","City Electric Supply Alcoa","110 S Calderwood St","37701",35.76288091287016,-83.97870630025864
"37701","Alcoa","TN","Benjamin Moore Paints","331 Gill St","37701",35.76041030883789,-83.973876953125
"37701","Alcoa","TN","Maryville Fastener & Hardware","1812 E Broadway Ave","37804",35.77246612360284,-83.95668153848116
"37701","Alcoa","TN","minuteKEY","1098 Hunters Xing","37701",35.767921447753906,-83.99038696289062
"37701","Alcoa","TN","Danny Davis Electric","Everett Avenue","37804",35.76033121767737,-83.96207240783961
"37701","Alcoa","TN","Gray-Hodges","not_available","37701",35.773243,-83.986496
"37705","Andersonville","TN","minuteKEY","150 Tanner Ln.","37716",36.169719,-84.0868963
"37705","Andersonville","TN","C.L. Sharp & Son Hardware","not_available","37705",36.202929857661495,-84.0301485273554
"37714","Caryville","TN","Tractor Supply Company","2520 Jacksboro Pike","37757",36.34024856790345,-84.1697439621557
"37714","Caryville","TN","Lowe's","2444 Jacksboro Pike","37766",36.343373,-84.1699183
"37714","Caryville","TN","Potters Home Centers","2251 Jacksboro Pike","37766",36.34571,-84.162043
"37716","Clinton","TN","The Home Depot","175 Laboratory Rd","37830",36.02727981159214,-84.23024654388422
"37716","Clinton","TN","Ace Hardware","1110 E Tri County Blvd","37840",36.023218,-84.31267199999999
"37716","Clinton","TN","Tractor Supply Co.","465 Oak Ridge Tpke","37830",36.03728988658764,-84.22152154849195
"37716","Clinton","TN","Downtown Hardware Company","298 S Illinois Ave","37830",36.005645751953125,-84.25697326660156
"37716","Clinton","TN","Fox Brothers Ace Hardware","795 Oak Ridge Tpke","37830",36.028039,-84.235348
"37716","Clinton","TN","Wholesale Supply","not_available","37830",36.040894,-84.215994
"37716","Clinton","TN","Ace Hardware","95 Oak Ridge Tpke","37830",36.053011,-84.205268
"37716","Clinton","TN","minuteKEY","373 S Illinois Ave","37830",36.008301,-84.253027
"37716","Clinton","TN","CLAXTON TRUE VALUE HARDWARE","612 Edgemoor Rd","37849",36.0362663269043,-84.13064575195312
"37716","Clinton","TN","Magnolia Window & Door Company","7035 Oak Ridge Hwy","37931",35.991131,-84.069727
"37716","Clinton","TN","Sherwin-Williams Paint Store","122 S Illinois Ave","37830",36.008066,-84.266062
"37716","Clinton","TN","Fastenal","not_available","37716",36.108387,-84.123588
"37716","Clinton","TN","Clinton Home Center","130 J D Yarnell Ind Parkway","37716",36.116199,-84.11635600000001
"37716","Clinton","TN","Husqvarna US","476 N Main St","37716",36.10654830932617,-84.13182067871094
"37716","Clinton","TN","Ace Hardware of Clinton","929 N Charles G Seivers Blvd","37716",36.1113089,-84.123791
"37722","Cosby","TN","Wilton Springs True Value Hardware","303 Wilton Springs Rd","37821",35.87663419,-83.20811742
"37723","Crab Orchard","TN","Ace Hardware","33 Woodgate Dr","38571",36.005509,-84.91289
"37725","Dandridge","TN","Dandridge Hardware","275 W Highway 25 70","37725",36.01823805974054,-83.43713879585266
"37725","Dandridge","TN","Lindsay's Hardware","not_available","37725",36.0144463221866,-83.41489660363388
"37725","Dandridge","TN","Bruces Home Improvement","920 Oakwood Dr","37725",36.018992,-83.42105500000001
"37738","Gatlinburg","TN","Ace Hardware","not_available","37738",35.726214285192164,-83.48976838176395
"37738","Gatlinburg","TN","Kendall Electric, Inc.","117 Golf Dr","37863",35.777739000000004,-83.543724
"37738","Gatlinburg","TN","Ace Hardware of Gatlinburg","1025 E Parkway","37738",35.7070859,-83.521576
"37743","Greeneville","TN","Greene Farmers Co-Op","1414 W Main St","37743",36.150099718561485,-82.85484684489282
"37743","Greeneville","TN","Ace Hardware","1023 W Main St","37743",36.154540999999995,-82.847707
"37743","Greeneville","TN","Ferguson Plumbing Supply","50 Marley Dr","37743",36.1746711730957,-82.91255950927734
"37743","Greeneville","TN","Husqvarna US","308 WEST BENARD AVENUE","37743",36.11583709716797,-82.85618591308594
"37743","Greeneville","TN","Broyles Feed Store","730 W Main St","37743",36.157342,-82.84299899999999
"37743","Greeneville","TN","Greeneville Builders Supply","208 Bohannon Ave","37745",36.17279052734375,-82.82145690917969
"37743","Greeneville","TN","City Electric Supply Greeneville Tn","1407 W Main St Ste 400","37743",36.149578,-82.853609
"37743","Greeneville","TN","Robbie's Mobile Home Supply","3500 W. AJ Hwy","37743",36.17267608642578,-82.88232421875
"37748","Harriman","TN","Lowe's","1800 Roane State Highway","37748",35.8932115,-84.5492155
"37748","Harriman","TN","Co-Op","Roane State Highway","37748",35.872861,-84.574626
"37748","Harriman","TN","Potters Ace Home Center","2121 S Roane St","37748",35.9385729,-84.545438
"37748","Harriman","TN","Harbor Freight","not_available","37854",35.893868,-84.622346
"37748","Harriman","TN","Cornerstone Landscaping Supplies","Harriman, TN","37748",35.896303016666664,-84.60986908333334
"37748","Harriman","TN","Valley Farmers Co-op","not_available","37748",35.87316131591797,-84.5740737915039
"37748","Harriman","TN","Browder's Ace Hardware","1100 Ladd Landing Blvd","37763",35.8848879,-84.495847
"37748","Harriman","TN","Sherwin-Williams Paint Store","228 S Roane St","37748",35.9273725468994,-84.5583987236023
"37748","Harriman","TN","Potter's Ace Hardware","2121 South Roane Streer","37748",35.895692903300386,-84.61108825933078
"37754","Heiskell","TN","Tindell's","Norris Freeway","not_available",36.09121909321603,-83.95011674926808
"37754","Heiskell","TN","minuteKEY","7550 Norris Fwy","37938",36.088645935058594,-83.93854522705078
"37760","Jefferson City","TN","Lowe's","638 E Broadway Boulevard","37760",36.130413,-83.4669429
"37760","Jefferson City","TN","Leeper Hardware","108 E Broadway Blvd","37760",36.11564167,-83.49228167
"37760","Jefferson City","TN","Tractor Supply Co.","127 West Broadway Blvd","37760",36.113503,-83.494326
"37760","Jefferson City","TN","East Coast Metals","5956","not_available",36.16415023803711,-83.39981079101562
"37760","Jefferson City","TN","Lowe's Plumbing","not_available","37760",36.12228,-83.485304
"37763","Kingston","TN","Tractor Supply Co.","1494 North Gateway Ave","37854",35.886755,-84.641982
"37764","Kodak","TN","Workshop Tools","not_available","37876",35.93320498445771,-83.58399134948823
"37766","La Follette","TN","smiths ace hardware","not_available","37766",36.380990000000004,-84.12177
"37766","La Follette","TN","Ace Hardware","116 E Central Ave","37766",36.3809814453125,-84.12174224853516
"37766","La Follette","TN","Campbell County Rentals","3702 General Carl W Stiner Hwy","37766",36.42009353637695,-84.03842163085938
"37766","La Follette","TN","Kash And Karry Building Supply","206 S. Indiana Ave","37766",36.38201920943124,-84.11921529404658
"37770","Lancing","TN","Potter's Ace Hardware of Wartburg","1511 Knoxville Hwy","37887",36.1015969,-84.569108
"37771","Lenoir City","TN","The Home Depot","250 Abbie Drive","37772",35.8201908,-84.263653
"37771","Lenoir City","TN","Tractor Supply Co.","785 Hwy 321 North Ste 32","37771",35.81602940509149,-84.26321848662278
"37771","Lenoir City","TN","Meadow View Greenhouse","9885 Highway 11 E","37772",35.831260681152344,-84.24491119384766
"37771","Lenoir City","TN","Wilburn True Value Hardware","109 W Broadway","37771",35.790977000000005,-84.266478
"37771","Lenoir City","TN","Wholesale Supply Group","300 Highway 321 N","37771",35.80042926342346,-84.25960182870845
"37771","Lenoir City","TN","Ferguson Plumbing Supply","799 Adessa Parkway","37771",35.82278144069304,-84.28216467180359
"37771","Lenoir City","TN","Turn Key Plumbing & Construction Inc.","7203 Highway 11 E","37772",35.823651,-84.252894
"37771","Lenoir City","TN","minuteKEY","911 Highway 321 N","37771",35.8220142,-84.2645815
"37771","Lenoir City","TN","Sherwin-Williams Paint Store","836 Highway 321 N","37771",35.816928999999995,-84.26569599999999
"37771","Lenoir City","TN","Elder's Ace Hardware-Dixie Lee Junction","19670 Highway 11 E","37772",35.7984999,-84.254999
"37772","Lenoir City","TN","City Electric Supply Dixie Lee Junction","19452 Us-11","37772",35.859313491515735,-84.22576189041138
"37772","Lenoir City","TN","Farragut Lawn And Tractor","13131 Kingston Pike","37934",35.861284999999995,-84.22474100000001
"37774","Loudon","TN","Sloans Village Home Center","Tellico Village Parkway (Hwy 444)","37774",35.660059620652476,-84.2864058175094
"37774","Loudon","TN","Valley Farmers Coop","2084 W Lee Hwy","37774",35.7456,-84.321799
"37777","Louisville","TN","Eagleton Hardware","2627 E Broadway Ave","37804",35.79313037,-83.9463845
"37777","Louisville","TN","Staley Marble & Granite","not_available","37853",35.828460693359375,-83.94877624511719
"37779","Luttrell","TN","City Auto Supply","not_available","37807",36.249512,-83.801855
"37801","Maryville","TN","The Home Depot","943 Foot Hills Mall Dr","37801",35.7541561,-83.9955971
"37801","Maryville","TN","Harbor Freight","not_available","37923",35.742424,-83.995584
"37801","Maryville","TN","Sears","198 Foothills Mall","37801",35.744693,-83.995737
"37801","Maryville","TN","minuteKEY","2410 US Highway 411 S","37801",35.7148024,-84.0125933
"37801","Maryville","TN","Fastenal","411 Home Ave, Maryville, TN 37801","37801",35.75735098415674,-83.981998462008
"37801","Maryville","TN","Out Of Eden Garden Center","2928 US Highway 411 S","37801",35.70885194945237,-84.02781989959745
"37801","Maryville","TN","AgCentral Farmers Cooperative","1514 W Broadway Avenue","37801",35.740316,-83.987082
"37801","Maryville","TN","Tractor Supply Co.","1800 West Lamar Alexander Pkwy","37801",35.754755,-84.02175
"37801","Maryville","TN","Foothills Ace Hardware","1514 W Broadway Ave","37801",35.740316,-83.987082
"37801","Maryville","TN","Sherwin-Williams Paint Store","915 Turner St","37801",35.753260383806115,-83.99720549583435
"37803","Maryville","TN","Davis Lumber & Supply Company","2980-2998 E Lamar Alexander Pkwy","37804",35.756378173828125,-83.91798377037048
"37806","Mascot","TN","Cole Building Supply","749 Andrew Johnson Hwy","37871",36.043277740478516,-83.71563720703125
"37807","Maynardville","TN","Affordable Ace Hardware Inc","2603 Maynardville Hwy","37807",36.2233799,-83.849901
"37813","Morristown","TN","Lowe's","2744 West Andrew Johnson Highway","37814",36.2035039,-83.3323207
"37813","Morristown","TN","The Home Depot","1930 W Andrew Johnson","37814",36.2100913,-83.318105
"37813","Morristown","TN","Ace Hardware of Morristown","2432 E Andrew Johnson Hwy","37814",36.226458,-83.263513
"37813","Morristown","TN","Sherwin-Williams Paint Store","1847 W Morris Blvd","37813",36.20188903808594,-83.31635284423828
"37813","Morristown","TN","Ppg Paints","2217 W Andrew Johnson Hwy","37814",36.205635,-83.32332
"37813","Morristown","TN","minuteKEY","2744 W Andrew Johnson Hwy","37814",36.203609466552734,-83.33241271972656
"37813","Morristown","TN","Wholesale Supply Group","not_available","37814",36.207278,-83.312684
"37813","Morristown","TN","Morristown Milling","1000 Valley Home Rd","37813",36.19297409057617,-83.31121063232422
"37813","Morristown","TN","Fenco","not_available","37813",36.205209,-83.287765
"37813","Morristown","TN","Town & Country Lock & Key","3405 E Andrew Johnson Hwy","37814",36.230609,-83.25114
"37813","Morristown","TN","Tractor Supply Co.","3480 West Andrew Johnson Hwy","37814",36.198909759521484,-83.34368133544922
"37813","Morristown","TN","minuteKEY","4331 W Andrew Johnson Hwy","37814",36.19076919555664,-83.3573226928711
"37813","Morristown","TN","Oakes Salvaged Freight","1061 S Cumberland St","37813",36.204069,-83.28498
"37813","Morristown","TN","City Electric Supply Morristown","132 W 1st North St","37814",36.21447813247123,-83.2942035276127
"37814","Morristown","TN","Leeper Hardware","5715 W Andrew Johnson","37814",36.179267275385264,-83.38817693491086
"37814","Morristown","TN","Alpha Outdoor Power Equipment","5715 W Andrew Johnson Hwy","37814",36.179286,-83.38815
"37821","Newport","TN","Lowe's","120 Epley Road","37821",35.9403583,-83.214868
"37821","Newport","TN","Tractor Supply Co.","165 Western Plaza Way","37821",35.972324,-83.20748
"37821","Newport","TN","Ace Hardware of Newport","232 W Broadway","37821",35.9675739,-83.198317
"37821","Newport","TN","Husqvarna US","368 E Broadway","37821",35.96672439575195,-83.18362426757812
"37821","Newport","TN","Newport Hardware Inc","237 E Broadway","37821",35.966893,-83.187775
"37825","New Tazewell","TN","Duncan Lumber","409 First Ave","37825",36.44065856933594,-83.59984588623047
"37825","New Tazewell","TN","Ace Hardware","not_available","37825",36.445532,-83.586417
"37825","New Tazewell","TN","Husqvarna US","PO Box 160","37824",36.43600845336914,-83.60585021972656
"37825","New Tazewell","TN","Fresh n Low Ace Hardware","917 Main St","37825",36.4183,-83.6632
"37825","New Tazewell","TN","Indfas Supply","not_available","37879",36.472675,-83.577031
"37830","Oak Ridge","TN","The Carpentry Corral","not_available","37931",35.95467297810979,-84.20590099932087
"37830","Oak Ridge","TN","Home Depot","250 Abbey Drive","not_available",35.881331810216324,-84.15801475479226
"37841","Oneida","TN","Lil Beavers Lumberyard (Where Real Men Go For Wood)","not_available","37841",36.51982498168945,-84.51243591308594
"37841","Oneida","TN","Winco","23094 Scott Hwy","37892",36.539509,-84.458341
"37841","Oneida","TN","Fastenal oneida","Alberta St","37841",36.49620819091797,-84.52053833007812
"37841","Oneida","TN","Tractor Supply Co.","19965 Alberta St","37841",36.518022,-84.505914
"37841","Oneida","TN","Potters Ace Home Center","245 Industrial Ln","37841",36.49786376953125,-84.52107238769531
"37846","Philadelphia","TN","minuteKEY","935 State Hwy 11 South","37874",35.6248899,-84.4482772
"37846","Philadelphia","TN","Valley Building Supply","2110 Highway 11 N","37874",35.631582,-84.439789
"37849","Powell","TN","Lowe's","6600 Clinton Hwy","37912",36.0093631,-84.0178519
"37849","Powell","TN","The Home Depot","2751 Schaad Road","37921",36.0052558,-84.0224577
"37849","Powell","TN","Northern Tool + Equipment","4315 Clinton Hwy","37912",35.999538327158504,-83.96643954110176
"37849","Powell","TN","Smoky Mountain Grip & Lighting Co.","4701 Hubbs Ln","37912",36.00593,-83.966995
"37849","Powell","TN","Braxton-Bragg","not_available","37918",36.009423,-83.9530305
"37849","Powell","TN","City Electric Supply Powell","2921 NW Park Dr","37921",36.004011687582675,-84.02845188975334
"37849","Powell","TN","Tri-County Hardware","5072 Clinton Hwy","37912",36.002830505371094,-83.97621154785156
"37849","Powell","TN","Sherwin-Williams Paint Store","2305 Callahan Dr","37912",36.010659000000004,-84.01962900000001
"37849","Powell","TN","minuteKEY","6777 Clinton Hwy","37912",36.00566864013672,-84.02651977539062
"37849","Powell","TN","minuteKEY","6600 CLINTON HWY","37912",36.009185791015625,-84.01819610595703
"37854","Rockwood","TN","Scandlyn Lumber Company","509 S Gateway Ave","37854",35.859062,-84.695738
"37854","Rockwood","TN","minuteKEY","1102 N Gateway Ave","37854",35.8799934387207,-84.65818786621094
"37857","Rogersville","TN","Tractor Supply Co.","1323 East Main St","37857",36.417039,-82.989324
"37857","Rogersville","TN","Husqvarna US","240 Burem Rd","37857",36.416385650634766,-82.9825668334961
"37857","Rogersville","TN","Henard Lumber","214 Henard Rd","37857",36.387955,-83.00946400000001
"37857","Rogersville","TN","Liberty Lumber","348 Colonial Rd","37857",36.40308150858974,-82.99744963645935
"37857","Rogersville","TN","DBR Metal Roofing Suppkt","4483 Highway 11W","37857",36.465433000000004,-82.915036
"37857","Rogersville","TN","minuteKEY","4331 Highway 66 S","37857",36.39671325683594,-83.01945495605469
"37860","Russellville","TN","M & M Hardware","not_available","37860",36.275906,-83.160965
"37861","Rutledge","TN","Amyx Hardware & Roofing Supplies","8179 Highway 131","37888",36.29254913330078,-83.59415435791016
"37862","Sevierville","TN","Lowe's","610 Winfield Dunn Parkway","37876",35.8779167,-83.5746638
"37862","Sevierville","TN","The Home Depot","128 Allensville Road","37876",35.8783546,-83.5669204
"37862","Sevierville","TN","Direct Tools Factory Outlet","1645 Parkway Ste 760","37862",35.833304,-83.570996
"37862","Sevierville","TN","Delta Workshop Tools","not_available","37863",35.803209,-83.56871600000001
"37862","Sevierville","TN","blalocks hardware","Eastgate rd","37862",35.86061977071712,-83.54848858441296
"37862","Sevierville","TN","EMERY TRUE VALUE HDW.","131 ISLAND DR STE 5105-5106","37863",35.8033561706543,-83.57096099853516
"37862","Sevierville","TN","reynolds hardware","not_available","37862",35.86102294921875,-83.55040740966797
"37862","Sevierville","TN","Tractor Supply Co.","330 West Main St","37862",35.872066,-83.572472
"37862","Sevierville","TN","Ingle Trucking And Paving","not_available","37865",35.861296,-83.673084
"37862","Sevierville","TN","Tindell's Building Materials","140 Industry Dr","37862",35.861727,-83.532595
"37862","Sevierville","TN","Farrell-Calhoun Paint","335 Wears Valley Rd","37863",35.80085045112666,-83.5847262097808
"37862","Sevierville","TN","City Electric Supply Sevierville","620 Wall St","37862",35.867619,-83.551675
"37862","Sevierville","TN","Jerry R Ogle Construction","847 Floyd Ln","37862",35.873684999999995,-83.54520699999999
"37862","Sevierville","TN","Rocky Top Materials","1806 Middle Creek Road","37863",35.82367356,-83.53900962
"37862","Sevierville","TN","Sherwin-Williams Paint Store","239 Wears Valley Rd","37863",35.802659999999996,-83.582235
"37862","Sevierville","TN","Emery True Value Hardware","131 Island Dr","37863",35.80389172,-83.57437323
"37862","Sevierville","TN","Wholesale Supply","1052 Dolly Parton Pkwy","37862",35.864565,-83.53919499999999
"37862","Sevierville","TN","Farrell-Calhoun Paint","326 W Main St","37862",35.871959,-83.572196
"37862","Sevierville","TN","minuteKEY","610 Winfield Dunn Pkwy","37876",35.877934,-83.575171
"37862","Sevierville","TN","Discount Liquidators","1333 Dolly Parton Pkwy","37862",35.863359,-83.519123
"37863","Pigeon Forge","TN","Pigeon Forge Hardware","2519 McGill St","37863",35.805158,-83.580122
"37865","Seymour","TN","Lowe's","7520 Mountain Grove Drive","37920",35.905276,-83.840421
"37865","Seymour","TN","House Hasson Hardware","Water Plant Rd","37920",35.941523,-83.823977
"37865","Seymour","TN","Colonial Hardware","6204 Chapman Hwy","37920",35.9216194152832,-83.8746109008789
"37865","Seymour","TN","The Home Depot","140 Green Road","37920",35.9133579,-83.8459623
"37865","Seymour","TN","L&M Sales and Service","621 E. Gov. John Sevier Hwy.","37920",35.91827555333609,-83.82839077718812
"37865","Seymour","TN","home depot","not_available","37920",35.932376861572266,-83.75106048583984
"37865","Seymour","TN","Tractor Supply Co.","11638 Chapman Hwy","37865",35.865942,-83.747484
"37865","Seymour","TN","Floyd's Equipment","5701 Sevierville Rd","37865",35.844544,-83.78949
"37869","Sneedville","TN","Harrison Farm & Home Supply","1172 Main St","37869",36.528987884521484,-83.2178955078125
"37871","Strawberry Plains","TN","Stormers True Value Hardware","8618 Asheville Hwy","37924",36.0252,-83.73481899999999
"37882","Townsend","TN","Tim's AC & Mech Service Call","not_available","37882",35.681190490722656,-83.78206634521484
"37882","Townsend","TN","Ace Hardware of  Townsend","8031 E Lamar Alexander Pkwy","37882",35.6788889,-83.739051
"37902","Knoxville","TN","Cor-Tenn","100 S Gay St","37902",35.968728999999996,-83.919416
"37902","Knoxville","TN","john h coleman","not_available","37902",35.962310791015625,-83.9154052734375
"37909","Knoxville","TN","Sherwin-Williams Paint Store","5614 Kingston Pike","37919",35.9337513,-83.99560221
"37909","Knoxville","TN","Elder's Ace Hardware-Bearden","150 N Forest Park Blvd","37919",35.938195,-83.989039
"37909","Knoxville","TN","Carrier","not_available","37921",35.96336175789455,-83.99257894319555
"37909","Knoxville","TN","Stokes","6230 Papermill Dr","37919",35.937729,-84.007502
"37909","Knoxville","TN","Royal Brass And Hose","not_available","37909",35.956128,-84.012134
"37909","Knoxville","TN","City Electric Supply West Knoxville","4320 Papermill Dr","37909",35.95315741612112,-83.98168261351657
"37909","Knoxville","TN","Ferguson HVAC Supply","2601 Texas Ave","37921",35.929525,-84.009362
"37909","Knoxville","TN","Sherwin-Williams Commercial Paint Store","6201 Baum Dr","37919",35.930355,-84.002527
"37909","Knoxville","TN","Witt Building Material","1226-1240 E Weisgarber Rd","37950",35.94893,-84.011461
"37909","Knoxville","TN","Dickens Turf & Landscape Supply","6305 Baum Dr","37919",35.929851,-84.003939
"37909","Knoxville","TN","United Refridgeration","3600 Papermill Dr","37909",35.959585,-83.966849
"37909","Knoxville","TN","Witt Lumber","1242 E Weisgarber Rd","37909",35.94853210449219,-84.0119400024414
"37909","Knoxville","TN","Parker Broters Hardware","Forest Park Blvd","37919",35.942319,-83.982099
"37909","Knoxville","TN","Rhyne Vacuum","6907 Kingston Pike","37919",35.933119,-84.01969799999999
"37909","Knoxville","TN","Ace Hardware","5221 Homberg Dr","37919",35.937163,-83.989538
"37909","Knoxville","TN","Commercial Lighting","1485 Amherst Rd","37909",35.954557,-84.014785
"37909","Knoxville","TN","Abc Supply","220 Royal Crown Dr","37919",35.928540000000005,-84.01129399999999
"37909","Knoxville","TN","Signal Industrial Products Corp.","6210 Enterprise Dr","37909",35.956671,-84.021935
"37909","Knoxville","TN","Ferguson Plumbing Supply","6422 Deane Hill Dr","37919",35.929525,-84.009362
"37909","Knoxville","TN","Sherwin-Williams Floorcovering Store","3510 Papermill Dr","37909",35.95997339673324,-83.96626899626484
"37912","Knoxville","TN","Brogdon Plumbing Co","4957 Ball Camp Pike","37921",35.97601095985142,-84.00122071451055
"37912","Knoxville","TN","PPG Pittsburgh Paints","3241 Western Ave","37921",35.9753837225472,-83.96849121054554
"37912","Knoxville","TN","Baker Distributing","918 Katherine Ave","37921",35.988407,-83.951511
"37912","Knoxville","TN","nexAir","3020 Industrial Pkwy E","37921",35.979949951171875,-83.96785736083984
"37914","Knoxville","TN","Lowe's","3100 S Mall Rd NE","37917",36.0273974,-83.8761741
"37914","Knoxville","TN","The Home Depot","4710 Centerline Drive","37917",36.0279563,-83.8833748
"37914","Knoxville","TN","Builders FirstSource","not_available","37914",35.962547,-83.823953
"37914","Knoxville","TN","Atlas Copco Mining, Rock Excavation and Construction","1500 Harris Rd","37924",36.02674897306542,-83.85052783420178
"37914","Knoxville","TN","R & D Plumbing Inc","1738 Earl Ave","37920",35.94779968261719,-83.88948059082031
"37914","Knoxville","TN","Perma-Chink (Log Home Supplies)","1605 Prosser Rd","37914",36.00326919555664,-83.88829803466797
"37915","Knoxville","TN","Stokes Electric Company","McCalla ave","37915",35.976582373029885,-83.90728356838414
"37915","Knoxville","TN","Hullco","742 Hall of Fame Dr","37917",35.9781985,-83.9160819
"37915","Knoxville","TN","Fastenal","742 N Hall of Fame Dr","37917",35.978208,-83.916115
"37915","Knoxville","TN","City Electric Supply Knoxville Downtown","305 Randolph St","37917",35.974706,-83.915888
"37915","Knoxville","TN","Graning Paint","600 E Magnolia Ave","37917",35.974706,-83.915888
"37916","Knoxville","TN","minuteKEY","2501 University Commons Way","37919",35.95079040527344,-83.93965911865234
"37917","Knoxville","TN","Rocky Top Materials","2707 John Deere Drive","37917",35.99480637,-83.90209857
"37917","Knoxville","TN","Glided Professional Paint Center","1918 N Broadway St","37917",35.99054038524628,-83.91980230808258
"37917","Knoxville","TN","Keith Window Company","Central St, Knoxville, TN 37917","37917",35.99084759626712,-83.94114717521222
"37917","Knoxville","TN","Gary Bar","112 Atlantic Ave","37917",35.9937629699707,-83.94727325439453
"37917","Knoxville","TN","Broadway Flooring Commercial Specialists","301 E Baxter Ave","37917",35.982979,-83.924914
"37917","Knoxville","TN","frazier welding & steel","not_available","37917",35.974124908447266,-83.92804718017578
"37917","Knoxville","TN","A-Welders supply","124 W Morelia Ave","37917",35.990589,-83.942203
"37917","Knoxville","TN","Davis Hose & Supply Inc","2322 Western Ave","37921",35.97065042,-83.95631117
"37917","Knoxville","TN","Elder's Ace Hardware-North Broadway","2027 N Broadway St","37917",35.9964,-83.9157
"37917","Knoxville","TN","D&D Hose & Supply, Inc.","2414 Mitchell St","37917",35.991139000000004,-83.905313
"37917","Knoxville","TN","Irby","1918 N Cherry St","37917",35.997258,-83.904692
"37917","Knoxville","TN","Farrell-Calhoun Paint","2605 Adair Dr Ste 102","37918",36.02489464781091,-83.92763109696466
"37917","Knoxville","TN","Harbor Freight Tools","4811 N Broadway St","37918",36.02547466893874,-83.9287835157207
"37918","Knoxville","TN","Rural King","7340 Norris Fwy","37918",36.0839075,-83.9312416
"37918","Knoxville","TN","Elder's Ace Hardware-Halls","6950 Maynardville Pike","37918",36.0739999,-83.927599
"37918","Knoxville","TN","Tractor Supply Co.","7580 Maynardville Pike","37938",36.092784,-83.917546
"37918","Knoxville","TN","Hutton's","7525 Maynardville Pike","37938",36.090182,-83.922249
"37918","Knoxville","TN","Sherwin-Williams Paint Store","4720 N Broadway St","37918",36.024946,-83.926183
"37918","Knoxville","TN","Husqvarna US","4678 OLD BROADWAY","37918",36.04940414428711,-83.91983032226562
"37919","Knoxville","TN","Ace Hardware","not_available","37919",35.905276,-84.019913
"37919","Knoxville","TN","Joe's Plumbing Service","8576 Baron Dr","37923",35.94292,-84.06742799999999
"37919","Knoxville","TN","Elder's Ace Hardware of Rocky Hill","7511 S Northshore Dr","37919",35.904879,-84.019074
"37920","Knoxville","TN","Elder's Ace Hardware of South Knoxville","4217 Chapman Hwy","37920",35.936087,-83.906897
"37920","Knoxville","TN","Ace Hardware","Chapman Hwy","37920",35.93527,-83.90752
"37922","Knoxville","TN","The Home Depot","9361 Kingston Pike","37922",35.91178510227108,-84.09573376178741
"37922","Knoxville","TN","Harbor Freight Tools","9260 Kingston Pike","not_available",35.910633,-84.087715
"37922","Knoxville","TN","Sherwin-Williams Paint Store","266 N Peters Rd","37923",35.91604232788086,-84.0884017944336
"37922","Knoxville","TN","Stowers Cat","not_available","37932",35.90972538710296,-84.14157352142682
"37922","Knoxville","TN","Ferguson Plumbing Supply","215 Peregrine Way","37922",35.9149824242424,-84.0948263636364
"37922","Knoxville","TN","Smith Turf & Irrigation","Lexington Dr","37932",35.910287,-84.14327
"37922","Knoxville","TN","Farrell-Calhoun Paint","10955 Kingston Pike","37934",35.891208863630084,-84.14729163098457
"37922","Knoxville","TN","Metal Supermarkets Knoxville","500 Milwaukee Way","37932",35.909881,-84.14668
"37922","Knoxville","TN","Probuild","10600 Lexington Dr","37932",35.908260999999996,-84.14069599999999
"37922","Knoxville","TN","Benjamin Moore Paints","9717 Kingston Pike","37922",35.90666142839089,-84.10928594798112
"37922","Knoxville","TN","American Freight (Sears Outlet) - Appliance, Furniture, Mattress","9630 Kingston Pike","37922",35.9057869,-84.1063109
"37922","Knoxville","TN","GEBC Insulation","10523 Kingston Pike","37922",35.89788818359375,-84.13499450683594
"37922","Knoxville","TN","Powell Fluid Connectors","200 Perimeter Park Rd Ste B","37922",35.909463,-84.111731
"37922","Knoxville","TN","Pittsburgh Paints","11000 Kingston Pike","37934",35.889528999999996,-84.146916
"37922","Knoxville","TN","Gray-Hodges","10515 Lexington Dr","37932",35.910871,-84.13696
"37922","Knoxville","TN","Williams Door Company","220 Sherway Rd","37922",35.909793,-84.10986
"37922","Knoxville","TN","Lumber Liquidators Flooring","504 Carden Jennings Ln","37932",35.90916803658706,-84.1351570990434
"37922","Knoxville","TN","Sherwin-Williams Paint Store","11110 Kingston Pike","37934",35.887462,-84.148724
"37923","Knoxville","TN","Lowe's","210 N Peters Road","37923",35.9183679,-84.0823971
"37923","Knoxville","TN","Kitchen Tune-Up","448 N Cedar Bluff Rd Ste 258","37923",35.9249628,-84.0933445
"37923","Knoxville","TN","minuteKEY","210 N Peters Rd","37923",35.918357849121094,-84.0822982788086
"37931","Knoxville","TN","Vallen","6961 Karns Crossing Ln","37931",35.98772430419922,-84.09147644042969
"38001","Alamo","TN","Alamo Construction","57 North Bells Street","not_available",35.785974,-89.117365
"38002","Arlington","TN","Lowe's","8300 Highway 64","38133",35.2061287,-89.7863605
"38002","Arlington","TN","The Home Depot","8010 Giacosa Place","38133",35.1998751,-89.7963685
"38002","Arlington","TN","Tractor Supply Co.","9715 Us Hwy 64","38002",35.204006,-89.73889
"38002","Arlington","TN","Farrell-Calhoun Paint","6810 Summer Ave","38134",35.203922219904655,-89.83653935993516
"38002","Arlington","TN","Southern Fastening","not_available","38133",35.20836061114265,-89.79506060780386
"38002","Arlington","TN","Sherwin-Williams Paint Store","9931 Highway 64","38002",35.205005419527595,-89.73113536834717
"38002","Arlington","TN","American Door","5734 Stage Rd","38134",35.204542,-89.872032
"38002","Arlington","TN","Grandview Window And Door","3400 Brother Blvd","38133",35.216056,-89.810327
"38002","Arlington","TN","Stewart Brothers Do-It Center","7715 US Highway 70","38133",35.23073959350586,-89.80573272705078
"38002","Arlington","TN","We Sell Tools","6722 U.S. 70","38134",35.20151385171602,-89.8391011520222
"38002","Arlington","TN","minuteKEY","8400 US Highway 64","38133",35.20710754394531,-89.78290557861328
"38002","Arlington","TN","minuteKEY","6520 Memphis Arlington Rd","38135",35.227840423583984,-89.84700775146484
"38002","Arlington","TN","City Electric Supply Bartlett Tn","7731 US Highway 70 Ste 100","38133",35.23095225976814,-89.80573900985323
"38002","Arlington","TN","Hugo Plumbing Parts","7311 Memphis Arlington Rd","38135",35.235769,-89.819304
"38002","Arlington","TN","Sherwin-Williams Paint Store","6995 Stage Rd","38133",35.204349,-89.83013199999999
"38002","Arlington","TN","ProSource of Memphis","3131 Appling Rd Ste 102","38133",35.210557,-89.809528
"38002","Arlington","TN","Building Materials Outlet","8512 Highway 51 North","not_available",35.348082,-89.878213
"38002","Arlington","TN","Duct-Man Air Duct Cleaning","7891 Mudville Rd","38053",35.378727000000005,-89.799709
"38002","Arlington","TN","minuteKEY","8300 US Highway 64","38133",35.206268,-89.786478
"38002","Arlington","TN","Volunteer Roofing LLP","5780 Hayes Rd","38002",35.283573150634766,-89.65834045410156
"38002","Arlington","TN","Husqvarna","9160 HIGHWAY 64, SUITE 12, #106","38002",35.205204010009766,-89.75753784179688
"38006","Bells","TN","minuteKEY","1100 S Dupree Ave","38012",35.586862,-89.238656
"38006","Bells","TN","Sherwin-Williams Paint Store","215 E Main St","38012",35.59411389979854,-89.25969958305359
"38006","Bells","TN","Arthur F. Smith Lumber Co.","116 E Main St","38012",35.59364182143549,-89.2608479301657
"38006","Bells","TN","BR Supply","337 W Main St","38012",35.594242095947266,-89.2666015625
"38006","Bells","TN","Husqvarna US","8981 US Highway 70","38006",35.585113525390625,-89.10372161865234
"38006","Bells","TN","Bells Hardware & Lumber","Main St","38006",35.710534,-89.086936
"38008","Bolivar","TN","Tractor Supply Co.","1361 West Market St Ste B","38008",35.2592086,-89.00906458
"38008","Bolivar","TN","Parts Plus","not_available","TN",35.318723,-89.146714
"38008","Bolivar","TN","Toone Hardware","2000 TN-138","38381",35.351989,-88.951943
"38008","Bolivar","TN","Husqvarna","15025 Highway 64","38008",35.25343322753906,-88.9686508178711
"38011","Brighton","TN","The Home Depot","110 Holly Grove Road","38019",35.5442842,-89.6679548
"38011","Brighton","TN","minuteKEY","201 Lanny Bridges Ave","38019",35.545739,-89.665006
"38011","Brighton","TN","Husqvarna","833 East St","38019",35.554351806640625,-89.64205932617188
"38016","Cordova","TN","Memphis Ace Hardware","1740 N Germantown Pkwy Ste 19","38016",35.1726999,-89.791799
"38016","Cordova","TN","Bath Fitters","5649 Appling Farms Pkwy","38133",35.179066999999996,-89.830741
"38016","Cordova","TN","Legacy Plumbing","not_available","38018",35.158265,-89.754582
"38016","Cordova","TN","Ewing Irrigation","9526 Cordova Park Rd","38018",35.1601319505882,-89.74443220104675
"38016","Cordova","TN","Don The Repair Guy","2018 Woodchase Cv","38016",35.180559,-89.79830199999998
"38016","Cordova","TN","Sears","2435 Whitten Rd","38133",35.18568119019546,-89.83611972545737
"38017","Collierville","TN","The Home Depot","345 Market Blvd","38017",35.0497384,-89.6960477
"38017","Collierville","TN","Lowe's","425 New Byhalia Road","38017",35.0519178,-89.6891319
"38017","Collierville","TN","Tractor Supply Co.","240 Us Hwy 72 West","38017",35.033532,-89.67004
"38017","Collierville","TN","84 Lumber","not_available","38017",35.044014,-89.630164
"38017","Collierville","TN","Sherwin-Williams Paint Store","839 W Poplar Ave","38017",35.045752,-89.690139
"38017","Collierville","TN","Central Woodwork","870 Keough Rd","38017",35.03714222173269,-89.644767466662
"38017","Collierville","TN","Farrell-Calhoun Paint","3116 Forest Hill Irene Rd","38138",35.06421281439515,-89.75903914274926
"38017","Collierville","TN","Tops Unlimited","191 Neely St","38017",35.040577,-89.66305899999999
"38017","Collierville","TN","Dixie Rents","777 W Poplar Ave","38017",35.045518,-89.688202
"38017","Collierville","TN","Porter Paints","638 W Poplar Ave","38017",35.046883,-89.682886
"38017","Collierville","TN","Easy Living Construction LLC","70 commercial loop way","38066",35.035591,-89.660567
"38017","Collierville","TN","Sears","640 W. Poplar Ave","38017",35.047042,-89.6833821
"38017","Collierville","TN","Mid-America Appliance Center","115 Highway 72","38017",35.02911376953125,-89.66694641113281
"38017","Collierville","TN","Sherwin-Williams Paint Store","9155 Poplar Ave","38138",35.06657028198242,-89.75775146484375
"38017","Collierville","TN","McGinnis Hardware","99 N Center St","38017",35.042676,-89.665673
"38018","Cordova","TN","Lowe's","430 S Germantown Parkway","38018",35.1188343,-89.7979859
"38018","Cordova","TN","Ferguson Bath, Kitchen & Lighting Gallery","8100 Macon Station Rd Ste 110","38018",35.152798,-89.79349
"38018","Cordova","TN","Sherwin-Williams Paint Store","7845 Trinity Rd","38018",35.14062524572266,-89.80126976966858
"38018","Cordova","TN","SolarTech TintingGraphicsBranding","983 North Germantown Parkway","38018",35.1522527,-89.79610199999999
"38018","Cordova","TN","minuteKEY","430 S Germantown Pkwy","38018",35.118408203125,-89.79840850830078
"38018","Cordova","TN","Ferguson Plumbing Supply","8100 Macon Station Dr Ste 110","38018",35.15246,-89.79518
"38018","Cordova","TN","minuteKEY","577 N Germantown Pkwy","38018",35.140769958496094,-89.79783630371094
"38019","Covington","TN","Tractor Supply Co.","975 Hwy 51 North Ste F","38019",35.58316,-89.642872
"38024","Dyersburg","TN","Lowe's","1155 Highway 51 Bypass West","38024",36.054521,-89.400286
"38024","Dyersburg","TN","Dyersburg Winnelson","400 US-51 Byp N","38024",36.03839401746217,-89.41022515296936
"38024","Dyersburg","TN","Newbern Hardware","230 E Main St","38059",36.113160021833366,-89.26195686760539
"38024","Dyersburg","TN","HCI Supply","not_available","38024",36.0331414,-89.3915599
"38024","Dyersburg","TN","Newbern Fabricating Inc","980 E TN-77","38059",36.12134690000001,-89.2359863
"38024","Dyersburg","TN","minuteKEY","2650 Lake Rd","38024",36.063267,-89.391358
"38024","Dyersburg","TN","Sherwin-Williams Paint Store","850 US Highway 51 Byp W","38024",36.058444781629326,-89.39657458715202
"38024","Dyersburg","TN","Riggs Supply Co","305 US Highway 51 Byp N","38024",36.03810614,-89.41146531
"38024","Dyersburg","TN","Tractor Supply Co.","2705 Lake Rd","38024",36.066532,-89.397606
"38024","Dyersburg","TN","Husqvarna","1150 S Main Ave","38024",36.012107849121094,-89.39381408691406
"38040","Halls","TN","Jacobs Lumber","not_available","38040",35.875417491877535,-89.39532137580666
"38040","Halls","TN","Coles Do It Best","309 Highway 51 N","38063",35.75954171666667,-89.54912006
"38041","Henning","TN","Lauderdale Lumber","not_available","38041",35.6793006323184,-89.58413832312571
"38053","Millington","TN","Lowe's","8490 Highway 51 North","38053",35.3572899,-89.891819
"38053","Millington","TN","Tractor Supply Co.","8247 Us Hwy 51 North","38053",35.352165,-89.900418
"38053","Millington","TN","Mobile Home Supply","not_available","38053",35.3608512878418,-89.88985443115234
"38053","Millington","TN","Sherwin-Williams Paint Store","8257 US Highway 51 N","38053",35.35286608270633,-89.89925622940062
"38053","Millington","TN","Hubbard's Hardware","3427 N Watkins St","38127",35.21852518,-90.00371217727661
"38053","Millington","TN","Cole's DO IT Center","U.S. hwy 51","38053",35.353614331966035,-89.8980513417467
"38053","Millington","TN","Fastenal","5450-5598 Tennessee 3","38127",35.27503430843353,-89.97998535633087
"38060","Oakland","TN","Ace Hardware of Oakland","7860 Hwy 64","38060",35.2289549,-89.511307
"38063","Ripley","TN","LANDS TRUE VALUE","173 S Washington St","38063",35.74563980102539,-89.53343200683594
"38063","Ripley","TN","Fasco","not_available","72315",35.918709839038854,-89.91878719195897
"38063","Ripley","TN","nexAir","330 South Lockard St","72315",35.9235224,-89.8843798
"38068","Somerville","TN","Tractor Supply Co.","50 Teague Store Rd","38068",35.234151,-89.415819
"38068","Somerville","TN","Lan-Mark","402 Midland St","38068",35.2452507019043,-89.34757995605469
"38068","Somerville","TN","Husqvarna US","16845 US Highway 64","38068",35.243797302246094,-89.3485336303711
"38068","Somerville","TN","Farmers Hardware","104 market st","not_available",35.244280299086824,-89.3504666548245
"38068","Somerville","TN","Mid South Farmers Co-op Somerville","not_available","38068",35.240892,-89.337372
"38080","Ridgely","TN","Sherwin-Williams Paint Store","920 Truman Blvd","63830",36.19019150873207,-89.6679961681366
"38103","Memphis","TN","Bartletts Lumber & Hardware","116 N 6th St","79245",35.146276885357864,-90.05202412605286
"38103","Memphis","TN","Danciger Equipment Company LLC","78 W Carolina Ave","38103",35.12863,-90.06428399999999
"38103","Memphis","TN","Farrell-Calhoun Paint","221 E Carolina Ave","38126",35.127626,-90.053088
"38103","Memphis","TN","Mid Soth  Asters","not_available","38103",35.128414154052734,-90.06488037109375
"38103","Memphis","TN","Southern Steel","not_available","38105",35.15327064044777,-90.03161635591852
"38103","Memphis","TN","Lucky Electric","not_available","38126",35.13204459306866,-90.04746510722008
"38103","Memphis","TN","nexAir","363 Walnut St","38126",35.132871,-90.035348
"38104","Memphis","TN","The Home Depot","1627 Poplar Ave","38104",35.140619,-90.0063897
"38104","Memphis","TN","White Cap Construction Supply","174 Collins St","38112",35.140795000000004,-89.972236
"38104","Memphis","TN","Amy Howard At Home","478 N Hollywood St","38112",35.148623,-89.97490400000001
"38104","Memphis","TN","Gate City Hardware","not_available","38112",35.15061927867239,-89.97619848802255
"38104","Memphis","TN","Gate City Hardware","2500 Summer Ave","38112",35.150718,-89.975705
"38104","Memphis","TN","Stewart Brothers Hardware","1340 Madison Ave","38104",35.139307,-90.01660600000001
"38104","Memphis","TN","Delta Franchising Inc","2719 Union Avenue Ext","38112",35.1363,-89.973123
"38104","Memphis","TN","Sherwin-Williams Paint Store","1964 Madison Ave","38104",35.137678,-89.99561700000001
"38104","Memphis","TN","All Rite Plumbing Supply","not_available","38104",35.149907,-90.014775
"38104","Memphis","TN","Roy Good Hardware","1172 Lamar Ave","38104",35.1302,-90.022712
"38106","Memphis","TN","Interstate Plywood","2495 Hernando Rd","38106",35.077439,-90.02484
"38106","Memphis","TN","Metal Specialties","1073 S 3rd St","38106",35.118239,-90.05557900000001
"38106","Memphis","TN","Hyman Builders Supply","1129 Florida St","38106",35.116972,-90.06281899999999
"38106","Memphis","TN","Gates Lumber Company","1253 S Bellevue Blvd","38106",35.112103000000005,-90.02234200000001
"38106","Memphis","TN","Power Tools, Inc.","1200 S Bellevue Blvd","38106",35.11417,-90.0212
"38106","Memphis","TN","Fastenal","479 hwy 77","72364",35.08375593471952,-90.03551753963315
"38106","Memphis","TN","Williams Equipment and Supply","2425 S 3rd St","38109",35.081263,-90.057805
"38106","Memphis","TN","Scruggs and Sons Fabricating, Inc.","2519 Elvis Presley Blvd","38106",35.076545,-90.02040600000001
"38109","Memphis","TN","Matthews Hardware","4324 S Hwy 61","38109",35.03057693077735,-90.07796856571582
"38109","Memphis","TN","Meter Service & Supply","598 E Brooks Rd","not_available",35.062467,-90.043552
"38109","Memphis","TN","Freeman Small Gas Engine","4690 Hodge Rd","38109",35.020338,-90.049207
"38111","Memphis","TN","Porter Paints","3155 Poplar Ave","38111",35.130546,-89.956317
"38111","Memphis","TN","Ferguson Plumbing Supply","1740 Cherokee Blvd","38111",35.084488,-89.953972
"38111","Memphis","TN","Roofing Supply Group","1810 Getwell Rd","38111",35.082003,-89.930432
"38112","Memphis","TN","AAAmerican First Lady Locksmith","828 Kippley St","38112",35.154848,-89.956595
"38112","Memphis","TN","I C Electric Supply","737 Scott St","38112",35.153257,-89.967134
"38112","Memphis","TN","DJs Custom Welding","2992 Summer Ave","38112",35.149795000000005,-89.961168
"38112","Memphis","TN","Town & Country Locksmith","3100 Summer Ave","38112",35.14965782742013,-89.95752162798058
"38112","Memphis","TN","City Electric Supply Midtown Memphis","3110 Broad Ave","38112",35.14784522587371,-89.95743596869984
"38114","Memphis","TN","Fellco","not_available","38114",35.08482,-90.00092
"38115","Memphis","TN","The Home Depot","3469 Riverdale Rd","38115",35.0536257,-89.8312383
"38115","Memphis","TN","Farrell-Calhoun Paint","2857 Kirby Rd Ste 104","38119",35.07087239046601,-89.84427285283073
"38115","Memphis","TN","Mid America Appliance","not_available","38118",35.075140000000005,-89.893766
"38115","Memphis","TN","Henny Penny Taylor","not_available","38115",35.035148,-89.878379
"38115","Memphis","TN","Peifer Safe & Lock","5287 Knight Arnold Rd","38118",35.061653,-89.887079
"38116","Memphis","TN","Russell Hardware & Supply","3185 Millbranch Rd #2","38116",35.06205749511719,-90.00777435302734
"38116","Memphis","TN","Grainger Industrial Supply","1901 Nonconnah Blvd","38132",35.071321999999995,-89.99940500000001
"38116","Memphis","TN","Farrell-Calhoun Paint","3185 Millbranch Rd","38116",35.06215330739336,-90.00784577240466
"38116","Memphis","TN","Sherwin-Williams Paint Store","1088 E Brooks Rd","38116",35.062928,-90.027989
"38116","Memphis","TN","Happy's Appliance","3665 Millbranch Rd.","38116",35.049075,-90.00797
"38116","Memphis","TN","Fell & Co International","3266 Winbrook Dr","38116",35.059641,-89.996575
"38117","Memphis","TN","Lowe's","585 North Perkins Road","38122",35.147167,-89.9097689
"38117","Memphis","TN","The Home Depot","800 Truse Road","38117",35.1090074,-89.8923673
"38117","Memphis","TN","Dan West Garden Centers","4763 Poplar Ave","38117",35.114505,-89.902901
"38117","Memphis","TN","Sherwin-Williams Paint Store","4717 Summer Ave","38122",35.148158,-89.903573
"38117","Memphis","TN","Memphis Ace Hardware 1","5143 Quince Rd.","38117",35.0891,-89.8906
"38117","Memphis","TN","minuteKEY","585 N Perkins Rd","38122",35.147579193115234,-89.91030883789062
"38117","Memphis","TN","Hubbard's Hardware Supply","4321 Summer Ave","not_available",35.148632526397705,-89.916886
"38117","Memphis","TN","Disk Doctors","5100 Poplar Ave","38137",35.11201010307713,-89.8936128616333
"38117","Memphis","TN","Sherwin-Williams Paint Store","5035 Southern Ave","38117",35.111685371898695,-89.89439070224762
"38118","Memphis","TN","Ewing Irrigation","5511 United Dr","38118",35.00088760265517,-89.87974047660828
"38118","Memphis","TN","Cumberland Materials","3615 Lamar Ave","38118",35.066404999999996,-89.944289
"38118","Memphis","TN","United Plywood","not_available","38141",35.01552963256836,-89.87034606933594
"38118","Memphis","TN","Rebel Equipment","4890 E Shelby Drive Memphis TN 38118","38118",35.020976,-89.90049
"38118","Memphis","TN","Sherwin-Williams Floorcovering Store","5425 E Raines Rd","38115",35.034452,-89.883208
"38118","Memphis","TN","Sherwin-Williams Commercial Paint Store","3850 Lamar Ave","38118",35.060001529236956,-89.93440389633179
"38118","Memphis","TN","Memphis Bearing and Supply","3643 Winchester Rd","38118",35.051455,-89.942409
"38118","Memphis","TN","H&E Equipment Services","5245 Hwy 78","38118",35.008236,-89.8889085
"38118","Memphis","TN","Fulmer Hardware","3745 Lamar Ave","38118",35.062087,-89.939173
"38118","Memphis","TN","Hotel & Restaurant Supply","3750 Winchester Rd","38118",35.052506,-89.938428
"38118","Memphis","TN","Dyke Industries","4038 E Raines Rd","38118",35.037919,-89.929204
"38118","Memphis","TN","Vallen","4162 Getwell Rd","38118",35.034820556640625,-89.93626403808594
"38118","Memphis","TN","All Weather Doors and Locks","2856 Lamb Pl Ste 4","38118",35.07180404663086,-89.9614486694336
"38118","Memphis","TN","Pyramid Interiors","4760-4858 New Getwell Rd","38118",35.01764704,-89.93638329
"38118","Memphis","TN","Ferguson Fire & Fabrication","3925 Pilot Dr","38118",35.03627,-89.931952
"38118","Memphis","TN","Maintenance Supply & Fastener","4065 Pilot Dr","38118",35.032569,-89.927373
"38118","Memphis","TN","nexAir","3610 S Goodlett St","38118",35.050156,-89.921664
"38119","Memphis","TN","Germantown Hardware","2083 S Germantown Rd","38138",35.09232637590483,-89.81013542814091
"38119","Memphis","TN","Sherwin-Williams Paint Store","7434 Sonic Dr","38125",35.051871000000006,-89.815611
"38119","Memphis","TN","Sherwin-Williams Paint Store","1979 Exeter Rd","38138",35.095125,-89.802716
"38119","Memphis","TN","Germantown Lumber","7501 Poplar Pike","38138",35.08737,-89.812409
"38122","Memphis","TN","Harbor Freight Tools","4506 Summer Ave","38122",35.14960180309529,-89.91081223140984
"38122","Memphis","TN","Superlo Foods","2155 Covington Pike","38128",35.18379,-89.89693
"38122","Memphis","TN","Universal Manufacturing Company Inc","5366 Crestview Rd","38134",35.170881,-89.884053
"38122","Memphis","TN","Memphis","4500 Summer Avenue","38122",35.1503073,-89.9110862
"38122","Memphis","TN","Sherwin-Williams Paint Store","5150 Old Summer Rd","38122",35.150046,-89.889398
"38122","Memphis","TN","All Rite Plumbing Parts, Inc.","5070 Summer Ave","38122",35.151111,-89.891825
"38122","Memphis","TN","Northern Tool & Equipment","5124 Summer Ave","38122",35.15333176800709,-89.89022321586003
"38122","Memphis","TN","Coburn","not_available","38134",35.17119175560599,-89.88370361024947
"38122","Memphis","TN","Federal Equipment","4800 Summer Ave","38122",35.149128000000005,-89.90039300000001
"38122","Memphis","TN","Moultrie Tool & Mfg Co Inc","1887 Vanderhorn Dr","38134",35.177168,-89.890606
"38125","Memphis","TN","Lowe's","7895 Winchester Road","38125",35.0477059,-89.8009306
"38125","Memphis","TN","minuteKEY","6990 E Shelby Dr","38125",35.02176284790039,-89.82968139648438
"38125","Memphis","TN","Varco Pruden Buildings","3200 Players Club Cir","38125",35.06337439,-89.79168099
"38125","Memphis","TN","minuteKEY","7895 Winchester Rd","38125",35.047532000000004,-89.801103
"38127","Memphis","TN","Best Rooter LLC","2932 Spring Hill Dr","38127",35.205725,-89.96631500000001
"38128","Memphis","TN","The Home Depot","4950 Stage Road","38128",35.208587,-89.8995282
"38128","Memphis","TN","Sherwin-Williams Paint Store","4964 Stage Rd","38128",35.20768353,-89.89773408
"38128","Memphis","TN","Battery Express","3616 Old Austin Peay Hwy - Ste 1A","38128",35.22346551354878,-89.9056077003479
"38128","Memphis","TN","Fluid Air","2372 Chiswood St","38134",35.190355,-89.89386800000001
"38133","Memphis","TN","Chris-More, Inc.","1995 Fletcher Creek Dr","38133",35.179688,-89.838443
"38133","Memphis","TN","nexAir","6765 Reese Rd","38133",35.193908,-89.836706
"38134","Memphis","TN","Colonial Hardware","6140 Macon Rd #101","38134",35.16505107711565,-89.85545832358135
"38134","Memphis","TN","Falk Plumbing Supply - Memphis","6491 Ferrell Dr","38134",35.18845464,-89.84705003
"38134","Memphis","TN","The Window Source of the Midsouth","1682 North Shelby Oaks Drive","38134",35.171184000000004,-89.85382
"38134","Memphis","TN","Dixie Rents","6352 Summer Ave","38134",35.1891888,-89.85148965
"38134","Memphis","TN","Fastenal","6412 Summer Ave","38134",35.1903203600848,-89.84986804021526
"38134","Memphis","TN","Ferguson Plumbing Supply","1751 Shelby Oaks Dr N","38134",35.1734131557079,-89.8553026044978
"38201","Mc Kenzie","TN","Medlin's Boots","not_available","38201",36.121467,-88.519716
"38201","Mc Kenzie","TN","C & S Outdoor Power Equipment","16267 Highway 22","38344",36.046129,-88.454199
"38225","Dresden","TN","Vaughan Brothers","not_available","38225",36.291858,-88.708946
"38232","Hornbeak","TN","lovetts hardware","not_available","38232",36.33338165283203,-89.2956314086914
"38233","Kenton","TN","Somers Hardware","201 S Trenton St","38369",36.12633891353504,-88.98637910421355
"38236","Mansfield","TN","Tractor Supply Co.","50 Teague Rd","38236",36.191211,-88.254349
"38237","Martin","TN","Rural King","850 University St","38237",36.345048375691306,-88.87736678123474
"38237","Martin","TN","Builders Supply","not_available","38257",36.50152215576074,-88.87226123824901
"38237","Martin","TN","Vowell And Son","not_available","38237",36.34003180880232,-88.8495227502888
"38242","Paris","TN","Lowe's","117 Memorial Dr","38242",36.2840252,-88.3048375
"38242","Paris","TN","minuteKEY","1210 Mineral Wells Ave","38242",36.281166076660156,-88.3082275390625
"38242","Paris","TN","Sears","1060 Mineral Wells Ave","38242",36.285635,-88.310337
"38242","Paris","TN","54 Lawn & Garden","not_available","38242",36.294734000000005,-88.414962
"38242","Paris","TN","Sherwin-Williams Paint Store","308 Tyson Ave","38242",36.295169830322266,-88.31292724609375
"38242","Paris","TN","Lakeway Building Products","2324 Lakeway Cir","38242",36.317357,-88.278922
"38242","Paris","TN","Tractor Supply Co.","1266 Hwy 641 South","38242",36.279731,-88.293881
"38242","Paris","TN","Paris Building Supply","1180 N Poplar St","38242",36.315135,-88.325429
"38256","Springville","TN","Dickies Trailer Sales","not_available","38320",36.16931915283203,-88.14851379394531
"38261","Union City","TN","Sherwin-Williams Paint Store","106 N 1st St","38261",36.42651410665422,-89.0573587038028
"38261","Union City","TN","Benoist Supply Co","1410 S 5th Street","38261",36.42566706645759,-89.06323394658621
"38261","Union City","TN","Tractor Supply Co.","425 West Reelfoot Ave","38261",36.415678,-89.063219
"38261","Union City","TN","BTC Construction","Olive St.","38261",36.472401959407655,-89.10924617516896
"38261","Union City","TN","Lowe's","800 West Reelfoot Avenue","38261",36.4137089,-89.0676801
"38261","Union City","TN","minuteKEY","1601 W Reelfoot Ave","38261",36.4139741,-89.0804512
"38301","Jackson","TN","Lowe's","2071 South Highland Avenue","38301",35.5530351,-88.811617
"38301","Jackson","TN","Lowe's","671 Vann Drive","38305",35.6687694,-88.84787
"38301","Jackson","TN","The Home Depot","1120 Vann Dr","38305",35.6657774,-88.8562689
"38301","Jackson","TN","Harbor Freight Tools","581 Old Hickory Blvd Ste B","38305",35.65885629270362,-88.85054397597327
"38301","Jackson","TN","84 Lumber","not_available","38305",35.664391,-88.882434
"38301","Jackson","TN","Fastenal","not_available","38301",35.61887899,-88.858604
"38301","Jackson","TN","minuteKEY","671 Vann Dr","38305",35.66827392578125,-88.84796905517578
"38301","Jackson","TN","Surplus WareHouse Jackson (TN)","756 Old Hickory Boulevard","38305",35.6555234,-88.856564
"38301","Jackson","TN","Jackson Battery Service","702 Old Hickory Blvd","38305",35.656302,-88.854225
"38301","Jackson","TN","Sherwin-Williams Paint Store","138 Vann Dr","38305",35.6714432941437,-88.83388012647629
"38301","Jackson","TN","Sherwin-Williams Paint Store","156 Airways Blvd","38301",35.61547241542818,-88.82651746273041
"38301","Jackson","TN","minuteKEY","2171 S Highland Ave","38301",35.550942,-88.81009
"38301","Jackson","TN","alpha overhead garage door company","622 N Parkway","38305",35.64904449884564,-88.84003104257079
"38301","Jackson","TN","minuteKEY","2196 Emporium Dr","38305",35.668453216552734,-88.85194396972656
"38301","Jackson","TN","LB Affordable Construction","911 Hollywood Dr","38301",35.62503544854201,-88.83727312088013
"38301","Jackson","TN","Ferguson Selection Center","1020 Hwy 45 Bypass","38301",35.63059513706773,-88.84541697312453
"38301","Jackson","TN","Chef Mart","Carriage House","38305",35.668423,-88.840633
"38301","Jackson","TN","Irby","1159 Highway 45 Byp","38301",35.63382562740022,-88.84937524795532
"38301","Jackson","TN","Tractor Supply Co.","15 Carriage House Dr","38305",35.668515,-88.830344
"38301","Jackson","TN","nexAir","2444 Bells Highway","38305",35.659224,-88.879741
"38305","Jackson","TN","Ace Hardware of Jackson","3315 N Highland Ave","38305",35.7015495300293,-88.8304672241211
"38305","Jackson","TN","Alpha Overhead Garage Door Company","157 Maddox Dr","38305",35.710750579833984,-88.82000732421875
"38305","Jackson","TN","Farrell-Calhoun Paint","3684 Highway 45 N","38305",35.71084034417303,-88.83444750282973
"38310","Adamsville","TN","AG&N Ag Service","not_available","38310",35.235950027013665,-88.37504054455677
"38310","Adamsville","TN","Husqvarna US","163 Duren Industrial Dr","38310",35.23600769042969,-88.37522888183594
"38320","Camden","TN","minuteKEY","2200 Highway 641 N","38320",36.0229201,-88.1148674
"38320","Camden","TN","Husqvarna US","PO Box 250","38320",36.058815002441406,-88.10215759277344
"38320","Camden","TN","Hall True Value Hdw","97 E Court Sq","38320",36.05797576904297,-88.0961685180664
"38329","Decaturville","TN","Buck building supply","65 N White Oak St","38329",35.585193,-88.120765
"38329","Decaturville","TN","Ace Hardware","413 Tennessee Ave","38363",35.528016508246246,-88.2081993952256
"38332","Enville","TN","J & C Construction","8380 Enville Rd","38332",35.41706848144531,-88.4853286743164
"38340","Henderson","TN","Tractor Supply Co","635 Us Highway 45 N","38340",35.446800231933594,-88.66031646728516
"38343","Humboldt","TN","minuteKEY","2716 N Central Ave","38343",35.840757,-88.912226
"38344","Huntingdon","TN","Tractor Supply Co.","20940 Main St East","38344",36.00599,-88.40619
"38344","Huntingdon","TN","Hardware House","143 Court Sq","38344",36.001186,-88.428393
"38351","Lexington","TN","Williams Plmbg & Elect Co","52 1st St","38351",35.648158,-88.393869
"38351","Lexington","TN","Tractor Supply Co.","677 West Church St","38351",35.657370632510485,-88.41513085954061
"38351","Lexington","TN","Husky Small Engine Inc.","19675 Highway 412 E","38351",35.634368896484375,-88.27904510498047
"38351","Lexington","TN","minuteKEY","547 W Church St","38351",35.654527,-88.411648
"38351","Lexington","TN","Outdoor Specialties","301 S Broad St","38351",35.6459348504946,-88.4002461145067
"38351","Lexington","TN","Henderson Chester County COOP","16219 Hwy 22 N, Lexington, TN 38351","38351",35.717832,-88.390401
"38355","Medina","TN","Darty Trailer Sales","not_available","38358",35.8399124505402,-88.7544990889301
"38358","Milan","TN","Lowe's","15471 South First Street","38358",35.8738784,-88.7462081
"38358","Milan","TN","minuteKEY","15427 S First St","38358",35.876182556152344,-88.74748229980469
"38358","Milan","TN","Tractor Supply Co.","6025 South 1st St","38358",35.90693298916434,-88.75388430221726
"38363","Parsons","TN","Buck Building Supply","not_available","38363",35.648456854814775,-88.13505563158344
"38363","Parsons","TN","Ace Hardware","413 Tennessee Ave N","38363",35.655888,-88.12823900000001
"38372","Savannah","TN","Lowe's","1895 Wayne Road","38372",35.2275377,-88.2135215
"38372","Savannah","TN","Tractor Supply Co.","195 Water St Ste A","38372",35.221738,-88.24467299999999
"38372","Savannah","TN","Qualls appliance services","not_available","38372",35.218297,-88.239309
"38372","Savannah","TN","Sherwin-Williams Paint Store","705 Wayne Rd","38372",35.22783010724514,-88.2344251871109
"38372","Savannah","TN","William's Lumber Company","20 Monty Dr","not_available",35.227142,-88.240687
"38372","Savannah","TN","Jerrolds Ace Hardware","960 Wayne Rd","38372",35.2272979,-88.230531
"38375","Selmer","TN","Selmer Hardware","620 Mulberry Ave","38375",35.15708923339844,-88.5789794921875
"38375","Selmer","TN","Muscle Maximizer","350 Shanna Dr","38375",35.18758773803711,-88.6090087890625
"38375","Selmer","TN","Federated Auto Parts","not_available","38375",35.156932,-88.578586
"38382","Trenton","TN","Ace Building Center","2039 Us Highway 45 Byp S","38382",35.970258,-88.930364
"38382","Trenton","TN","Ace Building Center","2039 US Highway 45 Byp S","38382",35.968414306640625,-88.92904663085938
"38401","Columbia","TN","Lowe's","2000 Hillary Drive","38401",35.5947771,-87.0598452
"38401","Columbia","TN","Harbor Freight Tools","Northway Shopping Center","38401",35.626953,-87.03213
"38401","Columbia","TN","Tractor Supply Co.","130 Ashwood Drive","38401",35.591322,-87.040138
"38401","Columbia","TN","ABC Supply","1516 Nashville Hwy","38401",35.650488,-87.010824
"38401","Columbia","TN","Fastenal","310 E James Campbell blvd","38401",35.588123,-87.03118
"38401","Columbia","TN","Columbia Outdoor Power","917 Nashville Hwy","38401",35.632663,-87.021419
"38401","Columbia","TN","Sherwin-Williams Paint Store","2000 Carmack Blvd","38401",35.598226221619484,-87.03743399726619
"38401","Columbia","TN","Columbia Rubber & Gasket","not_available","38401",35.6270751953125,-87.06444549560547
"38401","Columbia","TN","Ace Hardware","307 1st Ave","38474",35.53915023803711,-87.20915222167969
"38401","Columbia","TN","Home Depot","1701 N Clayton Dr","38401",35.672959000000006,-87.01406
"38401","Columbia","TN","DJ's Rentals","121 E. James Campbell Blvd.","38401",35.58953,-87.03811
"38401","Columbia","TN","High Marks, Co. (Restaurant Equip.)","714 Woodland St","38401",35.6148567199707,-87.03189086914062
"38401","Columbia","TN","City Electric Supply Columbia Tn","119 Nashville Hwy Ste 90 Ste 90","38401",35.6262231,-87.0326852
"38401","Columbia","TN","Ace Hardware of Columbia","112 E James Campbell Blvd","38401",35.58865,-87.037227
"38449","Ardmore","TN","Elkton Farm Store","not_available","38477",35.051195446066025,-86.89102628283057
"38456","Ethridge","TN","Garland's Wholesale","not_available","38456",35.308326,-87.301924
"38456","Ethridge","TN","minuteKEY","2130 N Locust Ave","38464",35.2733454,-87.314883
"38456","Ethridge","TN","Sherwin-Williams Paint Store","2002 N Locust Ave","38464",35.26744842529297,-87.32170867919922
"38456","Ethridge","TN","Tractor Supply Co.","2028 North Locust Ave","38464",35.26856994628906,-87.3208999633789
"38462","Hohenwald","TN","Tractor Supply Co.","608 East Main St","38462",35.558643,-87.53011
"38462","Hohenwald","TN","412 Building Supply","not_available","38462",35.55091094970703,-87.56942749023438
"38462","Hohenwald","TN","H & R Ace Hardware","201 Mill Ave","38462",35.557727,-87.531094
"38463","Iron City","TN","Husqvarna US","3839 Highway 43 S","38481",35.03509521484375,-87.50463104248047
"38464","Lawrenceburg","TN","True Value Hardware & General Store","810 N Locust Ave","38464",35.2476531,-87.32720835
"38464","Lawrenceburg","TN","Sears","1604 N. Locust Ave, Suite B","38464",35.25911362311404,-87.32286958023906
"38464","Lawrenceburg","TN","Summertown Tire","not_available","38474",35.43350339389427,-87.28072442703412
"38464","Lawrenceburg","TN","parkes lumber","2nd street","38464",35.24632233115264,-87.33113773785927
"38464","Lawrenceburg","TN","Brinks","134 Depot St","38464",35.245007,-87.33196
"38469","Loretto","TN","Green's Home Center","240 First St","38464",35.07451013233525,-87.4400535206712
"38478","Pulaski","TN","Tallman's","1235 W College St","38478",35.20179244349144,-87.05416738986969
"38478","Pulaski","TN","Ace Hardware","104 N 2nd St","38478",35.199554443359375,-87.0320053100586
"38478","Pulaski","TN","Tractor Supply Co.","1640 West College St","38478",35.204429626464844,-87.06078338623047
"38478","Pulaski","TN","The Home Depot","1451 W College St","38478",35.200179332560474,-87.05844819545746
"38478","Pulaski","TN","Abernathy Hardware","111 N 1st St","38478",35.19939029924147,-87.03066051006317
"38478","Pulaski","TN","easy pay","not_available","38478",35.19862365722656,-87.02960968017578
"38478","Pulaski","TN","Fastenal","1664 W College St","38478",35.204498291015625,-87.06095123291016
"38478","Pulaski","TN","Giles County Co-Op - Pulaski","2070 Elkton Pike","38478",35.152433409448456,-87.0046591758728
"38485","Waynesboro","TN","Waynesboro Ace Hardware","213 S High St","38485",35.319277,-87.763324
"38485","Waynesboro","TN","Tractor Supply Co.","110 Industrial Dr","38485",35.327934411710736,-87.76056883824079
"38501","Cookeville","TN","Lowe's","510 Neal Street","38501",36.139061,-85.494926
"38501","Cookeville","TN","Tractor Supply Co.","575-a South Jefferson Ave","38501",36.149789,-85.501911
"38501","Cookeville","TN","harbor frieght","120 S Willow Ave","38501",36.159724,-85.511395
"38501","Cookeville","TN","Highland Hardware","219 E Spring St","38501",36.161795,-85.501104
"38501","Cookeville","TN","IR-G Industrial Rubber & Gasket","1656 E Spring St","38506",36.149401,-85.464291
"38501","Cookeville","TN","Potters Ace Home Center","325 Newman Dr","38501",36.146274,-85.52395600000001
"38501","Cookeville","TN","C & G's Mountain Music","400 Dubois Rd Ste A12","38501",36.136609675087406,-85.4996395111084
"38501","Cookeville","TN","Sherwin-Williams Paint Store","170 S Jefferson Ave","38501",36.15948,-85.499912
"38501","Cookeville","TN","Williams Wholesale Supply","250 S Jefferson Ave","38501",36.157610999999996,-85.4999
"38501","Cookeville","TN","Johnson Nursery And Garden Center","E Spring St","38506",36.148168,-85.463488
"38501","Cookeville","TN","minuteKEY","768 S Jefferson Ave","38501",36.1450949,-85.4970869
"38501","Cookeville","TN","minuteKEY","510 Neal St","38501",36.13902282714844,-85.49496459960938
"38501","Cookeville","TN","Irby","228 West Spring Street","38501",36.16148222899281,-85.5114734172821
"38501","Cookeville","TN","Southern Landscape Supply","1580 Brown Ave","38501",36.184378,-85.488531
"38501","Cookeville","TN","City Electric Supply Cookeville","1599 Interstate Dr","38501",36.139623650526026,-85.5251781642437
"38501","Cookeville","TN","mobil home doctor","not_available","38501",36.178985595703125,-85.57575225830078
"38506","Cookeville","TN","Potters Ace Home Center","615 W Main","38506",36.183461,-85.459135
"38506","Cookeville","TN","minuteKEY","589 W Main St","38506",36.185508728027344,-85.46000671386719
"38506","Cookeville","TN","Ferguson","1191 S Jefferson Ave","38506",36.130625,-85.505986
"38506","Cookeville","TN","Industry Mart","207 Swift St","38506",36.19539,-85.444281
"38506","Cookeville","TN","Foundation Building Materials","340 Industrial Circle","38506",36.2039396,-85.4473839
"38544","Baxter","TN","Potter's Ace Hardware","not_available","38544",36.17101017399573,-85.62778613558748
"38549","Byrdstown","TN","Pickett Farm Supply","not_available","38549",36.581956960541696,-85.13449768348467
"38555","Crossville","TN","Lowe's","2431 N Main","38555",35.98019,-85.040732
"38555","Crossville","TN","Potters Ace Home Center","3125 Lantana Rd","38572",35.911415999999996,-85.05698100000001
"38555","Crossville","TN","Sears","1860 N. Main St.","38555",35.9726482,-85.0373412
"38555","Crossville","TN","Husqvarna US","152 Elmore Rd","38555",35.96183776855469,-85.03850555419922
"38555","Crossville","TN","Tractor Supply Co.","135 Highland Sq","38555",35.958610621160624,-85.0431316621276
"38555","Crossville","TN","The Feed Store","not_available","38555",35.956155879484605,-85.01003962578557
"38555","Crossville","TN","Sears","Cumberland Sq, 1860 N Main St","38555",35.97257308847907,-85.03705516124762
"38555","Crossville","TN","Sherwin-Williams Paint Store","1206 West Ave","38555",35.95730068642183,-85.03998398780823
"38555","Crossville","TN","minuteKEY","168 Obed Plz Ste 108","38555",35.9834341,-85.0356735
"38555","Crossville","TN","Potters Ace Home Center","786 Sparta Hwy","38572",35.96091,-85.0556
"38556","Jamestown","TN","Tractor Supply Co.","421 North Main St","38556",36.43279,-84.935481
"38556","Jamestown","TN","King True Value Hardware","129 N Main St","38556",36.42840838,-84.93191459
"38556","Jamestown","TN","Cabinetmaker Warehouse","1700 Taylor Place Rd","38556",36.380889892578125,-84.89226531982422
"38556","Jamestown","TN","Potters Ace Home Center","205 Livingston Ave","38556",36.42676,-84.932247
"38570","Livingston","TN","Husqvarna US","125 Tom Davis Rd","38570",36.36968231201172,-85.34363555908203
"38570","Livingston","TN","Winningham True Value Hardware","303 W Main St","38570",36.382289,-85.32425400000001
"38570","Livingston","TN","The Building Center","1300 W Main St","38570",36.374992,-85.34028599999999
"38570","Livingston","TN","Potters Ace Home Center","502 Rickman Rd","38570",36.3763629,-85.337467
"38570","Livingston","TN","Tractor Supply Co.","1678 Roses Dr","38570",36.363631626172804,-85.34314159352013
"38574","Monterey","TN","Potters Ace Home Center","1600 Harristown Rd","38574",36.13603,-85.247218
"38583","Sparta","TN","Ace Hardware","132 Churchill Dr","38583",35.937688,-85.481318
"38583","Sparta","TN","Screw Machine Products","691 Mcminnville Hw","38583",35.912425,-85.484977
"38583","Sparta","TN","minuteKEY","202 Sam Walton Dr","38583",35.9291948,-85.4898384
"38583","Sparta","TN","Husqvarna US","3757 Blackburn Mountain Rd","38583",35.860572814941406,-85.40654754638672
"38583","Sparta","TN","Wholesale Outlet","not_available","38583",35.9600038,-85.2961843
"38583","Sparta","TN","Savage True Value Building Center","409 N Spring St","38583",35.94777866,-85.47427372
