"zip","city","state","name","address","postalCode","lat","lon"
"97002","Aurora","OR","gk machine","not_available","not_available",45.22284698486328,-122.84552764892578
"97002","Aurora","OR","Palau True Value","21515 Bents Ct NE","97002",45.2316738155255,-122.811561149189
"97004","Beavercreek","OR","Beavercreek Tooling Company","406 Beavercreek Rd #346","97045",45.294408,-122.534222
"97005","Beaverton","OR","The Home Depot","4401 Southwest 110th Ave","97005",45.4882592,-122.7913294
"97005","Beaverton","OR","Habitat For Humanity ReStore","13475 SW Millikan Way","97005",45.49233777137196,-122.8152531978683
"97005","Beaverton","OR","Platt Electric Supply","10605 SW Allen Blvd","97005",45.47733352097478,-122.78655171013082
"97005","Beaverton","OR","Harbor Freight Tools","10270 SW Park Way","97225",45.50797678690275,-122.7830173339083
"97005","Beaverton","OR","Beaverton Kitchen Cabinet & Stone Inc","5355 SW Western Ave","97005",45.4817,-122.784012
"97005","Beaverton","OR","Sherwin-Williams Paint Store","12480 SW Center St","97005",45.493435999999996,-122.80530900000001
"97005","Beaverton","OR","TT&L Sheet Metal","6585 SW Fallbrook Pl","97008",45.472258000000004,-122.77858
"97005","Beaverton","OR","Portland Purple Water","11325 SW Canyon Rd","97005",45.49101257324219,-122.79361724853516
"97005","Beaverton","OR","minuteKEY","11425 SW Beaverton-Hillsdale","97005",45.4867224,-122.7960305
"97005","Beaverton","OR","George Morlan Plumbing Supply","5805 SW 107th Ave Ste 1","97005",45.478598,-122.788278
"97005","Beaverton","OR","Fireside Home Solutions","13980 SW Tualatin Valley Hwy","97005",45.488119,-122.820499
"97005","Beaverton","OR","Fastenal","9966 SW Arctic Dr","97005",45.480441,-122.78024599999999
"97005","Beaverton","OR","Stark Street Lawn & Garden","12150 SW Broadway St","97005",45.487227000000004,-122.802856
"97005","Beaverton","OR","Rugby ABP","not_available","97070",45.51583379359675,-122.773210042781
"97005","Beaverton","OR","Garage Door Repair Beaverton","4130 SW 117th Ave","97005",45.4901123046875,-122.79723358154297
"97005","Beaverton","OR","Hyland Hills Hardware","14284 SW Allen Blvd","97005",45.4763779,-122.8239
"97005","Beaverton","OR","Canyon Glass Co.","13075 SW Canyon Rd","97005",45.488614,-122.81151799999999
"97005","Beaverton","OR","Rockler Woodworking & Hardware","11773 SW Beaverton Hillsdale Hwy","97005",45.487734026049395,-122.7980264747736
"97005","Beaverton","OR","Builders FirstSource Truss & Floor Systems","5350 SW 107th Drive","97005",45.481107169557475,-122.78638958930968
"97005","Beaverton","OR","Universal Appliance Parts","4655 SW Watson Ave","97005",45.486191999999996,-122.80658899999999
"97005","Beaverton","OR","Ace Hardware","4285 SW Cedar Hills Blvd","97005",45.489292,-122.81160700000001
"97005","Beaverton","OR","Platt Electric Supply","4650 SW Pacific Ave","97005",45.485433,-122.798992
"97005","Beaverton","OR","Rockler","not_available","97005",45.48866582883647,-122.79064944923583
"97005","Beaverton","OR","minuteKEY","3025 SW Cedar Hills Blvd","97005",45.49796676635742,-122.80988311767578
"97005","Beaverton","OR","Northwest Hydroponics","10201 NW Beaverton-Hillsdale Hwy","97005",45.487025,-122.781723
"97006","Beaverton","OR","The Home Depot","13700 NW Science Park Dr","97229",45.523911802936865,-122.81737564919797
"97006","Beaverton","OR","Suburban Ace Hardware Inc","3470 SW 185th Ave","97003",45.4946389,-122.8669
"97006","Beaverton","OR","Northwest Flooring Outlet","not_available","97124",45.536924600599875,-122.88403272628427
"97006","Beaverton","OR","Eoff Electric Supply","8531 NE Cornell Rd","97124",45.539906,-122.89166999999999
"97006","Beaverton","OR","Product Design Specialties LLC","Hillsboro","97124",45.539616568810935,-122.89483666419981
"97007","Beaverton","OR","Ace Hardware","14805 SW Barrows Rd Ste 101","97007",45.4305819933299,-122.829862736863
"97007","Beaverton","OR","Miller Paint","6071 SW 185th Ave","97078",45.47544860839844,-122.86863708496094
"97007","Beaverton","OR","Living Water Pump Company","16365 SW 137th Ave","97224",45.401489,-122.819711
"97007","Beaverton","OR","Miller Paint","6701 SW Farmington Rd","not_available",45.474959000000005,-122.86908500000001
"97008","Beaverton","OR","Sygnii","13285 Southwest Hawks Beard Street","97223",45.44077173,-122.81377158
"97008","Beaverton","OR","Ewing Irrigation","10685 SW Greenburg Rd","97223",45.443258,-122.78053799999999
"97008","Beaverton","OR","Rodda Paint","8614 SW Hall Blvd","97008",45.45821,-122.78305800000001
"97008","Beaverton","OR","Miller Paint - Scholls Ferry","SW Nimbus","not_available",45.446734600875956,-122.79031551208584
"97008","Beaverton","OR","Ace Garage Door","10260 SW Greenburg Rd #400","97223",45.44628245256151,-122.77150869369507
"97009","Boring","OR","DC Structures","10984 SE 232nd Ave","97089",45.44345,-122.423922
"97009","Boring","OR","Double D Locksmithing","38565 Pleasant St","97055",45.39798289789098,-122.26630926132202
"97009","Boring","OR","Mt Scott Fuel Co","11909 SE 282nd Ave","97009",45.436763,-122.373277
"97009","Boring","OR","Bgl Hardware","12900 SE Richey Rd","97009",45.42934036254883,-122.37367248535156
"97009","Boring","OR","Platt Electric Supply","16500 362nd St","97055",45.404146000000004,-122.29036599999999
"97009","Boring","OR","Ace Heritage Hardware","39181 Pioneer Blvd","97055",45.396574,-122.25998899999999
"97009","Boring","OR","Garage Door Repair Sandy","38954 Proctor Blvd","97055",45.397098541259766,-122.26261901855469
"97009","Boring","OR","Fisher Farm & Lawn","6928 SE 282nd Ave","97080",45.471802000000004,-122.37219099999999
"97013","Canby","OR","ACE Hardware - Canby","1061 SW 1st Ave","97013",45.25545,-122.70338100000001
"97013","Canby","OR","Wilco Farm Stores","195 S Hazel Dell Way","97013",45.266298,-122.67344399999999
"97013","Canby","OR","Canby Rental","not_available","97013",45.26140255183317,-122.69596272944038
"97013","Canby","OR","Tractor Supply Co.","31130 South Highway 213","97038",45.155187256521806,-122.60333921286042
"97013","Canby","OR","Garage Door Repair Canby","1109 SW 1st Ave","97013",45.255592346191406,-122.70452117919922
"97013","Canby","OR","Onion's Canby Electric","S Hwy 170, Canby, OR 97013","97013",45.257027216666664,-122.68831785
"97014","Cascade Locks","OR","Columbia Hardware","not_available","98648",45.695706023228595,-121.87907063298813
"97015","Clackamas","OR","Happy Valley Ace Hardware","14718 SE Sunnyside Rd","97015",45.423495,-122.511854
"97015","Clackamas","OR","Haven Spa Pool Hearth","10560 SE Highway 212","97015",45.4070431,-122.5546407
"97015","Clackamas","OR","All-Tech Appliance Repair","15225","97015",45.431079,-122.570067
"97015","Clackamas","OR","ANI Material Handling","16815 SE 130th","97015",45.400354,-122.53177719
"97015","Clackamas","OR","mutual materials","not_available","97015",45.408837,-122.555623
"97015","Clackamas","OR","Montavilla Sheet Metal","16076 SE Evelyn St, Clackamas, OR 97015","97015",45.40584945678711,-122.5601806640625
"97015","Clackamas","OR","Sears","not_available","97086",45.4368944,-122.571756
"97015","Clackamas","OR","Gladstone Machine Inc.","15451 SE For Mor Ct","97015",45.410744,-122.53211100000001
"97015","Clackamas","OR","Ferguson Plumbing Supply","14600 Se 82nd Dr","97015",45.418366999999996,-122.57073500000001
"97015","Clackamas","OR","Enoch Precision Machining","14242 SE 82nd Dr","97015",45.419863,-122.57158100000001
"97015","Clackamas","OR","Builders FirstSource","15877 SE 98Th Ave","97015",45.408042907714844,-122.56269836425781
"97015","Clackamas","OR","Platt Electric Supply","14614 SE 82nd Dr","97015",45.417417,-122.570326
"97015","Clackamas","OR","General Sheet Metal Works","11235 SE Highway 212","97015",45.408784999999995,-122.549049
"97016","Clatskanie","OR","Clatskanie Ace Hardware","400 E Columbia River Hwy","97016",46.102775,-123.20138
"97016","Clatskanie","OR","Ace Hardware","57 Main Street","98612",46.20346450805664,-123.38338470458984
"97017","Colton","OR","Keith Brown Building Supply","200-280 Woodburn-Estacada Hwy","97038",45.169205,-122.476129
"97021","Dufur","OR","Azure General Store","220 Main Street","97021",45.4535539,-121.13079
"97023","Estacada","OR","Estacada True Value","310 S Main St","97023",45.287433,-122.333498
"97023","Estacada","OR","Dicks logging supply","not_available","97023",45.296307,-122.34433100000001
"97024","Fairview","OR","Lowe's","1000 NE Wood Village Blvd","97060",45.5298418,-122.4258557
"97024","Fairview","OR","minuteKEY","22855 NE Park Ln","97060",45.53018569946289,-122.4288558959961
"97024","Fairview","OR","Sherwin-Williams Paint Store","18179 NE Halsey St","97230",45.53502493162425,-122.47614383697511
"97024","Fairview","OR","Ferguson Fire & Fabrication","19099 NE San Rafael St","97230",45.538665771484375,-122.46723175048828
"97024","Fairview","OR","Eoff Electric Supply","20048 NE San Rafael St","97230",45.535992,-122.458481
"97026","Gervais","OR","Sherwin-Williams Paint Store","1530 N Pacific Hwy","97071",45.150333,-122.831475
"97026","Gervais","OR","minuteKEY","3002 Stacey Allison Way","97071",45.1480712890625,-122.88067626953125
"97026","Gervais","OR","Ace Hardware","195 Birds Eye Ave","97071",45.135738372802734,-122.84382629394531
"97026","Gervais","OR","Longs Lumber","not_available","97071",45.13597750338523,-122.84437804806531
"97026","Gervais","OR","GW HARDWARE","1503-1525 N Pacific Hwy","97071",45.14992039,-122.83323331666666
"97027","Gladstone","OR","Sherwin-Williams Paint Store","18090 SE McLoughlin Blvd","97267",45.392739,-122.613072
"97027","Gladstone","OR","Garage Door Repair Gladstone","17194 Webster Rd","97027",45.39819383700727,-122.58574962615965
"97027","Gladstone","OR","Garage Door Repair Gladstone","115 W Gloucester St","97027",45.38188552856445,-122.5962142944336
"97030","Gresham","OR","The Home Depot","25101 SE Stark St","97060",45.520759092431234,-122.40425205538486
"97030","Gresham","OR","Harbor Freight Tools","2950 NE Hogan Dr","97030",45.51803124203974,-122.41136975327662
"97030","Gresham","OR","Miller Paint","1831 E Powell Blvd","97080",45.49741823222613,-122.41238280148963
"97030","Gresham","OR","Coastal Farm & Ranch","2975 NE Hogan Dr","97030",45.51771762358699,-122.4132359571739
"97030","Gresham","OR","The Arden Apartments","765 Southeast Mount Hood Highway","97080",45.49080071,-122.40557181
"97030","Gresham","OR","Sherwin-Williams Paint Store","1740 E Powell Blvd","97030",45.497394,-122.414983
"97030","Gresham","OR","Platt Electric Supply","909 NE Kane Dr","97030",45.503957,-122.400869
"97030","Gresham","OR","Rodda Paint","318 NW Eastman Pkwy","97030",45.499868,-122.435027
"97030","Gresham","OR","Garage Door Repair Gresham","2870 NE Hogan Dr","97030",45.517796000000004,-122.411174
"97030","Gresham","OR","Davis Locksmith","2404-2498 SE 3rd St","97080",45.49651833,-122.40702963
"97030","Gresham","OR","Gresham Glass","not_available","97030",45.50058,-122.413303
"97030","Gresham","OR","Camps True Value Hardware","1070 E Powell Blvd","97030",45.497735,-122.420295
"97030","Gresham","OR","minuteKEY","2497 SE Burnside Rd","97080",45.49439239501953,-122.40450286865234
"97030","Gresham","OR","Stone Depot LLC","19333 SE Division St","97030",45.504476,-122.463487
"97030","Gresham","OR","Parr Lumber","18608 SE Stark St","97233",45.518846,-122.471275
"97030","Gresham","OR","Ferguson Plumbing Supply","2181 Se Third St","97080",45.496611,-122.410321
"97030","Gresham","OR","Graham Hearing Aid Center","1025 E Powell Blvd Ste 100","97030",45.498451232910156,-122.4207534790039
"97030","Gresham","OR","Sherwin-Williams Paint Store","277 NE 223rd Ave","97030",45.52524244729241,-122.43419196105765
"97031","Hood River","OR","Hood River Supply","1945 12th St","97031",45.694222,-121.52315
"97031","Hood River","OR","Ace Hardware","3831 Eagle Loop","97031",45.629676818847656,-121.54496002197266
"97031","Hood River","OR","Schlosser Machine Inc.","1360 Tucker Rd","97031",45.6801708,-121.529421
"97031","Hood River","OR","Bryant Pipe & Supply","999 Tucker Rd","97031",45.690833000000005,-121.52245500000001
"97031","Hood River","OR","tum-a-lum lumber","not_available","97031",45.7074502255534,-121.50321429409384
"97031","Hood River","OR","Platt Electric Supply","1330 Tucker Rd","97031",45.68162536621094,-121.52941131591797
"97031","Hood River","OR","Shinpaugh Plastering","4425 Tyler Dr","97031",45.690412,-121.571744
"97031","Hood River","OR","Sears","1795 12th Street","97031",45.695963,-121.522017
"97031","Hood River","OR","Morgan Paint Co.","1402 12th St","97031",45.700083,-121.52405
"97031","Hood River","OR","Ye Olde Locke Shoppe","1311 13th St","97031",45.700455,-121.524496
"97034","Lake Oswego","OR","Lake Oswego Ace Hardware","55 S State St","97034",45.415139,-122.66354
"97034","Lake Oswego","OR","Home Improvement Pro","524 Country Club Rd","97034",45.422290999999994,-122.67811299999998
"97034","Lake Oswego","OR","Miller Paint - Lake Oswego","544 N State St","97034",45.421139000000004,-122.66299
"97034","Lake Oswego","OR","Harbor Freight Tools","McLoughin","97267",45.411655,-122.653332
"97034","Lake Oswego","OR","Lifetime Windows & Doors","14710 Southeast Lee Avenue","97267",45.41658814,-122.64273633
"97034","Lake Oswego","OR","Sherwin-Williams Paint Store","15659 Boones Ferry Rd","97035",45.412653000000006,-122.71753799999999
"97035","Lake Oswego","OR","The Home Depot","14800 SW Sequoia Pkwy","97224",45.41311018354547,-122.74577874327579
"97035","Lake Oswego","OR","Emerson Network Power","15770 Upper Boones Ferry Rd","97035",45.405840000000005,-122.746354
"97035","Lake Oswego","OR","Production Tool & Manufacturing Co.","not_available","97224",45.40317153930664,-122.74801635742188
"97035","Lake Oswego","OR","Granger","6713 SW Bonita Rd","97224",45.4162712097168,-122.7458267211914
"97035","Lake Oswego","OR","Trane Oregon","7257 SW Kable Ln","97224",45.408553999999995,-122.74991899999999
"97035","Lake Oswego","OR","Johnstone Supply","16650 SW 72nd Ave","97224",45.399947,-122.747698
"97035","Lake Oswego","OR","Northwest Staple Supply","17150 Boones Ferry Rd","97035",45.401552,-122.73378500000001
"97035","Lake Oswego","OR","Platt Electric Supply","18098 SW Lwr Boones Ferry Rd","97224",45.39168946872923,-122.74984635576675
"97035","Lake Oswego","OR","Fahey Machinery Co., Inc.","17605 Meridian Rd","97035",45.399045,-122.743874
"97038","Molalla","OR","Ace Hardware","107 Robbins St","97038",45.150786,-122.57546
"97038","Molalla","OR","Molalla Plumbing","not_available","97038",45.14800675841708,-122.56671098943481
"97038","Molalla","OR","True Value","114 Grange Avenue","97038",45.14738075,-122.57392361666666
"97045","Oregon City","OR","The Home Depot","2002 Washington Street","97045",45.3690547,-122.5868732
"97045","Oregon City","OR","Wilco Farm Stores - Oregon City","19224 Molalla Ave","97045",45.328312234944725,-122.58329789450431
"97045","Oregon City","OR","Harbor Freight Tools","15800 SE McLoughlin Blvd","97267",45.40869042874625,-122.62495929884658
"97045","Oregon City","OR","Coastal Farm & Ranch","1900 McLoughlin Blvd","97045",45.369277601404804,-122.5994119631809
"97045","Oregon City","OR","Clark's Lawn & Garden Equipment","14186 Fir St","97045",45.331356,-122.57729599999999
"97045","Oregon City","OR","Stark Street Lawn and Garden","not_available","97045",45.3641639584456,-122.59370392316129
"97045","Oregon City","OR","Rodda Paint","1900 McLoughlin Blvd #22B","97045",45.367607,-122.60034499999999
"97045","Oregon City","OR","Garage Door Repair Oregon City","402 Beavercreek Rd","97045",45.333283,-122.592678
"97045","Oregon City","OR","Sherwin-Williams Paint Store","1617 Beavercreek Rd","97045",45.334192,-122.586844
"97045","Oregon City","OR","Ace Hardware & Paint","2070 8th Ave","97068",45.3458619,-122.65239
"97045","Oregon City","OR","Clark's Lawn And Garden Equipment","1701 S Beavercreek Rd","97045",45.333503146425215,-122.57762502848684
"97045","Oregon City","OR","Miller Paint Co","19333 Molalla Ave","97045",45.32722657791589,-122.58351913827981
"97045","Oregon City","OR","Garage Door Repair West Linn","1800 Blankenship Rd","97068",45.35087203979492,-122.65507507324219
"97048","Rainier","OR","The Home Depot","580 Seventh Avenue","98632",46.1216396,-122.9302039
"97048","Rainier","OR","Lowe's","2850 Ocean Beach Highway","98632",46.1485534,-122.9586379
"97048","Rainier","OR","Wilco Farm Store - Kelso","200 Kelso Dr","98626",46.143750590783284,-122.89455949959321
"97048","Rainier","OR","Harbor Freight Tools","700 Ocean Beach Hwy Ste A","98632",46.147526,-122.923422
"97048","Rainier","OR","Sherwin-Williams Paint Store","1110 Ocean Beach Hwy","98632",46.14677056123921,-122.93048858642577
"97048","Rainier","OR","Longview Ace Hardware","600 Triangle Mall","98632",46.1377999,-122.94199
"97048","Rainier","OR","Fastenal","not_available","98632",46.115924640759175,-122.93952537658538
"97048","Rainier","OR","Tractor Supply Co.","2648 Coweeman Park Dr","98626",46.108796,-122.882867
"97048","Rainier","OR","Builders FirstSource","642 Commerce Ave","98632",46.12535095214844,-122.93866729736328
"97048","Rainier","OR","Woods Logging Supply","702 Industrial Way","98632",46.116391,-122.93340500000001
"97048","Rainier","OR","Eoff Electric Supply","620 California Way","98632",46.11888885498047,-122.93254089355469
"97048","Rainier","OR","Sears","1116 15th Avenue","98632",46.134597,-122.937748
"97048","Rainier","OR","C & H Industrial Tool & Supply, Inc","1160 3rd Ave","98632",46.132995,-122.923047
"97048","Rainier","OR","NW Natural Stone","660 California Way","98632",46.120127000000004,-122.933944
"97048","Rainier","OR","Hydraulic Service Inc.","1815 Baker Way","98626",46.1205179,-122.891777
"97048","Rainier","OR","Ferguson Plumbing Supply","20 International Way","98632",46.1125602722168,-122.93788146972656
"97048","Rainier","OR","minuteKEY","540 7th Ave","98632",46.1192965,-122.930105
"97048","Rainier","OR","Rainier True Value","102 A St W","97048",46.08951062,-122.9358579
"97048","Rainier","OR","Rodda Paint","541 California Way","98632",46.116676,-122.931848
"97048","Rainier","OR","Platt Electric Supply","524 3rd Ave","98632",46.11931610107422,-122.9261245727539
"97048","Rainier","OR","BOBS TRUE VALUE HDWE","1111 Hudson St","98632",46.13591003417969,-122.93241119384766
"97048","Rainier","OR","Manthe Equipment, Inc.","1039 California Way","98632",46.1221763,-122.9375087
"97049","Rhododendron","OR","Welches Mountain Building Supply Co.","67250 US-26","97067",45.350485035867536,-121.97307307850417
"97051","Saint Helens","OR","Sherwin-Williams Paint Store","58741 Columbia River Hwy","97051",45.84789,-122.83343
"97051","Saint Helens","OR","Ace Hardware","155 S Columbia River Hwy","97051",45.858632,-122.82303799999998
"97051","Saint Helens","OR","Dahlgren's Building Supply","58351 Columbia River Hwy","97051",45.84236823352813,-122.83636995273028
"97056","Scappoose","OR","ME Flooring & Home Improvement","114 E. Columbia","97056",45.757675766944885,-122.87626504898071
"97056","Scappoose","OR","Sears","51581 Columbia River Highway","97056",45.7439408,-122.8776339
"97056","Scappoose","OR","Ace Hardware","33454 SW Chinook Plz #A","97056",45.7542899,-122.8783
"97058","The Dalles","OR","The Home Depot","3600 W 6th Street","97058",45.6245086,-121.2161815
"97058","The Dalles","OR","Airgas","not_available","97058",45.61506983392282,-121.20644528028522
"97058","The Dalles","OR","Platt Electric Supply","1820 1/2 W 2nd St","97058",45.612457275390625,-121.2059097290039
"97058","The Dalles","OR","Sherwin-Williams Paint Store","521 Mount Hood St","97058",45.604946999999996,-121.19680600000001
"97058","The Dalles","OR","Summit Cedar","134 Tidyman Rd","98617",45.632076,-121.15668
"97058","The Dalles","OR","Bryant Pipe & Supply","3012 E 2nd St","97058",45.59966032561699,-121.1412164568901
"97058","The Dalles","OR","Sears","116 E 2nd Street","97058",45.601907963761114,-121.18374489628422
"97058","The Dalles","OR","Ferguson Plumbing Supply","3875 Crates Way","97058",45.628662,-121.19943400000001
"97058","The Dalles","OR","Sapa:","2929 W 2nd St","97058",45.620284000000005,-121.207927
"97058","The Dalles","OR","Sawyer's Ace Hardware and Rental","500 E 3rd St","97058",45.598771,-121.17986200000001
"97060","Troutdale","OR","Wolseley Industrial Group","740 S 28th St","98671",45.571129,-122.340551
"97060","Troutdale","OR","Garage Door Repair Troutdale","107 E Historic Columbia River Hwy","97060",45.540950775146484,-122.3881607055664
"97062","Tualatin","OR","Clark Lumber & True Value Hardware","11234 Sw Tonquin Rd","97140",45.3481460544243,-122.79146745995
"97062","Tualatin","OR","Miller Paint - Tualatin","19355 SW Mohave Ct","97062",45.379983,-122.766884
"97062","Tualatin","OR","Lane International Corp","10758 SW Manhasset Dr","97062",45.379356,-122.788397
"97062","Tualatin","OR","Sherwin-Williams Floorcovering Store","25599 SW 95th Ave","97070",45.3342244,-122.774097
"97062","Tualatin","OR","Clark Lumber & True Value Hardware","8460 SW Nyberg St","97062",45.38217,-122.763457
"97062","Tualatin","OR","Garage Door Repair Tualatin","8380 SW Nyberg St #2","97062",45.382266998291016,-122.7628173828125
"97062","Tualatin","OR","Sherwin-Williams Commercial Paint Store","19390 SW 90th Ct","97062",45.380016999999995,-122.76959
"97062","Tualatin","OR","Sears Window Replacement","19901 SW 95th Ave","97062",45.3661244,-122.7754645
"97062","Tualatin","OR","Northwest Door","10550 SW Manhasset Dr","97062",45.377567,-122.78589
"97062","Tualatin","OR","Platt Electric Supply","9375 SW Commerce Cir","97070",45.33877182006836,-122.77384948730469
"97062","Tualatin","OR","GTS Interior Supply","10955 SW Commerce Cir","97070",45.3345534,-122.7719081
"97062","Tualatin","OR","Platt Electric Supply","18098 Lower Boones Ferry Road","97062",45.389396999999995,-122.75343600000001
"97062","Tualatin","OR","Platt Electric Supply","18098 SW Lwr Boones Fry Rd","97224",45.33814558783291,-122.77329344881103
"97062","Tualatin","OR","Ferguson Plumbing Supply","19871 Sw 112th Ave","97062",45.375709533691406,-122.79447937011719
"97064","Vernonia","OR","Vernonia Hardware","1026 Bridge St","97064",45.858902,-123.19703500000001
"97064","Vernonia","OR","Vernonia True Value Hardware","834 Bridge St","97064",45.85885,-123.19446599999999
"97065","Wasco","OR","Mid Columbia Producers True Value Hardware","820 Hwy 206","97065",45.58633,-120.68742
"97065","Wasco","OR","MID COLUMBIA PRODUCERS TRUE VALUE HDWE.","820 HWY 206","97065",45.59196090698242,-120.69796752929688
"97070","Wilsonville","OR","Sherwin-Williams Paint Store","8249 SW Wilsonville Rd","97070",45.304297,-122.761976
"97070","Wilsonville","OR","Wilsonville Ace Hardware","29029 SW Town Center Loop E","97070",45.3091289,-122.7636
"97070","Wilsonville","OR","Garage Door Repair Wilsonville","29030 SW Town Center Loop E","97070",45.310062408447266,-122.76264190673828
"97086","Happy Valley","OR","The Home Depot","9300 SE 82nd Ave","97086",45.4558149,-122.5765888
"97086","Happy Valley","OR","Rodda Paint","not_available","97222",45.448592,-122.579579
"97086","Happy Valley","OR","Sears","10176 SE 82nd Avenue","97086",45.448920001979396,-122.57677498524572
"97086","Happy Valley","OR","Sherwin-Williams Paint Store","11475 SE 82nd Ave","97086",45.44000449207844,-122.57965564727783
"97086","Happy Valley","OR","Latitude","11282 Southeast Causey Circle","97086",45.441535,-122.575072
"97086","Happy Valley","OR","Garage Door Repair Happy Valley","8305 SE Monterey Ave","97086",45.43864059448242,-122.5776138305664
"97086","Happy Valley","OR","B&H Locksmith","10416 SE 82nd Ave","97086",45.4477424621582,-122.57889556884766
"97103","Astoria","OR","Ag Bag","not_available","97103",46.15179030060607,-123.85113530859066
"97103","Astoria","OR","Sears","1152 Marine Drive","97103",46.189908,-123.831019
"97103","Astoria","OR","Clatsop Power Equipment, Inc","34912 Hwy 101 Business","97103",46.152291,-123.838704
"97103","Astoria","OR","Astoria Builders Supply","19th","97103",46.188992999999996,-123.823383
"97106","Banks","OR","Banks Hardware","150 Main","not_available",45.620589,-123.11445226666666
"97110","Cannon Beach","OR","Cannon Beach Hardware","1201-1299 S Hemlock St","97110",45.88908718851096,-123.9618358450658
"97112","Cloverdale","OR","Pacific City True Value Hardware","34995 River Ave","97135",45.2020583489185,-123.963558773646
"97113","Cornelius","OR","Harbor Freight Tools","1400 SW Oak St Ste A","97123",45.518765390238116,-123.00538692210543
"97113","Cornelius","OR","Ace Hardware","3602 Pacific Ave","97116",45.520214,-123.08408
"97113","Cornelius","OR","Coastal Farm & Ranch","3865 Baseline St","97123",45.519394524427874,-123.02338230764369
"97113","Cornelius","OR","Brookline Plumbing","334 R Washington.","02446",45.5235479566996,-123.01970958709717
"97113","Cornelius","OR","Forest Grove Iron And Industrial Supply","not_available","97116",45.52414519527704,-123.0994814070816
"97113","Cornelius","OR","Garage Door Repair Cornelius","110 S 20th Ave","97113",45.51870693250267,-123.04610252380371
"97113","Cornelius","OR","Hutchins Appliance","not_available","97123",45.521215388275834,-122.98479267344861
"97113","Cornelius","OR","Miracle Sign","1934 Elm St","97116",45.519354,-123.10344199999999
"97113","Cornelius","OR","True Value Rental","2207 Baseline St","97113",45.52000045776367,-123.04627990722656
"97113","Cornelius","OR","Rodda Paint","701 SW Armco Ave","97123",45.516895,-123.001549
"97113","Cornelius","OR","Listing Directoree","3900 Pacific Ave","97116",45.51887,-123.079121
"97113","Cornelius","OR","A-Best Appliance","127 SE Baseline St","97123",45.520458000000005,-122.98921899999999
"97113","Cornelius","OR","Sherwin-Williams Paint Store","3650 Pacific Ave #101","97116",45.519901275634766,-123.08235931396484
"97113","Cornelius","OR","Builders FirstSource","920 Elm St","97116",45.508318,-123.103955
"97113","Cornelius","OR","HPS Pipe and Supply, Inc.","598 Baseline St","97113",45.520462,-123.064714
"97113","Cornelius","OR","Speedrack West","11100 NW Gordon Rd","97133",45.600205,-123.011853
"97113","Cornelius","OR","Miller Paint Co","646 SW Oak St","97123",45.51839828491211,-122.99705505371094
"97114","Dayton","OR","Oregon Vineyard Supply","2700 NE Saint Joseph Rd","97128",45.239092883333335,-123.144991
"97119","Gaston","OR","Williams Fuel & Landscape Supply","44975 SW Seghers Rd","97119",45.4644396,-123.139871
"97123","Hillsboro","OR","The Home Depot","1950 SE Minter Bridge Rd","97123",45.5049283,-122.9605291
"97123","Hillsboro","OR","Lowe's","1951 SE 24th Avenue","97123",45.5036733,-122.9579774
"97123","Hillsboro","OR","Sherwin-Williams Paint Store","348 SE 10th Ave","97123",45.519179,-122.973574
"97123","Hillsboro","OR","Garage Door Repair Hillsboro","2459 SE Tualatin Valley Hwy","97123",45.507530212402344,-122.95881652832031
"97124","Hillsboro","OR","Platt Electric Supply","1281 NE 25th Ave","97124",45.534151,-122.958032
"97124","Hillsboro","OR","Sherwin-Williams Paint Store","7020 NE Cornell Rd","97124",45.535082,-122.906375
"97124","Hillsboro","OR","Ace Hardware","881 NE 25th Ave","97124",45.529179,-122.957879
"97124","Hillsboro","OR","Parr Lumber","21700 NW Wagon Way","97124",45.55810546875,-122.90084838867188
"97124","Hillsboro","OR","Interstate Battery","1225 NE 48th Ave","97124",45.533715,-122.935332
"97124","Hillsboro","OR","Fastenal","23576 NW Clara Ln","97124",45.56275177001953,-122.92102813720703
"97124","Hillsboro","OR","Ewing Irrigation","5857 NW Cornelius Pass Rd","97124",45.561564000000004,-122.898279
"97124","Hillsboro","OR","GTS Interior Supply","4110 NE 30th Ave","97124",45.549834,-122.9478619
"97124","Hillsboro","OR","Ferguson Plumbing Supply","1536 Ne 25th Ave","97124",45.536465,-122.95639399999999
"97128","Mcminnville","OR","Lowe's","1250 SW Booth Bend Road","97128",45.1914915,-123.2125001
"97128","Mcminnville","OR","Wilco - McMinnville","2741 NE Highway 99W","97128",45.23032169411141,-123.1697920254069
"97128","Mcminnville","OR","Sears","526 N 99 W","not_available",45.209677,-123.204342
"97128","Mcminnville","OR","McMinnville Hearth & Barbeque","not_available","97128",45.229161,-123.187191
"97128","Mcminnville","OR","Sherwin-Williams Paint Store","570 NE Highway 99W","97128",45.22346115112305,-123.19331359863281
"97128","Mcminnville","OR","Northwest Logging Supply Inc","2330 SE Stratus Ave","97128",45.200534999999995,-123.17208500000001
"97128","Mcminnville","OR","Platt Electric Supply","2874 NE Lafayette Ave","97128",45.22861099243164,-123.1703872680664
"97128","Mcminnville","OR","Sears","1621 NE Baker Street","97128",45.2192899,-123.1982155
"97128","Mcminnville","OR","Garage Door Repair McMinnville","1271 Oregon 99W","97128",45.22588123120616,-123.18510532379149
"97128","Mcminnville","OR","Fastenal","1421 NE Lafayette Ave","97128",45.218092,-123.182404
"97128","Mcminnville","OR","Builders FirstSource","545 North 99 W","97128",45.22444500311576,-123.19398208580145
"97128","Mcminnville","OR","Harbor Freight Tools","1201 NE Highway 99W Ste C2","97128",45.226562,-123.186211
"97130","Manzanita","OR","Stocktons Nehalem Lumber","not_available","97131",45.717545,-123.89645
"97132","Newberg","OR","Newberg Lock & Safe","not_available","97132",45.30568084628098,-122.94561391133904
"97132","Newberg","OR","Garage Door Repair Newberg","901 Brutscher St","97132",45.3055309487577,-122.94203281402588
"97132","Newberg","OR","Newberg Hardware","2100 Portland Rd","97132",45.31,-122.97
"97132","Newberg","OR","Sherwin-Williams Paint Store","2508 Portland Rd","97132",45.3035592,-122.95504371
"97138","Seaside","OR","Coast Hardware","1217 S Roosevelt Dr","97138",45.9861453239376,-123.9224377479903
"97138","Seaside","OR","All Rents Tool  Equipment","2525 Highway 101 N","97138",46.01210021972656,-123.9104232788086
"97138","Seaside","OR","Gearhart Builders Supply","not_available","97138",46.036211,-123.91337
"97138","Seaside","OR","Sherwin-Williams Paint Store","3527 Highway 101 N","97138",46.025818467432984,-123.91145503788786
"97138","Seaside","OR","Seaside Ace Hardware","39 S Holladay Dr","97138",45.992872999999996,-123.922503
"97138","Seaside","OR","Black & Decker","1111 N Roosevelt Dr #336","97138",46.00007247924805,-123.91658020019531
"97138","Seaside","OR","Builders FirstSource","84808 Frontage Rd","97138",45.942176818847656,-123.92210388183594
"97140","Sherwood","OR","The Home Depot","20260 SW Pacific Hwy","97140",45.37405135331933,-122.83498647639229
"97140","Sherwood","OR","Harbor Freight Tools","14385 SW Pacific Hwy","97224",45.41661266242318,-122.79119089419798
"97140","Sherwood","OR","Garage Door Repair Sherwood","16004 SW Tualatin Sherwood Rd","97140",45.36869812011719,-122.84159088134766
"97140","Sherwood","OR","Sherwin-Williams Paint Store","13500 SW Pacific Hwy","97223",45.422742,-122.78237
"97140","Sherwood","OR","Sherwin-Williams Paint Store","20673 SW Roy Rogers Rd","97140",45.3701772,-122.8457348
"97140","Sherwood","OR","minuteKEY","21320 SW Langer Farms Pkwy","97140",45.3635665,-122.8363363
"97141","Tillamook","OR","Rosenberg Builders Supply","2 Main Ave","97141",45.4595947265625,-123.84542083740234
"97141","Tillamook","OR","Kimmel True Value Hardware  & Appliance","1816 1st St","97141",45.458023,-123.845235
"97141","Tillamook","OR","Hallowell Loggers Supply","5104 3rd St","97141",45.457675,-123.8023
"97146","Warrenton","OR","The Home Depot","1650 SE Ensign Ln","97146",46.1488517847167,-123.91772389411926
"97146","Warrenton","OR","George Morlan Plumbing Supply","1340 SE 2nd St","97146",46.162389260849274,-123.90414491311203
"97146","Warrenton","OR","Platt Electric Supply","2397 SE Dolphin Ave","97146",46.133,-123.92
"97201","Portland","OR","Crawl Space Restorations","818 SW 3rd Ave #422","97204",45.518860212882885,-122.6752280650362
"97201","Portland","OR","Stanley Garage Door","1001 SW 5th Ave Ste 1100","97204",45.516165979832714,-122.67913341522217
"97201","Portland","OR","Garage Door Repair Portland","25 NW 23rd Pl","97210",45.506772999999995,-122.679165
"97201","Portland","OR","Quick Plumbing","900 SW 5th Ave #2890","97204",45.516998291015625,-122.67797088623047
"97201","Portland","OR","Tranquility Ponds","6400 ne hwy 99","97005",45.50087357246392,-122.68772431810999
"97201","Portland","OR","503 Energy Score","818 SW 3rd Ave","97204",45.517285,-122.67568
"97201","Portland","OR","Brownie's Engraving","521 SW Alder St","97204",45.519621477004705,-122.67797173690602
"97202","Portland","OR","Miller Paint","not_available","97202",45.464539,-122.647691
"97202","Portland","OR","Hankins Hardware True Value","1720 Se Hawthorne Blvd","97214",45.51217654555783,-122.64811311673883
"97202","Portland","OR","Westmoreland Ace Hardware","6505 SE Milwaukie Ave","97202",45.475709,-122.649251
"97202","Portland","OR","Division Hardware & Paint","3734 SE Division St","97202",45.50476782728068,-122.62509899360046
"97202","Portland","OR","Directory 24x7","636 SE Andover Pl","97202",45.457617,-122.649205
"97202","Portland","OR","Sealant Specialists","539 SE Division Pl Ste 2","97202",45.505387,-122.660081
"97202","Portland","OR","Ferguson Plumbing Supply","2776 Se 8th St","97202",45.502935,-122.65728600000001
"97202","Portland","OR","NW Natural Appliance Center","2610 SE 8th Ave","97202",45.504034999999995,-122.65730500000001
"97202","Portland","OR","Gearhead Grip & Electric","3357 SE 22nd Ave","97202",45.498317,-122.64365448333334
"97202","Portland","OR","Clancy Supply Inc.","2135 SE Ochoco St","97222",45.458968,-122.642451
"97202","Portland","OR","Brown Lumber","4000 SE Powell Blvd","97202",45.49733933271061,-122.62239976139355
"97202","Portland","OR","Rug Bug","not_available","97214",45.51221474579284,-122.64583775217818
"97202","Portland","OR","Elite Garage Door","205 SE Spokane St #300","97202",45.46535873413086,-122.66320037841797
"97202","Portland","OR","Eoff Electric Supply","1624 SE Grand Ave","97214",45.511047,-122.660475
"97202","Portland","OR","oregon roofing supply","1810 SE 10th Ave","97214",45.509757,-122.655351
"97202","Portland","OR","Bulbster","not_available","97206",45.492814,-122.618654
"97202","Portland","OR","Hankins Hardware","1720 SE Hawthorne Bkd","97214",45.51209749,-122.64821326
"97202","Portland","OR","Hall Tool","1724 SE Grand Ave","97214",45.510486,-122.660325
"97202","Portland","OR","Conrey Electric Inc.","1903 SE 7th Ave","97214",45.509254,-122.65909199999999
"97203","Portland","OR","St Johns Ace Hardware","7825 N Lombard St","97203",45.5894869,-122.74686
"97203","Portland","OR","Grainger","6335 N Basin Ave","97217",45.568762,-122.713866
"97203","Portland","OR","Light Harvest Solar","not_available","97203",45.589115,-122.762794
"97203","Portland","OR","Linnton Feed And Seed","10920 NW Saint Helens Rd","97231",45.600362,-122.78654099999999
"97203","Portland","OR","APW Pressure Washer Eppt Sales","3730 N Suttle Rd","97217",45.611799,-122.706399
"97203","Portland","OR","Fastenal","6650 N Basin Ave","97217",45.571513,-122.71668000000001
"97203","Portland","OR","George Bethell Distributing","14621 N Bybee Lake Ct","97203",45.62847900390625,-122.7583236694336
"97203","Portland","OR","Garage Door Repair University Park","7700 W Northwest Hwy","75025",45.586158047608365,-122.7095603942871
"97203","Portland","OR","ace typewriter","7433 N Lombard St","97203",45.588291,-122.74338799999998
"97205","Portland","OR","minuteKEY","100 NW 20th Place","97209",45.524024963378906,-122.69290161132812
"97206","Portland","OR","Harbor Freight Tools","5035 SE 82nd Ave","97266",45.48561586963409,-122.57974445764798
"97206","Portland","OR","Woodstock Hardware","4430 SE Woodstock Blvd","97206",45.478841,-122.6159
"97206","Portland","OR","Powell Paint Center","5205 SE Powell Blvd","97206",45.4976435,-122.6085966
"97206","Portland","OR","Wichita Feed & Hardware","6089 SE Johnson Creek Blvd","97206",45.456989,-122.600991
"97206","Portland","OR","52nd Ave Hardware","7100 SE 52nd Ave","97206",45.471624,-122.609669
"97206","Portland","OR","Floor Store","5628 SE Woodstock Blvd","97206",45.47893,-122.605305
"97206","Portland","OR","Sherwin-Williams","5128 SE Woodstock Blvd","97206",45.478907,-122.60904199999999
"97206","Portland","OR","Woodstock Hardware And Garden","4430 Se Woodstock Blvd","97206",45.47893142700195,-122.61676788330078
"97206","Portland","OR","Johnson Creek Rentals","8430 SE 45th Pl","97222",45.462238,-122.61600700000001
"97206","Portland","OR","minuteKEY","5253 SE 82nd Ave","97266",45.484352111816406,-122.57991790771484
"97206","Portland","OR","Henderson Equipment - Portland","5120 SE Johnson Creek Blvd","97222",45.459023,-122.610158
"97206","Portland","OR","Johnson Creek Rentals","8430 SE 45th Pl","97045",45.46220300134904,-122.61605665162733
"97206","Portland","OR","Zoom Garage Doors","4637 SE Meadowcrest ct","97222",45.458108,-122.615395
"97206","Portland","OR","Locksmith","9301 SE Wichita Ave","97222",45.456288,-122.601037
"97206","Portland","OR","A-boy Plumbing","7344 SE Foster Rd","97206",45.48553362918942,-122.5869800503135
"97206","Portland","OR","George Morlan Plumbing Supply","5529 SE Foster Rd","97206",45.494588,-122.60574
"97209","Portland","OR","Pearl Hardware","1621 NW Glisan St","97209",45.526676,-122.68752
"97209","Portland","OR","Emerson Hardwood","2279 NW Front Ave","97209",45.539179,-122.691511
"97209","Portland","OR","Miller Paint","839 NW 17th Ave","97209",45.528921999999994,-122.68910600000001
"97209","Portland","OR","Bearing Service","NW 11th AV","97209",45.524903,-122.68188
"97209","Portland","OR","Parr Lumber","1320 NW 19th Ave","97209",45.53243,-122.69021799999999
"97209","Portland","OR","Sherwin-Williams Paint Store","1332 NW Flanders St","97209",45.525551,-122.684762
"97209","Portland","OR","Streimer Sheet Metal Works","740 N Knott St, Portland, OR 97227","97227",45.541657,-122.67395
"97209","Portland","OR","Portland Closet Company","1120 NW 14th Ave","97209",45.53124716,-122.68533758
"97209","Portland","OR","Sam. A. Mesher Tool Company","1704 NW Johnson St","97209",45.528287096269985,-122.68872499465942
"97210","Portland","OR","Lumber Liquidators, Inc.","2245 NW Nicolai St","97210",45.54125388130551,-122.69826343874456
"97210","Portland","OR","General Tool","not_available","97210",45.540071999999995,-122.707349
"97210","Portland","OR","GTS Interior Supply","4033 Northwest Yeon Avenue","97210",45.550407,-122.724143
"97210","Portland","OR","Platt Electric Supply","3053 NW 29th Ave","97210",45.54391,-122.711398
"97210","Portland","OR","Forrest Paint","2526 NE Yeon Ave","97210",45.541456,-122.698432
"97210","Portland","OR","MetroPaint","4825 N Basin Ave","97217",45.557771,-122.70053200000001
"97210","Portland","OR","George Morlan Plumbing Supply","2222 NW Raleigh St","97210",45.533825,-122.697376
"97210","Portland","OR","Port Decor Tile","4810 N Lagoon Ave","97217",45.560167,-122.703699
"97210","Portland","OR","Everett Custom Homes","3330 NW Yeon Ave","97210",45.5456196,-122.7077058
"97210","Portland","OR","Sherwin-Williams Commercial Paint Store","2246 NW Roosevelt St","97210",45.538157,-122.69768700000002
"97210","Portland","OR","A Boy Electric & Plumbing Supply","2671 NW Vaughn St","97210",45.53709030151367,-122.70626831054688
"97210","Portland","OR","Lacey Harmer","4270 NW Yeon Ave","97210",45.553705,-122.72808
"97210","Portland","OR","Overhead Door Company of Portland","4015 NW Saint Helens Rd","97210",45.551265,-122.73006699999999
"97210","Portland","OR","Quimby Corp.","3030 NW 29th Ave","97210",45.544825,-122.71032
"97210","Portland","OR","Sherwin-Williams Floorcovering Store","3221 NW Guam St","97210",45.544771000000004,-122.71341000000001
"97211","Portland","OR","Lowe's","1160 N Hayden Meadows Drive","97217",45.5932851,-122.6771314
"97211","Portland","OR","The Home Depot","11633 NE Glenn Widing Dr","97220",45.5714748,-122.5451847
"97211","Portland","OR","Parkrose Hardware","10625 NE Sandy Blvd","97220",45.55929655510713,-122.55343309196081
"97211","Portland","OR","On Time Painting Inc.","8101 NE 11th Ave","97211",45.581990000000005,-122.65319099999999
"97211","Portland","OR","Parr Lumber","6250 NE M L King Blvd","97211",45.567956,-122.66084199999999
"97211","Portland","OR","Portland OR Locksmith","4334 NE 85th Ave","97220",45.554168701171875,-122.57540130615234
"97211","Portland","OR","Jay's Mower & Chainsaw","7205 NE M L King Blvd","97211",45.575356,-122.661828
"97211","Portland","OR","CWallA","6899 NE Columbia Blvd Ste B","97218",45.568044805275676,-122.59106040000916
"97211","Portland","OR","Insatall Norton Antivirus","1722 NE Alberta St, Portland, OR 97211, USA","97202",45.558860778808594,-122.64717864990234
"97211","Portland","OR","Builder's City","not_available","97217",45.588104,-122.667971
"97211","Portland","OR","Atlas Copco Rental","7821 NE 33rd Dr","97211",45.57959717795826,-122.63383626937866
"97211","Portland","OR","General Equipment Co","6767 NE Columbia Blvd","97218",45.56786,-122.592952
"97211","Portland","OR","Appliance & Refrigeration Hospital","5020 NE 30th Ave","97211",45.55920993012615,-122.63501893381385
"97211","Portland","OR","Sunstate Equipment","5413 NE Columbia Blvd","97218",45.570465999999996,-122.607583
"97211","Portland","OR","Basalite","1750 NE Lombard Pl","97211",45.5766,-122.64783999999999
"97211","Portland","OR","Keller Supply","2881 NE Argyle St","97211",45.576510999999996,-122.63622099999999
"97211","Portland","OR","United Fire Health & Safety","4611 NE M L King Blvd","97211",45.556763000000004,-122.661955
"97211","Portland","OR","ABC Supply","1835 NE Columbia Blvd","97211",45.577560999999996,-122.646018
"97211","Portland","OR","Sexton's Chandlery","303 NE Tomahawk Island Dr","97217",45.604597,-122.660629
"97211","Portland","OR","Airgas","3632 NE Columbia Blvd","97211",45.572243,-122.625694
"97211","Portland","OR","Tacoma Screw","not_available","97211",45.575363,-122.637194
"97211","Portland","OR","Drillers Depot LLC","5701 NE 105th Ave Ste E","97220",45.5640234,-122.5559209
"97211","Portland","OR","Sherwin-Williams Product Finishes","5640 NE Skyport Way","97218",45.574329,-122.604344
"97212","Portland","OR","Broadway Hardware","228 NE Broadway St","97232",45.534886,-122.66314
"97212","Portland","OR","Sherwin-Williams Paint Store","30 NE Broadway St","97232",45.534784,-122.66600700000001
"97212","Portland","OR","A-Boy plumbing","4010 NE Broadway St","97232",45.5348244,-122.6218948
"97212","Portland","OR","Hankins Hardware True Value","3942 Ne Martin Luther King Blv","97212",45.55151809668401,-122.66125225452197
"97212","Portland","OR","Ace Hardware","not_available","97232",45.534871,-122.66318600000001
"97212","Portland","OR","United Welding Supply","2313 NE M L King Blvd","97212",45.53964662739354,-122.66192436218262
"97212","Portland","OR","Home Depot","SE 50th","not_available",45.547365408820816,-122.63149014988142
"97213","Portland","OR","Beaumont Hardware","4303 NE Fremont St","97213",45.54836948234655,-122.61919913212573
"97213","Portland","OR","HD Supply White Cap Portland - 32","920 NE 58th Ave","97213",45.529404,-122.60398400000001
"97213","Portland","OR","O'Neills Tools Inc","7133 NE Glisan St","97213",45.526692,-122.58903500000001
"97213","Portland","OR","A Quick Key","7540 NE Sandy Blvd","97213",45.54973,-122.58498
"97213","Portland","OR","A-Good Locksmith","5711 E Burnside St","97215",45.523024,-122.605129
"97213","Portland","OR","White Cap Construction Supply","920 NE 58th Ave Ste 900","97213",45.52901840209961,-122.6051025390625
"97213","Portland","OR","HD Supply White Cap","920 Northeast 57th Avenue","97213",45.5295243,-122.60400338
"97213","Portland","OR","Miller Paint","not_available","97213",45.537490000000005,-122.61753999999999
"97214","Portland","OR","Atlasta Lock & Safe","702 SE Grand Ave","97214",45.5178133,-122.6604514
"97214","Portland","OR","W.C. Winks Hardware","200 SE Stark St","97214",45.519020506641525,-122.66352972206091
"97214","Portland","OR","Chas. Day co.","602 SE 11th Ave","97214",45.518356,-122.654288
"97214","Portland","OR","Ankeny Hardware","1134 SE Stark St","97214",45.51902502537713,-122.65495657977986
"97214","Portland","OR","Timber Pro","2232 E Burnside St","97214",45.522602,-122.642981
"97214","Portland","OR","Hippo Hardware & Trading Co","1040 E Burnside St","97214",45.52283135852631,-122.65495126643641
"97214","Portland","OR","Paramount Supply Co","816 SE Ash St","97214",45.521081,-122.657352
"97214","Portland","OR","Fastenal","303 SE Taylor","not_available",45.514655,-122.66233700000001
"97214","Portland","OR","W L May Company","835 E Burnside St","97214",45.523165999999996,-122.656977
"97214","Portland","OR","Platt Electric Supply","322 SE Taylor St","97214",45.514694,-122.663251
"97215","Portland","OR","Sherwin-Williams Paint Store","5534 E Burnside St","97215",45.522172,-122.607013
"97215","Portland","OR","milwaukie lumber","not_available","97216",45.518924,-122.580601
"97215","Portland","OR","Vinje & Son","not_available","97215",45.518614,-122.582981
"97216","Portland","OR","The Home Depot","10120 SE Washington St","97216",45.516642461318774,-122.5598919822933
"97216","Portland","OR","Air Conditioning Repair Portland","2428 SE 105th Ave","97216",45.50481033325195,-122.5542221069336
"97216","Portland","OR","Stark Street Lawn & Garden","11827 SE Stark St","97216",45.519341,-122.540931
"97216","Portland","OR","Habitat For Humanity ReStore","10445 SE Cherry Blossom Dr","97216",45.516155638384426,-122.55548943525706
"97216","Portland","OR","Sherwin-Williams Paint Store","9745 SE Division St","97266",45.5047565904802,-122.56280601024628
"97216","Portland","OR","1st Choice Garage Door","9415 SE Stark St Ste 200","97216",45.51930236816406,-122.56656646728516
"97217","Portland","OR","The Home Depot","1728 N Tomahawk Island Dr","97217",45.6120581,-122.6866993
"97217","Portland","OR","Harbor Freight Tools","1335 N Mason St","97217",45.553706197665356,-122.68063368688698
"97217","Portland","OR","Sunlan Lighting Inc","3901 N Mississippi Ave","97227",45.550999,-122.675765
"97217","Portland","OR","Miller Paint","1510 N Alberta St","97217",45.558809000000004,-122.68261799999999
"97217","Portland","OR","Ferguson Plumbing Supply","2121 N Columbia Blvd","97217",45.587738,-122.68824599999999
"97217","Portland","OR","Ferguson Plant Division","1610 C St Ste 202","98663",45.633739,-122.669701
"97217","Portland","OR","Sherwin-Williams Paint Store","1440 N Lombard St","97217",45.576935,-122.681476
"97217","Portland","OR","Steve's Lock & Key","1708 N Lombard St","97217",45.57688903808594,-122.68444061279297
"97217","Portland","OR","AAA Onsite Tech","not_available","98684",45.63851238347564,-122.66216039657593
"97217","Portland","OR","Main Street Ace Hardware","2515 Main St","98660",45.639916,-122.67106799999999
"97219","Portland","OR","A-Boy Plumbing","7365 SW Barbur Blvd","97219",45.4718328,-122.6841446
"97219","Portland","OR","A-Boy Electric & Plumbing Supply","7635 SW Barbur Blvd","97219",45.469539000000005,-122.691607
"97219","Portland","OR","Bridge City Tool Works","2545 SW Spring Garden St #120","97219",45.463057,-122.7035
"97220","Portland","OR","minuteKEY","1111 NE 102nd Ave","97220",45.530792236328125,-122.55957794189453
"97220","Portland","OR","Sears","4500 N E 122nd Avenue","97230",45.55475599536516,-122.53518127281495
"97220","Portland","OR","Gateway Hardware","10414 Ne Halsey St","97220",45.533146,-122.555198
"97220","Portland","OR","Columbia Compressor Service","3623 NE 113th Ave","97220",45.549397,-122.546671
"97220","Portland","OR","Makita Factory Service Center","4908 NE 122nd Ave","97230",45.558803999999995,-122.537228
"97220","Portland","OR","Stone+Wood Outlet - North Portland","5600 NE 122nd Ave","97230",45.564181,-122.534174
"97220","Portland","OR","Side Saddle Tack and Hardware","10414 NE Halsey St","97220",45.53312683105469,-122.55516052246094
"97222","Portland","OR","Lowe's","13631 SE Johnson Road","97222",45.424497,-122.5838032
"97222","Portland","OR","The Charles H. Day Co. Inc Air & Electric Tools","11405 SE 37th Ave","97222",45.44066249999999,-122.624849
"97222","Portland","OR","Horizon Supply","8155 SE Deer Creek Ln","97222",45.42474925518036,-122.57938206195831
"97223","Portland","OR","Lowe's","12615 S W 72nd Avenue","97223",45.428557,-122.7522939
"97223","Portland","OR","George Morlans Plumbing","12585 SW Pacific Hwy","97223",45.429838000000004,-122.77518799999999
"97223","Portland","OR","A-Boy Plumbing","not_available","97223",45.428909,-122.773661
"97223","Portland","OR","Allied Building Materials","11440 SW Tiedeman Ave","97223",45.436414,-122.781144
"97223","Portland","OR","minuteKEY","SW Dartmouth St.","97281",45.4333268,-122.75294
"97223","Portland","OR","Bruner Plumbing","9394 SW Tigard St","97223",45.43071203830922,-122.77182534737877
"97224","Portland","OR","Chimcare Chimney Caps","15615 SW 74th Ave","97224",45.40706649,-122.75259676
"97224","Portland","OR","Anderson Door & Window Mechanics, Inc.","16285 SW 85th Ave","97224",45.40255355834961,-122.76592254638672
"97225","Portland","OR","Miller Paint Company","8703 SW Beaverton Hillsdale Hwy","97225",45.486768,-122.766434
"97225","Portland","OR","Parr Lumber","4605 SW Scholls Ferry Rd","97225",45.486939,-122.748296
"97225","Portland","OR","Oregon Green Solutions","1670 SW 87th Ave","97225",45.507721000000004,-122.765895
"97225","Portland","OR","Sherwin-Williams Paint Store","4625 SW Poplar Ln","97225",45.486633334739594,-122.76427089176934
"97225","Portland","OR","Dick's Color Center","7800 SW Beaverton Hwy","97225",45.485934,-122.757826
"97229","Portland","OR","Sherwin-Williams Paint Store","13555 NW Cornell Rd","97229",45.528187,-122.815077
"97229","Portland","OR","Miller Paint","1040 NW Murray Rd","97229",45.527091999999996,-122.8132
"97229","Portland","OR","Ace Hardware","12505 NW Cornell Rd","97229",45.526326,-122.805613
"97230","Portland","OR","B & H Locksmith","1427 NE 181st Ave","97230",45.53374,-122.479556
"97230","Portland","OR","Platt Electric Supply","12830 NE Airport Way","97230",45.562320709228516,-122.52937316894531
"97230","Portland","OR","Rain Or Shine","12500-12798 NE Airport Way","97230",45.562011,-122.526248
"97230","Portland","OR","Stellar","12831 NE Whitaker Way","97230",45.560493,-122.53061
"97230","Portland","OR","Alside Supply Center","5205 NE 158th Ave","97230",45.560313,-122.50238799999998
"97230","Portland","OR","Grabber Construction Products","not_available","97230",45.55968319877112,-122.50783890964048
"97230","Portland","OR","Glacier Tanks","12518 NE Airport Way","97230",45.562027,-122.526979
"97230","Portland","OR","Miller Paint Co.","12812 NE Whitaker Way","97230",45.560054,-122.530615
"97232","Portland","OR","Woodcrafters","212 NE 6th Ave","97232",45.52456530932233,-122.65921898685708
"97232","Portland","OR","Sharpening4u","3429 NE Sandy Blvd","97232",45.53272,-122.62855
"97232","Portland","OR","Reclaim NW","2510 NE Sandy Blvd","97232",45.52792,-122.639836
"97232","Portland","OR","minuteKEY","3030 NE Weidler St","97232",45.5333251953125,-122.63546752929688
"97233","Portland","OR","Division Ace Hardware","16345 SE Division St","97236",45.506146,-122.49571499999999
"97236","Portland","OR","Powell Villa Ace Hardware","3660 SE 122nd Ave","97236",45.4971419,-122.5374
"97236","Portland","OR","Garage Door Repair Portland","15548 SE Henderson Way","97236",45.469462,-122.502423
"97236","Portland","OR","Curtis Custom Welding","3215 Se 131St Ave","97236",45.499002000000004,-122.528772
"97236","Portland","OR","Sears Service Center","2626 SE 122ND AVE","not_available",45.50312,-122.53672900000001
"97239","Portland","OR","Giant Garage Door","5320 SW Macadam Ave Ste 100","97239",45.484718322753906,-122.67449188232422
"97239","Portland","OR","Kobalt Garage Door","5320 SW Macadam Ave #100","97239",45.484718322753906,-122.67449188232422
"97266","Portland","OR","Ted's Tool Shed","8819 SE Powell Blvd","97266",45.497647,-122.57211399999998
"97266","Portland","OR","Ewing Irrigation","9335 SE Knapp St","97266",45.470448,-122.566602
"97266","Portland","OR","Gary's Vacuflo","9015 SE Flavel St","97266",45.468790999999996,-122.57044099999999
"97266","Portland","OR","Miller Paint","10114 SE Division St","97266",45.503907,-122.55926200000002
"97266","Portland","OR","Green Lents Community Tool Library","9211 SE Ramona St","97266",45.480892988389186,-122.56796348090076
"97266","Portland","OR","Tosche Station","not_available","97266",45.476790856450386,-122.57573328324985
"97266","Portland","OR","National Fire Fighter Corp.","6330 SE 101st Ave, Portland, OR 97266","97266",45.47662353515625,-122.55924987792969
"97267","Portland","OR","Ace Hardware","15530 SE McLoughlin Blvd","97267",45.4114999,-122.6285
"97267","Portland","OR","Dick's Color Center","15340 SE McLoughlin Blvd","97267",45.41204,-122.62825
"97301","Salem","OR","Lowe's","1930 Turner Road Southeast","97302",44.9162655,-122.996234
"97301","Salem","OR","The Home Depot","3795 Hagers Grove Rd SE","97317",44.91310969069837,-122.98407912254333
"97301","Salem","OR","The Home Depot","3021 Cherry Ave NE","97301",44.970151298397056,-123.02124381065369
"97301","Salem","OR","Harbor Freight Tools","4675 Portland Rd NE #170","97305",44.98914810024877,-122.99038734655244
"97301","Salem","OR","Allied Building Products","not_available","97303",44.969125,-123.01336
"97301","Salem","OR","Miller Paint Co","390 Lancaster Dr NE","97301",44.933141,-122.98278400000001
"97301","Salem","OR","McGuire Bearing Company","2125 Commercial Street NE","not_available",44.959946,-123.033123
"97301","Salem","OR","Sears","1375 Woodrow St NE","97303",44.958055,-123.015778
"97301","Salem","OR","Industrial Supply Co.","1270 Commercial St NE","97301",44.952391,-123.034462
"97301","Salem","OR","salem wood products","not_available","97302",44.91662118889342,-123.0112130759372
"97301","Salem","OR","Platt Electric Supply","1275 14th St SE","97302",44.925059000000005,-123.027289
"97301","Salem","OR","Sherwin-Williams Paint Store","1805 Lancaster Dr NE","97305",44.951646000000004,-122.98481899999999
"97301","Salem","OR","4 C's Company Inc","3010 Brown Rd NE","97305",44.96470642089844,-122.97030639648438
"97301","Salem","OR","Ace Hardware","5014 River Rd N","97303",44.997984,-123.02581
"97301","Salem","OR","Ewing Irrigation","3475 Pipebend Pl NE","97301",44.92824657025772,-122.99104750156403
"97301","Salem","OR","Sherwin-Williams Paint Store","4669 River Rd N","97303",44.991776,-123.02708799999999
"97301","Salem","OR","Tommy's Paint Pot","980 Lancaster Dr NE","97301",44.943475,-122.98236100000001
"97301","Salem","OR","CWallA","2025 Vista Ave SE Ste D","97302",44.9112937569793,-123.019682765007
"97301","Salem","OR","Salem Paint","not_available","97301",44.946234000000004,-123.03343899999999
"97302","Salem","OR","Wilco Farm Store - Salem","3285 Commercial St SE","97302",44.909212743315784,-123.04493349977649
"97302","Salem","OR","Kilgore Blackman Building Materials","5444 Commercial St Se","97306",44.87668420487399,-123.02643757635046
"97302","Salem","OR","South Salem Ace Hardware","706 Madrona Ave SE","97302",44.9048629,-123.03922
"97302","Salem","OR","Garage Door Repair Salem","4676 Commercial St SE","97302",44.88679504394531,-123.03218841552734
"97302","Salem","OR","Sherwin-Williams Paint Store","4596 Commercial St SE","97302",44.88790943547662,-123.03288459777832
"97302","Salem","OR","Ferguson Waterworks","3650 Kashmir Way Se","97317",44.878713,-122.98638000000001
"97302","Salem","OR","minuteKEY","4575 Commercial St SE","97302",44.888187408447266,-123.0348129272461
"97302","Salem","OR","GTS Interior Supply","1518 McGilchrist Street Southeast","97302",44.916074,-123.025875
"97302","Salem","OR","Electric Motor & Machine Co.","1005 12th St SE","97302",44.927521,-123.031006
"97302","Salem","OR","Wolseley Industrial Group","2425 McGilchrist St Se","97302",44.9166187600693,-123.011951698787
"97302","Salem","OR","Saffron Supply Co.","325 Commercial St NE","97301",44.943227,-123.039553
"97303","Salem","OR","Lowe's","6225 Ulali Drive NE","97303",45.0105504,-122.9994356
"97303","Salem","OR","John L. Fowler Trucking","3030 River Bend Rd NW","97304",44.977144,-123.048744
"97303","Salem","OR","Fastenal","1340 Tandem Ave NE","97301",44.972545000000004,-123.015518
"97303","Salem","OR","Used computer screens","6778 Westridge Ct N","97303",45.01701736450195,-123.02891540527344
"97303","Salem","OR","Highway Fuel Co","6242 Portland Rd NE","97305",45.010884999999995,-122.97465600000001
"97303","Salem","OR","Bark Boys Inc","2840 Cherry Ave NE","97301",44.96717,-123.01891
"97303","Salem","OR","Garage Door Repair Keizer","5434 River Rd N","97303",45.002769470214844,-123.02601623535156
"97303","Salem","OR","Fitzmaurice Fertilizer, Inc.","4195 Salem Industrial Dr NE","97301",44.985448,-123.00466599999999
"97304","Salem","OR","West Salem Ace Hardware","820 Wallace Rd NW","97304",44.949359,-123.050533
"97304","Salem","OR","Sherwin-Williams Paint Store","560 Wallace Rd NW","97304",44.9473876953125,-123.04903411865234
"97305","Salem","OR","Brooks True Value Hardware","5050 Brooklake Rd Ne","97305",45.04693539,-122.9563665
"97317","Salem","OR","George Morlan Plumbing","399 Lancaster Dr NE","97301",44.9331944,-122.98386922
"97317","Salem","OR","Coastal Farm","1230 Lancaster Dr SE","97317",44.90901565551758,-122.95388793945312
"97321","Albany","OR","Lowe's","1300 9th Ave SE","97322",44.6318482,-123.0867963
"97321","Albany","OR","Mikes Bargain Center","not_available","97321",44.56731697179936,-123.168621413534
"97321","Albany","OR","Platt Electric Supply","191 34th Ave SW","97322",44.610559,-123.100389
"97321","Albany","OR","The Home Depot","3500 Spicer Dr SE","97322",44.626839682525066,-123.05910587310791
"97321","Albany","OR","Rodda Paint","950 Geary St SE","97322",44.632654,-123.083971
"97321","Albany","OR","Eoff Electric Supply","2466 Ferry St SW","97322",44.61825180053711,-123.10552215576172
"97321","Albany","OR","John Deere","not_available","97389",44.558451862446375,-123.11104459210875
"97321","Albany","OR","Fisher RPM","not_available","97322",44.628284,-123.054222
"97321","Albany","OR","Builders FirstSource","33535 Hwy 99 E","97389",44.557315826416016,-123.1094741821289
"97321","Albany","OR","Sherwin-Williams Paint Store","2945 Santiam Hwy SE","97322",44.631381,-123.068409
"97321","Albany","OR","Sears","2059 14th Ave, Suite A103","97322",44.6287909,-123.0801792
"97321","Albany","OR","Mid Pacific Enterprises Inc","33965 Highway 99E","97389",44.567909240722656,-123.10932159423828
"97321","Albany","OR","The Bark Place","6485 Pacific Blvd SW","97321",44.588472,-123.109123
"97321","Albany","OR","Hoefer's Farm & Garden Supply","32104 Dever Conner Rd NE","97321",44.716769,-123.112104
"97321","Albany","OR","Adult Store","I5","97322",44.60901055872781,-123.06190762861779
"97321","Albany","OR","North Albany Supermarket","621 Hickory St NW","97321",44.645977,-123.11387
"97322","Albany","OR","Bi-Rite","not_available","97355",44.53997802734375,-122.90824890136719
"97322","Albany","OR","Economy Supply of Lebanon","1055 Tangent St","97355",44.54540252685547,-122.92312622070312
"97322","Albany","OR","Northwest Timber","3229 Jefferson Scio Dr SE","97352",44.70846873,-122.99603285
"97324","Alsea","OR","John Boy's Mercantile","186 E Main","97324",44.38187695641365,-123.59718642520556
"97325","Aumsville","OR","Stayton Ace Hardware","1630 N 1st Avenue","97383",44.8068,-122.7941
"97325","Aumsville","OR","Wilco - Stayton","1385 N 1st Ave","97383",44.80510664564711,-122.7953798724251
"97325","Aumsville","OR","stayton builder mart","not_available","97383",44.80149644689982,-122.81466568123946
"97330","Corvallis","OR","The Home Depot","1780 NW Four Acre Place","97330",44.58483588656599,-123.25242877006531
"97330","Corvallis","OR","Spaeth Lumber","1585 NW 9th St","97330",44.58252,-123.25744399999999
"97330","Corvallis","OR","Robnett's Hardware","400 Sw 2nd St","97333",44.561007000000004,-123.261798
"97330","Corvallis","OR","Wilco Farm Store- Corvallis","1905 NE Four Acre St","97330",44.586627,-123.24986499999999
"97330","Corvallis","OR","Tommys Paint Pot","1810 NW 9th St","97330",44.585601000000004,-123.25733100000001
"97330","Corvallis","OR","Miller Paint Co","1405 NW 9th St","97330",44.57994531015312,-123.25855493545532
"97330","Corvallis","OR","Gaia Landscapes, Inc.","33735 SE Peoria Rd","97333",44.559078216552734,-123.23177337646484
"97330","Corvallis","OR","Industrial Welding Supply, Inc.","880 NE Circle Blvd","97330",44.588661,-123.247527
"97330","Corvallis","OR","Sherwin-Williams Paint Store","2495 NW 9th St","97330",44.592528,-123.25218600000001
"97330","Corvallis","OR","Middleton","not_available","97333",44.558292388916016,-123.2704086303711
"97330","Corvallis","OR","ATS Systems Oregon","2121 NE Jack London St","97330",44.591794,-123.245186
"97330","Corvallis","OR","Corvallis Power Equipment","713 NE Circle Blvd","97330",44.589221,-123.250227
"97330","Corvallis","OR","Searing Plumbing & Electrical Supply","1921 NW 9th St","97330",44.587163000000004,-123.254966
"97330","Corvallis","OR","Densons Feed and Seed","530 SW 7th St","97333",44.561151,-123.26793400000001
"97333","Corvallis","OR","Williamette Outdoor Power Equipment","25492 SW Airport Ave","97333",44.49525,-123.357507
"97333","Corvallis","OR","Stihl","5200 SW Philomath Blvd","97333",44.551479,-123.308773
"97333","Corvallis","OR","Mid-Valley Gravel Company","705 Clemens Mill Rd","97370",44.550679,-123.339184
"97333","Corvallis","OR","Marys Peak True Value","1740 Main St","97370",44.539936,-123.36139
"97333","Corvallis","OR","Fastenal","1490 Aw 3rd st.","97333",44.550973,-123.266167
"97333","Corvallis","OR","Platt Electric Supply","133 SW Hopkins Ave","97333",44.550973,-123.266167
"97333","Corvallis","OR","The Bark Place Inc","6725 SW Philomath Blvd","97333",44.54685,-123.326626
"97338","Dallas","OR","Monmouth Hardware","Monmouth, Oregon","97361",44.84845818216481,-123.22966741081262
"97338","Dallas","OR","High Speed  Engineering","508 SE Mill St","97338",44.92137899999999,-123.31075800000002
"97338","Dallas","OR","general rental center","not_available","97338",44.918107400905875,-123.31824513593652
"97338","Dallas","OR","SS Machine Works Inc","1530 N Kings Valley Hwy","97338",44.929622,-123.311883
"97338","Dallas","OR","Home Comfort","1827 S Main St","97338",44.91132972,-123.31727315
"97347","Grand Ronde","OR","New Springfield Rocks","not_available","97347",45.05219590607215,-123.61990814388307
"97348","Halsey","OR","Willamette Hose & Fittings, Inc.","not_available","97348",44.381103515625,-123.06922149658203
"97351","Independence","OR","Town & Country Hardware","1555 Monmouth St","97351",44.850797,-123.211262
"97351","Independence","OR","Independence Ace Hdwe","1357 Monmouth St","97351",44.850082,-123.205913
"97355","Lebanon","OR","Wilco Farm Stores - Lebanon 2","2950 S Santiam Hwy","97355",44.518844,-122.90415800000001
"97358","Lyons","OR","Mehama Ace Hardware","11267 Grove St SE","97383",44.7915009,-122.61945
"97358","Lyons","OR","Mehama True Value","11267 Grove St","97384",44.790122,-122.6192523
"97362","Mount Angel","OR","Bochsler True Value Hardware","115 E Charles St","97362",45.06809915,-122.7992952
"97365","Newport","OR","Newport Ace Hardware and Outdoor","2340 N Coast Hwy","97365",44.65412139892578,-124.05265045166016
"97365","Newport","OR","Barrelhead Supply Inc.","3551 SE Ferry Slip","97366",44.612284187057725,-124.04938557400106
"97365","Newport","OR","Platt Electric Supply","1231 NW Grove St","97365",44.645,-124.05
"97365","Newport","OR","Robotic Hinges Supply, LLC","553 SW 5th St","97365",44.632992489786986,-124.06144980163904
"97365","Newport","OR","Sherwin-Williams Paint Store","121 NE Harney St","97365",44.637138,-124.04323400000001
"97365","Newport","OR","FastenalFastenal","not_available","97365",44.637138,-124.04323400000001
"97365","Newport","OR","Toledo Ace Hardware","620 W Highway 20","97391",44.63204,-123.95041
"97365","Newport","OR","Builders FirstSource","615 N Coast Hwy","97365",44.640572,-124.053766
"97367","Lincoln City","OR","R Q Mills Hardware","4910 SE Highway 101","97367",44.929210999999995,-124.01571899999999
"97367","Lincoln City","OR","Mills Ace Hardware","2047 NE 22nd St","97367",44.981625,-124.00695
"97367","Lincoln City","OR","Builders FirstSource","6305 SW Hwy 101","97367",44.919061,-124.010529
"97367","Lincoln City","OR","Groth-Gates  Heating & Sheet Metal","2614 SE Highway 101","97367",44.94851328,-124.01511277
"97367","Lincoln City","OR","George Moreland Plumbing Supply","3748 U.S. 101, Lincoln City, OR 97367","97367",44.93867120671528,-124.0215706898115
"97367","Lincoln City","OR","Lincoln City ReStore","2150 SW Hwy 101","97367",44.965976584681094,-124.01350176578576
"97367","Lincoln City","OR","Taft 2nd Hand - Buy & Sell","4756 SE Highway 101","97367",44.930423,-124.017505
"97367","Lincoln City","OR","Tools And More","1500 SE East Devils Lake Rd","97367",44.9582065,-124.01185870170593
"97378","Sheridan","OR","Sleighbellls","not_available","97378",45.089067981710805,-123.42184556245564
"97378","Sheridan","OR","Skyberg's Lumber & Hardware","121 Ne Main St","97396",45.07888615279434,-123.48516958497332
"97381","Silverton","OR","Silverton Ace Hardware","406 Mcclaine St","97381",45.006543,-122.7884
"97381","Silverton","OR","Farmers Toilet Co","not_available","97381",45.004156,-122.751307
"97386","Sweet Home","OR","Hoy's Hardware Inc.","3041 Main Street","97386",44.4015619,-122.70689
"97386","Sweet Home","OR","Hoy's Hardware","3061 Main St","97386",44.40158,-122.70697047619
"97394","Waldport","OR","WALDPORT ACE HARDWARE","340 NE Alsea Hwy","97394",44.427066,-124.06717
"97401","Eugene","OR","Grainger Industrial Supply","2950 Chad Dr","97408",44.088412,-123.059533
"97401","Eugene","OR","Midgleys","1670 W 7th Ave","97402",44.05184555053711,-123.11795806884766
"97401","Eugene","OR","Sherwin-Williams Paint Store","1054 Green Acres Rd","97408",44.092143,-123.093571
"97401","Eugene","OR","CED","411 W 4th Ave","97401",44.05598068237305,-123.09925079345703
"97401","Eugene","OR","Rodda Paint","not_available","97408",44.093299,-123.097376
"97401","Eugene","OR","Beehive Rental Co/C&E Rentals","1590 W 2nd Ave","97402",44.057219,-123.11681999999999
"97401","Eugene","OR","Platt Electric Supply","420 W 4th Ave","97401",44.055212,-123.09918
"97401","Eugene","OR","Mr. Appliance","1593 W 2nd Ave","97402",44.057607483333335,-123.1168270111084
"97402","Eugene","OR","Jerry's Home Improvement","2600 Oregon 99 N","97402",44.0974895609644,-123.16948950811775
"97402","Eugene","OR","Tommy's Paint Pot","1000 Conger St","97402",44.0486065894085,-123.13437389473486
"97402","Eugene","OR","The Home Depot","808 Seneca Rd","97402",44.0510007,-123.142879
"97402","Eugene","OR","Lowe's","3595 West 11th Avenue","97402",44.0499876,-123.1460888
"97402","Eugene","OR","Coastal Farm & Ranch","2200 W 6th Ave","97402",44.05379621270681,-123.12633430552233
"97402","Eugene","OR","Harbor Freight Tools","2165 W 7th Ave","97402",44.0529967616837,-123.12556349803364
"97402","Eugene","OR","Eclectic Products, Inc.","1075 Arrowsmith St","97402",44.049539,-123.185675
"97402","Eugene","OR","Stellar Industrial Supply","275 Grimes St","97402",44.05656,-123.155694
"97402","Eugene","OR","A.N.C.O Fastener Sales","not_available","97402",44.0533974442367,-123.12493937656944
"97402","Eugene","OR","All Seasons Equipment","2200 W 7th Ave","97402",44.05271155722879,-123.12738418579102
"97402","Eugene","OR","Emerald Door & Glass, Inc.","720 Wilson St","97402",44.051192,-123.13240800000001
"97402","Eugene","OR","Conveyor Truck Services Inc","87313 Chinquapin Loop","97487",44.028456,-123.304982
"97402","Eugene","OR","Emerald Power Equipment","600 Highway 99 N","97402",44.067606985734386,-123.14087033271788
"97402","Eugene","OR","HD Supply White Cap","3395 West 1st Avenue","97402",44.05927024,-123.14761583
"97402","Eugene","OR","Breckwell Stoves","1875 W 6th Ave","97402",44.0538444519043,-123.12122344970703
"97402","Eugene","OR","Sherwin-Williams Paint Store","3390 W 11th Ave","97402",44.047561,-123.14263899999999
"97402","Eugene","OR","Miller Paint Company","3520 W 11th Ave","97402",44.04766082763672,-123.14407348632812
"97402","Eugene","OR","MacTucker Conveyor Delivery","25823 Tanya Ln","97487",44.070945,-123.324707
"97402","Eugene","OR","Emerald Steel Fabricators Inc","29402 W Enid Rd","97402",44.115238,-123.187475
"97402","Eugene","OR","GTS Interior Supply","3830 Cross Street","97402",44.06265178,-123.15817746
"97402","Eugene","OR","Mike's Bargin Center","2454 Highway 99 N","97402",44.09473602094915,-123.16493511199951
"97403","Eugene","OR","Eugene Lock & Safe","3799 Franklin Blvd","97403",44.044898116666666,-123.03771223333334
"97403","Eugene","OR","Ace Equipment Specialty Services, Inc.","1880 Harbor Dr","97477",44.027628,-123.025019
"97404","Eugene","OR","Don's Maytag Appliance Center","818 Highway 99 N","97402",44.07049409978338,-123.14361343811096
"97404","Eugene","OR","Jerry's Home Improvement Center","90015 Prairie Rd","97402",44.105621337890625,-123.16226959228516
"97405","Eugene","OR","Tractor Supply Co.","190 Emerald Pkwy","97426",43.91887568993579,-123.0065500588608
"97405","Eugene","OR","Eugene TrueValue Hardware","2825 Willamette St","97405",44.02785069316422,-123.09026092043555
"97405","Eugene","OR","S & M Rock And Loam Inc.","34052 Seavey Loop Rd","97405",44.010514,-123.008374
"97405","Eugene","OR","Dr. Grimme's Tater Towers","not_available","97405",44.02890605882245,-123.12893988588735
"97405","Eugene","OR","Sherwin-Williams Paint Store","2866 Willamette St","97405",44.026786,-123.091751
"97408","Eugene","OR","The Home Depot","1045 Green Acres Rd","97408",44.0956029,-123.094279
"97411","Bandon","OR","Bandon True Value Hardware","840 Oregon Ave SW","97411",43.11564636230469,-124.41532897949219
"97411","Bandon","OR","Hennick's","not_available","97411",43.11793273136218,-124.39168362903165
"97415","Brookings","OR","South Coast Lumber Company","not_available","97415",42.076215401703486,-124.31266379089858
"97415","Brookings","OR","Kerr Ace Hardware Building Center","711 Chetco Avenue","97415",42.051683000000004,-124.28421999999999
"97415","Brookings","OR","Sears","97900 Shopping Center Drive","97415",42.0494654,-124.2611616
"97415","Brookings","OR","Curry Equipment","15745 Highway 101 S","97415",42.036456,-124.241705
"97417","Canyonville","OR","MSK Building Supply","102 S Old Pacific Hwy, Myrtle Creek, OR 97457, USA","97457",42.98514175415039,-123.32101440429688
"97417","Canyonville","OR","Del's True Value Building Supply","102 S Old Pacific Hwy","97457",42.98706227,-123.3202863
"97417","Canyonville","OR","Ace Hardware","234 S Main St","97417",42.9272793173258,-123.278906962785
"97420","Coos Bay","OR","Sherwin-Williams Paint Store","358 S 2nd St","97420",43.364577000000004,-124.214329
"97420","Coos Bay","OR","Coos Bay Area Habitat For Humanity ReStore","776 S 2nd St","97420",43.361635,-124.21425
"97420","Coos Bay","OR","FARRS TRUE VALUE HDWE","880 S 1st St","97420",43.360111236572266,-124.21186828613281
"97420","Coos Bay","OR","Sears","1611 Virginia Avenue, #514","97459",43.404633,-124.234188
"97420","Coos Bay","OR","Habitat For Humanity ReStore","not_available","97459",43.400812922355236,-124.23910728655842
"97420","Coos Bay","OR","Oregon Pacific Company","1760 Sheridan Ave","97459",43.40993,-124.2233
"97420","Coos Bay","OR","Fastenal Coos Bay","not_available","97420",43.39115391925197,-124.26704194940143
"97420","Coos Bay","OR","Platt Electric Supply","1906 Everett Ave","97459",43.40766143798828,-124.23821258544922
"97420","Coos Bay","OR","Willamette Graystone","400-498 California St","97459",43.408180236816406,-124.22256469726562
"97420","Coos Bay","OR","Builders FirstSource","1221 N Bayshore Dr","97420",43.376286,-124.21526000000001
"97420","Coos Bay","OR","Hardware Express","2273 N Bayshore Dr","97420",43.384042,-124.22085
"97423","Coquille","OR","Coquille Valley Glass","510 N Central Blvd","97423",43.179229736328125,-124.18873596191406
"97423","Coquille","OR","Ace Hardware","10054 Highway 42","97423",43.14958953857422,-124.1766357421875
"97423","Coquille","OR","Myrtle Point True Value Hardware","427 Spruce St","97458",43.065330505371094,-124.14234161376953
"97423","Coquille","OR","Hall's Inc","225 First St","97457",43.065752585642116,-124.14555072784424
"97423","Coquille","OR","FARRS TRUE VALUE HARDWARE","220 N CENTRAL","97423",43.1761474609375,-124.18907165527344
"97424","Cottage Grove","OR","Cascade ACE Hardware","49 S 6th St","97424",43.79671,-123.062371
"97424","Cottage Grove","OR","Sears","118  Gateway Blvd.","97424",43.798398,-123.04762
"97438","Fall Creek","OR","Saw Systems Enterprises Inc","38150 JASPER LOWELL RD","97438",43.998683,-122.905404
"97439","Florence","OR","Ron's Paint & Supply","5071 Oregon Coast Hwy Florence","97439",44.010789,-124.102784
"97439","Florence","OR","True Value Hardware","1750 Highway 126","97439",43.974005,-124.102011
"97439","Florence","OR","Pro Lumber","not_available","97439",43.969113,-124.105852
"97439","Florence","OR","Sears","685-A Highway 101","97439",43.97251300570793,-124.10564750432968
"97439","Florence","OR","Copeland Lumber","3201-3399 Oregon Coast Hwy","97439",43.994615,-124.101632
"97441","Gardiner","OR","Kel-Cee Ace Hardware","1350 Highway 101 S","97467",43.6998,-124.1092
"97444","Gold Beach","OR","Dan's Ace Hardware","29733 Ellensburg Ave","97444",42.4144,-124.4193
"97444","Gold Beach","OR","Gold Beach Lumber","not_available","97444",42.386794209975314,-124.41577533737112
"97446","Harrisburg","OR","Tractor Supply Company","94622 Highway 99 East","97448",44.232088,-123.203085
"97446","Harrisburg","OR","B&I Hardware and Rental","120 W 6th Ave","97448",44.219703,-123.2018
"97448","Junction City","OR","H & E Feed","Awbrey","not_available",44.150966711943106,-123.19326647064284
"97457","Myrtle Creek","OR","longs building inc","3924-3986 Old Highway 99 S","97471",43.158143243958655,-123.36940273050165
"97457","Myrtle Creek","OR","Tractor Supply Co.","110 Petite Street","97457",42.97202920321453,-123.34004256450652
"97457","Myrtle Creek","OR","Dc Farmers Co-Op","124 Douglas","97496",43.12111713407619,-123.41474083194387
"97457","Myrtle Creek","OR","Fastenal","not_available","97470",43.149162405793035,-123.3779802561349
"97457","Myrtle Creek","OR","Ace Hardware","225 First Street","97457",43.0252199,-123.28814
"97457","Myrtle Creek","OR","MSK True Value","Myrtle Creek, OR 97457, USA","97457",43.020126,-123.29312
"97457","Myrtle Creek","OR","United Pipe & Supply","325 E Happy Valley Rd","97471",43.15755844116211,-123.37406158447266
"97457","Myrtle Creek","OR","Harrison Hardware","124 NW Douglas Ave","97496",43.12096897577264,-123.4147768183178
"97458","Myrtle Point","OR","J.D. Myrtle Saw Shop","not_available","97458",43.05190658569336,-124.1304702758789
"97462","Oakland","OR","Sutherlin True Value","215 W Central","97479",43.38986969,-123.3156662
"97462","Oakland","OR","Stearns True Value Hardware","204 Se Locust","97462",43.42207997,-123.2902088
"97462","Oakland","OR","Eagle Valley Supply","2570 Eagle Valley Rd","97499",43.59812545776367,-123.2824935913086
"97465","Port Orford","OR","Mcnairs hardware","not_available","97465",42.74601364135742,-124.49816131591797
"97467","Reedsport","OR","Umpqua Building And Hardware","301-399 Greenwood Ave","97467",43.7034127,-124.09630581666667
"97470","Roseburg","OR","Lowe's","3300 NW Aviation Drive","97470",43.2508163,-123.3588796
"97470","Roseburg","OR","Douglas County Farmer's Co-Op","3171 NE Stephens St","97470",43.2459664,-123.3525118
"97470","Roseburg","OR","The Home Depot","3000 Aviation Drive","97470",43.2455288,-123.3582757
"97470","Roseburg","OR","Swanson Group","Roseburg","not_available",43.18798162202513,-123.36144136293059
"97470","Roseburg","OR","Ace Hardware","1494 NE Stephens St","97470",43.227932,-123.350439
"97470","Roseburg","OR","Sherwin-Williams Paint Store","287 NW Garden Valley Blvd","97470",43.22591178409064,-123.35691690444945
"97470","Roseburg","OR","Dc Farmers Co-Op","3171 Ne Stephens St","97470",43.245994567871094,-123.35105895996094
"97470","Roseburg","OR","Roseburg Hydroponics","853 SE Stephens St","97470",43.2068784,-123.3476544
"97470","Roseburg","OR","Corix","7850","not_available",43.30794906616211,-123.34732818603516
"97470","Roseburg","OR","Colorcraft Paint","2646 NE Diamond Lake Blvd","97470",43.21342,-123.3214
"97470","Roseburg","OR","Eoff Electric Supply","1304 NE Cedar St","97470",43.2251091003418,-123.35374450683594
"97470","Roseburg","OR","Platt Electric Supply","344 NE Channon Ave","97470",43.231836,-123.352298
"97477","Springfield","OR","Jerry's Home Improvement","2525 Olympic St","97477",44.057702897708616,-122.9906480492727
"97477","Springfield","OR","Lane Forest Products","820 N 42nd St","97478",44.05444397479797,-122.96512254059319
"97477","Springfield","OR","Wilco Farm Stores - Springfield","1401 21st St","97477",44.057791745117136,-122.99322414168857
"97477","Springfield","OR","Platt Electric Supply","1125 Shelley St Ste A","97477",44.064334869384766,-123.04225158691406
"97477","Springfield","OR","Miller Paint Co","1934 Marcola Rd Ste D","97477",44.065669,-122.994757
"97477","Springfield","OR","Ewing Irrigation","451 Shelley St","97477",44.06350571987822,-123.03265124559402
"97477","Springfield","OR","River Roofing","1484 S B St","97477",44.043939,-123.004241
"97477","Springfield","OR","Sherwin-Williams Paint Store","1520 18th St","97477",44.059156,-122.99871978
"97477","Springfield","OR","Harbor Freight Tools","not_available","97477",44.057693,-122.99976
"97477","Springfield","OR","9Wood","999 S A St","97477",44.044156,-123.011384
"97477","Springfield","OR","Wilderness Machine Works","1567 Main St","97477",44.04555,-123.002054
"97478","Springfield","OR","Fastenal","4660 Main St Ste 420 Bldg C","97478",44.04607442400672,-122.9548418031909
"97478","Springfield","OR","Reliant Commercial Paint Equipment","41617 Madrone St","97478",44.085582,-122.72364800000003
"97478","Springfield","OR","Black Diamond Perfect Sun LED grow lights","50089 Deerhorn Rd","97478",44.1080321,-122.65014100000002
"97487","Veneta","OR","Kelleys True Value Hrdw","24979 W Broadway","97487",44.051326826598796,-123.35435151146244
"97487","Veneta","OR","Veneta Ace Hardware","24991 Highway 126","97487",44.0542019,-123.3536
"97487","Veneta","OR","Veneta Equipment Rentals","25703 Oregon Hwy 126","97487",44.05323,-123.32761
"97498","Yachats","OR","Yachats Mercantile","130 Highway 101","not_available",44.31046695040556,-124.10289054771268
"97501","Medford","OR","Harbor Freight Tools","1341 Center Dr Unit B","97501",42.31273,-122.85293100000001
"97501","Medford","OR","Drakes Paint & Supply","2929 N Pacific Hwy","97501",42.350555,-122.896164
"97501","Medford","OR","PPG Paints","2720 Crater Lake Hwy","97504",42.356835,-122.865007
"97501","Medford","OR","Rodda Paint","1209 Court St","97501",42.342223,-122.880872
"97501","Medford","OR","Miller Paint Medford","803 S Central Ave","97501",42.319683000000005,-122.86567
"97501","Medford","OR","Sherwin-Williams Paint Store","1361 Center Dr","97501",42.311175,-122.85366200000001
"97501","Medford","OR","Grover's","2902 N Pacific Hwy","97501",42.351436,-122.89503300000001
"97501","Medford","OR","Sherwin-Williams Paint Store","2560 Crater Lake Hwy","97504",42.354861,-122.86779299999999
"97501","Medford","OR","Blackbirds","1810 W Main St","97501",42.3235999,-122.8922
"97501","Medford","OR","GTS Interior Supply","578 Mason Way","97501",42.3485238,-122.8957819
"97501","Medford","OR","Farrell's Glass Service","229 S Front St","97501",42.324090000000005,-122.870878
"97501","Medford","OR","Medford Tool","not_available","97501",42.347356,-122.885474
"97501","Medford","OR","Grange Co-op Corporate Office","2833 N Pacific Hwy","97501",42.35035298548912,-122.8948479720278
"97501","Medford","OR","Zoll's Lawn & Garden Equipment","2764 W Main St","97501",42.323988,-122.9082179
"97501","Medford","OR","Pacific Supply","Crater Lake Ave","not_available",42.34083392807669,-122.8471991032224
"97501","Medford","OR","Ferguson Waterworks","960 Mason Way","97501",42.348346,-122.905481
"97501","Medford","OR","Norton Lumber Company","515 5th St","97535",42.27388000488281,-122.82316589355469
"97501","Medford","OR","Fyr Fyter","728 W McAndrews Rd","97501",42.334303999999996,-122.889076
"97501","Medford","OR","The Cronin Company","1101 Fisher Ave Ste A","97504",42.359868,-122.87338999999999
"97501","Medford","OR","Hubbards Home Center","2830 Crater Lake Hwy","97504",42.35783,-122.86249299999999
"97501","Medford","OR","Ewing Irrigation","1575 Sky Park Dr","97504",42.35674225396844,-122.86383971571922
"97502","Central Point","OR","Lowe's","3601 Crater Lake Highway","97504",42.3652892,-122.85959
"97502","Central Point","OR","Grange Co-Op True Value","225 S Front St","97502",42.37179943940389,-122.91547323655197
"97502","Central Point","OR","Grange Co-op: White City","8205 Crater Lake Hwy","97503",42.436227,-122.84206
"97502","Central Point","OR","Coastal Feed","not_available","97503",42.422982,-122.854076
"97502","Central Point","OR","Wolseley Industrial Group","1130 Helicopter Way","97502",42.3870308163265,-122.862736938776
"97502","Central Point","OR","Bullet Rental & Sales, Inc","Crater Lake Ave","97504",42.365794,-122.854766
"97502","Central Point","OR","Munnell & Sherrill","2080 Commerce Dr","97504",42.370444,-122.857798
"97502","Central Point","OR","Robinson Wood Supply","550 W Dutton Rd","97524",42.446903000000006,-122.83928600000002
"97502","Central Point","OR","Platt Electric Supply","501 Pech Rd","97502",42.3808533288364,-122.88468977321492
"97503","White City","OR","Shady Cove Hardware","21103 Highway 62","97539",42.60624313354492,-122.8165283203125
"97503","White City","OR","Dixon Steel","1820 Antelope Rd","97503",42.426797,-122.85816299999999
"97503","White City","OR","Eagle Point Hardware","10840 Hannon Rd","97524",42.46666,-122.81411499999999
"97503","White City","OR","White City Metals","7130 Crater Lake Hwy","97503",42.420021057128906,-122.85169219970703
"97503","White City","OR","Big R","7303 Crater Lake Hwy","97503",42.42267900152808,-122.85360060592497
"97504","Medford","OR","The Home Depot","3345 N Phoenix Road","97535",42.2833214,-122.8143772
"97504","Medford","OR","Al's Sharpening Service, Inc.","106-1/2 S Main","97535",42.2735482,-122.8153906
"97504","Medford","OR","Allied Building Products Corp.","3630 Crater Lake Ave, Medford, OR 97504","97504",42.369239807128906,-122.8541259765625
"97504","Medford","OR","Superior Windows & Doors","1121 Helicopter Way #100","97502",42.387345,-122.862662
"97520","Ashland","OR","Ashland General Hardware","249 A Street","97520",42.1991439,-122.71046
"97520","Ashland","OR","Valley View Nursery","1675 N Valley View Rd","97520",42.245562,-122.742414
"97520","Ashland","OR","Sherwin-Williams Paint Store","2220 Ashland St","97520",42.185132,-122.67383400000001
"97520","Ashland","OR","All In One Rental","1120 S Pacific Hwy","97540",42.236152000000004,-122.769015
"97520","Ashland","OR","SafeWorld International Inc.","not_available","97520",42.18825828222935,-122.69351005554199
"97523","Cave Junction","OR","Dave's Outdoor","287 Hamilton Ave","97523",42.160277,-123.64683799999999
"97523","Cave Junction","OR","True Value Hardware","232 N Redwood Hwy","97523",42.170078000000004,-123.64653200000001
"97525","Gold Hill","OR","Ace Hardware","Main & Broadway","97537",42.438165978812904,-123.16958551706752
"97525","Gold Hill","OR","Woodville Rental & Supply","127 Oak St","97537",42.43464,-123.169142
"97525","Gold Hill","OR","Main Building Supply","100 Broadway St","97537",42.433695,-123.167146
"97526","Grants Pass","OR","The Home Depot","111 NE Mill St","97526",42.4363765,-123.3150547
"97526","Grants Pass","OR","Tractor Supply Co.","1427 Northeast 7th St","97526",42.454328000000004,-123.32006899999999
"97526","Grants Pass","OR","Miller Paint Co","1620D SW Allen Creek Rd","97527",42.42055130004883,-123.3537826538086
"97526","Grants Pass","OR","Rodda Paint","409 NE F St","97526",42.438251,-123.322033
"97526","Grants Pass","OR","Sherwin-Williams Paint Store","1072 Rogue River Hwy","97527",42.423774,-123.318152
"97526","Grants Pass","OR","Diamond Home Improvement","1881 NE 7th St","97526",42.460416919357044,-123.31895354439692
"97526","Grants Pass","OR","PPG Paints","310 NE Beacon Dr","97526",42.438897999999995,-123.309546
"97526","Grants Pass","OR","Grover's Electric & Plumbing","1001 Rogue River Hwy","97527",42.422874,-123.319418
"97526","Grants Pass","OR","S & P Fabrication","not_available","97526",42.464474,-123.32882
"97526","Grants Pass","OR","perfect time","not_available","97527",42.42123031616211,-123.3630142211914
"97526","Grants Pass","OR","Ewing Irrigation","906 SW 6th St","97526",42.433516999999995,-123.33063200000001
"97526","Grants Pass","OR","NLG Pro Shop","1203 Rogue River Hwy","97527",42.422421,-123.315679
"97526","Grants Pass","OR","Sears","1533 Northeast F Street","97526",42.435648,-123.309668
"97526","Grants Pass","OR","Lees Quality Doors","1546 Dowell Rd","97527",42.42142,-123.367498
"97526","Grants Pass","OR","Farmers Building, Feed, & Garden Supply","1741 Dowell Rd","97527",42.41963,-123.36471
"97526","Grants Pass","OR","Platt Electric Supply","1980 NW Washington Blvd","97526",42.46197,-123.32615200000001
"97527","Grants Pass","OR","Grange Co-Op","1710 W Schutzwohl Ln","97527",42.418231001372064,-123.36607269192334
"97527","Grants Pass","OR","Beagley's Painting","240 Arroyo Dr","97527",42.39652633666992,-123.350830078125
"97527","Grants Pass","OR","Ace Hardware","5285 Williams Hwy","97527",42.36544418334961,-123.33311462402344
"97530","Jacksonville","OR","Ace Hardware","2655 S Pacific Hwy","97501",42.30022561627006,-122.84699904036525
"97530","Jacksonville","OR","Grange Co-Op Home & Garden Showplace","2531 S Pacific Hwy","97501",42.3010209708968,-122.848771968251
"97530","Jacksonville","OR","Farwest Steel Co.","2260 Sage Rd, Medford, OR 97501","97501",42.350561,-122.898113
"97535","Phoenix","OR","Leave Your Mark","4631 S Pacific Hwy","97535",42.268065,-122.80854699999999
"97540","Talent","OR","Ace Hardware / Liquor Store","101 N Pacific Hwy","97540",42.245458,-122.784815
"97544","Williams","OR","The Tool Merchants","1488 E Fork Rd","97544",42.196964,-123.276491
"97601","Klamath Falls","OR","Sherwin-Williams Paint Store","4525 S 6th St","97603",42.206849,-121.732979
"97601","Klamath Falls","OR","Tile Depot","5729 Altamont Dr","97603",42.17392349243164,-121.74658966064453
"97601","Klamath Falls","OR","j & p wholesale","Memorial Drive","97601",42.174259185791016,-121.76921081542969
"97601","Klamath Falls","OR","Webb Asphalt & Sealing Inc","5308 Altamont Dr","97603",42.17801499999999,-121.748618
"97601","Klamath Falls","OR","Harbor Freight","South 6th st","not_available",42.206152,-121.740902
"97601","Klamath Falls","OR","Bells Hardware","528 Main St","97601",42.224369049072266,-121.7825927734375
"97601","Klamath Falls","OR","Platt Electric Supply","4140 Washburn Way","97603",42.18879699707031,-121.75841522216797
"97601","Klamath Falls","OR","united mechanical contractors","Washburn","97601",42.219688415527344,-121.78046417236328
"97601","Klamath Falls","OR","Ferguson Plumbing Supply","2851 Broadmore St","97603",42.200803,-121.754154
"97601","Klamath Falls","OR","Halvorsens Rentals","2120 Washburn Way","97603",42.20858,-121.75742
"97601","Klamath Falls","OR","Quality Electric","456 Market St","97601",42.224568128585815,-121.77429556846619
"97603","Klamath Falls","OR","The Home Depot","6451 S 6th Street","97603",42.2054999,-121.7094499
"97603","Klamath Falls","OR","Merrill True Value Lumber","234 E Front St","97633",42.02401,-121.5985167
"97603","Klamath Falls","OR","Washburn Building Supply","washburn way","97603",42.123049,-121.679491
"97623","Bonanza","OR","Kalina True Value","2115 Broadway St","97632",42.0157139,-121.4162675
"97630","Lakeview","OR","Ag & Auto Inc.","Lakeview, Oregon","97630",42.19230270385742,-120.35780334472656
"97630","Lakeview","OR","Lakeview True Value Hardware","318 N F St","97630",42.19197463989258,-120.3459243774414
"97630","Lakeview","OR","Builders FirstSource","1303 North 4th St","97630",42.192752838134766,-120.35499572753906
"97701","Bend","OR","Lowe's","20501 Cooley Road","97701",44.1080144,-121.2985482
"97701","Bend","OR","The Home Depot","63465 N Highway 97","97703",44.1061119,-121.2997913
"97701","Bend","OR","Logans Market","900 Sw 23 St","97756",44.268435709989646,-121.19338278832397
"97701","Bend","OR","Sisters Ace Hardware","373 E Hood Ave","97759",44.2903,-121.5468
"97701","Bend","OR","Phil's Hardware","1563 NE 3rd St","97754",44.3030729,-120.82845
"97701","Bend","OR","Lowe's","1313 SW Canal Boulevard","97756",44.2656614,-121.1775335
"97701","Bend","OR","The Home Depot","300 NW Quince Ave","97756",44.297381058241314,-121.1705008149147
"97701","Bend","OR","Ace Hardware & Paint","1538 NW Newport Ave","97703",44.0628299,-121.3355
"97701","Bend","OR","Ace Hardware & Paint","660 NE 3rd St Ste 1","97701",44.0574,-121.30235
"97701","Bend","OR","Harbor Freight Tools","61303 S Highway 97 Ste 100","97702",44.02630164664103,-121.31460057680842
"97701","Bend","OR","Bend Parr Lumber","1311 SE Wilson Ave","97702",44.04352951049805,-121.28765106201172
"97701","Bend","OR","Habitat For Humanity ReStore","740 NE 1st St","97701",44.0577941992088,-121.30512636850185
"97701","Bend","OR","Sherwin-Williams Paint Store","2835 SW 17th Pl","97756",44.25039048552917,-121.18821144104002
"97701","Bend","OR","Wilco Farm Store- Prineville","1225 NW Gardner Rd Ste 102","97754",44.31400810948454,-120.86936699990348
"97701","Bend","OR","Wilco","not_available","97756",44.252713,-121.186307
"97701","Bend","OR","Camp Abbot Ace Hardware","56820 Venture Ln","97707",43.864014000000005,-121.437001
"97701","Bend","OR","Fair Feed and Supply","105 SE Lynn Blvd","97754",44.294695000000004,-120.845846
"97701","Bend","OR","Habitat for Humanity ReStore","1427 NW Murphy Ct","97754",44.315670013427734,-120.86357879638672
"97701","Bend","OR","H&E Equipment Services","2541 SW High Desert Drive","97754",44.2897378,-120.8773523
"97701","Bend","OR","Branson Tractor Dealer","not_available","97701",44.176518373592586,-121.24778842895016
"97701","Bend","OR","Parr Lumber","601 N Main St","97754",44.305695,-120.84740900000001
"97701","Bend","OR","Bend Lock & Safe","204 NE Franklin Ave","97701",44.056163,-121.303743
"97702","Bend","OR","GTS Interior Supply","149 Southeast 9th Street","97702",44.0488893,-121.29332193
"97702","Bend","OR","Sherwin-Williams Paint Store","125 NE Franklin Ave","97701",44.055443,-121.305311
"97702","Bend","OR","George Morlan Plumbing","61455 South 3rd St","97701",44.03410099612376,-121.30900079403159
"97702","Bend","OR","Ace Hardware & Paint","61367 S Highway 97","97702",44.028185,-121.31409
"97702","Bend","OR","Able Supply LLC","60005 Cinder Butte Rd","97702",43.978939056396484,-121.3619384765625
"97702","Bend","OR","Country Feed & Pet Supply","61530 American Ln","97702",44.034073,-121.290943
"97702","Bend","OR","Oregon Wholesale Hardware Inc.","653 NE 1st St","97701",44.056841,-121.306422
"97702","Bend","OR","High Desert Mulching","303 SE 2nd St","97702",44.046644,-121.304812
"97702","Bend","OR","Wilco Farm Store- Bend","2717 NE Highway 20","97701",44.054622650146484,-121.26119232177734
"97702","Bend","OR","Ewing Irrigation","1013 SE Paiute Way","97702",44.03944399295059,-121.29349806908067
"97702","Bend","OR","Ferguson Plumbing Supply","61390 S Hwy 97","97702",44.02886327399985,-121.31135784846566
"97702","Bend","OR","Miller Paint Co","1245 South Hwy 97, Suite B3","97702",44.03616,-121.305596
"97702","Bend","OR","D & S Hydraulics Inc","373 SE Bridgeford Blvd","97702",44.04683,-121.28997
"97702","Bend","OR","Caliber Metal Manufacturing and Supply","1020 SE Paiute Way Ste 110","97702",44.0403852,-121.2927979
"97702","Bend","OR","Creative Welding Co.","880 SE 9th St Ste C","97702",44.0416374206543,-121.29151153564453
"97702","Bend","OR","Creative Welding Co.","not_available","97702",44.02144364732694,-121.2995767593384
"97720","Burns","OR","ACW Inc Rental","not_available","97738",43.570814,-119.076677
"97734","Culver","OR","Phil's Hardware","13 SW H St","97741",44.627155,-121.13023700000001
"97734","Culver","OR","Miller True Value Lumber","35 SE 6th St","97741",44.63575744628906,-121.12837982177734
"97734","Culver","OR","Platt Electric Supply","1600 NW Wescott St","97741",44.658606,-121.13281200000002
"97739","La Pine","OR","La Pine Ace Hardware & Building Supply","51615 Huntington Rd","97739",43.67538,-121.50474
"97754","Prineville","OR","Tightwads Discount Building Supply","1590 Nw Studebaker Dr","97754",44.3096917932192,-120.861829301298
"97754","Prineville","OR","Eoff Electric Supply","2735 SW High Desert Dr","97754",44.28832244873047,-120.88054656982422
"97754","Prineville","OR","Miller True Value Lbr","137 NE 2nd St","97754",44.302303314208984,-120.8464584350586
"97754","Prineville","OR","Prineville Electric","not_available","97754",44.304003,-120.84789599999999
"97756","Redmond","OR","Hershey Cattle Company & Super Top Soil","4098 S Highway 97","97756",44.237899,-121.195348
"97756","Redmond","OR","Big R Oregon","3141 S Highway 97","97756",44.247251019737305,-121.18978253202259
"97756","Redmond","OR","Centwise Sporting Goods / Hardware","500-598 W Deschutes Ave","97756",44.27302551269531,-121.17350006103516
"97756","Redmond","OR","Terrebone Hardware","11th Street","97760",44.350126529120175,-121.1783620177035
"97756","Redmond","OR","Miller Paint Co","641 NW Fir Ave","97756",44.281394958496094,-121.17517852783203
"97756","Redmond","OR","Platt Electric Supply","2552 SE 1st St","97756",44.251,-121.17
"97756","Redmond","OR","Miller True Value Hdwe & Lbr","2800 S Highway 97","97756",44.250022888183594,-121.18543243408203
"97756","Redmond","OR","Superior Tractor","Hwy 97","97756",44.2163163165812,-121.21897004808964
"97756","Redmond","OR","Ferguson Waterworks","3292 S Hwy 97","97756",44.246307373046875,-121.18806457519531
"97759","Sisters","OR","Hoyt Hardware & Building Supply","not_available","97759",44.29411697387695,-121.55257415771484
"97801","Pendleton","OR","Sherwin-Williams Paint Store","115 SE Emigrant Ave","97801",45.67127,-118.785054
"97801","Pendleton","OR","Zimmerman & CO.","Main St, Pendleton, OR 97801","97801",45.65945102353184,-118.79417654282653
"97801","Pendleton","OR","Zimmerman True Value Hardware","348 S Main","97801",45.67111,-118.786184
"97801","Pendleton","OR","Pendleton Safe Lock & Key","704 AW Emigrant","not_available",45.66836166381836,-118.79292297363281
"97801","Pendleton","OR","Tum-A-Lum Lumber Company","not_available","97801",45.672327,-118.782032
"97812","Arlington","OR","Ace Hardware","113 Arlington Mall","97812",45.715238,-120.203754
"97814","Baker City","OR","Miller's Lumber","not_available","97814",44.795816936379445,-117.85226693665763
"97814","Baker City","OR","D&B Supply","3515 Pocahontas Rd","97814",44.795656,-117.85078
"97814","Baker City","OR","Thatcher's Ace Hardware","2200 Resort St","97814",44.779061,-117.828414
"97818","Boardman","OR","Napa","not_available","97818",45.832401275634766,-119.70096588134766
"97823","Condon","OR","M & A Hardware NAPA","333 S Main St","97823",45.23432159423828,-120.1851806640625
"97827","Elgin","OR","S & W Hardware","not_available","97827",45.5645579,-117.9114843
"97828","Enterprise","OR","Wallowa County Ace Hardware","101 W North St","97828",45.426684,-117.277883
"97828","Enterprise","OR","Wallowa County True Value","911 S River St","97828",45.417512,-117.275783
"97828","Enterprise","OR","Ram Auto & True Value Hardware","604 W 7th St","97885",45.57585,-117.536019
"97828","Enterprise","OR","Outlaw Motor Sports Inc.","504 NW 1st St","97828",45.42957,-117.27893
"97834","Halfway","OR","Halfway Feed & Seed","281 S Main St","97834",44.875132,-117.107782
"97838","Hermiston","OR","Ace Hardware","1845 N 1st St","97838",45.855533934004555,-119.29137110188262
"97838","Hermiston","OR","The Home Depot","300 W Harper Road","97838",45.85390134573487,-119.29441845692054
"97838","Hermiston","OR","Sears","80487 North Hwy 395","97838",45.8681514,-119.2911005
"97838","Hermiston","OR","Builders FirstSource","81054 Hwy 395 N","97838",45.88345115054955,-119.29725408554079
"97838","Hermiston","OR","All That Wood, LLC","80764 Highway 395 N","97838",45.8752052491663,-119.29399251937868
"97838","Hermiston","OR","Sears","Umatilla-Stanfield Hwy","97838",45.84233162,-119.28423432
"97838","Hermiston","OR","Platt Electric Supply","80393 N Highway 395","97838",45.86603927612305,-119.29092407226562
"97838","Hermiston","OR","A plus connectors","not_available","97838",45.848575592041016,-119.29754638671875
"97838","Hermiston","OR","Elmer's Irrigation","80527 HWY 395","97838",45.86935043334961,-119.29193878173828
"97845","John Day","OR","John Day True Value","161 E Main St","97845",44.41627883911133,-118.95133209228516
"97845","John Day","OR","JD Outdoor & Power Equipment","727 W Main St","97845",44.4199,-118.963768
"97845","John Day","OR","Nydam's Ace Hardware","652 W Main St","97845",44.419677,-118.96236
"97850","La Grande","OR","Bronson Lumber","10501-10599 N McAlister Rd","97850",45.34690618515015,-118.04544568061829
"97850","La Grande","OR","Eastern oregon nusery and landscaping","not_available","97850",45.333404,-118.055135
"97850","La Grande","OR","Sears","1700 Portland Ave.","97850",45.32826280369329,-118.07913435157388
"97850","La Grande","OR","Hometown Hardware","not_available","97883",45.208416262621704,-117.89244859470796
"97850","La Grande","OR","Miller's Home Center And Lumber","307 Greenwood St, La Grande, OR 97850","97850",45.3270263671875,-118.08821868896484
"97850","La Grande","OR","D&B Supply","10101 E 1st St","97850",45.340729650108536,-118.04490521893261
"97850","La Grande","OR","LaGrande Ace Hardware","2212 Island Ave #290","97850",45.327411,-118.077968
"97850","La Grande","OR","Oregon Trail Livestock Supply","10306 E 1st St","97850",45.34117126464844,-118.04209899902344
"97850","La Grande","OR","Carol G Barnes","1405  Argonne Street","97850",45.32734516217378,-118.06614395231009
"97862","Milton Freewater","OR","Fry's True Value","175 S Main St","97862",45.9339828192401,-118.388959383088
"97862","Milton Freewater","OR","P.G.G. Milton-Freewater","E Broadway","97862",45.93639,-118.39337536666666
"97862","Milton Freewater","OR","Fasteners Of Milton Freewater, OR","1350 N Columbia St","97862",45.92596289999999,-118.3847542
"97870","Richland","OR","Richland Feed & Seed","114 1st St","97870",44.76904571,-117.16799
"97901","Adrian","OR","DON'S LUMBER & TRUE VALUE HARDWARE","603 1ST ST","97901",43.73942565917969,-117.07157135009766
"97910","Jordan Valley","OR","Marsing True Value Hardware","222 Main St","83639",43.54582864,-116.8061927
"97910","Jordan Valley","OR","MARSING HARDWARE","222 MAIN ST PO 367","83639",43.5460205078125,-116.80652618408203
"97913","Nyssa","OR","Stunz Lumber Co Inc","707 Adrian Blvd","97913",43.875252,-117.00194499999999
"97913","Nyssa","OR","Oregon Idaho Electric Inc","not_available","97913",43.91007099999999,-117.025455
"97913","Nyssa","OR","Nyssa Mercantile","119 Main St","97913",43.876548,-116.994421
"97914","Ontario","OR","K Hardware","1101 State St","83672",44.25322723388672,-116.96892547607422
"97914","Ontario","OR","D&B Supply","519 SW 19th St","97914",44.023716,-116.99414399999999
"97914","Ontario","OR","Rodda Paint","94 W Idaho Ave","97914",44.026427000000005,-116.963877
"97914","Ontario","OR","The Home Depot","311 E Lane N","97914",44.027511096956985,-116.94190174341202
"97914","Ontario","OR","A-1 Lock","4th Ave","97914",44.024542,-116.991858
"97914","Ontario","OR","Sears","2441 SW 4th Ave","97914",44.025248,-116.998281
"97914","Ontario","OR","OLSEN'S LUMBER & TRUE VALUE HARDWARE","102 Washington St E","97918",43.98281478881836,-117.2398681640625
"97914","Ontario","OR","Clausen's Inc","529 State St","83672",44.256686,-116.96828
"97914","Ontario","OR","Kinney Bros & Keele True Value Hardware","460 Sw 4th Ave","97914",44.023418,-116.969952
"97914","Ontario","OR","Tractor Supply Co.","1494 Southwest 4th Ave","97914",44.02449035644531,-116.98760986328125
"97914","Ontario","OR","Old School","281 S Oregon St","97914",44.024158,-116.96488
"97914","Ontario","OR","Don's Lumber & True Value Hardware","603 1st St","97901",44.03416673,-116.9805802
"97914","Ontario","OR","Lindsay Ecowater.","2452 SW 4th Ave","97914",44.024381,-116.998506
"97914","Ontario","OR","Franklin Building Supply","not_available","83619",44.02244567871094,-116.92292785644531
"97914","Ontario","OR","Harbor Freight","not_available","97914",44.02303,-116.9409
"97914","Ontario","OR","Burke Electric","not_available","83661",44.0695911,-116.9170475
"97914","Ontario","OR","Ontario Bearing & Hydraulic Inc","347 SW 19th St","97914",44.025549,-116.992899
"97914","Ontario","OR","Darts True Value Hardware","121 S Main St","83661",44.07058752,-116.9283624
"97914","Ontario","OR","Sherwin-Williams Paint Store","1289 SE 1st Ave","97914",44.02391815185547,-116.94551849365234
