"zip","city","state","name","address","postalCode","lat","lon"
"87001","Algodones","NM","Sam Hardware","not_available","not_available",35.41544528912571,-106.40365839025499
"87002","Belen","NM","Tabet Lumber & Concrete True Value","606 Baca Ave","87002",34.659061431884766,-106.77552795410156
"87002","Belen","NM","Sears","19554 Highway 314","87002",34.7090719,-106.7614759
"87002","Belen","NM","HydroCut, Inc.","8 Navarro Dr","87002",34.606424,-106.735385
"87002","Belen","NM","minuteKEY","1 I 25 Bypass","87002",34.6971454,-106.7681418
"87002","Belen","NM","Woodlands Ace Hardware","522 E Reinken Ave","87002",34.65917205810547,-106.76136016845703
"87004","Bernalillo","NM","The Home Depot","7700 US 550 NE","87124",35.3329263,-106.578335
"87004","Bernalillo","NM","Lowe's","3805 Northern Boulevard NE","87124",35.2762366,-106.6589497
"87004","Bernalillo","NM","Sherwin-Williams Paint Store","103 Rio Rancho Dr NE","87124",35.25888,-106.64075
"87004","Bernalillo","NM","Village Mercantile Home & Farm Store","3675 Corrales Rd","87048",35.217543,-106.62624253333334
"87004","Bernalillo","NM","Tractor Supply Co.","300 West Hwy 550","87004",35.320629,-106.549195
"87004","Bernalillo","NM","minuteKEY","1115 NM Hwy. 528 SE","87124",35.2423793,-106.6556453
"87004","Bernalillo","NM","Chaparral Materials Inc","4220 Stanley Drive Northeast","87144",35.3307167,-106.5799725
"87004","Bernalillo","NM","Ace Hardware","4100 Sabana Grande Ave SE","87124",35.242794,-106.65466599999999
"87004","Bernalillo","NM","S&S Weapon Systems","3751 Southern Blvd SE","87124",35.24204635620117,-106.65998077392578
"87004","Bernalillo","NM","Samon's","4100 Southern Blvd SE","87124",35.240372,-106.65813500000002
"87004","Bernalillo","NM","Ta Gr Mo True Value","952 S Camino Del Pueblo","87004",35.3015966666667,-106.550434102564
"87013","Cuba","NM","Richards True Value Hardware","6429 Us Hwy 550","87013",36.02109,-106.9591
"87013","Cuba","NM","Moore's Landscaping & Handyman Services, LLC","not_available","87144",35.32349412585721,-106.71245813369751
"87015","Edgewood","NM","Tractor Supply Co.","5 Marietta Ct","87015",35.065966,-106.200616
"87015","Edgewood","NM","Hunter Building Materials","Edgewood","not_available",35.05904,-106.171132
"87015","Edgewood","NM","Hart's hardware","not_available","87035",35.00658121798109,-106.0585500941454
"87026","Laguna","NM","Ace Hardware","1-40 Exit 108 S","87007",35.0118,-107.322
"87031","Los Lunas","NM","Tractor Supply Co.","890 Bosque Farms Blvd","87068",34.861499,-106.68974399999999
"87031","Los Lunas","NM","Lowe's","1600 Main Street NW","87031",34.8157411,-106.7525529
"87031","Los Lunas","NM","The Home Depot","1800 Main St NW","87031",34.8161556,-106.7551675
"87031","Los Lunas","NM","Hacienda Home Center","1245-1309 Bosque Farms Blvd","87068",34.85713195800781,-106.69129180908203
"87031","Los Lunas","NM","minuteKEY","2250 Main St NW","87031",34.81740188598633,-106.76348876953125
"87031","Los Lunas","NM","Sherwin-Williams Paint Store","275 Emilio Lopez Loop NW","87031",34.814149,-106.757524
"87031","Los Lunas","NM","Raks","not_available","87031",34.804033,-106.72311305
"87036","Mountainair","NM","Sonderpreis Baumarkt","Baindter Strasse 17","88255",34.50034,-106.00085
"87048","Corrales","NM","Lowe's","3500 Nm 528 NW","87114",35.202581,-106.6508375
"87048","Corrales","NM","The Home Depot","10200 Coors Bypass NW","87114",35.2019658,-106.6567693
"87048","Corrales","NM","Harbor Freight Tools","10131 Coors Blvd NW Ste G3","87114",35.20005730313243,-106.65256180491927
"87048","Corrales","NM","minuteKEY","3500 State Highway 528 NW","87114",35.20295,-106.650794
"87102","Albuquerque","NM","Lowe's","2001 12th Street NW","87104",35.1073275,-106.6603582
"87102","Albuquerque","NM","Power Screening, LLC","3403 Broadway Blvd Se","87105",35.042295749491096,-106.6479681058081
"87102","Albuquerque","NM","Magic Mobile Home Supply - a Style Crest company","1915 Commercial Street Northeast","87102",35.10399611,-106.64284646
"87102","Albuquerque","NM","Dunn-Edwards Paints","225 Menaul Blvd NW","87107",35.111179,-106.64485800000001
"87102","Albuquerque","NM","Chaparral Materials Inc","1717 2nd Street Northwest","87102",35.1016381,-106.6463082
"87102","Albuquerque","NM","Sherwin-Williams Commercial Paint Store","816 1st St NW","87102",35.09121,-106.64616399999998
"87102","Albuquerque","NM","minuteKEY","2001 12TH STREET NW","87104",35.10759353637695,-106.66018676757812
"87102","Albuquerque","NM","Barnhill Bolt Co.","not_available","87107",35.110646,-106.61990700000001
"87102","Albuquerque","NM","Roofing Supply Group","2222 2nd st","87102",35.107706,-106.646778
"87102","Albuquerque","NM","Matheson","1916 2nd St NW","87102",35.104019,-106.64477600000001
"87102","Albuquerque","NM","TP Pump","not_available","87102",35.10247152412108,-106.64142928888076
"87102","Albuquerque","NM","Zia Storefront And Glazing Inc","915 4th St North West","87102",35.0936687,-106.6500378
"87104","Albuquerque","NM","Harbor Freight","4410 Central Ave SW","87105",35.084212,-106.687797
"87105","Albuquerque","NM","The Home Depot","200 Eubank Blvd SE","87123",35.0701048,-106.5305541
"87105","Albuquerque","NM","Lomas True Value","5112 Lomas Blvd Ne","87110",35.087055486058794,-106.58733634142
"87105","Albuquerque","NM","minuteKEY","400 Eubank Blvd NE","87123",35.079555,-106.52986
"87105","Albuquerque","NM","Santa Fe Tool Co","9307 Central Ave NE","87123",35.073601000000004,-106.543843
"87105","Albuquerque","NM","Ray's Sand & Gravel","3111 Love St SW","87121",35.013573,-106.721875
"87105","Albuquerque","NM","H&E Equipment Services","3801 Prince St SE","87105",35.0294,-106.653014
"87105","Albuquerque","NM","Sherwin-Williams Paint Store","1653A Eubank Blvd NE","87112",35.099481,-106.53341699999999
"87105","Albuquerque","NM","K & S Service Center","337 Eubank Blvd NE","87123",35.07777786254883,-106.53282165527344
"87105","Albuquerque","NM","Aragon's Lawn & Wood Center","9402 Indian School Rd NE","87112",35.101541999999995,-106.54135500000001
"87105","Albuquerque","NM","Ace Hardware","1100 San Mateo Blvd NE","87110",35.0884,-106.5859
"87105","Albuquerque","NM","4 Points Ironworks","7319 Rainmaker Rd SW","87121",35.0501923,-106.71782009999998
"87105","Albuquerque","NM","Ken's Tools","1423 Eubank Blvd NE","87112",35.096018,-106.533286
"87105","Albuquerque","NM","ABQ Locksmith","5090 Coors Blvd SW","87121",35.0039,-106.71712
"87107","Albuquerque","NM","The Home Depot","1220 Renaissance Blvd NE","87107",35.1363845,-106.6175271
"87107","Albuquerque","NM","Ace Hardware","8201 Golf Course Rd NW # E","87120",35.17804,-106.68806
"87107","Albuquerque","NM","Doc Savage Supply","600 Candelaria Rd NE","87107",35.115349,-106.63323899999999
"87107","Albuquerque","NM","City Electric Supply","4374 Alexander Blvd NE Ste D","87107",35.12847137451172,-106.62066650390625
"87107","Albuquerque","NM","Jamco Electric Motor Repair, Inc.","5418 Edith Blvd NE","87107",35.13542938232422,-106.62844848632812
"87107","Albuquerque","NM","Capital Lumber","5851 Edith Blvd NE","87107",35.141355,-106.629159
"87107","Albuquerque","NM","Ferguson Waterworks","801 Candelaria Rd Ne","87107",35.115787503201,-106.630987209871
"87107","Albuquerque","NM","Bob Garrecht Supply","2432 Claremont Ave NE","87107",35.112455,-106.615631
"87107","Albuquerque","NM","Sodeco Modern Water Systems, Inc.","3411 Girard Blvd NE","87107",35.118702,-106.61419
"87107","Albuquerque","NM","Tractor Supply Co","8100 2nd St Northwest","87114",35.171832,-106.625623
"87107","Albuquerque","NM","L & p building Supply","100 Industrial Ave NE","87107",35.12334442138672,-106.63687133789062
"87107","Albuquerque","NM","Frank's Supply","3311 Stanford Dr NE","87107",35.117473,-106.617207
"87107","Albuquerque","NM","Summit Electric Supply","2900 Stanford Dr NE","87107",35.113455,-106.616676
"87107","Albuquerque","NM","Mesa Equipment & Supply","7100 2nd St NW","87107",35.160024,-106.629625
"87107","Albuquerque","NM","minuteKEY","2701 Carlisle Blvd NE","87110",35.111998,-106.607255
"87107","Albuquerque","NM","Albuquerque Garage Door Company","812 Wyoming Blvd NE","87123",35.1581620624536,-106.6012279192038
"87107","Albuquerque","NM","Appliance Parts Depot","3340 Princeton Dr NE","87107",35.117809,-106.619886
"87107","Albuquerque","NM","Sherwin-Williams Paint Store","6200 Coors Blvd NW","87120",35.1510915,-106.6828625
"87108","Albuquerque","NM","Morrison Supply - Albuquerque","6805 Zuni Rd SE","87108",35.073013366990146,-106.57154828310013
"87109","Albuquerque","NM","Lowe's","6200 Paseo Del-Norte","87113",35.1724472,-106.5800857
"87109","Albuquerque","NM","Sherwin-Williams Paint Store","5901 Wyoming Blvd NE","87109",35.146681,-106.55625
"87109","Albuquerque","NM","Lumber Liquidators, Inc.","5300 Pan American Fwy NE","87109",35.14221948779599,-106.59158950881147
"87109","Albuquerque","NM","Sherwin-Williams Paint Store","8417 Montgomery Blvd NE","87111",35.13104248046875,-106.5495834350586
"87109","Albuquerque","NM","minuteKEY","8000 Academy Rd NE","87111",35.14493179321289,-106.55075073242188
"87109","Albuquerque","NM","minuteKEY","6200 PASEO DEL-NORTE","87113",35.1724608,-106.579775
"87109","Albuquerque","NM","Ferguson Bath, Kitchen & Lighting Gallery","4820 Hardware Dr Ne","87109",35.136758,-106.589339
"87109","Albuquerque","NM","Backerworks MFG. LLC","5809 Jefferson St NE","87109",35.149664,-106.59579699999999
"87109","Albuquerque","NM","Patrick Donnelly Roofing","4119 Alcazar St NE","87109",35.132318,-106.567732
"87109","Albuquerque","NM","HD Supply White Cap","6707 Washington St NE","87109",35.15660333,-106.59908099
"87109","Albuquerque","NM","Builders FirstSource","7801 Tiburon St NE","87109",35.168799,-106.594039
"87109","Albuquerque","NM","window depot","4580 Lincoln Rd NE, Albuquerque, NM 87109","87109",35.14169692993164,-106.59217071533203
"87109","Albuquerque","NM","Interwest Safety Supply","5821 Coronado Ave Ne","87109",35.165867,-106.581027
"87109","Albuquerque","NM","Metal Supermarkets","5620 San Francisco Rd NE Ste D","87109",35.166531347342456,-106.58243646279028
"87109","Albuquerque","NM","Construction Rental & Supply Inc","3807 Academy Parkway North NE","87109",35.15848922729492,-106.6024169921875
"87110","Albuquerque","NM","Samon's","4850 Menaul Blvd NE","87110",35.108694,-106.590026
"87110","Albuquerque","NM","ADVANCED OIL SOLUTIONS LLC","3601 Wyoming Blvd NE","87111",35.1128369,-106.5508059
"87110","Albuquerque","NM","T J Hardware","3111 Amherst Dr NE","87107",35.11781311035156,-106.60552978515625
"87110","Albuquerque","NM","Hunter-Bower Lumber","7301 Menaul Blvd NE","87110",35.109473,-106.562401
"87110","Albuquerque","NM","Albuquerque Exotic Woods","4224 Menaul Blvd NE","87110",35.108873,-106.595998
"87110","Albuquerque","NM","Floor Mart","not_available","87110",35.10953945365361,-106.55934795862889
"87110","Albuquerque","NM","Samon's Tiger Stores Inc","2511 Monroe St NE","87110",35.107863,-106.591206
"87111","Albuquerque","NM","Lowe's","3010 Juan Tabo Blvd NE","87111",35.11740025,-106.5144333
"87111","Albuquerque","NM","Samon's Do-it-Yourself","9800 Montgomery Blvd NE","87111",35.129566,-106.531975
"87111","Albuquerque","NM","minuteKEY","11018 Montgomery Blvd NE","87111",35.129752,-106.516797
"87111","Albuquerque","NM","Heights True Value","5200 Eubank","87111",35.13862228393555,-106.5321044921875
"87111","Albuquerque","NM","Leslie's Pool Supply","2740 Wyoming Blvd NE #5","87111",35.117655,-106.550212
"87112","Albuquerque","NM","Harbor Freight Tools","11035 Menaul Blvd NE","87112",35.10958047339097,-106.51717444044556
"87112","Albuquerque","NM","Highland Rent All","8702 Menaul Blvd NE","87112",35.10884,-106.544981
"87112","Albuquerque","NM","Kenco Plumbing & Heating Supplies","1621 Eubank Blvd NE","87112",35.099481,-106.53341699999999
"87112","Albuquerque","NM","Rowen Plumbing","11933 Menaul Blvd NE","87112",35.10917653652162,-106.50765534985655
"87113","Albuquerque","NM","Maranatha Construction","not_available","87113",35.177398,-106.594784
"87113","Albuquerque","NM","Matheson Tri Gas","8214-8262 Washington St NE","87113",35.176123,-106.594753
"87113","Albuquerque","NM","Harrington Industrial Plastics","5311 Oakland Ave NE","87113",35.186418,-106.58522
"87113","Albuquerque","NM","Fastenal","Washington","87113",35.177559,-106.595804
"87113","Albuquerque","NM","Ewing Irrigation","8601 San Mateo Blvd NE","87113",35.18206031844329,-106.58691734075546
"87113","Albuquerque","NM","ABQ Gutter Pro, Inc.","6206 Edith Blvd NE","87107",35.14617919921875,-106.62509155273438
"87114","Albuquerque","NM","Crego Roofing","not_available","87114",35.17849166754859,-106.62913323213601
"87120","Albuquerque","NM","The Home Depot","2820 Coors Blvd NW","87120",35.114737355075455,-106.70044720172882
"87120","Albuquerque","NM","Sherwin-Williams Paint Store","2621 Coors Blvd NW","87120",35.113215,-106.703303
"87120","Albuquerque","NM","Propak","540 Gallatin Pl NW","87121",35.08841323852539,-106.72127532958984
"87120","Albuquerque","NM","Kwal Paint","6200 coors blvd","87120",35.15092785,-106.68265639
"87124","Rio Rancho","NM","minuteKEY","901 Unser Blvd. N.","87124",35.272866,-106.6969291
"87124","Rio Rancho","NM","Rio Rancho True Value","2108 Southern Blvd Se","87124",35.241054999999996,-106.69388000000001
"87301","Gallup","NM","The Home Depot","530 Kachina Street","87301",35.5294636,-108.7665044
"87301","Gallup","NM","Four Corners Welding & Gas Supply","606 E Historic Highway 66","87301",35.53030849782555,-108.73460553639966
"87301","Gallup","NM","Chainsaw City","900 E Historic Highway 66","87301",35.52987289428711,-108.73055267333984
"87301","Gallup","NM","Tractor Supply Co.","1308a Metro Ave","87301",35.53487014770508,-108.76188659667969
"87301","Gallup","NM","Alpine Lumber Co.","100-198 Historic U.S. 66","87301",35.5293083190918,-108.74311828613281
"87301","Gallup","NM","Gallup Lumber & Ace Hardware","1724 S 2nd St","87301",35.511313,-108.7386
"87301","Gallup","NM","Gurley Locksmith Service","118 Boardman Dr","87301",35.5283203125,-108.70947265625
"87301","Gallup","NM","Sherwin-Williams Paint Store","2000 E Aztec Ave","87301",35.52798843383789,-108.71318054199219
"87305","Gallup","NM","T&R Feed and Rope Center","671 N Highway 491","87305",35.6079407427378,-108.77781396560668
"87401","Farmington","NM","Ace Hardware of Farmington","3030 E Main St Ste F","87402",36.746875,-108.165751
"87401","Farmington","NM","Lowe's","5451 Pinon Hills Blvd","87402",36.77265616431216,-108.1419970002026
"87401","Farmington","NM","Diamond Vogel","not_available","87401",36.727859,-108.206566
"87401","Farmington","NM","Mobile Home Supplies","2402 East Main","87401",36.732706,-108.23953300000001
"87401","Farmington","NM","Samon's Do It Yourself Store","2600 E 20th St","87401",36.748635,-108.172472
"87401","Farmington","NM","Rayjean's Safe, Lock & Key","314 E Broadway","87401",36.728411,-108.202133
"87401","Farmington","NM","The Floor Trader","not_available","87402",36.76784896850586,-108.14546203613281
"87401","Farmington","NM","Lillywhite Stone","6401 E Main St","87402",36.776512,-108.127994
"87401","Farmington","NM","IFA Country Store","1212 San Juan Blvd","87401",36.7325553894043,-108.19146728515625
"87401","Farmington","NM","The Home Depot","3560 E Main Street","87402",36.75285414946578,-108.16009676764224
"87401","Farmington","NM","Circle W Trading","2647-2699 San Juan Blvd","87401",36.74054503440857,-108.17047158333334
"87401","Farmington","NM","Tractor Supply Co.","141 South Browning Pkwy","87401",36.73111,-108.16689
"87401","Farmington","NM","Sherwin-Williams Paint Store","2317 E Main St","87401",36.738948822021484,-108.17655944824219
"87401","Farmington","NM","NOV Tuboscope","30 Road 3351","87410",36.75884983855297,-108.06440949440002
"87401","Farmington","NM","J & T Distributing Co","550 E Animas St","87401",36.727689,-108.19418600000002
"87401","Farmington","NM","Jalu Fasteners Inc","214 W Animas St","87401",36.727427,-108.207531
"87401","Farmington","NM","Sears","4601 E Main St","87402",36.76457016,-108.14939904
"87401","Farmington","NM","Fastenal","906 San Juan Blvd","87401",36.730508,-108.196051
"87401","Farmington","NM","Atlas Copco Rental Underbalanced 537 - Closed","1215 Mission Ave.","87401",36.716766357421875,-108.22759246826172
"87401","Farmington","NM","Sherwin-Williams Paint Store","202 E Main St","87401",36.729345,-108.204122
"87410","Aztec","NM","Aztec Hardware","111 N Main Ave","87410",36.8228874206543,-107.99534606933594
"87410","Aztec","NM","ChaLa Construction, LLC","99 Road 2400","87410",36.918609619140625,-107.8753433227539
"87413","Bloomfield","NM","Ace Hardware","1947 W Broadway","87413",36.7111949,-107.98332
"87413","Bloomfield","NM","Ace Hardware","1947 W Broadway Ave","87413",36.7108154296875,-108.00106048583984
"87420","Shiprock","NM","Ace Hardware","101 Ayani' Neez Blvd S E","87420",36.66608895615704,-108.75512217313596
"87505","Santa Fe","NM","Ace Hardware of Santa Fe","2006 Cerrillos Rd Ste 1","87505",35.661892,-105.97915
"87505","Santa Fe","NM","Dunn-Edwards Paints","1407 3rd St","87505",35.665982,-105.969712
"87505","Santa Fe","NM","Matheson Tri-Gas","1600 Pacheco St","87505",35.660762786865234,-105.96026611328125
"87505","Santa Fe","NM","Empire builders","not_available","87505",35.665,-105.971632
"87505","Santa Fe","NM","Allied Electric Inc","not_available","87507",35.6394252,-105.9862836
"87505","Santa Fe","NM","Sherwin-Williams Paint Store","1905 Saint Michaels Dr","87505",35.6599898714969,-105.96922874450684
"87505","Santa Fe","NM","G L Runer Electric Inc","4091 S St Francis","87502",35.6444296,-105.9562982
"87505","Santa Fe","NM","Harbor Freight Tools","1680 Saint Michaels Dr","87505",35.65824890136719,-105.97355651855469
"87506","Santa Fe","NM","Pojoaque Supermarket","not_available","87506",35.883252689052235,-106.01138017596881
"87506","Santa Fe","NM","Morrison Supply","1133 Siler Rd","87507",35.662086,-105.9958022
"87506","Santa Fe","NM","Pojoaque True Value","5 W Gutierrez","87506",35.883807,-106.01246100000002
"87506","Santa Fe","NM","Big Jo True Value Hardware","1311 Siler Rd","87507",35.657078000000006,-105.990388
"87506","Santa Fe","NM","minuteKEY","3251 Cerrillos Rd","87507",35.65271759033203,-105.99932861328125
"87506","Santa Fe","NM","Ferguson Plumbing Supply","1241 Siler Rd","87507",35.658929,-105.99290800000001
"87507","Santa Fe","NM","The Home Depot","952 Richards Ave","87507",35.6519121,-106.00333
"87507","Santa Fe","NM","Lowe's","3458 Zafarano Road","87507",35.6436826,-106.0149007
"87507","Santa Fe","NM","Tractor Supply Co.","3901 Oliver Rd","87507",35.63331,-106.06743
"87507","Santa Fe","NM","Chaparral Materials Inc","5946 Agua Fria Road","87507",35.63789471,-106.05515278
"87507","Santa Fe","NM","minuteKEY","3458 Zafarano Dr","87507",35.64387130737305,-106.0149917602539
"87507","Santa Fe","NM","Ewing Irrigation","20 Bisbee Ct","87508",35.596266,-106.041578
"87508","Santa Fe","NM","Eldorado True Value","7 Caliente Rd","87508",35.53634262084961,-105.89036560058594
"87520","Chama","NM","Lowe's Family Center #18","2451 S Highway 84-64","87520",36.883062,-106.58956
"87528","Dulce","NM","Jicarilla True Value","Hawks Dr And Us 64","87528",36.933968,-106.988832
"87529","El Prado","NM","Taos Restore","not_available","87571",36.458928,-105.59809
"87529","El Prado","NM","Chamisa Feed","1-17 New Mexico 150","87529",36.45919490348846,-105.59494290450134
"87532","Espanola","NM","Lowe's","407 Lowder Milk Rd","87532",36.0133656,-106.0671408
"87532","Espanola","NM","Cook's Home Center","518 N Paseo De Onate","87532",35.997866454790476,-106.08441352844238
"87532","Espanola","NM","Hacienda Home Center (Do It Brst)","not_available","87532",35.98726696718081,-106.06590940431387
"87532","Espanola","NM","Cooks True Value Hardware","518 Paseo De Onate","87532",35.99063187,-106.0803999
"87532","Espanola","NM","Ferreteria Canales","Carretera Tela- Ceiba","87566",36.0528006,-106.0705788
"87544","Los Alamos","NM","Metzger's Hardware","1607 Central Ave","87544",35.88089686266161,-106.29931210368977
"87544","Los Alamos","NM","Los Alamos Hme Imprvmt Co","232 Dp Rd","87544",35.8763,-106.273
"87551","Los Ojos","NM","Henrys True Value Hardware","17342 State Hwy 84 N","87575",36.712004202161566,-106.55973009153735
"87557","Ranchos De Taos","NM","Sears","1046 Paseo Del Pueblo","87571",36.3831592680656,-105.58866889790806
"87557","Ranchos De Taos","NM","Ace Hardware","223 Paseo Del Pueblo Sur.","87571",36.3780199,-105.58685
"87557","Ranchos De Taos","NM","Rio Grande Ace Hardware","1381 S Santa Fe Highway 68","87571",36.3722259,-105.59486
"87571","Taos","NM","Ace Hardware","1381 S Santa Fe Hwy 68","87571",36.40367721030757,-105.57470244771969
"87571","Taos","NM","Randall Lumber & Hardware","315 Paseo Del Pueblo Sur","87571",36.4014374,-105.5751954
"87701","Las Vegas","NM","Tractor Supply Co.","29 Nm Hwy 518","87701",35.630325,-105.227202
"87701","Las Vegas","NM","BTU Do It Best","not_available","87701",35.594608,-105.216849
"87701","Las Vegas","NM","Pat Romero Feed & Supply True Value","406 Pecos St","87701",35.59239196777344,-105.21125793457031
"87701","Las Vegas","NM","minuteKEY","2609 7th St","87701",35.61955642700195,-105.22742462158203
"87710","Angel Fire","NM","Mountain Supply True Value","3429 Mountain View Blvd","87710",36.400325775146484,-105.28889465332031
"87740","Raton","NM","Tractor Supply Co.","101 York Canyon Rd","87740",36.866627,-104.441354
"87740","Raton","NM","Records Hardware","1124 S 2nd St","87740",36.901715,-104.43974
"87747","Springer","NM","Hardware Store","not_available","87747",36.35722,-104.598823
"87801","Socorro","NM","R & K Enterprises Inc","701 N California St","87801",34.063579,-106.892946
"87801","Socorro","NM","Acosta Equipment Inc.","155 NW Frontage Rd","87831",34.253265380859375,-106.9102554321289
"87801","Socorro","NM","SOCORRO TRUE VALUE","105 MANZANARES NW","87801",34.05751037597656,-106.89222717285156
"87825","Magdalena","NM","Tractor Supply Co.","1100 State Road 1","87801",33.71295928955078,-107.03376007080078
"87901","Truth Or Consequences","NM","Lakeside True Value Hardware","400 E Smith Ave","87901",33.149709,-107.24332199999999
"87901","Truth Or Consequences","NM","Foxworth-Galbraith Home Improvement Center","160 New School Rd","87901",33.14955286850596,-107.24929690361023
"87901","Truth Or Consequences","NM","Do it Best Sun Valley Hardware","not_available","87901",33.14894803564329,-107.2433987201502
"87901","Truth Or Consequences","NM","Tractor Supply Company","499 S Broadway St","87901",33.128018,-107.261095
"87901","Truth Or Consequences","NM","Sun Valley Hardware #5","400 E Smith","87901",33.15007386217627,-107.2456705570221
"88001","Las Cruces","NM","The Home Depot","225 Telshor Blvd","88011",32.3186059,-106.7464876
"88001","Las Cruces","NM","Lowe's","3200 North Main Street","88001",32.3438499,-106.7717356
"88001","Las Cruces","NM","Harbor Freight Tools","150 W Picacho Ave","88005",32.316939,-106.781529
"88001","Las Cruces","NM","minuteKEY","3200 N Main St","88001",32.34333038330078,-106.7717056274414
"88001","Las Cruces","NM","Sutherlands","not_available","88001",32.302126,-106.775369
"88001","Las Cruces","NM","SUN VALLEY HARDWARE #3","3567 SOUTH MAIN STREET","88047",32.27305603027344,-106.7643051147461
"88001","Las Cruces","NM","McCoy's Building Supply","1856 S Valley Dr","88005",32.286226398158234,-106.77971277240466
"88001","Las Cruces","NM","Ferguson Plumbing Supply","139 Wyatt Dr","88005",32.300127,-106.77623999999999
"88001","Las Cruces","NM","Argyle Weldding Supply","550 N Telshor Blvd","88011",32.3257577419281,-106.75277709960938
"88001","Las Cruces","NM","Las Cruces WeatherKing Portables","1501 S Valley Dr","88005",32.291896,-106.78391
"88001","Las Cruces","NM","Dunn-Edwards Paints","2301 E Lohman Ave","88001",32.31329345703125,-106.75335693359375
"88001","Las Cruces","NM","Sears","700 S Telshor Blvd","88011",32.31239216,-106.74423349
"88001","Las Cruces","NM","Intergrity Max Locksmiths","1750 E Lohman Ave Unit A","88001",32.309486,-106.760534
"88001","Las Cruces","NM","Sherwin-Williams Paint Store","1400 N Solano Dr","88001",32.32273864746094,-106.77354431152344
"88001","Las Cruces","NM","Metal Depot","not_available","88005",32.302731,-106.78654099999999
"88001","Las Cruces","NM","Sherwin-Williams Paint Store","1681 E Lohman Ave","88001",32.310143,-106.761196
"88001","Las Cruces","NM","Samons","1250 El Paseo Rd","88001",32.297714,-106.773381
"88001","Las Cruces","NM","VAQUERO FENCE CO.","2305 Montana Ave","88001",32.30014,-106.74683
"88001","Las Cruces","NM","Haydens Hardware","1210 Foster Rd","88001",32.297626,-106.76196599999999
"88002","White Sands Missile Range","NM","WSTF Machine Shop","100 Area","88012",32.507449,-106.611406
"88005","Las Cruces","NM","L&P Building Supply","350 Archuleta Rd, Las Cruces, NM 88005","88005",32.305274963378906,-106.79611206054688
"88005","Las Cruces","NM","WINNELSON COMPANY","1844 Amador","not_available",32.30057716369629,-106.80305778980255
"88005","Las Cruces","NM","Johnston's Ace Hardware","1002 W Picacho Ave","88005",32.314408,-106.7928
"88005","Las Cruces","NM","RTD Hardware","4501 N Valley Dr","88007",32.35902786254883,-106.82322692871094
"88005","Las Cruces","NM","Purvis Industries","310 Southgate Ct #1","88005",32.29821,-106.80683
"88007","Las Cruces","NM","Tractor Supply Co.","1440 West Picacho Ave","88005",32.313077,-106.797942
"88007","Las Cruces","NM","Chaparral Materials Inc","451 Pioneer Place","88005",32.3013036,-106.79660775
"88007","Las Cruces","NM","Ewing Irrigation","2341 Westgate Ct","88005",32.2982,-106.808314
"88007","Las Cruces","NM","Morrison Supply","291 S. 17th St.","88005",32.30218752098231,-106.80108904838562
"88008","Santa Teresa","NM","Lowe's","430 East Redd Road","79912",31.861958,-106.5726474
"88008","Santa Teresa","NM","The Home Depot","7545 N Mesa St","79912",31.835826014406017,-106.56420352814598
"88008","Santa Teresa","NM","Dunn-Edwards Paints","7930 N Mesa St #A5","79932",31.841181,-106.573361
"88008","Santa Teresa","NM","minuteKEY","7555 N Mesa St","79912",31.836163,-106.565288
"88008","Santa Teresa","NM","Lighting Gallery","5375 S Desert Blvd","79932",31.85387,-106.576051
"88008","Santa Teresa","NM","Tractor Supply Co.","6869 South Desert Blvd Ste 500","79932",31.905254,-106.58434
"88008","Santa Teresa","NM","Earth Organics","123 Sun Season Rd","88008",31.84502410888672,-106.65213012695312
"88008","Santa Teresa","NM","minuteKEY","430 E Redd Rd","79912",31.86194,-106.57251799999999
"88008","Santa Teresa","NM","minuteKEY","101 E. Redd Rd.","79932",31.861921310424805,-106.58683776855469
"88008","Santa Teresa","NM","Duke Gale Insulation","7960 Artcraft Rd","79932",31.88121795654297,-106.58638763427734
"88008","Santa Teresa","NM","Steel","not_available","79922",31.83285140991211,-106.56947326660156
"88020","Animas","NM","Tractor Supply Company","350 N Ocotillo St","85602",31.920183181762695,-108.9749526977539
"88021","Anthony","NM","Baron's Supply","8210 Doniphan","79821",31.968597,-106.603983
"88021","Anthony","NM","True Value Canutillo","7310 Doniphan Dr","79835",31.92480955417413,-106.60077510692798
"88021","Anthony","NM","Ace Hardware","7181 Doniphan Dr","79835",31.91844855550261,-106.60077897706834
"88021","Anthony","NM","Pwi #675","1715 Vado Rd","88072",32.1250883035206,-106.641358750142
"88021","Anthony","NM","Ferguson Bath, Kitchen & Lighting Gallery","820 Sunland Park Dr","79912",31.81808157390902,-106.55441636540246
"88030","Deming","NM","Sun Valley Hardware","1700 Columbus Hwy","88030",32.25156255131913,-107.75183821048773
"88030","Deming","NM","Foxworth-Galbraith Lumber Co.","115 N Pearl St","88030",32.270525,-107.752053
"88030","Deming","NM","Sun Valley Hardware #2","1700 Columbus Rd","88030",32.25145,-107.752074
"88030","Deming","NM","Tractor Supply Co.","414 East Pine St","88030",32.268469,-107.754081
"88030","Deming","NM","Hardware Store","1700 S Gold Ave","88030",32.25155258178711,-107.75790405273438
"88061","Silver City","NM","Sherwin-Williams Paint Store","1316 Silver Heights Blvd","88061",32.77931213378906,-108.2747802734375
"88061","Silver City","NM","Tractor Supply Co.","2707 Hwy 180 East","88061",32.788013,-108.2449
"88061","Silver City","NM","Sears","1310 Silver Heights Boulevard","88061",32.7791648,-108.2747504
"88061","Silver City","NM","Sun Valley Hardware #5","1401 Silver Heights Blvd","88061",32.780159999999995,-108.274976
"88061","Silver City","NM","Foxworth Galbraith","2850 Silver Heights Blvd","88061",32.78597264828363,-108.24542952308732
"88061","Silver City","NM","Ace Hardware","3025 Highway 180 E","88061",32.7871999,-108.24469
"88061","Silver City","NM","Sears","1300 Silver Heights Blvd","88061",32.778903,-108.274859
"88063","Sunland Park","NM","Harbor Freight Tools","6015 N Mesa St","79912",31.829285,-106.529176
"88063","Sunland Park","NM","Ferguson Plumbing Supply","6323 N Mesa St","79912",31.832136154174805,-106.53507995605469
"88063","Sunland Park","NM","Sherwin-Williams Paint Store","6950 N Mesa St","79912",31.836233139038086,-106.54930114746094
"88101","Clovis","NM","Lowe's","3601 North Prince Street","88101",34.4349629,-103.1949522
"88101","Clovis","NM","Triple M Electric","not_available","88101",34.41,-103.2
"88101","Clovis","NM","Western Equipment","5800 Mabry Drive","88101",34.394819,-103.130835
"88101","Clovis","NM","Tractor Supply Co.","4724 North Prince St","88101",34.445915,-103.19739
"88101","Clovis","NM","Burns Hardware","2400 Prince St","not_available",34.421775,-103.197174
"88101","Clovis","NM","Johnson Lumber","1904 W 7th St","88101",34.40516662597656,-103.22816467285156
"88101","Clovis","NM","Ace Hardware","2400 N Prince St","88101",34.422401428222656,-103.19705200195312
"88101","Clovis","NM","Sherwin-Williams Paint Store","3220 N Prince St","88101",34.43133699162854,-103.1971549987793
"88101","Clovis","NM","minuteKEY","3601 N Prince St","88101",34.43507385253906,-103.19491577148438
"88101","Clovis","NM","Nick Griego & Sons Construction Inc","1155 W Kimberly Ln","88101",34.3757453,-103.1965677
"88130","Portales","NM","Ace Hardware & Home Center","1300 S Avenue D","88130",34.1773,-103.3378
"88130","Portales","NM","Ace Hardware","227 S Main Ave","88130",34.18551254272461,-103.3355712890625
"88130","Portales","NM","Bob A Lou Plumbing","not_available","88130",34.184255,-103.338563
"88201","Roswell","NM","Tractor Supply Co.","5000 North Main St","88201",33.456852,-104.52425
"88201","Roswell","NM","Roswell Seed Company Inc.","115 S Main St","88203",33.39250699364384,-104.52245672681123
"88201","Roswell","NM","Mayes Lumber Co Inc","115 S Virginia Ave","88203",33.392311096191406,-104.52071380615234
"88201","Roswell","NM","Smith Paint Co Inc","1608 S Main St","88203",33.37371,-104.52349
"88201","Roswell","NM","The Home Depot","2350 N Main St","88201",33.4213782,-104.5248311
"88201","Roswell","NM","Ferguson","605 N Virginia St","88201",33.39949035644531,-104.5206527709961
"88201","Roswell","NM","ROSWELL LIVESTOCK FARM SPLY TV","1105 E 2nd St","88201",33.394683837890625,-104.50727844238281
"88201","Roswell","NM","roswell lumber","not_available","88203",33.39116544532766,-104.52314502993701
"88201","Roswell","NM","Alpha Building Materials","6367 Clovis Hwy","88201",33.48805031310452,-104.49990098934326
"88201","Roswell","NM","Sherwin-Williams Paint Store","1720 S Main St","88203",33.371359999999996,-104.523801
"88201","Roswell","NM","Westlake Ace Hardware 506","2810 D N Main St","88201",33.4286049,-104.52302
"88201","Roswell","NM","Roswell Rental","116 E College Blvd","88201",33.408348083496094,-104.52145385742188
"88201","Roswell","NM","Fastenal","not_available","88201",33.415464882795426,-104.5176557583147
"88203","Roswell","NM","Fastenal","Aberdeen Rd","not_available",33.054595947265625,-104.00933074951172
"88210","Artesia","NM","Sherwin-Williams Paint Store","412 W Quay Ave","88210",32.84138237134382,-104.40171360969543
"88210","Artesia","NM","Wolseley Industrial Group","1412 S 1st St","88210",32.8262825012207,-104.39602661132812
"88210","Artesia","NM","Tractor Supply","2793 North 1st Street","88210",32.87135825,-104.4011088
"88210","Artesia","NM","do it center","not_available","88210",32.84207537758387,-104.4188322886663
"88220","Carlsbad","NM","Lowe's","2519 West Pierce Street","88220",32.4425868,-104.262181
"88220","Carlsbad","NM","Sears","609 S Canyon, Suite A","88220",32.414099,-104.22813599999999
"88220","Carlsbad","NM","bes supply store","not_available","88220",32.378544911774235,-104.20377658066383
"88220","Carlsbad","NM","Morrison Supply","2710 W Pierce St","88220",32.44594070824217,-104.26173046992511
"88220","Carlsbad","NM","Sherwin-Williams Paint Store","1301 W Pierce St","88220",32.435375,-104.24393
"88220","Carlsbad","NM","EZ Rentals","402 S Canyon","88220",32.4175,-104.22972222222222
"88220","Carlsbad","NM","Tractor Supply Co.","3127 National Parks Hwy Ste A","88220",32.386846000000006,-104.221775
"88220","Carlsbad","NM","Carlsbad Small Engine","2312 W Church St","88220",32.429109000000004,-104.25553599999999
"88231","Eunice","NM","Eunice Cardinal Hardware & Lumber","Main St, Eunice, NM 88231","88231",32.44085895087966,-103.16088697655917
"88240","Hobbs","NM","The Home Depot","900 W Joe Harvey Blvd","88240",32.7415052,-103.1459102
"88240","Hobbs","NM","Lowe's","1510 West Joe Harvey Boulevard","88240",32.7420741,-103.1540306
"88240","Hobbs","NM","Wolseley Industrial Group","1628 S Dal Paso","88240",32.68552955481973,-103.12852263450623
"88240","Hobbs","NM","Higginboth-Bartlett Co.","600 E Bender Blvd","88240",32.726104736328125,-103.13053131103516
"88240","Hobbs","NM","All Water Systems, Your Local 3M Authorized Water Dealer","1120 N Grimes St","88240",32.71181106567383,-103.14451599121094
"88240","Hobbs","NM","Sherwin-Williams Paint Store","1610 N Dal Paso St","88240",32.71746826171875,-103.12712860107422
"88240","Hobbs","NM","Lobo Nut & Bolt Inc","708 W Marland St.","88240",32.696893,-103.144217
"88240","Hobbs","NM","Harbor Freight","not_available","88240",32.72085,-103.14082
"88240","Hobbs","NM","Tractor Supply Co.","201 East Navajo Dr","88240",32.739422999999995,-103.135273
"88240","Hobbs","NM","Pro-Treat Power Equipment","3419 Industrial Dr","88240",32.737092,-103.1594843
"88240","Hobbs","NM","Hoses & More","403 N Grimes St","88240",32.7041068,-103.1450837
"88240","Hobbs","NM","Sears","405 E. Navajo","88240",32.7398615,-103.1328483
"88252","Jal","NM","CK Supply","518 S 3rd Street","88252",32.1075716,-103.1936654
"88260","Lovington","NM","Blue Rhino","906 W Avenue D","88260",32.94483947753906,-103.36109924316406
"88260","Lovington","NM","Higginbotham Bartlett","214 N Main Ave","88260",32.949969,-103.348
"88301","Carrizozo","NM","LINCOLN COUNTY MERCANTILE LLC","108 E SMOKEY BEAR BLVD","88316",33.54566192626953,-105.57257080078125
"88310","Alamogordo","NM","The Home Depot","3400 N White Sand Blvd","88310",32.9328437,-105.9616477
"88310","Alamogordo","NM","Tractor Supply Co.","2900 North White Sands Blvd","88310",32.925071716308594,-105.95853424072266
"88310","Alamogordo","NM","Samons","not_available","88310",32.88443185,-105.99562874
"88310","Alamogordo","NM","Morrison Supply","406 Fairgrounds Rd","88310",32.92610850823215,-105.95784752513123
"88310","Alamogordo","NM","CE Self Help Center","not_available","88330",32.8399073,-106.08469723333333
"88310","Alamogordo","NM","Sherwin-Williams Paint Store","822 New York Ave","88310",32.898362481374384,-105.95877885818481
"88310","Alamogordo","NM","Septic Pros NM","3030 Del Prado","88310",32.9074,-105.92056
"88310","Alamogordo","NM","Foxworth-Galbraith","2318 N White Sands Blvd","88310",32.91880706438589,-105.95943347788642
"88310","Alamogordo","NM","Blankenship Tommy Sand & Gravel","177 Griffin Rd","88337",32.990012,-105.959853
"88310","Alamogordo","NM","New Village Hardware","not_available","88339",32.95721,-105.74482
"88310","Alamogordo","NM","Western Ace Hardware","412 9th St","88310",32.898216247558594,-105.95733642578125
"88310","Alamogordo","NM","Lowe's","4201 North Scenic Dr","88310",32.9352333,-105.9628549
"88310","Alamogordo","NM","New Valley Hardware","200 James Canyon Hwy","not_available",32.9490338151352,-105.74768738202063
"88310","Alamogordo","NM","DeWitt Pest Control Services","1508 10th St","88310",32.899645,-105.94169
"88312","Alto","NM","Ruidoso True Value","1013 Mechem Dr","88345",33.35576757,-105.6667793
"88340","Mescalero","NM","Foxworth-galbraith","not_available","88345",33.324882,-105.625767
"88340","Mescalero","NM","Sears","26142 US Highway 70","88346",33.325233,-105.622502
"88340","Mescalero","NM","Ferguson Plumbing Supply","353 Sudderth Dr","88345",33.3226323043503,-105.63672190973
"88340","Mescalero","NM","Village Ace Hardware","2815 Sudderth Dr","88345",33.333456,-105.680776
"88340","Mescalero","NM","Sherwin-Williams Paint Store","134 Sudderth Dr","88345",33.324363,-105.62788400000001
"88352","Tularosa","NM","Western True Value #2","300 Granado St","88352",33.07283,-106.01658
"88401","Tucumcari","NM","Tractor Supply Co.","1401 East Rte 66 Blvd","88401",35.17241390150751,-103.70925307273865
"88401","Tucumcari","NM","Burn's Hardware Do-It Center","612 E Route 66 Blvd","88401",35.17161178588867,-103.71925354003906
"88401","Tucumcari","NM","Tucumcari Lumber True Value","221 S 1st St","88401",35.177305,-103.725372
"88401","Tucumcari","NM","Tucumcari Ranch Supply","502 South Lake","88401",35.174516483333335,-103.71184728333333
"88401","Tucumcari","NM","Lowes Family Center","512 S 2nd St","88401",35.174396,-103.725809
"88415","Clayton","NM","Isaacs True Value Hardware","22 Main St","88415",36.451411,-103.184275
"88435","Santa Rosa","NM","True Value Hardware","101 Parker Ave","88435",34.9402,-104.68984
"88435","Santa Rosa","NM","RER Redi-Mix Inc","1261 Rivera Rd","88435",34.95354080200195,-104.71987915039062
