"zip","city","state","name","address","postalCode","lat","lon"
"99501","Anchorage","AK","The Home Depot","400 Rodeo Place","99508",61.2180694,-149.8147064
"99501","Anchorage","AK","Browns Electric Warehouse","not_available","not_available",61.22293199999999,-149.85603500000002
"99501","Anchorage","AK","U-fix-it","not_available","99506",61.236232073288775,-149.82760196532445
"99501","Anchorage","AK","AIH","not_available","99501",61.22171847747401,-149.83059166173365
"99501","Anchorage","AK","Alaska Industrial Hardware","2716 Commercial Dr","99501",61.22189399999999,-149.82991
"99501","Anchorage","AK","SPI Urethane Contractors Supply And Consulting","1425 Spar Ave","99501",61.223006,-149.854696
"99501","Anchorage","AK","GTS Interior Supply","135 North Post Road","99501",61.222671,-149.857775
"99501","Anchorage","AK","SBS Distribution Center","790 Ocean Dock Rd","99501",61.22747039794922,-149.8907470703125
"99501","Anchorage","AK","Sherwin-Williams Commercial Paint Store","245 Post Rd","99501",61.21964709395701,-149.8585420846939
"99502","Anchorage","AK","Ace Hardware","not_available","99502",61.138783,-149.950675
"99502","Anchorage","AK","Spenard Builders Supply","4600 Lois Drive","99517",61.18032731187146,-149.91449200004323
"99502","Anchorage","AK","Alaskan Sales","4041 Old International Airport Rd","99502",61.17459100000001,-149.962248
"99502","Anchorage","AK","ANCHORAGE TRUE VALUE HARDWARE","9001 Jewel Lake Rd #5","99502",61.139305114746094,-149.95188903808594
"99502","Anchorage","AK","Alaska Supreme Painting","1740 W 99th Ave","99515",61.131672,-149.911606
"99502","Anchorage","AK","Alaska Farm & Garden","1306 Chugach Way","99503",61.187002,-149.908266
"99502","Anchorage","AK","HOTMUD INC","2908 W 31st Ave","99517",61.19226,-149.938302
"99503","Anchorage","AK","The Home Depot","515 E Tudor Rd","99503",61.1829552,-149.8740411
"99503","Anchorage","AK","Lowe's","333 East Tudor Road","99503",61.1815809,-149.8791404
"99503","Anchorage","AK","Willow True Value Hardware","30988 W Parks Hwy","99688",61.734827,-150.040245
"99503","Anchorage","AK","Rodda Paint","4970 Fairbanks St","99503",61.175691,-149.873861
"99503","Anchorage","AK","Alaska Bearing Corp.","350 E Intl Airport Rd","99518",61.173316,-149.876179
"99503","Anchorage","AK","Habitat For Humanity Restore","5023 Cordova St","99503",61.174852331973,-149.87821891403007
"99503","Anchorage","AK","Hayden Electric Motors","not_available","99503",61.182998,-149.867339
"99503","Anchorage","AK","Arctic Restoration","401 W Intl Airport Rd Ste 12","99518",61.17466354370117,-149.89193725585938
"99503","Anchorage","AK","Habitat For Humanity Restore","1200 W Norther Lights Blvd","99503",61.194744,-149.907098
"99503","Anchorage","AK","The Parker Store","360 E Intl Airport Rd #12","99518",61.17314147949219,-149.87525939941406
"99503","Anchorage","AK","Fasteners","123 E Intl Airport Rd","99518",61.17395782470703,-149.88186645507812
"99503","Anchorage","AK","Sherwin-Williams Paint Store","401 W Intl Airport Rd","99518",61.174625,-149.891203
"99503","Anchorage","AK","Alaska Tent And Tarp","not_available","99504",61.17324,-149.882698
"99504","Anchorage","AK","Lowe's","1200 North Muldoon","99504",61.2300807,-149.7463525
"99504","Anchorage","AK","Andy's Ace Hardware","240 Muldoon Rd","99504",61.2216409,-149.7335
"99505","Jber","AK","North Side Home Depot","not_available","99577",61.2940788788772,-149.56731445598643
"99505","Jber","AK","U-FIX-IT BLDG 706","not_available","99505",61.257238,-149.707654
"99507","Anchorage","AK","The Home Depot","1715 Abbott Road","99507",61.1437616,-149.8437027
"99507","Anchorage","AK","Alaska Lighting & Supply","1450 E Tudor Rd","99507",61.180266,-149.85381999999998
"99507","Anchorage","AK","Uresco","not_available","99515",61.104656,-149.859416
"99507","Anchorage","AK","Snap On South Anchorage","2601 Mona Ave","99516",61.117911,-149.833489
"99507","Anchorage","AK","Southside Garden Supply","12870 Old Seward Hwy #114","99515",61.1036109924316,-149.859329223633
"99507","Anchorage","AK","Sherwin-Williams Paint Store","9000 Lake Otis Pkwy","99507",61.139263,-149.834447
"99507","Anchorage","AK","Alaska Specialty Equipment","6511 Brayton Dr","99507",61.161814,-149.854474
"99515","Anchorage","AK","Lowe's","10900 Old Seward Highway","99515",61.1212166,-149.8663543
"99515","Anchorage","AK","Ferguson Bath, Kitchen & Lighting Gallery","151 W 95th Circle","99515",61.135387,-149.880977
"99515","Anchorage","AK","Anchorage, Alaska","300 East Dimond Boulevard","99515",61.14440573,-149.8757702
"99518","Anchorage","AK","Alaska Industrial Hardware","5655 Old Seward Hwy","99518",61.169525,-149.866062
"99518","Anchorage","AK","Unistrut Alaska","611 Raspberry Rd","99518",61.16015220627784,-149.89035123843985
"99518","Anchorage","AK","Curtis And Campbell","not_available","99518",61.163914,-149.883381
"99518","Anchorage","AK","The Cronin Company","7120 Old Seward Hwy #101","99518",61.155891,-149.865355
"99518","Anchorage","AK","Alaska Rubber & Rigging Supply","1885 E Van Horn Road","99701",61.16803,-149.86695500000002
"99518","Anchorage","AK","Alaska Abatement Corporation","520 W 58th Ave","99518",61.16887648704261,-149.8925256729126
"99518","Anchorage","AK","Gexpro","501 W 58th Ave # B","99518",61.169504,-149.89134199999998
"99518","Anchorage","AK","Hardware Specialties Inc","424 W 54th Ave","99518",61.171395999999994,-149.890816
"99518","Anchorage","AK","All Pro Alaska","380 East 54th Avenue","99518",61.171712,-149.876145
"99518","Anchorage","AK","Bailey's Rent All Inc","6871 Old Seward Hwy","99518",61.158425,-149.863392
"99519","Anchorage","AK","BROOKS RANGE SUPPLY INC.","1 OLD SPINE RD","99734",70.20880126953125,-148.4056854248047
"99559","Bethel","AK","Btp, Llc","830 River St","99559",60.79279239,-161.7816495
"99559","Bethel","AK","BTP, LLC","830 RIVER STREET","99559",60.791568756103516,-161.75389099121094
"99574","Cordova","AK","Ace Hardware","1/2 Mile Airport Road","99686",60.895044,-146.195628
"99574","Cordova","AK","Ace Hardware Cordova","500 Water Street #1456","99574",60.544626,-145.7603
"99574","Cordova","AK","Harris Sand & Gravel Ace","260 Airport Road","99686",61.075,-146.12899
"99574","Cordova","AK","Seaman's True Value Hardware","516 First St","99574",60.54524151,-145.7611629
"99576","Dillingham","AK","Ace Hardware","429 2nd Ave W","99576",59.04493508920909,-158.5008294743783
"99576","Dillingham","AK","N & N Property, Llc","Po Box 10 219 Main Street","99576",59.03897292,-158.4653994
"99576","Dillingham","AK","L & M Supplies","429 2nd Ave W Suite 550","99576",59.040308,-158.46303
"99577","Eagle River","AK","Alaska Industrial Hardware ( AIH )","12330 Old Glenn Hwy","99503",61.331913,-149.56673700000002
"99577","Eagle River","AK","Alaska Industrial Hardware","12330 Old Glenn Hwy","99577",61.332232,-149.566342
"99588","Glennallen","AK","GLENNALLEN TRUE VALUE","PO Box 729","99588",62.10770797729492,-145.58865356445312
"99588","Glennallen","AK","Glennallen Building Supply","Mile 185 Glenn Hwy","99588",62.106965,-145.606215
"99588","Glennallen","AK","Glennallen","Mile 185 Glenn Hwy Po Box 729","99588",62.106965,-145.606215
"99603","Homer","AK","Ulmers Drug & Hardware","3858 Lake St","99603",59.64673077,-151.5237861
"99603","Homer","AK","Spenard Builders Supply - Homer","not_available","99603",59.64765996177322,-151.5264706225285
"99610","Kasilof","AK","Spenard Builder's Supply","48855 Funny River Rd","99669",60.474175,-151.081851
"99610","Kasilof","AK","Soldotna Trustworthy Hardware","44648 Sterling Hwy","99669",60.47982217108461,-151.07708772136385
"99611","Kenai","AK","The Home Depot","10480 Spur Highway","99611",60.5615605,-151.237765
"99611","Kenai","AK","Blue Rhino","10575 Kenai Spur Hwy","99611",60.558014,-151.237327
"99611","Kenai","AK","Airgas","not_available","99611",60.59468,-151.332332
"99611","Kenai","AK","Ron's Rent It Center Inc","145 N Willow St","99611",60.561748,-151.248897
"99611","Kenai","AK","Ferguson Plumbing Supply","42701B Kalifornsky Beach Rd","99669",60.487777,-151.058333
"99611","Kenai","AK","Sherwin-Williams Paint Store","35444 Kenai Spur Hwy","99669",60.48892176518811,-151.06308460235596
"99611","Kenai","AK","Beemun's Variety And True Value","35277 Kenai Spur Rd","99669",60.49180379147016,-151.066399642494
"99612","King Cove","AK","Gould's True Value","7 Heart Lake Dr","99612",55.06461,-162.30702
"99613","King Salmon","AK","Naknek Trading Company","100 Peninsula Highway","99633",58.74061,-156.88711
"99615","Kodiak","AK","Sutliff's True Value Hardware","210 Shelikof St","99615",57.78855009999999,-152.4095083
"99645","Palmer","AK","Lowe's","2561 East Sun Mountain Avenue","99654",61.5731555,-149.3844193
"99645","Palmer","AK","Alaska pacific rental llc","1111 Glenn Hwy","99645",61.595374600213724,-149.12175040212466
"99645","Palmer","AK","Ferguson Plumbing Supply","3100 E Palmer Wasilla Hwy","99654",61.58425521850586,-149.37216186523438
"99645","Palmer","AK","Jackovich Industrial Supply","not_available","99654",61.56945380394322,-149.2641820220157
"99645","Palmer","AK","Palmer Machinery","not_available","99645",61.593106000000006,-149.11128100000002
"99645","Palmer","AK","Sears","1000 S Seward Meridian Pkwy","99654",61.57274554,-149.36197395
"99645","Palmer","AK","Builders Bargains","1910 S Terrace Ct","99645",61.562124,-149.287606
"99645","Palmer","AK","Hard rok plumbing & heating llc","4740 E Fattic Dr","99654",61.585473,-149.330841
"99654","Wasilla","AK","The Home Depot","1255 Palmer Wasilla Hwy","99654",61.5757141,-149.4183406
"99654","Wasilla","AK","Blue Rhino","3950 S Knik Goose Bay Rd","99623",61.536529541015625,-149.58287048339844
"99654","Wasilla","AK","Arctic True Value","7877 Douglas Lane","99623",61.5055599286734,-149.646362463012
"99654","Wasilla","AK","Sherwin-Williams Paint Store","595 E Swanson Ave","99654",61.58351700000001,-149.435912
"99664","Seward","AK","Bay Traders True Value","1303 4th Ave","99664",60.117189,-149.440643
"99664","Seward","AK","The Fish House","not_available","99664",60.11728203692326,-149.44009005774384
"99664","Seward","AK","Seward Ship's Ace Hardware and Marine","1714 Leirer Rd","99664",60.1216999,-149.43899
"99676","Talkeetna","AK","Moores True Value Hardware","39124 S Talkeetna Spur Rd","99676",62.13691,-150.035443
"99685","Unalaska","AK","UNALASKA BUILDING SPLY T V","1253 E BROADWAY","99685",53.86436080932617,-166.50762939453125
"99685","Unalaska","AK","Alaska Ship Supply","487 Salmon Way","99692",53.8821,-166.55
"99689","Yakutat","AK","YAKUTAT TRUE VALUE HDW","1200 MALLOTT AVE","99689",59.562782287597656,-139.73995971679688
"99701","Fairbanks","AK","The Home Depot","1301 Old Steese Hwy","99701",64.8573651,-147.6832715
"99701","Fairbanks","AK","Lowe's","425 Merhar Avenue","99701",64.8567419,-147.6955402
"99701","Fairbanks","AK","Spenard Builders Supply","not_available","99701",64.847183,-147.774812
"99701","Fairbanks","AK","Alaska Industrial Hardware","2951 Airport Way","99709",64.83594699999999,-147.787655
"99701","Fairbanks","AK","Ferguson Plumbing Supply","3105 Industrial Ave","99701",64.819642,-147.754025
"99701","Fairbanks","AK","Samson True Value Hardware","1988 Phillips Field Rd","99701-2707",64.8464662,-147.7636805
"99701","Fairbanks","AK","Fairbanks Paint & Glass","1620 S Cushman St","99701",64.83255,-147.71718
"99701","Fairbanks","AK","Crescent Electric Supply Company","1179 Van Horn Rd","99701",64.81261211560147,-147.72866826593219
"99701","Fairbanks","AK","Sherwin-Williams Paint Store","2177 Van Horn Rd","99701",64.81272888183594,-147.76968383789062
"99701","Fairbanks","AK","Brown's Electrical Supply Co., Inc","35114 College Road","99709",64.862605,-147.756382
"99701","Fairbanks","AK","Denali Industrial Supply","1499 Van Horn Rd","99701",64.812539,-147.739513
"99701","Fairbanks","AK","Arctic Fire and Safety","702 30th ave","not_available",64.818907,-147.717394
"99701","Fairbanks","AK","K Supply","not_available","99709",64.8419299,-147.77791960000002
"99705","North Pole","AK","Trocup of Alaska","2519 Lisa Ann Dr","99705",64.79732513427734,-147.3914794921875
"99705","North Pole","AK","Wagner State Roofing","425 Steamboat Landing Rd","99705",64.84798431396484,-147.33567810058594
"99705","North Pole","AK","Sentry Hardware","not_available","99705",64.7579403508772,-147.35604096005622
"99712","Fairbanks","AK","Bob's Fix-It","Chena Hot Springs Road","not_available",64.87181701977815,-147.05120050200432
"99737","Delta Junction","AK","Delta Industial Services","not_available","99737",64.03118320260859,-145.73179100089183
"99743","Healy","AK","Three Bears Ace Hardware #45","Mile 248.5 George Parks Hwy","99743",63.87865,-149.02613
"99752","Kotzebue","AK","K I C Logistics","373 A 2nd Avenue","99752",66.893421,-162.60306
"99762","Nome","AK","Outsiders Construction","not_available","99762",64.5018068566768,-165.41581536080707
"99762","Nome","AK","Builders Industrial Supply","704 Seppala Dr","99762",64.50157192587302,-165.41605857352567
"99766","Point Hope","AK","Point Hope Native Store","100 Qalgi Ave","99766",68.348488,-166.733587
"99780","Tok","AK","Alaska Wilderness Supply","not_available","99780",63.338746,-142.98236
"99801","Juneau","AK","Don Abel Bldg Sply Inc","9999 Glacier Hwy","99801",58.369591,-134.604061
"99801","Juneau","AK","Delta Alaska Wholesale","2425 Industrial Blvd","99801",58.36759948730469,-134.605712890625
"99801","Juneau","AK","Foodland Ace Hardware","615 W Willoughby Ave","99801",58.2997289,-134.41869
"99801","Juneau","AK","Valley Paint","not_available","99801",58.361153,-134.571304
"99801","Juneau","AK","Sherwin-Williams Paint Store","1740 Ralphs Way","99801",58.35993053,-134.4837445
"99801","Juneau","AK","The Home Depot","5201 Commercial Blvd","99801",58.3591101,-134.4792777
"99825","Elfin Cove","AK","Ace Hardware","147 Front Street","99829",58.113486,-135.449077
"99826","Gustavus","AK","Lutak Lumber and Supply  Inc.","15 Beach Road","99827",59.228282,-135.43952
"99826","Gustavus","AK","Haines True Value Home Center","1003 Haines Hwy","99827",59.23717438,-135.470596
"99827","Haines","AK","Skagway True Value Hardware","400 Broadway St","99840",59.45485702870923,-135.3161920475568
"99827","Haines","AK","Ace Hardware","Haines Highway Cutoff","99827",59.41062,-135.919903
"99827","Haines","AK","Skagway Ace Hardware","400 Broadway Street","99840",59.45495,-135.31612
"99830","Kake","AK","S O S TRUE VALUE HDW","MILE 1 5 KEKU RD","99830",56.95838165283203,-133.90786743164062
"99830","Kake","AK","S O S  True Value Hardware","Mile 1 5 Keku Rd","99830",56.97057,-133.93271
"99833","Petersburg","AK","Alaska Floorcovering","not_available","99833",56.78511,-132.976644
"99833","Petersburg","AK","The Trading Union Inc","401 North Nordic Drive","99833",56.8094529,-132.95972
"99833","Petersburg","AK","Ottesens True Value Hardware","104 Front St","99929",56.472001,-132.385297
"99835","Sitka","AK","Murray Pacific","475 Katlian St","99835",57.052925,-135.345347
"99835","Sitka","AK","Sitka True Value Hardware","815 Halibut Point Rd","99835",57.059228000000004,-135.348493
"99835","Sitka","AK","Spenard Builders Supply","not_available","99835",57.048899,-135.307306
"99835","Sitka","AK","Schmolck Mechanical","110 Jarvis St","99835",57.049938,-135.310526
"99901","Ketchikan","AK","Madison True Value Hardware","2557 Tongass Ave","99901",55.349763,-131.677303
"99901","Ketchikan","AK","Fastenal","104 Eichner Ave","99901",55.37838159689099,-131.72635152325702
"99901","Ketchikan","AK","Tongass Marine","not_available","99901",55.351453383333336,-131.68302663333333
"99901","Ketchikan","AK","Js Warehouse True Value","510 Port Bagail Blvd","99921",55.47251783,-133.1332661
"99901","Ketchikan","AK","Thorne Bay Hardware","201 HEMLOCK LOOP","99919",55.6861441,-132.5253675
"99901","Ketchikan","AK","Talbots Building Supply","1101","99901",55.34474399999999,-131.657286
