"zip","city","state","name","address","postalCode","lat","lon"
"71601","Pine Bluff","AR","Lowe's","2906A East Harding Avenue","71601",34.2071199,-91.9730705
"71601","Pine Bluff","AR","Home Outlet","401 Michigan","71601",34.225069,-91.977504
"71601","Pine Bluff","AR","Barton's Lumber","not_available","not_available",34.221102,-91.970724
"71601","Pine Bluff","AR","Bolt & Nut","2401-2799 S Persimmon St","71603",34.2025105329295,-92.04716628807633
"71601","Pine Bluff","AR","Bartonâ€™s","901 Commerce Rd","71601",34.221336,-91.971166
"71601","Pine Bluff","AR","R & E Supply","2582-2598 W 17th Ave","71603",34.212584,-92.027787
"71601","Pine Bluff","AR","minuteKEY","5501 S Olive St","71603",34.1742601,-92.0034938
"71601","Pine Bluff","AR","Jefferson Supply Co.","600 S. Plum Street","71603",34.22346115112305,-92.0189437866211
"71601","Pine Bluff","AR","Sherwin-Williams Paint Store","116 W Harding Ave","71601",34.212305,-92.00344399999999
"71601","Pine Bluff","AR","Ace Lock And Key Service","2100 S Olive St","71601",34.208038,-92.007057
"71601","Pine Bluff","AR","Bryan Paint & Carpet","3103 South Olive Street","71603",34.198294,-92.006472
"71601","Pine Bluff","AR","Falk Plumbing Supply","3026 S Midland Dr","71603",34.197125,-92.038873
"71602","White Hall","AR","Tractor Supply Co.","6903 Sheridan Rd","71602",34.255381,-92.086799
"71602","White Hall","AR","Fastenal","7003 Sheridan Rd","71602",34.2550587,-92.08839338333334
"71602","White Hall","AR","Town And Country Hardware","not_available","71602",34.24799,-92.068438
"71602","White Hall","AR","Husqvarna","6303 W 13th Ave","71602",34.21579360961914,-92.0727310180664
"71635","Crossett","AR","Sears","301 Fairview","71635",33.139078,-91.954212
"71635","Crossett","AR","Ideal True Value Lumber","801 W 1st Ave","71635",33.1351191,-91.97153712
"71635","Crossett","AR","Sherwin-Williams Paint Store","309 W 1st Ave","71635",33.135008,-91.965069
"71638","Dermott","AR","Abbot Supply Co.","McGehee, AR 71654","71654",33.63286478333333,-91.38606595
"71638","Dermott","AR","Husqvarna","109 N 2nd St","71654",33.6284065246582,-91.39714813232422
"71639","Dumas","AR","Berry's True Value","120 Hwy 65 N","71639",33.89036067,-91.4844195
"71646","Hamburg","AR","Husqvarna US","1015 S Main St","71646",33.21186828613281,-91.79698944091797
"71646","Hamburg","AR","True Value Home Center","1005 N Main St","71646",33.23338633,-91.79734673
"71652","Kingsland","AR","Gurnsey Hardware","not_available","71665",33.959473,-92.190449
"71653","Lake Village","AR","Lake Village True Value Hardware","1133 S Highway 65 82","71653",33.321720123291016,-91.29161071777344
"71653","Lake Village","AR","Barton's of Lake Village","1729 Hwy 65 & 82 South","71653",33.316273,-91.291672
"71653","Lake Village","AR","Husqvarna","1133 HWY 65 & 82 SOUTH","71653",33.3095817565918,-91.29202270507812
"71655","Monticello","AR","Sears","749 Wal-Mart Access Road","71655",33.63390728080031,-91.8040613830363
"71655","Monticello","AR","minuteKEY","427 Highway 425 N","71655",33.635887145996094,-91.80413055419922
"71655","Monticello","AR","Sherwin-Williams Paint Store","414 Highway 425 S","71655",33.62041091918945,-91.802978515625
"71655","Monticello","AR","Baker's Wholesale","112 S Edwards St","71655",33.627753883333334,-91.78930245
"71655","Monticello","AR","Barton's Lumber","358 Hwy 425 North","71655",33.635222,-91.801221
"71655","Monticello","AR","Fastenal","600 Highway 425 N","71655",33.6409797668457,-91.80049133300781
"71655","Monticello","AR","Husqvarna","314 E Gaines St","71655",33.628440856933594,-91.78816223144531
"71701","Camden","AR","Ken's Discount True Value","980 Cash Rd","71701",33.56975512801427,-92.8514564037323
"71701","Camden","AR","Sherwin-Williams Paint Store","315 Jefferson St SW","71701",33.58373523046865,-92.83271312713623
"71701","Camden","AR","Ace Hardware","2212 Highway 278 W","71701",33.58391571044922,-92.88612365722656
"71701","Camden","AR","Sears","150 Garden Oaks Drive","71701",33.58263734400171,-92.85028561949736
"71701","Camden","AR","Husqvarna","154 International St","71701",33.615028381347656,-92.7558822631836
"71730","El Dorado","AR","Magneto Service & Supply Company","2921 N West Ave","71730",33.2464954,-92.6640116
"71730","El Dorado","AR","The Home Depot","507 West 19th Street","71730",33.2356483,-92.6684358
"71730","El Dorado","AR","The Tool Room Inc","508 Marsh Ave","71730",33.2073369,-92.6714078
"71730","El Dorado","AR","Ken's Discount True Value Home Center","1200 N West Ave","71730",33.228704,-92.665663
"71730","El Dorado","AR","Sears","2020 Northwest Ave","71730",33.2320941,-92.6672638
"71730","El Dorado","AR","Timmins Hardware","101 E 5th St","71730",33.221929,-92.663455
"71730","El Dorado","AR","Sherwin-Williams Paint Store","1620 N West Ave","71730",33.2282600402832,-92.66600799560547
"71753","Magnolia","AR","Sherwin-Williams Paint Store","601 E Main St","71753",33.26661320369443,-93.23289334774017
"71753","Magnolia","AR","S & S Home Center","1315 E Main St","71753",33.2665999,-93.228999
"71753","Magnolia","AR","minuteKEY","60 Highway 79 N","71753",33.2767436,-93.2123546
"71753","Magnolia","AR","Husqvarna","2203 N Vine","71753",33.28810501098633,-93.2478256225586
"71801","Hope","AR","minuteKEY","2400 N Hervey St","71801",33.6808419,-93.6146204
"71801","Hope","AR","B  & R Building Supply","2215 Main St","71801",33.6465836,-93.58656859999999
"71801","Hope","AR","Sears","1301 North Hervey Street, Suite D","71801",33.680971,-93.603121
"71801","Hope","AR","Atwoods","not_available","71801",33.67476351302687,-93.60974765526701
"71801","Hope","AR","Sherwin-Williams Paint Store","312 N Hervey St","71801",33.67031844306241,-93.59823703765869
"71801","Hope","AR","Husqvarna","3553 Highway 278 W","71801",33.66706085205078,-93.59156799316406
"71822","Ashdown","AR","Tractor Supply Co.","1030 South Constitution Ave","71822",33.661481,-94.117523
"71822","Ashdown","AR","Southtown True Value Hardware","550 E Wood St","71822",33.66730298,-94.12391702
"71827","Buckner","AR","S & S Home Center  Inc.","827 Central Ave","71860",33.36498260498047,-93.4887924194336
"71832","De Queen","AR","Tractor Supply Co.","708a East Collin Raye Dr","71832",34.04415512084961,-94.3306884765625
"71832","De Queen","AR","Husqvarna US","129 Riverside Ln","71846",33.92918014526367,-94.2011489868164
"71834","Doddridge","AR","Husqvarna","201 NORTH K JENKINS EXPRESSWAY","71837",33.259727478027344,-93.88562774658203
"71846","Lockesburg","AR","Husqvarna","3822 Highway 71","71846",33.9390869140625,-94.17533111572266
"71851","Mineral Springs","AR","R & J Supply","1021 W Sypert St","71852",33.94178667,-93.86038667
"71851","Mineral Springs","AR","Home Improvement Center","142 Highway 27 Byp","71852",33.945364,-93.841654
"71851","Mineral Springs","AR","Sears","1401 S 4th St","71852",33.93044,-93.85009
"71852","Nashville","AR","Husqvarna","1887 Highway 27 N","71852",33.98110580444336,-93.7952651977539
"71854","Texarkana","AR","texarkana door","not_available","75503",33.492770088431314,-94.04302928422734
"71854","Texarkana","AR","College Hill Hardware","100-198 U.S. 71","71854",33.419751,-94.029212
"71854","Texarkana","AR","Sherwin-Williams Paint Store","2602 N State Line Ave","71854",33.447672999999995,-94.042473
"71854","Texarkana","AR","minuteKEY","133 Arkansas Blvd","71854",33.4618788,-94.0402914
"71854","Texarkana","AR","Husqvarna","333 Links Dr","71854",33.47396469116211,-94.03811645507812
"71901","Hot Springs National Park","AR","Lowe's","300 Corner Stone Blvd","71913",34.460377,-93.056368
"71901","Hot Springs National Park","AR","Harbor Freight","3818 Central Ave","71913",34.462048,-93.06214
"71901","Hot Springs National Park","AR","Farrell-Calhoun Paint","800 Albert Pike Rd.","71913",34.49509430413325,-93.07834128382444
"71901","Hot Springs National Park","AR","Sanders Plumbing Supply","107 E Belding St","71901",34.4962,-93.048564
"71901","Hot Springs National Park","AR","AWI","not_available","71901",34.500478,-93.051168
"71901","Hot Springs National Park","AR","Sears","4501 Central Ave","71913",34.44911664,-93.07798671
"71901","Hot Springs National Park","AR","Emcar Marble","2400 Spring St","71901",34.50075657998608,-93.00461053848267
"71901","Hot Springs National Park","AR","Ideas By Clarks","not_available","71913",34.493015,-93.093874
"71901","Hot Springs National Park","AR","Sherwin-Williams Paint Store","4043 Central Ave","71913",34.4538286075698,-93.06447744369507
"71901","Hot Springs National Park","AR","Master Air Tool Ltd Co","1950 Amity Rd Ste H","71913",34.4689,-93.043
"71901","Hot Springs National Park","AR","Irby","101 E Maurice St","71901",34.5018196105957,-93.04950714111328
"71901","Hot Springs National Park","AR","Sherwin-Williams Paint Store","325 Higdon Ferry Rd","71913",34.4808503,-93.06056946666666
"71901","Hot Springs National Park","AR","Deano Hardwoods","Sawdust Road","71909",34.59531,-93.05043
"71901","Hot Springs National Park","AR","Husqvarna US","4909 Park Ave","71901",34.58218765258789,-92.97795104980469
"71901","Hot Springs National Park","AR","Tractor Supply Co.","2307 Albert Pike Rd","71913",34.491425,-93.106
"71901","Hot Springs National Park","AR","Dad's Tools and More","1304 Central Ave","71901",34.50148160726427,-93.05620551109314
"71901","Hot Springs National Park","AR","Falk Supply Co","223 3rd St","71913",34.50014877319336,-93.06370544433594
"71901","Hot Springs National Park","AR","minuteKEY","300 Cornerstone Blvd","71913",34.4603385925293,-93.05709075927734
"71901","Hot Springs National Park","AR","Sutherlands","1819 Albert Pike Rd","71913",34.49311673641205,-93.09495270252228
"71909","Hot Springs Village","AR","Village True Value Home Center Building Supply","4650 N Hwy 7","71909",34.658255,-93.059119
"71909","Hot Springs Village","AR","Sears","4905 Hwy 7 North","71909",34.655779531900656,-93.06412571808323
"71909","Hot Springs Village","AR","warehouse paint","4055 N Highway 7","71909",34.643253,-93.058311
"71913","Hot Springs National Park","AR","Husqvarna US","2417 AIRPORT ROAD","71913",34.45228958129883,-93.17098999023438
"71913","Hot Springs National Park","AR","Horns Outdoor","3034 Albert Pike Rd","71913",34.50264224048887,-93.12439747036132
"71913","Hot Springs National Park","AR","Tedder  Outdoor Power Equipment","125 Countrywalk Ter","71913",34.450293,-93.178336
"71913","Hot Springs National Park","AR","Parkers True Value","2810 Hwy 290","71913",34.4205441261123,-93.0211969054157
"71921","Amity","AR","Plyler's Home Center","not_available","71943",34.32596714332581,-93.55174974868245
"71921","Amity","AR","John Plyler Home Center","PO Box 31","71943",34.3257225,-93.5525246
"71921","Amity","AR","Husqvarna","101 W Broadway","71943",34.3258171081543,-93.5531234741211
"71921","Amity","AR","Husqvarna","63 HIGHWAY 70 WEST","71943",34.32191467285156,-93.54734802246094
"71923","Arkadelphia","AR","Ace Hardware","3026 Pine St","71923",34.118636,-93.090142
"71923","Arkadelphia","AR","Sears","2919 W. Pine","71923",34.1188475,-93.0861664
"71923","Arkadelphia","AR","Sherwin-Williams Paint Store","1305 Pine St","71923",34.12290768424318,-93.06390255424982
"71923","Arkadelphia","AR","Atwoods","not_available","71923",34.12350725345807,-93.05757345345741
"71923","Arkadelphia","AR","Pole Yard","Mt. Zion","71923",34.125143992958265,-93.12843435261469
"71923","Arkadelphia","AR","Husqvarna","408 S 7th St","71923",34.11835861206055,-93.05452728271484
"71937","Cove","AR","Cove Hardware & Grocery","not_available","71937",34.435469,-94.411708
"71945","Hatfield","AR","Cove Hardware","5775-5803 U.S. 71","71937",34.48534624588938,-94.37808688922148
"71953","Mena","AR","Sears","908 South Mena Street","71953",34.582121,-94.234237
"71953","Mena","AR","Washburn's Home Furnishings","1020 Mena St.","71953",34.5811642,-94.2336771
"71953","Mena","AR","Handy Hardware","not_available","71953",34.59243230370486,-94.20474485242005
"71953","Mena","AR","Southwest Outdoor Power","1167 Highway 71 S","71953",34.572959,-94.243228
"71953","Mena","AR","Lakeside Metal Fabrication","2610 Highway 88 E","71953",34.58539962768555,-94.19744110107422
"71957","Mount Ida","AR","Mount Ida True Value Home Center","223 Hwy 270 W","71957",34.55674812,-93.63109906
"71973","Wickes","AR","J Grippe Industrial Supply Co. Inc.","4160 Acme Rd","13340",34.30714385628804,-94.21875
"72002","Alexander","AR","The Home Depot","12610 Chenal Pkwy","72211",34.7559628,-92.4129404
"72002","Alexander","AR","Lowe's","1100 S Bowman Rd","72211",34.7444523,-92.4092932
"72002","Alexander","AR","The Home Depot","17060 Interstate 30","72019",34.5782226,-92.5855542
"72002","Alexander","AR","Lowe's","2330 North Reynolds Road","72022",34.6168815,-92.4953087
"72002","Alexander","AR","Harbor Freight Tools","1504 Military Rd Ste C","72015",34.579159,-92.57568
"72002","Alexander","AR","Ferguson Waterworks","21913 Interstate 30","72022",34.61107,-92.513629
"72002","Alexander","AR","minuteKEY","400 Bryant Ave","72022",34.623894,-92.494551
"72002","Alexander","AR","Spectrum Paint","13315 Chenal Pkwy","72211",34.754609,-92.42250200000001
"72002","Alexander","AR","Sherwin-Williams Paint Store","1200 Ferguson Dr","72015",34.574192,-92.580951
"72002","Alexander","AR","Sherwin-Williams Paint Store","106 Markham Park Dr","72211",34.754690000000004,-92.405357
"72002","Alexander","AR","Tractor Supply Co.","17318 I-30 North","72019",34.581177,-92.58148
"72002","Alexander","AR","City Electric Supply Alexander","13325 Interstate 30","72209",34.6405122,-92.4428259
"72002","Alexander","AR","Farrell Calhoun Paints Wlr","not_available","72211",34.75431833491549,-92.40426429651458
"72002","Alexander","AR","Farrell-Calhoun Paint","11601 W Markham St","72211",34.753809624779514,-92.40544559751231
"72002","Alexander","AR","Gurnsey's","not_available","72022",34.60037612915039,-92.49848175048828
"72002","Alexander","AR","minuteKEY","700 S Bowman Rd","72211",34.74863052368164,-92.40869140625
"72002","Alexander","AR","Trane","19 Colonel Glenn Plaza Dr","72210",34.70777130126953,-92.4035415649414
"72002","Alexander","AR","Home Outlet","1513 Military Road","72015",34.5789257,-92.573826
"72002","Alexander","AR","Sherwin-Williams Paint Store","4000 Highway 5 N","72022",34.617095947265625,-92.5120849609375
"72003","Almyra","AR","Alco Discount Store","405 S Whitehead Dr","72042",34.29169845581055,-91.32532501220703
"72003","Almyra","AR","McGahhey Hardware","100-198 Court Sq","72042",34.29586449,-91.33473826
"72003","Almyra","AR","Lacott's Supply","674 Highway 165 N","72042",34.299251556396484,-91.366455078125
"72004","Altheimer","AR","Sherwin-Williams Paint Store","2109 S Main St","72160",34.480459,-91.552836
"72006","Augusta","AR","Burrows Building Supply","105 N 1st St","72006",35.284185,-91.367255
"72007","Austin","AR","The Home Depot","555 Going Road","72023",34.97617733548235,-92.03457355499268
"72007","Austin","AR","minuteKEY","304 S Rockwood Dr","72023",34.9765299,-92.0406689
"72007","Austin","AR","Sears","905 WEST MAIN STREET","72023",34.9749461,-92.0248
"72007","Austin","AR","The Metal Store At Pinnacle","not_available","72023",34.94288428448619,-92.05352158508605
"72007","Austin","AR","minuteKEY","1203 S Pine St","72023",34.953127,-92.008132
"72007","Austin","AR","Key Tech Locksmith","64 Meadowlark Dr","72023",34.965212,-92.015793
"72007","Austin","AR","A & R Mobile Home Supply & Service","3132 E Republican Rd","72023",34.943572,-92.075887
"72007","Austin","AR","Husqvarna","901 S Pine St","72023",34.957603454589844,-92.00791931152344
"72007","Austin","AR","Sherwin-Williams Paint Store","194 Dakota Dr","72023",34.976546,-92.029918
"72010","Bald Knob","AR","J. Collison","not_available","72010",35.309882556273095,-91.5681424402243
"72010","Bald Knob","AR","Husqvarna","3610 Highway 367 N","72010",35.30980682373047,-91.56790924072266
"72012","Beebe","AR","Homer's Ace Hardware","905 W Dewitt Henry Dr","72012",35.078312,-91.894631
"72015","Benton","AR","Arkansas Rebar","1222 B Airlane Drive","72015",34.551442,-92.60456699999999
"72015","Benton","AR","Lewis Lumber","800-898 S East St","72015",34.55765795,-92.58493255
"72015","Benton","AR","Baker Distribution","2121 Edison Ave.","72015",34.557281494140625,-92.56351470947266
"72015","Benton","AR","Professional Air Filter And Services","not_available","72015",34.55842074577221,-92.57984519004822
"72023","Cabot","AR","Lowe's","2301 T P White Drive","72076",34.887248,-92.1044465
"72023","Cabot","AR","Sherwin-Williams Paint Store","115 S James St","72076",34.866512,-92.119519
"72023","Cabot","AR","UNIVAR","not_available","72076",34.88444689816745,-92.13879766872724
"72023","Cabot","AR","Harbor Freight Tools","1309 T P White Dr Ste F","72076",34.88068526944256,-92.11153630956497
"72031","Clinton","AR","Tractor Supply Co.","210 Hwy 65 South","72031",35.59095283,-92.4552311
"72031","Clinton","AR","Crowell's Saw & Supply","not_available","72031",35.590549,-92.453648
"72031","Clinton","AR","Husqvarna","160 Park St","72031",35.593597412109375,-92.45951843261719
"72032","Conway","AR","Lowe's","1325 Highway 64 W","72032",35.1094741,-92.4433898
"72032","Conway","AR","The Home Depot","500 Elsinger Blvd","72032",35.085092519371386,-92.4111557006836
"72032","Conway","AR","Harbor Freight Tools","201 Skyline Dr Ste 37","72032",35.111503481028905,-92.43068875390722
"72032","Conway","AR","Tractor Supply Co.","2280 Sanders Rd","72032",35.10801301465781,-92.43409388158915
"72032","Conway","AR","Ace Hardware","1085 Morningside Dr","72034",35.0944,-92.466099
"72032","Conway","AR","Sherwin-Williams Paint Store","960 Locust St","72034",35.09136846349893,-92.44241263399782
"72032","Conway","AR","Elliott Supply","not_available","72034",35.065701,-92.442966
"72032","Conway","AR","Survive-a-Storm Shelters","500 Elsinger Blvd Ste B","72032",35.08504867553711,-92.41150665283203
"72032","Conway","AR","Heigel Supply","1810 Bruce St","72034",35.08111925,-92.44835983333333
"72032","Conway","AR","Barton's Home Improvement","1360 Old Morrilton Hwy","72032",35.111534118652344,-92.44136047363281
"72032","Conway","AR","Home Outlet","1360 Old Morrilton HWY (PO Box 1101)","72032",35.112185,-92.4417199
"72032","Conway","AR","Winsupply of Conway","555 Commerce Rd","72032",35.07084,-92.42234
"72032","Conway","AR","minuteKEY","1155 HWY 65 NORTH","72032",35.10855484008789,-92.43792724609375
"72032","Conway","AR","A Lock Doc","901-961 State Highway 60 W","72034",35.09091985,-92.44295218333333
"72032","Conway","AR","Hiegel Supply","1310 Bruce St","72034",35.081451416015625,-92.43898010253906
"72032","Conway","AR","minuteKEY","1325 Old Morrilton Hwy","72032",35.10927963256836,-92.44339752197266
"72032","Conway","AR","Fastenal","not_available","72032",35.07678985595703,-92.4334487915039
"72032","Conway","AR","Keeling Company","825 N Creek Dr","72032",35.096321,-92.421127
"72032","Conway","AR","Lumber One Home Center","682 Highway 365","72106",34.9647999,-92.4432
"72032","Conway","AR","Darragh Company / Tool Central","675 E. Robins Street","72032",35.077038,-92.43365
"72032","Conway","AR","minuteKEY","3900 Dave Ward Dr","72034",35.073016,-92.495313
"72032","Conway","AR","Oak Street Paint","511 Oak St","72032",35.093457353204144,-92.43554397889214
"72032","Conway","AR","Ridout Lumber Company","1215 E Oak St","72032",35.09040069580078,-92.4108657836914
"72034","Conway","AR","River City Flooring","2125 Harkrider St Ste 4","72032",35.107353,-92.440932
"72034","Conway","AR","Husqvarna","783 Diane Ln","72034",35.07122802734375,-92.48783111572266
"72040","Des Arc","AR","Garth Hardware","211 Main St","72040",34.9769140267349,-91.4950954914093
"72041","De Valls Bluff","AR","Hornet True Value","305 Hwy 70 E","72064",34.780001,-91.577899
"72044","Edgemont","AR","Ace Hardware","7379 Greers Ferry Rd","72067",35.58142852783203,-92.16443634033203
"72058","Greenbrier","AR","minuteKEY","75 S Broadview St","72058",35.22588348388672,-92.38948059082031
"72058","Greenbrier","AR","Whit Davis Lumber Plus","80 S Broadview St","72058",35.22554,-92.38715
"72058","Greenbrier","AR","Husqvarna","511 HWY 65 NORTH","72058",35.233970642089844,-92.38765716552734
"72064","Hazen","AR","Husqvarna US","PO Box 373","72064",34.80018997192383,-91.59449768066406
"72064","Hazen","AR","Husqvarna","1115 HWY 70 WEST","72064",34.7801628112793,-91.59707641601562
"72065","Hensley","AR","Husqvarna","20014 Arch St","72206",34.56697463989258,-92.33522033691406
"72076","Jacksonville","AR","F. L. Davis Sherwood Ace Hdwe","2913 E Kiehl Ave","72120",34.833044,-92.201796
"72076","Jacksonville","AR","minuteKEY","9053 Highway 107","72120",34.83861541748047,-92.23604583740234
"72076","Jacksonville","AR","Harmon Overhead Door","not_available","72120",34.82884216308594,-92.18888854980469
"72076","Jacksonville","AR","Husqvarna","9240 Jacksonville Conway Rd","72076",34.943511962890625,-92.21174621582031
"72082","Kensett","AR","Lowe's","3701 East Race Avenue","72143",35.2487025,-91.6842904
"72082","Kensett","AR","minuteKEY","3509 E Race Ave","72143",35.2503441,-91.6860336
"72082","Kensett","AR","minuteKEY","3701 E Race Ave","72143",35.24838638305664,-91.68437194824219
"72082","Kensett","AR","Harbor Freight","3223 E. Race Ave Race Ave.","72143",35.24985122680664,-91.69438171386719
"72082","Kensett","AR","John Deere","not_available","72082",35.245441,-91.677556
"72082","Kensett","AR","Tractor Supply Co.","101 South Poplar St","72143",35.246929,-91.692412
"72086","Lonoke","AR","Jackrabbit Hardware","604 N Center St","72086",34.7839424242424,-91.9038747474747
"72086","Lonoke","AR","Husqvarna","5406 HWY 70 EAST","72086",34.78398132324219,-91.89986419677734
"72088","Fairfield Bay","AR","Carter Hardware","not_available","72153",35.632209,-92.31237
"72103","Mabelvale","AR","The Home Depot","11 Mabelvale Plaza Dr","72209",34.6655318,-92.3833397
"72104","Malvern","AR","Sears","1339 Highway 270 West","72104",34.38134145342388,-92.82739475238454
"72104","Malvern","AR","davis discount Building Materials","not_available","72104",34.38075637817383,-92.7919921875
"72104","Malvern","AR","Sherwin-Williams Paint Store","634 Martin Luther King Blvd","72104",34.3739013671875,-92.82550811767578
"72104","Malvern","AR","minuteKEY","1910 Martin Luther King Blvd","72104",34.3853448,-92.8280961
"72104","Malvern","AR","Malvern Hardware and Paint Supply","702 E Page Ave","72104",34.363747,-92.803304
"72104","Malvern","AR","Tractor Supply Co.","215 East Page Ave","72104",34.36291,-92.81027
"72106","Mayflower","AR","Ace Hardware","45 Portland Rd Ste 8","04043",34.86304266069176,-92.39327829077662
"72106","Mayflower","AR","H And B True Value Hardware","679 Highway 365","72106",34.951413397710176,-92.4235275104665
"72110","Morrilton","AR","Haynes Home Center","4 Davis Dr","72110",35.168027,-92.722711
"72110","Morrilton","AR","John Deere","not_available","72110",35.134778,-92.728827
"72110","Morrilton","AR","minuteKEY","1621 E Harding St","72110",35.16875076293945,-92.72610473632812
"72110","Morrilton","AR","JD's Mercantile","102 NW 12th St","72823",35.25520324707031,-92.93872833251953
"72110","Morrilton","AR","Tractor Supply Co.","944 Hwy 287","72110",35.17528533935547,-92.71122741699219
"72110","Morrilton","AR","Husqvarna","212 E Commerce St","72110",35.15328598022461,-92.74288940429688
"72112","Newport","AR","Churchman Building Center","1500 Highway 367 N","72112",35.6289,-91.2517
"72112","Newport","AR","Sherwin-Williams Paint Store","217 Beech St","72112",35.606681,-91.279335
"72112","Newport","AR","Tractor Supply Co.","2500 Malcolm Ave Ste A","72112",35.60703544924934,-91.25005889549256
"72113","Maumelle","AR","Ewing Irrigation","7324 Cock of the Walk Dr","72113",34.823707,-92.380173
"72113","Maumelle","AR","Fuller & Son Hardware","9728 Maumelle Blvd","72113",34.821461,-92.370623
"72113","Maumelle","AR","Professional Flooring Supply","7950 Counts Massie Rd","72113",34.833675384521484,-92.38166809082031
"72113","Maumelle","AR","minuteKEY","12001 Maumelle Blvd","72113",34.8317756652832,-92.39408111572266
"72113","Maumelle","AR","FALK PLUMBING SUPPLY","7670 Northshore Pl","72118",34.80430271,-92.34824758
"72113","Maumelle","AR","ProSource of Little Rock","10400 Maumelle Blvd","72113",34.824234999999994,-92.37769399999999
"72113","Maumelle","AR","Fuller & Son Hardware","14710 Cantrell Rd Ste 1B","72223",34.802001000000004,-92.43650699999999
"72113","Maumelle","AR","Sherwin-Williams Paint Store","11825 Maumelle Blvd","72113",34.828049,-92.390851
"72114","North Little Rock","AR","Cantrell Ace Hardware","2516 Cantrell Rd. Suite H","72202",34.760001,-92.306571
"72114","North Little Rock","AR","Besser Ace Hardware","1015 Main St","72202",34.7436,-92.278199
"72114","North Little Rock","AR","Hum's Hardware","4210 E Broadway St","72117",34.755404999999996,-92.218173
"72114","North Little Rock","AR","Treadway Electric NLR","1501 Cypress St","72114",34.76859664916992,-92.26258850097656
"72114","North Little Rock","AR","Solid Ground Lawn & Landscaping","101 Mills Street","72117",34.75083541870117,-92.20850372314453
"72114","North Little Rock","AR","Forest to Floor","1305 N Hills Blvd #110","72114",34.770427000000005,-92.251931
"72114","North Little Rock","AR","Cherokee Building Materials Inc","4613 West Bethany Road","72117",34.7750343,-92.2107906
"72114","North Little Rock","AR","Ketcher Sheet Metal","not_available","72114",34.755597963558394,-92.24685979152677
"72114","North Little Rock","AR","Bpi","1316 N Hills Blvd","72114",34.770559999999996,-92.249084
"72114","North Little Rock","AR","Cherokee Building Materials","4613 W Bethany Rd","72117",34.7750343,-92.2107906
"72114","North Little Rock","AR","TEC Electric","1120 W Short 17th St","72114",34.771412,-92.279003
"72114","North Little Rock","AR","Husqvarna","3901 E Broadway St","72114",34.75514221191406,-92.223876953125
"72116","North Little Rock","AR","Lowe's","4330 East Mccain Boulevard","72117",34.7879549,-92.2177617
"72116","North Little Rock","AR","The Home Depot","4325 E McCain Blvd","72117",34.790701042747266,-92.21732582889672
"72116","North Little Rock","AR","Tractor Supply Co.","5470 Landers Rd","72117",34.802421,-92.211799
"72116","North Little Rock","AR","Sherwin-Williams Paint Store","4827 John F Kennedy Blvd","72116",34.799757,-92.25638599999999
"72116","North Little Rock","AR","KeyMe","4330 E McCain Blvd","72117",34.787515,-92.217801
"72116","North Little Rock","AR","Farrell-Calhoun Paint","5115 John F Kennedy Blvd","72116",34.802328359116906,-92.25475757773631
"72116","North Little Rock","AR","Sears","3930 McCain Blvd","72116",34.79357394,-92.22797064
"72117","North Little Rock","AR","Fastenal","7520 Lindsey Rd","72206",34.713578000000005,-92.19099399999999
"72118","North Little Rock","AR","Joe Carter Tools","4310 Mcauther","72118",34.79482,-92.288907
"72118","North Little Rock","AR","Sherwin-Williams Paint Store","1915 N Pierce St","72207",34.770002000000005,-92.337587
"72118","North Little Rock","AR","Stanley Hardware & Lumber","4308 Mac Arthur Dr","72118",34.79459,-92.288
"72143","Searcy","AR","Husqvarna US","3000 W Beebe Capps Expy","72143",35.248348236083984,-91.78575134277344
"72143","Searcy","AR","Jim Taylor Sales","not_available","72143",35.248108,-91.743734
"72143","Searcy","AR","Homer's Ace Hardware - Beebe","905 West Dewhitt Henrey Dr","72012",35.2442460804727,-91.7666159384699
"72143","Searcy","AR","Homer's Ace Hdwe","2128 W Beebe Capps Expy","72143",35.247862,-91.765902
"72143","Searcy","AR","Sherwin-Williams Paint Store","3021 E Race Ave","72143",35.249412,-91.70004899999999
"72143","Searcy","AR","Husqvarna","2211-4 E Race Ave","72143",35.249977111816406,-91.71051025390625
"72150","Sheridan","AR","Sheridan Hardware & Supplies","1000 N Rock St","72150",34.3160165,-92.39592379999999
"72150","Sheridan","AR","Husqvarna US","PO Box 273","72150",34.31188201904297,-92.38030242919922
"72150","Sheridan","AR","Husqvarna","101 S. ARKANSAS","72150",34.30683135986328,-92.40147399902344
"72160","Stuttgart","AR","Adams Parts","not_available","72160",34.3342399597168,-91.53419494628906
"72160","Stuttgart","AR","Tractor Supply Co.","2307 North Hwy 63","72160",34.531567,-91.558075
"72160","Stuttgart","AR","McCollum Hardware & Plumbing","221 S Main St","72160",34.5004982,-91.5522132
"72160","Stuttgart","AR","Stedman's Inc Ace Hardware","110 S College St","72160",34.5016896,-91.55162759999999
"72160","Stuttgart","AR","Ace Hardware","301 E Michigan St","72160",34.5112,-91.5438
"72173","Vilonia","AR","J&amp;P FLASH MARKET 352","1133 Main St","72173",35.085079193115234,-92.20152282714844
"72201","Little Rock","AR","Sherwin-Williams Product Finishes","1000 E Capitol Ave","72202",34.743239,-92.25951500000001
"72201","Little Rock","AR","Fuller & Son Hardware","900 Main St","72202",34.739771000000005,-92.272267
"72201","Little Rock","AR","Winnelson Company","420 Byrd St","72114",34.743408203125,-92.26049041748047
"72201","Little Rock","AR","Sherwin-Williams Commercial Paint Store","417 Byrd St","72202",34.74317295334114,-92.25986838340759
"72202","Little Rock","AR","Harbor Freight Tools","5820 Asher Ave Ste 1","72204",34.71867694901885,-92.33937672410246
"72202","Little Rock","AR","C&J Restorations","1913 Appianway St","72204",34.73301696777344,-92.30448150634766
"72202","Little Rock","AR","Spectrum Paint","1800 N Pierce St","72207",34.768583,-92.338739
"72202","Little Rock","AR","Kaufman Lumber","5100 Asher Ave","72204",34.721765000000005,-92.33052099999999
"72204","Little Rock","AR","Tractor Supply Co.","10801 Colonel Glenn Sq","72204",34.709696,-92.397018
"72204","Little Rock","AR","Lawnmowers Plus, Inc.","8223 Colonel Glenn Rd","72204",34.711199,-92.367252
"72204","Little Rock","AR","H&E Equipment Services","2801 W 65th St","72209",34.688733,-92.309956
"72204","Little Rock","AR","Vallen","4215 S Shackleford Rd","72204",34.715179,-92.389599
"72204","Little Rock","AR","Treadway Electric Company","3300 W 65th St","72209",34.689600701909036,-92.31331236966878
"72204","Little Rock","AR","Wise El Santo","6500 Scott Hamilton","not_available",34.692849,-92.3187
"72204","Little Rock","AR","Weldons Truck And Trailer Parts","7510 Jamison Rd","72209",34.6800651550293,-92.31317901611328
"72204","Little Rock","AR","Mid-South Distribution","7501 Enmar Dr","72209",34.682245,-92.348212
"72204","Little Rock","AR","Sears Hardware Dept.","not_available","72205",34.74565983219443,-92.34386426364446
"72204","Little Rock","AR","Sears","6800 Geyer Springs Rd","72209",34.687782287597656,-92.34415435791016
"72204","Little Rock","AR","Sherwin-Williams Floorcovering Store","4217 S Shackleford Rd","72204",34.714512,-92.388587
"72204","Little Rock","AR","Reed's Outdoor Equipment","not_available","72204",34.71000801118575,-92.37423505602189
"72204","Little Rock","AR","Sherwin-Williams Paint Store","3901 S University Ave","72204",34.715346000000004,-92.340497
"72204","Little Rock","AR","Husqvarna","6101 Geyer Springs Rd","72209",34.69430160522461,-92.34278869628906
"72204","Little Rock","AR","Jefferson Supply Company","3303 Mabelvale Pke","71611",34.718507,-92.333163
"72204","Little Rock","AR","Irby","6100 Scott Hamilton Dr","72209",34.693793,-92.319237
"72205","Little Rock","AR","Fuller & Son Hardware","9815 W Markham St","72205",34.752945000000004,-92.383706
"72205","Little Rock","AR","Pc Hardware","8316 W Markham St","72205",34.75410842895508,-92.36676788330078
"72205","Little Rock","AR","Sherwin-Williams Paint Store","724 Towne Oaks Dr","72227",34.760088,-92.37835799999999
"72205","Little Rock","AR","Kraftco Hardware","6711 Cantrell Rd","72207",34.76812837142493,-92.35029730300596
"72205","Little Rock","AR","Fuller & Son Hardware","5915 R St","not_available",34.768842,-92.340188
"72206","Little Rock","AR","David Hunter","17012 Arch St","72206",34.598749,-92.325339
"72206","Little Rock","AR","Fuller & Son Hardware","7311 Baseline Rd","72209",34.668427,-92.358281
"72206","Little Rock","AR","Husqvarna US","PO Box 4725","72214",34.673526763916016,-92.34577941894531
"72206","Little Rock","AR","Sanders Ace Hardware","20191 Arch St","72206",34.6043299,-92.321504
"72206","Little Rock","AR","Husqvarna","1204 Pratt Rd","72206",34.618534088134766,-92.29226684570312
"72209","Little Rock","AR","Northern Tool + Equipment Store","10010 Interstate 30","72209",34.6731539,-92.376875
"72209","Little Rock","AR","Tractor Supply Company","not_available","72209",34.66980493333333,-92.39687932882218
"72301","West Memphis","AR","The Home Center And Lumber Co.","1601 N 7th St","72301",35.161731,-90.174726
"72301","West Memphis","AR","Tractor Supply Co.","2100 West Service Rd","72301",35.15928545342619,-90.22099475283125
"72301","West Memphis","AR","Sherwin-Williams Paint Store","1204 N Missouri St","72301",35.15991108068508,-90.18506782308864
"72301","West Memphis","AR","Barton's","215 West Broadway","72301",35.1470876,-90.1883363
"72301","West Memphis","AR","Century Hydraulics and MFG","215 S 5th St","72301",35.1449958,-90.17948539999999
"72301","West Memphis","AR","Garrett Hardware","207 N 7th St","72301",35.148225,-90.175745
"72301","West Memphis","AR","Sears","209 Shopping Way, Suite B","72301",35.167191,-90.188785
"72301","West Memphis","AR","Farrell-Calhoun Paint","1401 N Missouri St","72301",35.16189812946132,-90.1842853938075
"72301","West Memphis","AR","Riggs Supply Company","701 Space Center St","72301",35.1586909398407,-90.17585859689407
"72301","West Memphis","AR","Curtis Lumber & Ace Hardware","925  Highway 77","72364",35.157214,-90.18473
"72301","West Memphis","AR","Southern Pipe","not_available","72301",35.14652448174053,-90.18084951519891
"72301","West Memphis","AR","Surplus WareHouse West Memphis","3229 East Broadway","72301",35.1456557,-90.1453667
"72315","Blytheville","AR","Lowe's","3790 East Main Street","72315",35.9305865,-89.868192
"72315","Blytheville","AR","Hood's Discount Home Center","1401 E Main St","72315",35.926565000000004,-89.878863
"72315","Blytheville","AR","Tractor Supply Co.","3900 East Main St","72315",35.93018333512206,-89.86681635581971
"72315","Blytheville","AR","Sears","302 North 6th Street","72315",35.9301267,-89.9096378
"72315","Blytheville","AR","Fasco","not_available","72315",35.918709839038854,-89.91878719195897
"72315","Blytheville","AR","IR-G Industrial Rubber & Gasket","206 Terra Rd","72315",35.925604,-89.846424
"72315","Blytheville","AR","Sherwin-Williams Paint Store","521 Park St","72315",35.932081,-89.908991
"72315","Blytheville","AR","nexAir","330 South Lockard St","72315",35.9235224,-89.8843798
"72326","Colt","AR","Husqvarna","9111 MAIN HWY 1","72326",35.134193420410156,-90.81163024902344
"72335","Forrest City","AR","Sherwin-Williams Paint Store","951 N Washington St","72335",35.01825833207344,-90.78773260116577
"72335","Forrest City","AR","Sears","828 North Washington","72335",35.0156999,-90.7870163
"72342","Helena","AR","Ace Hardware","700 N Sebastian","72390",34.543902,-90.643806
"72342","Helena","AR","Sherwin-Williams Paint Store","788 N Sebastian","72390",34.5534782409668,-90.65122985839844
"72342","Helena","AR","Wholesale Building Supply","not_available","72390",34.55464668850873,-90.65475130079301
"72342","Helena","AR","Sears","1005 Highway #49 West","72390",34.55399458190808,-90.66282330919273
"72354","Lepanto","AR","Barton's","111 Henderson Street","72354",35.6108133,-90.3310996
"72360","Marianna","AR","Marianna True Value Hardware","531 W Chestnut St","72360",34.77462729,-90.7755903
"72360","Marianna","AR","Harvey's Ace Hardware","373 W Chestnut St","72360",34.774597,-90.7684
"72364","Marion","AR","Ace Hardware","925 Arkansas 77","72364",35.178448,-90.184555
"72366","Marvell","AR","Mico True Value Hardware","1107 Hwy 49 W","72366",34.56060996,-90.91730894
"72366","Marvell","AR","Husqvarna US","1107 HWY 49","72366",34.54158020019531,-90.9313735961914
"72370","Osceola","AR","Barton's","1198 West Keiser","72370",35.69948590785821,-89.98566627502441
"72396","Wynne","AR","Caldwell Lumber","not_available","72396",35.248173,-90.78098
"72396","Wynne","AR","Heating Service Marion ,AR","1103 Falls Blvd N","72396",35.231014251708984,-90.78591918945312
"72396","Wynne","AR","Caldwell Lumber","1956 Falls Blvd N","72396",35.24869155883789,-90.77942657470703
"72396","Wynne","AR","Curtis Lumber Co., Inc","1956 N Falls Blvd","72396",35.24867,-90.78138
"72396","Wynne","AR","Sears","702 Hwy 64 E","72396",35.25286939684297,-90.77989116311073
"72396","Wynne","AR","Husqvarna","1427 Falls Blvd S","72396",35.208683013916016,-90.79106903076172
"72396","Wynne","AR","Tractor Supply Co.","1590 Falls Blvd North","72396",35.23657225010439,-90.78337708465575
"72401","Jonesboro","AR","Lowe's","2111 Fair Park Blvd","72401",35.8189456,-90.6742512
"72401","Jonesboro","AR","The Home Depot","711 E Parker Rd","72404",35.8053171,-90.7034616
"72401","Jonesboro","AR","Surplus Warehouse","Caraway Road","72401",35.819515713306494,-90.67634797602778
"72401","Jonesboro","AR","Hilltop Ace Hardware","4827 E Johnson Ave","72401",35.8620999,-90.646199
"72401","Jonesboro","AR","Tractor Supply Co.","2605 Red Wolf Blvd","72401",35.813241,-90.669974
"72401","Jonesboro","AR","Grainger","5304 E Highland Dr","72401",35.8214111328125,-90.62864685058594
"72401","Jonesboro","AR","Barton's","3023 Brown's Lane","72401",35.80785124085487,-90.68791151046753
"72401","Jonesboro","AR","Sherwin-Williams Paint Store","1608 S Caraway Rd","72401",35.825955771801155,-90.67686080932617
"72401","Jonesboro","AR","minuteKEY","2811 Creek Dr","72401",35.825443267822266,-90.67119598388672
"72401","Jonesboro","AR","Mid-South Plumbing & Electric Supply Co","2600 E Highland Dr","72401",35.82218,-90.67254
"72401","Jonesboro","AR","Farrell-Calhoun Paint","3519 E Nettleton Ave","72401",35.828,-90.661478
"72401","Jonesboro","AR","Home Outlet","2016 S. Caraway Road/Po Box 16360","72401",35.819584,-90.6757873
"72401","Jonesboro","AR","minuteKEY","3319 Harrisburg Rd","72404",35.802982330322266,-90.69786071777344
"72401","Jonesboro","AR","Tec Lighting","1900 S Church St","72401",35.822498,-90.704348
"72401","Jonesboro","AR","City Electric Supply Jonesboro","4210 Access Rd","72401",35.80804332034258,-90.64953669080734
"72401","Jonesboro","AR","ec barton","not_available","72401",35.809954236928235,-90.70068186862994
"72401","Jonesboro","AR","Harbor Freight Tools","2111 E Parker Rd","72404",35.80624,-90.681876
"72401","Jonesboro","AR","Air Gas","4206 Access Rd","72401",35.80951690673828,-90.64925384521484
"72401","Jonesboro","AR","nexAir","4604 Distribution Dr","72401",35.808007,-90.643123
"72404","Jonesboro","AR","Fulton's Garage Doors","177 County Road 622","72404",35.744195997768365,-90.66194772720337
"72404","Jonesboro","AR","Irby","6140 Southwest Dr","72404",35.7766227722168,-90.76634979248047
"72404","Jonesboro","AR","FARM SERVICE INC","1100 SOUTHWEST FRONT","72476",35.77796173095703,-90.78592681884766
"72433","Hoxie","AR","Rusty Bolt","not_available","72433",36.067487,-90.971974
"72433","Hoxie","AR","Mr Ts Hardware And More","not_available","72476",36.07029500636642,-90.96999089527763
"72434","Imboden","AR","Husqvarna US","110 2ND STREET","72434",36.208457946777344,-91.17240905761719
"72438","Leachville","AR","Hufford's Ace Home & Auto","201 S Main","72438",35.936669,-90.25809
"72443","Marmaduke","AR","Husqvarna","15428 US Highway 49","39038",36.223541259765625,-90.3379135131836
"72450","Paragould","AR","Lowe's","212 North 23rd Street","72450",36.0615915,-90.5161067
"72450","Paragould","AR","Ace Hardware","2620 Kings Highway","72450",36.059769907893006,-90.52104957585854
"72450","Paragould","AR","Sears","3204 Linwood Dr","72450",36.03016960000001,-90.5213802
"72450","Paragould","AR","Barton's","1000 Country Club Rd.","72450",36.0701325,-90.4981738
"72450","Paragould","AR","Harbor Freight","not_available","72450",36.061405,-90.51735
"72450","Paragould","AR","Ace Hardware","2620 W Kingshighway","72450",36.052869,-90.454305
"72450","Paragould","AR","Tractor Supply Co.","3400 West Kingshighway","72450",36.05739989238417,-90.53230784833431
"72450","Paragould","AR","Tool Central","1907-A East Kings Highway","72450",36.0526229,-90.45990429999999
"72450","Paragould","AR","Orscheln Farm And Home","420 U.S. 49","72450",36.061522364616394,-90.50568222999573
"72450","Paragould","AR","Sherwin-Williams Paint Store","307 W Kingshighway","72450",36.05275947220585,-90.48968553543091
"72455","Pocahontas","AR","Ace Hardware","828 Highway 67 S","72455",36.2526,-90.9659
"72455","Pocahontas","AR","Tool Central","2010 Industrial Drive","72455",36.2462074,-90.94375079999999
"72455","Pocahontas","AR","Barton's","2405 Hwy 67 South","72455",36.240935,-90.958338
"72455","Pocahontas","AR","FARM SERVICE TRUE VALUE","911 Townsend Dr","72455",36.23867416381836,-90.96121215820312
"72455","Pocahontas","AR","Sears","2607 Hwy 67 South","72455",36.239683,-90.9585569
"72455","Pocahontas","AR","Bartonâ€™s","2405 US-67","72455",36.2798936,-90.9506048
"72455","Pocahontas","AR","JCPenney","828 Highway 67 N","72455",36.26456832885742,-90.96375274658203
"72476","Walnut Ridge","AR","Tractor Supply Co.","814 Hwy 67 North","72476",36.08085250854492,-90.9555435180664
"72476","Walnut Ridge","AR","Barton's","607 Hwy 67 North","72476",36.07632,-90.955289
"72501","Batesville","AR","Sherwin-Williams Paint Store","150 E Boswell St","72501",35.768532140613125,-91.65252341531148
"72501","Batesville","AR","Tripp Suppy","not_available","72501",35.766943,-91.64727
"72501","Batesville","AR","City Electric Supply Batesville","606 Lawrence St","72501",35.766518,-91.6474402
"72501","Batesville","AR","Sears","2395 Harrison St.","72501",35.7698173,-91.626419
"72501","Batesville","AR","Tractor Supply Co.","3239 Harrison St","72501",35.768563,-91.611323
"72501","Batesville","AR","Tool Central","1240 North St. Louis Street","72501",35.793625,-91.6353501
"72501","Batesville","AR","Husqvarna US","2190 N Central Ave","72501",35.78852462768555,-91.6612777709961
"72501","Batesville","AR","The Home Depot","3000 E Harrison Street","72501",35.76262829503161,-91.61765528275282
"72501","Batesville","AR","Husqvarna","1525 Batesville Blvd","72501",35.71676254272461,-91.6347885131836
"72513","Ash Flat","AR","Sears","475 Hwy 62/412","72513",36.23615650000001,-91.59890469999999
"72513","Ash Flat","AR","B&B Supply","Big Creek Rd","72542",36.25745759893185,-91.54743491660922
"72513","Ash Flat","AR","Husqvarna US","60 HWY 62-412","72513",36.23503494262695,-91.63536834716797
"72513","Ash Flat","AR","Johnsons Hardware","Jct 62 & 412","72513",36.2391642,-91.59619649999999
"72519","Calico Rock","AR","Husqvarna US","PO Box 308","72519",36.146488189697266,-92.14913177490234
"72519","Calico Rock","AR","Knowles True Value Hardware & Auto","201 Main St","72519",36.11736,-92.14286
"72519","Calico Rock","AR","Husqvarna","201 MAIN STREET","72519",36.11749267578125,-92.142822265625
"72521","Cave City","AR","Mobley's Paint & Hardware","417 Highway 167","72521",35.96684646606445,-91.55514526367188
"72529","Cherokee Village","AR","Highland Supply Company","1922 Highway 62 412","72542",36.26076126098633,-91.52913665771484
"72530","Drasco","AR","F. L. Davis Home Center","1969 HWY 25B","72543",35.51156996251448,-92.02964127444564
"72530","Drasco","AR","Ace Hardware","1916 Hwy 25 Business N","72543",35.511655799250256,-92.02949777289895
"72531","Elizabeth","AR","Allsteel","20115 Highway 62 W","72538",36.380428314208984,-92.1282730102539
"72543","Heber Springs","AR","F.L. Davis Ace Home Center","1916 Hwy 25B N","72543",35.476655,-92.034555
"72543","Heber Springs","AR","Tractor Supply Co.","501 South 7th Street","72543",35.48740005493164,-92.03604125976562
"72543","Heber Springs","AR","Sears","1010 Hwy 25 B North","72543",35.4594663,-92.0458161
"72543","Heber Springs","AR","Drasco Farm & Home Supply","not_available","72543",35.49946975708008,-91.99957275390625
"72543","Heber Springs","AR","Ace Hardware","1916 Highway 25B","72543",35.476655,-92.034555
"72554","Mammoth Spring","AR","Husqvarna US","PO Box 55","72554",36.46543884277344,-91.54354095458984
"72554","Mammoth Spring","AR","Husqvarna","775 KENDRICK","72554",36.4956169128418,-91.54069519042969
"72560","Mountain View","AR","Td True Value Home Center","315 Sylamore Ave","72560",35.8671875,-92.10458374023438
"72560","Mountain View","AR","Sears","107 Meadow View Drive","72560",35.8560252,-92.0874358
"72560","Mountain View","AR","Husqvarna","707 EAST MAIN","72560",35.86423110961914,-92.10763549804688
"72576","Salem","AR","Black Jack Supply","not_available","72583",36.399912,-91.951447
"72601","Harrison","AR","Meek's Lumber in Harrison","902 Highway 62-65 North","72601",36.25356578904387,-93.12344312667847
"72601","Harrison","AR","Sears","1320 North Main Street","72601",36.2455829,-93.117207
"72601","Harrison","AR","minuteKEY","161 N Walmart Dr","72601",36.268592834472656,-93.13906860351562
"72601","Harrison","AR","John Deere","not_available","72601",36.198234629566045,-93.04356337276363
"72601","Harrison","AR","Sherwin-Williams Paint Store","812 Highway 62 65 N","72601",36.252281188964844,-93.12059020996094
"72601","Harrison","AR","Tractor Supply Co.","619 Hwy 62/65 North","72601",36.25031933528484,-93.1151323927515
"72601","Harrison","AR","Thompson's Ace Hardware","920 Hwy 62 & 65 N","72601",36.2575709,-93.125176
"72601","Harrison","AR","Husqvarna US","2 NECESSITY AVE. BLD #2","72601",36.238460540771484,-93.1141586303711
"72601","Harrison","AR","The Home Depot","312 Hester Drive","72601",36.260510886260306,-93.13574557358606
"72601","Harrison","AR","Miller True Value Hardware","2 E Necessity Ave","72601",36.2297248840332,-93.09439849853516
"72616","Berryville","AR","Powell Ace Hardware","1107 S Main St","72616",36.3544509,-93.550802
"72616","Berryville","AR","Sears","322 Eureka Street","72616",36.3679479,-93.571362
"72616","Berryville","AR","Midwest Equipment Rental and Sales","1000 W Main St","72638",36.337377000000004,-93.449758
"72616","Berryville","AR","A Little Bit Of Everything","not_available","72638",36.361115105879016,-93.49154422398983
"72616","Berryville","AR","Meek's Lumber in Berryville","908 W Trimble Ave","72616",36.375194,-93.583706
"72616","Berryville","AR","minuteKEY","1000 W Trimble Ave","72616",36.37627410888672,-93.5870361328125
"72631","Eureka Springs","AR","Acord's Home Center","251 Huntsville Rd","72632",36.379492,-93.74203100000001
"72631","Eureka Springs","AR","Powell's Hardware","2 Park Dr","72631",36.452850341796875,-93.72097778320312
"72631","Eureka Springs","AR","Little Apple Glass","19492 US Highway 62","72631",36.460977,-93.8295558
"72631","Eureka Springs","AR","Ace Hardware","251 Huntsville Rd Hy 23S","72632",36.37916946411133,-93.74222564697266
"72634","Flippin","AR","Meek's Lumber in Mountain Home","2736 Highway 62 W","72653",36.314602,-92.407738
"72634","Flippin","AR","Meeks","not_available","72653",36.315014,-92.407871
"72634","Flippin","AR","Husqvarna","6135 HWY 126 S.","72651",36.36699676513672,-92.46050262451172
"72641","Jasper","AR","Jasper Farm Supply","Hwy 7 North","72641",35.95268899309389,-93.1161762760133
"72641","Jasper","AR","Husqvarna US","PO Box 443","72641",35.98368453979492,-93.20118713378906
"72641","Jasper","AR","Husqvarna","402 E COURT ST","72641",36.0113525390625,-93.1829605102539
"72645","Leslie","AR","Marshall Milling & True Value","230 N Hwy 65","72650",35.9112,-92.63365
"72653","Mountain Home","AR","Marchant Building Center","1815 South College Spur","72653",36.332867,-92.385159
"72653","Mountain Home","AR","Marchant Building Center","1815 S College Spur","72653",36.3180851,-92.3817344
"72653","Mountain Home","AR","Sears","1029 Highway 62 East, Suite # 1","72653",36.3513379,-92.3671765
"72653","Mountain Home","AR","The Home Depot","100 Pendella Drive","72653",36.35092449353198,-92.33552813529968
"72653","Mountain Home","AR","Ace Hardware","1815 Highway 201 S Spur","72653",36.31806182861328,-92.38113403320312
"72653","Mountain Home","AR","Sherwin-Williams Paint Store","1029 Highway 62 E","72653",36.351497,-92.367198
"72653","Mountain Home","AR","Moranz Lawn and Garden Equipment","111 Buzzard Roost Cutoff","72653",36.355996,-92.343754
"72653","Mountain Home","AR","Kasinger Mechanical INC.","216 Dodd St","72653",36.330174,-92.387597
"72653","Mountain Home","AR","JOE'S TRUE VALUE","1014 Highland Cir","72653",36.34794616699219,-92.36984252929688
"72653","Mountain Home","AR","Lowe's","124 Charles Blackburn Drive","72653",36.3555018,-92.3355449
"72653","Mountain Home","AR","Husqvarna","950 Coley Dr","72653",36.350521087646484,-92.37615203857422
"72687","Yellville","AR","Husqvarna US","PO Box 574","72687",36.24879837036133,-92.70515441894531
"72687","Yellville","AR","Miller True Value Hardware","1609 Mc Hwy 62 W","72687",36.24009644,-92.70342305
"72701","Fayetteville","AR","Lowe's","3231 W Martin Luther King Blvd","72704",36.0497063,-94.206491
"72701","Fayetteville","AR","Tractor Supply Co.","215 East Main St","72730",36.043690000000005,-94.230756
"72701","Fayetteville","AR","The Hardware Store","Township","72703",36.0953492,-94.158108
"72701","Fayetteville","AR","Crossover True Value","1756 N Crossover Rd","72701",36.084702,-94.12087
"72701","Fayetteville","AR","Farmers Cooperative - Elkins","2049 Twin Oaks Dr","72727",36.02878,-94.026453
"72701","Fayetteville","AR","Ridout","not_available","72703",36.09200296110766,-94.16150684268474
"72701","Fayetteville","AR","Massie's","not_available","72727",36.028997,-94.026569
"72701","Fayetteville","AR","Spectrum Paint","2612 W Martin Luther King Blvd Ste B","72701",36.05413055419922,-94.19727325439453
"72701","Fayetteville","AR","Johnson Center","not_available","72701",36.078553993636895,-94.17038102478077
"72701","Fayetteville","AR","Meek's Lumber in Fayetteville","2401 N Gregg Ave","72703",36.095461,-94.162145
"72701","Fayetteville","AR","minuteKEY","2875 W Martin Luther King Blvd","72704",36.050512,-94.200992
"72701","Fayetteville","AR","Davis Air and Repair","17179 County Road 306","72701",36.05272477619796,-94.15396928787231
"72701","Fayetteville","AR","Husqvarna","2047 Twin Oaks Dr","72727",36.02827072143555,-94.02638244628906
"72703","Fayetteville","AR","Lowe's","1050 E Zion Rd","72703",36.1301775,-94.1430923
"72703","Fayetteville","AR","The Home Depot","675 E Joyce Blvd","72703",36.12095122961718,-94.14818816733259
"72703","Fayetteville","AR","Word's Electric Inc","not_available","72764",36.1562611,-94.06183949999999
"72703","Fayetteville","AR","Hardware Central","3919 N Mall Ave","72703",36.1223030090332,-94.15242767333984
"72703","Fayetteville","AR","Husqvarna","3810 Sugarberry Ln","72764",36.11952590942383,-94.06050109863281
"72703","Fayetteville","AR","Sherwin-Williams Paint Store","2887 N College Ave","72703",36.103244000000004,-94.148916
"72703","Fayetteville","AR","minuteKEY","4900 Jennifer Terrace","72762",36.15289306640625,-94.18504333496094
"72704","Fayetteville","AR","Lowe's","4233 West Sunset Avenue","72762",36.1736397,-94.1771374
"72704","Fayetteville","AR","Fleck Bearing","not_available","72762",36.178498,-94.173722
"72704","Fayetteville","AR","Ewing Irrigation","3902 Kelley Ave","72762",36.178498,-94.173722
"72704","Fayetteville","AR","Ferguson Waterworks","971 Shaver St","72762",36.17897,-94.169049
"72704","Fayetteville","AR","Meek's Lumber in Springdale","4446 W Sunset Ave","72762",36.176254,-94.179589
"72704","Fayetteville","AR","minuteKEY","4233 W Sunset Ave","72762",36.17339324951172,-94.17737579345703
"72704","Fayetteville","AR","Harbor Freight Tools","5320 W Sunset Ave #186","72762",36.176742715272965,-94.18982980866667
"72704","Fayetteville","AR","Sherwin-Williams Paint Store","3115 W Sunset Ave","72762",36.1746,-94.164816
"72704","Fayetteville","AR","Cherokee Building Materials Inc","509 Industrial Drive","72762",36.16936617,-94.22426603
"72704","Fayetteville","AR","TruCraft Construction Services","3805 Kelley Ave","72762",36.177489,-94.173014
"72712","Bentonville","AR","Lowe's","300 North 46th Street","72756",36.3374594,-94.1809749
"72712","Bentonville","AR","Lowe's","1100 NW Lowes Avenue","72712",36.418518,-94.224178
"72712","Bentonville","AR","The Home Depot","1701 S 46th Street","72758",36.3179669,-94.1828579
"72712","Bentonville","AR","Tractor Supply Co.","2817 South Walton Blvd","72712",36.34345333,-94.21012393
"72712","Bentonville","AR","Benjamin Moore paint","not_available","72712",36.336471,-94.197869
"72712","Bentonville","AR","Ewing Irrigation","1209 Phyllis St","72712",36.357803,-94.179565
"72712","Bentonville","AR","minuteKEY","1403 N Walton Blvd.","72712",36.3885597,-94.2211158
"72712","Bentonville","AR","Sherwin-Williams Paint Store","1802 S Walton Blvd","72712",36.351534,-94.211315
"72712","Bentonville","AR","Nelson's Hardware","Main St","72718",36.266036604973046,-94.23149067752149
"72712","Bentonville","AR","minuteKEY","702 SW 8 St","72712",36.366978,-94.219265
"72712","Bentonville","AR","Village True Value Home Center","not_available","72714",36.471066,-94.242258
"72712","Bentonville","AR","minuteKEY","2110 W Walnut St","72756",36.332031,-94.149051
"72712","Bentonville","AR","minuteKEY","406 S Walton Blvd","72712",36.368134,-94.224936
"72712","Bentonville","AR","Nelson Hardware & Supplies","115 S Main St","72718",36.263461168446256,-94.23218332390783
"72712","Bentonville","AR","minuteKEY","1703 E Central Ave","72712",36.37205505371094,-94.19081115722656
"72712","Bentonville","AR","Sherwin-Williams Paint Store","2919 W Walnut St","72756",36.335004999999995,-94.16206600000001
"72712","Bentonville","AR","Surplus Warehouse","2223 West Walnut","72756",36.335547,-94.14969
"72712","Bentonville","AR","minuteKEY","1800 E Centerton Blvd","72712",36.3587760925293,-94.25276184082031
"72715","Bella Vista","AR","Husqvarna","13728 W Highway 72","72739",36.43217849731445,-94.33126831054688
"72722","Decatur","AR","Farmers Cooperative - Decatur","252 N Main St","72722",36.336964,-94.459765
"72730","Farmington","AR","minuteKEY","367 W Main St","72730",36.03676986694336,-94.2563247680664
"72730","Farmington","AR","Husqvarna","38 BOIS D AVE","72730",36.041534423828125,-94.24678039550781
"72734","Gentry","AR","Bever's Ace Hardware","905 Gentry Blvd","72734",36.25943,-94.485842
"72736","Gravette","AR","Can Do Hardware","303 3rd Ave SW","72736",36.419937,-94.455632
"72738","Hindsville","AR","A.T.  Smith","not_available","72738",36.144112,-93.863111
"72740","Huntsville","AR","minuteKEY","13845 Hwy. 412","72740",36.1131938,-93.7118648
"72740","Huntsville","AR","Huntsville Lumber","302 S Harris St","72740",36.08916473388672,-93.7343978881836
"72744","Lincoln","AR","Farmers Cooperative - Lincoln","113 E Pridemore Dr","72744",35.94743559,-94.42269539
"72744","Lincoln","AR","Double J Farm and Home Supply","not_available","72744",35.94885017839004,-94.4253003495992
"72744","Lincoln","AR","Prairie Grove Builder Supply","not_available","72753",35.960998270314875,-94.35166838878881
"72745","Lowell","AR","Straight's Lawn & Garden Inc","3218 N Thompson St","72764",36.2131768,-94.1382457
"72745","Lowell","AR","Sherwin-Williams Paint Store","803 N Bloomington St","72745",36.26730610917496,-94.1361957569981
"72745","Lowell","AR","HD Supply White Cap","4784 North Thompson Street","72764",36.22719443,-94.13811915
"72745","Lowell","AR","ABC Supply","409 E Apple Blossom Ave","72764",36.237074,-94.12929
"72745","Lowell","AR","Scotts Construction Equipment","4831 N Thompson St","72764",36.227983,-94.136654
"72745","Lowell","AR","Bradco","418 S Bloomington St","72745",36.24763870239258,-94.13796997070312
"72745","Lowell","AR","L & C Electric Inc","5425 Ervin McGarrah Rd","72745",36.230552,-94.08556899999999
"72745","Lowell","AR","Husqvarna","916 Kendrick Ave","72764",36.21770477294922,-94.11919403076172
"72751","Pea Ridge","AR","minuteKEY","240 Slack St","72751",36.443336486816406,-94.11925506591797
"72751","Pea Ridge","AR","F.L. Davis Pea Ridge Hardware","240 N Curtis","72751",36.4538999,-94.121399
"72751","Pea Ridge","AR","Husqvarna","1978 Slack St","72751",36.44308853149414,-94.13908386230469
"72753","Prairie Grove","AR","Prairie Grove Ace Hardware","106 W Buchanan St","72753",35.975932,-94.317984
"72756","Rogers","AR","Nw Automotive","not_available","72756",36.334096,-94.116232
"72756","Rogers","AR","Meek's Lumber In Rogers","not_available","72758",36.31136058747007,-94.12492866174708
"72756","Rogers","AR","ProSource Of Northwest Arkansas","2301 N 17th St","72756",36.35467,-94.13923
"72756","Rogers","AR","Garner True Value Hardware","125 E Locust St","72756",36.338644,-94.11440999999999
"72756","Rogers","AR","All Around Electric LLC","1261 W Bishop Dr","72756",36.34730560000001,-94.1335649
"72756","Rogers","AR","American Sharpening & Supply","208 West Olive Street","72756",36.34028244018555,-94.11730194091797
"72756","Rogers","AR","minuteKEY","1819 S 8th St","72756",36.31318283081055,-94.12422180175781
"72756","Rogers","AR","Fastenal Company","1400 W Hudson Rd","72756",36.354937,-94.1372
"72758","Rogers","AR","Locke Supply","13th","72756",36.33400268333333,-94.12481058333333
"72761","Siloam Springs","AR","Tractor Supply Co.","3480 Hwy 412 East","72761",36.179840000000006,-94.50883499999999
"72761","Siloam Springs","AR","Lowe's","3499 Highway 412 E","72761",36.1829528,-94.5089797
"72761","Siloam Springs","AR","Right Choice Outdoor Products","1521 E Main St","72761",36.181645,-94.526142
"72761","Siloam Springs","AR","Harbor Freight","not_available","72761",36.177461,-94.555726
"72761","Siloam Springs","AR","minuteKEY","935 S. HOLLY ST","72761",36.1751823425293,-94.55791473388672
"72761","Siloam Springs","AR","Husqvarna","1980 Highway 412 W","72761",36.17595672607422,-94.5612564086914
"72762","Springdale","AR","minuteKEY","4870 Elm Springs Rd","72762",36.196104999999996,-94.183995
"72762","Springdale","AR","Harbor Freight","187 48th","72762",36.193022,-94.183982
"72762","Springdale","AR","Craine's Electric & Drywall Inc","6268 Elm Springs Rd","72762",36.204609000000005,-94.212652
"72762","Springdale","AR","HD Supply White Cap","3670 Elm Springs Rd","72762",36.193485260009766,-94.17050170898438
"72762","Springdale","AR","Sherwin-Williams Commercial Paint Store","3855 Treat Ln","72762",36.184378,-94.172602
"72764","Springdale","AR","Tractor Supply Co.","4355 East Robinson Avenue","72764",36.161959,-94.082791
"72764","Springdale","AR","Quality Mobile Home Parts Store","1386 E Emma Ave","72764",36.185077,-94.115266
"72764","Springdale","AR","H&E Equipment Services","781 E Randall Wobbe Ln","72764",36.2023881,-94.1214007
"72764","Springdale","AR","FARMERS COOPERATIVE - SPRINGDALE","410 E Huntsville Ave","72764",36.18880081176758,-94.12681579589844
"72764","Springdale","AR","Shamrock Bolt & Screw Co. Inc.","1533 E Emma Ave","72764",36.184207,-94.11371
"72764","Springdale","AR","Marmic Fire & Safety","800 Sanders Ave","72764",36.195856,-94.13741
"72764","Springdale","AR","Husqvarna","2757 E Robinson Ave","72764",36.166099548339844,-94.10049438476562
"72801","Russellville","AR","Leonards Hardware Inc","1319 S Arkansas Ave","72801",35.265737,-93.133195
"72801","Russellville","AR","Sherwin-Williams Paint Store","700 S Arkansas Ave","72801",35.2721,-93.134316
"72801","Russellville","AR","Vinson Electrical Suppily","not_available","72802",35.255417,-93.133901
"72801","Russellville","AR","Sears","920 South Arkansas Avenue","72801",35.2697702,-93.1347213
"72801","Russellville","AR","Rood Inc.","West Main","not_available",35.299859,-93.168127
"72801","Russellville","AR","minuteKEY","201 S VANCOUVER AVE","72801",35.2804141,-93.1549381
"72801","Russellville","AR","D&R Pittsburgh Paints","905 E Main St","72801",35.27872,-93.122873
"72801","Russellville","AR","Husqvarna","506 N Arkansas Ave","72801",35.28288650512695,-93.1330337524414
"72802","Russellville","AR","Lowe's","3011 Parkway East","72802",35.2833862,-93.096878
"72802","Russellville","AR","Tractor Supply Co.","320 North Hampton Ave","72802",35.281224,-93.098462
"72802","Russellville","AR","B & W True Value","8918 Market St","72837",35.39137131,-93.11112311
"72802","Russellville","AR","Husqvarna","120 Linker Mountain Rd","72837",35.36088180541992,-93.12312316894531
"72824","Belleville","AR","Danville True Value Hardware","702 Main St","72833",35.054795,-93.39349
"72824","Belleville","AR","Husqvarna","217 NORTH MAIN STREET","72824",35.093868255615234,-93.44788360595703
"72830","Clarksville","AR","Sears","605 West Main Street","72830",35.47088822093823,-93.46833094954496
"72830","Clarksville","AR","Artrac Company LLC","219 E Taylor Rd","72830",35.45188903808594,-93.46051788330078
"72830","Clarksville","AR","Meadors Lumber Company","1003 Interstate Dr","72830",35.4567722,-93.48304294
"72830","Clarksville","AR","Cecil Hardware","515 W Sevier St","72830",35.470001220703125,-93.46788024902344
"72830","Clarksville","AR","Husqvarna","900 E Main St","72830",35.471435546875,-93.44697570800781
"72830","Clarksville","AR","Meadors Lumber Company","1003 Interstate Rd","72830",35.45592758587435,-93.47536225758319
"72833","Danville","AR","Ace Hardware","414 South Scenic 7 Drive","72853",35.028961181640625,-93.22360229492188
"72833","Danville","AR","Magazine True Value Hardware & Farm","9 N State Hwy 109","72943",35.1499597020154,-93.8072007921527
"72837","Dover","AR","Hector Hardware","not_available","72843",35.465785,-92.974712
"72855","Paris","AR","MAGAZINE TRUE VALUE HARDWARE & FARM","9 N. STATE HWY 109","72943",35.159053802490234,-93.80587768554688
"72855","Paris","AR","Elmer's P & E Supply","604 B W Walnut","72855",35.29210976,-93.73571651
"72855","Paris","AR","NAPA Auto Parts - Jarrard Auto Parts","131 S 1st St","72855",35.2910695291112,-93.7284951657056
"72855","Paris","AR","Elmer's P & E Supply","604B W Walnut St","72855",35.29210976,-93.73571651
"72901","Fort Smith","AR","Sutherlands","1801 S Zero St","72901",35.32880311833141,-94.41591937660424
"72901","Fort Smith","AR","Yeager Ace Hardware","2619 Rogers Ave","72901",35.376459999999994,-94.404349
"72901","Fort Smith","AR","Yeagers ACE Hardware","4910 Jenny Lind Rd","72901",35.337005615234375,-94.41439819335938
"72901","Fort Smith","AR","Walrod's Hardware","2113 Midland Blvd","72904",35.400909000000006,-94.404887
"72901","Fort Smith","AR","Sherwin-Williams Paint Store","3001 Grand Ave","72901",35.38625101911513,-94.39964890480042
"72901","Fort Smith","AR","yeager","not_available","72901",35.37661361694336,-94.40486907958984
"72901","Fort Smith","AR","JDS Supply Company","6301 S 31st St","72908",35.323184086796175,-94.40094764113262
"72901","Fort Smith","AR","Kelly-Moore Paints","not_available","72908",35.32893760136295,-94.40557319998587
"72901","Fort Smith","AR","Farmers Cooperative Association - Fort Smith","201 S 10th St","72901",35.381717,-94.422939
"72901","Fort Smith","AR","Mark's MACHINERY & More","2210 Towson Ave","72901",35.362415000000006,-94.422373
"72901","Fort Smith","AR","Shamrock Bolt & Screw","3731 Wheeler Ave","72901",35.347414,-94.426249
"72901","Fort Smith","AR","Cherokee Building Materials Inc","900 Fresno Street","72901",35.3514673,-94.4248808
"72901","Fort Smith","AR","Fastenal","2907 McKinley Ave","72908",35.322421000000006,-94.40244
"72901","Fort Smith","AR","Darragh","A","not_available",35.338348,-94.426581
"72901","Fort Smith","AR","Husqvarna","5109 Wheeler Ave","72901",35.33570098876953,-94.42668914794922
"72903","Fort Smith","AR","Lowe's","8001 Rogers Avenue","72903",35.3506826,-94.343608
"72903","Fort Smith","AR","The Home Depot","5101 Phoenix Avenue","72903",35.3399472,-94.3775812
"72903","Fort Smith","AR","Wholesale Electric Supply","3702 Century Dr Ste A","72903",35.334068298339844,-94.39275360107422
"72903","Fort Smith","AR","Home Outlet","5711 Rogers Avenue","72903",35.3628943,-94.3692068
"72903","Fort Smith","AR","Harbor Freight Tools","3400 Rogers Ave Ste 100","72903",35.37263800589354,-94.39402093323771
"72903","Fort Smith","AR","Low's","Rogers Ave","not_available",35.35102081298828,-94.34494018554688
"72903","Fort Smith","AR","Lumber One","3407","72956",35.379303,-94.358945
"72903","Fort Smith","AR","Locke Supply Co.","not_available","72903",35.370289,-94.374995
"72903","Fort Smith","AR","Warehouse Outlet","9705 Rogers Ave","72903",35.343462,-94.324727
"72903","Fort Smith","AR","Vallen","4001 Harper Dr","72908",35.31333923339844,-94.38822937011719
"72903","Fort Smith","AR","Husqvarna","6601 S Zero St","72903",35.32865524291992,-94.3598861694336
"72904","Fort Smith","AR","Parts City Auto Parts","Main St","72956",35.43682299411833,-94.34256747970876
"72904","Fort Smith","AR","Yeager Ace Hardware","1610 Main St","72956",35.435769,-94.341988
"72908","Fort Smith","AR","Sherwin-Williams Paint Store","6428 Highway 71 S","72908",35.321409,-94.405776
"72921","Alma","AR","AtoZ Tools","not_available","72921",35.432196200770036,-94.22171967064936
"72921","Alma","AR","Meadors Lumber Company","218 Commerce Dr","72921",35.486322,-94.229012
"72921","Alma","AR","minuteKEY","367 W Cherry St","72921",35.4792366027832,-94.22888946533203
"72927","Booneville","AR","Wiggins Ace Hardware","215 N Bennett Ave","72927",35.139293,-93.923192
"72927","Booneville","AR","Tractor Supply Co.","1555 East Main St Suite A, Suite A","72927",35.14325666,-93.90187001
"72927","Booneville","AR","S & W Home Center","452 E Main St","72927",35.13899,-93.915437
"72933","Charleston","AR","Bar M Feed & Farm Supply","not_available","72933",35.296018,-94.144933
"72936","Greenwood","AR","Yeager Hardware","814 W Center St","72936",35.2122,-94.251599
"72936","Greenwood","AR","Yeagers","not_available","72936",35.21659079971128,-94.26902475480999
"72936","Greenwood","AR","Tractor Supply Company","2815 West Center St","72936",35.22273,-94.303696
"72947","Mulberry","AR","Dickerson Hardware","not_available","72947",35.52076017139045,-94.05083627097153
"72949","Ozark","AR","Meadors Lumber Company","1800 N 18th","72949",35.5073,-93.84564
"72956","Van Buren","AR","Sherwin-Williams Paint Store","122 Pointer Trl W","72956",35.4594612121582,-94.3604507446289
"72956","Van Buren","AR","Lowe's","2120 Fayetteville Road","72956",35.4669449,-94.3537413
"72956","Van Buren","AR","Rentco","2305 Industrial Park Rd","72956",35.422969,-94.33430200000001
"72956","Van Buren","AR","Farmers Co-op","not_available","72956",35.3992934127642,-94.33516347828383
"72956","Van Buren","AR","Tractor Supply Co.","150 Sandstone Dr","72956",35.473005,-94.358034
"72958","Waldron","AR","Scott County Hardware","1359 W Second St","72958",34.9003818082899,-94.1059164421252
"72958","Waldron","AR","Husqvarna","160 Highway 71 S","72958",34.901554107666016,-94.10842895507812
