"zip","city","state","name","address","postalCode","lat","lon"
"05001","White River Junction","VT","The Home Depot","296 Plainfield Rd","03784",43.6226692,-72.3287658
"05001","White River Junction","VT","LaValley Building Supply","not_available","03766",43.62974572611377,-72.31905908373348
"05001","White River Junction","VT","Joe's Equipment Service","not_available","not_available",43.62765123333333,-72.32105481666666
"05001","White River Junction","VT","Sears (Temporarily Closed)","200 S Main St","03784",43.6332928,-72.3208898
"05001","White River Junction","VT","Lebanon Plumbing Supply - Premier Supply Group","179 Mechanic St","03766",43.6384296876348,-72.34075654347149
"05001","White River Junction","VT","Sherwin-Williams Paint Store","7 Martin Dr","03784",43.62545965332516,-72.32198953628539
"05001","White River Junction","VT","Harvey Building Products","1354 N Hartland Rd","05001",43.6353874206543,-72.34830474853516
"05001","White River Junction","VT","HD Supply White Cap","17 Plaza Heights Rd","03784",43.62672671,-72.3170717
"05001","White River Junction","VT","Brittons Lumber","not_available","05001",43.62695188346645,-72.45754866892558
"05001","White River Junction","VT","CED/Twin State Electrical Supply","138 Olcott Dr","05088",43.69514465332031,-72.31635284423828
"05001","White River Junction","VT","Ferguson Waterworks","40 Interchange Dr","03784",43.624935150146484,-72.32113647460938
"05032","Bethel","VT","Mill's Hardware","185 Main St","05032",43.83534487198062,-72.63841916612485
"05033","Bradford","VT","Aubuchon Hardware","204 Main St","05033",43.994920147002986,-72.12787099025756
"05045","Fairlee","VT","Fogg's Hardware & Building Supply","50 Lake Morey Rd","05045",43.9041,-72.149699
"05048","Hartland","VT","Town Line Equipment","1474 State Highway 12A","03781",43.5205180451141,-72.38450518099533
"05055","Norwich","VT","Fogg's Hardware and Building Supply","301 US Route 5 S","05055",43.7168459,-72.296621
"05055","Norwich","VT","Hanover True Value","7 South St","03755",43.69999908,-72.28826458
"05060","Randolph","VT","Central Supplies","839 VT Route 12 S","05060",43.9007,-72.656199
"05060","Randolph","VT","Bisbee's Hardware","107 VT Route 12 S","05060",43.91272005815239,-72.66368742191422
"05068","South Royalton","VT","Welch's True Value Hardware","3626 Vermont Route 14","05068",43.82507638010927,-72.54275767981818
"05089","Windsor","VT","Aubuchon Hardware","2745 US Route 5 N","05089",43.48602294921875,-72.3844985961914
"05091","Woodstock","VT","WELCH'S WOODSTOCK TRUE VALUE","2517 W Woodstock Rd","05091",43.602046966552734,-72.56388092041016
"05091","Woodstock","VT","Woodstock Home & Hardware","452 Woodstock Rd","05091",43.630484,-72.5049722
"05101","Bellows Falls","VT","J & H Sporting Goods","2 The Sq","05101",43.13399887084961,-72.44454956054688
"05143","Chester","VT","Bibens Ace Hardware","362 River Road","05150",43.314349,-72.502961
"05143","Chester","VT","Sherwin-Williams Paint Store","246 River St","05156",43.308254255737026,-72.4973201751709
"05143","Chester","VT","Chester Do It Best Hardware","not_available","05143",43.25922433074814,-72.59919770940317
"05148","Londonderry","VT","Sigda Servistar Lumber And Home Center","2046 Vt Route 100","05155",43.18039284312063,-72.81786622034566
"05148","Londonderry","VT","Husqvarna US","50 Smith Haven Ln","05155",43.178340911865234,-72.81832885742188
"05148","Londonderry","VT","Londonderry Hardware","not_available","05148",43.22844872311795,-72.81543114943796
"05149","Ludlow","VT","Lavalley's","not_available","05149",43.391512128584985,-72.68043764554356
"05149","Ludlow","VT","Aubuchon Hardware","142 Main St","05149",43.395824,-72.699619
"05155","South Londonderry","VT","Lincoln Maples Hardware","1 River Rd","05340",43.14468002319336,-72.87674713134766
"05156","Springfield","VT","Depot Home Center","56 Depot St","03603",43.23475646972656,-72.42607879638672
"05201","Bennington","VT","Tractor Supply Co.","300 Depot St","05201",42.884872,-73.19904
"05201","Bennington","VT","The Home Depot","121 N Bennington Rd","05201",42.90816007196056,-73.21845889091492
"05201","Bennington","VT","Different Strokes","Benmont Ave.","not_available",42.880135,-73.200981
"05201","Bennington","VT","Greenberg's  Home Center","321 Main St","05201",42.878183,-73.198371
"05201","Bennington","VT","Sherwin-Williams Paint Store","214 Northside Dr","05201",42.898556490590906,-73.21266531944273
"05201","Bennington","VT","Endless Spring Organics and Hydroponics","1835 Vt Rte  7A","05262",42.958629,-73.208839
"05201","Bennington","VT","Husqvarna US","309 Gage St","05201",42.88134765625,-73.19227600097656
"05201","Bennington","VT","Airgas","not_available","05201",42.915832,-73.210346
"05250","Arlington","VT","MILES TRUE VALUE LBR.","178 Chittenden Dr","05250",43.0722770690918,-73.1518325805664
"05255","Manchester Center","VT","R.k. Miles","618 Depot St","05255",43.172403,-73.046203
"05255","Manchester Center","VT","Sherwin-Williams Paint Store","263 Depot St","05255",43.175587,-73.052233
"05255","Manchester Center","VT","Friends Of The Sun","159 Depot St","05255",43.17631149291992,-73.05431365966797
"05255","Manchester Center","VT","Aubuchon Hardware","1131 Depot St","05255",43.174104379865426,-73.03692324536811
"05255","Manchester Center","VT","Manchester Power House","not_available","05255",43.17396273214274,-73.03706013026714
"05301","Brattleboro","VT","Bibens Ace Hardware","182 Main Street","05301",42.8536429,-72.558903
"05301","Brattleboro","VT","Perkins Home Center","RT 9","not_available",42.88523055,-72.54309327
"05301","Brattleboro","VT","Renew Salvage","not_available","05301",42.871207810767366,-72.55622006474675
"05301","Brattleboro","VT","Martin's Fireside True Value Hardware","895 Putney Rd","05301",42.87919998168945,-72.55867004394531
"05301","Brattleboro","VT","Tractor Supply Co.","670 Brattleboro Rd","03451",42.80787513764875,-72.53027874603269
"05301","Brattleboro","VT","F W Webb","John Seitz drive","05301",42.827751,-72.566284
"05301","Brattleboro","VT","Leader Home Centers","225 Marlboro Rd","05301",42.86587,-72.611904
"05301","Brattleboro","VT","Cersosino Lumber Company","not_available","05354",42.82465947228854,-72.54838155264142
"05301","Brattleboro","VT","Sherwin-Williams Paint Store","659 Putney Rd","05301",42.87307,-72.55829
"05301","Brattleboro","VT","Vermont Plumbing Supply - Premier Supply Group","22 Browne Cr","05301",42.888414,-72.550716
"05345","Newfane","VT","W W Building Supply","7 Loop Rd","05345",42.982342,-72.656662
"05345","Newfane","VT","Husqvarna US","104 Riverdale Rd","05353",43.028751373291016,-72.66175079345703
"05363","Wilmington","VT","W W Building Supply","434 Route 100","05363",42.89222897490789,-72.85789714884426
"05363","Wilmington","VT","W W Building Supply","211A W Rt 9","05363",42.86625641095384,-72.86683368124748
"05401","Burlington","VT","Curtis Lumber - Burlington","315 Pine St","05401",44.471238,-73.216033
"05401","Burlington","VT","Ace City Tools","not_available","05401",44.477196,-73.21357
"05401","Burlington","VT","City Hardware","156 College St","05401",44.477177,-73.213631
"05401","Burlington","VT","Fastenal","Winooski, Vermont","05404",44.49143981933594,-73.18568420410156
"05401","Burlington","VT","Bibens Ace Hardware-Burlington","1127 North Ave","05401",44.506491,-73.245787
"05401","Burlington","VT","Vermont Paint Company","99 N Champlain St","05401",44.483302,-73.218158
"05401","Burlington","VT","Ace Hardware","Ethan Allen Shopping Ctr","05401",44.50548963012054,-73.24584889273655
"05401","Burlington","VT","Sears","155 Dorset St","05403",44.46674793,-73.18393199
"05401","Burlington","VT","ReBUILD","339 Pine St","05401",44.469862,-73.216033
"05403","South Burlington","VT","Lowe's","189 Hannaford Drive","05403",44.4410837,-73.2147618
"05403","South Burlington","VT","Harbor Freight","not_available","05403",44.424958,-73.211825
"05403","South Burlington","VT","Bibens Ace Hardware","1961 Williston Road","05403",44.460138,-73.149589
"05403","South Burlington","VT","Curtis Lumber - Williston","349 Leroy Rd","05495",44.448981,-73.138181
"05403","South Burlington","VT","Aubuchon Hardware","47 Hinesburg Rd","05403",44.46608910351752,-73.17321442822573
"05403","South Burlington","VT","Grainger Industrial Supply","20 Gregory Dr","05403",44.45400619506836,-73.1396255493164
"05403","South Burlington","VT","The Boondocks","189 Hannaford Dive","05403",44.440938,-73.214068
"05403","South Burlington","VT","Aubuchon Hardware","Commerce Square","05403",44.482851,-73.15416
"05403","South Burlington","VT","Danaher Custom Services","10 Keari Ln","05403",44.425479888916016,-73.2006607055664
"05403","South Burlington","VT","Sherwin-Williams Paint Store","1242 Shelburne Rd","05403",44.4353141784668,-73.20883178710938
"05403","South Burlington","VT","HD Supply A.H. Harris","6 Ethan Allen Dr","05403",44.48560178,-73.16167828
"05403","South Burlington","VT","Fastenal","Leroy Drive","not_available",44.448492,-73.134706
"05443","Bristol","VT","Martins Hardware & Building Supply Co.","68 West St","05443",44.134754,-73.086896
"05443","Bristol","VT","Mountain View Equipment","not_available","05753",44.038624,-73.16219
"05444","Cambridge","VT","Aubuchon Hardware","4879 Route 15","5464",44.64550070159314,-72.83360118462237
"05445","Charlotte","VT","Yandow Sales &  Service","not_available","05473",44.26239439803815,-73.23080594281755
"05446","Colchester","VT","Lowe's","10 Susie Wilson Road","05452",44.5064565,-73.1387221
"05446","Colchester","VT","Bibens Ace Hardware","713 West Lakeshore Drive","05446",44.5499999,-73.227699
"05446","Colchester","VT","Sherwin-Williams Paint Store","83B Pearl St","05452",44.49490191330922,-73.11970198202079
"05446","Colchester","VT","Burlington Tool Repair","not_available","05452",44.509587099539615,-73.13242004742126
"05446","Colchester","VT","Twin State Building Supply","11 Clapper Rd","05468",44.60361862182617,-73.16239166259766
"05446","Colchester","VT","CCR Sales and Service LLC","183 Colchester Rd","05452",44.5143,-73.12152
"05446","Colchester","VT","Ferguson Waterworks","429 Troy Ave","05446",44.508434,-73.149033
"05446","Colchester","VT","Aubuchon Hardware","87 Pearl St","05452",44.49494110866073,-73.11999975127523
"05446","Colchester","VT","KC Mechanical","162 Jimmo Dr","05446",44.593238830566406,-73.16840362548828
"05450","Enosburg Falls","VT","Green's Ace Hardware","6 Railroad St","05450",44.907746,-72.802368
"05450","Enosburg Falls","VT","Bates Farm, Home & Garden","Depot street","not_available",44.90848376681379,-72.8013246084291
"05450","Enosburg Falls","VT","Sticks And Stuff","not_available","05450",44.90781180315746,-72.81800102826504
"05452","Essex Junction","VT","Jerihill Ace Hardware","249 VT Route 15","05465",44.5031439,-73.002178
"05452","Essex Junction","VT","Aubuchon Hardware","Essex Junction Shopping Center","5452",44.50199,-73.0204
"05452","Essex Junction","VT","Bibens Ace Hardware","15 Essex Way","05452",44.4977,-73.080299
"05452","Essex Junction","VT","Aubuchon Hardware","90 Center Rd","05452",44.511871337890625,-73.06581115722656
"05454","Fairfax","VT","J & L Hardware","4 Field Rd","05454",44.655946,-73.008843
"05454","Fairfax","VT","GT Generator","161 Bryce Blvd","05454",44.69057846069336,-73.09516143798828
"05455","Fairfield","VT","Tractor Supply Co.","2636 Highgate Rd","05478",44.846176,-73.078405
"05455","Fairfield","VT","Franklin Rental Sales Center","470 Sheldon Rd","05478",44.826962,-73.072631
"05455","Fairfield","VT","Aubuchon Hardware","204 Swanton Rd","05478",44.838718,-73.082705
"05455","Fairfield","VT","Sherwin-Williams Paint Store","133 N Main St","05478",44.815103442216866,-73.08150187898131
"05455","Fairfield","VT","St Albans Ace Hardware","109 N Main St","05478",44.8150509,-73.081424
"05455","Fairfield","VT","Franklin Rental","not_available","05478",44.826507,-73.072525
"05455","Fairfield","VT","gtm","362 Swanton Rd","05478",44.838321685791016,-73.08370971679688
"05456","Ferrisburgh","VT","Aubuchon Hardware","113 Monkton Rd Unit F","05491",44.172560230473614,-73.23996267507977
"05458","Grand Isle","VT","Bill's Sports Shop","193 US Route 2","05458",44.72041702270508,-73.29495239257812
"05459","Highgate Center","VT","O C McCuin & Sons True Value","3337 Vermont - Rte 78","05459",44.93841896,-73.04564107
"05461","Hinesburg","VT","Mega Depot","924 Pond Rd","05461",44.3537712097168,-73.0968246459961
"05461","Hinesburg","VT","Aubuchon Hardware","22 Commerce St #1","05461",44.334141,-73.11126
"05465","Jericho","VT","Ace Hardware","245 VT Route 15","05465",44.511149,-72.962959
"05465","Jericho","VT","Richmond Home Supply Inc.","99 Railroad St","05477",44.40436935424805,-72.99479675292969
"05468","Milton","VT","Aubuchon Hardware","Milton Plaza","05468",44.62464638225439,-73.11903453255215
"05468","Milton","VT","Milton Ace Hardware","5 Southerberry Dr","05468",44.6235,-73.132499
"05468","Milton","VT","Husqvarna US","PO Box 28","05468",44.641021728515625,-73.13141632080078
"05468","Milton","VT","Milton Equipment","Rt 7 South","05468",44.627374177732925,-73.14038515090942
"05472","New Haven","VT","Aubuchon Hardware","Village Court","5753",44.06672,-73.21623
"05478","Saint Albans","VT","Swanton Lumber","11 N River St","05488",44.923134,-73.129325
"05478","Saint Albans","VT","Aubuchon Hardware","115 Falls","05478",44.776458,-73.131833
"05478","Saint Albans","VT","Sticks and Stuff","1962 Sheldon Rd","05478",44.820056,-73.086095
"05478","Saint Albans","VT","Aubuchon Hardware","26 Canada St","05488",44.91972732543945,-73.12319946289062
"05482","Shelburne","VT","Tractor Supply Co.","3708 Shelburne Rd","05482",44.40231342041414,-73.21877172894507
"05482","Shelburne","VT","Aubuchon Hardware","50 Shelburne Shopping Park","05482",44.379765,-73.225244
"05486","South Hero","VT","Robinson's Hardware","Route 2","05486",44.64554,-73.308227
"05495","Williston","VT","The Home Depot","759 Harvest Ln","05495",44.4416144,-73.119016
"05495","Williston","VT","Norandex Building Materials","78 Adams Dr","05495",44.459720611572266,-73.1345443725586
"05495","Williston","VT","Sid Harvey's","not_available","05495",44.449005,-73.134517
"05495","Williston","VT","Harvest Equipment","4705 Williston Rd","05495",44.451618,-73.118759
"05495","Williston","VT","Overhead Door Co.","5375 Williston Road","05495",44.453904,-73.118468
"05602","Montpelier","VT","Sears","1598 US Route 302 - Berlin","05641",44.2311477,-72.5530319
"05602","Montpelier","VT","Allen Lumber","707 Stone Cutters Way","05602",44.252766,-72.570992
"05602","Montpelier","VT","Aubuchon Hardware","63 Plaza Dr","05663",44.16161,-72.655125
"05602","Montpelier","VT","Sherwin-Williams Paint Store","62 River St","05602",44.249337,-72.565224
"05602","Montpelier","VT","Guy's Repair Shop","16 Brook St","05641",44.204008,-72.507907
"05602","Montpelier","VT","Tractor Supply Co.","352 River St","05602",44.24027,-72.55211
"05602","Montpelier","VT","Sticks N' Stuff","13 Gallagher Rd","05602",44.29248475563095,-72.64510143222725
"05602","Montpelier","VT","Aubuchon Hardware","40 Main St","05602",44.25931188856465,-72.57648478040174
"05641","Barre","VT","F. W. Webb","10 Clark Rd","05641",44.22745308953064,-72.4888329038874
"05641","Barre","VT","Nelson Hardware","188 N Main St Suite 4","05641",44.1989,-72.503399
"05641","Barre","VT","Clark's Feed Store","51 Prospect St","05641",44.196752,-72.502899
"05641","Barre","VT","Trow & Holden","45 S Main St","05641",44.19472836014061,-72.50064611434937
"05647","Cabot","VT","Harry's Hardware","3087 Main St","05647",44.402497,-72.311464
"05651","East Montpelier","VT","Plainfield Hardware","4723 US Rt 2","05667",44.27215540243335,-72.45367761056501
"05651","East Montpelier","VT","East Montpelier Home Center","2540 Rte 2","05651",44.26642170455532,-72.49215680208046
"05651","East Montpelier","VT","Fontane Sawmill","not_available","05651",44.276482,-72.477871
"05655","Hyde Park","VT","Aubuchon Hardware","925A Brooklyn St","05661",44.5757201845774,-72.5932351053839
"05655","Hyde Park","VT","Country Home Center","85 Center Rd","05661",44.5752889,-72.591386
"05655","Hyde Park","VT","Tractor Supply Co.","88 Center Rd","05661",44.5755615234375,-72.5902328491211
"05655","Hyde Park","VT","Menard's Family True Value","780 Brooklyn St","05661",44.5733287890743,-72.59393219239374
"05656","Johnson","VT","Johnson Farm And Garden","1442 Route 15","05656",44.64292857475314,-72.71757311367985
"05660","Moretown","VT","Kenyons Variety","3337 Main St","05673",44.200435638427734,-72.81018829345703
"05661","Morrisville","VT","Stowe Hardware & Dry Goods","430 Mountain Rd","05672",44.471489,-72.687893
"05661","Morrisville","VT","Guy's Farm & Yard","154-190 Pleasant St","05661",44.56374656166041,-72.59857942605213
"05661","Morrisville","VT","Sears","65 Northgate Plaza","05661",44.5710939,-72.5946146
"05661","Morrisville","VT","PARKER & STEARNS, INC.","354 S Main St","05672",44.46223068237305,-72.6910400390625
"05661","Morrisville","VT","Husqvarna US","541 Vt Route 15 E","05661",44.57048797607422,-72.5844955444336
"05663","Northfield","VT","Kenyons True Value","93 N Main St","05663",44.15048482,-72.65594836
"05673","Waitsfield","VT","Bisbee's Ace Hardware","109 Mad River Vw","05673",44.181049,-72.840059
"05673","Waitsfield","VT","Allen Lumber","154 Carroll Rd","05673",44.18861,-72.835353
"05675","Washington","VT","Husqvarna US","251 Macdonald Rd","05675",44.10334777832031,-72.44464111328125
"05676","Waterbury","VT","Hannon Home Center / Aubuchon Hardware","16 Mason Dr","5676",44.32492446899414,-72.74531555175781
"05676","Waterbury","VT","Waterbury True Value","838 Waterbury- Stowe Rd","05676",44.34708622271207,-72.74497127213455
"05676","Waterbury","VT","Glass4Less, AutoGlass, Windshield, Windows LLC","38 N Main St.","05676",44.34148,-72.759775
"05679","Williamstown","VT","Poulin Lumber","258 Meadow St","05679",44.1219139,-72.535987
"05679","Williamstown","VT","Farm N' Country Hardware","2383 VT Route 14","05679",44.12177276611328,-72.54066467285156
"05680","Wolcott","VT","Aubachon Hardware","not_available","05843",44.514619,-72.374373
"05680","Wolcott","VT","Poulin Lumber","439 Wolcott St","05843",44.50911173,-72.37284877
"05701","Rutland","VT","Tractor Supply Co.","1177 Us Rte 7 South","05759",43.574115343758045,-72.96500179922525
"05701","Rutland","VT","The Home Depot","299 US Route 4 E","05701",43.623972401362785,-72.95569360256195
"05701","Rutland","VT","Noble Ace","261 N Main St","05701",43.6122999,-72.973399
"05701","Rutland","VT","Green Mountain rentals","not_available","05701",43.619850158691406,-72.96456146240234
"05701","Rutland","VT","Rotella Bldg Materials Inc","317 West St","05701",43.6060067285288,-72.990904220378
"05701","Rutland","VT","Ferguson Waterworks","134 Park St","05701",43.5914306640625,-72.98055267333984
"05701","Rutland","VT","Aubuchon Hardware","172 S Main St","05701",43.596614837646484,-72.96923828125
"05701","Rutland","VT","Otter Valley Supply","2 Ripley Rd","05701",43.60417,-73.004095
"05701","Rutland","VT","Sherwin-Williams Paint Store","76 Woodstock Ave","05701",43.61280712897708,-72.96505451202393
"05701","Rutland","VT","Reynolds & Son","not_available","05759",43.589846,-72.967493
"05733","Brandon","VT","Husqvarna US","PO Box 342","05763",43.71243667602539,-73.00701904296875
"05733","Brandon","VT","Brandon Lumber & Millwork","11 Grove St","05733",43.8012,-73.093699
"05733","Brandon","VT","Aubuchon Hardware","10 Center St","05733",43.798789978027344,-73.08889770507812
"05734","Bridport","VT","Broughton's Big Country Hardware","3437 22A","05734",43.98168,-73.31217
"05734","Bridport","VT","Broughton True Value  Hardware","3437 Vermont-Rte 22A","05734",43.97886,-73.34359
"05734","Bridport","VT","The Laptop Shop","6182 VT-125","05734",44.00097251405482,-73.36489677429199
"05734","Bridport","VT","Huestis Farm Supply","3877 Crown Point Rd","05734",43.95677947998047,-73.36602020263672
"05734","Bridport","VT","BROUGHTON TRUE VALUE HDWE","3437 Vt Route 22A","05734",43.98170852661133,-73.31217193603516
"05735","Castleton","VT","Gilmore Home Center","427 Route 4 A","05732",43.60790078699996,-73.21675972780304
"05739","Danby","VT","Husqvarna US","695 Danby Pawlet Rd","05739",43.35628890991211,-73.06092071533203
"05742","East Wallingford","VT","Nail It Down Hardware","34 Maple St","05773",43.47663116455078,-72.97708892822266
"05743","Fair Haven","VT","Aubuchon Hardware","192 Broadway","12887",43.54669189453125,-73.40692901611328
"05743","Fair Haven","VT","Aubuchon Hardware","Shaw's Plaza","05743",43.603677179170546,-73.27602068388036
"05751","Killington","VT","Goodro True Value Of Killington","4489 Route 4","05751",43.65425393,-72.77165794
"05753","Middlebury","VT","Agway","338 Exchange St","05753",44.023944,-73.169588
"05753","Middlebury","VT","Martin's Hardware Of Middlebury","859 Route 7 S","05753",43.99742126464844,-73.14519500732422
"05753","Middlebury","VT","RK Miles","88 Exchange St","05753",44.020016,-73.168853
"05764","Poultney","VT","Williams Hardware Inc.","51 Main St","05764",43.51701297,-73.23385395
"05773","Wallingford","VT","Lavalley Lumber","not_available","05773",43.408136,-72.997632
"05819","Saint Johnsbury","VT","Sherwin-Williams Paint Store","422 Portland St","05819",44.420717,-72.007277
"05819","Saint Johnsbury","VT","Aubuchon Hardware","664 Memorial Dr","05819",44.442214943284185,-72.01438533801728
"05819","Saint Johnsbury","VT","Dads 4 By Tool & Supply","22 Memorial Dr","05819",44.43207732001506,-72.01716151929544
"05819","Saint Johnsbury","VT","F. W. Webb","U. S. Route 2","not_available",44.42929,-71.973363
"05819","Saint Johnsbury","VT","St. Jay Hardware Inc.","74 Eastern Ave","05819",44.41812169,-72.01732506
"05819","Saint Johnsbury","VT","Husqvarna US","1746 Memorial Dr","05819",44.45758819580078,-72.01527404785156
"05822","Barton","VT","Evansville Trading Post & True Value","645 Evansville Rd","05860",44.80325147,-72.13248391
"05822","Barton","VT","EM Brown & Sons","169 Main St","05822",44.74772262573242,-72.1763916015625
"05828","Danville","VT","Larrabee's Building Supply","1410 Rte 2 W","05873",44.41097645,-72.16809649
"05829","Derby","VT","Sears","3609 U.S. Route 5","05829",44.95230858173319,-72.14052889198979
"05829","Derby","VT","True Value Rental","3262 US Route 5","05829",44.9540689435,-72.1330562258
"05829","Derby","VT","True Value Rental","3262 Us Route 5","05829",44.95512390136719,-72.1335220336914
"05829","Derby","VT","Husqvarna US","PO Box 8","05829",44.95103454589844,-72.10792541503906
"05829","Derby","VT","Poulin Lumber","3639 U.S. 5","05829",44.9522462,-72.14115145
"05830","Derby Line","VT","RONA A. Fluet & Fils","8 Rue Principale","J0B 3E5",45.0065964660218,-72.14173839257455
"05841","Greensboro","VT","Willey's True Value Hardware","7 Breezy Ave","05841",44.57565,-72.295493
"05846","Island Pond","VT","Gervais Ace Hardware","62 Cross St","05846",44.813749,-71.881838
"05851","Lyndonville","VT","LYNDONVILLE HDWE","583 Broad St","05851",44.528011322021484,-72.0013656616211
"05855","Newport","VT","Pick and Shovel","54 Coventry St","05855",44.935144969387906,-72.20781878611848
"05855","Newport","VT","Tractor Supply Co.","124 Commerce Way","05855",44.953665,-72.155691
"05860","Orleans","VT","Larry's Tractor Shop","not_available","05860",44.81317349518532,-72.20626415193499
"05860","Orleans","VT","J.B. Colton","66 Main St","05860",44.81003977130824,-72.20386988262314
"05903","Canaan","VT","Columbia Home & Building Supply Inc.","1953 US Route 3","03576",44.876976013183594,-71.51358795166016
"05903","Canaan","VT","CN Brown Energy","12 Brandy Lee Lane","03576",44.8932138,-71.5033727
"05903","Canaan","VT","Hicks Hardware","not_available","03576",44.893940138101094,-71.49649255305745
"05905","Guildhall","VT","Ace Hardware","31 Perras Rd","03584",44.56203842163086,-71.57058715820312
"05905","Guildhall","VT","FB Spaulding CO","244 Main St","03584",44.49837112426758,-71.57515716552734
"05905","Guildhall","VT","Lancaster Hardware & Home Center","200 Main St","03584",44.494673,-71.57491800000001
