"zip","city","state","name","address","postalCode","lat","lon"
"01001","Agawam","MA","Rocky's Ace Hardware","10 Springfield St","01001",42.089294,-72.627324
"01001","Agawam","MA","Kittredge","not_available","not_available",42.05956228213376,-72.65226731314287
"01001","Agawam","MA","Harbor Freight Tools","1150 Union Street Ext #B","01089",42.094547556148555,-72.6062297580748
"01001","Agawam","MA","Rexel","338a Memorial Drive","01089",42.096548,-72.602604
"01001","Agawam","MA","Atlantic Fasteners","Haywood Ave","01089",42.093716,-72.622349
"01001","Agawam","MA","Sherwin-Williams Paint Store","835 Memorial Ave","01089",42.09503404653641,-72.61102437973022
"01001","Agawam","MA","Budget Cabinets","300 Main St","01001",42.082446999999995,-72.616897
"01001","Agawam","MA","Sanford & Hawley, Inc.","not_available","01089",42.09525269680459,-72.61958374298065
"01001","Agawam","MA","Bath & Kitchen Gallery","1060 Memorial Ave","01089",42.09439995,-72.61540588
"01002","Amherst","MA","Boyden & Perron Inc","41 S Whitney St","01002",42.374542,-72.508987
"01002","Amherst","MA","Leader Home Centers","150 College St","01002",42.373629,-72.511904
"01002","Amherst","MA","Cowls Building Supply","125 Sunderland Rd","01002",42.4146,-72.53144300000001
"01002","Amherst","MA","Sherwin-Williams Paint Store","458 Russell St","01035",42.36612262715912,-72.53701686859131
"01005","Barre","MA","Husqvarna US","140 Worcester Rd #1","01005",42.40633773803711,-72.0949478149414
"01005","Barre","MA","Leader Home Centers","99 S Barre Rd","01005",42.405668,-72.09939399999999
"01007","Belchertown","MA","Tractor Supply Co.","30 Turkey Hill Rd","01007",42.266352000000005,-72.419302
"01007","Belchertown","MA","Husqvarna US","10 Ware Rd","01007",42.28433609008789,-72.39059448242188
"01007","Belchertown","MA","Stadler Hardware","3 Stadler St","01007",42.272015,-72.409599
"01010","Brimfield","MA","County Line True Value Hardware","341 Sturbridge Rd","01010",42.111108,-72.145554
"01010","Brimfield","MA","Infinite Granite","310 Sturbridge Rd","01010",42.112628,-72.151137
"01013","Chicopee","MA","The Home Depot","179 Daggett Dr","01089",42.134409656926216,-72.61886715888977
"01013","Chicopee","MA","Tri County Contractor Supply","154 Wayside Ave","01089",42.142790000000005,-72.622902
"01013","Chicopee","MA","Lavato Supply Co","165 Front St","01013",42.147217,-72.613047
"01013","Chicopee","MA","Lindco Springfield","176 Wayside Ave","01089",42.142941,-72.622152
"01013","Chicopee","MA","HD Supply A.H. Harris","323 Meadow St","01013",42.17741672,-72.61332912
"01013","Chicopee","MA","Holyoke Lock Company","170 Montgomery St","01020",42.164878845214844,-72.58348083496094
"01013","Chicopee","MA","Granite City Electric","451 Meadow Street","01013",42.174468,-72.614188
"01013","Chicopee","MA","Granite City","119 Fisk Ave","01107",42.123001,-72.61301800000001
"01020","Chicopee","MA","The Home Depot","655 Memorial Dr","01020",42.1760119,-72.5740658
"01020","Chicopee","MA","Bargain Outlet","1956 Memorial Drive","01020",42.210342,-72.57308
"01020","Chicopee","MA","Westover Building Supply","37 Telegraph Ave","01020",42.20215,-72.57878199999999
"01020","Chicopee","MA","Sherwin-Williams Paint Store","544 Memorial Dr","01020",42.173924,-72.577014
"01020","Chicopee","MA","Larrys Supply","151 East St","01020",42.155165999999994,-72.576035
"01020","Chicopee","MA","minuteKEY","591 Memorial Dr","01020",42.1735191,-72.5763826
"01020","Chicopee","MA","Maine Oxy","40 Haynes Cir","01020",42.162239,-72.556955
"01020","Chicopee","MA","Sherwin-Williams Commercial Paint Store","90 Carando Dr","01104",42.145757,-72.535145
"01020","Chicopee","MA","Fastenal","190 Brookdale Dr, Springfield, MA 01104","01104",42.14649200439453,-72.52796936035156
"01020","Chicopee","MA","Rocky's Ace Hardware","1381 Liberty St","01104",42.140077000000005,-72.58160600000001
"01020","Chicopee","MA","Ferguson Waterworks","1125 Sheridan St","01022",42.185542,-72.557716
"01020","Chicopee","MA","Amber Energy Online","91 Main St","01075",42.21479859999999,-72.5958915
"01020","Chicopee","MA","PRO Equipment Rental","280 Brookdale Dr, Springfield, MA 01104","01104",42.14844512939453,-72.52538299560547
"01020","Chicopee","MA","ProSource of Springfield","149 Carando Dr","01104",42.14538,-72.53217
"01020","Chicopee","MA","Springfield Plumbing Supply","660 Broadway St","01020",42.140614,-72.582521
"01027","Easthampton","MA","Manchester Hardware","65 Union St","01027",42.268316,-72.670529
"01027","Easthampton","MA","Foster Farrar True Value","145 King St","01060",42.325145,-72.63239300000001
"01027","Easthampton","MA","Just Ask Rental","not_available","01027",42.2683,-72.6709
"01027","Easthampton","MA","Sherwin-Williams Paint Store","312 King St","01060",42.334004,-72.63624200000001
"01027","Easthampton","MA","Hampden Zimmerman","440","not_available",42.31330871582031,-72.6242446899414
"01027","Easthampton","MA","Northampton Plumbing Supply - Premier Supply Group","168 Industrial Dr","01060",42.335695,-72.632847
"01027","Easthampton","MA","Northampton Lumber Company","256 Pleasant St","01060",42.316990000000004,-72.625842
"01027","Easthampton","MA","Auto Plus","not_available","01060",42.33337,-72.63754
"01027","Easthampton","MA","Tractor Supply Co.","2 College Hwy","01073",42.253935,-72.69718
"01027","Easthampton","MA","Easthampton Feed","18 Mechanic St","01027",42.269144,-72.667831
"01027","Easthampton","MA","Aubuchon Hardware","168 Northampton St","01027",42.283546,-72.667511
"01028","East Longmeadow","MA","Rocky's Ace Hardware","28 N Main St","01028",42.065395,-72.513321
"01028","East Longmeadow","MA","Besttile","311 Belmont Ave","not_available",42.07362944516432,-72.50995385022345
"01028","East Longmeadow","MA","Taylor True Value Rental","200 Shaker Rd","01028",42.0558078120325,-72.5181246148925
"01028","East Longmeadow","MA","Stud Hugger","444-A North Main Street #324  East","01028",42.07741928100586,-72.52680969238281
"01028","East Longmeadow","MA","All Hose Inc","341 Shaker Rd","01028",42.047925,-72.519391
"01028","East Longmeadow","MA","Kelly Fradet Lumber","north main street","01028",42.07990110004093,-72.53476035072786
"01028","East Longmeadow","MA","The Coating House Inc.","15 Benton Dr","01028",42.045654,-72.532966
"01028","East Longmeadow","MA","Acres Power Equipment Company","104 Shaker Rd","01028",42.060061,-72.51498199999999
"01033","Granby","MA","Allpower","​43 W State St","01033",42.244997,-72.546932
"01033","Granby","MA","Fairway Wholesale","not_available","01075",42.21918382652118,-72.55146037731271
"01033","Granby","MA","Tj's True Value Rental","577 Granby Rd","01075",42.2389388889,-72.5566755556
"01034","Granville","MA","Wackerbarth Box Shop","382 Granby Rd, Granville, MA 01034","01034",42.04132080078125,-72.86187744140625
"01035","Hadley","MA","Lowe's","282 Russell Street","01035",42.3534942,-72.5637546
"01035","Hadley","MA","The Home Depot","350 Russell St","01035",42.3598208,-72.5519992
"01035","Hadley","MA","Rocky's Ace Hardware","299 Russell St","01035",42.352356,-72.559774
"01035","Hadley","MA","Tj's  True Value Rental","301 Russell St","01035",42.3523582289272,-72.5617074437227
"01035","Hadley","MA","The Gutterman","88 Russell St","01035",42.341514000000004,-72.59875600000001
"01036","Hampden","MA","Hampden Hardware","Main St.","01036",42.062723,-72.420198
"01040","Holyoke","MA","Highland True Value Hardware & Bike Shop","917 Hampden St","01040",42.21332879,-72.62291004
"01040","Holyoke","MA","Taylor Rental","14 Shawmut Ave","01040",42.209787,-72.62649
"01040","Holyoke","MA","Sherwin-Williams Paint Store","2221 Northampton St","01040",42.185496,-72.633004
"01040","Holyoke","MA","Sears","2209 North Hampton Street","01040",42.1840638,-72.63300319999999
"01040","Holyoke","MA","Window World","not_available","01040",42.189946,-72.677351
"01056","Ludlow","MA","Rocky's Ace Hardware","442 Center St","01056",42.167793,-72.481319
"01056","Ludlow","MA","Ludlow Floor Sanding","58 Devens St","01151",42.153358459472656,-72.485595703125
"01056","Ludlow","MA","The Saw Center","472 Main St","01105",42.156608,-72.48854200000001
"01057","Monson","MA","Squier Lumber & Hardware","5 Squier Ave","01057",42.0962677,-72.31485839999999
"01057","Monson","MA","U Save Mattress","not_available","01069",42.15913428621914,-72.34356818634726
"01057","Monson","MA","Cross Globe Distribution","132 Bethany Rd","01057",42.120079,-72.307994
"01069","Palmer","MA","Lowe's","348 Palmer Road","01082",42.2376641,-72.2759788
"01069","Palmer","MA","Rocky's Ace Hardware","1583 N Main St","01069",42.162536,-72.341752
"01075","South Hadley","MA","Rocky's Ace Hardware","487 Newton St","01075",42.2357919,-72.582733
"01075","South Hadley","MA","Prolines","31 Boynton Ave","01075",42.240119,-72.57965899999999
"01077","Southwick","MA","IBS (Interstate Building Supply)","635 College Hwy","01077",42.06650161743164,-72.76510620117188
"01077","Southwick","MA","Tractor Supply Co.","673 College Hwy","01077",42.071699,-72.76604
"01082","Ware","MA","Cluett's Furniture","23 E Main St","01082",42.259669,-72.2389267
"01083","Warren","MA","E Z True Value","18 W Main St","01585",42.233791,-72.143336
"01085","Westfield","MA","The Home Depot","514 E Main St","01085",42.1135406,-72.7209014
"01085","Westfield","MA","Home Depot Distribution Center","50 Campanelli Dr","not_available",42.168914066177024,-72.73577028412521
"01085","Westfield","MA","Jerome's  Party Plus","253 Union St","01085",42.1241003869772,-72.7208697951902
"01085","Westfield","MA","06037","not_available","06037",42.132731,-72.748248
"01085","Westfield","MA","Rocky's Ace Hardware","2 Free St","01085",42.1207929,-72.746737
"01085","Westfield","MA","Fastenal","121 Summit Lock Rd, Westfield, MA","01085",42.174530029296875,-72.72940063476562
"01085","Westfield","MA","Sullivan Siding & Windows","83 Pinehurst St","01085",42.142070000000004,-72.746623
"01085","Westfield","MA","Bargain Outlet","not_available","01085",42.11312713717028,-72.72739468258513
"01089","West Springfield","MA","Grand Central Vac","1838 Riverdale St","01089",42.152809143066406,-72.63127136230469
"01089","West Springfield","MA","F. C. Taplin Co.","120 Interstate Dr","01089",42.158114000000005,-72.649484
"01095","Wilbraham","MA","The Home Depot","2001 Boston Rd","01095",42.1483624,-72.4735842
"01095","Wilbraham","MA","Lowes","not_available","01028",42.1461624288311,-72.48353877290263
"01095","Wilbraham","MA","Preco Power Equipment Supply","2460 Boston Rd","01095",42.14897,-72.44535
"01096","Williamsburg","MA","Husqvarna US","29 Goshen Rd","01096",42.399749755859375,-72.74427032470703
"01104","Springfield","MA","Re-store","174-184 Albany St","01105",42.11964547634125,-72.57530808448792
"01104","Springfield","MA","Serv-U","977 Saint James Ave","01104",42.135337,-72.56811
"01104","Springfield","MA","United Refrigeration","259 Page Blvd","01104",42.132208,-72.56128000000001
"01104","Springfield","MA","Chase Glass","123 Hancock St","01109",42.106342,-72.567949
"01105","Springfield","MA","E.B. Atmus Co.","not_available","01101",42.087841999999995,-72.578939
"01105","Springfield","MA","Plimpton And Hills","25 Mill River Ln","01105",42.08852,-72.579419
"01106","Longmeadow","MA","Brightwood True Value Hardware","794 Williams St","01106",42.055239,-72.55455400000001
"01108","Springfield","MA","Rocky's Ace Hardware","50 Island Pond Rd","01118",42.094471999999996,-72.551681
"01108","Springfield","MA","Marjam Co.","10 Allen St","01108",42.09703,-72.56364
"01108","Springfield","MA","KAKLEY TRUE VALUE HOME CENTER","10 Allen St #185","01108",42.095436096191406,-72.56358337402344
"01109","Springfield","MA","Bargain Outlet","685 Boston Road","01119",42.133807,-72.521432
"01109","Springfield","MA","Sherwin-Williams Paint Store","670 Boston Rd","01119",42.136059,-72.522621
"01118","Springfield","MA","Carr Paint","358 Cooley St","01128",42.094457,-72.501088
"01119","Springfield","MA","Hampden County Plumbing Supply - Premier Supply Group","372 Pasco Rd","01119",42.144605,-72.504307
"01119","Springfield","MA","Dean's Sewer & Drain Cleaning Service","134 Sunrise Ter","01119",42.122871,-72.502505
"01129","Springfield","MA","Lowe's","1560 Boston Road","01129",42.1443669,-72.4916474
"01129","Springfield","MA","Harbor Freight Tools","Boston Rd","01129",42.14406,-72.48723
"01129","Springfield","MA","minuteKEY","1600 Boston Rd","01129",42.144283294677734,-72.48973083496094
"01201","Pittsfield","MA","The Home Depot","555 Hubbard Ave","01201",42.4645374,-73.1995083
"01201","Pittsfield","MA","Dettinger Lumber Company","not_available","01201",42.43158101751071,-73.25816733458566
"01201","Pittsfield","MA","Carr Hardware","547 North St","01201",42.4562013,-73.251403
"01201","Pittsfield","MA","harbor freight","690 Merrill rd","01201",42.466827392578125,-73.2034683227539
"01201","Pittsfield","MA","Johns Building Supply","891 Crane Ave","01201",42.468903999999995,-73.207095
"01201","Pittsfield","MA","Lipton Energy","458 South Street","01201",42.45,-73.26
"01201","Pittsfield","MA","Husqvarna US","1548 W Housatonic St","01201",42.4320068359375,-73.3203125
"01201","Pittsfield","MA","Berkshire Plate Glass","35 First Street","01201",42.44912338256836,-73.2510986328125
"01201","Pittsfield","MA","Tractor Supply Co.","898 Crane Ave Ste 201","01201",42.467537,-73.20638
"01201","Pittsfield","MA","Airgas","536 Dalton Ave","01201",42.466338,-73.209735
"01201","Pittsfield","MA","EcoWater Systems of Austin","126 Holmes Rd #2","78642",42.403664,-73.256701
"01201","Pittsfield","MA","Alliance Appliance","579 Fenn St","01201",42.4488156324851,-73.242437919449
"01201","Pittsfield","MA","Sherwin-Williams Paint Store","929 Dalton Ave","01201",42.469125260573,-73.20078581571579
"01201","Pittsfield","MA","litco supply","Comercial st","01202",42.452282000000004,-73.21508100000001
"01201","Pittsfield","MA","Carr Hardware","489 Pittsfield Rd Ste A-110","01240",42.4043489,-73.2661238
"01220","Adams","MA","H.D. Reynolds General Merchant","52 Church St","01225",42.561640000000004,-73.163798
"01220","Adams","MA","Stanley's Lumber & Building Supplies","20 N Summer St","01220",42.62657544020335,-73.11237891774606
"01226","Dalton","MA","L.P. Adams Co., Inc.","484 Housatonic St","01226",42.46945059999999,-73.1596376
"01226","Dalton","MA","Hinsdale Timbers","Massachusetts 8","01235",42.41986722828411,-73.11368311719534
"01230","Great Barrington","MA","Sears","228 Stockbridge Rd.","01230",42.20563537336589,-73.34586918354034
"01230","Great Barrington","MA","R J Aloisi Electrical Inc","not_available","01230",42.19529513918246,-73.35921853780746
"01230","Great Barrington","MA","Berkshire Fence","Route 7","01257",42.093532367152974,-73.3477592772911
"01230","Great Barrington","MA","Taylor True Value Rental","7 High St","01230",42.198568,-73.361985
"01230","Great Barrington","MA","Aubuchon Hardware","700 Main St Ste 4","01230",42.197154,-73.360704
"01230","Great Barrington","MA","Berkshire County Plumbing Supply - Premier Supply Group","305 Stockbridge Rd","01230",42.210212,-73.346417
"01230","Great Barrington","MA","Waterware Showrooms","10 Crissey Rd","01230",42.211669,-73.34429399999999
"01238","Lee","MA","Lee Hardware True Value","221 Main St","01238",42.308999,-73.252016
"01238","Lee","MA","Dresser Hull Co","60 Railroad St","01238",42.306810887797084,-73.25142300179999
"01238","Lee","MA","Carr Hardware","57 Park St","01238",42.303911,-73.24854300000001
"01238","Lee","MA","Caligari's Hardware","224 Housatonic St","01240",42.355115000000005,-73.267728
"01247","North Adams","MA","Carr Hardware","179 State Rd","01247",42.698398,-73.140598
"01247","North Adams","MA","Husqvarna US","546 Curran Hwy","01247",42.68593978881836,-73.10858154296875
"01247","North Adams","MA","Aubuchon Hardware","41 Union St","01247",42.700702232006876,-73.10731309397231
"01247","North Adams","MA","Tractor Supply Co.","826 Curran Memorial Hwy","01247",42.678862,-73.105627
"01253","Otis","MA","Architectural Construction Supply","46 E Otis Rd","01253",42.19300927109014,-73.09039162498031
"01266","West Stockbridge","MA","AW Baldwin Hardware Store","2 Center St","01266",42.333951,-73.367763
"01267","Williamstown","MA","Aubuchon Hardware","Colonial Shopping Center","01267",42.714158082203745,-73.20651125285177
"01267","Williamstown","MA","Aubuchon Hardware","not_available","01267",42.702259000000005,-73.18328100000001
"01301","Greenfield","MA","The Home Depot","264 Mohawk Trl","01301",42.58484025803726,-72.62828222435064
"01301","Greenfield","MA","Aubuchon Hardware","312 Federal St","01301",42.601482,-72.593921
"01301","Greenfield","MA","Greenfield Farmers Co-op","263-283 Massachusetts 2A","01301",42.60021652419831,-72.5858418835141
"01301","Greenfield","MA","Sherwin-Williams Paint Store","6 Arch St","01301",42.59209512126675,-72.60419011116028
"01301","Greenfield","MA","Leader Home Centers","1123 Bernardston Rd","01301",42.639463,-72.569333
"01301","Greenfield","MA","FW Webb","136 Silvio O Conte Dr","01301",42.618503999999994,-72.571545
"01301","Greenfield","MA","Tractor Supply Co.","72 Newton St","01301",42.583009000000004,-72.618009
"01301","Greenfield","MA","Franklin County Plumbing Supply - Premier Supply Group","340 Chapman St","01301",42.602527,-72.604252
"01301","Greenfield","MA","Taylor Rental Center","369 High St Greenfield","01301",42.603286,-72.58143299999999
"01301","Greenfield","MA","Cowan Auto Supply","not_available","01301",42.60388875123717,-72.58345373673325
"01301","Greenfield","MA","Aubuchon Hardware","Super Value Shopping Center","1376",42.603258700299314,-72.54408962201039
"01301","Greenfield","MA","Bernardston Farmer Supply","43 River St","01337",42.667598999999996,-72.548107
"01330","Ashfield","MA","Ashfield Hardware & Supply","343 Main St","01330",42.526939,-72.794011
"01331","Athol","MA","Sherwin-Williams Paint Store","72 Freedom St","01331",42.592533111572266,-72.23407745361328
"01331","Athol","MA","Hamshaw Lumber Co","68 New Athol Road - Rt 2a","01364",42.584777,-72.272935
"01331","Athol","MA","Wheelen Supply","Route 68","01331",42.61927,-72.13716
"01331","Athol","MA","Tractor Supply Co.","83 New Athol Rd","01364",42.58575533843096,-72.27114446133564
"01331","Athol","MA","Aubuchon Hardware","Aubuchon Plaza","01364",42.584219058454664,-72.26412198203562
"01360","Northfield","MA","Kidder & Co Inc","78 Main St","01360",42.695295,-72.45679167
"01364","Orange","MA","Ace Hardware","68 New Athol Rd - Rt 2a","01364",42.591231,-72.305867
"01370","Shelburne Falls","MA","Aubuchon Hardware","351 Mohawk Trl","01370",42.59228515625,-72.72434997558594
"01373","South Deerfield","MA","Leader Home Centers","16 Elm St","01373",42.477264,-72.6102
"01420","Fitchburg","MA","Aubuchon Hardware","65 Massachusetts Ave","01462",42.587723,-71.769271
"01420","Fitchburg","MA","Grand Station Rental","not_available","01462",42.587669,-71.767542
"01420","Fitchburg","MA","The Home Depot","not_available","01420",42.60999298095703,-71.80440521240234
"01420","Fitchburg","MA","Rocky's Ace Hardware","22 John Fitch Hwy","01420",42.571308,-71.778219
"01420","Fitchburg","MA","Sherwin-Williams Paint Store","200 Whalon St","01420",42.554511,-71.779555
"01420","Fitchburg","MA","Sabourin True Value Hardware","27 Lunenburg St","01420",42.58223852,-71.78964216
"01420","Fitchburg","MA","Pauls Plate Glass","29 water st","01420",42.576906,-71.792191
"01420","Fitchburg","MA","Granite City","7 Powers St","01453",42.530731201171875,-71.75196075439453
"01420","Fitchburg","MA","Builders Surplus","29 Summer St","01462",42.571214000000005,-71.771273
"01420","Fitchburg","MA","Airgas East","510 Crawford St","01420",42.557109999999994,-71.75328
"01420","Fitchburg","MA","Adams' Tool & Nail","North Main St.","01453",42.556533,-71.770968
"01420","Fitchburg","MA","Concord Electric Supply Fitchburg","100 John Fitch Hwy","01420",42.57341481825249,-71.77610675993037
"01420","Fitchburg","MA","Quality Fab","64 Sawyer Passway","01420",42.579993,-71.790789
"01420","Fitchburg","MA","Gettens Lighting Center","50 Crawford St","01420",42.563052,-71.766226
"01420","Fitchburg","MA","Aubuchon Hardware","72 Franklin Rd","01420",42.56880187988281,-71.8144302368164
"01420","Fitchburg","MA","The Granite Group","Hamilton St","01453",42.542662,-71.75523199999999
"01420","Fitchburg","MA","Maki Building Center","160 Massachusetts Ave","01462",42.589486,-71.76517199999999
"01420","Fitchburg","MA","New Life Construction MA","15 Camp St","01453",42.566485,-71.75179399999999
"01430","Ashburnham","MA","Ashburnham True Value Hardware","41 Main St","01430",42.635403000000004,-71.909421
"01430","Ashburnham","MA","Spuria & Son","2 S Pleasant St","01430",42.609249,-71.94093199999999
"01431","Ashby","MA","Husqvarna US","180 Hosmer Rd","01431",42.65853500366211,-71.79109954833984
"01432","Ayer","MA","Aubuchon Hardware","61 Park St","01432",42.564502000000005,-71.590958
"01432","Ayer","MA","Moore's Building Center","203-205 Boston Rd","01824",42.55978635,-71.59065315
"01432","Ayer","MA","Harvard Products, Inc.","325 Ayer Rd Ste A103","01451",42.543125,-71.574655
"01434","Devens","MA","Harvard outdoor power equipment","289 Ayer Rd","01451",42.538807,-71.576272
"01440","Gardner","MA","Maki Building Center","513 Betty Spring Rd","01440",42.567718505859375,-71.95368957519531
"01440","Gardner","MA","Aubuchon Hardware","34 Pearson Blvd","01440",42.565664,-71.97664499999999
"01440","Gardner","MA","Taylor True Value Rental","22 Union Sq","01440",42.5668545833,-71.9825470833
"01440","Gardner","MA","Gardner Agway","633 Massachusetts 2A","01440",42.564265,-72.00658100000001
"01440","Gardner","MA","Chairtown Lumber","not_available","01440",42.57234,-72.008798
"01440","Gardner","MA","Concord Electric Supply","750 W Broadway","01440",42.564346,-72.012597
"01440","Gardner","MA","Lynde True Value Hardware","483 Main St","01440",42.568452,-71.987852
"01440","Gardner","MA","Wheelen Supply Co Inc","112 Main St","01440",42.573873999999996,-71.994326
"01440","Gardner","MA","L H Sawin Co.","450 Chestnut St","01440",42.568907,-71.983749
"01440","Gardner","MA","Taylor True Value Rental","22 Union Square","01440",42.5668545833333,-71.9825470833333
"01450","Groton","MA","Farnsworth Lumber","181 Great Rd","01464",42.57918,-71.642028
"01450","Groton","MA","Project","not_available","01463",42.6445426940918,-71.60884094238281
"01450","Groton","MA","J C Home Improvements","12 Catherines Way","01464",42.571576,-71.631623
"01450","Groton","MA","Moison Ace Hardware","143 Main St","01450",42.606609000000006,-71.569956
"01451","Harvard","MA","Husqvarna US","PO Box 175","01451",42.500892639160156,-71.5757827758789
"01453","Leominster","MA","The Home Depot","135 Commercial Rd","01453",42.5250788174981,-71.74023109675545
"01453","Leominster","MA","Lowe's","198 New Lancaster Road","01453",42.4964747,-71.7271762
"01453","Leominster","MA","Sears","100 Commercial Rd","01453",42.53093100733962,-71.74283623695374
"01453","Leominster","MA","Tractor Supply Co.","235 New Lancaster Rd","01453",42.493147,-71.729968
"01453","Leominster","MA","Manny’s Appliance","not_available","01453",42.541858,-71.745107
"01453","Leominster","MA","Husqvarna US","1146 Central St","01453",42.49524688720703,-71.7447280883789
"01453","Leominster","MA","Sears","100 Searstown Mall","01453",42.5324821,-71.7418482
"01453","Leominster","MA","Taylor True Value Rental","197 Mill St","01453",42.53282928466797,-71.74674224853516
"01460","Littleton","MA","Aubuchon Hardware","not_available","01460",42.5428616819319,-71.46615867300123
"01460","Littleton","MA","Littleton Lumber","55 White St","01460",42.547193,-71.477563
"01460","Littleton","MA","Aubuchon Hardware","Great Road Mall","01460",42.53843,-71.48395
"01460","Littleton","MA","Westford Hardware and Rental","224 Littleton Rd","01886",42.561671000000004,-71.430515
"01460","Littleton","MA","Westford Sewer & Drain","6 Elliott Rd","01886",42.554328999999996,-71.452787
"01463","Pepperell","MA","Lorden True Value Hardware","53 Main St","01463",42.665684000000006,-71.587383
"01464","Shirley","MA","Moore Lumber & Hardware","26 Main St","01464",42.54511931,-71.65044283
"01469","Townsend","MA","Apple Meadow True Value","10 Elm St","01469",42.665859000000005,-71.705943
"01469","Townsend","MA","Shepherd's Sales & Service","55 Main St","01469",42.65314,-71.670777
"01473","Westminster","MA","Aubuchon Hardware","Gardner Plaza","01440",42.573579,-71.920344
"01475","Winchendon","MA","Belletetes of Winchendon","245 Central St","01475",42.68517,-72.044161
"01501","Auburn","MA","The Home Depot","779 Washington St","01501",42.1809185,-71.855413
"01501","Auburn","MA","FW Webb","Sword St","01501",42.223251,-71.826051
"01501","Auburn","MA","Sherwin-Williams Paint Store","60 S Ludlow St","01603",42.230467,-71.84963499999999
"01501","Auburn","MA","HD Supply A.H. Harris","225 Washington St","01501",42.20009471,-71.81638564
"01501","Auburn","MA","ABCO","97 Bancroft St","01501",42.199723999999996,-71.822024
"01501","Auburn","MA","Sears","387 Southbridge St","01501",42.2005157,-71.8387016
"01501","Auburn","MA","Sears","385 Southbridge St","01501",42.20173226455306,-71.83735518820137
"01501","Auburn","MA","HD Supply White Cap","275 Washington Street","01501",42.200113,-71.816417
"01501","Auburn","MA","Woodpro","Rt 20","01501",42.19337261472024,-71.82347429148032
"01501","Auburn","MA","Grossman's Bargain Outlet","Southbridge St","01501",42.22401843407917,-71.82265195813116
"01501","Auburn","MA","Sid Harvey's","8 C St","01501",42.221229,-71.82983399999999
"01501","Auburn","MA","Economy Paint Supply","689 Southbridge St","01501",42.18400573730469,-71.85748291015625
"01501","Auburn","MA","Worcester Winnelson Co","100 Southbridge St","01501",42.221866999999996,-71.82441899999999
"01501","Auburn","MA","Alpine Industrial","not_available","01501",42.19319091010029,-71.82319052880473
"01501","Auburn","MA","Bargain Outlet Auburn","77 Southbridge St.","01501",42.2239024,-71.8223885
"01501","Auburn","MA","American Ladders & Scaffolds","731 Main St","01537",42.1702505,-71.8823785
"01501","Auburn","MA","Sears","387, 12 Southbridge Street Court","01501",42.190184,-71.8465829
"01503","Berlin","MA","Lowe's","6 Highland Common East","01749",42.3948583,-71.5926933
"01503","Berlin","MA","PC Support Solutions","Spectacle Hill Rd","01740",42.402790344745284,-71.59749269485474
"01503","Berlin","MA","Village Power Equipment Co","244 Pleasant St","01503",42.361696,-71.628343
"01503","Berlin","MA","Husqvarna US","PO Box 1037","01503",42.37395095825195,-71.63517761230469
"01504","Blackstone","MA","The Shop","11 Austin St","01504",42.019798278808594,-71.53720092773438
"01506","Brookfield","MA","Husqvarna US","PO Box 623","01506",42.19422912597656,-72.10285186767578
"01507","Charlton","MA","Dick's Hardware","43 Foster St","01550",42.07569885253906,-72.03240966796875
"01507","Charlton","MA","Howlett Lumber","not_available","01507",42.14551416632475,-71.97909379242493
"01507","Charlton","MA","Husqvarna US","PO Box 548","01508",42.153167724609375,-71.9905776977539
"01507","Charlton","MA","Aubuchon Hardware","Southbridge Plaza","1550",42.143958,-71.994649
"01507","Charlton","MA","Weston Architectural Products","89 Leicester St","01537",42.16967962576006,-71.89960449970386
"01510","Clinton","MA","Aubuchon Hardware","26 High St","01510",42.416598,-71.685229
"01515","East Brookfield","MA","Howe Lumber","not_available","01515",42.224415,-72.058411
"01515","East Brookfield","MA","Husqvarna US","117 W Main St","01562",42.23088836669922,-72.02324676513672
"01519","Grafton","MA","Koopman Lumber & Hardware","72 Worcester St","01536",42.217188292247776,-71.69398102291566
"01520","Holden","MA","Rocky's Ace Hardware","160 Reservoir Street","01520",42.344339,-71.862321
"01520","Holden","MA","Jed's Hardware","450 Main St","01520",42.33193407334688,-71.8350967608425
"01520","Holden","MA","Bay State Hardware","120 W Boylston St","01606",42.29334,-71.804187
"01523","Lancaster","MA","Agway","1340 Lunenburg Rd","01523",42.502829,-71.69134
"01524","Leicester","MA","Tractor Supply Co.","1445 Main St","01524",42.243158,-71.925229
"01524","Leicester","MA","Affordable Windows & Doors","1152 Main St","01524",42.246157000000004,-71.913064
"01525","Linwood","MA","Husqvarna US","PO Box 55","01525",42.10679244995117,-71.6305160522461
"01527","Millbury","MA","Ray's True Value Hardware","22 Howe Ave","01527",42.19547116390159,-71.75800063126233
"01527","Millbury","MA","Chase/Harris Portable Toilets","85 Dudley Rd #B","01590",42.172338,-71.744021
"01527","Millbury","MA","Tractor Supply Co.","99 Worcester Providence Tpke","01527",42.192347999999996,-71.76949499999999
"01527","Millbury","MA","Locksmith","Broadmeadow","01604",42.232418,-71.766604
"01527","Millbury","MA","Seal Master","not_available","01607",42.22958,-71.790598
"01527","Millbury","MA","Atlantic American Fire & Equipment","257 Sw Cutoff #20","01527",42.22664260864258,-71.7576675415039
"01527","Millbury","MA","Jack Farrelly","not_available","01604",42.23242317206707,-71.75228250377961
"01527","Millbury","MA","Husqvarna US","PO Box 209","01527",42.19792938232422,-71.76961517333984
"01532","Northborough","MA","Lowe's","260 Turnpike Rd, #266","01581",42.28204228,-71.64170204
"01532","Northborough","MA","Tractor Supply Co.","168 Milk St Ste 5, Ste 5","01581",42.281909000000006,-71.633818
"01532","Northborough","MA","Central Steel Supply","85 Ames St","01752",42.334317999999996,-71.587916
"01532","Northborough","MA","minuteKEY","260-266 Turnpike Rd","01581",42.281694,-71.641475
"01532","Northborough","MA","Concord Electric Supply Marlborough","72 Cedar Hill St","01752",42.3167921,-71.5805527
"01532","Northborough","MA","Jeffs Door Service service","300 W Main St","01532",42.30618147299642,-71.66182279586792
"01532","Northborough","MA","Landscape Depot","210 Turnpike Rd","01581",42.284729999999996,-71.630126
"01532","Northborough","MA","Rocky's Ace Hardware","261 W Main St","01532",42.3096999,-71.656
"01532","Northborough","MA","Sears","1000 Boston Turnpike","01545",42.279907,-71.67576
"01534","Northbridge","MA","Koopman Lumber & Hardware","665 Church St","01588",42.12350179281163,-71.64709355195589
"01534","Northbridge","MA","Aubuchon Hardware","120 Church St","01588",42.111934000000005,-71.659849
"01540","Oxford","MA","The Home Depot","99 Sutton Ave","01540",42.1117894,-71.8509345
"01540","Oxford","MA","Butler Fuel","254 Sutton Ave","01540",42.109259,-71.81645
"01540","Oxford","MA","Turnpike Plumbing & Heating Supply","2 Walcott St","01540",42.116119,-71.86166
"01543","Rutland","MA","Rutland Hardware & Home Center","87 Main St","01543",42.378597259521484,-71.93724060058594
"01545","Shrewsbury","MA","The Home Depot","530 Boston Tpke","01545",42.2751127,-71.7152454
"01545","Shrewsbury","MA","Lumber Liquidators, Inc.","835C Hartford Tpke","01545",42.2753552846215,-71.67998732392522
"01545","Shrewsbury","MA","Sherwin-Williams Paint Store","163 Boston Tpke","01545",42.275180999999996,-71.747302
"01545","Shrewsbury","MA","Economy Paint Supply","not_available","01545",42.274949,-71.742837
"01545","Shrewsbury","MA","Milton Rents Shrewsbury","14 Fortune Blvd.","01545",42.2529915,-71.6862884
"01545","Shrewsbury","MA","Marazzi Tile & Stone Showroom","41973 Remington Ave.","92590",42.276181,-71.707054
"01545","Shrewsbury","MA","Brook Furniture Rental, Boston","577 Hartford Turnpike","01545",42.26190308,-71.69949412
"01550","Southbridge","MA","Tractor Supply Co.","178 Main St","01566",42.09671,-72.07079
"01550","Southbridge","MA","hometown hardware","Big Bunny Market Inc, 942 Main St, Southbridge, MA 01550-1198","01550-1198",42.08205032348633,-72.04849243164062
"01550","Southbridge","MA","Sherwin-Williams Paint Store","57 Main St","01566",42.087106,-72.062343
"01550","Southbridge","MA","Buccelli & Sons Plumbing Service","627 Eastford Rd","01550",42.055126,-72.050977
"01550","Southbridge","MA","Advanced Water Quality Systems, Inc","81 Ashland Ave","01550",42.065951,-72.012551
"01560","South Grafton","MA","Gauvin Supply Co","225 Main St, South Grafton, MA 01560","01560",42.17406463623047,-71.71807861328125
"01562","Spencer","MA","Howe Lumber","225 Main St","01562",42.247429,-71.98710799999999
"01564","Sterling","MA","Maki Building Center","35 Worcester Rd","01564",42.40658200337794,-71.77072498040549
"01566","Sturbridge","MA","Penny's Lawn Equipment","171 Charlton Rd","01566",42.119352,-72.060151
"01569","Uxbridge","MA","Koopman Lumber & Hardware","20 Douglas Street","01569",42.076397,-71.63113299999999
"01569","Uxbridge","MA","Milton Rents Uxbridge","755 Quaker Hwy","01569",42.027915,-71.60697833
"01570","Webster","MA","Webster Electrical Supply","not_available","01570",42.04928970336914,-71.88406372070312
"01570","Webster","MA","Comeau HVAC","35 1st St","01570",42.042378,-71.879113
"01570","Webster","MA","Aubuchon Hardware","70 Worcester Rd","01570",42.070617,-71.864724
"01571","Dudley","MA","Grossman's Bargain Outlet","not_available","01571",42.042199876867876,-71.9121057554282
"01571","Dudley","MA","Bargain Outlet Dudley","4 Airport Road","01571",42.0426965,-71.9122153
"01581","Westborough","MA","Westborough Ace Hardware","1 Phillips St","01581",42.2710429,-71.616325
"01581","Westborough","MA","Koopman Paint","15 E Main St","01581",42.270811,-71.611959
"01581","Westborough","MA","Sherwin-Williams Paint Store","50 E Main St","01581",42.274244,-71.61134799999999
"01583","West Boylston","MA","Jerry's Hardware","1158 West Boylston St","01606",42.335327,-71.7887
"01583","West Boylston","MA","irby","100 Hartwell St","01583",42.33554458618164,-71.77562713623047
"01583","West Boylston","MA","Highland Power Equipment","251 Brooks St","01606",42.324643,-71.79893100000001
"01602","Worcester","MA","Caola Equipment Co","391 Park Ave","01610",42.257933,-71.822179
"01602","Worcester","MA","Sansoucy Stone","23 Paradox Dr","01602",42.286144,-71.847788
"01602","Worcester","MA","Needham Electric Supply","221 Chandler St","01609",42.26145981955395,-71.81899769114341
"01602","Worcester","MA","Billings Home Improvement","6 High Rock Ln","01609",42.29207992553711,-71.85355377197266
"01602","Worcester","MA","Pan-Glo","not_available","01602",42.250204,-71.86371700000001
"01602","Worcester","MA","Rocky's Ace Hardware","393 Chandler St","01602",42.276965000000004,-71.854046
"01602","Worcester","MA","A-1 Wholesale Window","836 Main St","01610",42.255205,-71.813721
"01603","Worcester","MA","Harbor Freight Tools","50 Mill St","01603",42.2469500935348,-71.83267885565697
"01603","Worcester","MA","Barrows Hardware","15 WebsterSt","01603",42.24459402002896,-71.83194651729399
"01603","Worcester","MA","Kesseli And Morse","not_available","01603",42.244087633333336,-71.82158375
"01603","Worcester","MA","Central Mass Surplus","12 Jacques St","01603",42.242209,-71.831758
"01604","Worcester","MA","Concord Electric Supply Worcester","80 E Central St","01605",42.263955082722696,-71.79072538693492
"01604","Worcester","MA","Ferguson Waterworks","57 Sw Cutoff","01604",42.237744,-71.746
"01604","Worcester","MA","Grafton Square True Value Hardware","113 Hamilton St","01604",42.25608681,-71.77831231
"01604","Worcester","MA","K&N Plumbing and Heating","Water St.","01610",42.255281,-71.796909
"01604","Worcester","MA","Painter's Supply","13 Lamartine St","01610",42.254276000000004,-71.799581
"01604","Worcester","MA","The Ultimate Bath","12 E Worcester St","01604",42.26289367675781,-71.78929138183594
"01605","Worcester","MA","The Home Depot","130 Gold Star Blvd","01606",42.29139375284864,-71.80084791457602
"01605","Worcester","MA","Lowe's","533 Lincoln Street","01605",42.292292,-71.7729672
"01605","Worcester","MA","Plastics Unlimited","not_available","01605",42.28715554,-71.80114864
"01605","Worcester","MA","oliver m dean inc","125 Brooks St","01606",42.314291,-71.802041
"01605","Worcester","MA","minuteKEY","533 Lincoln St","01605",42.292186,-71.773579
"01605","Worcester","MA","Elwood Adams Hardware","156 Main St, Worcester, MA 01608","01608",42.26865,-71.800818
"01605","Worcester","MA","Sherwin-Williams Commercial Paint Store","47 Milton St","01606",42.286929,-71.804232
"01605","Worcester","MA","Percy's TV & Appliance","19 Glennie Street","01605",42.28504,-71.80642
"01605","Worcester","MA","Harrity Appliance","West boylston st","01605",42.29654201627497,-71.79077042653863
"01606","Worcester","MA","FEL-TECH Hammer Division","1 Pullman St","01606",42.3212731,-71.79980859999999
"01606","Worcester","MA","Bargain Outlets","747 W Boylston St","01606",42.31858491897583,-71.79617464542389
"01606","Worcester","MA","Grainger","135-139 Brooks St","01606",42.318864000000005,-71.801686
"01607","Worcester","MA","ABC Supply","not_available","01610",42.243479,-71.806813
"01607","Worcester","MA","Bellsimons Companies","559 Cambridge St","01610",42.244935999999996,-71.807905
"01608","Worcester","MA","Green Zone Hydroponics & Supplies","60 Madison St","01608",42.258565999999995,-71.80219
"01610","Worcester","MA","Nationwide Ladder & Equipment","Washburn","01610",42.245346000000005,-71.807916
"01701","Framingham","MA","The Home Depot","339 Speen St","01760",42.3068232,-71.3814743
"01701","Framingham","MA","Lowe's","350 Cochituate Road","01701",42.3048868,-71.4006165
"01701","Framingham","MA","Yale Appliance + Lighting","215 Worcester Rd","01701",42.29865,-71.40281
"01701","Framingham","MA","Robinson's Ace Hardware","1 Nicholas Rd","01701",42.32741742311504,-71.40273154268972
"01701","Framingham","MA","Stone, Inc.","not_available","01702",42.298168,-71.404088
"01701","Framingham","MA","Harbor Freight Tools","321 Speen St Ste 3A","01760",42.30349248763683,-71.37999301123152
"01701","Framingham","MA","Payneless Flooring","910 Boston Post Rd E","01752",42.35115,-71.492901
"01701","Framingham","MA","Ace Hardware","not_available","01701",42.30730080191536,-71.40137799113647
"01701","Framingham","MA","minuteKEY","350 Cochituate Rd","01701",42.304965,-71.400646
"01701","Framingham","MA","Sherwin-Williams Paint Store","694 Cochituate Rd","01701",42.30866495434138,-71.38494372367859
"01701","Framingham","MA","Franks Doors And Security","3 Speen St","01701",42.310338,-71.390601
"01701","Framingham","MA","Kohler Signature Store by Supply New England","323 Speen St","01760",42.3047894,-71.38130118
"01702","Framingham","MA","Monnick Supply","759 Waverly St","01702",42.272575,-71.429292
"01702","Framingham","MA","Lunkers","not_available","01721",42.26032878395878,-71.46492750087546
"01702","Framingham","MA","Taylor Rental Framingham","80 Franklin St","01702",42.279893,-71.418982
"01702","Framingham","MA","Locksmith Framingham","35 Concord St","01702",42.27742,-71.416309
"01702","Framingham","MA","Grainger","32 Blandin Ave","01702",42.276615,-71.409935
"01702","Framingham","MA","Carbys","Hartford Street","not_available",42.291224,-71.402178
"01719","Boxborough","MA","Ace Hardware","Great Rd","01775",42.47606074970849,-71.51523261741745
"01720","Acton","MA","Acton Ace Hardware","210 Main St","01720",42.4685929,-71.456306
"01720","Acton","MA","Ziggy's Small Engine Repair","153 Log Hill Rd","01741",42.511063,-71.390689
"01721","Ashland","MA","Weston Nurseries","93 E Main St","01748",42.23673333378511,-71.50054551895052
"01721","Ashland","MA","Sears","310 Pond Street","01721",42.241101,-71.430431
"01730","Bedford","MA","Moison Ace Hardware","297 Great Rd","01730",42.4866,-71.263499
"01730","Bedford","MA","Sherwin-Williams Paint Store","10 Camellia Pl","02420",42.45369,-71.231239
"01730","Bedford","MA","F. W. Webb","160 Middlesex Tpke","01730",42.521082,-71.250304
"01742","Concord","MA","OBR Cooling and Refridgeration","537 Old Bedford Rd","01742",42.472864,-71.321646
"01742","Concord","MA","Rocky's Ace Hardware","203 Sudbury Rd","01742",42.454007,-71.35570200000001
"01742","Concord","MA","Vanderhoof Hardware Co.","28 Main St","01742",42.460240999999996,-71.349703
"01746","Holliston","MA","Holliston True Value","58 Central St","01746",42.19995880126953,-71.42780303955078
"01746","Holliston","MA","Mulch N' More","1500 Washington St","01746",42.1809,-71.44651999999999
"01747","Hopedale","MA","Milford Ace Hardware","146 S Main St","01757",42.1267,-71.5168
"01747","Hopedale","MA","Stone's Furniture","111 Mendon Street","01747",42.1268417,-71.5366469
"01747","Hopedale","MA","Koopman Paint Of Milford","209 West St","01757",42.143796,-71.546295
"01747","Hopedale","MA","Crown Electrical Supply","41 Central St","01757",42.14005242313607,-71.51911041487493
"01747","Hopedale","MA","Security Supply","87 Central Street","not_available",42.13967514038086,-71.51798248291016
"01748","Hopkinton","MA","Hopkinton Lumber","118 Main St","01748",42.225863000000004,-71.529342
"01748","Hopkinton","MA","Simply Windows","20 Downey Street","01748",42.206392,-71.553887
"01749","Hudson","MA","Concord Electric Supply Hudson Ma","11 Kane Industrial Dr","01749",42.394455,-71.50635
"01749","Hudson","MA","Robinsons Hardware","31 Washington St","01749",42.390479,-71.57085699999999
"01749","Hudson","MA","Koopman Lumber","29 Lake St","01749",42.396675,-71.567972
"01749","Hudson","MA","Lyman Sewer And Drain","2 Lyman AVE","01749",42.39371852501297,-71.49074077606201
"01749","Hudson","MA","Hudson Appliance & Mattress Gallery","167 Main St","01749",42.3911783,-71.5648379
"01752","Marlborough","MA","The Home Depot","701 Boston Post Rd E","01752",42.3496079,-71.5021773
"01752","Marlborough","MA","Sherwin-Williams Paint Store","222 E Main St","01752",42.35200119018555,-71.53655242919922
"01752","Marlborough","MA","MetroWest Lawn & Power","not_available","01752",42.332730973262244,-71.54055055146843
"01752","Marlborough","MA","Monnick Supply","135 Maple St","01752",42.34283,-71.543229
"01754","Maynard","MA","Butler Lumber","67 Parker St","01754",42.426406,-71.450307
"01754","Maynard","MA","Parker Hardware","239 Main St","01754",42.429621,-71.466228
"01754","Maynard","MA","A & P Lock Service","not_available","01754",42.43221520912675,-71.45514249801636
"01754","Maynard","MA","Aubuchon Hardware","33-37 Main St","01754",42.432790999999995,-71.452023
"01756","Mendon","MA","Westwood Lumber","23 Cape Rd","01756",42.09848609559696,-71.50270048762634
"01757","Milford","MA","Lowe's","40 Fortune Boulevard","01757",42.1628875,-71.504631
"01757","Milford","MA","NorthEast Electrical","235 E Main St","01757",42.152094,-71.49094699999999
"01757","Milford","MA","Concord Electric Supply Milford Ma","459 Fortune Blvd","01757",42.1540789,-71.492518
"01757","Milford","MA","Lowes Hardware","40 Fortune Blvd","01757",42.16288375854492,-71.5044174194336
"01757","Milford","MA","Consumer Auto Parts","Fortune Blvd","01757",42.159534,-71.505795
"01757","Milford","MA","Sherwin-Williams Paint Store","115 Cedar St","01757",42.170693,-71.50828100000001
"01760","Natick","MA","Debsan Decorating Store","25 Main Street","01760",42.2847,-71.34786
"01760","Natick","MA","Ferguson Plumbing Supply","64 Worcester St","01760",42.3037109375,-71.32904815673828
"01760","Natick","MA","Capital Contractors","28 Pleasant St","01760",42.269449,-71.313177
"01760","Natick","MA","Tiles Plus More","309 Worcester St","01760",42.303020000000004,-71.33752
"01760","Natick","MA","Ardente Supply and Waterspot Showrooms","575 Worcester St","01760",42.3019539,-71.3477005
"01760","Natick","MA","Auto lockout pro’s full Door Service","17 W Central St","01760",42.28391647338867,-71.34864044189453
"01760","Natick","MA","Annesis Power Equipment","not_available","01760",42.28342819213867,-71.34950256347656
"01772","Southborough","MA","Ricks Door Service","150 Cordaville Rd","01772",42.28868103027344,-71.52542877197266
"01773","Lincoln","MA","The Home Depot","100 1st Ave","02451",42.39283108008902,-71.26770973205566
"01775","Stow","MA","Stow Ace Hardware","117 Great Rd","01775",42.4343769,-71.485707
"01776","Sudbury","MA","Town Line Hardware","not_available","01776",42.363394,-71.391434
"01776","Sudbury","MA","Aubuchon Hardware","505 Boston Post Rd","01776",42.3593635559082,-71.4283218383789
"01776","Sudbury","MA","Wayland Home and Design","70 Andrew Ave","01778",42.3649787902832,-71.36800384521484
"01776","Sudbury","MA","Sudbury True Value Rental","712 Boston Post Rd","01776",42.360501,-71.44941899999999
"01776","Sudbury","MA","Wayland Power Equipment","300 Boston Post Rd","01778",42.363805,-71.36500600000001
"01776","Sudbury","MA","Massachusetts Boat Shrink Wrap","75 Union Ave #8","01776",42.36601257324219,-71.42113494873047
"01776","Sudbury","MA","Dependable Door Service","526 Boston Post Rd","01778",42.363529205322266,-71.38812255859375
"01801","Woburn","MA","Lowe's","15 Commerce Way","01801",42.5056266,-71.1288604
"01801","Woburn","MA","Fresh Paint","9 Waterfield Rd","01890",42.451522,-71.138452
"01801","Woburn","MA","Fells True Value Hardware","654 Main St","01890",42.454546,-71.137989
"01801","Woburn","MA","United Refrigeration","74 Commerce Way","01801",42.512656,-71.134953
"01801","Woburn","MA","Ferguson Plumbing Supply","134 New Boston St","01801",42.50718,-71.145625
"01801","Woburn","MA","Winchester Door Service Service","28 Church St","01890",42.451393127441406,-71.13858032226562
"01801","Woburn","MA","Star Sales","41-47 Commerce Way","01801",42.508028,-71.130404
"01801","Woburn","MA","Alarmax","7 Wheeling Avenue Rear","not_available",42.501238,-71.137909
"01801","Woburn","MA","Suburban Heating & Cooling Inc.","26 Henshaw St","01801",42.477018,-71.119823
"01801","Woburn","MA","E.G. Barker Lumber","10 Jefferson St","01801",42.478061,-71.146578
"01801","Woburn","MA","Concord Electric Supply Woburn","47 Commerce Way","01801",42.509885,-71.131955
"01801","Woburn","MA","Ferguson Express","134D New Boston St","01801",42.507179260253906,-71.14562225341797
"01801","Woburn","MA","Winchester Sewer and Drain","671 Main St","01890",42.455023,-71.13749
"01801","Woburn","MA","Fitzgerald tile","not_available","01801",42.51730776506936,-71.13843719735243
"01801","Woburn","MA","Wilmington Sewer & Drain","31 Mill Rd","01887",42.529136,-71.180734
"01801","Woburn","MA","Kamco Supply Corp Of Boston","181 New Boston St","01801",42.511896,-71.14218000000001
"01801","Woburn","MA","ProSource of Boston","20 Commerce Way","01801",42.507871,-71.132776
"01801","Woburn","MA","Reading Sewer and Drain","75 Edgemont Ave","01867",42.52370431013809,-71.12516641616821
"01801","Woburn","MA","ADI","78D Olympia Ave","01801",42.49871826171875,-71.13851928710938
"01801","Woburn","MA","Bryant Northeast","130 Commerce Way","01801",42.51823425292969,-71.13947296142578
"01801","Woburn","MA","Woburn Paint & Hardware","65 Winn St","01801",42.4887,-71.1692
"01801","Woburn","MA","NorthEast Electrical","29 Industrial Pkwy","01801",42.505443,-71.14134399999999
"01801","Woburn","MA","Computer Network Solutions","1 Sears St","01803",42.508984999999996,-71.191295
"01803","Burlington","MA","Ferguson HVAC Supply","85 Terrace Hall Ave","01803",42.4973396028078,-71.2223327432515
"01803","Burlington","MA","Sherwin-Williams Paint Store","201 Middlesex Tpke","01803",42.49513260269785,-71.22580175441357
"01803","Burlington","MA","Eagle's Nest","7 Wyman St","01803",42.490177154541016,-71.17046356201172
"01803","Burlington","MA","KOHLER Signature Store","19 3rd Ave","01803",42.48736177,-71.22419785
"01803","Burlington","MA","Friend Lumber","38-46 Middlesex Turnpike","01803",42.47164907,-71.21187874
"01803","Burlington","MA","Mack Designer Hardware","164 Middlesex Turnpike","01803",42.49050521850586,-71.22406005859375
"01810","Andover","MA","Rocky's Ace Hardware","50 Peters St","01845",42.6756669,-71.126745
"01810","Andover","MA","Northeast Electrical","553 Main St","01876",42.61838912963867,-71.25459289550781
"01810","Andover","MA","Bruckmanns True Value Hardware","179 S Broadway","01843",42.694652000000005,-71.163146
"01810","Andover","MA","A&A Industrial Supply","792 Main St","01876",42.615583,-71.241668
"01810","Andover","MA","Kerry Martin Plumbing & Heating Inc","124 Abbott St","01843",42.697790999999995,-71.152635
"01810","Andover","MA","Sherwin-Williams Paint Store","209 N Main St","01810",42.66401322,-71.14382118
"01810","Andover","MA","Tewksbury Masonry & Landscaping","1585 Shawsheen St","01876",42.616977,-71.18503299999999
"01810","Andover","MA","American Tool & Sharpening Service","not_available","01843",42.696094,-71.16270300000001
"01810","Andover","MA","Concord Electric Supply Lawrence","2 Dracut St","01843",42.691753000000006,-71.159772
"01810","Andover","MA","Whittemore Company","30 Glenn St","01843",42.686196,-71.176389
"01810","Andover","MA","Husqvarna US","100 School St","01810",42.65645217895508,-71.1449203491211
"01810","Andover","MA","MTE Equipment Solutions","118 Lumber Ln","01876",42.619293212890625,-71.19657897949219
"01810","Andover","MA","Tewksbury Paint & Hardware","853 Main St","01876",42.614268,-71.240524
"01810","Andover","MA","Taylor Rental Center","637 Andover St","01843",42.68861,-71.177549
"01821","Billerica","MA","O'Connor True Value Hardware","446 Boston Rd","01821",42.559064,-71.267204
"01821","Billerica","MA","Ideal Vending Co., Inc.","not_available","01821",42.55142055093959,-71.25140190124512
"01821","Billerica","MA","Billerica Winwater Works Co.","2 Everett Farmer Rd","01821",42.54290750000001,-71.2485978
"01821","Billerica","MA","Ideal Outdoor Power","77 Alexander Rd Ste 9","01821",42.5555419921875,-71.21316528320312
"01824","Chelmsford","MA","Lowe's","50 Lowes Way","01851",42.617731,-71.3237465
"01824","Chelmsford","MA","Sears Appliance & Hardware","95 Drum Hill Rd","01824",42.624717712402344,-71.36431884765625
"01824","Chelmsford","MA","Chelmsford Lumber Co","201 Boston Rd","01824",42.582215000000005,-71.344631
"01824","Chelmsford","MA","Sherwin-Williams Paint Store","103 Drum Hill Rd","01824",42.623750602705485,-71.36451143286237
"01824","Chelmsford","MA","Husqvarna US","173 BILLERICA ROAD (ROUTE 129)","01824",42.59761428833008,-71.33240509033203
"01824","Chelmsford","MA","Parsons Tree Srvc","47 Golden Cove Rd","01824",42.599852,-71.341151
"01824","Chelmsford","MA","Taylor Rental","61 Parkhurst Rd Chelmsford","01824",42.622445,-71.359254
"01824","Chelmsford","MA","W.J. Grosvenor","not_available","01824",42.58661453020581,-71.30860512185211
"01824","Chelmsford","MA","Aubuchon Hardware","7 Summer St","01824",42.5941644852184,-71.34839057922363
"01824","Chelmsford","MA","Agway","24 Maple Rd","01824",42.570812,-71.380851
"01824","Chelmsford","MA","Benjamin Moore Color Works","Summer Street","01824",42.594049,-71.348784
"01824","Chelmsford","MA","Sherwin-Williams Product Finishes","1 Foundry Industrial Park","01852",42.62287574020478,-71.31551742553711
"01826","Dracut","MA","Bridge Street True Value","122 Bridge St","03076",42.721627,-71.318265
"01826","Dracut","MA","Tractor Supply Co.","134 Bridge St","03076",42.721627,-71.318265
"01826","Dracut","MA","A. G. Hardware Supply Co Inc.","776 Lakeview Ave","01850",42.6578909,-71.313204
"01826","Dracut","MA","Couillard Drywall","130 C St","01826",42.69323966019079,-71.36538505554198
"01826","Dracut","MA","Dracut Hardware","1982 Lakeview Ave","01826",42.682621,-71.352143
"01826","Dracut","MA","Kenwood True Value","34 Broadway Rd","01826",42.67256186610046,-71.2956945951355
"01826","Dracut","MA","Dracut Appliance Center","1112 Lakeview Ave","01826",42.66,-71.3
"01830","Haverhill","MA","The Home Depot","58 Plaistow Rd","03865",42.826623584944095,-71.10933065414434
"01830","Haverhill","MA","Aubuchon Hardware","Rivers Edge Plaza","01830",42.76282541902695,-71.03852255312528
"01830","Haverhill","MA","White Street Paint & Wallpaper","18 Plaistow Road, 125 Plaza","03865",42.818255,-71.104165
"01830","Haverhill","MA","Westville True Value Hardware","63 Plaistow Rd","03865",42.83101263,-71.10742263
"01830","Haverhill","MA","Cornerstone Building Services","36 Baltimore St","01830",42.796418578546046,-71.09071612358093
"01830","Haverhill","MA","Arthur Sharp Farm Supply Inc.","21 Middlesex St","01835",42.772453000000006,-71.077182
"01830","Haverhill","MA","Classic Machine Inc","12 rogers road unit 8","01835",42.7613777,-71.1109652
"01830","Haverhill","MA","Benjamin Morre Paints","not_available","03865",42.81846907056355,-71.10414405093574
"01830","Haverhill","MA","Shoe City Hardware","not_available","01830",42.777714389636614,-71.08229007462417
"01830","Haverhill","MA","Portland Group","472 River St","01832",42.764932,-71.099997
"01830","Haverhill","MA","Wendy's Drywall Inc","not_available","01832",42.779180863725834,-71.1081075668335
"01832","Haverhill","MA","NorthEast Electrical","555 Broadway","01832",42.785540999999995,-71.122378
"01832","Haverhill","MA","Fastenal","17 Parkridge Rd","01835",42.76661,-71.11635799999999
"01832","Haverhill","MA","Taylor True Value Rental","531 Broadway","01832",42.784878000000006,-71.12154
"01832","Haverhill","MA","Taylor Rental","531 Broadway","not_available",42.78465524495916,-71.12126197841754
"01832","Haverhill","MA","Middlesex Gases","365 Lowell Ave","01832",42.775938000000004,-71.116788
"01832","Haverhill","MA","Sherwin-Williams Paint Store","400 Lowell Ave","01832",42.773703999999995,-71.11385200000001
"01833","Georgetown","MA","Daniels Electric, LLC","944 Salem St Unit E","01834",42.75,-71.03
"01835","Haverhill","MA","FW Webb","400-450 Neck Rd","01835",42.754521999999994,-71.125159
"01840","Lawrence","MA","Merrimack Valley Habitat for Humanity ReStore","647 Andover St","01843",42.70593416607774,-71.15445126077142
"01840","Lawrence","MA","Lawrence Sewer Cleaning","292 Lowell St","01841",42.70271747211336,-71.17013096809387
"01840","Lawrence","MA","Lawrence Sewer & Drain","182 Common St","01840",42.708264,-71.158371
"01841","Lawrence","MA","Callahan Air conditioning And Heating","43-69 Belmont St","01845",42.703052,-71.13865
"01841","Lawrence","MA","Fastenal","Marston St.","not_available",42.711094,-71.14035
"01844","Methuen","MA","The Home Depot","72 Pleasant Valley St","01844",42.7434909,-71.1620915
"01844","Methuen","MA","The Home Depot","289 S Broadway","03079",42.7598211,-71.2120887
"01844","Methuen","MA","Lowe's","541 South Broadway","03079",42.7410368,-71.1953192
"01844","Methuen","MA","Bemister Pool","not_available","03079",42.775648270512555,-71.2245457240527
"01844","Methuen","MA","Main Street Hardware","142 Main St","01845",42.702696,-71.130309
"01844","Methuen","MA","White Street Paint","not_available","01845",42.714374,-71.11655748
"01844","Methuen","MA","Harbor Freight Tools","356 S Broadway Ste 3","03079",42.75200604739386,-71.2067939199775
"01844","Methuen","MA","Robichaud Hardware","not_available","01844",42.728663,-71.189596
"01844","Methuen","MA","Buonagurio HVAC","236 Pleasant St Ste 6 Fl 2","01844",42.7397346496582,-71.17110443115234
"01844","Methuen","MA","The Stone Yard","37 Lowell Rd","03079",42.765172719955444,-71.24036729335785
"01844","Methuen","MA","Sherwin-Williams Paint Store","517 S Broadway","03079",42.743091,-71.19841600000001
"01844","Methuen","MA","United Refrigeration","89-103 Lowell Rd","03079",42.764070000000004,-71.246849
"01844","Methuen","MA","NorthEast Electrical","71 Lowell Rd","03079",42.76416983653963,-71.2469494342804
"01844","Methuen","MA","Dodge Grain","35-43 Main St","03079",42.7839514128678,-71.23140970952174
"01844","Methuen","MA","Donovan Plumbing","10 Redwood Rd","03079",42.768567,-71.186597
"01844","Methuen","MA","White Street Paint & Wallpaper","419 South Broadway, Route 28 Mall","03079",42.748815,-71.202846
"01844","Methuen","MA","Rockler","373 S Broadway","03079",42.751522064208984,-71.20508575439453
"01845","North Andover","MA","The Bath Showcase - North Andover","25 Commerce Way","01845",42.71876907348633,-71.11483764648438
"01845","North Andover","MA","Chris Deao","2302 Turnpike St","01845",42.625248,-71.05805500000001
"01851","Lowell","MA","Middlesex Gases","not_available","01852",42.62859303688037,-71.31622592279814
"01851","Lowell","MA","Cassidy Water Conditioning Co Of Lowell","39 Chelmsford St","01851",42.63824,-71.31638
"01851","Lowell","MA","The Ultimate Bath Store","1035 Westford St","01851",42.62989807128906,-71.35240936279297
"01852","Lowell","MA","Gene's Appliance Parts","788 Gorham St","01852",42.631302,-71.308365
"01863","North Chelmsford","MA","Mahoney's Garden Center","155 Princeton St","01863",42.632446,-71.376074
"01863","North Chelmsford","MA","Peabody Supply Co","112 Middlesex St","01863",42.63621612532059,-71.37236952781677
"01863","North Chelmsford","MA","Welch welding","not_available","01863",42.63617612994194,-71.36624442440123
"01864","North Reading","MA","North Reading Hardware","not_available","01864",42.58821517,-71.1163768
"01864","North Reading","MA","Spencer Granite Co.","161 Main St","01864",42.582933000000004,-71.112425
"01864","North Reading","MA","Ferguson Waterworks","23 Concord St","01864",42.563349,-71.121835
"01864","North Reading","MA","Richelieu","51 Concord St","01864",42.561413,-71.12268399999999
"01864","North Reading","MA","WilsonArt","29 Concord St","01864",42.563373999999996,-71.125451
"01864","North Reading","MA","Sears Appliance & Hardware","265 Main Street (Rt.28)","01864",42.59260559082031,-71.11650848388672
"01864","North Reading","MA","Ace Hardware","164 Chestnut St","01864",42.569175720214844,-71.09441375732422
"01864","North Reading","MA","Wilmington Grain","62 Concord St","01864",42.55952353333333,-71.12394621666667
"01867","Reading","MA","The Home Depot","60 Walkers Brook Dr","01867",42.5198502,-71.0908282
"01867","Reading","MA","The Paint Store","not_available","01867",42.525939144078514,-71.1017881028748
"01867","Reading","MA","Sherwin-Williams Paint Store","349 Main St","01867",42.518430032985535,-71.10258221626282
"01867","Reading","MA","Wakefield Sewer & Drain","614 North Ave","01880",42.514456,-71.088286
"01867","Reading","MA","Ciano Development","143 Main St","01867",42.509121864221704,-71.10454559326172
"01876","Tewksbury","MA","The Home Depot","85 Main St","01876",42.625229,-71.2711407
"01876","Tewksbury","MA","Aubuchon Hardware","1777 Main St","01876",42.59131622314453,-71.21080780029297
"01876","Tewksbury","MA","Dracut Appliance Center","2100 Main St","01876",42.58652114868164,-71.19918060302734
"01876","Tewksbury","MA","All Owners Drain Cleaning Inc","50 Main St","01887",42.56787,-71.18594300000001
"01879","Tyngsboro","MA","Sears","310 Daniel Webster Hwy","03060",42.70036597,-71.43571596
"01879","Tyngsboro","MA","Westford Ace Hardware","527 Groton Rd","01886",42.62612,-71.418976
"01879","Tyngsboro","MA","Sears","310 Daniel Webster Hwy Ste 102","03060",42.700404,-71.435634
"01879","Tyngsboro","MA","Blue Rhino","100 River Rd","03051",42.699886,-71.420059
"01879","Tyngsboro","MA","Husqvarna US","122 Middlesex Rd","01879",42.665374755859375,-71.4119873046875
"01880","Wakefield","MA","Round's Hardware","290 Main St","02180",42.482296000000005,-71.099682
"01880","Wakefield","MA","Metric Screw & Tool Company","9 Lake St, Wakefield, MA 01880","01880",42.499579,-71.076666
"01880","Wakefield","MA","First Energy Heating & Cooling","924 Main St","01880",42.48305825114781,-71.06675481480524
"01880","Wakefield","MA","Spartan Paint & Supply  Inc.","444 Main St","02180",42.477443,-71.0999
"01880","Wakefield","MA","Electrical Supply Center","not_available","01880",42.505176,-71.064734
"01880","Wakefield","MA","Stylecraft Supply","478 Main St","01880",42.50134399674072,-71.06911699625074
"01880","Wakefield","MA","L R Hart Hardware Inc","442 Main St","01880",42.502301,-71.069062
"01880","Wakefield","MA","Avon Supply CO","123 Foundry St","01880",42.498195,-71.073897
"01880","Wakefield","MA","Crystal Lumber","76 Foundry St","01880",42.499752,-71.074283
"01880","Wakefield","MA","Stoneham Sewer Cleaning","185 Main St","02180",42.48956782397627,-71.10018968582153
"01886","Westford","MA","Concord Electric Supply Westford","5 Lyberty Way","01886",42.560014,-71.425738
"01887","Wilmington","MA","Benjamin Moore Paint & Hardware","264 Main St","01887",42.554481506347656,-71.17984771728516
"01887","Wilmington","MA","The Stock Room","not_available","01887",42.54298188326923,-71.1427889089494
"01887","Wilmington","MA","Granite Countertop Pro","211 Lowell St","01887",42.539516565089784,-71.14943504333496
"01887","Wilmington","MA","C & J Lawnmower","188 Main St","01887",42.55872344970703,-71.18160247802734
"01887","Wilmington","MA","Essex Restoration","789 Woburn St.","018St.",42.53165535,-71.15054685
"01887","Wilmington","MA","Woburn Sewer and Drain","845 Woburn St","01887",42.527322999999996,-71.149776
"01887","Wilmington","MA","Graybar Tools","265 Ballardvale St","01887",42.596515000000004,-71.159421
"01901","Lynn","MA","Ferguson HVAC Supply","400 Lynnway","01901",42.4566595681209,-70.951743507105
"01901","Lynn","MA","Beden Hardware","not_available","01901",42.463043212890625,-70.94670104980469
"01901","Lynn","MA","Botanical San Miguel","11 Central Sq","01901",42.46419,-70.944215
"01901","Lynn","MA","Concord Electric Supply","451 Broad St","01901",42.459778,-70.9478
"01902","Lynn","MA","F.B. Harris Corp.","not_available","01904",42.473741,-70.95549
"01902","Lynn","MA","KeyMe","35 Washington Street","01904",42.46986,-70.95851
"01902","Lynn","MA","Wyoma Square True Value","314 Broadway","01904",42.485275,-70.960086
"01902","Lynn","MA","Lynn Ladder & Scaffolding Co. Inc.","20 Boston St","01904",42.479296000000005,-70.954815
"01902","Lynn","MA","Lynn Sewer & Drain","407 Essex St","01902",42.46847234949588,-70.9423041343689
"01905","Lynn","MA","Concord Electric Supply Lynn","732R Lynnway Unit R","01905",42.44997979374594,-70.96197895337298
"01906","Saugus","MA","The Home Depot","564 Broadway","01906",42.4770632,-71.0207604
"01906","Saugus","MA","Lowe's","1500 Broadway","01906",42.4478367,-71.0257658
"01906","Saugus","MA","Lark Ave Sewer and Drain","16 Lark Ave","01906",42.448219,-71.023561
"01906","Saugus","MA","Benjamin Moore Paints","483 Broadway","02148",42.437721,-71.034165
"01906","Saugus","MA","Saugus Sewer Service","160 Broadway","01906",42.491226,-71.016178
"01906","Saugus","MA","Sherwin-Williams Paint Store","900 Broadway","01906",42.46923209991908,-71.02443337440491
"01906","Saugus","MA","minuteKEY","785 BROADWAY","not_available",42.4759094,-71.0236828
"01906","Saugus","MA","Essex Sewer & Drain","2 Essex St","01906",42.448353999999995,-71.01037
"01906","Saugus","MA","Arco Welding Supply","1200 Eastern Ave","02148",42.430955,-71.036334
"01907","Swampscott","MA","R M Machine","6 Longwood Dr","01907",42.479901,-70.912433
"01913","Amesbury","MA","Jackson Lumber","69 Haverhill Rd","01913",42.842655,-70.947036
"01913","Amesbury","MA","johnson lumber","not_available","01952",42.8633903129311,-70.90104221693211
"01913","Amesbury","MA","Merrows Inc","110 Haverhill Rd","01913",42.84053039550781,-70.9603042602539
"01913","Amesbury","MA","Percision Pool","not_available","01913",42.84278054,-70.95181239
"01913","Amesbury","MA","Eastern Lumber Company","65 Haverhill Rd","01913",42.84203605,-70.9476411
"01913","Amesbury","MA","Amesbury Industrial Supply Company Incorporated","24 High St","01913",42.857923,-70.931048
"01913","Amesbury","MA","Garage Door Repair Amesbury | Ace Doors","21 Water St #33","01913",42.856773376464844,-70.92903137207031
"01915","Beverly","MA","Moynihan Lumber of Beverly","82 River St","01915",42.549196,-70.886244
"01915","Beverly","MA","Beverly Vacuum Cleaner","414 Rantoul St","01915",42.554218369514565,-70.88207244873047
"01915","Beverly","MA","Gove Lumber Yard","not_available","01915",42.56075077968996,-70.87499740668233
"01921","Boxford","MA","Dawson's  Hardware","20 Main St","01983",42.63916015625,-70.9510269165039
"01921","Boxford","MA","Charles Rollins Well","126 Depot Rd","01921",42.675081,-70.979895
"01922","Byfield","MA","Pearsons Hardware","not_available","01922",42.755086457315564,-70.93844044283188
"01923","Danvers","MA","The Home Depot","235 Independence Way","01923",42.5548803,-70.935336
"01923","Danvers","MA","The Home Depot","92 Newbury St","01923",42.564124134062865,-70.97767142598968
"01923","Danvers","MA","Lowe's","153 Andover Street","01923",42.5594979,-70.9678166
"01923","Danvers","MA","Harbor Freight Tools","4 Newbury St Spc B","01923",42.55715723409552,-70.97972218873458
"01923","Danvers","MA","Rocky's Ace Hardware","208 S Main St","01949",42.580421,-71.000601
"01923","Danvers","MA","Peabody Supply Co","58 Pulaski St Bldg 15","01960",42.541233,-70.92378000000001
"01923","Danvers","MA","Delande Supply Company","not_available","01960",42.54117,-70.927712
"01923","Danvers","MA","Portside Marine","106 Liberty St","01923",42.558775,-70.922371
"01923","Danvers","MA","Sherwin-Williams Paint Store","151 Endicott St","01923",42.549495,-70.93979200000001
"01923","Danvers","MA","Danvers Hardware","63 Maple Street","01923",42.56731414794922,-70.93658447265625
"01923","Danvers","MA","Danvers True Value","63 Maple St","01923",42.567336,-70.936418
"01929","Essex","MA","Building Center of Essex","140 Western Ave","01929",42.62231,-70.80006
"01930","Gloucester","MA","Building Center of Gloucester","1 Harbor Loop","01930",42.61123,-70.661228
"01930","Gloucester","MA","Ben's Wallpaper & Paint","6 Railroad Ave","01930",42.615469,-70.66475799999999
"01930","Gloucester","MA","Speedway Welding Supply","16 Old County Rd","01930",42.62672,-70.63960300000001
"01930","Gloucester","MA","Hometown Ace Hardware","231 Gloucester Crossing Rd","01930",42.622376,-70.65559499999999
"01930","Gloucester","MA","Smith Hardware & Lumber","3 Station Sq","01966",42.656546999999996,-70.62731
"01930","Gloucester","MA","The booth","not_available","01930",42.611812591552734,-70.66220092773438
"01930","Gloucester","MA","Grand Banks","7 Crafts Rd","01930",42.624796,-70.69617
"01930","Gloucester","MA","Rose's Oil & Marine Supply","375 Main St","01930",42.616199,-70.653896
"01938","Ipswich","MA","Tedford's Building Materials And Hardware","10 Brown Square","01938",42.68016052246094,-70.84148406982422
"01938","Ipswich","MA","Tractor Supply Co.","82 Turnpike Rd","01938",42.68806457519531,-70.91888427734375
"01938","Ipswich","MA","Todd Tool and Abrasive Systems","56 Turnpike Rd","01938",42.682715,-70.920266
"01938","Ipswich","MA","Yankee Pine","not_available","01969",42.712850273496095,-70.90796246729077
"01940","Lynnfield","MA","Torra Development LLC","40 Salem St Bldg 2","01940",42.5121396,-71.0351986
"01944","Manchester","MA","Manchester Ace Hardware","35 Beach St","01944",42.57432,-70.770547
"01945","Marblehead","MA","Green's Ace Hardware","70 Atlantic Ave","01945",42.497286,-70.857991
"01945","Marblehead","MA","Marblehead Garden Center","164 W Shore Dr","01945",42.502913,-70.86966899999999
"01945","Marblehead","MA","Dilisio Brothers Masonry Supplies","10 Broadway","01970",42.507360999999996,-70.897607
"01945","Marblehead","MA","Winer Bros Inc","86 Lafayette St","01970",42.512096,-70.891293
"01945","Marblehead","MA","Waters & Brown  Hdw","281 Derby St","01970",42.520231,-70.890401
"01945","Marblehead","MA","Blue Rhino","214 Beacon St","01945",42.514056,-70.857973
"01950","Newburyport","MA","Kelly's Taylor Rental","161 State St","01950",42.800286,-70.8739077
"01950","Newburyport","MA","Port Paint & Paper","not_available","01950",42.815518,-70.880198
"01950","Newburyport","MA","E J Tremblay Excavating & Trucking","67 Bridge Rd","01952",42.834328,-70.86160100000001
"01950","Newburyport","MA","Lombardi Oil Co","16 Perry Way","01950",42.8048158,-70.891212
"01950","Newburyport","MA","Fastenal","Mulilken Way","01950",42.801258000000004,-70.887341
"01952","Salisbury","MA","The Home Depot","240 Lafayette Rd","03874",42.881249,-70.8654169
"01952","Salisbury","MA","Lowe's","417 Lafayette Road","03874",42.886101,-70.872924
"01952","Salisbury","MA","Sherwin-Williams Paint Store","308 Lafayette Rd","03874",42.883976765861604,-70.86787994841005
"01952","Salisbury","MA","Sherwin-Williams Paint Store","175 Elm St","01952",42.843385,-70.891983
"01952","Salisbury","MA","Atlantic Green Energy","255 Lafayette Rd #4","03874",42.88178253173828,-70.86786651611328
"01960","Peabody","MA","The Home Depot","50 Traders Way","01970",42.5000801,-70.9233245
"01960","Peabody","MA","NorthEast Electrical","5 1st Ave","01960",42.52021026611328,-70.97430419921875
"01960","Peabody","MA","APlus Flooring & Countertops","300 Highland Ave","01970",42.501705169677734,-70.92584991455078
"01960","Peabody","MA","Sherwin-Williams Paint Store","7 Traders Way","01970",42.5019645690918,-70.92229461669922
"01960","Peabody","MA","One Way Lumber","297 Highland Ave","01970",42.501777000000004,-70.924029
"01960","Peabody","MA","Stoneworks","250 Highland Ave","01970",42.504355,-70.922804
"01960","Peabody","MA","Grossman's Bargain Outlet","96 Foster St","01960",42.521885,-70.930479
"01970","Salem","MA","minuteKEY","450 Highland Ave","01970",42.49435043334961,-70.9351577758789
"01970","Salem","MA","Rent All inc","not_available","01970",42.49175262451172,-70.93489074707031
"01970","Salem","MA","Crown Auto Body Supply","45 Mason St","01970",42.52373123168945,-70.9041748046875
"01970","Salem","MA","Salem Sewer and Drain","17 Heritage Dr","01970",42.512541999999996,-70.910493
"01970","Salem","MA","National Lumber","33 Mason St","01970",42.52442,-70.90268
"01982","South Hamilton","MA","Wenham Sewer Cleaners","233 Main St","01984",42.60867969443482,-70.8768367767334
"01983","Topsfield","MA","Essex County Coop","146 S Main St","01983",42.62949310408755,-70.94653121346273
"01983","Topsfield","MA","MBD Outdoor Power Equipment Inc.","224 Boston St","01983",42.632042,-70.94450400000001
"02019","Bellingham","MA","The Home Depot","229 Hartford Ave","02019",42.1114466,-71.4681537
"02019","Bellingham","MA","Taylor True Value Rental","71 Mechanic St","02019",42.0841218513,-71.4708077304
"02019","Bellingham","MA","Van Millwork","not_available","02019",42.082288,-71.45317800000001
"02019","Bellingham","MA","Bellingham Lumber","200-224 Lake St","02019",42.03597058554648,-71.46623611450195
"02019","Bellingham","MA","Rocky's Ace Hardware","295 Pulaski Blvd","02019",42.022152,-71.491474
"02019","Bellingham","MA","Circus Fun Entertainment","94 Garside Avenue","07470",42.067668,-71.48702399999999
"02019","Bellingham","MA","Marathon Tool","1376 W Central St","02038",42.081841,-71.451173
"02019","Bellingham","MA","Ferland Woodworking","1270-1280 Pulaski Blvd","02019",42.035356,-71.463912
"02021","Canton","MA","Grainger","438 University Ave","02062",42.19758605957031,-71.15758514404297
"02021","Canton","MA","ADI","780 Dedham St Ste 200","02021",42.191471099853516,-71.15396881103516
"02021","Canton","MA","Rocky's Ace Hardware","19 Washington St","02021",42.1392,-71.148499
"02021","Canton","MA","A. Thomas & Sons Inc","1237 Randolph Ave","02186",42.226653000000006,-71.07119399999999
"02021","Canton","MA","DCNE - Carrier","not_available","02062",42.183583207789894,-71.15913351134964
"02021","Canton","MA","Needham Electric Supply","670 Canton St","02062",42.20163345336914,-71.16243743896484
"02021","Canton","MA","ProSource of Boston South","956 Turnpike St","02021",42.1541,-71.10538
"02021","Canton","MA","Needham Electric Supply","5 Shawmut Rd","02021",42.190785,-71.15066
"02021","Canton","MA","HD Supply White Cap","45 Maple St","02072",42.142635,-71.07481800000001
"02021","Canton","MA","Babel's Paint","102 Washington St","02021",42.14025059999999,-71.1492118
"02021","Canton","MA","Marble & Granite","270 University Ave","02090",42.2022,-71.15343399999999
"02021","Canton","MA","Black Bear Tool And Supply","not_available","02021",42.16529638092272,-71.11259865746604
"02021","Canton","MA","Ferguson","Two Whitman Rd","02021",42.171537,-71.109472
"02025","Cohasset","MA","Aubuchon Hardware","828 Chief Justice Cushing Hwy","02025",42.21889002669076,-70.79742529636067
"02025","Cohasset","MA","Hingham Lumber","165 Chief Justice Cushing Hwy","02025",42.240402,-70.8330265
"02025","Cohasset","MA","Ace Hardware","165 Chf Justice Cushng Hw","02025",42.239484,-70.812788
"02026","Dedham","MA","Lowe's","306 Providence Highway","02026",42.2524486,-71.1700092
"02026","Dedham","MA","The Home Depot","1213 Vfw Pkwy","02132",42.2795811,-71.1745442
"02026","Dedham","MA","East Dedham Builders Supply","187 Milton St","02026",42.242019,-71.147774
"02026","Dedham","MA","minuteKEY","306 Providence Hwy","02026",42.253599,-71.16954
"02026","Dedham","MA","Prevett Oil Company, Inc.","1198 East Street","02090",42.21,-71.21
"02026","Dedham","MA","WR Sewer and Drain","5201 Washington St","02132",42.261409759521484,-71.15731048583984
"02026","Dedham","MA","Linnet Street Sewer and Drain","10 Linnet St","02132",42.279407,-71.15234699999999
"02026","Dedham","MA","Jomar","125 Commerce Way","02026",42.244282,-71.15330300000001
"02026","Dedham","MA","Drive In Paint Mart","520 Providence Highway","02026",42.24585099999999,-71.1721651
"02026","Dedham","MA","Concord Electric Supply Dedham","120 Stergis Way","02026",42.2354396,-71.1761712
"02026","Dedham","MA","Sears","290 Providence Hwy","02026",42.25370407104492,-71.17033386230469
"02026","Dedham","MA","Concord Electrical Supply","not_available","02026",42.235499682352035,-71.17575552205062
"02030","Dover","MA","Harvey's Ace Hardware","1004 Great Plain Ave","02492",42.280298,-71.2368
"02030","Dover","MA","Sherwin-Williams Paint Store","1068 Great Plain Ave","02492",42.280013000000004,-71.238479
"02030","Dover","MA","Babel's Paint","1424 Highland Ave","02492",42.28195784788745,-71.23591647731553
"02032","East Walpole","MA","The Home Depot","1415 Boston Providence Tpke","02062",42.16328413552199,-71.20171129703522
"02032","East Walpole","MA","Sherwin-Williams Paint Store","403 High Plain St","02081",42.140484,-71.221109
"02032","East Walpole","MA","Bargain Outlet Walpole","600 Providence Highway","02081",42.143654,-71.2166744
"02032","East Walpole","MA","Economy Door Service","1500 Boston Providence Tpke","02062",42.16067886352539,-71.19831848144531
"02032","East Walpole","MA","MARQUIS BUILDING AND DESIGN CM","824 Washington St","02081",42.141338,-71.233522
"02032","East Walpole","MA","O'LYN Contractors, Inc","916 Pleasant St Ste 4","02062",42.168025,-71.204113
"02035","Foxboro","MA","The Home Depot","390 West St","02048",42.0229125,-71.233647
"02035","Foxboro","MA","Boston Cedar / Cape Cod Lumber.","80 Hampden Rd","02048",42.019859999999994,-71.233948
"02035","Foxboro","MA","Insul Mart","50 Hampden Rd","02048",42.020391,-71.237078
"02035","Foxboro","MA","Aubuchon Hardware","2 Cocasset St","02035",42.06564513912589,-71.25020866208828
"02035","Foxboro","MA","MANSFIELD TRUE VALUE HARDWARE","284 N Main St","02048",42.030609130859375,-71.21886444091797
"02035","Foxboro","MA","Sherwin-Williams Paint Store","287 School St","02048",42.01464793348785,-71.23229002968186
"02035","Foxboro","MA","National Lumber","245 Oakland St","02048",42.0405973441623,-71.21128958168411
"02035","Foxboro","MA","wood.anas@yahoo.com","4 S Main St","02048",42.02446746826172,-71.21588897705078
"02035","Foxboro","MA","National Lumber Home Finishes","90 Norfolk St","02048",42.02088453378256,-71.232872367984
"02035","Foxboro","MA","Chace Building Supply","129 Washington St","02035",42.0769526,-71.2860111
"02038","Franklin","MA","Franklin agway","157 Cottage St","02038",42.078679,-71.402314
"02038","Franklin","MA","Ferguson Plumbing Supply","22 National Dr","02038",42.07932,-71.43705
"02038","Franklin","MA","Simon's","8 Summer St","02038",42.0816307,-71.3947766
"02038","Franklin","MA","Closet & Storage Concepts","31 Hayward St","02038",42.082965,-71.41028299999999
"02038","Franklin","MA","Franklin Lumber","not_available","02038",42.08767044488274,-71.39250069229688
"02038","Franklin","MA","Hometown Paint","254 E Central St","02038",42.08017683201043,-71.38580343581825
"02038","Franklin","MA","Sherwin-Williams Paint Store","510 W Central St","02038",42.08913498193914,-71.41870288339449
"02038","Franklin","MA","Do It Best - Daddario Hardware & Supply","528 W Central St","02038",42.08889389038086,-71.42002868652344
"02038","Franklin","MA","Floors to the trade","950 Chestnut St","02038",42.103363037109375,-71.36956787109375
"02038","Franklin","MA","Franklin Glass Company","Beaver St","02038",42.06596320646761,-71.40229991894043
"02038","Franklin","MA","Optical Shoppe","16 Main St, Franklin, MA 02038","02038",42.0831184387207,-71.39783477783203
"02038","Franklin","MA","Aubuchon Hardware","240 Cottage St","02038",42.076754,-71.40442656
"02043","Hingham","MA","The Home Depot","1149 Hingham St","02370",42.16474421375119,-70.89465790986196
"02043","Hingham","MA","Walter Tool","41RWashington St","02061",42.17380453414393,-70.88239431381226
"02043","Hingham","MA","Bill's Outboard Motors","not_available","02043",42.249399794394954,-70.91751246404645
"02043","Hingham","MA","Whitehorse Sewer and Drain","7 Whitehorse Rd","02043",42.21449661254883,-70.90066528320312
"02043","Hingham","MA","F.W. Webb","Pond Park Road","not_available",42.16501297456906,-70.8945747024386
"02043","Hingham","MA","Airgas","20 Industrial Park Rd","02043",42.1762147289319,-70.9184935764184
"02043","Hingham","MA","Justice Hardware","827 Broad St","02189",42.21561,-70.925715
"02043","Hingham","MA","Sherwin-Williams Paint Store","105 South St","02043",42.24123764038086,-70.89148712158203
"02043","Hingham","MA","SRW Construction Supply","95 Woodstock Rd","02189",42.19247476419108,-70.9276834144124
"02045","Hull","MA","Nantasket Paint & Hardware","510 Nantasket Ave","02045",42.282672,-70.873306
"02050","Marshfield","MA","Lowe's","108 Old Church Street","02359",42.1100018,-70.7717165
"02050","Marshfield","MA","Concord Electric MSF","57 Rockwood Rd Ste 1","02050",42.102382,-70.7451
"02050","Marshfield","MA","August West Chimney Company","6 Riverside Dr","02359",42.107878,-70.77410400000001
"02050","Marshfield","MA","Husqvarna US","844 MAIN STREET, RTE 3A","02050",42.117027282714844,-70.73760223388672
"02050","Marshfield","MA","Tw's Watson Family Hardware","1 Cole Parkway","02066",42.19342521211486,-70.72567820549011
"02050","Marshfield","MA","minuteKEY","108 Old Church St","02359",42.11021423339844,-70.77208709716797
"02050","Marshfield","MA","Sherwin-Williams Paint Store","254 Church St","02359",42.107867999999996,-70.761613
"02050","Marshfield","MA","Northeast Electrical","875 Plain St","02050",42.106245,-70.753291
"02050","Marshfield","MA","Satuit Hardware","1 Cole Pkwy","02066",42.193814,-70.725257
"02050","Marshfield","MA","Taylor Lumber","2075 Ocean St","02050",42.091986,-70.712874
"02050","Marshfield","MA","Foster Lumber","Webster St","not_available",42.087849,-70.70173199999999
"02050","Marshfield","MA","Compressor World, LLC","32 Riverside Drive","02359",42.11119,-70.774635
"02052","Medfield","MA","Wills Hardware Medfield Ma","75 West St","02052",42.191641,-71.325488
"02052","Medfield","MA","Doit Best","Medfield Ma","not_available",42.191411,-71.325576
"02053","Medway","MA","Tractor Supply Co®","1313 Main St","02054",42.161126,-71.37731
"02053","Medway","MA","Medway Sewer and Drain","42 Broad St","02053",42.145019,-71.397819
"02053","Medway","MA","CONDON HARDWARE","114 Main St","02053",42.15118408203125,-71.41676330566406
"02054","Millis","MA","Rocky's Ace Hardware","813 Main St","02054",42.168163,-71.354641
"02056","Norfolk","MA","Main Street Hardware & Supply","156 Main St","02056",42.119729,-71.326698
"02056","Norfolk","MA","Husqvarna US","5 CUSHING DR,  RT 1A","02093",42.08631896972656,-71.30316925048828
"02056","Norfolk","MA","taylor rental","262 Dedham St","02056",42.088014,-71.303438
"02061","Norwell","MA","Curry Ace Hardware","1271 Washington St","02339",42.1400999,-70.842799
"02061","Norwell","MA","Tractor Supply Co.","389 Columbia Rd Ste 10","02339",42.107547,-70.813516
"02061","Norwell","MA","Shutter Up","528 Washington St","02339",42.1199962,-70.82469189999999
"02061","Norwell","MA","Sears","1775 Washington St, Hanover Mall","02339",42.1468238,-70.8404968
"02061","Norwell","MA","Husqvarna US","1245 Washington St","02339",42.13931655883789,-70.84201049804688
"02061","Norwell","MA","Norwell Hardware","not_available","02061",42.161756,-70.792172
"02061","Norwell","MA","Aqua Jett","28 Columbia Rd","02359",42.106323,-70.806159
"02061","Norwell","MA","Sylvester Company","not_available","02339",42.114058794502085,-70.8130085435185
"02061","Norwell","MA","Sears","1775 Washington St","02339",42.14668999,-70.84053246
"02062","Norwood","MA","Babel's Paint & Decorating","23 Cottage St","02062",42.19431983599723,-71.20191058283805
"02062","Norwood","MA","Norwood True Value","670 Washington St","02062",42.192906,-71.201165
"02062","Norwood","MA","WJ Grosvenor's","185 Dean St, Norwood, MA 02062","02062",42.177895,-71.195545
"02062","Norwood","MA","Sherwin-Williams Floorcovering Store","51 Morgan Dr","02062",42.171405,-71.19069300000001
"02062","Norwood","MA","American Vacuum","8 Guild St","02062",42.191322326660156,-71.20181274414062
"02062","Norwood","MA","Makita","346 Vanderbilt Ave","02062",42.171668,-71.187702
"02072","Stoughton","MA","The Home Depot","60 Stockwell Dr","02322",42.1312717,-71.0654428
"02072","Stoughton","MA","Sherwin-Williams Paint Store","490 Washington St","02072",42.13257970082295,-71.10123038291931
"02072","Stoughton","MA","Stoughton True Value","531 Washington St","02072",42.131795000000004,-71.102925
"02072","Stoughton","MA","Avon Plumging & Heating","254 Bodwell St","02322",42.136140999999995,-71.061075
"02081","Walpole","MA","Rocky's Ace Hardware","653 Main St","02081",42.1551249,-71.245679
"02093","Wrentham","MA","Lowe's","201 Washington Street","02762",42.0294776,-71.3088814
"02093","Wrentham","MA","minuteKEY","201 Washington St","02762",42.02943420410156,-71.3084945678711
"02093","Wrentham","MA","NEWPRO","475 Washington St","02093",42.058618,-71.296172
"02093","Wrentham","MA","Cataldo's Hardware","South St","02093",42.0653537,-71.32973554
"02108","Boston","MA","Charles Street Supply","54 Charles St","02114",42.3574109,-71.070258
"02108","Boston","MA","Aristide Services","139 Charles St Ste A-123","02114",42.36022186279297,-71.07056427001953
"02108","Boston","MA","Key Works","101-227 Washington St","02108",42.35827339492455,-71.0580206867457
"02109","Boston","MA","Salem St. True Value","89 Salem St","02113",42.36367597586173,-71.05583723420322
"02109","Boston","MA","Milk Street Sewer and Drain","167 Milk St","02109",42.35821533203125,-71.05347442626953
"02109","Boston","MA","Boston locks","71 Commercial St","02109",42.363363955820496,-71.0515022277832
"02109","Boston","MA","state street sewer and drain","60 State St","02109",42.359114730809786,-71.05527877807617
"02110","Boston","MA","Empire Door Service","38 Chauncy St","02111",42.353816986083984,-71.05976867675781
"02111","Boston","MA","Bingham Lumber","89 South St","03033",42.351951599121094,-71.05792236328125
"02111","Boston","MA","VivaSalotti","150 Tremont St","02111",42.35489042678564,-71.06351671773069
"02111","Boston","MA","GrayBar Electric Co","345 Harrison Ave","02118",42.34512710571289,-71.06417083740234
"02115","Boston","MA","Economy True Value","219 Massachusetts Ave","02115",42.34471992261287,-71.0866312434308
"02115","Boston","MA","Economy True Value","1012 Beacon St","02446",42.346150317836226,-71.10752938778066
"02115","Boston","MA","Johnson Paint","355 Newbury St","02115",42.34832561933197,-71.08755691296976
"02115","Boston","MA","A C Hardware","1562 Tremont at","not_available",42.333045474197355,-71.10163722888471
"02115","Boston","MA","Back Bay Hardware","221 Newbury St","02116",42.350024705501895,-71.08152151107788
"02115","Boston","MA","Airgas","351 Vassar St","02139",42.354827,-71.106223
"02115","Boston","MA","WIT Physical Plant","not_available","02120",42.33523941040039,-71.09667205810547
"02115","Boston","MA","Gary Levine Fine Knives","292 Newbury St Ste 146","02115",42.348777770996094,-71.08462524414062
"02116","Boston","MA","Warren Electric & Hardware","470 Tremont St","02116",42.34642977893133,-71.06905720923473
"02116","Boston","MA","Anthonys Mobile Door Service","137 Newbury St","02116",42.35126876831055,-71.07723236083984
"02116","Boston","MA","Locks Re-key Boston","172 Newbury St","02116",42.35031509399414,-71.07890319824219
"02118","Boston","MA","The Home Depot","5 Allstate Rd","02125",42.32833091530768,-71.06389081753156
"02118","Boston","MA","New England Building Supply","174 Hampden St","02119",42.32712978892346,-71.07465015842484
"02118","Boston","MA","Waldo Bros","not_available","02118",42.331784999999996,-71.065927
"02118","Boston","MA","Rexel","1000 Massachusetts Ave","02118",42.328367,-71.067628
"02118","Boston","MA","Hurley Wire & Cable","2500 Washington St","02119",42.328001768780815,-71.08660531144346
"02119","Roxbury","MA","Concord Electric Supply","69 Shirley St","02119",42.32406744935931,-71.0702086060568
"02119","Roxbury","MA","BayDo Hardwood Floors","not_available","02119",42.32342893375364,-71.08416080474854
"02119","Roxbury","MA","Southie Door Service","1693 Columbus Avenue","02127",42.320499420166016,-71.09874725341797
"02121","Dorchester","MA","Dorchester Hardware","274 Washington St","02121",42.300487,-71.075217
"02122","Dorchester","MA","Codman Lock","327 Adams St","02122",42.297344,-71.056905
"02122","Dorchester","MA","Boston Sewer Cleaning","25 Owencroft Rd","02124",42.27972195292281,-71.0689902305603
"02122","Dorchester","MA","AIRGAS","79 Clapp St","02125",42.323778,-71.06353511
"02122","Dorchester","MA","Boston Lumber","147 Hancock St","02125",42.310970306396484,-71.06279754638672
"02122","Dorchester","MA","Bowdoin Sewer and Drain","314 Bowdoin St","02122",42.3079270611693,-71.06521368026733
"02122","Dorchester","MA","Drive In Paint Mart","705 GALLIVAN BLVD","02124",42.2837211,-71.0473025
"02122","Dorchester","MA","Bert's Electrical Supply","61-69 Hancock St","02171",42.281644,-71.036551
"02122","Dorchester","MA","Benjamin Moore","not_available","02122",42.28351973569301,-71.0468140347593
"02122","Dorchester","MA","Sherwin-Williams Commercial Paint Store","26 Clayton St","02122",42.30344000841909,-71.05604588985442
"02122","Dorchester","MA","Yale Appliance","296 Freeport Street","02122",42.30271,-71.051632
"02122","Dorchester","MA","ATCO Supply Co","617 Columbia Rd","02125",42.317710876464844,-71.06382751464844
"02122","Dorchester","MA","Franklin Street Sewer and Drain","20 Franklin St","02122",42.28792924395215,-71.04075193405151
"02122","Dorchester","MA","Hamilton True Value Hardware","259 Bowdoin St","02122",42.30641174316406,-71.06656646728516
"02122","Dorchester","MA","Leal supply","261 Bowdoin St","02122",42.30657958984375,-71.06665802001953
"02122","Dorchester","MA","Colony Tools Supplies","305 Freeport St","02122",42.302021,-71.051919
"02124","Dorchester Center","MA","Norfolk Hardware & Home Center","981 Morton St","02126",42.278690012820896,-71.0806953907013
"02124","Dorchester Center","MA","Milton Village True Value Hardware","54 Adams St","02186",42.269999,-71.067465
"02124","Dorchester Center","MA","Rent All of Boston Inc","1161 Adams St","02124",42.272971000000005,-71.06565400000001
"02124","Dorchester Center","MA","Edgewater Drive Sewer & Drain","2 Edgewater Dr","02126",42.27010044030086,-71.09257221221924
"02127","South Boston","MA","Economy True Value Hardware","105 Dorchester St","02127",42.33532911,-71.04634974
"02127","South Boston","MA","HD Supply White Cap","420 E Street","02127",42.34188141,-71.04527567
"02127","South Boston","MA","Grainger","1 Harbor St Ste 2","02210",42.34532,-71.03535500000001
"02127","South Boston","MA","West Broadway Sewer and Drain","423 W Broadway","02127",42.336484999999996,-71.047776
"02127","South Boston","MA","HD Supply A.H. Harris","420 E St","02127",42.34175,-71.04546
"02127","South Boston","MA","Glidden Professional Paint","371 Dorchester Ave","02127",42.33556654262788,-71.05829344970844
"02127","South Boston","MA","Tolman's Welding Supplies","not_available","02127",42.34469586666667,-71.05739826666667
"02127","South Boston","MA","Perkins Supply","480 W Broadway","02127",42.335536751588194,-71.04600732974762
"02127","South Boston","MA","HD Supply Kenseal","643 Summer St","02210",42.34285177,-71.03929719
"02127","South Boston","MA","Backstage Hardware And Theater Supply","23-27 Drydock Ave","02210",42.344595080103915,-71.03077048752556
"02127","South Boston","MA","Drive In Paint Mart","371 Dorchester Ave #100","02127",42.335444,-71.0580404
"02127","South Boston","MA","Sherwin-Williams Paint Store","435 W Broadway","02127",42.336224,-71.047321
"02127","South Boston","MA","Robert N. Karpp Building Materials","480 East 1st Street","02127",42.33867793,-71.04043682
"02127","South Boston","MA","Flood Square Hardware","628 E Broadway","02127",42.335729,-71.039275
"02127","South Boston","MA","Tile Showcase","1 Design Center Pl","02210",42.34418869018555,-71.03337097167969
"02127","South Boston","MA","Independent Electric Supply","Old Colony Avenue","not_available",42.337455,-71.056906
"02128","East Boston","MA","RJT Painting","44 Birch Rd","02152",42.375036,-70.993208
"02128","East Boston","MA","Murray Supply Corp.","265 Central Ave","02150",42.387702000000004,-71.02550500000001
"02128","East Boston","MA","Woodside Ace Hardware","65 Main St","02152",42.382297,-70.991494
"02128","East Boston","MA","Stasio Lumber","39 Walden St, Winthrop, MA 02152","02152",42.380462646484375,-70.9869155883789
"02128","East Boston","MA","Hardware Products Co","191 Williams St","02150",42.3923,-71.0442
"02128","East Boston","MA","Maverick Sewer and Drain Cleaners","30 Maverick St","02128",42.371563,-71.041826
"02128","East Boston","MA","New England Lighting","201 Crescent Ave","02150",42.396803999999996,-71.02209
"02128","East Boston","MA","Standard Electric Chelsea","615 Broaway","02150",42.3945,-71.03056099999999
"02128","East Boston","MA","A&E Hardware","29 Bennington St","02128",42.375205993652344,-71.03770446777344
"02129","Charlestown","MA","The Home Depot","75 Mystic Ave","02145",42.38999,-71.0797776
"02129","Charlestown","MA","Charlestown Ace","5 Austin St","02129",42.3755,-71.064499
"02129","Charlestown","MA","Bachmann Electronic Corporation","529 Main St","02129",42.38395303487778,-71.07238791882992
"02129","Charlestown","MA","Boulter Plywood","24 Broadway","02145",42.386052,-71.07934
"02129","Charlestown","MA","Concord Electric Supply Charlestown","1 Bunker Hill Industrial Park Ste 450","02129",42.3787155,-71.0729675
"02130","Jamaica Plain","MA","Yumont True Value Hardware","702 Centre St","02130",42.31163017670126,-71.11435858149396
"02130","Jamaica Plain","MA","Hardware City Inc","656 Centre St","02130",42.31324,-71.114215
"02130","Jamaica Plain","MA","Jamaica Plain Sewer & Drain","525 Centre St","02130",42.317241336073685,-71.113600730896
"02130","Jamaica Plain","MA","Popular Painting","10 Perkins St","02130",42.32168960571289,-71.11065673828125
"02130","Jamaica Plain","MA","Wallpaper City","733 South Street","02131",42.28698,-71.128945
"02130","Jamaica Plain","MA","Roslindale Sewer and Drain","1408 Centre St","02131",42.294010162353516,-71.13606262207031
"02130","Jamaica Plain","MA","forest hills electrical supply","3607 Washington St","02131",42.30315399169922,-71.11103820800781
"02131","Roslindale","MA","Roslindale Hardware","4407 Washington St","02131",42.281603000000004,-71.13359399999999
"02131","Roslindale","MA","Averton Sewer and Drain","34 Averton St","02131",42.281499,-71.135914
"02131","Roslindale","MA","timothyswinburne@yahoo.com","200 Providence St","02136",42.26917266845703,-71.12167358398438
"02132","West Roxbury","MA","Warren Hardware","470 Vermont Street","02116",42.28397351702869,-71.16993090592786
"02132","West Roxbury","MA","Atlas True Value Hardware","1871 Centre St","02132",42.28614,-71.15554300000001
"02134","Allston","MA","Mahoney's","449 Western Ave","02135",42.362540415164005,-71.14237433022934
"02134","Allston","MA","Model Hardware","22 Harvard Ave","02134",42.3528,-71.1328
"02134","Allston","MA","The Hen Den: Maintenance Closet","Greylock Road","02134",42.35022491428709,-71.13391578197479
"02134","Allston","MA","Handyman Brookline","250 Granite Street","02139",42.356064386990425,-71.11209601163864
"02134","Allston","MA","Jack Young","not_available","02134",42.35490040074139,-71.13248978122
"02134","Allston","MA","Ferguson Plumbing Supply","121 N Beacon St","02135",42.354984,-71.143473
"02134","Allston","MA","Litchfield Sewer and Drain","42 Litchfield St","02135",42.359291076660156,-71.14138793945312
"02134","Allston","MA","Sherwin-Williams Paint Store","416 Cambridge St","02134",42.35446879404384,-71.13413572311401
"02134","Allston","MA","H.W. Foote Paint & Decorating Center","420 Western Ave","02135",42.362322999999996,-71.140371
"02134","Allston","MA","Allson Sewer Cleaners","281 Western Ave","02134",42.36370849609375,-71.13385772705078
"02134","Allston","MA","Fastenal","125 North Beacon St","02135",42.355007,-71.143839
"02134","Allston","MA","Action Bearing Co","201 Brighton Ave","02134",42.353660999999995,-71.134491
"02134","Allston","MA","Granite City Electric","450 Western Ave","02135",42.361934999999995,-71.141777
"02134","Allston","MA","Westlake Ace Hardware","2600 S 48th St","68506",42.371087,-71.11487
"02135","Brighton","MA","The Home Depot","615 Arsenal St","02472",42.3620806,-71.1558123
"02135","Brighton","MA","F W Webb Company","33 Grove St","02472",42.37020492553711,-71.1546401977539
"02135","Brighton","MA","Aborn True Value Hardware","438 Harvard St","02446",42.34593057114225,-71.12788116426172
"02135","Brighton","MA","Brighton Sewer & Drain","288 Washington St","02135",42.34865951538086,-71.15049743652344
"02135","Brighton","MA","Brighton Lockshop & Hardware","383 Washington St.","02135",42.349289,-71.154431
"02135","Brighton","MA","Jay's Lock and Safe","1731 Beacon St Apt 1207","02445",42.33750915527344,-71.13993835449219
"02135","Brighton","MA","Commonwealth Glass & Mirror","1 Grove St","02472",42.370742,-71.155357
"02135","Brighton","MA","Brighton Main Line Rooters","33 Brackett St","02135",42.35061541869651,-71.16518497467041
"02135","Brighton","MA","Coolidge Hardware","622 Mount Auburn St","02472",42.371306,-71.158294
"02135","Brighton","MA","Stuart Glass Company","56 Leo M Birmingham Pkwy","02135",42.359969,-71.146469
"02135","Brighton","MA","Connelly Hardware Co","706 Washington St","02446",42.338947999999995,-71.135161
"02135","Brighton","MA","Washington Street Sewer & Drain Cleaning","513 Washington St","02135",42.34890273159866,-71.1630392074585
"02135","Brighton","MA","Cleveland Circle Hardware","1920 Beacon St","02135",42.336389468878636,-71.14925035002945
"02135","Brighton","MA","Grossmans Bargain Outlet","217 North Beacon","not_available",42.35658665234704,-71.14922355245808
"02136","Hyde Park","MA","Hyde Park Sewer & Drain","46 Business St","02136",42.253501892089844,-71.12702178955078
"02136","Hyde Park","MA","Loring Sewer and Drain","25 Loring St","02136",42.24835205078125,-71.11978149414062
"02136","Hyde Park","MA","Central Paint & True Value","1206 River St","02136",42.255821000000005,-71.122022
"02138","Cambridge","MA","Tags Hardware","29 White St","02140",42.389747,-71.118779
"02138","Cambridge","MA","Dickson Bros. True Value","26 Brattle St","02138",42.37315527120717,-71.12055179185721
"02138","Cambridge","MA","Beth's Rack Cambridge","Cogswell Ave","not_available",42.39084,-71.12423
"02138","Cambridge","MA","Commonwealth Lock Co.","1853 Massachusetts Ave","02140",42.387828000000006,-71.11905300000001
"02138","Cambridge","MA","Masse Hardware","249 Walden St","02140",42.386403,-71.130859
"02138","Cambridge","MA","Ace Hardware","not_available","02478",42.394272,-71.158536
"02138","Cambridge","MA","Sherwin-Williams Paint Store","355 Fresh Pond Pkwy","02138",42.386146000000004,-71.140831
"02138","Cambridge","MA","J & C Adams Co. Inc.","75 New St","02138",42.388944,-71.140414
"02138","Cambridge","MA","Anderson & McQuaid Co Inc.","170 Fawcett St","02138",42.393539000000004,-71.14899399999999
"02138","Cambridge","MA","Rockler Woodworking and Hardware","2154 Massachusetts Ave","02140",42.392297,-71.124893
"02138","Cambridge","MA","Turf Equipment Company","280 Blanchard Rd","02478",42.393882,-71.159035
"02139","Cambridge","MA","Pill Hardware","743 Massachusetts Ave","02139",42.36629845089934,-71.10522473343303
"02139","Cambridge","MA","Metropolitan Pipe & Supply","30 inner belt rd","02142",42.366962888038785,-71.08845233917236
"02140","Cambridge","MA","Cambridge Drain Rooters","49 Churchill Ave","02140",42.400951,-71.132243
"02140","Cambridge","MA","Benjamin Moore","not_available","02140",42.400114842974816,-71.13432913793588
"02141","Cambridge","MA","Colman Electric","351 Cambridge St","02141",42.371463,-71.081819
"02141","Cambridge","MA","Sherwin-Williams Paint Store","73 1st St","02141",42.368399,-71.078473
"02143","Somerville","MA","Boston Pipe & Fittings Co. Inc.","12 1st Ave","02143",42.379191999999996,-71.082727
"02143","Somerville","MA","Robi Tools","168 Broadway","02145",42.388584,-71.08624499999999
"02143","Somerville","MA","Taylor Rental","352 McGrath Highway","not_available",42.380776578738605,-71.09012421666041
"02143","Somerville","MA","United Refrigeration","Innerbelt Rd","not_available",42.377055,-71.081405
"02144","Somerville","MA","Broadway Sewer Experts","1284 Broadway","02144",42.40544429728559,-71.13057374954224
"02144","Somerville","MA","Medford Sewer & Drain","144 Mystic Ave","02155",42.41007995605469,-71.10550689697266
"02144","Somerville","MA","Murray Bathroom Design","134 Mystic Ave","02155",42.41081237792969,-71.10520935058594
"02144","Somerville","MA","Hillside True Value Hardware","325 Boston Ave","02155",42.411697,-71.122343
"02144","Somerville","MA","the portland group","74 Mystic Ave, Medford, MA 02155","02155",42.41267013549805,-71.10749053955078
"02148","Malden","MA","Lamson & Davis","190 Commercial St","02148",42.4193819,-71.075654
"02148","Malden","MA","Malden Sewer Cleaning","364 Washington St","02148",42.439236,-71.071811
"02148","Malden","MA","Bargain Outlet of Malden","260 Eastern Avenue","02148",42.426781,-71.0613374
"02148","Malden","MA","D. C. N. E. DOOR D","not_available","02148",42.428455,-71.04772
"02148","Malden","MA","Central Hardware","435 Ferry St","02149",42.417869,-71.049937
"02148","Malden","MA","Everett Supply & True Value Hardware","403 Main St","02149",42.414590000000004,-71.063872
"02148","Malden","MA","germaflo","66 Devir St Apt 110","02148",42.41550064086914,-71.0801773071289
"02149","Everett","MA","The Home Depot","3 Mystic View Rd","02149",42.397616795149276,-71.06974929571152
"02149","Everett","MA","Revere Beach Sewer & Drain","1795 Revere Beach Pkwy","02149",42.402691,-71.046367
"02149","Everett","MA","Second Street Iron & Metal Co.","285 2nd St","02149",42.397583000000004,-71.04699000000001
"02149","Everett","MA","American Bolt & Nut","124 Carter St","02150",42.39787033278737,-71.0429835319519
"02149","Everett","MA","Everett Aluminum","not_available","02149",42.40313376032837,-71.04188672555797
"02149","Everett","MA","Minichello Brothers - ScrapIt","Second St","02149",42.401611328125,-71.05097961425781
"02149","Everett","MA","Fastenal","380 2nd St","02149",42.400557,-71.051092
"02150","Chelsea","MA","The Home Depot","1100 Revere Beach Pkwy","02150",42.4041996,-71.0253907
"02150","Chelsea","MA","A & A Electrical Supply","230 Crescent Ave","02150",42.398022,-71.02131700000001
"02150","Chelsea","MA","W.S. Aiken, Inc.","224 Crescent Ave","02150",42.397495,-71.022159
"02151","Revere","MA","Plumbing &Heating Depot","252 Lee Burbank Hwy","02151",42.40246,-71.004974
"02151","Revere","MA","LB Sewer and Drain","290 Lee Burbank Hwy","02151",42.40234,-71.004865
"02152","Winthrop","MA","Winthrop Sewer & Drain","30 Argyle St","02152",42.386650312083376,-70.97622871398926
"02152","Winthrop","MA","Shirley True Value Hardware","472 Shirley St","02152",42.372966,-70.971097
"02155","Medford","MA","Harbor Freight Tools","30 Commercial St","02155",42.409335504288485,-71.0872384996418
"02155","Medford","MA","Modern Hardware & Paint Co.","440 Salem St","02155",42.422897,-71.09194000000001
"02155","Medford","MA","Sherwin-Williams Paint Store","630 Fellsway","02155",42.407709999999994,-71.085072
"02155","Medford","MA","A W Brown Oower Equipment","23 Franklin St","02474",42.41435,-71.148288
"02155","Medford","MA","Metro Roofing Supplies","206 Mystic Ave","02155",42.408172,-71.103317
"02155","Medford","MA","Crowley's Concepts","281 Middlesex Ave","02155",42.412436,-71.07728399999999
"02155","Medford","MA","R.E. Michel Company","not_available","02155",42.402865000000006,-71.1015
"02155","Medford","MA","Northeast Electrical","326 Mystic Ave","02155",42.404123999999996,-71.099198
"02155","Medford","MA","dioneltafoya@yahoo.com","255 Mystic Ave","02155",42.40614700317383,-71.10245513916016
"02155","Medford","MA","Dabbs Lock","470 High St","02155",42.42097854614258,-71.13237762451172
"02155","Medford","MA","Sherwin-Williams Commercial Paint Store","59 Hicks Ave","02155",42.402297,-71.101626
"02155","Medford","MA","Canal Street Sewer & Drain","31 Canal St","02155",42.420435999999995,-71.130986
"02169","Quincy","MA","The Home Depot","465 Centre St","02169",42.2312074,-71.0091763
"02169","Quincy","MA","The Home Depot","177 Willard St","02169",42.2489013,-71.035673
"02169","Quincy","MA","Curry Ace Paint & Hardware","370 Copeland St","02169",42.2453989,-71.030992
"02169","Quincy","MA","Concord Electric Supply","258 Willard St","02169",42.247133618747256,-71.03261620430675
"02169","Quincy","MA","granite lock","not_available","02169",42.250944460267014,-70.98399081717929
"02169","Quincy","MA","Wollaston Sewer Cleaners","596 Hancock St","02170",42.26939010620117,-71.01860809326172
"02169","Quincy","MA","minuteKEY","301 Falls Blvd","02169",42.23647689819336,-70.98678588867188
"02169","Quincy","MA","Danny's Hardware","53 Billings Rd","02171",42.27347,-71.024807
"02169","Quincy","MA","Epic Stone & Tile","not_available","02191",42.242746,-70.959983
"02169","Quincy","MA","Verizon Wireless City","480 Southern Artery","02169",42.25459289550781,-70.99535369873047
"02169","Quincy","MA","KeyMe","132 Granite Street","02169",42.244751,-71.00532199999999
"02169","Quincy","MA","NorthEast Electrical","219 Washington St","02169",42.249581,-70.993961
"02169","Quincy","MA","Atlantic Appliance Parts","350 Washington St","02169",42.249462,-70.98862199999999
"02169","Quincy","MA","Curry Ace Hardware","190 Quincy Ave","02184",42.228039,-70.97046800000001
"02169","Quincy","MA","Southern Artery Sewer and Drain","500 Southern Artery","02169",42.2540283203125,-70.99452209472656
"02176","Melrose","MA","Whittemore Hardware","531 Main St","02176",42.45577,-71.064585
"02176","Melrose","MA","Deering Lumber And Masonry","118 Essex St","02176",42.45720423570599,-71.06861768443443
"02176","Melrose","MA","Melrose Sewer & Drain","194 Tremont St","02176",42.45971081118274,-71.06518149375916
"02176","Melrose","MA","Promax Commerce","142 Franklin St","02176",42.467156,-71.063765
"02180","Stoneham","MA","Tonys Imported Marble and Tile","609 Main St","not_available",42.466094,-71.10113299999999
"02180","Stoneham","MA","Sherwin-Williams Paint Store","313 Montvale Ave","01801",42.479583,-71.119705
"02184","Braintree","MA","Harbor Freight Tools","727 Granite St","02184",42.206477142383385,-71.02404660564278
"02184","Braintree","MA","Bay state Door Service","639 Granite St","02184",42.20961380004883,-71.02146911621094
"02184","Braintree","MA","Express tools","64 Teed Dr","02368",42.178166999999995,-71.025638
"02184","Braintree","MA","Sherwin-Williams Commercial Paint Store","37 Teed Dr","02368",42.17670440673828,-71.02616119384766
"02184","Braintree","MA","Turtle & Hughes Electrical Supply","76 Teed Deive","02368",42.17800469326403,-71.0253110350335
"02184","Braintree","MA","Lumber Liquidators, Inc.","240 Wood Rd","02184",42.2194879790983,-71.03752035956472
"02184","Braintree","MA","Barry Ward Inc.","453 Columbian St","02190",42.18126678466797,-70.97044372558594
"02184","Braintree","MA","Bennett electric","not_available","02184",42.221864806588734,-71.02377879487017
"02184","Braintree","MA","Sherwin-Williams Paint Store","244 Grove St","02184",42.191724,-70.988206
"02184","Braintree","MA","Ferguson Fire & Fabrication","77 Messina Dr","02184",42.1927748851257,-71.0318080758309
"02184","Braintree","MA","New England Appliance","Wood Rd.","not_available",42.223184,-71.036723
"02184","Braintree","MA","Richmond True Value Hardware","899 Washington St","02184",42.202915999999995,-71.005473
"02184","Braintree","MA","Next Day Moulding","236 Wood Rd","02184",42.220657,-71.03691500000001
"02184","Braintree","MA","Sprague Fluid Connectors Inc.","50 Finnell Dr","02188",42.189279,-70.968968
"02188","Weymouth","MA","Metro Roofing Supplies","95 Woodrock Rd","02189",42.187923844914856,-70.9480536196827
"02188","Weymouth","MA","Weymouth Sewer & Drain","367 Washington St","02188",42.211339263293894,-70.95966339111328
"02189","East Weymouth","MA","Concord Electric Supply Weymouth","320 Libbey Industrial Pkwy","02189",42.19023766374015,-70.93570590019226
"02189","East Weymouth","MA","Taylor True Value Rental","1059 Washington St","02189",42.198143,-70.933364
"02190","South Weymouth","MA","Factory Paint","not_available","02190",42.152138,-70.955682
"02190","South Weymouth","MA","Park Ave Market-Ace Hardware Inc","46 Park Ave","02190",42.179961,-70.952656
"02190","South Weymouth","MA","Drive-In Paint Mart","1238 Bedford St","02351",42.1379577,-70.9510366
"02191","North Weymouth","MA","Lowe's","729 Bridge Street","02191",42.2439275,-70.9348763
"02191","North Weymouth","MA","minuteKEY","729 Bridge St","02191",42.24398422241211,-70.93445587158203
"02301","Brockton","MA","Lowe's","135 West Gate Drive","02301",42.0928421,-71.0489654
"02301","Brockton","MA","Harbor Freight Tools","395 Westgate Dr","02301",42.09617233276367,-71.05577850341797
"02301","Brockton","MA","Munro","83 Ames St","02302",42.101335,-71.017726
"02301","Brockton","MA","T E Corcoran & Co","109 N Montello St","02301",42.088011,-71.016987
"02301","Brockton","MA","Concord Electric Supply Brockton","55 Knapp Center West Chestnut Street","02301",42.05466428625597,-71.05338339224926
"02301","Brockton","MA","Oreck Vacuums","not_available","02301",42.058801294874065,-71.06730613224703
"02301","Brockton","MA","Sherwin-Williams Paint Store","650 Oak St","02301",42.101198,-71.05375500000001
"02301","Brockton","MA","Harvey Industries","Turnpike St","not_available",42.049069,-71.068337
"02301","Brockton","MA","Concord Electric Supply","55 Knapp Ctr Ste 2","02301",42.05479858153693,-71.05319132674734
"02301","Brockton","MA","All Brand Appliance Parts","404 Main St","02301",42.077667236328125,-71.0193862915039
"02301","Brockton","MA","Irvings Home Center Inc","10 N Main St","02301",42.0857999,-71.020189
"02301","Brockton","MA","Recom","264 N Montello St","02301",42.091241,-71.017741
"02301","Brockton","MA","minuteKEY","700 Oak St","02301",42.09813690185547,-71.05648803710938
"02301","Brockton","MA","Gw Lumber And Millwork","55 Knapp Ctr","02301",42.054704,-71.053375
"02301","Brockton","MA","minuteKEY","135 Westgate Dr","02301",42.09306716918945,-71.04861450195312
"02302","Brockton","MA","The Home Depot","715 Crescent St","02302",42.0808608,-70.9900433
"02302","Brockton","MA","Apollo Appliance Repair","925 Centre St","02302",42.08771360827501,-70.9796432225274
"02302","Brockton","MA","Bargain Outlet Brockton","587 Centre Street","02302",42.0836555,-70.9950802
"02322","Avon","MA","minuteKEY","30 Memorial Dr","02322",42.121063232421875,-71.0306625366211
"02324","Bridgewater","MA","Lowe's","724 West Center Street","02379",42.0104314,-71.0501482
"02324","Bridgewater","MA","The Home Depot","1453 Pleasant St","02324",41.9683212,-71.0238365
"02324","Bridgewater","MA","Raynham Hardware","not_available","02767",41.94287830719348,-71.0414456443601
"02324","Bridgewater","MA","SEEKONK SUPPLY","60 Fireworks Cir","02324",41.962716,-70.973512
"02324","Bridgewater","MA","minuteKEY","724 W Center St","02379",42.00984573364258,-71.05045318603516
"02324","Bridgewater","MA","College Town Siding&  Glass","67 Central Sq","02324",41.989418029785156,-70.9766845703125
"02324","Bridgewater","MA","Appliance Repair Howell NJ","268 Aldrich Rd Unit 8","07731",41.99727778003015,-70.98825573921204
"02330","Carver","MA","Tractor Supply Co.","406 Main St","02367",41.933514,-70.81195
"02330","Carver","MA","Aubuchon Hardware","2 Montello St","02330",41.92832565307617,-70.80999755859375
"02332","Duxbury","MA","Husqvarna US","638 Summer St","02332",42.04570388793945,-70.75762176513672
"02332","Duxbury","MA","Aubuchon Hardware","187 Summer St","02364",42.01198196411133,-70.73016357421875
"02332","Duxbury","MA","Goodrich Lumber","not_available","02364",42.014288135399035,-70.73479617724614
"02333","East Bridgewater","MA","Dewhurst Lumber Co Inc","215 Bedford St","02333",42.027452000000004,-70.959533
"02333","East Bridgewater","MA","NorthEast Electrical","685 N Bedford St","02333",42.052409000000004,-70.952877
"02333","East Bridgewater","MA","Whitman Walpaper & Paint","not_available","02382",42.067081451416016,-70.94918060302734
"02338","Halifax","MA","Morgan Power Equipment","888 Plymouth ST","02338",41.995707629424246,-70.89292908465575
"02338","Halifax","MA","Husqvarna US","PO Box 198","02338",41.99952697753906,-70.84984588623047
"02339","Hanover","MA","Factory Paint","Route 53","02359",42.104469,-70.805214
"02341","Hanson","MA","Landscape Supply Yard","1 Liberty St","02341",42.075296,-70.878982
"02341","Hanson","MA","Wyman's Garden Center","141 Spring St #1025","02341",42.077728103617055,-70.88587045669556
"02341","Hanson","MA","Hanson Ace Hardware","1361 Main St","02341",42.0418,-70.8782
"02346","Middleboro","MA","Aubuchon Hardware","Middleboro Crossing Shopping Center","02346",41.88320677883862,-70.91267653451075
"02346","Middleboro","MA","Skyline Granite","not_available","02346",41.8569446611458,-70.86839016297073
"02346","Middleboro","MA","Bishop Ruocco","22 Highland Rd","02347",41.83109664916992,-70.95085906982422
"02346","Middleboro","MA","Benny's","85 Centre St","02346",41.893184000000005,-70.910462
"02346","Middleboro","MA","Winberg's True Value","352 Bedford St","02347",41.839203000000005,-70.944968
"02346","Middleboro","MA","Corcoran T E Co Inc","205 Bedford St","02347",41.866197,-70.952312
"02346","Middleboro","MA","USA Sharp","201 West Grove Street","02346",41.86,-70.9
"02347","Lakeville","MA","Lowe's","850 New State Hwy","02767",41.9070354,-71.0341856
"02347","Lakeville","MA","campers inn","720 Church St","02767",41.903193,-71.006589
"02347","Lakeville","MA","Buckworths Lumber Co","not_available","02779",41.828163146972656,-71.0274658203125
"02347","Lakeville","MA","minuteKEY","850 ROUTE 44","not_available",41.907036,-71.034068
"02351","Abington","MA","Lowe's","400 Bedford Street","02351",42.115402,-70.9510527
"02351","Abington","MA","minuteKEY","777 Brockton Ave","02351",42.09587860107422,-70.96783447265625
"02351","Abington","MA","Mortland Door Systems","1080 Bedford Street, Unit 2","02351",42.13353729248047,-70.95071411132812
"02351","Abington","MA","minuteKEY","400 Bedford St","02351",42.11563491821289,-70.95142364501953
"02351","Abington","MA","CTC","not_available","02351",42.105892181396484,-70.92869567871094
"02351","Abington","MA","Robert N. Karpp Building Materials","245 North Avenue","02351",42.12736456,-70.94033618
"02351","Abington","MA","American Rentall Center","446 Bedford St","02351",42.116669,-70.949658
"02356","North Easton","MA","Fernandes Lumber Inc","299 Depot St","02375",42.03930039999999,-71.0935234
"02359","Pembroke","MA","Rocky's Ace Hardware","14 Mattakeesett St","02359",42.0672,-70.813699
"02359","Pembroke","MA","South Shore Flooring","9 Beach Rd","02359",42.050055,-70.820871
"02360","Plymouth","MA","Lowe's","2421 Cranberry Highway, Suite 100","02571",41.77249591590208,-70.7438313961029
"02360","Plymouth","MA","The Home Depot","39 Long Pond Road","02360",41.93201539877671,-70.66163241863251
"02360","Plymouth","MA","Lowe's","32 William C Gould Way","02364",41.9722965,-70.7078558
"02360","Plymouth","MA","Aubuchon Hardware","529 State Rd","02360",41.922993,-70.568936
"02360","Plymouth","MA","Concord Electric Supply Wareham","2384 Cranberry Hwy Bldg # Unit 1","02576",41.78629802347566,-70.7454673753528
"02360","Plymouth","MA","Concord Electric Supply Plymouth","211 Cherry St","02360",41.964741,-70.701497
"02360","Plymouth","MA","Ace Hardware","304 Court St","02360",41.9729224840869,-70.6838476992616
"02360","Plymouth","MA","Lumber Liquidators Flooring","76 Shops At 5 Way","02360",41.92914499179357,-70.65139343748717
"02360","Plymouth","MA","SRW CONTRACTORS SUPPLY 15 Roberts J Way","15 Roberts J Way","02364",41.92981187419495,-70.64778203795575
"02360","Plymouth","MA","Taylor Rentals","2516 Cranberry Hwy","02571",41.770137,-70.73294200000001
"02360","Plymouth","MA","Husqvarna US","80 Long Pond Rd","02360",41.92903137207031,-70.65682983398438
"02360","Plymouth","MA","Microcut Inc.","8 Aldrin Rd","02360",41.9617509,-70.6982616
"02360","Plymouth","MA","Aubuchon Hardware","Wareham Plaza","2571",41.842135,-70.619836
"02360","Plymouth","MA","Bargain Outlet Plymouth","10 Pilgrim Hill Road, Pilgrim Hill Plaza","02360",41.9512957,-70.6839493
"02360","Plymouth","MA","Charlie's Hardware","306 Standish Ave","02360",41.944757531311645,-70.67591336977073
"02360","Plymouth","MA","Taylor Rental","114 Long Pond Rd","02360",41.924178000000005,-70.655777
"02360","Plymouth","MA","Sherwin-Williams Paint Store","84 Long Pond Rd","02360",41.928501000000004,-70.656471
"02360","Plymouth","MA","Richmond Geo R Inc","140 Beaver Dam Rd","02360",41.909703,-70.573258
"02360","Plymouth","MA","Metro Roofing Supplies","15 Robert J Way","02360",41.929861,-70.64771
"02360","Plymouth","MA","Morrison's Home and Garden","90 Long Pond Rd","02360",41.927858,-70.65604599999999
"02360","Plymouth","MA","Standish Fire & Security, Inc","31 Home Depot Dr Ste 222","02360",41.934051513671875,-70.6600112915039
"02360","Plymouth","MA","Sagamore Beach Ace Hardware","41 Meetinghouse Lane","02562",41.7818139,-70.538764
"02360","Plymouth","MA","Longbeach Custom Powder Coating & Sandblasting","118 Long Pond Rd Ste A","02360",41.9229973,-70.6560301
"02360","Plymouth","MA","Factory Paint","127 Samoset St","02360",41.955379486083984,-70.68524169921875
"02368","Randolph","MA","Rocky's Ace Hardware","25 Condlin Dr","02368",42.167206,-71.045538
"02370","Rockland","MA","Bellew Tile & Marble","308 Hingham St","02370",42.145152,-70.90369
"02375","South Easton","MA","US Sheetmetal","420 West St","02379",42.022998,-71.054997
"02375","South Easton","MA","Baynes Electric Supply","321 Manley St","02379",42.03363037109375,-71.0555191040039
"02375","South Easton","MA","NESCO Brockton","219 Walnut St","02379",42.040651000000004,-71.056084
"02375","South Easton","MA","shaggy","2-98 Bert Dr","02379",42.035984374124055,-71.05858942633509
"02379","West Bridgewater","MA","Gene Hardy Flooring,  West Bridgewater hockomock","not_available","02379",42.017497,-71.021026
"02379","West Bridgewater","MA","Lowes","353-367 Crescent St","02379",42.0161855006203,-71.0321770265821
"02382","Whitman","MA","Blue Rhino","401 South Ave","02382",42.083279,-70.923101
"02382","Whitman","MA","S & T Precision Plate Cutting, Inc.","205 Commercial St Rear","02382",42.07794,-70.92763
"02420","Lexington","MA","Lexington Ace Hardware","327 Woburn St","02420",42.4493849,-71.1987
"02420","Lexington","MA","Arlington Coal & Lumber","not_available","02476",42.425201,-71.183166
"02420","Lexington","MA","Benjamin Moore Paints","1472 Massachusetts Ave","02476",42.42519760131836,-71.18925476074219
"02420","Lexington","MA","Taylor Rental Arlington","78 Bow St","02474",42.425914,-71.179485
"02420","Lexington","MA","Avenue Lock & Safe","14 Park Ave","02474",42.425688,-71.18181899999999
"02421","Lexington","MA","minuteman hvac","not_available","02421",42.44396365240886,-71.25886313496845
"02421","Lexington","MA","Fix It Once Renovations","5 Lawn Ave","02421",42.419651,-71.221194
"02445","Brookline","MA","Brookline Lock Co","33 Harvard St","02445",42.33434234233329,-71.11911313199752
"02451","Waltham","MA","True Value By Ideal","232 Lexington St","02452",42.384156463063334,-71.23749302429765
"02451","Waltham","MA","Johnstone Supply","244 2nd Ave","02451",42.38915979164088,-71.26308008910213
"02451","Waltham","MA","Precore Gym At Embassy","not_available","02451",42.39609439997359,-71.26606151127905
"02451","Waltham","MA","puraqua","Emerson Rd, Waltham, MA","02451",42.38450228552795,-71.23763844543168
"02451","Waltham","MA","Prospect Street Sewer and Drain","138 Prospect St","02453",42.371249,-71.246247
"02451","Waltham","MA","Edge Hill Sewer and Drain","28 Edge Hill Rd","02451",42.37699890136719,-71.259521484375
"02451","Waltham","MA","Harvey Building Products","19 Athletic Field Rd","02451",42.381083000000004,-71.240939
"02452","Waltham","MA","FASTENERS & METAL PRODUCTS CORPORATION","30 Thayer Rd","02453",42.386078999999995,-71.194632
"02453","Waltham","MA","Donato True Value Tools & Hardware","41 Los Angeles St","02458",42.360743366156385,-71.20085841132669
"02453","Waltham","MA","Donato Tools And Hardware","not_available","02458",42.365466,-71.194943
"02453","Waltham","MA","Sherwin-Williams Commercial Paint Store","43 Howard St","02472",42.3692626953125,-71.195556640625
"02453","Waltham","MA","Johnson Paint","Warren St","not_available",42.375813765770744,-71.20960195983227
"02453","Waltham","MA","Interbulk USA Express","132 Adams St Ste 8","02458",42.36002731323242,-71.20193481445312
"02453","Waltham","MA","Watertown Sewer and Drain","441 Main St","02472",42.370962,-71.194734
"02453","Waltham","MA","Moody Sewer and Drain","880 Moody St","02453",42.36065272976079,-71.23932123184204
"02453","Waltham","MA","Swartz Ace Hardware","353 Watertown St","02458",42.360943,-71.200738
"02458","Newton","MA","Washington Street Sewer and Drain","787 Washington St","02460",42.352447509765625,-71.20565032958984
"02458","Newton","MA","NorthEast Electrical","60 Arsenal St","02472",42.365285,-71.181322
"02458","Newton","MA","M. J. Pirolli & Sons Inc","56 Irving St","02472",42.36531803333333,-71.1778356
"02458","Newton","MA","Upland Sewer and Drain","44 Upland Rd","02460",42.34403400507877,-71.20018243789673
"02459","Newton Center","MA","Ferguson Bath, Kitchen & Lighting Gallery","56 Ramsdell St","02461",42.318265000000004,-71.211175
"02459","Newton Center","MA","Ferguson J.D. Daddario","not_available","02461",42.3164769738425,-71.21014727814182
"02459","Newton Center","MA","Tile In Style","50 Winchester St","02461",42.317826000000004,-71.20817199999999
"02459","Newton Center","MA","Newton Electrical Supply","not_available","02464",42.311062810409645,-71.21763662533813
"02459","Newton Center","MA","Stone Gallery Landscape & Masonry Supply","49 Winchester St","02461",42.3179703,-71.2092819
"02459","Newton Center","MA","Sherwin-Williams Paint Store","1243 Centre St","02459",42.330721,-71.19493
"02459","Newton Center","MA","Newton Decorative Hardware","1015 Boylston St","02461",42.3189193,-71.2135756
"02461","Newton Highlands","MA","Best Door Service","381 Elliot St","02464",42.313517,-71.22567099999999
"02462","Newton Lower Falls","MA","Taylor True Value Rental","26 Washington St","02481",42.32517,-71.25983
"02462","Newton Lower Falls","MA","Washington Sewer and Drain","1960 Washington St","02462",42.33326437493966,-71.2452220916748
"02465","West Newton","MA","The Portland Group","20 Westwood St","02465",42.34961547609516,-71.23594164848328
"02468","Waban","MA","Waban Hardware","1641 Beacon St","02468",42.32675552368164,-71.23097229003906
"02472","Watertown","MA","Winters Hardware","84 Trapelo Rd","02478",42.380035,-71.174151
"02474","Arlington","MA","R.W. Shattuck & Co Inc","24 Mill St","02476",42.417586,-71.157697
"02474","Arlington","MA","Wanamaker True Value Hardware","1298 Massachusetts Ave","02476",42.42423647578819,-71.18112027319378
"02474","Arlington","MA","Pleasant Street Sewer & Drain","358 Pleasant St","02478",42.40378063867395,-71.16660118103027
"02474","Arlington","MA","Sherwin-Williams Paint Store","1406 Massachusetts Ave","02476",42.424725,-71.185723
"02478","Belmont","MA","Tile International","319 Wavery Oaks Rd","02452",42.386077320615314,-71.16521977390258
"02478","Belmont","MA","Concord Ave Sewer & Drain","365 Concord Ave","02478",42.39489120084428,-71.17205142974852
"02481","Wellesley Hills","MA","Green's Hardware & Paint","308 Washington St","02481",42.311972999999995,-71.27449399999999
"02481","Wellesley Hills","MA","RW Shattuck Ace Hardware","165 Linden St","02482",42.299465,-71.2917669
"02481","Wellesley Hills","MA","Concord Electric Supply Needham","120 Hampton Ave","02494",42.307074,-71.22825300000001
"02481","Wellesley Hills","MA","Tru Value Hardware Wellesley","Linden Street","not_available",42.299502,-71.292075
"02481","Wellesley Hills","MA","Standard Electric","20 Kearney Rd","02494",42.305809020996094,-71.22784423828125
"02532","Buzzards Bay","MA","Harbor Freight Tools","3066 Cranberry Highway","02538",41.757118225097656,-70.65161895751953
"02532","Buzzards Bay","MA","Sherwin-Williams Paint Store","3065 Cranberry Hwy","02538",41.7560426777719,-70.65142393112183
"02532","Buzzards Bay","MA","HD Supply A.H. Harris","3131 Cranberry Hwy","02538",41.75400907,-70.63832189
"02535","Chilmark","MA","Crane Appliance","529 State Road","02568",41.381985,-70.6746502
"02536","East Falmouth","MA","Eastman's Hardware","150 Main St","02540",41.553018,-70.617346
"02536","East Falmouth","MA","Mahoney's Garden Center","958 E Falmouth Hwy","02536",41.57963913223321,-70.54121339482917
"02536","East Falmouth","MA","Aubuchon Hardware","643 Teaticket Highway","02536",41.57392558781634,-70.58416808071154
"02536","East Falmouth","MA","Snow and Jones Inc.","not_available","02540",41.553106,-70.612395
"02536","East Falmouth","MA","Sherwin-Williams Paint Store","10 Village Common Dr","02536",41.574369,-70.583409
"02536","East Falmouth","MA","Granite City Electric","310 Dillingham Ave","02536",41.55769251097772,-70.60166092341422
"02536","East Falmouth","MA","Concord Electric Supply Falmouth","20 Village Common Dr, Unit C","02536",41.5732118,-70.5833963
"02536","East Falmouth","MA","Wood Lumber Company","81 Locust Street","02540",41.55356,-70.625119
"02536","East Falmouth","MA","Hubbard Paint Supply","631 Main St","02540",41.552492,-70.605151
"02536","East Falmouth","MA","Crane's Appliances","249 Teaticket Hwy","02536",41.566951751708984,-70.59478759765625
"02536","East Falmouth","MA","North Falmouth Hardware","not_available","02556",41.649576369728635,-70.61756939092882
"02538","East Wareham","MA","The Home Depot","2994 Cranberry Hwy","02538",41.76193303773846,-70.6637191772461
"02538","East Wareham","MA","Tractor Supply Co.","3017 Cranberry Hwy","02538",41.757255,-70.660893
"02539","Edgartown","MA","Edgartown Hardware","not_available","02539",41.390846999999994,-70.52419599999999
"02542","Buzzards Bay","MA","Aubuchon Hardware","65 Route 6A","02563",41.766905972758,-70.50863016740868
"02542","Buzzards Bay","MA","Aubuchon Hardware","4 Barlows Landing Rd","02559",41.69676250147581,-70.58743702302876
"02542","Buzzards Bay","MA","J&J Materials","not_available","02559",41.684542244970224,-70.59088707651433
"02542","Buzzards Bay","MA","Green Matters","4 Barlows Landing Rd #7","02559",41.696153,-70.586949
"02542","Buzzards Bay","MA","Aubuchon Hardware","Lumberyard","02563",41.7655,-70.5104
"02543","Woods Hole","MA","Baynes Electric Supply Co","not_available","02568",41.43247985839844,-70.63733673095703
"02543","Woods Hole","MA","Murphy Painting & Restoration LLC","457 State Rd","02568",41.418652,-70.666138
"02554","Nantucket","MA","Yates Gas","20 Arrowhead Dr","02554",41.262909,-70.059488
"02554","Nantucket","MA","Plumber's Supply Co","not_available","02554",41.262914,-70.059481
"02554","Nantucket","MA","Shepley Wood Products","20 Greglen Ave","02554",41.258776,-70.078249
"02554","Nantucket","MA","Island Lumber Company, Inc.","1 Polpis Rd","02554",41.27116846834685,-70.08199066857053
"02554","Nantucket","MA","Marine Lumber Company","134 Orange St","02554",41.274925231933594,-70.09172821044922
"02554","Nantucket","MA","Nantucket Ship Chandlery","Old South Wharf","02554",41.28357053,-70.0956356
"02557","Oak Bluffs","MA","Shirleys True Value Hardware","374 State Rd","02568",41.447156925110065,-70.61506313549965
"02557","Oak Bluffs","MA","Phillip's Hardware","30 Circuit Avenue","02557",41.455733,-70.558066
"02557","Oak Bluffs","MA","Ace Hardware","27 Beach Rd","02568",41.4533119,-70.597662
"02557","Oak Bluffs","MA","island Color Center","Beach Street","not_available",41.453158,-70.601308
"02558","Onset","MA","Ace Hardware","227 Onset Ave","02558",41.743043,-70.66045799999999
"02559","Pocasset","MA","Pocasset Hardware","376 Barlows Landing Rd","02559",41.69373,-70.620073
"02563","Sandwich","MA","Aubuchon Hardware","311 Cotuit Rd","02563",41.7076680695709,-70.48755457094553
"02563","Sandwich","MA","Anchor Ace Hardware","267 Cotuit Rd","02563",41.701917,-70.484858
"02563","Sandwich","MA","Snow and Jones Inc.","not_available","02571",41.75696306006966,-70.48468989931894
"02571","Wareham","MA","Aubuchon Hardware","121 Marion Rd","02571",41.758209228515625,-70.7293930053711
"02601","Hyannis","MA","The Home Depot","65 Independence Dr","02601",41.6760259,-70.3009373
"02601","Hyannis","MA","Bradford's Hardware","231 Main St","02601",41.6544839,-70.278797
"02601","Hyannis","MA","Hyannis Country Gardens","380 W Main St","02601",41.650138,-70.310715
"02601","Hyannis","MA","Harbor Freight Tools","640 Iyannough Rd","02601",41.66731031818128,-70.29100479558733
"02601","Hyannis","MA","Corp Brothers","not_available","02601",41.664227989961326,-70.29058896842277
"02601","Hyannis","MA","FW Webb","Breeds Hill Rd","02601",41.681838324320644,-70.2923327950476
"02601","Hyannis","MA","Northeast Tool","157","not_available",41.683865,-70.297904
"02601","Hyannis","MA","Concord Electric Supply Hyannis","1336 Phinneys Ln Ste 2-2","02601",41.6780204,-70.3105621
"02601","Hyannis","MA","Sherwin-Williams Paint Store","276 Falmouth Rd","02601",41.664029,-70.297814
"02601","Hyannis","MA","premium plywood","700 Bearses Way","02601",41.668273,-70.30319300000001
"02631","Brewster","MA","Harwich Paint & Decorating","181 Route 137","02645",41.7107379,-70.024407
"02631","Brewster","MA","Hinkley's","not_available","02645",41.70729541550095,-69.99915434266326
"02631","Brewster","MA","Sherwin-Williams Paint Store","136 Rt 6A","02653",41.78604906143083,-69.9950122833252
"02631","Brewster","MA","Brewster Ace Hardware","2632 Main St","02631",41.7524,-70.0704
"02631","Brewster","MA","HardCore Drilling","not_available","02631",41.74923927951676,-70.07271051406859
"02631","Brewster","MA","Northeast Tool","Lots Hollow Road","02653",41.777841,-69.998723
"02632","Centerville","MA","Anderson Hardware","20 Camp Opechee Rd","02632",41.657691,-70.34915600000001
"02633","Chatham","MA","Chatham True Value Hardware","624 Main St","02633",41.682682,-69.960105
"02635","Cotuit","MA","Aubuchon Hardware","not_available","02648",41.648671903218066,-70.42541876144092
"02635","Cotuit","MA","Ferguson HVAC Supply","106 Falmouth Rd","02649",41.63252,-70.46464
"02635","Cotuit","MA","Aubuchon Hardware","Marston Mills Market Place","2648",41.65371441358992,-70.41050519427749
"02635","Cotuit","MA","Botello Home Center","6 Bowdoin Rd","02649",41.63278431720409,-70.46087569836665
"02635","Cotuit","MA","Coastal Equipment","Massachusetts 28","02648",41.64949243992295,-70.42157602292419
"02641","East Dennis","MA","Downeaster Wind & Weather","not_available","02660",41.753872,-70.153074
"02642","Eastham","MA","Eastham Ace Hardware","4205 State Hwy","02642",41.852064,-69.98832900000001
"02642","Eastham","MA","Landmark Fence","not_available","02642",41.858162,-69.98524
"02645","Harwich","MA","Baker's Hardware","not_available","02659",41.67889092504794,-70.0252013562164
"02646","Harwich Port","MA","Baskin's Hardware  Inc.","2 Post Office Sq","02646",41.6678352355957,-70.08111572265625
"02649","Mashpee","MA","Mashpee True Value Hardware","681 Falmouth Rd Deer Crossing Plaz","02649",41.611283,-70.491274
"02653","Orleans","MA","Snow's Home and Garden","22 Main St","02653",41.789450943257066,-69.9926741005016
"02653","Orleans","MA","Baskin's Hardware  Inc.","28 S Orleans Rd","02653",41.788883,-69.98839
"02653","Orleans","MA","Snow's Fuel Company","18 Main St","02653",41.79,-70.0
"02653","Orleans","MA","Mid Cape Discount Oil","20 Main St","02653",41.789452,-69.99338500000002
"02655","Osterville","MA","Blue Rhino","846 Main St","02655",41.628613,-70.386039
"02657","Provincetown","MA","Lands End Marine Supply","337 Commercial St","02657",42.05248550708439,-70.18440579818824
"02657","Provincetown","MA","Conwell Hardware & Lumber","21 Conwell St","02657",42.05690094201623,-70.18558313058065
"02657","Provincetown","MA","Conwell Home Center","21 Conwell Street","02657",42.0538,-70.1854
"02660","South Dennis","MA","True Value Hardware","850 Route 134","02660",41.71337584425535,-70.15351838484409
"02660","South Dennis","MA","Cape Electric Supply","47 Theophilis Smith Rd","02660",41.69196918888615,-70.14947891720371
"02660","South Dennis","MA","Concord Electric Supply South Dennis","12 Bertram Ave","02660",41.69112090381752,-70.1448780298233
"02660","South Dennis","MA","Walker mowers","American Way","02660",41.7031406,-70.1391465
"02664","South Yarmouth","MA","True Value Hardware","23- I Whites Path","02664",41.6881788,-70.20939646
"02664","South Yarmouth","MA","Anchor Ace Hardware","1305 Rte 28","02664",41.666765999999996,-70.18780600000001
"02664","South Yarmouth","MA","Cape Cod Brass & Security Hardware","1180 MA-28","02664",41.664685,-70.196726
"02664","South Yarmouth","MA","Cape Wide Resources","35 Evergreen St.","02664",41.652301,-70.2062265
"02664","South Yarmouth","MA","Snow & Jones Plumbing & Heating Supplies","167 Whites Path","02664",41.69001,-70.20073
"02664","South Yarmouth","MA","The Countertop Stop","182 Old Town House Rd","02673",41.685152824258374,-70.22050607955526
"02664","South Yarmouth","MA","Baskin's Hardware  Inc.","23 Whites Path","02664",41.687896728515625,-70.20980072021484
"02667","Wellfleet","MA","Wellfleet Mid Cape Home Center","Commercial Steet","not_available",41.936316,-70.030289
"02673","West Yarmouth","MA","Ford-Diamond Electric Supply","539 Higgins Crowell Rd","02673",41.679367,-70.250919
"02673","West Yarmouth","MA","Kitchen & Bath Gallery","40 Aarons Way","02673",41.67891649,-70.26099642
"02703","Attleboro","MA","The Home Depot","1100 Newport Ave","02703",41.90203615541269,-71.35081246004847
"02703","Attleboro","MA","Lowe's","1360 S Washington Street","02760",41.9363227,-71.3468908
"02703","Attleboro","MA","Harbor Freight Tools","287 Washington St Ste 6","02703",41.920404481790776,-71.35954908416784
"02703","Attleboro","MA","Arrow Fuel","102 Pond St Unit D1","02771",41.8977845,-71.33148469999999
"02703","Attleboro","MA","Kitchen and Bath Gallery","11 Robert F Toner Blvd","02763",41.96952978,-71.30180778
"02703","Attleboro","MA","Sherwin-Williams Paint Store","652 E Washington St","02760",41.98360349061252,-71.32967948913574
"02703","Attleboro","MA","Seekonk Supply","238 John L Dietsch Blvd","02763",41.980810999999996,-71.30103000000001
"02703","Attleboro","MA","minuteKEY","1360 S Washington St","02760",41.937713623046875,-71.34545135498047
"02703","Attleboro","MA","Needham Electric Supply","344 John L Dietsch Blvd","02763",41.98448944091797,-71.30217742919922
"02703","Attleboro","MA","Home Depot Center","not_available","02703",41.936625,-71.281557
"02703","Attleboro","MA","Massasoit Tool Company","45 John Williams St","02703",41.934578,-71.292455
"02703","Attleboro","MA","Robert N. Karpp Co. Inc. Building Materials","50 Fuller Avenue","02703",41.906153,-71.312876
"02703","Attleboro","MA","Eastern Supply","N.Main St.","02703",41.937150620134496,-71.2656496819809
"02718","East Taunton","MA","Sherwin-Williams Paint Store","325 New State Hwy","02767",41.905394,-71.052811
"02719","Fairhaven","MA","Security Supply","95 Rodney French Blvd","02744",41.611996000000005,-70.91868199999999
"02719","Fairhaven","MA","Fairhaven True Value Hardware","23 Popes Island","02740",41.64154052734375,-70.9124755859375
"02719","Fairhaven","MA","Tractor Supply Co.","5 Plaza Way","02719",41.639711,-70.886974
"02719","Fairhaven","MA","Benny's","9 Peoples Way","02719",41.643449,-70.892142
"02719","Fairhaven","MA","Mahoney's Building Supply Inc.","1 Industrial Dr","02739",41.677528,-70.815155
"02719","Fairhaven","MA","Rocky's Ace Hardware","209 Huttleston Ave","02719",41.640757,-70.881487
"02720","Fall River","MA","The Home Depot","535 Grand Army Hwy","02726",41.7278213,-71.1678466
"02720","Fall River","MA","Concord Electric Supply","147 Plymouth Ave","02721",41.697608,-71.148836
"02720","Fall River","MA","Concord Electric Supply Fall River","147 Plymouth Ave, Bldg 9 Unit 9-103 Se Corner","02721",41.6976494,-71.1487456
"02720","Fall River","MA","Rocky's Ace Hardware","1702 President Ave","02720",41.7109999,-71.1255
"02720","Fall River","MA","Ace Hardward Store","not_available","02720",41.70521548,-71.15861129
"02720","Fall River","MA","Munro Distributing Co.","115 N 7th St, Fall River, MA 02720","02720",41.70252,-71.14954499999999
"02720","Fall River","MA","Carl's Locksmith","1173 Bedford St","02723",41.69788,-71.13446400000001
"02720","Fall River","MA","Sherwin-Williams Paint Store","555 Pleasant St","02721",41.698228,-71.146039
"02721","Fall River","MA","Harbor Freight Tools","35 Mariano Bishop Blvd","02721",41.67762383325912,-71.16391393461139
"02721","Fall River","MA","Schwartz Hardware","1756 S Main St","02724",41.683607,-71.175124
"02721","Fall River","MA","Sears","133 Mariano S Bishop Boulevard","02721",41.6763024,-71.1646755
"02721","Fall River","MA","Remodelers Outlet","657 Quarry St","02723",41.69163131713867,-71.14012908935547
"02721","Fall River","MA","Remodelers Outlet","Jefferson St","02721",41.690461499388945,-71.14040417689277
"02721","Fall River","MA","Burns Power Tools","350 Mariano Bishop Blvd","02721",41.672591,-71.16349
"02721","Fall River","MA","Harbour Freight Tools","not_available","02721",41.67784491140602,-71.153923271168
"02721","Fall River","MA","Bolduc's Lumber Co","83 Wilbur St","02724",41.686745,-71.167878
"02721","Fall River","MA","L & M Rentals Equipment","443 Tucker St","02721",41.677058,-71.160102
"02721","Fall River","MA","Flint Hardware","1344 Pleasant St, Fall River, MA 02723","02723",41.69142412736309,-71.13482814176417
"02725","Somerset","MA","Tractor Supply Company","not_available","02777",41.736549377441406,-71.20206451416016
"02726","Somerset","MA","A-1 Hardware","3017 County St","02726",41.773082,-71.13873199999999
"02738","Marion","MA","Physicon Company","17 Olde Knoll Rd","02738",41.693391999999996,-70.762603
"02740","New Bedford","MA","Marvin Grain & Hardware Co. Inc.","31 Cove Rd","02748",41.6097062083048,-70.93668148680065
"02740","New Bedford","MA","Roger's Paint Store","111 County St","02744",41.619149,-70.92348199999999
"02740","New Bedford","MA","NorthEast Electrical","2343 Purchase St","02746",41.660808,-70.935309
"02740","New Bedford","MA","Grossmans Bargain Outlet","not_available","02746",41.655364616258986,-70.95951832773068
"02740","New Bedford","MA","Almeida's True Value","405 Rivet St","02744",41.6197,-70.93047
"02740","New Bedford","MA","C E Beckman Co","not_available","02740",41.63439,-70.92219899999999
"02740","New Bedford","MA","Home Outlet (Bargain Outlet)","139 Hathaway Road","02746",41.661239,-70.94712700000001
"02743","Acushnet","MA","Bourassas True Value","1837 Acushnet Ave","02746",41.671209999999995,-70.926291
"02743","Acushnet","MA","F.W. Webb Company","835-887 Church St","02745",41.691664,-70.941928
"02743","Acushnet","MA","Concord Electric Supply New Bedford","400 Nash Rd","02746",41.6655235,-70.9375152
"02743","Acushnet","MA","Husqvarna US","632 Main St","02743",41.70940017700195,-70.88688659667969
"02743","Acushnet","MA","Beacon Lumber","not_available","02745",41.678775787353516,-70.93879699707031
"02743","Acushnet","MA","Fortin Affordable Rentals","95 Nash Rd","02746",41.667255,-70.925075
"02745","New Bedford","MA","National Lumber","120 Welby Rd","02745",41.707522,-70.951018
"02745","New Bedford","MA","General Supply and Metals Inc","47 Nauset St","02746",41.662658,-70.939545
"02747","North Dartmouth","MA","Lowe's","55 Faunce Corner Mall Rd","02747",41.644193,-70.985485
"02747","North Dartmouth","MA","The Home Depot","470 State Rd","02747",41.64380264665473,-71.00147902965546
"02747","North Dartmouth","MA","Sears","100 N Dartmouth Mall","02747",41.64120586,-70.98934825
"02747","North Dartmouth","MA","Ash Away Hearth & Chimney","703 State Rd","02747",41.639305114746094,-71.02474975585938
"02747","North Dartmouth","MA","Somerset Paint","not_available","02747",41.639997642688265,-71.0213121084946
"02747","North Dartmouth","MA","Sherwin-Williams Paint Store","643 State Rd","02747",41.63939666748047,-71.01968383789062
"02747","North Dartmouth","MA","minuteKEY","55 FAUNCE CORNER ROAD","not_available",41.644161224365234,-70.98502349853516
"02748","South Dartmouth","MA","Dartmouth Ace Hardware","661 Dartmouth St","02748",41.604834999999994,-70.941587
"02748","South Dartmouth","MA","Medeiros J J Inc Landscape","74 Bakerville Rd","02748",41.5704627,-70.9772545
"02760","North Attleboro","MA","Airgas","not_available","02760",42.005365000000005,-71.301898
"02762","Plainville","MA","HD Supply A.H. Harris","6 Commerce Blvd","02762",42.01581725,-71.34660915
"02766","Norton","MA","Norton Ace Hardware","33 W Main St","02766",41.965646,-71.190203
"02766","Norton","MA","Husqvarna US","92 E Main St","02766",41.97248840332031,-71.17699432373047
"02766","Norton","MA","Tractor Supply Co.","2101 Bay St Ste A","02780",41.96051089088045,-71.11751646787562
"02767","Raynham","MA","Biss Lumber","not_available","02780",41.882618,-71.09615
"02767","Raynham","MA","Plumbers' Supply Co","10 Dana St","02780",41.904585,-71.102756
"02767","Raynham","MA","Ace Hardware","Rt 138","02767",41.95780944824219,-71.06916046142578
"02767","Raynham","MA","Raynham Hardware","770 Broadway","02767",41.9508,-71.072199
"02767","Raynham","MA","Ryan Tool Co Inc.","336 Weir St #2","02780",41.891356,-71.089401
"02767","Raynham","MA","Harbor Freight Tools","2 New State Hwy","02767",41.906036,-71.06507
"02767","Raynham","MA","minuteKEY","160 Broadway","02767",41.934268951416016,-71.0832748413086
"02769","Rehoboth","MA","Pioneer Heavy Duty Parts","2000 Fall River Avenue, Route 6","02771",41.781059,-71.297844
"02769","Rehoboth","MA","Seekonk Supply","72 Fall River Ave","02769",41.77853775024414,-71.29093170166016
"02769","Rehoboth","MA","Maintanence Shop At The Bottom","not_available","02769",41.85589599609375,-71.2331314086914
"02771","Seekonk","MA","The Home Depot","95 Highland Ave","02771",41.7999612,-71.3389379
"02771","Seekonk","MA","Lowe's","1000 Fall River Avenue","02771",41.7988872,-71.3274403
"02771","Seekonk","MA","Salk's Ace Hardware & Marine Of Seekonk","not_available","02771",41.82467,-71.343216
"02771","Seekonk","MA","Tri-state Fasteners","65 Vineyard Rd","02771",41.883583068847656,-71.328857421875
"02771","Seekonk","MA","Nepco Products Co.","125 Amaral Street","02915",41.79841683980174,-71.3466611741604
"02771","Seekonk","MA","Sherwin-Williams Paint Store","1275 Fall River Ave","02771",41.78979287291867,-71.32241606712341
"02777","Swansea","MA","Bristol Ace Hardware","28 Gooding Ave","02809",41.6927999,-71.2761
"02777","Swansea","MA","Taylor True Value Rental","333 Market St","02885",41.743189,-71.273069
"02777","Swansea","MA","Mercier's Hardware","Water St, Warren, RI 02885","02885",41.73140927536678,-71.28538218312842
"02777","Swansea","MA","Somerset Paint","159 Grand Army Highway Rte 6","02777",41.74320166024385,-71.19226187467575
"02777","Swansea","MA","Tractor Supply Co.","207 Swansea Mall Dr Ste 15","02777",41.754749,-71.212827
"02777","Swansea","MA","MF Engineering Company, Inc.","7 Peter Rd","02809",41.69175338745117,-71.26557159423828
"02777","Swansea","MA","Center Ace Hardware","156 County Rd","02806",41.7363229,-71.303707
"02777","Swansea","MA","Quality Paint & Wallpaper","Maple","02806",41.736993144204824,-71.30467286706829
"02777","Swansea","MA","Schmidt Equipment Inc.","2397 Gar Hwy","02777",41.77094268798828,-71.26506042480469
"02779","Berkley","MA","Hillside Lawn and Farm Repair","32 Padelford St","02779",41.853123,-71.065954
"02780","Taunton","MA","The Home Depot","899 County St","02780",41.877507,-71.0647275
"02790","Westport","MA","Westport Ace Hardware","593 American Legion Hwy","02790",41.63,-71.09
"02790","Westport","MA","Grundy's Lumber","not_available","02790",41.62899358046347,-71.09181288966779
