"zip","city","state","name","address","postalCode","lat","lon"
"85003","Phoenix","AZ","American hardwood","not_available","85034",33.44223627121057,-112.07522403162531
"85003","Phoenix","AZ","Custom Metal Cutting","S 5th Ave","not_available",33.425872,-112.080083
"85003","Phoenix","AZ","Allied Machine Works","438 W Watkins Rd","85003",33.426375,-112.080215
"85004","Phoenix","AZ","Lumber Liquidators, Inc.","2120 S 7th St","85034",33.42797973108666,-112.06562352757174
"85004","Phoenix","AZ","Concrete Countertops Phoenix Pros","1 E Washington St","85004",33.44843380099335,-112.07324981689453
"85004","Phoenix","AZ","HD Supply White Cap","2432 South 6th Street","85004",33.42459299,-112.06769953
"85004","Phoenix","AZ","Sierra Hardwood Floors","2530 N 7th St","85006",33.475768,-112.06573999999999
"85004","Phoenix","AZ","White Cap Construction Supply","2432 S 6th St","85004",33.424656,-112.067732
"85006","Phoenix","AZ","Adco Paint And Supply Co","1933 E McDowell Rd","85006",33.465453000000004,-112.039704
"85007","Phoenix","AZ","M&M Hardware & Antique Co-op","1125 W Latham St, Phoenix, AZ 85007","85007",33.460411071777344,-112.08837127685547
"85007","Phoenix","AZ","A-Z lock products","not_available","85007",33.462444,-112.096376
"85007","Phoenix","AZ","Electric Supply","917 W Madison St","85007",33.445819749379865,-112.08572081404822
"85007","Phoenix","AZ","Phoenix Brick Yard","1800 W Maricopa Fwy","85007",33.429749,-112.09696399999999
"85007","Phoenix","AZ","Six Points Hardware","1409 N 19th Ave","85009",33.464224,-112.09955900000001
"85008","Phoenix","AZ","The Home Depot","3609 E Thomas Rd","85018",33.4788422,-112.0030845
"85008","Phoenix","AZ","Sunstate Equipment","5425 E. Washington Street","85034",33.44539506,-111.9645829
"85008","Phoenix","AZ","Ace Hardware","2242 N 24th St","85008",33.472344,-112.03
"85008","Phoenix","AZ","Dunn-Edwards Paints","4201 E Thomas Rd","85018",33.480072021484375,-111.99102783203125
"85008","Phoenix","AZ","Border States Electric","5519 E Washington St","85034",33.44484889353041,-111.96164727263326
"85008","Phoenix","AZ","Acme Scottsdale Glass, LLC","6419 E Thomas Rd","85251",33.478125,-111.93987800000001
"85008","Phoenix","AZ","Sherwin-Williams Paint Store","4231 E Thomas Rd","85018",33.47987365722656,-111.98995208740234
"85008","Phoenix","AZ","Husky Central","not_available","not_available",33.477005149107924,-111.9988402380492
"85008","Phoenix","AZ","Davis Salvage Co.","3345 E Washington St","85034",33.447818756103516,-112.00809478759766
"85008","Phoenix","AZ","Custom Cutting Metal (new location)","2610 E Washington St","85034",33.448787689208984,-112.02548217773438
"85008","Phoenix","AZ","UTE Parts Warehouse","2330 N 32nd St","85008",33.474247,-112.013274
"85009","Phoenix","AZ","Aracruz International Granite","1230 W. Sherman","not_available",33.441221999999996,-112.10983300000001
"85009","Phoenix","AZ","Praxair dist.","4030 W Lincoln St","85009",33.443554,-112.14389299999999
"85009","Phoenix","AZ","Browns Torch And Regulator","2504 w mcdowell rd","85009",33.46609890460968,-112.11287140846252
"85009","Phoenix","AZ","American Fence Company","2502 N 27th Ave","85009",33.475972,-112.117984
"85009","Phoenix","AZ","IDN West","2602 N 37th Dr","85009",33.476506,-112.140551
"85009","Phoenix","AZ","San plumbing Supply","2929 W Thomas Rd","85017",33.47997283935547,-112.12256622314453
"85009","Phoenix","AZ","Sun Valley Supply","3737 West Buckeye Road","85009",33.436428,-112.139801
"85009","Phoenix","AZ","A&G Turf Equipment","7 N 43rd Ave","85009",33.448044,-112.1512
"85009","Phoenix","AZ","univar","not_available","85043",33.44666243541635,-112.15504030477365
"85009","Phoenix","AZ","Montroy Supply Co","2424 W McDowell Rd","85009",33.466460999999995,-112.11171000000002
"85009","Phoenix","AZ","SaleSumo","44 N 45th Ave","85043",33.449195861816406,-112.15670776367188
"85009","Phoenix","AZ","Timesaver Industrial","3101 W Thomas Rd Ste 102","85017",33.48036786407318,-112.12557090454712
"85009","Phoenix","AZ","Sun Stone","1329 N 29th Ave Ste D12","85009",33.46361541748047,-112.1206283569336
"85009","Phoenix","AZ","Parker Lubrication Equipment and Supply Company","835 N 43rd Ave","85009",33.45744,-112.15111
"85009","Phoenix","AZ","Trudoor - Doors & Hardware","4655 W McDowell Rd","85035",33.464997,-112.158771
"85009","Phoenix","AZ","Arizona Bag","2530 W Buckeye Rd","85009",33.437391,-112.114694
"85009","Phoenix","AZ","Gregory's Lawn Mowers","2912 W McDowell Rd","85009",33.466202,-112.122054
"85009","Phoenix","AZ","master halco","not_available","85009",33.423111999999996,-112.13738899999998
"85009","Phoenix","AZ","A.E.C. Affordable Extreme Coatings","2111 W Fillmore St","85009",33.454685999999995,-112.104845
"85009","Phoenix","AZ","Azcarpetandtileinstallation.com","4433 W Van Buren St Ste 5","85043",33.45075988769531,-112.15533447265625
"85012","Phoenix","AZ","Heldt Lumber","not_available","85012",33.520604999999996,-112.065478
"85012","Phoenix","AZ","Sherwin-Williams Paint Store","311 E Camelback Rd","85012",33.50901658370073,-112.06883162647382
"85012","Phoenix","AZ","Dunn-Edwards Paints","233 E Camelback Rd","85012",33.509001,-112.06969199999999
"85012","Phoenix","AZ","Bosse Tools","6815 N 2nd St","85012",33.536913,-112.07069399999999
"85012","Phoenix","AZ","FSO Cage","3033 N 3rd Ave","85013",33.483341217041016,-112.07701110839844
"85013","Phoenix","AZ","MaintenanceMart Janitorial Supply","4648 N 7th Ave","85013",33.505409240722656,-112.0830307006836
"85013","Phoenix","AZ","Frazee Paint","3433 N 7th Ave","85013",33.48863983154297,-112.08312225341797
"85013","Phoenix","AZ","Cabinets To Go","939 W Camelback Rd","85013",33.508987,-112.086257
"85014","Phoenix","AZ","Ace Hardware","5555 N 7th St Ste 106","85014",33.5176999,-112.0647
"85014","Phoenix","AZ","Central AZ Supply","not_available","85014",33.507175,-112.04836200000001
"85014","Phoenix","AZ","Superior pool","16th St And Bethany Home Rd","not_available",33.524417877197266,-112.0484848022461
"85014","Phoenix","AZ","High Peaks Water Services","1127 E Indian School Rd","85014",33.494381,-112.056909
"85014","Phoenix","AZ","Spp","1530 E Bethany Home Rd","85014",33.524147033691406,-112.04873657226562
"85015","Phoenix","AZ","Barry's Ace Hardware","1929 W Glendale Avenue","85021",33.538463,-112.09999
"85015","Phoenix","AZ","Walt's Ace Hardware","1940 W Indian School Rd","85015",33.495137,-112.10078
"85015","Phoenix","AZ","602handyman","1958 West Georgia Ave","85015",33.514931,-112.101681
"85015","Phoenix","AZ","minuteKEY","1607 WEST BETHANY HOME RD","85015",33.522307,-112.092979
"85016","Phoenix","AZ","Howard's Ace Hardware","3111 E Indian School Rd","85016",33.4951,-112.0147
"85016","Phoenix","AZ","Harbor Freight Tools","3146 E Thomas Rd","85016",33.48119422557424,-112.01389028532911
"85016","Phoenix","AZ","Disk Doctors","2375 E Camelback Rd","85016",33.509303585157554,-112.03649282455444
"85016","Phoenix","AZ","Ferguson Plumbing Supply","1845 E Indian School Rd","85016",33.494419,-112.041634
"85016","Phoenix","AZ","Going Green Solar","7310 N 16th St","85020",33.544084000000005,-112.048418
"85016","Phoenix","AZ","AZ Garage Pros","2722 E Pinchot Ave","85016",33.48224767361633,-112.02273845672606
"85016","Phoenix","AZ","Standard Plumbing Supply","2302 E Thomas Rd","85016",33.48072762,-112.03224827
"85016","Phoenix","AZ","Arizona Casters","not_available","85016",33.486866,-112.029931
"85016","Phoenix","AZ","Phoenix Metal Trading","610 S.","85009",33.528677720843085,-112.04293012619019
"85017","Phoenix","AZ","Harbor Freight Tools","6135-3 N 35th Ave","85017",33.526183068132056,-112.13063613871195
"85017","Phoenix","AZ","Appliance Parts Depot","3409 W Bethany Home Rd","85017",33.52371,-112.13227987289429
"85017","Phoenix","AZ","Appliance Parts Depot","not_available","85017",33.480975,-112.12878799999999
"85017","Phoenix","AZ","Hose Power USA","3327 N 29th Ave, Phoenix, AZ 85017","85017",33.48708724975586,-112.12037658691406
"85017","Phoenix","AZ","Younger Brothers Builders Express","3441 Grand Ave","85017",33.493394,-112.13301000000001
"85017","Phoenix","AZ","minuteKEY","6145 N 35th Ave","85017",33.5262993,-112.1326138
"85017","Phoenix","AZ","Glidden Paint Center","2962 W. Thomas Road","85017",33.48083,-112.12353300000001
"85017","Phoenix","AZ","Marshall Tool & Supply","3114 W Thomas Rd Ste 501","85017",33.48090362548828,-112.12722778320312
"85017","Phoenix","AZ","City Electric Supply Phoenix Central","3004 W Thomas Rd","85017",33.480701,-112.1243404
"85018","Phoenix","AZ","Blue Rhino","5402 E Lincoln Dr","85253",33.532981872558594,-111.96430206298828
"85019","Phoenix","AZ","WinRoc","4205 W Glenrosa Ave","85019",33.49838263265919,-112.14959705398078
"85019","Phoenix","AZ","WINROC spi","4225 W Glenrosa Ave","85019",33.49742889404297,-112.14952850341797
"85019","Phoenix","AZ","GPL GLASS AND DOOR LLC","3742 W MEADOWBROOK AVE","85019",33.504458,-112.140392
"85019","Phoenix","AZ","API Plumbing","4070 W Clarendon Ave","85019",33.4926,-112.14655
"85019","Phoenix","AZ","Superlite","4601 N 42nd Ave","85019",33.505306243896484,-112.14702606201172
"85019","Phoenix","AZ","Foundation Building Materials","4225 West Glenrosa Avenue","85019",33.49742889404297,-112.14952850341797
"85019","Phoenix","AZ","Brothers For Life Plumbing","3736 W Luke Ave","85019",33.518338,-112.140026
"85020","Phoenix","AZ","The Home Depot","12434 N Cave Creek Rd","85022",33.5994607,-112.0384661
"85020","Phoenix","AZ","Barry's True Value","7820 N 12th St","85020",33.55150286917021,-112.05777603747556
"85020","Phoenix","AZ","Phoenix Phase Converters","1620 East El Camino Drive","85020",33.55811,-112.04723
"85020","Phoenix","AZ","minuteKEY","115 E Dunlap Ave","85020",33.5667533,-112.0721278
"85020","Phoenix","AZ","Pro-Lock & Safe","13026 N Cave Creek Rd","85022",33.605745,-112.037024
"85020","Phoenix","AZ","Sherwin-Williams Paint Store","12614 N Cave Creek Rd","85022",33.600924,-112.037807
"85021","Phoenix","AZ","Six Points Hardware","10009 N 19th Ave","85021",33.577368,-112.099172
"85021","Phoenix","AZ","Phoenix Sheet Metal","not_available","85021",33.57148742675781,-112.08948516845703
"85021","Phoenix","AZ","Danny White Painting, Inc.","1911 W Cheryl Dr","85021",33.578144,-112.100597
"85021","Phoenix","AZ","Ewing Irrigation","1811 W Peoria Ave","85029",33.581385,-112.09808000000001
"85021","Phoenix","AZ","Indoor Comfort Supply","2001 W Cheryl Dr","85021",33.577961,-112.102276
"85022","Phoenix","AZ","The Home Depot","2217 East Bell Road","85022",33.6387903,-112.0342468
"85022","Phoenix","AZ","Aircold Web","2450 E Bell Rd","85032",33.64103698730469,-112.02889251708984
"85022","Phoenix","AZ","Aircold","not_available","85032",33.63617706298828,-112.03042602539062
"85022","Phoenix","AZ","Discount Tool Rentals","2644 E Bell Rd","85032",33.64112,-112.024934
"85022","Phoenix","AZ","Allstate Steel","2510 E Bell Rd","85032",33.640724,-112.02783
"85022","Phoenix","AZ","Dry Plus Roofing","14855 N Cave Creek Rd","85032",33.622394,-112.030161
"85022","Phoenix","AZ","007 Garage Door","901 E Bluefield Ave","85022",33.65255,-112.06077
"85022","Phoenix","AZ","Sears","16809 N. 9th Street","85022",33.639016668096396,-112.06077888607979
"85023","Phoenix","AZ","The Home Depot","2650 W Thunderbird Rd","85023",33.612414,-112.1146686
"85023","Phoenix","AZ","Ace Hardware Union Hills","18416 N 19th Ave","85023",33.653356,-112.10131
"85023","Phoenix","AZ","Backflow Preventer Cages","17643 North 25th Avenue","85023",33.646942138671875,-112.11206817626953
"85023","Phoenix","AZ","Essco Electric","2507 W Villa Rita Dr","85023",33.650201,-112.11271699999999
"85023","Phoenix","AZ","Copper State Bolt & Nut Co.","17023 N Black Canyon Hwy Ste 1","85023",33.64080047607422,-112.11335754394531
"85024","Phoenix","AZ","Frazee Paint","19401 N Cave Creek Rd #14","85024",33.662584,-112.030258
"85024","Phoenix","AZ","Sherwin-Williams Paint Store","19401 N Cave Creek Rd","85024",33.66259765625,-112.03024291992188
"85024","Phoenix","AZ","Zodbots Computer Repair","3028 E kings Ave","85050",33.69101333272498,-111.99572324752808
"85024","Phoenix","AZ","Get Shutter Parts","39XXX N 4th Ave","85086",33.79910274636,-112.08274483680724
"85024","Phoenix","AZ","Reliable Diamond Tool Inc","20650 N 29th Pl #102","85050",33.674827,-112.020803
"85024","Phoenix","AZ","Water Heaters ""R"" us","519 W Lone Cactus Dr #103","85027",33.68083614065434,-112.07842111587524
"85024","Phoenix","AZ","Appliance Parts Company","2910 e mohawk lb suite 116","85050",33.673704,-112.02608700000002
"85024","Phoenix","AZ","all lighting","20634 N 28th St","85050",33.673995,-112.022912
"85024","Phoenix","AZ","Ferguson Plumbing Supply","22200 N 7th St","85024",33.68661117553711,-112.06672668457031
"85027","Phoenix","AZ","Lowe's","2501 W Happy Valley Road, Bldg 40","85085",33.710916,-112.110027
"85027","Phoenix","AZ","Whitecap","23910 N 19th Ave Ste 70","85085",33.70294189453125,-112.10242462158203
"85027","Phoenix","AZ","Find Lawyers Online","20036 N 17th Dr","85027",33.668174,-112.094242
"85027","Phoenix","AZ","Belfor Property Restoration","not_available","85027",33.700324,-112.104154
"85027","Phoenix","AZ","City Electric Supply Phoenix North","24820 N. 16Th Ave., Bldg. 2   #140","85085",33.711697,-112.094306
"85027","Phoenix","AZ","HD Supply Electrical","23910 N 19th Ave Ste 38","85085",33.703007,-112.10256499999998
"85027","Phoenix","AZ","Dependable Glass","2401 West Behrend Drive","85027",33.66494527,-112.11061564
"85027","Phoenix","AZ","HD Supply White Cap","23910 North 19th Avenue","85085",33.70295785,-112.10372355
"85027","Phoenix","AZ","grainger","2002 W Rose Garden Ln","85027",33.676902,-112.10276699999999
"85027","Phoenix","AZ","Sherwin-Williams Paint Store","1985 W Happy Valley Rd","85085",33.712247,-112.102051
"85027","Phoenix","AZ","Independent Electric","2350 W Union Hills Dr","85027",33.65577697753906,-112.10977172851562
"85027","Phoenix","AZ","Legends Garage Door - Arizona Garage Door Repair","2501 W Behrend Dr Ste B-27","85027",33.66567,-112.111283531929
"85027","Phoenix","AZ","Advanced Metal Sales","Phoenix, AZ 85027","85027",33.680997999999995,-112.11412800000001
"85027","Phoenix","AZ","Grainger","2102 West Rosegarden","not_available",33.68352379369692,-112.10927582256294
"85027","Phoenix","AZ","ProSource Wholesale Flooring","20802 N 19th Ave","85027",33.675214000000004,-112.10055
"85027","Phoenix","AZ","Ewing Irrigation","21401 N 21st Ave","85027",33.680397033691406,-112.10376739501953
"85027","Phoenix","AZ","Deer Valley Ace Hardware","21610 N 35th Ave","85308",33.68388,-112.1348
"85028","Phoenix","AZ","Karsten's Ace Hardware","10624 N 32nd St","85028",33.58335,-112.0131
"85029","Phoenix","AZ","Lowe's","2929 W Thunderbird Road","85053",33.6095806,-112.1213779
"85029","Phoenix","AZ","Perry's Pool Pump","12846 N 19th Ave","85029",33.60295486450195,-112.10032653808594
"85029","Phoenix","AZ","Iron Doors Arizona","11035 North 21st Avenue","85029",33.58704003,-112.102852
"85029","Phoenix","AZ","Sherwin-Williams Paint Store","11850 N 28th Dr","85029",33.594914,-112.120474
"85029","Phoenix","AZ","minuteKEY","2929 W Thunderbird Rd","85053",33.609421000000005,-112.121807
"85029","Phoenix","AZ","Nozzle King","2224 W. Desert Cove Ave.  Suite-205","85029",33.5862419,-112.10598649999997
"85029","Phoenix","AZ","CNCbits.com Routing Resource Center","2432 W Peoria Ave","85029",33.583261517261285,-112.11089193820953
"85031","Phoenix","AZ","The Home Depot","4848 N 43rd Ave","85031",33.507616,-112.1529384
"85031","Phoenix","AZ","minuteKEY","5250 W Indian School Rd","85031",33.4964599609375,-112.17264556884766
"85031","Phoenix","AZ","Hajoca","not_available","85031",33.499185346586074,-112.15213529887232
"85031","Phoenix","AZ","Ace Hardware","5127 W Indian School Rd #131","85031",33.493567999999996,-112.171172
"85032","Phoenix","AZ","The Home Depot","16803 N Tatum Blvd","85032",33.6392519,-111.9761549
"85032","Phoenix","AZ","Paradise Valley Ace Hardware","13811 N Tatum Blvd","85032",33.611764,-111.97767
"85032","Phoenix","AZ","A to Z Equipment Rentals","15364 N 32nd St","85032",33.629377000000005,-112.014035
"85032","Phoenix","AZ","Harbor Freight Tools","3329 E Bell Rd Ste 9","85032",33.63996702609981,-112.01048023233521
"85032","Phoenix","AZ","Sprinkler World","17826 N Tatum Blvd","85032",33.648538,-111.97901100000001
"85032","Phoenix","AZ","Sherwin-Williams Paint Store","4848 E Cactus Rd","85254",33.59885693,-111.9773743
"85032","Phoenix","AZ","Rockler Woodworking & Hardware","4626 E Thunderbird Rd","85032",33.612102,-111.981076
"85033","Phoenix","AZ","Ewing Irrigation","7920 W Thomas Rd","85033",33.48032,-112.228477
"85033","Phoenix","AZ","Qwest","7611 W Thomas Rd","85033",33.480032,-112.222336
"85033","Phoenix","AZ","Sherwin-Williams Paint Store","6544 W Thomas Rd","85033",33.48075009837249,-112.2004195724474
"85033","Phoenix","AZ","Worldwide Net Info","8134 W Osborn Rd","85033",33.48735809326172,-112.2350082397461
"85034","Phoenix","AZ","Fastenal","1775 E University Dr #180","85034",33.422866,-112.043544
"85034","Phoenix","AZ","Blake Machine","1444 S 8th St","85034",33.433441162109375,-112.0635986328125
"85034","Phoenix","AZ","Ewing Irrigation","3441 E Harbour Dr","85034",33.42012139644893,-112.00769491849779
"85034","Phoenix","AZ","Granicrete International","3420 S 7th St Ste 6","85040",33.415783000000005,-112.065404
"85034","Phoenix","AZ","Sherwin-Williams Product Finishes","1515 E Hadley St","85034",33.437554999999996,-112.05001499999999
"85034","Phoenix","AZ","HD Supply Electrical","2902 S 44th St","85040",33.42042541503906,-111.98761749267578
"85034","Phoenix","AZ","Frazee Paint","2131 E Jackson St","85034",33.44481,-112.034975
"85034","Phoenix","AZ","Voss Lighting","1911 E University Dr","85034",33.423289000000004,-112.04019
"85034","Phoenix","AZ","Qed","2929 S 16th St","85034",33.420916999999996,-112.04705600000001
"85034","Phoenix","AZ","City Electric Supply Phoenix Airport","3902 E University Dr Ste 3","85034",33.422453999999995,-111.99723300000001
"85034","Phoenix","AZ","Phoenix Welding","629 S 7th St","85034",33.441087,-112.0647493
"85034","Phoenix","AZ","Tucson Truck And Caster","3202 S 40th St, Phoenix, AZ 85040","85040",33.417854,-111.995976
"85034","Phoenix","AZ","Emser Tile","2604 S 38th St","85034",33.423396999999994,-112.000425
"85034","Phoenix","AZ","Superior Cleaning Equipment","4422 E University Dr","85034",33.424255,-112.064466
"85034","Phoenix","AZ","Foundation Building Materials","3652 East Miami Avenue","85040",33.4189948,-112.0018997
"85035","Phoenix","AZ","Lowe's","1620 North 75th Avenue","85035",33.4667908,-112.2230597
"85035","Phoenix","AZ","The Home Depot","7333 W McDowell Rd","85035",33.46438470900496,-112.21797108650208
"85035","Phoenix","AZ","minuteKEY","1620 N 75th Ave","85035",33.466833,-112.22330900000001
"85035","Phoenix","AZ","minuteKEY","2020 N 75th Ave","85035",33.471068,-112.222977
"85035","Phoenix","AZ","Metal Supermarkets Phoenix Southwest","4625 W McDowell Rd Ste 140","85035",33.4654541015625,-112.15695190429688
"85037","Phoenix","AZ","The Home Depot","9969 W Camelback Rd","85037",33.5070082,-112.2744736
"85037","Phoenix","AZ","Passion Party Central","not_available","85037",33.498050689697266,-112.27494049072266
"85040","Phoenix","AZ","Harbor Freight Tools","5813 S Central Ave","85040",33.39356898680527,-112.07272125777176
"85040","Phoenix","AZ","Compressed Air power","2507 E Chambers St","85040",33.397364,-112.026353
"85040","Phoenix","AZ","South Phoenix Paint And Hardware","not_available","85040",33.394836,-112.07312
"85040","Phoenix","AZ","McFadden-Dale Industrial Hardware","4647 S 32nd St","85040",33.403246,-112.01213
"85040","Phoenix","AZ","ProSource of Tempe","4545 E Broadway Rd, Suite 100","85040",33.4066548,-111.9830828
"85040","Phoenix","AZ","DeWalt Service Center","4001 E Broadway Rd","85040",33.406272888183594,-111.99443054199219
"85040","Phoenix","AZ","Hilti","3707 E Broadway Rd Ste 7","85040",33.406009999999995,-112.00106000000001
"85040","Phoenix","AZ","Industrial Metal Supply","5150 S 48th St","85040",33.40071,-111.97918
"85040","Phoenix","AZ","Bobier Sales","3626 E Southern Ave, Step 3","85040",33.39366912841797,-112.00216674804688
"85040","Phoenix","AZ","Ventana Distribution Company","2825 E Chambers St","85040",33.397113,-112.02013500000001
"85040","Phoenix","AZ","RSD (Refrigeration Supplies Distributor)","3634 E Southern Ave","85040",33.39365768432617,-112.00203704833984
"85040","Phoenix","AZ","Ace Hardware","28 E Broadway Rd","85040",33.4068717956543,-112.07241821289062
"85040","Phoenix","AZ","Liberty Home Products","5621 S 24th St","85040",33.396035,-112.02941799999999
"85040","Phoenix","AZ","Downing Glass","3838 S 16th Pl","85040",33.410924,-112.046177
"85041","Phoenix","AZ","Lowe's","1950 West Baseline Road","85041",33.3800891,-112.1005635
"85041","Phoenix","AZ","South Mountain Ace Hardware","6841 S Central Ave","85042",33.383735,-112.07349
"85041","Phoenix","AZ","Sherwin-Williams Paint Store","3656 W Southern Ave","85041",33.392376494630845,-112.13736534118652
"85041","Phoenix","AZ","minuteKEY","1950 W Baseline Rd","85041",33.380367,-112.101091
"85041","Phoenix","AZ","Harbor Freight Tools","5813 SOUTH CENTRAL AVE","85339",33.37786,-112.13402
"85042","Phoenix","AZ","Ace Hardware & Rental","4825 E Warner Rd #16","85044",33.3309,-111.9823
"85042","Phoenix","AZ","Dunn-Edwards Paints","4855 E Warner Rd Ste 13","85044",33.33045,-111.97847
"85042","Phoenix","AZ","Independent Electric","4707 E Baseline Rd","85042",33.377395,-111.981371
"85042","Phoenix","AZ","Leslie Pool Supplies","4747 E Elliot Rd","85044",33.348258765883166,-111.98111208057692
"85042","Phoenix","AZ","Stanleys Plumbing Supply","7815 S 46th St, Phoenix, AZ 85044","85044",33.37586212158203,-111.98395538330078
"85042","Phoenix","AZ","Sterling Point Apartments","3802 E Baseline Rd","85042",33.37883161,-112.00079335
"85042","Phoenix","AZ","Tio Chuy's","not_available","85042",33.3716564284166,-112.02248330658611
"85043","Phoenix","AZ","Uni-Tek LLC","1030 N 53rd Ave","85043",33.459684,-112.17331899999999
"85043","Phoenix","AZ","Grainger Industrial Supply","960 N 51st Ave","85043",33.458211005336935,-112.16953845275613
"85043","Phoenix","AZ","CR Laurence, Co","640 S 54th Ave","85043",33.440313,-112.175903
"85043","Phoenix","AZ","Lgm Machining","7150 W Roosevelt St Ste A162","85043",33.461092,-112.213196
"85043","Phoenix","AZ","Sun Valley Supply","802 S 59th Ave","85043",33.43987,-112.18820900000001
"85043","Phoenix","AZ","C-Built Fabrication","4100 S 67th Ave","85043",33.412395000000004,-112.20263200000001
"85043","Phoenix","AZ","Interwest Safety Supply","5302 W Buckeye Rd #400","85043",33.4368379816514,-112.173827155963
"85043","Phoenix","AZ","Southwest Castings","5343 W Mohave St","85043",33.43046,-112.175353
"85043","Phoenix","AZ","minuteKEY","7575 W Lower Buckeye Rd","85043",33.4207945,-112.2230597
"85043","Phoenix","AZ","Dunn-Edwards Paints","520 S 67th Ave","85043",33.443445000000004,-112.205774
"85043","Phoenix","AZ","Ferguson HVAC Supply","6652 W Buckeye Rd","85043",33.438284,-112.202793
"85044","Phoenix","AZ","The Home Depot","650 N 54th St","85226",33.3134777,-111.9706935
"85044","Phoenix","AZ","Sherwin-Williams Paint Store","4940 E Ray Rd","85044",33.321397999999995,-111.97823500000001
"85048","Phoenix","AZ","Desert Foothills Ace Hardware","1335 E Chandler Blvd","85048",33.3052959,-112.05357
"85048","Phoenix","AZ","garage door repair phoenix","3145 E Chandler Blvd","85048",33.30485128337522,-112.01595783233643
"85048","Phoenix","AZ","Plaza Hardware","4025 E Chandler Blvd","85048",33.3041741868605,-111.9948928497335
"85050","Phoenix","AZ","WOW 1 DAY PAINTING Phoenix","5450 E High St Suite 260","85054",33.67551941780981,-111.9635260105133
"85053","Phoenix","AZ","Howard's True Value","4238 W Bell Rd","85308",33.640798,-112.15056799999999
"85053","Phoenix","AZ","Sherwin-Williams Paint Store","2901 W Bell Rd","85053",33.63860578,-112.1218863
"85053","Phoenix","AZ","Dunn-Edwards Paints","3410 W Bell Rd","85053",33.640764000000004,-112.132902
"85053","Phoenix","AZ","Frazee Paint","2901 W Bell Ed","85023",33.63896536021725,-112.12121042430599
"85083","Phoenix","AZ","ASAP Door Repair & Service","5101 W Whispering Wind Dr","85310",33.70929,-112.17019
"85085","Phoenix","AZ","AZ's Best Pool Service and Repair","3120 West Carefree Highway","85086",33.79982434,-112.12619533
"85085","Phoenix","AZ","H&E Equipment Services","2040 W Pinnacle Peak Rd","85027",33.6995291,-112.1035734
"85085","Phoenix","AZ","minuteKEY","2501W. HAPPY VALLEY RD, BLDG 40","85085",33.711091,-112.1122766
"85086","Phoenix","AZ","Anthem Ace Hardware","3440 W Anthem Way","85086",33.8653669,-112.13568
"85086","Phoenix","AZ","The Home Depot","35050 N North Valley Pky","85086",33.8020166,-112.1336499
"85086","Phoenix","AZ","Home Depot Prescott Valley","5500 E State Route 69","86314",33.8701,-112.143
"85086","Phoenix","AZ","Sherwin-Williams Paint Store","41780 N Vision Way","85086",33.864481,-112.151105
"85118","Gold Canyon","AZ","Locksmith Gold Canyon","5370 S Desert Dawn Dr #4011","85118",33.36588668823242,-111.43380737304688
"85119","Apache Junction","AZ","Frontier Ace Hardware","725 W Apache Trail Rd #3B","85120",33.41458,-111.5575
"85119","Apache Junction","AZ","Locksmith Apache Junction","1440 N Idaho Rd #10E","85119",33.428565979003906,-111.54803466796875
"85119","Apache Junction","AZ","Best Hardware","237 N Apache Trl","85120",33.417107,-111.547273
"85120","Apache Junction","AZ","The Home Depot","1545 S Crismon Rd","85209",33.3885622,-111.6131468
"85120","Apache Junction","AZ","Harbor Freight Tools","10603 E Apache Trl Ste 109","85120",33.413558442987124,-111.60224886408228
"85120","Apache Junction","AZ","Tractor Supply Co.","10545 East Main St","85120",33.41474,-111.60398
"85120","Apache Junction","AZ","Tameron's Plumbing and Septic Service LLC","648 N 102nd Pl","85207",33.426828,-111.609896
"85122","Casa Grande","AZ","The Home Depot","1546 E Florence Blvd","85122",32.88176311437103,-111.72091484069824
"85122","Casa Grande","AZ","Lowe's","1436 East Florence Boulevard","85122",32.8812646,-111.7254997
"85122","Casa Grande","AZ","Power Bound Electric LLC","1234 E Laurel Dr","85122",32.88824,-111.73445
"85122","Casa Grande","AZ","Sherwin-Williams Paint Store","1514 N Pinal Ave","85122",32.8911104946275,-111.75683498382568
"85122","Casa Grande","AZ","PT Plumbing Inc","615 E Florence Blvd","85122",32.87955,-111.7456
"85122","Casa Grande","AZ","City Electric Supply Casa Grande","3048 N Cessna Ave Ste 1","85122",32.94690050798396,-111.76295056010531
"85122","Casa Grande","AZ","Sears","1355 E Florence Blvd","85122",32.88075256347656,-111.7296142578125
"85122","Casa Grande","AZ","Garage Door Repair Casa Grande","2401 N Amarillo St","85122",32.9237174987793,-111.73735809326172
"85122","Casa Grande","AZ","Brown's Welding-Supplies","14990 W Jimmie Kerr Blvd","85122",32.860352187415565,-111.72877768272883
"85122","Casa Grande","AZ","Fred's Bolts, Nuts, & Tools","1405 N Pinal Ave","85122",32.887308,-111.757491
"85122","Casa Grande","AZ","Tractor Supply Co.","1988 East Florence Blvd","85122",32.87995529174805,-111.70176696777344
"85122","Casa Grande","AZ","Harbor Freight Tools","1484 E Florence Blvd","85122",32.880203,-111.72351
"85122","Casa Grande","AZ","Valley Ace Hardware","2820 N Pinal Ave Suite 7","85122",32.939241,-111.75456
"85123","Arizona City","AZ","Ace Hardware","8453 W Battaglia Dr","85123",32.7629939,-111.6593
"85128","Coolidge","AZ","Tractor Supply Co.","950 North Arizona Blvd","85128",32.987168,-111.52501699999999
"85128","Coolidge","AZ","Ace Hardware","1030 N Arizona Blvd","85128",32.987007,-111.52565
"85131","Eloy","AZ","Atlas Copco Rental","610 S Sunshine Blvd","85131",32.7381597,-111.5510455
"85131","Eloy","AZ","Miller Hardware","not_available","85231",32.745902389075674,-111.5728765287769
"85132","Florence","AZ","Ace Hardware","346 Alden Rd","85137",33.05956268310547,-110.90579223632812
"85132","Florence","AZ","Florence True Value Hardware","290 N Main St","85132",33.0341385,-111.3874669
"85135","Hayden","AZ","Vallen","64 Asarco Ave","85135",33.004745181216876,-110.78466564416885
"85137","Kearny","AZ","Superior Lumber Company","not_available","85173",33.286284,-111.098306
"85138","Maricopa","AZ","Ace Hardware","21542 N John Wayne Pkwy.","85139",33.074899,-112.04492
"85138","Maricopa","AZ","Manage Bookmarks","43289 W Michaels Dr","85138",33.07279380085805,-112.03295767307281
"85138","Maricopa","AZ","Cactus Valley Pool Supply","20800 N John Wayne Pkwy #112","85139",33.068260192871094,-112.04730987548828
"85138","Maricopa","AZ","PT Plumbing Inc.","21164 N John Wayne Pkwy","85139",33.0686149597168,-112.04729461669922
"85138","Maricopa","AZ","Locksmith Maricopa","North Duncan Drive #127M","85238",33.05486036591937,-112.03926086425781
"85138","Maricopa","AZ","Tillers Equipment and Tool Rentals LLC","12501 N Murphy Rd","85138",32.99386978149414,-111.94246673583984
"85140","San Tan Valley","AZ","Locksmith San Tan Valley","4438 E Skyline Dr #670","85140",33.19149398803711,-111.51822662353516
"85142","Queen Creek","AZ","The Home Depot","7401 S Power Road","85142",33.2817723,-111.6834906
"85142","Queen Creek","AZ","Lowe's","4730 S Higley Road","85297",33.2646246,-111.7227123
"85142","Queen Creek","AZ","Sherwin-Williams Paint Store","3150 E Chandler Heights Rd","85298",33.23439626974623,-111.72188352682737
"85142","Queen Creek","AZ","Tractor Supply Co.","24930 South Ellsworth Rd","85142",33.222198486328125,-111.63570404052734
"85142","Queen Creek","AZ","Harbor Freight Tools","21244 E Ocotillo Rd","85142",33.24917221069336,-111.62474060058594
"85142","Queen Creek","AZ","Noir Electric LLC","17642 E. Stacey Rd.","85142",33.16,-111.59
"85142","Queen Creek","AZ","San Tan Rentals","25851 S Power Rd #3","85142",33.21253967285156,-111.68547821044922
"85142","Queen Creek","AZ","Sherwin-Williams Paint Store","20952 S Ellsworth Loop Rd","85142",33.258076,-111.639459
"85142","Queen Creek","AZ","City Electric Supply Queen Creek","7931 E Pecos Rd #120","85212",33.284259,-111.6625727
"85142","Queen Creek","AZ","Southwest Blinds & Shutters","7931 East Pecos Road","85212",33.28392415,-111.66250769
"85142","Queen Creek","AZ","RUSS' TRUE VALUE","20231 E Ocotillo Rd","85142",33.24848556518555,-111.646240234375
"85142","Queen Creek","AZ","Ewing Irrigation","22030 S Scotland Ct","85142",33.24797464641514,-111.61331802606583
"85142","Queen Creek","AZ","KieTek International Incorporated","22380 S Scotland Ct","85142",33.245,-111.613
"85142","Queen Creek","AZ","Creative Paradise","2475 E Queen Creek Rd","85297",33.26261900000001,-111.736284
"85143","San Tan Valley","AZ","AZ Computer Geeks","not_available","85143",33.1598,-111.5618
"85143","San Tan Valley","AZ","Garage Door Repair San Tan Valley","270 E Hunt Hwy","85143",33.162073825341295,-111.56187057495117
"85201","Mesa","AZ","The Home Depot","853 N Dobson Road","85201",33.4306559,-111.8672472
"85201","Mesa","AZ","Lenhart's Ace Hardware","119 W 1st Ave","85210",33.4130359,-111.83449
"85201","Mesa","AZ","Appliance Parts Depot","2240 W Broadway Rd #104","85202",33.408156,-111.87998400000001
"85201","Mesa","AZ","Ace Hardware","1130 W University Dr Ste 107","85201",33.42266082763672,-111.8553695678711
"85201","Mesa","AZ","Aircold Wed Roser","s 33rd st","85201",33.416722,-111.839199
"85201","Mesa","AZ","Radiance Pools","2401 E Rio Salado Pkwy","85281",33.42790985107422,-111.88764953613281
"85201","Mesa","AZ","johnstone Supply","250 S Mulberry","85202",33.409690856933594,-111.86168670654297
"85202","Mesa","AZ","Wide World of Maps","1444 W Southern Ave","85202",33.39347457885742,-111.86284637451172
"85202","Mesa","AZ","A&P Nursery","2645 W Baseline Rd","85202",33.378036,-111.89126200000001
"85202","Mesa","AZ","Jack's True Value","2730 S Alma School Rd","85210",33.3652444519727,-111.859137777911
"85202","Mesa","AZ","Bob's Locks & Safes","1911 W Broadway Rd Ste 6","85202",33.40713882446289,-111.87261199951172
"85203","Mesa","AZ","Ace Hardware","1941 E Brown Rd","85203",33.43597919022044,-111.78888182640624
"85203","Mesa","AZ","Universal Fog Misting Systems Inc","2145 E Riverdale St","85213",33.47836,-111.784
"85203","Mesa","AZ","Cactus Valley Pools #6","1911 E Brown Rd","85203",33.436902,-111.78991599999999
"85203","Mesa","AZ","Lines Sunscreens","240 N Gilbert Rd.","85233",33.420284271240234,-111.7885513305664
"85203","Mesa","AZ","Arizona Backyard Custom","1704 E Grandview St","85203",33.44023,-111.79322
"85204","Mesa","AZ","The Home Depot","425 S Val Vista Dr","85204",33.40735304639231,-111.75213444218468
"85204","Mesa","AZ","Harbor Freight Tools","1244 S Gilbert Rd #110","85204",33.391823425662864,-111.79000203729159
"85204","Mesa","AZ","Independent Electric","948 E Isabella Ave","85204",33.385303,-111.810824
"85204","Mesa","AZ","Ewing Irrigation","1921 S Horne","85204",33.38028047602731,-111.81374073028564
"85204","Mesa","AZ","Glidden","not_available","85204",33.379463,-111.821204
"85204","Mesa","AZ","Standard Plumbing Supply - Mesa","550 E Baseline Rd","85204",33.379478999999996,-111.819461
"85204","Mesa","AZ","City Electric Supply Gilbert","422 E Baseline Rd","85204",33.379364,-111.82161599999999
"85204","Mesa","AZ","lowes","Higley & Us 60","85206",33.386692815787995,-111.767792053816
"85204","Mesa","AZ","Pool & Spa Supply","1908 E. Baseline Rd.","not_available",33.38004684448242,-111.78973388671875
"85204","Mesa","AZ","Ferguson HVAC Supply","3457 E Main St","85213",33.414889,-111.75550700000001
"85204","Mesa","AZ","concrete Made New","601 South Windsor, Mesa, AZ","85204",33.40406799316406,-111.77565002441406
"85204","Mesa","AZ","Sears","952 E. Baseline Rd.","85204",33.37942935746062,-111.81032987919443
"85204","Mesa","AZ","A & M Pool Supply","3544 E Southern Ave Ste 105","85204",33.395005,-111.755103
"85204","Mesa","AZ","Partitions And Accessories","1220 S Pasadena","85210",33.39245477,-111.82281561
"85204","Mesa","AZ","Sherwin-Williams Paint Store","416 E Baseline Rd","85204",33.379399,-111.822328
"85204","Mesa","AZ","Dunn-Edwards Paints","1221 S Gilbert Rd #10","85204",33.39297917434486,-111.78780920220365
"85205","Mesa","AZ","Mesa Rental Center","3716 E Main St Bldg 1","85205",33.416096,-111.75083500000001
"85205","Mesa","AZ","garage doors repair Mesa","4722 E Ivy St","85205",33.446468353271484,-111.72911071777344
"85205","Mesa","AZ","Farnsworth Wholesale","4863 E Ingram St","85205",33.446549,-111.725221
"85205","Mesa","AZ","Eberson Ace Hardware","1050 N Higley Rd","85205",33.432847,-111.71919
"85205","Mesa","AZ","DANA WATER SYSTEMS","4521 E Jensen St Ste 109","85205",33.44802474975586,-111.7331314086914
"85205","Mesa","AZ","Solar Penny Solar Shop Mesa","6247 E Main St Ste 5","85205",33.41432189941406,-111.69581604003906
"85205","Mesa","AZ","City Electric Supply Mesa","4450 E McLellan Rd #110","85205",33.4453735,-111.7342605
"85205","Mesa","AZ","Helton Tool & Home","1750 N Rosemont Ste 101","85205",33.446255,-111.722654
"85205","Mesa","AZ","Frazee Paint","6736 E Broadway Rd","85206",33.40968322753906,-111.68622589111328
"85206","Mesa","AZ","The Home Depot","6838 E Superstition Springs Blvd","85209",33.3850228,-111.683224
"85206","Mesa","AZ","Lowe's","1440 South Higley Road","85206",33.388618,-111.7205869
"85206","Mesa","AZ","Dunn-Edwards Paints","5959 E Southern Ave # 4-5","85206",33.39334306666667,-111.702852
"85206","Mesa","AZ","Chuck's Lighting And Signs, Inc","4353 E Edgewood Ave","85206",33.39893476486417,-111.73676881186296
"85206","Mesa","AZ","Oreck Vacuums","not_available","85206",33.39561907447987,-111.68420630230031
"85206","Mesa","AZ","minuteKEY","6131 E Southern Ave","85206",33.392120361328125,-111.69877624511719
"85206","Mesa","AZ","minuteKEY","1440 S Higley Rd","85206",33.38883590698242,-111.72061920166016
"85207","Mesa","AZ","Dave's Ace Hardware","2842 N Power Rd","85215",33.4664829,-111.68403
"85207","Mesa","AZ","Grand Materials And Supply","not_available","85207",33.415720819644356,-111.65179311335055
"85208","Mesa","AZ","Lowe's","1229 S Ellsworth Road","85209",33.3922614,-111.6304997
"85208","Mesa","AZ","minuteKEY","1229 S Ellsworth Rd","85209",33.392016,-111.63001799999999
"85209","Mesa","AZ","Crismon Ace Hardware","2758 S Crismon Rd","85209",33.365681,-111.61969
"85209","Mesa","AZ","Sherwin-Williams Paint Store","6737 E Baseline Rd","85206",33.37891388,-111.6893463
"85209","Mesa","AZ","Freedom Tools, LLC.","7001 E Lindner Ave","85209",33.37667465209961,-111.68312072753906
"85209","Mesa","AZ","Sherwin-Williams Paint Store","2323 S Power Rd","85209",33.373843626463994,-111.68736785206156
"85210","Mesa","AZ","The Home Depot","1740 S Country Club Dr","85210",33.3833522,-111.8419013
"85210","Mesa","AZ","Big D Floor Covering Supplies","150 W Hoover Ave Ste 1","85210",33.389451,-111.835673
"85210","Mesa","AZ","CVP Distribution","1191 N Fiesta Blvd #3","85233",33.370917791415025,-111.83427110576122
"85210","Mesa","AZ","RWC building Products","1345 S Center","85210",33.39244900940182,-111.8311561903418
"85210","Mesa","AZ","Whitecap","1285 N McQueen Rd","85233",33.37334060668945,-111.82431030273438
"85210","Mesa","AZ","Van Marcke Trafe Supply","1440 N Country Club Dr","85210",33.38914,-111.84142
"85210","Mesa","AZ","Airgas/ RED-D-ARC","544 W Iron Ave","85210",33.385013,-111.84515900000001
"85210","Mesa","AZ","rsd Refrigeration Supply Distributor","1323 N Tech Blvd","85233",33.37321090698242,-111.83423614501953
"85210","Mesa","AZ","Expressions Home Gallery","75 W Baseline Rd","85233",33.377685546875,-111.83258056640625
"85210","Mesa","AZ","Sherwin-Williams Paint Store","946 W Southern Ave","85210",33.393485,-111.85211299999999
"85210","Mesa","AZ","Sliding Door Store","20 W Baseline Rd","85210",33.37977981567383,-111.83223724365234
"85210","Mesa","AZ","Gilbert Trane","2075 W Obispo Ave","85233",33.362207,-111.83405800000001
"85210","Mesa","AZ","Advantage Rigging LLC","1482 W Scott Ave Ste 101","85233",33.366229,-111.822061
"85210","Mesa","AZ","Tile For Less","1425 s country club dr","85210",33.388304999999995,-111.839428
"85210","Mesa","AZ","Gexpro","1510 N Hobson St","85233",33.376789,-111.81969299999999
"85210","Mesa","AZ","Sprinkler World","3164 S Country Club Dr","85210",33.35751,-111.84274
"85210","Mesa","AZ","MORSCO HVAC Supply","1265 S Pima","85210",33.391656,-111.8292677
"85212","Mesa","AZ","Spencer's TV & Appliance","4630 E Ray Rd","85296",33.322065,-111.69063899999999
"85212","Mesa","AZ","Sun Valley Supply","6410 South Sossaman Road","85212",33.29945224,-111.67351787
"85213","Mesa","AZ","Art of Tuscany","2458 E McKellips Rd, Mesa, AZ 85213","85213",33.45254135131836,-111.77751159667969
"85213","Mesa","AZ","Sherwin-Williams Paint Store","2760 E Main St","85213",33.416095,-111.771702
"85215","Mesa","AZ","The Home Depot","6708 E McKellips Rd","85215",33.45383613463645,-111.68588519096375
"85215","Mesa","AZ","AC Tool Supply Inc","not_available","85215",33.466437,-111.70099
"85215","Mesa","AZ","Tractor Supply Co.","17130 East Shea Blvd","85268",33.57085,-111.71086000000001
"85215","Mesa","AZ","Ewing Irrigation","2661 N Ogden Rd","85215",33.46439365930799,-111.7385852336883
"85224","Chandler","AZ","The Home Depot","1155 W Chandler Blvd","85224",33.3038839,-111.8614486
"85224","Chandler","AZ","Lowe's","2900 West Chandler Blvd","85224",33.307975,-111.892208
"85224","Chandler","AZ","Roberts Ace Hardware","2050 N Alma School Rd Suite 18","85224",33.336274,-111.86092
"85224","Chandler","AZ","minuteKEY","2900 W Chandler Blvd","85224",33.30754089355469,-111.892333984375
"85224","Chandler","AZ","Dunn-Edwards Paints","2190 W Chandler Blvd #E","85224",33.30642433853519,-111.8794483891597
"85224","Chandler","AZ","Sherwin-Williams Paint Store","1025 W Parklane Blvd","85224",33.303666,-111.85960700000001
"85224","Chandler","AZ","Absolutely Chem-Dry","1900 W Chandler Blvd #15","85224",33.3059452189626,-111.87854290008545
"85224","Chandler","AZ","Leslie's Swimming Pool Supplies","1960 W Ray Rd","85224",33.32166190546133,-111.8756991255214
"85225","Chandler","AZ","Lowe's","734 South Gilbert Road","85296",33.3367213,-111.7923857
"85225","Chandler","AZ","Gilbert Ace Hardware","750 S Cooper Rd","85233",33.336379,-111.80706
"85225","Chandler","AZ","minuteKEY","734 S Gilbert Rd","85296",33.336616,-111.79261699999999
"85225","Chandler","AZ","garage door repair Gilbert","835 W Warner Rd","85233",33.33588861614144,-111.80854797363281
"85225","Chandler","AZ","Ferguson Plumbing Supply","3205 N Arizona Ave Ste 8","85225",33.352032,-111.841172
"85225","Chandler","AZ","Tile Tools HQ","401 E. Ray Rd.","85225",33.3205901,-111.837516
"85225","Chandler","AZ","Hendel's Air Conditioning","3434 N Arizona Ave","85225",33.356163,-111.842522
"85225","Chandler","AZ","Tanner Materials Tile","not_available","85225",33.31730270385742,-111.84201049804688
"85225","Chandler","AZ","Sun Devil Pools","78 N Cooper Rd","85233",33.35133273333334,-111.8078656
"85225","Chandler","AZ","Pete's Garage","812 Park Ave.","not_available",33.35154,-111.819297
"85225","Chandler","AZ","Ferguson Waterworks","1800 N Arizona Ave","85225",33.331574955140866,-111.83967999192323
"85226","Chandler","AZ","Lowe's","7100 West Ray Road","85226",33.3210599,-111.9649665
"85226","Chandler","AZ","City Electric Supply Chandler","4320 W Chandler Blvd Ste 5","85226",33.306007,-111.9176889
"85226","Chandler","AZ","garage door repair Chandler","7131 W Ray Rd","85226",33.31905344502012,-111.96709871292114
"85226","Chandler","AZ","Ars","4125 W Saturn Way","85226",33.301002502441406,-111.91382598876953
"85226","Chandler","AZ","McKay's True Value","4939 W Ray Rd","85226",33.3199029474121,-111.925623167719
"85226","Chandler","AZ","Dave's Hardware","not_available","85226",33.31858576346314,-111.92594184359943
"85226","Chandler","AZ","Mintz Heating and Cooling","85140 Queen Creek","85142",33.2543718653684,-111.94963216781616
"85226","Chandler","AZ","Ewing Irrigation","18 S Roosevelt Ave","85226",33.301471,-111.951747
"85226","Chandler","AZ","minuteKEY","7100 W Ray Rd","85226",33.32163,-111.96451599999999
"85226","Chandler","AZ","Countertops.com","4320 W Chandler Blvd Ste 107","85226",33.305885314941406,-111.9164047241211
"85226","Chandler","AZ","Frazee Paint & Wallcovering","7200 W Chandler Blvd","85226",33.3060658926218,-111.9668903151466
"85233","Gilbert","AZ","Paul's Ace Hardware Gilbert","1927 E Baseline Rd","85233",33.377279627705676,-111.78986162747199
"85233","Gilbert","AZ","Kandela Design","1220 N. Mondel Drive","85233",33.372494,-111.81733899999999
"85233","Gilbert","AZ","Gilbert True Value","601 N Gilbert Rd","85234",33.36064529418945,-111.78933715820312
"85233","Gilbert","AZ","HPI - Henry Products Inc","1425 N McQueen Rd","85233",33.375772999999995,-111.823796
"85234","Gilbert","AZ","Ace Hardware","3232 E Guadalupe Rd","85234",33.3656209,-111.72101
"85234","Gilbert","AZ","Cart A Crete","1374 E Vaughn Ave","85234",33.3564567565918,-111.76053619384766
"85234","Gilbert","AZ","Poolwerx","139 S Higley Rd #102","85296",33.347896,-111.719735
"85234","Gilbert","AZ","Sears","857 N Val Vista Drive","85234",33.366419,-111.75518
"85248","Chandler","AZ","The Home Depot","4141 S Arizona Ave","85248",33.245281,-111.8393552
"85248","Chandler","AZ","Lowe's","4300 South Arizona Avenue","85248",33.243601,-111.8430804
"85248","Chandler","AZ","Chandler Ace Hardware","4870 S Gilbert Rd","85249",33.23626,-111.79166
"85248","Chandler","AZ","Tractor Supply Co.","25606 South Arizona Ave","85248",33.21449661254883,-111.84232330322266
"85248","Chandler","AZ","Valley Ace Hardware","9666 E Riggs Rd","85248",33.2327,-111.8639
"85248","Chandler","AZ","Sherwin-Williams Paint Store","2975 E Ocotillo Rd","85249",33.24755859375,-111.79025268554688
"85248","Chandler","AZ","2582 Appliances","4300 S Arizona Ave","85248",33.239911,-111.83111
"85248","Chandler","AZ","2582 Satan's Corner","Fulton Ranch","85248",33.24725686166267,-111.83775282214371
"85248","Chandler","AZ","Kimbrough Electric,Inc","3250 S Arizona Ave","85248",33.258567810058594,-111.84331512451172
"85250","Scottsdale","AZ","The Home Depot","9170 E Talking Stick Way","85250",33.540336,-111.8841161
"85250","Scottsdale","AZ","Paul's Ace Hardware McDonald","8449 E McDonald Dr","85250",33.52298176405348,-111.89815537838201
"85250","Scottsdale","AZ","garage door repair Scottsdale","6107 N  Scottsdale  Rd","85253",33.52603530883789,-111.92565155029297
"85250","Scottsdale","AZ","Garage Door Repair Scottsdale","7349 N Via Paseo del Sur","85258",33.54357147216797,-111.90538787841797
"85251","Scottsdale","AZ","Interior Essentials","2720 N 68th St","85257",33.479112,-111.935413
"85251","Scottsdale","AZ","HandyAmanDA","not_available","85257",33.4780387878418,-111.92908477783203
"85251","Scottsdale","AZ","ADT","7229 E 1st Ave","85251",33.494556326560954,-111.93002141228607
"85251","Scottsdale","AZ","Miller Lock and Safe","3021 N Scottsdale Rd","85251",33.482357025146484,-111.92520141601562
"85251","Scottsdale","AZ","Advanced Handyman Services","not_available","85018",33.487135423569676,-111.93986839466206
"85253","Paradise Valley","AZ","Ace Hardware & Rental - Scottsdale","10300 N Scottsdale Rd","85253",33.579337,-111.92626
"85254","Scottsdale","AZ","Lowe's","16285 North Scottsdale Road","85254",33.634429,-111.917741
"85254","Scottsdale","AZ","Grand Canyon Home Supply","15855 N Greenway Hayden Loop Ste 170","85260",33.6297792,-111.9111667
"85254","Scottsdale","AZ","Look At My Fire","7750 E Gelding Dr Ste 1A","85260",33.61558151245117,-111.91275024414062
"85254","Scottsdale","AZ","Bathroom Cabinet Hardware","7302 E Helm Dr #1008","85260",33.620540618896484,-111.92237091064453
"85254","Scottsdale","AZ","Salt Creek Home Furniture","14202 North Scottsdale Road","85254",33.616282,-111.927291
"85254","Scottsdale","AZ","W.G. Henshen","7363 E Tierra Buena Ln","85260",33.6289429376995,-111.9210325079509
"85254","Scottsdale","AZ","Arizona Gas Products","16050","85260",33.631657000000004,-111.917349
"85254","Scottsdale","AZ","Arizona Paint Supply","10645 N Tatum Blvd Ste C600","85028",33.5836182,-111.9744362
"85254","Scottsdale","AZ","City Electric Supply Scottsdale","7707 E Acoma Dr Ste 106","85260",33.617391831909714,-111.912399583992
"85254","Scottsdale","AZ","minuteKEY","16285 N Scottsdale Rd","85254",33.63477325439453,-111.91796112060547
"85254","Scottsdale","AZ","Dusty Creek Builders, Inc.","7950 E Acoma Dr Ste 102","85260",33.618289947509766,-111.90896606445312
"85254","Scottsdale","AZ","Monark Premium Appliance","15500 N Greenway Hayden Loop","85260",33.62812243,-111.91878619
"85254","Scottsdale","AZ","Studio41 Home Design Showroom - Scottsdale","15551 N Greenway Hayden Loop","85260",33.62696217,-111.91836228
"85254","Scottsdale","AZ","Hawk Hill","7302 E Helm Dr Ste 1008","85260",33.620540618896484,-111.92237091064453
"85254","Scottsdale","AZ","Arizona Blinds, Shutters & Drapery","15855 N Greenway Hayden Loop","85260",33.629795,-111.91116
"85255","Scottsdale","AZ","The Home Depot","15499 N Hayden Rd","85260",33.6253356,-111.8967384
"85255","Scottsdale","AZ","Pinnacle Peak Ace Hardware","23623 N Scottsdale Rd, Suite D5","85255",33.7019409,-111.9252
"85255","Scottsdale","AZ","Paul's Ace Hardware","16605 E Palisades Blvd","85268",33.6074249,-111.71998
"85255","Scottsdale","AZ","Anasazi Stone","7452 E Adobe Dr","85255",33.68847635181524,-111.91929876698796
"85255","Scottsdale","AZ","Ferguson Bath, Kitchen & Lighting Gallery","8340 E Raintree Dr Bldg A-1","85260",33.619564000000004,-111.90036200000002
"85255","Scottsdale","AZ","Cameron Rohner","14700 N Frank Lloyd Wright Blvd","85260",33.61983108520508,-111.87451934814453
"85255","Scottsdale","AZ","Arizona Desert Iron Doors","8310 E Remuda Dr","85255",33.722122999999996,-111.900402
"85255","Scottsdale","AZ","Dunn-Edwards Paints","8686 E Frank Lloyd Wright Blvd","85260",33.630756,-111.89330600000001
"85255","Scottsdale","AZ","Sherwin-Williams Paint Store","15125 N Hayden Rd","85260",33.62303161621094,-111.90308380126953
"85255","Scottsdale","AZ","Luxury Remodels Company","8350 E Evans Rd Ste B7","85260",33.61744689941406,-111.90023040771484
"85255","Scottsdale","AZ","Ewing Irrigation","8381 E Gelding Dr","85260",33.615192,-111.899973
"85255","Scottsdale","AZ","Sherwin-Williams Paint Store","13525 N Fountain Hills Blvd","85268",33.60840047488074,-111.72977685928345
"85255","Scottsdale","AZ","Dunn-Edwards Paints","8350 E Evans Rd #F2","85260",33.617618,-111.900237
"85257","Scottsdale","AZ","Lowe's","7950 East Mcdowell Road","85257",33.4672257,-111.9105922
"85257","Scottsdale","AZ","Paul's Ace Hardware","1800 N Scottsdale Rd","85257",33.467804,-111.92681
"85257","Scottsdale","AZ","Sherwin-Williams Paint Store","7794 E McDowell Rd","85257",33.46683120727539,-111.91256713867188
"85257","Scottsdale","AZ","Ewing Irrigation","1221 E Curry Rd","85281",33.440009,-111.91942
"85257","Scottsdale","AZ","minuteKEY","7950 E McDowell Rd","85257",33.467166,-111.910748
"85257","Scottsdale","AZ","Venus Manufacturing","707 E Curry Rd","85281",33.439733000000004,-111.928801
"85257","Scottsdale","AZ","Tank N Barrel","1148 East Gilbert Drive","85281",33.438076,-111.9209
"85258","Scottsdale","AZ","The Home Depot","9890 N 90th Street","85258",33.5764198,-111.8880688
"85258","Scottsdale","AZ","Franklin's Ace Hardware","9015 E Via Linda","85258",33.568758,-111.88643
"85258","Scottsdale","AZ","Scottsdale Home Service Plumbing","10115 E Mountain View Rd #2104","85258",33.5732307434082,-111.86460876464844
"85259","Scottsdale","AZ","Paul's Ace Hardware","11323 E Via Linda","85259",33.587491,-111.83688
"85260","Scottsdale","AZ","HD Kitchen & Bath Collection - Scottsdale","8355 E Butherus Dr","85260",33.621499,-111.900398
"85260","Scottsdale","AZ","WOW 1 DAY PAINTING Scottsdale","14362 N Frank Lloyd Wright Blvd #1000","85260",33.61657598261373,-111.87258839607237
"85263","Rio Verde","AZ","Tonto Basin Ace Hardware","45994 N Hwy 188","85553",33.8559399,-111.3110666
"85264","Fort Mcdowell","AZ","Sears","13212 N. Saguaro Blvd.","85268",33.6063599,-111.7146544
"85266","Scottsdale","AZ","Sherwin-Williams Paint Store","34462 N Scottsdale Rd","85266",33.798014,-111.92983000000001
"85281","Tempe","AZ","Paul's Ace Hardware","929 E Broadway Rd","85282",33.407434,-111.92501
"85281","Tempe","AZ","National Coatings & Supplies","2173 E 5th St","85281",33.425268,-111.892866
"85281","Tempe","AZ","Principal Door Service LLC.","2009 E. 5th St.","85281",33.42561,-111.90015
"85281","Tempe","AZ","Structural Materials - A Beacon Roofing Supply Company","1850 E Encanto Dr","85281",33.410854,-111.90566299999999
"85281","Tempe","AZ","AAA Paint and Supply","1425 E University Dr Ste B101","85281",33.420562744140625,-111.9154052734375
"85281","Tempe","AZ","Fishers Tools","not_available","85281",33.427695,-111.901206
"85281","Tempe","AZ","Dunn-Edwards Paints","1872 E Broadway Rd","85282",33.408944,-111.906175
"85281","Tempe","AZ","Ferguson Plumbing Supply","1720 S Los Feliz","85282",33.40961837768555,-111.9049072265625
"85281","Tempe","AZ","A-Z Glass Co.","64 East Broadway Road Suite 200","85282",33.4080668,-111.939487
"85281","Tempe","AZ","Airtek Air Inc","228 S Clark Dr","85281",33.427634999999995,-111.899173
"85282","Tempe","AZ","The Home Depot","1330 W Baseline Rd","85283",33.3790924,-111.9602398
"85282","Tempe","AZ","Paul's Ace Hardware","1153 W Broadway Rd","85282",33.4068359,-111.95699
"85282","Tempe","AZ","Sears","5000 S. Arizona Mills Circle, Suite 625","85282",33.38340038414724,-111.96433067321777
"85282","Tempe","AZ","Blaze Precision Inc.","4820 S Ash Ave #101","85282",33.38107681274414,-111.94258117675781
"85282","Tempe","AZ","Valley Ace Hardware","1805 E Baseline Rd Ste 1","85283",33.3782259,-111.90841
"85282","Tempe","AZ","TopDog Heavy Equipment Parts (Happy Father's Day from TopDog Heavy Equipment Parts)","5032 S Ash Ave #110","85282",33.379054,-111.94229
"85282","Tempe","AZ","Tempe Power Equipment, LLC","807 W Geneva Dr","85282",33.394343,-111.94995300000001
"85282","Tempe","AZ","Heliocol","2305 w. Huntington drive","not_available",33.39404143539583,-111.97264098183271
"85282","Tempe","AZ","Lincoln Garage Doors","not_available","85282",33.393949,-111.952297
"85282","Tempe","AZ","Tempe Abrasives, Inc","2207 S 48th St Ste F","85282",33.404262,-111.976968
"85282","Tempe","AZ","The Home Depot Paint Department","not_available","85283",33.379615,-111.960046
"85283","Tempe","AZ","Lowe's","777 East Baseline Road","85283",33.3767071,-111.9308807
"85283","Tempe","AZ","Appliance Parts Company Of Arizona","6825 S Kyrene Rd","85283",33.357874,-111.945146
"85283","Tempe","AZ","All Star Materials","9031 S Interstate 10","85283",33.365404999999996,-111.967689
"85283","Tempe","AZ","minuteKEY","777 E Baseline Rd","85283",33.376694,-111.931041
"85283","Tempe","AZ","Same Day Garage Door Services","6100 S Maple Ave #107","85283",33.36679,-111.93896
"85283","Tempe","AZ","Roman Roofing Inc.","5315 S River Dr","85283",33.376182,-111.896961
"85283","Tempe","AZ","Arizona Flooring And Interiors","6485 S Rural Rd","85283",33.362389,-111.927958
"85283","Tempe","AZ","Sherwin-Williams Paint Store","1805 E Baseline Rd","85283",33.377340000000004,-111.90775500000001
"85284","Tempe","AZ","The Home Depot","725 W Warner Rd","85284",33.33337878631539,-111.94872826337814
"85284","Tempe","AZ","Harbor Freight Tools","1860 E Warner Rd Ste 103E","85284",33.33546429510146,-111.90765330937772
"85284","Tempe","AZ","Crane Rental Svc Inc","1115 W Ranch Rd","85284",33.33216,-111.95672
"85284","Tempe","AZ","Leslie's Swimming Pool Supplies","1761 E Warner Rd","85284",33.33350427952414,-111.91270351409912
"85284","Tempe","AZ","Leslie's Pool Supplies","not_available","85284",33.348045,-111.95790600000001
"85284","Tempe","AZ","Monark Premium Appliance and Clearance Center","9025 S Kyrene Rd","85284",33.331548,-111.944744
"85284","Tempe","AZ","San Plumbing Supply","1221 W Warner Rd","85284",33.33406066894531,-111.96009826660156
"85286","Chandler","AZ","The Home Depot","2530 E Germann Rd","85286",33.2811492,-111.7970579
"85286","Chandler","AZ","Lumber Liquidators, Inc.","2460 E Germann Rd Ste 8 Bldg 2","85286",33.281269016783476,-111.7988663687749
"85286","Chandler","AZ","Sears","2100 S Gilbert Rd #7","85286",33.27665984630585,-111.79175198078156
"85286","Chandler","AZ","Sears","2100 S Gilbert Road, Suite #7","85286",33.276233000000005,-111.79176100000001
"85286","Chandler","AZ","pool supply","not_available","85248",33.262969970703125,-111.85040283203125
"85286","Chandler","AZ","Ace Hardware","2925 S Alma School Rd #5","85286",33.26344435478498,-111.8575291695843
"85286","Chandler","AZ","Four Seasons Pool Service","2040 S Alma School Rd","85286",33.27396328282669,-111.85962688949076
"85286","Chandler","AZ","The Drip Store","221 E Willis Rd #7","85286",33.283050537109375,-111.83818054199219
"85295","Gilbert","AZ","Sherwin-Williams Paint Store","2473 S Higley Rd","85295",33.305647,-111.720456
"85295","Gilbert","AZ","Dunn-Edwards Paints","1514 E Ray Rd","85296",33.321611606045785,-111.75743994186836
"85295","Gilbert","AZ","Southwest Blinds & Shutters","1451 East Williams Field Road","85295",33.3054144,-111.75885119999998
"85295","Gilbert","AZ","Higley Feed and Supply","16701 E Williams Field Rd","85295",33.30676614,-111.72332464
"85296","Gilbert","AZ","The Home Depot","745 S Val Vista Dr","85296",33.3371434,-111.7535536
"85296","Gilbert","AZ","loews","not_available","85297",33.33471660428909,-111.72251166459007
"85296","Gilbert","AZ","Athena's Window Fashions","690 E Warner Rd","85296",33.33666306353529,-111.7753529548645
"85298","Gilbert","AZ","Leslie's Swimming Pool Supplies","not_available","85298",33.262665,-111.757364
"85301","Glendale","AZ","Lowe's","5809 West Northern Avenue","85301",33.5511505,-112.1840758
"85301","Glendale","AZ","Ferguson HVAC Supply","6864 Nw Grand Ave","85301",33.556675,-112.20638100000001
"85301","Glendale","AZ","Sine Ace Hardware","7150 N 51st Ave","85301",33.5411,-112.1687
"85301","Glendale","AZ","Ramsey Welding Supply, Inc.","6805 N 55th Ave","85301",33.537101,-112.17700900000001
"85301","Glendale","AZ","5449 N 51st Ave # 104 Glendale‎ AZ‎ 85301","5449 N 51st Ave #104","85301",33.51591491699219,-112.16815948486328
"85301","Glendale","AZ","Mark's Bolts Nuts & Surplus","6710 W Belmont Ave","85303",33.54808328324135,-112.20379829406738
"85301","Glendale","AZ","Glendale Steel Supply","5743 W Bethany Home Rd","85301",33.523088,-112.18360600000001
"85301","Glendale","AZ","Sherwin Williams","7029 N 57th Ave","85301",33.539648942317584,-112.18083588032684
"85301","Glendale","AZ","Stewart Building Supply","not_available","85345",33.558839838636814,-112.20922751264209
"85301","Glendale","AZ","The House Of Canvas and Fine Wrought Iron","5541 N 59th Ave","85301",33.5186077,-112.18572499999999
"85301","Glendale","AZ","Sherwin-Williams Paint Store","5957 W Northern Ave","85301",33.552688,-112.189114
"85301","Glendale","AZ","Roofing Supply of Arizona","5307 W Missouri Ave","85301",33.51603,-112.17268600000001
"85301","Glendale","AZ","Ferguson","6864 nw grand ave","85345",33.56326,-112.208327
"85301","Glendale","AZ","Best Brothers Lawn Equipment","5549 W Glendale Ave","85301",33.53837,-112.179496
"85302","Glendale","AZ","Harbor Freight Tools","6750 W Peoria Ave","85345",33.58268737792969,-112.20425415039062
"85302","Glendale","AZ","The Home Depot","5902 W Peoria Ave","85302",33.5833899,-112.187936
"85302","Glendale","AZ","Ace Hardware","4498 W Peoria Ave","85302",33.582348,-112.155611
"85302","Glendale","AZ","American Freight (Sears Outlet) - Appliance, Furniture, Mattress","5734 W Peoria Avenue","85302",33.5830417,-112.1832448
"85303","Glendale","AZ","Rock 'N Rollin' Rock Sales","8439 N 83rd Ave","85345",33.558246000000004,-112.23681699999999
"85303","Glendale","AZ","Fence Shop","7840 W Rancho Dr","85303",33.520964,-112.228123
"85305","Glendale","AZ","Direct Tools Factory Outlet","6800 N 95th Ave","85305",33.53362785124631,-112.26705150658361
"85305","Glendale","AZ","earthcore","not_available","85307",33.550086975097656,-112.28205108642578
"85306","Glendale","AZ","Harbor Freight Tools","4925 W Bell Rd Ste C8","85308",33.63789141208164,-112.16681964063272
"85306","Glendale","AZ","Sprinkler World","16700 N 51st Ave","85306",33.637797,-112.17121000000002
"85306","Glendale","AZ","garage door repair Glendale","5820 W Greenway Rd","85306",33.62519454956055,-112.183837890625
"85306","Glendale","AZ","Ace Hardware","5140 W Thunderbird Rd","85306",33.612016602641525,-112.17009767381231
"85306","Glendale","AZ","minuteKEY","5845 W Bell Rd","85308",33.63703536987305,-112.18498992919922
"85306","Glendale","AZ","Homeowner's Plumbing Supply","5118 W Thunderbird Rd","85306",33.612203,-112.169634
"85306","Glendale","AZ","Smokey's Door Company","15420 N 67th Ave","85306",33.626484999999995,-112.20302099999999
"85306","Glendale","AZ","A World of Tile","5191 W Bell Rd","85308",33.637797,-112.17121000000002
"85307","Glendale","AZ","Ace Hardware","13820 W Camelback Rd","85340",33.51028604841476,-112.35711133246399
"85307","Glendale","AZ","All Star Materials","7243 N El Mirage Rd","85307",33.541106823775685,-112.32357979423529
"85307","Glendale","AZ","Apple Sharp Sharpening Service","5115 N Dysart Rd # 202-411","85340",33.5096,-112.34
"85307","Glendale","AZ","Brown's Partsmaster Inc","7280 N Glen Harbor Blvd","85307",33.541181820818046,-112.29327266493864
"85307","Glendale","AZ","Ace Hardware","5110 N Dysart Rd Ste 140","85340",33.5089179,-112.342304
"85307","Glendale","AZ","Tools West 103","9009 N 103rd Ave","85351",33.56616,-112.280629
"85308","Glendale","AZ","The Home Depot","6160 W Behrend Dr","85308",33.66707269686525,-112.19048917293549
"85308","Glendale","AZ","Sears","7780 W Arrowhead Towne Ctr","85308",33.64264173,-112.22672061
"85308","Glendale","AZ","Ace Hardware","20165 N 67th Ave","85308",33.6639419,-112.20148
"85308","Glendale","AZ","The Home Depot","6880 W Bell Rd","85308",33.6392507,-112.2064339
"85308","Glendale","AZ","Glendale Plumbing and Drain Pros","6740 W Deer Valley Rd #166","85310",33.682857513427734,-112.20443725585938
"85308","Glendale","AZ","Sherwin-Williams Paint Store","5612 W Bell Rd","85308",33.640597,-112.181125
"85308","Glendale","AZ","Ewing Irrigation","19085 N 83rd Ave Ste B","85382",33.657115999999995,-112.236953
"85308","Glendale","AZ","Triyoung Business Solutions","20100 N 51st Ave Ste F640","85308",33.6669432216431,-112.16991662979126
"85308","Glendale","AZ","Dunn-Edwards Paints","19027 N 83rd Ave #103","85382",33.656595,-112.236971
"85308","Glendale","AZ","Sherwin-Williams Paint Store","19205 N 83rd Ave","85382",33.658181,-112.237004
"85308","Glendale","AZ","Bullfrog Spas Glendale","20219 N 59th Ave","85308",33.66935348510742,-112.18453216552734
"85308","Glendale","AZ","Arizona Waste Recovery Inc","5323 W Campo Bello Dr","85308",33.641771000000006,-112.17378000000001
"85308","Glendale","AZ","southwest sun screens","20381 N 74th Ln","85308",33.670309,-112.21961399999999
"85321","Ajo","AZ","Ace Hardware","1961 N Ajo Gila Bend Hwy","85321",32.392325,-112.87297
"85321","Ajo","AZ","Olsens Market Place","1961 Ajo Gila Bend Hwy","85321",32.392325,-112.87297
"85321","Ajo","AZ","Ajo True Value Hardware","1530 N Washington Ave","85321",32.385684967041016,-112.87088012695312
"85323","Avondale","AZ","Lowe's","13191 W McDowell Rd","85395",33.4617576,-112.3432235
"85323","Avondale","AZ","The Home Depot","1489 N Dysart Rd","85323",33.4555101,-112.3386117
"85323","Avondale","AZ","Harbor Freight Tools","1450 N Dysart Rd Ste B4","85323",33.44890010496429,-112.34250184636586
"85323","Avondale","AZ","Sherwin-Williams Paint Store","1579 N Dysart Rd","85392",33.463732,-112.339151
"85323","Avondale","AZ","Copperstate Bolt & Nut","99 th ave","not_available",33.454705,-112.27326799999999
"85323","Avondale","AZ","Appliance Parts Company","1595 N 113th Ave #104","85392",33.462621,-112.300821
"85323","Avondale","AZ","garage door repair Avondale","1101  N  6th  Ss","85323",33.444548567623215,-112.3441743850708
"85323","Avondale","AZ","A To Z Equipment Rentals","803 E Van Buren St","85323",33.449064,-112.34036100000002
"85323","Avondale","AZ","Matco Tool Truck","651 N 101st Ave","85323",33.45300812687649,-112.27576732635498
"85323","Avondale","AZ","Sears","13277 W McDowell Road, Suite #101","85338",33.4617724,-112.3442782
"85323","Avondale","AZ","Trane","407 S 107th Ave","85353",33.444634,-112.285094
"85323","Avondale","AZ","snap-on tool truck","Moble","not_available",33.4532061481376,-112.27471233225761
"85323","Avondale","AZ","Dunn-Edwards Paints","1468 N Litchfield Rd #M10","85395",33.462860107421875,-112.35955047607422
"85323","Avondale","AZ","Gabriel's Appliance Parts & Service, LLC","401 W Van Buren St Ste C","85323",33.449432373046875,-112.35220336914062
"85323","Avondale","AZ","Fastenal","9950 W Van Buren St Ste A-111","85323",33.450835,-112.27438000000001
"85323","Avondale","AZ","Snap-on","101st Ave And Pierce","85323",33.45286096390892,-112.27553313299141
"85323","Avondale","AZ","Foundation Building Materials","1419 North Eliseo Felix Junior Way","85323",33.44692739,-112.33640716
"85323","Avondale","AZ","City Electric Supply Tolleson","407 S 107th Ave Ste 2 Bldg A","85353",33.44724765949064,-112.28912204504013
"85326","Buckeye","AZ","Lowe's","700 South Watson Road","85326",33.440577,-112.559372
"85326","Buckeye","AZ","Preach Building & Landscape Supply","601 N Jackrabbit Trl","85326",33.45425237338905,-112.47832775115967
"85326","Buckeye","AZ","C-A-L Ranch Stores","2075 N Pebble Creek Pkwy","85395",33.46970102621982,-112.38994359970093
"85326","Buckeye","AZ","Ewing Irrigation","1031 N Jackrabbit Trail","85326",33.45860290527344,-112.47832489013672
"85326","Buckeye","AZ","City Electric Supply","401 E Clanton Ave","85326",33.367912,-112.586037
"85326","Buckeye","AZ","Karsten's Ace Hardware","610 N Estrella Pkwy","85338",33.4538,-112.393
"85326","Buckeye","AZ","Leslies Pool Supplies","not_available","85326",33.4392806335526,-112.55759424461971
"85326","Buckeye","AZ","San Plumbing Supply (Van Marcke Trade Supply)","not_available","85338",33.45094,-112.364421
"85326","Buckeye","AZ","garage door repair Buckeye","1300 S Watson Rd","85326",33.435075,-112.558697
"85326","Buckeye","AZ","Elephant Room Garage Door & Coating Service","20586 W Valley View Dr","85396",33.47311,-112.5057
"85326","Buckeye","AZ","garage door repair Goodyear","14441 W McDowell Rd","85395",33.463549,-112.36983000000001
"85326","Buckeye","AZ","Sherwin-Williams Paint Store","790 N Estrella Pkwy","85338",33.455569,-112.392995
"85326","Buckeye","AZ","minuteKEY","700 S Watson Rd","85326",33.44080352783203,-112.55884552001953
"85326","Buckeye","AZ","Hometown True Value Hardware","1511 E Mc 85","85326",33.3771449,-112.56813
"85326","Buckeye","AZ","Out West General Store","17121 W Glendale Ave","85355",33.536844,-112.427778
"85326","Buckeye","AZ","minuteKEY","1060 S Watson Rd","85326",33.437034606933594,-112.55960083007812
"85326","Buckeye","AZ","Tractor Supply Co.","2555 South Miller Rd","85326",33.4231,-112.58992
"85331","Cave Creek","AZ","The Home Depot","4925 E Carefree Hwy","85331",33.7972569,-111.9752661
"85331","Cave Creek","AZ","Tractor Supply Co.","34350 North Cave Creek Rd Building A","85331",33.796904232395505,-111.96665208465576
"85331","Cave Creek","AZ","Lowe's","34700 N Cave Creek Rd","85331",33.8009377,-111.9634517
"85331","Cave Creek","AZ","Karsten's Ace Hardware","36889 N Tom Darlington Dr","85377",33.8207999,-111.9242
"85331","Cave Creek","AZ","Cave Creek Building Supply","6948 E Cave Creek Rd","85331",33.82983467,-111.9312515
"85331","Cave Creek","AZ","Karsten's Ace Hardware","28220 N Tatum Blvd","85331",33.7413,-111.979
"85331","Cave Creek","AZ","garage door repair Cave Creek","4815 E Carefree Highway","85331",33.79776539747171,-111.97420120239258
"85331","Cave Creek","AZ","Dunn-Edwards Paints","5350 E Carefree Hwy","85331",33.79983139038086,-111.96661376953125
"85334","Ehrenberg","AZ","Ace Hardware Inland Builders Supply","1224 W Hobsonway","92225",33.60904382162946,-114.6104907989502
"85334","Ehrenberg","AZ","Sears","155 N Spring Street","92225",33.6115675,-114.5984017
"85335","El Mirage","AZ","Concrete Reinforcements","13450 W Peoria Ave","85379",33.580685,-112.349014
"85337","Gila Bend","AZ","Hometown Hardware","219 W Pima St","85337",32.946598,-112.71943
"85339","Laveen","AZ","The Home Depot","5230 W Baseline Rd","85339",33.3797635,-112.1722812
"85339","Laveen","AZ","The Plumber's Choice","3655 E La Salle St","85040",33.396699,-112.00178999999999
"85339","Laveen","AZ","Copper State Bolt & Nut Co.","3831 E Broadway Rd","85040",33.406838,-111.99791200000001
"85339","Laveen","AZ","Broadway Paints","32 E Broadway Rd","85040",33.406847,-112.072645
"85339","Laveen","AZ","Stud Welding Products","3535 E Wier Ave Ste 4","85040",33.40284545441404,-112.00573062164476
"85339","Laveen","AZ","Younger Brothers Door & Trim","3910 E Wier Ave","85040",33.404237,-111.996894
"85342","Morristown","AZ","Tractor Supply Co.","1860 West Wickenburg Way","85390",33.962887,-112.76853
"85342","Morristown","AZ","Johnson Lumber & True Value Hardware","188 E Yavapai St","85390",33.97096493,-112.7301979
"85342","Morristown","AZ","Ace Hardware","275 N Tegner #2","85390",33.970233,-112.73207
"85344","Parker","AZ","Davis Building Supply & Ace Hdwe","1408 S Joshua Ave","85344",34.1459049,-114.28826
"85344","Parker","AZ","Colorado River Building Materials","600","85344",34.15237808227539,-114.28593444824219
"85344","Parker","AZ","Herbs True Value Hardware","240 N Central","85346",33.671009,-114.217517
"85344","Parker","AZ","Johnson Brothers Hardware And Auto Supply","551513 Us Hwy 1","32046",33.930720249137245,-114.4311261177063
"85344","Parker","AZ","Spanky's RV & Marine Supply","1012 S Joshua Ave","85344",34.14915466308594,-114.29042053222656
"85344","Parker","AZ","Sears","1009 Arizona Ave","85344",34.146414018637216,-114.28890985320317
"85344","Parker","AZ","Best","not_available","85344",34.158268,-114.26956
"85345","Peoria","AZ","Sherwin-Williams Paint Store","9275 W Peoria Ave","85345",33.580406188964844,-112.25746154785156
"85345","Peoria","AZ","The Home Depot","9201 W Peoria Ave","85345",33.579163125360466,-112.2572544031209
"85345","Peoria","AZ","Sherwin-Williams Paint Store","9700 N 91st Ave","85345",33.571754999999996,-112.25586200000001
"85345","Peoria","AZ","Standard Plumbing - Peoria","9111 W Grand Ave","85345",33.592275,-112.256193
"85345","Peoria","AZ","minuteKEY","7975 W Peoria Ave","85345",33.578956604003906,-112.23018646240234
"85345","Peoria","AZ","Dunn-Edwards Paints","9156 W Peoria Ave","85345",33.581369,-112.25643500000001
"85345","Peoria","AZ","Copper State Bolt & Nut Co","8936 N 79th Ave","85345",33.566297,-112.228852
"85345","Peoria","AZ","Farnsworth Wholesale","8051 W Olive Ave","85345",33.565921,-112.232315
"85345","Peoria","AZ","Ace Hardware","11125 W Arizona Ave","85363",33.5922389,-112.29991
"85345","Peoria","AZ","Ruggiero's Ace Hardware","7465 W Cactus Rd #102","85381",33.594507,-112.218977
"85345","Peoria","AZ","City Electric Supply Peoria","9800 N 91st Ave Ste 112","85345",33.573547,-112.25572
"85345","Peoria","AZ","Graybar Electric","9700 N 91st Ave Ste 108","85345",33.571754999999996,-112.25586200000001
"85345","Peoria","AZ","JTRC Small Engine Repair","9802 N 91st ave, 120","85345",33.57365036010742,-112.25645446777344
"85345","Peoria","AZ","Datalink Communications","10401 N 95th Dr Apt B","85345",33.57892990112305,-112.26420593261719
"85345","Peoria","AZ","Lumber Liquidators, Inc.","9700 N.91st Avenue, #124","85345",33.57225948942383,-112.25586892082583
"85349","San Luis","AZ","Llantas y rines El Aguila","Obregón","not_available",32.47247894892816,-114.74518363835426
"85349","San Luis","AZ","Iga Grocery & Ace Hardware","656 San Luis Plaza Dr","85349",32.4915999,-114.7812
"85350","Somerton","AZ","Madereria el libano","Tlaxcala y 22","not_available",32.44743,-114.76115
"85350","Somerton","AZ","Del Sol & Ace Hardware","415 Main Street","85350",32.5837999,-114.6981
"85350","Somerton","AZ","Remington Steel","3424 W County 15th St","85350",32.61227798461914,-114.64629364013672
"85351","Sun City","AZ","Ace Hardware","10050 W Bell Rd Ste 26a","85351",33.6382279,-112.27771
"85351","Sun City","AZ","Sun City True Value","15400 N 99th Ave","85351",33.621804,-112.27111299999999
"85351","Sun City","AZ","Custom Flash Drive At Same Day Flash","10317 W Oakmont Dr","85351",33.5971565246582,-112.28264617919922
"85353","Tolleson","AZ","Tractor Supply Co.","789 North 99th Ave","85353",33.45454776742074,-112.27148652076721
"85353","Tolleson","AZ","Snap-on Tool Truck","91st  Ave And Pierce","85037",33.46222310352265,-112.24949435096903
"85353","Tolleson","AZ","Tolleson Steel","not_available","85353",33.450683000000005,-112.25756200000001
"85353","Tolleson","AZ","A-1 Materials","9503 W Buckeye Rd","85353",33.4351403,-112.2640983
"85355","Waddell","AZ","Dunn-Edwards Paints","15495 W Bell Rd #100","85374",33.638353042896775,-112.39353201071172
"85355","Waddell","AZ","CARRANO PAINTING","14965 W Caribbean Ln","85379",33.62321410308071,-112.38373160362244
"85355","Waddell","AZ","Sherwin-Williams Paint Store","15571 N Litchfield Rd","85374",33.6251335144043,-112.35870361328125
"85356","Wellton","AZ","Wellton-Mohawk Co-Op Ace","30570 E Wellton Mohawk Dr","85356",32.6717999,-114.142
"85364","Yuma","AZ","The Home Depot","1111 S Redondo Center Dr","85365",32.70737922610033,-114.61203306913376
"85364","Yuma","AZ","Lowe's","115 West 32nd Street","85364",32.6680657,-114.6214295
"85364","Yuma","AZ","CSC of Yuma","not_available","85365",32.67821492180882,-114.58200814711026
"85364","Yuma","AZ","Lucky Metals Recycling Center","3200-3356 Old US Highway 80","85365",32.66993737170815,-114.57597031368255
"85364","Yuma","AZ","Airgas","2192 E 16th St","85365",32.69874,-114.596792
"85364","Yuma","AZ","LG Paint Store","1717 S Arizona Ave","85364",32.69597,-114.615507
"85364","Yuma","AZ","Ferguson HVAC Supply","2166 S Factor Ave","85365",32.68834477313918,-114.61421267003647
"85364","Yuma","AZ","Harbor Freight Tools","101 W 16th St Ste B","85364",32.69768350163285,-114.62114854020335
"85364","Yuma","AZ","LG Paint Store","1701 S Avenue B","85364",32.69733810424805,-114.64998626708984
"85364","Yuma","AZ","Yuma Winnelson","2100-2122 E 13th St","85365",32.704405188560486,-114.59855496883392
"85364","Yuma","AZ","Sherwin-Williams Paint Store","101 W 16th St","85364",32.69761276245117,-114.62140655517578
"85364","Yuma","AZ","Tractor Supply Co.","2221 West 32nd St","85364",32.668220004675554,-114.6468400118866
"85364","Yuma","AZ","CSC of Yuma","2732 S Avenue 3 E, Yuma, AZ 85365","85365",32.678199768066406,-114.58219909667969
"85364","Yuma","AZ","Sun Rental & Sales","3089 E 33rd Pl","85365",32.66642,-114.57996
"85364","Yuma","AZ","Valley Sand & Gravel","3206 E Hwy # 95","85364",32.6693962,-114.6501186
"85364","Yuma","AZ","Copper State Bolt & Nut Co.","2995 S Shari Ave, Yuma, AZ 85365","85365",32.67364426666666,-114.56067577622896
"85364","Yuma","AZ","Southwest Lumber True Value","1917 S Avenue B","85364",32.69266989897385,-114.65004924291364
"85364","Yuma","AZ","Ferguson Plumbing Supply","3267 E 33rd Pl","85365",32.66659358,-114.57647389
"85365","Yuma","AZ","Tractor Supply Co.","10637 East South Frontage Rd","85365",32.66899938,-114.4489938
"85365","Yuma","AZ","Foxworth Galbraith","not_available","85367",32.66907675632058,-114.45223372893815
"85365","Yuma","AZ","Foothill Hardware and Lumber ""Do it Center""","11748 S Foothills Blvd","85367",32.658372,-114.41060900000001
"85373","Sun City","AZ","Lowe's","25311 N Lake Pleasant Parkway","85383",33.7125175,-112.2681829
"85373","Sun City","AZ","garage door repair Peoria","20403 N Lake Pleasant Rd","85382",33.6689338684082,-112.2793197631836
"85373","Sun City","AZ","Rock4Less AZ","10115 W Patrick Lane","85383",33.69080801532165,-112.27628767490387
"85374","Surprise","AZ","The Home Depot","13760 W Bell Rd","85374",33.6403485,-112.3565877
"85374","Surprise","AZ","Lowe's","13363 W Grand Avenue","85374",33.6359616,-112.3493113
"85374","Surprise","AZ","Sunwest True Value","13599 W Camino Del Sol","85375",33.654435,-112.35362099999999
"85374","Surprise","AZ","Ace Hardware","17026 W Bell Rd","85374",33.6390999,-112.4251
"85374","Surprise","AZ","Harbor Freight Tools","12875 W Bell Rd","85378",33.638221740722656,-112.33744812011719
"85374","Surprise","AZ","Ace Hardware","13850 W Camino Del Sol","85375",33.65681,-112.360472
"85374","Surprise","AZ","Rich Tool Deals","13238 W Mesa Verde Dr","85375",33.66333770751953,-112.34027862548828
"85374","Surprise","AZ","minuteKEY","13363 W Grand Ave","85374",33.635933,-112.350012
"85374","Surprise","AZ","Sherwin-Williams Paint Store","14039 W Grand Ave","85374",33.650088000000004,-112.36573200000001
"85374","Surprise","AZ","City Electric Supply Surprise","13260 West Foxfire Drive, Suite 7 & 8","85378",33.6425325,-112.3456252
"85374","Surprise","AZ","Sears","13980 W Bell Road, Suites 10-14","85374",33.64042901115696,-112.36135653686688
"85374","Surprise","AZ","Ewing Irrigation","17194 N Dysart Rd","85378",33.640786,-112.342669
"85374","Surprise","AZ","Leslie's Pool Supplies","14557 W Grand Ave","85374",33.656762,-112.37625700000001
"85381","Peoria","AZ","Lowe's","8497 West Thunderbird Road","85381",33.6085246,-112.241567
"85381","Peoria","AZ","Premier","not_available","85381",33.612216,-112.247701
"85381","Peoria","AZ","Hardware Unlimited","7608 W Cactus Rd","85381",33.596703999999995,-112.222852
"85381","Peoria","AZ","minuteKEY","7421 W Thunderbird Rd","85381",33.60932540893555,-112.21847534179688
"85381","Peoria","AZ","minuteKEY","8497 W Thunderbird Rd","85381",33.6084109,-112.241775
"85382","Peoria","AZ","Ben Franklin Plumbing","not_available","85382",33.634515,-112.244751
"85382","Peoria","AZ","Ez Payday Loanz","20035 N 91st Ln","85382",33.666579999999996,-112.25708700000001
"85382","Peoria","AZ","Appliance Parts Company","8581 W Kelton Ln","85382",33.63431,-112.24548300000001
"85382","Peoria","AZ","Hardware Plus","8285 W Lake Pleasant Pkwy","85382",33.669321999999994,-112.23980800000001
"85383","Peoria","AZ","The Home Depot","25650 N Lke Pleasant Pky","85383",33.7165385,-112.2751763
"85390","Wickenburg","AZ","John Deere","not_available","85375",33.63872785634578,-112.619780560848
"85501","Globe","AZ","Ace Hardware.","1930 E Ash St","85501",33.386240231898974,-110.75999736785889
"85501","Globe","AZ","Midstate pipe","not_available","85539",33.4092874,-110.8435028
"85501","Globe","AZ","AAA Lock Service","660 W Ash St","85501",33.399787,-110.791302
"85501","Globe","AZ","Pinal Lumber","1780 E Ash St","85501",33.38977871364591,-110.76276540756226
"85501","Globe","AZ","Tractor Supply Co.","2260 West Hwy 60","85539",33.414902,-110.826475
"85530","Bylas","AZ","San Carlos True Value Hardware And Lumber","Hwy 70 And Moon Base Road","85542",33.2927569,-110.4355863
"85533","Clifton","AZ","Ace Hardware","172 Plaza Drive #56","85540",33.0519699,-109.32881
"85533","Clifton","AZ","Vallen","4521 N US Highway 191","85540",33.05574035644531,-109.32762145996094
"85541","Payson","AZ","The Home Depot","2000 North Beeline Hwy","85541",34.267112086414485,-111.32429659366608
"85541","Payson","AZ","Paul's Ace Hardware","507 N Beeline Hwy","85541",34.246907,-111.32208
"85541","Payson","AZ","Pine Hardware","not_available","85544",34.382286,-111.452694
"85541","Payson","AZ","Tractor Supply Co.","510 East State Hwy 260","85541",34.24188232421875,-111.3149642944336
"85541","Payson","AZ","Home Center Supply True Value","202 N Beeline Hwy","85541",34.24360866,-111.3228697
"85541","Payson","AZ","(IMS) Iman motor sport","Arizona","85554",34.0489281,-111.0937311
"85543","Pima","AZ","The Home Depot","750 S 20th Avenue","85552",32.83282532334417,-109.73471224308014
"85543","Pima","AZ","Safford Building & Ace Hardware","707 S 6th Ave","85546",32.832037,-109.71412
"85543","Pima","AZ","City Electric Supply Safford","1982  W. Thatcher Blvd","85546",32.837978480193215,-109.73210110805599
"85543","Pima","AZ","h & s","not_available","85546",32.8338,-109.707
"85543","Pima","AZ","Tractor Supply Co.","2411 West Us Hwy 70","85552",32.840565,-109.74018
"85602","Benson","AZ","Benson Ace Hardware","591 W 4th St","85602",31.9704799,-110.30578
"85602","Benson","AZ","Benson Lumber","164 E 5th St","85602",31.96718406677246,-110.29685974121094
"85602","Benson","AZ","Tractor Supply Co.","350 South Ocotillo Ave","85602",31.96670170444115,-110.30816609325406
"85603","Bisbee","AZ","Ace Hardware","1220 S Naco Hwy","85603",31.3884809,-109.92033
"85603","Bisbee","AZ","B & D Lumber","Bisbee Road","85603",31.420824944121843,-109.88642438124107
"85603","Bisbee","AZ","Merc On Main","23 Main Street","85603",31.441864013671875,-109.91590881347656
"85607","Douglas","AZ","B & D Hardware","1010 N H Ave","85607",31.344070339873053,-109.55682925161976
"85607","Douglas","AZ","Tractor Supply Co.","215 West 9th St","85607",31.342678000000003,-109.5668
"85607","Douglas","AZ","Cochise Supplies Inc","23 E 9th St","85607",31.3434065,-109.5612553
"85614","Green Valley","AZ","Sahuarita Ace Hardware","18785 S I 19 Frontage Rd","85614",31.9092239,-110.98445
"85614","Green Valley","AZ","Ace Hardware","115 W Esperanza Blvd","85614",31.86933270446638,-110.99219065112634
"85614","Green Valley","AZ","Tractor Supply Co.","75 North Abrego Dr","85614",31.871515,-110.989062
"85614","Green Valley","AZ","Sears","115 W. Esperanza, Suite 115A","85614",31.8683882,-110.9923556
"85614","Green Valley","AZ","minuteKEY","18680 S. Nogales Hwy.","85629",31.911875,-110.9821
"85614","Green Valley","AZ","Green Valley True Value","220 W Continental Rd","85614",31.853283,-110.995929
"85615","Hereford","AZ","The Home Depot","3500 Avenida Cochise","85635",31.5302782,-110.2622192
"85618","Mammoth","AZ","Mammoth Lumber","203 Bluebird Ave","85618",32.721087,-110.64025600000001
"85619","Mount Lemmon","AZ","Ace Hardware","4751 E Sunrise Dr","85718",32.3086399,-110.89152
"85621","Nogales","AZ","Tractor Supply Co.","2165 North Grand Ave","85621",31.37199,-110.9337
"85621","Nogales","AZ","Robinsons True Value","128 N Morley Ave","85621",31.33439737,-110.9403294
"85621","Nogales","AZ","FH Hardware LLC","1279 W Frontage Rd Unit B","85648",31.487359094585845,-111.00789651274681
"85621","Nogales","AZ","The Home Depot","430 White Park Drive","85621",31.35922109196595,-110.93814969062805
"85621","Nogales","AZ","Harbor Freight Tools","570 W Mariposa Rd Ste C","85621",31.366918563842773,-110.94068908691406
"85621","Nogales","AZ","Nogales Ace Hardware","409 W Mariposa Rd","85621",31.365243911743164,-110.93913269042969
"85623","Oracle","AZ","San Manuel Hardware and Supply","510 S Avenue A","85631",32.601147,-110.631529
"85624","Patagonia","AZ","Sonoita Hardware","3149 Az-83","85637",31.67483,-110.65578
"85629","Sahuarita","AZ","Ace Hardware","16335 S Houghton Road","85641",31.9589199,-110.77242
"85629","Sahuarita","AZ","home depot","not_available","85629",31.9876766204834,-110.979248046875
"85632","San Simon","AZ","PWI # 605","2507 W Business I 10","85632",32.26765441894531,-109.22698974609375
"85634","Sells","AZ","Picture Rocks Hardware","6315 N Sandario Rd","85743",32.319668,-111.21868300000001
"85634","Sells","AZ","Avra Valley Hardware","not_available","85653",32.378885,-111.318364
"85634","Sells","AZ","Ace Hardware","16237 W Ajo Hwy","85735",32.076440000000005,-111.312372
"85634","Sells","AZ","Three Points General Store","16225 W Ajo Hwy","85735",32.07651108449208,-111.31245732307434
"85634","Sells","AZ","Ace Hardware","not_available","85634",32.03861194,-112.03108109
"85634","Sells","AZ","Murray's Installation","16131 W Spur Bell Ln","85653",32.405255301692264,-111.31030082702637
"85635","Sierra Vista","AZ","Tractor Supply Co.","4860 East Hwy 90","85635",31.553988,-110.247822
"85635","Sierra Vista","AZ","Lowe's","3700 Martin Luther King Parkway","85635",31.5572979,-110.2605588
"85635","Sierra Vista","AZ","Harbor Freight","3758 E Fry Blvd","85635",31.553103999999998,-110.259096
"85635","Sierra Vista","AZ","Sutherlands","493 N Highway 90 Byp","85635",31.559263229370117,-110.25397491455078
"85635","Sierra Vista","AZ","Ace Hardware","3756 E Fry Blvd","85635",31.55309,-110.259697
"85635","Sierra Vista","AZ","Ferguson Plumbing Supply","4244 E Industry Dr","85635",31.565238904521358,-110.25467777181089
"85635","Sierra Vista","AZ","Spare Time Tools Equipment Rental","950 E Wilcox Dr","85635",31.55208391472754,-110.2881812727643
"85635","Sierra Vista","AZ","Sherwin-Williams Paint Store","746 S Highway 92","85635",31.548331,-110.25814
"85635","Sierra Vista","AZ","crescent electric","not_available","85635",31.556412117706966,-110.29001385296469
"85635","Sierra Vista","AZ","City Electric Supply Sierra Vista","126 N 6th St","85635",31.5575789,-110.2927272
"85640","Tumacacori","AZ","Carmen Store","2035 E. Frontage Rd.","85640",31.587563,-111.052723
"85641","Vail","AZ","The Home Depot","7677 E Broadway Blvd","85710",32.2236388259966,-110.82794442772865
"85641","Vail","AZ","Lowe's","7105 East Speedway Boulevard","85710",32.236809,-110.8400688
"85641","Vail","AZ","Ace Hardware","6959 E 22nd St","85710",32.2067109,-110.84215
"85641","Vail","AZ","Ace Hardware","7451 S Houghton Rd","85747",32.1188999,-110.772
"85641","Vail","AZ","Ace Hardware","7119 E Tanque Verde Rd","85715",32.250576,-110.83971
"85641","Vail","AZ","Ace Hardware","2931 N Bear Canyon Rd","85749",32.259111,-110.80317
"85641","Vail","AZ","Dunn Edwards","7525 E Broadway Blvd","85710",32.221639752388,-110.83155870437622
"85641","Vail","AZ","Big D Floor Covering Supplies","7140 E Broadway Blvd","85710",32.21921,-110.840397
"85641","Vail","AZ","King United Locksmith","7598 S Hatch St","85747",32.113732,-110.78897099999999
"85641","Vail","AZ","BTHardware","Calle Arturo","not_available",32.216963,-110.836444
"85641","Vail","AZ","Sherwin-Williams Paint Store","8450 E Broadway Blvd","85710",32.220465999999995,-110.811806
"85641","Vail","AZ","Ferguson Plumbing Supply","8190 E 22nd Sreet","85710",32.220707,-110.836525
"85641","Vail","AZ","Brett Interiors Leather Furniture Gallery","7311 E Broadway Blvd","85710",32.22137,-110.836252
"85641","Vail","AZ","Ace Hardware","9581 E Golf Links Rd","85730",32.1874049,-110.78552
"85641","Vail","AZ","minuteKEY","7105 E Speedway Blvd","85710",32.23714065551758,-110.83968353271484
"85641","Vail","AZ","Ferguson HVAC Supply","1671 S Research Loop Ste 145","85710",32.202898,-110.82256799999999
"85641","Vail","AZ","Applebys Ornamental Iron","11030 E Tanque Verde Rd","85749",32.25028038024902,-110.75678944587708
"85641","Vail","AZ","Ace Hardware","8600 E Broadway Blvd","85710",32.2197699,-110.80875
"85641","Vail","AZ","Sherwin-Williams Paint Store","8130 S Houghton Rd","85747",32.103912353515625,-110.7733154296875
"85643","Willcox","AZ","Ace Hardware","914 W Rex Allen Dr","85643",32.264,-109.83759
"85658","Marana","AZ","Lowe's","not_available","85741",32.42599660554398,-111.0453217591138
"85701","Tucson","AZ","Benjamin Plumbing Supply","440 N 7th Ave","85705",32.227381,-110.96981399999999
"85701","Tucson","AZ","Bearing, Belt & Chain","430 W 22nd St, Tucson, AZ 85735","85735",32.207069396972656,-110.9759750366211
"85701","Tucson","AZ","Montroy Supply Co.","not_available","85719",32.21042,-110.9598
"85701","Tucson","AZ","HMS Fasteners","550 E 19th St","85701",32.210428,-110.96112099999999
"85701","Tucson","AZ","Ace Hardware","745 E 9th St","85719",32.2237999,-110.9603
"85701","Tucson","AZ","Canyon Pipe And Supply","505 E 17th St, Tucson, AZ 85701","85701",32.21366486628634,-110.96210517811252
"85701","Tucson","AZ","Desert Specialties Inc","660 E 19th St","85719",32.21035,-110.95991
"85704","Tucson","AZ","Ace Hardware","7876 N Oracle Rd","85704",32.34935,-110.97354
"85704","Tucson","AZ","Horizon Landscape Supply","not_available","85705",32.29301834106445,-111.01164245605469
"85704","Tucson","AZ","Sherwin-Williams Paint Store","5757 N Oracle Rd","85704",32.311659999999996,-110.97920500000001
"85704","Tucson","AZ","Sears","4570 N Oracle Rd","85705",32.28917676,-110.97644744
"85704","Tucson","AZ","Ewing Irrigation","4905 N Shamrock Pl","85705",32.29617266745976,-111.00705496966839
"85704","Tucson","AZ","Ace Hardware","6488 N Oracle Rd","85704",32.3242856,-110.9745868
"85705","Tucson","AZ","The Home Depot","4302 N Oracle Rd","85705",32.283885527760454,-110.97478866577148
"85705","Tucson","AZ","Lowe's","4151 North Oracle Road","85705",32.2818413,-110.9796903
"85705","Tucson","AZ","Crescent Electric Supply","1601 N 15th Ave","85705",32.241502000000004,-110.98415700000001
"85705","Tucson","AZ","Marks Ace Hardware","605 E Wetmore Rd","85705",32.28805,-110.96309
"85705","Tucson","AZ","C & S Locksmiths","950 W Prince Rd","85705",32.272443,-110.988018
"85705","Tucson","AZ","Ace Hardware","1215 W Saint Marys Rd","85745",32.228553000000005,-110.99096999999999
"85705","Tucson","AZ","Dunn Edwards","3850 N Oracle Rd","85705",32.276658000000005,-110.977106
"85705","Tucson","AZ","Liquidation Experts","4001 N Runway Dr #101","85705",32.27930450439453,-111.01342010498047
"85705","Tucson","AZ","Service Solution Group","1121 W Grant Rd","85705",32.249618,-110.989419
"85705","Tucson","AZ","Tucson Winnelson","2565 N Huachuca Dr","85745",32.25415802001953,-111.00243377685547
"85705","Tucson","AZ","Adobe HVAC Depot","1140 W Prince Rd","85705",32.272683,-110.99187
"85705","Tucson","AZ","Sherwin-Williams Paint Store","1802 W Grant Rd","85745",32.251145,-111.004201
"85705","Tucson","AZ","Sherwin-Williams Floorcovering Store","2550 N Dragoon St","85745",32.253129,-111.00003999999998
"85705","Tucson","AZ","Ace Hardware","1899 W Grant Rd","85745",32.2494689,-111.00748
"85705","Tucson","AZ","Sprinkler World","225 E Fort Lowell Rd","85705",32.265096,-110.968628
"85705","Tucson","AZ","City Electric Supply Tucson","1802 W Grant Rd Ste 104","85745",32.251145,-111.004201
"85705","Tucson","AZ","Southwest Electric Supply","2909 N El Burrito Ave","85705",32.259708,-110.991607
"85705","Tucson","AZ","ProSource of Tucson","2425 N Huachuca Dr Ste 151","85745",32.2515751,-111.0031017
"85705","Tucson","AZ","Bonnets, Stems & Accessories, Inc.","2606 N 1st Ave","85719",32.254217863082886,-110.96065878868103
"85706","Tucson","AZ","Ace Hardware","5344 S 12th Ave","85706",32.155155,-110.978053
"85706","Tucson","AZ","Choice Hardware And Autoparts","3660 E Benson Hwy","85706",32.149447,-110.914009
"85706","Tucson","AZ","H&E Equipment Services","6155 S Campbell Ave","85706",32.140235,-110.942753
"85706","Tucson","AZ","Copper State Glass And Screen","4948 S 12th Ave","85706",32.161941,-110.977903
"85706","Tucson","AZ","American Fence","1111 E Valencia Rd","85706",32.135049,-110.95363
"85706","Tucson","AZ","Ferguson Waterworks","2275 E Ginter Rd","85706",32.137829,-110.937559
"85706","Tucson","AZ","Al's Metal Working Machinery","5141 E Canada St","85706",32.152713,-110.882729
"85706","Tucson","AZ","Ferguson Plumbing Supply (Ferguson)","2201 E Medina Rd Ste 100","85756",32.131184999999995,-110.937822
"85707","Tucson","AZ","Harrington Industrial Plastics - Tucson, AZ","4160 E Tennessee St","85714",32.165615,-110.90276499999999
"85707","Tucson","AZ","Farnsworth Wholesale","4000 E Columbia St","85714",32.17282146877768,-110.90692099973523
"85707","Tucson","AZ","bc wire rope & rigging","not_available","85708",32.18161750895983,-110.90500564722092
"85711","Tucson","AZ","Harbor Freight Tools","5570 E 22nd St","85711",32.20625851287478,-110.87334493467725
"85711","Tucson","AZ","Dunn Edward Paints","4320 E Speedway Blvd","85712",32.235811,-110.900438
"85711","Tucson","AZ","Ace Hardware","4722 E Broadway Blvd","85711",32.22095650585672,-110.89086791433765
"85711","Tucson","AZ","Southwestern Paints","5036 E Broadway Blvd","85711",32.220272064208984,-110.88469696044922
"85711","Tucson","AZ","Marla Endicott","4857 E 29th St","85711",32.20019,-110.88896
"85711","Tucson","AZ","Al's Ace Hardware","4010 E 29th St","85711",32.199324,-110.90695600000001
"85711","Tucson","AZ","Erv's Equipment Rentals","4469 E 5th St","85711",32.22870096556039,-110.89237101247383
"85711","Tucson","AZ","appliance parts Depot","not_available","85710",32.207578000000005,-110.859205
"85711","Tucson","AZ","Erv's Rental Equipent","not_available","85711",32.228982,-110.89764
"85712","Tucson","AZ","Ace Hardware","5424 E Pima St","85712",32.2430779,-110.87603
"85712","Tucson","AZ","Sherwin-Williams Commercial Paint Store","4759 E Speedway Blvd","85712",32.23654,-110.890625
"85712","Tucson","AZ","Olander's Window Replacement","4141 E Speedway Blvd","85712",32.236521999999994,-110.904168
"85712","Tucson","AZ","Roadrunner Lock and Safe","4444 E Grant Rd","85712",32.250015999999995,-110.897683
"85712","Tucson","AZ","Terra Designs","5425 E Pima St","85712",32.24380212969036,-110.8768728582608
"85712","Tucson","AZ","Complete Irrigation Supply Co","5414 E Pima St","85712",32.243122,-110.877482
"85712","Tucson","AZ","Stacy Tool & Supply - New & Used","4112 E Grant Rd","85712",32.250245,-110.90470800000001
"85713","Tucson","AZ","RSG Roofing Supply","not_available","85713",32.178564,-110.914004
"85713","Tucson","AZ","Gopher Bearing","3688 S Park Ave","85713",32.180878,-110.95664
"85713","Tucson","AZ","AAA Lock And Key","not_available","85714",32.17491180290122,-110.96826988108283
"85713","Tucson","AZ","Window Depot","2300 South 6th Avenue","85713",32.194988,-110.96867
"85713","Tucson","AZ","J & J Fence Company","1002 E 28th St","85713",32.201071,-110.955731
"85713","Tucson","AZ","USI Preston Insulation","602 E 24th St","85713",32.20369,-110.96038100000001
"85713","Tucson","AZ","Grainger","3415 S Dodge Blvd","85713",32.184737,-110.912951
"85713","Tucson","AZ","Southwest Hose","1309 E Benson Hwy","85714",32.177422,-110.95103999999999
"85713","Tucson","AZ","RSD","303 S Kino Pkwy","85719",32.218448638916016,-110.94343566894531
"85713","Tucson","AZ","City Electric Supply Tucson South","4127 S Palo Verde Rd Ste 105","85714",32.174683,-110.91686299999999
"85713","Tucson","AZ","Ewing Irrigation","4250 S Station Master Dr","85714",32.172259999999994,-110.910379
"85713","Tucson","AZ","Sherwin-Williams Commercial Paint Store","1311 E Ajo Way","85713",32.179244846211986,-110.95165729522704
"85713","Tucson","AZ","Farnsworth Wholesale","1881 E 18th St","85719",32.212406,-110.9441789
"85714","Tucson","AZ","The Home Depot","1155 W Irvington Rd","85714",32.16117238433987,-110.98708391189575
"85714","Tucson","AZ","Ace Hardware","2185 E Irvington Rd","85714",32.164351,-110.93966599999999
"85714","Tucson","AZ","Vallen","845 E Ohio St","85714",32.16828918457031,-110.95826721191406
"85714","Tucson","AZ","Independent Electric","1135 E Palmdale St","85714",32.175031,-110.953499
"85716","Tucson","AZ","The Home Depot","3689 E Broadway Blvd","85716",32.22464621321375,-110.9152296809043
"85716","Tucson","AZ","Precision Outdoor Power","2610 E Grant Rd","85716",32.249898,-110.932343
"85716","Tucson","AZ","Tucson plumbing","3322 N Richey Blvd","85716",32.266889,-110.91548300000001
"85716","Tucson","AZ","Valentine Plumbing","2180 N Northway Ave","85716",32.2484338,-110.9217853
"85716","Tucson","AZ","Grant Road Lumber Co","2543 E Grant Rd","85716",32.25056243422726,-110.93423332216739
"85716","Tucson","AZ","Berner Profipoint","not_available","85716",32.244945,-110.922627
"85716","Tucson","AZ","Plumbing Suppliers, Inc.","2555 E Grant Rd","85716",32.250694,-110.93363500000001
"85716","Tucson","AZ","Ace Hardware","2221 N Country Club Rd","85716",32.2496999,-110.9268
"85716","Tucson","AZ","Ferguson Plumbing Supply","3445 E Kleindale Rd","85716",32.269196,-110.919219
"85718","Tucson","AZ","The Home Depot","10855 N Oracle Rd","85737",32.40294092017573,-110.9545111656189
"85718","Tucson","AZ","Sherwin-Williams Paint Store","5683 N Swan Rd","85718",32.309835,-110.893171
"85718","Tucson","AZ","Leslie's Pool Supplies","5671 N Swan Rd","85718",32.309835,-110.893171
"85718","Tucson","AZ","Hudlum Helicopters","7119 Lemmon Rock","not_available",32.335475,-110.924782
"85719","Tucson","AZ","Mark's Ace Hardware","2830 N Campbell Ave","85719",32.2581045,-110.9426071
"85719","Tucson","AZ","Patio Pools And Spas","2512 N Campbell Ave","85719",32.252509,-110.94362199999999
"85719","Tucson","AZ","Winnelson","1057 E Mill St","85719",32.214648,-110.95558799999999
"85719","Tucson","AZ","Clyde Hardware","331 S Olsen Ave","85719",32.21804723261566,-110.94068315811757
"85719","Tucson","AZ","Arizona Commercial Lighting","1436 E 17th St","85719",32.213109,-110.949706
"85737","Tucson","AZ","Ace Hardware","10560 N La Canada Dr","85737",32.398133,-110.994499
"85737","Tucson","AZ","Ace Hardware","11921 N 1st Ave","85737",32.423257,-110.96143
"85739","Tucson","AZ","Tractor Supply Co.","15884 North Oracle Rd","85739",32.494041442871094,-110.92427062988281
"85739","Tucson","AZ","Catalina Hardware and Supply","16120 N Oracle Rd","85739",32.4990749,-110.92534
"85741","Tucson","AZ","Lowe's","4075 West Ina Road","85741",32.3363048,-111.0518007
"85741","Tucson","AZ","The Home Depot","3925 W Costco Dr","85741",32.3284157,-111.050322
"85741","Tucson","AZ","Harbor Freight Tools","3970 W Ina Rd","85741",32.338859007859156,-111.05060266874835
"85741","Tucson","AZ","Naughtons Plumbing Sales","3940 W Costco Dr","85741",32.329402,-111.04808700000001
"85741","Tucson","AZ","minuteKEY","7635 N LA Cholla Blvd","85741",32.344189,-111.015546
"85741","Tucson","AZ","Sherwin-Williams Paint Store","3805 W River Rd","85741",32.32138,-111.04683899999999
"85741","Tucson","AZ","Ferguson Plumbing Supply","3688 W Orange Grove Rd","85741",32.32474899291992,-111.04367065429688
"85741","Tucson","AZ","Dunn-Edwards Paints","6741 N Thornydale Rd #101","85741",32.328992,-111.046834
"85741","Tucson","AZ","Tractor Supply Co.","7735 North Casa Grande Hwy","85743",32.347009,-111.078285
"85741","Tucson","AZ","Mark's Ace Hardware","3749 W Ina Rd","85741",32.335653,-111.04487900000001
"85741","Tucson","AZ","Sherwin-Williams Paint Store","3641 W Ina Rd","85741",32.336143493652344,-111.04324340820312
"85741","Tucson","AZ","Sears","3951 W Costco Dr","85741",32.3306305,-111.0485131
"85741","Tucson","AZ","Brett Interiors Leather Furniture Gallery","3821 W Costco Dr","85741",32.3256749,-111.0468324
"85741","Tucson","AZ","Naughton's Heating And Cooling","3936 W Costco Dr","85741",32.32931900024414,-111.048095703125
"85742","Tucson","AZ","Continental Ranch Ace Hardware","8165 N Courtney Page Way","85743",32.35486,-111.09527
"85742","Tucson","AZ","minuteKEY","8280 N Cortaro Rd","85743",32.356353759765625,-111.08992767333984
"85746","Tucson","AZ","Lowe's","1800 West Valencia Road","85746",32.1355341,-111.0045352
"85746","Tucson","AZ","Tractor Supply Co.","1715 West Valencia Rd","85746",32.13261,-111.00198
"85746","Tucson","AZ","Harbor Freight Tools","not_available","85746",32.132438,-111.000682
"85746","Tucson","AZ","Valencia Ace Hardware","2820 W Valencia Rd","85746",32.13443,-111.026977
"85746","Tucson","AZ","minuteKEY","1800 W Valencia Rd","85746",32.13586,-111.00483899999999
"85746","Tucson","AZ","minuteKEY","1650 W Valencia Rd","85746",32.1365643,-111.0005268
"85901","Show Low","AZ","Lowe's","5800 South White Mountain Road","85901",34.197647,-110.0189132
"85901","Show Low","AZ","The Home Depot","5601 S White Mountain Rd","85901",34.1983836,-110.0163113
"85901","Show Low","AZ","Tractor Supply Co.","3801 South White Mountain Rd","85901",34.214924,-110.028336
"85901","Show Low","AZ","Ace Hardware of Show Low","221 E Deuce of Clubs","85901",34.248842,-110.04516
"85901","Show Low","AZ","Sherwin-Williams Paint Store","5435 Highway 260","85929",34.189299,-110.015107
"85901","Show Low","AZ","Sears","4551 S. White Mountain Rd., #3","85901",34.2083945,-110.0219078
"85901","Show Low","AZ","Canyon Pipe & Supply","700 N 40th St, Show Low, AZ 85901","85901",34.25477981567383,-109.9991455078125
"85901","Show Low","AZ","American Fence Co.","3290-3322 S White Mountain Rd","85901",34.22095746215635,-110.01600095392452
"85920","Alpine","AZ","Mountain Hardware","not_available","85920",33.848593,-109.144349
"85928","Heber","AZ","The Home Center","2950 Highway 260","85928",34.41389846801758,-110.5737075805664
"85928","Heber","AZ","HOME CENTER SUPPLY TRUE VALUE","2950 HIGHWAY 260","85928",34.414119720458984,-110.57316589355469
"85928","Heber","AZ","H.o.m.e. Center","Heber-Overgaard, AZ 85928","85933",34.41427401030378,-110.57305812835693
"85928","Heber","AZ","Ace Hardware","2837 Hwy 260 Overgaard","85933",34.4179,-110.5758
"85929","Lakeside","AZ","Ace Hardware","95 W White Mountain Blvd","85935",34.14222058266512,-109.95572553789629
"85929","Lakeside","AZ","Ace Hardware","not_available","85929",34.128741,-109.964876
"85936","Saint Johns","AZ","St. Johns Market & Ace Hardware","1135 West Cleveland St","85936",34.5065529,-109.38159
"85937","Snowflake","AZ","Ace Hardware","791 S Main St","85937",34.4985237121582,-110.07845306396484
"85938","Springerville","AZ","cowboy up","not_available","85938",34.1267336190418,-109.28924858910702
"85938","Springerville","AZ","Davis True Value Hardware","617 E Main St","85938",34.13282385,-109.279073
"86001","Flagstaff","AZ","The Home Depot","1325 W Route 66","86001",35.185887874817155,-111.66948616504669
"86001","Flagstaff","AZ","The Home Depot","5005 E Marketplace Dr #110","86004",35.22203396922195,-111.5714719893731
"86001","Flagstaff","AZ","HomCo Lumber & Hardware","1763 E Butler Ave","86001",35.19071969603291,-111.631565072422
"86001","Flagstaff","AZ","Sherwin-Williams Paint Store","2625 S Woodlands Village Blvd","86001",35.17608642578125,-111.66909790039062
"86001","Flagstaff","AZ","Sherwin-Williams Paint Store","1848 E Route 66","86004",35.19697712477329,-111.62344604730606
"86001","Flagstaff","AZ","Tractor Supply Co.","2020 East Rte 66","86004",35.201186,-111.618392
"86001","Flagstaff","AZ","Total True Value Rental","1200 E Rte 66","86001",35.19365,-111.635477841169
"86001","Flagstaff","AZ","Pro Build","1200 E Butler Ave","86001",35.192512,-111.635501
"86001","Flagstaff","AZ","Flag  Tool & Engine Repair","7011 N Highway 89","86004",35.24057,-111.57025
"86001","Flagstaff","AZ","Northern Az Power Equipment","620 E Butler Ave","86001",35.192792,-111.642184
"86001","Flagstaff","AZ","Copper State Bolt & Nut","1841 E Huntington Dr","86004",35.192978,-111.627173
"86001","Flagstaff","AZ","Total True Value Rental","2480 E Huntington Dr","86004",35.196737755102,-111.618304081633
"86001","Flagstaff","AZ","Airgas","not_available","86001",35.191491,-111.63837
"86001","Flagstaff","AZ","Landscape Connection TLC Inc","5400 E Empire Ave","86004",35.231755,-111.565332
"86001","Flagstaff","AZ","Hunts Hardware","Lakin Drive","86004",35.211058259010315,-111.6069746017456
"86001","Flagstaff","AZ","The Cutting Edge","1620 N 1st St","86004",35.203918,-111.61647
"86001","Flagstaff","AZ","K & M Machine Tool Inc","610 E Butler Ave","86001",35.192906,-111.642966
"86001","Flagstaff","AZ","Fastenal","2563 Walgreens Street","86004",35.209868,-111.603635
"86001","Flagstaff","AZ","ERiC's Building Supply LLC","2100 N West St","86004",35.209036,-111.620887
"86020","Cameron","AZ","Westerners True Value","155 Main St","86045",36.12577133,-111.2377254
"86024","Happy Jack","AZ","American Windshield Repair Systems","20987 N John Wayne Pkwy # B104-160","85139",34.50101034022374,-111.5010192990303
"86025","Holbrook","AZ","Knife City Outlet","7699 Sun Valley Rd","86029",34.978594853919084,-110.0586748123169
"86025","Holbrook","AZ","Tractor Supply Co.","1521 Navajo Blvd","86025",34.918745,-110.152949
"86025","Holbrook","AZ","Walt's Hardware","201-251 N 4th Ave","86025",34.902448654174805,-110.16441822052002
"86033","Kayenta","AZ","Navajo Westerners Ace Hdw","Hwy 160 at Hwy 163","86033",36.708286,-110.24821
"86033","Kayenta","AZ","Majestic Coatings","Western Main Road","86033",36.5078086,-110.3193275
"86040","Page","AZ","Boston’s Ace Hardware","620 N Navajo Dr","86040",36.917118072509766,-111.46039581298828
"86040","Page","AZ","Page Lumber","not_available","86040",36.906684662113506,-111.47884544845782
"86046","Williams","AZ","Old Trails True Value","616 N Airport Rd","86046",35.2578239440918,-112.18562316894531
"86046","Williams","AZ","Valle hardware","not_available","86046",35.24243927001953,-112.21227264404297
"86047","Winslow","AZ","Casey's","not_available","86047",35.024233678204446,-110.69602863146
"86301","Prescott","AZ","The Home Depot","1941 E Highway 69","86301",34.550105885695444,-112.42902177717951
"86301","Prescott","AZ","Lowe's","2300 East State Route 69","86301",34.5543441,-112.4232025
"86301","Prescott","AZ","Prescott True Value Hardware","846 Miller Valley Rd","86301",34.556116716031774,-112.48255759979973
"86301","Prescott","AZ","Harbor Freight Tools","1781 E State Route 69 Ste 71","86301",34.54813533893089,-112.43650674819946
"86301","Prescott","AZ","Winsupply","410 6th St","86301",34.547021,-112.465795
"86301","Prescott","AZ","Sherwin-Williams Paint Store","435 Miller Valley Rd","86301",34.548119,-112.477097
"86301","Prescott","AZ","Tractor Supply Co.","3301 Willow Creek Rd","86301",34.606393,-112.45090900000001
"86301","Prescott","AZ","Sears","3400 Gateway Blvd","86303",34.5463231,-112.4071386
"86301","Prescott","AZ","ABC Dent Doctor","710 6th St","86301",34.553259999999995,-112.46583899999999
"86301","Prescott","AZ","Prescott Winnelson","3221 Tower Rd","86305",34.604925874343486,-112.46077862648275
"86301","Prescott","AZ","Sherwin-Williams Paint Store","225 W Willis St","86301",34.543582,-112.471203
"86301","Prescott","AZ","Dana Kepner Co","not_available","86301",34.64703885018548,-112.4144810774393
"86305","Prescott","AZ","Arizona General Ace Hardware","1395 S Hwy 89","86323",34.72025,-112.45343
"86305","Prescott","AZ","Ace Hardware","23990 Marblehead Avenue","86334",34.895318,-112.46768
"86305","Prescott","AZ","Hunt's True Value","1204 Arizona 89","86323",34.76294523415628,-112.45409660282581
"86305","Prescott","AZ","General Sharpening, Prescott","not_available","86323",34.747493,-112.458404
"86305","Prescott","AZ","A2Z Home Center","1204 N State Route 89","86323",34.76285934448242,-112.4547348022461
"86314","Prescott Valley","AZ","Prescott Valley Ace Hardware","7211 E 1st St","86314",34.5832059,-112.33983
"86314","Prescott Valley","AZ","Tractor Supply Co.","8740 East Eastridge Dr","86314",34.58371,-112.313545
"86314","Prescott Valley","AZ","Ewing Irrigation","8267 E Pecos Dr","86314",34.6265,-112.31956399999999
"86314","Prescott Valley","AZ","Hung Right","not_available","86314",34.572223114171535,-112.27074803384541
"86314","Prescott Valley","AZ","ProBuild","6601","not_available",34.57969,-112.350401
"86314","Prescott Valley","AZ","Sherwin-Williams Paint Store","6650 E 2nd St","86314",34.581019,-112.34855900000001
"86314","Prescott Valley","AZ","Kaos Kustoms","8181 E Jacque Dr","86314",34.610139000000004,-112.321475
"86314","Prescott Valley","AZ","Dunn-Edwards Paints","6572 E 2nd St # A-B","86314",34.580725,-112.350748
"86314","Prescott Valley","AZ","Dave's Home Repair","6024 E Beecher Loop","86314",34.6262853,-112.3591153
"86314","Prescott Valley","AZ","Foundation Building Materials","2235 North Concord Drive","86327",34.57558572,-112.25888395
"86314","Prescott Valley","AZ","Ferguson HVAC Supply","8314 E Long Mesa Dr","86314",34.6254045833333,-112.318876666667
"86322","Camp Verde","AZ","Rimrock Mercantile & Supply","3275 East Beaver Creek Road","86335",34.64192581176758,-111.793701171875
"86322","Camp Verde","AZ","Piehl Tools","661 E Howards Rd Ste J","86322",34.54719161987305,-111.84256744384766
"86322","Camp Verde","AZ","Camp Verde Ace Hardware","285 S Main St","86322",34.565484999999995,-111.85456699999999
"86324","Clarkdale","AZ","Tractor Supply Co.","685 West State Rte 89a","86326",34.737278,-112.035537
"86324","Clarkdale","AZ","Ace Hardware","545 S 12th St","86326",34.744725,-112.11702
"86326","Cottonwood","AZ","The Home Depot","1030 S State Route 260","86326",34.7206319,-112.0044215
"86326","Cottonwood","AZ","Sears","1329 E State Route 89A, Suite A","86326",34.7283135,-112.012115
"86326","Cottonwood","AZ","Sherwin-Williams Paint Store","455 S Main St","86326",34.730990000000006,-112.00929599999999
"86327","Dewey","AZ","Sun Valley Supply","390 Arizona 69","86327",34.5376757,-112.2463654
"86329","Humboldt","AZ","G & S Gravel Inc","11500 Finley RD","86333",34.4287307,-112.2593725
"86333","Mayer","AZ","Todd Edwards Air Conditioning","10020 S. SR 69","86333",34.4002995932721,-112.23204763008026
"86335","Rimrock","AZ","Village Hardware","6085 State Route 179","86351",34.788542,-111.76262
"86336","Sedona","AZ","Sedona Ace Hardware","1570 W Highway 89a","86336",34.863218,-111.78751
"86336","Sedona","AZ","Raindance Waterworks","2540 W State Route 89A","86336",34.863132,-111.804436
"86336","Sedona","AZ","Builder’s FirstSource","2385 W State Route 89A","86336",34.86255645751953,-111.80136108398438
"86401","Kingman","AZ","The Home Depot","3860 N Stockton Hill Rd","86409",35.234891,-114.0344712
"86401","Kingman","AZ","Kingman Ace Hdwe & Lbr","4550 N Stockton Hill Rd","86409",35.2547,-114.0378
"86401","Kingman","AZ","Kingman True Value Home Center","3633 Stockton Hill Rd","86409",35.229016,-114.037361
"86401","Kingman","AZ","Sherwin-Williams Paint Store","4370 Stockton Hill Rd","86409",35.250525714344526,-114.03791427612305
"86401","Kingman","AZ","Laser Works 2U","1029 Grandview Ave","86401",35.19899139614646,-114.06168937683105
"86401","Kingman","AZ","A-1 Screen & Hardware","2275 E Butler Ave","86409",35.25504684448242,-114.02536010742188
"86401","Kingman","AZ","minuteKEY","3396 Stockton Hill Rd","86409",35.222559000000004,-114.03276899999999
"86401","Kingman","AZ","Sherwin-Williams Paint Store","3900 Stockton Hill Rd","86409",35.23664,-114.035749
"86401","Kingman","AZ","Tractor Supply Co.","3136-a North Stockton Hill Rd","86401",35.214559,-114.034263
"86401","Kingman","AZ","Sears","3155 N Stockton Hill Rd","86401",35.2157929,-114.035963
"86401","Kingman","AZ","Independent Electric","2366 Kingman Ave","86401",35.204816940132126,-114.02277052402496
"86401","Kingman","AZ","New & Used Parts & Supplies","not_available","86401",35.243486,-113.987403
"86403","Lake Havasu City","AZ","Independent Electric","1811 Industrial Blvd","86403",34.4942741394043,-114.34587097167969
"86403","Lake Havasu City","AZ","Cain's Mobility Lake Havasu City","1849 Acoma Blvd W","86403",34.49660110473633,-114.3456039428711
"86403","Lake Havasu City","AZ","Sherwin-Williams Paint Store","609 Lake Havasu Ave N","86403",34.49240471286104,-114.3484453609578
"86403","Lake Havasu City","AZ","Fayette AC & Sheet Metal Inc","1971 Industrial Blvd","86403",34.49417799555475,-114.34196949005127
"86403","Lake Havasu City","AZ","Probuild","694 Lake Havasu Ave N","86403",34.495285,-114.34761
"86403","Lake Havasu City","AZ","Praxair","1090 Metric Dr","86403",34.507272,-114.345126
"86403","Lake Havasu City","AZ","hub has it","not_available","86403",34.497793397906214,-114.34564821670361
"86403","Lake Havasu City","AZ","Crown Ace Hardware","1799 Kiowa Ave","86403",34.503137,-114.34956
"86403","Lake Havasu City","AZ","Havasu Hardware","2059 McCulloch Blvd N","86403",34.476130386427805,-114.3302393
"86404","Lake Havasu City","AZ","Lowe's","4000 Highway 95N","86404",34.5455174,-114.3524656
"86404","Lake Havasu City","AZ","Tractor Supply Co.","3200 Hwy 95 North","86404",34.537715911865234,-114.3505630493164
"86404","Lake Havasu City","AZ","The Home Depot","100 Retail Centre Blvd","86404",34.56144250506599,-114.36313211917877
"86406","Lake Havasu City","AZ","Crown Ace Hardware","3530 Sweetwater Ave","86406",34.4566269,-114.27344
"86413","Golden Valley","AZ","The Home Depot","660 Highway 95","86429",35.16385832593824,-114.56468939781189
"86413","Golden Valley","AZ","Harbor Freight","1379-1399 Ramar Road","86442",35.115936279296875,-114.59864044189453
"86413","Golden Valley","AZ","Lowe's","1680 Highway 95","86442",35.1226592,-114.5796818
"86413","Golden Valley","AZ","Ace Hardware","4515 S Highway 95","86426",35.026391220803866,-114.59820632937293
"86413","Golden Valley","AZ","Tractor Supply Co.","967 Hancock Rd Ste 5","86442",35.108306884765625,-114.61530303955078
"86413","Golden Valley","AZ","Sherwin-Williams Paint Store","2112 Highway 95","86442",35.11179946678453,-114.5971441268921
"86413","Golden Valley","AZ","Desert Industrial Supply","not_available","86426",35.010325,-114.596477
"86413","Golden Valley","AZ","Tri-State Ace Home Center","2350 Miracle Mile #160","86442",35.10844,-114.61467
"86413","Golden Valley","AZ","Tri-State Bldg Mtls Inc","4515 Highway 95","86426",35.0255689,-114.59863
"86413","Golden Valley","AZ","Demer's Glass","not_available","86442",35.07278829844873,-114.59333470007947
"86413","Golden Valley","AZ","Sears","2580 Highway 95 Ste 114","86442",35.0930493563837,-114.59735526945997
"86413","Golden Valley","AZ","Old Western Trader","12994 S Golden Shores Pkwy","86436",34.779136,-114.482362
"86413","Golden Valley","AZ","Hardware Express","419 W Broadway St","92363",34.83688473701477,-114.60129023
"86441","Dolan Springs","AZ","Ace Hardware","14757 N Pierce Ferry Road","86441",35.554447174072266,-114.32656860351562
"86444","Meadview","AZ","Meadview Hardware","115 E Pueblo Dr","86444",36.00104,-114.066945100671
"86503","Chinle","AZ","Navajo Westerners Ace Hdw","Hwy 191 DCI Shopping Ctr","86503",36.160685,-109.58659
"86511","Saint Michaels","AZ","Navajo Westerners Ace Hardware","Sr 264 Navajo Nation Shpg Ctr","86515",35.680573,-109.05259
"86511","Saint Michaels","AZ","True Value - Window Rock","hwy 264 and route 12","86515",35.663813,-109.054024
"86515","Window Rock","AZ","Navajo Westerners Lumber Yard","1616 Hwy 264","87301",35.65849923676496,-109.04158115386963
"86515","Window Rock","AZ","T&R Feed and Rope Center","671 N Highway 491","87305",35.6079407427378,-108.77781396560668
