"zip","city","state","name","address","postalCode","lat","lon"
"55001","Afton","MN","DC Riggott, Inc.","3540 Neal Ave S","55001",44.897847,-92.84431
"55005","Bethel","MN","Earth Elements","23488 Ulysses St NE","55005",45.39526,-93.23622
"55006","Braham","MN","Braham Hardware & Rental","104 Central Drive W","55006",45.725074768066406,-93.17090606689453
"55007","Brook Park","MN","Beaver Meadow","not_available","55007",45.96840135851564,-92.99609973872873
"55008","Cambridge","MN","Menards","2355 2nd Ave SE","55008",45.57084820543392,-93.19523596545021
"55008","Cambridge","MN","Tractor Supply Co.","1465 1st Ave East","55008",45.572235,-93.20719
"55008","Cambridge","MN","Cambridge True Value","115 Ashland St N","55008",45.57283938,-93.22670281
"55008","Cambridge","MN","Sears","1950 2nd Avenue SE","55008",45.5718086,-93.2005567
"55008","Cambridge","MN","minuteKEY","2101 2nd Ave SE","55008",45.5702241,-93.1978575
"55008","Cambridge","MN","Urban's Hardware Hank","not_available","55040",45.493300100546925,-93.24393440767027
"55008","Cambridge","MN","ASTCompressors","212 1st Ave NW","55040",45.492338000000004,-93.24735600000001
"55008","Cambridge","MN","Whats Left Of Lowes In Cambridge","not_available","55008",45.571724,-93.198164
"55008","Cambridge","MN","Metro Welding Solutions LLC","1555 Carriage Ln S","55008",45.559098,-93.216513
"55008","Cambridge","MN","Isanti rental","420 West Dual Blvd NE, Isanti, MN 55040","55040",45.493263,-93.24414
"55009","Cannon Falls","MN","D & G Ace Hardware","31262 64th Avenue Path","55009",44.4915999,-92.907399
"55009","Cannon Falls","MN","Althoffs Hardware","not_available","55009",44.507405,-92.906063
"55011","Cedar","MN","Ham Lake Hardware","not_available","55011",45.329783070881724,-93.2356691024717
"55011","Cedar","MN","Tamarack Materials","19601 Tamarack Street Northwest","55011",45.32605403,-93.28875826
"55011","Cedar","MN","Pats Small Engine Repair LLC","20912 Highway 65 NE","55011",45.34925842285156,-93.23861694335938
"55011","Cedar","MN","Builders FirstSource","19361 Tamarack St W","55011",45.320394364068484,-93.29043745994566
"55011","Cedar","MN","S & S Industrial Hardware Supply","18541 Highway 65 NE","55011",45.30635070800781,-93.2335433959961
"55013","Chisago City","MN","Chisago True Value","10680 South Ave","55013",45.37412664,-92.88909215
"55013","Chisago City","MN","Lindstrom Wheel Horse","PO Box 621","55045",45.39173840569101,-92.85452251559371
"55013","Chisago City","MN","Lindstrom Hardware Do It Center","not_available","not_available",45.38941039397419,-92.84828918644011
"55014","Circle Pines","MN","Mills Fleet Farm","10250 Lexington Ave NE","55014",45.15506803291376,-93.16519975672065
"55014","Circle Pines","MN","The Home Depot","4550 Pheasant Ridge Dr","55449",45.166377239084575,-93.15559039224354
"55014","Circle Pines","MN","Frattallone's Ace Hardware","9225 Lexington Ave N","55014",45.139166,-93.163523
"55014","Circle Pines","MN","Broadway Rental","not_available","55014",45.133182525634766,-93.1233139038086
"55014","Circle Pines","MN","Automotive Refinish Technologies","Lake Dr","55014",45.163698,-93.122473
"55014","Circle Pines","MN","j & e small engine repair","689 Main Street","55014",45.196208,-93.107218
"55014","Circle Pines","MN","minuteKEY","4405 Pheasant Ridge Dr NE","55449",45.166473388671875,-93.1586685180664
"55016","Cottage Grove","MN","Menards","9000 E Point Douglas Rd S","55016",44.81307716460161,-92.92589233682786
"55016","Cottage Grove","MN","Sherwin-Williams Paint Store","7430 E Point Douglas Rd S","55016",44.828305,-92.955575
"55016","Cottage Grove","MN","Burggraf's Ace Hardware","6990 80th St S","55016",44.8303,-92.9364
"55016","Cottage Grove","MN","minuteKEY","9300 E Point Douglas Rd S","55016",44.810264587402344,-92.91807556152344
"55019","Dundas","MN","Menards","100 Schilling Dr S","55019",44.42647988739393,-93.19991541968275
"55019","Dundas","MN","Young's Paint Center","104 Railway St S","55019",44.42887,-93.208179
"55019","Dundas","MN","Fastenal","200 Schilling Dr S #300","55019",44.427284,-93.19963
"55021","Faribault","MN","Faribault Ace Hardware","421 2nd Ave NW","55021",44.295460999999996,-93.270987
"55021","Faribault","MN","Arrow Ace Hardware","670 Water St S FM 2920","55057",44.453442662347825,-93.16230740377426
"55021","Faribault","MN","Faribault Fleet Supply","80 Western Ave","55021",44.289778144316934,-93.30309093942456
"55021","Faribault","MN","Border States Electric","1503 30th St NW","55021",44.321304999999995,-93.290047
"55021","Faribault","MN","Sherwin-Williams Paint Store","204 Western Ave NW","55021",44.292891,-93.30333
"55021","Faribault","MN","Fastenal","1101 Division St W","55021",44.290233,-93.285117
"55021","Faribault","MN","Lampert Lumber - Faribault","320 8th Ave NW","55021",44.2943393,-93.2817422
"55021","Faribault","MN","Lamperts Building Materials","not_available","55057",44.446879,-93.172381
"55021","Faribault","MN","Lampert Lumber - Northfield","1225 Highway 3 S","55057",44.446633,-93.1722089
"55021","Faribault","MN","Arrow Northfield","670 S Water St","55057",44.4531457142857,-93.16176
"55024","Farmington","MN","Pellicci Ace Hardware","3560 213th St W","55024",44.640872,-93.13621
"55024","Farmington","MN","Pahl's Market","6885 160th St W","55124",44.71784971365122,-93.20537753118406
"55024","Farmington","MN","Ace Hardware & Paint","20810 Holyoke Ave","55044",44.6459649,-93.243219
"55024","Farmington","MN","Sherwin-Williams Commercial Paint Store","21486 Humboldt Ct","55044",44.63856,-93.248061
"55025","Forest Lake","MN","Menards","22800 Everton Ave N","55025",45.28017850046022,-93.01141504446335
"55025","Forest Lake","MN","The Home Depot","1943 W Broadway Avenue","55025",45.2801489,-93.00761
"55025","Forest Lake","MN","Forest Lake Ace Hardware","814 Lake St S","55025",45.270441,-92.98490799999999
"55025","Forest Lake","MN","Northern Tool & Equipment","119 12th St SW","55025",45.27781216660072,-92.99766250238491
"55025","Forest Lake","MN","Sherwin-Williams Paint Store","608 W Broadway Ave","55025",45.279001,-92.99219000000001
"55025","Forest Lake","MN","Heinen's Do It Best Hardware & Rental","1467 Lake St S","55025",45.264672,-92.982318
"55025","Forest Lake","MN","minuteKEY","200 12th St SW","55025",45.2769775390625,-93.00172424316406
"55025","Forest Lake","MN","Waldoch Sports","13824 Lake Dr NE","55025",45.220129,-93.09370799999999
"55025","Forest Lake","MN","fastenal","not_available","55025",45.264672,-92.982318
"55025","Forest Lake","MN","Sherwin Williams","45 SW 4th Ave","55025",45.27461242675781,-92.98464965820312
"55025","Forest Lake","MN","Forest Lake Small Engine","368 Lake St S","55025",45.274899,-92.98421
"55032","Harris","MN","US Dock And hardware LLC.","6767-7107 County Highway 10","55032",45.5806605,-92.98353842
"55033","Hastings","MN","Tractor Supply Co.","1445 North Acres Rd","54021",44.762512694881714,-92.7930435550323
"55033","Hastings","MN","All valley vacuum","not_available","55033",44.7314453125,-92.85199737548828
"55033","Hastings","MN","Sherwin-Williams Paint Store","1355 S Frontage Rd","55033",44.736313,-92.87995699999999
"55033","Hastings","MN","Ferguson HVAC Supply","703 31st St E","55033",44.717290000000006,-92.83908100000001
"55033","Hastings","MN","Terry's Ace Hardware","375 33rd St W","55033",44.71468650199889,-92.8498975554461
"55037","Hinckley","MN","R & S Hardware","not_available","55037",46.01491928100586,-92.9417724609375
"55037","Hinckley","MN","Webster Ace Hardware","7435 Main St W","54893",45.8774999,-92.3657
"55037","Hinckley","MN","Purple Pumper LLC","50704 Cattle Dr","55072",46.10095977783203,-92.61808776855469
"55037","Hinckley","MN","Granary","not_available","54893",45.883563371871695,-92.36433073704426
"55038","Hugo","MN","Fresh Paint Inc.","2370 County Road J Ste 103","55110",45.121931,-92.997274
"55038","Hugo","MN","Rehbein's Black Dirt","7000 21st Ave N","55038",45.160818,-93.035116
"55041","Lake City","MN","Wise Ace Hardware","210 S Washington St","55041",44.448878,-92.265013
"55042","Lake Elmo","MN","Menards - Stillwater","5800 Krueger Ln","55082",45.033873792391276,-92.83927719994087
"55042","Lake Elmo","MN","Husqvarna US","5920 Memorial Ave N","55082",45.035255432128906,-92.85231018066406
"55042","Lake Elmo","MN","Lauseng Stone Inc","9591 60th St N","55042",45.035061999999996,-92.91222900000001
"55042","Lake Elmo","MN","Garage Door Repair Lake Elmo","Stillwater Boulevard North","55042",44.99752138195606,-92.88912534713745
"55042","Lake Elmo","MN","Lampert Lumber - Lake Elmo","9220 Hudson Blvd.","55042",44.950821,-92.919353
"55044","Lakeville","MN","Ace Hardware & Paint","17729 Juniper Path","55044",44.6917649,-93.28555
"55044","Lakeville","MN","Sherwin-Williams Paint Store","16466 Kenrick Ave","55044",44.711281,-93.282656
"55044","Lakeville","MN","Builders FirstSource","9130 W 202nd St","55044",44.65448953057142,-93.24872374534607
"55046","Lonsdale","MN","Generation Building Center","601 Central St E","55046",44.478635,-93.41877099999999
"55051","Mora","MN","Oslin Lumber","Oslin Road","55051",45.87706308143186,-93.2771179573322
"55051","Mora","MN","Ace Hardware","43 Union St N","55051",45.8772489,-93.297023
"55051","Mora","MN","Johnson's Hardware","212 Railroad Ave NW","55051",45.87704849243164,-93.29898071289062
"55055","Newport","MN","John Bartl Trustworthy Hardware","not_available","55055",44.87518918997588,-93.0005561775007
"55056","North Branch","MN","Main Street Hardware","6388 Main St","55056",45.511762,-92.978934
"55056","North Branch","MN","Lampert Lumber - North Branch","39451 Flink Ave","55056",45.5195617,-92.995346
"55057","Northfield","MN","Larson Implement, Inc.","32907 Northfield Blvd","55057",44.47295,-93.15500899999999
"55060","Owatonna","MN","Lowe's","1280 21st Avenue NW","55060",44.0976449,-93.2542712
"55060","Owatonna","MN","Arrow Ace Hardware & Paint","122 W Vine St","55060",44.085987,-93.226958
"55060","Owatonna","MN","Sherwin-Williams Paint Store","125 Oakdale St","55060",44.064235,-93.22776800000001
"55060","Owatonna","MN","Advantage Cabinets","not_available","55060",44.094165999999994,-93.257612
"55060","Owatonna","MN","Harbor Freight Tools","1289 21st Ave NW","55060",44.09837,-93.25195
"55060","Owatonna","MN","Alexander Lumber","419 N Cedar Ave","55060",44.088566,-93.225443
"55063","Pine City","MN","Hoffmann Ace Hardware","1320 Northridge Ct NW","55063",45.8464,-92.968599
"55066","Red Wing","MN","Menards","320 Tyler Rd S","55066",44.56049355665881,-92.58365392684937
"55066","Red Wing","MN","Runnings Farm & Fleet","411 Potter St","55066",44.56627052756984,-92.52993732690811
"55066","Red Wing","MN","Red Wing Ace Hardware","1264 Old West Main St","55066",44.563066,-92.54482
"55066","Red Wing","MN","Husqvarna US","28932 HEY 58 S","55066",44.55762481689453,-92.5494155883789
"55066","Red Wing","MN","Sherwin-Williams Paint Store","912 Main St","55066",44.56365825352325,-92.54148960113524
"55068","Rosemount","MN","The Home Depot","15101 Flagstaff Ave","55124",44.7299941,-93.1997753
"55068","Rosemount","MN","Menards","14960 Florence Trl","55124",44.734146614412204,-93.19983630070108
"55068","Rosemount","MN","Terry's Hardware","14635 S Robert Trl","55068",44.73746913232261,-93.12665752674305
"55068","Rosemount","MN","Hirschfield's - Apple Valley","not_available","55124",44.73150386802203,-93.1987418155755
"55068","Rosemount","MN","Rosemount Saw & Tool","14760 S Robert Trl","55068",44.73536,-93.12588
"55068","Rosemount","MN","Rosemount Saw & Tool","14700 S Robert Trl","55068",44.73540897005824,-93.12581419944763
"55068","Rosemount","MN","Lampert Lumber - Apple Valley","14555 Galaxie Ave","55124",44.7382733,-93.2065087
"55068","Rosemount","MN","Menards","6055 150th St W","55124",44.746620178222656,-93.20184326171875
"55068","Rosemount","MN","Hirshfield's","15265 Galaxie Ave","55124",44.727732,-93.208153
"55070","Saint Francis","MN","St Francis True Value Hardware","3645 Bridge St Nw","55070",45.387452,-93.359179
"55072","Sandstone","MN","Lampert Lumber - Sandstone","123 N Main St.","55072",46.1303363947927,-92.86875440185241
"55072","Sandstone","MN","Hwy 23 Hardware","not_available","55704",46.19274938387078,-92.78210607173084
"55072","Sandstone","MN","Sandstone Ace Hardware","218 Main St","55072",46.1309729,-92.86778
"55074","Shafer","MN","Bill's Ace Hardware","202 Chieftain Street","54020",45.3206539,-92.704498
"55075","South Saint Paul","MN","Gertens","5500 Blaine Ave","55076",44.87077960007695,-93.05194388935118
"55075","South Saint Paul","MN","Ace Hardware & Paint","3098 65th St E","55076",44.8556999,-93.0428
"55075","South Saint Paul","MN","The Shop","not_available","55075",44.870551,-93.027672
"55075","South Saint Paul","MN","First Supply","290 Bridgepoint Dr","55075",44.8885498046875,-93.03095245361328
"55076","Inver Grove Heights","MN","Tractor Supply Co.","9273 Cafferty Ct","55076",44.814207,-93.040822
"55076","Inver Grove Heights","MN","Ace Hardware","Cahill Ave","55076",44.834378173373395,-93.04258061967145
"55077","Inver Grove Heights","MN","The Home Depot","1300 E Mendota Road","55077",44.882185401978674,-93.07615041732782
"55079","Stacy","MN","Husqvarna US","6125 Stacy Trl # 70","55079",45.39621353149414,-92.98150634765625
"55082","Stillwater","MN","Lowe's","5888 Nova Scotia Avenue North","55082",45.0328782,-92.8277822
"55082","Stillwater","MN","B-K Building HeadQuaters","not_available","55082",45.096268,-92.888872
"55082","Stillwater","MN","Dal Tile","not_available","55128",44.99196982030912,-92.95949587793281
"55082","Stillwater","MN","Ferguson HVAC Supply","590 Hale Ave N","55128",44.9566330456556,-92.9613285173939
"55082","Stillwater","MN","Sherwin-Williams Paint Store","14450 60th St N","55082",45.036669,-92.813732
"55082","Stillwater","MN","Stillwater Ace Hardware","1662 Market Dr","55082",45.0398089,-92.838493
"55082","Stillwater","MN","Abbott Paint & Carpet Stillwater","1672 Greeley St S","55082",45.0416786601083,-92.820993048556
"55082","Stillwater","MN","minuteKEY","3205 Hadley Ave N","55128",44.994827,-92.962616
"55084","Taylors Falls","MN","Tractor Supply","not_available","54009",45.39083480834961,-92.65595245361328
"55092","Wyoming","MN","Wyoming Ace Hardware","26583 Forest Blvd","55092",45.3339519,-92.998303
"55101","Saint Paul","MN","Seven Corners Hardware","216 7th St W","55102",44.94339380951642,-93.10363700439396
"55102","Saint Paul","MN","Frattallone's Ace Hardware","650 Grand Ave","55105",44.9397999,-93.127499
"55102","Saint Paul","MN","Menard's Hardware DEPT.","not_available","55118",44.934820611260506,-93.11799299829143
"55102","Saint Paul","MN","vantage painting","not_available","55102",44.930198,-93.12512
"55103","Saint Paul","MN","Rice Street Do It Best Hardware","1110 Rice St","55117",44.974478999999995,-93.105693
"55103","Saint Paul","MN","SPS Companies","1299 Abell St","55117",44.980491638183594,-93.10027313232422
"55103","Saint Paul","MN","Kendall's Ace Hardware & Paint","978 Dale St N","55117",44.9707,-93.126
"55103","Saint Paul","MN","St Paul A-Aaron's","376 Aurora Ave","55103",44.954598,-93.115887
"55104","Saint Paul","MN","Menards","2005 University Ave W","55104",44.95909322240486,-93.18361952740797
"55104","Saint Paul","MN","Ax-Man Surplus","1639 University Ave W","55104",44.955887756234375,-93.16954936701387
"55104","Saint Paul","MN","Dey Distributing","525 Snelling Ave N","55104",44.957049,-93.16741
"55104","Saint Paul","MN","Noll Hardware","not_available","55114",44.965112,-93.197825
"55104","Saint Paul","MN","Hamline Hardware Hank","755 Snelling Ave N","55104",44.963694,-93.16744200000001
"55104","Saint Paul","MN","Total Tool","315 Pierce St N","55104",44.950866973509875,-93.17141843137851
"55104","Saint Paul","MN","Gopher Plumbing Supply","740 Vandalia St","55114",44.96209,-93.188594
"55104","Saint Paul","MN","Ferguson Plumbing Supply","1955 University Ave W","55104",44.958133000000004,-93.181811
"55104","Saint Paul","MN","Minneapolis Hilti Center","2428 University Ave W","55114",44.964148,-93.19893499999999
"55104","Saint Paul","MN","Margo's Cargo","2115 Summit Ave","55105",44.9436685,-93.1874824
"55104","Saint Paul","MN","Pirtek - Midway","2161 University Ave W","55114",44.961051,-93.18898399999999
"55104","Saint Paul","MN","Twin City Saw","not_available","55104",44.956915,-93.180947
"55105","Saint Paul","MN","Frattallone's Ace Hardware","1676 Grand Ave","55105",44.9399999,-93.171099
"55105","Saint Paul","MN","S & S True Value Hardware","1818 Randolph Ave","55105",44.926753999999995,-93.176884
"55105","Saint Paul","MN","Mitsch Total Hardware","408 Snelling Ave S","55105",44.92924880981445,-93.16661834716797
"55105","Saint Paul","MN","Abbott Paint","1808 Grand Ave","55105",44.939772999999995,-93.17670600000001
"55105","Saint Paul","MN","Sherwin-Williams Paint Store","80 Snelling Ave S","55105",44.939165,-93.16665400000001
"55106","Saint Paul","MN","Kendall's Ace Hardware","840 Payne Ave","55130",44.966357,-93.073536
"55106","Saint Paul","MN","minuteKEY","1644 Robert St S","55118",44.8972671,-93.0779173
"55106","Saint Paul","MN","Ace hardware","1214 Robert St S","55118",44.90986441,-93.08026885986328
"55106","Saint Paul","MN","Sherwin-Williams Paint Store","1674 Suburban Ave","55106",44.950109999999995,-93.02909
"55106","Saint Paul","MN","Grainger","345 Plato Blvd E","55107",44.94196087999851,-93.07326489741902
"55106","Saint Paul","MN","Stone Machinery, Inc.","551 Phalen Blvd","55130",44.965945,-93.077601
"55106","Saint Paul","MN","Minvalco","not_available","55112",44.94837678372672,-93.05360229400293
"55106","Saint Paul","MN","Valspar contractor store","284 E Lafayette Frontage Rd","55107",44.9375114440918,-93.0736083984375
"55106","Saint Paul","MN","Minnesota Locks","1254 Robert St S","55118",44.908193,-93.080097
"55106","Saint Paul","MN","Metzger Building Materials","768 Bradley St","55130",44.964508,-93.077955
"55106","Saint Paul","MN","Frattallone's Ace Hardware","215 Eva St","55107",44.938142,-93.080595
"55106","Saint Paul","MN","Reeds Sales And Service","1260 Payne Ave","55130",44.98175294195527,-93.07845046784745
"55108","Saint Paul","MN","Trade Tool","1096 Energy Park Dr","55108",44.974423,-93.192815
"55108","Saint Paul","MN","Lampert Lumber","1850 Como Ave","55108",44.9766431,-93.1792454
"55108","Saint Paul","MN","Frattallone's Ace Hardware","2286 Como Ave","55108",44.981840000000005,-93.195562
"55108","Saint Paul","MN","Twin City Saw","2169 ENERGY PARK DR","55108",44.9743295,-93.1925471
"55109","Saint Paul","MN","Menards","2280 Maplewood Dr","55109",45.010233710607025,-93.05335980103723
"55109","Saint Paul","MN","The Home Depot","2360 White Bear Ave No","55109",45.0131084,-93.0174908
"55109","Saint Paul","MN","Harbor Freight Tools","2950 White Bear Ave N","55109",45.029082850541954,-93.01729388717781
"55109","Saint Paul","MN","Northern Tool & Equipment","1900 Buerkle Rd","55110",45.039161682128906,-93.01856994628906
"55109","Saint Paul","MN","Hejny Rental","1829 White Bear Ave N","55109",44.995942464245246,-93.02576582193016
"55109","Saint Paul","MN","Sherwin-Williams Paint Store","1898 Beam Ave","55109",45.02748105,-93.020427
"55109","Saint Paul","MN","Minnesota Granite & Marble","1400 Highway 36 E","55109",45.010921478271484,-93.04090118408203
"55109","Saint Paul","MN","Sundberg Co Appliance Parts","2537 7th Ave E","55109",45.01225280761719,-92.99275207519531
"55109","Saint Paul","MN","Garage Door Repair North Saint Paul","Margaret St N","55109",45.01178271731172,-92.99051284790039
"55109","Saint Paul","MN","Heavy Equipment Repair Incorporated","3205 Labore Rd","55110",45.039039611816406,-93.05843353271484
"55109","Saint Paul","MN","Henriksen Ace Hardware","2220 E Hwy 36 At Mcknight","55109",45.0109644,-93.0065727
"55109","Saint Paul","MN","Rockler Woodworking and Hardware","1935 Beam Ave","55109",45.02735900878906,-93.02136993408203
"55110","Saint Paul","MN","Frattallone's Ace Hardware","4796 Highway 61 N","55110",45.088766,-93.007518
"55110","Saint Paul","MN","Frattallone's Ace Hardware","2694 E County Road E","55110",45.0501,-92.987899
"55110","Saint Paul","MN","Fastenrite & Viking Safety","not_available","55110",45.06960836215211,-93.05383137454349
"55110","Saint Paul","MN","Fastenal","615 Hale Avenue N","55128",45.05003081176143,-93.05158376426083
"55110","Saint Paul","MN","Abbott Paint","4th Street","55110",45.085815000000004,-93.00657700000001
"55110","Saint Paul","MN","Dey Appliance Parts","1401 Willow","55110",45.0473862,-93.04251985
"55112","Saint Paul","MN","Johnson Screens","1950 Old Highway 8 NW","55112",45.08154188377659,-93.19027200084409
"55112","Saint Paul","MN","Twin Cities Habitat for Humanity ReStore","510 County Road D W","55112",45.037196421657825,-93.19304946855347
"55112","Saint Paul","MN","Beisswenger's","1823 Old Highway 8 NW","55112",45.08011,-93.18747
"55112","Saint Paul","MN","Garage Door Repair Mounds View","County Road 10","55112",45.08718732410241,-93.19620609283446
"55112","Saint Paul","MN","Scherer Brothers Lumber Company","4797 Highway 10","55112",45.086097233333334,-93.18504166666666
"55112","Saint Paul","MN","Vallen","5251 Program Ave","55112",45.098751068115234,-93.18903350830078
"55112","Saint Paul","MN","Ppg Paints","2863 84th Ln NE","55449",45.12387,-93.19771
"55112","Saint Paul","MN","Betterley  Industries","2222 County Hwy 10","55112",45.0960704,-93.1953477
"55113","Saint Paul","MN","Hilti","2501 Walnut St","55113",45.01522445678711,-93.20601654052734
"55113","Saint Paul","MN","North Heights Hardware Hank","2920 Rice St","55113",45.028796,-93.10555900000001
"55113","Saint Paul","MN","Surburban Ace Hardware","1930 Lexington Ave N","55113",44.9994,-93.146199
"55113","Saint Paul","MN","Sherwin-Williams Paint Store","1151 Larpenteur Ave W","55113",44.99262012480718,-93.14887046813963
"55113","Saint Paul","MN","Wheeler Hardware Co.","2645 Fairview Ave N","55113",45.02,-93.179142
"55113","Saint Paul","MN","Catco","2785 Long Lake Rd","not_available",45.0256233215332,-93.19313049316406
"55113","Saint Paul","MN","Sherwin-Williams Commercial Paint Store","78 Minnesota Ave","55117",45.00936309189269,-93.10387372970581
"55113","Saint Paul","MN","Sherwin-Williams Paint Store","2722 Lincoln Dr","55113",45.022369384765625,-93.16797637939453
"55113","Saint Paul","MN","Hirshfields","not_available","55113",45.002508,-93.106395
"55113","Saint Paul","MN","Carpet King","2115 Snelling Ave N","55113",45.00489221226391,-93.16680325206012
"55113","Saint Paul","MN","Har Mar Lock and Key","1551 Larpenteur Ave W","55113",44.99198913574219,-93.16544342041016
"55113","Saint Paul","MN","Hirshfield's Roseville","1655 County Road C W","55113",45.023905071291686,-93.16999999494573
"55113","Saint Paul","MN","Fastenal","1920 Oakcrest Ave","55113",45.01753616333008,-93.18136596679688
"55116","Saint Paul","MN","Grainger","not_available","55420",44.903740083250796,-93.16434980530887
"55117","Saint Paul","MN","Design Mirror & Glass","3148 Country Dr","55117",45.036643981933594,-93.0931167602539
"55117","Saint Paul","MN","Twin City Garage Door","1301 L Orient St","55117",44.980637,-93.091361
"55117","Saint Paul","MN","A-1 Hydraulic Sales & Service, Inc.","3136 Country Dr","55117",45.03632,-93.09276
"55118","Saint Paul","MN","Lowe's","1795 Robert St S","55118",44.89186505,-93.08205016
"55118","Saint Paul","MN","Menards","1445 Robert St S","55118",44.90325311874592,-93.08240372847118
"55118","Saint Paul","MN","Harbor Freight Tools","9 Signal Hills Ctr","55118",44.909530225004914,-93.08264641862188
"55118","Saint Paul","MN","Garage Door Repair Mendota Heights","Mendota Heights Rd","55120",44.866728426993255,-93.15015792846678
"55118","Saint Paul","MN","HARDWARE DEPT.","1435 Robert STREET","55118",44.902973109419484,-93.08200915428573
"55118","Saint Paul","MN","Sherwin-Williams Paint Store","1913 Robert St S","55118",44.88790943547662,-93.0816650390625
"55118","Saint Paul","MN","Suburban ace hardware","Robert Street","55118",44.906367,-93.088316
"55120","Saint Paul","MN","HD Supply White Cap","1400 Commerce Drive","55120",44.87292579,-93.16871023
"55121","Saint Paul","MN","The Home Depot","3220 Denmark Ave","55121",44.84008524718013,-93.15566182136536
"55121","Saint Paul","MN","Midwest Tile And Granite","3181 Dodd Rd","55121",44.837512,-93.118911
"55121","Saint Paul","MN","Irby","980 Lone Oak Rd","55121",44.845787048339844,-93.13993072509766
"55121","Saint Paul","MN","Builders Supples overstocks","not_available","55121",44.85464681045853,-93.1372662048061
"55121","Saint Paul","MN","Johnsons Garage Door Repair","860 Blue Gentian Rd #200","55121",44.8594784487587,-93.1312220302047
"55121","Saint Paul","MN","Building Materials Outlet","Highway 55","not_available",44.854447310330364,-93.1373787040684
"55121","Saint Paul","MN","minuteKEY","1360 Town Centre Dr","55123",44.82837677001953,-93.16297912597656
"55121","Saint Paul","MN","Sherwin-Williams Paint Store","1295 Town Centre Dr","55123",44.832667,-93.16168499999999
"55121","Saint Paul","MN","Catco Parts & Service","3380 Mike Collins Dr, Eagan, MN 55121","55121",44.83490753173828,-93.12968444824219
"55122","Saint Paul","MN","Pellicci Ace Hardware","1565 Cliff Rd","55122",44.790337,-93.180543
"55122","Saint Paul","MN","Marvin Windows and Doors","not_available","55122",44.82030487060547,-93.21135711669922
"55122","Saint Paul","MN","Sherwin-Williams Paint Store","2020 Cliff Rd","55122",44.789533,-93.209807
"55123","Saint Paul","MN","Eagan Hardware Hank","1320 Duckwood Dr","55123",44.82677106913715,-93.1617938751621
"55123","Saint Paul","MN","Bruckmueller Plumbing, Inc.","3992 Pennsylvania Ave","55123",44.811543,-93.130485
"55124","Saint Paul","MN","Ace Hardware & Paint","14760 Pennock Ave","55124",44.7357,-93.222701
"55124","Saint Paul","MN","Sherwin-Williams Paint Store","15415 Cedar Ave","55124",44.725924,-93.218513
"55125","Saint Paul","MN","The Home Depot","8334 Tamarack Village","55125",44.9438559,-92.940461
"55125","Saint Paul","MN","Frattallone's Ace Hardware","1750 Weir Dr","55125",44.9231559,-92.978014
"55125","Saint Paul","MN","Northern Tool & Equipment","1480 Weir Dr","55125",44.92767036260135,-92.97069716308101
"55125","Saint Paul","MN","Lumber Liquidators, Inc.","7700 Hudson Rd","55125",44.94774289844317,-92.95063143056194
"55125","Saint Paul","MN","This Guy Paints, LLC","1416 Interlachen Cir","55125",44.9290771484375,-92.92225646972656
"55125","Saint Paul","MN","Truck Rental Center at the Home Depot","8334 Tamarack Vlg","55125",44.94437789916992,-92.93801879882812
"55126","Saint Paul","MN","Frattallone's Ace Hardware","3527 Lexington Ave N","55126",45.0482659,-93.146922
"55126","Saint Paul","MN","C & E Hardware","4630-4640 Churchill St","55126",45.080940584006775,-93.14290248795723
"55127","Saint Paul","MN","minuteKEY","850 County Road E E","55127",45.0493138,-93.0641233
"55127","Saint Paul","MN","Garceau's Hardware","not_available","55127",45.04535574647344,-93.07469876807855
"55128","Saint Paul","MN","ProSource of St. Paul","6866 33rd St N Ste 140","55128",44.9964118,-92.96693909999999
"55128","Saint Paul","MN","MInnesota Air","6866 33rd St N","55128",44.99646759033203,-92.9670639038086
"55128","Saint Paul","MN","Foundation Building Materials","5262 Glenbrook Avenue North","55128",45.02538468,-92.97991818
"55129","Saint Paul","MN","Sherwin-Williams Paint Store","2170 Eagle Creek Ln","55129",44.917536,-92.902489
"55130","Saint Paul","MN","Fastenal","650 Olive St","55130",44.95861053466797,-93.0870132446289
"55301","Albertville","MN","DJ's Total Home Care Center","6060 Labeaux Ave NE","55301",45.2316539,-93.664432
"55301","Albertville","MN","Sherwin-Williams Paint Store","5585 La Centre Ave","55301",45.232261,-93.663554
"55301","Albertville","MN","Direct Tools","6500 Labeaux Ave NE","55301",45.244747,-93.66246
"55301","Albertville","MN","Big E's 69 Swing Club","7400 Block Lamont Ave NE","55301",45.25745503213635,-93.65587872204898
"55301","Albertville","MN","Ace of Albertville","6050 Labeaux Ave NE","55301",45.238708,-93.66243
"55302","Annandale","MN","Hard ware store in annanadale","not_available","55302",45.26275042330542,-94.12412496779106
"55302","Annandale","MN","Malco Products Inc","14080 State Highway 55 NW","55302",45.277023,-94.1823409
"55302","Annandale","MN","Kaz Do It Best Hardware & Rental Center","19 Oak Ave N","55302",45.262938,-94.124017
"55303","Anoka","MN","Menards","3045 Main St NW","55448",45.19877813106647,-93.34482391521604
"55303","Anoka","MN","The Home Depot","3550 124th Ave NW","55433",45.1954035,-93.3559951
"55303","Anoka","MN","Sherwin-Williams Paint Store","3564 Main St NW","55448",45.196976,-93.35618
"55303","Anoka","MN","Frattallone's Ace Hardware","13735 Round Lake Blvd NW","55304",45.2197999,-93.357299
"55303","Anoka","MN","The Service Guys","626 E River Rd","55303",45.188264,-93.380741
"55303","Anoka","MN","Taplin Soft Water","13440 Pineview Ct","55327",45.198029999999996,-93.440735
"55303","Anoka","MN","Terry Overacker Plumbing","502 E Main St","55303",45.197353,-93.38329399999999
"55303","Anoka","MN","Earth First Computer Recycling","6043 Highway 10 NW","55303",45.21852493286133,-93.42079162597656
"55303","Anoka","MN","Peterson & Pinney","4151 Coon Rapids Blvd NW","55433",45.185867,-93.372192
"55303","Anoka","MN","Husqvarna US","620 E River Rd","55303",45.18838882446289,-93.38150787353516
"55304","Andover","MN","Hardware Hank","17426 Highway 65 NE","55304",45.28721634480093,-93.23505781326483
"55304","Andover","MN","Smith Brothers Paint Store","17210 Ulysses St NE","55304",45.282752990722656,-93.23576354980469
"55304","Andover","MN","Pipeline Plumbing Supply","Ulysses St NE","55304",45.28193613617503,-93.23492399383767
"55304","Andover","MN","fastenal","not_available","55304",45.2319306022043,-93.23495117971046
"55305","Hopkins","MN","Gopher Ace Hardware","12937 Ridgedale Dr","55305",44.964842,-93.443881
"55305","Hopkins","MN","Hance Hardware Inc","903 Hopkins Ctr","55343",44.925553,-93.411499
"55307","Arlington","MN","Agri-Fleet","not_available","55334",44.61154877619754,-94.078057644602
"55307","Arlington","MN","Haggenmiller Lumber & Building Center","23180 T 98","55307",44.59770988984276,-94.0713357925415
"55307","Arlington","MN","Agri-Fleet True Value","E Highway 19","55334",44.56015155405647,-94.18573475162087
"55308","Becker","MN","Becker Hardware","not_available","55308",45.397672,-93.883091
"55308","Becker","MN","CNC Cops, LLC","15542 137th St SE","55308",45.373052,-93.848357
"55308","Becker","MN","Becker True Value Hardware","13350 1st St","55308",45.397692,-93.882817
"55309","Big Lake","MN","The Home Depot","1385 7th Street East","55362",45.29575820454139,-93.77609968185425
"55309","Big Lake","MN","Big Lake Hardware & Rental","621 Rose Dr","55309",45.3338745,-93.73815850000001
"55309","Big Lake","MN","Grady's Ace Hardware","212 W 3rd St","55362",45.3051389,-93.796605
"55309","Big Lake","MN","Fastenal Co.","4059 Chelsea Rd W","55362",45.29629135131836,-93.80596923828125
"55309","Big Lake","MN","Garage Door Repair Big Lake","Lake St N","55309",45.33774265774876,-93.74372005462645
"55310","Bird Island","MN","Hardware Hank","not_available","55310",44.76579301549754,-94.8948271296633
"55311","Maple Grove","MN","Menards","16500 96th Ave N","55311",45.12918406348546,-93.49031716054957
"55311","Maple Grove","MN","The Home Depot","15800 Grove Circle North","55369",45.13625561705877,-93.4814646542236
"55311","Maple Grove","MN","Jerry's Do it Best Hardware & Rental","13151 Weaver Lake Rd","55369",45.1043066443978,-93.44763594655362
"55311","Maple Grove","MN","Sherwin-Williams Paint Store","13599 Grove Dr","55311",45.10221390830921,-93.45275402069092
"55311","Maple Grove","MN","Hirshfields","7880 Vinewood Ln","55369",45.09764466555863,-93.44681738253739
"55311","Maple Grove","MN","minuteKEY","9451 Dunkirk Ln N","55311",45.12611770629883,-93.49344635009766
"55311","Maple Grove","MN","Jerry' Hardware","not_available","55311",45.10515986464083,-93.45176009455717
"55311","Maple Grove","MN","A1 Outdoor Equipment","7501-7699 Commerce St E","55340",45.093653,-93.54543199999999
"55311","Maple Grove","MN","Levahn TrueValue Hardware","12700 Bass Lake Rd","55369",45.06577682495117,-93.44206237792969
"55313","Buffalo","MN","Menards - Buffalo","1415 County Road 134","55313",45.156685006608186,-93.8461349408825
"55313","Buffalo","MN","Maple Lake True Value Lumber","120 Oak Ave S","55358",45.2286262512207,-94.00230407714844
"55313","Buffalo","MN","Tractor Supply Co.","6910 69th Ln North","55373",45.080513,-93.718891
"55313","Buffalo","MN","Pipeline","9668 Fallon Ave NE","55362",45.289706,-93.785089
"55313","Buffalo","MN","Grady's Ace Hardware","7945 State Highway 55","55373",45.0794879,-93.726151
"55313","Buffalo","MN","Melgaard Services","6726 Estes Ave NW","55358",45.248104,-93.9869779
"55313","Buffalo","MN","Sherwin-Williams Paint Store","9230 State Highway 25 NE","55362",45.28335952758789,-93.80750274658203
"55313","Buffalo","MN","Lamperts","not_available","55313",45.093799614544864,-93.75369965018136
"55313","Buffalo","MN","Husqvarna US","1600 Highway 55 E","55313",45.160240173339844,-93.85287475585938
"55313","Buffalo","MN","Sears","7955 State Highway 55","55373",45.07976052837142,-93.7266208012977
"55313","Buffalo","MN","Klatt True Value","1215 Hwy 25 N","55313",45.11143333,-93.86437333
"55313","Buffalo","MN","Glass Guys","310 7th Street Northeast","55313",45.17804708,-93.87082835
"55313","Buffalo","MN","KLATT TRUE VALUE","1215 Highway 25 N","55313",45.18693542480469,-93.87693786621094
"55313","Buffalo","MN","Lampert Lumber - Rockford","6601 Bleck Drive","55373",45.0941532,-93.75448929999999
"55313","Buffalo","MN","Ace Hardware","65 Maple Ave","55358",45.2315729447565,-94.0051642193908
"55313","Buffalo","MN","Foundation Building Materials","207 Dundas Road","55362",45.29111919,-93.78932046
"55315","Carver","MN","Siwek lumber","not_available","55352",44.679298400878906,-93.63481140136719
"55316","Champlin","MN",".","11466 Elmwood Ave N","55316",45.162963,-93.395816
"55316","Champlin","MN","Lowe's","2700 Main St NW","55448",45.195481,-93.335535
"55316","Champlin","MN","Grady's Ace Hardware","12325 Champlin Dr","55316",45.177495,-93.392696
"55317","Chanhassen","MN","A-Aarons Plumbing & Sewer Drain Cleaning","1780 Lake Lucy Ln","55331",44.885904,-93.566284
"55317","Chanhassen","MN","Sherwin-Williams Paint Store","2979 Water Tower Pl","55317",44.858387,-93.596124
"55317","Chanhassen","MN","Lumber Liquidators, Inc.","2973 Water Tower Pl","55317",44.858760536587276,-93.59615434049283
"55317","Chanhassen","MN","Merlins Ace Hardware","7844 Market Blvd","55317",44.861963,-93.534532
"55317","Chanhassen","MN","Ferguson Plumbing Supply","2971 Water Tower Pl","55317",44.858387,-93.596124
"55317","Chanhassen","MN","ValuTec","7962 Century Blvd","55317",44.860423,-93.592123
"55318","Chaska","MN","The Home Depot","300 Pioneer Trail E","55318",44.8309913,-93.5999066
"55318","Chaska","MN","Chaska Building Center","not_available","55318",44.79260214179504,-93.5965089533248
"55318","Chaska","MN","Ferguson Waterworks","1420 3rd Ave W","55379",44.792670542266,-93.5472356462994
"55318","Chaska","MN","Timberwall Landscape & Masonry Products","1915 Arboretum Blvd","55386",44.860541,-93.66825
"55318","Chaska","MN","Mills Fleet Farm","not_available","55379",44.79902331122612,-93.52146510312475
"55318","Chaska","MN","Arrow Ace Hardware","802 Yellow Brick Rd","55318",44.79186,-93.598917
"55318","Chaska","MN","Truck Rental Center at the Home Depot","300 Pioneer Trl","55318",44.83158874511719,-93.59980773925781
"55319","Clear Lake","MN","Briggs Lake General Store","4258 105th Ave","55319",45.50791552893825,-93.94418952762057
"55321","Cokato","MN","Builders FirstSource","170 Broadway Ave S","55321",45.07689971132685,-94.19073700904846
"55322","Cologne","MN","Everson's Hardware Hank","121 E State Highway 5","55387",44.843816642954046,-93.78384590148926
"55322","Cologne","MN","UFC Farm Supply","801 Highway 284","55387",44.8444519,-93.780941
"55322","Cologne","MN","Ace Hardware","801 State Highway 284","55387",44.84143829345703,-93.78726959228516
"55322","Cologne","MN","Superior Lawn and Landscape","10480 Highway 284","55322",44.813175201416016,-93.78862762451172
"55322","Cologne","MN","Mike's Electrical Contracting","not_available","55387",44.84,-93.79
"55325","Dassel","MN","Husqvarna US","PO Box 26","55325",45.09294128417969,-94.31585693359375
"55328","Delano","MN","Delano True Value","1005 Crossings Dr","55328",45.036196000000004,-93.773451
"55328","Delano","MN","Joel's Machining & Design","3360 57th St SE","55328",45.068801,-93.8213476
"55328","Delano","MN","Delano TrueValue","not_available","55328",45.0356924529213,-93.75829001706624
"55328","Delano","MN","Watertown TrueValue","300 Lewis Ave S","55388",44.961280822753906,-93.8481674194336
"55329","Eden Valley","MN","Paynesville Fleet Supply True Value","30055 E State Highway 55","56362",45.32571,-94.60906521
"55329","Eden Valley","MN","Eden Valley Lumber & True Value Hardware","183 State St","55329",45.32623518,-94.54660588
"55330","Elk River","MN","The Home Depot","18011 Zane St NW","55330",45.2973978,-93.5489751
"55330","Elk River","MN","Menards","19521 Evans St NW","55330",45.32624562320883,-93.5592671454792
"55330","Elk River","MN","Sherwin-Williams Paint Store","19455 Evans St NW","55330",45.32463387246221,-93.55937719345093
"55330","Elk River","MN","Tractor Supply Co.","11150 179th Ave Northwest","55330",45.296289015638166,-93.55005536386186
"55330","Elk River","MN","Plaisted Landscape Supply","11555 205 Ave NW","55330",45.343852000000005,-93.56208000000001
"55330","Elk River","MN","minuteKEY","19251 Evans St. NW","55330",45.3210337,-93.5601208
"55330","Elk River","MN","minuteKEY","18185 Zane St. NW","55330",45.300140380859375,-93.54937744140625
"55330","Elk River","MN","Dahlheimer Detailing Center","not_available","55330",45.320640563964844,-93.53028106689453
"55330","Elk River","MN","Ferguson Plumbing Supply","14585 Northdale Blvd Ste 800","55374",45.232295925472606,-93.55428014622319
"55330","Elk River","MN","Spike's Feed, Seed, & Pet Supply","906 Highway 10","55330",45.305322,-93.570324
"55330","Elk River","MN","101 Market","8980 Quantrelle Ave NE","55330",45.28057098388672,-93.55751037597656
"55331","Excelsior","MN","Navarre True Value Hardware","3400 Shoreline Dr","55391",44.93476892,-93.60963884
"55331","Excelsior","MN","Tonka Glass Inc","4407 Wilshire Blvd suite F206","55364",44.92822,-93.634317
"55331","Excelsior","MN","A-1 Minnetonka Rental","3607 Shoreline Dr","55391",44.93447,-93.615444
"55331","Excelsior","MN","Shorewood True Value","23540 Hwy 7","55331",44.892836619943296,-93.58036463866134
"55334","Gaylord","MN","AGRI-FLEET TRUE VALUE","45 MELROSE STREET","55334",44.558929443359375,-94.198486328125
"55335","Gibbon","MN","Gibbon Lumber","1st Ave","not_available",44.53277137541486,-94.52653168968497
"55336","Glencoe","MN","Glencoe Fleet Supply True Value","3105 10th St","55336",44.76969412,-94.12084183
"55336","Glencoe","MN","4 Square Builders","not_available","55336",44.770547202241126,-94.15178382059378
"55336","Glencoe","MN","Ace Hardware","740 11th St E","55336",44.76981735229492,-94.1519775390625
"55337","Burnsville","MN","Menards","2700 Highway 13 W","55337",44.776212872830406,-93.31294681599282
"55337","Burnsville","MN","The Home Depot","155 Nicollet Blvd W","55337",44.749395,-93.2814962
"55337","Burnsville","MN","Frattallone's Ace Hardware","1350 County Road 42 W","55337",44.74665,-93.293823
"55337","Burnsville","MN","Ace Hardware & Paint","108 W 98th St","55420",44.826804,-93.280694
"55337","Burnsville","MN","Northern Tool","12205 River Ridge Blvd","55337",44.78382613647942,-93.28515024071866
"55337","Burnsville","MN","MInnesota Air","9650 James Ave S","55431",44.828178158774925,-93.30154180526733
"55337","Burnsville","MN","BuyLighting.com","1436 Cliff Rd E","55337",44.790870666503906,-93.25393676757812
"55337","Burnsville","MN","Viking Electric - Burnsville","2601 Highway 13 W","55337",44.773563,-93.312815
"55337","Burnsville","MN","Kully Supply","not_available","55337",44.747027,-93.307164
"55337","Burnsville","MN","Ferguson HVAC Supply","670 E Travelers Trail","55337",44.7803968650159,-93.2652661955873
"55337","Burnsville","MN","Viking Burnsville","1800 Cliff Rd E","55337",44.79107,-93.24991999999999
"55337","Burnsville","MN","Dale Green Company","1308 Highway 13 W","55337",44.77448,-93.29764
"55337","Burnsville","MN","Fastenal Co","12150 12th Ave S","55337",44.784767150878906,-93.2588882446289
"55337","Burnsville","MN","Garage Door Repair Burnsville","Harriet Avenue South","55337",44.76602358976192,-93.28634977340698
"55337","Burnsville","MN","Lumber Liquidators, Inc.","1355 West 141st St, Burnhill Plaza Shopping Center","55337",44.74897766113281,-93.29582977294922
"55337","Burnsville","MN","UFC Farm Supply","12122 12th Ave S","55337",44.786398999999996,-93.258825
"55337","Burnsville","MN","Harbor Freight Tools","3128 Highway 13 W","55337",44.77715,-93.318514
"55339","Hamburg","MN","Husqvarna US","PO Box 549","55368",44.76030731201172,-93.91687774658203
"55340","Hamel","MN","Adam's Pest Control","922 Highway 55 #100","55340",45.047569274902344,-93.54561614990234
"55343","Hopkins","MN","Wellington Home Improvements","3938 Meadowbrook Rd","55426",44.93061828613281,-93.37616729736328
"55343","Hopkins","MN","Scherer Bros. Lumber Co.","330 11th Ave S","55343",44.91980733,-93.41548
"55343","Hopkins","MN","Socialngage","5566 Bimini Dr","55343",44.903280929205636,-93.4249073266983
"55343","Hopkins","MN","Sharpening Center","811 Mainstreet","55343",44.9244915885822,-93.41077080479965
"55343","Hopkins","MN","Vent-A-Hood","101 Shady Oak Rd S","55343",44.92296030512009,-93.42672968190872
"55343","Hopkins","MN","Pokorny's","not_available","55343",44.921108361332365,-93.41048015359866
"55343","Hopkins","MN","Sherwin-Williams Commercial Paint Store","5425 Opportunity Ct","55343",44.90378952026367,-93.40218353271484
"55343","Hopkins","MN","Cabinetry & Millwork by Design","416 11th Ave S","55343",44.9178754,-93.414784
"55344","Eden Prairie","MN","Menards","12600 Plaza Dr","55344",44.86568932604402,-93.43645103993823
"55344","Eden Prairie","MN","The Home Depot","13100 Valley View Rd","55344",44.8678639,-93.4436399
"55344","Eden Prairie","MN","Jerry's Do It Best Hardware","not_available","55344",44.836302,-93.400145
"55344","Eden Prairie","MN","A to Z Equipment Rental","12450 Plaza Dr.","55344",44.8670006,-93.43661569999999
"55344","Eden Prairie","MN","Sherwin-Williams Paint Store","8240 Commonwealth Dr","55344",44.85453574501241,-93.43347849038219
"55344","Eden Prairie","MN","Compressed Air Concepts LLC","9815 W 74th St","55344",44.8685881,-93.4020932
"55344","Eden Prairie","MN","DeWalt","9709 Valley View Rd","55344",44.87187957763672,-93.4017333984375
"55344","Eden Prairie","MN","Premier Water Technologies, Your Local 3M Authorized Water Dealer","7887 Fuller Rd Ste 106","55344",44.85945510864258,-93.4796142578125
"55344","Eden Prairie","MN","Prairie Lawn and Garden","15916 W 78th St","55344",44.862159729003906,-93.47958374023438
"55345","Minnetonka","MN","Tonkadale Greenhouses","3739 Tonkawood Rd","55345",44.934721,-93.481025
"55345","Minnetonka","MN","Frattallone's Ace Hardware","5016 County Road 101","55345",44.9127999,-93.50351
"55345","Minnetonka","MN","Sherwin-Williams Paint Store","4901 County Road 101","55345",44.915261,-93.502168
"55345","Minnetonka","MN","Northern Tool & Equipment","17505 Hwy 101","55345",44.91306774895184,-93.50180113652243
"55345","Minnetonka","MN","Deakynes True Value Hardware","17507 Minnetonka Blvd","55345",44.94139373,-93.50126982
"55346","Eden Prairie","MN","Frattallone's Ace Hardware","7820 Eden Prairie Rd","55347",44.860677,-93.486462
"55346","Eden Prairie","MN","Lyman Lumber","not_available","55346",44.863643786818095,-93.51798581694952
"55347","Eden Prairie","MN","Scherer Brothers Lumber Company","3253 4th Ave E, Shakopee, MN 55379","55379",44.799116,-93.483983
"55349","Howard Lake","MN","joes sport shop","not_available","55349",45.06098547545961,-94.06532101811976
"55350","Hutchinson","MN","Menards","1525 Montreal St SE","55350",44.865558062000865,-94.37309728665393
"55350","Hutchinson","MN","PRO Build","135 Monroe St SE","55350",44.89037322998047,-94.36324310302734
"55350","Hutchinson","MN","Mills Fleet Farm","not_available","55350",44.882189,-94.382967
"55350","Hutchinson","MN","Sears","756 Century Ave SW","55350",44.8739022,-94.3811398
"55350","Hutchinson","MN","Husqvarna US","1470 S Grade Rd SW","55350",44.87750244140625,-94.40190887451172
"55350","Hutchinson","MN","Hutchinson Ace Hardware","105 Washington Ave E","55350",44.8924,-94.3673
"55352","Jordan","MN","Mystic Sign Shop","not_available","55372",44.730682,-93.475375
"55352","Jordan","MN","Jordan Ace Hardware","540 2nd St W","55352",44.668327000000005,-93.636961
"55353","Kimball","MN","Luxemburg Feed Service","21967 State Highway 15","56301",45.416369,-94.239742
"55354","Lester Prairie","MN","Corner Stone Hardware & Mercantile","418 Central ave","55354",44.884589,-94.042201
"55355","Litchfield","MN","Sears","224 East Hwy 12","55355",45.12517748555862,-94.52412422753696
"55356","Long Lake","MN","john deere Store","not_available","55356",44.983734130859375,-93.56289672851562
"55356","Long Lake","MN","Sherwin-Williams Paint Store","2435 W Wayzata Blvd","55356",44.988783000000005,-93.586384
"55359","Maple Plain","MN","Mound True Value Hardware & Paint","2250 Commerce Blvd","55364",44.93747808199454,-93.66559688526479
"55359","Maple Plain","MN","UFC Farm Supply","5135 Oak St","55359",45.00648,-93.654831
"55359","Maple Plain","MN","Midwest Cedar Shake Supply","5179 Main St E Ste 361","55359",45.00733184814453,-93.6552505493164
"55360","Mayer","MN","Fullerton Lumber","2516-2700 Minnesota 25","55388",44.95320621666667,-93.856036
"55360","Mayer","MN","Jack's Tool Shed","422 Shimmcor St, Mayer, MN 55360","55360",44.880632,-93.88653000000001
"55363","Montrose","MN","Wolf Auto Parts","not_available","55363",45.06528091430664,-93.90731048583984
"55368","Norwood Young America","MN","Home Solutions","not_available","55368",44.772308,-93.91841
"55368","Norwood Young America","MN","Home Solutions True Value, Appliances & Mattresses","520 Faxon Rd","55368",44.77134691,-93.91937417
"55369","Osseo","MN","The Home Depot","6701 Boone Ave North","55428",45.0770475,-93.3938793
"55369","Osseo","MN","Lowe's","11201 Fountains Dr","55369",45.0898168,-93.4231552
"55369","Osseo","MN","R.G. Levoir Floors","not_available","55369",45.121819,-93.414258
"55369","Osseo","MN","Superior Pool Supply","8555 Revere Ln N, Maple Grove, MN 55369","55369",45.11069810278962,-93.41244309069899
"55369","Osseo","MN","Sherwin-Williams Commercial Paint Store","7115 Northland Ter N","55428",45.08443196416172,-93.39951673808923
"55369","Osseo","MN","Cherokee Ace Hardware","6278 Boone Ave N","55428",45.06751805924749,-93.3893213112753
"55371","Princeton","MN","Princeton Ace Hardware","706 Rum River Dr S","55371",45.559246,-93.5836
"55371","Princeton","MN","Marvs True Value","31620 125th St Nw","55371",45.54403659,-93.58445933
"55371","Princeton","MN","Princeton Rental","32010 125th St NW","55371",45.549496999999995,-93.58502800000001
"55371","Princeton","MN","The Home Improvement Warehouse","not_available","55371",45.586506,-93.595314
"55372","Prior Lake","MN","Tractor Supply Co.","16907 Hwy 13 South","55372",44.7042427837965,-93.43605615658787
"55372","Prior Lake","MN","Ace Hardware","16281 Main Ave SE","55372",44.713232,-93.423987
"55372","Prior Lake","MN","Prior Lake Rental Center","15233 Highway 13 S","55372",44.72741,-93.39822
"55372","Prior Lake","MN","Garage Door Repair Prior Lake","Gateway St SE","55372",44.71873478549044,-93.41447621583939
"55372","Prior Lake","MN","Al'S True Value Hardware","16820 Duluth Ave SE","55372",44.70541199245211,-93.4302611913309
"55372","Prior Lake","MN","PolyTech USA","2416 Redwing Dr","55379",44.756996154785156,-93.44789123535156
"55374","Rogers","MN","Hardware Hank","313 Central Ave E","55376",45.20944665434392,-93.6577987464828
"55374","Rogers","MN","Rogers True Value","21351 John Milless Dr","55374",45.191415,-93.549813
"55374","Rogers","MN","Northern Tool And Equipment Rogers","not_available","55374",45.19117493615258,-93.54444627180263
"55374","Rogers","MN","Fastenal Company","4111 Mackenzie Ct NE","55376",45.211705,-93.640653
"55378","Savage","MN","Husqvarna US","12690 Creek View Ave","55378",44.773929595947266,-93.38398742675781
"55379","Shakopee","MN","The Home Depot","1701 County Road 18","55379",44.77338896751476,-93.41117334915907
"55379","Shakopee","MN","Lowe's","4270 Dean Lakes Boulevard","55379",44.7771938,-93.4661913
"55379","Shakopee","MN","Sherwin-Williams Paint Store","497 Marschall Rd","55379",44.795693,-93.50703299999999
"55379","Shakopee","MN","Sherwin-Williams Paint Store","8108 Old Carriage Ct","55379",44.779453,-93.414837
"55379","Shakopee","MN","Arrow Ace Hardware","485 Marschall Rd","55379",44.79561936176572,-93.5069386920307
"55379","Shakopee","MN","Plant Maintainence","4108 Valley Industrial Blvd N","55379",44.79791259765625,-93.4661636352539
"55379","Shakopee","MN","Arrow Shakopee","485 Marshall Rd","55379",44.7958427272727,-93.507996969697
"55391","Wayzata","MN","Lowe's","3205 Vicksburg Lane North","55447",45.0169039,-93.4846331
"55391","Wayzata","MN","Westurn Cedar Roofing","3500 Vicksburg Ln N Ste 226","55447",45.0208,-93.481679
"55391","Wayzata","MN","Viking Electric","13870 Industrial Park Blvd","55441",45.00249099731445,-93.45616149902344
"55391","Wayzata","MN","Construction Fastening Systems","2340 Niagara Ln N","55447",45.00531005859375,-93.47076416015625
"55391","Wayzata","MN","Hirshfield's","814 Lake St E","55391",44.968163243301106,-93.50805514167683
"55391","Wayzata","MN","pella parts and service","15300 25th Ave N #100","55447",45.006866455078125,-93.475341796875
"55391","Wayzata","MN","Novia Networks","14495 23rd Ave N","55447",45.003318786621094,-93.46331787109375
"55401","Minneapolis","MN","The Fixer","1st","55401",44.98205747713286,-93.26244592666626
"55401","Minneapolis","MN","Alpine Fence Company","15 S 1st St","55401",44.98272705078125,-93.26640319824219
"55401","Minneapolis","MN","#hammertime","not_available","55401",44.98814858200053,-93.27290784642763
"55401","Minneapolis","MN","Minneapolis A-Aaron's","311 S 2nd St","55415",44.98102538994191,-93.26298236846922
"55401","Minneapolis","MN","Gardner Hardware","515 Washington Ave N","55401",44.98633918355905,-93.27542596045758
"55402","Minneapolis","MN",".","901 Hennepin Ave","55403",44.976075,-93.27686899999999
"55403","Minneapolis","MN","Village Center","not_available","55403",44.96470898524979,-93.27821850041744
"55403","Minneapolis","MN","Top Knobs & Pulls","275 Market St Ste 131","55405",44.98022095615929,-93.28866720199585
"55403","Minneapolis","MN","Heili Recomended","181 James Ave N","55405",44.977257,-93.301295
"55403","Minneapolis","MN","Frattallone's Ace Hardware","1804 Nicollet Ave","55403",44.9650269,-93.277992
"55404","Minneapolis","MN","Straughan Hardware","2200 E 25th St, Minneapolis, MN 55404","55404",44.95771026611328,-93.24055480957031
"55404","Minneapolis","MN","Amble's Surplus Hardware","2109 Cedar Ave S","55404",44.961663,-93.246891
"55404","Minneapolis","MN","Welna Ace Hardware II","2201 E Franklin Ave","55404",44.962577,-93.240679
"55404","Minneapolis","MN","Welna Hardware Inc","2438 Bloomington Ave","55404",44.95786,-93.252768
"55405","Minneapolis","MN","Frattallone's Ace Hardware","2737 Hennepin Ave","55408",44.952643,-93.298075
"55405","Minneapolis","MN","Hirshfields","not_available","55408",44.952390239747366,-93.29781191859078
"55406","Minneapolis","MN","Frattallone's Ace Hardware","3915 E Lake St","55406",44.9483,-93.2162
"55406","Minneapolis","MN","Hiawatha Lumber","not_available","55406",44.93658618136943,-93.22192379334294
"55406","Minneapolis","MN","Home Depot","not_available","55404",44.94296383267553,-93.23982929363815
"55406","Minneapolis","MN","Hudson Hardware","2900 E 42nd St","55406",44.927088,-93.230434
"55406","Minneapolis","MN","Riverlake Hardware","3605 E Lake St","55406",44.948116999999996,-93.219765
"55406","Minneapolis","MN","DIY Direct Supply","2727 E 26th St","55406",44.955421447753906,-93.23262023925781
"55406","Minneapolis","MN","Hiawatha Reddy Rents","4411 Hiawatha Ave","55406",44.92250240674327,-93.22026257406387
"55407","Minneapolis","MN","Cedar Small Engine","3804 Cedar Ave S","55407",44.933896000000004,-93.247826
"55407","Minneapolis","MN","Brothers electric","3447 Cedar Ave S","55407",44.939709,-93.246998
"55408","Minneapolis","MN","Nicollet Hardware","3805 Nicollet Ave","55409",44.933765,-93.277924
"55408","Minneapolis","MN","Guse Hardware","4602 Bryant Ave S","55419",44.919389,-93.291172
"55408","Minneapolis","MN","Bryant Hardware","818 W 36th St","55408",44.93785515681582,-93.29032776143296
"55408","Minneapolis","MN","Mohn Electric & Lighting","925 W Lake St","55408",44.948153999999995,-93.291535
"55408","Minneapolis","MN","Sherwin-Williams Commercial Paint Store","505 W Lake St","55408",44.948029999999996,-93.285946
"55410","Minneapolis","MN","Settergren Hardware","5405 Penn Ave S","55419",44.9051649,-93.308515
"55410","Minneapolis","MN","Settergren's of Linden Hills","2813 W 43rd St","55410",44.9244619,-93.315528
"55410","Minneapolis","MN","Bayers Do-It-Best","not_available","55410",44.92414712905884,-93.31492602825165
"55411","Minneapolis","MN","North End Hardware","3117 Penn Ave N","55411",45.01293054525711,-93.30833389764828
"55411","Minneapolis","MN","Abel Hardware","2626 N 2nd St","55411",45.00672149658203,-93.2796401977539
"55411","Minneapolis","MN","Coremark Metals","216 27th Ave N","55411",45.007277125867724,-93.28135013580322
"55411","Minneapolis","MN","Habitat For Humanity ReStore","501 W Broadway Ave","55411",44.998324,-93.28685899999999
"55411","Minneapolis","MN","Tull Bearing","2530 north 2nd Strret","55411",45.005470275878906,-93.27953338623047
"55411","Minneapolis","MN","Ladders & Things","2825 V St NE","20018",45.01038708377795,-93.28179001808167
"55412","Minneapolis","MN","Acrylic Fabricators","Washington Ave N","not_available",45.027745105017615,-93.28514824457089
"55412","Minneapolis","MN","Rockler","not_available","55109",45.01657608735645,-93.30481632914194
"55413","Minneapolis","MN","The Home Depot","1520 New Brighton Blvd","55413",45.0052976,-93.2341063
"55413","Minneapolis","MN","Brake and Equipment Warehouse","455 Harrison St NE","55413",44.994709,-93.246957
"55413","Minneapolis","MN","Shaw / Stewart Lumber Co.","645 Johnson St NE","55413",44.9964,-93.23659
"55413","Minneapolis","MN","Sears Parts & Repair Center","2700 Winter St NE","55413",44.99350357055664,-93.21478271484375
"55413","Minneapolis","MN","Young Blood Lumber","Central Ave NE","not_available",45.00069782880784,-93.2457614435147
"55413","Minneapolis","MN","Oaks Trust Worthy  Hardware","1519 Como Ave SE","55414",44.988009000000005,-93.229842
"55413","Minneapolis","MN","Mueller INC","2422 E Hennepin Ave","55413",44.991359,-93.218059
"55413","Minneapolis","MN","Able Hose And Rubber","2205 E Hennepin Ave","55413",44.991955,-93.22086800000001
"55413","Minneapolis","MN","Crown Fence & Wire Company","1200 Central Ave NE","55413",45.000049,-93.247786
"55413","Minneapolis","MN","Barry & Sewall","2001 Broadway St NE","55413",44.999368,-93.231735
"55413","Minneapolis","MN","Lansing Building Products","1134 Stinson Blvd","55413",45.000245,-93.227863
"55414","Minneapolis","MN","Lights On","61 Bedford St SE","not_available",44.967634000000004,-93.208579
"55414","Minneapolis","MN","Langford Tool","not_available","55415",44.974727630615234,-93.2522201538086
"55416","Minneapolis","MN","The Home Depot","5800 Cedar Lake Rd S","55416",44.9654888,-93.3526976
"55416","Minneapolis","MN","Menards","6800 Wayzata Blvd","55426",44.97265737949071,-93.36710086128399
"55416","Minneapolis","MN","Frattallone's Ace Hardware","5025 Excelsior Blvd","55416",44.931424,-93.345939
"55416","Minneapolis","MN","Sherwin-Williams Paint Store","4911 Excelsior Blvd","55416",44.9320892,-93.3429712
"55416","Minneapolis","MN","N-E-P Corporation","4905 W 35th St","55416",44.940422,-93.341794
"55416","Minneapolis","MN","Poundtown","not_available","55426",44.94855382165221,-93.3615526408602
"55417","Minneapolis","MN","Nokomis Hardware","5155 34th Ave S","55417",44.90907254718815,-93.22261574241023
"55418","Minneapolis","MN","Pallet One","3300 5th St NE #150A","55418",45.028804779052734,-93.26097106933594
"55418","Minneapolis","MN","Marshall Concrete Products","2610 Marshall St NE","55418",45.015572999999996,-93.272937
"55418","Minneapolis","MN","Walter R. Hammond Co.","3601 29th Ave NE","55418",45.020924,-93.209195
"55419","Minneapolis","MN","Diamond Lake Hardware","5425 Nicollet Ave","55419",44.9044549,-93.278024
"55420","Minneapolis","MN","The Home Depot","400 W 79th St","55420",44.860873004207086,-93.28488796949387
"55420","Minneapolis","MN","Harbor Freight Tools","7839 Portland Ave S","55420",44.860896000000004,-93.267185
"55420","Minneapolis","MN","Woodcraft - Here to Help","9125 Lyndale Ave S","55420",44.837582,-93.28772
"55420","Minneapolis","MN","Johnson Hardware","7936 Portland Ave S","55420",44.859374137392386,-93.26853413598498
"55420","Minneapolis","MN","Interstate Batteries","355 78th St E","not_available",44.861208430413235,-93.27239135129585
"55420","Minneapolis","MN","Sherwin-Williams Paint Store","9509 Lyndale Ave S","55420",44.830704340953524,-93.28774452209473
"55420","Minneapolis","MN","minuteKEY","700 American Blvd E","55420",44.86075973510742,-93.26492309570312
"55420","Minneapolis","MN","Custom Hose Tech Inc","9323 Garfield Ave S","55420",44.8343322,-93.28708619999999
"55420","Minneapolis","MN","Bloomington A-Aaron's","9641 Garfield Ave S #319","55420",44.82847595214844,-93.28643035888672
"55421","Minneapolis","MN","Menards","5351 Central Ave NE","55421",45.06518810202166,-93.24575795771905
"55421","Minneapolis","MN","Frattallone's Ace Hardware","4340 Central Ave NE","55421",45.0471999,-93.2476
"55421","Minneapolis","MN","Harbor Freight Tools","725 45th Ave NE","55421",45.05044643072931,-93.25114040214238
"55421","Minneapolis","MN","Sherwin-Williams Paint Store","4110 Central Ave NE","55421",45.043856711086136,-93.24768127396557
"55421","Minneapolis","MN","Sherwin-Williams Floorcovering Store","5110 Main St NE","55421",45.05982208251953,-93.26876068115234
"55421","Minneapolis","MN","Mereen-Johnson, LLC","5201 E River Rd Ste 301","55421",45.0634794,-93.27959779999999
"55421","Minneapolis","MN","Columbia Heights Rental","Central Ave","not_available",45.038572,-93.24714124202728
"55421","Minneapolis","MN","A&C Small Engine","3828 Central Ave NE","55421",45.037201158521405,-93.24813110149766
"55421","Minneapolis","MN","Electric Motor Supply Company (EMSCO)","4650 Main St NE","55421",45.052819,-93.2693573
"55421","Minneapolis","MN","coffin nails","4412 tyler st ne","55421",45.0483301339466,-93.23343515396118
"55421","Minneapolis","MN","KG Landscape Garage","4240 Central Ave NE, Columbia Heights, MN 55421","55421",45.045894622802734,-93.2477798461914
"55421","Minneapolis","MN","Foundation Building Materials","5346 Industrial Boulevard Northeast","55421",45.0662716,-93.2739021
"55422","Minneapolis","MN","Cass Screw Machine Products Co","4800 Lilac Dr N","55429",45.04245376586914,-93.3281021118164
"55422","Minneapolis","MN","Ace Hardware","4140 W Broadway","55422",45.030737,-93.338288
"55422","Minneapolis","MN","thomas tool and supply","not_available","55428",45.040348689961434,-93.35007443603473
"55422","Minneapolis","MN","Sherwin-Williams Paint Store","4090 Lakeland Ave N","55422",45.03075692405811,-93.33465099334715
"55422","Minneapolis","MN","Mobile Lock Safe Co","not_available","55422",45.03069411343215,-93.33905958143204
"55422","Minneapolis","MN","Home Depot","Johnson Street","55412",45.01453464481817,-93.32960672668509
"55423","Minneapolis","MN","Menards","7701 Nicollet Ave","55423",44.86319795718816,-93.27678099006015
"55423","Minneapolis","MN","The Home Depot","6301 Richfield Pkwy","55423",44.8876336,-93.2485786
"55423","Minneapolis","MN","Sherwin-Williams Commercial Paint Store","84 W 78th St","55423",44.86244630245604,-93.28029298432435
"55423","Minneapolis","MN","Sherwin-Williams Paint Store","6445 Penn Ave S","55423",44.88552639113016,-93.30831170082092
"55423","Minneapolis","MN","Johnston's Sales and Service","6433 Penn Ave S","55423",44.88596316031024,-93.30804606777947
"55423","Minneapolis","MN","Twin City Fireplace Company","6916 Washburn Ave S","55423",44.8774528503418,-93.3178482055664
"55424","Minneapolis","MN","Edina Hardware","4510 Valley View Rd","55424",44.892311096191406,-93.33992004394531
"55425","Minneapolis","MN","Bizfrontdir","8151 33rd Avenue South","55425",44.85593032836914,-93.22437286376953
"55425","Minneapolis","MN","Bloomington Garden Center & Landscape Company","9407 Old Cedar Ave S","55425",44.832558,-93.247
"55426","Minneapolis","MN","Kuipers Ace Hardware","7914 Olson Memorial Highway","55427",44.9841899,-93.38169
"55426","Minneapolis","MN","Jerry's Hardware & Rental","2326 Louisiana Ave S","55426",44.959105884771695,-93.37145251613781
"55426","Minneapolis","MN","Mr Paint","7400 W 27th St","55426",44.955560999999996,-93.373359
"55427","Minneapolis","MN","Frattallone's Ace Hardware","3566 Winnetka Ave N","55427",45.0212089,-93.380004
"55427","Minneapolis","MN","Garage Door Repair Golden Valley","Winnetka Ave","55427",44.99785519846393,-93.37988376617432
"55427","Minneapolis","MN","Ferguson Bath, Kitchen & Lighting Gallery","925 Decatur Ave N","55427",44.988265000000006,-93.394447
"55427","Minneapolis","MN","Emergency Lite Service Center","2525 Nevada Ave N","55427",45.00611,-93.37257
"55427","Minneapolis","MN","Dream Floors","1200 Mendelssohn Ave N #110","55427",44.99221420288086,-93.39911651611328
"55427","Minneapolis","MN","Giertsens","not_available","55427",44.988878931750484,-93.38643213338611
"55427","Minneapolis","MN","Custom Glass And Screen","1824 Glenwood Avenue N.","not_available",45.025922,-93.382125
"55428","Minneapolis","MN","Twin City Hardware","5650","55425",45.056286,-93.396025
"55428","Minneapolis","MN","HD Supply White Cap Minneapolis - 126","5205 Hwy 169 Service Rd","55442",45.04901,-93.40071
"55428","Minneapolis","MN","Broadway Rental","6800 W Broadway Ave","55428",45.078974,-93.37569
"55428","Minneapolis","MN","Carpet Country Carpet One Floor & Home","7500 Lakeland Ave N","55428",45.08973531424999,-93.3804389834404
"55428","Minneapolis","MN","AC Carlson, Inc.","8901 Bass Lake Road","55428",45.05754852294922,-93.39349365234375
"55429","Minneapolis","MN","Diaz Painting Interior & Exterior, LLC","5801 73rd Avenue North","55429",45.0863425,-93.3520723
"55429","Minneapolis","MN","Minnesota Air","5524 Lakeland Ave N","55429",45.05310821533203,-93.3556900024414
"55430","Minneapolis","MN","DecksDirect.com","6160 Summit Dr N #200","55430",45.0666692093147,-93.30462098121643
"55430","Minneapolis","MN","Garage Door Repair Brooklyn Center","Summit Dr N","55430",45.06592067960931,-93.30344080924988
"55430","Minneapolis","MN","Roberts-Hamilton Company","6601 Parkway Cir","55430",45.07553167,-93.30953667
"55431","Minneapolis","MN","Penn Lake True Value","2111 W 90th St","55431",44.840548158793354,-93.30717815486695
"55431","Minneapolis","MN","Tamarack Materials","9300 James Avenue South","55431",44.835525,-93.302403
"55431","Minneapolis","MN","Symons","not_available","55431",44.835448,-93.308846
"55431","Minneapolis","MN","ProSource of Bloomington","9201 Penn Ave S Ste 36","55431",44.8367021,-93.30592829999999
"55431","Minneapolis","MN","Jerry's Do it Best Hardware","10530 France Ave S","55431",44.812007191965776,-93.33187513394594
"55432","Minneapolis","MN","The Home Depot","5650 Main St NE","55432",45.07036482746683,-93.27029943466187
"55432","Minneapolis","MN","minuteKEY","8450 University Ave NE","55432",45.12223815917969,-93.26616668701172
"55432","Minneapolis","MN","RAO Manufacturing","200 Mississippi St NE","55432",45.08559,-93.26869
"55432","Minneapolis","MN","All Around Precision Grinding","7751 Elm St NE","55432",45.10859,-93.269726
"55432","Minneapolis","MN","Conklin Products / E & E Enterprises IBO","8315 Lakewood Dr NE","55432",45.119095,-93.24457199999999
"55432","Minneapolis","MN","Dugas-Bowers Plating Co.","7965 Main St NE","55432",45.1130485534668,-93.2679672241211
"55432","Minneapolis","MN","Central Rental","1217-1265 Osborne Rd NE","55432",45.10805174251143,-93.24071645417989
"55433","Minneapolis","MN","Reliable Garage Door","1136 114th Ln NW","55448",45.17823791503906,-93.29530334472656
"55433","Minneapolis","MN","Ace Hardware","9680 Foley Blvd NW","55433",45.152265,-93.301929
"55433","Minneapolis","MN","Dey Distributing","133 85th Ave NW","55433",45.12558364868164,-93.2694320678711
"55433","Minneapolis","MN","Sparky Electric","9008 Loch Lomond Blvd","55443",45.11829,-93.3373
"55433","Minneapolis","MN","Sears","141 85th Avenue NW","55433",45.125291400935026,-93.27015459537506
"55434","Minneapolis","MN","Menards","10251 Baltimore St NE","55449",45.156591036039174,-93.2324982377304
"55434","Minneapolis","MN","The Home Depot","99 Northtown Drive","55434",45.1289978,-93.2642903
"55434","Minneapolis","MN","Lowe's","11651 Ulysess St NE","55434",45.1818773,-93.238667
"55434","Minneapolis","MN","Lumber Liquidators, Inc.","36 County Road 10 NE","55434",45.1315936,-93.265965
"55434","Minneapolis","MN","Sherwin-Williams Paint Store","10690 Baltimore St NE","55449",45.16412651490678,-93.23405742645264
"55434","Minneapolis","MN","Northern Tool and Equipment Blaine","9411 Ulysses St NE","55434",45.141321820195074,-93.23632582176735
"55434","Minneapolis","MN","Fastenal","1440 85th Ave NE","55449",45.125374,-93.233521
"55434","Minneapolis","MN","Garage Door Repair Blaine","Aberdeen St NE","55449",45.19151916053116,-93.23161125183105
"55434","Minneapolis","MN","Frattallone's Ace Hardware","10809 University Ave NE","55434",45.1669589,-93.265687
"55434","Minneapolis","MN","Appliance Repair Inc.","5301 East River RoadSuite 108","55421",45.168235,-93.244019
"55434","Minneapolis","MN","Harbor Freight Tools","not_available","55434",45.184369,-93.235784
"55435","Minneapolis","MN","Hirshfield's","3441 Hazelton Road","55435",44.873528,-93.3239282
"55435","Minneapolis","MN","Pella Windows and Doors","7101 France Ave S","55435",44.874468576525295,-93.32711421042343
"55435","Minneapolis","MN","Oreck","7453 France Ave S","55435",44.86744117009662,-93.32699193713992
"55435","Minneapolis","MN","Hirsshfields Edina","not_available","55435",44.873763,-93.32377591
"55436","Minneapolis","MN","Jerry's Hardware","5033 Vernon Ave S","55436",44.910645959927265,-93.35499332338105
"55437","Minneapolis","MN","Frattallone's Ace Hardware","5135 W 98th St","55437",44.825184,-93.346654
"55438","Minneapolis","MN","Minnesota Air, Inc.","6901 W Old Shakopee Rd","55438",44.807265,-93.372533
"55439","Minneapolis","MN","Fastenal","7521 Washington Ave S","55439",44.86632,-93.398015
"55439","Minneapolis","MN","Pronto Heating & Air Conditioning","7415 Cahill Rd","55439",44.86861159,-93.36232602
"55439","Minneapolis","MN","Sherwin-Williams Product Finishes","7697 Washington Ave S","55439",44.864178,-93.397752
"55441","Minneapolis","MN","The Home Depot","1705 Annapolis Lane","55441",44.9980489,-93.4555856
"55441","Minneapolis","MN","Acme Tools","4150 Berkshire Ln N","55446",45.03190640895263,-93.45439367180217
"55441","Minneapolis","MN","Auer Steel Plymouth","not_available","55441",44.98830466933155,-93.45205787378883
"55441","Minneapolis","MN","Gustave A Larson Co.","13200 10th Ave N","55441",44.98864596533645,-93.44871854746827
"55441","Minneapolis","MN","Fastenal company","2530 Xenium Ln N Ste 100","55441",45.00743,-93.45077
"55441","Minneapolis","MN","United Products","9800 13th Ave N","55441",44.99477005004883,-93.40301513671875
"55441","Minneapolis","MN","Ferguson Plumbing Supply","10205 10th Ave N","55441",44.989211850063214,-93.40924575361745
"55441","Minneapolis","MN","Excelsior","800 Berkshire Ln N","55441",44.98983383178711,-93.45475769042969
"55441","Minneapolis","MN","Schu Marketing","1000 Berkshire Ln N","55441",44.99061965942383,-93.45453643798828
"55441","Minneapolis","MN","Sherwin-Williams Paint Store","10100 6th Ave N","55441",44.98568543263843,-93.4078908639592
"55442","Minneapolis","MN","White Cap Construction Supply","5205 Highway 169 N Ste 100","55442",45.04862005366843,-93.40224109558213
"55442","Minneapolis","MN","HD Supply White Cap","5205 Hwy 169","55442",45.04838845,-93.40295609
"55442","Minneapolis","MN","Ace Electrical Contractors","5465 Highway 169 N","55442",45.052767487066,-93.40215943461216
"55443","Minneapolis","MN","Minneapolis Steel Door","3601 85th Ave N","55443",45.10740029,-93.32851773
"55445","Minneapolis","MN","Menards","7800 Lakeland Ave N","55445",45.09696228676084,-93.38404081130486
"55445","Minneapolis","MN","minuteKEY","8000 Lakeland Ave N","55445",45.1003981,-93.3853226
"55445","Minneapolis","MN","Sherwin-Williams Paint Store","8471 W Broadway Ave","55445",45.10799026489258,-93.37703704833984
"55445","Minneapolis","MN","Border States Electric","9100 Wyoming Ave N","55445",45.121025837248986,-93.37803718450188
"55445","Minneapolis","MN","Break Room","not_available","55445",45.097349,-93.384377
"55446","Minneapolis","MN","Hamel True Value Building Center","18710 Highway 55","55446",45.03999484,-93.51804156
"55446","Minneapolis","MN","Hamel Building Center","Hwy. 55","55446",45.04064178466797,-93.51806640625
"55449","Minneapolis","MN","ABI Machinery Movers Inc","not_available","55449",45.16976947917088,-93.18948984146118
"55449","Minneapolis","MN","Gary Carlson Equipment","10720 Mankato St NE","55449",45.165019,-93.219422
"55449","Minneapolis","MN","Ferguson Plumbing Supply","10039 Goodhue St Ne","55449",45.15277862548828,-93.22601318359375
"55449","Minneapolis","MN","Ferguson Waterworks","1694 91st Ave Ne","55449",45.134769439697266,-93.22682189941406
"55449","Minneapolis","MN","Blaine A-Aaron's","10611 Baltimore St NE #121","55449",45.16286087036133,-93.23126220703125
"55449","Minneapolis","MN","A A & M American Appliance & Mechanical Inc","10519 Nassau St NE, Minneapolis, MN 55449","55449",45.16128921508789,-93.21737670898438
"55449","Minneapolis","MN","O'Day Equipment","1790 Radisson Rd NE","55449",45.13246649672834,-93.2258961293083
"55604","Grand Marais","MN","Cook County Home Center","1413 E Highway 61","55604",47.749417,-90.362841
"55604","Grand Marais","MN","Husqvarna US","PO Box 939","55604",47.79253005981445,-90.35321807861328
"55604","Grand Marais","MN","Buck's Hardware Hank & Spur Station","18 1st Ave W","55604",47.750429358210724,-90.33427284034326
"55607","Isabella","MN","Julie's True Value","12 Shopping Center","55614",47.29356711,-91.271168
"55612","Lutsen","MN","ISAK HANSEN TRUE VALUE","4921 W HIGHWAY 61","55612",47.66136169433594,-90.63909912109375
"55612","Lutsen","MN","Hansen's","not_available","55612",47.661160110096354,-90.63883348279482
"55616","Two Harbors","MN","Seagren's True Value","610 1st Ave","55616",47.01963789,-91.6715476
"55616","Two Harbors","MN","Fastenal","1313","55616",47.041277,-91.666699
"55705","Aurora","MN","Ace Hardware","216 W 3rd Ave N","55705",47.5302848815918,-92.24239349365234
"55706","Babbitt","MN","Lossing Building Center","30 North Dr","55706",47.71384914110679,-91.94577809146877
"55707","Barnum","MN","Hoffmann Ace Hardware","40 Arrowhead Ln","55767",46.448565,-92.768463
"55707","Barnum","MN","Husqvarna US","PO Box 70","55767",46.445011138916016,-92.76103210449219
"55709","Bovey","MN","The Home Depot","2600 S Highway 169","55744",47.2055352187118,-93.52586245811835
"55709","Bovey","MN","L & M Supply Grand Rapids","1400 S Pokegama Ave","55744",47.216643034096506,-93.52600460845946
"55709","Bovey","MN","Cole's Hardware Hank","not_available","55744",47.235046000000004,-93.520003
"55709","Bovey","MN","Viking Electric","807 Lily Ln","55744",47.222246999999996,-93.50999499999999
"55709","Bovey","MN","Sherwin-Williams Paint Store","300 SE 29th St","55744",47.202496999999994,-93.523101
"55709","Bovey","MN","L & M True Value Hardware","1200 E Us Highway 169","55744",47.23591,-93.52832
"55709","Bovey","MN","Burggraf's Ace Hardware","1115 E US Highway 169","55744",47.2362329,-93.511414
"55709","Bovey","MN","L&M TRUE VALUE HDW","1200 E US Highway 169","55744",47.23600387573242,-93.5091323852539
"55710","Britt","MN","Menards","1500 17th St S, Virginia, MN 55792","55792",47.50940121192636,-92.55796425521174
"55710","Britt","MN","L & M True Value Hardware","8497 Enterprise Dr NE","55792",47.5206936,-92.5799004
"55710","Britt","MN","Tractor Supply Co.","1414 S 12th Ave W Ste A, Ste A","55792",47.51160787580864,-92.55368450131982
"55710","Britt","MN","Ferguson Plumbing Supply","1917 S 16th Ave W","55792",47.508152,-92.560074
"55710","Britt","MN","Grande Ace Hardware","212-214 Chestnut Street","55792",47.5228729,-92.534037
"55710","Britt","MN","minuteKEY","1500 17th St S","55792",47.508683000000005,-92.557957
"55710","Britt","MN","minuteKEY","8580 Rock Ridge Dr","55768",47.52116012573242,-92.58982849121094
"55710","Britt","MN","Sherwin-Williams Paint Store","5486 Mountain Iron Dr","55792",47.51643262453202,-92.56157398223877
"55712","Bruno","MN","Moose Lake Ace Hardware","not_available","55795",46.31753,-92.699086
"55720","Cloquet","MN","L & M True Value Hardware","620 Highway 33 S","55720",46.71167511780526,-92.4577213441803
"55720","Cloquet","MN","Hagens Paint & Glass","not_available","55720",46.722687,-92.45518299999999
"55720","Cloquet","MN","McDonald Rental","1208 Highway 33 S","55720",46.705395313141416,-92.45604515075684
"55721","Cohasset","MN","Ferguson Plumbing Supply","26377 Industrial Blvd","55721",47.259588,-93.596334
"55723","Cook","MN","Lumber-Orr-Hardware","not_available","55771",48.054817,-92.831782
"55723","Cook","MN","Northwoods Home Center","not_available","55723",47.850296,-92.691433
"55723","Cook","MN","Northwoods True Value Home Center","114 N Highway 53","55723",47.85050964355469,-92.6908187866211
"55731","Ely","MN","Merhar's Ace Hardware","48 E Chapman St","55731",47.9024229,-91.866102
"55731","Ely","MN","Voyageur Lumber","Sheridan St","55731",47.903359,-91.868254
"55731","Ely","MN","hardware Hank","not_available","55731",47.902407182011274,-91.86444994255459
"55732","Embarrass","MN","Northwoods True Value","730 Highway 169","55790",47.80018615722656,-92.28968048095703
"55736","Floodwood","MN","Floodwood Hardware","114 W 7th Ave","55736",46.926791,-92.915668
"55736","Floodwood","MN","Husqvarna US","PO Box 321","55736",46.891021728515625,-92.91851806640625
"55746","Hibbing","MN","L&M Fleet Supply","1101 E 37th St Ste 2","55746",47.407441806233145,-92.92729205952452
"55746","Hibbing","MN","Lowe's","12025 Highway 169 W","55746",47.4014653,-92.9543583
"55746","Hibbing","MN","L & M Fleet Supply - Hibbing","1101 E 37th St","55746",47.40678,-92.92932
"55746","Hibbing","MN","Lowe's","not_available","55746",47.415909062906074,-92.92746910601493
"55757","Kettle River","MN","The Project Lumber","3519 Lindrose Rd","55733",46.4880256652832,-92.87495422363281
"55760","Mcgregor","MN","DeMenge Sawmill","not_available","55760",46.60841142511118,-93.36596491645153
"55787","Tamarack","MN","Groth Lumber True Value","6747 Pacific Ave","55798",46.672757,-93.00778000000001
"55802","Duluth","MN","Ace Hardware","not_available","54880",46.719448,-92.107506
"55802","Duluth","MN","Tower True Value Hardware","2803 Banks Ave","54880",46.70618388,-92.10558959
"55802","Duluth","MN","Sherwin-Williams Paint Store","2001 Tower Ave","54880",46.714577,-92.104271
"55802","Duluth","MN","Habitat For Humanity","1621 Broadway St","54880",46.7269089,-92.1019055
"55802","Duluth","MN","East End Hardware Hank","2201 E 5th St","54880",46.704776763916016,-92.04981994628906
"55802","Duluth","MN","Ferguson Plumbing Supply","810 Clough Ave","54880",46.72881,-92.090251
"55802","Duluth","MN","Sears","69 North 28th St, Suite 400","54880",46.7076737,-92.0729792
"55803","Duluth","MN","Menards","4809 Miller Trunk Hwy","55811",46.82414732740784,-92.18633021997198
"55803","Duluth","MN","Denny's Ace Hardware","7 E Calvary Rd","55803",46.8511,-92.0815
"55803","Duluth","MN","Sherwin-Williams Paint Store","4767 Miller Trunk Hwy","55811",46.82037475306852,-92.18292607256994
"55803","Duluth","MN","Northern Tool and Equipment","4969 Miller Trunk Hwy","55811",46.834019,-92.204472
"55803","Duluth","MN","Denny's Lawn & Garden","4122 Woodland Ave","55803",46.851237,-92.080024
"55803","Duluth","MN","Wolseley Industrial Group","4209 Airpark Blvd","55811",46.83276,-92.16186
"55803","Duluth","MN","Goodin Company","4437 Venture Ave","55811",46.834005,-92.172423
"55803","Duluth","MN","Border States Electric","4451 Airpark Blvd","55811",46.834604999999996,-92.16814000000001
"55803","Duluth","MN","The Tongue & Groove Store","not_available","55811",46.85006447141535,-92.27315705771711
"55803","Duluth","MN","Tamarack Materials","5393 Miller Trunk Highway","55811",46.84080661,-92.24698544
"55803","Duluth","MN","Marshall Hardware","4501-4531 E Superior St","55804",46.826805783225105,-92.03396141203356
"55803","Duluth","MN","Don Leslie Supply, Inc.","4309 Enterprise Cir","55811",46.831759999999996,-92.16447099999999
"55803","Duluth","MN","minuteKEY","4740 Mall Dr","55811",46.81747055053711,-92.18425750732422
"55803","Duluth","MN","Aluminum Cabinet Co.","4875 swan lake rd.","not_available",46.824248,-92.2148995
"55805","Duluth","MN","Burggraf's Ace Hardware","1301 E Superior St","55805",46.799960999999996,-92.08255799999999
"55806","Duluth","MN","Duluth Glass & Mirror Co","not_available","55807",46.745102,-92.15978
"55806","Duluth","MN","Tool Crib","4332 Grand Ave","55807",46.747695,-92.15534
"55806","Duluth","MN","United Electric - Wesco","4303 W 1st St","55807",46.747057,-92.153246
"55806","Duluth","MN","Sell Hardware","117 S 27th Ave W","55806",46.760026,-92.130735
"55806","Duluth","MN","Viking Electric","15 S 38th Ave W","55807",46.75114822387695,-92.14550018310547
"55806","Duluth","MN","Motion Industries","3009 W Superior St","55806",46.758295000000004,-92.136239
"55807","Duluth","MN","Proctor True Value Bldg Sply","132 3rd Ave","55810",46.74363708496094,-92.22380828857422
"55807","Duluth","MN","Menards","503 N 50th Ave W","55807",46.74116907964859,-92.16036635203179
"55807","Duluth","MN","Andren's Paint Co","5600 Grand Ave","55807",46.73974,-92.16751
"55807","Duluth","MN","Lofgren Small Engine","86 Arbutus Dr","55810",46.74187088012695,-92.20983123779297
"55807","Duluth","MN","Central Sales","315 N Central Ave","55807",46.738199,-92.166102
"55807","Duluth","MN","Larry's T.V.","519 N Central Ave","55807",46.74100112915039,-92.166748046875
"55808","Duluth","MN","Gary Bldrs Supply T V Hardware Home Center","10 E House St","55808",46.6673583984375,-92.22561645507812
"55810","Duluth","MN","Harbor Freight Tools","5115 Burning Tree Rd #201","55811",46.808818,-92.172604
"55811","Duluth","MN","The Home Depot","1101 Mall Drive","55811",46.8017584,-92.1520319
"55812","Duluth","MN","Sherwin-Williams","1801 London Rd","55812",46.802532,-92.073105
"55901","Rochester","MN","The Home Depot","3050 41st St NW","55901",44.06383136274268,-92.50777743046592
"55901","Rochester","MN","Menards","6733 Prairie Vista Dr NW","55901",44.09834091809822,-92.51596187653844
"55901","Rochester","MN","Harbor Freight Tools","4200 Highway 52 N","55901",44.067069621892706,-92.49907634167027
"55901","Rochester","MN","Paul's Lock & Key","1303 Broadway Ave N","55906",44.036146205071866,-92.4632219303336
"55901","Rochester","MN","Arrow Ace Hardware","1500 N Broadway","55906",44.038179532392775,-92.46105769760533
"55901","Rochester","MN","United Products - Rochester","not_available","55901",44.036781311035156,-92.52356719970703
"55901","Rochester","MN","Ferguson Plumbing Supply","3210 Prow Lane Nw","55901",44.0567014850913,-92.5200431641006
"55901","Rochester","MN","Struve's Paint & Decorating","501 North Broadway Avenue","55906",44.028359,-92.463411
"55901","Rochester","MN","Sherwin-Williams Paint Store","1970 36th Ave NW","55901",44.04469,-92.517087
"55901","Rochester","MN","Kreofsky Building Supplies","2711 Commerce Dr NW Ste 600","55901",44.05228042602539,-92.52163696289062
"55901","Rochester","MN","W T Lighting","1418 1st Ave NE #7","55906",44.037626,-92.460509
"55901","Rochester","MN","minuteKEY","3400 55th St NW","55901",44.0769406,-92.5113175
"55901","Rochester","MN","Arrow Ace Hardware","905 37th Street NW","55901",44.0619599,-92.474675
"55901","Rochester","MN","Sherwin-Williams Paint Store","19 7th St NE","55906",44.030665,-92.46194799999999
"55901","Rochester","MN","Arrow Ace Hardware","10 17th Ave SW","55901",44.0232159,-92.487409
"55902","Rochester","MN","Arrow Ace Hardware","1201 S Broadway","55904",44.003872,-92.464782
"55902","Rochester","MN","Minnesota Pipe And Equipment","2913 County 16 Rd SW","55902",43.920957,-92.50573
"55902","Rochester","MN","Ace Hardware Of Sussex","N64 W24330 Main St","53089",43.94972900931868,-92.54376411437987
"55902","Rochester","MN","minuteKEY","3000 S Broadway","55904",43.9784969,-92.4623513
"55902","Rochester","MN","Sherwin-Williams Paint Store","2900 E Frontage Rd Hwy 63 S","55904",43.979475237753384,-92.46127009391785
"55902","Rochester","MN","Kreofsky Building Supplies","3731 Enterprise Dr SW","55902",43.9668927,-92.46721889999999
"55902","Rochester","MN","Arrow Rochester","1201 S Broadway - Crossroads Cente","55904",44.00603,-92.46351
"55904","Rochester","MN","Lowe's","4550 Maine Avenue SE","55904",43.9545708,-92.4595039
"55904","Rochester","MN","Tractor Supply Co.","4205 Maine Ave Southeast","55904",43.961756,-92.459523
"55904","Rochester","MN","Wright Small Engine Repair","not_available","55904",44.00238155057047,-92.45866883956401
"55904","Rochester","MN","Woodruff Company","1524 3rd Ave SE","55904",44.001016,-92.457587
"55904","Rochester","MN","Tamarack Materials","1638 3rd Avenue Southeast","55904",43.998729,-92.457734
"55904","Rochester","MN","afm Countertops","1233 Eastgate Dr SE","55904",44.007975,-92.44024300000001
"55904","Rochester","MN","minuteKEY","25 25th St SE","55904",43.9868117,-92.4597337
"55906","Rochester","MN","A B C Water Conditioning Service","5510 Broadway Ave N","55906",44.079889,-92.44885500000001
"55906","Rochester","MN","Foundation Building Materials","4519 Morris Ln NE","55906",44.070316314697266,-92.45301818847656
"55909","Adams","MN","Adams Builder Supply","not_available","55909",43.564456939697266,-92.71643829345703
"55909","Adams","MN","Adams Builders Supply","205 SW Commerce St","55909",43.5643411,-92.7166273
"55912","Austin","MN","minuteKEY","1000 18th Ave NW","55912",43.68731689453125,-92.98761749267578
"55912","Austin","MN","Rented 'N Save","not_available","55912",43.69041115756294,-92.98049771081767
"55912","Austin","MN","Waste Oil Furnace Distributing, LLC","24476 US Highway 218 N","55912",43.7102526,-92.9896301
"55912","Austin","MN","D & G Ace Hardware","1417 1st Ave SW","55912",43.665678,-92.991158
"55912","Austin","MN","Sears","1300 18th Ave. NW","55912",43.685742,-92.990354
"55912","Austin","MN","Sherwin-Williams Paint Store","1300A 18th Ave NW","55912",43.685703166962846,-92.9902982711792
"55921","Caledonia","MN","Village Farm & Home True Value","11748 State Hwy 43","55954",43.6608727,-91.49144956
"55921","Caledonia","MN","Caledonia True Value","520 Old Highway Dr","55921",43.630247,-91.505033
"55923","Chatfield","MN","Do It Best Hardware","200-298 Main St S","55923",43.845299,-92.18807
"55927","Dodge Center","MN","Sunshine Food Stores","20 Airport Rd N","55927",44.029384,-92.838312
"55936","Grand Meadow","MN","Order Ag -Quality Agricultural Parts, Kinze Planter Parts, Tillage Parts","505","55936",43.70911358503263,-92.5693416595459
"55939","Harmony","MN","Kingsley Merchantile","2 Main Ave N","55939",43.554615999999996,-92.009701
"55940","Hayfield","MN","Hayfield window and door","not_available","55940",43.88058,-92.84705
"55943","Houston","MN","Cox True Value Hardware & Appliance","101 S Grant St","55943",43.762759,-91.569238
"55944","Kasson","MN","Hardware Hank","not_available","55944",44.02640914916992,-92.74816131591797
"55946","Kenyon","MN","Kenyon Ace Hardware","523 2nd St","55946",44.2717159,-92.98795
"55947","La Crescent","MN","Sherwin-Williams Paint Store","818 Palace St","54603",43.85496,-91.244723
"55947","La Crescent","MN","Viking Electric","646 Breezy Point Rd","54603",43.876422,-91.268433
"55947","La Crescent","MN","Harbor Freight Tools","2334 Rose St","54603",43.85615921020508,-91.24430847167969
"55947","La Crescent","MN","Kroner True Value Hardware","319 Pearl St","54601",43.812048,-91.251964
"55947","La Crescent","MN","Gerhard's Kitchen & Bath Store","106 Cameron Ave","54601",43.80720223,-91.25559813
"55947","La Crescent","MN","Heth's Hardware","32 S Walnut St, La Crescent, MN 55947","55947",43.82851791381836,-91.3041000366211
"55947","La Crescent","MN","Bearing Distributors Inc.","not_available","54603",43.826808,-91.255371
"55947","La Crescent","MN","Bluff Country Garage Door Service","560 Bluff Drive","55947",43.82486875,-91.32067183
"55959","Minnesota City","MN","Rollingstone Tv Lumber","111 Elm St","55969",44.096561431884766,-91.81187438964844
"55962","Peterson","MN","Rushford Hardware","402 S Mill St","55971",43.810256,-91.753169
"55963","Pine Island","MN","Pine Island Hardware Hank","201 Main Street","not_available",44.201168,-92.64609346
"55964","Plainview","MN","KBS","not_available","55964",44.158572,-92.17839000000001
"55965","Preston","MN","Root River Appliances & Floor Coverings","129 Saint Paul St SW","55965",43.669682,-92.08374599999999
"55965","Preston","MN","Southbranch Outdoor Equipment","1015 Ridge Rd S","55965",43.66127014160156,-92.08116149902344
"55967","Racine","MN","Kuisle Siding Inc.","78905 Mower Olmsted Rd","55976",43.8336296081543,-92.47144317626953
"55972","Saint Charles","MN","St Charles Ace Hardware","1313 Whitewater Ave","55972",43.965983,-92.064471
"55974","Spring Grove","MN","Mulqueen's True Value Hardware","123 W Main St","55974",43.5609642,-91.63720208
"55975","Spring Valley","MN","Valley Home Improvement","1020 Industrial Dr","55975",43.70034408569336,-92.40296173095703
"55975","Spring Valley","MN","Ace Hardware","630 N Pleasant Ave","55975",43.6957579,-92.396917
"55976","Stewartville","MN","Tiger Ace Hardware","103 Main St N","55976",43.855794,-92.48880799999999
"55981","Wabasha","MN","Interstate. Building Supply","not_available","55981",44.365807000000004,-92.018222
"55981","Wabasha","MN","Hill's Hardware Hanks","180 main st.","55981",44.383969,-92.032001
"55987","Winona","MN","Menards","1075 Frontenac Dr","55987",44.03352895078208,-91.61490839112274
"55987","Winona","MN","Kendell True Value Lumber","115 Franklin St","55987",44.051701,-91.63128
"55987","Winona","MN","Tri-Mac","1 Washington St","55987",44.054999,-91.640276
"55987","Winona","MN","Burggraf's Ace Hardware","320 W 2nd St","55987",44.055842,-91.64301400000001
"55987","Winona","MN","Janet Tapp","156 Galewski Dr","55987",44.07143020629883,-91.70555114746094
"55987","Winona","MN","Brezzes campers","not_available","55987",44.04332733154297,-91.65265655517578
"55987","Winona","MN","Sherwin-Williams Paint Store","1457 W Service Dr","55987",44.04675850582815,-91.67768955230713
"55992","Zumbrota","MN","Pellicci Ace Hardware","90 E 3rd St","55992",44.29469,-92.668325
"55992","Zumbrota","MN","Fridge Filters, Inc.","560 22nd St","55992",44.281416,-92.677806
"56001","Mankato","MN","Menards","1771 Premier Dr","56001",44.182886838185226,-93.9511195128092
"56001","Mankato","MN","Tractor Supply Co.","1771 North Victory Dr","56001",44.182049,-93.9537
"56001","Mankato","MN","The Home Depot","375 St Andrews Dr","56001",44.1834463,-93.9562202
"56001","Mankato","MN","C & S Supply True Value","1951 N Riverfront Dr","56001",44.192933188661115,-93.99494154872343
"56001","Mankato","MN","Blaschko Building Supply","not_available","56001",44.145641999999995,-94.118517
"56001","Mankato","MN","Lloyd True Value Lumber & Supply","1860 Commerce Dr","56003",44.17961883544922,-94.04154968261719
"56001","Mankato","MN","Lindsay Window","1995 Commerce Ln","56003",44.177617,-94.04921
"56001","Mankato","MN","Quality Overhead Door","1125 Cross St","56003",44.182929,-94.011798
"56001","Mankato","MN","Ferguson Plumbing Supply","1321 N Riverfront Dr","56001",44.17911,-93.99148
"56001","Mankato","MN","Arrow Ace Hardware","201 N Victory Dr","56001",44.1649999,-93.970277
"56001","Mankato","MN","Sherwin-Williams Paint Store","350 Saint Andrews Dr","56001",44.18329010621589,-93.95801671920943
"56001","Mankato","MN","minuteKEY","1881 Madison Ave","56001",44.1638647,-93.950746
"56001","Mankato","MN","Richards' Seamless Gutter","151 Saint Andrews Ct Ste 610","56001",44.179522999999996,-93.958526
"56001","Mankato","MN","GMS Industrial Supplies Inc.","217 E Plum St","56001",44.168014,-93.999004
"56001","Mankato","MN","Mutch Northside Hardware","231 Belgrade Ave","56003",44.16984176635742,-94.00720977783203
"56001","Mankato","MN","Builders FirstSource","1631 Stadium Rd.","56001",44.148310112159805,-94.10630106925964
"56007","Albert Lea","MN","The Home Depot","2400 Consul Street","56007",43.6538391,-93.327423
"56007","Albert Lea","MN","Raleigh's Ace Hardware","2525 Bridge Ave","56007",43.6813,-93.359099
"56007","Albert Lea","MN","Sherwin-Williams Paint Store","2328 Hendrickson Rd","56007",43.662010192871094,-93.32685852050781
"56007","Albert Lea","MN","Root river Hardwoods","404 Airport Rd, Albert Lea, MN 56007","56007",43.68042755126953,-93.36376953125
"56007","Albert Lea","MN","Husqvarna US","519 Prospect Ave","56007",43.65361404418945,-93.33605194091797
"56007","Albert Lea","MN","Ecowater","not_available","56007",43.6521110534668,-93.34610748291016
"56007","Albert Lea","MN","Overhead Door Company of Albert Lea","209th Street","not_available",43.669709805074895,-93.323298022883
"56010","Amboy","MN","Kevin's Repair","101 South St E # E","56010",43.8864606,-94.1581252
"56010","Amboy","MN","Do it Best","not_available","56010",43.88755798339844,-94.15747833251953
"56011","Belle Plaine","MN","Do It Best Hardware","not_available","56011",44.62417345524869,-93.76808983599068
"56011","Belle Plaine","MN","True Value","527 Main St","56044",44.52783896,-93.90569916
"56013","Blue Earth","MN","Main Street Hardware","115 S Main St","56013",43.63798522949219,-94.10208892822266
"56013","Blue Earth","MN","Lampert Lumber - Blue Earth","1201 Buccaneer Dr","56013",43.6527918,-94.09187949999999
"56013","Blue Earth","MN","Lamperts","not_available","56013",43.65278892650455,-94.09638456505226
"56019","Comfrey","MN","Clements Lumber - Comfrey","not_available","56019",44.10882,-94.901105
"56026","Ellendale","MN","Floors 4-U","302 5th Ave W","56026",43.8730182,-93.3021478
"56031","Fairmont","MN","Fleet & Farm Supply Inc","1300 N State St","56031",43.651755,-94.45175
"56031","Fairmont","MN","Fairmont True Value","462 S State St","56031",43.64950180053711,-94.44806671142578
"56031","Fairmont","MN","Tractor Supply Co.","1215 North State St Ste 1","56031",43.665689,-94.45004499999999
"56031","Fairmont","MN","Boesch Electric","314 N Main St","56031",43.655287,-94.461999
"56048","Janesville","MN","Ewert's Hardware","not_available","56048",44.1166,-93.707628
"56048","Janesville","MN","Lampert Lumber - Janesville","110 E Front St","56048",44.11527239999999,-93.7064102
"56055","Lake Crystal","MN","LC Ace Hardware","106 S Main St","56055",44.1067189,-94.218553
"56057","Le Center","MN","Lecenter Hardware Hank","not_available","56057",44.387769,-93.731179
"56058","Le Sueur","MN","Saint Peter Insulated Glass","1704 Gault St","56082",44.345420837402344,-93.95723724365234
"56058","Le Sueur","MN","Interstate Building Supply","764 S Elmwood Ave","56058",44.443083,-93.909927
"56058","Le Sueur","MN","Trustworthy Hardware","203 Valley Green Sq","56058",44.46065902709961,-93.91500854492188
"56058","Le Sueur","MN","Bill's Repair & Rental","not_available","56058",44.44463348388672,-93.90856170654297
"56062","Madelia","MN","True Value","2 W Main St","56062",44.05081,-94.41696
"56063","Madison Lake","MN","Max's Hardware","not_available","56063",44.204533,-93.815491
"56065","Mapleton","MN","Mapleton Hardware","216 Main St","56065",43.928544859346545,-93.95605466170643
"56069","Montgomery","MN","Kingsbridge Supply","1004 Marion Ct NE","56069",44.45281,-93.561094
"56069","Montgomery","MN","Genex Cri","703 4th St NW","56069",44.447096,-93.584223
"56069","Montgomery","MN","Franek Ace Hardware","104 Oak Ave SW","56069",44.435535,-93.581215
"56071","New Prague","MN","Ace Hardware & Paint","1300 1st St NE","56071",44.54466,-93.558681
"56071","New Prague","MN","G & K Rental","201 4th Ave SW","56071",44.54219055175781,-93.5835952758789
"56071","New Prague","MN","Mach Lumber, NP","201-299 1st St SW","56071",44.54214,-93.580579
"56071","New Prague","MN","Alco","200 10th Ave SE","56071",44.54205040888747,-93.56240213450583
"56073","New Ulm","MN","Sears","1605 S. Broadway","56073",44.2970904,-94.4440669
"56073","New Ulm","MN","Menards","2200 Westridge Rd","56073",44.32801611662678,-94.51562807748395
"56073","New Ulm","MN","Bauers Hardware","1600-1798 S Broadway St","56073",44.32087157085563,-94.4449493225813
"56073","New Ulm","MN","Retzlaff's Ace Hardware","21 N Minnesota St","56073",44.313815000000005,-94.460107
"56073","New Ulm","MN","The Picker-Uppers LLC","814 N Washington St","56073",44.319568,-94.470726
"56073","New Ulm","MN","Shelter Products, Inc","not_available","56073",44.324441,-94.46067
"56081","Saint James","MN","Fleet & Farm","1175 11th St S","56081",43.97203826904297,-94.61814880371094
"56081","Saint James","MN","True Value","423 1st Ave S","56081",43.98159058,-94.62972879
"56082","Saint Peter","MN","Arrow Ace Hardware & Paint","201 S Minnesota Ave","56082",44.324661686709184,-93.95641015707781
"56082","Saint Peter","MN","Fastenal","106 Grace St","56082",44.32264709472656,-93.95709991455078
"56082","Saint Peter","MN","St. Peter Lumber Company","not_available","56082",44.32423126406076,-93.95536746122932
"56083","Sanborn","MN","Gramstad Lumber Co","311 MAIN STREET","56083",44.2087999,-95.128699
"56085","Sleepy Eye","MN","Clements Lumber - Morgan","not_available","56266",44.41276956265848,-94.93376669760663
"56085","Sleepy Eye","MN","McCabe's Ace Hardware","1200 Main St E","56085",44.297818,-94.708463
"56087","Springfield","MN","Clements Lumber - Springfield","not_available","56087",44.238822042227206,-94.9926154316905
"56088","Truman","MN","BoeKett Building Supply","106 North 5th Avenue East","56088",43.828069,-94.427236
"56093","Waseca","MN","Waseca Floral","810 State St N","56093",44.08520202617765,-93.50707760101251
"56093","Waseca","MN","Bomgars","not_available","56093",44.090595,-93.50587
"56093","Waseca","MN","Charlie's Hardware","121 2nd St NW","56093",44.078365325927734,-93.50918579101562
"56093","Waseca","MN","Builders FirstSource","206 S State St","56093",44.078050053909266,-93.50728869438171
"56096","Waterville","MN","Harrys True Value Hardware","216 E Main St","56096",44.21884837,-93.56753184
"56096","Waterville","MN","Bemis Well Drilling & Service","1600 Highway 13 N","56096",44.235799,-93.584661
"56097","Wells","MN","True Value","33 S Broadway","56097",43.744589000000005,-93.725163
"56097","Wells","MN","Lampert Lumber - Wells","120 N Broadway","56097",43.74674,-93.726062
"56097","Wells","MN","The Shop","not_available","56097",43.5970164,-93.6925428
"56098","Winnebago","MN","Roerig Hardware & Appliance","4 Main St N","56098",43.768113,-94.165418
"56101","Windom","MN","Johnson Hardware","not_available","56101",43.85647201538086,-95.12088775634766
"56101","Windom","MN","Schwalbach Hardware Inc","193 9th St","56101",43.8656569,-95.114649
"56101","Windom","MN","Lampert Lumber - Windom","121 1st Ave S","56101",43.8568394,-95.1146677
"56101","Windom","MN","Lamperts Home Center","101-299 1st Ave S","56101",43.856919516666665,-95.11534413333334
"56110","Adrian","MN","Hardware hank","not_available","56110",43.6391396440671,-95.93138679047001
"56120","Butterfield","MN","Butterfield Hardware","116 2nd St N","56120",43.958639,-94.79513399999999
"56143","Jackson","MN","Coast True Value Marine","502 2nd St","56143",43.621959000000004,-94.987433
"56143","Jackson","MN","Schwalbach Ace Hardware","916 Highway 71 N","56143",43.627272999999995,-94.991129
"56143","Jackson","MN","Bob's Fleet Supply","201-299 Sherman St","56143",43.62148391666667,-94.98835966666667
"56150","Lakefield","MN","Lakefield True Value","304 Main St","56150",43.677797,-95.171681
"56156","Luverne","MN","LUVERNE TRUE VALUE","617 S Kniss Ave","56156",43.647708892822266,-96.21310424804688
"56156","Luverne","MN","Luverne Ace Hardware","210 E Lincoln St","56156",43.654955,-96.207081
"56159","Mountain Lake","MN","Country Pride True Value","1100 3rd Ave","56159",43.9394,-94.92843
"56164","Pipestone","MN","Pipestone True Value","207 E Main","56164",44.000747,-96.319847
"56164","Pipestone","MN","Boomgaars","not_available","56164",44.00142120267888,-96.31909994151894
"56171","Sherburn","MN","Moore and Ace","510 Hwy 4 South","56176",43.754193,-94.720794
"56172","Slayton","MN","Slayton Building Materials","2462 Broadway Ave","56172",43.98916529815597,-95.75661085703287
"56172","Slayton","MN","Spartz Plumbing & Heating","not_available","56172",43.97981,-95.741165
"56172","Slayton","MN","Midwest Supply","2117 Maple Ave","56172",43.99211883544922,-95.75321197509766
"56175","Tracy","MN","Tracy Builders Supply","221 S 4th St","56175",44.232,-95.62275600000001
"56175","Tracy","MN","Husqvarna US","648 Craig Ave","56175",44.23931884765625,-95.62178802490234
"56178","Tyler","MN","Tyler Hardware","not_available","56178",44.277637,-96.135994
"56183","Westbrook","MN","Tri-Town Plumbing & Heating","not_available","56183",44.043312,-95.43576
"56187","Worthington","MN","Tractor Supply Co.","1160 Ryans Rd","56187",43.63437,-95.599049
"56187","Worthington","MN","Ferguson Plumbing Supply","280 Industrial Lane","56187",43.63697814941406,-95.61595153808594
"56187","Worthington","MN","Schwalbach Ace Hardware","1131 Oxford St","56187",43.631397,-95.60003
"56187","Worthington","MN","PRO-Build","711 Kragness Ave N","56187",43.624568939208984,-95.58078002929688
"56187","Worthington","MN","Lampert Lumber - Worthington","849 10th St","56187",43.6245158,-95.6030487
"56201","Willmar","MN","The Home Depot","300 28th Ave SE","56201",45.094663241023866,-95.03782957792282
"56201","Willmar","MN","Runnings","3391-3981 1st St S","56201",45.093447999999995,-95.040723
"56201","Willmar","MN","Willmar Welding & Boiler Supply","not_available","56201",45.103684,-95.051485
"56201","Willmar","MN","Mike's Small Engine Center","1101 Highway 12 E","56201",45.124493,-95.0295976
"56201","Willmar","MN","Sherwin-Williams Paint Store","2807 1st St S","56201",45.095776591734825,-95.0416088104248
"56201","Willmar","MN","Menards","3330 1st St S","56201",45.09334413334923,-95.04503494342764
"56201","Willmar","MN","Grand True Value Rental","2309 Highway 12 E","56201",45.1248661487,-95.0131264217
"56201","Willmar","MN","Grand True Value Rental","2309 Hwy 12 E","56201",45.1216524267166,-95.0747096201981
"56201","Willmar","MN","Perkins Lake Region Lumber","not_available","56288",45.22859603933441,-94.94012292317201
"56201","Willmar","MN","Sherwin Williams","1st Ave","56201",45.12436,-95.12418
"56201","Willmar","MN","Runnings Fleet & Farm","3031 1st St S","56201",45.09311814693123,-95.04024893045425
"56201","Willmar","MN","minuteKEY","700 19th Ave SE","56201",45.10133361816406,-95.03569793701172
"56201","Willmar","MN","Northern States Supply","600 Industrial Dr SW, Willmar, MN 56201","56201",45.116172790527344,-95.07252502441406
"56201","Willmar","MN","Ferguson Plumbing Supply","2205 Trott Ave","56201",45.116788,-95.072983
"56215","Benson","MN","zosals","not_available","56215",45.31382881978182,-95.60023318051213
"56215","Benson","MN","Zosel's True Value Hardware","1221 Pacific Ave","56215",45.313638,-95.600023
"56220","Canby","MN","Canby True Value","204 Saint Olaf Ave N","56220",44.709989,-96.275072
"56221","Chokio","MN","Hooters Lumber True Value","61904 State Hwy 28","56221",45.57125615,-96.17457549
"56223","Clarkfield","MN","Clarkfield Hardware Hank","908 10th St","56223",44.789915,-95.80409667
"56232","Dawson","MN","TRUE VALUE HARDWARE","103 6th Ave","56256",45.0096435546875,-96.193115234375
"56241","Granite Falls","MN","sawmill","not_available","56241",44.805628828567464,-95.54898518519961
"56241","Granite Falls","MN","The Sawmill","1380 7th St","56241",44.805319,-95.548959
"56241","Granite Falls","MN","Hardware Hank","not_available","56223",44.78983860215342,-95.67466178653558
"56248","Herman","MN","HERMAN'S TRUE VALUE HOME CTR","108 6TH ST E","56248",45.80945587158203,-96.14401245117188
"56253","Lake Lillian","MN","Petterson's Electric","491 Lakeview","56253",44.94390573,-94.87982558
"56258","Marshall","MN","Menards","1500 Clarice Ave","56258",44.43044737567705,-95.76459537483585
"56258","Marshall","MN","True Value Marshall","500 N Highway 59","56258",44.456893,-95.795781
"56258","Marshall","MN","Sears","1000 E Southview Drive","56258",44.4369513,-95.7769836
"56258","Marshall","MN","Scott's Electronics","1217 E College Dr","56258",44.45061276,-95.7707793
"56258","Marshall","MN","minuteKEY","1500 Boyer Dr","56258",44.430107,-95.76349599999999
"56258","Marshall","MN","Habitat Restore","707 Fairview St","56258",44.457481,-95.795505
"56258","Marshall","MN","Menards","not_available","56258",44.44631809689396,-95.78787593424738
"56258","Marshall","MN","Patzer's Hardware Hank","411 W Main St","56258",44.448736,-95.791908
"56264","Minneota","MN","Gislason Ace Hardware","106 E 1st St","56264",44.560228,-95.988035
"56265","Montevideo","MN","Builders FirstSource","412 Canton Ave","56265",44.94294356868828,-95.7223105430603
"56265","Montevideo","MN","A & L Plumbing","507 Smith Ave","56265",44.949264,-95.7336176
"56265","Montevideo","MN","Ace Hardware","120 N 1st St","56265",44.945871000000004,-95.724024
"56265","Montevideo","MN","MONTE TRUE VALUE","629 Legion Dr #3","56265",44.95018768310547,-95.70979309082031
"56267","Morris","MN","Town & Country True Value","900 Atlantic Ave","56267",45.589576721191406,-95.91705322265625
"56267","Morris","MN","Hardware Hank","not_available","56267",45.587869,-95.915615
"56267","Morris","MN","Ace Hardware","710 Atlantic Ave","56267",45.5878999,-95.915499
"56273","New London","MN","Husqvarna US","PO Box 233","56288",45.24515151977539,-94.95040130615234
"56273","New London","MN","New London Hardware","not_available","56273",45.300367,-94.943878
"56273","New London","MN","Vegdahl's Hardware Hank","110 Manitoba St","56288",45.236336,-94.939141
"56277","Olivia","MN","Mac's Hardware","1829 W Lincoln Ave","56277",44.77577209472656,-95.00874328613281
"56277","Olivia","MN","Olivia Hardware Hank","not_available","56277",44.775671,-94.989615
"56278","Ortonville","MN","Seehafer Hardware","201-299 S Main St","57252",45.22012577096439,-96.63584296007777
"56278","Ortonville","MN","Seehafer Ace Hardware","1504 Morningside Dr","57252",45.2261829,-96.61096
"56278","Ortonville","MN","Roger's Electric Motor Repair","205 E 22nd Ave","57252",45.2210846,-96.6355972
"56283","Redwood Falls","MN","Fastenal","1303 E Bridge St, Redwood Falls, MN 56283","56283",44.542301177978516,-95.09429931640625
"56283","Redwood Falls","MN","Weltsch Equipment, Inc.","1615 East Bridge Street,Box 477","56283",44.54222106933594,-95.08394622802734
"56296","Wheaton","MN","Builders FirstSource","15 11th St S","56296",45.80366134643555,-96.49790954589844
"56301","Saint Cloud","MN","Menards - St Cloud","251 10th Ave S","56387",45.54818294001138,-94.2306234624791
"56301","Saint Cloud","MN","The Home Depot","401 2nd St S","56387",45.5510085,-94.2225288
"56301","Saint Cloud","MN","Harbor Freight Tools","3340 W Division St","56301",45.552416045751265,-94.20018893844325
"56301","Saint Cloud","MN","Sherwin-Williams Paint Store","106 Division St","56387",45.552779,-94.217382
"56301","Saint Cloud","MN","Mathew Hall Lumber Company","600-998 25th Ave S","56301",45.562303903765674,-94.16144558449362
"56301","Saint Cloud","MN","Geyer Rental","1-99 26th Ave N","56303",45.553353992777446,-94.17607318579073
"56301","Saint Cloud","MN","Viking Electric","625 1st St S","56387",45.55226135253906,-94.22512817382812
"56301","Saint Cloud","MN","Northern Tool And Equipment","230 2nd St S","56387",45.548751571553716,-94.21994453543871
"56301","Saint Cloud","MN","Builders FirstSource","2915 Roosevelt Rd.","56301",45.520714053641576,-94.16378080844879
"56301","Saint Cloud","MN","Granite City Tool","247 28th Ave S","56387",45.55056926682176,-94.2550440567104
"56301","Saint Cloud","MN","Electric Motor Service","not_available","56301",45.553076800882415,-94.18190839986315
"56301","Saint Cloud","MN","Phillips Heating And Air Conditioning","not_available","56304",45.55388990400186,-94.18099519447806
"56301","Saint Cloud","MN","Fastenal","not_available","56303",45.559207315080116,-94.2292597469345
"56301","Saint Cloud","MN","General Rental","2620 1st St N","56303",45.554439425468445,-94.18953001499176
"56301","Saint Cloud","MN","ReStore","2801 W Saint Germain St","56301",45.54743764974821,-94.19120529931632
"56303","Saint Cloud","MN","Arrow Ace Hardware","2006 Veterans Dr","56303",45.56469994926982,-94.18141240161606
"56303","Saint Cloud","MN","Sherwin-Williams Paint Store","132 Twin Rivers Ct","56377",45.593884,-94.19315300000001
"56303","Saint Cloud","MN","Heim Milling Company","32311 County Road 1","56303",45.590568053480474,-94.17780575775376
"56303","Saint Cloud","MN","Power Equipment Plus Sauk Rapids Inc","833 N Benton Dr","56379",45.595774,-94.17652
"56303","Saint Cloud","MN","Czarnetzki Hardware Hank","8 benton drive s","56379",45.589483,-94.165963
"56303","Saint Cloud","MN","Manion's Wholesale Building Supplies","7705 305th St","56303",45.565879821777344,-94.26934814453125
"56303","Saint Cloud","MN","Mathew Hall Distribution Center","not_available","56374",45.566569760568534,-94.26578053390277
"56303","Saint Cloud","MN","Hardware Hank","not_available","56379",45.589554,-94.165794
"56303","Saint Cloud","MN","Joel's Mower Service, Inc.","2750 7th St N, St Cloud, MN 56303","56303",45.56370113838057,-94.19104176257115
"56303","Saint Cloud","MN","Home Depot","not_available","56387",45.58797000970601,-94.22589415985928
"56304","Saint Cloud","MN","Ferguson HVAC Supply","401 Lincoln Ave Ne","56304",45.572,-94.14949
"56304","Saint Cloud","MN","Ace Hardware","755 Mayhew Lake Rd NE","56304",45.5775032043457,-94.13032531738281
"56304","Saint Cloud","MN","Mimbach Fleet Supply","3355 Quail Rd NE","56379",45.5749649,-94.124756
"56304","Saint Cloud","MN","Handyman's Inc.","604 E Saint Germain St","56304",45.56706670000001,-94.14643439999999
"56307","Albany","MN","ALBANY TRUE VALUE HDW","521 Railroad Ave","56307",45.63014221191406,-94.57029724121094
"56307","Albany","MN","Builders FirstSource","200 NE 5th St","56345",45.759469458334635,-94.6852719783783
"56308","Alexandria","MN","Menards","215 50th Ave W","56308",45.84729839277887,-95.38019515812326
"56308","Alexandria","MN","Ace Hardware","406 Broadway St","56308",45.8880059,-95.377995
"56308","Alexandria","MN","Menards","not_available","56308",45.88562727699949,-95.38108111353729
"56308","Alexandria","MN","Sherwin-Williams Paint Store","1402 Broadway St","56308",45.876339,-95.37839100000001
"56308","Alexandria","MN","Husqvarna US","111 50th Ave W","56308",45.845088958740234,-95.37922668457031
"56308","Alexandria","MN","VariTech Industries, Inc.","4115 Minnesota St","56308",45.853026,-95.405343
"56308","Alexandria","MN","grant county lumber","Minnesota 79, Elbow Lake, MN 56531","56531",45.99431155982672,-95.52908925343489
"56309","Ashby","MN","monhagen's","27 Central Ave","56531",46.067367753101834,-95.86431565272211
"56310","Avon","MN","Lee's Ace Hardware","213 Cedar St","56374",45.5676649,-94.320773
"56312","Belgrade","MN","All Ways Plumbing","not_available","56316",45.501805,-95.123936
"56329","Foley","MN","gilman Feed Mill","not_available","56329",45.737101699041304,-93.9535185422662
"56334","Glenwood","MN","Glenwood Fleet Sply & True Valie Hdw","310 15th St SE","56334",45.64714886029195,-95.36672351690535
"56334","Glenwood","MN","Ace of Glenwood","24 Minnesota Ave W","56334",45.650524,-95.39120600000001
"56334","Glenwood","MN","Glenwood Fleet Supply & True Value Hardware","310 15th St Se","56334",45.647268,-95.367177
"56335","Greenwald","MN","Kraemer Lumber & True Value Hardware","826 County Rd 13","56352",45.60017778,-94.86790557
"56338","Hillman","MN","Bear Trax","not_available","56338",46.144739,-93.894288
"56340","Holdingford","MN","Hardware Hank-Holdingford","not_available","56340",45.72986471122217,-94.47073222204847
"56342","Isle","MN","Hardware Hank","not_available","56342",46.13825379368211,-93.46914687796787
"56342","Isle","MN","robinson lumber","not_available","56350",46.32847673680841,-93.25895872821054
"56345","Little Falls","MN","Tractor Supply Co.","1800 1st Ave Northeast Ste 101","56345",45.973209999999995,-94.333499
"56345","Little Falls","MN","Ace Hardware","1101 2nd Ave NE","56345",45.977536,-94.344399
"56345","Little Falls","MN","Fastenal","206 Lemieur St","56345",45.973209381103516,-94.33828735351562
"56345","Little Falls","MN","Hardware Hank","211 E Broadway","56345",45.976403000000005,-94.35996899999999
"56345","Little Falls","MN","Sears","210 1st Street South East","56345",45.9749617,-94.3632521
"56345","Little Falls","MN","LITTLE FALLS FLEET SUPPLY, INC. & TRUE VALUE","101 5th St SW","56345",45.976802825927734,-94.3755111694336
"56345","Little Falls","MN","Little Falls Fleet Supply","1800 1st Ave Ne","56345",45.973209999999995,-94.333499
"56345","Little Falls","MN","General Rental Ctr","14731 Iris Rd","56345",45.93098579999999,-94.3504906
"56347","Long Prairie","MN","Ace Hardware","820 Commerce Rd","56347",45.960325,-94.864603
"56347","Long Prairie","MN","Long Prairie Fleet Supply","940 Commerce Rd","56347",45.957671999999995,-94.864621
"56347","Long Prairie","MN","Fleet Supply","not_available","56347",45.96614456176758,-94.86305236816406
"56352","Melrose","MN","KRAEMER LBR & TRUE VALUE HDWE","826 County Road 13","56352",45.66408157348633,-94.81098175048828
"56359","Onamia","MN","Husqvarna US","34771 US Highway 169","56359",46.05190658569336,-93.66415405273438
"56360","Osakis","MN","Osakis True Value","209 Central Ave","56360",45.86788177,-95.15229034
"56360","Osakis","MN","Builders FirstSource","105 East First Ave","56360",45.86632161017339,-95.1483929157257
"56361","Parkers Prairie","MN","Husqvarna US","PO Box 32","56361",46.152469635009766,-95.32996368408203
"56362","Paynesville","MN","Husqvarna US","412 BRIDGE ST.","56362",45.3782958984375,-94.73009490966797
"56362","Paynesville","MN","Fleet Supply","not_available","56262",45.38256965,-94.73811368333334
"56364","Pierz","MN","Loidolt Lumber","not_available","56364",45.961657,-94.114099
"56367","Rice","MN","Arnies Log & Lawn","245 E. Main Street","56367",45.753894,-94.216797
"56367","Rice","MN","hardware hank and rental","2333 125th St. NM","not_available",45.765164,-94.231985
"56374","Saint Joseph","MN","Tamarack Materials","31068 County Road 133","56374",45.57396944,-94.29431014
"56377","Sartell","MN","Hardware Hank","101 7th St N","56377",45.630201,-94.207645
"56377","Sartell","MN","Thomas Tool","Sartell, MN","56379",45.61376965983474,-94.17865993560673
"56378","Sauk Centre","MN","Sauk Centre Fleet Supply True Value","1050 Centre St","56378",45.72618865966797,-94.96023559570312
"56378","Sauk Centre","MN","Husqvarna US","414 4th St S","56378",45.73609161376953,-94.95093536376953
"56378","Sauk Centre","MN","Ace Hardware","226 12th St S","56378",45.7235999,-94.945099
"56378","Sauk Centre","MN","Steiner Lumber Co.","520 12th St S","56378",45.7238883972168,-94.95343017578125
"56381","Starbuck","MN","Husqvarna US","PO Box 129","56381",45.596370697021484,-95.53508758544922
"56401","Brainerd","MN","Menards","15236 Dellwood Dr","56401",46.37212630735283,-94.24230185868024
"56401","Brainerd","MN","The Home Depot","7207 Foley Road","56425",46.34897163073149,-94.25111889839172
"56401","Brainerd","MN","Ace Hardware","214 W Washington St","56401",46.35864654691236,-94.21449761554067
"56401","Brainerd","MN","Timber Building Supply (ACE Hardware)","14506 Hwy 6","56444",46.36735534667969,-93.8740234375
"56401","Brainerd","MN","Timber Building Supply","14506 State Highway 6","56444",46.4251,-93.877099
"56401","Brainerd","MN","Sears","302 5th Ave NE Ste 3","56401",46.362371427329734,-94.18169663117618
"56401","Brainerd","MN","Builders FirstSource","401 S 8th St","56401",46.35715879430491,-94.20057535171509
"56401","Brainerd","MN","Crosby Ace Hardware","not_available","56441",46.483086,-93.957184
"56401","Brainerd","MN","Ferguson Plumbing Supply","8188 Industrial Park Rd","56425",46.350283,-94.232226
"56401","Brainerd","MN","Deerwood True Value","23682 Front St","56444",46.47365954,-93.90203202
"56401","Brainerd","MN","Harbor Freight Tools","14136 Baxter Dr # 4A","56425",46.356934,-94.225644
"56401","Brainerd","MN","Better Living Concepts","11316 State Highway 210","56401",46.3704457,-94.1609547
"56401","Brainerd","MN","Brainerd Overhead Door Company","10727 Brent Dr","56401",46.312625885009766,-94.23249053955078
"56401","Brainerd","MN","Brainerd Tools  More","18521 State Highway 371","56401",46.42071533203125,-94.29281616210938
"56401","Brainerd","MN","Lingwalls Trustworthy Hardware","not_available","56450",46.29365539550781,-93.82511138916016
"56401","Brainerd","MN","Sherwin-Williams Paint Store","14451 Edgewood Dr","56425",46.36105154297813,-94.24516392331586
"56431","Aitkin","MN","Beartooth True Value Hardware","150 Southgate Dr","56431",46.51660039999999,-93.70523179999999
"56431","Aitkin","MN","Hardware Hank","312 2nd St NE","56431",46.533904,-93.700457
"56433","Akeley","MN","Walker Home Center","8250 Industrial Park Road NW","56484",47.103025,-94.603888
"56433","Akeley","MN","Ace Hardware","124 N Hwy 371","56452",47.10280535160396,-94.60381664029423
"56433","Akeley","MN","Walker Building Center","Heartland State Trail","56484",47.1006936,-94.59279416666666
"56435","Backus","MN","Godfreys True Value","964 State 371 N W","56435",46.82041714,-94.50236
"56435","Backus","MN","Mill's Fleet Farm","not_available","56435",46.80540769470926,-94.29799456867372
"56438","Browerville","MN","lines building center","not_available","56440",46.13051223754883,-94.94664001464844
"56441","Crosby","MN","Crosslake Ace Hardware","35592 Pioneer Dr","56442",46.6792999,-94.098699
"56441","Crosby","MN","Husqvarna US","PO Box 1080","56442",46.67726516723633,-94.11283874511719
"56446","Eagle Bend","MN","Eagle Bend Farm & Lumber","not_available","56446",46.164949,-95.035947
"56447","Emily","MN","Emily Ace Hardware","39959 State Hwy 6","56447",46.7312,-93.9581
"56452","Hackensack","MN","Do It Best Hardware","Highway 371","56484",46.930934141933115,-94.52027119964039
"56452","Hackensack","MN","Tim's Outboard Repair","3080 20th Ave NW","56452",46.915486,-94.384068
"56452","Hackensack","MN","Lakes Area Building Center","9 County Road 11 NW","56655",46.9167119,-94.279219
"56452","Hackensack","MN","Hackensack Hardware & Lumber","124 State Highway 371 N","56452",46.93082298767354,-94.52003971174787
"56452","Hackensack","MN","Husqvarna US","312 Highway 371 S","56452",46.927005767822266,-94.52130126953125
"56461","Laporte","MN","Leech Lake Lumber & True Value Hardware","9675 State 371 Nw","56484",47.15120829,-94.64056506
"56461","Laporte","MN","LEECH LAKE LBR & T V HDWE","9675 State 371 NW","56484",47.15298843383789,-94.6422348022461
"56464","Menahga","MN","Ted's Trustworthy Hardware","114 Aspen Ave SE","56464",46.7528190612793,-95.09672546386719
"56464","Menahga","MN","Cooperative Sampo True Value","12 Se Birch Ave","56464",46.754511,-95.09639
"56464","Menahga","MN","Husqvarna US","PO Box 318","56464",46.76634216308594,-95.12173461914062
"56464","Menahga","MN","PERHAM COOPERATIVE CREAMERY ASSOCIATION","12 SE BIRCH AVE","56464",46.75435256958008,-95.09648895263672
"56468","Nisswa","MN","Carlson Hardware Of Nisswa","25673 Main St","56468",46.523505,-94.291597
"56470","Park Rapids","MN","L & M True Value Hardware","1307 E First St","56470",46.92183276,-95.03201292
"56470","Park Rapids","MN","Northland Lumber","1001 First St W","56470",46.922498150813304,-95.07619040573465
"56470","Park Rapids","MN","Kedai Chew Kim Sha","59","56470",46.96501,-95.035762
"56470","Park Rapids","MN","JCPenny","802 1st St E","56470",46.92160415649414,-95.04692077636719
"56470","Park Rapids","MN","Dan's All Season Service, Inc.","2012 Park Ave S","56470",46.901714,-95.05896
"56470","Park Rapids","MN","Salvage Depot","113 Main Avenue","56470",46.92197991640028,-95.05211823898404
"56470","Park Rapids","MN","L&M Fleet Supply","1307 1st St E","56470",46.922685430433965,-95.03310956085204
"56472","Pequot Lakes","MN","Breezy Point Ace Hardware","8170 County Road 11","56472",46.5915949,-94.220145
"56472","Pequot Lakes","MN","Builders FirstSource","4326 E Sibley St","56472",46.60480107229948,-94.31401133537292
"56477","Sebeka","MN","Husqvarna US","PO Box 273","56477",46.62947082519531,-95.06008911132812
"56479","Staples","MN","Staples Hardware","210 2nd Ave NE","56479",46.355394,-94.797306
"56479","Staples","MN","Staples True Value","205 Warner Rd Ne","56479",46.369168,-94.79673
"56481","Verndale","MN","Merickel Ace Hardware","630 Ash Ave NW","56482",46.440772,-95.132003
"56482","Wadena","MN","Merickel's","630 Ash","56482",46.44721460275909,-95.14849563296373
"56482","Wadena","MN","Culligan","not_available","56482",46.444392,-95.14072900000001
"56501","Detroit Lakes","MN","Menards","not_available","56501",46.823104224496596,-95.87528610845608
"56501","Detroit Lakes","MN","L & M Fleet Supply - True Value","1100 U.S. 59","56501",46.8198922,-95.8640326
"56501","Detroit Lakes","MN","Builders FirstSource","950 Randolph Rd","56501",46.82611101683743,-95.8119285106659
"56501","Detroit Lakes","MN","Beug's Ace Hardware","801 Washington Ave","56501",46.817956,-95.84494000000001
"56501","Detroit Lakes","MN","Oakland True value general Store","22400-22558 Old 59 Rd","56572",46.812746,-95.831648
"56501","Detroit Lakes","MN","minuteKEY","1465 Menard Dr","56501",46.822668,-95.875061
"56501","Detroit Lakes","MN","Husqvarna US","PO Box 188","56502",46.81721878051758,-95.84501647949219
"56510","Ada","MN","Ada Building Center","2744 State Highway 200","56510",47.29631042480469,-96.49910736083984
"56510","Ada","MN","McCollum Hardware","not_available","56510",47.30001,-96.514647
"56510","Ada","MN","McCollum Hardware","402 E Main St","56510",47.29988163,-96.51524612
"56514","Barnesville","MN","City Center Drug & Hardware","not_available","56514",46.6521830352945,-96.42067430122347
"56515","Battle Lake","MN","Husqvarna US","PO Box 623","56515",46.298309326171875,-95.71112060546875
"56515","Battle Lake","MN","Battle Lake Hardware","not_available","56515",46.28167998464381,-95.71440808685908
"56515","Battle Lake","MN","Everts Lumber Company","205 Lake Ave S","56515",46.28052,-95.71328
"56520","Breckenridge","MN","Farm City Supply","700 minnesota ave","56520",46.263614733333334,-96.58500085
"56520","Breckenridge","MN","Ace Hardware","1005 Dakota Ave","58075",46.263648986816406,-96.6149673461914
"56520","Breckenridge","MN","Tractor Supply Co.","1202 4th Ave South","58075",46.26177215576172,-96.61823272705078
"56520","Breckenridge","MN","Builders FirstSource","7929 180th Ave SE","58075",46.26366424560547,-96.6374740600586
"56520","Breckenridge","MN","Stenerson Lumber","not_available","56520",46.263917,-96.588064
"56520","Breckenridge","MN","Sears Hometown Store","822 Dakota Ave","58075",46.2646547,-96.6122409
"56531","Elbow Lake","MN","project central","not_available","56531",45.99135208129883,-95.9765853881836
"56537","Fergus Falls","MN","The Home Depot","2025 Lincoln Avenue West","56537",46.2866457,-96.1119853
"56537","Fergus Falls","MN","American Welding & Gas","1440 W Lincoln Ave, Fergus Falls, MN 56537","56537",46.28489903782331,-96.1005323138233
"56537","Fergus Falls","MN","Builders FirstSource","1315 Pebble Lake Rd","56537",46.283376780187254,-96.07783198356628
"56537","Fergus Falls","MN","Fastenal","833 N Tower Rd, Fergus Falls, MN 56537","56537",46.28886709177817,-96.10258929384837
"56537","Fergus Falls","MN","Sears","211 West Lincoln Avenue","56537",46.2832059,-96.0767474
"56537","Fergus Falls","MN","Sherwin-Williams Paint Store","2445 College Way","56537",46.2902,-96.1152
"56540","Fertile","MN","Hardware Hank","not_available","56540",47.535729681782186,-96.28070146629837
"56542","Fosston","MN","Burggraf's Ace Hardware","306 1st St E","56542",47.574959,-95.749003
"56542","Fosston","MN","McIntosh Hardware","not_available","56556",47.638903,-95.886996
"56544","Frazee","MN","Ace Hardware","101 E Main St","56587",46.65628433227539,-95.80538940429688
"56544","Frazee","MN","Vergas Ace","not_available","56587",46.656696,-95.804635
"56549","Hawley","MN","Builders FirstSource","801 Burns St","56549",46.876331,-96.319085
"56551","Henning","MN","Husqvarna US","PO Box 155","56551",46.31827163696289,-95.46056365966797
"56554","Lake Park","MN","Hardware Hank","US Hwy 10 E","56554",46.87667,-96.09871
"56557","Mahnomen","MN","True Value","108 S Main St","56557",47.315011,-95.96813399999999
"56560","Moorhead","MN","Menard's","3000 27th Ave S","56560",46.850021749724405,-96.72950814195096
"56560","Moorhead","MN","Harbor Freight Tools","3207 Main Ave Ste C","58103",46.87638553867942,-96.83112148145524
"56560","Moorhead","MN","Moorhead Ace","20 6th St S","56560",46.8748,-96.7707
"56560","Moorhead","MN","Burggraf's Ace Hardware","2810 University Dr S","58103",46.836838,-96.797984
"56560","Moorhead","MN","Mac's Inc","2537 Highway 10 E","56560",46.875149,-96.739368
"56560","Moorhead","MN","Nodak Stores","3515 Main Ave","58103",46.87692158046299,-96.83677203910771
"56560","Moorhead","MN","Scheels Ace Hardware","3202-13th Ave S","58103",46.8613629,-96.830337
"56560","Moorhead","MN","Acme Tool Crib","920 36th St S","58103",46.86574995517731,-96.83886051177979
"56560","Moorhead","MN","Twin Cities Sharpening","2940 Fiechtner Dr S","58103",46.8744936,-96.8228715
"56560","Moorhead","MN","Builders FirstSource Design Showroom","5631 36th Ave. South, Suite 200, Building A","58104",46.8245400565395,-96.83099627494812
"56560","Moorhead","MN","Rhi Supply","345 19th St N","58102",46.881108,-96.809972
"56560","Moorhead","MN","SK Professionals","not_available","58102",46.88343927073979,-96.81755530405735
"56560","Moorhead","MN","Sherwin-Williams Product Finishes","920 Main Ave","58103",46.87438,-96.793664
"56560","Moorhead","MN","Ferguson Waterworks","1917 1st Ave N","58102",46.877543,-96.811631
"56560","Moorhead","MN","Tidd's Paint & Hardware","3105 Broadway N Ste 14","58102",46.91766357421875,-96.7856674194336
"56560","Moorhead","MN","norandex","not_available","56560",46.844072,-96.711501
"56560","Moorhead","MN","Dey Distributing","2810 3rd Ave N","58102",46.880026,-96.825269
"56560","Moorhead","MN","D & M Industries","4205 30th Ave S","56560",46.842871,-96.70663
"56560","Moorhead","MN","Lavelle Lumber","not_available","58103",46.87147172185101,-96.82938929747719
"56560","Moorhead","MN","True Value Hardware","828 30th Ave S","56560",46.844908000000004,-96.7662
"56567","New York Mills","MN","Hardware Hank","not_available","56567",46.520397,-95.3676
"56567","New York Mills","MN","Bligged","55112 145th Street","56567",46.46718711888634,-95.34405469894409
"56567","New York Mills","MN","Husqvarna US","17 E CENTENNIAL DR","56567",46.52646255493164,-95.37535858154297
"56567","New York Mills","MN","Cenex-Hardware Hank","141 N. Broadway","56567",46.52090835571289,-95.37152099609375
"56567","New York Mills","MN","Lumber Depot","110 East Centennial 84 Drive","56567",46.5160978,-95.3715044
"56571","Ottertail","MN","tooldesk.com","40423 County Highway 1","56576",46.4356211,-95.64870309999999
"56572","Pelican Rapids","MN","Lakeland General Store True Value","22438 Old 59 Rd","56572",46.658111217575424,-96.02674438219702
"56573","Perham","MN","Mark's Home & More","300 Jake St","56573",46.58361,-95.5778737373737
"56573","Perham","MN","Ace Hardware","130 W Main St","56573",46.5944,-95.5732
"56573","Perham","MN","Karvonen's","151 W Main St","56573",46.5944395,-95.5737796
"56573","Perham","MN","Bretz Hardware","1st Avenue","56573",46.593546,-95.573049
"56573","Perham","MN","Marks Fleet Supply True Value","945 Market St","56573",46.582645416259766,-95.57009887695312
"56584","Twin Valley","MN","KBI lumber yard","1st St SW","56584",47.24749751666667,-96.25876748333333
"56584","Twin Valley","MN","Buckles Hardware","not_available","56584",47.2603610623494,-96.25990002904588
"56601","Bemidji","MN","Menards","2600 Paul Bunyan Dr NW","56601",47.494738838949075,-94.91858470358228
"56601","Bemidji","MN","The Home Depot","2425 Middle School Dr NW","56601",47.492399295361515,-94.91448283195496
"56601","Bemidji","MN","Ace On The Lake","600 Paul Bunyan Dr S","56601",47.46425,-94.870645
"56601","Bemidji","MN","A+ Plumbing Bemidji LLC","3865 Graycalm Ct SE","56601",47.416635,-94.81365500000001
"56601","Bemidji","MN","Builders FirstSource","1635 Paul Bunyan Dr Nw","56601",47.494020223901295,-94.90447282791138
"56601","Bemidji","MN","CASS LAKE BLDG CTR&TRUE VALUE","6259 Lower Cass Frontage Rd","56633",47.3819465637207,-94.61616516113281
"56601","Bemidji","MN","BEMIDJI CENEX TRUE VALUE HDWE","320 3rd St NW","56601",47.4702262878418,-94.88378143310547
"56601","Bemidji","MN","northern precision machine","not_available","56601",47.438587,-94.847272
"56601","Bemidji","MN","Northwoods Lumber Co.","5422 U.S. 71","56601",47.5339939194992,-94.8962170985898
"56601","Bemidji","MN","North Country Business Products, Inc.","1112 Railroad St SE","56601",47.44527816772461,-94.8524169921875
"56601","Bemidji","MN","Ferguson Plumbing Supply","4221 Cardinal Rd Nw","56601",47.511417,-94.949034
"56601","Bemidji","MN","Sherwin-Williams Paint Store","2405 Middle School Dr NW","56601",47.492500786105396,-94.91275280714035
"56601","Bemidji","MN","L & M True Value Hardware","2740 Paul Bunyan Dr Nw","56601",47.49820391,-94.92118244
"56601","Bemidji","MN","Clams Hardware Hank","419 Aspen Ave NW","56633",47.38177490234375,-94.61161804199219
"56601","Bemidji","MN","Border States","3405 Hannah Ave NW","56601",47.50114822387695,-94.90753173828125
"56623","Baudette","MN","Hometown Variety","not_available","56623",48.71261212104099,-94.6102556246739
"56623","Baudette","MN","Fischers True Value Hardware","106 N Main","56623",48.71403109,-94.60252099
"56628","Bigfork","MN","Unger's South-End Sales","not_available","56628",47.74103927612305,-93.65657043457031
"56628","Bigfork","MN","Husqvarna US","PO Box 5","56628",47.694942474365234,-93.61761474609375
"56628","Bigfork","MN","Lakeside Lumber And Hardware","49208 State Hwy. 38","56657",47.59132362045638,-93.68919141143382
"56628","Bigfork","MN","Bigfork Hardware","100 Ottum Ave","56628",47.74705748182813,-93.65609971389233
"56629","Birchdale","MN","DEGAGNE EQUIPMENT","BOX 360 HWY 11/71 EMO ON P0W 1E0","P0W 1E0",48.62979507446289,-93.83638763427734
"56629","Birchdale","MN","Tompkins Home Hardware","82 Front St.","P0W 1E0",48.629533403079925,-93.83646011352539
"56629","Birchdale","MN","Husqvarna","5959 Hwy 11/71","P0W 1E0",48.62979507446289,-93.83638763427734
"56630","Blackduck","MN","Northome True Value","not_available","56661",47.83708993370564,-94.24172862181685
"56630","Blackduck","MN","Northome True Value","12063 Main St","56661",47.872828999999996,-94.280576
"56634","Clearbrook","MN","Hardware Hank","Main St","not_available",47.693641,-95.42746700000001
"56636","Deer River","MN","Jurvelin Hardware","not_available","56636",47.33271752178811,-93.79245729093277
"56644","Gonvick","MN","MS (^_^*)","Winsor","not_available",47.812638,-95.538542
"56649","International Falls","MN","Menards","not_available","56649",48.58639282704688,-93.44090479146038
"56649","International Falls","MN","BADIUK EQUIPMENT LIMITED","HWY 11/71 W BOX 755 FT. FRANCES ON P9A 3N1","P9A 3N1",48.619503021240234,-93.41450500488281
"56649","International Falls","MN","north american lumber","861 Kings Hwy","P9a2x5",48.607212,-93.425209
"56649","International Falls","MN","Canadian Tire","1000 King'S Highway","P9A 2X6",48.60839259999999,-93.4293807
"56649","International Falls","MN","minuteKEY","1985 Valley Pine Cir","56649",48.587215423583984,-93.44135284423828
"56649","International Falls","MN","Husqvarna US","3122 Highway 332","56649",48.56573486328125,-93.37598419189453
"56655","Longville","MN","Arrowhead Builders Supply True Value","5159 Hwy 84 No","56655",46.99179,-94.21104
"56655","Longville","MN","Ace Hardware","186 Reservation Ave","56655",46.98577117919922,-94.21003723144531
"56655","Longville","MN","Ron's ""Do It Best"" Hardware","5076 State Highway 84","56655",46.98836898803711,-94.20970916748047
"56655","Longville","MN","Lake Region Builders Inc.","4670 N Rice Lake Rd NE","56655",46.96669016834714,-94.14579024266166
"56655","Longville","MN","Ace Hardware","not_available","56655",47.008217,-94.20202
"56701","Thief River Falls","MN","Hardware Hank","17108 US Highway 59 NE","56701",48.12327575683594,-96.20686340332031
"56701","Thief River Falls","MN","Builders FirstSource","1301 Third St West","56701",48.1210553677178,-96.20069861412048
"56701","Thief River Falls","MN","Tractor Supply Co.","1525 Hwy 59 South","56701",48.11554718017578,-96.15731048583984
"56701","Thief River Falls","MN","Evans Steel Co","not_available","56701",48.151453,-96.19299
"56701","Thief River Falls","MN","Ace Hardware","209 Main Ave N","56701",48.118536,-96.18195300000001
"56701","Thief River Falls","MN","Fastenal","930 30th Str NE","56701",48.11729514906875,-96.18153937686985
"56714","Badger","MN","Ace Hardware","Main Street","56726",48.7027,-96.181719
"56716","Crookston","MN","Crookston True Value","111 N Main","56716",47.77501674,-96.60814314
"56716","Crookston","MN","Dodas Hardware Hank Garden Market","not_available","56716",47.785921836221554,-96.61037534648354
"56716","Crookston","MN","Fleet Supply","1318 University Ave","56716",47.78541193405365,-96.61004013198638
"56721","East Grand Forks","MN","Menards","3550 32nd Ave S","58201",47.89062061394667,-97.07926006472451
"56721","East Grand Forks","MN","Lowe's","4001 32nd Avenue South","58201",47.8866424,-97.0850753
"56721","East Grand Forks","MN","Burggraf's Ace Hdw/Paint","1826 S Washington St","58201",47.9027699,-97.045559
"56721","East Grand Forks","MN","Harbor Freight Tools","not_available","58201",47.895787,-97.067195
"56721","East Grand Forks","MN","Simonson","not_available","58203",47.931208,-97.041068
"56721","East Grand Forks","MN","Dakota TV & Appliance","2218 32nd Ave S","58201",47.890029,-97.058847
"56721","East Grand Forks","MN","Structural Materials","5411 Gateway Dr","58203",47.93259558285666,-97.0865704404718
"56721","East Grand Forks","MN","ACME Rents","1702 12th Ave N","58203",47.93148422241211,-97.0505142211914
"56721","East Grand Forks","MN","Lumbermart","1901 32nd Ave S","58201",47.888279,-97.055308
"56721","East Grand Forks","MN","Surplus Center Inc","1730 N Washington St","58203",47.936912,-97.056465
"56721","East Grand Forks","MN","Northern Plumbing Supply","2010 Mill Rd, Grand Forks, ND 58203","58203",47.940399,-97.05431999999999
"56721","East Grand Forks","MN","Alberts Custom Woodwork, Inc","1724 Dyke Ave","58203",47.919138,-97.052292
"56721","East Grand Forks","MN","Hardware Hank","1017 Central Ave NW","56721",47.93500762348754,-97.02109498135113
"56721","East Grand Forks","MN","Simonson Lumber & Hardware True Value","800 3rd St N","58203",47.9309,-97.04043
"56721","East Grand Forks","MN","The Garden Hut","949 2nd Ave N","58203",47.92064361588225,-97.03974579999999
"56721","East Grand Forks","MN","Fastenal","2703 Valley Cir","58203",47.934008,-97.066541
"56721","East Grand Forks","MN","Sherwin-Williams Paint Store","3013 32nd Ave S","58201",47.887646,-97.071636
"56721","East Grand Forks","MN","Bobcat Of Grand Forks","Gateway Dr.","58203",47.93256104852459,-97.08653745415344
"56721","East Grand Forks","MN","Fastline Plumbing LLC","1104 Boyd Dr","58203",47.930429,-97.077693
"56721","East Grand Forks","MN","H2O Inc","3900 N Washington St","58203",47.961215,-97.07249200000001
"56721","East Grand Forks","MN","Border States Electric","2104 Mill Rd","58203",47.941055,-97.05510600000001
"56722","Euclid","MN","Hardware Hank","not_available","56762",48.021663377387775,-96.55910513756234
"56728","Hallock","MN","Gullander Hardware","220 Atlantic Ave N","not_available",48.77376589204321,-96.94601070502756
"56732","Karlstad","MN","Karlstad True Value Hardware","103 Main St S","56732",48.577850341796875,-96.5218734741211
"56751","Roseau","MN","Fleet","not_available","56751",48.84624099731445,-95.76290893554688
"56751","Roseau","MN","Coast True Value","108 Main Ave N","56751",48.8463151,-95.76285755
"56751","Roseau","MN","Ace Hardware","1114 3rd St NW","56751",48.846819,-95.780411
"56762","Warren","MN","True Value","126 E Johnson Ave","56762",48.19736054,-96.77107225
