"zip","city","state","name","address","postalCode","lat","lon"
"84001","Altamont","UT","Swasey's True Value Hardware","#1 Main St","84001",40.35914,-110.24221
"84003","American Fork","UT","The Home Depot","885 W Grassland Drive","84003",40.38421004408479,-111.82285398250309
"84003","American Fork","UT","Lowe's","242 North 1200 East","84043",40.390713,-111.8257438
"84003","American Fork","UT","Ace Hardware Lone Peak","5353 Parkway East Dr","84003",40.428779999999996,-111.78667800000001
"84003","American Fork","UT","The Home Depot","9570 S Highland Dr","84092",40.5779724,-111.8379025
"84003","American Fork","UT","Allred's Ace Hardware","330 S Main St","84062",40.359712,-111.74118
"84003","American Fork","UT","Burton Lumber","1430 W. 70 S.","not_available",40.33517762485502,-111.75123332637374
"84003","American Fork","UT","Garage Door Repair American Fork","North 900 West","84003",40.389115990879745,-111.82202339172363
"84003","American Fork","UT","Sherwin-Williams Paint Store","657 W Pacific Dr","84003",40.3814834082929,-111.81582612297967
"84003","American Fork","UT","minuteKEY","1707 West State St.","84062",40.3680168,-111.759741
"84003","American Fork","UT","Standard True Value - American Fork","641 S 500 E","84003",40.362160198946164,-111.78231596946716
"84003","American Fork","UT","Bella Granite and Marble Inc.","63 E State Rd","84062",40.358546747593074,-111.73975467681885
"84003","American Fork","UT","Kwal Paints","not_available","not_available",40.380828857421875,-111.81336975097656
"84003","American Fork","UT","Small Engine Surgeon","97 north Center","84003",40.378861,-111.798952
"84003","American Fork","UT","nicestumble","3784 W Valley View Dr","84062",40.403024,-111.748848
"84003","American Fork","UT","Harbor Freight Tools","not_available","84043",40.387367,-111.83034199999999
"84003","American Fork","UT","Hk Composites","926 S Auto Mall Dr Ste 4","84003",40.357952,-111.78865
"84003","American Fork","UT","BJ Plumbing Supply","992 E State Rd","84003",40.370298999999996,-111.771477
"84003","American Fork","UT","Diamond Rental","1416 W State Rd","84062",40.36888,-111.761546
"84003","American Fork","UT","Sherwin-Williams Paint Store","176 N West State Rd","84003",40.380836486816406,-111.81319427490234
"84003","American Fork","UT","Adamson Construction","820 N 1200 E","84043",40.397240999999994,-111.82952900000001
"84003","American Fork","UT","minuteKEY","949 W Grassland Dr","84003",40.384785,-111.825096
"84003","American Fork","UT","OnlineSafetyDepot.com","770 E Main St #201","84043",40.38780849972106,-111.83708667755127
"84003","American Fork","UT","Standard Plumbing Supply","190 E Main St","84043",40.38761901855469,-111.8462142944336
"84003","American Fork","UT","Garage Door Repair Alpine UT","West Canyon Crest Rd","84004",40.448955550534265,-111.7805027961731
"84005","Eagle Mountain","UT","Ridley's Family Market Ace Hardware","4045 E Pony Express Parkway","84005",40.3621399,-111.9771
"84010","Bountiful","UT","Lowe's","350 N 545 W","84010",40.8920061,-111.8944934
"84010","Bountiful","UT","Kwal Paint","1420 S 500 W","84010",40.875849366083955,-111.89269423484802
"84010","Bountiful","UT","Mac's Lock and Key","544 W 750 S","84010",40.882002,-111.89381682
"84010","Bountiful","UT","Standard Plumbing","not_available","84010",40.882534,-111.893461
"84010","Bountiful","UT","Bob's Tree Service","724 W 500 S","84087",40.884273,-111.899956
"84010","Bountiful","UT","Standard True Value - Bountiful","563 W 750 S","84010",40.88240385120576,-111.89767241477966
"84010","Bountiful","UT","Garage Door Repair Bountiful","S Main St W","84010",40.880976196865056,-111.88002347946166
"84010","Bountiful","UT","Colonial Ace","380 E Pages Ln","84014",40.905644,-111.87298
"84010","Bountiful","UT","Sherwin-Williams Paint Store","555 S 500 W","84010",40.883073,-111.891808
"84010","Bountiful","UT","South Fork Hardware","1075 N 500 E","84054",40.86061477661133,-111.89824676513672
"84010","Bountiful","UT","Sherwin-Williams Paint Store","1420 S 500 E","84010",40.875484466552734,-111.87080383300781
"84010","Bountiful","UT","Workshop","104 S Fairway Dr","84054",40.839717864990234,-111.8873062133789
"84010","Bountiful","UT","Utah Saworks Inc","1051 S 800 W","84087",40.879025,-111.901704
"84013","Cedar Valley","UT","Cedar Fort IFA","210 E","84013",40.32419294157545,-112.10174560546875
"84014","Centerville","UT","The Home Depot","50 N Market Place Dr","84014",40.9160225,-111.8870053
"84014","Centerville","UT","Colonial Bldg Supply Inc","530 N 400 W","84014",40.9227089,-111.88444
"84015","Clearfield","UT","Lowe's","1986 North 2000 West","84015",41.1425676,-112.0606663
"84015","Clearfield","UT","Kwal Paint","426 N Main St","84015",41.11970901489258,-112.02567291259766
"84015","Clearfield","UT","Hardware Store","not_available","84075",41.08897161535407,-112.04431561434473
"84015","Clearfield","UT","Vinyl fence connection","not_available","84041",41.080172,-111.989783
"84015","Clearfield","UT","Garage Door Repair Clinton UT","N 1800 W","84015",41.133676002337296,-112.05996751785278
"84015","Clearfield","UT","Kearsley True Value Hardware","520 State St","84015",41.10611767,-112.0184312
"84015","Clearfield","UT","Ace Hardware","1080 W 300 N","84015",41.1188769,-112.04659
"84015","Clearfield","UT","Universal Rent-All","735 N Main St","84015",41.12526027480857,-112.02704452513126
"84015","Clearfield","UT","Dallas Green Farm and Home","420 W 1700 S #B","84015",41.089824,-112.03455
"84015","Clearfield","UT","Ace Hardware","1792 S 1000 W","84075",41.087928771972656,-112.04581451416016
"84015","Clearfield","UT","South Fork Hardware","936 W 1700 S","84075",41.089487103734655,-112.04445534054733
"84015","Clearfield","UT","Fastenal","1510 W Gordon Ave","84041",41.07499313354492,-111.9937973022461
"84015","Clearfield","UT","RC Willey","2205 N 1400 W","84041",41.0921689,-111.9912406
"84020","Draper","UT","Jenson Lumber","not_available","84020",40.5293083190918,-111.88855743408203
"84020","Draper","UT","Sherwin-Williams Paint Store","448 E 12300 S","84020",40.526035,-111.87876200000001
"84020","Draper","UT","HardwareLine","110 W 13775 S #9","84020",40.500971,-111.894383
"84020","Draper","UT","minuteKEY","1360 E Draper Pkwy","84020",40.52669906616211,-111.85249328613281
"84020","Draper","UT","Floor Pro Solutions","14587 S 790 W","84065",40.48649215698242,-111.91240692138672
"84020","Draper","UT","Quality Diamond Tools","447 E 11800 S","84020",40.53738387130841,-111.87874674797058
"84020","Draper","UT","Ace Hardware Draper","1206 E Draper Pkwy","84020",40.527534,-111.86037
"84020","Draper","UT","Parley's PPM Plumbing","138 E 12300 S Ste C # 220","84020",40.52560043334961,-111.8866958618164
"84020","Draper","UT","Sherwin-Williams Floorcovering Store","14512 S 980 W","84065",40.48717891160202,-111.91926956176758
"84025","Farmington","UT","Garage Door Repair Farmington","East Promontory","84025",40.98082142033515,-111.9012451171875
"84026","Fort Duchesne","UT","Ute True Value","7074 E 900 S","84026",40.28808,-109.8591
"84028","Garden City","UT","Ace Hardware","485 N Bear Lake Blvd","84028",41.9556919,-111.39721
"84029","Grantsville","UT","locksmittys","not_available","84029",40.5999641418457,-112.44878387451172
"84029","Grantsville","UT","Southfork Hardware - Grantsville","40 W Commercial Ave","84029",40.6001495833333,-112.4655
"84032","Heber City","UT","Ace Hardware of Kamas","192 W 200 S Unit A","84036",40.639901,-111.28461
"84032","Heber City","UT","Zelezarija Zodra - Dabile","Dabile","not_available",40.47748,-111.412636
"84032","Heber City","UT","Stock Yard","123","not_available",40.67765332296923,-111.43404858653832
"84032","Heber City","UT","Builders FirstSource","1690 S Hwy 40","84032",40.48746450504193,-111.40777230262756
"84032","Heber City","UT","ProBuild","1690 North Main St.","84032",40.48642767548224,-111.40791238486173
"84032","Heber City","UT","Drab 2 Fab Paint","312 S Main St","84032",40.503488,-111.41397999999998
"84032","Heber City","UT","Ace Hardware","55 S Main St","84032",40.5070497333333,-111.41339975
"84032","Heber City","UT","Standard True Value - Heber City","777 W 100 S","84032",40.5068449010157,-111.426016388365
"84032","Heber City","UT","Tractor Supply Co.","356 East 1200 South","84032",40.492452,-111.407431
"84035","Jensen","UT","IFA Country Stores","1646 E 1100 S","84078",40.438880920410156,-109.49845886230469
"84035","Jensen","UT","Vernal Winnelson Company","1483 S 1500 E","84078",40.434531,-109.498531
"84037","Kaysville","UT","Wilson's Paint And & Floor Covering","not_available","84037",41.04484677314758,-111.95035099983215
"84037","Kaysville","UT","Carrie Kelsh","746 S Main St","84041",41.049163818359375,-111.95685577392578
"84037","Kaysville","UT","Tree Takers","Kaysville, Utah","84037",41.0392254087435,-111.93971872329712
"84037","Kaysville","UT","Color Dragon Paint","72 W 250 S","84037",41.031517028808594,-111.94001770019531
"84037","Kaysville","UT","Garage Door Repair Kaysville","W 200 N","84037",41.03819362798937,-111.96683585643768
"84037","Kaysville","UT","Artisan Hardware","327 Market St","84037",41.040584564208984,-111.94975280761719
"84037","Kaysville","UT","Ace Hardware","135 W 320 N","84037",41.0407,-111.94
"84037","Kaysville","UT","Garage Door Repair Fruit Heights","S Mountain Rd","84037",41.02629258768998,-111.90115928649902
"84037","Kaysville","UT","ROBERT W. SPEIRS PLUMBING INC.","412 Market St","84037",41.041729,-111.950127
"84040","Layton","UT","The Home Depot","449 N Main St","84041",41.0662069,-111.9742993
"84040","Layton","UT","Lowe's","1055 W Antelope Drive","84041",41.0880722,-111.9850515
"84040","Layton","UT","Harbor Freight Tools","1050 N Main St","84041",41.07553428674133,-111.98052987520495
"84040","Layton","UT","Standard Plumbing Supply - Layton","879 W Hill Field Rd","84041",41.07005253,-111.98178545
"84040","Layton","UT","Dorsett Technologies","1485 W Hill Field Rd Ste 201","84041",41.069589,-111.991274
"84040","Layton","UT","Garage Door Repair Layton","N Fairfield Rd","84041",41.07792775176955,-111.94843053817748
"84040","Layton","UT","Standard Plumbing Supply","518 Marshall Way","84041",41.067691802978516,-111.99076843261719
"84040","Layton","UT","Ace Hdwe Wyndom Square","1330 E Highway 193 # C-3","84040",41.101326,-111.94059
"84040","Layton","UT","minuteKEY","1055 W Antelope Dr","84041",41.0876350402832,-111.98542022705078
"84040","Layton","UT","Mountain States Supply Co.","1435 W Hill Field Rd","84041",41.06975033,-111.9905908
"84041","Layton","UT","Lambert Hardwood Flooring","897 McCormick Way #1","84041",41.072933197021484,-111.99359130859375
"84042","Lindon","UT","The Home Depot","535 S Lindon Park Dr","84042",40.3281186,-111.7297067
"84042","Lindon","UT","Ridley's Family Market","1585 N State Street","84057",40.3263809,-111.70785
"84042","Lindon","UT","Champion Plumbing Utah","377 W 120 S Lindon","84042",40.334918,-111.724165
"84042","Lindon","UT","Platt Electric Supply","1550 W 7 South, Suite 300","84042",40.338546,-111.75275
"84043","Lehi","UT","minuteKEY","136 W State Road 73","84045",40.3894314,-111.9195759
"84043","Lehi","UT","Tractor Supply Co.","1303 North Exchange Dr","84045",40.385855,-111.923065
"84043","Lehi","UT","Garage Door Repair Lehi","99 W Main St #150","84043",40.38761901855469,-111.85077667236328
"84043","Lehi","UT","Ferguson Plumbing Supply","2001 N 1450 W","84043",40.4117350187703,-111.876198030033
"84044","Magna","UT","South fork hardware","6400 W & 3500 S","84128",40.69615960121155,-112.04354703426361
"84044","Magna","UT","Garage Door Repair Magna","W Magna Main St","84044",40.71140226819957,-112.10193872451782
"84046","Manila","UT","Flaming Gorge Market And Mercantile True Value","75 E Highway 43","84046",40.98854446411133,-109.72084045410156
"84047","Midvale","UT","The Home Depot","1310 E Park Centre Dr","84121",40.6219733,-111.8532769
"84047","Midvale","UT","Tanner Glass and Hardware","S 700 W","84119",40.62211819215471,-111.9098901478025
"84047","Midvale","UT","A1 Industrial Tools And Service","7036 S High Tech Dr","84047",40.623869,-111.89778000000001
"84047","Midvale","UT","Diamond Rental","8685 S 700 E","84070",40.59339141845703,-111.8718490600586
"84047","Midvale","UT","Sherwin-Williams Paint Store","6830 S State St","84047",40.62714129,-111.89042367
"84047","Midvale","UT","Garage Door Repair Cottonwood Heights","E 7420 S","84121",40.61374475872291,-111.89887940883636
"84047","Midvale","UT","Garage Door Repair Midvale","E Fort Union Blvd","84047",40.62082595855659,-111.87395095825195
"84047","Midvale","UT","Jordan Mower","7101 S State St","84047",40.621973,-111.89016799999999
"84047","Midvale","UT","bolt And Supply","not_available","84047",40.624595642089844,-111.89907836914062
"84047","Midvale","UT","Sherwin-Williams Commercial Paint Store","8825 S Sandy Pkwy","84070",40.591362,-111.90373899999999
"84047","Midvale","UT","Ewing Irrigation","6849 S Cottonwood St","84047",40.626884000000004,-111.899197
"84047","Midvale","UT","Sprinkler World","8451 S Sandy Pkwy","84047",40.598747216666666,-111.9047622
"84047","Midvale","UT","Builders FirstSource","7380 S 700 W","84047",40.61981614960841,-111.91002130508423
"84047","Midvale","UT","Jordan Garden Center","7000 S State St Ste 2","84047",40.62358093261719,-111.89144897460938
"84047","Midvale","UT","Jon's Lock and Key","not_available","84070",40.59759789308455,-111.87170234075292
"84047","Midvale","UT","Ferguson","255 Cottage Ave","84070",40.592001,-111.89943000000001
"84047","Midvale","UT","Platt Electric Supply","8720 S Sandy Pkwy","84070",40.593101000000004,-111.90528700000002
"84047","Midvale","UT","Codale Electric Supply","7095 S 700 W","84047",40.6219596862793,-111.90971374511719
"84047","Midvale","UT","minuteKEY","7250 S Union Park Ave","84047",40.61991500854492,-111.85873413085938
"84047","Midvale","UT","Sandy Paint","8920 S State St","84070",40.589608,-111.892081
"84047","Midvale","UT","EVCO House Of Hose","8823 S Sandy Pkwy","84070",40.591362,-111.90373899999999
"84050","Morgan","UT","True Value","265 N State St","84050",41.04213,-111.679554444444
"84050","Morgan","UT","Tractor Supply Co.","281 North State St","84050",41.041757048761525,-111.68015316867829
"84054","North Salt Lake","UT","Lee's Ace Hardware-Foxboro","763 N Redwood Rd Ste 100","84054",40.85321807861328,-111.9302749633789
"84054","North Salt Lake","UT","Elite Hardware","225 N Highway 89","84054",40.84584045410156,-111.90850830078125
"84054","North Salt Lake","UT","Universal Grinding","185 S Highway 89","84054",40.8382682800293,-111.91178894042969
"84057","Orem","UT","Bonneville Industrial Supply","45 S 1500 W","84058",40.2961348,-111.7306019
"84057","Orem","UT","Ridley's Family Market","25 W Center St","84057",40.2960289,-111.69598
"84057","Orem","UT","Kwal Paint","not_available","84057",40.30407,-111.697441
"84057","Orem","UT","Sherwin-Williams Paint Store","390 N State St","84057",40.30427551269531,-111.69744873046875
"84057","Orem","UT","Porter Paints","635 N 1200 W","84057",40.308703,-111.724976
"84057","Orem","UT","Great Western Supply, Inc.","651 N 1500 W","84057",40.3071221,-111.7312424
"84057","Orem","UT","Aqua Mechanical","281 S Vineyard Rd Ste 107 Ste 107","84058",40.292115,-111.73513999999999
"84057","Orem","UT","Harbor Freight Tools","155 N State St","84057",40.29976281340127,-111.6975400535549
"84057","Orem","UT","Cutler's","271 N State St","84057",40.301851,-111.697721
"84057","Orem","UT","Contempo Ceramic Tile Corporation","1300 W Center St","84057",40.297686999999996,-111.727043
"84057","Orem","UT","Ewing Irrigation","712 N Orem Blvd","84057",40.310596,-111.702891
"84057","Orem","UT","Sherwin-Williams Paint Store","268 N State St","84057",40.302058,-111.696611
"84057","Orem","UT","Orem Benjamin Plumbing","153 N Garden Park Dr","84057",40.29996876372409,-111.7003583908081
"84057","Orem","UT","Parley's Hardware","250 S 1200 W","84058",40.292714000000004,-111.72482
"84057","Orem","UT","RSD - Refrigeration Supply Distributor","1426 W 130 S","84058",40.29566437317194,-111.72827579944843
"84057","Orem","UT","Timberline Woodworking","1400 W. Center St.","84057",40.29779814407618,-111.72734422230283
"84057","Orem","UT","Orem Vacuum","300 N 40 W","84057",40.30291453141072,-111.69657302401232
"84057","Orem","UT","Foundation Building Materials","1442 West Center Street","84057",40.29770465,-111.73063247
"84057","Orem","UT","PPM, Plumbing, Heating, & Cooling","258 S 1200 W","84058",40.29248950158811,-111.7245626449585
"84057","Orem","UT","Electrical Wholesale Supply","658 N State St","84057",40.309346999999995,-111.699648
"84058","Orem","UT","Lowe's","140 West University Parkway","84058",40.2743292,-111.6984679
"84058","Orem","UT","minuteKEY","140 W University Pkwy","84058",40.274701,-111.698361
"84058","Orem","UT","Builders Essentials","1294 W 400 S","84058",40.28959249712307,-111.7263650894165
"84058","Orem","UT","Ferguson Plumbing Supply","1554 W Business Park Dr","84058",40.274577179227144,-111.7245320233114
"84058","Orem","UT","Codale Electric Supply","362 Commerce Loop","84058",40.29122923807041,-111.72646164894104
"84058","Orem","UT","BJ Plumbing Supply","1470 S State St","84097",40.270136,-111.683648
"84058","Orem","UT","HD Supply White Cap","555 South 1325 West Street","84058",40.28692237,-111.7265395
"84060","Park City","UT","True Value Hardware & Parts Plus","1727 Sidewinder Dr","84060",40.663115999999995,-111.49943999999999
"84060","Park City","UT","Sherwin-Williams Paint Store","875 Iron Horse Dr","84060",40.65778748420006,-111.50593042373657
"84065","Riverton","UT","Lowe's","12462 S Creek Meadow Road","84065",40.524859174349764,-111.98311152623873
"84065","Riverton","UT","The Home Depot","3852 West 13400 South","84065",40.5105092,-111.9826858
"84065","Riverton","UT","IFA Country Stores","1926 W 12600 S","84065",40.52354000448026,-111.94301793023618
"84065","Riverton","UT","True Value","12755 S Redwood Rd","84065",40.519083946989866,-111.93819162213707
"84065","Riverton","UT","minuteKEY","1202 W 12600 S","84065",40.52290725708008,-111.92521667480469
"84065","Riverton","UT","Riverton Hardware & Building Supply","12773 S Redwood Rd","84065",40.519237,-111.938061
"84065","Riverton","UT","Garage Door Repair Riverton","W 13400 S","84065",40.509133421775935,-111.95486783981323
"84066","Roosevelt","UT","Ace Hardware","300 E Lagoon St","84066",40.2994589,-109.9872
"84066","Roosevelt","UT","Stewart's Ace Hardware","245 W Highway 40","84066",40.2913,-109.99379
"84066","Roosevelt","UT","Ace Hardware","Lagoon Street & 3rd East","84066",40.310229,-110.010782
"84066","Roosevelt","UT","Tractor Supply Co.","1821 East Hwy 40","84066",40.302949400269384,-109.96696628172302
"84067","Roy","UT","Bolts & Nuts Supply","not_available","84401",41.20046625234858,-112.02595319962539
"84067","Roy","UT","Jak Ace Hardware","3531 W 5600 S","84067",41.160854,-112.065926
"84067","Roy","UT","Ewing Irrigation","1921 W 3350 S","84067",41.203126,-112.027332
"84067","Roy","UT","Garage Door Repair Roy","W 5600 S","84067",41.161516223325066,-112.04565525054932
"84067","Roy","UT","RLR Precision","5978 S 3850 W","84067",41.155133,-112.07273
"84067","Roy","UT","Lowes","not_available","84405",41.17645402853382,-112.07157954763355
"84067","Roy","UT","Standard Plumbing Supply","4460 S 1900 W","84067",41.18202846,-112.02474587
"84070","Sandy","UT","The Home Depot","135 E 11400 South","84070",40.5450654,-111.8878402
"84070","Sandy","UT","Alpine Gas Fireplaces","9192 South 300 West","84070",40.583933,-111.901277
"84070","Sandy","UT","Standard True Value - Sandy","9150 S 300 W","84070",40.584632873535156,-111.90199279785156
"84070","Sandy","UT","All Equip Rental","9400 South 495 West","84070",40.5809243,-111.8771947
"84070","Sandy","UT","minuteKEY","11328 S Jordan Gtwy","84095",40.5462759,-111.9012492
"84070","Sandy","UT","Sprinkler World","9294 S 300 W","84070",40.58247375488281,-111.90118408203125
"84070","Sandy","UT","Sherwin-Williams Paint Store","9152 S 700 E","84070",40.584952097638585,-111.8726634979248
"84070","Sandy","UT","A-A-Ron's Machine Rentals","9322 South 370 West","84070",40.5826301,-111.9024158
"84070","Sandy","UT","Lowes (Gravel Pit)","not_available","84094",40.574528,-111.870979
"84070","Sandy","UT","Southwest Blinds & Shutters","10808 S River Front Pkwy","84095",40.555471,-111.91382299999998
"84074","Tooele","UT","Tractor Supply Co.","6880 North Beaman Way","84074",40.654057,-112.29030300000001
"84074","Tooele","UT","The Home Depot","222 E 2400 North","84074",40.57146591276267,-112.2983729839325
"84074","Tooele","UT","Standard Plumbing Supply","63 E 1100 N","84074",40.553418,-112.29630300000001
"84074","Tooele","UT","Tooele valley sales and service","not_available","84074",40.538217883111216,-112.29807298114166
"84074","Tooele","UT","Platt Electric Supply","1183 N 80 E","84074",40.554588317871094,-112.29632568359375
"84078","Vernal","UT","C-A-L Ranch Stores","1180 W Highway 40","84078",40.45081,-109.55204099999999
"84078","Vernal","UT","Lowe's","2105 W Highway 40","84078",40.43415832519531,-109.56751251220703
"84078","Vernal","UT","Ute True Value","7074 East 900 South Hyy 40","84026",40.44298,-109.52733
"84078","Vernal","UT","Sherwin-Williams Paint Store","1147 W Highway 40","84078",40.450598,-109.547894
"84078","Vernal","UT","Codale Electric Supply","535 S 1070 E","84078",40.448196250042656,-109.50727164745331
"84078","Vernal","UT","Milt's Ace Home Center","690 W Main St","84078",40.4559649,-109.54074
"84078","Vernal","UT","TRUE VALUE HARDWARE","280 W Main St","84078",40.45645523071289,-109.53443145751953
"84078","Vernal","UT","Basin Saw","528 W Main St","84078",40.455861,-109.538655
"84078","Vernal","UT","Turner Lumber","565 E Main St","84078",40.455671,-109.51789
"84078","Vernal","UT","Stewart Machine & Welding Inc","1218 E 135 S","84078",40.452988,-109.505125
"84078","Vernal","UT","Lowe's","2105 West Highway 40","84078",40.4345595,-109.5667636
"84081","West Jordan","UT","Louis & Company","9768-9958 Prosperity Rd","84081",40.573327605514876,-112.04094471748854
"84081","West Jordan","UT","Drywall Masters of Utah","6286 South Clyclamen Cir","84081",40.63572700909419,-112.01864004135132
"84084","West Jordan","UT","Lowe's","7456 South Plaza Center Drive","84084",40.6155442,-111.9812436
"84084","West Jordan","UT","CAL Ranch","2735 W 7800 S","84088",40.60896539431465,-111.95859622059444
"84084","West Jordan","UT","Harbor Freight Tools","7046 S Redwood Rd Ste B","84084",40.62327352789817,-111.93970395511363
"84084","West Jordan","UT","Dill Rental","2996 W 7800 S","84088",40.60977554321289,-111.9634780883789
"84084","West Jordan","UT","Garage Door Repair W Jordan","S 4800 W","84084",40.61865973674054,-112.0041561126709
"84084","West Jordan","UT","minuteKEY","7456 S Plaza Center Dr","84084",40.615543365478516,-111.98097229003906
"84084","West Jordan","UT","Ogden's Flooring","6271 S Dixie Dr #16","84084",40.63714365719172,-111.97763442993164
"84084","West Jordan","UT","Superior Locksmith","7604 S Redwood Rd","84084",40.613083,-111.939149
"84084","West Jordan","UT","Ace Hardware","7101 S Redwood Rd","84084",40.622135162353516,-111.93717193603516
"84087","Woods Cross","UT","Tractor Supply Co.","1533 South 1800 West","84087",40.874016,-111.9292
"84087","Woods Cross","UT","Rockin E Country Store","1201 W 500 S","84087",40.88386917114258,-111.9150390625
"84087","Woods Cross","UT","Prestige Plumbing","1177 W 500 S","84087",40.883663177490234,-111.91221618652344
"84087","Woods Cross","UT","A Shade Above Window Tint","1090 W 500 S","84087",40.8845100402832,-111.9113540649414
"84088","West Jordan","UT","The Home Depot","1538 W 9000 South","84088",40.5896119,-111.9348953
"84088","West Jordan","UT","Smith & Edwards","9010 S Redwood Rd","84088",40.5868049,-111.93921
"84088","West Jordan","UT","Mountainland Supply","4370 W New Bingham Hwy","84088",40.608044,-111.995182
"84088","West Jordan","UT","Standard True Value - West Jordan","4346 W New Bingham Hwy","84088",40.6078935392604,-111.994012449578
"84088","West Jordan","UT","Landscape Center at Asphalt Materials","7961 S 1300 W","84088",40.606537,-111.925669
"84088","West Jordan","UT","Stock Building Supply","1333 W 9000 S","84088",40.58689498901367,-111.93020629882812
"84092","Sandy","UT","Garage Door Repair Sandy","S 1300 E","84094",40.573886292325284,-111.85154914855957
"84092","Sandy","UT","Ace Hardware Sandy","10303 S 1300 E","84094",40.56401824951172,-111.8520736694336
"84094","Sandy","UT","Lowe's","9291 South Quarry Bend Drive","84094",40.5831843,-111.8598251
"84094","Sandy","UT","minuteKEY","9291 S Quarry Bend Dr","84094",40.58268737792969,-111.86135864257812
"84094","Sandy","UT","Sears Appliance Repair","9269 S Village Shop Dr","84094",40.5834546,-111.8622909
"84095","South Jordan","UT","Sherwin-Williams Paint Store","3731 W 10400 S","84095",40.56023893358335,-111.98035955429077
"84095","South Jordan","UT","Zombie Hardware","9472 S McVea Ct","84009",40.579338,-112.00358500000002
"84095","South Jordan","UT","Ace Hardware","10541 S Redwood Rd","84095",40.559447,-111.93662900000001
"84095","South Jordan","UT","Bosch Kitchen Center","1684 W Towne Center Dr","84095",40.55875015258789,-111.93830871582031
"84095","South Jordan","UT","Ground Affects","1195 W Chavez Dr","84095",40.575045,-111.925941
"84095","South Jordan","UT","Lawnmower Hospital","11477 S Redwood Rd","84095",40.542720794677734,-111.93814849853516
"84095","South Jordan","UT","Sherwin-Williams Paint Store","10310 S Redwood Rd","84095",40.563384,-111.93933100000001
"84095","South Jordan","UT","minuteKEY","3706 W 9800 S","84009",40.57433319091797,-111.97913360595703
"84096","Herriman","UT","Garage Door Repair Herriman","S 5600 W","84065",40.50277053506857,-112.02396154403687
"84096","Herriman","UT","minuteKEY","5056 W 13400 S","84096",40.509517669677734,-112.01046752929688
"84098","Park City","UT","The Home Depot","1595 East Frontage Rd","84098",40.716766,-111.4835808
"84098","Park City","UT","kwal paint","597 Parkway Dr","84098",40.735382080078125,-111.49876403808594
"84098","Park City","UT","Standard Plumbing - Park City","6351 Promontory Ranch Rd","84098",40.7226497888004,-111.480545651199
"84098","Park City","UT","Diamond Rental","6450 Silver Creek Dr","84098",40.7246086885336,-111.50455107553893
"84098","Park City","UT","Park City Audio Visual","661 Parkway Dr #3","84098",40.735517,-111.497592
"84098","Park City","UT","Habitat For Humanity Restore","not_available","84098",40.721106,-111.482196
"84098","Park City","UT","Sherwin-Williams Paint Store","6400 Business Park Loop Rd","84098",40.7230339050293,-111.48762512207031
"84098","Park City","UT","minuteKEY","6545 N Landmark Dr","84098",40.726097106933594,-111.54883575439453
"84098","Park City","UT","Ferguson Plumbing Supply","6427 N Business Loop Rd","84098",40.7234195861092,-111.485711484111
"84101","Salt Lake City","UT","Habitat For Humanity Restore","not_available","84101",40.742206229672384,-111.90565354472096
"84101","Salt Lake City","UT","PPG Porter Paints","1268 S 500 W","84101",40.742801666259766,-111.90579986572266
"84101","Salt Lake City","UT","Paxton Production Tools","559 S 400 W","84101",40.756694,-111.902365
"84101","Salt Lake City","UT","EWC Technologies","254 W 400","84101",40.76071577689616,-111.89943194389343
"84101","Salt Lake City","UT","Builders FirstSource Truss & Floor Systems","2560 West California Ave","84104",40.76052074107624,-111.89525306224823
"84101","Salt Lake City","UT","Diamond Rental","350 W Whitney Ave","84115",40.74181083724646,-111.89975955482744
"84101","Salt Lake City","UT","24 Hour Lockouts Salt Lake City","60 West 400 South","84101",40.760813294591514,-111.89259767532349
"84102","Salt Lake City","UT","Ace Hardware","612 E 400 S","84102",40.7605629,-111.87333
"84102","Salt Lake City","UT","Dorthey Morrow","573 1100 East","84102",40.7567379,-111.8591195
"84103","Salt Lake City","UT","I-D Electric Co","3690 S. 500 West Suite 101","84115",40.7720743,-111.8367084
"84103","Salt Lake City","UT","Ben Franklin Plumbing","372 D St","84103",40.777871000000005,-111.87878899999998
"84104","Salt Lake City","UT","Burton Lumber Co","1170 S 4400 W","84104",40.745081,-111.997564
"84104","Salt Lake City","UT","IFA Country Store","1147 W 2100 S","84119",40.72565688034495,-111.92385981939576
"84104","Salt Lake City","UT","Pilkington Metal Finishing","1225 S Legacy View St","84104",40.744003,-112.026102
"84104","Salt Lake City","UT","Ferguson Waterworks","1492 S 4450 W","84104",40.738621,-111.997874
"84104","Salt Lake City","UT","Laird Plastics","1232 S Gladiola St Ste 100","84104",40.742449,-111.973305
"84104","Salt Lake City","UT","Marshall's Industrial Hardware","not_available","84104",40.741124,-111.951287
"84104","Salt Lake City","UT","All Discount Concrete","not_available","84093",40.760975823765826,-111.91343307495117
"84104","Salt Lake City","UT","Ferguson","1422 S 4450 W","84104",40.739948,-111.998042
"84104","Salt Lake City","UT","Specialty Supply","1637 W 900 S","84104",40.74996566772461,-111.9376449584961
"84104","Salt Lake City","UT","Hy-Ko True Value Hardware","1908 W Industrial Circle","84104",40.730136,-111.945202
"84104","Salt Lake City","UT","Motion & Flow Control Products","1670 S 5500 W","84104",40.73379542431592,-112.0231032371521
"84104","Salt Lake City","UT","Platt Electric Supply","1730 S 4650 W Ste A","84104",40.73320007324219,-112.00299072265625
"84104","Salt Lake City","UT","Standard Plumbing Supply Co","1890 S Redwood Rd","84104",40.729493,-111.939711
"84104","Salt Lake City","UT","FORCE America, Inc.","3060 W California Ave Ste F","84104",40.741007,-111.964349
"84104","Salt Lake City","UT","Sherwin-Williams Commercial Paint Store","3173 W 2100 S","84119",40.725451,-111.96723
"84104","Salt Lake City","UT","Axis Parts, Inc","1953 South 4130 West, Suite B","84104",40.7292276,-111.9898424
"84104","Salt Lake City","UT","Advance Manufacturing Technology","839 S 3600 W","84104",40.750869,-111.976678
"84104","Salt Lake City","UT","Builders FirstSource","4711 W 1730 S.","84104",40.73088490267309,-112.00414538383482
"84104","Salt Lake City","UT","Metal Supermarkets","537 W Pickett Cir #800","84115",40.730622,-111.907248
"84105","Salt Lake City","UT","Rudy's Keys","2040 S 1000 E","84105",40.7255539158047,-111.86231690364802
"84105","Salt Lake City","UT","Plumbing Plus","2021 S 1100 E","84106",40.726271000000004,-111.85939199999999
"84105","Salt Lake City","UT","Sherwin-Williams Paint Store","1640 S 1100 E","84105",40.73387062,-111.8599968
"84105","Salt Lake City","UT","Sherwin-Williams Paint Store","2071 S Douglas St","84105",40.725532641249906,-111.85489423598159
"84106","Salt Lake City","UT","The Home Depot","3398 S Highland Drive","84106",40.6977406,-111.8511264
"84106","Salt Lake City","UT","Garage Door Repair Millcreek","East 3900 South","84124",40.68839956798378,-111.8506908416748
"84106","Salt Lake City","UT","England Plumbing Supply","1009 E 3300 S","84106",40.70011745929532,-111.86211168766022
"84107","Salt Lake City","UT","Lowe's","469 West 4500 South","84123",40.673223,-111.904014
"84107","Salt Lake City","UT","Mt Olympus Improvement District","3932 S 500 E","84107",40.6862311,-111.8774596
"84107","Salt Lake City","UT","Bickmore Carpets","135 E 6100 S","84107",40.638907,-111.887502
"84107","Salt Lake City","UT","American Stone","4040 S 300 W","84107",40.68362,-111.90028
"84107","Salt Lake City","UT","Curb Cart - Ready Mix Concrete Trailers","4758 S Commerce Dr","84107",40.66811752319336,-111.89996337890625
"84107","Salt Lake City","UT","Sherwin-Williams Paint Store","4285 S State St","84107",40.678287506103516,-111.88774108886719
"84107","Salt Lake City","UT","Century Equipment Company","4343 S Century Dr","84123",40.67745,-111.90362
"84107","Salt Lake City","UT","Tint Specialists","4662 South 160 West","84107",40.6714975,-111.89579917
"84107","Salt Lake City","UT","Westech Equipment","195 W 3900 S","84107",40.68633270263672,-111.89671325683594
"84107","Salt Lake City","UT","Loveridge Machine Company","4097 S West Temple","84107",40.68263,-111.89399
"84107","Salt Lake City","UT","Mountain State Marketing Sale","3950 S 300 W","84107",40.685375,-111.90044
"84107","Salt Lake City","UT","minuteKEY","469 W 4500 S","84123",40.673442,-111.904216
"84107","Salt Lake City","UT","Ace Hardware Murray","5664 S 900 E","84121",40.64759826660156,-111.86707305908203
"84107","Salt Lake City","UT","Karman Cabinets","not_available","84107",40.639899,-111.901917
"84107","Salt Lake City","UT","Garage Door Repair Murray","E 5900 S","84121",40.64235812870049,-111.87738955020905
"84107","Salt Lake City","UT","Electrical Wholesale Supply","158 W 4500 S","84107",40.67417079922312,-111.88705319380138
"84107","Salt Lake City","UT","Custom finish supply","6060 S 340 E, Murray, UT 84107","84107",40.640695258909375,-111.89012382363761
"84107","Salt Lake City","UT","LaMonica's Restaurant Equipment Service","6211 S 380 W","84107",40.636467,-111.902191
"84108","Salt Lake City","UT","Garage Door Repair Salt Lake City","E 1300 S","84108",40.742201076382784,-111.82436227798462
"84109","Salt Lake City","UT","Ace Hardware at Olympus Hills","3939 Wasatch Blvd","84124",40.686121,-111.796
"84109","Salt Lake City","UT","Ye Olde Woodshope","not_available","84109",40.69073508138128,-111.80244648687825
"84109","Salt Lake City","UT","Ace Hardware Holladay","4695 S Holladay Blvd","84117",40.667721,-111.8236
"84109","Salt Lake City","UT","Ace Hardware Holladay","4965 Holladay Blvd","84117",40.668255,-111.82289
"84109","Salt Lake City","UT","Wasatch Sprinkler Management LLC","2856 E Apple Blossom Ln","84117",40.67275,-111.811102
"84109","Salt Lake City","UT","Garage Door Repair Holladay","S 2300 E","84124",40.68096347493155,-111.82382583618164
"84115","Salt Lake City","UT","The Home Depot","328 West 2100 South St","84115",40.72726018602262,-111.90075074488504
"84115","Salt Lake City","UT","Lowe's","1335 South 300 West","84115",40.7403995,-111.8978598
"84115","Salt Lake City","UT","Harbor Freight Tools","3470 S State St","84115",40.695638740979085,-111.8894267473523
"84115","Salt Lake City","UT","Carver Sheet Metal","1349 S Jefferson St","84115",40.740318298339844,-111.8948974609375
"84115","Salt Lake City","UT","Kingdon Sheet Metal Inc","3691 S 300 W","84115",40.690602,-111.898857
"84115","Salt Lake City","UT","National Equipment Corporation","not_available","84115",40.691308,-111.898056
"84115","Salt Lake City","UT","Lumber Liquidators, Inc.","389 W 1830 S","84115",40.728033890534235,-111.90229546627046
"84115","Salt Lake City","UT","Ferguson Bath, Kitchen & Lighting Gallery","2565 S 300 W","84115",40.71561813354492,-111.89929962158203
"84115","Salt Lake City","UT","minuteKEY","1335 S 300 W","84115",40.74032974243164,-111.89808654785156
"84115","Salt Lake City","UT","Bolt & Nut Supply","2212 S West Temple","84115",40.72298049926758,-111.89424896240234
"84115","Salt Lake City","UT","Intermountain Contractors Supply","328 Whitney Ave","84115",40.738519000000004,-111.900674
"84115","Salt Lake City","UT","Sears Service & Repair Center","3158 S Main St","84115",40.7022973,-111.8915512
"84115","Salt Lake City","UT","M&M Tool and Machinery","3362 Main Street","84115",40.69831476,-111.89168344
"84115","Salt Lake City","UT","Standard Builders Supply","220 W 2700 S","84115",40.713928,-111.897213
"84116","Salt Lake City","UT","Sutherlands","1780 W North Temple","84116",40.77262796148585,-111.94193582260135
"84117","Salt Lake City","UT","Evergreen Farms","5674 S Oakdale Dr","84121",40.648137,-111.84288500000001
"84118","Salt Lake City","UT","The Home Depot","4581 S 4000 W","84120",40.6703378,-111.9844691
"84118","Salt Lake City","UT","Family Stores True Value","4860 S Redwood Rd","84123",40.6635627746582,-111.93978881835938
"84118","Salt Lake City","UT","The Cleaning Supplier of Taylorsville","1851 W 4700 S","84129",40.666301000000004,-111.94153
"84118","Salt Lake City","UT","A1 Saw","not_available","84118",40.65241019550646,-111.98690501810177
"84118","Salt Lake City","UT","Sherwin-Williams Paint Store","5640 S Redwood Rd","84123",40.649139404296875,-111.93973541259766
"84118","Salt Lake City","UT","Harbor Freight Tools","4660 S 4000 W","84120",40.66836166381836,-111.98763275146484
"84118","Salt Lake City","UT","Standard True Value - Taylorsville","3915 W 4700 S","84123",40.666449,-111.984624
"84119","West Valley City","UT","Steve Regan","4215 South","84123",40.679385,-111.904914
"84119","West Valley City","UT","Platt Electric Supply","840 W 2600 S","84119",40.715393,-111.91443000000001
"84119","West Valley City","UT","Community Controls","2500 S 3850 W Ste A","84120",40.715911865234375,-111.98261260986328
"84119","West Valley City","UT","Custom Tech LLC","not_available","84119",40.7016,-111.9461
"84119","West Valley City","UT","Paint West","1606 W 3500 S","84119",40.697047,-111.936311
"84119","West Valley City","UT","Indico Distributing Company","2181 S 3200 W","84119",40.723655,-111.966651
"84119","West Valley City","UT","Utah Foam Products","3609 S 700 W","84119",40.692531,-111.912544
"84119","West Valley City","UT","FCI Watermakers Inc.","3782 W 2340 S","84120",40.720408,-111.98147
"84119","West Valley City","UT","ProSource of Salt Lake","2495 S 900 W","84119",40.71673,-111.91695
"84119","West Valley City","UT","Great Western Supply, Inc.","2425 S 3200 W","84119",40.71801,-111.96764
"84119","West Valley City","UT","Foundation Building Materials","3225 South 900 West","84119",40.70171416,-111.91653704
"84119","West Valley City","UT","Fastenal","4425 S 500 W","84123",40.67566897599931,-111.90528703552533
"84120","West Valley City","UT","Sherwin-Williams Paint Store","3904 W 3500 S","84120",40.698028,-111.985026
"84120","West Valley City","UT","H&E Equipment Services","5052 W 2400 S Bldg A","84120",40.71942138671875,-112.01176452636719
"84120","West Valley City","UT","Codale Electric Supply","5225 W 2400 S","84120",40.71747106811301,-112.01509894078144
"84120","West Valley City","UT","Garage Door Repair West Valley City","W 3500 S","84128",40.696631998535445,-112.00301885604857
"84120","West Valley City","UT","Evco House of Hose","4075 W 2200 S","84120",40.722632,-111.98846999999999
"84121","Salt Lake City","UT","Ace Hardware Cottonwood","6253 S 2000 E","84121",40.6242179,-111.83427
"84124","Salt Lake City","UT","Design Comfort","4000 S Highland Dr","84124",40.68484878540039,-111.84501647949219
"84128","West Valley City","UT","Lowe's","4050 South 5600 West","84120",40.683498,-112.0282465
"84128","West Valley City","UT","minuteKEY","4050 S 5600 W","84120",40.683372497558594,-112.02778625488281
"84302","Brigham City","UT","Tractor Supply Co.","1635 West 1100 South","84302",41.484629,-112.056894
"84302","Brigham City","UT","Ace Hardware-Brigham City","220 N Main St","84302",41.508,-112.02119
"84302","Brigham City","UT","Standard Plumbing - Brigham City","370 W 1175 S","84302",41.48569107055664,-112.02194213867188
"84302","Brigham City","UT","Superior Outdoors","6199 N Highway 38","84302",41.62144088745117,-112.07305908203125
"84302","Brigham City","UT","South Fork Hardware","not_available","84302",41.50447,-112.016443
"84307","Corinne","UT","Greer's Do it Best Hardware","490 West Main St","84337",41.7133166,-112.1733338
"84307","Corinne","UT","Standard True Value - Tremonton","1270 W Main St","84337",41.712114,-112.185071
"84307","Corinne","UT","Ace Hardware","250 E Main St","84337",41.7118219,-112.1624
"84307","Corinne","UT","R AND R TRUE VALUE HARDWARE","176 W Main St","84337",41.71170425415039,-112.168701171875
"84310","Eden","UT","Lowe's","344 N Washington Boulevard","84404",41.265584,-111.9679035
"84310","Eden","UT","The Home Depot","984 Wall Avenue","84404",41.2469396,-111.9758134
"84310","Eden","UT","Ace Hardware","2556 N 400 E","84414",41.30467224121094,-111.96711730957031
"84310","Eden","UT","South Fork Hardware","540 S Highway 39","84317",41.254511,-111.760542
"84310","Eden","UT","Wangsgards","120 N Washington Blvd","84404",41.2599999,-111.96939
"84310","Eden","UT","Ridley's Family Market Ace Hardware","145 N Harrisville Rd","84404",41.2600669,-111.96892
"84310","Eden","UT","Howe Rents of Ogden Inc.","1627 Washington Blvd","84404",41.2381117,-111.9700936
"84310","Eden","UT","Standard True Value - North Ogden","1964 N 400 E","84414",41.2939342857143,-111.968978095238
"84310","Eden","UT","Comfort Solutions","not_available","84404",41.2445959511835,-111.96348867682131
"84310","Eden","UT","Harbor Freight Tools","107 N Harrisville Rd","84404",41.261142,-111.97243999999999
"84315","Hooper","UT","Green Wholesale","5651 W 5500 S","84315",41.163337,-112.11656799999999
"84318","Hyde Park","UT","Ace Hardware","894 S Main St","84335",41.8180839,-111.83307
"84319","Hyrum","UT","Ace Hardware","780 E Main St","84319",41.632966,-111.83389
"84321","Logan","UT","The Home Depot","130 Cache Valley Blvd","84341",41.7534322,-111.8310458
"84321","Logan","UT","Lowe's","313 E 1400 North","84341",41.7584526,-111.8267477
"84321","Logan","UT","Tractor Supply Co.","78 South Hwy 165","84332",41.706706,-111.83193
"84321","Logan","UT","Hytek Water Conditioning","643 E 1900 N","84341",41.7658831,-111.8177613
"84321","Logan","UT","The Sprinkler Store","not_available","84321",41.70124435424805,-111.85311889648438
"84321","Logan","UT","Petersen's Country Store","2759 S Hwy 89/91","84321",41.6830466421555,-111.87626034021378
"84321","Logan","UT","Platt Electric Supply","720 W 200 N","84321",41.73455810546875,-111.85264587402344
"84321","Logan","UT","IFA Country Store","280 W 300 S","84321",41.72565460205078,-111.8414077758789
"84321","Logan","UT","Codale","1031 West","not_available",41.73256978160044,-111.90143052221858
"84321","Logan","UT","STANDARD TRUE VALUE - LOGAN","1885 SOUTH HWY 89-91","84321",41.69847869873047,-111.85897064208984
"84321","Logan","UT","Sherwin-Williams Paint Store","151 E 1600 N","84341",41.76131057739258,-111.830322265625
"84321","Logan","UT","Fastenal","642 N 1000 W","84321",41.743422,-111.858851
"84321","Logan","UT","Builders FirstSource","1350 N. Main Streeet","84660",41.755178285983966,-111.83243036270142
"84321","Logan","UT","Sherwin-Williams Paint Store","454 N Main St","84321",41.74028015136719,-111.8335189819336
"84321","Logan","UT","Century Equipment Company-","453 N 1000 W","84321",41.73985,-111.86029
"84321","Logan","UT","Standard True Value - Logan","1885 S Hwy 89-91","84321",41.7612821161252,-111.787598800236
"84321","Logan","UT","Ipaco Inc.","555 N 1000 W","84321",41.7423858,-111.859764
"84321","Logan","UT","Smithfield True Value Hardware","99 N Main St","84335",41.838315,-111.833143
"84321","Logan","UT","Harbor Freight Tools","17 E 1400 N","84341",41.75785827636719,-111.83326721191406
"84321","Logan","UT","Ferguson","275 N 1000 W","84321",41.737309,-111.860461
"84335","Smithfield","UT","Cycles & Sleds","3890 north","84318",41.766525,-111.816195
"84335","Smithfield","UT","Mountain Valley Motor & Pump Service","1444 N 300 W","84341",41.75873379999999,-111.8418234
"84340","Willard","UT","Witt's Water Works","1542-1648 Hargus Hill Rd","84340",41.438694133333335,-112.03739743333334
"84401","Ogden","UT","Tractor Supply Co.","1985 West 2550 South","84401",41.218734999999995,-112.02743000000001
"84401","Ogden","UT","Ifa","1069 W 12th St","84404",41.242315999999995,-112.00560800000001
"84401","Ogden","UT","Wheelwright Lumber Co.","3127 Midland Dr","84401",41.2085958,-112.0211485
"84401","Ogden","UT","Standard True Value - Ogden","1926 Wall Ave","84401",41.23234796456913,-111.97893261909485
"84401","Ogden","UT","Jerry's Plumbing Specialties","2655 Midland Dr","84401",41.2176467,-112.0085666
"84401","Ogden","UT","Sherwin-Williams Paint Store","3559 Washington Blvd","84403",41.19843,-111.971418
"84401","Ogden","UT","Allred's Inc.","1410 Gibson Ave","84404",41.241232000000004,-111.98405100000001
"84401","Ogden","UT","Sherwin-Williams Paint Store","3105 Wall Ave","84401",41.207576751708984,-111.97966003417969
"84401","Ogden","UT","L&W Supply","3125 Grant Ave","84401",41.207471999999996,-111.97458
"84401","Ogden","UT","Hajoca Corp 078","2688 Commerce Way","84401",41.216572,-112.01694099999999
"84401","Ogden","UT","Standard Plumbing Supply - Ogden","1950 Wall Ave","84401",41.232256,-111.978169
"84401","Ogden","UT","South Fork Hardwarr","3225 Washington Blvd","84401",41.205434000000004,-111.971548
"84401","Ogden","UT","A Shade Above Window Tint","3733 S 250 W","84405",41.195770263671875,-111.98418426513672
"84401","Ogden","UT","Lowe's","4155 South Riverdale Rd","84405",41.18861096,-111.9867861
"84401","Ogden","UT","Decker Plumbing Supply","2794 S 1900 W","84401",41.21596111666667,-112.02491056666666
"84403","Ogden","UT","Universal Rent-All Ogden","3790 Kiesel Ave","84405",41.1949879,-111.9725294
"84403","Ogden","UT","Mark-A-Newt Appliance Specialists","2855 Washington Blvd","84401",41.213113,-111.971024
"84403","Ogden","UT","Mountainalarm.com North Utah","3293 Harrison Blvd","84403",41.203556060791016,-111.94896697998047
"84403","Ogden","UT","Ace Hardware","4291 Harrison Blvd","84403",41.184441,-111.95060900000001
"84404","Ogden","UT","Ace Hardware","3936 N 2000 W","84404",41.33449935913086,-112.03563690185547
"84404","Ogden","UT","Codale Electric Supply","3083 S Scott Ln","84401",41.20930099487305,-112.02881622314453
"84404","Ogden","UT","Ogden ReStore","3111 Wall Ave","84401",41.20747973,-111.98014621
"84404","Ogden","UT","Roofers Supply","120 W 21st St","84401",41.22946548461914,-111.98026275634766
"84405","Ogden","UT","The Home Depot","999 W Riverdale Road","84405",41.1755402,-112.0025131
"84405","Ogden","UT","minuteKEY","4848 S 900 W","84405",41.1757764,-111.9990159
"84501","Price","UT","Sutherlands","not_available","84501",39.592811,-110.791851
"84501","Price","UT","Sears","33 N Carbon Ave","84501",39.6001803,-110.8114624
"84501","Price","UT","Codale Electric Supply","50 E 1300 S","84501",39.580902099609375,-110.81367492675781
"84501","Price","UT","SouthWest Plumbing Supply","190 S 100 W","84501",39.59752912482266,-110.81341624259947
"84501","Price","UT","Tractor Supply Co.","1277 East Main St","84501",39.599769592285156,-110.7903823852539
"84511","Blanding","UT","Redd's Ace Hardware","82 S Main St","84511",37.62422,-109.47803
"84511","Blanding","UT","Codale Electric Supply","61 W 300 N","84511",37.62921142578125,-109.47927856445312
"84511","Blanding","UT","Monticello Merc True Value","80 S Main St","84535",37.871526,-109.34323
"84513","Castle Dale","UT","Jones Ace Hardware","195 E Main","84513",39.211946000000005,-111.016274
"84523","Ferron","UT","Castle Valley Co-Op True Value","50 East Main Street","84523",39.08999,-111.130955
"84523","Ferron","UT","Castle Valley Co-Op True Value","35 West Canyon Road","84528",39.08804,-111.15539
"84525","Green River","UT","P&D Ace Hardware","330 E Main St","84525",38.992728,-110.139
"84532","Moab","UT","Walkers True Value Hardware","260 S Main St","84532",38.56957787520214,-109.55135091541085
"84532","Moab","UT","rim supply","not_available","84532",38.57492044406251,-109.55193627286171
"84532","Moab","UT","Turner Lumber of Moab","237 N 100 W","84532",38.576694,-109.55267
"84601","Provo","UT","The Home Depot","1550 S University Ave","84601",40.2127532,-111.6605911
"84601","Provo","UT","Ace Hardware of Provo","1334 N State St","84604",40.251891,-111.666233
"84601","Provo","UT","Associated Concrete Services","not_available","84601",40.22608184814453,-111.7161865234375
"84601","Provo","UT","Ferguson Waterworks","357 E 900 S","84606",40.222900390625,-111.65252685546875
"84601","Provo","UT","Sears Parts & Repair","971 W Center St","84601",40.233164,-111.67561299999998
"84601","Provo","UT","Jones Paint & Glass","248 N 100 W","84601",40.236299551395504,-111.66049757512573
"84601","Provo","UT","TC Water Technologies","1952 W 820 N #23","84601",40.2451551,-111.6917095
"84601","Provo","UT","Sherwin-Williams Paint Store","435 S University Ave","84601",40.227909999999994,-111.65822
"84601","Provo","UT","Sherwin-Williams Paint Store","95 N 500 W","84601",40.23495101928711,-111.6685562133789
"84604","Provo","UT","ReStore Habitat For Humanity Home Improvement Store","340 S Orem Blvd","84058",40.29093682765961,-111.69509589672089
"84606","Provo","UT","Interwest Safety Supply","724 E 1860 S","84606",40.208273999999996,-111.645322
"84606","Provo","UT","Carpenter Seed Co.","1030 S State St","84606",40.220317,-111.639987
"84624","Delta","UT","Courtesy Ace Hardware","126 E Main St","84624",39.3523709,-112.57187
"84624","Delta","UT","Losee Lumber True Value","696 N Highway 6","84624",39.36335372924805,-112.5491943359375
"84627","Ephraim","UT","Tractor Supply Co.","828 North Main St","84627",39.372379302978516,-111.58663177490234
"84631","Fillmore","UT","Southfork Hardware True Value","135 N Main St","84631",38.97185962,-112.32375
"84631","Fillmore","UT","IFA Country Store","not_available","84631",38.98115,-112.323179
"84631","Fillmore","UT","Roper Lumber Co Inc","95 N Main St","84631",38.975163,-112.32357
"84634","Gunnison","UT","Valley Builder True Value","310 N Main St","84634",39.15709065,-111.8187606
"84634","Gunnison","UT","Rasmussen's Ace Hardware","435 S Main","84634",39.148229,-111.81808899999999
"84645","Mona","UT","Choice Hardware","1005 N Main St","84648",39.723226000000004,-111.836931
"84645","Mona","UT","4-D Plumbing & Builders Supply","66 S Main St","84648",39.707886,-111.83649799999999
"84646","Moroni","UT","Moroni Feed Co True Value Hdwe","15 E 1900 S Feed Mill Rd","84646",39.512766465809854,-111.58190703917802
"84651","Payson","UT","Ace Hardware","795 N State Road 198","84653",40.06678009033203,-111.66676330566406
"84651","Payson","UT","SOUTHGATE HARDWARE","2-98 E Utah Ave","84651",40.043352917976435,-111.73132089167504
"84651","Payson","UT","Carter's Glass","not_available","84651",40.043394,-111.746103
"84651","Payson","UT","Metal Worx Roofing","433 W 1240 S","84651",40.024369,-111.739121
"84651","Payson","UT","Stringhams True Value","124 N Highway 198","84655",39.977365999999996,-111.768662
"84651","Payson","UT","Tractor Supply Co.","326 North State Rd 198","84653",40.059554,-111.668532
"84657","Sigurd","UT","Larsens Ace Hardware","1155 S Highway 118","84701",38.7642689,-111.99005
"84660","Spanish Fork","UT","Ace Hardware","45 E Main","not_available",40.10993637272626,-111.65437825138379
"84660","Spanish Fork","UT","Lowe's","not_available","84660",40.126774,-111.63653
"84660","Spanish Fork","UT","C-A-L Ranch Stores","950 N Main St","84660",40.12214688401693,-111.6538309474003
"84660","Spanish Fork","UT","Ace Hardware Spanish Fork","888 N 600 E","84660",40.1212299,-111.64438
"84660","Spanish Fork","UT","SouthWest Plumbing Supply","940 S 2000 W Ste 110","84663",40.153159,-111.649418
"84660","Spanish Fork","UT","Standard True Value - Springville","740 S 1750 W","84663",40.156188,-111.643129
"84660","Spanish Fork","UT","Green Tech Construction LLC","218 N 1800 E","84660",40.11266,-111.623567
"84660","Spanish Fork","UT","Mr. Electric Of Provo","655 S Main St","84663",40.158146,-111.610001
"84660","Spanish Fork","UT","Ace Hardware","35 E 400 S","84663",40.16163635253906,-111.60950469970703
"84660","Spanish Fork","UT","Electrical Wholesale Supply","not_available","84663",40.168588,-111.648357
"84660","Spanish Fork","UT","Lowe's","1386 North Canyon Creek Parkway","84660",40.112998962402344,-111.67350006103516
"84663","Springville","UT","Kodiak Mountain Stone (Utah)","399 W 900 N","84663",40.180192,-111.616574
"84663","Springville","UT","Smith Steel Works","270 W 500 S","84660",40.10258483886719,-111.65851593017578
"84701","Richfield","UT","The Home Depot","1440 S Technology Drive","84701",38.74754427094478,-112.10292256186221
"84701","Richfield","UT","Tractor Supply Co.","70 West 1300 South","84701",38.74993896484375,-112.08547973632812
"84701","Richfield","UT","Larsen's Ace Hardware","1155 S SR 118","84701",38.75242233276367,-112.08573150634766
"84713","Beaver","UT","Ace Hardware","1627 N Hwy 357","84713",38.298301696777344,-112.64041900634766
"84713","Beaver","UT","Fishlake Lumber Company","1627 North Highway 357","84713",38.295203,-112.63921
"84714","Beryl","UT","H&R Home Center  True Value","840 West 200 South","84761",37.7110062492145,-113.661213159744
"84716","Boulder","UT","Escalante Home Center","Hwy 12","84726",37.767198,-111.591077
"84720","Cedar City","UT","Hurst Ace Hardware","165 S Main St","84720",37.688177,-113.06178
"84720","Cedar City","UT","The Home Depot","1518 S Providence Ctr Dr","84720",37.65107,-113.0879196
"84720","Cedar City","UT","Sherwin-Williams Paint Store","866 S 475 W","84720",37.662298840405846,-113.0699146939458
"84720","Cedar City","UT","Dry Lube, Inc.","517 N 5575 W","84721",37.687195,-113.168367
"84720","Cedar City","UT","Top Gun Automotive","423 N. 100 W.","84720",37.684837,-113.063472
"84720","Cedar City","UT","Southwest Plumbing Supply","690 N","84725",37.68923568725586,-113.06151580810547
"84720","Cedar City","UT","Jones  Paint & Glass Inc","38 E 1600 N","84721",37.70600833,-113.06242733
"84720","Cedar City","UT","Good N Useful Supply","1342 W Industrial Rd","84721",37.68745040893555,-113.08019256591797
"84720","Cedar City","UT","Codale Electric Supply","477 N 100 W","84721",37.68607883446265,-113.06404173374176
"84720","Cedar City","UT","Southern Utah True Value Lumber","255 N 200 W","84721",37.681846,-113.065242
"84720","Cedar City","UT","Roofers Supply","400 Coal Creek Rd","84721",37.68919372558594,-113.06863403320312
"84723","Circleville","UT","Stans True Value","85 E Main St","84723",38.17175,-112.2709833
"84725","Enterprise","UT","Bracken's True Value","591 E Main","84725",37.55497338,-113.688993
"84725","Enterprise","UT","BRACKENS","591 E Main St.","84725",37.57419812128879,-113.71050482131317
"84737","Hurricane","UT","Davis Food And Drug #4","495 N State St","84745",37.21046829223633,-113.2725830078125
"84737","Hurricane","UT","Bucks Ace Hardware","489 W State St","84737",37.176044,-113.297344
"84737","Hurricane","UT","Countertop Source","459 N Old Highway 91","84737",37.18320083618164,-113.41065216064453
"84737","Hurricane","UT","Tractor Supply Co.","1620 West State St","84737",37.177308000000004,-113.318595
"84737","Hurricane","UT","Scholzen Products Co","548 W 100 N","84737",37.17914581298828,-113.29740905761719
"84737","Hurricane","UT","Foundation Building Materials","255 North 5500 West","84737",37.175256,-113.4179374
"84738","Ivins","UT","Brent Ence Construction","not_available","84738",37.16143,-113.67503
"84738","Ivins","UT","Red Mountain Electric","134 West 200 South","84738",37.16518,-113.68268
"84741","Kanab","UT","Cedar Mountain True Value","76 Movie Ranch Rd","84762",37.52494291,-112.6651625
"84741","Kanab","UT","Crosby's Hardware N Feed","89s","84741",37.04200216602388,-112.51312191001067
"84741","Kanab","UT","Lumber Plus True Value Hardware","227 E 300 S","84741",37.04318682,-112.5239244
"84747","Loa","UT","Brian Farm Service True Value","33 E 300 S","84747",38.3974609375,-111.64187622070312
"84747","Loa","UT","BRIAN FARM SERVICE TRUE VALUE","33 EAST 300 SOUTH","84747",38.40776062011719,-111.6420669555664
"84751","Milford","UT","Milford True Value Hardware","590 N Main","84751",38.4042731578947,-113.00985
"84757","New Harmony","UT","Star Nursery","385 St. George","84757",37.469932556152344,-113.28771209716797
"84759","Panguitch","UT","Panguitch Home Center True Value","24 E 100 N","84759",37.824180603027344,-112.43514251708984
"84759","Panguitch","UT","Tropic True Value","141 N Main","84776",37.674273965299456,-112.15308422909496
"84759","Panguitch","UT","H & R True Value","24 E 100 North","84759",37.824048,-112.43512399999997
"84761","Parowan","UT","PAROWAN HOME CENTER TRUE VALUE","840 WEST 200 SOUTH","84761",37.839088439941406,-112.84153747558594
"84767","Springdale","UT","Sol Hardware","1001 Zion","84767",37.187656,-113.000661
"84770","Saint George","UT","Lowe's","415 South River Road","84790",37.1010968,-113.5538148
"84770","Saint George","UT","Ferguson HVAC Supply","985 N 1400 W","84770",37.12562742552261,-113.61364973646214
"84770","Saint George","UT","Wasatch Shutter Design","170 N 400 E","84770",37.11135482788086,-113.5756607055664
"84770","Saint George","UT","Dixie Lumber","West Sunset Blvd","84770",37.124809,-113.607865
"84770","Saint George","UT","Harbor Freight Tools","953 W RED CLIFFS DR","84770",37.0933,-113.584597
"84770","Saint George","UT","Pacific Supply","845 Red Rock Rd, St George, UT 84770","84770",37.12338638305664,-113.55827331542969
"84770","Saint George","UT","Hurst Ace Hardware","160 N Bluff St","84770",37.1169709,-113.58659
"84770","Saint George","UT","Discount Plumbing Service","445 S 500 E","84770",37.10059251,-113.57247595
"84770","Saint George","UT","John Deer Landscapes","not_available","84790",37.088786,-113.552682
"84770","Saint George","UT","Standard Plumbing Supply","88 E 1160 S","84770",37.087318420410156,-113.58170318603516
"84770","Saint George","UT","Ferguson Plumbing Supply","1314 S 320 E","84790",37.0865935637131,-113.57684
"84770","Saint George","UT","Carpets Plus Design","1301 W Sunset Blvd","84770",37.12251281738281,-113.61172485351562
"84770","Saint George","UT","Sherwin-Williams Paint Store","1007 W Sunset Blvd","84770",37.124290466308594,-113.60523223876953
"84770","Saint George","UT","Fastenal","389 Industrial Rd Ste 9","84770",37.114398,-113.560834
"84770","Saint George","UT","minuteKEY","415 S River Rd","84790",37.100852966308594,-113.55390167236328
"84770","Saint George","UT","The Home Depot","937 N Westridge Drive","84770",37.12510657156984,-113.61724412749027
"84770","Saint George","UT","Bucks Ace Hardware","607 S Mall Drive","84790",37.0801,-113.5585
"84770","Saint George","UT","Alpine Gas Fireplaces","393 East Riverside Drive","84790",37.08466858,-113.57585993
"84776","Tropic","UT","TROPIC TRUE VALUE","PO Box 59","84776",37.622833251953125,-112.08148956298828
"84776","Tropic","UT","Tropic True Value","121 N Main Street Po Box 59","84776",37.62574005126953,-112.08196258544922
"84780","Washington","UT","The Home Depot","725 W Telegraph St","84780",37.1258833,-113.5206473
"84780","Washington","UT","Harbor Freight Tools","953 W Red Cliffs Dr","84780",37.125611542280424,-113.52536845646625
"84780","Washington","UT","Burton Lumber","222 W Industrial Dr","84780",37.115575,-113.51262
"84780","Washington","UT","Sherwin-Williams Paint Store","1006 W Red Cliffs Dr","84780",37.126785,-113.526513
"84780","Washington","UT","Building Specialties","708 N. 3050 W","84790",37.120456,-113.520295
"84790","Saint George","UT","Ferguson Waterworks","1087 E Commerce Dr","84790",37.03907012939453,-113.56059265136719
