"zip","city","state","name","address","postalCode","lat","lon"
"24701","Bluefield","WV","Lowe's","515 Commerce Drive","24605",37.237954,-81.251537
"24701","Bluefield","WV","Lowe's","1155 Oakvale Road","24740",37.3654951,-81.0502759
"24701","Bluefield","WV","84 lumber","Route 52","24701",37.27970852388772,-81.24513126392148
"24701","Bluefield","WV","Citizen's Building Supply","not_available","not_available",37.2661642490788,-81.23195357202854
"24701","Bluefield","WV","Citizens Building Supply & Home Ctr","600 Bluefield Ave","24701",37.266704,-81.232036
"24701","Bluefield","WV","Jennings RV & Mobile Home Accessories LLC","506 Mount Horeb Rd","24740",37.35589599609375,-81.0964584350586
"24701","Bluefield","WV","Tractor Supply Co.","3955 East Cumberland Rd","24701",37.263261,-81.188385
"24701","Bluefield","WV","Sherwin-Williams Paint Store","3104 E Cumberland Rd","24701",37.25397843871108,-81.20393410011351
"24701","Bluefield","WV","State Electric Supply Co.","820 Bluefield Ave","24701",37.265893,-81.234386
"24740","Princeton","WV","virginia hardware","not_available","24740",37.36929702758789,-81.10131072998047
"24740","Princeton","WV","Ferguson Plumbing Supply","561 Turnpike Industrial Park Rd","24739",37.369397,-81.041887
"24801","Welch","WV","Horne Lumber Co.","101 Us Route 52 N","24801",37.433101654052734,-81.54823303222656
"24801","Welch","WV","HORNE LUMBER CO & TRUE VALUE","101 US ROUTE 52 N","24801",37.417484283447266,-81.59065246582031
"24901","Lewisburg","WV","Lowe's","20 Gateway Boulevard","24901",37.8118286,-80.434822
"24901","Lewisburg","WV","Tractor Supply Co.","8444 Seneca Trl South","24970",37.765089,-80.464843
"24901","Lewisburg","WV","84 Lumber","not_available","24901",37.779384098987315,-80.46122194166017
"24901","Lewisburg","WV","Sears","8484 Seneca trail South","24970",37.76630384229294,-80.46493442270184
"24901","Lewisburg","WV","S. J. Neathawk Lumber","771 N Jefferson St","24901",37.80758285522461,-80.43659973144531
"24901","Lewisburg","WV","True Value Home Center & Hardware","113 S Court St","24901",37.802005767822266,-80.44685363769531
"24901","Lewisburg","WV","Sherwin-Williams Paint Store","214 Red Oaks Shopping Ctr","24970",37.76762771606445,-80.46692657470703
"24910","Alderson","WV","TRUE VALUE HOME CENTER","RR1","24910",37.72969436645508,-80.64146423339844
"24924","Buckeye","WV","Glades Building Supply","Us Rte 219","24954",38.1578999,-80.180599
"24924","Buckeye","WV","Glades Building Supply","19456 SENECA TRAIL","24954",38.2823679,-80.104799
"24954","Marlinton","WV","Richardson","309 8th St","24954",38.21905948,-80.08755446
"24963","Peterstown","WV","Mountaineer Power Equipment","3772 Seneca Trl S","24963",37.416459,-80.744361
"24970","Ronceverte","WV","Martin & Jones Hardware","422 edgar","not_available",37.747788270793365,-80.46608807655676
"24983","Union","WV","KITTLE TRUE VALUE HARDWARE","405 MAIN STREET","24983",37.591983795166016,-80.5438461303711
"24986","White Sulphur Springs","WV","Tractor Supply Co.","105 Mall Rd","24426",37.7729377746582,-79.96885681152344
"24986","White Sulphur Springs","WV","Sherwin-Williams Paint Store","479 W Main St","24426",37.790651,-79.997991
"24986","White Sulphur Springs","WV","Neathawk Lumber","not_available","24426",37.793007269536844,-79.99745233458627
"24986","White Sulphur Springs","WV","Covington Farm & Fuel","121 N Alleghany Ave","24426",37.793438,-79.988647
"25003","Alum Creek","WV","The Home Depot","100 Cross Terrace Blvd","25309",38.315784027156546,-81.71526146485121
"25003","Alum Creek","WV","Brighton Plumbing and Heating","214 Lincoln.","02135",38.260524841632524,-81.84434652328491
"25007","Arnett","WV","Annie's Locksmith","25007 McBean Pkwy","91355",37.82920912381288,-81.42319679260254
"25015","Belle","WV","Tractor Supply Co.","2700 East Dupont Ave Ste 4","25015",38.20979122,-81.5103602
"25015","Belle","WV","Vallen","11301 Maccorkle Ave","25315",38.23386001586914,-81.55074310302734
"25022","Blair","WV","Workshop","not_available","25607",37.799455,-81.740122
"25033","Buffalo","WV","Reach Workcamps - Tool Tent","not_available","25033",38.61133911565617,-81.98558558615215
"25045","Clendenin","WV","R.o.p.e.  Wally's","not_available","25071",38.46814321717139,-81.4018799384096
"25053","Danville","WV","Fastenal","1200 Smoot Ave","25053",38.08341979980469,-81.8362045288086
"25053","Danville","WV","Barker Hardware","212 Smoot Ave","25053",38.07809605423867,-81.83313884578585
"25053","Danville","WV","Byrnside Hardware","107 Fourth St","25053",38.07916690833871,-81.83449957977011
"25071","Elkview","WV","Crede Tractor Sales & Service","46 Christine Ln","25302",38.406236,-81.531341
"25071","Elkview","WV","Smith's True Value","4509 Pennsylvania Ave","25302",38.40592575073242,-81.53947448730469
"25123","Leon","WV","Yauger Farm Supply","not_available","25187",38.75251007080078,-81.98651123046875
"25123","Leon","WV","Pro Hardware","Rt. 33","25239",38.869106650711515,-81.82016524473225
"25136","Montgomery","WV","jarvis' Hardware","not_available","25136",38.180233001708984,-81.33502960205078
"25143","Nitro","WV","Ferguson HVAC Supply","118 Harris Dr","25159",38.44966506958008,-81.82135009765625
"25143","Nitro","WV","Lowe's","1000 Nitro Marketplace","25313",38.412778,-81.8111953
"25143","Nitro","WV","Sherwin-Williams Paint Store","1721 MacCorkle Ave","25177",38.38686752319336,-81.81731414794922
"25143","Nitro","WV","ACE Center Hardware","23 Maccorkle Ave #C","25177",38.3903,-81.8375
"25143","Nitro","WV","Harbor Freight Tools","915 Cross Lanes Dr","25313",38.42094063691827,-81.79446537226639
"25143","Nitro","WV","minuteKEY","1000 Nitro Market Pl","25313",38.4129524230957,-81.81111145019531
"25143","Nitro","WV","Total Equipment Company","46 Mesa Dr","25177",38.445335388183594,-81.84830474853516
"25143","Nitro","WV","Equipment Depot","218 Smiley Dr","25177",38.444184,-81.84956799999999
"25159","Poca","WV","Thomas Maintanence And Repair","street","25159",38.46158685717049,-81.78911447525024
"25168","Red House","WV","Winfield Hardware","17 Garfield St","25213",38.53298649689142,-81.89475925586243
"25213","Winfield","WV","The Home Depot","1100 Liberty Park Dr","25526",38.4565696,-81.9246368
"25213","Winfield","WV","Tractor Supply Co.","3790 Teays Valley Rd","25526",38.447302102003256,-81.9594444864988
"25213","Winfield","WV","Sherwin-Williams Paint Store","3784 Teays Valley Rd","25526",38.446929935956646,-81.96076645946535
"25253","Letart","WV","King Ace Hardware","405 N 2nd Ave","45760",39.0053079,-82.047224
"25253","Letart","WV","Thompsons LLC","405 Fifth Street","not_available",38.98074,-81.992191
"25271","Ripley","WV","Tractor Supply Co.","130 Mcgraw St","25271",38.819316,-81.72312099999999
"25271","Ripley","WV","Summit Farm Supply","436 Church St S","25271",38.82342,-81.70776
"25271","Ripley","WV","Sears","29 South Hill Plaza Drive","25271",38.76877172783903,-81.69537395238876
"25271","Ripley","WV","Hardmans","619 Church St. S","25271",38.80282211303711,-81.69953918457031
"25271","Ripley","WV","Carter Lumber","1 Carter Pt","25271",38.821205,-81.73153
"25276","Spencer","WV","Tractor Supply Co.","58 Williams Dr","25276",38.799312,-81.35016
"25276","Spencer","WV","Husqvarna US","PO Box 1007","25276",38.78901290893555,-81.3456039428711
"25301","Charleston","WV","Zegeer Hardware","1421 Washington St E","25301",38.343876,-81.623617
"25301","Charleston","WV","Mccloy Construction","not_available","25301",38.35035,-81.64447
"25301","Charleston","WV","Airgas Mid America","905 Morris St","25301",38.350642,-81.622442
"25301","Charleston","WV","Wolseley Industrial Group","160 Spring St","25301",38.35673981587926,-81.62722007020562
"25301","Charleston","WV","mountaineer wholesale supply","1333 Smith St, Plaza East Shopping Center, Charleston, WV 25301","25301",38.347097,-81.621753
"25301","Charleston","WV","Matheson Valley","1224 McDonald St","25301",38.350777,-81.623013
"25302","Charleston","WV","Sherwin-Williams Paint Store","217 Randolph St","25302",38.359841,-81.646139
"25302","Charleston","WV","F.M. Pile Hardware Co Inc","1625 Washington St W","25387",38.372088,-81.661766
"25302","Charleston","WV","Central Glass CO Of Charleston","517 Russell St","25302",38.366365,-81.655747
"25303","South Charleston","WV","Applied Industrial","615","25303",38.367128,-81.698011
"25303","South Charleston","WV","Airgas Mid America","1 Oregon St","25387",38.371146,-81.668454
"25303","South Charleston","WV","Building & Remodeling Warehouse","2 Brownsfield Way","25303",38.3705051,-81.69709750000001
"25304","Charleston","WV","Lowe's","5750 Maccorkle Ave SE","25304",38.3130801,-81.5640245
"25304","Charleston","WV","Sherwin-Williams Paint Store","5707 MacCorkle Ave SE","25304",38.310236559509875,-81.56819969415665
"25309","South Charleston","WV","Lowe's","#50 Rhl Blvd","25309",38.3366894,-81.7156262
"25309","South Charleston","WV","minuteKEY","50 R H L Blvd","25309",38.33646774291992,-81.7152328491211
"25309","South Charleston","WV","Atlas Scaffold & Supply, Inc.","4234 Kanawha Tpke","25309",38.353302001953125,-81.71984100341797
"25312","Charleston","WV","Imperial Hydraulic Service Inc","369 Call Road","25312",38.46384811401367,-81.65888214111328
"25312","Charleston","WV","Ferguson","2761-2899 Washington St W","25312",38.3774438,-81.67947351666666
"25315","Charleston","WV","The Best Hardware","8709 Maccorkle Ave","25315",38.24842651622814,-81.57341122627258
"25401","Martinsburg","WV","Lowe's","14725 Apple Harvest Drive","25401",39.4437924,-77.9848361
"25401","Martinsburg","WV","Tractor Supply Co.","1212 North Queen St","25403",39.471671,-77.955809
"25401","Martinsburg","WV","Sherwin-Williams Paint Store","1290 Edwin Miller Blvd","25404",39.47751037407037,-77.95907825231552
"25401","Martinsburg","WV","Cecil's Building Supply","210 Adams St","25404",39.4673957824707,-77.96121978759766
"25401","Martinsburg","WV","Sherwin-Williams Floorcovering Store","518 Hedrick Ave","25405",39.43450258820436,-77.9889392852783
"25401","Martinsburg","WV","Capital Electric","48 Brian Dr","25405",39.43355178833008,-77.98554992675781
"25401","Martinsburg","WV","Boltz Hardware & Garden Center","500 Winchester Ave","25401",39.45388,-77.97358
"25401","Martinsburg","WV","minuteKEY","14725 Apple Harvest Dr","25401",39.4440803527832,-77.984375
"25401","Martinsburg","WV","City Electric Supply Martinsburg","1644 Winchester Ave","25405",39.436092886719216,-77.98586857842747
"25401","Martinsburg","WV","minuteKEY","800 Foxcroft Ave","25401",39.4509055,-77.9859793
"25401","Martinsburg","WV","Kirby Masonry And Building Supply","not_available","25401",39.433408,-77.957604
"25401","Martinsburg","WV","Heiston Supply","36 Variform Dr, Martinsburg, WV 25405","25405",39.4363725526954,-77.96028794468816
"25403","Martinsburg","WV","Arden Tractor Supply","not_available","25428",39.412912253049704,-78.048423283342
"25404","Martinsburg","WV","Countertop Solutions","286 Langston Blvd","25404",39.5360575,-77.9154373
"25404","Martinsburg","WV","minuteKEY","5680 Hammonds Mill Rd","25404",39.543121337890625,-77.9099349975586
"25404","Martinsburg","WV","Panhandle Building And Excavating","not_available","25419",39.537310634757056,-77.91655316215832
"25405","Martinsburg","WV","Masters hardware","154 Carlton Dr","25428",39.39725875854492,-78.01266479492188
"25405","Martinsburg","WV","Carter Lumber","5443 Tabler Station Rd","25428",39.400421142578125,-78.00971221923828
"25411","Berkeley Springs","WV","Tractor Supply Co.","3720 Valley Rd","25411",39.57594299316406,-78.25594329833984
"25411","Berkeley Springs","WV","Dawson's Home Center","99 Business Park Cir","25411",39.554256439208984,-78.26599884033203
"25411","Berkeley Springs","WV","Hunter's Hardware","115 Independence","25411",39.628323980509755,-78.22593347728892
"25413","Bunker Hill","WV","Vernon E Stup co.","not_available","25413",39.29616928100586,-78.082275390625
"25414","Charles Town","WV","The Home Depot","230 Oak Lee Drive","25438",39.3187618,-77.8467705
"25414","Charles Town","WV","GSC Excavating","157 Cogles Fields Ln","25425",39.2487678527832,-77.78307342529297
"25414","Charles Town","WV","Tractor Supply Co.","1040 Somerset Blvd","25414",39.30219826786658,-77.81505638361776
"25414","Charles Town","WV","Southern States","not_available","25438",39.298909,-77.862146
"25414","Charles Town","WV","Sherwin-Williams Paint Store","182 Flowing Springs Rd","25414",39.297382,-77.842256
"25414","Charles Town","WV","Southern States - 75816","222 N Mildred St","25438",39.29905,-77.861901
"25414","Charles Town","WV","C.t. Paint center","99 Cary Lu Cir Ste 100","25425",39.3062858581543,-77.81029510498047
"25422","Great Cacapon","WV","Taylor's Appliance","6140 Magnolia","not_available",39.539676666259766,-78.40669250488281
"25427","Hedgesville","WV","Clear Spring Hardware Store","not_available","21722",39.660234178563655,-77.98292937106469
"25443","Shepherdstown","WV","S & H Machine Shop LLC","6701 Sharpsburg Pike","21782",39.497368,-77.748435
"25504","Barboursville","WV","Lowe's","700 Mall Road","25504",38.4173347,-82.2672751
"25504","Barboursville","WV","The Home Depot","1050 Thundering Herd Dr","25504",38.42289851220005,-82.28560209274292
"25504","Barboursville","WV","Jabo Supply","5164 Braley Rd, Huntington, WV 25705","25705",38.41700294130421,-82.34361279646662
"25504","Barboursville","WV","A Best Painting","876 Holiday Park drive","25559",38.3490732,-82.27363660000003
"25504","Barboursville","WV","Advantage Power Equipment","5636 US  Rt 60, 2","25705",38.41003391044928,-82.32568983598162
"25504","Barboursville","WV","Hogsett Lock Service","4563 Hughes Branch Rd","25701",38.359798431396484,-82.34309387207031
"25504","Barboursville","WV","Sears","100 Huntington Mall","25504",38.4200937,-82.2673685
"25504","Barboursville","WV","minuteKEY","25 Nichols Dr","25504",38.42170715332031,-82.25697326660156
"25504","Barboursville","WV","Sears","100 Huntington Mall Rd","25504",38.42010172,-82.26742225
"25504","Barboursville","WV","Menards","1 Menards Dr","25504",38.39456558227539,-82.2842025756836
"25506","Branchland","WV","Branchland Lumber","not_available","25506",38.201740052962144,-82.1980553380378
"25507","Ceredo","WV","Kenny Queen Hardware","625 Oak St","25530",38.397722,-82.565648
"25507","Ceredo","WV","Harbor Freight Tools","283 WEST 4TH STREET","25530",38.395171386910995,-82.56359447674076
"25508","Chapmanville","WV","minuteKEY","77 Norman Morgan Blvd","25601",37.8599683,-82.0446136
"25510","Culloden","WV","Teays Valley Hardware","910 Midland Trl","25526",38.42287063598633,-82.02055358886719
"25510","Culloden","WV","Lee Hartman & Sons","not_available","25526",38.43721095880039,-82.01788027509126
"25514","Fort Gay","WV","Wellman Hardware","309 Main Cross St.","41230",38.1158447265625,-82.60270690917969
"25514","Fort Gay","WV","Tractor Supply Co.","16230 Us Hwy 23","41230",38.09572,-82.62583
"25515","Gallipolis Ferry","WV","Carter's Plumbing","not_available","45631",38.815036,-82.198798
"25515","Gallipolis Ferry","WV","Sherwin-Williams Paint Store","307 Upper River Rd","45631",38.83473205566406,-82.15328979492188
"25515","Gallipolis Ferry","WV","O'Dell True Value Lumber","61 Vine St","45631",38.80427932739258,-82.21244049072266
"25515","Gallipolis Ferry","WV","Sears","2200 Eastern Ave","45631",38.82697082013623,-82.16797962790224
"25526","Hurricane","WV","Ace Hardware","3554 Teays Valley Rd","25526",38.44285583496094,-81.98493194580078
"25530","Kenova","WV","Lowe's","294 County Road, 120 South","45680",38.411358,-82.5290937
"25530","Kenova","WV","Tractor Supply Co.","367 County Rd 406 Ste A","45680",38.42129662596613,-82.50552417129649
"25530","Kenova","WV","Husqvarna US","232 Connoly Rd","25530",38.36870193481445,-82.5875473022461
"25535","Lavalette","WV","Tractor Supply Co.","4942 Rte 152","25535",38.31187698,-82.44328935
"25550","Point Pleasant","WV","Thomas Hardware","not_available","25550",38.840794722444414,-82.13641442245982
"25550","Point Pleasant","WV","Sherwin-Williams","not_available","25515",38.85077992141548,-82.13580863685513
"25570","Wayne","WV","Kenny Queen Hardware","45 McGinnis Dr","25570",38.2569069,-82.429818
"25601","Logan","WV","Baisden Bros Inc","340 Riverview Ave","25601",37.84507854,-82.0088586
"25601","Logan","WV","Tractor Supply Co.","150 John Wes Evans Dr","25601",37.85284423828125,-82.03884887695312
"25601","Logan","WV","Lowe's","91 Norman Morgan Blvd","25601",37.857908,-82.043512
"25606","Accoville","WV","Ellis Lumber & Supply, Inc.","Route 99","25606",37.76012993823887,-81.84246361255646
"25661","Williamson","WV","Westcott True Value Hardware","29276 Us Hwy 119","41503",37.66868514,-82.27777554
"25661","Williamson","WV","Tractor Supply Co.","169 Southside Mall Rd","41503",37.6527773,-82.27268205
"25661","Williamson","WV","Sears","275 Southside Mall Road, Suite 10B","41503",37.6547069,-82.2747099
"25661","Williamson","WV","minuteKEY","28402 US Highway 119","41503",37.664845,-82.2731629
"25674","Kermit","WV","T & D Hardware","17 Hode Rd","41267",37.84487319999999,-82.417658
"25674","Kermit","WV","R&J","not_available","41231",37.82955551147461,-82.40167236328125
"25701","Huntington","WV","habitat for humanity restore","not_available","25703",38.42004698414211,-82.45501068295069
"25701","Huntington","WV","Moore's Hardware","303 Bridge St","25702",38.42942428588867,-82.38710021972656
"25701","Huntington","WV","Brayman Construction Co","3520 Mount Union Rd","25701",38.3856086730957,-82.39836883544922
"25701","Huntington","WV","James L. Johnson Heating &Plumbing Inc.","1949 8th Ave","25703",38.4184813,-82.42144309999999
"25701","Huntington","WV","hajoca","not_available","25704",38.40873336791992,-82.46965026855469
"25701","Huntington","WV","Ace Hardware","4350 A 5th St Rd","25701",38.380123,-82.456214
"25701","Huntington","WV","Ferguson Plumbing Supply","712 14th St","25701",38.417776,-82.43341
"25701","Huntington","WV","Kenny Queen Ace Hardware","not_available","25701",38.36762260202048,-82.45419075429501
"25701","Huntington","WV","Sherwin-Williams Paint Store","2463 3rd Ave","25703",38.42682854850371,-82.4142934795804
"25701","Huntington","WV","Tri State Waterproofing","515 Ohio Ave","25701",38.41522,-82.469792
"25701","Huntington","WV","Kenny Queen Hardware","4350 5th Street Rd","25701",38.4059999,-82.447299
"25701","Huntington","WV","Mutual Wholesalers, Inc","710 5th St","25701",38.41503392411632,-82.4491230083679
"25701","Huntington","WV","North Coast Commercial Roofing Systems","618 5th St W","25701",38.413768,-82.462563
"25703","Huntington","WV","State Electric Supply Company","2010 2nd Ave","25703",38.427568,-82.422762
"25801","Beckley","WV","Lowe's","1210 North Eisenhower Drive","25801",37.8015803,-81.1734023
"25801","Beckley","WV","Ferguson","412 Industrial Park Rd","25813",37.793591,-81.115972
"25801","Beckley","WV","W. Va Electric Supply Company","5710 Robert C Byrd Dr","25880",37.85368728637695,-81.19699096679688
"25801","Beckley","WV","Harbor Freight Tools","4277 Robert C Byrd Dr #17","25801",37.81333,-81.186448
"25801","Beckley","WV","84 Lumber","not_available","25832",37.74201388888889,-81.140625
"25801","Beckley","WV","Sherwin-Williams Paint Store","25 By Pass Plaza Shpg Ctr","25801",37.809148226231486,-81.18355751037598
"25801","Beckley","WV","American True Value Hardware","212 Main St","25880",37.8971948979592,-81.1612406122449
"25801","Beckley","WV","Mountaineer Electric","110-112 Marshall Ave","25801",37.78310005,-81.16944705
"25801","Beckley","WV","minuteKEY","1881 Robert C Byrd Drive","25873",37.754291,-81.2222266
"25801","Beckley","WV","Beaver Hardware","726 Ritter Drive","25813",37.74969482421875,-81.14044952392578
"25801","Beckley","WV","Tractor Supply Co.","4303 Robert C Byrd Dr","25801",37.81578,-81.188191
"25801","Beckley","WV","Beckley Feed & Hardware","405 Prince St","25801",37.776863,-81.193885
"25801","Beckley","WV","Wild Wood Log Home Products","not_available","25880",37.87818908691406,-81.19084167480469
"25801","Beckley","WV","minuteKEY","1330 N Eisenhower Dr","25801",37.8055352,-81.1768918
"25813","Beaver","WV","WV Handy Helper","damion lane","25989",37.70487442237716,-81.0981559753418
"25827","Crab Orchard","WV","Priddy's Farm & Garden","not_available","25827",37.719687,-81.252133
"25840","Fayetteville","WV","Tractor Supply Co.","1556 East Main St Ste A","25901",37.99067,-81.130884
"25840","Fayetteville","WV","Sherwin-Williams Paint Store","265 Mall Rd","25901",38.01142883300781,-81.12860870361328
"25840","Fayetteville","WV","Lowe's","46 Fayette Town Center Road","25840",38.031278,-81.1205182
"25840","Fayetteville","WV","minuteKEY","204 Town Center Rd","25840",38.03426742553711,-81.11967468261719
"25951","Hinton","WV","Home Depot","Nimitz, WV 25969","25978",37.64645004272461,-80.96260833740234
"25962","Rainelle","WV","Ace Hardware","326 Main St","25962",37.970151,-80.764714
"25976","Meadow Bridge","WV","Shaffers Tv Supply","Rt 20","25976",37.85594,-80.85567
"26003","Wheeling","WV","Lowe's","2801 Chapline Street","26003",40.0533319,-80.7271715
"26003","Wheeling","WV","Winters Gift Gallery & Hardware","5 S 4th St","43935",40.0962,-80.723772
"26003","Wheeling","WV","Kennedy Hardware Service","3300 McColloch St","26003",40.04706573486328,-80.72237396240234
"26003","Wheeling","WV","Nau's Hardware","not_available","26003",40.04137766740406,-80.68329978965741
"26003","Wheeling","WV","Ohio Valley Drywall Supply","6 Commercial Park Drive","26031",40.03209686279297,-80.72560119628906
"26003","Wheeling","WV","Totterdale Bros Supply Co Inc","226 N Zane Hwy","43935",40.099192,-80.722669
"26003","Wheeling","WV","Wheeling Rubber Products","2110 Main St","26003",40.061442,-80.724097
"26003","Wheeling","WV","minuteKEY","2801 Chapline St","26003",40.053142,-80.727015
"26003","Wheeling","WV","Sands Elec","57-67 18th St","26003",40.062463433333335,-80.71855931666667
"26003","Wheeling","WV","Ppg Paints","436 National Rd","26003",40.07874298095703,-80.71236419677734
"26003","Wheeling","WV","Tractor Supply Co.","6 Elm Grove Xing","26003",40.04756436,-80.65055815
"26003","Wheeling","WV","Sherwin-Williams Paint Store","4 Elm Grove Crossing Mall","26003",40.04854202270508,-80.64935302734375
"26003","Wheeling","WV","Menards","700 Cabela Dr","26059",40.071372985839844,-80.60353088378906
"26034","Chester","WV","Werkheiser Pro Hardware","200 Carolina Ave","26034",40.609527587890625,-80.56803131103516
"26034","Chester","WV","Milligan True Value Hardware","320 Smith St","43920",40.62194,-80.57874
"26034","Chester","WV","Milligans","not_available","43920",40.62201910223898,-80.57873471027413
"26035","Colliers","WV","Busy Beaver","290 Three Springs Dr","26062",40.39839553833008,-80.55000305175781
"26035","Colliers","WV","Tractor Supply Co.","1500 Main St Brook Plz Rte 2, Brook Plaza","26037",40.33749008178711,-80.59598541259766
"26038","Glen Dale","WV","McNear True Value Hardware","4113 Central Ave","43947",39.97085952758789,-80.75135803222656
"26038","Glen Dale","WV","Tractor Supply Co.","1607 Wheeling Ave","26038",39.936767578125,-80.75587463378906
"26041","Moundsville","WV","Busy Beaver","303 Lafayette Ave","26041",39.92346954345703,-80.74945831298828
"26041","Moundsville","WV","McNear True Value Hardware","53 Hwy 7 S","43942",39.86385,-80.81192
"26041","Moundsville","WV","J & D Ked's Ace Hardware","134 Lafayette Ave","26041",39.928584,-80.750202
"26041","Moundsville","WV","Emery Mobile Home Parts","1207 Lafayette Ave","26041",39.91291046142578,-80.74803161621094
"26055","Proctor","WV","Tractor Supply Co.","245 North State Rte 2","26155",39.67494034,-80.85510896
"26055","Proctor","WV","Carter Lumber","195 N State Route 2","26155",39.67097091674805,-80.85649871826172
"26062","Weirton","WV","Sherwin-Williams Paint Store","3125 Main St","26062",40.406826,-80.588457
"26062","Weirton","WV","Marsh Pipe and Supply Company","3070 Pennsylvania Ave","26062",40.411299,-80.546211
"26070","Wellsburg","WV","Robert Scott Lumber","801 Commerce Street","26070",40.270995,-80.61044799999999
"26070","Wellsburg","WV","Optimum Blinds","204 Ohio St","43913",40.2645954,-80.62855359999999
"26070","Wellsburg","WV","CIPOLETTI PLUMBING","1000 Charles St","26070",40.2727165222168,-80.61125946044922
"26101","Parkersburg","WV","The Home Depot","200 Grand Central Ave","26105",39.2995718,-81.5467461
"26101","Parkersburg","WV","pioneer supply","Blizzard Dr","not_available",39.243860999999995,-81.55263199999999
"26101","Parkersburg","WV","Lowe's","2 Walton Dr","26101",39.2174186706543,-81.54930877685547
"26101","Parkersburg","WV","Parkersburg Paint and Janitorial Supply","2909 Murdoch Ave","26101",39.287944,-81.546494
"26101","Parkersburg","WV","84 Lumber","not_available","26150",39.19122737455605,-81.53223366944623
"26101","Parkersburg","WV","Cub Cadet Test Drive Challenge","not_available","26101",39.300067,-81.547284
"26101","Parkersburg","WV","Lowes","189 Bosley Pkwy","26101",39.21757440928813,-81.54867170852074
"26101","Parkersburg","WV","Parks Hardware & Supply Inc","1953 7th St","26101",39.2674999,-81.5253
"26101","Parkersburg","WV","Walker Express","4010 Emerson Ave","26104",39.29051,-81.527776
"26101","Parkersburg","WV","Carter Lumber","6001 Pike St","26101",39.230475,-81.540945
"26101","Parkersburg","WV","Vallen","517 Camden St","26101",39.26070229766033,-81.54182553291321
"26101","Parkersburg","WV","Tractor Supply Co.","101 Tara Ln","26101",39.217526,-81.543686
"26101","Parkersburg","WV","Honest Fred's Flooring","Lost Pavement Drive","26101",39.19327,-81.59426
"26101","Parkersburg","WV","badger lumber","not_available","45714",39.276725517140086,-81.59476711735473
"26104","Parkersburg","WV","Menard's","Emerson Commons Blvd","26104",39.310246,-81.4831
"26104","Parkersburg","WV","Jabo Supply Corporation","not_available","26104",39.314327239990234,-81.47650909423828
"26104","Parkersburg","WV","Equipment Depot","1170 46th Street # 1","26105",39.329131831584945,-81.52548821302844
"26105","Vienna","WV","Lowe's","1300 Grand Central Avenue","26105",39.3121185,-81.5507049
"26105","Vienna","WV","Harbor Freight Tools","2649 Grand Central Ave","26105",39.32372040131534,-81.5519106388092
"26105","Vienna","WV","Sherwin-Williams Paint Store","605 Grand Central Ave","26105",39.304623,-81.55150400000001
"26133","Belleville","WV","REEDS TRUE VALUE HDW","66155 STATE RT 124","45772",39.12133026123047,-81.74699401855469
"26143","Elizabeth","WV","Affordable Drain Cleaning Service","50 Blue Gill Rd","26180",39.13821029663086,-81.40451049804688
"26150","Mineral Wells","WV","Mineral Wells Mini Storage","3103 Elizabeth Pike","26150",39.1715087890625,-81.49091339111328
"26155","New Martinsville","WV","Ace Hardware","1 Franklin St","26155",39.64358901977539,-80.86222839355469
"26155","New Martinsville","WV","Quality Aluminum","216 N 4th Ave","26159",39.605560302734375,-80.93035125732422
"26164","Ravenswood","WV","Jco Lumber","500 Race St","26164",38.951171875,-81.76569366455078
"26170","Saint Marys","WV","Ace Hardware","New Rt 50 W & Indus Pk Rd","26415",39.27312142360145,-81.02085473627359
"26170","Saint Marys","WV","St Marys Hardware And Supply","111 Clay St","26170",39.392118,-81.205162
"26170","Saint Marys","WV","Carter Lumber","30625 St Rt #7","45773",39.35056820927795,-81.35512264307151
"26187","Williamstown","WV","Lowe's","842 Pike Street","45750",39.402709,-81.415586
"26187","Williamstown","WV","Tractor Supply Co.","100 Cherry Tree Ln","45750",39.40506126,-81.41029482
"26187","Williamstown","WV","Ferguson Waterworks","173 Enterprise Dr","45750",39.387668,-81.401166
"26201","Buckhannon","WV","Lowe's","40 Clarksburg Rd","26201",39.0052829,-80.2339345
"26201","Buckhannon","WV","Tractor Supply Co.","120 Garden Fresh Plaza Dr","26201",38.964655,-80.243334
"26201","Buckhannon","WV","Ace Hardware","116 Skyline Plaza Dr","26201",38.973011,-80.23149000000001
"26201","Buckhannon","WV","Weir SPM","not_available","26201",39.00517654418945,-80.28832244873047
"26201","Buckhannon","WV","Husqvarna US","164 Old Weston Rd","26201",38.99801254272461,-80.2438735961914
"26206","Cowen","WV","G & R Grocery Inc","109 Baker St","26288",38.478816986083984,-80.41409301757812
"26217","Diana","WV","Cogar Saw Sales LLC","50 Holly River Rd","26288",38.56957233,-80.4176605
"26241","Elkins","WV","Sherwin-Williams Paint Store","1513 Harrison Ave","26241",38.931805922705564,-79.87069129943848
"26241","Elkins","WV","Davis Electric Service","not_available","26241",38.923898,-79.844212
"26241","Elkins","WV","Tractor Supply Co.","800 Beverly Pike","26241",38.890378999999996,-79.84819499999999
"26241","Elkins","WV","Sears Hometown Store","1611 Harrison Ave.","26241",38.93386733050886,-79.87095415592194
"26241","Elkins","WV","Busy Beaver Building Center #68","731 Beverly Pike","26241",38.89591979980469,-79.84581756591797
"26253","Beverly","WV","Husqvarna US","73 Gravely Dr","26293",38.77907180786133,-79.91630554199219
"26260","Davis","WV","colabrese general store","not_available","26292",39.15074305289726,-79.49768263195682
"26269","Hambleton","WV","Adkins True Value Home Center","Rt 72 North","26287",39.09637,-79.681
"26301","Clarksburg","WV","The Home Depot","1180 West Main Street","26330",39.283053041336636,-80.27167618274689
"26301","Clarksburg","WV","Lowe's","494 Emily Drive","26301",39.267605,-80.284369
"26301","Clarksburg","WV","Sandys True Value Hardware & Home Center","Us Rt 20 South","26301",39.24925875,-80.31774451
"26301","Clarksburg","WV","Tractor Supply Co.","210 Emily Dr","26301",39.27445306767416,-80.28168361388632
"26301","Clarksburg","WV","Ace Hardware","1428 South Pike St","26431",39.3782009,-80.310974
"26301","Clarksburg","WV","Supply Solutions","215 Plainwood Ave","26301",39.25469207763672,-80.31583404541016
"26301","Clarksburg","WV","PREBENA North American Fasteners Corp.","947 Andell Rd","26330",39.23305405521195,-80.29484141618013
"26301","Clarksburg","WV","84 Lumber","not_available","26330",39.29951953529134,-80.27782406774998
"26301","Clarksburg","WV","Sherwin-Williams Paint Store","1208 W Main St","26330",39.28231430053711,-80.27486419677734
"26301","Clarksburg","WV","McClure Johnson Company","not_available","26301",39.26490208886218,-80.36255629829964
"26330","Bridgeport","WV","Ace Hardware","414 Main St","26330",39.28203051610743,-80.2586897461444
"26354","Grafton","WV","Mountaineer Power Equipment","5932 Victory Ave","26354",39.40492,-79.93854
"26354","Grafton","WV","Taylor County Supply","not_available","26354",39.340985561979245,-80.02540725457068
"26354","Grafton","WV","O.C. Cluss Lumber","2025 Pleasant Valley Rd","26554",39.445113125871906,-80.15414522900605
"26362","Harrisville","WV","Stout Hardware","116 S Spring St","26362",39.20891771991119,-81.05146944522858
"26372","Horner","WV","Tractor Supply Co.","384 Market Place Mall","26452",39.017182,-80.420064
"26378","Jane Lew","WV","The Nail Barn","County Route 19/20, Jane Lew, WV 26378","26378",39.05946972634839,-80.40163761250108
"26415","Pennsboro","WV","Ace Hardware","91 Mountaineer Dr","26415",39.2883799,-80.971331
"26416","Philippi","WV","Builders Center","not_available","26416",39.1357421875,-80.01895141601562
"26426","Salem","WV","Husqvarna US","RT. 2 BOX 43C","26426",39.28325653076172,-80.56057739257812
"26426","Salem","WV","Ace Hardware","210 Liberty St","26426",39.282744,-80.562273
"26431","Shinnston","WV","Ace Hdw & Contractor Sply","9051 Middletown Mall","26554",39.4218619,-80.183341
"26431","Shinnston","WV","leslie equipment","not_available","26554",39.42867042205883,-80.20664870138079
"26431","Shinnston","WV","Sherwin-Williams Paint Store","63 Spencer Dr","26554",39.42939376831055,-80.18997192382812
"26431","Shinnston","WV","Ferguson Waterworks","698 Middletown Rd","26554",39.421904,-80.199624
"26431","Shinnston","WV","Ferguson HVAC Supply","126 Van Kirk Dr","26554",39.433553,-80.205335
"26452","Weston","WV","Foster Feed","not_available","26452",39.043190002441406,-80.46887969970703
"26501","Morgantown","WV","Lowe's","9595 Mall Road","26501",39.6245177,-79.9931646
"26501","Morgantown","WV","Ace Hardware & Garden Center","1050 Maple Dr","26505",39.656754,-79.948264
"26501","Morgantown","WV","Sherwin-Williams Paint Store","289 Don Knotts Blvd","26501",39.615440368652344,-79.96987915039062
"26501","Morgantown","WV","Tolley Electric","not_available","26505",39.65302694104127,-79.96880013967308
"26501","Morgantown","WV","minuteKEY","9595 Mall Rd","26501",39.624118,-79.992992
"26501","Morgantown","WV","Koval","Scott Ave","26508",39.58986,-79.932883
"26501","Morgantown","WV","City Appliance","not_available","26501",39.63434,-79.96953076
"26501","Morgantown","WV","Tractor Supply Co.","7 Vista Del Rio Dr","26508",39.58610515366373,-79.9565766607798
"26501","Morgantown","WV","minuteKEY","215 Four H Camp Rd","26508",39.58052444458008,-79.96172332763672
"26501","Morgantown","WV","Probuild","201 N Metro Dr","26501",39.615596771240234,-79.97417449951172
"26505","Morgantown","WV","CED Blueridge Electric","3249 Earl L Core Rd","26508",39.60441589355469,-79.91355895996094
"26505","Morgantown","WV","Grainger Industrial Supply","79-81 Easton Hill Rd","26505",39.6520441626335,-79.92454717154965
"26505","Morgantown","WV","CSC Home & Hardware","1580 Earl L Core Rd","26505",39.62709045410156,-79.92655181884766
"26505","Morgantown","WV","R. E. Michel Company","Ice S Ferry Rd","26505",39.642818,-79.93106245994568
"26505","Morgantown","WV","Camrock","not_available","26508",39.604264,-79.917224
"26505","Morgantown","WV","Construction Supply Co.","Earl L. Core Rd.","26505",39.62603235579499,-79.92641084840217
"26508","Morgantown","WV","Lowe's","901 Venture Drive","26508",39.650662,-79.894212
"26508","Morgantown","WV","Ace Hardware","659 Main St","26542",39.552104849507906,-79.7980702837318
"26508","Morgantown","WV","Pass, Inc","3593 Earl L Core Rd","26505",39.60778523350282,-79.89959960061915
"26508","Morgantown","WV","minuteKEY","901 Venture Dr","26508",39.65053176879883,-79.89447021484375
"26519","Albright","WV","Streets Ace Hardware","22 S Main St","26542",39.469084,-79.671773
"26519","Albright","WV","Tractor Supply Co.","425 East Main St Ste 403","26537",39.46832844125901,-79.66827561055624
"26519","Albright","WV","Ace Hardware","412 E Main St","26537",39.468895,-79.672616
"26525","Bruceton Mills","WV","Fearer's STUMP Removal","2447 Moyers Rd","26525",39.671683,-79.561739
"26554","Fairmont","WV","84 Lumber","1228 Country Club Rd","26554",39.47133255004883,-80.17288970947266
"26554","Fairmont","WV","Busy Beaver Building Center #66","215 Marion Sq","26554",39.4821857142857,-80.1216214285714
"26554","Fairmont","WV","Busy Beaver Building Center #66","215 Marion Square","26554",39.47490310668945,-80.1755599975586
"26554","Fairmont","WV","Nixon's Trading Post","1017-1199 Speedway Ave","26554",39.47732627391815,-80.11956810951233
"26554","Fairmont","WV","V&W Electrical Supply","1525-1527 Fairmont Ave","26554",39.463329836468596,-80.1606969820598
"26554","Fairmont","WV","Alaskys True Value Center","3369 Husky Hwy","26571",39.512298583984375,-80.26102447509766
"26562","Burton","WV","Martins True Value Hardware","Main St","26419",39.67327,-80.45136
"26582","Mannington","WV","Home Center","Fairview St","26582",39.524946212768555,-80.34056067466736
"26601","Sutton","WV","minuteKEY","369 Scotts Fork-Bonnie Rd.","26601",38.7118334,-80.6690274
"26601","Sutton","WV","Gassaway True Value Hardware","612 Elk St","26624",38.673452000000005,-80.774875
"26601","Sutton","WV","Lloyd's Hardware","4350 Sutton Lane","26601",38.70696,-80.6585
"26651","Summersville","WV","Hardman's Hardware","not_available","26651",38.28266652350997,-80.84400917999315
"26651","Summersville","WV","Lowe's","5200 Webster Road","26651",38.3086585,-80.8374023
"26651","Summersville","WV","Tractor Supply Co.","810 Northside Dr Ste 100","26651",38.303694,-80.830467
"26651","Summersville","WV","Sears","50 Stonewall Drive, Unit 1","26651",38.310859,-80.83888
"26704","Augusta","WV","Tractor Supply Co.","181 Solid Oak Dr","26757",39.33141326904297,-78.7145767211914
"26710","Burlington","WV","Cannon's Ace Hardware Inc","2410 New Creek Hwy","26726",39.397796630859375,-79.01204681396484
"26710","Burlington","WV","Husqvarna US","PO Box 247","26710",39.32359313964844,-78.93193054199219
"26710","Burlington","WV","Tractor Supply Co.","104 Shamrock Dr","26726",39.416771000000004,-79.001627
"26710","Burlington","WV","Cannon's Ace Hardware","Route 220 S","26726",39.39876234205294,-79.01041030883789
"26719","Fort Ashby","WV","Fort Ashby Hardware","not_available","26719",39.503977,-78.771176
"26726","Keyser","WV","American Woodmark","not_available","21502",39.55513290836973,-78.86365711031945
"26726","Keyser","WV","Allegany Hardwood","92 Jackson St","21539",39.55985898946948,-78.97748794842818
"26726","Keyser","WV","Wolseley Industrial Group","17 Hamill Ave","21523",39.477025,-79.071134
"26753","Ridgeley","WV","Lowe's","1211 National Highway","21502",39.640644,-78.8338165
"26753","Ridgeley","WV","Tractor Supply Co.","12101 Winchester Rd Southwest Ste 2b","21502",39.631431,-78.839047
"26753","Ridgeley","WV","Harbor Freight Tools","1236 National Hwy","21502",39.6362480003,-78.836155
"26753","Ridgeley","WV","Naylors Hardware","1350 W Industrial Blvd","21502",39.629114,-78.742538
"26753","Ridgeley","WV","Sears","1262 Vocke Rd","21502",39.62667672,-78.83612138
"26753","Ridgeley","WV","Capital Electric","86 Wineow St","21502",39.64726638793945,-78.76004791259766
"26753","Ridgeley","WV","Sears","2 Vocke Rd, Ste 100","21502",39.626487618498814,-78.8360493725861
"26753","Ridgeley","WV","City Electric Supply Cumberland","1600 Ford Ave","21502",39.6256,-78.77185
"26753","Ridgeley","WV","minuteKEY","12500 Country Club Mall Rd","21502",39.6315787,-78.8349988
"26753","Ridgeley","WV","minuteKEY","1211 National Hwy","21502",39.64075469970703,-78.83379364013672
"26753","Ridgeley","WV","Bruck's Custom Cabinetry","926 National Hwy, Cumberland, MD 21502","21502",39.64531326293945,-78.82047271728516
"26753","Ridgeley","WV","Sherwin-Williams Paint Store","717 Park St","21502",39.646667293418055,-78.75799834728241
"26757","Romney","WV","Eastern Building Supply","496 E Main St","26757",39.337495550270404,-78.7496548697669
"26802","Brandywine","WV","B & H Ace Hardware","81 N Main Street","26807",38.642417,-79.331063
"26833","Maysville","WV","Ace Hardware","727 North Fork Highway","26847",39.00232696533203,-79.13655090332031
"26836","Moorefield","WV","Tractor Supply Co.","747 North Main St Ste E","26836",39.076049,-78.964403
"26836","Moorefield","WV","Central Tie and Lumber","79 Hyde Street","26847",38.9578309,-79.132273
"26836","Moorefield","WV","Ace Hardware","79 Hyde St","26836",39.084228515625,-78.95806884765625
"26836","Moorefield","WV","Husqvarna US","2145 C WILLIAMS FARM RD","26836",39.04123306274414,-78.9729995727539
"26851","Wardensville","WV","KERR'S TRUE VALUE HARDWARE","29126 SR 55 EAST","26851",39.086692810058594,-78.58627319335938
"26851","Wardensville","WV","Kerr's True Value Hardware","29126 Sr 55 E","26851",39.07649,-78.59485
