"zip","city","state","name","address","postalCode","lat","lon"
"57003","Baltic","SD","Baltic Lumber","not_available","57003",43.760002,-96.740768
"57004","Beresford","SD","Olson's Ace Hardware","305 NW 13th St","57004",43.082585,-96.786293
"57005","Brandon","SD","Menards","110 S Highline Ave.","57110",43.546872369489535,-96.65505747148146
"57005","Brandon","SD","Ace Hardware","607 S Sycamore Ave","57110",43.541818513429156,-96.67205618048516
"57005","Brandon","SD","Brandon Ace Hardware","304 S Splitrock Blvd","57005",43.5920059,-96.572293
"57005","Brandon","SD","Moda Stone","5422 E Arrowhead Parkway","57106",43.54475961536006,-96.65515380329498
"57005","Brandon","SD","Tamarack Materials","5001 East Rice Street","57110",43.577402,-96.668905
"57005","Brandon","SD","minuteKEY","110 N Highline Ave","57110",43.54731,-96.654698
"57005","Brandon","SD","Brandon Lumber Company","403 S Main Ave","57005",43.590249,-96.58733000000001
"57005","Brandon","SD","Mulder Refrigeration","not_available","not_available",43.537746,-96.639713
"57005","Brandon","SD","Fastenal","805 N 9th Ave","57005",43.604059,-96.576
"57005","Brandon","SD","Sherwin-Williams Paint Store","1212 S Darryl Pl","57110",43.535556,-96.652691
"57006","Brookings","SD","Runnings","2421 6th St","57006",44.3145021,-96.7634328
"57006","Brookings","SD","Lowe's","812 25th Avenue","57006",44.3144645,-96.7607803
"57006","Brookings","SD","minuteKEY","2233 6th St","57006",44.31388473510742,-96.76628875732422
"57006","Brookings","SD","Homestead Do It Center","823 Main Ave S","57006",44.296050160359115,-96.79827463694228
"57006","Brookings","SD","Fastenal","1321 Main Ave S","57006",44.290703,-96.79809
"57006","Brookings","SD","Ekern Home Equipment","815 2nd St S","57006",44.3046875,-96.79112243652344
"57006","Brookings","SD","Sherwin-Williams Paint Store","722 25th Ave","57006",44.3132358,-96.760996
"57006","Brookings","SD","Hamlin Building Center","1915 32nd Ave","57006",44.327850341796875,-96.7551040649414
"57006","Brookings","SD","Perry Electric","100 Main Ave S","57006",44.305885314941406,-96.79927825927734
"57006","Brookings","SD","Zach Serranos Heart- Brookings Style","not_available","57006",44.314002,-96.765651
"57013","Canton","SD","Harrisburg Ace Hardware","200 Willow Street West","57032",43.431767,-96.706731
"57013","Canton","SD","Canton Home & Farm Supply","not_available","57013",43.29937399351054,-96.59155858688561
"57013","Canton","SD","Ace Hardware","not_available","57032",43.413598,-96.702704
"57014","Centerville","SD","Dakota Ace Hardware","106 Main","57070",43.175688,-97.081329
"57022","Dell Rapids","SD","Dell Rapids Ace","406 N Highway 77","57022",43.824535321343156,-96.72035089829876
"57022","Dell Rapids","SD","Dell Rapids Ace","1108 N Hwy 77","57022",43.83089065551758,-96.72579193115234
"57022","Dell Rapids","SD","Dell Rapids Lumber","not_available","57022",43.822628021240234,-96.7117691040039
"57025","Elk Point","SD","Elk Point Ace Hardware","118 E Main St","57025",42.6856799,-96.684248
"57028","Flandreau","SD","J & K BUILDING CENTER","110 S Wind St","57028",44.04756546020508,-96.59567260742188
"57028","Flandreau","SD","Tractor Supply Co®","1006 West Pipestone","57028",44.04900649302524,-96.61151878104475
"57029","Freeman","SD","Fensel Electric And Plumbing","1220 E North County Rd","57029",43.35731627,-97.42168892
"57029","Freeman","SD","Freeman Lumber","not_available","57029",43.345225613901505,-97.42077429417213
"57029","Freeman","SD","Freeman Ace Hardware","609 S US Highway 81","57029",43.3491819,-97.421746
"57029","Freeman","SD","Husqvarna","429 N. 81 BYPASS","67460",43.351409912109375,-97.4204330444336
"57032","Harrisburg","SD","Milliron Granite & Quartz","not_available","57108",43.465885,-96.789358
"57032","Harrisburg","SD","American Fence","47061","57108",43.46546,-96.795616
"57032","Harrisburg","SD","Dakota Hardscape","24 S Minnesota Ave","57108",43.47180817088664,-96.72679776798965
"57033","Hartford","SD","Hartford Building Center","1001 N Oaks Ave","57033",43.632529,-96.947849
"57033","Hartford","SD","Gillespie Outdoor Power Equipment","1080 Ruud Trl Ste 1","57033",43.61037396266969,-96.95485500863386
"57035","Humboldt","SD","Garrey Hardware Store","not_available","57035",43.644718,-97.073926
"57038","Jefferson","SD","R-Guarantee Insulation Inc","1150 S Derby Ln","57049",42.513712,-96.494274
"57039","Lennox","SD","Ace Hardware Lennox","not_available","57039",43.328681,-96.884498
"57039","Lennox","SD","Lennox Ace Hardware","511 N Pine Street","57039",43.3483,-96.885895
"57042","Madison","SD","Fastenal","not_available","57042",43.991064740270836,-97.10975473572067
"57042","Madison","SD","Jones' Ace Hardware of Madison","400 S Egan Ave","57042",44.005,-97.1143
"57043","Marion","SD","Schmidt Country True Value","303 N Park Ave","57043",43.42452555,-97.26074737
"57046","Mission Hill","SD","Sherwin-Williams Paint Store","312 Douglas Ave","57078",42.87032650712415,-97.39110589027405
"57046","Mission Hill","SD","Husqvarna US","903 Prairie Cir","57078",42.92152404785156,-97.37804412841797
"57046","Mission Hill","SD","Kopetsky's Ace Hardware","2404 Broadway Ave","57078",42.8965109,-97.397312
"57046","Mission Hill","SD","Kopetsky's Ace Hardware","103 W 3rd St","57078",42.869509,-97.392556
"57046","Mission Hill","SD","Tractor Supply Co.","2908 Broadway Ave","57078",42.90598670716497,-97.3962627297015
"57046","Mission Hill","SD","Menards","3210 Broadway Ave","57078",42.91179450221375,-97.39496359177453
"57046","Mission Hill","SD","Sears","920 Broadway Ave.","57078",42.87780292025758,-97.39597144466848
"57046","Mission Hill","SD","mead lumber","not_available","57078",42.89767827523312,-97.39853728436512
"57064","Tea","SD","Ferguson Waterworks","46997 Sunset Blvd","57106",43.465660095214844,-96.80695343017578
"57064","Tea","SD","Tea Ace Hardware and Rentals","701 N Heritage Pkwy","57064",43.452009999999994,-96.826927
"57064","Tea","SD","True Value","not_available","57064",43.44779373309571,-96.82719937000766
"57066","Tyndall","SD","Tyndall Ace Hardware","802 Main St","57066",42.983468,-97.862649
"57069","Vermillion","SD","Vermillion Ace Hardware","812 Cottage Ave","57069",42.788024,-96.932312
"57069","Vermillion","SD","Campbell Supply","1108 W Cherry St","57069",42.785899,-96.947501
"57069","Vermillion","SD","Kalin's Indoor Comfort","not_available","57069",42.787071228027344,-96.93270874023438
"57069","Vermillion","SD","Herren Shemp Building Supply","1000 W Cherry St","57069",42.785931,-96.945711
"57069","Vermillion","SD","Mead Lumber","113 W Main St, Vermillion, SD 57069","57069",42.77968978881836,-96.9345703125
"57069","Vermillion","SD","Tractor Supply Co.","509 West Cherry St","57069",42.78792595557071,-96.93969119510649
"57078","Yankton","SD","minuteKEY","3001 Broadway Ave","57078",42.907474517822266,-97.40115356445312
"57078","Yankton","SD","Larry's Heating & Cooling Inc","2401 Broadway Ave #3","57078",42.8956,-97.39922
"57103","Sioux Falls","SD","Tractor Supply Co.","3520 North Cliff Ave","57104",43.58480528,-96.71055109
"57103","Sioux Falls","SD","Mac's Hardware","3801 Cliff Ave.","57104",43.588031,-96.71211
"57103","Sioux Falls","SD","Cliff Avenue Greenhouse","2101 E 26th St","57105",43.52866714616294,-96.69804247582755
"57103","Sioux Falls","SD","Handy Man","not_available","57103",43.54709385043055,-96.71485981001793
"57103","Sioux Falls","SD","Campbell's Supply","3201 E 10th St","57103",43.54614050075386,-96.68725726757654
"57103","Sioux Falls","SD","C and R Supply Company","not_available","57104",43.585827,-96.710409
"57103","Sioux Falls","SD","Tool Depot","10th & Cleveland","57103",43.546049,-96.692303
"57103","Sioux Falls","SD","Goodin Company","2905 N 4th Ave","57104",43.577558,-96.721636
"57103","Sioux Falls","SD","Moda Stone","1507 E 69th St","57108",43.549627917997,-96.69696924083837
"57103","Sioux Falls","SD","Builders Supply Company","39th Street North","57104",43.58717699814211,-96.70141742945563
"57103","Sioux Falls","SD","Norberg Paints","326 E 14th St","57104",43.5418838,-96.72289239999999
"57104","Sioux Falls","SD","Border States Electric","1401 N Minnesota Ave","57104",43.565266,-96.732161
"57104","Sioux Falls","SD","Nyberg's Ace","2500 W 12th St","57104",43.5441849,-96.759843
"57104","Sioux Falls","SD","Harbor Freight","3120 W 12th St","57104",43.544991,-96.76849
"57104","Sioux Falls","SD","Sherwin-Williams Product Finishes","4600 N Northview Ave","57107",43.59717636113739,-96.76510658658557
"57104","Sioux Falls","SD","Butler Machinery Co.","3201 N Louise Ave","57107",43.580528,-96.773459
"57104","Sioux Falls","SD","Dey Distributing","1413 N B Ave","57104",43.565217366666666,-96.73688451666666
"57104","Sioux Falls","SD","Park Tool & Machine","1308 W Bailey St","57104",43.561856,-96.744778
"57104","Sioux Falls","SD","Robson True Value Hardware","2322 W 12th St","57104",43.544262,-96.758106
"57104","Sioux Falls","SD","Eastman Appliance","1103 N Main Ave","57104",43.560595,-96.728764
"57105","Sioux Falls","SD","Nyberg's Ace","330 W 41st St","57105",43.5149919,-96.729331
"57105","Sioux Falls","SD","Frisbee Plumbing","s. minn","57105",43.50622293814058,-96.7317647679891
"57105","Sioux Falls","SD","Norberg Paints Inc","313 W 37th St","57105",43.518224,-96.72961
"57105","Sioux Falls","SD","Campbell’s Home & Auto","Western","57105",43.508948343335284,-96.75165559350764
"57105","Sioux Falls","SD","sherwin williams automotive","4811 S Louise Ave, Sioux Falls, SD 57106","57106",43.50124740600586,-96.77157592773438
"57105","Sioux Falls","SD","Schoeneman's","4000 S. Western Ave.","57105",43.506177273210426,-96.74943280125808
"57105","Sioux Falls","SD","Diamond Vogel","2000-2086 S Dakota 115","57105",43.526227,-96.730873
"57105","Sioux Falls","SD","Pittsburgh Paints","not_available","57105",43.512577,-96.730816
"57105","Sioux Falls","SD","Sherwin-Williams Paint Store","2912 S Minnesota Ave","57105",43.517817,-96.73065
"57105","Sioux Falls","SD","Sioux Falls Paint & Decorating","3413 S Minnesota Ave","57105",43.51321,-96.7315993
"57106","Sioux Falls","SD","The Home Depot","2523 S Louise Ave","57106",43.522815,-96.7754179
"57106","Sioux Falls","SD","Lowe's","4601 W 26th Street","57106",43.5270239,-96.7846431
"57106","Sioux Falls","SD","Menards","3001 S Shirley Ave","57106",43.5191024757304,-96.77591468550484
"57106","Sioux Falls","SD","Stan Houston","501 S Marion Rd","57106",43.542357597613126,-96.79135407424494
"57106","Sioux Falls","SD","Nyberg's Ace Hardware","7210 West 41st Street","57106",43.51556898,-96.814881
"57106","Sioux Falls","SD","Ideal Yardware","5298 S Grand Cir","57108",43.497638,-96.771353
"57106","Sioux Falls","SD","Northern Tool + Equipment","2601 S Louise Ave Ste 300","57106",43.52128486469035,-96.77403410707416
"57106","Sioux Falls","SD","Hobart","not_available","57106",43.543549991615464,-96.78767700811463
"57106","Sioux Falls","SD","Skadsen Properties LLC","5105 W 35th St","57106",43.51938247680664,-96.78860473632812
"57106","Sioux Falls","SD","minuteKEY","3209 S Louise Ave","57106",43.51688766479492,-96.77281188964844
"57106","Sioux Falls","SD","minuteKEY","4601 W 26th St","57106",43.52684783935547,-96.78441619873047
"57106","Sioux Falls","SD","Sherwin-Williams Paint Store","5305 W 57th St","57106",43.49986693333334,-96.79191213333333
"57106","Sioux Falls","SD","Foundation Building Materials","2609 South Carolyn Avenue","57106",43.5210607,-96.77928071
"57107","Sioux Falls","SD","minuteKEY","5200 W 60th St N","57107",43.6032829284668,-96.78972625732422
"57201","Watertown","SD","Mac's Hardware","not_available","57201",44.889949798583984,-97.1201171875
"57201","Watertown","SD","Runnings","1701 9th Ave SE","57201",44.891157,-97.088546
"57201","Watertown","SD","Menards","1900-2098 9th Ave SE","57201",44.888908968930956,-97.0821491592588
"57201","Watertown","SD","Tractor Supply Co.","2200 9th Ave Southeast","57201",44.889127344202464,-97.07884918518066
"57201","Watertown","SD","minuteKEY","2100 9th Ave SE","57201",44.8882942199707,-97.08085632324219
"57201","Watertown","SD","Larry's Lumber","183 N Maple","57201",44.903690999999995,-97.112186
"57201","Watertown","SD","Sherwin-Williams Paint Store","926 26th St SE","57201",44.8888063771536,-97.07258820533752
"57201","Watertown","SD","Vallen","100 S Maple","57201",44.898681640625,-97.11292266845703
"57201","Watertown","SD","Sears","1101 Jenson Ave S","57201",44.888861,-97.099179
"57216","Big Stone City","SD","Seehafer Hardware","201-299 S Main St","57252",45.22012577096439,-96.63584296007777
"57216","Big Stone City","SD","Seehafer Ace Hardware","1504 Morningside Dr","57252",45.2261829,-96.61096
"57216","Big Stone City","SD","Roger's Electric Motor Repair","205 E 22nd Ave","57252",45.2210846,-96.6355972
"57225","Clark","SD","Dekkers Hardware","not_available","57225",44.878126,-97.732743
"57225","Clark","SD","Hamlin Building Center","101 South Cloud Street","57225-1724",44.87709045410156,-97.73146057128906
"57231","De Smet","SD","Trustworthy Hardware","not_available","57231",44.38584570127714,-97.5491736997564
"57248","Lake Norden","SD","Hamlin Building Center","45002 SD-28","57248",44.5844,-97.2009
"57262","Sisseton","SD","Tri State Building Center","1520 Sd Hwy 10","57262",45.66013,-97.03003
"57262","Sisseton","SD","Sisseton Ace Hardware","2211 SD Highway 10","57262",45.66021728515625,-97.02266693115234
"57274","Webster","SD","Hardware Hank","700-798","57274",45.332001516666665,-97.52981616666666
"57274","Webster","SD","Scott's Lumber - Webster","14053 SD Highway 25","57274",45.3477677,-97.521003
"57279","Wilmot","SD","Wilmot Plumbing","not_available","57279",45.409584045410156,-96.85881042480469
"57301","Mitchell","SD","Menards","815 E Spruce St","57301",43.686019620593676,-98.0148830222211
"57301","Mitchell","SD","Thune True Value Hardware","1400 N Main St","57301",43.72265977541569,-98.02534960473149
"57301","Mitchell","SD","Tractor Supply Co.","2400 South Mentzer St","57301",43.685221000000006,-98.012096
"57301","Mitchell","SD","GADSDEN HARDWARE","204 W Havens Ave # 237","57301",43.70239,-98.02704
"57301","Mitchell","SD","Sherwin-Williams Paint Store","517 N Main St","57301",43.713724,-98.025871
"57313","Armour","SD","Wilson True Value Hardware","700 Main Ave","57313",43.317952,-98.346124
"57315","Avon","SD","AVON TRUE VALUE","126 NORTH MAIN","57315",43.00463104248047,-98.05976867675781
"57315","Avon","SD","Wagner True Value Building Supply","39379 Sd Hwy 46","57380",43.08247,-98.12788
"57317","Bonesteel","SD","KOENIG TRUE VALUE LBR &HM CTR","30209 US Highway 18","57335",43.02330017089844,-98.90396118164062
"57317","Bonesteel","SD","Koenig True Value Lumber & Home Center","30209 Us Highway 18","57335",43.01010527,-98.89844678
"57325","Chamberlain","SD","Ace Hardwear","not_available","57325",43.774621,-99.313612
"57325","Chamberlain","SD","CHAMBERLAIN TRUE VALUE","100 Sorensen Dr","57325",43.788631439208984,-99.31348419189453
"57331","Dimock","SD","Utteriners","500-598 S King St","57331",43.47360091666667,-97.98615806666666
"57349","Howard","SD","Hardware Hank","not_available","57349",44.010522,-97.526997
"57350","Huron","SD","farmers cashway","not_available","57350",44.373490185967924,-98.2472960238358
"57350","Huron","SD","Runnings","3061 Dakota Ave S","57350",44.33013583192007,-98.21730136871338
"57350","Huron","SD","Huron Ace Hardware","900 21st St SW","57350",44.3416849,-98.228667
"57350","Huron","SD","Huron Paint & Supply","203 Kansas Ave SE","57350",44.36423480000001,-98.2129092
"57350","Huron","SD","Sherwin-Williams Paint Store","240 Dakota Ave S","57350",44.36386616822508,-98.21392074440719
"57350","Huron","SD","Butler Machinery Co.","1715 US Highway 14 W","57350",44.375396728515625,-98.24369049072266
"57359","Letcher","SD","Air Filter Cleaner","39009 236th St","57385",43.965877532958984,-98.40650177001953
"57362","Miller","SD","Miller Ace","219 N Broadway Ave","57362",44.512,-99.0044
"57362","Miller","SD","Midwest Supply","119 E 2nd St","57362",44.51723861694336,-98.98831176757812
"57366","Parkston","SD","Runnings Farm And Fleet","400-408 W Walnut St","57366",43.392672133333335,-97.99048221666666
"57369","Platte","SD","Lieuwens Hardware","415 Main St","not_available",43.38650894165039,-98.84432220458984
"57369","Platte","SD","Burke True Value","906 Main St","57523",43.18136694,-99.29221
"57369","Platte","SD","Midwest Ag Center True Value","620 E 7th St","57369",43.38241195678711,-98.83465576171875
"57380","Wagner","SD","Wagner Building Supply & Ace Hardware","39379 SD Highway 46","57380",43.080848693847656,-98.31255340576172
"57380","Wagner","SD","Honomichl Design","300 Main St","not_available",43.07870864868164,-98.29316711425781
"57380","Wagner","SD","Bomgaars","907 W SD Highway 46","57380",43.08158874511719,-98.30943298339844
"57381","Wessington","SD","Ace Hardware","Main Street","57552",44.456003,-98.695795
"57382","Wessington Springs","SD","Wessington Springs True Value","240 E Main","57382",44.07935898,-98.56890837
"57401","Aberdeen","SD","Runnings","1815 6th Ave SE","57401",45.46095517278249,-98.46057973743439
"57401","Aberdeen","SD","Menards","3821 6th Ave SE","57401",45.460061743246385,-98.43578982587835
"57401","Aberdeen","SD","Mac's Inc.","222 6th Ave SW","57401",45.459456,-98.492104
"57401","Aberdeen","SD","Barton Heating & Cooling","not_available","57427",45.45765,-98.38799
"57401","Aberdeen","SD","hub city woodworking","not_available","57401",45.457767486572266,-98.45816802978516
"57401","Aberdeen","SD","Harbor Freights","3315 6th Ave SE","57401",45.46128463745117,-98.4417495727539
"57401","Aberdeen","SD","Dakota Supply Group","15 N Kline St","57401",45.46637725830078,-98.48357391357422
"57401","Aberdeen","SD","Butler Machinery Co.","4950 Highway 12 E","57401",45.458370208740234,-98.41405487060547
"57401","Aberdeen","SD","Sherwin-Williams Paint Store","520 S Arch St","57401",45.45956676540066,-98.48120462533379
"57401","Aberdeen","SD","Tractor Supply Co.","2201 Southeast 6th Ave Ste 22","57401",45.45964050292969,-98.45801544189453
"57401","Aberdeen","SD","McFarland Supply, a Ferguson Enterprise","302 S 4th St","57401",45.46194076538086,-98.49433135986328
"57430","Britton","SD","Scott's Lumber - Britton","767 Vander Horck","57430",45.7912219,-97.75158379999999
"57438","Faulkton","SD","Faulkton Hardware","124 8th Ave S","57438",45.0345573425293,-99.12437438964844
"57438","Faulkton","SD","Homan Ace Hardware","600 Main St Unit 1","57438",45.034913,-99.124272
"57442","Gettysburg","SD","Potter County Implement","not_available","57442",45.02382803371379,-100.06047238070366
"57442","Gettysburg","SD","Hoven trustworthy hardware","212 Main Street","57450",45.243038177490234,-99.77649688720703
"57442","Gettysburg","SD","Gettysburg True Value","107 W Commercial","57442",45.0114,-99.95578061
"57442","Gettysburg","SD","Dakota Farm And Ranch Sup","30960 Us Highway 212","57442",45.0144829,-99.945597
"57442","Gettysburg","SD","Zuber Refrigeration And Heating","504 W Garfield Ave","57442",45.013450622558594,-99.96183013916016
"57445","Groton","SD","S&S Lumber","not_available","57445",45.450117,-98.1052013
"57452","Java","SD","Kens True Value Lumber","9006 N Hwy 12 & 83","57472",45.51370038,-100.0388585
"57452","Java","SD","KENS TRUE VALUE LUMBER","NORTH HWY 12 & 83","57472",45.45109176635742,-100.03572082519531
"57469","Redfield","SD","Redfield Ace","525 N Main St","57469",44.877166,-98.51809
"57469","Redfield","SD","Spink County Hardware - Hardware Hank","701 W 3rd St","57469",44.87533557756195,-98.52220416069031
"57501","Pierre","SD","Menards","2010 N Garfield Ave","57501",44.38741046923131,-100.3121525998154
"57501","Pierre","SD","Lambs Discount Suppy","not_available","57564",44.706676,-100.06604
"57501","Pierre","SD","Dakota Supply Group","2530 E Park St","57501",44.35561752319336,-100.3158187866211
"57501","Pierre","SD","Ubc","not_available","57501",44.361683,-100.342877
"57501","Pierre","SD","Knecht Home Center","1908 N Garfield Ave","57501",44.383416,-100.31280699999999
"57501","Pierre","SD","Christy Lumber","814 W Highway14/34","57532",44.37646167812315,-100.34752257006635
"57533","Gregory","SD","Kleins","616 N Main","57533",43.23242286,-99.43078163
"57533","Gregory","SD","Gregory Lumber","not_available","57533",43.225845,-99.43126
"57533","Gregory","SD","Wilson Heating And Air conditioning","811 U.S. 18","57533",43.22382736206055,-99.42420196533203
"57543","Kadoka","SD","Hogen's Hardware","not_available","57543",43.815373,-101.504069
"57551","Martin","SD","Lacroix's True Value","302 Main St","57551",43.17511,-101.73679
"57551","Martin","SD","Ace Hardware","301 E Highway 18","57551",43.171449,-101.72497
"57552","Midland","SD","Ace Hardware","307 Main St","57552",44.07044219970703,-101.1507339477539
"57555","Mission","SD","Mission Shopping Center","185 S Main Street","57555",43.303804,-100.65861
"57555","Mission","SD","Mission Lumber","not_available","57555",43.306202,-100.65845
"57555","Mission","SD","Ace Hardware","185 N Main Street","57555",43.303804,-100.65861
"57580","Winner","SD","Outlaw Trading Post Ace Hardware","121 Monroe St","57580",43.377782,-99.858413
"57580","Winner","SD","Winner True Value","205 Main","57580",43.3762677,-99.8573303
"57601","Mobridge","SD","Mobridge Ace Hardware","205 W Grand Xing","57601",45.537384,-100.43546
"57601","Mobridge","SD","Homestead Building Supplies","not_available","57601",45.534309032664396,-100.43272987329793
"57701","Rapid City","SD","Lowe's","2550 Haines Avenue","57701",44.1102385,-103.2204653
"57701","Rapid City","SD","Menards","1805 Eglin St","57703",44.090159042028944,-103.1815975969945
"57701","Rapid City","SD","Newkirk Ace East Rapid","1602 E Saint Patrick St","57703",44.068940000000005,-103.189208
"57701","Rapid City","SD","Newkirk's Ace Hardware","1724 W Main St","57702",44.081869,-103.248349
"57701","Rapid City","SD","Knecht Home Center Rapid City","320 West Blvd","57701",44.084,-103.23383
"57701","Rapid City","SD","Harbor Freight Tools","1555 Haines Ave Ste 100","57701",44.099419839075196,-103.22286654495792
"57701","Rapid City","SD","Grimms Pump & Industrial Supply","1002 Omaha St.","57701",44.08191680908203,-103.19485473632812
"57701","Rapid City","SD","Whistler Bearing Co.","not_available","57701",44.083354,-103.212214
"57701","Rapid City","SD","Kitchen Tune-Up- Virtual Consults Available","333 Omaha St Ste 1 # 1","57701",44.0819552,-103.2228873
"57701","Rapid City","SD","Hank's Specialties","1450 Samco Rd","57702",44.099591,-103.264173
"57701","Rapid City","SD","Adams Equipment","2340 Deadwood Ave.","not_available",44.107623,-103.270966
"57701","Rapid City","SD","minuteKEY","1200 N Lacrosse St","57701",44.0981431,-103.1982928
"57701","Rapid City","SD","Pro Build","700-830 Howard St","57701",44.1050701,-103.2240937
"57701","Rapid City","SD","Sherwin-Williams Paint Store","1908 W Main St","57702",44.081788,-103.249859
"57701","Rapid City","SD","Willy's Saw Shop","1127 Mount Rushmore Rd","57701",44.075077,-103.23271899999999
"57701","Rapid City","SD","C.I.D.S.","1140 Deadwood Ave","57702",44.095787048339844,-103.26341247558594
"57701","Rapid City","SD","Contractors Supply","2413 W Omaha St","57702",44.083597999999995,-103.25936899999999
"57701","Rapid City","SD","ReStore Outlet","610 E Omaha St","57701",44.081768,-103.200307
"57701","Rapid City","SD","Motive Parts & Supply","4600 N I90 Service Rd","57703",44.10324250120913,-103.14238835168712
"57701","Rapid City","SD","irby","1575B Samco Rd","57702",44.10041458772316,-103.26551914215088
"57701","Rapid City","SD","Fastenal Ind. & Construction Supplies","1550 Samco Rd","57702",44.100770000000004,-103.264702
"57702","Rapid City","SD","Black Hills Power Equipment","23858 Hwy 385","57745",43.94586,-103.53144
"57703","Rapid City","SD","Tractor Supply Co.","3440 East Mall Dr","57701",44.103767,-103.158757
"57703","Rapid City","SD","minuteKEY","710 N Creek Dr","57703",44.089686,-103.181668
"57703","Rapid City","SD","Wood Stock Supply","4705 S Interstate 90 Service Rd","57703",44.101043,-103.14251
"57703","Rapid City","SD","Action Mechanical, Inc.","1856 Lombardy Dr","57703",44.065716,-103.183474
"57703","Rapid City","SD","Fastenal","3640 Cambell St","57701",44.049171447753906,-103.19031524658203
"57703","Rapid City","SD","Ferguson","2440 E Saint Andrew St","57703",44.069338,-103.174319
"57706","Ellsworth Afb","SD","Box Elder True Value","540 N Ellsworth Rd","57719",44.13453,-103.07084
"57717","Belle Fourche","SD","Motive Parts & Supply Inc","N US Hwy 85","57717",44.68184925411038,-103.85259822638703
"57717","Belle Fourche","SD","Dakota Do It Best Lumber","18751 US Highway 85","57717",44.68388748168945,-103.8523941040039
"57717","Belle Fourche","SD","Wells Plumbing","1458-1868 5th Ave","57717",44.66058809617809,-103.85579092643215
"57717","Belle Fourche","SD","Roundup Building Center","405 Roundup St","57717",44.6705360739195,-103.854137155725
"57719","Box Elder","SD","American Plumbing Service","14707 Hackamore Ct","57769",44.1883209,-103.1070621
"57720","Buffalo","SD","Buffalo Hardware Store","not_available","57720",45.58209791929943,-103.54572166928617
"57730","Custer","SD","Custer  Ace Hardware","833 Mount Rushmore Rd","57730",43.7597,-103.6087
"57730","Custer","SD","Custer Hardware & Lumber","603 Crook St","57730",43.76835632324219,-103.59878540039062
"57732","Deadwood","SD","Ace Hardware - Lead","145 Glendale Dr","57754",44.351462,-103.777998
"57747","Hot Springs","SD","Hot Springs Ace Hardware","207 S Chicago St","57747",43.430046999999995,-103.47375100000001
"57764","Oglala","SD","Ace Hardware","E Highway 18","57770",43.112401,-102.598352
"57769","Piedmont","SD","GenPro Energy Solutions LLC","13261 Timberline Plz Ste B","57769",44.250179570742155,-103.40063075241699
"57770","Pine Ridge","SD","Ace Hardware","1 Highway 18","57770",43.02558135986328,-102.55572509765625
"57783","Spearfish","SD","Pro Build","not_available","57783",44.488248,-103.86038
"57783","Spearfish","SD","Moda Stone","3025 1st Ave #6","57783",44.480105,-103.80913000000001
"57783","Spearfish","SD","Knecht Home Ctr Spearfish","2905 4th Avenue","57783",44.4759999,-103.8165
"57783","Spearfish","SD","Dakota Equipment Rental & Chain Saw Center","4435 E Colorado Blvd","57783",44.4739990234375,-103.78597259521484
"57783","Spearfish","SD","Bomgaar's Farm And Ranch Supply","2535 E Colorado Blvd","57783",44.47540283203125,-103.81644439697266
"57783","Spearfish","SD","Fastenal","2735 1st Ave #109","57783",44.480037689208984,-103.81201171875
"57783","Spearfish","SD","Tractor Supply Co.","250 Heritage Dr","57783",44.47485352,-103.8087997
"57783","Spearfish","SD","Sears","714 N. Main St.","57783",44.490438253709165,-103.85861456394196
"57783","Spearfish","SD","Spearfish Husky","511 W Jackson Blvd","57783",44.4899787902832,-103.8650894165039
"57783","Spearfish","SD","Ace Hardware","535 N Main St","57783",44.4886377160496,-103.858845233917
"57785","Sturgis","SD","Do It Best Hardware","2222 Junction Ave","57785",44.401771545410156,-103.509033203125
"57785","Sturgis","SD","Campbell's Supply","2425 Lazelle St","57785",44.419677734375,-103.52987670898438
"57785","Sturgis","SD","Rasmussen","not_available","57785",44.420208,-103.557945
"57790","Wall","SD","Ace Hardware","109 South Boulevard","57790",43.98844909667969,-102.24158477783203
"57790","Wall","SD","Wall Building Center & Construction","109 South Blvd","57790",43.988371,-102.241414
