"zip","city","state","name","address","postalCode","lat","lon"
"55001","Afton","MN","scenic river","not_available","not_available",44.90070079894219,-92.77869851278827
"55001","Afton","MN","Cully Park","T","not_available",44.94569729459365,-92.77596114515089
"55001","Afton","MN","Steamboat Park","not_available","55001",44.89924346680841,-92.78359019069153
"55003","Bayport","MN","Lakeside Park","2 Central Avenue","55003",45.016574718797436,-92.77348604537329
"55003","Bayport","MN","El Winter Wonderland","not_available","55003",45.021148681640625,-92.79125213623047
"55003","Bayport","MN","Ferry Park","715 Galahad Rd N","54016",45.00263214111328,-92.7628173828125
"55003","Bayport","MN","Glen Oaks Park","525-587 4th St N","54016",44.996862852641826,-92.77794890152735
"55005","Bethel","MN","Booster Park","22269 Palisade St Ne","55005",45.373146848362786,-93.21309328079224
"55005","Bethel","MN","highland woods park","3060 233rd Ln NW","55070",45.392115,-93.343673
"55005","Bethel","MN","Cedar Creek Science Reserve","not_available","55005",45.385341580471014,-93.20777249232414
"55006","Braham","MN","Dennis Frandsen Park","1435 N Lake Dr","55006",45.7159423828125,-93.08076477050781
"55006","Braham","MN","Vegsund Family County Park","40097 Polk Street NE","not_available",45.69099044799805,-93.24258422851562
"55006","Braham","MN","Freedom Park","Main Ave","55006",45.7236328125,-93.17108917236328
"55008","Cambridge","MN","Isanti County Park","not_available","55008",45.588054,-93.352767
"55008","Cambridge","MN","Lorn Erickson Park","763-1299 24th Ave SW","55008",45.55099546909332,-93.2356345653534
"55008","Cambridge","MN","Mattson Park","Main St.","not_available",45.49252195136038,-93.2542365050597
"55009","Cannon Falls","MN","Lake Byllesby Goodhue County Park","not_available","55009",44.509118,-92.940468
"55009","Cannon Falls","MN","Hannah's Bend Park","N 9th St","55009",44.51509006155422,-92.91293618729827
"55013","Chisago City","MN","Ojiketa Regional Park","not_available","55013",45.34400904808668,-92.88604300021356
"55013","Chisago City","MN","Paradise Park","11031 Stinson Ave","55013",45.37333679199219,-92.88294982910156
"55013","Chisago City","MN","Memorial Park","30525 Linden Ave","55045",45.38935852050781,-92.84954071044922
"55013","Chisago City","MN","Camp Ojekita","not_available","55113",45.31708860239334,-92.94479056393243
"55013","Chisago City","MN","Pumphouse Park","not_available","55045",45.394859,-92.836844
"55014","Circle Pines","MN","Marshan Park","not_available","55014",45.16680048430093,-93.12095854420089
"55014","Circle Pines","MN","Lochness Park","Lexington Ave","55449",45.17226775951732,-93.15689527775693
"55014","Circle Pines","MN","Grove Park","Painted Turtle Road","55014",45.13534324277047,-93.11363697052002
"55014","Circle Pines","MN","City Hall Park","Main Street","55038",45.19683923206181,-93.08275810820582
"55014","Circle Pines","MN","Blaine Open Space","Leyete Street NE","55449",45.182823309879616,-93.17839622497559
"55014","Circle Pines","MN","Wargo Nature Preserve","7701 Main St","55038",45.18605041503906,-93.0740966796875
"55014","Circle Pines","MN","East Lake Park","North Lake Blvd","not_available",45.19144652932996,-93.18540726995712
"55014","Circle Pines","MN","Golden Lake","51 W Golden Lake Rd","55014",45.13723437314652,-93.15390475833827
"55016","Cottage Grove","MN","Kingston Park","9195 75th St","55016",44.84077753254488,-92.91601181030273
"55016","Cottage Grove","MN","Cottage Grove Ravine Regional Park","10000 E Point Douglas Rd","not_available",44.80622980471345,-92.90159585847464
"55016","Cottage Grove","MN","Woodridge Park","9000 90th St S","55016",44.820778,-92.91891
"55016","Cottage Grove","MN","Cottage Grove Bike Park","7050 Meadow Grass Ave S","55016",44.84613664609767,-92.9687458977637
"55016","Cottage Grove","MN","Hamlet Park","7198 89th St S","55016",44.82117351695908,-92.95945195070985
"55016","Cottage Grove","MN","Heritage Park","not_available","55071",44.833889179625,-92.98642597668514
"55016","Cottage Grove","MN","Ideal Park","8211 Ideal Avenue South","55016",44.82959344315249,-92.93886423110962
"55016","Cottage Grove","MN","Cedarhurst Meadows Park West","9380 67th St S","55016",44.85121536254883,-92.91539001464844
"55016","Cottage Grove","MN","Pine Tree Pond Park, Open Space And Archery Range","8540 81st St. So.","not_available",44.8278923034668,-92.9325942993164
"55016","Cottage Grove","MN","Pine Hill - Field 7","8961 Hallmark Ave S","55016",44.819225,-92.962319
"55016","Cottage Grove","MN","3M Flying Club","Keanes St","not_available",44.85957336425781,-92.89839935302734
"55016","Cottage Grove","MN","Hidden Valley Pond","7001-7115 Hardwood Ave S","55016",44.84674968571641,-92.95654321733859
"55016","Cottage Grove","MN","Sunny Hill Park","not_available","55016",44.859793,-92.944723
"55016","Cottage Grove","MN","pine coulee park","not_available","55033",44.778621673583984,-92.86783599853516
"55016","Cottage Grove","MN","West Draw Park","7190 Meadow Grass Ave S","55016",44.845735999999995,-92.967138
"55016","Cottage Grove","MN","Cedarhurst Meadows Park","6650 Joliet Ave S","55016",44.85119,-92.910416
"55016","Cottage Grove","MN","The Cove","not_available","55076",44.837048259843584,-93.01413349347331
"55016","Cottage Grove","MN","Highlands Park","6975 Idsen Avenue South","not_available",44.84897053436144,-92.94014740535434
"55019","Dundas","MN","Babcock Park","1101-1299 Babcock Ln","55057",44.448360938065825,-93.17343332524509
"55019","Dundas","MN","Char Carlson Park","1585 Honeylocust Dr","55057",44.4362211227417,-93.18319737911224
"55019","Dundas","MN","Truman Park","not_available","55057",44.42684231639558,-93.19740274947786
"55019","Dundas","MN","Odd Fellows Park","1001 Forest Ave","55057",44.4565949407104,-93.17501196226857
"55019","Dundas","MN","Hidden Valley Park","2002 Lincoln St S","55057",44.43754577636719,-93.1768569946289
"55019","Dundas","MN","Rice County Wilderness Park","3375 151st St E","55021",44.37044143676758,-93.23477172851562
"55020","Elko New Market","MN","Wagner Park - New Market, MN","not_available","55054",44.571190887070806,-93.35478550544885
"55021","Faribault","MN","Teepee Tonka Park","3rd Avenue Northeast","55021",44.28740916972679,-93.26276779174805
"55021","Faribault","MN","Jefferson Park","1581 Jefferson Pkwy. W.","55057",44.440678370364544,-93.16101192833013
"55021","Faribault","MN","Pye Park","not_available","55021",44.29017359072868,-93.26274593184512
"55021","Faribault","MN","Spring Creek Park","510 Jefferson Pkwy E","55057",44.43754959106445,-93.15328979492188
"55021","Faribault","MN","Caron County Park","6816 170th Street East","55021",44.350191,-93.165423
"55021","Faribault","MN","Riverside Park","710 Poplar St S","55057",44.45264319998584,-93.16511446141442
"55021","Faribault","MN","Central Park","400 3rd St E","55057",44.45703016105688,-93.15464070054206
"55021","Faribault","MN","Wapacuta Park","Wapacuta Park","55021",44.28595878716208,-93.27122603488003
"55021","Faribault","MN","Tyler Park","1951 Roosevelt Dr E","55057",44.437525,-93.16827099999999
"55021","Faribault","MN","City Hall Park","Washington St","55057",44.45152432081317,-93.15780660611227
"55021","Faribault","MN","Shager Park","21387-21865 Minnesota 60","55021",44.25975162882217,-93.34436943427855
"55021","Faribault","MN","North Alexander Park","2nd Avenue Northwest","55021",44.307896359820695,-93.28023433685303
"55024","Farmington","MN","Fair Hills Park","not_available","55024",44.670755089055724,-93.17653181655045
"55024","Farmington","MN","Fieldstone Park","not_available","55068",44.70973900665325,-93.18605404960641
"55024","Farmington","MN","Cherryview Park","Cedar Ave","55044",44.69441634972964,-93.22644863110162
"55024","Farmington","MN","Whitetail Woods Regional Park","17100 Station Trail","55024",44.694698333740234,-93.08817291259766
"55024","Farmington","MN","Bunker Hill Park","167th St W","55068",44.70612019263006,-93.21435928344727
"55024","Farmington","MN","Alamagnet Frolf Course","not_available","55124",44.697164848228766,-93.24031530747745
"55024","Farmington","MN","Spyglass Park","not_available","55044",44.65198616645454,-93.20976734161377
"55024","Farmington","MN","Sachs Park","Calgary Trail 200th Street W","55024",44.65951867952245,-93.12706088384007
"55024","Farmington","MN","Troy Hills Park","195th street","55024",44.667074292552904,-93.17651220522477
"55024","Farmington","MN","Dakota Estates Park","18220 Emerald Trail","55024",44.68737761987769,-93.17062426259433
"55024","Farmington","MN","Preserve park","Dunbury Ave","55024",44.669250141971574,-93.15931611986996
"55024","Farmington","MN","North Creek Park","18336 Dunbury Cir","55024",44.684657,-93.164766
"55024","Farmington","MN","Dodd Pointe Park","5646 160th St W","55068",44.716712951660156,-93.1808090209961
"55025","Forest Lake","MN","Columbus City Park","not_available","55025",45.267303563994865,-93.04879611244951
"55025","Forest Lake","MN","Schilling Park","7th Avenue NW","55025",45.286006927490234,-92.99234008789062
"55025","Forest Lake","MN","Everton Park North","5079 207th St N","55025",45.249351501464844,-93.0038070678711
"55027","Goodhue","MN","Cranson Heights Park","County 9","55027",44.40134620783225,-92.62591285369346
"55031","Hampton","MN","Hampton Park","not_available","55031",44.612645820386206,-92.99814793660256
"55032","Harris","MN","Roger Johnson Park","410th St","not_available",45.542248,-92.97587
"55033","Hastings","MN","Schaar's Bluff, Spring Lake Park Reserve","8655 127th St E","55033",44.7657240830983,-92.93716561406384
"55033","Hastings","MN","Roadside Park","10th St W","55033",44.7358858367121,-92.85753150201651
"55033","Hastings","MN","Spring Lake Regional Park","not_available","55077",44.765691388491575,-92.93724946946935
"55033","Hastings","MN","Carpenter Nature Center","12805 Saint Croix Trl S","55033",44.76615493628314,-92.81443678186363
"55033","Hastings","MN","Mercord Park","101-299 Front St","54021",44.746971130371094,-92.80164778232574
"55033","Hastings","MN","Depot Park","414 2nd St E","55033",44.744029,-92.848113
"55033","Hastings","MN","Vermillion Falls Park","101-799 21st St E","55033",44.72441213009883,-92.84930286688386
"55033","Hastings","MN","Freedom Park","769-783 Monroe St","54021",44.74228305138149,-92.79104232788086
"55033","Hastings","MN","Oakwood Park","Clayton Ave","55076",44.8371961066649,-93.03149792412272
"55037","Hinckley","MN","The Small Park","not_available","54893",45.87648889389896,-92.36821830712533
"55037","Hinckley","MN","Hinckley Smokin' Ribfest","not_available","55037",46.01479,-92.94551
"55038","Hugo","MN","Hugo Water Tower Park","not_available","55038",45.138573,-93.00536
"55038","Hugo","MN","Oak Shore Park","12790 Exhall Avenue North","55110",45.13841663894919,-93.00692305177019
"55038","Hugo","MN","Oneka Park","15390 Goodview Ave N","55038",45.172875,-92.981081
"55040","Isanti","MN","Collin Park","261st Ave NE","55040",45.459321666273446,-93.23808073997498
"55040","Isanti","MN","Bluebird Park","Bluebird Park","55040",45.48217307161603,-93.25682577389148
"55040","Isanti","MN","Collin Park","not_available","55040",45.443181,-93.248697
"55041","Lake City","MN","McCahill Park","not_available","55041",44.447776,-92.263377
"55042","Lake Elmo","MN","Demontreville Park","not_available","55128",45.03142616367749,-92.94391131573256
"55042","Lake Elmo","MN","Lake Elmo Park Reserve","1515 Keats Ave N","55042",44.98019963644837,-92.89658722460209
"55042","Lake Elmo","MN","Stonegate Park","not_available","55042",44.95761464407403,-92.92159195246147
"55042","Lake Elmo","MN","Lake Elmo Jaycees' Huff n' Puff","3525 Laverne Ave N","55042",44.999785840734766,-92.87812555460971
"55042","Lake Elmo","MN","Tartan Park","Tartan Park","55042",44.97265142834881,-92.87991287659061
"55042","Lake Elmo","MN","Lions Park","3525 Laverne Av. No.","55042",44.999832307957284,-92.8782163763232
"55043","Lakeland","MN","Birkmose Park","66 Coulee Rd","54016",44.96751986037658,-92.75427751319303
"55043","Lakeland","MN","Prospect Park","not_available","55125",44.973823256890434,-92.75246074325108
"55043","Lakeland","MN","Humphries Park","not_available","55043",44.952577,-92.779166
"55043","Lakeland","MN","Park & Ride","1046-1062 Rivercrest Rd N","55043",44.964059975555834,-92.77187726872474
"55044","Lakeville","MN","Cleary Lake Regional Park","18106 Texas Ave","55372",44.687206496456966,-93.38945388793945
"55044","Lakeville","MN","Kensington Park","Kensington blvd","55044",44.6479264982189,-93.28532443003502
"55044","Lakeville","MN","West Buck Hill Park","not_available","55306",44.71732034798754,-93.29268566026005
"55046","Lonsdale","MN","Rezac Nature Preserve","not_available","55046",44.474625,-93.402895
"55047","Marine On Saint Croix","MN","Square Lake Trail","15450 Square Lake Trail North","not_available",45.153480529785156,-92.79527282714844
"55047","Marine On Saint Croix","MN","Lilleskogen Park","14600 Oak Hill Road","55073",45.253402016148414,-92.8651179106303
"55047","Marine On Saint Croix","MN","Somerset Landing","Marine Rd","54025",45.205747243259474,-92.75894165039062
"55049","Medford","MN","Medford Straight River Park","4th Ave SW","55049",44.175986927056506,-93.24819803237915
"55051","Mora","MN","Library Park","Maple Avenue","55051",45.878116480021355,-93.29936204512104
"55051","Mora","MN","Peterson Memorial Park","Howe Ave","55051",45.881748,-93.286826
"55055","Newport","MN","Loveland Park","1575 Century Ave","55055",44.871564,-92.984475
"55055","Newport","MN","Loveland Park","not_available","55055",44.864265414171264,-93.00064410744909
"55055","Newport","MN","Arrowwood Park","7th ave","not_available",44.877886,-93.004185
"55056","North Branch","MN","Harder Park","39257 Harder Pkwy","55056",45.51921844482422,-92.95140075683594
"55056","North Branch","MN","north branch ice skating rink","North Branch, MN","55056",45.512627749415365,-92.97085460018563
"55056","North Branch","MN","North Branch Central Park","Branch Ave","55056",45.5088884423341,-92.98388332352837
"55056","North Branch","MN","Checkerboard County Park","390th St","55056",45.51279756254832,-92.90156855441202
"55057","Northfield","MN","Cowling Arboretum","1 N College St","55057",44.46213199553171,-93.14994123094533
"55060","Owatonna","MN","Jaycee Park","not_available","55060",44.083100080564954,-93.210412378893
"55060","Owatonna","MN","Mineral Springs Park","Mineral Springs Pkwy. NE","55060",44.103240691632685,-93.18887717073949
"55060","Owatonna","MN","Minot Brown Park","16th St. SW","55060",44.0686052771839,-93.2332581281662
"55060","Owatonna","MN","Maple Creek Park","1001-1099 N Elm Ave","55060",44.102491,-93.223894
"55060","Owatonna","MN","Maple Creek Park","N Elm Ave","55060",44.09286708333333,-93.22389808
"55060","Owatonna","MN","Central Park","Park Square","55060",44.08431747656734,-93.22601079940796
"55060","Owatonna","MN","Fremont Park","Grove Street","55060",44.08479934377655,-93.21641308826594
"55060","Owatonna","MN","Minot Brown Park","300-384 16th St SW","55060",44.07460665,-93.22600888333334
"55063","Pine City","MN","Riverside Park","not_available","55063",45.830825,-92.969826
"55063","Pine City","MN","Park","not_available","54840",45.77699,-92.754492
"55063","Pine City","MN","Voyeuger Park","800-856 1st Ave NW","55063",45.83132787453331,-92.97186815280033
"55065","Randolph","MN","Firemans Park","not_available","55065",44.526466,-93.018234
"55066","Red Wing","MN","Anderson Park","not_available","55066",44.571715053393284,-92.60369244576151
"55066","Red Wing","MN","Memorial Park","Skyline Dr","55066",44.56301591596373,-92.52387914809732
"55066","Red Wing","MN","Colvill Park","515 Nymphara Lane","55066",44.56613279964456,-92.50388034888827
"55066","Red Wing","MN","Izzak Walton Club House","744-1098 E 5th St","55066",44.570283,-92.518721
"55066","Red Wing","MN","Ap Anderson Park","Ap Anderson Park","55066",44.56374158550294,-92.62249246267838
"55066","Red Wing","MN","Central Park Band Shell","415 W 4th Street","not_available",44.56286250659559,-92.53491339825936
"55066","Red Wing","MN","Red Wing Depot","406 Main St","55066",44.56627879593266,-92.53720693148236
"55068","Rosemount","MN","Kelley Park","6855 Fortino St.","55124",44.7286187487556,-93.20443093609735
"55068","Rosemount","MN","Quarry Point Park","not_available","55122",44.71890064556658,-93.1803708859312
"55068","Rosemount","MN","Jaycee Park","Shannon Parkway","55068",44.72481312897186,-93.1467905381017
"55068","Rosemount","MN","Delaney Park","4745 147th Street","55124",44.73816784588317,-93.16603660583496
"55068","Rosemount","MN","Erickson Park","14316 Robert Trail S, Rosemount, MN 55068","55068",44.74549909803112,-93.12131322225456
"55068","Rosemount","MN","Connemara Park","Connemara Park","55068",44.747527565900974,-93.14983342780836
"55068","Rosemount","MN","Brockway","13669 Bronze Pkwy","55068",44.75241754239347,-93.12096551850577
"55068","Rosemount","MN","Farquar Park","Pilot Knob Rd.","55124",44.75610374074729,-93.16954088043575
"55068","Rosemount","MN","Schultze Lake Park","not_available","55123",44.74443087632519,-93.12091164913438
"55068","Rosemount","MN","Scott Park & Archery Site","14125 Galaxie Avenue","55124",44.745304107666016,-93.20906829833984
"55068","Rosemount","MN","Cedar Knolls Park","7094 127th St W","55124",44.764400482177734,-93.2095947265625
"55068","Rosemount","MN","Moeller Park","Johnny Cake Ridge Rd","not_available",44.749578255589775,-93.18626000933682
"55068","Rosemount","MN","Briar Oaks Park","Gantry Lane","not_available",44.77239017974252,-93.2075472149397
"55070","Saint Francis","MN","Rum River North County Park","3516 Bridge St NW","55070",45.387271,-93.358637
"55070","Saint Francis","MN","Woodbury Park","not_available","55070",45.40596887224927,-93.35919932242726
"55072","Sandstone","MN","Wolf Creek Falls","Banning State Park","not_available",46.152657866477966,-92.85562455654144
"55072","Sandstone","MN","Bruno Park","not_available","55712",46.280224,-92.663795
"55072","Sandstone","MN","Robbinson Park","Old Wagon Road","55072",46.13118118245587,-92.85820484161377
"55072","Sandstone","MN","Sandstone Quarry / Robinson Park","not_available","55072",46.131056439102665,-92.86071712587383
"55073","Scandia","MN","Wind In The Pines Nature Park","not_available","55073",45.267129113988574,-92.77634214900633
"55074","Shafer","MN","Standing Cedars Natural Area","645 River Ridge Road","54020",45.30235,-92.72951
"55074","Shafer","MN","Lions Park St Croix Falls Wi","State Hwy 87","54024",45.41532897949219,-92.6760025024414
"55075","South Saint Paul","MN","Lawshe Park","not_available","55075",44.892584,-93.037398
"55075","South Saint Paul","MN","Roosevelt Field","5th Ave S","55075",44.88266432701245,-93.03935050964355
"55075","South Saint Paul","MN","Kaposia Park","1028 Wilde Ave","55075",44.90496466151027,-93.06305221642869
"55075","South Saint Paul","MN","Summit Park","1000 Summit Ave","55075",44.9071491828236,-93.05186623728245
"55075","South Saint Paul","MN","South Valley Park","70th St E","55076",44.848630415429675,-93.04803333668073
"55075","South Saint Paul","MN","Seidl's Lake Park","1415 4th St S","55075",44.880087229486776,-93.0530203412536
"55075","South Saint Paul","MN","Harmon Park","1310 Henry Ave","55075",44.868671392615425,-93.03031012025532
"55075","South Saint Paul","MN","Groveland Park","46th Street East","not_available",44.881156973622375,-93.06433014921568
"55075","South Saint Paul","MN","Lions Park","65th St E","55076",44.85432020830488,-93.05691809177263
"55075","South Saint Paul","MN","North Valley Park","2657 70th St E","55076",44.84862926069649,-93.04801797512074
"55077","Inver Grove Heights","MN","Salem Hills Park","1642 Upper 55th St","not_available",44.86562227642948,-93.07333932754123
"55077","Inver Grove Heights","MN","Rich Valley Recreational Park","Rich Valley Blvd","55077",44.798637482743665,-93.07101033305263
"55077","Inver Grove Heights","MN","Captain Dodd Park","4112-4136 Countryview Dr","55123",44.81776197246254,-93.10534358282332
"55079","Stacy","MN","North Branch, MN","not_available","55092",45.414535486554556,-92.99107120262386
"55079","Stacy","MN","carroll broadbent memorial park","not_available","55079",45.3990083234471,-93.07632154624963
"55082","Stillwater","MN","Lakefront Park","414 1st St","54016",44.974845487477936,-92.75853947354693
"55082","Stillwater","MN","Lowell Park","Sam Bloomer & Mulberry St. E.","55082",45.05958547774348,-92.80726950740562
"55082","Stillwater","MN","Pioneer Park","515 N 2nd St","55082",45.06085748132633,-92.80909053153167
"55082","Stillwater","MN","Katherine Abbott Park","1000 Lincolntown Ave","55115",45.044641,-92.96207700000001
"55082","Stillwater","MN","Brown's Creek Park","Neal Avenue N and McKusick Rd N","55082",45.06963086175115,-92.84384110339283
"55082","Stillwater","MN","Birkmose Park Indian Burial Mounds","Coulee Road","54016",44.98400927213329,-92.7576648622181
"55082","Stillwater","MN","HHS Courtyard","not_available","54016",44.97971,-92.739854
"55082","Stillwater","MN","Legends Park","1060 Delano Way","55082",45.043603999999995,-92.856874
"55082","Stillwater","MN","Valley View Park","not_available","55082",45.03016558172835,-92.80182633414677
"55082","Stillwater","MN","Summer Tuesdays","100-198 Water St S","55082",45.05665379939599,-92.80477051653448
"55084","Taylors Falls","MN","Pothole Park","Highway 36","not_available",45.39960487025666,-92.65164552361018
"55084","Taylors Falls","MN","Cherry Hill Park","Maple Street","55084",45.411109924316406,-92.66082763671875
"55084","Taylors Falls","MN","South Lions Park & Boat Landing","County Road 16 and State Highway 95","not_available",45.427545704877694,-92.65058734519779
"55084","Taylors Falls","MN","Devil's Parlor","not_available","55084",45.39981006029234,-92.6509833488399
"55101","Saint Paul","MN","Mears Park","221 E 5th St.","55101",44.94937075687607,-93.08791995048523
"55101","Saint Paul","MN","Rice Park","109 4th St. W.","55102",44.94486329782664,-93.09679888760263
"55101","Saint Paul","MN","Kellogg Park","62 Kellogg Blvd. E.","55101",44.94482754662333,-93.09055356338624
"55101","Saint Paul","MN","Raspberry Island on Great River Passage","2 Wabasha Street","55107",44.942314721307454,-93.09087168341922
"55101","Saint Paul","MN","Bruce Vento Nature Sanctuary","E 4th St, St Paul, MN","55130",44.953166184610595,-93.07528626712597
"55101","Saint Paul","MN","Landmark Plaza","380 Saint Peter St","55102",44.945422191648255,-93.09629917144775
"55101","Saint Paul","MN","Wacouta Commons","9th Street","not_available",44.95184057440347,-93.0898806263843
"55101","Saint Paul","MN","Lot Q","Sherburne Ave","55155",44.954490519536144,-93.10057577855297
"55101","Saint Paul","MN","Susan G Komen 3 Day For The Cure Closing Ceremony","2-22 Rev Dr Martin Luther King Jr Blvd","55155",44.953139550430976,-93.10165474463525
"55101","Saint Paul","MN","525 Park","not_available","55103",44.957013,-93.104545
"55101","Saint Paul","MN","Rice Park Tree Lighting Ceremony","5th Street","55102",44.94585614856441,-93.09711215397367
"55101","Saint Paul","MN","Cass Gilbert Memorial Park","Sherburne Ave","55103",44.95687808300796,-93.10060716967641
"55101","Saint Paul","MN","4th Street Park","4th Street","55101",44.94781817841351,-93.08750461154605
"55101","Saint Paul","MN","MCM Rooftop Art Park","not_available","55102",44.94780176499161,-93.09789043390712
"55102","Saint Paul","MN","Cherokee Heights Park","Chippewa avenue","55107",44.922254523005954,-93.10708879221039
"55102","Saint Paul","MN","Harriet Island Regional Park on Great River Passage","Water St","55107",44.93777420354022,-93.09742542237623
"55102","Saint Paul","MN","The West St. Paul Sports Complex","not_available","55118",44.91280981282114,-93.09436135306171
"55102","Saint Paul","MN","Upper Landing Park","Shepard Road","55102",44.94026864634603,-93.09970157411315
"55102","Saint Paul","MN","Lillydale Regional Park","Lillydale Road","55118",44.918959798240586,-93.12376499176025
"55102","Saint Paul","MN","Irvine Park","251 Walnut St","55102",44.94100251382456,-93.10288667678833
"55102","Saint Paul","MN","Palace Recreation Center","781 Palace Ave","55102",44.93013544178727,-93.1324949432376
"55102","Saint Paul","MN","Boyd Park","335 Selby Ave","55102",44.94702323452495,-93.11444775993131
"55102","Saint Paul","MN","North High Bridge Park","492 Smith Avenue South","55102",44.937682838490495,-93.10880381304655
"55102","Saint Paul","MN","Prospect Park","West Delos Street","55102",44.93404902506092,-93.09383500645858
"55102","Saint Paul","MN","Citywide Spring Cleanup Kickoff--Harriet Island Pavilion","200 Dr Justus Ohage Blvd","55107",44.93714451005701,-93.0978012084961
"55102","Saint Paul","MN","McQuillan Park","515 Laurel Ave.","55102",44.94570822410991,-93.12171969600121
"55102","Saint Paul","MN","Cochran Park","375 Summit Avenue","55102",44.94165842028515,-93.11411785867949
"55102","Saint Paul","MN","Lilydale-Harriet Island Regional Park on Great River Passage","950 Lilydale Rd.","55108",44.9172477036828,-93.12672988768526
"55102","Saint Paul","MN","Peace Park?","488-494 Smith Ave S","55102",44.93968097,-93.10753861
"55102","Saint Paul","MN","Holcomb Circle Park","not_available","55104",44.945207337255304,-93.13396937944627
"55102","Saint Paul","MN","Harmon Park","218-236 Bernard St W","55118",44.91771903565963,-93.10494447343756
"55103","Saint Paul","MN","Como Park","1199 Midway Pkwy","55103",44.979164205747765,-93.15154634298467
"55103","Saint Paul","MN","Como Park Zoo","1225 Estabrook Dr","55103",44.981580139543034,-93.15287152741597
"55103","Saint Paul","MN","Como Lakeside Pavillion","1360 N. Lexington Pkwy.","55103",44.98216613115419,-93.14317739234399
"55103","Saint Paul","MN","Como Lake","1360 Lexington Pkwy N","55103",44.98164476868295,-93.14310239642724
"55103","Saint Paul","MN","Griggs Park","1188 Hubbard Ave","55104",44.965406,-93.150122
"55103","Saint Paul","MN","McMurray Field","1155 W Jessamine Ave","55108",44.974141409975694,-93.15006030272274
"55103","Saint Paul","MN","Marydale Park","542 Maryland Ave W","55117",44.97581918402017,-93.12182656448314
"55103","Saint Paul","MN","Ryan Park","618 Avon St. N","55104",44.96009063720703,-93.13309478759766
"55103","Saint Paul","MN","Gloval Harmony Labyrinth","not_available","55117",44.97765350341797,-93.13299560546875
"55103","Saint Paul","MN","Orchard Recreation Center","875 Orchard Ave","55103",44.97281164553656,-93.13740739652013
"55103","Saint Paul","MN","Saint Paul Classic Rest Stop: Lakeside Pavilion","1360 Lexington Parkway","55103",44.982179,-93.14305499999999
"55103","Saint Paul","MN","Prates Biilding","not_available","55108",44.98165,-93.152893
"55103","Saint Paul","MN","Lyton Park","92 Lyton Place","55117",44.96588134765625,-93.10384368896484
"55103","Saint Paul","MN","Central Village Park","457 Central Ave. W.","55103",44.95369220725572,-93.12159510845449
"55103","Saint Paul","MN","Unknown Park","1001 Stinson St","55103",44.969522999999995,-93.14247900000001
"55103","Saint Paul","MN","Hamm Memorial Water Falls","1360 N Lexington Pkwy","55108",44.98235106468201,-93.14373135566711
"55104","Saint Paul","MN","West River Parkway","W River Parkway","not_available",44.94250403441706,-93.20342638418103
"55104","Saint Paul","MN","Newell Park","900 Fairview Ave S","55116",44.967940556477146,-93.17680835723877
"55104","Saint Paul","MN","Hampden Park","993 Hampden Ave","55114",44.96976302171251,-93.19961685739491
"55104","Saint Paul","MN","Desnoyer Park","Pelham Avenue","55104",44.95586229165193,-93.19814722320443
"55104","Saint Paul","MN","Langford Park","30 Langford Park","55108",44.96867901325405,-93.19370499141911
"55104","Saint Paul","MN","Horton Park","1383 Minnehaha Avenue W.","55104",44.96379351963363,-93.1577196078773
"55104","Saint Paul","MN","Hamline and Hague Park","1328 Hague Avenue","55104",44.94548416137695,-93.15621948242188
"55104","Saint Paul","MN","Alice Park","31 Alice Street","55107",44.96421626809656,-93.17688281248631
"55104","Saint Paul","MN","South St. Anthony Recreation Center","890 Cromwell Ave","55114",44.96728333973111,-93.20029180337389
"55104","Saint Paul","MN","Tatum Park","1939 W Taylor Ave","55104",44.968458,-93.180687
"55104","Saint Paul","MN","Iris Park Place","1884 University Avenue","55104",44.95727372611448,-93.17962185573904
"55104","Saint Paul","MN","Merriam Park Recreation Center","2000 Saint Anthony Ave","55104",44.95268116132648,-93.18473004359296
"55104","Saint Paul","MN","May Park","816 Clayland St","55104",44.965309143066406,-93.17813873291016
"55104","Saint Paul","MN","Aldine Park","1717 Iglehart Avenue","55104",44.949581146240234,-93.17237091064453
"55104","Saint Paul","MN","Clayland Park","1835 Hewitt Avenue","55104",44.966801943704695,-93.17809581756592
"55105","Saint Paul","MN","Mississippi River Gorge Scenic Overlook","not_available","55116",44.921925,-93.197812
"55105","Saint Paul","MN","Mississippi River Boulevard","Mississippi River Blvd","not_available",44.940910409266216,-93.19809722866617
"55105","Saint Paul","MN","Mattocks Park","451 Macalester Street","55105",44.928537009187174,-93.1712936064813
"55105","Saint Paul","MN","Linwood Recreation Center","860 Saint Clair Ave","55105",44.93386184336764,-93.13632073268938
"55105","Saint Paul","MN","Kenwood Park","38 Kenwood Pkwy","55105",44.93535212090675,-93.12769174575806
"55106","Saint Paul","MN","Battle Creek Regional Park","2300 Upper Afton Road","55119",44.94274260558308,-93.00884962917088
"55106","Saint Paul","MN","Thompson County Park","1100 Stassen Ln.","55118",44.9108653875778,-93.06901437466365
"55106","Saint Paul","MN","Indian Mounds Park","10 Mounds Blvd.","55106",44.946439732512395,-93.05668830871582
"55106","Saint Paul","MN","Phalen Regional Park","1615 Phalen Dr E","55106",44.98948161101191,-93.0589258879061
"55106","Saint Paul","MN","Lake Phalen","not_available","55431",44.9798449357088,-93.04740277581264
"55106","Saint Paul","MN","Conway Park","402-480 Ruth St N","55119",44.95464414650636,-93.01753118036626
"55106","Saint Paul","MN","Duluth And Case Rec Center","1020 Duluth St","55106",44.97326462427442,-93.04837635713724
"55106","Saint Paul","MN","Frost Lake Recreation Center","1518 Idaho Ave E","55106",44.98991775512695,-93.036376953125
"55106","Saint Paul","MN","Burns Ave Park","1463 Burns Avenue","55106",44.94916915893555,-93.03816223144531
"55106","Saint Paul","MN","Beaver Lake Park","1118 Edgewater Blvd","55119",44.97327850003584,-93.00920063445253
"55106","Saint Paul","MN","Swede Hollow Park","615 7th St. E","55106",44.96462504829734,-93.06245856086979
"55106","Saint Paul","MN","Weida Park","490 Tedesco St","55130",44.959885,-93.079784
"55106","Saint Paul","MN","Roller Blading","not_available","55119",44.947677,-93.014349
"55106","Saint Paul","MN","Puggle Park","not_available","55106",44.98808904772086,-93.02601637899075
"55106","Saint Paul","MN","Castillo Park","149 Concord St. S","55075",44.927802206778686,-93.07050704956055
"55106","Saint Paul","MN","Park With No Name","2100-2146 N Park Dr","55119",44.94493479,-93.00947204
"55106","Saint Paul","MN","Margaret Recreation Center","1109 Margaret St","55106",44.961097407304095,-93.05575268360965
"55106","Saint Paul","MN","Wells Street People's Park","674 Wells St","not_available",44.967366,-93.07217299999999
"55106","Saint Paul","MN","Normal Kelly Park","41 st","55422",44.974990243386586,-93.05244115901738
"55106","Saint Paul","MN","Thompson Park Activity Center","1200 Stassen Ln","55118",44.909891950683736,-93.06841756001954
"55107","Saint Paul","MN","Kennedy Park","774 Dodd Road","55118",44.922373532831884,-93.09141493939826
"55107","Saint Paul","MN","Theodosia Kidd Park","Prospect St.","not_available",44.93532467761339,-93.08723074226681
"55107","Saint Paul","MN","Capital view park","not_available","55107",44.93102791962912,-93.10173306890911
"55108","Saint Paul","MN","College Park","2223 Carter Avenue","55108",44.98213336516362,-93.19015502929688
"55108","Saint Paul","MN","Grove Park","Coffman St","55108",44.98906615050072,-93.19136526926037
"55108","Saint Paul","MN","Family Fair/Baldwin Park","Randall Ave","not_available",44.98375460953497,-93.16878766529751
"55109","Saint Paul","MN","Silver Lake","Silver Lake","55109",45.02666904226284,-92.98787421447781
"55109","Saint Paul","MN","Robin Hood Park","1390-1404 Skillman Ave E","55109",45.0028797841289,-93.04117718768597
"55109","Saint Paul","MN","Casey Lake Park","2039 17th Ave","55109",45.021883480179035,-93.01139760373592
"55109","Saint Paul","MN","Goodrich Field","not_available","55109",44.9974883197262,-93.01603317487806
"55109","Saint Paul","MN","Polar Park","2388 Shawnee Dr","55109",45.0244255065918,-92.99944305419922
"55109","Saint Paul","MN","Playcrest Park","Lydia Ave.","55109",45.031510699507194,-93.00130172311466
"55109","Saint Paul","MN","Wakefield Park","1590 Frost Ave","55109",44.9974478660289,-93.0345955360738
"55109","Saint Paul","MN","Legacy Pines Park","3100 Kennard St","55109",45.0334358215332,-93.0299301147461
"55109","Saint Paul","MN","at tha park","Demont Ave","55109",45.016998291015625,-93.02958679199219
"55109","Saint Paul","MN","Sherwood Park","2237 Kennard St","55109",45.00887680053711,-93.03160858154297
"55109","Saint Paul","MN","Veterans Memorial Park","2601-2799 E 10th Ave","55109",45.01386100715018,-92.98505888371596
"55109","Saint Paul","MN","Harvest Park","2561 Barclay St","55109",45.0173225402832,-93.03863525390625
"55109","Saint Paul","MN","Nick's Softball Game","White Bear Lake, MN","55110",45.03906408,-93.01182956
"55109","Saint Paul","MN","Dorothy Park","2900-2914 Lake Blvd","55109",45.024968338622124,-92.99373063918985
"55110","Saint Paul","MN","Bossard Park","not_available","55110",45.05606317275347,-92.99618782166102
"55110","Saint Paul","MN","Matoska Park","4800 Lake Avenue","55110",45.086792961736954,-92.99965563497823
"55110","Saint Paul","MN","Polar Lakes Park","1281 Hammond Rd","55110",45.095531826783535,-93.03286000427407
"55110","Saint Paul","MN","Spruce Park","3677 McKnight Rd N","55110",45.052239250659,-93.00556225177367
"55110","Saint Paul","MN","Lions Park","4420 Lake Ave S","55110",45.07343223985224,-93.01429028071088
"55110","Saint Paul","MN","Rotary Nature Preserve at Birch Lake","4854-4880 White Bear Pkwy","55110",45.08975744935434,-93.03962287888872
"55110","Saint Paul","MN","Jack Yost Park","1838-1886 Florence St","55110",45.0803804397583,-93.01918029785156
"55110","Saint Paul","MN","Railroad Park","4749 Washington Sq","55110",45.085114,-93.00937
"55110","Saint Paul","MN","Columbia Park","1710-1760 Minnesota County Road 96","55110",45.07868037275668,-93.02615103745167
"55110","Saint Paul","MN","Sandterra Park","Sandterra Ct","55110",45.118237,-92.98918
"55110","Saint Paul","MN","Ramaley Park","1883 Park Street","55110",45.07670611644426,-93.01942338648065
"55110","Saint Paul","MN","Bulldog Puppy Picnic","2110 orchard","not_available",45.04640711,-93.02974281
"55110","Saint Paul","MN","Wildwood Park","not_available","55115",45.03679544659292,-92.96594954144824
"55110","Saint Paul","MN","Lower Landing Park","200 Warner Ave S","55115",45.0559196472168,-92.95448303222656
"55111","Saint Paul","MN","Two Rivers Crossing Overlook","Shepard Rd","55116",44.89565284366899,-93.17873910353894
"55112","Saint Paul","MN","Silverwood Park","2500 County Road E W","55421",45.04673109373881,-93.22455499863099
"55112","Saint Paul","MN","Long Lake Regional Park","1500 Old Highway 8","not_available",45.07921799488476,-93.1999397277832
"55112","Saint Paul","MN","Tony Schmidt Park Lakeside/Beach","3500 Lake Johanna Blvd","55112",45.047877764246394,-93.17498150393834
"55112","Saint Paul","MN","Hansen Park - New Brighton","55 14th Ave SW","55112",45.0567999496167,-93.20343246012054
"55112","Saint Paul","MN","Autumn Grove Park","1391 Lydia Ave West","55113",45.033646714383515,-93.161249785695
"55112","Saint Paul","MN","New Brighton Park","27th Ave NW","55112",45.07133318545768,-93.22431917693824
"55112","Saint Paul","MN","Freeway Park","not_available","55112",45.05329971984312,-93.16068683381197
"55112","Saint Paul","MN","Groveland Park","Groveland rd","55112",45.11832673683752,-93.22041034698486
"55112","Saint Paul","MN","Freedom Park","14th St NW","55112",45.070974781577654,-93.21616172790527
"55112","Saint Paul","MN","Salo Park","not_available","55421",45.03855358428398,-93.22290045144295
"55112","Saint Paul","MN","Wilson Park","County Road F","55126",45.067555859341965,-93.148808228726
"55112","Saint Paul","MN","Lakeside Lions Park","3032 Hillview Rd","55432",45.110164642333984,-93.22725677490234
"55113","Saint Paul","MN","Acorn Park","286 County Road C W","55113",45.02013457278525,-93.11181986119688
"55113","Saint Paul","MN","Central Park Victoria West","2495 Victoria St. N.","55113",45.0157873899414,-93.13646793365479
"55113","Saint Paul","MN","Central Park","2540 Lexington Avenue North","55414",45.017743276882946,-93.1441267856427
"55113","Saint Paul","MN","Lauderdale City Park","1855 Fulham Street Lauderdale","not_available",44.997942597970265,-93.19787823216055
"55113","Saint Paul","MN","Woodview Off Leash Dog Area","499 Larpenteur Ave W","55117",44.9923707939781,-93.12080824257279
"55113","Saint Paul","MN","Villa Park Roseville","Cohansey Blvd","55113",45.00340972782379,-93.12106925539175
"55113","Saint Paul","MN","Falcon Heights Community Park","2050 Roselawn Avenue","not_available",44.99852367346103,-93.18574461080492
"55113","Saint Paul","MN","Harriet Alexander Nature Center","Dale St.","55113",45.016151324309256,-93.1240377943546
"55113","Saint Paul","MN","Victoria Fields","Transit Ave","55113",45.016897392226255,-93.13274991792414
"55113","Saint Paul","MN","Mapleview Park","2917 Matilda St","55113",45.02885437011719,-93.11347961425781
"55113","Saint Paul","MN","Midland Gardens Park","Co Rd B & Cleveland","55113",45.005325,-93.18613
"55113","Saint Paul","MN","Howard Johnson Park","1208 Woodhill Drive","55113",45.02079283692203,-93.15426707267761
"55113","Saint Paul","MN","Frank Rog Amphitheatre","2540 Lexington Ave. N","55113",45.01831198522086,-93.14422286854985
"55113","Saint Paul","MN","Tamarack Park","1765 Farrington St","55113",44.994590759277344,-93.1131820678711
"55113","Saint Paul","MN","Central Park - Woodbury","2540 Lexington Ave N","55113",45.01729965209961,-93.14643096923828
"55113","Saint Paul","MN","Central Park bocce ball courts","Lexington","55113",45.013443360159776,-93.14048889934105
"55113","Saint Paul","MN","Pocahontas Park","2570 Pascal St","55113",45.01860427856445,-93.16089630126953
"55116","Saint Paul","MN","Hidden Falls Regional Park","1415 Mississippi River Blvd. S.","55116",44.906407926611244,-93.1906270980835
"55116","Saint Paul","MN","Crosby Farm Park on Great River Passage","2595 Crosby Farm Road","55116",44.897599836758694,-93.1659678467303
"55116","Saint Paul","MN","Highland Park","1200 Montreal Avenue","55116",44.91295638476292,-93.14567067320706
"55116","Saint Paul","MN","Crosby Farm Park - East End on Great River Passage","Shepard Road","not_available",44.91297757075211,-93.14557728728946
"55116","Saint Paul","MN","Chilly Chili Cook-Off","2595 Crosby Farm","55102",44.89605740893164,-93.17178726196289
"55116","Saint Paul","MN","Jeffe's Triangle Park","930 Albion Ave","55116",44.9140670217781,-93.14801216125488
"55117","Saint Paul","MN","Trout Brook Nature Sanctuary","1200 Jackson St","55117",44.977216,-93.09579000000001
"55117","Saint Paul","MN","Lake Judy Park","3354 Richmond Ave","55126",45.04272535832824,-93.13942330834585
"55117","Saint Paul","MN","Pioneer Park","950 Centerville Road","55117",45.02925930697814,-93.08525947051844
"55117","Saint Paul","MN","Arkwright Ballpark","400 Alrington Avenue E.","55130",44.9836243621487,-93.08322280120801
"55118","Saint Paul","MN","Mendakota Park","2121-2181 Dodd Rd","55120",44.87775767461387,-93.12839516883906
"55118","Saint Paul","MN","Dodge Nature Center","365 Marie Ave W","55118",44.897198886119305,-93.10251631863002
"55118","Saint Paul","MN","Wentworth Park","673-699 Wentworth Ave W","55118",44.90083127126147,-93.12165113392507
"55118","Saint Paul","MN","Marthaler Park","Wentworth","not_available",44.89590089460884,-93.08719630129434
"55118","Saint Paul","MN","Friendly Hills Park","not_available","55120",44.882774353027344,-93.13134765625
"55118","Saint Paul","MN","Marthaler Park Sliding Hill","1650 Humboldt Ave","55118",44.89657974243164,-93.08441925048828
"55118","Saint Paul","MN","Lilydale Regional Park on Great River Passage","950 Lilydale Rd","55108",44.910134504695606,-93.1324753497031
"55119","Saint Paul","MN","Fish Creek Nature Preserve","Henry lane S","55119",44.896725,-92.997999
"55119","Saint Paul","MN","Crestview Park","2356-2486 Londin Ln E","55119",44.930317282807856,-92.99395700662936
"55119","Saint Paul","MN","Applewood Park Preserve","826 Sterling St S","55119",44.916839599609375,-92.99496459960938
"55119","Saint Paul","MN","Maplewood Nature Center","2659 7th St E","55119",44.96726745284514,-92.98839492153218
"55119","Saint Paul","MN","Sterling Oaks Park","1440 Sterling St N","not_available",44.98528130601985,-92.99586454333212
"55119","Saint Paul","MN","Nebraska Park","2332 Nebraska ave","not_available",44.98620033931317,-93.00309771792499
"55119","Saint Paul","MN","Pleasantview Park","1099 Marnie St","55119",44.90892414067969,-92.9955439183797
"55119","Saint Paul","MN","Vista Hills Park","2525-2549 Mailand Rd","55119",44.92751900592497,-92.995637242241
"55119","Saint Paul","MN","Lions Park","618 Farrell St","55119",44.9603159065811,-92.98737827889977
"55119","Saint Paul","MN","Gethsemane Park","2410 Stillwater Rd E","55119",44.96921157836914,-92.99874114990234
"55120","Saint Paul","MN","Big Rivers Regional Park","1495 Sibley Memorial Highway","55120",44.86705702552028,-93.17335065879469
"55120","Saint Paul","MN","Veterans Park","not_available","55150",44.88607097162884,-93.16124228838491
"55121","Saint Paul","MN","Quarry Park","Coachman Road","not_available",44.83610188811044,-93.17983153476264
"55121","Saint Paul","MN","Eagan Central Park","1501 Central Pkwy","55121",44.8399446183382,-93.1738647489042
"55121","Saint Paul","MN","Wescott Commons Park","Wescott Trail","55123",44.83204735064112,-93.13286232347691
"55121","Saint Paul","MN","Thresher Field","3200 Borchert Ln","55121",44.83858211214058,-93.12415861016957
"55121","Saint Paul","MN","Thresher Park","not_available","55121",44.833611165046264,-93.13514994045573
"55121","Saint Paul","MN","Lexigton Park","2871-2899 1st St","55121",44.85184778333333,-93.14251995
"55122","Saint Paul","MN","Thomas Lake Park","Thomas Lake Rd","55122",44.795297676281,-93.16907518059847
"55122","Saint Paul","MN","Lebanon Hills Regional Park","4800-4816 Galaxie Ave W","55122",44.783684564970955,-93.20138714510412
"55122","Saint Paul","MN","Rahn Park Fields","4425 Sandstone Drive","55122",44.79655489270051,-93.21521092459788
"55122","Saint Paul","MN","Blackhawk Park","1629 Murphy Parkway","55122",44.817065434211266,-93.18451918670328
"55122","Saint Paul","MN","Meadowland park","Shale lane","55122",44.7976323614905,-93.20342147863789
"55122","Saint Paul","MN","Woodhaven Park","Berryl Ln","not_available",44.81377787983007,-93.20393808993737
"55123","Saint Paul","MN","Lebanon Hills Regional Park","860 Cliff Rd","55123",44.7840281979187,-93.14157485961914
"55123","Saint Paul","MN","Trapp Farm Park","841 Wilderness Run Rd","not_available",44.79361667092785,-93.12240794784677
"55123","Saint Paul","MN","Patrick Eagan Park","3995 Lexington Ave S","55123",44.813443510739624,-93.15092427560468
"55123","Saint Paul","MN","George Ohmann Park","4730 Pebble Beach Way","not_available",44.784489,-93.163475
"55123","Saint Paul","MN","Wescott Station Park","3670 Ridgewood Dr, Eagan, MN 55123","55123",44.82496643066406,-93.11927032470703
"55123","Saint Paul","MN","Mueller Farm Park","Eagan","55123",44.82100251966529,-93.1340036691944
"55123","Saint Paul","MN","Goat Hill Park","4325 Lexington Ave S","55123",44.80237670299863,-93.12569646259378
"55123","Saint Paul","MN","Fish Lake Park","Denmark Ave","55123",44.822518754283095,-93.16028654636223
"55123","Saint Paul","MN","Berry Patch Park","1275 Berry Ridge Rd","55123",44.80813217163086,-93.16022491455078
"55123","Saint Paul","MN","City Of Eagan Nature Park","no","55123",44.81229,-93.148735
"55124","Saint Paul","MN","Belmont Park","117 Belmont Rd","55124",44.763944,-93.234464
"55124","Saint Paul","MN","Wildwood Park","137th St W, Apple Valley, MN 55124","55124",44.7488714300871,-93.23551389403505
"55124","Saint Paul","MN","Redwood Park","980-984 Redwood Dr","55124",44.731079081162434,-93.24736225557143
"55124","Saint Paul","MN","Terrace Oaks West Park","12801 County Rd 11","55337",44.7710945791263,-93.24739027816346
"55124","Saint Paul","MN","Apple Valley Fireworks","140th st","55124",44.743156732017525,-93.18702501025685
"55124","Saint Paul","MN","Carroll Park","7765-7899 142nd St W","55124",44.74394263333333,-93.22490345
"55124","Saint Paul","MN","Terrace Oaks Park East","2529-2639 E Burnsville Pkwy","55337",44.774548276852464,-93.23952492379762
"55124","Saint Paul","MN","Longridge Field","Hayes trail","55124",44.72198629612633,-93.23652550957169
"55124","Saint Paul","MN","Lac Lavon Park N.","15610 Highview Drive","55124",44.722243623452286,-93.24308856993952
"55125","Saint Paul","MN","Ojibway Park","Ojibway Dr","55125",44.90648940715682,-92.94593596469046
"55125","Saint Paul","MN","Cobblestone Park","3685-3799 Commonwealth Rd","55125",44.89608288816873,-92.95139718582303
"55125","Saint Paul","MN","Pioneer Park","2670 Wimbledon Dr","55125",44.91032336124775,-92.9272990448137
"55125","Saint Paul","MN","Carver Lake Park","3175 Century Ave","not_available",44.90382008392141,-92.97796352786493
"55125","Saint Paul","MN","Central Park Woodbury","8595 Central Park Pl","55125",44.91640460114856,-92.93202144216838
"55125","Saint Paul","MN","Kargel Park","9301 Tamarack Rd","55125",44.93715555007079,-92.91584077313382
"55125","Saint Paul","MN","Ridgegate Park","7723-7743 Dunmore Dr","55125",44.91767677808452,-92.94896426179199
"55125","Saint Paul","MN","Victoria Park","7397 Newbury Alcove","55125",44.892291,-92.956475
"55125","Saint Paul","MN","Evergreen East Park","8196 Galway Road","55125",44.932097892371615,-92.93535175833132
"55126","Saint Paul","MN","Snail Lake Regional Park","Snail Lake Regional Park","55126",45.06233840415671,-93.12364426418645
"55126","Saint Paul","MN","Island Lake Park","Victoria St N","55126",45.05273188560549,-93.13375604702917
"55126","Saint Paul","MN","Bobby Theisen Park","3575 Vivian Ave","55126",45.048871935017935,-93.13934261883583
"55126","Saint Paul","MN","Shoreview Commons Park","Victoria St. N","55126",45.081442774789984,-93.13262778454192
"55126","Saint Paul","MN","New Jersey","Highway 96 West","55127",45.079248298622204,-93.10654520988464
"55126","Saint Paul","MN","Turtle Lake Park","Schifsky Rd","55126",45.091888271155675,-93.12713569278964
"55126","Saint Paul","MN","MnFur Fall Picnic","not_available","55127",45.076267,-93.101197
"55126","Saint Paul","MN","McCullough Park","McCullough Park Rd","55126",45.109950996629586,-93.14285561330273
"55126","Saint Paul","MN","Southpoint Park","Highway 96","55127",45.08034896850586,-93.11101531982422
"55127","Saint Paul","MN","Kohler Meadows Park","365 County Road F","55127",45.05872592846033,-93.08628420575582
"55127","Saint Paul","MN","Greenhaven Park","4486 Greenhaven Dr","55127",45.07459688074355,-93.0743024828869
"55127","Saint Paul","MN","Sitzer Park","272-354 Snail Lake Rd","55126",45.06039626992267,-93.11852931976318
"55128","Saint Paul","MN","Richard Walton Memorial Park","Richard Walton Memorial Park","55128",44.97117267832273,-92.96541562054865
"55128","Saint Paul","MN","Tilsen I Park","6969-6973 Upper 35th St N","55128",45.000071906303425,-92.96627735880071
"55128","Saint Paul","MN","Tower Park","8th St Ln","55128",44.96136320302535,-92.96653939808067
"55128","Saint Paul","MN","Tanners Lake Park","Oakdale,MN,55128","55128",44.95282161710013,-92.97730925193689
"55128","Saint Paul","MN","Oakdale park","4545-4609 Granada Ave N","55128",45.01507515595514,-92.97698409373282
"55128","Saint Paul","MN","Smith and Bybee Wetlands Natural Area","Portland,OR,97203","97203",44.9894676,-92.9704523
"55128","Saint Paul","MN","Angry Birds","not_available","55448",45.02101736402417,-92.95998848577828
"55128","Saint Paul","MN","Horseshoe Park","7th St N & Gershwin","55128",44.959295774882094,-92.98214329258253
"55128","Saint Paul","MN","Harley Park","2897 Hudson Rd","55128",44.94927978515625,-92.9791030883789
"55128","Saint Paul","MN","Oakdale Discovery Center","4444 Hadley Ave N","55128",45.012549822150966,-92.96633476897406
"55129","Saint Paul","MN","Wedgewood Park","not_available","55129",44.89426912167067,-92.89738345575707
"55130","Saint Paul","MN","Sues Park","Rose","55106",44.975039585707634,-93.07205313217978
"55301","Albertville","MN","Villas Park","not_available","55301",45.22399565890914,-93.68020971919088
"55301","Albertville","MN","Prairie Park","8899 Nashua Ave NE","55330",45.280111073049255,-93.61537895072235
"55301","Albertville","MN","Otaego Dog Park","8890 Nashua Ave","55330",45.277845,-93.615188
"55301","Albertville","MN","Ostego Park","13400 90th St NE","55330",45.282936096191406,-93.61522674560547
"55301","Albertville","MN","Otsego Prairie Park","not_available","55330",45.279060090779566,-93.6175521022633
"55302","Annandale","MN","Stanley Eddy Park - North Unit","not_available","55382",45.238609,-94.248666
"55303","Anoka","MN","Pennisula Park","not_available","55303",45.19163364354663,-93.39111171556013
"55303","Anoka","MN","Kelsey Round Lake Park","not_available","55304",45.24907239871045,-93.3730119189243
"55303","Anoka","MN","Rum River Central Regional Park","17955 Roanoke St. NW","55303",45.29653555782758,-93.38587045669556
"55303","Anoka","MN","Mississippi River Community Park","2751 Cutters Grove Avenue","55303",45.20995448858393,-93.41605481090438
"55303","Anoka","MN","Mercy Park","not_available","55433",45.18079462737133,-93.36788702916334
"55303","Anoka","MN","Rum River South County Park","3000 Ferry Street North","55303",45.21460586693443,-93.3893895149231
"55303","Anoka","MN","Riverfront Memorial Park Anoka","2nd Ave","55303",45.20029,-93.38972
"55303","Anoka","MN","Oak Grove Preserve","County Road 22","not_available",45.338966202252806,-93.38447999862646
"55303","Anoka","MN","Rocket Park","698 Cutter St","55303",45.20335040970428,-93.40301577809176
"55303","Anoka","MN","Martin's Meadows Preserve","17101 Navajo St. NW","55304",45.28346252441406,-93.37879943847656
"55303","Anoka","MN","Veterans Memorial Park-Champlin","505 Hayden Lake Road","55316",45.18126213091817,-93.39132757385865
"55304","Andover","MN","Bunker Hills Regional Park","550 Bunker Lake Blvd NW","55304",45.22031033461877,-93.2769113696225
"55304","Andover","MN","Meadowbrook Park","not_available","55434",45.20677451454132,-93.24980577480864
"55304","Andover","MN","Bunker Hills Activity Center","550 Bunker Lake Blvd","not_available",45.22030775770142,-93.27691456788054
"55304","Andover","MN","north metro soccer prairie knoll","650 148th lane nw","55304",45.239360366890566,-93.28102827072142
"55304","Andover","MN","Riverdale Park","3356 131st Ln NW","55443",45.20901107788086,-93.35304260253906
"55304","Andover","MN","River Bend Park","142nd Ave NW","55303",45.22642118206025,-93.39289544886418
"55304","Andover","MN","Wildwood Park","131st St NW","55448",45.210533142089844,-93.31688690185547
"55304","Andover","MN","Woodland Green Park","155th Lane NW","55304",45.254555,-93.367117
"55305","Hopkins","MN","Big Willow Park","11522 Minnetonka Blvd","55305",44.94447968125985,-93.43129312184014
"55305","Hopkins","MN","The Meadow","not_available","55391",44.95860326455075,-93.44399929046631
"55305","Hopkins","MN","Burnes Park","220 Minnetonka Mills Rd","55343",44.92768269480686,-93.40569255361167
"55305","Hopkins","MN","The Pit","not_available","55426",44.95441479156013,-93.39915251530128
"55305","Hopkins","MN","Meadow Park","Oakland Rd","55305",44.95209037225222,-93.45072095233908
"55305","Hopkins","MN","Burwell Park","13209 McGinty Rd E","55305",44.941471099853516,-93.44854736328125
"55305","Hopkins","MN","McKenzie Park","14950 McKenzie Blvd","not_available",44.931312561035156,-93.46880340576172
"55305","Hopkins","MN","Raspberry Monument","not_available","55343",44.92615064876941,-93.40868155980732
"55305","Hopkins","MN","Hilltop Park","307 20th Ave N","55343",44.928951621980396,-93.42280585574993
"55305","Hopkins","MN","Tennis Court","not_available","55305",44.951297760009766,-93.40544128417969
"55305","Hopkins","MN","Back Forty","Big Willow","55305",44.94402823116548,-93.43604920559623
"55305","Hopkins","MN","Cedar Manor Park","9210 Cedar Lake Road","not_available",44.957100046280516,-93.39966773986816
"55305","Hopkins","MN","Shelard Park","303 Shelard Parkway","55426",44.97754506481777,-93.40649411766853
"55306","Burnsville","MN","Alimagnet Park","1200 Alimagnet Pkwy","55337",44.74313632747014,-93.25192707565174
"55306","Burnsville","MN","Crystal Lake West Park Trail","15309 Maple Island Rd","55306",44.725876,-93.27986
"55306","Burnsville","MN","Day Park","Co. Rd. 5","55337",44.73813653454556,-93.29945117719942
"55306","Burnsville","MN","tierneys woods park","not_available","55337",44.743197501715414,-93.26414108276367
"55306","Burnsville","MN","Interlachen Park","14702 Portland Ave","55306",44.737558160898615,-93.26892614364624
"55306","Burnsville","MN","Paha Sapa Park","14970 Chicago Ave","55306",44.73226955848994,-93.26406223377695
"55307","Arlington","MN","Frenzel Park","not_available","55307",44.605256,-94.084193
"55308","Becker","MN","Lakeside Park","416 Lakeshore Dr.","55309",45.334150234265365,-93.75732512588286
"55308","Becker","MN","Becker City Park","not_available","55308",45.41772946035395,-93.87211450050239
"55308","Becker","MN","Becker City Park","County Road 23","55308",45.406676371927595,-93.87000718579262
"55308","Becker","MN","McDowall Lake Park Bench","not_available","55309",45.35546,-93.75192
"55308","Becker","MN","Lion's Park","21960 County Road 5","55309",45.36824875673579,-93.75343717697005
"55309","Big Lake","MN","Swan Park","117 Mississippi Dr","55362",45.2973,-93.77116600000001
"55309","Big Lake","MN","Ellison Park","River St.","55362",45.302981146435314,-93.78136247065655
"55309","Big Lake","MN","Groveland Park","9988 Innsbrook Dr","55362",45.29526310061464,-93.8103712527577
"55309","Big Lake","MN","West Bridge Park","not_available","55362",45.30685408163629,-93.79629564878233
"55309","Big Lake","MN","Big Lake North State Recreation Area","not_available","99687",45.33220967820687,-93.74125178650715
"55311","Maple Grove","MN","Fish Lake Woods Park","not_available","55311",45.090550975817564,-93.4545835343003
"55311","Maple Grove","MN","Grove West Park","Inland Lane N","not_available",45.09157139214412,-93.4977213741362
"55311","Maple Grove","MN","Fish Lake Regional Park","14900 Bass Lake Road","55311",45.0812005922883,-93.46471987101711
"55311","Maple Grove","MN","Corcoran Lion's Park","6847-7240 County Road 101","55340",45.08493348530558,-93.52386254837158
"55311","Maple Grove","MN","Maple Lakes Park","Kirkwood Ave N.","55369",45.11171912378695,-93.43838469981539
"55311","Maple Grove","MN","Forestview Pond Park","9734-9790 Hemlock Ln N","55369",45.1320880651474,-93.432123
"55311","Maple Grove","MN","Donahue South Park","63rd ave n","55311",45.07042923286664,-93.45972776412964
"55311","Maple Grove","MN","Crosswinds Park","15301 Weaver Lake Rd","55311",45.10206985473633,-93.47420501708984
"55311","Maple Grove","MN","Elm Creek Park Reserve Multipurpose Trails","12400 James Deane Pkwy","55369",45.13884391666692,-93.43757866212539
"55311","Maple Grove","MN","Goldenrod Marsh Park","W Fish Lake Road","55311",45.09585387486446,-93.46921020736255
"55311","Maple Grove","MN","Nottingham Park","7362","55311",45.09023171119031,-93.48096707383611
"55311","Maple Grove","MN","Maple Meadow Playlot","not_available","55369",45.07079798009924,-93.43770897746275
"55311","Maple Grove","MN","Maple Maze","12951 Weaver Lake Rd","55369",45.103665495167164,-93.44243143628573
"55311","Maple Grove","MN","Donahue North Playlot","6632 Annapolis Ln N","55311",45.07556897906702,-93.45708332882356
"55313","Buffalo","MN","Riverside Park - Rockford","not_available","55373",45.090436581076816,-93.73055798632272
"55313","Buffalo","MN","Gutzwiller Park","43rd St NE","55376",45.21631949132452,-93.68654351272335
"55313","Buffalo","MN","Kachina Park","not_available","55376",45.205018,-93.682736
"55313","Buffalo","MN","West Pulaski Park","not_available","55313",45.201601510125656,-93.86510324812188
"55313","Buffalo","MN","Cardinal hills rock park","School blvd","55362",45.284734452679544,-93.78152033195414
"55315","Carver","MN","Lion's Park","700 Lime St","55315",44.766252048428406,-93.625889049702
"55315","Carver","MN","Jackie Holzer Memorial Park","951 Syndicate St","55352",44.67731582393583,-93.63233617190981
"55315","Carver","MN","Riverside Park Carver","not_available","55315",44.767214449033226,-93.61939328394237
"55315","Carver","MN","Corner Park","3rd street E","55315",44.76381163,-93.62315516
"55315","Carver","MN","Louisville Swamp","not_available","55379",44.73960733176054,-93.59790770450311
"55315","Carver","MN","Rapids Lake Education & Visitor Center","15865 Carver Highlands Dr","55315",44.718379974365234,-93.63626098632812
"55315","Carver","MN","Depot Park","308 Old Carver Rd","55315",44.76565933227539,-93.6236572265625
"55315","Carver","MN","Bluff Park","102 Carver Bluffs Parkway","55315",44.7490234375,-93.63613891601562
"55316","Champlin","MN","Highpoint Park","Goose Lake Pkwy","55316",45.16215741544996,-93.41072198626571
"55316","Champlin","MN","Woodlawn Park","11217 Independence Ave","55316",45.1572132185992,-93.40194411978312
"55316","Champlin","MN","Brittany Park","11005 Brittany Drive","55369",45.155684924286874,-93.36491837153045
"55316","Champlin","MN","Andrews Park","7200 117th Ave. N","55316",45.1672019280916,-93.37388251826614
"55316","Champlin","MN","Pine Park","not_available","55316",45.16129774463271,-93.35802046249206
"55316","Champlin","MN","Riverview Park","2420 105th Ave. NW","55433",45.15915488456642,-93.3314246840725
"55316","Champlin","MN","Boulevard Plaza Park","11000 Crooked Lake Blvd NW","55433",45.17007827758789,-93.34271240234375
"55316","Champlin","MN","George Green Park","601-699 South St","55303",45.191677146478455,-93.3800512577114
"55317","Chanhassen","MN","Arboretum Village Trail","not_available","55317",44.86692406757908,-93.59229950027989
"55317","Chanhassen","MN","Stone Creek Park","2250 Stone Creek Lane East","55317",44.85237503051758,-93.5773696899414
"55317","Chanhassen","MN","Lake Minnewashta Regional Park (Carver County Parks)","6900 Hazeltine Blvd","55317",44.880656470968596,-93.58599762574804
"55317","Chanhassen","MN","Lake Ann Park","1456 W. 78th St.","55317",44.86423491735256,-93.55649758678362
"55317","Chanhassen","MN","Bandimere Park","9405 Great Plains Boulevard","55317",44.83579346215326,-93.53707925748971
"55317","Chanhassen","MN","City Center Park","7600 Latedo Drive","55317",44.86459020715946,-93.53850660107274
"55317","Chanhassen","MN","Walnut Grove Neighborhood Folly","Prairie Flower Blvd","55317",44.866372886124154,-93.57585192468537
"55317","Chanhassen","MN","shadow wood park","not_available","55318",44.82241597662586,-93.56858412679941
"55317","Chanhassen","MN","Lake Ann Picnic Shelter Parking Lot","W 78th St","55317",44.866945825952406,-93.55743139775566
"55317","Chanhassen","MN","City Center Park Hockey Rink","7700 Market Blvd","55317",44.863339,-93.539014
"55317","Chanhassen","MN","Curry Farms Park","1300 Stratton Crt","55317",44.885887145996094,-93.55352020263672
"55317","Chanhassen","MN","Cortina Park","Hundertmark Rd","not_available",44.822760189927365,-93.59682083129883
"55317","Chanhassen","MN","Pheasant Hill Park","1720 Lake Lucy Ln","55317",44.88564682006836,-93.56446075439453
"55318","Chaska","MN","Tahpah Park","1326 Adams St. S","55379",44.779301511497415,-93.54367797609993
"55318","Chaska","MN","Schalow Park","Mallary","55318",44.79343474392518,-93.5893099890217
"55318","Chaska","MN","Firemans Park","100 West 6th Street","55318",44.78960168020708,-93.60313034079752
"55318","Chaska","MN","Madelyn Freek Park","not_available","55386",44.866383,-93.64067
"55318","Chaska","MN","Chaska City Park","300 N Chestnut St","55318",44.78684246357246,-93.60019288864218
"55318","Chaska","MN","Huber Park","421 1st Ave E","55379",44.799932589714224,-93.52172184290244
"55318","Chaska","MN","Community Park","hundertmark rd","55318",44.81197226840876,-93.62809088523323
"55318","Chaska","MN","Royalty Park","Ardennes Ave","55379",44.77294052338687,-93.52380959177289
"55318","Chaska","MN","Lions Park","Lions Park","55379",44.78410181123442,-93.5386053806836
"55318","Chaska","MN","schindler crossing park","1","55318",44.81243860657324,-93.62195092251288
"55318","Chaska","MN","Schimelpfeing Park","Creek","55318",44.787312,-93.597277
"55319","Clear Lake","MN","Warner Lake County Park","not_available","55320",45.42246946621716,-94.08484272947585
"55319","Clear Lake","MN","Palmer Township Park","4180 105th Ave SE","not_available",45.50924301147461,-93.94461822509766
"55320","Clearwater","MN","Stirewalt Memorial Co. Park","128th St. NW","55320",45.33600806748742,-93.99147033691406
"55321","Cokato","MN","Railroad Park","2nd Street SW","55321",45.07718,-94.19069
"55321","Cokato","MN","Albright's Mill County Park","not_available","55321",45.12593716271028,-94.11200223548185
"55321","Cokato","MN","Cokato Corn Carnival","Broadway St","not_available",45.07494329021639,-94.19110413730596
"55322","Cologne","MN","Bent Creek Park","1401 Mockingbird Dr","55387",44.83342742919922,-93.80461120605469
"55322","Cologne","MN","Carver County Parks","11360 Highway 212 Ste 2","55322",44.7695426940918,-93.81327056884766
"55322","Cologne","MN","Brook Peterson Park","1200 Oak Ave","55387",44.83926010131836,-93.81097412109375
"55322","Cologne","MN","Interlaken Park","not_available","55387",44.83832458791499,-93.7663092384119
"55322","Cologne","MN","City Square Park","100-198 County Road 30","55387",44.85034573372978,-93.78326937405299
"55322","Cologne","MN","Vista Point Park","828 Beach Rd","55387",44.850935,-93.77025
"55322","Cologne","MN","Oakpointe Park","1431 Sparrow Road","55384",44.830780029296875,-93.81198120117188
"55322","Cologne","MN","Marion Fields","not_available","55322",44.779833224457306,-93.7796514793443
"55324","Darwin","MN","Greenleaf Lake State Recreation Area","not_available","55355",45.03873592169625,-94.48317092058858
"55324","Darwin","MN","First Street Park","not_available","55324",45.096282,-94.410617
"55324","Darwin","MN","Middle Of Nowhere","not_available","55325",45.08940601796928,-94.37561219812169
"55327","Dayton","MN","Marilyn LeVasseur Field at McNeil Park","Columbus Street","55327",45.241841,-93.512301
"55327","Dayton","MN","Goodin Park","17442-17624 County Road 12","55327",45.234449914107685,-93.49982447047559
"55328","Delano","MN","Lake Rebecca Park Reserve","9831 Rebecca Park Trail","55373",45.07175497073789,-93.74973794454044
"55328","Delano","MN","Barb King Inspiration Park","County Road 30 SE, Delano, MN 55328","55328",45.034271880696885,-93.79593422456946
"55328","Delano","MN","Twin cities polo","not_available","55328",45.038272,-93.77157
"55328","Delano","MN","Delano City Park","County Road 30","55328",45.04805091384232,-93.78705904556027
"55329","Eden Valley","MN","American Legion Memorial Park","not_available","55329",45.323091,-94.546733
"55329","Eden Valley","MN","Morning Star Resort & Campground Inc","22954 Green Acres Dr","56368",45.38535,-94.58012
"55330","Elk River","MN","Frankfort Park","17641 54th St NE","55374",45.232077000000004,-93.531328
"55330","Elk River","MN","Central Park","7792 161st Ave NW","55303",45.264186405047646,-93.46774349581264
"55330","Elk River","MN","Evans Park","Evans Ave NW","55330",45.301998,-93.55902
"55330","Elk River","MN","Otsego County Park","15186 96TH STREET NE","55330",45.29002380371094,-93.58360290527344
"55330","Elk River","MN","Lions Park III-DGC","Lions Park Dr","55330",45.30812872228273,-93.56909936646892
"55330","Elk River","MN","Pointe Park","Quaker Ave ne","55330",45.25369256688448,-93.55827037493953
"55331","Excelsior","MN","Freeman Park","not_available","55331",44.897248958663994,-93.60729449831614
"55331","Excelsior","MN","Manitou Park","5418 Manitou road","55331",44.90676570483348,-93.59249896325251
"55331","Excelsior","MN","Badger Park","24365 Smithtown Rd","55331",44.9002571105957,-93.58859252929688
"55331","Excelsior","MN","Excelsior Commons","Lake St","55331",44.90703671820312,-93.56726958654363
"55331","Excelsior","MN","Mound Bay Park","5736 Bartlett blvd","55364",44.929048143943476,-93.66893669826233
"55331","Excelsior","MN","Surfside Park","5764 Bartlett Blvd","55364",44.92929017082674,-93.66922383154446
"55331","Excelsior","MN","Lake Minnetonka Regional Park","not_available","55364",44.89412172840649,-93.66987747936993
"55336","Glencoe","MN","Stearner Park","not_available","55336",44.768193,-94.149123
"55336","Glencoe","MN","Buffalo Creek BMX","901-999 9th St E","55336",44.76803715083802,-94.14931461008054
"55336","Glencoe","MN","Oscar Olson Park","1501-1599 Union Ave N","55336",44.773649610940446,-94.1334324710021
"55337","Burnsville","MN","Gene C. Kelly Youth Playfields","185 E 102nd St","55420",44.816760865959424,-93.2760211078427
"55337","Burnsville","MN","Colonial Park","1101-1213 W 139th St","55337",44.753807970953225,-93.29566901449662
"55337","Burnsville","MN","Nine Mile Creek","1901 W 106th St","55431",44.81184550970883,-93.3021619085465
"55337","Burnsville","MN","Moir Park","10400 Morgan Ave. S","55431",44.81740259646585,-93.3067774772644
"55337","Burnsville","MN","Burnsville Lions Playground","Clif Fen Park","not_available",44.787323,-93.276092
"55337","Burnsville","MN","Harrison Park","10024-11022 James Ave S","55431",44.820690269651,-93.3019495010376
"55337","Burnsville","MN","Chateaulin Park","1501-1699 E 130th St","55337",44.76703625233086,-93.25348861475365
"55337","Burnsville","MN","Central Park","106th Street","not_available",44.81195816343848,-93.30145408730112
"55337","Burnsville","MN","Pond-Dakota Mission Park","401 E 104th St","55420",44.81317138671875,-93.27156829833984
"55339","Hamburg","MN","Hamburg Park","not_available","55339",44.73175375120723,-93.9638983585809
"55340","Hamel","MN","Hamel City Park","345-355 Hamel Rd","55340",45.040130939336635,-93.52371070543352
"55340","Hamel","MN","Baker Near Wilderness Settlement","not_available","55359",45.017182,-93.623007
"55340","Hamel","MN","Gun Range #2","not_available","55340",45.072667251836116,-93.62496916937981
"55340","Hamel","MN","Hunter Lions Park","3175 Hunter Dr","55340",45.03415,-93.53399300000001
"55341","Hanover","MN","Riverside Park","not_available","55341",45.16496276855469,-93.64071655273438
"55342","Hector","MN","Hector City Park","not_available","55342",44.74140874419674,-94.71564072825764
"55343","Hopkins","MN","Van Valkenburg Dog Park","6707 Maloney Ave","55343",44.91489687456249,-93.39758484109728
"55343","Hopkins","MN","Bredesen Park","Olinger road","55436",44.896063712506276,-93.37631837420474
"55343","Hopkins","MN","Shady Oak Beach","5200 Shady Oak Rd","55343",44.90989888299724,-93.4295386610854
"55343","Hopkins","MN","Lone Lake Park","Shady Oak Rd","55343",44.89824770418184,-93.43641886852052
"55343","Hopkins","MN","Central Park","13th Ave","55343",44.923060284657026,-93.41739220295803
"55343","Hopkins","MN","Fox Meadow Park","not_available","55436",44.90883567436772,-93.38071469553962
"55343","Hopkins","MN","Oakes Park","Lake Street NE","55343",44.93090385024555,-93.39012404000518
"55343","Hopkins","MN","Walnut Ridge Park","Londonderry Road","55436",44.89896571292223,-93.39100101197847
"55343","Hopkins","MN","Cottageville Park","1216 Oxford St","55343",44.933017599434685,-93.38348547239674
"55343","Hopkins","MN","HRL Stadium","Central Park","55343",44.92256073711774,-93.4201169013977
"55343","Hopkins","MN","Steiner Park Preserve","Westbrooke Way","55343",44.90937,-93.40951
"55343","Hopkins","MN","Central Park","101 17th Ave S","55343",44.93181806028211,-93.38718927449958
"55344","Eden Prairie","MN","Purgatory Creek Park","13001 Technology Drive","not_available",44.85722406190491,-93.44962205766286
"55344","Eden Prairie","MN","Birch Island Park","6237-6353 Eden Prairie Rd","55346",44.89025924319391,-93.47211663100676
"55344","Eden Prairie","MN","Bryant Lake Park","6800 Rowland Rd","55344",44.8822848203436,-93.42864666974263
"55344","Eden Prairie","MN","Staring Lake Outdoor Center","13765 Staring Lake Pkwy.","55347",44.84508496157291,-93.45142501233585
"55344","Eden Prairie","MN","Cumberland Park","13999","55347",44.845757,-93.452997
"55344","Eden Prairie","MN","Bryant Lake Dog Park","6328-6430 Rowland Rd","55344",44.88659625556602,-93.4327075778331
"55344","Eden Prairie","MN","Edenvale Park","not_available","55346",44.87191060213745,-93.46953211942363
"55344","Eden Prairie","MN","Edgewood Park","6950 Edenvale Blvd","55346",44.877938,-93.474131
"55344","Eden Prairie","MN","Willow Park","7402 Butterscotch Rd.","55344",44.86894989013672,-93.44559478759766
"55344","Eden Prairie","MN","Nesbitt Preserve Park","8641 Center Way","55344",44.84709548950195,-93.41645812988281
"55344","Eden Prairie","MN","Carmel Park","Tyrell Dr","55344",44.889690083333335,-93.429223
"55344","Eden Prairie","MN","bassett lake park","not_available","55344",44.864131927490234,-93.42832946777344
"55344","Eden Prairie","MN","Pheasant Woods Park","8420 Mitchell Road","not_available",44.849666595458984,-93.4612045288086
"55344","Eden Prairie","MN","Pioneer Park","not_available","55347",44.84042318345129,-93.48266322509429
"55344","Eden Prairie","MN","Holasek Hill Park","6395 Pinnacle Dr","55346",44.887996673583984,-93.4450912475586
"55345","Minnetonka","MN","Purgatory Park","17301 Excelsior Blvd","55345",44.90261560700033,-93.50199129266893
"55345","Minnetonka","MN","National Night Out","Xerxes Ave N","55411",44.908392,-93.48268
"55345","Minnetonka","MN","Victoria Evergreen Park","3801 Victoria Street","55345",44.93345642089844,-93.47465515136719
"55345","Minnetonka","MN","Reich Park","not_available","55345",44.91453355317332,-93.51731795123835
"55345","Minnetonka","MN","Silverwood Park","Covington Road","55331",44.89673318083512,-93.52301779793328
"55345","Minnetonka","MN","Wilson Park","Lake Street Ext","55345",44.925972683333335,-93.47844636666666
"55347","Eden Prairie","MN","Staring Lake Park","14800 Pioneer Tr.","55344",44.83444775169436,-93.46223307960365
"55347","Eden Prairie","MN","Riley Lake Park","9180 Riley Lake Rd","55347",44.83684218814665,-93.51102382576373
"55347","Eden Prairie","MN","Richard T. Anderson Conservation Area","18700 Flying Cloud Drive","55347",44.82181328279976,-93.49988038826851
"55347","Eden Prairie","MN","Miller Park Playground","Miller Parkway W","55347",44.852483177227654,-93.49632088291997
"55347","Eden Prairie","MN","Lake Riley","Riley Lake Rd.","55347",44.83560200999277,-93.51203083246969
"55347","Eden Prairie","MN","Franlo Park","10245 Franlo Rd","55347",44.81782913208008,-93.4062271118164
"55347","Eden Prairie","MN","Historic Murphy's Landing","2187 County Road 101 E","55379",44.80535888671875,-93.48629760742188
"55347","Eden Prairie","MN","Rice Marsh Lake Park","Dell Road","55347",44.85369311102408,-93.51415235939795
"55347","Eden Prairie","MN","Homeward Hills Park","12000 Silverwood Dr.","55347",44.821319905915445,-93.43395022576225
"55347","Eden Prairie","MN","Overlook Park","9514 Grey Widgeon Pl, Eden Prairie, MN 55347","55347",44.8309326171875,-93.43981170654297
"55347","Eden Prairie","MN","Homewood Hills Park","Homewood Hills Rd","55347",44.822821068810455,-93.43039512634277
"55347","Eden Prairie","MN","The Valley Of Ep","Homeward Hills","55347",44.819755359361665,-93.42954825031735
"55347","Eden Prairie","MN","Creekwood Park","9267-9283 Homeward Hills Rd","55347",44.835828916394696,-93.4307953612143
"55350","Hutchinson","MN","Sanctuary Park","Les Kouba Pkwy NW","55350",44.894509429891144,-94.38249459231251
"55350","Hutchinson","MN","Fireman's Park","not_available","55350",44.899005254264615,-94.37307749560912
"55350","Hutchinson","MN","Hansen Gravel","South Grade School Rd","not_available",44.89428007057794,-94.41408205886147
"55350","Hutchinson","MN","Elk's Park","Sherwood St Se","55350",44.874179,-94.366652
"55350","Hutchinson","MN","VFW Park","VFW Park","55350",44.87747956144379,-94.36876058578491
"55352","Jordan","MN","Ridges at Sand Creek","21775 Ridges Dr","55352",44.63414972554365,-93.61259438475791
"55352","Jordan","MN","Lagoon Park","300 Park Dr","55352",44.66118031932317,-93.62991160082011
"55352","Jordan","MN","Pork In The Pork","not_available","55352",44.665349,-93.633381
"55352","Jordan","MN","Northwoods Park","not_available","55372",44.706529,-93.463128
"55352","Jordan","MN","Minnesota Valley State Recreation Area","Minnesota Valley State Trail","not_available",44.65446118390788,-93.71474683302394
"55353","Kimball","MN","Willow Creek Park","not_available","55353",45.30946609013954,-94.30012219733143
"55354","Lester Prairie","MN","Central Park","Central Ave & Juniper St","55354",44.88422875,-94.0417652
"55355","Litchfield","MN","Litchfield Watercade","Sibley Ave","55355",45.12672035486952,-94.5189459697407
"55356","Long Lake","MN","Wood-Rill Scientific and Nature Area (Dayton's Woods)","Old Long Lake Road","55391",44.98333238271767,-93.54203939437866
"55356","Long Lake","MN","Holbrook Park","not_available","55356",44.982391499483406,-93.57952822340167
"55356","Long Lake","MN","Hackberry Park","Willow Dr.","not_available",44.98155975341797,-93.5842056274414
"55358","Maple Lake","MN","Harry Larson Memorial Forest","12700-12960 Clementa Ave NW","55362",45.33470209,-93.93024007
"55359","Maple Plain","MN","Lakeshore Park","Lakeshore Ave and Pine St","55359",45.032894,-93.641206
"55359","Maple Plain","MN","Highwood Nature Trail","Shoreline Dr","not_available",44.948891,-93.61417
"55359","Maple Plain","MN","Thor Park","3863-3999 Park Ln","55384",44.938798891149396,-93.61699901677638
"55360","Mayer","MN","Dakota Rail Regional Trail Mayer Trailhead (Carver County Parks)","201 Ash Ave S","55360",44.883721,-93.88845400000001
"55360","Mayer","MN","Old Schoolhouse Park","not_available","55360",44.8881055894178,-93.89084631204652
"55369","Osseo","MN","Boone Ave Park","Boone Ave N","55428",45.073235722389626,-93.39258670806885
"55371","Princeton","MN","Our Park","97th Court NW","55371",45.51845912,-93.51309132
"55372","Prior Lake","MN","O'Connell Park","5201-5353 S Park Dr","55378",44.73874317956064,-93.3465981012888
"55372","Prior Lake","MN","McCann Park","South Park Dr.","55378",44.738805065864,-93.3708430074858
"55372","Prior Lake","MN","Glendale Park","not_available","55378",44.75809513040027,-93.35387517993779
"55372","Prior Lake","MN","Lakefront Park","Kop Pkwy.","55372",44.719539067907185,-93.42284202575684
"55372","Prior Lake","MN","Summit Pointe Park","13679-13735 Boone Ave","55378",44.75378371851963,-93.3891145791797
"55372","Prior Lake","MN","Carriage Hills Park","14585 Carriage Lane","55372",44.738609863477095,-93.43436479568481
"55372","Prior Lake","MN","Glynwater Residential","3456 Glynwater Trail N.W.","55327",44.72426680259733,-93.45619245557535
"55372","Prior Lake","MN","Sunset Hills Park","3205 Balsam Street S.W.","55372",44.705091,-93.4251168322312
"55372","Prior Lake","MN","Fish Point Park","150th St SE","55372",44.73051583340882,-93.4095811843872
"55372","Prior Lake","MN","Green Oaks Park","Green Oaks Trail SE","55372",44.73216875787514,-93.3958117166798
"55372","Prior Lake","MN","Whispering Oaks Park","8991 Horizon Dr","55379",44.75633278255824,-93.40333756742818
"55372","Prior Lake","MN","North Shore Oaks Park","14300 Fisher Avenue N.W.","55372",44.74149051605874,-93.41312170028687
"55373","Rockford","MN","Dog Park-Lake Sara","6670 W Lake Sarah Dr","55373",45.07281464812231,-93.71148482947669
"55374","Rogers","MN","Canoe Access","not_available","55374",45.209401,-93.622157
"55374","Rogers","MN","St. Michael Recreation Center Park","3150 Lander Ave NE","55376",45.19856643676758,-93.65695190429688
"55374","Rogers","MN","Highwood Park","Frankfort Prkwy NE","not_available",45.21471821376015,-93.63460945572594
"55374","Rogers","MN","Linwood Park","Saint claire","not_available",45.188671,-93.569406
"55378","Savage","MN","Schroeder's Acres Park","12320 Boone Ave","55378",44.77777895914518,-93.39646725211676
"55378","Savage","MN","Hidden Valley Park","4901 W 132nd St","55378",44.76223637579644,-93.34270660937737
"55378","Savage","MN","Warren Butler Park","126 St West","55378",44.77196431984739,-93.34105859869693
"55378","Savage","MN","Hollywood Park","128th St","55378",44.771840913167615,-93.33818578067152
"55378","Savage","MN","Hamilton Hills Park","9000 West 136th Street","55378",44.75729923858848,-93.39096806358972
"55379","Shakopee","MN","Dred Scott Playfield","10820 Bloomington Ferry Rd.","55438",44.8068657506209,-93.38585490019382
"55387","Waconia","MN","Lake Waconia Event Center","8155 Paradise Ln","55387",44.85600031640646,-93.76181295532992
"55387","Waconia","MN","Lake Waconia Regional Park (Carver County Parks)","8170 Paradise Lane","55387",44.85552978515625,-93.76284790039062
"55391","Wayzata","MN","Parkers Lake Park","15505 County Rd 6","55447",44.99735584635866,-93.47400974368983
"55391","Wayzata","MN","Holy Name Park","Co Rd 24","not_available",45.01425214366541,-93.53305767495506
"55391","Wayzata","MN","Shiloh Park","2680 Holly Ln N","55447",45.00856399536133,-93.49713897705078
"55391","Wayzata","MN","Plymouth Creek Park","Fernbrook Ln N","55447",45.022988269924575,-93.46195936203003
"55391","Wayzata","MN","Shaver park","Ferndale rd s","55391",44.96943033403798,-93.52312633917536
"55391","Wayzata","MN","Circle Park","Lanewood Ln N","55447",44.983924293530535,-93.46893310546875
"55391","Wayzata","MN","Millennium Labyrinth","not_available","55447",45.021885,-93.46999
"55395","Winsted","MN","Mill Reserve Park","not_available","55395",44.963509755649845,-94.04568613550656
"55396","Winthrop","MN","Winthrop City Park","5th St W","55396",44.5452623865036,-94.36773674490827
"55397","Young America","MN","Baylor Regional Park Campground (Carver County Parks)","10775 County Road 33","55397",44.8140983581543,-93.94419860839844
"55398","Zimmerman","MN","Mackenzies And Kimberlys playground","not_available","55398",45.44956831929696,-93.59122407260489
"55401","Minneapolis","MN","Gold Medal Park","1201 Yale Pl","55403",44.977595084320505,-93.25334787368774
"55401","Minneapolis","MN","Boom Island Park","724 Sibley St. NE","55413",44.99252413413938,-93.268732401016
"55401","Minneapolis","MN","Mill Ruins Park","103 Portland Ave. S","55401",44.98019065889694,-93.2585294652354
"55401","Minneapolis","MN","Father Hennepin Park","Main St. SE","55414",44.982151908662935,-93.24988448834058
"55401","Minneapolis","MN","Nicollet Island","Merriam St","55401",44.98711140054855,-93.2625961303711
"55401","Minneapolis","MN","First Bridge Park","1 West River Pkwy","55401",44.984592407108714,-93.26455266940022
"55401","Minneapolis","MN","BF Nelson Park","500 Marshall St. NE","55413",44.99190690384571,-93.26448440551758
"55401","Minneapolis","MN","Nicollet Island Pavilion","40 Power St","55401",44.98470962582642,-93.26013083932708
"55401","Minneapolis","MN","Water Power Park","206 Main St SE","55414",44.98305270559709,-93.25535981983985
"55401","Minneapolis","MN","Richard and Annette Bloch Cancer Survivors Park","200 Nicollet Mall","55401",44.98190067613365,-93.26895754903143
"55401","Minneapolis","MN","St Anthony Park","not_available","55414",44.984620888410106,-93.25528477110792
"55401","Minneapolis","MN","Chute Square","University & Central Ave SE","55414",44.98756375683833,-93.25526572874622
"55401","Minneapolis","MN","Holmes Park","301 4th St SE","55414",44.98724039876805,-93.25122356414795
"55401","Minneapolis","MN","Holmes Greenway","114 5th St SE","55414",44.98837871944962,-93.25321798816
"55401","Minneapolis","MN","Wesley Park","8300 Plymouth Ave N","55401",44.987662385003475,-93.27332564085216
"55401","Minneapolis","MN","Riverplace Roof Park","1 SE Main St","55414",44.98689651489258,-93.25898742675781
"55401","Minneapolis","MN","Loring Park City Courtyard","not_available","55403",44.98867418468432,-93.27841544893249
"55401","Minneapolis","MN","Haberman Pong Table","not_available","55401",44.98066174303415,-93.27386674609868
"55402","Minneapolis","MN","Assisi On Ninth","not_available","55402",44.97360280063873,-93.27109249568137
"55403","Minneapolis","MN","Loring Park","1382 Willow St","55403",44.97014940080106,-93.28463315963745
"55403","Minneapolis","MN","Kenwood Park","2101 W Franklin Ave","55405",44.96348005341188,-93.30445261582723
"55403","Minneapolis","MN","Thomas Lowry Park","900 Douglas Ave S","not_available",44.968724799434874,-93.29139375875732
"55403","Minneapolis","MN","Stevens Square Park","1801 Stevens Ave","55403",44.965295384267016,-93.27512379260745
"55403","Minneapolis","MN","Bryn Mawr Meadows","1901 Laurel Ave","55405",44.97364215674592,-93.30218382190623
"55403","Minneapolis","MN","13th/Hennepin Parklet","6 E 13th St","55403",44.974098,-93.281475
"55403","Minneapolis","MN","Garden Of The Seasons","Loring Park","not_available",44.96960016872089,-93.28478239007919
"55403","Minneapolis","MN","The Tree","Loring Park","55403",44.972108,-93.283501
"55403","Minneapolis","MN","Harrison Park","503 Irving Ave N, Minneapolis, MN","55405",44.98204229951465,-93.30091953277588
"55403","Minneapolis","MN","Wave Park","not_available","55405",44.963726,-93.289566
"55403","Minneapolis","MN","Hidden Barricade- Minneapolis","Parade Ice Garden","55403",44.97111337148945,-93.2905125617981
"55403","Minneapolis","MN","Loring Park Play Area","W grant","not_available",44.969273822809285,-93.28230113608045
"55404","Minneapolis","MN","Pop Up Park at the MIA","2400 3rd Ave S","55404",44.9586527549234,-93.27434627041694
"55404","Minneapolis","MN","Whittier Park","425 W 26th St","55405",44.95454270249405,-93.28303463793542
"55404","Minneapolis","MN","Elliot Park","1000 E 14th St","55404",44.968981795873084,-93.25984670526904
"55404","Minneapolis","MN","Stewart Park","2700 12th Ave. S Minneapolis, MN 55404","not_available",44.95489089433394,-93.25867908292304
"55404","Minneapolis","MN","Washburn Fair Oaks Park","200 E 24th St.","55404",44.96070712966126,-93.27538804243011
"55404","Minneapolis","MN","Peavey Park","700-798 E 22nd St","55404",44.962127490480604,-93.2634607171351
"55404","Minneapolis","MN","Grand Park","500 E Grant St","55404",44.970191955566406,-93.26823425292969
"55404","Minneapolis","MN","East Phillips Park","17th Ave S & 24th St E","55404",44.9599499587971,-93.24718868552651
"55404","Minneapolis","MN","Triangle Park","415 S 10th St","55404",44.97085189819336,-93.2688980102539
"55404","Minneapolis","MN","Currie Park","500 15th Ave. S","55454",44.969383677862105,-93.25117666527876
"55404","Minneapolis","MN","Murphy Square","801 22nd ave S","55454",44.96513193742179,-93.24012994766235
"55405","Minneapolis","MN","Auto Value","775 Highway 47 S","55405",44.955077,-93.306708
"55405","Minneapolis","MN","Theodore Wirth Park","1339 Theodore Wirth Pkwy","55422",44.979741647296656,-93.32304125169004
"55405","Minneapolis","MN","Mueller Park","2501 Colfax Avenue","not_available",44.95680395319103,-93.29119920730591
"55405","Minneapolis","MN","Wirth Lake Beach","3200 Glenwood Ave N","55422",44.97976125811771,-93.32306814045747
"55405","Minneapolis","MN","Levin Park","1600 W. 26th St.","55405",44.95671381506591,-93.29988967100293
"55405","Minneapolis","MN","Cedar Lake Park","Cedar Lake Trail","55416",44.96587281809769,-93.31952039717683
"55405","Minneapolis","MN","Wirth Lake Boat Launch","not_available","55422",44.982236,-93.321245
"55405","Minneapolis","MN","Bassett's Creek Park","200 Vincent Ave N","55405",44.97941081798672,-93.31055059661014
"55405","Minneapolis","MN","Cedar lake park prairie garden","Cedar lake","55405",44.96766460399035,-93.30998438949051
"55406","Minneapolis","MN","Minnehaha Park","4801 S Minnehaha Park Dr","55417",44.916303563559566,-93.21084903682416
"55406","Minneapolis","MN","Lake Hiawatha","44th Street and 28th Avenue","55406",44.920661,-93.236241
"55406","Minneapolis","MN","Brackett Park","2728 39th Ave S","55406",44.95149723662095,-93.22059558592176
"55406","Minneapolis","MN","Chergosky Park","Seymour Ave. S.E. & Sharon Ave. S.E.","55414",44.962628250552356,-93.21227568578921
"55406","Minneapolis","MN","Minnehaha Parkway East","W Minnehaha Parkway","55417",44.91780403956397,-93.22119742731135
"55406","Minneapolis","MN","Adams Triangle","not_available","55406",44.928563559638576,-93.21960755290408
"55406","Minneapolis","MN","Minnehaha Off-Leash Recreation Area","5399 South Minnehaha Drive","not_available",44.9343611698658,-93.22831856188954
"55406","Minneapolis","MN","Adventures in Cardboard","4501 Hiawatha Avenue","55406",44.9543718,-93.2328301
"55406","Minneapolis","MN","Crosby Park","4651 34th Ave S","55406",44.91655904694052,-93.22311401367188
"55406","Minneapolis","MN","Lions Park","38th","not_available",44.935787,-93.239826
"55406","Minneapolis","MN","Riverside Park","2700 8th St. S","55454",44.965651136022856,-93.23146899375848
"55406","Minneapolis","MN","Center of Lake Hiawatha","not_available","55407",44.92055593022355,-93.2333692055164
"55406","Minneapolis","MN","Seven Oaks Park","Park Terrace","55406",44.940913192245624,-93.20590865238842
"55406","Minneapolis","MN","Triangle Park","2600 E Franklin Ave","55406",44.96315711789442,-93.235130373106
"55407","Minneapolis","MN","Powderhorn Park","3400 15th Ave S","55407",44.94412366181327,-93.25753211975098
"55407","Minneapolis","MN","Phelps Park","Park Avenue South","55407",44.92957864914765,-93.26608382496876
"55407","Minneapolis","MN","Sibley Park","1900 E 40th St","55407",44.93105208913226,-93.2450333294971
"55407","Minneapolis","MN","Corcoran Park","3300 20th Ave S","55407",44.941950935394345,-93.2442772370364
"55408","Minneapolis","MN","Lake Harriet Band Shell","4135 W Lake Harriet Pkwy","55410",44.928337985315906,-93.3079624949998
"55408","Minneapolis","MN","Dr. Martin Luther King Jr. Park","4055 Nicollet Ave","55409",44.92851336765003,-93.27711911541151
"55408","Minneapolis","MN","The Mall","1420 The Mall","55408",44.95008873423281,-93.30428777225563
"55408","Minneapolis","MN","Bryant Square Park","3101 Bryant Ave S","55408",44.94639490954891,-93.29064976642769
"55408","Minneapolis","MN","Lyndale Park","1300 42nd St W","55409",44.92759806718532,-93.2956002072008
"55408","Minneapolis","MN","Beard's Plaisance","4525 Upton Ave S","not_available",44.920152926015724,-93.31420626487437
"55408","Minneapolis","MN","Kings Highway Parkway","not_available","55409",44.92484315758246,-93.2935507770025
"55408","Minneapolis","MN","Painter Park","620 W 34th St","55408",44.942123158028856,-93.28748653804251
"55408","Minneapolis","MN","Grand Rounds Kiosk","3835 West Calhoun Pkwy","55410",44.93419484108618,-93.31043961502456
"55408","Minneapolis","MN","McRae Park","906 E 47th St","55407",44.92380092538883,-93.27049797022352
"55408","Minneapolis","MN","Fall WAKA Field - Painter's Park","Lyndale Ave","not_available",44.942256,-93.287249
"55408","Minneapolis","MN","Martin Luther King Park","271 Mackubin Street","55102",44.93087165096598,-93.27689651256622
"55408","Minneapolis","MN","The Baer's Backyard Garden Oasis","3224 4th Ave S","55408",44.944072999999996,-93.270617
"55408","Minneapolis","MN","Reynolds Park","not_available","55438",44.937762,-93.295131
"55408","Minneapolis","MN","Newton Hill","not_available","55419",44.91601084929192,-93.30170968823978
"55410","Minneapolis","MN","Linden Hills Park","3100 W 43rd St","55410",44.92552214223765,-93.32033281365636
"55410","Minneapolis","MN","Armatage Park","2500 W 57th St","55410",44.89945914573085,-93.31088271059494
"55410","Minneapolis","MN","Strachauer Park","not_available","55410",44.89025354276229,-93.32452251470062
"55410","Minneapolis","MN","Canterbury Street Hockey Arena","Chowen","not_available",44.9115817,-93.3252138
"55410","Minneapolis","MN","Pershing Park","3523 W 48th St","55410",44.91572514291593,-93.32432088945221
"55410","Minneapolis","MN","Waveland Triangle","43rd st","55410",44.92559206386249,-93.32559950259422
"55411","Minneapolis","MN","Theodore Wirth Golf Course","1301 Theodore Wirth Pkwy","55422",44.99208900365839,-93.32284927368164
"55411","Minneapolis","MN","Glenview Terrace Park","2351 Zenith Ave N","not_available",45.003086505828996,-93.32098484316616
"55411","Minneapolis","MN","Farview Park","609 29th Ave N","55411",45.010484916207716,-93.28699464041082
"55411","Minneapolis","MN","Theodore Wirth Memorial Pkwy","Theodore Wirth Pkwy","not_available",45.0058358686037,-93.31658363342285
"55411","Minneapolis","MN","Willard Park","1626 Queen Ave North","55411",44.99643325805664,-93.30918884277344
"55411","Minneapolis","MN","Orvin ""Ole"" Olson Park","West River Road N","55411",45.00263262633852,-93.27638855451626
"55411","Minneapolis","MN","Bethune Park","not_available","55411",44.98796010419445,-93.29760135530627
"55411","Minneapolis","MN","Farwell Park","1201 Sheridan Ave. N","55411",44.99029541015625,-93.31269836425781
"55411","Minneapolis","MN","Hall Park","1600 Aldrich Ave N","not_available",44.99532,-93.2892
"55411","Minneapolis","MN","Sumner Field","8th Ave N and Bryant Ave N","not_available",44.98803051161856,-93.29309011394245
"55411","Minneapolis","MN","Cottage Park","2100 James Ave. N","55411",45.000675201416016,-93.30241394042969
"55411","Minneapolis","MN","Cal Ripken, Sr. Field","16th Ave N","55411",44.995346,-93.304242
"55411","Minneapolis","MN","Cleveland Park","3232 Queen Ave. N","not_available",45.01407330298195,-93.30920219421387
"55411","Minneapolis","MN","Lovell Square Park","1000 James Ave. N","55411",44.98799514770508,-93.30033874511719
"55411","Minneapolis","MN","Boys And Girls Park","2401-2448 Irving Ave N","55411",45.004194,-93.29918109
"55411","Minneapolis","MN","North Commons Park","1801 James Ave N","55411",44.997690762678765,-93.30154869602565
"55411","Minneapolis","MN","Jordan park","2927 Irving Ave. N","not_available",45.01048278808594,-93.2999496459961
"55412","Minneapolis","MN","North Mississippi Regional Park","4900 Mississippi Ct","55430",45.03122702839595,-93.28478336334229
"55412","Minneapolis","MN","Victory Park","not_available","55412",45.033535744673614,-93.31084765633419
"55412","Minneapolis","MN","Folwell Park","1615 Dowling Ave N","55412",45.02413759184298,-93.30850309754092
"55412","Minneapolis","MN","Webber Park","4310 Webber Pkwy","55412",45.03408219975318,-93.29275008286896
"55412","Minneapolis","MN","Camden Central Pond","42nd Ave N","55412",45.031710961142274,-93.30445560317321
"55412","Minneapolis","MN","Yoga on the Northside","Xerxes Ave N","not_available",45.018775,-93.318589
"55413","Minneapolis","MN","Windom Park","2251 Hayes St NE","55418",45.01147699271594,-93.23726035683897
"55413","Minneapolis","MN","Gluek Park","2125-2199 Marshall St NE","55418",45.00875679679889,-93.27180244270592
"55413","Minneapolis","MN","Van Cleve Park","15th Ave SE","55414",44.98665611039464,-93.23182582855225
"55413","Minneapolis","MN","Edgewater Park","2326 Marshall St. NE","55418",45.01205825805664,-93.27238464355469
"55413","Minneapolis","MN","Northeast Athletic Fields","1615 Pierce St NE","55413",45.002892556922006,-93.24221134185791
"55413","Minneapolis","MN","Logan Park","690 13th Ave NE","55413",44.99932364812703,-93.25517777303332
"55413","Minneapolis","MN","Ridgeway Parkway Park","not_available","55413",45.00351367773964,-93.21822218966697
"55413","Minneapolis","MN","Bottineau Park","2000 2nd St NE","55418",45.007899130958386,-93.26791763305664
"55413","Minneapolis","MN","Dickman Park","636 2nd St N.E.","not_available",44.99764947900975,-93.26592408003924
"55413","Minneapolis","MN","Sheridan Memorial Park","Water St NE","55413",44.99958546069578,-93.27331635606687
"55413","Minneapolis","MN","Parking Lot Park","Broadway St. NE","55411",44.99888698264763,-93.26774597167969
"55414","Minneapolis","MN","Witch's Hat Water Tower","55 Malcolm Ave SE","55414",44.968948512512924,-93.214488040316
"55414","Minneapolis","MN","Bohemian Flats","1800 W River Parkway","not_available",44.97547608940461,-93.24131043289172
"55414","Minneapolis","MN","Luxton Park","122-152 Williams Ave SE","55414",44.968065782113065,-93.21889540656393
"55414","Minneapolis","MN","East River Flats Park","360 East River Road","55414",44.970458104425134,-93.23455981461699
"55414","Minneapolis","MN","Van Cleve swimming Pool","961-999 15th Ave SE","55414",44.98472282202033,-93.22896075532466
"55414","Minneapolis","MN","Mills Fleet Farm Skyway","not_available","55415",44.974709,-93.257629
"55415","Minneapolis","MN","The Commons","425 Portland Ave","55415",44.975561089382474,-93.2613730430603
"55415","Minneapolis","MN","The Yard","Portland Ave","not_available",44.97421662341865,-93.2616888497514
"55415","Minneapolis","MN","Conservation Minnesota","1101 W River Pkwy","55415",44.977142333984375,-93.25054931640625
"55416","Minneapolis","MN","Dean Parkway","Dean Parkway","55416",44.94829382077683,-93.31999352251484
"55416","Minneapolis","MN","Weber Park","Grimes Avenue South","55416",44.92578801222484,-93.33283721090925
"55416","Minneapolis","MN","Wolfe Park","3700 Monterey Dr","55416",44.93515268020181,-93.34166368277553
"55416","Minneapolis","MN","Bronx Park","2901 Jersey Avenue","55426",44.95248771757656,-93.36419381529788
"55416","Minneapolis","MN","Kojetin Park","not_available","55424",44.92060776281451,-93.33687732667795
"55416","Minneapolis","MN","Westend Pond","not_available","55416",44.966329590552235,-93.35377985397118
"55416","Minneapolis","MN","Minikahda Vista Park","Inglewood Ave S","55416",44.934287941037915,-93.33246458457369
"55416","Minneapolis","MN","Nelson Park","2500 Georgia Ave S","55426",44.95249929595075,-93.36419513860437
"55416","Minneapolis","MN","Roxbury Park","3155 Brunswick Ave S.","55426",44.947706797695716,-93.35825965898123
"55416","Minneapolis","MN","Dakota Park","2599 Dakota Ave S","55426",44.95249794071625,-93.36416720740814
"55416","Minneapolis","MN","Carpenter Park","3001 Raleigh Ave. S","55416",44.9465085011195,-93.34174704463823
"55416","Minneapolis","MN","Fishing Dock at Wolfe Park","Princeton Ave S","not_available",44.93482046929886,-93.34340572357178
"55416","Minneapolis","MN","Minne The Lake Creature","Minneapolis Lakes","not_available",44.945194742697716,-93.31989026045846
"55417","Minneapolis","MN","Lake Nokomis","4955 W Lake Nokomis Pkwy","55417",44.91517913360784,-93.22945075805639
"55417","Minneapolis","MN","Minnehaha Parkway Central","btwn 35W and Lake Nokomis","55407",44.91130150694236,-93.26257402935647
"55417","Minneapolis","MN","Morris Park","55th Street and 40th Avenue","55406",44.90345438413396,-93.2161912011396
"55417","Minneapolis","MN","Pearl Park","414 E Diamond Lake Rd","55419",44.904679011100015,-93.26727493744391
"55417","Minneapolis","MN","Taft Park","1800 E 63rd St","55423",44.8901711917272,-93.25048343293182
"55417","Minneapolis","MN","Bossen Field Park","5601 28th Ave. S","55417",44.89850652619729,-93.22992842847334
"55417","Minneapolis","MN","John H. Stevens House","4901 S. Minnehaha Park Drive","55417",44.913959442478664,-93.21013718361587
"55417","Minneapolis","MN","Todd Park","not_available","55417",44.900892781179984,-93.26415064338474
"55417","Minneapolis","MN","Lake Nokomis Lagoon","west nokomis parkway","55417",44.90324425136203,-93.2488876189979
"55417","Minneapolis","MN","Lake Nokomis Picnic Area","4900 Woodlawn Blvd.","55417",44.91374969482422,-93.23405456542969
"55417","Minneapolis","MN","Keewaydin Park","3030 E 53rd St","55417",44.90758430750633,-93.22855414880397
"55417","Minneapolis","MN","Edgewater Park","5400-5700 Edgewater Blvd","55417",44.903438626594074,-93.255504840501
"55417","Minneapolis","MN","de Hong Park","5316 Park Avenue South","55417",44.90643376819179,-93.26563889575874
"55418","Minneapolis","MN","Columbia Golf Course","3300 Central Ave NE","55418",45.02777578294668,-93.24916556813922
"55418","Minneapolis","MN","Columbia Park","800 Columbia Parkway","55418",45.03174262226205,-93.25203895568848
"55418","Minneapolis","MN","Deming Heights Park","St Anthony Pkwy","55418",45.02448104202494,-93.24263397121771
"55418","Minneapolis","MN","Audubon Park","1320 29th Ave NE","55418",45.02009524971571,-93.23989885744642
"55418","Minneapolis","MN","Cavell Playground","35th Ave NE and Fillmore Street NE","55418",45.03097122963626,-93.24073067767398
"55418","Minneapolis","MN","Marshall Terrace Park","Marshall St NE","55418",45.0178480551727,-93.27272312555183
"55418","Minneapolis","MN","Silver Point Park","Rozelle. D3","not_available",45.01991227643526,-93.21638602124527
"55418","Minneapolis","MN","Trillium Park","not_available","55418",45.01761,-93.21735
"55418","Minneapolis","MN","Waite Park","33rd Ave. Northeast","55418",45.02789436557272,-93.23288769700122
"55418","Minneapolis","MN","Hi-View Park","2nd St. NE and 35th Ave. NE","55418",45.0341780812636,-93.26730160526577
"55418","Minneapolis","MN","Arcitect Circle","3605 Architect Ave","55418",45.033963,-93.25014200000001
"55418","Minneapolis","MN","Water Tower Park","3503 Silver Lake Rd","not_available",45.02836843108376,-93.21609735488892
"55418","Minneapolis","MN","Waite Park Community Garden","1810 34th Ave NE","55418",45.02981948852539,-93.23410034179688
"55418","Minneapolis","MN","Jackson Square Park","2212 Jackson St. Northeast","55418",45.010329,-93.250038
"55418","Minneapolis","MN","Honeywell","2600 Ridgeway Pkwy","not_available",45.00319823833487,-93.22332671196617
"55418","Minneapolis","MN","Architect Triangles","36th Ave. NE & Architect Ave.","55418",45.03375684432004,-93.25010601651196
"55419","Minneapolis","MN","Minnehaha Parkway West","Dupont Ave S","55419",44.912238881103704,-93.29374311565445
"55419","Minneapolis","MN","Kenny Park","1328 W 58th St","55419",44.89861468413127,-93.29617524256899
"55419","Minneapolis","MN","Washburn Watertower","408-498 Prospect Ave","55419",44.91079982950733,-93.28385523379421
"55420","Minneapolis","MN","Bryant Park","1001 W 85th St.","55420",44.84920706004474,-93.29511398023465
"55420","Minneapolis","MN","Smith Park","8155 Park Ave. S","55420",44.85556458683911,-93.2623815536499
"55420","Minneapolis","MN","Maplewood Park","95th St.","55420",44.83128265,-93.27584138333333
"55420","Minneapolis","MN","Columbus Playlot","10030 Columbus Ave S","55420",44.820777893066406,-93.26496124267578
"55420","Minneapolis","MN","Bryant Tennis Court.","not_available","55420",44.849565947761356,-93.29136382964428
"55420","Minneapolis","MN","Bloomington Family Pool & Aquatic Center","201 E. 90th St.","55420",44.840168732861066,-93.27453497156824
"55420","Minneapolis","MN","Soens Playlot","E 102nd St","not_available",44.8195030759587,-93.27023506164551
"55420","Minneapolis","MN","Parker's Picnic Grounds","10401 Columbus Rd","55420",44.81317138671875,-93.26608276367188
"55421","Minneapolis","MN","Ramsdell Park","4950 Johnson St NE","55421",45.0583947360464,-93.23853177732606
"55421","Minneapolis","MN","Riverfront Regional Park","5100 East River Rd","55421",45.06149484650161,-93.28224228261827
"55421","Minneapolis","MN","McKenna Park","4701-4799 7th St NE","55421",45.05500017204157,-93.25701713562012
"55421","Minneapolis","MN","Plymouth Square Park","4800 2nd St NE","55421",45.056573152542114,-93.26698958873749
"55421","Minneapolis","MN","Oak Hill Park","5400 7th St NE","55421",45.06650161743164,-93.25814056396484
"55421","Minneapolis","MN","Huset Park","39th Avenue NE","55421",45.03927383763916,-93.25583012814091
"55421","Minneapolis","MN","Ostrander Park","40th Ave NE","55421",45.04066630900813,-93.2382962038317
"55422","Minneapolis","MN","Walter J. Sochacki Park","4237 36th Av N","55422",45.020121299497944,-93.33371268137806
"55422","Minneapolis","MN","Lee Park","3738 Lee Ave N","55422",45.0223540872595,-93.33615191826384
"55422","Minneapolis","MN","Lee Park - Crystal","4510 35th Ave N","55422",45.018966796653025,-93.33673543109508
"55422","Minneapolis","MN","Triangle Park","40th and Noble","55422",45.02786116939455,-93.33915592865205
"55422","Minneapolis","MN","Twin Lake Park","Twin Lake Ave. N.","not_available",45.040931545524174,-93.33804130554199
"55422","Minneapolis","MN","Lakeview Terrace Park","County 81","not_available",45.02146019679247,-93.32508087158203
"55422","Minneapolis","MN","Gearty Park","3101 Regent Ave N","55422",45.01245018219723,-93.34495067596436
"55422","Minneapolis","MN","Bassett Creek Park","Welcome Ave","not_available",45.01249569897579,-93.35294586095583
"55422","Minneapolis","MN","Norma Kelly Park","41st","55422",45.029609026938026,-93.35249782059685
"55422","Minneapolis","MN","Grazier Park","45th Ave N","55422",45.03782324653506,-93.34316968917847
"55422","Minneapolis","MN","Lions Park","Highway 100 and Bottineau Boulevard","55422",45.037292544466105,-93.33868503570557
"55422","Minneapolis","MN","Golden Oaks Park","not_available","55427",44.99984850893428,-93.3595588523532
"55422","Minneapolis","MN","Unnamed Park","Colorado Ave N","not_available",45.029581,-93.358381
"55422","Minneapolis","MN","Natchez Park","201 Natchez Ave N","not_available",44.9791925883161,-93.3424134252981
"55422","Minneapolis","MN","H. H. Humphrey Park","4545 Halifax Ave N","not_available",45.038326263427734,-93.33226776123047
"55423","Minneapolis","MN","Richfield Lake  Park","Mildred Dr & Emerson Ave","55423",44.884660540987824,-93.29320675634699
"55423","Minneapolis","MN","Adams Hill Park","72nd Street & Vincent Ave S","55423",44.869700709696254,-93.31623611394038
"55423","Minneapolis","MN","Sheridan Park","Sheridan & Upton","not_available",44.88611236961651,-93.31510616375716
"55423","Minneapolis","MN","Concierge Courtyard & Grill","7700 Penn Ave S","55423",44.86381573309641,-93.31032538505146
"55423","Minneapolis","MN","Madison Park","6244 Knox Ave S","55423",44.88909896601138,-93.302309372591
"55423","Minneapolis","MN","Augsburg Park","7100 Nicollet Ave","55423",44.87386819337311,-93.27953143355874
"55423","Minneapolis","MN","Fremont Park","7445 Fremont Ave S","55423",44.86671507560402,-93.29632745310924
"55423","Minneapolis","MN","Monroe Park","1636-1698 W 68th St","55423",44.88069067129212,-93.30065288529397
"55423","Minneapolis","MN","Heredia Field","not_available","55423",44.88107600125069,-93.26970469446363
"55423","Minneapolis","MN","Adventure Gardens","6335 Portland Ave","55423",44.88758850097656,-93.26737976074219
"55423","Minneapolis","MN","Roosevelt Park","7644 4th Ave S","55423",44.8644571963599,-93.26947024870724
"55423","Minneapolis","MN","Fairwood","1921-1999 W 67th St","55423",44.88279917925127,-93.30577490519299
"55423","Minneapolis","MN","Washington Park","Washington Park","55423",44.86586248913466,-93.25015505934708
"55423","Minneapolis","MN","Lincoln Park","7500 Pleasant Avenue","55423",44.86685799616564,-93.2855011156976
"55423","Minneapolis","MN","Garfield Park","6301 Harriet Ave","55423",44.88862991333008,-93.28540802001953
"55423","Minneapolis","MN","richfield Veterans park","66th Park Ave S","not_available",44.88458436522874,-93.26378227107283
"55424","Minneapolis","MN","Frank Tupa Park","4918 Eden Ave","55424",44.910741,-93.349928
"55424","Minneapolis","MN","Utley Park","4501 W 50th St","55424",44.911815811902414,-93.34040432916078
"55424","Minneapolis","MN","Sayles Front Yard","5525 Concord Ave","55424",44.902408599853516,-93.34392547607422
"55425","Minneapolis","MN","Running Park","9501 12th Ave. S","55425",44.832303551828154,-93.25763331887296
"55425","Minneapolis","MN","Kids Fish Day - Minnesota Valley NWR","8801 24th Ave S","55425",44.84536258333333,-93.2307798
"55425","Minneapolis","MN","Cook's Playlot","8308 14th Avenue South","not_available",44.852988474899924,-93.25471572930607
"55425","Minneapolis","MN","Eight Crest Playlot","8836 18th Avenue South","55425",44.8433952331543,-93.25040435791016
"55426","Minneapolis","MN","Aquila Park","3110 Xylon Ave. S","55426",44.944090319976674,-93.38743171907845
"55426","Minneapolis","MN","Brookview Park","200 Brookview Pkwy","55426",44.98022486665358,-93.38117781922294
"55426","Minneapolis","MN","Westwood Hills Nature Center","8300 W Franklin Ave","55426",44.96587259266056,-93.38701469925044
"55426","Minneapolis","MN","Creekside Park","Minnehaha Creek","55416",44.9309578418639,-93.37273957532159
"55426","Minneapolis","MN","Park Assembly of God","1615 Texas Ave S","55426",44.96650695800781,-93.3789291381836
"55426","Minneapolis","MN","Red White & Blue grass","Winnetka Ave","55411",44.97965146004221,-93.38211082344293
"55426","Minneapolis","MN","Western Avenue Marsh","7600 Western Ave","not_available",44.97871780395508,-93.37786865234375
"55426","Minneapolis","MN","Oregon Park","Pennsylvania Ave","55426",44.94845858721129,-93.37580639807135
"55426","Minneapolis","MN","Louisiana Oaks Park","3400 Louisiana Ave S","55426",44.9421720149442,-93.37198734283447
"55426","Minneapolis","MN","Gym at Louisianna Oaks","7201 Walker St","55426",44.939098232086465,-93.37069032977737
"55427","Minneapolis","MN","Hidden Valley Park","Boone Ave","55427",45.01513216331293,-93.39320509783167
"55427","Minneapolis","MN","Northwood Park","3751 Boone Ave N","55427",45.02455692300221,-93.39031487921986
"55427","Minneapolis","MN","Medley Hills Park","Ensign Ave N","55427",45.005193091073274,-93.3980834049034
"55427","Minneapolis","MN","Corner 2","Enaign","55427",45.02197904072608,-93.39221904213937
"55427","Minneapolis","MN","Hagemeister Pond Preserve","41st Ave N","not_available",45.03087681764942,-93.36225801874787
"55427","Minneapolis","MN","Lions Park","39th Ave N","55427",45.02711051711864,-93.37232231230658
"55427","Minneapolis","MN","Brookview Recreational Area","Hwy 55","55422",44.98017747646265,-93.3811398291675
"55427","Minneapolis","MN","New Hope Lions Park","7386 39th Ave N","55427",45.02763881692071,-93.37421100548906
"55427","Minneapolis","MN","Brookview Nature Area","9145 Minnesota 55","55427",44.982399707893,-93.39560995890146
"55427","Minneapolis","MN","Yunkers Park","8501-8699 31st Ave N","55427",45.01208117900041,-93.38946367750708
"55428","Minneapolis","MN","Willow Lane Park","69th Ave N","not_available",45.08905611660687,-93.37490129489038
"55428","Minneapolis","MN","Civic Center Park","4401 Xylon Ave N","55428",45.035816,-93.38579200000001
"55428","Minneapolis","MN","Victory Park","E Research Center Rd","55428",45.05446908984945,-93.39394986290799
"55428","Minneapolis","MN","Sunny Lane Park","63rd Ave N","55428",45.06804454988016,-93.38134422891704
"55428","Minneapolis","MN","Hartkopf Park","7300 Florida Ave","not_available",45.08783261236556,-93.36389116528476
"55428","Minneapolis","MN","Lions Park","62nd Ave N","55428",45.064973459352615,-93.36924076080322
"55428","Minneapolis","MN","Begin Park","5436 Xylon Avenue","55428",45.05108139500606,-93.38667608139858
"55428","Minneapolis","MN","Skyway Park","6100-6112 Florida Ave N","55428",45.06457544332596,-93.36220557837221
"55428","Minneapolis","MN","Jolly Park","not_available","55443",45.09250402450431,-93.35894107818332
"55428","Minneapolis","MN","Liberty Park","60th Ave N","55428",45.06188069949039,-93.39583776901651
"55428","Minneapolis","MN","Dorothy Mary Park","Virginia Ave N","55428",45.06437935479841,-93.38396072387695
"55428","Minneapolis","MN","Little Acre Park","not_available","55428",45.04638687515058,-93.38833592644887
"55428","Minneapolis","MN","Bass Creek Park","6665 Boone Ave","not_available",45.07522683841432,-93.39358545448209
"55428","Minneapolis","MN","Cherry Meadows Park","Xylon Ave N","55428",45.07176516315372,-93.3863336289639
"55428","Minneapolis","MN","Lakeland Park","6901 66th Ave","not_available",45.07420275737215,-93.36931100492782
"55428","Minneapolis","MN","North Lions Park","61st & Kentucky Ave. N.","not_available",45.063654902625096,-93.37003469467163
"55428","Minneapolis","MN","Elm Grove Park","55th Ave N","55428",45.053241782959496,-93.37554931640625
"55428","Minneapolis","MN","Strifel/Iris Park","7708 Iris Drive","55428",45.076126929239194,-93.37898254394531
"55428","Minneapolis","MN","Crystal Yard Games League","not_available","55429",45.0537996556553,-93.35963656366451
"55429","Minneapolis","MN","Unnamed Neighborhood Park","51st Ave N","not_available",45.04584382983406,-93.34439277648926
"55429","Minneapolis","MN","Lakeside Park","E Twin Lake Blvd","not_available",45.04984612000177,-93.3326768875122
"55429","Minneapolis","MN","Palmer Lake Baseball Fields","Palmer Lake Blvd","55443",45.0853268023194,-93.3236647384672
"55429","Minneapolis","MN","Bob Cahlandar Park","65 Th Ave","not_available",45.07294516551391,-93.33958439510104
"55430","Minneapolis","MN","Bellvue Park","801 55th Ave N","55430",45.056877099648105,-93.29368837276827
"55430","Minneapolis","MN","Bohanon Park","898-998 49th Ave N","55430",45.044346,-93.29237
"55430","Minneapolis","MN","Brooklyn Center Community Center","6301 Shingle Creek Pkwy","55430",45.06901190414781,-93.30936387312562
"55430","Minneapolis","MN","Lions Park","54th Ave. N","55430",45.052908289275614,-93.3133864402771
"55430","Minneapolis","MN","Centennial Park","not_available","55430",45.07132643043456,-93.31751112561844
"55430","Minneapolis","MN","Shingle Creek Park","2010 50th Ave. N","not_available",45.05021191156219,-93.30406112339433
"55430","Minneapolis","MN","Firehouse Park","65th Street","not_available",45.07348550936525,-93.2941435213194
"55430","Minneapolis","MN","Creekview Park","5001 Humboldt Ave N","55430",45.045834,-93.301384
"55431","Minneapolis","MN","Anderson Park","2256 Overlook Dr","55431",44.802323,-93.307974
"55431","Minneapolis","MN","Westwood Park","3490 109th St W","55431",44.80738745806932,-93.32474872937837
"55431","Minneapolis","MN","Skriebakken Park","not_available","55437",44.844511,-93.33306
"55431","Minneapolis","MN","Haeg Park","2001-2299 W 83rd St","55431",44.85354838255291,-93.30818371737372
"55431","Minneapolis","MN","Tretbaugh Park","3611 W 90th St. E","not_available",44.841321861235244,-93.325707694463
"55432","Minneapolis","MN","Fridley Community Park","7106-7184 University Service Rd NE","55432",45.09566003380549,-93.26516948234475
"55432","Minneapolis","MN","Edgewater Gardens Park","not_available","55432",45.088439112578406,-93.27088413010875
"55432","Minneapolis","MN","Jay Park","6550 2nd St NE","55432",45.08991988584203,-93.26961125902952
"55432","Minneapolis","MN","Manomin Park","181 Hartman Cir NE","55432",45.091139,-93.278143
"55432","Minneapolis","MN","Locke County Park","840 71st Ave NE","not_available",45.09272754231739,-93.24921796217164
"55432","Minneapolis","MN","Commons Park","Commons Park","55421",45.08079376792025,-93.25504302978516
"55432","Minneapolis","MN","Moore Lake Park","County Hiway 35","55432",45.075501334229855,-93.24234934985063
"55432","Minneapolis","MN","River Park","83rd Ave N","55444",45.104450528426774,-93.28184273706297
"55432","Minneapolis","MN","Briardale Park","6171 Rice Creek Dr.","55432",45.07937047601944,-93.23137838851747
"55432","Minneapolis","MN","Westwood Park","8416 Westwood Road","not_available",45.1073112487793,-93.2928237915039
"55432","Minneapolis","MN","Sanburnol Park","Sanburnol Drive","not_available",45.12400840334004,-93.25745864290616
"55432","Minneapolis","MN","Craig Park, Fridley, MN","410 79th Way NE","55432",45.11040911208277,-93.2808953088824
"55432","Minneapolis","MN","Skyline Park","2nd St","55432",45.074993,-93.26732
"55432","Minneapolis","MN","Able Park","8200 Able St. NE","55432",45.11732864379883,-93.24974060058594
"55433","Minneapolis","MN","Coon Rapids Dam Regional Park","9750 Egret Blvd NW","55433",45.14602926523635,-93.3090254927408
"55433","Minneapolis","MN","Lions Coon Creek Park","120th and Hanson Blvd","55448",45.18601871046638,-93.31013418424423
"55433","Minneapolis","MN","Willowstone Park","1909 95th Av","55433",45.126318,-93.305654
"55433","Minneapolis","MN","Pinebrook Park","9432 Fallgold Pkwy N","55443",45.127588709820145,-93.32906286830254
"55433","Minneapolis","MN","River Commons Park","679 Main Street","55330",45.18240261,-93.30868539
"55433","Minneapolis","MN","Rockslide Park","11100-11198 Swallow St NW","55433",45.17392709436866,-93.32000253461696
"55433","Minneapolis","MN","Royal Oaks Park","not_available","55444",45.12738,-93.319599
"55433","Minneapolis","MN","Earlandson Park","11085 Avocet St NW","55433",45.17131423950195,-93.299560546875
"55433","Minneapolis","MN","Moore PArk","600 112th Ave NW Coon Rapids‎ Minnesota‎ 55448 United States","not_available",45.194853,-93.290641
"55433","Minneapolis","MN","Thorpe Park","Crooked lk blvd","55433",45.192379879399525,-93.33702868668126
"55434","Minneapolis","MN","Jefferson Park","Jefferson St","not_available",45.202899994986346,-93.25371758932292
"55434","Minneapolis","MN","Laddie Lake Park","1051 87th Ave NE","55434",45.12862014770508,-93.2432632446289
"55434","Minneapolis","MN","Sandpiper Park","1014-1098 96th Ave NE","55434",45.14491467142269,-93.23430299517423
"55434","Minneapolis","MN","Little League Park","113th Ave NE","55434",45.17538328400147,-93.25161066772695
"55435","Minneapolis","MN","Centennial Lakes Park","7499 France Ave S","55435",44.8667519919871,-93.32630275399723
"55435","Minneapolis","MN","Rosland Park","4220-4300 W 66th St","55435",44.884769610675626,-93.33627722031909
"55435","Minneapolis","MN","Arneson Acres Park","4711 W 70th St","55435",44.876220703125,-93.3443374633789
"55435","Minneapolis","MN","Lake Cornelia park","66th and valleview road","not_available",44.88493370828653,-93.33672975886194
"55435","Minneapolis","MN","Edinborough Park","7700 York Ave S","55435",44.86260977831105,-93.32206959760352
"55435","Minneapolis","MN","Lake Edina Park","4199-4361 Parklawn Ave","55435",44.86759660351973,-93.33665597511988
"55435","Minneapolis","MN","Kenneth Rosland Park","4701 W 64th St","55435",44.88474424645016,-93.33535739936968
"55436","Minneapolis","MN","Garden Park","5520 Hansen Rd","55436",44.9013924899536,-93.36203098297119
"55436","Minneapolis","MN","Normandale Park","not_available","55439",44.887521929022334,-93.357669134022
"55436","Minneapolis","MN","Sherwood Park","5314 Sherwood Road","55436",44.907143495019845,-93.35802344814847
"55437","Minneapolis","MN","Normandale Lake Park","W. 84th St.","55438",44.85291031197709,-93.35930293703392
"55437","Minneapolis","MN","poplar bridge playground","4600 West 85th Street","55437",44.84938049316406,-93.33970642089844
"55437","Minneapolis","MN","Normandale Lake Boat Launch","Chalet Rd","55437",44.85152353555588,-93.36296508999573
"55437","Minneapolis","MN","Ridgeview Park","9400-9598 Nesbitt Ave S","55437",44.83167305645606,-93.3603216307794
"55437","Minneapolis","MN","Feldmann Imports","4901 American Blvd W","55437",44.857571,-93.34376999999999
"55437","Minneapolis","MN","Tarnhill Park","9628-9636 Little Rd","55437",44.82417421026008,-93.33861866032832
"55438","Minneapolis","MN","Hyland Lake Park Reserve","10145 Bush Lake Rd","55438",44.82425170405672,-93.3731460571289
"55438","Minneapolis","MN","Bush Lake Beach","9140 E Bush Lake Rd","55438",44.83737573650715,-93.37926234003362
"55438","Minneapolis","MN","West Bush Lake Park","8732 W Bush Lake Rd","55438",44.83171855424699,-93.38248711946306
"55438","Minneapolis","MN","West Bush Lake Shelter 1","West Bush Lake Park","55438",44.83359079792725,-93.38435315673014
"55438","Minneapolis","MN","Countryside Park","10240 Bloomington Ferry Road","55436",44.81730270385742,-93.38583374023438
"55438","Minneapolis","MN","Sunrise Park","9401 Bloomington Ferry Rd","55438",44.83206558227539,-93.39226531982422
"55438","Minneapolis","MN","Bush Lake Park Shelter 3","Bush Lake Park","55435",44.837430472735015,-93.37651036662399
"55438","Minneapolis","MN","Sunnyside Picnic Shelter","In Hyland Lake Park Reserve","55438",44.82384839026702,-93.37475538253784
"55439","Minneapolis","MN","Lewis Park","Cahill Ross","55435",44.87055957166635,-93.3642784960141
"55441","Minneapolis","MN","Clifton E. French Regional Park","12605 Rockford Rd","55441",45.021213788126985,-93.43417948130842
"55441","Minneapolis","MN","Plymouth Community Playfield","1011 30th Ave N","55441",45.01390198632647,-93.4045537729509
"55441","Minneapolis","MN","Field Operations Center","12615 Rockford Rd","55441",45.02499008178711,-93.4373779296875
"55441","Minneapolis","MN","minnetonka regional park","not_available","55441",45.00700759887695,-93.43802642822266
"55441","Minneapolis","MN","Plymouth Community Playfield","10111 36th Ave N","55441",45.020763120191276,-93.40347035811261
"55442","Minneapolis","MN","Zachary Playfield","4355 Zachary Ln N","55442",45.0355639378879,-93.42327117919922
"55442","Minneapolis","MN","Timber Shores","not_available","55442",45.05150697538071,-93.42260062313332
"55443","Minneapolis","MN","Hamilton Park","6101 Candlewood Drive","not_available",45.10200186708772,-93.35814714431763
"55443","Minneapolis","MN","Old Town Hall Square","Brooklyn Blvd & Zane Ave N","55443",45.094296,-93.35561
"55443","Minneapolis","MN","John C Bohannon Park","4900 Dupont Ave N","55430",45.1286,-93.3565
"55443","Minneapolis","MN","Lad Park","8001 Lad Parkway","not_available",45.10269713605051,-93.32941159875246
"55443","Minneapolis","MN","Oak Grove Park","103rd Ave. N","55443",45.141777515407995,-93.36049034722697
"55443","Minneapolis","MN","Village Creek Park","5601 Village Creek Parkway","not_available",45.09165047855024,-93.35410907549861
"55443","Minneapolis","MN","Queen Park","8245 Queen Ave","not_available",45.10617261035881,-93.31139755260863
"55443","Minneapolis","MN","Norwood Park","8100 Newton Ave","not_available",45.10307103326799,-93.30733816833717
"55443","Minneapolis","MN","Brookdale Park","7650 June Ave","55429",45.09419877708463,-93.33168779654828
"55443","Minneapolis","MN","Founders Park","9701 Noble Ave N","not_available",45.13535819289476,-93.3386957215602
"55443","Minneapolis","MN","Cottonwood Park","3640 84th Avenue","not_available",45.10468661785126,-93.32704424858093
"55444","Minneapolis","MN","Emerson Woods Park","8321 Emerson Avenue","not_available",45.106926,-93.29689
"55445","Minneapolis","MN","Osseo Central Park","400-498 Central Ave","55369",45.12062966823578,-93.40174376964569
"55445","Minneapolis","MN","College Park","not_available","55445",45.103718,-93.3777
"55445","Minneapolis","MN","Greenhaven Park","7880 Mount Curve Blvd","not_available",45.098358154296875,-93.39167785644531
"55445","Minneapolis","MN","Northwoods Baseball Park","7603-7721 109th Ave N","55445",45.15073383394171,-93.37703694335396
"55446","Minneapolis","MN","Crooked Creek Park","4255 Walnut Grove Ln","55446",45.032888,-93.517439
"55446","Minneapolis","MN","Turtle Lake Park","not_available","55446",45.03734483204846,-93.46913585273487
"55446","Minneapolis","MN","Holiday Stationstores","8331 Normandale Blvd","55437",45.05042218416749,-93.45386981964111
"55446","Minneapolis","MN","The Five Parks","Fountain Ln N","55446",45.03228306770325,-93.48562717437744
"55447","Minneapolis","MN","Shenandoah Park","2205 Shenandoah Ln N","55447",45.00293731689453,-93.47843933105469
"55448","Minneapolis","MN","Prairie Oaks Park","Drake St NW","55448",45.201533886259156,-93.30299471154463
"55448","Minneapolis","MN","Burl Oaks Park","12073 Evergreen St NW","55448",45.189607,-93.271467
"55449","Minneapolis","MN","Town Square Park","not_available","55449",45.16600290675706,-93.20940741480217
"55449","Minneapolis","MN","Trees Edge Park","1731 113th Ln NE","55449",45.17707443237305,-93.2269058227539
"55449","Minneapolis","MN","Mary Elizabeth Park","8529-8699 Davenport St NE","55449",45.12753114348599,-93.2300829157185
"55449","Minneapolis","MN","Ardan Park","8271-8273 Long Lake Rd","55112",45.1194013,-93.20840535
"55449","Minneapolis","MN","Kane Meadows Park","Rice Creek Pkwy","55449",45.12549863978002,-93.20507666041392
"55454","Minneapolis","MN","UofM WEST BANK Complex","1901-1949 S 2nd St","55454",44.97448887426367,-93.24469248410755
"55454","Minneapolis","MN","Lower Riverside Park","2901 W River Pkwy","55454",44.96675622448817,-93.2287211176699
"55454","Minneapolis","MN","East River Parkway","E River Pkwy","not_available",44.97456509372161,-93.22724544416926
"55454","Minneapolis","MN","Bluff Street Park","20th Ave S","55454",44.97623026371002,-93.243876
"55604","Grand Marais","MN","Pincushion Mountain","not_available","55604",47.77081389131707,-90.3168878877789
"55605","Grand Portage","MN","way","not_available","55605",47.9872,-89.652189
"55616","Two Harbors","MN","Lakeview Picnic Shelter","not_available","55616",47.14159547483059,-91.45724778963468
"55616","Two Harbors","MN","Two Harbors Iron Ore Docks Park","Waterfront Dr","55616",47.01763654030329,-91.67103129859963
"55616","Two Harbors","MN","Seagog Park","18th street","55616",47.02479,-91.689753
"55705","Aurora","MN","Pine Grove Park","Hwy 110","55705",47.528314,-92.246482
"55706","Babbitt","MN","Central Boulevard Park","Babbitt,MN,55706","55706",47.7085278,-91.9446025
"55707","Barnum","MN","Moose Lake Park","not_available","55767",46.45284833271592,-92.75714817500553
"55707","Barnum","MN","Barnum City Park","not_available","55707",46.503030560200564,-92.69064575741247
"55709","Bovey","MN","Veteran's Memorial Park","SE 7th Ave","55744",47.23028209547671,-93.51440826768007
"55709","Bovey","MN","Gunn Park Pavillion","4680 MN Highway 38","55744",47.293890811332815,-93.53336520656867
"55709","Bovey","MN","Blandin Beach","NW 10th Ave","55744",47.237734,-93.544213
"55709","Bovey","MN","Willow Park","1121 SE 4th Ave","55744",47.21931076049805,-93.5238265991211
"55709","Bovey","MN","Longyear Park","Cole St","55722",47.28679575791453,-93.42710257577576
"55709","Bovey","MN","Gunn Park","4680 Highway 38","55744",47.293534396459975,-93.53100777247398
"55709","Bovey","MN","Legion Memorial Park","1419 NW 3rd Ave","55744",47.248602,-93.536149
"55709","Bovey","MN","Clubhouse Campground","not_available","56657",47.6096632,-93.5771412
"55709","Bovey","MN","Murphy Sledding Hill","not_available","55744",47.239738,-93.522595
"55709","Bovey","MN","Oakland Park","1101 SE 4th St","55744",47.228208,-93.512004
"55709","Bovey","MN","Lost Creek Park","827 NW 4th Ave","55744",47.240749,-93.534142
"55709","Bovey","MN","Riverview Park","300 SE 4th St","55744",47.22791290283203,-93.52293395996094
"55709","Bovey","MN","Cotton Park","10 Roosevelt Ave.","55722",47.288152703956285,-93.41973361730055
"55709","Bovey","MN","McGowan Park","1303 SW 1st Ave","55744",47.217094,-93.530803
"55710","Britt","MN","Olcott Park","Olcott Park","55792",47.52869377264896,-92.54895513830701
"55710","Britt","MN","Locamotive Park","Locomotive Street","55768",47.533991,-92.62213
"55710","Britt","MN","Rotary Park","601-899 4th St N","55792",47.53231145871455,-92.54191475207904
"55710","Britt","MN","Music In The Park","not_available","55792",47.528591,-92.550077
"55710","Britt","MN","Mt. Iron Recreation Complex","County Highway 103","55768",47.50897293538291,-92.61009291094756
"55712","Bruno","MN","Jackie Berger Memorial Park","not_available","55756",46.3728933656613,-92.55528159735158
"55718","Carlton","MN","Northern Pacific Junction","not_available","55718",46.662859,-92.42354
"55719","Chisholm","MN","Long Year Lake Park","not_available","55719",47.495482,-92.87556
"55719","Chisholm","MN","Kiwanis Park","E. Lake St. and N.Central Ave.","55719",47.48885531844718,-92.87745405673881
"55720","Cloquet","MN","Veterans Park","not_available","55720",46.72316921421471,-92.46026340144923
"55720","Cloquet","MN","Munger Volleyball Court","Munger","not_available",46.802933,-92.345442
"55720","Cloquet","MN","Northridge Park","31-49 Belmar Ln","55733",46.7123544216156,-92.36626625061035
"55720","Cloquet","MN","Little Peoples Park","Carlton Ave","55720",46.71791,-92.47681
"55721","Cohasset","MN","Knudson Memorial Park","not_available","55721",47.16070556640625,-93.65029907226562
"55723","Cook","MN","French Township","not_available","55781",47.665859,-93.012281
"55731","Ely","MN","Whiteside Park","not_available","55731",47.902485262525005,-91.85649712214766
"55731","Ely","MN","Semer Park","641-699 Shagawa Rd N","55731",47.90549743918923,-91.87926292419434
"55734","Eveleth","MN","Iron Range Off-Highway Vehicle Rec. Area","7196 Pettit Rd","55734",47.481103,-92.440495
"55734","Eveleth","MN","Gazebo","Broadway st.","55741",47.486556,-92.467601
"55734","Eveleth","MN","Eveleth Veterans Park","not_available","55734",47.438349,-92.50536899999999
"55736","Floodwood","MN","Public Boat Landing","not_available","55736",46.929163,-92.917229
"55744","Grand Rapids","MN","Knudson Memorial Park","Splithand Rd","55744",47.075774,-93.439036
"55746","Hibbing","MN","Bennett Park","not_available","55746",47.43335615793168,-92.93828483714249
"55746","Hibbing","MN","O'Brien Recreation Area","US Hwy 169","55753",47.38103671288685,-93.13172172946281
"55746","Hibbing","MN","Keewatin City Park","W 3rd Ave","55753",47.399591073910585,-93.07809091778364
"55746","Hibbing","MN","Vic Power Park","25 25th Street","55746",47.421353841149745,-92.90611677837735
"55748","Hill City","MN","Don Beerbower Veteran's Memorial Park","US Hwy 169","55748",46.990425,-93.600285
"55748","Hill City","MN","Hill City Park & Campground","300 Park Ave.","not_available",46.99336624145508,-93.5922622680664
"55752","Jacobson","MN","Jacobson Landing and Recreational Area","Hwy 65","55752",47.002261106513195,-93.26946667589827
"55795","Willow River","MN","Willow River City Park ""At the Dam""","not_available","55795",46.32374712619394,-92.83785874386848
"55795","Willow River","MN","General Andrews State Forest","State Forest Campground Rds","55795",46.30552531649839,-92.82569332829695
"55802","Duluth","MN","Canal Park","590 Canal Park Dr","55802",46.78104267613101,-92.09384244457091
"55802","Duluth","MN","Park Point Beach","5000 Minnesota Ave","55802",46.73066109433933,-92.05127825403461
"55802","Duluth","MN","Leif Erickson Park","London Rd","55805",46.79662472413327,-92.08273685388755
"55802","Duluth","MN","Bayfront Festival Park","Bayfront Festival Park","55802",46.77890998210994,-92.10223158217046
"55802","Duluth","MN","Bayfront Art Fair","not_available","55802",46.780108,-92.100694
"55802","Duluth","MN","Lake Place Park","Superior Street","55802",46.787815902526326,-92.09624289245595
"55802","Duluth","MN","Broadway Community Gardens","not_available","54880",46.72630070286034,-92.09825992584229
"55802","Duluth","MN","Kelly Park","711 Grand Ave","54880",46.72990036010742,-92.09371185302734
"55802","Duluth","MN","Hammond Park","Hammond ave","54880",46.715863780248554,-92.09715211248172
"55802","Duluth","MN","Benny Peterson Park","1107 Hughitt Ave","54880",46.72534,-92.09957204
"55803","Duluth","MN","Kitchi Gammi Park","6000-6898 Brighton Beach Rd","55804",46.842108372209196,-91.99442156547687
"55803","Duluth","MN","Congdon Park","Superior Street","55812",46.818579263999546,-92.05951531081973
"55803","Duluth","MN","Washington Square","Superior Street","not_available",46.82673280808768,-92.03716656953739
"55803","Duluth","MN","Martin Road Trailhead–Superior Hiking Trail","3801 Martin Rd","55803",46.866390228271484,-92.07994079589844
"55803","Duluth","MN","Portman Park","4601-4699 McCulloch St","55804",46.830080789051145,-92.03068144984336
"55803","Duluth","MN","Kelso Park","45th Avenue East","not_available",46.82618442507438,-92.03283548355103
"55803","Duluth","MN","Lakeside Court Park","London Road","not_available",46.834155963015476,-92.0159912109375
"55803","Duluth","MN","Downer Park","Vermilion Road","not_available",46.84952315990639,-92.06686735153198
"55803","Duluth","MN","Morley Heights Park","Morley Parkway","not_available",46.835155719583355,-92.06181473350023
"55803","Duluth","MN","Rose Park","Livingston Avenue","not_available",46.83791283457385,-92.06173083207305
"55803","Duluth","MN","Manchester Square","46th Avenue East","not_available",46.836211048123694,-92.0295524597168
"55803","Duluth","MN","Waverly Park","Snively Road","not_available",46.829986834659714,-92.06242561340332
"55803","Duluth","MN","Janet Pollay Park","Jean Duluth Road","not_available",46.86287598800891,-92.04786658287048
"55803","Duluth","MN","Lismore Road Trail Head–Superior Hiking Trail","not_available","55803",46.937879,-92.061688
"55803","Duluth","MN","Russell Square","42nd Avenue East","not_available",46.833260508493474,-92.03697681427002
"55803","Duluth","MN","Grosvenor Square","Pitt St","not_available",46.83251183834276,-92.02388763427734
"55803","Duluth","MN","Rice Lake Park","Stockholm RD","55803",46.87112,-92.11814
"55803","Duluth","MN","Gnesen Totem","6545 Church Road","55803",46.9860857190416,-92.13196770129595
"55803","Duluth","MN","University Park","London Rd","not_available",46.83662939510704,-92.0081752538681
"55803","Duluth","MN","Shu-Shine Tennis Club","6580 Church Road","55803",46.98585022067117,-92.13184152127732
"55804","Duluth","MN","Congdon Park","not_available","55812",46.81281132182659,-92.05976534654427
"55805","Duluth","MN","Chester Park","Chester Park Dr.","not_available",46.80999694137891,-92.09133838587094
"55805","Duluth","MN","Chester Bowl","1802 Skyline Drive","not_available",46.81309167299235,-92.09439379247867
"55805","Duluth","MN","Le Школьный Двор","not_available","55811",46.802868,-92.111928
"55806","Duluth","MN","Enger Park","Enger Tower Drive","55807",46.775732485957214,-92.12425964992731
"55806","Duluth","MN","Lincoln Park","W 25th St","55806",46.76814816834502,-92.1363559763292
"55806","Duluth","MN","Lincoln Park Picnic Area","not_available","55806",46.76532219677274,-92.13543239237431
"55807","Duluth","MN","Norton Park","81st Ave W","not_available",46.72113027836399,-92.19896078109741
"55807","Duluth","MN","Billings Park","Billings 1st Point Rd","54880",46.71343096389562,-92.13941832037972
"55807","Duluth","MN","Memorial Park","5315 Grand Ave","55807",46.74211120605469,-92.16525268554688
"55807","Duluth","MN","Fairnont Park","not_available","55807",46.72680412681265,-92.19083200810232
"55807","Duluth","MN","Klang Park","9211-9299 Orchard St","55810",46.74393954954404,-92.21729952080553
"55807","Duluth","MN","Irving Playfield","Irving Playfield","55807",46.73299546679577,-92.16777819607462
"55808","Duluth","MN","Mont du Lac","3125 South Mont Du Lac Road","54880",46.652021,-92.28433000000001
"55808","Duluth","MN","Morgan park hockey rink","not_available","55808",46.68757455632741,-92.2085382764809
"55808","Duluth","MN","Magney-Snively Natural Area","Skyline Parkway","55807",46.70210207951137,-92.22685736154814
"55901","Rochester","MN","IRG Park","not_available","55901",44.05546905204204,-92.49716684025245
"55901","Rochester","MN","Watson Field Complex","1000 Essex Parkway NW","55901",44.06677148006476,-92.47737999976039
"55901","Rochester","MN","Kutzky Park","1100-1198 3rd St NW","55901",44.02638537243453,-92.48407130191973
"55901","Rochester","MN","FROGGY PARK","31st St and 41st Street","55901",44.06799448333334,-92.50984753333333
"55901","Rochester","MN","Allendale Park","Allendale Park Ln NW","55901",44.05528217468748,-92.48920649937612
"55901","Rochester","MN","White Oaks Park (Blue Playground)","4597 55th St. NW","55901",44.08026123046875,-92.53272247314453
"55901","Rochester","MN","Saint Marys Park","4th St. SW","55902",44.02036738333334,-92.4779873
"55901","Rochester","MN","Indian Heights Park","1800 Terracewood Dr. NW","55901",44.040855407714844,-92.47262573242188
"55901","Rochester","MN","Feith Family Statuary Park - Mayo Clinic","1st St SW","55905",44.020802052323006,-92.46529463782447
"55901","Rochester","MN","Graham Arena","not_available","55902",44.02074424360835,-92.46512560050095
"55901","Rochester","MN","Crescent Park","2780 15th Ave NW","55901",44.052879333496094,-92.485107421875
"55901","Rochester","MN","Elton Hills Run Park","30th Street","55901",44.05615682190547,-92.47592108673194
"55901","Rochester","MN","River West Park","West River Parkway","55901",44.05307170073992,-92.46624125830796
"55901","Rochester","MN","Schmidt Park","6300 24th Ave NW","55901",44.09014768584381,-92.49839443553468
"55901","Rochester","MN","Broadway -63","not_available","55906",44.02174651487988,-92.46304890690487
"55902","Rochester","MN","Baihly Meadows Park","1914 Fox Valley DR SW","55902",44.00588607788086,-92.4920654296875
"55902","Rochester","MN","Zumbro South Park","1400 5th Ave SW","55902",44.00484085083008,-92.47147369384766
"55902","Rochester","MN","Meadow Lakes Villas","Berkshire Rd SW","55902",44.0163824641854,-92.51930236816406
"55902","Rochester","MN","Willow Creek Reservoir Park","1400 Lone Pine Drive SW","55902",43.939763936827056,-92.48848915100098
"55902","Rochester","MN","Elmcroft Park","505 Elmview Place SW","55902",43.98395538330078,-92.47075653076172
"55904","Rochester","MN","Slatterly Park","950 11th Ave SE","55904",44.011908,-92.448623
"55904","Rochester","MN","Quarry Hill Nature Center","701 Silver Creek Rd NE","55906",44.02992266883071,-92.43026171801793
"55904","Rochester","MN","Quarry Hill Park","9th street","not_available",44.03111825034425,-92.43857513506887
"55904","Rochester","MN","East Park","4th St. SW","not_available",44.0242444284831,-92.44124476635102
"55904","Rochester","MN","Bear Creek Park","1301 County Highway 1","55904",44.00574948659265,-92.44656085968018
"55904","Rochester","MN","Gamehaven Lake Park","not_available","55904",43.956438,-92.438383
"55904","Rochester","MN","Graham Arena","300 16th St SE","55904",44.000934213891284,-92.45966052916285
"55904","Rochester","MN","Root River Park","4012 80th St SE","55904",43.905845642089844,-92.39636993408203
"55904","Rochester","MN","Jean & Carl Frank Canine Park","Pinewood Rd. SE","55904",43.990219772222545,-92.43946810934715
"55904","Rochester","MN","Silver Lake Boat and Bike Rentals","800 West Silver Lake Drive NE","55906",44.031892522892186,-92.4585094844458
"55904","Rochester","MN","Dr. Martin Luther King Jr. Park","1738 E Center St","55904",44.022621,-92.440255
"55906","Rochester","MN","Parkwood Hills Park","2198 Parkwood Hills Dr NE","55906",44.04082463965461,-92.43532195939197
"55906","Rochester","MN","Northern Heights Park","900 22nd St. NE","55906",44.0475605061751,-92.44467258453369
"55906","Rochester","MN","Foster Arend Park","37th St NW","not_available",44.06351682284859,-92.46066323969397
"55912","Austin","MN","Orchard Creek Park","not_available","55912",43.652916,-93.00994
"55912","Austin","MN","Galloway Park","2nd Ave SW","55912",43.66416185640175,-92.98542737960815
"55912","Austin","MN","Community Park","9th Place Southwest","55912",43.66007931016272,-92.97768115997314
"55912","Austin","MN","Mill Pond","301 4th Ave NE","55912",43.670169830322266,-92.97212982177734
"55912","Austin","MN","Bandshell Park","9th Pl SW","55912",43.66043323887336,-92.97627902961158
"55912","Austin","MN","Skinner's Hill","Corner of 4th St & 9th Pl. SW","55912",43.65949036361215,-92.98009242784664
"55912","Austin","MN","Bustad Park","1201-1299 8th St SW","55912",43.65396273281939,-92.98527717590332
"55919","Brownsville","MN","Stoddard Village Park","136 S Main St","54658",43.66080093383789,-91.21919250488281
"55919","Brownsville","MN","Stoddard Park","not_available","54658",43.65900060359099,-91.21740582741552
"55919","Brownsville","MN","Millstone Landing","not_available","55921",43.539273,-91.277063
"55920","Byron","MN","old towne park","not_available","55920",44.029732267934165,-92.64515713663461
"55923","Chatfield","MN","Groen Park","not_available","55923",43.84206616080981,-92.19247229829554
"55923","Chatfield","MN","City Park","300-398 Main St","55923",43.84422120779519,-92.18770054789975
"55934","Eyota","MN","Chester Woods Park","not_available","55934",43.99911255480032,-92.31236457824701
"55935","Fountain","MN","Sylvan Park","not_available","55949",43.72098234621173,-91.97912864522299
"55936","Grand Meadow","MN","Pine Lawn Park","not_available","55936",43.711289,-92.539883
"55941","Hokah","MN","Como Falls Park","not_available","55941",43.761633,-91.342361
"55943","Houston","MN","Houston city park","Maple St","55943",43.76198427111817,-91.57144161192383
"55946","Kenyon","MN","Kenyon Depot Park","Kenyon Park Rd","55946",44.27346831264935,-92.99126093770165
"55947","La Crescent","MN","Riverside Park","410 Veterans Memorial Dr","54601",43.81596207079425,-91.25547935793334
"55947","La Crescent","MN","Houska Park","1298-1500 Joseph Houska Dr","54601",43.79720920376212,-91.25322883251944
"55947","La Crescent","MN","Pettibone Park","N Pettibone Dr","54601",43.81639889152391,-91.26426458358763
"55947","La Crescent","MN","Plainview Park","French Island","54603",43.86681621712687,-91.2653802827211
"55947","La Crescent","MN","Old Hickory Park","1200 Jonathan Lane","55947",43.84297735840066,-91.31132125854492
"55947","La Crescent","MN","Cameron Park","456 King Street","54601",43.810095848093965,-91.25130728937374
"55947","La Crescent","MN","Veterans Freedom Park","Clinton St","54603",43.8405841761446,-91.25353891862692
"55947","La Crescent","MN","Rotery Kights","not_available","54601",43.814933,-91.252665
"55947","La Crescent","MN","Hood Park","513 Hood Street","54601",43.79876,-91.24985
"55947","La Crescent","MN","Lizfest","not_available","55947",43.83453,-91.303856
"55947","La Crescent","MN","Rotary Lights","100 State St.","54601",43.81502265984695,-91.2549719220476
"55947","La Crescent","MN","Nelson Park","not_available","54603",43.89209566276712,-91.27008956198878
"55951","Le Roy","MN","North Park","301-317 N Park Rd","55951",43.513578,-92.499036
"55953","Lyle","MN","Lyle City Park","601-699 1st Street","55953",43.507522679431375,-92.94373512268066
"55959","Minnesota City","MN","Ragnar exchange 2","not_available","54629",44.191410064697266,-91.77811431884766
"55959","Minnesota City","MN","We Valley Park","not_available","55987",44.05878166360609,-91.7103822674263
"55960","Oronoco","MN","Oronoco City Park","not_available","55960",44.16819160181345,-92.5394893675058
"55963","Pine Island","MN","Douglas Trail & City Park","Center Dr. E","55963",44.20304722203336,-92.64421170302714
"55963","Pine Island","MN","Pine Island Wayside Park","County 11 NW","55963",44.21184894231612,-92.64932513237
"55963","Pine Island","MN","Collins Park","3rd Ave NW","55963",44.20764860643256,-92.65093681898654
"55972","Saint Charles","MN","St. Charles Parks - Whispering Hills","Cottonwood Dr.","55972",43.97585452028218,-92.04310195258275
"55972","Saint Charles","MN","St. Charles Parks - Brookwood Park","830 Whitewater Ave","55972",43.96962356567383,-92.06521606445312
"55972","Saint Charles","MN","St. Charles City Park","West 6th St","55972",43.977515224355784,-92.07266472864278
"55972","Saint Charles","MN","St. Charles Parks - Jessens Park","South Park Rd.","55972",43.957313704367444,-92.05143928527832
"55974","Spring Grove","MN","Spring Grove City Park","not_available","55974",43.561288627624315,-91.63551076310443
"55976","Stewartville","MN","Brin Park","5th Ave SE","55976",43.84409163077281,-92.48048543930054
"55976","Stewartville","MN","Meadow Park","2nd Ave NE","55976",43.86151490472453,-92.48464822769165
"55976","Stewartville","MN","Florence Park","371 Lakeshore Dr NW","55976",43.85749636343332,-92.49182669758515
"55981","Wabasha","MN","Bruegger Memorial Park","not_available","55981",44.37803649902344,-92.03924560546875
"55983","Wanamingo","MN","Riverside Park In Wanamingo","not_available","55983",44.30869718252743,-92.79295192317394
"55987","Winona","MN","Garvin Heights City Park","Garvin Heights Road","55987",44.034628844280974,-91.65147263133039
"55987","Winona","MN","Lake Winona","Lake Winona","55987",44.02962079796729,-91.62252306395179
"55987","Winona","MN","Paul Watkins Park","330 Fourth Street","55987",44.049097189455416,-91.62955696812887
"55987","Winona","MN","6th Street Park","301-349 Liberty St","55987",44.04750004156732,-91.63189371051791
"55987","Winona","MN","Trempealeau Youth Sports Club","Trempealeau,WI,54661","54661",44.0055185,-91.4420883
"55987","Winona","MN","Latsch Island","10 Old Duke Road","55987",44.05814751913359,-91.63495137484051
"55987","Winona","MN","Central Park","Gray Street","54630",44.006201516284946,-91.63829359027783
"55992","Zumbrota","MN","Covered Bridge Park","not_available","55992",44.29797616939495,-92.67186641693115
"55992","Zumbrota","MN","East Park","101-207 E 6th St","55992",44.29159709031969,-92.66765440664815
"56001","Mankato","MN","Lions Park","Stadium Rd.","56001",44.146424563767226,-93.98086971952853
"56001","Mankato","MN","Jaycees Park","Jaycee Ct.","56001",44.15287719178925,-93.98216887153573
"56001","Mankato","MN","Spring Lake Park","not_available","56003",44.17950166790584,-94.01865309716737
"56001","Mankato","MN","Eagle Lake City Park","not_available","56024",44.159656719674686,-93.8876534599584
"56001","Mankato","MN","Red Jacket Trail","Red Jacket Trail","56001",44.15539650409733,-94.0184558210309
"56001","Mankato","MN","Land of Memories Park","Land of Memories Dr.","56003",44.15858815122897,-94.04043552896307
"56001","Mankato","MN","Bluff Park","Bluff Park","56003",44.18270626240443,-94.02479094827153
"56001","Mankato","MN","Sibley Park","900 Mound Ave.","56001",44.16118672436262,-94.03182718476813
"56001","Mankato","MN","George H. Johnson Memorial Park","not_available","56001",44.14127127114369,-94.05994174550047
"56001","Mankato","MN","Lincoln Park","200 Lincoln St.","56001",44.15929465127036,-94.00640487670898
"56001","Mankato","MN","Caswell Park","1875 Howard Dr","56003",44.18267292702953,-94.04200174261968
"56001","Mankato","MN","river ledges","The River","not_available",44.164946,-94.011928
"56001","Mankato","MN","Anderson Park","Emerson Lane","56001",44.16158059471585,-93.98065567016602
"56001","Mankato","MN","Washington Park","Washington Ct.","56001",44.16716808360849,-93.99668455123901
"56001","Mankato","MN","North Ridge Park","Northridge Dr.","56003",44.178338308811995,-94.05499715036156
"56001","Mankato","MN","Rasmussen Woods-Elk's Nature Center","555 Stoltzman Rd","56001",44.145553,-94.012794
"56001","Mankato","MN","Hiniker Pond","Butterworth St.","56001",44.18531599108725,-94.01702277461851
"56001","Mankato","MN","Alexander Park","900 E Main St.","56001",44.16216278076172,-93.99057006835938
"56001","Mankato","MN","Country Club Estates Park","Pebble Creek Dr.","56001",44.189712764154756,-93.95989537239075
"56003","Mankato","MN","Seven Mile Creek Park","Highway 169","56082",44.26422576356897,-94.0363597869873
"56003","Mankato","MN","Benson Park","Benson Park","56003",44.191866070636046,-94.04996632821197
"56003","Mankato","MN","Reconciliation Park","100 N Riverfront Dr.","56001",44.16819932535617,-94.00302529335022
"56003","Mankato","MN","Pleasant View Park","Pleasant View Dr.","56003",44.18157305132376,-94.06654000282288
"56003","Mankato","MN","Kiwanis Recreation Area","U.S. 169","56001",44.1987691473286,-94.0199942877688
"56003","Mankato","MN","Jackson Park","E Jackson St.","56001",44.164004983405476,-94.0046238899231
"56007","Albert Lea","MN","Edgewater Park","not_available","56007",43.664951376547435,-93.38929738869227
"56007","Albert Lea","MN","Snyder Park","Hershey St.","56007",43.67847186010976,-93.35638761520386
"56007","Albert Lea","MN","Central Park","West Clark","56007",43.64686852,-93.3750913
"56007","Albert Lea","MN","Pickerel Lake Park","Pickerel Lake Park","56007",43.62281995218445,-93.39705786966803
"56007","Albert Lea","MN","Frank Hall Park","700-798 Frank Ave","56007",43.64389141568981,-93.36208840076537
"56007","Albert Lea","MN","South Edge Water Park","edge water Dr","56007",43.66559,-93.38898
"56007","Albert Lea","MN","red forrest","not_available","56089",43.55817,-93.452312
"56007","Albert Lea","MN","Pioneer Park","W Hawthorne St","56007",43.6582901981388,-93.37060868740082
"56010","Amboy","MN","Daly Park","571st Ln.","56065",43.87466409332403,-94.00951623916626
"56011","Belle Plaine","MN","The Purple Park","S Ash St.","56011",44.61162359437076,-93.76113831996918
"56011","Belle Plaine","MN","Fountain Park","not_available","56011",44.626415251290645,-93.77335923783357
"56011","Belle Plaine","MN","mayo park, le sueur, mn","not_available","56044",44.51023864746094,-93.87126922607422
"56011","Belle Plaine","MN","Heritage Park","Heritage Ln.","56011",44.61182867730574,-93.76063322545161
"56013","Blue Earth","MN","Steinberg Nature Park","County 16","56013",43.63781445968477,-94.08275127410887
"56013","Blue Earth","MN","Hamson Park","47300 70th St","56033",43.58591701034669,-93.92038711239348
"56013","Blue Earth","MN","Putnam Park","14th Street","56013",43.64118215517469,-94.09486165271987
"56014","Bricelyn","MN","Pihl's Park, Faribault County","570th Ave.","56097",43.64204430031692,-93.72861647113253
"56016","Clarks Grove","MN","Harmony Park","not_available","56016",43.785740281727264,-93.27890746207775
"56017","Cleveland","MN","Camp Patterson","not_available","56063",44.25569152832031,-93.84848022460938
"56017","Cleveland","MN","Lake Washington County Park","Washington Park Rd","56050",44.267598670789745,-93.90003805964322
"56021","Courtland","MN","Courtland Rec Ball Park","not_available","56021",44.26732970536542,-94.34329032897949
"56024","Eagle Lake","MN","Bray Park Campground","Lake View Rd","56063",44.18682014051046,-93.79743933677673
"56028","Elysian","MN","Lettie’s Park","not_available","56028",44.201874,-93.677448
"56029","Emmons","MN","Emmons, MN","not_available","56029",43.50031,-93.488463
"56031","Fairmont","MN","cedar creek park","not_available","56031",43.60829804831962,-94.4805870938154
"56031","Fairmont","MN","Gomsrud Park","224-266 W Lair Rd","56031",43.63373681907985,-94.46566087325154
"56031","Fairmont","MN","granada park","112 South Main Street","56039",43.6955400689484,-94.34747457504271
"56044","Henderson","MN","High Island County Park","25336-25498 341st Ln","56044",44.57827310814858,-93.96018801696134
"56048","Janesville","MN","Lakeview Park","403th Avenue","56048",44.144260635275266,-93.71063232421875
"56048","Janesville","MN","Veterans Memorial Park","not_available","56048",44.115566,-93.709821
"56048","Janesville","MN","St. Clair City Park","not_available","56080",44.08584122406969,-93.86579124159935
"56048","Janesville","MN","Dumdei Park","not_available","56078",44.03704071044922,-93.81295013427734
"56050","Kasota","MN","Kasota Park","S Ridgley Street","56050",44.28667186623917,-93.9672338962555
"56050","Kasota","MN","Kasota Prairie","BEC Hwy 5","56001",44.272269823073636,-93.99397938735859
"56055","Lake Crystal","MN","Robinson Park","E Robinson Street","56055",44.10699927964821,-94.22606434152283
"56057","Le Center","MN","St.Thomas Sportsmen's Park","24696 St.Thomas Rd","56058",44.499275580982854,-93.76320362091064
"56058","Le Sueur","MN","Warren Park","1500 Lloyd Lane","56082",44.34304083828318,-93.97345682835767
"56058","Le Sueur","MN","Lake Hallett","W Saint Julien St","56082",44.33793847028277,-93.9525032043457
"56058","Le Sueur","MN","Johnson Park","601 W Broadway Ave","56082",44.35973499902083,-93.9640228713113
"56058","Le Sueur","MN","Veterans Memorial Park","311 N Fifth St","56082",44.32992678602929,-93.95753864756624
"56058","Le Sueur","MN","Treaty Site History Center","1851 N Minnesota Ave","56082",44.34917814154467,-93.95726873828129
"56058","Le Sueur","MN","Gault Park","N Sunrise Dr","56082",44.352267423789456,-93.9716223065226
"56058","Le Sueur","MN","Prairie Ridge Park","2023 Essler Drive","56082",44.338641,-93.982636
"56058","Le Sueur","MN","Community Spirit Park","2121 Broadway Ave","56082",44.328372955322266,-93.98623657226562
"56058","Le Sueur","MN","Ramsey Park","North 5th Street","56082",44.3441690916181,-93.96254539489746
"56058","Le Sueur","MN","Thompson Dog Park","not_available","56082",44.33882,-93.956653
"56058","Le Sueur","MN","Legion Park","103 S 6th St.","56058",44.45800510675835,-93.90818666495612
"56065","Mapleton","MN","Heritage Park","not_available","56065",43.92501449584961,-93.96279907226562
"56068","Minnesota Lake","MN","Old Mill Park","not_available","56068",43.84434619279034,-93.82823407376772
"56071","New Prague","MN","Memorial Park","hwy 19","56071",44.54256423634029,-93.56978997601576
"56071","New Prague","MN","New Prague Sleding Hill","not_available","56071",44.560398,-93.573627
"56073","New Ulm","MN","South German Park","German Street","56073",44.30962442292065,-94.45368060123472
"56073","New Ulm","MN","Nehls Park","Summit Ave.","56073",44.29522708938735,-94.46165084838867
"56073","New Ulm","MN","Goosetown","not_available","56073",44.314823150634766,-94.45218658447266
"56073","New Ulm","MN","German Park","101-199 N Garden St","56073",44.30972855891072,-94.46948295018643
"56073","New Ulm","MN","Schonlau Park","327 north minneasota street","not_available",44.316971,-94.462528
"56073","New Ulm","MN","Riverside Park","100 S Front St","56073",44.314645,-94.45268
"56082","Saint Peter","MN","Minnesota Square Park","1000 S Minnesota Ave","56082",44.31874499669404,-93.96359454877839
"56082","Saint Peter","MN","Gorman Park","W Grace St.","56082",44.32409869923141,-93.96318283144431
"56082","Saint Peter","MN","Stones Park","Washington Ave","56802",44.31368492236694,-93.97151470184326
"56082","Saint Peter","MN","Riverside Nature Area","Front St","56082",44.3154044914279,-93.95859718322754
"56085","Sleepy Eye","MN","The Park","not_available","56085",44.29104965582595,-94.72308193679959
"56085","Sleepy Eye","MN","Allison Park","511 4th Ave NW","56085",44.30161,-94.726811
"56087","Springfield","MN","Riverside Park","E Cottonwood St","56087",44.236524282439746,-94.97296185268733
"56087","Springfield","MN","Brown's Park","Burns Ave","56087",44.2395447,-94.9888341
"56093","Waseca","MN","Southview Park","not_available","56093",44.08159255981445,-93.49968719482422
"56093","Waseca","MN","Waseca Waterpark","200 26th Ave NE","56093",44.100433349609375,-93.50440979003906
"56093","Waseca","MN","Clear Lake Park","800-1100 8th St NE","56093",44.08504848268126,-93.4934933218408
"56093","Waseca","MN","University Park","Johnson Ave. SW","56093",44.06964844560621,-93.51228365931938
"56097","Wells","MN","Half Moon Park","not_available","56097",43.74367015128522,-93.73490317479266
"56101","Windom","MN","Lions Park","2nd Ave","56101",43.868568420410156,-95.11447143554688
"56101","Windom","MN","Tegels Park","not_available","56101",43.87589723741884,-95.10330026051268
"56122","Chandler","MN","Leota City Park","not_available","56128",43.8340075480431,-96.01861637837361
"56137","Heron Lake","MN","Heron Lake Public Park","2nd Ave.","56137",43.846265987016835,-95.3242530192977
"56137","Heron Lake","MN","Okabena Park","Milwaukee Ave","56161",43.74088894313023,-95.31598645324276
"56142","Ivanhoe","MN","Gilson Field","not_available","56142",44.46534221266211,-96.24722175043013
"56143","Jackson","MN","Dann’s Island Wayside Park","not_available","56143",43.61794,-94.987511
"56143","Jackson","MN","Dumont Park","1000-1098 Sherman St","56143",43.621853,-94.996659
"56143","Jackson","MN","Patterson Park","Thomas hill","56143",43.62595774311978,-94.99910892270906
"56143","Jackson","MN","Brown Park","County Road 75","not_available",43.52740202130527,-95.10785304866171
"56144","Jasper","MN","Split Rock Park","not_available","57038",43.72155586582784,-96.5013553939784
"56144","Jasper","MN","Devil's Gulch Park","Devil's Gulch Park Rd","57030",43.72282027704902,-96.49617692298885
"56150","Lakefield","MN","north city park","not_available","56150",43.683054686507376,-95.17020457127545
"56156","Luverne","MN","Prairie Moon Park","not_available","56156",43.66327177846712,-96.19972053874477
"56156","Luverne","MN","Road Construction at Exit 20","Interstate 75 North Bound","not_available",43.690465,-96.212508
"56156","Luverne","MN","sitting bull park","N Esty","56156",43.66094207763672,-96.21139526367188
"56164","Pipestone","MN","Water Tower Park","not_available","56164",44.00573829658504,-96.31824326612737
"56164","Pipestone","MN","Rest Area Park","1222 State Highway 23","56164",44.0265007019043,-96.26557159423828
"56168","Rushmore","MN","School Park","not_available","56168",43.619216,-95.79679
"56175","Tracy","MN","Werner Park","not_available","56175",44.233621,-95.620761
"56178","Tyler","MN","Tyler Falls","not_available","56178",44.290184,-96.145004
"56183","Westbrook","MN","Chance Is Fat","not_available","56183",44.047473,-95.437944
"56187","Worthington","MN","Centennial Park","10th Ave","56187",43.62348154321842,-95.6156748182312
"56187","Worthington","MN","Chautauqua Park","not_available","56187",43.62039264764773,-95.60798744464896
"56201","Willmar","MN","Foot Lake","not_available","56201",45.132011,-95.040186
"56201","Willmar","MN","Pleasant View Park","1384-1398 9th St SE","56201",45.10813593864441,-95.03207623958588
"56201","Willmar","MN","Kiddie park","not_available","56251",45.135331,-94.933246
"56208","Appleton","MN","Marsh Lake","not_available","56208",45.174448371699405,-96.08524813734682
"56209","Atwater","MN","Diamond Lake","6920 CO RD 4 NE","56251",45.1916239728132,-94.85708236121829
"56215","Benson","MN","Roosevelt Park","not_available","56215",45.316600714212655,-95.59968939103065
"56223","Clarkfield","MN","Park","Laurel Ave.","56241",44.7889762303091,-95.81176801037238
"56225","Clinton","MN","Hartford Beach Disk","Hartford Beach, SD","57227",45.40197275275478,-96.67236125311459
"56229","Cottonwood","MN","Vermeersch Memorial Park","not_available","56239",44.511986,-95.8878
"56229","Cottonwood","MN","Central Park","not_available","56229",44.607786,-95.67566
"56230","Danube","MN","Voelz Park","not_available","56230",44.790817,-95.103279
"56232","Dawson","MN","Big Fishy","not_available","56256",45.010122572985914,-96.195608732127
"56239","Ghent","MN","Legion Park","101-199 West Barber Street","56239",44.515347,-95.89164
"56241","Granite Falls","MN","winter park","not_available","56241",44.8109130859375,-95.55441284179688
"56244","Hancock","MN","Pomme de Terre City Park","County Highway 10","56267",45.57412505294924,-95.8803193119648
"56258","Marshall","MN","Independence park","not_available","56258",44.44231955192897,-95.77043009958757
"56258","Marshall","MN","Justice Park","801-899 Kossuth Ave","56258",44.4577047058859,-95.78515837165355
"56258","Marshall","MN","Liberty Park","3rd Street","56258",44.44884545604315,-95.78469282373611
"56265","Montevideo","MN","Historic Chippewa City Park","Pioneer Dr","56265",44.93974583718904,-95.72683647397598
"56273","New London","MN","Zumbrota East Park","East Avenue","55992",45.26708185,-94.93568049
"56277","Olivia","MN","Kubesh Park","not_available","56277",44.774406,-94.994942
"56277","Olivia","MN","Major Mudslide","Hwy 19 & hwy 22","not_available",44.73373145174266,-94.99507261421569
"56278","Ortonville","MN","Lakeside Park","County Road 30","56278",45.30656871738642,-96.44961210443589
"56278","Ortonville","MN","neilson park","not_available","56278",45.31062698364258,-96.44938659667969
"56284","Renville","MN","Volleyball Park","not_available","56284",44.78889604,-95.20086097
"56296","Wheaton","MN","White Rock Dam","not_available","57262",45.861952,-96.573723
"56301","Saint Cloud","MN","Quarry Park & Nature Preserve","1802 County Road 137","56387",45.53582077574661,-94.24140082667714
"56301","Saint Cloud","MN","Munsinger and Clemons Garden","1558 Riverside Dr. SE","56304",45.550686093922806,-94.14414150689069
"56301","Saint Cloud","MN","Hidden Lake Park","not_available","56301",45.46018104266863,-94.20040096758893
"56301","Saint Cloud","MN","Riverside Park","1700 Kilian Boulevard Southeast","56304",45.54581234267817,-94.14348908397338
"56301","Saint Cloud","MN","Kleinfelter Park","not_available","56374",45.56218296909026,-94.29302422038117
"56301","Saint Cloud","MN","Eagle Park","not_available","56369",45.47605647394308,-94.34103554453546
"56301","Saint Cloud","MN","Seberger Park","21st Ave N","56303",45.557322094683876,-94.18287646653864
"56301","Saint Cloud","MN","AA Lot","1234 AA Lot","56301",45.554481506347656,-94.15376281738281
"56301","Saint Cloud","MN","Calvary Park","1700-1898 Traverse Rd","56301",45.54226596511616,-94.17345962539423
"56301","Saint Cloud","MN","St. Joseph's Church Bazaar","not_available","56387",45.556684,-94.233714
"56301","Saint Cloud","MN","SCSU - Talahi - Environmental Studies Area","Kilian Blvd SE","56304",45.55032964130991,-94.14157656362661
"56301","Saint Cloud","MN","Lion's Park","[1 - 99] Oxby Ln","56387",45.54114953603484,-94.21424388885498
"56303","Saint Cloud","MN","Hester Park","1100-1198 6th St N","56303",45.56542261679174,-94.16782625221548
"56303","Saint Cloud","MN","Sauk Rapids Municipal Park","not_available","56303",45.596797135257425,-94.18148337394022
"56303","Saint Cloud","MN","Scenic View Park","not_available","56379",45.5973856,-94.1715834
"56303","Saint Cloud","MN","Creekview Park","not_available","56377",45.59829,-94.24131
"56303","Saint Cloud","MN","Southside Park","45.58767	-94.16680","not_available",45.58809518781759,-94.16838884353638
"56303","Saint Cloud","MN","Lions Park","1 2nd Ave N","56379",45.589751,-94.165513
"56303","Saint Cloud","MN","Wilson Park","not_available","56304",45.5722047954419,-94.1618794915848
"56307","Albany","MN","Shamrock Park","not_available","56307",45.629525,-94.577004
"56307","Albany","MN","North side Park","not_available","56331",45.66348,-94.686385
"56308","Alexandria","MN","Lake Ida","not_available","56308",46.0100655258545,-95.42682473990416
"56308","Alexandria","MN","Runestone Park","8755 co. rd. 103","56343",45.88587460655413,-95.34323930557547
"56308","Alexandria","MN","Curt Felt Memorial Park","Parkside","56308",45.91792166233063,-95.37286162376404
"56309","Ashby","MN","Thorson & Larson Park","not_available","56309",46.092203,-95.817473
"56310","Avon","MN","Wobegon Park","1st St NE & Co Rd 9","56310",45.60428,-94.45110715
"56312","Belgrade","MN","Brooten City Hall","not_available","56316",45.50123335359477,-95.12461135601392
"56315","Brandon","MN","Pioneer Park","not_available","56332",45.876136779785156,-95.59385681152344
"56315","Brandon","MN","PUBLIC ACCESS","6264-6274 Moon Lake Heights","56315",45.957013351867786,-95.58698009084218
"56320","Cold Spring","MN","Veterans Park","not_available","56320",45.46049880981445,-94.42950439453125
"56320","Cold Spring","MN","North Pointe Park","301-305 12th St N","56320",45.473753213882446,-94.42894399166107
"56327","Farwell","MN","Runestone Park","8755 co. rd. 103 sw","56343",45.81295394897461,-95.67145538330078
"56329","Foley","MN","Holdridge Park","not_available","56329",45.66649620507102,-93.90279373537437
"56329","Foley","MN","Lions park","300","56329",45.657884425250856,-93.90937474766606
"56338","Hillman","MN","Hilman Township","not_available","56364",45.92771911621094,-93.92464447021484
"56342","Isle","MN","Malmo Memorial Park","325th Ave","56431",46.29209945,-93.54627857
"56345","Little Falls","MN","Maple Island Park","1st St SE","56345",45.973335190310756,-94.36466634783568
"56345","Little Falls","MN","Mill Park","not_available","56345",45.97254347388057,-94.369519575221
"56345","Little Falls","MN","James Green Park","Front St SE","56345",45.975697123652296,-94.36685640917096
"56345","Little Falls","MN","Memorial Park","200-298 1st St SE","56345",45.974571668709046,-94.36595880250786
"56347","Long Prairie","MN","veterans memorial park","not_available","56347",45.97452111579975,-94.86370194890623
"56352","Melrose","MN","Park Place Playground","not_available","56362",45.67889538011732,-94.82619321471586
"56352","Melrose","MN","Melrose Memorial Park","Main Street","56352",45.67408145286829,-94.816161904313
"56353","Milaca","MN","Page Town Hall","200th st.","56353",45.838214,-93.724628
"56353","Milaca","MN","Page Town Hall","21804 140th Ave","56353",45.863955,-93.703442
"56353","Milaca","MN","The River","not_available","56353",45.75568678183495,-93.65403335926894
"56360","Osakis","MN","park osagi osakis mn","not_available","56360",45.870099016630455,-95.14332875840704
"56362","Paynesville","MN","Veteran's Park","15612 Cedar Point Rd","56362",45.34971742235507,-94.70075368881226
"56367","Rice","MN","Telephone park","not_available","56367",45.75148010253906,-94.22506713867188
"56368","Richmond","MN","Centennial park","not_available","56368",45.45486509799957,-94.50819790363312
"56377","Sartell","MN","Oakwood Village Park","1654 2nd Avenue North","56379",45.60851368380871,-94.17725086212158
"56377","Sartell","MN","Lions Community park","125 Pine Cone Rd","56377",45.619022369384766,-94.2320785522461
"56377","Sartell","MN","Watab Park","River St","56377",45.61872070221964,-94.20601785616002
"56377","Sartell","MN","Sabre Oaks Park","675 3rd. ST. S.","56377",45.613647165852015,-94.21478033065796
"56378","Sauk Centre","MN","Sinclair Lewis Park","not_available","56378",45.73938298455424,-94.95614147068582
"56381","Starbuck","MN","Oak Ridge Campground","not_available","56381",45.543138,-95.521357
"56401","Brainerd","MN","Cuyuna Country State Recreation Area","not_available","56455",46.48297381395,-93.99166850804806
"56401","Brainerd","MN","East Gull Lake Tennis Courts","10649-10799 Squaw Point Rd","56401",46.41339954,-94.3489273
"56401","Brainerd","MN","Crosby City Park","300-398 E Main St","56441",46.47969154719463,-93.95630630431653
"56401","Brainerd","MN","Rotary Park","East River Road","56401",46.342144,-94.21451
"56401","Brainerd","MN","Baxter Park","not_available","56425",46.34985970113186,-94.28227501342816
"56401","Brainerd","MN","Memorial park","not_available","56401",46.37789174890311,-94.17806449166716
"56401","Brainerd","MN","Kart Kountry","17568 Highway 371 North","56401",46.40597152709961,-94.28433990478516
"56431","Aitkin","MN","Aitkin City Park","not_available","56431",46.53254747984795,-93.71356779466322
"56433","Akeley","MN","Duel Walker Water Tower","not_available","56484",47.101524878209396,-94.57522420233094
"56435","Backus","MN","Pine River Park by the Dam","not_available","56474",46.72192026655867,-94.40141917870378
"56438","Browerville","MN","Clarissa City Park","not_available","56440",46.13126270459357,-94.95250044102369
"56441","Crosby","MN","Mission Park","13549-14183 Mission Park Dr","56465",46.567990746920145,-94.11218165177058
"56447","Emily","MN","Emily Park Stage","not_available","56447",46.730888,-93.95889
"56447","Emily","MN","Luscier's Park","not_available","56662",46.788354710596586,-93.96610928948967
"56449","Fort Ripley","MN","Chicken Bouja","not_available","56449",46.166611,-94.363449
"56458","Lake George","MN","Lake George County Park","not_available","56470",47.197768,-94.994624
"56461","Laporte","MN","McGinty Memorial Park","not_available","56461",47.31051,-95.011381
"56461","Laporte","MN","LaSalle Lake State Rec Area","10221 County Road 9","56678",47.23994445800781,-95.16840362548828
"56464","Menahga","MN","The Trampoline","not_available","56464",46.801762,-95.028537
"56466","Motley","MN","Erine Converse Park","not_available","56466",46.337173,-94.650114
"56466","Motley","MN","Veterans Memorial Park","not_available","56479",46.33782023940668,-94.64625444025434
"56472","Pequot Lakes","MN","Sibley Lake Park","Pequot Blvd.","56472",46.60485302559482,-94.32346623272632
"56472","Pequot Lakes","MN","Lowell State Wildlife Management Area","not_available","56472",46.599769592285156,-94.2666244506836
"56477","Sebeka","MN","Sebeka City Park","300-498 Riverside Dr","56477",46.62867322158313,-95.09438593358423
"56481","Verndale","MN","The Park","not_available","56482",46.44905502345716,-95.130877372545
"56482","Wadena","MN","Southwest Park","Wadena,MN,56482","56482",46.4258167,-95.1443013
"56482","Wadena","MN","KooneVille","111 2nd St NW, Wadena, MN 56482","56482",46.443912506103516,-95.13871765136719
"56501","Detroit Lakes","MN","Veterans Memorial Park","not_available","56501",46.81924335668456,-95.84560682454676
"56501","Detroit Lakes","MN","Pavilion Park","101-167 N Shore Dr","56501",46.80667457068784,-95.84446676964308
"56501","Detroit Lakes","MN","Tamarac National Wildlife Refuge","35704 County Highway 26","56578",46.95634078979492,-95.65289306640625
"56510","Ada","MN","Heiberg Ski Talks","not_available","56584",47.283329010009766,-96.27522277832031
"56510","Ada","MN","Gary Park","not_available","56545",47.371222,-96.269335
"56510","Ada","MN","Hyberg","not_available","56510",47.2987174987793,-96.48470306396484
"56514","Barnesville","MN","Blue Eagle","18643-18765 160th Ave S","56514",46.65899697159564,-96.41192553141819
"56514","Barnesville","MN","McGrath Park","300 Minnesota 9","56514",46.65424193021541,-96.42404330935277
"56515","Battle Lake","MN","Phepls Mill Park","29035 County Road","56586",46.3803621164728,-95.81944954827888
"56515","Battle Lake","MN","Railroad Park","not_available","56515",46.279945,-95.71488
"56520","Breckenridge","MN","Chahinkapa park","not_available","58075",46.271501563855885,-96.59921604816178
"56520","Breckenridge","MN","Railroad Park","not_available","56520",46.263189,-96.589004
"56520","Breckenridge","MN","Hughes shelter","Chahinkapa Park","58075",46.27000635523543,-96.59885626977201
"56520","Breckenridge","MN","North meadows mini park","1300 14 1/2 Ave n","58075",46.267467,-96.609615
"56527","Deer Creek","MN","Deer Creek","1st St","56527",46.39124511994664,-95.32145119102717
"56528","Dent","MN","Beers Lake","not_available","56572",46.52491575574879,-95.94085411318028
"56528","Dent","MN","Grass Lake Campground","not_available","56534",46.525881,-95.94175
"56528","Dent","MN","Lonnie's Park","not_available","56528",46.59385482142448,-95.78573266859566
"56529","Dilworth","MN","Whistle Stop Park","not_available","56529",46.87655589497685,-96.6977766365805
"56537","Fergus Falls","MN","Grotto Park","S Burlington Ave","56537",46.276796135987105,-96.0631105410251
"56537","Fergus Falls","MN","NP PARK","not_available","56537",46.279055048215305,-96.07293466907711
"56540","Fertile","MN","SlowPoke Fire","not_available","56540",47.65847,-96.302135
"56542","Fosston","MN","Berge-Stafford Park","500 N Larson Ave","56542",47.579797063316526,-95.75048446655273
"56542","Fosston","MN","Melland Park","750 Columbia Rd","56542",47.57171964369948,-95.74220180511475
"56542","Fosston","MN","Spring Lake Park","not_available","56651",47.5121,-95.635336
"56549","Hawley","MN","Riverbend Park","not_available","56549",46.878418952666344,-96.32344414456338
"56551","Henning","MN","Nyberg Park","not_available","56588",46.26405113334143,-95.53311396642553
"56553","Kent","MN","Abercrombie Park","County Road 4","58075",46.44717213530143,-96.72371864318848
"56554","Lake Park","MN","Lake Township Park","not_available","49640",46.861389,-96.109722
"56554","Lake Park","MN","Lake Park City Park","Lake Street","56554",46.88642,-96.09214
"56560","Moorhead","MN","Island Park","not_available","58103",46.871164809454,-96.78826332092285
"56560","Moorhead","MN","Wildflower Grove Park","9 Lower Terrace N","58102",46.88222885131836,-96.77644348144531
"56560","Moorhead","MN","Lindenwood Park","1712 5th St. S","58103",46.85035964331813,-96.7864179611206
"56560","Moorhead","MN","Trollwood park","not_available","58102",46.924774702942244,-96.78020545068298
"56560","Moorhead","MN","Trefoil Park","Elm street","not_available",46.89234316754865,-96.76800727844238
"56560","Moorhead","MN","Stonehurst Park","not_available","58104",46.81724850709065,-96.8313829826415
"56560","Moorhead","MN","Gooseberry Mound Park","100 22nd Avenue South","56560",46.85307040346458,-96.78094611843062
"56560","Moorhead","MN","Original Homestead Park","not_available","56560",46.885635,-96.769835
"56560","Moorhead","MN","Roosevelt Park","1220 9th street north","58102",46.89117991095552,-96.79285766601066
"56560","Moorhead","MN","Elephant Park","19th Avenue","58102",46.90268335049271,-96.779566604889
"56560","Moorhead","MN","Madison Park","29th St N 10th Ave","58103",46.881313572489034,-96.77600304156611
"56560","Moorhead","MN","Fargo Civic Center","207 4th St N","58102",46.87843593108027,-96.78416548925065
"56560","Moorhead","MN","Eagle Picnic Shelter","3502 University Dr S","58104",46.826255798339844,-96.80117797851562
"56560","Moorhead","MN","Highland Park","62nd ave N","58102",46.963471927470714,-96.80123088875149
"56567","New York Mills","MN","New York Mills Sculpture","not_available","56567",46.512467,-95.363364
"56571","Ottertail","MN","Otter Tail Park","not_available","56571",46.424888733632095,-95.55873579333296
"56572","Pelican Rapids","MN","Sherin Park","E Mill Street","56572",46.57086944580078,-96.07395935058594
"56572","Pelican Rapids","MN","E.L. Peterson Park","Near US 59 and MN 108","56572",46.57050772191421,-96.0820859670639
"56573","Perham","MN","City Hall Park","not_available","56573",46.5949281961849,-95.57444564651475
"56586","Underwood","MN","cage","not_available","56586",46.34365463256836,-95.8553695678711
"56601","Bemidji","MN","Paul Bunyan Park","100 3rd St NE","56601",47.47001645519228,-94.87908880370748
"56601","Bemidji","MN","Diamond Point Park","1710 Birchmont Dr NE","56601",47.484151617750996,-94.8709532442682
"56601","Bemidji","MN","Nymore Park","625 Miles Ave SE, Bemidji, MN 56601","56601",47.45505142211914,-94.85079956054688
"56601","Bemidji","MN","Farris Park","not_available","56633",47.37968480146114,-94.69975208043799
"56601","Bemidji","MN","Cameron Park","2504 Birchmont Dr NE","56601",47.492876,-94.874445
"56601","Bemidji","MN","Library Park","550 Bemidji Ave N","56601",47.47259255964397,-94.87926107725933
"56601","Bemidji","MN","Rognlien County Park","not_available","56601",47.49619233001342,-95.00587084004647
"56601","Bemidji","MN","Dream Catcher Park","405 Grant Utley Avenue","56633",47.38222438584046,-94.60902214050293
"56601","Bemidji","MN","Nymore Park","Nymore Beach Road","not_available",47.46381459860789,-94.86432552337646
"56621","Bagley","MN","Bagley City Park","603 Main Ave N","56621",47.52783966064453,-95.3985824584961
"56623","Baudette","MN","Timbermill Park","not_available","56623",48.71457132653129,-94.57899104710356
"56623","Baudette","MN","The Purple Park","1st Ave, Baudette, MN 56623","56623",48.71108161666667,-94.60116125
"56623","Baudette","MN","Lady’s Slipper Campground","not_available","56686",48.861176,-94.838211
"56628","Bigfork","MN","Scenic State Park","Scenic Highway 7","56628",47.71194724951068,-93.56976655299485
"56630","Blackduck","MN","Willy Walleye","not_available","56661",47.867759704589844,-94.52587127685547
"56630","Blackduck","MN","Paul Bunyan Memorial Park","not_available","56650",47.93842546360175,-94.44855181622772
"56636","Deer River","MN","Winnebegosh Dam Recreation Area","County Road 9","56636",47.42932656411367,-94.04939356275212
"56649","International Falls","MN","8th Street Rink","8th Street","56649",48.597222,-93.419476
"56655","Longville","MN","Longville Skating Rink","not_available","56655",46.9850367072195,-94.20853827311736
"56671","Redlake","MN","Picker Park","not_available","56671",47.87504959106445,-95.03120422363281
"56673","Roosevelt","MN","Allison Park","not_available","56763",48.90584,-95.31237
"56685","Waskish","MN","Big Bog State Recreation Area","not_available","56685",48.285646,-94.566462
"56685","Waskish","MN","Homestead Park","Township Road 8","56685",48.17732394173297,-94.51030649339816
"56701","Thief River Falls","MN","Oakland Park","not_available","56701",48.102257916121786,-96.18186281020958
"56701","Thief River Falls","MN","L.B. Hartz Park","Riverside Avenue & Oakland Park Road","56701",48.11023125501688,-96.18486596208521
"56710","Alvarado","MN","Alvarado Lions Park","Park View Dr & Hwy 220","56710",48.18875597187977,-96.99932400825483
"56716","Crookston","MN","Carman Park","not_available","56716",47.759290193490614,-96.61461187142234
"56716","Crookston","MN","Wildwood Park","601-699 Myrtle St","56716",47.765416502952576,-96.61065816879272
"56716","Crookston","MN","Old Crossing Treaty State Wayside Park","not_available","56750",47.781220256843554,-96.61325016076613
"56716","Crookston","MN","Central Park","401-499 Bridge St","56716",47.773116,-96.600355
"56721","East Grand Forks","MN","Ben Franklin Park","20th St","58201",47.91231004720312,-97.05666503083434
"56721","East Grand Forks","MN","Lincoln Drive Park","120 Euclid Ave.","58201",47.91032076139921,-97.0231928552091
"56721","East Grand Forks","MN","University Park","2301 University Ave","58203",47.92386728307757,-97.0613015583758
"56721","East Grand Forks","MN","Sertoma Park","3300 11th Avenue S","not_available",47.91072807086651,-97.07496694416942
"56721","East Grand Forks","MN","Independence Park","5th ave.","58201",47.91745,-97.03974
"56721","East Grand Forks","MN","IRET Legacy Park","3500 30th Ave S","58201",47.892689000000004,-97.078203
"56721","East Grand Forks","MN","Riverside Park","not_available","58203",47.93794982138228,-97.04219964364961
"56721","East Grand Forks","MN","The Great Wall Of Bing Bong","not_available","56721",47.942325,-97.028553
"56721","East Grand Forks","MN","Millenium Park","3rd Street N","not_available",47.92614807470644,-97.031079894612
"56721","East Grand Forks","MN","Lincoln Park Frolf Course","not_available","58201",47.91134348958912,-97.02166833414053
"56721","East Grand Forks","MN","The Greenway","Gateway Dr","58203",47.92302869825865,-97.0355976895331
"56721","East Grand Forks","MN","Optimist Park","4427-4479 Cherry St","58201",47.876745449906906,-97.03647687310811
"56721","East Grand Forks","MN","Century Park (Lions Park)","3351 17th Ave S","58201",47.902950286865234,-97.07620239257812
"56741","Oak Island","MN","Garden Island State Recreation Area","not_available","56741",49.17554445491809,-94.83481925888171
"56744","Oslo","MN","Ray Ronan Memorial Park","not_available","58256",48.069693,-97.178754
"56757","Stephen","MN","Stephen Gazebo","not_available","56757",48.450589,-96.87396
"56762","Warren","MN","Island Park","McKinley St","not_available",48.19025218628596,-96.77564620971678
