"zip","city","state","name","address","postalCode","lat","lon"
"38603","Ashland","MS","Benton County Fairgrounds","not_available","38603",34.846617,-89.182709
"38606","Batesville","MS","Batesville Square","not_available","38606",34.31687227008236,-89.95291329713272
"38611","Byhalia","MS","Plantation Lakes","not_available","not_available",34.986380890177344,-89.81758129026211
"38611","Byhalia","MS","Southridge Park","not_available","38654",34.94258083207973,-89.81642373524377
"38611","Byhalia","MS","Pratt Park, Prattville, AL","not_available","38016",34.930873223088874,-89.7618209542919
"38614","Clarksdale","MS","Nassef Park","not_available","38614",34.20001220703125,-90.60887908935547
"38617","Coahoma","MS","The Devils Crossroads","US 49","not_available",34.423051182976586,-90.4677662535468
"38618","Coldwater","MS","Plantation Point","7000-8998 Cub Lake Rd","38632",34.786846,-90.162891
"38618","Coldwater","MS","Norfleet Drive Park","407 Norfleet Dr","38668",34.6271518451581,-89.95570063591003
"38619","Como","MS","Como Community Park","not_available","38619",34.513402,-89.943541
"38626","Dundee","MS","Fort Curtis","not_available","72342",34.52723617444894,-90.5896750401211
"38629","Falkner","MS","Walnut Track","not_available","38683",34.94877744199292,-88.90748531679165
"38632","Hernando","MS","Lee's Summit Park","not_available","38632",34.820455,-89.966253
"38637","Horn Lake","MS","Jim Saucier Memorial Park","Northwest Dr.","not_available",34.98439553382058,-90.00295758640125
"38637","Horn Lake","MS","Latimer park","Tulane rd","38637",34.96487966141314,-90.04126065922794
"38637","Horn Lake","MS","ballard park tupelo,ms","not_available","38637",34.942035960120826,-90.04963530552394
"38637","Horn Lake","MS","Maxey Park","Tulane Rd E","not_available",34.959369,-90.043833
"38637","Horn Lake","MS","Brookhaven Park","not_available","38671",34.9784912010082,-90.01903611389072
"38643","Lambert","MS","Tennis Court","not_available","38646",34.2546167,-90.2823645
"38651","Nesbit","MS","Oakachobee Park","not_available","38651",34.89312400288256,-89.90969181521753
"38651","Nesbit","MS","Central Park","Airways rd","38671",34.922304,-89.992735
"38652","New Albany","MS","Hacienda","Moss Hill Dr.","not_available",34.509191,-89.025408
"38652","New Albany","MS","BNA Park","not_available","38652",34.4839848314576,-89.0241711083183
"38654","Olive Branch","MS","Snowden Grove Park","not_available","38672",34.952816793661505,-89.93287552720619
"38654","Olive Branch","MS","Olive Bark Dog Park","8820-8840 City Park Dr.","38654",34.960297,-89.84118
"38654","Olive Branch","MS","Snowden Grove House","6135-6241 Snowden Ln","38672",34.95056740644632,-89.93447656207975
"38655","Oxford","MS","Stone Park","not_available","38655",34.37549844428534,-89.52632510809273
"38655","Oxford","MS","Touch Of Grove Tent","not_available","38677",34.365543,-89.531248
"38668","Senatobia","MS","Railroad Park","Park Street","38668",34.6166192081291,-89.96308778191126
"38668","Senatobia","MS","Sycamore Park","Senatobia,MS,38668","38668",34.6176032,-89.9687011
"38671","Southaven","MS","Greenbrook Lake Park","295 Stateline Rd","38671",34.99101322989601,-89.98361605001053
"38671","Southaven","MS","Southaven Soccer Complex","Southaven, MS 38671","38671",34.99302324021393,-90.07744841731966
"38671","Southaven","MS","Stateline Park","Stateline Road","38671",34.99159414739468,-89.98261776932479
"38671","Southaven","MS","Vicksburg Street","Southaven Cir W, Southaven, MS 38671","38671",34.992963155477156,-90.01458701480281
"38671","Southaven","MS","Davis Memorial Park","Southcrest Court","38671",34.969892,-89.99463
"38671","Southaven","MS","Central Park","7505 Stonegate Blvd","38671",34.970234332298475,-89.9656891822815
"38676","Tunica","MS","Slackers And Pearls","4500 Edwards","38676",34.684999999999995,-90.37826388888888
"38701","Greenville","MS","Hardy Park","not_available","38701",33.39024,-91.044543
"38730","Boyle","MS","Amzie Moore Community Park","Rev. Sammie Rash Rd","38732",33.711783,-90.71766
"38732","Cleveland","MS","Statesman Park","not_available","38732",33.7538281530899,-90.73777402246058
"38732","Cleveland","MS","Fireman's Park","S 2nd Ave","38732",33.741104897805364,-90.72866246181778
"38751","Indianola","MS","Bird Sanctuary Park","700 E Percy st","38751",33.45305735999139,-90.63970685005188
"38771","Ruleville","MS","Ruleville City Park","Church Street","38771",33.72690955376819,-90.55281400680542
"38801","Tupelo","MS","Fair Park","200-268 E Main St","38804",34.257116,-88.701585
"38801","Tupelo","MS","F-105 Thunderchief Memorial","not_available","38804",34.26605274991446,-88.67922755092621
"38801","Tupelo","MS","Ballard Park","W Main St","not_available",34.24816185220404,-88.76702985951692
"38801","Tupelo","MS","Veterans Park","800 N Veterans Memorial Blvd","38804",34.26519245813763,-88.67926955223083
"38801","Tupelo","MS","Ida Street Park","not_available","38801",34.2507783559781,-88.73735950423203
"38801","Tupelo","MS","Casey Dillard Park","207 Court St","38804",34.2580483777004,-88.7046010599499
"38804","Tupelo","MS","Veterans Memorial Park","not_available","38803",34.31605753568118,-88.70392472518822
"38821","Amory","MS","Frisco Park","not_available","38821",33.9952832865756,-88.48703659568503
"38821","Amory","MS","Rod Brasfield Memorial Park","60001 Franklin St","38870",34.06416702270508,-88.39610290527344
"38821","Amory","MS","Frisco Park Amory, MS","Main St","38821",33.98436719471556,-88.4886326898002
"38824","Baldwyn","MS","Pecan Stump","218-238 Mississippi 30","38824",34.57449495792389,-88.66378784179688
"38824","Baldwyn","MS","Latimer Park","Latimer Rd","38824",34.513165359474975,-88.62812826027094
"38826","Belden","MS","Anthony Chabot Regional Park","not_available","94546",34.3574333,-88.83470299
"38829","Booneville","MS","Booneville City Park","not_available","38829",34.66637403827555,-88.57117995223152
"38834","Corinth","MS","Corinth City Park","not_available","38834",34.92708666426803,-88.50429492968402
"38838","Dennis","MS","Tenn - Tom Waterway at Natchez Trace","not_available","38838",34.50540056308831,-88.32375771785559
"38843","Fulton","MS","Fulton City Park","not_available","38843",34.262786599575925,-88.41638192331959
"38851","Houston","MS","Joe Brigance Memorial Park","Houston,MS,38851","38851",33.88983044809149,-88.9921570732034
"38863","Pontotoc","MS","Howard Stafford Park","not_available","38863",34.23334032911009,-89.02055402801128
"38901","Grenada","MS","Campground Main Entrance","Old Hig. 8","38922",33.834529,-89.607041
"38922","Coffeeville","MS","Elam Picnic Area","County Ro. 82","38922",33.95350595137463,-89.63258028030396
"38930","Greenwood","MS","Baptist Town Pocket Park","McCain Street","not_available",33.51830469074338,-90.17444972816793
"38930","Greenwood","MS","Whittington Park","890-1212 Sycamore Ave","38930",33.50863857441248,-90.19217410266575
"38967","Winona","MS","Old Mountain Outdoor Adventures","90 Old Mountain Rd","38967",33.483516,-89.702437
"39040","Bentonia","MS","Mississippi Petrified Forest","198 Forest Park Rd","39071",32.514523687181835,-90.32341298653466
"39041","Bolton","MS","Natchez Trace @ Airport Rd","not_available","39154",32.291470621629074,-90.41136066401661
"39042","Brandon","MS","Reservoir Botanical Gardens","2111-2165 Spillway Rd","39047",32.372027696958035,-90.0133234682244
"39042","Brandon","MS","Shiloh Park","not_available","39042",32.26422546625076,-89.96994218346839
"39042","Brandon","MS","Turtle Creek Park","508 Turtle Creek Dr","39047",32.37939011910858,-90.0276608885559
"39042","Brandon","MS","Muscadine Park","not_available","39145",32.312784897772026,-89.79799942255235
"39044","Braxton","MS","The Park By School","not_available","39114",31.970593,-89.873664
"39044","Braxton","MS","Plantation Shores","Mt. Repose","39073",32.119770906037154,-90.06406842425899
"39047","Brandon","MS","Pelahatchie Shore Park","Pelahatchie Shore Dr","39047",32.38981893106556,-90.02935409545898
"39047","Brandon","MS","Strawberry Patch Park","271 St Augustine Dr","not_available",32.450027682986835,-90.10616292115118
"39047","Brandon","MS","Hite-Wolcott Park","not_available","39157",32.438888740247414,-90.11584423156674
"39047","Brandon","MS","Lakeshore Park","not_available","39047",32.39139211497967,-90.03982024040934
"39047","Brandon","MS","Flowood Nature Trail","not_available","39232",32.348237159264265,-90.05829908553817
"39047","Brandon","MS","Flowood City Park","3901-4021 Flowood Dr","39232",32.3452091217041,-90.061151
"39047","Brandon","MS","Winner's Circle Park","100 Winners Cir","39232",32.346707354604725,-90.0627913417327
"39051","Carthage","MS","Mcmillian Park","not_available","39051",32.73437486114761,-89.52591488126795
"39056","Clinton","MS","Brighton Park","530 South Frontage Rd","39056",32.327805025631896,-90.34159926011547
"39056","Clinton","MS","Lions Club Park","201-299 E Leake St","39056",32.340471,-90.32844457
"39056","Clinton","MS","Woodmoor Founders Park","Winding Hills Drive","39056",32.34755142042444,-90.34385206469578
"39059","Crystal Springs","MS","Crystal Springs Regional Trail","Skyline Blvd. & Crystal Springs Rd","94401",31.987378,-90.3570353
"39059","Crystal Springs","MS","Harry T. and Harriette V. Moore Memorial Park","2180 Freedom Ave","32754",31.987378,-90.3570353
"39059","Crystal Springs","MS","Bright park","not_available","39208",32.06191253303248,-90.32595752994412
"39067","Ethel","MS","Jason Niles Park","300-340 St Matthews St","39090",33.06193430690664,-89.58016614354815
"39067","Ethel","MS","Aponaug Park","West Jefferson Street","39090",33.057351677525986,-89.59861520834954
"39069","Fayette","MS","Mount Locust Inn and Plantation","Milepost 15.5 Natchez Trace Parkway","39120",31.6872396400471,-91.18935585021973
"39069","Fayette","MS","Mississippi Baptist Beginnings","not_available","39069",31.656843,-91.135636
"39073","Florence","MS","The Slide","246 Green Hill Rd","39073",32.12562720259274,-90.10582959861866
"39073","Florence","MS","Jackson Dragway","7557 S Siwell Rd","39272",32.17641161182749,-90.24800777435303
"39073","Florence","MS","Florence Soccer Fields Hemphill Park","not_available","39073",32.142826590781034,-90.13175517531573
"39073","Florence","MS","Richland City Park","not_available","39218",32.209615669518996,-90.15313998582269
"39083","Hazlehurst","MS","Slay Wilderness Area","2142 Tyson Rd","39191",31.782690048217773,-90.45712280273438
"39110","Madison","MS","Liberty Park","810 Madison Ave","39110",32.460914739804196,-90.12893613451448
"39111","Magee","MS","McNair Springs","11 Mcnair Springs Rd","39111",31.823835236150877,-89.70277785927546
"39117","Morton","MS","Farris Park","not_available","39117",32.363176,-89.657215
"39117","Morton","MS","Roosevelt","2149 Highway 13 S","39117",32.319034576416016,-89.66696166992188
"39120","Natchez","MS","Memorial Park","not_available","39120",31.558194076315253,-91.40108362518254
"39120","Natchez","MS","Old Trace","Natchez Trace Pkwy","39120",31.632462979461586,-91.23247236860118
"39120","Natchez","MS","Melrose Estate","1 Melrose Montebello Pkwy","39120",31.543148262764284,-91.38272976246952
"39120","Natchez","MS","William Johnson House","212 State Street","39120",31.560356558483573,-91.4059803805503
"39120","Natchez","MS","Duncan Park","57 Duncan Park Rd","39120",31.541019439697266,-91.39009094238281
"39154","Raymond","MS","Midpoint Park","Snake Creek Rd","39154",32.25125703402692,-90.42397216089698
"39157","Ridgeland","MS","Freedom Ridge Park","Commerce Park Dr","39157",32.41845607397978,-90.1403049361257
"39168","Taylorsville","MS","Taylorsville City Park - Downtown","not_available","39168",31.827834,-89.428213
"39168","Taylorsville","MS","Walking Track","not_available","39422",31.915807910291374,-89.35759105451014
"39170","Terry","MS","Village Park","Cunningham Street","39170",32.09817229588755,-90.29723167419434
"39180","Vicksburg","MS","Vicksburg Riverfront Park","Washington St","39180",32.32064993467635,-90.89745159705517
"39180","Vicksburg","MS","Vicksburg Skate Park","not_available","39180",32.324076,-90.888171
"39180","Vicksburg","MS","City Park","100-198 Army Navy Dr","39180",32.32131147003231,-90.88983168626696
"39180","Vicksburg","MS","Washington Street Park","Washington St.","39183",32.35253,-90.881522
"39180","Vicksburg","MS","Vicksburg National Military Park - National Cemetery","3201 Clay St","39183",32.343631744384766,-90.85285186767578
"39183","Vicksburg","MS","VICK Stop 9","not_available","39183",32.369863,-90.869384
"39194","Yazoo City","MS","Wardell Leach Yazoo City Recreational Complex","not_available","39194",32.87077900522674,-90.40856734914604
"39201","Jackson","MS","Battlefield Park","not_available","39204",32.28687867329933,-90.19938468933105
"39201","Jackson","MS","Smith Park","302 Amite St","not_available",32.30125983148985,-90.18296776205612
"39201","Jackson","MS","Mississippi State Capitol Grounds","not_available","39201",32.304347,-90.181812
"39202","Jackson","MS","Laurel Street Park","1841 Laurel St","39202",32.31816290964937,-90.16450482915491
"39202","Jackson","MS","Belhaven Park","1000 Poplar Blvd","39202",32.31526359793643,-90.17440398653635
"39202","Jackson","MS","Riverside Park","not_available","39202",32.326598174696144,-90.15819198494147
"39204","Jackson","MS","Leavell Woods Park","not_available","39212",32.25199727896555,-90.23519648275197
"39206","Jackson","MS","Hico Park","not_available","39213",32.367593668031795,-90.19346462937177
"39206","Jackson","MS","Grove Park","not_available","39211",32.35468346252651,-90.2004488632263
"39206","Jackson","MS","Parham Bridges Park","not_available","39206",32.368958295163914,-90.14923599729698
"39208","Pearl","MS","Jamie Fowler Boyll Park","1398 Lakeland Dr","39216",32.33536104,-90.15335211
"39208","Pearl","MS","Lakeland Park","3601 Lakeland Lane","39216",32.334069994286665,-90.15085880176233
"39208","Pearl","MS","Pearl Park","Mary Ann Drive","39208",32.28270774477505,-90.10766975764498
"39209","Jackson","MS","Claiborne park","not_available","39209",32.30939643916376,-90.22482572561991
"39211","Jackson","MS","Parham Bridges Walking Trail","5055 Old Canton Rd","39211",32.36668014526367,-90.14241027832031
"39213","Jackson","MS","Fondren Park","not_available","39216",32.34092505416097,-90.17771582038377
"39301","Meridian","MS","Bonita Lakes Park","418 Lake Dr","39301",32.362780808803244,-88.66213560104369
"39301","Meridian","MS","Highland Park","1720 Jimmie Rogers Memorial Dr","39307",32.375490534371934,-88.71974750141227
"39301","Meridian","MS","Harmon Sanders Memorial Park","2685 St. John St","39301",32.353464193603244,-88.70848417282103
"39301","Meridian","MS","Singing Brakeman Park","1800 Front St","39301",32.36505740240381,-88.69489861341937
"39301","Meridian","MS","Ben Arthur Davis Park","14th Street","39301",32.37082689361491,-88.68939921637771
"39305","Meridian","MS","Northeast Park","7300 Newell Rd #A","39305",32.438854925182284,-88.67032689109426
"39305","Meridian","MS","Collinsville Park","not_available","39325",32.493282318115234,-88.82685089111328
"39305","Meridian","MS","East Bank Park","not_available","39307",32.41886520385742,-88.7724609375
"39327","Decatur","MS","Turkey Creek Waterpark","not_available","39327",32.4092218266638,-89.15408082496297
"39330","Enterprise","MS","Richey park","not_available","39330",32.17168971496541,-88.82158517230066
"39339","Louisville","MS","Burnside Lake Park","not_available","39346",32.936159,-89.096356
"39339","Louisville","MS","Academy Park","E Academy St.","39339",33.121727541432904,-89.04169660505234
"39339","Louisville","MS","Lake Tiak-O'khata","not_available","39339",33.09729297788396,-89.07958693352874
"39350","Philadelphia","MS","Dewitt Deweese Memorial Park","not_available","39350",32.77157440093346,-89.11388460058552
"39401","Hattiesburg","MS","Tatum Park","Veterans Memorial Blvd","39401",31.2814675172087,-89.3202421805096
"39401","Hattiesburg","MS","Handicap Parking Wesley Medical Center","not_available","39402",31.325151,-89.368326
"39401","Hattiesburg","MS","Leeville Community Center","not_available","39465",31.389329550363176,-89.22823435316391
"39401","Hattiesburg","MS","Pineview Park","Country Club Rd","not_available",31.307503487579755,-89.30728197097778
"39401","Hattiesburg","MS","Shoemaker Square","not_available","39401",31.327979487709293,-89.33308482170105
"39401","Hattiesburg","MS","Gatlin's Tailgate City","Montague Bkvd","39401",31.32882789,-89.33703872
"39401","Hattiesburg","MS","Jaycee Park","Lurty Ave","not_available",31.328199438469603,-89.31204557418823
"39401","Hattiesburg","MS","Petal Dog Park","Dawson Cutoff","39465",31.328725857136217,-89.26257560098088
"39401","Hattiesburg","MS","Bruce and Virginia Wilgus Fitness Trail","College Dr","39406",31.329482474328202,-89.33648586273193
"39401","Hattiesburg","MS","Fountain Park","W Front St, Hattiesburg, MS 39401","39401",31.325619961818617,-89.29128392964229
"39401","Hattiesburg","MS","Wagon Wheel Hotel","1870 Highway 42","39465",31.363077,-89.146501
"39401","Hattiesburg","MS","Walthall Park","600 walnut street","39401",31.319025,-89.288658
"39401","Hattiesburg","MS","Hattiesburg Recycling Center","Kamper Park","39401",31.323071702706194,-89.31732952594757
"39423","Beaumont","MS","New augusta park","not_available","39462",31.20407,-89.02862
"39425","Brooklyn","MS","Black Creek Canoe Rentals","20 Old Hwy 49 E","39425",31.05613414,-89.1906
"39426","Carriere","MS","Henleyfield Community Center","not_available","39426",30.679241,-89.765057
"39426","Carriere","MS","Crosby Commons","801 Goodyear Blvd","39466",30.529588,-89.687718
"39426","Carriere","MS","Carriere Walking Track","Old U.S. 11","39426",30.61955541,-89.6518479
"39426","Carriere","MS","Jack Reed Park","not_available","39466",30.528495942043886,-89.6829453532455
"39428","Collins","MS","Collins City Park","Roberts St","39428",31.629348825225566,-89.54854294016853
"39437","Ellisville","MS","Howard Technology Park","42 Technology Blvd","39437",31.58144490018993,-89.23959128127494
"39439","Heidelberg","MS","Cotton Mill Park","N 11th Ave","39440",31.742672570590592,-89.14463110800337
"39440","Laurel","MS","Art Park","magnolia","39440",31.692884,-89.129585
"39440","Laurel","MS","Gardiner park","not_available","39440",31.70329248021905,-89.12613943045056
"39452","Lucedale","MS","Lum Cumbest Large Pavilion","not_available","39562",30.652448654174805,-88.55378723144531
"39452","Lucedale","MS","Lucedale City Park","Mill St.","39452",30.92558708941153,-88.58893768633456
"39452","Lucedale","MS","Lum Cumbest Park","18417 MS-613","39562",30.61423124582229,-88.49034547805786
"39452","Lucedale","MS","Escatawpa Hollow Camp Ground & Canoe Rental","15551 Moffett Rd","36587",30.859691,-88.41257
"39452","Lucedale","MS","jackson county horse arena","18730 Hwy 613","not_available",30.61103061539834,-88.48971514723107
"39455","Lumberton","MS","Poplarville city park & walking track","not_available","39470",30.834374723331283,-89.53509557005466
"39455","Lumberton","MS","Wood Hinton Park","not_available","39455",30.998808638838362,-89.4581323365765
"39466","Picayune","MS","Mississippi Welcome Center","I55","39466",30.4970717164673,-89.6688437461853
"39466","Picayune","MS","Poitevent Park","66306 Highway 41","70452",30.44644146878142,-89.79858075049205
"39466","Picayune","MS","The Lanai","2-98 Rosewood Dr","39466",30.51703691482544,-89.62553143501282
"39476","Richton","MS","Richton Recreational Park","not_available","39476",31.345457,-88.93426179885864
"39482","Sumrall","MS","Sumrall Park","not_available","39482",31.420240382313423,-89.54375812189528
"39501","Gulfport","MS","Gulfport Harbor/Jones Park","2250 Jones Park Dr","39501",30.365830881210094,-89.0894865989685
"39501","Gulfport","MS","Bayou Bernard Park","Switzer Rd","39507",30.408576957150014,-89.01686661227866
"39501","Gulfport","MS","Bark Park","3317 Jeffrey Cir","39501",30.389351,-89.06988
"39501","Gulfport","MS","The Park","not_available","39503",30.401000536118687,-89.01137688499786
"39501","Gulfport","MS","Francis X. Collins Fitness Center","not_available","39507",30.391783647826866,-89.02044201012326
"39501","Gulfport","MS","Cool Little Park","not_available","39501",30.373111848031847,-89.07676245405194
"39501","Gulfport","MS","Francis X. Collins Park","Gulfport,MS,39507","39507",30.3674198,-89.0928155
"39501","Gulfport","MS","Memorial Park Long Beach","not_available","39560",30.349151085396223,-89.15305732782285
"39503","Gulfport","MS","Golden Sportsplex","12136 Prudie Circle","39503",30.454948319572527,-89.06393462479036
"39503","Gulfport","MS","Gulfport Sportsplex","17200 16TH St","39503",30.431283722155552,-89.12576213479042
"39503","Gulfport","MS","West Harrison Walking Track","not_available","39571",30.430724,-89.291859
"39503","Gulfport","MS","Pennzoil McManus Park","385 Churchill Ave","39531",30.407664744235248,-88.98469006802823
"39503","Gulfport","MS","Fire Station's Park","not_available","39532",30.471297,-88.981258
"39520","Bay Saint Louis","MS","Hancock Medical Center Walking Park","not_available","39520",30.315091,-89.355332
"39530","Biloxi","MS","Marshall Park","Robinson Ave","39564",30.41746716813637,-88.82910219479734
"39530","Biloxi","MS","Fort Maurepas Park","Front Beach Dr","39564",30.40569387370252,-88.82919144793003
"39530","Biloxi","MS","Inner Harbor Park","Pine Street","39564",30.40719165940367,-88.81746768951416
"39530","Biloxi","MS","Biloxi Lighthouse Park","1050 Beach Blvd","39530",30.39480972290039,-88.90119171142578
"39530","Biloxi","MS","Hiller Park Biloxi","380 Hiller Dr","39531",30.40950882152072,-88.9524890680366
"39530","Biloxi","MS","Biloxi Town Green","716 Beach Blvd","39530",30.393432516293316,-88.88677494772551
"39530","Biloxi","MS","Keesler Flight Line Track","not_available","39530",30.41095984081737,-88.93247005195859
"39530","Biloxi","MS","Rossetti Park","709 Church Ave","39564",30.414690999999998,-88.829115
"39530","Biloxi","MS","Seaman Memorial","Front Beach Dr","not_available",30.404924392700195,-88.8280258178711
"39530","Biloxi","MS","Marble Springs (Geocache)","not_available","39564",30.417635215158597,-88.82605906825711
"39530","Biloxi","MS","Fais Do Do","Biloxi Town Green","39530",30.394873,-88.890179
"39530","Biloxi","MS","Lopez Park","Benachi Street","not_available",30.39381620897753,-88.89705652177308
"39530","Biloxi","MS","Long Beach Town Green","Jeff Davis Ave","39560",30.348515315550554,-89.14962842496195
"39530","Biloxi","MS","Little Childrens Park","1001-1099 Calhoun St","39564",30.409468628652608,-88.82741672952704
"39532","Biloxi","MS","Popp's Ferry Causeway Park","Causeway St.","39532",30.42417481316671,-88.9741899328241
"39532","Biloxi","MS","Margaret Sherry exercise Track","Popps ferry rd","39532",30.43605058,-88.96584132
"39532","Biloxi","MS","Village Green","not_available","39574",30.575045,-89.058317
"39532","Biloxi","MS","Rudy Moran Walking Track And Ballpark","not_available","39540",30.45165,-88.891393
"39553","Gautier","MS","Gautier City Park","De la Pointe Dr","not_available",30.3895613536284,-88.62420811798476
"39553","Gautier","MS","Sandhill Landing Park","7459 Buckwheat Tree Rd","39565",30.44909583725219,-88.7169760465622
"39561","Mc Henry","MS","Diamond Lake RV Park","997 Highway 49","39573",30.748979,-89.1355066
"39562","Moss Point","MS","Second Ave Park","3501-3595 2nd St","39563",30.39238496,-88.51952401
"39562","Moss Point","MS","Edward A. Khayat Memorial Park","Moss Point,MS,39563","10463",30.4115881,-88.5344601
"39562","Moss Point","MS","Pine St. Park","4008 Pine St","39567",30.373715,-88.55574399999999
"39562","Moss Point","MS","Jackson County Veteran's Memorial","Main Street","not_available",30.41523551940918,-88.53846740722656
"39562","Moss Point","MS","Pascagoula River Front Park","Clark St","39567",30.36575980970865,-88.56353640531422
"39564","Ocean Springs","MS","Ocean Springs Parks and Leisure","400 Alice St","39564",30.404848497363286,-88.8034075498581
"39565","Vancleave","MS","Vancleave Park","Ballpark Rd","39565",30.52421867987389,-88.69540664812118
"39567","Pascagoula","MS","Pascagoula Beach Park","not_available","39567",30.343893948089022,-88.53425648325128
"39601","Brookhaven","MS","Panter Field","not_available","39601",31.579583,-90.437954
"39601","Brookhaven","MS","Brookhaven City Park","365 Hartman St","39601",31.589693035447702,-90.4516441242438
"39638","Gloster","MS","Ethel Stratton Vance Park","not_available","39638",31.184901513069764,-90.93526007514764
"39648","Mccomb","MS","Hollywood Cemetary","not_available","39648",31.24098339150698,-90.47058680394946
"39648","Mccomb","MS","Percy Quin State Park Campground","Camp Beaver Dr","not_available",31.17829407891586,-90.52348136901855
"39653","Meadville","MS","Clear Springs Recreation Area","not_available","39661",31.429880253036593,-90.98328742620342
"39654","Monticello","MS","Cooper's Ferry Park","Brinson St","not_available",31.554682,-90.107062
"39667","Tylertown","MS","Tylertown Park","not_available","39667",31.122211308185616,-90.14196392791534
"39701","Columbus","MS","Sim Scott Park","not_available","39701",33.505325088059486,-88.41419907466819
"39701","Columbus","MS","Plymouth Bluff","2306 Old West Point Rd","39701",33.50899124145508,-88.49459838867188
"39735","Ackerman","MS","Bruce Burney Memorial Walking Park","179-223 W Main St","39735",33.309866739506106,-89.16926277805295
"39735","Ackerman","MS","Ackerman Ballfield","not_available","39735",33.309482,-89.160591
"39735","Ackerman","MS","Little Mountain","Prewitt Rd","39735",33.41374701415875,-89.26116943359375
"39740","Caledonia","MS","Ola J. Pickett Park","9631 Wolfe Rd","39740",33.677093505859375,-88.32624053955078
"39759","Starkville","MS","Patriot's Park","Whitfield St","39759",33.45424449110264,-88.83289560547034
"39759","Starkville","MS","Research Park","Mississippi Blvd","39759",33.47028132857996,-88.79018407870461
"39759","Starkville","MS","Moncrief Park","not_available","39759",33.47031,-88.811877
"39759","Starkville","MS","Cornerstone Park","Starkville, MS 39759","39759",33.429036140441895,-88.85440170764923
"39759","Starkville","MS","Josey Park","Josey Street","39759",33.45691667486566,-88.82454906473716
"39759","Starkville","MS","Drill Field","Lee Blvd","39762",33.454067730798705,-88.7896114807219
"39769","Sturgis","MS","Sturgis Park","not_available","39769",33.34295074469849,-89.05140333304904
"39773","West Point","MS","West Point Skatepark","not_available","39773",33.608937,-88.635343
