"zip","city","state","name","address","postalCode","lat","lon"
"99501","Anchorage","AK","Margaret Eagan Sullivan Park (Westchester Lagoon) and Waterfowl Sanctuary","1824 W 15th Ave","99501",61.20797923501377,-149.91452583396537
"99501","Anchorage","AK","Chester Creek Trail","not_available","not_available",61.20305864094945,-149.87950812811712
"99501","Anchorage","AK","Valley of the Moon Park","610 W 17th Ave","99501",61.20496471567767,-149.8918682540652
"99501","Anchorage","AK","Resolution Park","320 L St","not_available",61.21931,-149.904057
"99501","Anchorage","AK","The Polar Bear park","801 Pine Street","not_available",61.21500015258789,-149.7930450439453
"99501","Anchorage","AK","Elderberry Park","5th Ave Mall","99501",61.217709997360735,-149.90685939788818
"99501","Anchorage","AK","Delaney Park Strip","9th Ave","99501",61.21329942938868,-149.90351466434046
"99501","Anchorage","AK","Russian Jack Springs Park","5200 DeBarr","not_available",61.19989149855495,-149.78976871982314
"99501","Anchorage","AK","Hostetler Park","not_available","99501",61.219357,-149.90298
"99501","Anchorage","AK","Midnight Sun Park","Arctic Warrior Dr","99505",61.2402440161959,-149.80686345431087
"99501","Anchorage","AK","Sunset Park","600 Vine Ave","99501",61.228876,-149.87298
"99501","Anchorage","AK","Quyana Park","1st Street","99501",61.221495,-149.892235
"99501","Anchorage","AK","Anchorage Museum Park","121 W 7th Ave","99501",61.21621322631836,-149.88436889648438
"99501","Anchorage","AK","Dave Rose Park","201 Lane St","99508",61.220858,-149.795859
"99501","Anchorage","AK","Fairview Park","12th","not_available",61.2103271484375,-149.86016845703125
"99501","Anchorage","AK","Kanchee Park","Klevin","99508",61.21972843814524,-149.80454076939876
"99501","Anchorage","AK","Buttress Park","West 2nd Avenue","99501",61.220499378691215,-149.88836288452148
"99501","Anchorage","AK","Town Square Park","560 W 5th Ave","not_available",61.21706943785726,-149.89256858825684
"99501","Anchorage","AK","delaney park anchorage","Delaney St","99501",61.211355,-149.904479
"99502","Anchorage","AK","Point Woronzof","Point Woronzof","not_available",61.2022619770091,-150.02084559236135
"99502","Anchorage","AK","Earthquake Park","4306 W Northern Lights Blvd","99517",61.196446967569074,-149.9776363766918
"99502","Anchorage","AK","Michael J. Shibe Park","Ticonderoga","99502",61.15102195471781,-149.9269437789917
"99502","Anchorage","AK","Kincaid Park","6998 Raspberry Rd","99502",61.15413417132723,-150.04837438577488
"99502","Anchorage","AK","Northwood Park","4700 Northwood Drive","not_available",61.18064943883307,-149.92610770197862
"99502","Anchorage","AK","Jewel Lake Park","4342 W 88th Ave","99502",61.140989,-149.96083
"99502","Anchorage","AK","Taiya's Playground","not_available","99502",61.165988,-149.951681
"99502","Anchorage","AK","Kiwanis Fish Creek Park","3907 Turnagain Blvd E","99517",61.18524932861328,-149.934326171875
"99502","Anchorage","AK","Secret Spenard Chess Park","not_available","99517",61.184086,-149.925868
"99502","Anchorage","AK","Old Hermit Park","Willow Street","99517",61.19234445651098,-149.9247593866364
"99502","Anchorage","AK","Shady Birch Park","3442 W 81st Ave","99502",61.14714813232422,-149.94403076171875
"99503","Anchorage","AK","Cuddy Family Mid-Town Park","201 E 40th Ave","99503",61.18444318269495,-149.88081347227148
"99503","Anchorage","AK","Talstar Lodge","Fish Lake Trail","99667",61.8579747,-151.39867857
"99504","Anchorage","AK","Little dipper park","not_available","99504",61.190423098193214,-149.72222632277337
"99504","Anchorage","AK","Valley Street Park","Valley St","99504",61.215512,-149.724631
"99504","Anchorage","AK","Cheney Lake Park","2245 Baxter Rd.","not_available",61.20017678380431,-149.76219137325796
"99504","Anchorage","AK","Chugach Foothills Park","7975 Pioneer Dr","99504",61.18543930415194,-149.73138910726823
"99504","Anchorage","AK","Standish Park","444 Standish St","99504",61.21797180175781,-149.72560119628906
"99504","Anchorage","AK","Turpin Park","Oklahoma St","99506",61.22176,-149.742178
"99504","Anchorage","AK","Baxter Bog Park","Baxter Rd","99504",61.186201239583774,-149.75956123809604
"99505","Jber","AK","National Guard Memorial Park","not_available","99505",61.272204,-149.637791
"99505","Jber","AK","Lions Park","18186-18298 Eagle River Rd","99577",61.30961377809499,-149.54181835427948
"99505","Jber","AK","Chief Alex Park","not_available","99577",61.32070541381836,-149.56964111328125
"99505","Jber","AK","Cotton Park","not_available","99506",61.24089835367073,-149.69916786608275
"99506","Jber","AK","Mountain View Lions Park","Mountain View Dr.","not_available",61.22693900820229,-149.79324166380158
"99507","Anchorage","AK","Folker Park","corner of Folker & E. 42nd","99508",61.18323039352765,-149.83074619207486
"99507","Anchorage","AK","Abbott Loop Community Park","not_available","99507",61.14789270545086,-149.8042060362639
"99507","Anchorage","AK","Forsythe Park","not_available","99516",61.11969117115646,-149.76522604777375
"99507","Anchorage","AK","The Ugly Rock Garden","Abbott Road","99507",61.135949022825486,-149.78689137332046
"99508","Anchorage","AK","Goose Lake","Northern Lights Blvd","99508",61.194346790712075,-149.8245457163434
"99508","Anchorage","AK","Dog Park","not_available","99508",61.187078196991784,-149.79593286120124
"99508","Anchorage","AK","Castle Heights Park","4913 Vance Dr","99508",61.18427658081055,-149.7898712158203
"99508","Anchorage","AK","Carlson Park","2214 Stanford Dr","99508",61.19135665893555,-149.84066772460938
"99508","Anchorage","AK","South Merrill Park","1400 Merrill Field Dr","99501",61.208473205566406,-149.84820556640625
"99515","Anchorage","AK","Oceanview Park","not_available","99515",61.096826451117664,-149.8444089561751
"99516","Anchorage","AK","Chugach State Park","not_available","99540",61.05125500487469,-149.79415340134832
"99516","Anchorage","AK","McHugh Creek","Seward Highway","99516",61.016888084787794,-149.73205917586083
"99516","Anchorage","AK","Storck Park","Rabbit Creek and Clarks Road","not_available",61.08823522586102,-149.75051371587534
"99516","Anchorage","AK","Ray E. Stork Park","7020 Clarks Rd","99516",61.087989807128906,-149.7487030029297
"99516","Anchorage","AK","Anchorage Coastal Wildlife Refuge","2999 E 154th Ave","99516",61.07789774219618,-149.82721234250684
"99518","Anchorage","AK","Campbell Creek Greenbelt Park","E. Fairbanks","99518",61.16717131798316,-149.8820102932477
"99518","Anchorage","AK","Campbell Creek","not_available","99518",61.1593284733086,-149.87303398875227
"99566","Chitina","AK","Squirrel Creek State Recreation Site","not_available","99573",61.666968,-145.1729765
"99567","Chugiak","AK","Loretta French Sports Complex","18800 Old Glenn Hwy","99577",61.39294524599904,-149.4688159919948
"99567","Chugiak","AK","Peters Creek Disc Golf","20421 Old Glenn Hwy","99567",61.404236075239915,-149.45607084489632
"99572","Cooper Landing","AK","Pink Salmon Parking Area","not_available","99572",60.481631449153916,-149.9732042809604
"99573","Copper Center","AK","College Fjord","not_available","99686",61.27718,-147.69759
"99574","Cordova","AK","Decision Point State Marine Park","not_available","99693",60.81372680762124,-148.48333696622512
"99574","Cordova","AK","Horseshoe Bay State Marine Park","not_available","99574",60.0320915,-147.9444143
"99576","Dillingham","AK","Lake Aleknagik State Recreation Site","not_available","99576",59.3606127,-158.8885651
"99577","Eagle River","AK","Beach Lake Park","18581 Beach Lake Rd","99567",61.21750960074796,-149.56626825872974
"99587","Girdwood","AK","Alaska Wildlife Conservation Center","Mile 79 Seward Hwy","99587",60.822335794456585,-148.98319244384766
"99587","Girdwood","AK","Portage Glacier","Portage Glacier Rd.","99587",60.77084444795328,-148.83367538452148
"99588","Glennallen","AK","Lake Louise State Recreation Area","not_available","99588",62.2814077,-146.542487
"99603","Homer","AK","End Of The Road Park","not_available","99603",59.601044,-151.410459
"99603","Homer","AK","Sasquatch Alaska Adventure Co","2190 Kachemak Dr","99603",59.64002990722656,-151.48489379882812
"99610","Kasilof","AK","Soldotna Creek Park","251 States Avenue","99669",60.48366795260757,-151.06223987291398
"99610","Kasilof","AK","Arc Lake","not_available","99669",60.45014925,-151.10528228333334
"99610","Kasilof","AK","Rotary Park","Funny River Road","99669",60.47914315776782,-151.03174567222595
"99610","Kasilof","AK","Centennial Park","349 Centennial Park Road","99669",60.480255126953125,-151.09463500976562
"99611","Kenai","AK","Leif Hansen Memorial Park","10959 Kenai Spur Hwy","99611",60.555075,-151.245429
"99611","Kenai","AK","Aspen Park","N Aspen Dr","99669",60.49605036167246,-151.07308387756348
"99611","Kenai","AK","Parker Park","W Park Ave","99669",60.48991531813373,-151.07698917388916
"99611","Kenai","AK","Nikiski Recreation Center","not_available","99611",60.705228,-151.386293
"99611","Kenai","AK","Sunrise Park","W Sunrise Ave","99669",60.488964044656946,-151.0889196395874
"99615","Kodiak","AK","Buskin River State Recreation Site","not_available","99615",57.7566049429602,-152.49090421501106
"99645","Palmer","AK","Independence Mine State Historic Park","not_available","99645",61.789951740527094,-149.2815370961489
"99645","Palmer","AK","Alaska Horse Adventures, LLC","18810 Walling Road","99645",61.534175,-148.976482
"99654","Wasilla","AK","Wonderland Park","not_available","99654",61.58407224750334,-149.46384430925104
"99654","Wasilla","AK","Carter Park","Lake St","99654",61.57795413864046,-149.4483620282358
"99654","Wasilla","AK","Leo M. Nunley Park","201 E Herning Ave","99654",61.58254623413086,-149.44676208496094
"99664","Seward","AK","Hoben Park","Railroad","99664",60.100395,-149.44022
"99664","Seward","AK","Kawabe Park","not_available","99664",60.102785,-149.440931
"99674","Sutton","AK","Glacier Access","66500 S Glacier Park Rd - Glacier Entrance","99674",61.780065213021444,-147.7644934693146
"99676","Talkeetna","AK","Talkeetna River Park","not_available","99676",62.323085,-150.12212
"99683","Trapper Creek","AK","Blair Lake State Recreation Site","not_available","99683",62.59233797116687,-150.23977755291708
"99685","Unalaska","AK","City Of Unalaska Town Park","not_available","99692",53.873863,-166.53397
"99701","Fairbanks","AK","Creamer's Field","1300 College Rd","99701",64.86299238675628,-147.73753018388393
"99701","Fairbanks","AK","Slaterville Park","not_available","99701",64.8476976582557,-147.71708743394555
"99701","Fairbanks","AK","Fairbanks Dog Park","2000 Davis Rd","99709",64.82445526123047,-147.75924682617188
"99701","Fairbanks","AK","Griffin Park","107-109 Dunkel St","99701",64.84510098218405,-147.7169196887401
"99701","Fairbanks","AK","The Hidden Park","not_available","99703",64.838791,-147.68629
"99701","Fairbanks","AK","Alaska's Flag Sheet Music Monument","518 First Avenue","99701",64.844168,-147.719124
"99705","North Pole","AK","Chena Lakes Recreation Area","3780 Laurance Rd.","99705",64.76922314811581,-147.22795486450195
"99705","North Pole","AK","Bobanna Park","1810 Kendall Avenue","99705",64.82632446289062,-147.46380615234375
"99705","North Pole","AK","Christmas In Ice","125 N Santa Claus Ln","99705",64.75338832054561,-147.33971936558373
"99705","North Pole","AK","Birch Lake State Recreation Site","not_available","99712",64.71889188116221,-147.19243624382827
"99714","Salcha","AK","Bichlake Recreation area","not_available","99714",64.314854,-146.644671
"99723","Barrow","AK","Utqiagvik","not_available","99723",71.300124,-156.752192
"99737","Delta Junction","AK","Basin Homes Park","Central Dr.","98837",63.06211473285571,-145.118408203125
"99737","Delta Junction","AK","Big Delta State Historical Park","not_available","99737",64.15430726947628,-145.83822540550355
"99737","Delta Junction","AK","Delta State Recreation Site","not_available","99755",64.05394339584,-145.73618721462879
"99737","Delta Junction","AK","Eagle Trail State Recreation Site","not_available","99780",63.1738125,-143.1761823
"99756","Manley Hot Springs","AK","White Mountains National Recreation Area","Yukon-Koyukuk","not_available",65.22648549777081,-153.54771137237546
"99801","Juneau","AK","Mendenhall Glacier","Juneau Ranger District, 8510 Mendenhall Loop Road","99801",58.41723041846481,-134.54576160817766
"99801","Juneau","AK","Twin Lakes","Glacier Hwy.","99801",58.33304554144013,-134.4747145971908
"99801","Juneau","AK","Point Bridget State Park","not_available","99801",58.6610858,-134.9672134
"99801","Juneau","AK","Marine Park","144 Marine Wy.","99801",58.29910945500126,-134.40596424313313
"99801","Juneau","AK","Cope Park","Cope Park Rd.","99801",58.30487981135854,-134.41421409545657
"99801","Juneau","AK","Aant'iyeik Park","Glacier Hwy","99801",58.382382,-134.735884
"99801","Juneau","AK","Oliver Inlet State Marine Park","not_available","99840",58.1014236,-134.314129
"99801","Juneau","AK","West Juneau Rotary Park","2689 David St","99801",58.28730010986328,-134.41900634765625
"99826","Gustavus","AK","Sullivan Island State Marine Park","not_available","99827",58.9632525,-135.3224166
"99830","Kake","AK","Security Bay State Marine Park","not_available","99929",56.8521964,-134.3372389
"99833","Petersburg","AK","Beecher Pass State Marine Park","not_available","99833",56.5989007,-133.0214307
"99835","Sitka","AK","Magoun Islands State Marine Park","not_available","99835",57.1602057,-135.5936307
"99901","Ketchikan","AK","Raspberry Cove","not_available","99901",55.442571,-131.810137
"99901","Ketchikan","AK","Thom s Place State Marine Park","not_available","99811",56.1713065,-132.1291932
"99901","Ketchikan","AK","Settler's Cove State Park","18011 N Tongass","99901",55.51048877802599,-131.65852796679974
"99901","Ketchikan","AK","Whale Park","625 Mill Street","99901",55.341715095492745,-131.6441834662811
"99927","Point Baker","AK","Joe Mace Island State Marine Park","not_available","99927",56.3473537,-133.6346843
