"zip","city","state","name","address","postalCode","lat","lon"
"85003","Phoenix","AZ","Roosevelt Square Apartments","121 W Portland St","85003",33.45947881469792,-112.07602808133458
"85003","Phoenix","AZ","Portland Parkway","10 W Portland St","85003",33.459844884850014,-112.0756257395976
"85003","Phoenix","AZ","Grant Park","701 S 3rd St","85003",33.440736,-112.07694599999999
"85003","Phoenix","AZ","Civic Space Park","424 N Central Ave","85004",33.45351954630914,-112.07445935100696
"85003","Phoenix","AZ","Pop-Up Park @ CityScape","50 W Jefferson St, Arizona State University - Downtown Phoenix Campus, Phoenix, AZ 85003","85003",33.44741439819336,-112.07482147216797
"85003","Phoenix","AZ","Space Ship","not_available","85004",33.45340895208887,-112.07431000019945
"85003","Phoenix","AZ","maricopa county parks and recreation department","234 N Central Ave Ste 6400","85004",33.45101547241211,-112.07420349121094
"85003","Phoenix","AZ","Harmon Park","not_available","85003",33.43382,-112.07953
"85003","Phoenix","AZ","Vernon Avenue Pocket Park","10 W Vernon Ave","85003",33.474205017089844,-112.0744857788086
"85003","Phoenix","AZ","Roosevelt Park","not_available","not_available",33.45789756501248,-112.07849831525472
"85003","Phoenix","AZ","Washington Street between 2nd and 3rd Avenues","xxxx","85004",33.4481831460275,-112.07689762115479
"85003","Phoenix","AZ","Laci Land","434 N Central Ave","85003",33.451371,-112.074534
"85004","Phoenix","AZ","Phoenix Rio Salado Park & Restoration Area","2439 S. Central Ave","85004",33.42280953616579,-112.0720911026001
"85004","Phoenix","AZ","Margaret T Hance Park","67 W Culver St","85003",33.46215975528237,-112.07284289173006
"85004","Phoenix","AZ","Heritage and Science Park","115 N 6th St","85004",33.449331061772,-112.06636897423789
"85004","Phoenix","AZ","Willo Pocket Park","2200 N 3rd St","85004",33.471439361572266,-112.06973266601562
"85004","Phoenix","AZ","Monterey Park","350 E Oak St","85004",33.474309723498706,-112.06766143032128
"85004","Phoenix","AZ","Virginia Piper Plaza","W Van Buren St","85009",33.45072546995054,-112.06897974014282
"85004","Phoenix","AZ","Townsend Park","520 E Lynwood St","85004",33.465448123446855,-112.06592864632988
"85004","Phoenix","AZ","Park @ Central & Thomas","77 E Roanoke Ave","85004",33.478484,-112.070296
"85004","Phoenix","AZ","Central Park","1202 South3rd Street","85004",33.43832219516733,-112.07245864889283
"85004","Phoenix","AZ","M.O. Best Park","1005 N 2nd St","85004",33.458999,-112.07054699999999
"85006","Phoenix","AZ","Coronado Park","1717 N 12th St","85006",33.46836139223096,-112.05578478216448
"85006","Phoenix","AZ","Virginia Park","not_available","85006",33.476752,-112.049218
"85006","Phoenix","AZ","Verde Park","916 E Van Buren St","85006",33.45362602415189,-112.0609273240908
"85006","Phoenix","AZ","Playground","McDowell","not_available",33.45312975170717,-112.05816593809517
"85007","Phoenix","AZ","Encanto Park","15th Ave & Encanto Blvd","85007",33.47452390455862,-112.09032587734464
"85007","Phoenix","AZ","Enchanted Island","1202 W Encanto Blvd","85007",33.47469093257227,-112.08799054305051
"85007","Phoenix","AZ","Pioneer & Military Memorial Park","1500 W. Jefferson","85007",33.44678182563078,-112.09019236362059
"85007","Phoenix","AZ","Alkire Park","not_available","85007",33.43402099609375,-112.09461212158203
"85008","Phoenix","AZ","Papago Park","625 N Galvin Pkwy","85008",33.46016006282705,-111.95347309112549
"85008","Phoenix","AZ","Old Cross Cut Canal Park","Parallel 48th St","85018",33.480168806928354,-111.98025623864277
"85008","Phoenix","AZ","Crosscut Canal Multi-use Path","Papago Park","85281",33.44838938580308,-111.93957728837779
"85008","Phoenix","AZ","Hilaria Rodriguez Park","2801 E Adams St","85034",33.448997497558594,-112.02136993408203
"85008","Phoenix","AZ","in a Gutter","not_available","85008",33.480371590814606,-112.03018576463404
"85008","Phoenix","AZ","Galvin Bikeway","Papago Park","not_available",33.463747984761724,-111.9539404434774
"85008","Phoenix","AZ","Tovrea Castle at Carraro Heights","5025 E Van Buren St","85008",33.44827030748718,-111.97174105375177
"85008","Phoenix","AZ","Pierce Park","2150 N 46th St","85008",33.47230460946406,-111.9903452869395
"85008","Phoenix","AZ","Cityof Phoenix Parks-Pierce","4550 E Oak St","85008",33.472294261971406,-111.98318340762594
"85008","Phoenix","AZ","Hobbits Hole","646 N 44th St, Phoenix, AZ 85008","85008",33.45583724975586,-111.98725128173828
"85009","Phoenix","AZ","Coffelt Park","1510 S 19th Dr","85009",33.433433,-112.101901
"85009","Phoenix","AZ","Kuban Community Park","3275 W Sherman St","85009",33.44012085,-112.12935614
"85009","Phoenix","AZ","Willow Park","2808 W Taylor St","85009",33.45412063598633,-112.11973571777344
"85009","Phoenix","AZ","Sueno Park","4401 W Encanto Blvd","85035",33.471896,-112.154021
"85009","Phoenix","AZ","Smith Park","4022 W Sherman St","85009",33.441179999999996,-112.146429
"85009","Phoenix","AZ","Sherman Park","not_available","85009",33.440224745782565,-112.10254002239506
"85012","Phoenix","AZ","Steele Indian School Park","300 E Indian School Rd","85012",33.498100287046256,-112.06975730364157
"85012","Phoenix","AZ","Southwest Vegfest","not_available","85012",33.500429,-112.06825
"85012","Phoenix","AZ","Montebello Triangle Park","not_available","85013",33.520206,-112.075926
"85012","Phoenix","AZ","Volleyball Courts At Indian Steele Park","Indian School","85012",33.50146250102243,-112.07124770138239
"85012","Phoenix","AZ","Hashy Yoga","411 E Indian School Rd","85012",33.493697999999995,-112.066879
"85013","Phoenix","AZ","Colter Park","525 W Colter St","85013",33.51263203278322,-112.08484171752855
"85013","Phoenix","AZ","Forest Park","3800 N 6th Ave","85013",33.49135182023308,-112.08241983408075
"85013","Phoenix","AZ","Brentwood Park","334 W Medlock Dr","85013",33.51226007113778,-112.07971745475872
"85015","Phoenix","AZ","Washington Park","not_available","85015",33.53187434936049,-112.10454853874973
"85015","Phoenix","AZ","Parque Nacional del Cuatro Vientos","1927 W Weldon Ave","85015",33.49024200439453,-112.10118865966797
"85015","Phoenix","AZ","Tonya's Park Of Goodies!","Downtown Parkville","69696",33.49035097178003,-112.09729834
"85016","Phoenix","AZ","Desert Storm Park","not_available","85016",33.513442282411106,-112.0452354783769
"85016","Phoenix","AZ","Los Olivos Park","2802 E Devonshire Ave","85016",33.49703034448557,-112.02020109271554
"85016","Phoenix","AZ","Granada Park","6505 N 20th St","85016",33.531212108231614,-112.04017385891406
"85016","Phoenix","AZ","Phoenix Mountains Park and Recreation Area","2701 E. Squaw Peak Dr.","85016",33.54117365740971,-112.01844867724036
"85016","Phoenix","AZ","Solano Park","5625 N 17th St","85016",33.519822,-112.04476499999998
"85016","Phoenix","AZ","Keresan Park","2810 E Glenrosa Ave","85016",33.498934999999996,-112.02043300000001
"85016","Phoenix","AZ","AIDAN park","GODs Country","85020",33.54427505368908,-112.04209163796692
"85016","Phoenix","AZ","Sumida Park","1817 E. Gardenia Ave.","85008",33.54657037595784,-112.04044545071903
"85017","Phoenix","AZ","Shade Industries","2940 Grand Ave","85017",33.485118,-112.121794
"85018","Phoenix","AZ","Arcadia Park","3402 N 56th St","85018",33.48885996286561,-111.96173622872821
"85018","Phoenix","AZ","Kachina Park","4304 E Campbell Ave","85018",33.502785105752785,-111.99017118210656
"85018","Phoenix","AZ","G.R. Herberger Park","5802 E Indian School Rd","85018",33.49036309156996,-111.95784707151368
"85020","Phoenix","AZ","Phoenix North Mountain Preserve","not_available","85020",33.577326107707876,-112.03099629239539
"85020","Phoenix","AZ","North Mountain Park Trail 44","Peoria Avenue","not_available",33.582400662355845,-112.06202106543044
"85020","Phoenix","AZ","Christy Cove Park","not_available","85028",33.588563173880225,-112.02908136153204
"85020","Phoenix","AZ","Dreamy Draw Recreation Area","2000 E Northern","not_available",33.56439899543697,-112.02915285247134
"85020","Phoenix","AZ","Arizona Canal Central","Central And Ruth","85030",33.56037553201923,-112.0739315794469
"85020","Phoenix","AZ","Phoenix Mountains Preserve","2701 E Squaw Peak Dr","85016",33.5638012768088,-112.0276415348053
"85020","Phoenix","AZ","The Erickson Fire Pit","2538 E Desert Cove Ave, Phoenix, AZ 85028","85028",33.586917877197266,-112.02716064453125
"85020","Phoenix","AZ","Norton Park","1224 East Hatcher Rd.","85020",33.57172635929527,-112.05588957635918
"85020","Phoenix","AZ","Kierland Park","Dunlap","85020",33.56656420243066,-112.07862981453803
"85020","Phoenix","AZ","Phoenix Mountain Preserve","1708 E. Eva St.","85020",33.56855115272392,-112.05439308853859
"85020","Phoenix","AZ","Baby Shaw Butte Summit","North Mountain Park","not_available",33.58298,-112.07001
"85021","Phoenix","AZ","Royal Palm Park","15th Ave. and W. Butler Dr.","85021",33.558240116240924,-112.09019779732151
"85021","Phoenix","AZ","Butler Park","not_available","85021",33.5602885107384,-112.08988924087413
"85021","Phoenix","AZ","John F. and Mary P. Long Homestead Park","2602 W. Glendale Ave","85051",33.539950203876266,-112.11242539913626
"85021","Phoenix","AZ","Rose Mofford Sports Complex","9833 N 25th Ave","85021",33.57520676511974,-112.11202369737381
"85021","Phoenix","AZ","Alicia Park","2021 W Alice Ave","85021",33.56264877319336,-112.10192108154297
"85021","Phoenix","AZ","Rose Moffard Indoor Racquetball Court Room 2","not_available","85029",33.5769276694704,-112.11025388007548
"85022","Phoenix","AZ","Lookout Mountain","16th St","not_available",33.62682682451028,-112.04819883565155
"85022","Phoenix","AZ","Moon Valley Park","502 W Coral Gables Dr","not_available",33.62785300260348,-112.07854248682979
"85022","Phoenix","AZ","Grovers Park","not_available","85032",33.64736466269689,-112.03660155225835
"85022","Phoenix","AZ","12th street Park","not_available","85022",33.640323284141566,-112.05743237928945
"85022","Phoenix","AZ","Mountain View Community Center Park","1104 E Grovers Ave","85022",33.64805221557617,-112.0597915649414
"85022","Phoenix","AZ","Baby Boot Camp - Phoenix","502 W. Coral Gables Dr.","85023",33.62669761666667,-112.081339
"85022","Phoenix","AZ","Quail Run Park","Union Hills and 9th St.","85022",33.65430901464257,-112.06025599735516
"85023","Phoenix","AZ","Noquierequeellossejuegenenmiparque","not_available","85023",33.62808609008789,-112.1134033203125
"85023","Phoenix","AZ","Cave Creek Park - Thunderbird","13670 N 23rd Ave","85029",33.60928507542245,-112.10895538330078
"85024","Phoenix","AZ","Arroyo Rojo Park","735 E Potter Dr","85024",33.67409133911133,-112.06403350830078
"85024","Phoenix","AZ","Buffalo Ridge Park","19250 N 16th St.","85024",33.66011823281822,-112.046213561302
"85024","Phoenix","AZ","Desert Peak Park","not_available","85050",33.70727144039536,-112.02531027398
"85024","Phoenix","AZ","Saguaro Valley Common Area","E Matthew Drive","85050",33.677917899505374,-112.00183292187327
"85024","Phoenix","AZ","Wildcat Ridge Park","20714 N 38th St","85050",33.674495,-112.002126
"85024","Phoenix","AZ","Greenbelt","1010 E. Tonopah Dr.","85027",33.67127535799224,-112.05980771180758
"85024","Phoenix","AZ","Buffalo Ridge B-ball Courts","not_available","85024",33.6598734752266,-112.04570102048899
"85024","Phoenix","AZ","The Park by Hugo's","3724 E Topeka Dr","85050",33.660002,-112.00179441666667
"85027","Phoenix","AZ","Deer Valley Park","19400 N 19th Ave","85027",33.665675652592306,-112.10242940840068
"85027","Phoenix","AZ","Paseo Highlands Park","3435 W Pinnacle Peak Rd","85027",33.69607560986192,-112.13222513230181
"85027","Phoenix","AZ","Bountiful Basket At Paseo Park","not_available","85027",33.69653959474922,-112.13281221557155
"85027","Phoenix","AZ","Skunk Creek Landfill","3165 W Happy Valley Road","85027",33.70676040649414,-112.12769317626953
"85028","Phoenix","AZ","Francisco Highland Park","2702 E Mountain View Rd","85028",33.575155,-112.023774
"85028","Phoenix","AZ","Mercury Mine Basin Park","3325 E Mountain View Rd, Phoenix, AZ 85028, United States","not_available",33.574796807080055,-112.00944542884827
"85028","Phoenix","AZ","Altadena Park","3711 E. Altadena Ave.","85028",33.592298033333336,-112.001983
"85028","Phoenix","AZ","Cholla Cove Park","4290-4398 E Cholla St","85028",33.59052689029454,-111.99013624988964
"85029","Phoenix","AZ","westown park","33rd Ave And Sweetwater","85029",33.60167931258423,-112.12833040299613
"85029","Phoenix","AZ","Cave Creek Park - Sandlilly","2500 W Cactus Rd","85029",33.59278890943346,-112.11410522460938
"85029","Phoenix","AZ","South Mountain 19th Ave Trails","10336 19th ave","not_available",33.595894290056364,-112.11809579038321
"85029","Phoenix","AZ","Rose Moffard Indoor Raquet Ball Courts Room 4","not_available","85051",33.578327412543935,-112.11742628907294
"85029","Phoenix","AZ","Sunnyslope Youth Center","1702 W Peoria Ave","85029",33.582727150384166,-112.09594173103936
"85031","Phoenix","AZ","Marivue Park","5625 W Osborn Rd","85031",33.486666,-112.180135
"85032","Phoenix","AZ","Paradise Valley Park","Paradise Valley Park","85032",33.64816234395056,-111.99723330370094
"85032","Phoenix","AZ","Paradise Valley Mall Children's Play Area","4568 E Cactus Rd","85032",33.6019861,-111.9817916
"85032","Phoenix","AZ","Roadrunner Park","3502 E Cactus Rd","85032",33.59845643605111,-112.00642626304769
"85032","Phoenix","AZ","Palomino Park","15675 N 30th St.","85032",33.630130767822266,-112.01667022705078
"85032","Phoenix","AZ","Indian Bend Park","E Thunderbird Rd","85029",33.611474392548885,-112.00208304452191
"85032","Phoenix","AZ","Venturoso Park","14425 N 32nd St.","85032",33.61737074915539,-112.01195134001583
"85032","Phoenix","AZ","Paradise Cove Park","3930 E Monte Cristo Ave","85032",33.6316699795502,-111.9974428965045
"85032","Phoenix","AZ","Sweetwater Park","13230 N 44th St.","85032",33.6055094198101,-111.9878889430965
"85032","Phoenix","AZ","The Park","not_available","85254",33.63241195678711,-111.97576141357422
"85033","Phoenix","AZ","Starlight Park","7810 W Osborn Road","85033",33.487998962402344,-112.22814178466797
"85033","Phoenix","AZ","Raintree Gardens","not_available","85033",33.48722455713012,-112.20793514059856
"85033","Phoenix","AZ","El Oso Park","3451 N 75th Avenue","85033",33.48835372924805,-112.21830749511719
"85033","Phoenix","AZ","Neighborhood Park","3400 N. 68th Ave.","85033",33.486863678250735,-112.20742867023554
"85033","Phoenix","AZ","Holiday Park","4530 N 67th Avenue","85033",33.50151389104345,-112.20134519396136
"85034","Phoenix","AZ","Barrios Unidos Park","not_available","85034",33.4307485130391,-112.0509002036249
"85034","Phoenix","AZ","Eastlake Park","1600 E. Jefferson St","85034",33.44660387840551,-112.04884506832877
"85034","Phoenix","AZ","Green Valley Park","2243 S 14th St","85034",33.426069,-112.05196200000002
"85034","Phoenix","AZ","Okemah Park","3828 E Anne St","85040",33.414336,-111.99794399999999
"85035","Phoenix","AZ","Desert West Skateboard Plaza","6501 W Virginia Ave","85035",33.4745525251587,-112.20160134071735
"85037","Phoenix","AZ","Dust Devil Park","10645 W Camelback Rd","85037",33.50658307828109,-112.28794405770174
"85037","Phoenix","AZ","Desert Star Park","8550 W Encanto Blvd","85037",33.472667822286844,-112.2454310322672
"85037","Phoenix","AZ","Los Arbolitos Neighborhood Park","not_available","85323",33.47480681046811,-112.29033161478489
"85037","Phoenix","AZ","Kimberly Park","Garden Lakes","85013",33.485312690977906,-112.30338683511026
"85037","Phoenix","AZ","The Park","not_available","85037",33.50148025870898,-112.30144345407803
"85037","Phoenix","AZ","Villa De Paz recreation Association","10320 West Campbell Avenue","85037",33.50217056274414,-112.28379821777344
"85040","Phoenix","AZ","Esteban Park Apartments","5611 S. 32nd St.","85040",33.397656013088636,-112.01065303520468
"85040","Phoenix","AZ","Hayden Park","400 W Tamarisk","not_available",33.4029220026994,-112.08087122465365
"85040","Phoenix","AZ","Peace Park","5221 S 13th Pl","85040",33.398712158203125,-112.05310821533203
"85040","Phoenix","AZ","Nueve Park","not_available","85040",33.40482,-112.05934
"85040","Phoenix","AZ","Hermoso Park","2030 E Southern Ave","85040",33.3948052133231,-112.03862997579782
"85041","Phoenix","AZ","Cesar Chavez Park","7858 S 35th Ave","85339",33.373802232531354,-112.13592773852554
"85041","Phoenix","AZ","El Prado Park","6428 S 19th Pl","85042",33.386840440211806,-112.10110187530518
"85041","Phoenix","AZ","Laveen Village Park","3146 W Vineyard Rd","85041",33.385164839348974,-112.12577479351773
"85041","Phoenix","AZ","Roseley Park","not_available","85041",33.39722054955148,-112.09932057084343
"85041","Phoenix","AZ","Country Glen Park","not_available","85339",33.38265935921736,-112.15507523468
"85041","Phoenix","AZ","Ceasar Chavez Park","35th Ave","85041",33.37118327427927,-112.08234415018421
"85041","Phoenix","AZ","Big Ramada","not_available","85042",33.34723737670656,-112.09155428085501
"85041","Phoenix","AZ","The park","W Harwell Rd","85339",33.37378908,-112.16691888
"85042","Phoenix","AZ","South Mountain Park","13078 South Warpaint Dr.","85042",33.35225451840557,-112.07170486450195
"85042","Phoenix","AZ","Holbert Trailhead - South Mountain","10002 N Central Ave","85020",33.351722001177734,-112.07021748428487
"85042","Phoenix","AZ","South Mountain","9402 S 43rd Pl","85044",33.362883441825836,-111.98576389759604
"85042","Phoenix","AZ","South Mountain Park","10919 S Central Ave","85042",33.34140396118164,-112.07500457763672
"85042","Phoenix","AZ","South Mountain Wild Life Information","South Mountain Preserves","85044",33.35980904219288,-112.00186550617218
"85042","Phoenix","AZ","Svob Park","2600 W Vineyard Rd","85282",33.3857980293493,-111.97711553709462
"85042","Phoenix","AZ","El Reposo Park","502 E Alta Vista Rd","85042",33.389766693115234,-112.06682586669922
"85042","Phoenix","AZ","Western Star Park","4425 E. Western Star Blvd.","85044",33.35280330779085,-111.98331281590346
"85042","Phoenix","AZ","Circle K Park","1346 E South Mountain Ave","85042",33.371225,-112.05562900000001
"85043","Phoenix","AZ","Sunridge Park","6201 W Roosevelt St","85043",33.457327,-112.194625
"85043","Phoenix","AZ","Covered Sandbox Greenbelt - Pomo and 65th Ave @ Cypress Landing HOA","not_available","85043",33.431222,-112.199671
"85043","Phoenix","AZ","Cordova Park","not_available","85353",33.43159322554445,-112.2330001109103
"85043","Phoenix","AZ","Riverbend Park On 55th Ave & Jones Ave","not_available","85053",33.4116725547149,-112.17760490189544
"85044","Phoenix","AZ","Sun Ray Park","4059 E Ray Rd","85044",33.31901634455051,-111.99699460076789
"85044","Phoenix","AZ","Mountain Vista Park","13647 S 50th St","85044",33.32582098156204,-111.97493487609573
"85044","Phoenix","AZ","Presidio Playground (A-Side)","13229 S 48th St","85044",33.32616424560547,-111.97859954833984
"85044","Phoenix","AZ","The Park (Diamond Ridge II)","not_available","85048",33.31321956247491,-112.0248761359723
"85044","Phoenix","AZ","Crimson Mountain HOA park","not_available","85044",33.31727131153505,-111.98648000898314
"85044","Phoenix","AZ","Dry Creek Greenbelt","2744 E Dry Creek Rd","85048",33.312191009521484,-112.02395629882812
"85048","Phoenix","AZ","Vista Canyon Park","16020 S 30th St.","85048",33.29956456084535,-112.01924046642671
"85048","Phoenix","AZ","Desert Foothills Park","1010 E. Marketplace SW","85048",33.30509922203928,-112.05941182320693
"85048","Phoenix","AZ","The Park","Lakewood Pkwy","85048",33.298510662196456,-112.00052078977721
"85048","Phoenix","AZ","Pecos Park","17010 S 48th St","85048",33.29235291158592,-111.98083262201187
"85048","Phoenix","AZ","Foothills gateway","4505 E Chandler Blvd","85048",33.3042106628418,-111.98625946044922
"85050","Phoenix","AZ","Cashman Park","22222 N 44th St","85050",33.688927924375186,-111.98001171233298
"85050","Phoenix","AZ","Rock Star Boot Camp","22234 N 44th Pl","85050",33.688758850097656,-111.98091888427734
"85051","Phoenix","AZ","Mariposa Park","3203 W Morten Ave","85051",33.550973594198545,-112.1330227068119
"85051","Phoenix","AZ","La Pradera Park","6830 N 39th Ave","85031",33.53879176207316,-112.14606065352918
"85051","Phoenix","AZ","Manzanita Ball Park","8429-8499 N 41st Ave","85051",33.56022677140617,-112.14677372331445
"85051","Phoenix","AZ","Cortez Park","3434 W Dunlap Ave","85051",33.568387725695544,-112.1328247686393
"85053","Phoenix","AZ","Acacia Park","2944 W. Hearn Rd.","not_available",33.615440368652344,-112.12174987792969
"85053","Phoenix","AZ","Conocido Park","15645 N. 31st Ave.","85053",33.632665618175075,-112.12629318237305
"85053","Phoenix","AZ","Acoma Park","14421 N. 39th Ave.","85053",33.616641998291016,-112.14176940917969
"85083","Phoenix","AZ","Deem Hills Park","51st Ave. & Deem Hills Pkwy.","85310",33.72785445528178,-112.16709690944994
"85083","Phoenix","AZ","Mountain Ridge Park","not_available","85083",33.713676,-112.177267
"85083","Phoenix","AZ","The Park","not_available","85085",33.73003061813457,-112.12936666946042
"85085","Phoenix","AZ","Desert Hills Trailhead","705 W Carefree Highway","not_available",33.799930572509766,-112.08750915527344
"85085","Phoenix","AZ","The Park/Playground","33611 N 26th Ave","85085",33.78989028930664,-112.11524200439453
"85085","Phoenix","AZ","Bologna's Poo Garden","N North Valley Parkway","85085",33.789857625961304,-112.11922287940979
"85086","Phoenix","AZ","Anthem Community Park","41703 N Gavilan Peak Pkwy","85086",33.860687292142245,-112.13573455810547
"85086","Phoenix","AZ","Pocket Park Off Ranier Ct.","3881 W Ranier Ct","85086",33.87378692626953,-112.14418029785156
"85086","Phoenix","AZ","Traditions Park","not_available","85086",33.8508572856768,-112.13183507750914
"85086","Phoenix","AZ","Tramonto East community park","35649 n Via AquilA","85086",33.80793722333533,-112.11850913457157
"85119","Apache Junction","AZ","Earth Heart Park","not_available","85120",33.42150767218722,-111.55032315959978
"85119","Apache Junction","AZ","Prospector Park","not_available","85119",33.44276992540523,-111.54435272005605
"85119","Apache Junction","AZ","Superstition Shadows Park","801 W Southern Ave","85120",33.391510009765625,-111.55687713623047
"85119","Apache Junction","AZ","Ride for Manny","not_available","85220",33.39238739013672,-111.55815124511719
"85120","Apache Junction","AZ","Skyline Park","655 S Crimson Rd","85208",33.40321325507203,-111.6116477713289
"85120","Apache Junction","AZ","The Villages Of Eastridge Big Park","kiowa","85209",33.37587711168741,-111.61079188078102
"85120","Apache Junction","AZ","Spiderweb Park","not_available","85212",33.331802,-111.596344
"85120","Apache Junction","AZ","Clancy Park","S. Clancy Cir.","85220",33.395121720371016,-111.58470178193367
"85120","Apache Junction","AZ","Cheshire Park","1041 S Cheshire","85208",33.39556884765625,-111.6065902709961
"85120","Apache Junction","AZ","Farmdale park","not_available","85208",33.396626746258434,-111.60373515093885
"85121","Bapchule","AZ","Jane Askew Memorial Park","Rancho El Dorado Parkway","85239",33.08186420835052,-112.03646764758935
"85122","Casa Grande","AZ","Rancho Grande Park","N Pueblo Dr","not_available",32.92849915846834,-111.73475503921509
"85122","Casa Grande","AZ","Safari Mobile Home R V Park","120 W Oneil Dr","85122",32.8986219,-111.7547251
"85122","Casa Grande","AZ","Dave White Park","2121 N Thornton Rd","85122",32.91034589207042,-111.7732880046694
"85122","Casa Grande","AZ","Peart Park","350 E. 6th St.","85122",32.87892150878906,-111.74967193603516
"85122","Casa Grande","AZ","Casa Grande Neon Sign Park","not_available","85122",32.878825,-111.753874
"85122","Casa Grande","AZ","Gilbert Park","1140 E Trinity Place","85122",32.8845100402832,-111.73834228515625
"85122","Casa Grande","AZ","cruz park","611 W Melrose Dr, Casa Grande, AZ 85122","85122",32.88972473144531,-111.76220703125
"85122","Casa Grande","AZ","Burrus Park (Bountiful Basket Pickup)","1750 n palm park blvd","not_available",32.90024322332025,-111.74557982945419
"85122","Casa Grande","AZ","skate park","not_available","85222",32.886786210378176,-111.73983317145674
"85122","Casa Grande","AZ","Reed-Mashore Park","East 4th St","85222",32.877872881661865,-111.74985925330033
"85123","Arizona City","AZ","Arizona City Park","S sunland Gin","85123",32.752945,-111.67068
"85123","Arizona City","AZ","Paul Mason Sportsplex","N Pinal Ave, Casa Grande, AZ","85222",32.75082721296459,-111.68234896434312
"85128","Coolidge","AZ","Walker Park","Vah Ki Inn Rd","85128",32.987379942789524,-111.52306615868679
"85128","Coolidge","AZ","Central Arizona College Green at Signal Peak","not_available","85228",32.956384603631825,-111.65284696468669
"85128","Coolidge","AZ","Sunscape Way","151 sunscape way","not_available",32.86227496,-111.56640785
"85128","Coolidge","AZ","Anthem Community Park","not_available","85242",33.05910145850521,-111.4760041519954
"85131","Eloy","AZ","Trekell Park","not_available","85231",32.75196838378906,-111.56388854980469
"85131","Eloy","AZ","Toltec Mini Park","3651 W Shedd Rd","85131",32.791735796018614,-111.60376426285897
"85131","Eloy","AZ","Picacho State Recreation Area","not_available","92281",32.714782482277975,-111.50146523177287
"85132","Florence","AZ","Shanes Park","not_available","45882",33.0373416,-111.389581
"85132","Florence","AZ","Main Street Park","not_available","85232",33.02526757703483,-111.38802336689176
"85137","Kearny","AZ","Bat Country","900-1098 U.S. 60","85173",33.28700737301484,-111.10627971145557
"85137","Kearny","AZ","Besich Park","not_available","85273",33.293782,-111.098084
"85138","Maricopa","AZ","Copper Sky Recreation Park North Playground","not_available","85138",33.043019814485525,-112.0489032874811
"85138","Maricopa","AZ","Copper Sky Regional Park","45345 W Martin Luther King Jr Blvd","85138",33.03711563415772,-112.04697041093667
"85138","Maricopa","AZ","Pacana Park","19000 N Porter Rd","85138",33.05271305805529,-112.01517672252706
"85138","Maricopa","AZ","Homestead HOA Park & Lake","41000 DR Horton Drive","85138",33.066641721833975,-112.00648161981002
"85138","Maricopa","AZ","Relay For Life - Maricopa","not_available","85239",33.04777945213718,-112.0120561358944
"85138","Maricopa","AZ","Center Park","Cobblestone Farms Dr","85139",33.08333543371852,-112.03952111596954
"85138","Maricopa","AZ","Pacana Park","Maricopa,AZ,85138","85138",33.05044123346764,-112.03753306281608
"85139","Maricopa","AZ","Maricopa Meadows Park","45725 W Honeycutt Ave","85139",33.05238723754883,-112.05818939208984
"85140","San Tan Valley","AZ","Circle Cross Ranch Park","West Empire Blvd.","85142",33.2022532201867,-111.56752918879563
"85140","San Tan Valley","AZ","Taylor Ranch Park","41309 N Palm Springs Trl","85140",33.25375747680664,-111.56137084960938
"85140","San Tan Valley","AZ","Lyle Avenue Park","Lyle Avenue","85140",33.2570342,-111.570554
"85142","Queen Creek","AZ","San Tan Mountain Regional Park","not_available","85142",33.16804232908262,-111.63560688559866
"85142","Queen Creek","AZ","Shamrock park","not_available","85297",33.24295488829679,-111.7276819190274
"85142","Queen Creek","AZ","Gilbert Regional Park","3005 E. Queen Creek Road","85297",33.256314,-111.723908
"85142","Queen Creek","AZ","Clubhouse Community Park - Power Ranch","4400 E Haven Crest","85297",33.2705960907994,-111.69583082199097
"85142","Queen Creek","AZ","Cortina Neighborhood Park North","E Swan Dr","85142",33.27619227209587,-111.6712631568244
"85142","Queen Creek","AZ","Morning Sun Farms Park","skyline at village","not_available",33.19246665,-111.59394265
"85142","Queen Creek","AZ","Desert Mountain Park","20001-20185 E Ocotillo Rd","85142",33.24761147966121,-111.64959807484547
"85142","Queen Creek","AZ","Evans Ranch Park","not_available","85249",33.22146713912998,-111.75013872580713
"85142","Queen Creek","AZ","The Arbors Park","Power Ranch","85297",33.27514821309128,-111.7081653610589
"85143","San Tan Valley","AZ","Twilight Park","1378 E Sugey Ct","85143",33.13250732421875,-111.55218505859375
"85143","San Tan Valley","AZ","Copper Basin Park","Copper Mine","85143",33.13429999177173,-111.53549348744913
"85143","San Tan Valley","AZ","ZYBA Studios","28000 N. Main Street","85143",33.13737151406467,-111.52685165405273
"85143","San Tan Valley","AZ","Rebecca Park - RBV South","30658 N Rebecca Ln","85143",33.157684326171875,-111.5439224243164
"85143","San Tan Valley","AZ","Pathfinder Park","not_available","85143",33.14119756221771,-111.5578043460846
"85143","San Tan Valley","AZ","Indigo Sky Park","Johnson Ranch Blvd","85242",33.138910371626224,-111.56201197391508
"85147","Sacaton","AZ","Ira H. Hayes Memorial Park","not_available","85247",33.08088913350765,-111.74499759476191
"85193","Casa Grande","AZ","Casa Grande Soccer Park","12684 W Gila Bend Hwy","85193",32.879581451416016,-111.84752655029297
"85201","Mesa","AZ","Riverview Park","2100 W Rio Salado Pkwy","85201",33.43206851785134,-111.87656389639119
"85201","Mesa","AZ","Victory Park","2541 E McArthur Dr","85281",33.416695571884254,-111.88308119773865
"85201","Mesa","AZ","Pioneer Park","526 E Main St, Mesa, AZ 85203","85203",33.416514384192055,-111.82011714869564
"85201","Mesa","AZ","Fitch Park","Center St","not_available",33.42935164680883,-111.82690010674618
"85201","Mesa","AZ","Escobedo Park","215 E 6th St","85201",33.425079345703125,-111.82658386230469
"85201","Mesa","AZ","Esquer Park","2407 E McArthur Dr","85281",33.416358947753906,-111.88739776611328
"85201","Mesa","AZ","Beverly Park","not_available","85201",33.41720962524414,-111.8544921875
"85201","Mesa","AZ","Hohokum Field #2","48 E 14th St","85201",33.44710533107716,-111.8234983427162
"85201","Mesa","AZ","Riverview Softball Complex","N Riverview","85201",33.43364767436596,-111.87635540548919
"85201","Mesa","AZ","Porter Park","460 E 8th St","85203",33.43025588989258,-111.82075500488281
"85202","Mesa","AZ","Carriage Lane Park","3140 S Carriage Ln","85210",33.35870152700665,-111.89061871067902
"85202","Mesa","AZ","Some little park by the lake","By The Lake","85202",33.379615,-111.879323
"85202","Mesa","AZ","Taco Park","not_available","85202",33.394186,-111.873878
"85202","Mesa","AZ","Daumler Park","2821 S Evergreen Rd","85282",33.39921993214366,-111.88500165939331
"85202","Mesa","AZ","Mesa Model Yacht Club, Dobson Lake","2339 South Dobson Road","not_available",33.3717717909328,-111.87877051689537
"85202","Mesa","AZ","Palo Verde Park","1801-1943 W Pampa Ave","85202",33.3589460386685,-111.87042313941186
"85202","Mesa","AZ","Dobson Ranch Tennis Courts","2647 S Reyes","85202",33.366606,-111.861479
"85202","Mesa","AZ","Ehrhardt Park","4003 S. Evergreen Dr.","85282",33.387910706793065,-111.88327690992942
"85202","Mesa","AZ","Marlborough Mesa Park","3155 S. Alma School Rd.","85210",33.35788345336914,-111.8581771850586
"85202","Mesa","AZ","Community Center","2637 W Laguna Azul Ave","85202",33.372088,-111.89093100000001
"85203","Mesa","AZ","Chaparral park","E Inca st","not_available",33.44936974866211,-111.7869783830644
"85203","Mesa","AZ","Park of Canals / Brinton Desert Botanical Garden","799 rest stop, AZ 85203","85203",33.44608435910281,-111.81420752629501
"85203","Mesa","AZ","Candlelight Park","1540 N Barkley","85203",33.44121618987154,-111.80023983391
"85203","Mesa","AZ","Lehi Wetland Area (BUOW habitat)","Thomas Rd And Horne Rd","85203",33.48045338191742,-111.81578536695355
"85203","Mesa","AZ","Three Fountains","1550 N Stapley Dr","85203",33.44387262222052,-111.80711369665015
"85204","Mesa","AZ","Countryside Park","3130 E Southern Ave","85204",33.395338461684894,-111.76365237510164
"85204","Mesa","AZ","Emerald Park","1455 S. Harris","85204",33.388059562041654,-111.79312497404258
"85204","Mesa","AZ","Val Vista Retention Basin","not_available","85204",33.402434168194155,-111.77320432482323
"85204","Mesa","AZ","Sherwood Park","801 E Harmony Ave","85204",33.388536242653984,-111.81374756528514
"85204","Mesa","AZ","Countryside Playground","1014-1028 S 32nd St","85204",33.39627385,-111.76362916666666
"85204","Mesa","AZ","Silvergate Park","2121 E Enid Ave","85204",33.39756774902344,-111.78394317626953
"85204","Mesa","AZ","Ellsworth Park","261-287 S Horne","85204",33.410758633142486,-111.81339240549346
"85204","Mesa","AZ","Big Grassy Field","N Val Vista Dr.","85206",33.40040614183885,-111.75220485846872
"85204","Mesa","AZ","Reed Park","1631 E Broadway Rd","85204",33.40687961725483,-111.79627484340905
"85204","Mesa","AZ","City Of Mesa Park","S Mesa Dr","not_available",33.3968505859375,-111.82249450683594
"85204","Mesa","AZ","Chelsea Park","not_available","85206",33.41262317276051,-111.74835708842625
"85204","Mesa","AZ","Kingsborough Park","2311 E Holmes Ave","85204",33.39204311663721,-111.77926736328007
"85204","Mesa","AZ","Meadowgreen Park","2821 E Pueblo Ave","85210",33.40127182006836,-111.7701644897461
"85204","Mesa","AZ","Broadmoor Imperial Park","2601 E Allred Ave","85204",33.41361999511719,-111.77593994140625
"85205","Mesa","AZ","Alta Mesa Park","not_available","85205",33.45006536386876,-111.71108818884987
"85205","Mesa","AZ","Gene Autry Park","4125 E McKellips Rd","85215",33.450417455331504,-111.74270941206777
"85205","Mesa","AZ","Altamesa Park","1910 N Alta Mesa Dr","85205",33.44987487792969,-111.71114349365234
"85205","Mesa","AZ","granite reef park","6300 E Brown Rd","85205",33.438747324509855,-111.69468657553597
"85205","Mesa","AZ","Ensenada Park","900-998 N Ramada","85205",33.432891802690676,-111.69197917223924
"85205","Mesa","AZ","Princess Park","4422 E Princess Dr","85205",33.441802978515625,-111.7354507446289
"85205","Mesa","AZ","Vista Monterey Park","not_available","85213",33.42514197896913,-111.75020277158869
"85206","Mesa","AZ","Greenfield Park","Greenfield and Diamond","not_available",33.4073699851205,-111.74324585189477
"85206","Mesa","AZ","Holmes Park","1450 S Greenfield Rd","85206",33.38845443725586,-111.7380142211914
"85206","Mesa","AZ","Jefferson Park & Recreation Center","Power And Broadway","85208",33.40923993588819,-111.67936790743707
"85207","Mesa","AZ","Usery Mountain Regional Park","3939 N Usery Pass Rd","85207",33.477465388237704,-111.62012516378005
"85207","Mesa","AZ","Red Mountain Sports Complex","905 N Sunvalley Blvd","85207",33.43161960758559,-111.6703839775242
"85207","Mesa","AZ","Falcon Hill Park","7300 E. Jasmine St.","85207",33.45017046193166,-111.67439460754395
"85207","Mesa","AZ","Sonoran Heights Parke","3000 N Ridgecrest","85207",33.46749199203952,-111.67066464268336
"85207","Mesa","AZ","Trailhead Park","not_available","85207",33.48737573206768,-111.66066060181295
"85207","Mesa","AZ","Red Mountain Park","7735 E Brown Rd.","85207",33.434666933260075,-111.66970275910404
"85207","Mesa","AZ","Mesa mi amigos Turkey Trot","Red Mountain Park","not_available",33.43482706,-111.669506
"85207","Mesa","AZ","Meridian Hills Community Playground","E. Decatur","85207",33.42181205920846,-111.61562446016481
"85209","Mesa","AZ","Universal Studios Florida","6000 Universal Blvd","32819",33.36687,-111.634558
"85209","Mesa","AZ","Superstition Springs Neighborhood Park","7498 E Laguna Azul Ave","85209",33.37313861419195,-111.67457026806767
"85209","Mesa","AZ","Monterey Park","7045 E. Monterey Ave.","85209",33.367173524076925,-111.68219758255806
"85209","Mesa","AZ","Creature Park","8190-8200 E Obispo Ave","85212",33.36201520000001,-111.65690552999999
"85210","Mesa","AZ","Rancho del Mar Park","748 W Guadalupe Rd","85210",33.36662630841366,-111.84947303077541
"85210","Mesa","AZ","Woodglen Park","2342 S Beverly","85210",33.372428996691994,-111.85470723331834
"85210","Mesa","AZ","Kleinman Park","710 S Extension Rd","85210",33.402096099488894,-111.8511614838185
"85210","Mesa","AZ","Heritage Park","1501 S Pima","85210",33.38929603530662,-111.82896119278729
"85210","Mesa","AZ","The ""Violet"" Park","818 S Westwood","85210",33.400142669677734,-111.85460662841797
"85210","Mesa","AZ","Guerrero Park","203 W 8th Ave","85210",33.399837493896484,-111.83589172363281
"85210","Mesa","AZ","Powell Jr High","not_available","85210",33.39888720328418,-111.84908293981802
"85210","Mesa","AZ","Kleinman Park Baseball Fields","710 S Extension","85210",33.401093040889194,-111.85099263854019
"85210","Mesa","AZ","Stabby Park","701-799 W Nido Cir","85210",33.36780306769672,-111.84426211174286
"85210","Mesa","AZ","Skate Park","Rotary Park","85210",33.39877,-111.835829
"85210","Mesa","AZ","The campground","444 W Holmes AVE","85210",33.38835525512695,-111.84217071533203
"85212","Mesa","AZ","Desert Sky Park","not_available","85295",33.298856,-111.68805
"85212","Mesa","AZ","Wild West Paintball","19283 East Elliot Road","85212",33.34925867,-111.6671679
"85212","Mesa","AZ","The Gardens Southeast Park","S Avocet St","85296",33.32675677540413,-111.69583940518747
"85213","Mesa","AZ","Hermosa vista Park","2800-2848 E Leonora St","85213",33.455628414489865,-111.7700685850573
"85213","Mesa","AZ","Eldon W. Cooley Family Park","1550 N Val Vista Dr","85213",33.443538665771484,-111.75597381591797
"85213","Mesa","AZ","Sheephearders Park","2455 E McDowell Rd","85213",33.465423583984375,-111.77816009521484
"85213","Mesa","AZ","Soccer Field","not_available","85296",33.42451520504028,-111.7763450538421
"85215","Mesa","AZ","Summit Park","6237 E Virginia St","85215",33.47673818953567,-111.69425571998806
"85215","Mesa","AZ","Butcher Jones Recreation Area","E Butcher Jones Beach Rd","85264",33.57629852690617,-111.51595115661621
"85215","Mesa","AZ","Falcon Field Park","4556 E. Fighter Aces Dr.","85215",33.453988259955324,-111.73019717705499
"85215","Mesa","AZ","Grinding Stone MX","not_available","85268",33.57894758333333,-111.65517921666667
"85215","Mesa","AZ","Quail Run Park","4155 E Virginia St","85215",33.476474806198524,-111.73982734910646
"85215","Mesa","AZ","Red Rock Park","3798 N Recker Rd","85215",33.48371520839336,-111.70307278633118
"85224","Chandler","AZ","Maggio Park","100 S Sean Dr","85224",33.302108256141366,-111.86342254639088
"85224","Chandler","AZ","Arrowhead Meadows Park","1475 W. Erie St.","85224",33.30942829391484,-111.86310331064954
"85224","Chandler","AZ","Brooks Crossing Park","1345 W Calle del Norte","85224",33.329050192854005,-111.86755109208903
"85224","Chandler","AZ","Thude Park","2825 E Galveston St","85225",33.31305720906654,-111.891620128984
"85224","Chandler","AZ","Silverton Ranch Park","W Springfield Way","85286",33.28941116426139,-111.87035068851296
"85224","Chandler","AZ","Los Altos Park","400 Los Altos Dr","85224",33.31039065,-111.880236
"85224","Chandler","AZ","Puppy Playground","not_available","85224",33.296448,-111.85945223333333
"85224","Chandler","AZ","Little Park","Del Rio","85224",33.31632637226602,-111.87134718498483
"85224","Chandler","AZ","Amberwood Park","2327 W Calle Del Norte","85224",33.32849218246469,-111.88550099364963
"85224","Chandler","AZ","Harmony Hollow Park","1082 W Galveston St","85224",33.314065,-111.861699
"85225","Chandler","AZ","Lago Estancia Community","Lago Rd.","85233",33.336361755534305,-111.79670530764027
"85225","Chandler","AZ","McQueen Park","510 N Horne St","85233",33.35594672820266,-111.81674480438232
"85225","Chandler","AZ","San Marcos Park","712 W Fairview St","85225",33.29745864868164,-111.851806640625
"85225","Chandler","AZ","Folley Memorial Park","601 E Frye Rd","85225",33.29837336827357,-111.83319398568102
"85225","Chandler","AZ","Hoopes Park","601 W Mesquite St","85225",33.342037393587105,-111.85167789459229
"85225","Chandler","AZ","Dr. AJ Chandler Park","250 E Commonwealth Ave","85225",33.303639615100415,-111.84182840693529
"85225","Chandler","AZ","Tibshraeny Family Park","270 N Cottonwood St","85225",33.3083610534668,-111.80403900146484
"85225","Chandler","AZ","Egypt","1070 S Bogle Ct","85286",33.2902717590332,-111.83267211914062
"85225","Chandler","AZ","Stonegate Park","1650 N Ithica St","85225",33.33094787597656,-111.83110046386719
"85225","Chandler","AZ","Rancho Del Verde Park","1800 S Oak St","85233",33.319448999901695,-111.79392068979823
"85225","Chandler","AZ","Neighborhood Park @ The Vineyards","not_available","85233",33.324732128148604,-111.80076645127885
"85225","Chandler","AZ","Ashley Trail","629 N Tower Ave","85225",33.313636779785156,-111.80937194824219
"85225","Chandler","AZ","Chandler BMX Porta Potties","not_available","85225",33.29961,-111.825104
"85225","Chandler","AZ","Willis Ranch Park","E. Glenmere Pl.","85225",33.29540132479307,-111.81862744822322
"85225","Chandler","AZ","Navarette Park","501 W Harrison St","85225",33.31612014770508,-111.84720611572266
"85225","Chandler","AZ","Park Manors","395 W Erie St","85225",33.309606,-111.84626599999999
"85225","Chandler","AZ","Arbuckle Park","1000 S. Norman Way","85286",33.290047220501066,-111.79517442711138
"85226","Chandler","AZ","Desert Breeze Park","660 N Desert Breeze Blvd E","85226",33.31335133990423,-111.9202995300293
"85226","Chandler","AZ","Harter Park","not_available","85226",33.3132530807279,-111.90221069490981
"85226","Chandler","AZ","Sundance Park","933 N Roosevelt Ave.","85226",33.31768035888672,-111.94924926757812
"85226","Chandler","AZ","Hanger Park","501 E Knox Rd","85284",33.326619813598306,-111.93261623382568
"85226","Chandler","AZ","Hummingbird Habitat at Desert Breeze Park","Chandler,AZ,85226","85226",33.31271112316545,-111.92294343624708
"85226","Chandler","AZ","Windmills West Park","1233 N. Windmills Blvd","85226",33.32304582092276,-111.90438132916515
"85226","Chandler","AZ","The Greenbelt","not_available","85284",33.326852452593776,-111.939961548668
"85226","Chandler","AZ","Mountain View Park","360 S Twelve Oaks Blvd","85226",33.293676251674505,-111.92696071933271
"85226","Chandler","AZ","Valencia Park","3290 W Golden Ln","85226",33.325050354003906,-111.898681640625
"85226","Chandler","AZ","Pine Shadows Park","5300 W Galveston St.","85226",33.313175201416016,-111.93399810791016
"85226","Chandler","AZ","Harelson Park","9400 S Warner Ranch Rd","85284",33.32738504514256,-111.93817997788067
"85226","Chandler","AZ","Pueblo Alto Community Park","3948 W Calle Segunda","85226",33.3040657043457,-111.91007232666016
"85226","Chandler","AZ","Nozomi Park","250 S. Kyrene","85244",33.296923637064786,-111.94959133066612
"85226","Chandler","AZ","Parkiran gereja ebenhaezer","Oeba","85226",33.2872209,-111.9403254
"85233","Gilbert","AZ","Oak Tree Park","301 W Houston Ave","85233",33.37275224622791,-111.79946288424692
"85233","Gilbert","AZ","Silverhawke Neighborhood Park","851-949 N Dodge St","85233",33.36792587752667,-111.8071683722692
"85233","Gilbert","AZ","Parque Tara","Colonia tara","85233",33.329219,-111.803254
"85233","Gilbert","AZ","Villa Madeira Park","900 N Pine St","85233",33.36616754667892,-111.7969150349866
"85233","Gilbert","AZ","Espee Park","450 E Knox Rd","not_available",33.32976247279628,-111.83406732630328
"85233","Gilbert","AZ","Veterans Park","70 W Park Ave","85234",33.352783203125,-111.79096221923828
"85233","Gilbert","AZ","Islands Community Park","825 S. Islands Dr. West","85233",33.3347620242937,-111.81884789040458
"85234","Gilbert","AZ","Morrison Ranch Park","3370 E. Morrison Ranch Pkwy","85296",33.34607537919663,-111.71397777556999
"85234","Gilbert","AZ","Freestone Park","1015 E Juniper Ave","85234",33.3586351319417,-111.7682933807373
"85234","Gilbert","AZ","val vista lakes park","not_available","85234",33.3730363877231,-111.76271497920024
"85234","Gilbert","AZ","Sunview Park","1417 N Sun View Pkwy","85234",33.37503259632111,-111.78627490997314
"85234","Gilbert","AZ","John Allen Park","334 E Elliot Rd","85234",33.35037612915039,-111.78279876708984
"85234","Gilbert","AZ","Cormhole Park","not_available","85236",33.355711,-111.702209
"85234","Gilbert","AZ","EPIC PARK","3504 E Melody Ln","85234",33.37576675415039,-111.71583557128906
"85234","Gilbert","AZ","Nichols Park At Water Ranch","700 North Higley Road","85234",33.36231085501143,-111.7245436680292
"85234","Gilbert","AZ","Park on E Barbarita","1200 E Barbarita","85234",33.36322314918339,-111.7624568939209
"85234","Gilbert","AZ","Val Vista Place Park","72 S Stonecreek Blvd","85296",33.34669638291043,-111.76405993850284
"85234","Gilbert","AZ","Circle G Park","601 E Encinas Ave","85234",33.36890406968148,-111.7787754535675
"85234","Gilbert","AZ","Vista Allegre Park","1145 N Elm St","85233",33.37107467651367,-111.78775787353516
"85248","Chandler","AZ","Blue Heron Park","1399 W Lake Dr","85248",33.23857169715891,-111.86634589015802
"85248","Chandler","AZ","Serenity Bend Park","not_available","85248",33.25600030625917,-111.87098543066485
"85248","Chandler","AZ","Paseo Vista Recreation Area","3850 S McQueen Rd","85286",33.25070410048834,-111.82571818417655
"85248","Chandler","AZ","Lagos Vistoso Park","894 E Runaway Bay Pl","85249",33.21458053588867,-111.82625579833984
"85248","Chandler","AZ","Fox Crossing Greenbelt","69 Shocker","85248",33.25048568250673,-111.85702667026953
"85248","Chandler","AZ","Crossbow Park","4520 S Crossbow Pl","85249",33.24216376037116,-111.83247784626425
"85248","Chandler","AZ","Fox Crossing Park","3572 S Sandpiper Dr","85248",33.253028869628906,-111.85530090332031
"85248","Chandler","AZ","La Poloma Park","6579 S Amanda Dr","85249",33.21196024686281,-111.8023681640625
"85248","Chandler","AZ","Sunset Shores Park","3259-3499 N Price Rd","85248",33.25779184405488,-111.88704970047884
"85248","Chandler","AZ","Snedigar East Park","4705 S Basha Rd","85248",33.23982125217346,-111.85928271085189
"85249","Chandler","AZ","Veterans Oasis Park","4050 E Chandler Heights","not_available",33.234730022852034,-111.7707381529411
"85249","Chandler","AZ","Mustang Park","14009 E Ocotillo Rd","85249",33.2477,-111.781
"85249","Chandler","AZ","Chuckawalla Park","4600 E Doral Dr","85249",33.20513447998222,-111.75721243122715
"85249","Chandler","AZ","Valencia Park","3701 SE Desert Jewel Blvd.","85249",33.248402196770435,-111.77264205434054
"85250","Scottsdale","AZ","Chaparral Park","5401 N Hayden Rd","85250",33.51662082776831,-111.90723180770874
"85250","Scottsdale","AZ","Comanche Park","not_available","85258",33.5478155806318,-111.89676153621299
"85250","Scottsdale","AZ","McCormick-Stillman Railroad Park","7301 E Indian Bend Rd","85250",33.5373511984056,-111.92287939256857
"85250","Scottsdale","AZ","Agua linda park","not_available","85251",33.524259855988575,-111.89249194924466
"85250","Scottsdale","AZ","SSBTR Walk","not_available","85250",33.526352,-111.907408
"85250","Scottsdale","AZ","Shoshone Park","8311 E VÃ­a De Dorado","85258",33.54358363710229,-111.9024552266177
"85251","Scottsdale","AZ","Scottsdale Waterfront","7135 E Camelback Rd","85251",33.500062,-111.927895
"85251","Scottsdale","AZ","Scottsdale Greenbelt","7700 E Roosevelt St","85257",33.485689196454274,-111.92050977569545
"85251","Scottsdale","AZ","Chestnut Park","4565 N Granite Reef Rd","85251",33.503621120712715,-111.89886717221181
"85251","Scottsdale","AZ","Indian School Park","4289 N Hayden Rd","85251",33.49885442045328,-111.90742492675781
"85251","Scottsdale","AZ","Camelback Park","4707 N Hayden Rd","85251",33.50273895263672,-111.90702056884766
"85251","Scottsdale","AZ","Tree House Studios","not_available","85257",33.473317360453066,-111.89706253766143
"85251","Scottsdale","AZ","Paiute Park","3210 N 66th St","85251",33.484928131103516,-111.93880462646484
"85251","Scottsdale","AZ","Indian Bend Wash Visitors Center","4201 N Hayden Rd","85251",33.497108459472656,-111.9092025756836
"85251","Scottsdale","AZ","Osborn Park","7775 E. Osborn Rd.","not_available",33.487335205078125,-111.91431427001953
"85251","Scottsdale","AZ","Big Park","4322 N 78th St","85251",33.499213,-111.913494
"85254","Scottsdale","AZ","Sonrisa Park","12812 N 52nd St.","85254",33.60339650295036,-111.97076797485352
"85254","Scottsdale","AZ","Crossed Arrows Park","6200 E Acoma Dr.","85254",33.621092572146246,-111.94612510031577
"85254","Scottsdale","AZ","Cactus Park","3801 W Cactus Rd.","85029",33.5985530964133,-111.92476272583008
"85254","Scottsdale","AZ","Sereno Park","5702 E Sweetwater Ave.","85254",33.60238446845411,-111.95373804332723
"85254","Scottsdale","AZ","Desert Horizon Park","16002 N 56th St.","85254",33.63230110997027,-111.96305784249266
"85254","Scottsdale","AZ","Jackrabbit Park","6002 E Paradise Ln","85254",33.6337731611818,-111.95901765959913
"85254","Scottsdale","AZ","Mescal Park","11015 N 68th Pl.","85254",33.58671951293945,-111.93357849121094
"85254","Scottsdale","AZ","Desert Springs Park","6600 E. Hearn","85254",33.614998033333336,-111.940188
"85254","Scottsdale","AZ","Sahkoo Park","16100 N 71st St","85254",33.6330451965332,-111.92871856689453
"85254","Scottsdale","AZ","Sandpiper Park","6530 E Hearn Rd","85004",33.60947196708749,-111.9357288610597
"85255","Scottsdale","AZ","Sonoran Hills Park","7625 E Williams Dr","85255",33.69013070021587,-111.91373277970219
"85255","Scottsdale","AZ","Grayhawk Park","20726 N 76th Way","85255",33.6815675947832,-111.91995897407554
"85255","Scottsdale","AZ","Four Peaks Park","14825 N Del Cambre Ave","85268",33.62077331542969,-111.70940399169922
"85255","Scottsdale","AZ","Horizon Park","15444 N 100th St","85260",33.627269984210876,-111.87536716461182
"85255","Scottsdale","AZ","McDowell Mountain Regional Park","16300 McDowell Mountain Park Dr","85264",33.66699679762075,-111.69808387756348
"85255","Scottsdale","AZ","George ""Doc"" Cavalliere Park","not_available","85262",33.73573107237292,-111.84217774262484
"85255","Scottsdale","AZ","Northsight Park","not_available","85260",33.61347719981853,-111.89890951540225
"85255","Scottsdale","AZ","North Grass at Desert Park Village","not_available","85255",33.647231946977584,-111.88131482464757
"85255","Scottsdale","AZ","Coventry at Grayhawk","20340 N 76th St.","85255",33.67218324322532,-111.91664386192981
"85255","Scottsdale","AZ","DC Ranch Park","17798 N 92nd Way","85255",33.64749526977539,-111.88276672363281
"85255","Scottsdale","AZ","Casey's park","Meadow Hill Dr","85260",33.61261214230267,-111.86311686406306
"85257","Scottsdale","AZ","El Dorado Park & Community Center","2311 N Miller Rd","85257",33.47118089426771,-111.91494379017692
"85257","Scottsdale","AZ","Tempe Papago Park","1000 N College Ave","85281",33.43961372171754,-111.93121088363219
"85257","Scottsdale","AZ","Evelyn Hallman Park","1900 N College Ave","85281",33.44822912806579,-111.93700972991705
"85257","Scottsdale","AZ","Apache Park","1043-1199 N 85th Pl","85257",33.460944886810076,-111.89789063229551
"85257","Scottsdale","AZ","Moeur Park","715 N Mill Ave","85281",33.439413,-111.931564
"85257","Scottsdale","AZ","Roosevelt Park","7660 E McKellips Rd","85257",33.452828000000004,-111.915245
"85257","Scottsdale","AZ","Tempe Women's Club Park","1265 N College Ave","85281",33.44062734921693,-111.93120002746582
"85257","Scottsdale","AZ","Indian Bend Park","1250 E Marigold Ln","85281",33.4499397277832,-111.91952514648438
"85257","Scottsdale","AZ","Azeroth, Daggerspine","not_available","85281",33.44404,-111.931326
"85257","Scottsdale","AZ","Spinners On The Green","7607 E McDowell Rd","85257",33.46454642392279,-111.91679719752595
"85257","Scottsdale","AZ","Rocky Picnic","87-599 E Curry Rd","85281",33.43986493,-111.93157091
"85257","Scottsdale","AZ","Papago Park - North Ramada","South Park Ln.","85281",33.43907436821759,-111.93709706186787
"85258","Scottsdale","AZ","Mountain View Park","8625 E Mountain View Rd","85258",33.57083678964348,-111.89613819122314
"85258","Scottsdale","AZ","Scottsdale Ranch Park","10400 E VÃ­a Linda","85258",33.57567281348707,-111.85901641845703
"85258","Scottsdale","AZ","Scottsdale Ranch Park: Volleyball Courts","10400 E Via Linda","85258",33.57541407313171,-111.85921608733146
"85259","Scottsdale","AZ","Cholla Park","11320 E VÃ­a Linda","85259",33.588572253094185,-111.83882411902763
"85259","Scottsdale","AZ","Stonegate Retreat Tennis Courts","113th Pl.","85259",33.568986171861454,-111.8300266691647
"85259","Scottsdale","AZ","Thomas Point","11295 E Poinsettia Dr","85259",33.59196264285714,-111.83648811666667
"85259","Scottsdale","AZ","Stonegate Equestrian Park","9555 N. 120th St.","85259",33.57400353613141,-111.82229992295677
"85259","Scottsdale","AZ","Secret Trail","11291 E Poinsettia Dr","85259",33.59228577781784,-111.83640344526333
"85262","Scottsdale","AZ","Florence Ely Nelson Desert Park","8950 E Pinnacle Peak Rd","85255",33.699949,-111.887327
"85262","Scottsdale","AZ","Granite Mountain OHV area","13525-13563 E Lone Mountain Rd","85262",33.75030174843863,-111.7884671238085
"85264","Fort Mcdowell","AZ","Fountain Park","12925 N Saguaro Blvd","85268",33.60163713097418,-111.71435453545446
"85264","Fort Mcdowell","AZ","Bob Martin Mile","not_available","85264",33.594405,-111.593474
"85281","Tempe","AZ","Tempe Town Lake","80 W Rio Salado Pkwy","85281",33.432403,-111.932545
"85281","Tempe","AZ","Tempe Beach Park","54 W Rio Salado Pkwy.","85281",33.431016,-111.941717
"85281","Tempe","AZ","Jaycee Park","817 W 5th St","85281",33.42532188290276,-111.95026087315962
"85281","Tempe","AZ","Hudson Park","1430 S Cedar St","85281",33.4124309303348,-111.9167777716591
"85281","Tempe","AZ","Hayden Flour Mill","Mill Ave. & Rio Salado Prkwy.","85280",33.42890502497162,-111.94157434800677
"85281","Tempe","AZ","Escalante Community Center","2150 E Orange St","85281",33.41873442197244,-111.89420518442687
"85281","Tempe","AZ","Neil G Giuliano Park","80 E Rio Salado Pkwy","85281",33.43142318725586,-111.9384765625
"85281","Tempe","AZ","Daley Park","1625 S College Ave","85281",33.4099021744903,-111.93424421703915
"85281","Tempe","AZ","Alegre Park","1940 E Don Carlos Ave","85281",33.41790952981801,-111.90267064739564
"85281","Tempe","AZ","Birchett Park","1295 S Mill Ave","85281",33.415108243832975,-111.93916082382202
"85281","Tempe","AZ","Clark Park","1730 South Roosevelt St.","85282",33.41223057502549,-111.94886377871943
"85281","Tempe","AZ","Mitchell Dog Park","900 S Mitchell Dr","85281",33.41942036200751,-111.94807028190618
"85281","Tempe","AZ","Creamery Park","1520 E 8th St","85282",33.41969374099404,-111.91239950330733
"85282","Tempe","AZ","Cole Park","2000 E Carson Dr","85282",33.3841487969732,-111.90094026436668
"85282","Tempe","AZ","Selleh Park","2425 S Los Feliz Dr","85282",33.402797104842534,-111.90307820018712
"85282","Tempe","AZ","Rotary Park","2015 E Hermosa Dr","85282",33.38534831240419,-111.90073768216465
"85282","Tempe","AZ","Hollis Park","3421 S Kenneth Pl","85282",33.39098,-111.91844
"85282","Tempe","AZ","Dwight Park","550 W Manhatton Dr","85282",33.38984932597272,-111.94869328732683
"85282","Tempe","AZ","AEII","not_available","85282",33.392547369003296,-111.91111028194427
"85282","Tempe","AZ","Palmer Park","4500 S College Ave","85282",33.3846187529034,-111.93585634231567
"85282","Tempe","AZ","P.W.P.","Los Falis","85282",33.4027,-111.90393
"85282","Tempe","AZ","Joyce Park","711 E Hermosa Dr","85282",33.3882327869029,-111.9316540131104
"85282","Tempe","AZ","Meyer Park","2727 S Dorsey Ln","85282",33.40102106437659,-111.91439650664417
"85282","Tempe","AZ","World of Illumination","2200 W Alameda Dr","85282",33.4012397,-111.9702754
"85282","Tempe","AZ","Peterson Park","1440 W Southern Ave","85282",33.39320236756439,-111.96121224074592
"85282","Tempe","AZ","Arredondo Park","1302 E Carson Dr","85282",33.38441848754883,-111.91739654541016
"85283","Tempe","AZ","Kiwanis Park","6111 S All American Way","85283",33.374816542847086,-111.93849437279044
"85283","Tempe","AZ","The Northshore Dock","not_available","85283",33.37715624801158,-111.91429170766092
"85283","Tempe","AZ","Benedict Sports Complex","490 W Guadalupe Rd","85283",33.364627025604285,-111.94702377954842
"85283","Tempe","AZ","Optimist Park","2000 E Sesame St","85283",33.37074984097804,-111.9021463394165
"85283","Tempe","AZ","Celaya Park","601 W Vaughn St","85282",33.359980616177474,-111.95216441086221
"85283","Tempe","AZ","Redden Park","1305 E Redfield Rd","85283",33.35763931274414,-111.91873931884766
"85283","Tempe","AZ","Scudder Park","2811 South Lakeshore Drive","85283",33.36993814218236,-111.91958405272803
"85283","Tempe","AZ","Gaeki Park","5615 S McClintock Dr","85283",33.37125,-111.910385
"85283","Tempe","AZ","Biehn Colony Park","S. Avenida del Yaqui","85283",33.36782884504999,-111.96124076843262
"85283","Tempe","AZ","Stroud Park","6818 S. Los Feliz Dr.","85283",33.35691700283048,-111.90867913575222
"85283","Tempe","AZ","Corbell Park","7300 S Lakeshore Dr","85283",33.35262367612648,-111.9272128403654
"85284","Tempe","AZ","Tempe Sports Complex","8225 S Hardy Dr","85284",33.33816532778627,-111.95175647735596
"85284","Tempe","AZ","ASU Research Park","2001 E Centennial Cir","85284",33.34099768912135,-111.90004348754883
"85284","Tempe","AZ","Estrada Park","1801 E Palomino Dr","85284",33.336925,-111.91043799999998
"85284","Tempe","AZ","Waggoner Park","1100 E Carver Rd","85284",33.342399,-111.92071499999999
"85284","Tempe","AZ","Goodwin Park","1835 E Caroline Ln","85284",33.32956837877549,-111.90765443295642
"85284","Tempe","AZ","Campell Park & Playground","8995 S Beck Ave","85284",33.320349761984176,-111.95943583769673
"85284","Tempe","AZ","Sunset Park","4700 W Ray Rd","85226",33.320978155972526,-111.92432328614424
"85286","Chandler","AZ","Pecos Ranch Park","1501-1599 W Maplewood St","85286",33.28100226352039,-111.86612464532483
"85286","Chandler","AZ","Tumbleweed Park","2250 S McQueen Rd","85286",33.27483897583645,-111.83084760983745
"85286","Chandler","AZ","Chuparosa Park","2400 S Dobson Rd","85248",33.27127267233958,-111.87848522829086
"85286","Chandler","AZ","Meadowbrook Park","not_available","85286",33.2581,-111.77704
"85286","Chandler","AZ","Eagle Glen Park","724 E Raven Way","85286",33.271141052246094,-111.77442169189453
"85286","Chandler","AZ","Ryan Park","2450 S. Hartford St.","85286",33.268339869838904,-111.84958947583138
"85286","Chandler","AZ","SP 2562 Steam Engine @ Arizona Railway Museum","330 E Ryan Road","85225",33.270868524910625,-111.83651267928128
"85286","Chandler","AZ","ARM Santa Fe 405 Business Car","Arizona Railway Museum","85249",33.269782580600726,-111.83636130032028
"85286","Chandler","AZ","Los Arboles Park","2255 S McQueen Rd","85286",33.2728519627757,-111.81752395492889
"85286","Chandler","AZ","Campo verde Park","Glen","not_available",33.27114112,-111.77741004
"85286","Chandler","AZ","Tumbleweed Ranch","2250 S. McQueen Road","85286",33.27317810058594,-111.8264389038086
"85286","Chandler","AZ","Relay For Life - Tumbleweed Park","Unnamed Rd","85286",33.27221099,-111.82850706
"85286","Chandler","AZ","Zanjero Park","3785 S Lindsay Rd","85234",33.28139323428807,-111.77271774460031
"85286","Chandler","AZ","Playground!","S. Hamilton St","85248",33.28619421897257,-111.8286875458152
"85295","Gilbert","AZ","Discovery Park","2214 E Pecos Rd.","85297",33.29396172658678,-111.74017669011769
"85295","Gilbert","AZ","Highland 5","S Buckaroo Trail","85295",33.299175384886304,-111.7150357520185
"85295","Gilbert","AZ","Chaparral Estates Community Park A","E. Canyon Creek Dr & S Colt Dr","85295",33.303691338821906,-111.71408822405267
"85295","Gilbert","AZ","T-Ball Games","Discovery Park","not_available",33.29325651612608,-111.74185752868652
"85295","Gilbert","AZ","Lyons Gate Soccer Field","3297-3305 E Ivanhoe St","85295",33.31770300865173,-111.71788930892944
"85296","Gilbert","AZ","Agritopia Park On Mulberry","Mulberry St","85296",33.32613572911857,-111.7305064201355
"85296","Gilbert","AZ","Neely Commons Park","900 Settlers Place","85296",33.33028130563262,-111.77054019374678
"85296","Gilbert","AZ","Crossroads Park","2155 E Knox Rd","85296",33.326276695728104,-111.74160316578163
"85296","Gilbert","AZ","Blue Park","555 E Stottler Dr","85296",33.332245,-111.77825
"85296","Gilbert","AZ","AZSC Practice Field","2117-2155 E Knox Rd","85296",33.326645545915916,-111.74172543511435
"85296","Gilbert","AZ","Farmhouse Meadows Greenbelt","310 S Palm St","85296",33.3436640569923,-111.78725608222129
"85297","Gilbert","AZ","His Divine Presence","4350 E. Elwood","85040",33.27668085399034,-111.70754236780054
"85298","Gilbert","AZ","Layton Lakes Park","20400-21198 S 142nd St","85286",33.261871023840875,-111.76833935294803
"85301","Glendale","AZ","Murphy Park","N 58th Ave","85301",33.53946854107231,-112.18426478688812
"85301","Glendale","AZ","Butler Park","not_available","85302",33.56330289056176,-112.18239004702039
"85301","Glendale","AZ","Desert Garden Park","w Ocotillo Rd","85303",33.53473341859953,-112.20922169114834
"85301","Glendale","AZ","El Barrio Park","Ocotillo","85301",33.534950256347656,-112.17471313476562
"85301","Glendale","AZ","New World Park","4831-4859 W Golden Ln","85302",33.562769533998846,-112.167007067729
"85301","Glendale","AZ","Mclellan Park","not_available","85301",33.53373037457638,-112.17199870545731
"85301","Glendale","AZ","Northern Horizon Park","63rd and Northern Ave","85301",33.55092668166943,-112.19708204269409
"85301","Glendale","AZ","Rose Lane Park","N 51st Ave & W Marlette Ave","85301",33.5290958038138,-112.16631099095002
"85301","Glendale","AZ","Windsor Park","6305 W Windsor Blvd","85301",33.510214000000005,-112.195629
"85301","Glendale","AZ","Bonsall Park South","5821 W Bethany Home Rd","85301",33.52071641351194,-112.18468173460819
"85301","Glendale","AZ","Bonsall Park North","5820 W Bethany Home Rd","85301",33.52500767410171,-112.18444525549172
"85301","Glendale","AZ","Lawrence Park","62nd Avenue and Lawrence Road","85301",33.53627949702306,-112.19201803207397
"85301","Glendale","AZ","O'Neil Park","6448 W Missouri Ave","85301",33.517105,-112.198649
"85301","Glendale","AZ","Northern Horizon Dog Park","North 63rd Ave","85301",33.55708366597902,-112.19445321489495
"85302","Glendale","AZ","Heritage Park","5405 W Mountain View Rd, Glendale, AZ 85302","85302",33.57398457961248,-112.17644640566652
"85302","Glendale","AZ","Sahuaro Ranch Park","9802 N 59th Ave","85302",33.57644154647939,-112.19075202941895
"85302","Glendale","AZ","Sundance Park","not_available","85345",33.584330480638954,-112.2105024193425
"85302","Glendale","AZ","Saguaro Ranch Softball Complex","9801-9899 N 63rd Ave","85302",33.57698142528534,-112.19341245
"85303","Glendale","AZ","Grand Canal Linear Park","5136 North 75th Avenue","85303",33.51728274828759,-112.22834587097168
"85303","Glendale","AZ","Discovery Park","6416 N 79th Ln","85303",33.53002995684396,-112.23106963077588
"85303","Glendale","AZ","Bicentennial Park","5233 N 71st Ave","85301",33.516183383279,-112.21215017746785
"85303","Glendale","AZ","Glendale Heroes Regional Park X-Court","6101 N 83rd Ave","85303",33.52649297792282,-112.23586221314416
"85303","Glendale","AZ","Glendale Heroes Regional Park","7950 W Bethany Home Rd","85303",33.52498240372582,-112.23273455785237
"85304","Glendale","AZ","51st And Sweetwater Park","5400-5498 W Sweetwater Ave","85304",33.603101093470265,-112.17254011451021
"85304","Glendale","AZ","Thunderbird Paseo Park","6011 W Thunderbird Rd.","85345",33.60890583909219,-112.1865468402857
"85304","Glendale","AZ","Cholla Park","not_available","85304",33.58992443751413,-112.19371899100936
"85304","Glendale","AZ","Chills Park","5300 W Cholla St","85304",33.589605999999996,-112.174299
"85304","Glendale","AZ","Thunderbird Paseo Park South Side","Arizona Canal","85304",33.600649616481654,-112.17703438624754
"85305","Glendale","AZ","Glendale Youth Sports Complex","6044 N 91st Ave","85305",33.52498391068103,-112.25633740425108
"85305","Glendale","AZ","Sunset Ridge Park","8615 W Missouri Ave","85305",33.515065,-112.245682
"85305","Glendale","AZ","Rovey Park","not_available","85303",33.54167490418412,-112.24767226220061
"85306","Glendale","AZ","Paradise Sunburst Park","16225 N 47th Pl","85032",33.63516032874379,-112.1655774667466
"85306","Glendale","AZ","Kings Park","5231 W Kings Ave","85306",33.634384999999995,-112.171714
"85306","Glendale","AZ","Country Gables Park","not_available","85306",33.621192334302535,-112.17127244232367
"85306","Glendale","AZ","Park","16446 N 62nd Ave","85306",33.636301,-112.19209099999999
"85306","Glendale","AZ","Wilshire Park","Wilshire","85306",33.62214,-112.17954
"85306","Glendale","AZ","Acoma Park","52nd Lane","85306",33.61747520039814,-112.1753694110904
"85307","Glendale","AZ","David Uribe Park","not_available","85363",33.56733153492196,-112.31001175900265
"85307","Glendale","AZ","Fowler Park","Luke AFB","not_available",33.54236918212596,-112.35438049350962
"85308","Glendale","AZ","Fletcher Heights Park","8135 W Lone Cactus Dr.","85382",33.67646206670506,-112.23723339958143
"85308","Glendale","AZ","Dos Lagos Park","not_available","85308",33.662310941348956,-112.194999729463
"85308","Glendale","AZ","Thunderbird Conservation Park","West Pinnacle Peak Road","85308",33.66926287317292,-112.18765293665419
"85308","Glendale","AZ","Foothills Park","19021 N 57th Ave","85308",33.64526205612268,-112.17826045819082
"85308","Glendale","AZ","Sierra Verde Park","21000 Arrowhead Loop","85308",33.673493924785575,-112.21280190644113
"85308","Glendale","AZ","Fletcher Heights North Park","7800 W Sands Drive","85383",33.68439068812778,-112.22533842801847
"85308","Glendale","AZ","Oasis","not_available","85383",33.696719,-112.208444
"85308","Glendale","AZ","Hillcrest Park","Hillcrest Blvd","85310",33.68600929775065,-112.21092738805339
"85308","Glendale","AZ","Skunk Creek Airsoft Battle Ground","19640 N 47th Ave","85308",33.664111,-112.16035500000001
"85308","Glendale","AZ","EVERYMILE Kick Ball Game","22616 N 72nd Dr","85310",33.68837356567383,-112.21488189697266
"85308","Glendale","AZ","Fletcher Heights Greenbelt","not_available","85382",33.66450027600791,-112.23549973060669
"85321","Ajo","AZ","E. S. Bud Walker Park","not_available","85321",32.38303777053887,-112.86347970344693
"85323","Avondale","AZ","Festival Fields Park","101 W Lower Buckeye Rd","85323",33.420352097050795,-112.34862351663668
"85323","Avondale","AZ","Avondale Friendship Park","12325 W McDowell Rd","85323",33.46016006282705,-112.32263088226318
"85323","Avondale","AZ","Cashion Community Park","10857 W Pima St","85323",33.43151674682678,-112.29254865061397
"85323","Avondale","AZ","Desert Springs Community Pool","12115 W Fillmore Street","85323",33.4522551657482,-112.31796428600153
"85323","Avondale","AZ","Kandi's Park","Road","85323",33.45223626772371,-112.31792316252253
"85323","Avondale","AZ","Parque De Paz","1601 N Palo Verde Dr","85395",33.45364761352539,-112.34429931640625
"85323","Avondale","AZ","Palmateer Park","200 E Western Ave","85338",33.435760498046875,-112.35562133789062
"85323","Avondale","AZ","Dessie Lorenz Park","202 E Main St","85323",33.43065340608581,-112.34743595123291
"85323","Avondale","AZ","Dennis Deconcini Park","351 E Western Ave","85323",33.434810638427734,-112.34562683105469
"85323","Avondale","AZ","Scott Park","not_available","85338",33.449297864373506,-112.35638291518762
"85323","Avondale","AZ","Donnie hale memorial park","not_available","85329",33.431462413730515,-112.29346840343555
"85323","Avondale","AZ","Cabana Park","320 E Western Ave","85323",33.43561935424805,-112.34545135498047
"85323","Avondale","AZ","Fred Campbell Park","101 E Lawrence Blvd","85323",33.44114660749732,-112.34842300415039
"85323","Avondale","AZ","The Park","109th ave","85323",33.424136971061785,-112.29598080319067
"85323","Avondale","AZ","Park Shadows","620 N Litchfield Rd","85338",33.43942231734543,-112.35670697919127
"85323","Avondale","AZ","Mountain View Park","201 W Mountain View Dr","85323",33.423615445881246,-112.34655618667603
"85324","Black Canyon City","AZ","High Desert Park","not_available","85324",34.054564910828006,-112.1475187181795
"85324","Black Canyon City","AZ","Black Canyon Heritage Park, Visitor Center","33955 S Old Black Canyon Hwy","85324",34.070544,-112.15136499999998
"85326","Buckeye","AZ","Lost Creek Park","not_available","85326",33.49020221918759,-112.50272675996816
"85326","Buckeye","AZ","Goodyear Community Park","3151 N Litchfield Rd","85395",33.48232469705488,-112.35964848676993
"85326","Buckeye","AZ","Mulberry Park","300th Ave","85396",33.484563,-112.697702
"85326","Buckeye","AZ","Falcon Park","15100 W Indian School Rd","85395",33.49447348938361,-112.38206709702894
"85326","Buckeye","AZ","Verrado Main Street Promenade","W Main St.","85396",33.49583036861326,-112.51227378845215
"85326","Buckeye","AZ","Walton Park","not_available","85340",33.49588108493811,-112.50460674022128
"85326","Buckeye","AZ","Rio Paseo Park","2757 N 152nd Dr","85395",33.476774,-112.38618999999998
"85326","Buckeye","AZ","Wildflower North Park","16151 W Monroe St","85338",33.44804763793945,-112.4060287475586
"85326","Buckeye","AZ","Tartesso Community Sports Park","W Tartesso Pkwy","85396",33.48334103874542,-112.70769007965339
"85326","Buckeye","AZ","Aleppo park","940 W. Village Parkway","85340",33.49855041503906,-112.37413024902344
"85326","Buckeye","AZ","Kell Park","300 N Sixth St","85326",33.37250518798828,-112.58322143554688
"85326","Buckeye","AZ","Bike Path Through the Park","W Lower Buckeye Rd & S Cotton Ln","85338",33.42149949,-112.42576176
"85331","Cave Creek","AZ","Desert Willow Park","30832 N Desert Willow Parkway West","85004",33.76537734571316,-111.99425339698792
"85331","Cave Creek","AZ","Lone Mountain Park","not_available","85331",33.78293873569403,-111.97382286156976
"85331","Cave Creek","AZ","Desert Broom Park","29440 N Cave Creek Rd.","85331",33.75218950429494,-111.99372844409702
"85332","Congress","AZ","Joshua Tree National Forest","not_available","85332",34.26142201065156,-113.08856944419412
"85332","Congress","AZ","Flora Mae Ludden Memorial Park","not_available","86332",34.224475,-112.74686
"85334","Ehrenberg","AZ","Todd Park","north broadway","92225",33.615993580727974,-114.5976495749059
"85335","El Mirage","AZ","Cactus Park Estates","not_available","85335",33.59676696866751,-112.34014441359655
"85335","El Mirage","AZ","Gateway Park","9982-10100 N El Mirage Rd","85335",33.57490062381517,-112.32620079101576
"85335","El Mirage","AZ","The Park","12805 W Dahlia Dr","85335",33.6005859375,-112.33561706542969
"85335","El Mirage","AZ","Le Park","By A Tree","85374",33.616036,-112.346433
"85335","El Mirage","AZ","Greer Park","11160-11190 W Alabama Ave","85363",33.594171245867614,-112.3045286823449
"85335","El Mirage","AZ","Youngtown Memorial Park","111th Ave","not_available",33.5881781434326,-112.30520855
"85335","El Mirage","AZ","on calebs back","not_available","85374",33.62159041150242,-112.34334966459025
"85335","El Mirage","AZ","3 star park","15825 N. Jerry St","not_available",33.628087,-112.326338
"85337","Gila Bend","AZ","Burleson Park","not_available","85337",32.948427,-112.719506
"85338","Goodyear","AZ","Wildflower South Park","16150 W. Desert Bloom St.","85338",33.4384651184082,-112.40614318847656
"85338","Goodyear","AZ","North Picnic Area and Park @ Sarival Village","16182 W Hilton Ave","85338",33.42653456733324,-112.40743160247803
"85338","Goodyear","AZ","Village Boulevard Park and Playground","Park at Intersection","85338",33.430782318115234,-112.40470123291016
"85338","Goodyear","AZ","Estrella Vista South Park","2700 S 157th Ave","85338",33.42362976074219,-112.39774322509766
"85338","Goodyear","AZ","Montecito Entrance","13655 S 178th Dr","85326",33.31886032654477,-112.43578489527812
"85338","Goodyear","AZ","Estrella Vista North Park","2575 S 157th Ave","85338",33.42586135864258,-112.39710235595703
"85339","Laveen","AZ","Dobbins Point Park","45th Ave","85339",33.36783893744604,-112.16900639907361
"85340","Litchfield Park","AZ","Palm Valley Park","not_available","85395",33.46532,-112.36669
"85340","Litchfield Park","AZ","Canada Village Park","1489 N 181st Ave","85395",33.46335220336914,-112.44812774658203
"85342","Morristown","AZ","Lake Pleasant Regional Park","41845 N Castle Hot Springs Rd","85342",33.8645716016701,-112.31735229492188
"85342","Morristown","AZ","Hassayampa River Preserve","49614 N. US Highway 60","85390",33.933088109926025,-112.69482493400574
"85342","Morristown","AZ","Pinky's Park","N Tegner Street","85390",33.973794515165345,-112.73479129492766
"85342","Morristown","AZ","Stone Park","164 E Apache St","85390",33.970469,-112.730019
"85342","Morristown","AZ","McGuire Park","W Sunset Dr","85390",33.96383179452322,-112.73862612562415
"85342","Morristown","AZ","Boetto Park","155 S Jefferson St","85390",33.9662705172716,-112.7306305744273
"85342","Morristown","AZ","Westland Park","N Westland Rd","85383",33.7693492629067,-112.34485731286647
"85342","Morristown","AZ","Wickenburg Reststop","47515 U.S. Hwy 60 89","85390",33.90906818390222,-112.67526626586914
"85342","Morristown","AZ","Coffinger Park","not_available","85390",33.97315975740556,-112.73428502635565
"85344","Parker","AZ","Pop Harvey Park","1300-1398 W Agency Ave","85344",34.14791846193275,-114.29346816718429
"85344","Parker","AZ","La Paz County Dog Park","6608-6678 Arizona 95","85344",34.241802,-114.17265
"85345","Peoria","AZ","Pioneer Community Park","8755 N 83rd Ave","85345",33.561497,-112.23758
"85345","Peoria","AZ","Johnny Osuna Mem. Park","8301 W Washington St","85345",33.580224,-112.23780500000001
"85345","Peoria","AZ","Westgreen Park","8555 N 87th Ave","85345",33.55976970803542,-112.24597242053332
"85345","Peoria","AZ","Centennial Plaza Park","8401 W Monroe St (N of Mountain View)","85345",33.57630920410156,-112.2398681640625
"85346","Quartzsite","AZ","La Posa South","not_available","85348",33.618828,-114.214644
"85349","San Luis","AZ","Parque Yoreme","RevoluciÃ³n Y 34","not_available",32.46693177188958,-114.74178065516493
"85349","San Luis","AZ","Parque Benito Juarez","Ave Benito Juares Garcia","83400",32.47980506313379,-114.78102025859899
"85349","San Luis","AZ","Parque Lazaro Cardenas","Juarez","not_available",32.46744574430791,-114.73407599749233
"85349","San Luis","AZ","Joe Orduno Park","not_available","85349",32.49568709878523,-114.78224334759746
"85349","San Luis","AZ","Eligio Ramirez Park","Madrigal Dr","85349",32.48634408797485,-114.75759526943615
"85349","San Luis","AZ","Friendship Park","Main St","85349",32.48715572419679,-114.78252738188417
"85350","Somerton","AZ","Parque Emiliano Zapata","Oaxaca","not_available",32.453305664683505,-114.77027892296192
"85350","Somerton","AZ","Parque Dr. GonzÃ¡lez Lobo","34","83450",32.45614762537862,-114.74419355392456
"85350","Somerton","AZ","Joe MuÃ±oz Park","not_available","85350",32.59278696481574,-114.71030009823467
"85351","Sun City","AZ","The patio","not_available","85351",33.61111948668221,-112.28480775276103
"85351","Sun City","AZ","Parks & Sons of Sun City, Inc.","11217 W Nevada Ave","85363",33.596585020422935,-112.29913674294949
"85351","Sun City","AZ","Some Random Park","Country Gables","85381",33.62015043836095,-112.25660222578163
"85353","Tolleson","AZ","Tolleson Veterans Park","8601 W Van Buren St","85353",33.45007541407883,-112.24513414185861
"85353","Tolleson","AZ","Cowden City Park","202 N 96th Ave","85353",33.444673,-112.267376
"85355","Waddell","AZ","Marley Park Elementary School Park","15042 W Sweetwater Ave","85379",33.60371530950107,-112.38351430319227
"85355","Waddell","AZ","Wisdom Park","Alexandria Way","85379",33.606078787204126,-112.39147725119574
"85355","Waddell","AZ","Surprise Park","not_available","85388",33.62700541681047,-112.43246128831112
"85355","Waddell","AZ","Surprise Community Park","15930 N Bullard Ave","85374",33.62917812094536,-112.37423578468908
"85355","Waddell","AZ","Marley Park Water Park","not_available","85379",33.60390249612086,-112.3857204166522
"85355","Waddell","AZ","Founders Park Heritage Pool House","13243 N Founders Park Blvd","85379",33.608286652343864,-112.38740696045485
"85355","Waddell","AZ","Small park","179th ave & Maui ln","85388",33.621945484320946,-112.44412422180176
"85355","Waddell","AZ","Surprise Farms Park","17984 W Westpark Blvd","85374",33.62805691570497,-112.44576730925327
"85355","Waddell","AZ","Arbor Park","W Old Oak Ln","85374",33.60580289162587,-112.39133172987371
"85355","Waddell","AZ","Sierra Montana Park","17680 W Spring Ln","85379",33.618157384762554,-112.44219303131104
"85355","Waddell","AZ","White Tank Branch Library","20304 W White Tanks Mtn Rd","85355",33.566994746759626,-112.49772467540775
"85355","Waddell","AZ","Mosaic Park","N 151st Ln","85379",33.6083237692903,-112.38743335092875
"85356","Wellton","AZ","Butterfield Park","not_available","85356",32.675792,-114.133889
"85364","Yuma","AZ","Kennedy Memorial Park","S. Kennedy Ln.","85365",32.68656865066886,-114.60946303315549
"85364","Yuma","AZ","West Wetlands Park","282 N 12th Ave","85364",32.729462904375204,-114.63670738873955
"85364","Yuma","AZ","Villa Alameda RV Resort","3547 S Avenue 5 E","85365",32.664052208483746,-114.54569964704172
"85364","Yuma","AZ","Kennedy Sports Complex","not_available","85634",32.68105644467874,-114.61623800371287
"85364","Yuma","AZ","quechan walking park","not_available","85364",32.701290130615234,-114.6175308227539
"85364","Yuma","AZ","Myers Park On Base","Macs Yuma","85365",32.64987249674047,-114.58792669102779
"85364","Yuma","AZ","Coker Park","not_available","85365",32.649584,-114.587379
"85364","Yuma","AZ","Yuma Armed Forces Park","200-298 S Gila St","85364",32.723409366666665,-114.61613675
"85364","Yuma","AZ","Sanguinetti Memorial Park","701 W. 22nd St.","85364",32.68670093909452,-114.62817706750553
"85364","Yuma","AZ","Kiwanis Park","1791 S Magnolia Ave","85364",32.71170338225506,-114.64068174362183
"85364","Yuma","AZ","Gateway Park","259 S. Gila St","85364",32.72753325018772,-114.61619707617155
"85364","Yuma","AZ","Centennial Heritage Area","S 21st Dr, Yuma, AZ 85364","85364",32.67689926763776,-114.6514711695727
"85364","Yuma","AZ","Smucker Park","2900-2998 S Avenue A","85364",32.6742037555092,-114.6334193817285
"85364","Yuma","AZ","Joe Henry Park","Yuma Crossing Bike Path (Colorado River Levee Mult","85364",32.72736672963835,-114.64827027374452
"85365","Yuma","AZ","Saguaro Park","South Avenue 8 E","85365",32.653569233333336,-114.49845555
"85373","Sun City","AZ","Westbrook Farmers Market","9416 W Kerry Ln","85382",33.658868,-112.262823
"85373","Sun City","AZ","Crossriver HOA Park","W Williams Dr","85373",33.689973428301116,-112.31438178201473
"85373","Sun City","AZ","109th Park","not_available","85373",33.68495146050549,-112.29119812656795
"85373","Sun City","AZ","Alta Vista Park","10631 W. Williams Rd","85383",33.68809661553219,-112.28804301874393
"85374","Surprise","AZ","Kingswood Parke HOA Park","W Mondell Rd","85374",33.640517579228295,-112.38516665932387
"85375","Sun City West","AZ","Asante","not_available","85387",33.70423993054194,-112.40979535836739
"85379","Surprise","AZ","Greenway Parc Park","15700 W Maui Ln","85379",33.619757753761625,-112.39561005067002
"85381","Peoria","AZ","Rio Vista Community Park","8866 W Thunderbird Rd","85381",33.61475017000214,-112.24477903758016
"85381","Peoria","AZ","Rio Vista Volleyball Courts","not_available","85381",33.61439426043727,-112.2452983909552
"85381","Peoria","AZ","Kiwanis Park","12687 N 78th Dr","85381",33.599942999999996,-112.226549
"85383","Peoria","AZ","Vistancia Solar Garden","Sunrise Point","85383",33.75778685457485,-112.33296275138855
"85383","Peoria","AZ","Sunset Park","29698 N Sunset Point","85383",33.753995741674764,-112.32976912255802
"85383","Peoria","AZ","West Wing Park","Westwing Pkwy","85383",33.736902846767954,-112.24576950073242
"85383","Peoria","AZ","Palo Verde Park and Open Space","26200 N. 73rd Drive","85383",33.720529075951816,-112.21713445445765
"85383","Peoria","AZ","Williams Park","W Williams","not_available",33.692505,-112.253516
"85390","Wickenburg","AZ","Festival Park","not_available","85361",33.6663519712355,-112.6148337143873
"85392","Avondale","AZ","Camelback Park","1185 Villa Nueva Dr","85340",33.50722684638157,-112.3421272459965
"85392","Avondale","AZ","Palm Valley Park","13189 West Monte Vista Drive","85395",33.46889877319336,-112.34297943115234
"85392","Avondale","AZ","UPTOWN JUNGLE FUN PARK | Avondale","1725 N Dysart Rd","85392",33.46699142456055,-112.34030151367188
"85392","Avondale","AZ","Turtle Park","675 Villa Nueva Dr.","85340",33.49220261851296,-112.34758737493652
"85392","Avondale","AZ","Tierra Verde Lake Park","301 S Old Litchfield Rd","85340",33.48868300759131,-112.35779741496668
"85392","Avondale","AZ","Rancho Park","not_available","85392",33.4763791977169,-112.32843027153164
"85395","Goodyear","AZ","Desert Vista Park","14553-14599 W Indianola Ave","85395",33.490039016666664,-112.371455
"85395","Goodyear","AZ","Rose Park","580 W Village Parkway","85338",33.49621057581568,-112.36620289268637
"85395","Goodyear","AZ","Staggs Park","300 S Old Litchfield Rd","85340",33.48884582519531,-112.35911560058594
"85395","Goodyear","AZ","City of Goodyear Bullard Wash Park","W McDowell Rd","85395",33.47086448649368,-112.38906383514404
"85396","Buckeye","AZ","park","wilson st & 238th ln","85396",33.44729018182483,-112.56479948759079
"85396","Buckeye","AZ","Tartesso Greenbelt","not_available","85396",33.47487665191117,-112.6958602550209
"85501","Globe","AZ","AZ State Fair Grounds","not_available","85501",33.3846091,-110.7636022
"85501","Globe","AZ","Old Dominion Mine Park","Globe,AZ,85501","46012",33.3942223,-110.7864984
"85501","Globe","AZ","Downtown Park","Sullivan St","not_available",33.398291941495685,-110.87200657367944
"85541","Payson","AZ","Rumsey Park","not_available","85541",34.245664211393915,-111.33240989776553
"85541","Payson","AZ","Grand Canyon Nationa Park","Grand Canyon","not_available",34.313278,-111.673986
"85541","Payson","AZ","Little Green Valley","not_available","85441",34.282088722222774,-111.14519801137838
"85541","Payson","AZ","Green Valley","Main street","85541",34.22940444946289,-111.33496856689453
"85541","Payson","AZ","Canyon Lake Vista","Tonto National Forest","not_available",34.25194617652517,-111.26795331981225
"85543","Pima","AZ","Graham County Fairgrounds","not_available","85546",32.792328880995676,-109.7036912999806
"85543","Pima","AZ","Thatcher Park","not_available","85552",32.84971777196434,-109.76807058611368
"85543","Pima","AZ","Glenn Meadows Park","3001 S 14th Ave","85546",32.8049201965332,-109.72442626953125
"85602","Benson","AZ","Shooting Range","not_available","85627",32.055236,-110.281609
"85602","Benson","AZ","Founders Park","not_available","85602",31.94327,-110.293147
"85603","Bisbee","AZ","Old City Park","118 Walsh Ave.","85603",31.44477081298828,-109.91458129882812
"85603","Bisbee","AZ","Grassy Park","not_available","85603",31.441958527048143,-109.91451467583637
"85607","Douglas","AZ","Airport Park","1300 W Airport Road","85607",31.34728281838974,-109.51083587399496
"85607","Douglas","AZ","3rd St Park","3rd Street","85607",31.334234561063187,-109.55915372280361
"85607","Douglas","AZ","Tenth Street Park","not_available","85607",31.344842866666667,-109.55021451666667
"85607","Douglas","AZ","Raul Castro Park","10th ST","85607",31.34395,-109.55067
"85607","Douglas","AZ","10th Street Park","1000-1098 E Ave","85607",31.34399118366949,-109.5507101296415
"85607","Douglas","AZ","Veterans Park","1600 E 8th St","85607",31.34263801574707,-109.53654479980469
"85613","Fort Huachuca","AZ","Lakeside Terraces","not_available","85613",31.550749331482134,-110.36041121131365
"85614","Green Valley","AZ","Anamax Park","not_available","85629",31.93220219575478,-110.98970971531485
"85614","Green Valley","AZ","Parque Los Arroyos","not_available","85614",31.919926,-110.981816
"85614","Green Valley","AZ","Madera Highlands Park","180 N Campbell Ave","85614",31.873642999999998,-110.966972
"85614","Green Valley","AZ","Om Atmojo & Tan Yuli","Cluster Green Valley","85614",31.8542511,-110.9937019
"85615","Hereford","AZ","Robert Tompkins Park","not_available","85635",31.53113,-110.292784
"85615","Hereford","AZ","Tompkins Park","2060 S. 7th Street","85635",31.53155544633626,-110.29220713680463
"85615","Hereford","AZ","Garden Canyon Park","not_available","85650",31.501625,-110.274251
"85615","Hereford","AZ","Country Club Park","2396 cherry hills dr","not_available",31.52570343017578,-110.27085876464844
"85616","Huachuca City","AZ","Hunt Park","not_available","85616",31.64507484436035,-110.33540344238281
"85619","Mount Lemmon","AZ","Mcdonald park","4100 N Harrison Rd","85749",32.282242418551434,-110.78683763912612
"85619","Mount Lemmon","AZ","Roy P. Drachman Agua Caliente Regional Park","12325 E Roger Rd","85749-9054",32.28111126673509,-110.7296345306385
"85619","Mount Lemmon","AZ","Agua Caliente","12350 E Roger Rd","85749",32.281058570464616,-110.73082187055067
"85619","Mount Lemmon","AZ","Ranch House & Gallery @ Aqua Caliente","not_available","85749",32.281099,-110.730373
"85619","Mount Lemmon","AZ","Sabino Canyon Recreation Area","5900 N Sabino Canyon Rd","85750",32.30985004295328,-110.82293003797531
"85619","Mount Lemmon","AZ","Alamo Wash Linear Park","5000 Ft Lowell Rd","not_available",32.2614,-110.887
"85621","Nogales","AZ","Patagonia Lake State Park","400 Patagonia Lake Rd","85648",31.495126988013983,-110.8544217251061
"85621","Nogales","AZ","Calabasas Park","not_available","85621",31.430685330360387,-110.91784689714206
"85623","Oracle","AZ","Oracle Park","not_available","85623",32.6060471741994,-110.7699523304467
"85624","Patagonia","AZ","Patagonia City Park","180 4th Ave","85624",31.54008674621582,-110.756591796875
"85624","Patagonia","AZ","Santa Cruz County Fairgrounds","Highway 83","not_available",31.67691310403157,-110.65752327690745
"85629","Sahuarita","AZ","Parque Del Lago","not_available","8629",31.978786908327617,-110.97204351699382
"85629","Sahuarita","AZ","Parque Del Rio","15700 S Rancho Sahuarita Blvd","85629",31.96651840209961,-110.98335266113281
"85634","Sells","AZ","Ironwood Forest National Monument","not_available","85653",32.460494322588666,-111.37544755451943
"85635","Sierra Vista","AZ","Veterans Memorial Park","Jean Randle Way","85635",31.555683474710584,-110.26820932112403
"85635","Sierra Vista","AZ","Cole Field","Tacoma street","85635",31.559650628730967,-110.28610435343172
"85635","Sierra Vista","AZ","Len Roberts Park","101 E Theater Dr.","85635",31.561545359867623,-110.2986706673319
"85635","Sierra Vista","AZ","Soldiers Creek Park","301-399 W Taylor Dr","85635",31.56389337786583,-110.30569857719769
"85635","Sierra Vista","AZ","Cyr Center Park","Cyr Center","85635",31.568207899928883,-110.30317946034937
"85635","Sierra Vista","AZ","Arbenz Field","2900 E. Tacoma Street","85635",31.565236381440787,-110.26416030427096
"85638","Tombstone","AZ","Tombstone City Park","not_available","85638",31.713253735530216,-110.0678077986506
"85641","Vail","AZ","Rolling Hills Park","8900 E 29th St","85710",32.20043173269322,-110.79968046388383
"85641","Vail","AZ","Morris K. Udall Park","7290 E Tanque Verde Rd","85710",32.25283606872962,-110.83429822650453
"85641","Vail","AZ","Lakeside Park","8137 E. Stella Rd.","85730",32.18566486003346,-110.8167439603327
"85641","Vail","AZ","Lincoln Regional Park","4325 S Pantano","85730",32.17318633281203,-110.81955535129823
"85641","Vail","AZ","Michael Perry Park","not_available","85730",32.18925254904215,-110.8041306064175
"85641","Vail","AZ","Palo Verde Park","not_available","85710",32.21645345300845,-110.84765487913224
"85641","Vail","AZ","Garden Of The Sun","not_available","85775",32.208054,-110.825074
"85641","Vail","AZ","Jesse Owens Park","400 S Sarnoff Dr","85710",32.216058638440444,-110.81628994742297
"85641","Vail","AZ","Meadow Spring Way Park","7600 Meadow Spring Way","not_available",32.11355,-110.80121
"85641","Vail","AZ","Cedar Groves Park","7500 E Juniper Dr","85730",32.17272,-110.83221599999999
"85641","Vail","AZ","Julian Wash Bike Path Rita Road Entrance","not_available","85747",32.09863970593542,-110.80314692106147
"85643","Willcox","AZ","Historic Railroad Avenue Park","155 North Railroad Avenue","85643",32.25254287832847,-109.83088706584246
"85645","Amado","AZ","De Anza RV Resort","2869 Interstate 19 Frontage Rd, Amado, AZ 85645","85645",31.70463289880718,-111.062134349602
"85645","Amado","AZ","Tubac Presidio State Historic Park","One Burruel Street","85646",31.611780166625977,-111.0477066040039
"85653","Marana","AZ","Saguaro National Park West","2700 N Kinney Rd","85743",32.25434699343483,-111.19722216744327
"85653","Marana","AZ","El Rio Neighborhood Park","not_available","85743",32.391487,-111.13168
"85653","Marana","AZ","Ora Mae Park","13250 N Lon Adams Rd","85653",32.44744062954449,-111.20612375944833
"85653","Marana","AZ","Saguaro National Park Environmental Ed. Center","not_available","85735",32.253743456727,-111.19496314660748
"85653","Marana","AZ","Silver moon community park","not_available","85741",32.3635115004454,-111.13139459983023
"85658","Marana","AZ","Naranja Park","660 W Naranja Dr","not_available",32.4104118347168,-110.9792709350586
"85658","Marana","AZ","Tangerine Sky Park","not_available","85742",32.422307,-111.061771
"85658","Marana","AZ","Hohokam Park","725 W Bougainvillea Dr","85755",32.443974,-110.980926
"85658","Marana","AZ","Ramada @ Casa de Eubanks","not_available","85737",32.428403,-110.971631
"85658","Marana","AZ","Neighborhood Park on Rain Shadow Way","W. Rain Shadow Way","85653",32.437857669772306,-111.07652529550549
"85701","Tucson","AZ","Armory Park","221 S. 6th Ave","85713",32.21942769608449,-110.96834555746297
"85701","Tucson","AZ","Santa Rosa Park","not_available","85701",32.211913583170144,-110.97352066560543
"85701","Tucson","AZ","Viente De Agosto Park","60 W. Congress st","85701",32.221362,-110.972712
"85701","Tucson","AZ","Ironhorse Park","75 North First Avenue","85705",32.222222910885584,-110.96298694610596
"85701","Tucson","AZ","Parque la flora","Carrera 15 Este # 74-79 sur","not_available",32.2159686,-110.9688104
"85701","Tucson","AZ","Jacome Plaza","W. Pennington St. btw N. Stone Ave. & N. Church","85701",32.22306929919257,-110.97169278534247
"85701","Tucson","AZ","Santa Rita Park","not_available","85713",32.20863740477507,-110.9638690143377
"85701","Tucson","AZ","Jardin de Cesar Chavez","E 18th St And S 6th Ave","not_available",32.21214579720628,-110.9689043985286
"85704","Tucson","AZ","Rillito River Park","1st Ave.","85719",32.28927311859828,-110.95892071723938
"85704","Tucson","AZ","Children's Memorial Park","4851 15th Pl.","85704",32.29503305974463,-110.98500287748492
"85704","Tucson","AZ","Rilito River Park","not_available","85704",32.29664268335945,-110.99921930309972
"85704","Tucson","AZ","Rillito Park Racetrack","4502 N 1st Ave","85718",32.28937816733209,-110.95514881242725
"85704","Tucson","AZ","Tohono Chul Park","7366 N Paseo del Norte","85704",32.33933192,-110.981864
"85704","Tucson","AZ","Parks & Recreation","680 W Calle Concordia","85704",32.37454605102539,-110.98230743408203
"85704","Tucson","AZ","Ormsby Park","1401 s verdugo ave","85713",32.325424,-110.99219555
"85704","Tucson","AZ","James D. Kriegh Dog Park","23 W Calle Concordia","85704",32.376312255859375,-110.96902465820312
"85705","Tucson","AZ","Catalina Park","N. 4th Ave. & E. 2nd St.","85705",32.24185326609672,-110.97052120347163
"85705","Tucson","AZ","Menlo Park","1001 W Fresno St","85745",32.22472381591797,-110.98938751220703
"85705","Tucson","AZ","Sweetwater Wetlands Park","2667 W Sweetwater Dr","85705",32.279634785890835,-111.02122668701256
"85705","Tucson","AZ","Dan Felix Regional Park","5790 N Camino De La Tierra","85741",32.31202772638195,-111.03520982494486
"85705","Tucson","AZ","Santa Cruz River Park Trail","Tucson, AZ 85745","85745",32.23425228138534,-110.98583853362261
"85705","Tucson","AZ","Christopher Columbus Park","4600 N Silverbell Rd","85745",32.28351230677452,-111.03306170079308
"85705","Tucson","AZ","Silver Creek Park","not_available","85745",32.262379102604,-111.01704108046494
"85705","Tucson","AZ","Don Hummel Park","4201-4255 N 4th Ave","85705",32.28329965010004,-110.96546403614539
"85705","Tucson","AZ","Flowing Wells Park","not_available","85705",32.303890499089114,-111.02207661662551
"85705","Tucson","AZ","De Anza Park","N. Stone & E. Speedway","85705",32.23501980392184,-110.97105503082275
"85705","Tucson","AZ","Balboa Heights Park","2536 N Castro Ave","85705",32.253101,-110.97362700000001
"85705","Tucson","AZ","Rillito Center","266 E Pastime Rd","85705",32.27413,-110.96755700000001
"85705","Tucson","AZ","Juhan Park","1770 W. Copper St.","not_available",32.254920959472656,-111.00287628173828
"85705","Tucson","AZ","Keeling Desert Park","245 E Glenn St","not_available",32.25787353515625,-110.9686508178711
"85705","Tucson","AZ","Meadowbrook Park","5760 N Sunbrook Rd","85741",32.311597,-111.02266399999999
"85705","Tucson","AZ","Pima Prickly Park","3500 W River Rd","85741",32.314369201660156,-111.03978729248047
"85706","Tucson","AZ","Rodeo Park","not_available","85706",32.16116754835938,-110.96534178989509
"85706","Tucson","AZ","Mission Manor Park","802 W Calle Francita","85706",32.144126892089844,-110.98211669921875
"85706","Tucson","AZ","Peace Garden","5809 S Liberty Ave","85706",32.14593,-110.973083
"85706","Tucson","AZ","Rudy Garcia Park","5009-5049 S Nogales Hwy","85706",32.16219299278479,-110.971250368758
"85707","Tucson","AZ","Golf Links Park","Craycroft and Golf Links","not_available",32.195276282372774,-110.87833391093064
"85707","Tucson","AZ","Davis Monthan - Bama Park","Craycroft Rd","85708",32.174860625510206,-110.87535941876159
"85710","Tucson","AZ","Planet Of The Crepes","400-452 S Sarnoff Dr","85710",32.21624081666667,-110.81503285
"85710","Tucson","AZ","Babad Do'ag","not_available","85715",32.233548864412796,-110.83782080003428
"85711","Tucson","AZ","Freedom Center Park","4900-5000 E 29th St","85711",32.19895265778154,-110.88599427420358
"85711","Tucson","AZ","Hoffman Park","not_available","85711",32.21709308750492,-110.88729234875231
"85711","Tucson","AZ","20/30 Park","5300 E. 7th Street","not_available",32.226257691484065,-110.87895675055223
"85711","Tucson","AZ","David Bell Multi-Use Path","Reid Park","not_available",32.21993456849707,-110.9100699534588
"85711","Tucson","AZ","Roof Park","22nd street","85711",32.2214651,-110.88541415
"85712","Tucson","AZ","Villa Serena Park","not_available","85712",32.244965,-110.864752
"85712","Tucson","AZ","Ft Lowell Park","2900 N Craycroft Rd","85712",32.260122816760365,-110.87303105331566
"85712","Tucson","AZ","Park","4832-4898 E Fairmount St","85712",32.23982409604479,-110.8882062404725
"85713","Tucson","AZ","Gene C Reid Park","900 S Randolph Way","85716",32.21062246827233,-110.92243194580078
"85713","Tucson","AZ","Garden Of Gethsemane","not_available","85716",32.221119963936744,-110.98251456342291
"85713","Tucson","AZ","Parkview Park","3700 E 24th St","85713",32.20444869995117,-110.91368865966797
"85713","Tucson","AZ","The Bandshell At Reed Park","S Country Club Rd","85716",32.208778,-110.92436
"85713","Tucson","AZ","Rodeo park","not_available","85714",32.17706603359096,-110.98543104131241
"85713","Tucson","AZ","Arroyo Chico Basin 2","not_available","85719",32.217228,-110.952255
"85713","Tucson","AZ","Country Club Annex Park","2230 South March Place","85713",32.19529342651367,-110.92121124267578
"85713","Tucson","AZ","Vista del Pueblo Park","1801 W San Marcos Blvd.","85713",32.20277907708759,-111.00354194641113
"85713","Tucson","AZ","Kennedy Park","3700 South Mission Road","85713",32.180850587336046,-111.00972939020129
"85713","Tucson","AZ","James Thomas Park","3200 S Forgeus Ave","not_available",32.186116,-110.931069
"85714","Tucson","AZ","Tucson Rodeo Ground","4823 S 6th Ave","85714",32.16512578198626,-110.9670124894151
"85714","Tucson","AZ","Santa Cruz River Park","Irvington","85714",32.162753310088384,-110.99104280091696
"85714","Tucson","AZ","Palo Verde Park","4550 S Randolph Ave","85714",32.169151,-110.92289199999999
"85716","Tucson","AZ","Himmel Park","1000 N. Tucson Blvd.","85716",32.233990759759536,-110.93417511076878
"85716","Tucson","AZ","Brandi Fenton Memorial Park","3398 N. Alvernon Way.","85718",32.27241841912043,-110.91796913982819
"85716","Tucson","AZ","Rio Vista Natural Resources Park","3900 N. Tucson Blvd.","85716",32.28002446182202,-110.93497792643409
"85716","Tucson","AZ","Rio Vista Park","3900 N Tucson Blvd","85716",32.27997335991674,-110.93121797449031
"85718","Tucson","AZ","Park Place Park!","4060 N Weimer Pl","85719",32.280556,-110.95273
"85718","Tucson","AZ","the loop","Campbell & River","not_available",32.28650665283203,-110.94692993164062
"85718","Tucson","AZ","Mehl Park","River & Pontatoc","85718",32.27590195850327,-110.90592537057242
"85718","Tucson","AZ","Riverwalk","4601 N Via Entrada","85718",32.2902717590332,-110.95098114013672
"85719","Tucson","AZ","UA Mall","1607 E University Blvd","85719",32.232099206014446,-110.95058498663842
"85719","Tucson","AZ","Conner Park","E Glenn St","85719",32.25730372621417,-110.9394548931555
"85719","Tucson","AZ","Feld Davis Park","1800 Block E 8th St","85719",32.22446143344492,-110.94485512429146
"85719","Tucson","AZ","The Grassy Dip at Highland Garage","1444 E Mabel St.","not_available",32.23843002319336,-110.9500732421875
"85730","Tucson","AZ","Escalante Bike Path Rest Stop","not_available","85708",32.17742,-110.852013
"85730","Tucson","AZ","Case Park","22nd St.","85748",32.213509504297924,-110.78217538642448
"85730","Tucson","AZ","Royal Star Equestrian","11801 E Irvington Rd","85747",32.163959999999996,-110.74038999999999
"85735","Tucson","AZ","Gates Pass","W Gates Pass Rd.","85743",32.223258053001764,-111.10161165230478
"85737","Tucson","AZ","Catalina State Park","11570 N Oracle Rd","85737",32.41735615017762,-110.93084335327148
"85737","Tucson","AZ","Canada Del Oro Riverfront Park","551 W. Lambert Ln","85737",32.39684584968387,-110.97778766757651
"85741","Tucson","AZ","Willow Park","Willow Park Way","85741",32.35793,-111.073074
"85741","Tucson","AZ","Wildwood Park","6201 N. Parsley Road","85741",32.3194580078125,-111.03285217285156
"85741","Tucson","AZ","Richardson Park","3500 W. Green Trees Dr.","85741",32.33267484997146,-111.04039676892793
"85741","Tucson","AZ","Northwest Community Park","7601 North Mona Lisa Road","85741",32.34503936767578,-111.02216339111328
"85741","Tucson","AZ","Denny Dunn Neighborhood Park","4400 W Massingale Rd","85741",32.34432449254914,-111.05782661324685
"85741","Tucson","AZ","Casas Adobes Park","6262 N. Oracle Jaynes Station","85741",32.31904478577376,-111.02773506207352
"85742","Tucson","AZ","Continental Reserve","8029 N Gillespie Ln","85743",32.35920693718103,-111.12755806970766
"85742","Tucson","AZ","Arthur Pack Regional Park","9101 N Thornydale Rd","85742",32.37583270155784,-111.0489485625633
"85742","Tucson","AZ","Wade McLean Neighborhood Park","8000 N Silverbell Rd","85743",32.35372543334961,-111.10757446289062
"85742","Tucson","AZ","Silverbell Park","7870 N Leilani Ln","85743",32.34962844848633,-111.09658813476562
"85742","Tucson","AZ","Crossroads at Silverbell District Park","7548 N Silverbell Rd","85743",32.34835590580418,-111.09482849014594
"85743","Tucson","AZ","Feliz Paseos Park","1600 N Camino de Oeste","85745",32.241994,-111.061893
"85743","Tucson","AZ","Silverbell-Cortaro Dog Park","7548 North Silverbell Road","85653",32.34653847438647,-111.09575803106743
"85746","Tucson","AZ","Midvale Park","Oak Haven","85746",32.14183686932135,-111.00888252256512
"85746","Tucson","AZ","Drexel/Oak Tree Park","not_available","85746",32.14754,-111.006039
"85746","Tucson","AZ","Manzanita Park","5200 S Westover Avenue","85746",32.157257080078125,-111.02241516113281
"85746","Tucson","AZ","Cardinal Neighborhood Park","6925 S. Cardinal","85746",32.125616389766726,-111.0281753540039
"85746","Tucson","AZ","The Park!","Phoebe Ave","85713",32.177294704991056,-110.99767913726798
"85746","Tucson","AZ","Sahuarita Lake Park","S Rancho Sahuarita Blvd","85629",32.12166398132244,-110.98855127057126
"85747","Tucson","AZ","Javalina Picnic Area","Saguaro National Park","not_available",32.165563,-110.723655
"85756","Tucson","AZ","Rancho Valencia Park","5134 E Desert Straw Ln","85756",32.123263,-110.88289099999999
"85756","Tucson","AZ","Ventana Ranch Community Park","not_available","85756",32.12597983233563,-110.89101791381836
"85901","Show Low","AZ","McCarty Park","701-799 S 24th Dr","85901",34.24067690254006,-110.06902383561356
"85901","Show Low","AZ","Show Low City Park","not_available","85901",34.24423329677881,-110.05751609802246
"85901","Show Low","AZ","Firefighter Memorial Park","E Hunning","not_available",34.25026396915521,-110.03326892852783
"85925","Eagar","AZ","Ramsey Memorial Park","not_available","85938",34.114023,-109.28735733032227
"85927","Greer","AZ","Badger Pond","not_available","85927",34.02988,-109.453412
"85928","Heber","AZ","Camp Shadow Pines","300 Highway 260","85928",34.421573600929264,-110.65747397860417
"85928","Heber","AZ","Sitgreaves National Forest","not_available","85928",34.51227915874055,-110.4262291303504
"85929","Lakeside","AZ","Woodland Lake Recreation Park","not_available","85929",34.13298,-109.96909
"85929","Lakeside","AZ","Mountain Meadow Recreation Complex","1101 South Woodland Road","85929",34.12601579250971,-109.9351281820101
"85929","Lakeside","AZ","Civic Center","1360 N Niels Hansen Ln","85929",34.15245056152344,-109.976318359375
"85937","Snowflake","AZ","Freeman Park","392-428 Paper Mill Rd","85939",34.47049433214361,-110.1013970375061
"85937","Snowflake","AZ","Freedom Park","not_available","85937",34.469912,-110.098688
"85938","Springerville","AZ","White Mountain Historical Park","Mohave St","85938",34.12908,-109.280198
"86001","Flagstaff","AZ","Old Town Park","913 W. Lower Coconino St.","86001",35.19773758676996,-111.65935638829131
"86001","Flagstaff","AZ","Thorpe park","not_available","86001",35.201766668322485,-111.65882655153277
"86001","Flagstaff","AZ","Bushmaster Park","Elder Dr","86004",35.21731169682688,-111.60372932855482
"86001","Flagstaff","AZ","ÙÙØ´Ø§Øª Ø§ÙØ´Ø¨ÙØ¨Ù","not_available","86015",35.247414,-111.834028
"86001","Flagstaff","AZ","Bow And Arrow Park","3701 Cochise Dr","86001",35.16385148759422,-111.6628614620039
"86001","Flagstaff","AZ","Bearizona","Bearizona","86023",35.18385976076076,-111.66046846321721
"86001","Flagstaff","AZ","Hullabaloo","Wheeler Park","86001",35.19975872005717,-111.65119923026502
"86001","Flagstaff","AZ","Mountain View Park","519 W. Piute Rd","86001",35.21036850970566,-111.65165935805516
"86001","Flagstaff","AZ","Route 7 Stop 20","not_available","86004",35.213561,-111.621248
"86001","Flagstaff","AZ","Bushmaster Park","Locket St","86004",35.2137909,-111.6049148
"86001","Flagstaff","AZ","James Cullen Park","519 piute","86001",35.209273,-111.650904
"86001","Flagstaff","AZ","Ponderosa Park","2512 N 1st St","86004",35.212754,-111.616772
"86001","Flagstaff","AZ","University Highlands Park","3888 S Jewel Dr","86001",35.16703796386719,-111.67920684814453
"86001","Flagstaff","AZ","Wheeler Park","201-299 U.S. 180","86001",35.199934139756266,-111.65120505264825
"86001","Flagstaff","AZ","Continental Park","5650 E Old Walnut Canyon Rd","86004",35.205424,-111.574919
"86004","Flagstaff","AZ","Riordan Mansion State Historic Park","409 W Riordan Rd","86001",35.18703216079133,-111.65903091430664
"86004","Flagstaff","AZ","Smokerise Park","6065 Native Way","86004",35.23570418874903,-111.57106576922438
"86017","Munds Park","AZ","Oak Creek Visitor Center","not_available","86336",34.909292,-111.728664
"86018","Parks","AZ","Grand Canyon Deer Farm","6769 E Deer Farm Rd","86046",35.26576563707482,-112.05692406301951
"86023","Grand Canyon","AZ","Cape Royal","Grand Canyon North Rim","86052",36.11749414247928,-111.94801936082096
"86023","Grand Canyon","AZ","The Abyss","W Rim Dr","86023",36.058008966671984,-112.1690827649224
"86023","Grand Canyon","AZ","××¨× × ×§× ××× ×× ××¡× ××¨××××ª","not_available","86023",35.976127,-112.12384
"86023","Grand Canyon","AZ","Grand Canyon Park Passes Station","Tusayan, AZ 86023","86023",35.99998416286208,-112.12151876096927
"86025","Holbrook","AZ","Hunt Park","not_available","86025",34.908794056898174,-110.15099398914276
"86028","Petrified Forest Natl Pk","AZ","Painted Desert","Petrified Forest Rd.","86028",35.065672086695805,-109.7819937122667
"86033","Kayenta","AZ","Kayenta Recreation Park","not_available","86033",36.712146059578636,-110.25029722834637
"86033","Kayenta","AZ","Sandstone Tours, Inc.","Indn Route 42","84536",36.98510593421682,-110.11545181274413
"86040","Page","AZ","Glen Canyon Dam","not_available","86040",36.93720110186985,-111.48367881774902
"86040","Page","AZ","Vermillion Park","Elk Road","86040",36.90479,-111.47424
"86045","Tuba City","AZ","Wupatki National Monument","not_available","86045",36.205888383959234,-111.05398418375862
"86046","Williams","AZ","Bearizona","1500 E Route 66","86046",35.2561957279718,-112.15376173146541
"86046","Williams","AZ","Monument Park","not_available","86046",35.248959,-112.195606
"86047","Winslow","AZ","Dilkon Southwest Navajo Fairgrounds","not_available","86047",35.385439099051396,-110.30060799090586
"86301","Prescott","AZ","Courthouse Square","1 E. Gurley","86301",34.54095070526167,-112.46944427490234
"86301","Prescott","AZ","Kaylaâs Hands","not_available","86305",34.611156,-112.464704
"86301","Prescott","AZ","Watson Woods Riparian Preserve","1626 Sundog Ranch Rd","not_available",34.575853,-112.428375
"86301","Prescott","AZ","A. C. Williams Granite Creek Park","554 N 6th St","86301",34.54905805192744,-112.46727720581667
"86301","Prescott","AZ","Jim McCasland Willow Creek Park","3181 Willow Creek Rd","86301",34.60469436645508,-112.45257568359375
"86301","Prescott","AZ","Ken Lindley Field and Park","702 E Gurley St","86301",34.54280090332031,-112.4599380493164
"86301","Prescott","AZ","Willow Lake Park","1497 Heritage Park Rd","not_available",34.613862,-112.440822
"86301","Prescott","AZ","Badger Park","not_available","86301",34.559471130371094,-112.47879028320312
"86301","Prescott","AZ","A.C. Williams Granite Creek Park","554 6th St","86301",34.54843521118164,-112.46826171875
"86301","Prescott","AZ","Peppertree Mini-Park","220 W Delano Ave","86301",34.573516845703125,-112.4644775390625
"86301","Prescott","AZ","Honor Island Park","626 W Gurley St","not_available",34.54269168818992,-112.47864961624146
"86301","Prescott","AZ","Veteran's Memorial Island","111 Aven Drive","86301",34.54447937011719,-112.45441436767578
"86301","Prescott","AZ","Heritage Park","1497 Heritage","not_available",34.6131755219804,-112.4404879891678
"86303","Prescott","AZ","Lynx Lake","not_available","86303",34.52081928698368,-112.38709414262237
"86303","Prescott","AZ","Flinn Park","280 Josephine St","86305",34.546287536621094,-112.4919204711914
"86303","Prescott","AZ","Acker Park","421 S Virginia St","86303",34.53493881225586,-112.46267700195312
"86303","Prescott","AZ","Leroux Mini-Park","536 W Leroux St","86303",34.534848140037376,-112.47686594724654
"86303","Prescott","AZ","Beverly Garden Trailer Park","1403 W Iron Springs Rd Lot 1","86305",34.564248,-112.492313
"86305","Prescott","AZ","Chino Valley Community Center","1645-1741 N Road 1 E","86323",34.76897812037075,-112.44632608945673
"86305","Prescott","AZ","Chino Valley Town Complex","1020 W Palomino","not_available",34.773881621261545,-112.4656911731311
"86305","Prescott","AZ","Old Park","not_available","86321",34.56940460205078,-113.1777114868164
"86314","Prescott Valley","AZ","Pronghorn Ranch","7051 N Antelope Meadows Dr","86315",34.64597561599759,-112.33277862269253
"86314","Prescott Valley","AZ","Mountain Valley Park","Mountain Valley Park","86314",34.602438074380046,-112.31820257683819
"86314","Prescott Valley","AZ","Fain Park","7501 E Civic Cir","86314",34.595851,-112.333947
"86314","Prescott Valley","AZ","Bob Edwards Park","not_available","86314",34.60054,-112.33683
"86314","Prescott Valley","AZ","Renaissance Park","Tuscany Subdivision","not_available",34.60823440551758,-112.35094451904297
"86322","Camp Verde","AZ","Butler Park","145 Camp Lincoln Rd","86322",34.5860481262207,-111.8571548461914
"86322","Camp Verde","AZ","Sycamore Park","4170 East Beaver Vista Road","not_available",34.64099884033203,-111.77803039550781
"86324","Clarkdale","AZ","Jerome State Historic Park","not_available","86324",34.75354356377614,-112.11081859166424
"86324","Clarkdale","AZ","Garrison Centennial Park","345 E Mingus Ave","86326",34.73908,-112.024447
"86333","Mayer","AZ","Yavapai County Henry Cordes Park","19620 E Stagecoach Trl","86333",34.323871000000004,-112.116798
"86336","Sedona","AZ","Amitabha Stupa and Peace Park","2650 Pueblo Dr","86336",34.87555420565915,-111.8081499356691
"86336","Sedona","AZ","Cultural Park","73-77 Cultural Park Pl","86336",34.85254502529871,-111.83143798325226
"86336","Sedona","AZ","Slide Rock Lodge","6401 N State Route 89A","86336",34.885379,-111.75259709358215
"86401","Kingman","AZ","Metcalfe Park","315 W Beale St","86401",35.19099426269531,-114.06080627441406
"86401","Kingman","AZ","Lewis Kingman Park","2301-2361 Historic U.S. 66","86401",35.20159676263262,-114.02578347622298
"86401","Kingman","AZ","AT&SF Locomotive No.3759","310 E Beale St","86401",35.18942642211914,-114.05406188964844
"86401","Kingman","AZ","Monsoon Park","Washington St., Eastern St.","86401",35.19649670012307,-114.0125282304543
"86401","Kingman","AZ","Veteran's Memorial Park, Kingman","310 W. Beale St.","86401",35.18994903564453,-114.06017303466797
"86401","Kingman","AZ","jagerson park","not_available","86401",35.26849969739087,-114.01075937007667
"86401","Kingman","AZ","Railroad Park","100-360 W Beale St","86401",35.18970935883741,-114.05809499355071
"86403","Lake Havasu City","AZ","Rotary Park","1400 S Smoketree Ave","86403",34.464377849721906,-114.3422184974391
"86403","Lake Havasu City","AZ","Jack Hardy Park","150-198 Bunker Dr","86403",34.471867137503594,-114.31622521883483
"86403","Lake Havasu City","AZ","Wbeeler Park","not_available","86403",34.47741809122562,-114.33773254430521
"86403","Lake Havasu City","AZ","Dick Samp Memoial Park","1628 Avalon Ave","86404",34.52236557006836,-114.33744049072266
"86403","Lake Havasu City","AZ","Avalon Dog Park","Avalon Ave.","86404",34.51551228068529,-114.33001984150768
"86403","Lake Havasu City","AZ","Parks & Recreation Department","100 Park Ave","86403",34.465567,-114.33842800000001
"86406","Lake Havasu City","AZ","Sara Park","7260 S Sara Pkwy","86406",34.44738686609664,-114.246529044727
"86406","Lake Havasu City","AZ","Campbell Sniper Tower","not_available","86406",34.487838150604524,-114.26184127420743
"86406","Lake Havasu City","AZ","Sara Park BMX Track","Sara Pkwy","86406",34.44721464520496,-114.26112733482168
"86413","Golden Valley","AZ","Davis Camp Park","2251 AZ-68","86429",35.176971435546875,-114.56278228759766
"86413","Golden Valley","AZ","Arroyo Vista Park","2170 Lariat Dr","86442",35.04738376767477,-114.57296240501819
"86413","Golden Valley","AZ","Big Bend of Colorado","4220 Needles Hwy","89029",35.114176794556506,-114.63877180166354
"86413","Golden Valley","AZ","Santa Fe Park","not_available","92363",34.840095547244466,-114.60435377222252
"86413","Golden Valley","AZ","Colorado River Heritage Greenway Park And Trails","not_available","89046",35.1718313066832,-114.57085480261351
"86413","Golden Valley","AZ","Mountain View Park","51975 Arie Ave.","89029",35.14946745264183,-114.62399012235548
"86413","Golden Valley","AZ","Mohave Desert Veterans Memorial Park","not_available","86436",34.832907667882615,-114.61987852002629
"86413","Golden Valley","AZ","Silver Creek RV Park","1515 Goldrush Dr","86442-8308",35.11165,-114.57268
"86413","Golden Valley","AZ","Bullhead Community Park","1251 Highway 95","86429",35.13939043351309,-114.57095340154625
"86413","Golden Valley","AZ","Jack Smith Park","328-624 S Bridge Rd","92363",34.835864470347765,-114.58933875748467
"86413","Golden Valley","AZ","Veteran's Community Park","3451 North Verde Road","86413",35.2279440392778,-114.2198038380593
"86413","Golden Valley","AZ","Outdoor Learning Space","not_available","86440",34.853058,-114.593714
"86432","Littlefield","AZ","Harley Davidson Grand Canyon Ride","not_available","86432",36.40095,-113.697586
"86441","Dolan Springs","AZ","Joshua Tree Forest","not_available","86441",35.58936369689025,-114.39353943362835
"86443","Temple Bar Marina","AZ","valley view park","Colorado River","not_available",36.14623532583033,-114.41749744000381
"86511","Saint Michaels","AZ","Veterans Memorial Park","Window Rock, AZ","86515",35.68085447,-109.04940887
"86511","Saint Michaels","AZ","Frontier Courtyard","Hwy 264","86511",35.65682892786089,-109.11083625395649
"86514","Teec Nos Pos","AZ","Four Corners Monument","4 Corners Road","87420",36.998979673081244,-109.04518470168114
