"zip","city","state","name","address","postalCode","lat","lon"
"01001","Agawam","MA","Borgatti Park","not_available","01001",42.05395203429753,-72.60837451204907
"01001","Agawam","MA","School Street Park","not_available","not_available",42.07645276652537,-72.59218061343476
"01001","Agawam","MA","Mittineague Park","Churchill Rd.","01089",42.09861248724531,-72.65705108642578
"01001","Agawam","MA","Batman Arkan Asylum Escape","not_available","01106",42.03769728333333,-72.61262483
"01001","Agawam","MA","River's Edge Picnic Grove","Six Flags New England","01001",42.04129245115911,-72.61262495290866
"01001","Agawam","MA","School Street Park","School St.","01030",42.0747986625036,-72.61543159135077
"01002","Amherst","MA","Amherst Common","1 S Pleasant St","01002",42.37392235266519,-72.51937866210938
"01002","Amherst","MA","Haigis Mall","Presidents Dr","01003",42.387274633365415,-72.52638971857385
"01002","Amherst","MA","South Amherst Common","not_available","01002",42.34059861410378,-72.50362186759588
"01002","Amherst","MA","Groff Park","Route 116","not_available",42.35789170377195,-72.51785778240131
"01002","Amherst","MA","Sweetser Park","Main St","01002",42.37637603417123,-72.5180881447411
"01002","Amherst","MA","Mill River Recreation Area","95 Montague Rd","01002",42.41220136619676,-72.52753354742416
"01002","Amherst","MA","Realignment Park","North Pleasant St","01002",42.379166,-72.5199
"01002","Amherst","MA","Kendrick Park","East Pleasant St","01002",42.38082728967054,-72.51977922294827
"01005","Barre","MA","Rainbow's End Playground","4-26 Gardner Rd","01452",42.481776653662955,-72.0146368488962
"01007","Belchertown","MA","Electric Park!","not_available","01056",42.19164590859795,-72.42148306783494
"01007","Belchertown","MA","Bondsville Park","Main Street","not_available",42.214117,-72.345151
"01008","Blandford","MA","Strathmore  Park","950 Westfield Rd","not_available",42.17013241111731,-72.8742930388607
"01008","Blandford","MA","ChesterBlandford State Forest","not_available","1008",42.24365514943051,-72.91627574101787
"01010","Brimfield","MA","Brimfield State Forest","not_available","1057",42.10906131879987,-72.24833527473129
"01010","Brimfield","MA","Burliegh Park","not_available","01069",42.16962107427278,-72.26294234664715
"01013","Chicopee","MA","Crosiers Field","Northampton St","not_available",42.19754742090377,-72.6285577047026
"01013","Chicopee","MA","Garrity Playground","50 mercedes st","01020",42.167077,-72.589602
"01013","Chicopee","MA","Jerana Park","Main Street","01103",42.12043787406723,-72.60924077607761
"01013","Chicopee","MA","Ray Ash Park","42 Arcade St","01020",42.16941304370332,-72.60395652013398
"01013","Chicopee","MA","Aldenville Park","1-71 Worthington St","01020",42.16883182525635,-72.60490894317627
"01013","Chicopee","MA","Little Bench Park","Riverdale St","01089",42.13055670261383,-72.62109875679016
"01013","Chicopee","MA","Lucy Wisniowski Park","Coney St","01013",42.144743,-72.610462
"01013","Chicopee","MA","Aldenville Commons","not_available","01020",42.17345385715078,-72.59896092162259
"01013","Chicopee","MA","Szetela Park","66 Macek Dr","01013",42.159828999999995,-72.600523
"01013","Chicopee","MA","Szot park","not_available","01013",42.14703356894543,-72.60199871908063
"01013","Chicopee","MA","Springdale Park","840 Main St.","01040",42.18877508644788,-72.622390305322
"01013","Chicopee","MA","Sprinklers @ Kenefick Park","not_available","01107",42.116348,-72.61374
"01020","Chicopee","MA","Heritage Park","Heritage St","not_available",42.204680982328824,-72.60777390060991
"01020","Chicopee","MA","Preston Park","2-198 Keddy Blvd","01020",42.19930160996306,-72.57082530685064
"01020","Chicopee","MA","Biking","bike","bike",42.186173233333335,-72.56774595
"01020","Chicopee","MA","Westover Industrial Gate Park","Westover Rd","01105",42.184415932280345,-72.5647509098053
"01020","Chicopee","MA","Texon Mill Park","not_available","01075",42.2148,-72.6014
"01020","Chicopee","MA","Busssss Stoppp","122-198 Oakridge St","01020",42.190495140646746,-72.57946272413155
"01020","Chicopee","MA","Marshall Roy Park","134 El Paso Street","01104",42.139930725097656,-72.56454467773438
"01026","Cummington","MA","Trustees Of Reservations The, Bryant Homestead","207 Bryant Rd","01026",42.471671,-72.935639
"01027","Easthampton","MA","Look Park","300 N Main St","01062",42.34431621014098,-72.68716365002436
"01027","Easthampton","MA","Dinosaur Footprints","193 High St","01040",42.24168716067124,-72.62358452867905
"01027","Easthampton","MA","Mt Tom State Reservation","72 Reservation Rd","01040",42.26823867824361,-72.61673672552746
"01027","Easthampton","MA","Nonotuck Park","not_available","01027",42.25166779102061,-72.66348039245509
"01027","Easthampton","MA","Pulaski Park","Main St","01060",42.317356922495605,-72.63312541127523
"01027","Easthampton","MA","Childs Park","not_available","01060",42.328384359432825,-72.6481156923686
"01027","Easthampton","MA","Mineral hills conservation area","Turkey hill rd","01062",42.31290338009342,-72.62680220539248
"01027","Easthampton","MA","Pulaski Park","Main Street","01027",42.271808921740714,-72.67151355743408
"01027","Easthampton","MA","Mt Tom Visitors Center & Pavilion","Reservation Rd","01040",42.26773796886727,-72.63703474893335
"01027","Easthampton","MA","Conant Memorial Park","Clark St","not_available",42.22518003734344,-72.72980175879206
"01027","Easthampton","MA","Laurel Park","Rt. 5 & 10","01060",42.359216153153575,-72.63981371347933
"01027","Easthampton","MA","Trinity Park","not_available","01062",42.334165,-72.665843
"01027","Easthampton","MA","Sojourner Truth Memorial Park","Park St","not_available",42.33189671458069,-72.67453131547602
"01027","Easthampton","MA","Eva Trager Memorial","155 157 Main St.","not_available",42.318878173828125,-72.63107299804688
"01027","Easthampton","MA","Park","Myrtle Ave.","01039",42.35963797179134,-72.73009300231932
"01028","East Longmeadow","MA","East Longmeadow Bike Trail","1-83 Denslow Rd","01028",42.041825027910164,-72.5236571813624
"01028","East Longmeadow","MA","Heritage Park","74 Gates Ave","01028",42.078610891524114,-72.52241516341647
"01028","East Longmeadow","MA","Pine Knoll Recreation Area","1970 Allen St","01118",42.087675,-72.494946
"01030","Feeding Hills","MA","Old Tatham School Fields","299 E Miami St.","01089",42.10332505324011,-72.66560196876526
"01032","Goshen","MA","D.A.R. State Forest","78 Cape St","01032",42.45688174338761,-72.7991294000465
"01032","Goshen","MA","DAR - Fire Tower","not_available","01096",42.46449279785156,-72.78372192382812
"01033","Granby","MA","Dufresne Park","40 Kendall St","01033",42.259067108167386,-72.50344854476644
"01033","Granby","MA","Brown Ellison Park","Brook St","not_available",42.22808383539644,-72.49420449574518
"01035","Hadley","MA","Hadley Town Common","Russell St","01035",42.341488,-72.59661
"01035","Hadley","MA","Railroad Street","not_available","01035",42.342205162971894,-72.58917157804626
"01036","Hampden","MA","Gerrish Park","91-151 Main St","01036",42.05688143333333,-72.43398928333333
"01036","Hampden","MA","Fountain Park","Tinkham Rd.","01095",42.101246687429516,-72.45445141324855
"01040","Holyoke","MA","Community Field","51 Community Field Rd","01040",42.20429709254702,-72.63772190845566
"01040","Holyoke","MA","Sargeant Street Park","not_available","01040",42.20547,-72.62681
"01056","Ludlow","MA","Gazebo Park","East Street","01056",42.15734100341797,-72.48284912109375
"01056","Ludlow","MA","Cottage Hill Park","Essex st.","01119",42.15762310377212,-72.50635670430304
"01057","Monson","MA","Quabog Riders Motorcycle Club","not_available","01057",42.088796,-72.304852
"01057","Monson","MA","Dave Grieve Park","main","01057",42.097248,-72.31361
"01069","Palmer","MA","Pulaski Park","40 Belchertown St","01080",42.18295599793323,-72.37017619628305
"01069","Palmer","MA","Hryniewicz Park","Springfield St","not_available",42.178537,-72.366893
"01073","Southampton","MA","The Park","121-129 Old Stage Rd","01085",42.18383595,-72.70504308333334
"01075","South Hadley","MA","Buttery Brook","107-139 Willimansett St","01075",42.219433338215886,-72.57488251377988
"01077","Southwick","MA","Walley Park","not_available","01077",42.06094741821289,-72.7384033203125
"01077","Southwick","MA","Prifti Park Volleyball Courts","454 College Hwy","01077",42.05288314819336,-72.76951599121094
"01082","Ware","MA","Grenville Park","73 Church St","01082",42.26439904952617,-72.2342652770343
"01082","Ware","MA","Grenville Park Boat Access","not_available","01082",42.26679229736328,-72.22755432128906
"01082","Ware","MA","Veteran's Memorial Park","Main St","01082",42.26070785522461,-72.24222564697266
"01082","Ware","MA","Woodbury Parks","lent rd","10930",42.326202392578125,-72.26475119590759
"01082","Ware","MA","Edward Urban Park","Pulaski Street","01082",42.259246826171875,-72.24042510986328
"01082","Ware","MA","Grenville Park Upper Entrance","Church Street","01082",42.271297788908186,-72.23014766064033
"01085","Westfield","MA","Stanley Park","400 Western Ave","01085",42.12318244129551,-72.7860975265503
"01085","Westfield","MA","Parker Park","not_available","01085",42.114856941152425,-72.75071983156961
"01085","Westfield","MA","The Green","715 Western Ave","01085",42.131734,-72.795304
"01085","Westfield","MA","Westfield Fairgrounds","145 Russellville Road","01085",42.16977091700849,-72.758003802884
"01085","Westfield","MA","Stanley Park","333 Western Ave","01085",42.12832260131836,-72.78363800048828
"01085","Westfield","MA","Westfield City Green","Main St","01085",42.12070671161464,-72.74857846500085
"01085","Westfield","MA","Sadie Knox Playground.","Prospect Street","01085",42.135542,-72.751465
"01085","Westfield","MA","Chapman Park","St Paul St","01085",42.12529872444742,-72.73870831621063
"01085","Westfield","MA","Sadie Knox Park","prospect street","01085",42.104747457536675,-72.75564894487736
"01085","Westfield","MA","Westfield Municipal Park","41 Hubbard St","01085",42.126926,-72.763542
"01089","West Springfield","MA","Vets Field Park","City View Ave.","01089",42.11104770029287,-72.63042290952684
"01089","West Springfield","MA","West Springfield Town Common","not_available","01089",42.105705,-72.619983
"01089","West Springfield","MA","Cooks Playground","Amostown Rd.","01089",42.11676826995186,-72.64419794082642
"01089","West Springfield","MA","Cooks Park","1-49 Homestead Ave","01089",42.117855019801425,-72.64442017328521
"01089","West Springfield","MA","Emily Bill Park","Franklin St","01104",42.11067837785069,-72.59131429206
"01089","West Springfield","MA","Center Square","Main St","not_available",42.10435193621394,-72.59233077551085
"01103","Springfield","MA","Dr. Seuss Sculpture Garden","63 Chestnut St","01103",42.103933680417526,-72.58595458591302
"01104","Springfield","MA","Wesson Park","872 Roosevelt Ave","01109",42.10907542136825,-72.54663706175485
"01104","Springfield","MA","Gurdon-Bill Park","Liberty St","01109",42.11572885294003,-72.58224662074335
"01104","Springfield","MA","Blunt Park","Roosevelt Ave.","01109",42.12769101153676,-72.54753241449374
"01104","Springfield","MA","Naismith Green","not_available","01109",42.10683715387159,-72.55103870178459
"01104","Springfield","MA","Hennessey Park","Kenyon St","not_available",42.11574827505263,-72.55944897795908
"01104","Springfield","MA","C365 Courtyard","365 State St","01105",42.10602951049805,-72.5794677734375
"01104","Springfield","MA","Junction Skate Park","892 Carew St","01104",42.127865,-72.58187099999999
"01105","Springfield","MA","Emerson Wight Park","Marble St","01105",42.09588995263977,-72.57793214581892
"01105","Springfield","MA","Bright Nights at Forest Park","Forest Park","01108",42.08356352327353,-72.56540994325782
"01106","Longmeadow","MA","King Philip's Stockade","Longmeadow St.","01103",42.07092705321274,-72.58233547210693
"01106","Longmeadow","MA","Whitacres Park","48-98 Robbin Rd","06082",42.02645540027032,-72.5667679309845
"01108","Springfield","MA","Forest Park","not_available","01108",42.07732993573972,-72.565598487854
"01108","Springfield","MA","Nathan Bill Park","88 Eddywood St","01118",42.09342044260648,-72.54102804025256
"01108","Springfield","MA","Camp Star","Trafton Rd","not_available",42.080307106814494,-72.56146486232358
"01119","Springfield","MA","Greenleaf Park","Parker St","01129",42.11755972381775,-72.49748617016652
"01201","Pittsfield","MA","Clapp Park","215 W Housatonic St","01201",42.44199541212257,-73.26485387038072
"01201","Pittsfield","MA","pontoosuc park","hancock road","01201",42.48467044640214,-73.24731945991516
"01201","Pittsfield","MA","Burbank Park","Onota Lake","01201",42.47003098942521,-73.27532385434705
"01201","Pittsfield","MA","Henry V. Marchisio Memorial Park","290 Dalton Division Rd","01201",42.446056,-73.19400999999999
"01201","Pittsfield","MA","Origin Of Baseball","not_available","01201",42.45282387443011,-73.25258066869915
"01201","Pittsfield","MA","Unnamed Park","not_available","01226",42.452713,-73.185529
"01201","Pittsfield","MA","Springside Park","871 north st","01201",42.46352594970773,-73.24024919059755
"01201","Pittsfield","MA","Persip Park","167 North Street","01201",42.45135498046875,-73.2535629272461
"01201","Pittsfield","MA","Pittsfield Square","2-102 East St","01201",42.44888599780055,-73.25392880408681
"01220","Adams","MA","Polish Picnic Grounds","not_available","01220",42.627371,-73.114669
"01223","Becket","MA","Becket Center Town Park","389-743 Main St","01223",42.331995,-73.083461
"01223","Becket","MA","Becket Town Park","not_available","01223",42.278299191928355,-73.05928884375474
"01230","Great Barrington","MA","Thomas And Palmer Brook","not_available","01230",42.195673,-73.336487
"01230","Great Barrington","MA","Sheffield Town Park","not_available","01257",42.11208826030268,-73.36107488028404
"01230","Great Barrington","MA","Mount Everett State Reservation","not_available","1257",42.105001863688116,-73.43885085932861
"01230","Great Barrington","MA","East Mountain State Forest","not_available","1230",42.1755167,-73.3296037
"01237","Lanesborough","MA","Mount Greylock State Reservation","not_available","1220",42.541878262057956,-73.2277018465851
"01237","Lanesborough","MA","Berkshire Wind Park","108 Brodie Mountain Rd","01237",42.565975189208984,-73.26416778564453
"01238","Lee","MA","Lilac Park","not_available","01240",42.358308559583,-73.2842500168546
"01247","North Adams","MA","The Cascades At Notch Creek","not_available","01247",42.693664604770944,-73.13529186802043
"01247","North Adams","MA","Shirley Wolfe Bench And East Street Park","1-51 East Street","01247",42.69922614,-73.10986885
"01247","North Adams","MA","The Berkshires","not_available","01256",42.6390642733458,-72.9885485236213
"01255","Sandisfield","MA","Sandisfield State Forest","not_available","1255",42.11222489374252,-73.14093907269887
"01255","Sandisfield","MA","Wilber Park","not_available","01255",42.09274,-73.07556
"01258","South Egremont","MA","Bash Bish Falls","Falls Rd","01258",42.115783864776034,-73.49419715672022
"01266","West Stockbridge","MA","Turn Park Art Space","not_available","01266",42.33345,-73.36895
"01266","West Stockbridge","MA","Beebe Hill State Forest","Old Macedonia Rd.","12037",42.3110848658726,-73.43879699707031
"01266","West Stockbridge","MA","Card Pond","West Stockbridge, MA 01266","01236",42.327815579084636,-73.36759709794583
"01267","Williamstown","MA","Spruces Park","Main Street","01267",42.703387,-73.179312
"01267","Williamstown","MA","Broad Brook Park","not_available","01267",42.732556,-73.197106
"01267","Williamstown","MA","Margaret Lindley Park And Swimming","Rt 7","01267",42.685944,-73.2311
"01267","Williamstown","MA","Linear Park","Water St.","01267",42.70889855995259,-73.19872856140137
"01301","Greenfield","MA","Greenfield Swimming Pool & Playground","Nash Mill Road","01373",42.605016449017455,-72.61696194712555
"01301","Greenfield","MA","Bernardston Kiwanis Park","290 Brattleboro Rd","01337",42.69053268432617,-72.55077362060547
"01301","Greenfield","MA","Murphy Park","55-71 Leyden Rd","01301",42.609289583333336,-72.61513711666667
"01331","Athol","MA","Mount Grace State Forest","not_available","1378",42.6232809151086,-72.22058785139367
"01331","Athol","MA","Tully Brook Conservation Area","331 North Orange Road","01331",42.51056318668687,-72.25695157281142
"01331","Athol","MA","Fish park","not_available","01331",42.59583422092256,-72.23601177600204
"01339","Charlemont","MA","Mohawk Trail Scenic Byway","not_available","01339",42.636305,-72.906173
"01364","Orange","MA","Orange Riverfront Park","5-61 E River St","01364",42.58861,-72.30846715
"01364","Orange","MA","Butterfield Park","East River Street","01364",42.585680913210695,-72.30607675794526
"01420","Fitchburg","MA","Coolidge Park","Pearl St","01420",42.595120981092144,-71.78737459988191
"01420","Fitchburg","MA","Coggshall Park","244 Mount Elam Rd","01420",42.56132093246312,-71.80069718842209
"01420","Fitchburg","MA","Crocker Conservation Area","not_available","01420",42.598066,-71.814953
"01420","Fitchburg","MA","Carter Park","107 Main st","01453",42.52998765562631,-71.75651089716524
"01420","Fitchburg","MA","Leominster State Forest","90 Fitchburg Rd","01473",42.520636269049376,-71.8549633026123
"01420","Fitchburg","MA","Gateway Park","Sheldon Street","01420",42.58646259103594,-71.81690135628074
"01420","Fitchburg","MA","The Great Outdoors","155 main st","01543",42.537882565461864,-71.75653037879528
"01420","Fitchburg","MA","Parkhill Park","235 Pratt Rd.","01420",42.57320618491809,-71.81731832184632
"01420","Fitchburg","MA","Barrett Park","40 Barrett Pkwy","01453",42.52038738965191,-71.77325203709795
"01420","Fitchburg","MA","Monument Park","1-11 Hartwell St","01420",42.58380711078644,-71.80120646953583
"01420","Fitchburg","MA","The Doyle Mansion","Lindell Avenue","01453",42.549067,-71.77538398333333
"01430","Ashburnham","MA","Sweeney Park","S. Main St","01430",42.60981369018555,-71.93862915039062
"01432","Ayer","MA","William J. Woitowicz Field","110-132 Massachusetts 225","01450",42.57761283528599,-71.51747583285739
"01432","Ayer","MA","Doe Orchards","not_available","01451",42.543966,-71.574912
"01434","Devens","MA","Whitley Park","not_available","01464",42.54497306101944,-71.64690755978667
"01440","Gardner","MA","Greenwood Playground","Greenwood St","01440",42.577179,-72.00277
"01440","Gardner","MA","Monument Park","not_available","01440",42.57807289444079,-71.99264359288722
"01451","Harvard","MA","Animal Adventures","336 Sugar Rd","01740",42.450897,-71.584714
"01453","Leominster","MA","Bartlett Pond Conservation Area","Rte 117","01523",42.48854285580786,-71.71494282611387
"01453","Leominster","MA","Citizens Bank Fields at Progin Park","512 Old Union Tpke","01523",42.516492592993046,-71.6951036453247
"01460","Littleton","MA","Bumblebee Park","Foster St","01460",42.527881035388106,-71.49186638453932
"01460","Littleton","MA","Westford Town Common","not_available","01886",42.574767028207056,-71.43029228755375
"01460","Littleton","MA","littleton common","King St","not_available",42.542748587630875,-71.46528373866049
"01462","Lunenburg","MA","Lake Shirley","583 Reservoir Rd","01462",42.55260311867534,-71.6920437629085
"01462","Lunenburg","MA","Lunenburg Town Center","Leominster Rd. & Lancaster Ave.","01462",42.59516762364573,-71.72473867760671
"01469","Townsend","MA","Townsend Common","257 Main St.","01469",42.66756839736742,-71.70485122908148
"01501","Auburn","MA","Vincent D Jacques Memorial Park","not_available","01527",42.173180934873486,-71.8008535585198
"01501","Auburn","MA","Goddard Park","not_available","01501",42.20398673208541,-71.83677031497132
"01503","Berlin","MA","Clinton DIY Skatepark","Vale Street","not_available",42.41813522764131,-71.66857802082033
"01504","Blackstone","MA","Blackstone Valley Boys And Girls Club","115 Canal St","01504",42.01588987246655,-71.54274723575757
"01505","Boylston","MA","Manor Field","Orient Street","01545",42.32038175266222,-71.75952286975244
"01505","Boylston","MA","Boylston Commons","not_available","01505",42.35389775486407,-71.73212447456554
"01506","Brookfield","MA","Brookfield Town Common","not_available","01506",42.21454763935343,-72.10306810836965
"01506","Brookfield","MA","West Brookfield Common","RT 9","01585",42.236297800466055,-72.13837070080805
"01507","Charlton","MA","Vietnam Memorial","1 Mechanic St","01550",42.07484436035156,-72.02686309814453
"01507","Charlton","MA","Joe Capillo Park","169","not_available",42.079198,-72.029706
"01507","Charlton","MA","American Optical Co. Monument","100 Mechanic St","01550",42.076446999999995,-72.02663000000001
"01510","Clinton","MA","Carlisle Park","not_available","01510",42.413626,-71.688321
"01510","Clinton","MA","Central Park","Church St","not_available",42.41659204049546,-71.68324768391126
"01516","Douglas","MA","Cyber Bridge","80 Orange St","01516",42.017398834228516,-71.7024154663086
"01518","Fiskdale","MA","Picnic Area","I-84 WB","not_available",42.08256305602211,-72.09896534138402
"01518","Fiskdale","MA","Rec Area","Cedar Pond rd","01566",42.1181908287351,-72.09396696211189
"01518","Fiskdale","MA","East Brimfield Dam","not_available","01518",42.109607,-72.126863
"01518","Fiskdale","MA","Hand On Craft Shop","not_available","01566",42.10720938291057,-72.09709135436691
"01519","Grafton","MA","Grafton Common","South St.","01519",42.206237375609156,-71.68549060821533
"01520","Holden","MA","Porkipine Hill","not_available","01520",42.325279,-71.90202
"01520","Holden","MA","Greyhound Park","not_available","01609",42.294462,-71.829051
"01522","Jefferson","MA","Mason Park","Mason Road","01522",42.3915976288702,-71.85409021062245
"01523","Lancaster","MA","Bolton Fair","318 7 Bridge Rd","01523",42.46385400027315,-71.66101118802383
"01523","Lancaster","MA","Thayer Park","not_available","01523",42.456778,-71.671769
"01524","Leicester","MA","Town Green","not_available","01524",42.246452,-71.905407
"01527","Millbury","MA","Sutton Common","11 Uxbridge Rd","01590",42.148917,-71.761354
"01527","Millbury","MA","Greenwood St Sprinkler Park","11 Forsberg St","01607",42.22566,-71.79583199999999
"01527","Millbury","MA","Cookson Park","not_available","01610",42.232946079076115,-71.81624115968411
"01532","Northborough","MA","Haskell Street Recreation Area","Haskell St","01581",42.29146374300544,-71.60516123071883
"01532","Northborough","MA","Assabet Park","not_available","01532",42.31831950381264,-71.64280605310068
"01532","Northborough","MA","Korean Veterans Park","not_available","01752",42.34759272484024,-71.58972894697905
"01532","Northborough","MA","Westboro Executive Park","Boston Worcester Turnpike","01581",42.283605857896895,-71.60325158434645
"01532","Northborough","MA","Altitude Trampoline Park","21 Apex Drive","01752",42.338235,-71.5848206
"01532","Northborough","MA","Toblin Hills Playground","not_available","01545",42.283296,-71.677818
"01532","Northborough","MA","Culdesac boroughs","Wheelwright drive","01532",42.316432143697796,-71.64727449417114
"01534","Northbridge","MA","Whitinsville Town Common","Church Street","01588",42.110636125068204,-71.66318971186547
"01542","Rochdale","MA","Rochdale Park","1066 stafford st","01542",42.195758332796395,-71.91218582437361
"01543","Rutland","MA","Sovittja Park","98 Finn Park Rd.","01543",42.35581740299027,-71.96691524097578
"01545","Shrewsbury","MA","Regatta Point","Lake Quinsigamond","not_available",42.277279902464905,-71.75813273204031
"01545","Shrewsbury","MA","Dean Park","Main Street","01545",42.29838921193347,-71.69742107391357
"01545","Shrewsbury","MA","Maple Avenue Recreational Area","Maple Avenue","not_available",42.28700490037386,-71.72596675894707
"01545","Shrewsbury","MA","Waschusett Mountain State Reservation","Unnamed Rd","01541",42.2526663655209,-71.7521087330086
"01562","Spencer","MA","Spencer State Forest","not_available","1562",42.21750112363293,-71.99487192999926
"01564","Sterling","MA","Muddy Pond Ball Fields","30 Muddy Pond Rd","01564",42.416641999999996,-71.779462
"01568","Upton","MA","Upton State Forest","205 Westboro Rd","01568",42.21134948730469,-71.60884857177734
"01568","Upton","MA","Upton Beehive Chamber","Elm street","01568",42.17529109799204,-71.59814077772977
"01568","Upton","MA","Rustic Bridge","Hopedale Parklands","not_available",42.144368,-71.557488
"01569","Uxbridge","MA","West Hill Dam","W Hill Dam Rd","01569",42.10497018973862,-71.60798641981408
"01569","Uxbridge","MA","Rice Pond","not_available","01569",42.09952300928953,-71.62143606672308
"01570","Webster","MA","Memorial Beach Park","1 Memorial Beach Drive","01570",42.05424688852234,-71.85720549035088
"01570","Webster","MA","wawela park","not_available","01570",42.044026,-71.837834
"01570","Webster","MA","French River Park","Davis Street","01570",42.05074259790717,-71.8821930885315
"01581","Westborough","MA","Freedom Park","not_available","01581",42.26030707561697,-71.63118252489798
"01581","Westborough","MA","135/Main St/South St Rotary","2 South St","01581",42.26934814453125,-71.61239624023438
"01581","Westborough","MA","Highland Park","Edgehill Road","not_available",42.25562,-71.55469
"01581","Westborough","MA","Highland Park Hopkinton","7 Stoney Brook Rd","01748",42.253135,-71.553033
"01581","Westborough","MA","Baystate Green","46 Union Street","not_available",42.270253268709645,-71.61111563444138
"01583","West Boylston","MA","West Boylston Common","not_available","01583",42.363500306296764,-71.78153837793752
"01602","Worcester","MA","Elm Park","Highland St","01609",42.26962408963638,-71.81801319122314
"01602","Worcester","MA","Beaver Brook Park","Mayfield St","01602",42.26049333952735,-71.82533025741577
"01602","Worcester","MA","Cascade Park","125 catarsct","01602",42.28471491009843,-71.87720533855821
"01602","Worcester","MA","Oread Castle Park","Oread Place","01610",42.256935,-71.81335
"01602","Worcester","MA","Winslow Pleasant Peace Park","Pleasant St","01609",42.2633548131173,-71.81537247786454
"01602","Worcester","MA","Florence St. Playground","Florence St","01603",42.25335380225011,-71.82403023394623
"01602","Worcester","MA","Cascades East","266 Olean St","01602",42.292133,-71.86447
"01602","Worcester","MA","Newton Square Tennis","Pleasant Street","01609",42.26927240799457,-71.824371906437
"01603","Worcester","MA","Hadwen Park","Heard St","01603",42.232762705792496,-71.83917350004492
"01603","Worcester","MA","Crystal Park","not_available","01608",42.24887211035824,-71.82306312507197
"01604","Worcester","MA","Blithewood Park","Blithewood Ave","01607",42.23569867000678,-71.76398277282715
"01604","Worcester","MA","Korean War Memorial","not_available","01604",42.262332916259766,-71.7959976196289
"01604","Worcester","MA","Christoforo Colombo Park","Shrewsbury St.","01604",42.266523029368656,-71.78533200594902
"01604","Worcester","MA","East Park","Shrewsbury street","not_available",42.26597441048899,-71.78817057843041
"01605","Worcester","MA","Green Hill Park","Green Hill Parkway","01605",42.28143025406225,-71.78241294348217
"01605","Worcester","MA","Institute Park","94-104 Salisbury St","01609",42.27549867941436,-71.80512185348209
"01605","Worcester","MA","Massachusetts Vietnam Veterans Memorial","50 Skyline Dr","01605",42.280117,-71.778786
"01605","Worcester","MA","Dodge Park","not_available","01605",42.29805432358473,-71.79465081934448
"01605","Worcester","MA","Garbage Goat National Park","not_available","01606",42.31492233276367,-71.79743194580078
"01605","Worcester","MA","Burncoat Park","Davidson Rd.","01605",42.29328155517578,-71.78654479980469
"01608","Worcester","MA","Worcester Commons","Front St","01609",42.26197,-71.800934
"01608","Worcester","MA","Worcester Commons Oval","Behind City Hall","01608",42.262153391413584,-71.80061610760058
"01610","Worcester","MA","Crompton Park","Quinsigamount Ave","01610",42.24990001271345,-71.80277824401855
"01701","Framingham","MA","Hager Pond","900-999 Boston Post Road","not_available",42.34820878820529,-71.49066064242005
"01701","Framingham","MA","Mason Park","not_available","01702",42.29394646555818,-71.43253668793093
"01701","Framingham","MA","Simpson Park Playground","Simpson Road","01701",42.31222667041429,-71.42577059768142
"01701","Framingham","MA","Simpson Park","not_available","01701",42.31666139537884,-71.4156241228501
"01701","Framingham","MA","Reardon Park","606 Old Connecticut Path","01701",42.31812984905021,-71.38755083084106
"01701","Framingham","MA","The Aloha Paradise Veggie Playground & Gnome Sanctuary","Highgate Rd","01701",42.31008231639862,-71.4151668548584
"01701","Framingham","MA","Sudbury Reservoir","not_available","1752",42.31911433262848,-71.48784336349418
"01701","Framingham","MA","Nobscot Conservation Land","Brimstone Lane","not_available",42.346449527832945,-71.45058476854102
"01701","Framingham","MA","Woodfield","22 Sloane Dr","01701",42.33709066823092,-71.42457622748414
"01702","Framingham","MA","Cushing Park","Dudley Road","not_available",42.28724303436648,-71.43643151992138
"01702","Framingham","MA","Big Indian","29 Birch Hill Rd","01721",42.266897,-71.47045
"01702","Framingham","MA","Farm Pond Park","100 Dudley Rd","01702",42.279577,-71.432285
"01702","Framingham","MA","Gryncel Park","High St","01721",42.26201835959971,-71.48345508789335
"01720","Acton","MA","Acorn Park","not_available","01720",42.51054853020377,-71.42559802472582
"01721","Ashland","MA","free candy van","not_available","01721",42.2539,-71.4583
"01730","Bedford","MA","Bedford Depot Park","South Rd","01730",42.486028704859706,-71.27728500589734
"01730","Bedford","MA","Lexington Green","Massachusetts Ave.","02420",42.449263200776784,-71.23064256731907
"01730","Bedford","MA","Wilson Mill Park","not_available","01730",42.50151255424785,-71.24593355856264
"01730","Bedford","MA","Bedford Town Common","75 Great Rd","01730",42.492656643270415,-71.28406555503656
"01730","Bedford","MA","Mit Lincoln Laboratory Pavilion","not_available","02421",42.45736,-71.266975
"01730","Bedford","MA","Prince Estabrook Monument","not_available","02420",42.449226,-71.229936
"01730","Bedford","MA","Bedford Veteran's Memorial Park","143 Great Road","01730",42.4905891418457,-71.27665710449219
"01730","Bedford","MA","Poor Farm Conservation Area","95 Hill St","02421",42.45199359590189,-71.24747998996179
"01731","Hanscom Afb","MA","Paul Revere Capture Site","not_available","01773",42.449031447061365,-71.27933261616226
"01740","Bolton","MA","Bolton Town Common","not_available","01740",42.434512,-71.608571
"01742","Concord","MA","Walden Pond State Reservation","915 Walden St","01742",42.440458215689816,-71.33524244788478
"01742","Concord","MA","White Pond Reservation","not_available","01742",42.42823332629884,-71.3875082036936
"01742","Concord","MA","Jethro's Tree","Main st","not_available",42.46046433605651,-71.3492533905075
"01746","Holliston","MA","Idyllbrook Field","99 Kimberly Drive","02053",42.16952679198193,-71.43468186559669
"01746","Holliston","MA","Stoddard Park","450 Norfolk St","not_available",42.18868201382859,-71.4187318734819
"01746","Holliston","MA","Adams Field. Holliston","not_available","01746",42.205632789977145,-71.42364855857683
"01747","Hopedale","MA","Plains Park","Cedar street","not_available",42.155571402420804,-71.51022445656628
"01747","Hopedale","MA","Draper Park","not_available","01757",42.1442576,-71.5138314
"01747","Hopedale","MA","Calzone Park","Main Street","01757",42.143307,-71.51321
"01747","Hopedale","MA","parklands","Hopedale St","01747",42.13548278808594,-71.54415130615234
"01749","Hudson","MA","Wood Park","not_available","01749",42.387114469083656,-71.57526116493962
"01749","Hudson","MA","Cellucci Park","29 South St","01749",42.390309,-71.567617
"01749","Hudson","MA","Liberty Park","5 Washington St","01749",42.391249,-71.570525
"01752","Marlborough","MA","Ghiloni Park","Concord Rd","01752",42.3546452033076,-71.52263459401671
"01752","Marlborough","MA","Union Common","Main St","01752",42.347385,-71.545429
"01752","Marlborough","MA","Fort Meadow Park","Bolton St","not_available",42.321774,-71.552205
"01752","Marlborough","MA","Ward Park","Orchard St","01752",42.3436969506441,-71.55229196780958
"01754","Maynard","MA","Maynard Center","not_available","01754",42.43233498177114,-71.45327320022433
"01757","Milford","MA","Shadowbrook Duck Pond","27 Shadowbrook Ln","01757",42.164421999999995,-71.523575
"01760","Natick","MA","Natick Common","North Main Street and East Central Street","01760",42.28337329758564,-71.34671688079834
"01760","Natick","MA","John J. Lane Park","185 Speen St","01760",42.287209000000004,-71.37480699999999
"01760","Natick","MA","Coolidge Field","Chester Ave","01760",42.28106143594288,-71.34132010732998
"01760","Natick","MA","Cochituate Field","W Plain St","not_available",42.321152447969546,-71.36601522049605
"01760","Natick","MA","Coolidge Hill","not_available","01760",42.277764,-71.342594
"01760","Natick","MA","Middlesex Path","W. Central St.","01760",42.28361783704072,-71.35454215129226
"01760","Natick","MA","McKinnon Park","not_available","02482",42.30097615909794,-71.31304979324341
"01760","Natick","MA","Albee E. Loker Park","Walnut St and Bacon St","01760",42.292931659020745,-71.34771292977538
"01760","Natick","MA","Westhill Park","1 W Hill Park","01760",42.280613,-71.380826
"01760","Natick","MA","Laurel Park","not_available","01770",42.26212083427009,-71.36712005027061
"01760","Natick","MA","Dudley Woods Trails","not_available","01778",42.328844,-71.366173
"01775","Stow","MA","Town Center Park","323 Great Rd","01775",42.436832427978516,-71.50018310546875
"01775","Stow","MA","Stow Community Park","Old Bolton Road","not_available",42.43361552214049,-71.54380210294396
"01776","Sudbury","MA","Heritage Park","not_available","01776",42.382384,-71.413201
"01776","Sudbury","MA","Featherland Park","491 Concord Rd","01776",42.392955610468626,-71.40452645189436
"01778","Wayland","MA","Hamlen Woods Conservation Area","Rice Road","01778",42.337736,-71.339787
"01801","Woburn","MA","Sturges Park","not_available","01867",42.507796050306716,-71.11529465251685
"01801","Woburn","MA","Simonds Park","Bedford St.","01803",42.50559895312411,-71.19730888961688
"01801","Woburn","MA","Elliot Park","Main Street","01890",42.456201053429865,-71.13872151063065
"01801","Woburn","MA","Mary Cummings Park","South Bedford St","not_available",42.479968278278655,-71.19342190127394
"01801","Woburn","MA","Linkin Park","666","01801",42.502794830092064,-71.12955955820613
"01801","Woburn","MA","Davidson Park","Cross St","not_available",42.46891414999265,-71.12702614376434
"01801","Woburn","MA","Higgins Field","36 Bow St","01801",42.48340606689453,-71.14306640625
"01801","Woburn","MA","Burlington Town Common","22 Center St.","01803",42.505063730686004,-71.19541761356375
"01801","Woburn","MA","Winchester Splash Park","Palmer St","not_available",42.454109,-71.14326
"01801","Woburn","MA","Middlesex Park","Middlesex Street","01890",42.45674661,-71.14192203
"01801","Woburn","MA","Campus Green at The Center","Corporate Drive","01803",42.494425263987765,-71.19018316268921
"01801","Woburn","MA","Magic Forest","Sturgis St.","01801",42.47349547799944,-71.15660962852367
"01801","Woburn","MA","Sisitzky Park","not_available","01801",42.497393,-71.126521
"01801","Woburn","MA","Connolly Stadium","88 Montvale Ave","01801",42.483459,-71.14301
"01801","Woburn","MA","Saratoga Springs Sasquatch Sanctuary","not_available","01890",42.45610074967002,-71.15160242939315
"01801","Woburn","MA","Leland Park","87 Central St","not_available",42.47709240796431,-71.12401238408019
"01810","Andover","MA","Deer Jump Reservation","River Rd.","01810",42.68189820648565,-71.22080403606297
"01810","Andover","MA","Gate 13","not_available","01810",42.612955,-71.090999
"01810","Andover","MA","Riverside park","Riverside Street","01844",42.70099886124166,-71.20250695070631
"01810","Andover","MA","Lawrence Boat House","not_available","01843",42.692193009409564,-71.17717735228021
"01810","Andover","MA","Tewksbury Recreation Center","Livingston St","01876",42.59969792436748,-71.20873176945223
"01810","Andover","MA","North Andover Town Common","30 Andover Street","01845",42.68425947938683,-71.11500096346748
"01810","Andover","MA","Tewksbury Town Common","Main St","01876",42.6116631633464,-71.23329359083921
"01821","Billerica","MA","Vietnam Veterans Park","65-99 Goldenrod Ln","01862",42.5511109827136,-71.29799721919291
"01821","Billerica","MA","Iron Horse Park","Iron Horse Park Road","not_available",42.582154729882966,-71.26617428460055
"01821","Billerica","MA","Billerica Memorial Park","416-446 Massachusetts 3A","01821",42.55818501,-71.26876969
"01824","Chelmsford","MA","Bartlett Park","Acton road and bartlett street","01824",42.60267370315756,-71.36044442032764
"01824","Chelmsford","MA","Muldoon Park","Billerica St","not_available",42.62491805625798,-71.29485364974504
"01824","Chelmsford","MA","Cabot Crossing Dog Park","not_available","01852",42.621263,-71.300426
"01824","Chelmsford","MA","Chelmsfird Veterans Memorial Park","North Road","01824",42.618041,-71.365353
"01826","Dracut","MA","George McDermott Reservoir","163-199 Beacon St","01850",42.64989260125757,-71.2957675153583
"01826","Dracut","MA","ROR Picnic Table","not_available","01854",42.65249987363853,-71.31541062897803
"01826","Dracut","MA","Lowell Dracut Tyngsboro State Forest","62-152 Trotting Park Rd","01854",42.657488507613344,-71.34720458724968
"01826","Dracut","MA","Tsongas Center ""back lawn""","Tsongas Way","01854",42.651156602870536,-71.31284471901976
"01826","Dracut","MA","ROR Bbq Pit","Riverwalk Way","01854",42.65295501623325,-71.31609351595273
"01826","Dracut","MA","Polly's Corner","Lakeview Ave","01826",42.679381,-71.341513
"01826","Dracut","MA","Gage Field","500 Beacon St.","01850",42.66098856367868,-71.29995977365651
"01826","Dracut","MA","Pelham Village Green","not_available","03076",42.73324858449611,-71.32487888113013
"01826","Dracut","MA","Varnum Park","not_available","01826",42.67036220717424,-71.29623623958729
"01826","Dracut","MA","Oak Knoll","Frederick St","01826",42.672742287915256,-71.33579338486093
"01827","Dunstable","MA","Larter Memorial Field","Groton Street","not_available",42.663711460640975,-71.50174403932665
"01827","Dunstable","MA","dunstable rural land trust","not_available","01827",42.694751235622384,-71.51048530004775
"01830","Haverhill","MA","12 Ave Park","not_available","01830",42.78909815817365,-71.08342168226206
"01830","Haverhill","MA","Merrimac Christmas Tree","Main Street","01860",42.82967410477112,-71.00704566869351
"01830","Haverhill","MA","Isaac Merill Memorial Park","952 Kenoza St","01830",42.79509245835919,-71.05929164453552
"01830","Haverhill","MA","Perry Park Commons","4 King St","01834",42.764808654785156,-71.0278091430664
"01830","Haverhill","MA","Elm Park","Elm Park","not_available",42.76199722290039,-71.0323257446289
"01830","Haverhill","MA","River Walk Park","Phoenix Row","01832",42.77316307202205,-71.08287458460825
"01833","Georgetown","MA","Georgetown Rowley State Forest","Boxford Road","01969",42.70544828907224,-70.96611837674763
"01834","Groveland","MA","Veasey Memorial Park","201 Washington St","01834",42.734305,-71.04842
"01834","Groveland","MA","Shannahan Field","not_available","01834",42.755688,-71.036637
"01834","Groveland","MA","Washington Park","89 Center Street","01834",42.742874,-71.04649
"01834","Groveland","MA","Crane Neck Wma","crane Neck Street","01985",42.766163,-70.969406
"01835","Haverhill","MA","O'Connell South Common","not_available","01835",42.757688285518796,-71.11621371635074
"01840","Lawrence","MA","Campagnone Common","200 Common St","01840",42.708248138427734,-71.15995788574219
"01840","Lawrence","MA","Storrow Park","High Street","01841",42.70975961810329,-71.1472160013012
"01840","Lawrence","MA","Ferrous Park","not_available","01840",42.70589,-71.1491
"01841","Lawrence","MA","Manchester Street park","not_available","01841",42.713902,-71.180855
"01844","Methuen","MA","Methuen Riverside Boat Ramp","Riverside Dr","01844",42.703075,-71.21302
"01844","Methuen","MA","Milk St Park","38 Baremeadow St","01844",42.73491,-71.150692
"01844","Methuen","MA","veterans park","not_available","03079",42.78852880453096,-71.20119583916848
"01844","Methuen","MA","Gray Court","not_available","01844",42.729428930551194,-71.18062937535464
"01844","Methuen","MA","Riverwalk","48 Osgood St","01844",42.72670364379883,-71.18793487548828
"01844","Methuen","MA","Schruender Park","Riverview Blvd","01844",42.727512,-71.129326
"01844","Methuen","MA","Veterans Memorial  Park","100 Milk St","01844",42.741336,-71.15764899999999
"01845","North Andover","MA","Harold Parker Park Headquarters","not_available","01845",42.615523,-71.072959
"01845","North Andover","MA","Sudden Pond","North Andover, MA 01845","01845",42.61885858004934,-71.07271480704937
"01850","Lowell","MA","Random Park On Market St.","Market St","01852",42.6454458698199,-71.30870371768056
"01850","Lowell","MA","Derby Park","55 Market St","not_available",42.645037409722725,-71.30967807505945
"01851","Lowell","MA","Vandenberg Esplanade","Pawtucket Blvd","not_available",42.64057530942213,-71.35382306985088
"01851","Lowell","MA","South Common","2-298 Summer St","01852",42.639359277228095,-71.31300131060785
"01851","Lowell","MA","Armory Park","50 Westford St","01851",42.63710403442383,-71.31804656982422
"01851","Lowell","MA","Barrett Field at Callery Park","Wilder st","01851",42.62783267164862,-71.33057311154387
"01851","Lowell","MA","Tyler Park","not_available","01851",42.632454,-71.3423
"01852","Lowell","MA","Shedd Park","Rogers St.","01852",42.63167884320992,-71.28811982683578
"01852","Lowell","MA","Fort Hill Park","2 Park Ave E","01852",42.63576019023336,-71.29575844364464
"01852","Lowell","MA","Dutton Street Dance Pavilion","Dutton Street","01852",42.643455,-71.313972
"01852","Lowell","MA","Kittredge Park","218-380 Massachusetts 38","01852",42.63700294424372,-71.29517743910353
"01864","North Reading","MA","Ipswich River Park","15 Central St","01864",42.570146876800514,-71.0845881052966
"01864","North Reading","MA","Macguire Field","not_available","01864",42.56938465679129,-71.09281680533422
"01867","Reading","MA","Wakefield Common","not_available","01880",42.50826549201157,-71.072244742663
"01867","Reading","MA","Memorial Park","Charles St","01867",42.52801910923055,-71.09969327050437
"01867","Reading","MA","Gertrude M. Spaulding Park","146 Massachusetts 129","01880",42.51766586303711,-71.09054565429688
"01876","Tewksbury","MA","Wamesit Indian Statue","not_available","01876",42.62227903623933,-71.26296988044143
"01876","Tewksbury","MA","Tewksbury Elks","777 South St","01876",42.59130695958318,-71.19297269882719
"01876","Tewksbury","MA","Robert P Palmer Park","121 Glen Rd","not_available",42.565812,-71.180148
"01879","Tyngsboro","MA","Tyngsboro Riverside Park","not_available","01879",42.6831013224378,-71.4114031052729
"01880","Wakefield","MA","Lynnfield Fire Muster","Edgewater Park","not_available",42.523382,-71.043901
"01880","Wakefield","MA","Relay For Life Stoneham","not_available","02180",42.472188228029985,-71.08982245991768
"01886","Westford","MA","Freedom Park","Pond St.","01886",42.578821732509056,-71.48604632196275
"01887","Wilmington","MA","Rotary Park","not_available","01887",42.550418684924864,-71.17438807197412
"01887","Wilmington","MA","Picnic Table at Agfa Corp","200 Ballardvale St","01887",42.58749771118164,-71.15804290771484
"01890","Winchester","MA","Sandy Beach","4 Mystic Valley Pkwy","01890",42.440359818198765,-71.1455739793611
"01890","Winchester","MA","Winchester Country Club","68 Hutchinson Rd","01890",42.43582018871763,-71.15631372396422
"01902","Lynn","MA","Manning Field","365 Western Ave","01904",42.474848070391396,-70.9542765272703
"01902","Lynn","MA","Ames Playground","Lynn,MA,01904","01904",42.4686377,-70.9603455
"01902","Lynn","MA","Harold A. King Town Forest","not_available","01907",42.487938,-70.926278
"01902","Lynn","MA","High rock park","not_available","01902",42.4679478531274,-70.94652109869284
"01902","Lynn","MA","Kiley Park","Burrill Ave","01902",42.46862465014455,-70.92810139355016
"01904","Lynn","MA","Lynn Woods Race Series","Great Woods Road","01902",42.493017255040456,-70.97721110400276
"01904","Lynn","MA","Lakeshore Park","not_available","01960",42.500047,-70.956453
"01905","Lynn","MA","Lynn Common","North-South Common Streets","01905",42.46226926987759,-70.96608354826178
"01906","Saugus","MA","Breakheart Reservation","177 Forest St","01906",42.48323642969456,-71.02818977398569
"01906","Saugus","MA","Melrose Common","not_available","02176",42.45590477571946,-71.05351716991288
"01906","Saugus","MA","Rowes Pond Conservation Area","Salem St","02151",42.43695,-71.01875
"01906","Saugus","MA","Linden Tot Lot","29 Wescott St","02148",42.43352508544922,-71.03406524658203
"01906","Saugus","MA","Essex St. Playground","not_available","01906",42.45070291416339,-71.01658183370003
"01906","Saugus","MA","Saugus Veterans Memorial","Winter St","01906",42.46285301737387,-71.0093963564985
"01907","Swampscott","MA","Jackson Park","Overhill Rd.","01907",42.47790308662993,-70.92009586166489
"01908","Nahant","MA","Lowlands Park","not_available","01908",42.42859249607463,-70.93224052618793
"01913","Amesbury","MA","Amesbury Town Park","not_available","01913",42.8530861345185,-70.94097727432121
"01913","Amesbury","MA","Moseley Woods","not_available","01950",42.83209151663959,-70.90865332516847
"01913","Amesbury","MA","Amesbury Mill Yard Park","8 Millyard","01913",42.85787582397461,-70.93109893798828
"01913","Amesbury","MA","Alliance Park","Main St.","not_available",42.841293811798096,-70.92433333396912
"01913","Amesbury","MA","Hairball Heaven","Woodman Rd","01913",42.87820165841253,-70.93910222640469
"01913","Amesbury","MA","Spartan Race!","12 S Hunt Rd","01913",42.836782439554746,-70.94540524451203
"01915","Beverly","MA","Beverly Common","23 Essex St","01915",42.54995792041508,-70.87337199995613
"01915","Beverly","MA","Lynch Park","55 Ober St","01915",42.54672299137459,-70.86075513175714
"01915","Beverly","MA","John George Park","27 River Street","01923",42.55289082132611,-70.92085055918203
"01915","Beverly","MA","Independence Park","Lothrop street","01915",42.542870950724364,-70.87685531326294
"01915","Beverly","MA","Remond Park","Bridge St","01970",42.537837,-70.886939
"01915","Beverly","MA","Great Misery Island","51 West St","not_available",42.54903361222514,-70.80018997192383
"01915","Beverly","MA","Odell Veterans Memorial Park","158 Rantoul Street","01915",42.54456205340125,-70.88456231624657
"01915","Beverly","MA","Gillis Park","Porter St.","01915",42.54322795,-70.889748
"01915","Beverly","MA","Cherry hill park","Cherry hill drive","01923",42.5799985818743,-70.90319609858896
"01915","Beverly","MA","dix park","79 haskell st","not_available",42.56596008065105,-70.81576675416802
"01915","Beverly","MA","Gage Street Park","Gage St","01915",42.557132,-70.884471
"01915","Beverly","MA","Kimball Haskell Park","not_available","01915",42.55490473511709,-70.86162315143677
"01915","Beverly","MA","O'bear Park","Livingstone Ave.","01915",42.546319925136885,-70.90063582297309
"01915","Beverly","MA","Beverly Farmer's Market at Beverly Depot","10 Park St","01915",42.547277,-70.88560799999999
"01921","Boxford","MA","Robert M. Ackerman Playground","Cahoon Rd.","not_available",42.65625,-70.994117
"01921","Boxford","MA","Boxford Common","not_available","01921",42.665804,-71.002914
"01923","Danvers","MA","Danvers Dog Park","not_available","01923",42.574238,-70.96368
"01923","Danvers","MA","Tapley Park","139 Pine Street","01923",42.5597038269043,-70.95037841796875
"01923","Danvers","MA","Riverview Industrial Park","not_available","01949",42.568863217567674,-71.0026276343106
"01930","Gloucester","MA","Stage Fort Park","Hough Ave","01930",42.604607529851656,-70.6784923317082
"01930","Gloucester","MA","Fitz Hugh Lane Park","Harbor Loop","01930",42.611739016312775,-70.65984101333086
"01930","Gloucester","MA","Millbrook Meadow","not_available","01966",42.65891379875465,-70.62296609557728
"01930","Gloucester","MA","Baseball Fields","35 Green St","01930",42.621501,-70.655079
"01930","Gloucester","MA","Green Street","28 Green St","01930",42.621178,-70.655722
"01930","Gloucester","MA","Science Park Gloucester","not_available","01930",42.61794723016531,-70.7168382216606
"01930","Gloucester","MA","The P. Ark","21 Summit St","01930",42.620083,-70.662344
"01930","Gloucester","MA","Gran Prix Of Gloucester","Stage Fort Park","01930",42.605057,-70.67887481
"01930","Gloucester","MA","Edward Peterson Square","(Back Beach Bandstand)","01966",42.66063188293368,-70.62372207641602
"01938","Ipswich","MA","Castle Hill","290 Argilla Rd","01938",42.683833068005264,-70.77732344768334
"01938","Ipswich","MA","South Village Green","County Road (Route 1A)","01938",42.675683752444144,-70.83569169044495
"01944","Manchester","MA","Masconomo Park","60 Beach St","01944",42.572042841206574,-70.76952986312827
"01945","Marblehead","MA","Winter Island Park","50 Winter Island Rd","01970",42.526722745517986,-70.86893593201646
"01945","Marblehead","MA","Salem Witch Trials Memorial","Liberty St.","01970",42.52076778688485,-70.89173828710749
"01945","Marblehead","MA","Chandler Hovey Park","not_available","01945",42.50506811530439,-70.83283042068577
"01945","Marblehead","MA","Our Lady, Star of the Sea","80 Atlantic Ave","01945",42.49747789199305,-70.860572363971
"01945","Marblehead","MA","Salem Common","Washington Square","not_available",42.523875635650775,-70.88959917955872
"01945","Marblehead","MA","Seaside Park","85 Atlantic Ave","01945",42.497217,-70.858561
"01945","Marblehead","MA","Forest River Park","32 Clifton Ave","01970",42.50684236283515,-70.88478616373466
"01945","Marblehead","MA","Crocker Park","Front St","01945",42.5030138179245,-70.84857364626099
"01945","Marblehead","MA","Armory Park","2 New Liberty St","01970",42.522371462799185,-70.89202442797858
"01945","Marblehead","MA","Fort Sewall","11 Fort Sewall","01945",42.50830517949944,-70.84204560734337
"01945","Marblehead","MA","Castle Rock","Ocean Ave","01945",42.49957556565174,-70.83444468744962
"01945","Marblehead","MA","Lappin Park","Washington St.","01970",42.52143384274707,-70.89600240022526
"01945","Marblehead","MA","Salem Haunted Happenings","Washington Square","01970",42.522443072075845,-70.89244980694086
"01945","Marblehead","MA","Palmer Cove Park & Playground","Congress St","01970",42.51389637982316,-70.88836254724471
"01945","Marblehead","MA","Crow Haven Corner","not_available","01970",42.522439,-70.890894
"01945","Marblehead","MA","Swiniuch Park","Derby St","01970",42.522536094544456,-70.88530288328442
"01945","Marblehead","MA","Riley Plaza","212 Washington St","01970",42.51977868527635,-70.89579390011009
"01945","Marblehead","MA","Gatchell's Pit","Lafayette St","01945",42.494147115980375,-70.87840549806603
"01950","Newburyport","MA","Market Square Newburyport","Merrimac St","01950",42.81124034707098,-70.87007972240308
"01950","Newburyport","MA","Joppa Park","Water Street","01950",42.80636055103693,-70.85796816741714
"01950","Newburyport","MA","The Mall - Frog Pond","High Street","01950",42.80845083081013,-70.87458518259753
"01950","Newburyport","MA","Woodman Park","50 Crow Ln","not_available",42.80924197837902,-70.91597983435523
"01950","Newburyport","MA","Atkinson Common","High street","01950",42.82319192331463,-70.89893476986306
"01950","Newburyport","MA","Christmas Tree Lighting","elm st","01952",42.84057,-70.860886
"01950","Newburyport","MA","The Newbury Green","1 Green Street","01951",42.796481,-70.861536
"01950","Newburyport","MA","Atwood park","15 School St","01950",42.80778,-70.864727
"01960","Peabody","MA","Leather City Commons","Lowell St","01960",42.52747484674128,-70.93044090818735
"01966","Rockport","MA","Harvey Park","2 High Street","01966",42.65757,-70.615906
"01970","Salem","MA","Salem Willows Park","167 Fort Ave","01970",42.53447246568161,-70.87024809738746
"01982","South Hamilton","MA","Patton Park","Bay road","01982",42.6142296993436,-70.87170540922342
"01982","South Hamilton","MA","School Street Park","93 School St","not_available",42.613252,-70.833108
"01982","South Hamilton","MA","Pingree Park","not_available","01984",42.60922749346332,-70.87633277782938
"01985","West Newbury","MA","Mill Pond Recreational Park","637 Main St","01985",42.80569804190851,-70.9657004347292
"02019","Bellingham","MA","Bellingham Town Common","North Main Street","02019",42.08796739374591,-71.47635953084858
"02021","Canton","MA","Blue Hills Reservation","695 Hillside St","02186",42.21305370267379,-71.09192894940969
"02021","Canton","MA","Messinger Park","55 Messinger Street","02021",42.14825439453125,-71.14804077148438
"02021","Canton","MA","Canton Park","Meyer Terrace","02021",42.14437575171208,-71.12217297985467
"02021","Canton","MA","Aquatic Center","199 Bolivar Street","02021",42.15177536010742,-71.1399154663086
"02021","Canton","MA","Decembrele Park","Tilden Road","02021",42.18143442703892,-71.12356331432238
"02021","Canton","MA","Sgt. Francis FLY Uliano Park","Washington St","02021",42.144856,-71.149466
"02025","Cohasset","MA","Cohasset Green","not_available","02025",42.2407215902725,-70.80292786640005
"02025","Cohasset","MA","Cohasset Town Common","41 Highland Ave","02025",42.242977142333984,-70.80216217041016
"02026","Dedham","MA","Bellevue Hill Park","Bellevue Hill Park","02132",42.27356734849128,-71.14673629125699
"02026","Dedham","MA","Condon Field","184 Bussey St","02026",42.2503449953345,-71.1552596830371
"02026","Dedham","MA","DeFazio Field","not_available","02492",42.273315236829106,-71.22268358619205
"02026","Dedham","MA","Riverside Park","53-67 Riverside Dr","02026",42.27220510719967,-71.17547888775285
"02026","Dedham","MA","Paul Sullivan Field","155 Eastern Ave","02026",42.243074,-71.169064
"02026","Dedham","MA","Massachusetts Run For The Fallen","Barnes Memorial Park","02026",42.245064,-71.16965
"02026","Dedham","MA","Meig's Field","not_available","02136",42.23471367089038,-71.1320972442627
"02026","Dedham","MA","Fairbank Park","Rustcraft Road","not_available",42.232899130783345,-71.17019779102966
"02026","Dedham","MA","Condon Park","not_available","02026",42.24808466758385,-71.15458470858161
"02030","Dover","MA","British Airmen Memorial","Charles River St, Needham, MA","02492",42.27091979980469,-71.28517150878906
"02030","Dover","MA","Caryl Park","not_available","02030",42.24711952522155,-71.27068440952522
"02032","East Walpole","MA","Francis William Bird Park","9 Scout Rd","02032",42.15623095150327,-71.21523494496319
"02032","East Walpole","MA","Ragnar Exchange 35","not_available","02081",42.145972929303845,-71.23001026360657
"02035","Foxboro","MA","Mansfield Memorial Park","Church St","02048",42.03122993466853,-71.20876077582969
"02035","Foxboro","MA","Mansfield Common","2 Park Ave","02048",42.024355373387095,-71.21630236030408
"02035","Foxboro","MA","Bruce Shufelt Square","Shufelt St.","not_available",42.104353,-71.264546
"02035","Foxboro","MA","Dumond Park","Dumond Street","02067",42.100285,-71.216727
"02038","Franklin","MA","King Street Memorial Park","730 king st","02038",42.0591413425224,-71.409014265791
"02038","Franklin","MA","Fletcher Field","49-87 Peck St","02038",42.07828740117448,-71.39756269267878
"02043","Hingham","MA","Great Esker Park","puritan road","02191",42.23495448165918,-70.931509069456
"02043","Hingham","MA","Bare Cove Park","bare cove park drive","02043",42.23817531493949,-70.91604369403393
"02043","Hingham","MA","Osprey Overlook Park","wharf st","02189",42.22194,-70.924034
"02043","Hingham","MA","Century Road Park","Century Road","02190",42.181811,-70.928764
"02043","Hingham","MA","PMC Kids Ride","not_available","02043",42.217231,-70.863066
"02043","Hingham","MA","Wharf District Parks","High St. at Broad St.","02110",42.21379651675246,-70.92292887322913
"02043","Hingham","MA","Back River Reservation","457 Lincoln St.","not_available",42.25014877319336,-70.9291763305664
"02045","Hull","MA","Nut Island Park","147 Sea Ave","02169",42.27987202548529,-70.95421267326843
"02045","Hull","MA","Raccoon Island","Edgewater Drive","02169",42.26285952171206,-70.94807624816895
"02045","Hull","MA","Leo J. Kelly Park","not_available","02169",42.267666,-70.957175
"02048","Mansfield","MA","Mansfield East Common","not_available","02048",42.01561793848305,-71.16310206688995
"02048","Mansfield","MA","Jake's Place Clubhouse","253 Mansfield Ave","02766",41.988405,-71.210116
"02050","Marshfield","MA","Common Lane Common","Stockbridge Rd","not_available",42.18571,-70.735656
"02050","Marshfield","MA","South River Park","not_available","02050",42.093385312728046,-70.71567081461977
"02050","Marshfield","MA","Harbor Park","Harbor Park","02050",42.085957,-70.64554
"02052","Medfield","MA","Hinkley Swim Pond Beach","55","02052",42.185842089516896,-71.28274312220043
"02052","Medfield","MA","The Field","not_available","02052",42.19941138125053,-71.32041728356
"02052","Medfield","MA","Sam White & Sons Inc","16 W Mill St","02052",42.194803,-71.325496
"02054","Millis","MA","Richardsons Pond","not_available","02054",42.17024226704124,-71.36555671691895
"02056","Norfolk","MA","Pond Street Recreation Complex","Pond St","not_available",42.10376900525484,-71.30798454751255
"02056","Norfolk","MA","Boardman Street Playground","Boardman St, Norfolk, MA 02056","02056",42.1207573955794,-71.33067833853994
"02061","Norwell","MA","Sylvester Field","not_available","02339",42.11748052123248,-70.84078730761371
"02062","Norwood","MA","Norwood Town Common","517-523 Washington St","not_available",42.194048206259744,-71.20047843220165
"02062","Norwood","MA","Shattuck Park","Shattuck Park Rd","02062",42.1935055152607,-71.21096525416786
"02062","Norwood","MA","Insanity Park","Berwick St.","not_available",42.18651719363888,-71.21113349015779
"02062","Norwood","MA","Ellis Field","not_available","02062",42.20649732339213,-71.1901150299462
"02062","Norwood","MA","Aaron Guild Park","Guild st, Washington st.","02062",42.19086751600209,-71.20235611509072
"02066","Scituate","MA","Stanley Murphy Square","Glades Rd","02066",42.23965552592542,-70.7615111322952
"02067","Sharon","MA","Borderland State Park","259 Massapoag Ave.","02067",42.062417075498274,-71.16466859098087
"02067","Sharon","MA","Mass Audubon Moose Hill Wildlife Sanctuary","293 Moose Hill St","02067",42.123771302897,-71.20781600475311
"02067","Sharon","MA","Sharon Community Garden","not_available","02067",42.111311,-71.188482
"02067","Sharon","MA","Smithfarm","90 Bay Rd","02356",42.064745,-71.133905
"02072","Stoughton","MA","Bird Street Conservation Area","West St","02072",42.107664,-71.106499
"02072","Stoughton","MA","Faxon Veterans Memorial Park","Park St.","02072",42.122504329185865,-71.10007045719095
"02072","Stoughton","MA","Halloran Park","Pierce Street","02072",42.122704981925196,-71.09506130218506
"02072","Stoughton","MA","Peter J. McGarvey Police Memorial Park","not_available","02072",42.12759326840671,-71.07505351439687
"02081","Walpole","MA","Spring Brook Park","East St","02081",42.146862,-71.25041
"02093","Wrentham","MA","Trout Pomd","not_available","02093",42.052542742946734,-71.3329980961709
"02108","Boston","MA","The Esplanade","The Esplanade","02114",42.35606380136848,-71.0748942990867
"02108","Boston","MA","Boston Common","Tremont St","02111",42.355487,-71.064882
"02108","Boston","MA","Cardinal Cushing Memorial Park","not_available","02108",42.36120108533588,-71.06257568833541
"02108","Boston","MA","DCR Hatch Memorial Shell","1 David G Mugar Way","02114",42.35677981840637,-71.07399152240104
"02108","Boston","MA","Louisburg Square","1 Louisburg Sq","02108",42.35863584053231,-71.06890331057429
"02108","Boston","MA","Boston Massacre Monument","State St.","02109",42.35895538628799,-71.05697061186841
"02108","Boston","MA","Myrtle St. Playground","Myrtle St.","02114",42.35929492894239,-71.06611628509442
"02108","Boston","MA","Temple Street Park","Temple Street","02114",42.360086683301965,-71.06340463392887
"02108","Boston","MA","15 state street","15 Devonshire St, Boston, MA 02109","02109",42.358804380923615,-71.05706088407584
"02108","Boston","MA","Dog Run @ Boston Common","The Boston Common","02108",42.35674004517498,-71.06485711645247
"02108","Boston","MA","Ashburton park","Mass state house","02114",42.35905737793751,-71.06299187694454
"02108","Boston","MA","Lafayette Mall","Tremont Near park st","02108",42.355774,-71.062975
"02109","Boston","MA","The Rose Kennedy Greenway","Atlantic Ave.","02110",42.358227345384506,-71.0520546770175
"02109","Boston","MA","Paul Revere Mall","416 Hanover St","02113",42.36586347212853,-71.05378654197854
"02109","Boston","MA","Copp's Hill Terrace","77 Charter St.","02113",42.36771658196275,-71.05529313375109
"02109","Boston","MA","North End Park","Cross St.","02113",42.36248823184806,-71.05647696102726
"02109","Boston","MA","Central Wharf Park","Atlantic Ave","not_available",42.35901608340398,-71.051323428618
"02109","Boston","MA","Greenway Sprinklers","Central St","not_available",42.36212858497904,-71.0559082185088
"02109","Boston","MA","Armenian Heritage Park","Mercantile St.","02109",42.36079601951927,-71.05329470834113
"02109","Boston","MA","Charter Street Park","Charter St.","02113",42.36668200375408,-71.0534766118753
"02109","Boston","MA","Wharf District Park","Atlantic avenue","02110",42.35917815419112,-71.05201721191405
"02109","Boston","MA","Pilot House Park","52 Eastern Avenue","02110",42.36387252807617,-71.04979705810547
"02109","Boston","MA","Cutillo Park","9 Stillman St","02113",42.363745,-71.056062
"02109","Boston","MA","Prince Street Park","Prince St.","02113",42.36747025344144,-71.05843895083646
"02109","Boston","MA","George Thorndike Angell Park and Memorial","George Thorndike Angell Memorial Square","02109",42.35707722062374,-71.0562014579773
"02109","Boston","MA","Last Call Bench The Prado","not_available","02113",42.36589206981238,-71.05386849376423
"02109","Boston","MA","Massachusetts Beirut Memorial","not_available","02110",42.36198806762695,-71.05091857910156
"02109","Boston","MA","Tremont St. Park","Tremont St.","02110",42.3589,-71.04996
"02109","Boston","MA","Langone Park","542 Commercial St","02109",42.368598009540555,-71.05573411349863
"02109","Boston","MA","Greenough Lane","Greenough Ln.","02113",42.36702947609491,-71.05336410901904
"02109","Boston","MA","Fairlane Park","Broad Street","02109",42.35890931952745,-71.0540917192687
"02109","Boston","MA","Cuddle Bench","Copps Hill Terrace","02109",42.3683230808775,-71.05521179802498
"02109","Boston","MA","Hockey Rink","not_available","02152",42.367896890771675,-71.05719659328808
"02110","Boston","MA","Fan Pier Park","not_available","02210",42.354835,-71.046653
"02110","Boston","MA","Post Office Square","Congress St.","02110",42.3563398952114,-71.05568647384644
"02110","Boston","MA","Dewey Square","Atlantic Ave","02210",42.352953485384454,-71.05541924962004
"02110","Boston","MA","Norman B. Leventhal Park","Post Office Sq","02109",42.356341935229075,-71.0557108994917
"02110","Boston","MA","Old Central Wharf Park","not_available","02109",42.35847,-71.053238
"02111","Boston","MA","Rolling Bridge Park","Dorchester Ave.","not_available",42.34646284678599,-71.05666847618768
"02111","Boston","MA","One Greenway Park","One Greenway","02111",42.348928,-71.060567
"02111","Boston","MA","Bamboo Garden","15 Hudson St","02111",42.350946,-71.06018399999999
"02111","Boston","MA","Mary Soo Hoo Park","China Gate Plaza Park","not_available",42.350845617375406,-71.05955658234903
"02111","Boston","MA","Seybolt Park","not_available","02116",42.3489917944537,-71.0636964403371
"02114","Boston","MA","Charles River","Charles River","02115",42.36147909614144,-71.07603796069375
"02114","Boston","MA","Cambridge Parkway - Charles River Reservation","not_available","02142",42.36474970879008,-71.07689313332465
"02114","Boston","MA","Charlesbank Park","Charles River","not_available",42.363744469413895,-71.07214450836182
"02114","Boston","MA","The Victor","110 Beverly St","02114",42.365607980713555,-71.05987419658328
"02114","Boston","MA","Portal Park","Causeway Street","not_available",42.36571130146215,-71.06050456404773
"02114","Boston","MA","Nashua Street Park","289-293 Nashua St","02114",42.367589112894365,-71.06698393821716
"02114","Boston","MA","West End Park","not_available","02114",42.365776,-71.064674
"02114","Boston","MA","Charles Park","Land Boulevard","not_available",42.366910701439586,-71.07629733755127
"02114","Boston","MA","Brad and Barbara Washburn Statue","not_available","02141",42.368136,-71.07161
"02115","Boston","MA","Back Bay Fens","Back Bay Fens","02215",42.344361058990444,-71.09480722036089
"02115","Boston","MA","Riverway","not_available","02115",42.340129313817435,-71.10982496262163
"02115","Boston","MA","Dorothy & David Ramler Park","130 Peterborough Street","02215",42.34257394366492,-71.10086561069632
"02115","Boston","MA","Hall's Pond Sanctuary","Amory St","not_available",42.34603118738402,-71.1120532043434
"02115","Boston","MA","Memorial Drive Park","not_available","02139",42.354696,-71.099669
"02115","Boston","MA","Bessie Barnes Park","Sussex St","02120",42.33620874996248,-71.08415867631041
"02115","Boston","MA","Evans Way Park","Evans Way Park","not_available",42.33812062063807,-71.09823094340356
"02115","Boston","MA","Mission Hill","not_available","02120",42.33314102157182,-71.10482297922509
"02115","Boston","MA","Joslin Park","Pilgrim Rd","02215",42.34144775729618,-71.09813229416245
"02115","Boston","MA","Kevin W Fitzgerald Park","145 Saint Alphonsus St","02120",42.33203093180679,-71.10273396544976
"02115","Boston","MA","William E. Smith Field","Boston,MA,2134","2134",42.35204091212341,-71.08808155124518
"02115","Boston","MA","Joseph Lee Playground","not_available","02215",42.34144234561643,-71.09720963244688
"02115","Boston","MA","Emerald Necklace","48-86 Chapel St","02446",42.348809054473485,-71.09269494287166
"02115","Boston","MA","Brookline Avenue Playground","575 Brookline Avenue","02445",42.334351050814554,-71.10892553863694
"02115","Boston","MA","Vancouver St. Park","2 Vancouver St.","02115",42.337667390507306,-71.09615350135618
"02116","Boston","MA","Boston Public Garden","9 Arlington St","02116",42.35409620792141,-71.06986539610173
"02116","Boston","MA","Commonwealth Avenue Mall","Commonwealth Ave.","02116",42.35188650962934,-71.080033112706
"02116","Boston","MA","Ringold Park","Ringold St","not_available",42.3433407865094,-71.07001239424639
"02116","Boston","MA","Firefighters Memorial Park","287 Dartmouth St","02116",42.35200142525557,-71.0778076980676
"02116","Boston","MA","The Swan Boats","Boston Public Garden","02130",42.35396058225839,-71.06958608058764
"02116","Boston","MA","Watson Park","Tyler Street","not_available",42.344617221441474,-71.06935470527556
"02116","Boston","MA","Statler Park","Columbus Ave.","not_available",42.350565949488065,-71.06912257287068
"02116","Boston","MA","Dartmouth Street Mall","Dartmouth St","not_available",42.35212366226534,-71.07733417637513
"02116","Boston","MA","BCA Garden","Tremont St","02116",42.34414497322994,-71.0717804810089
"02116","Boston","MA","Boston Common Duck Pond Bridge","Bolyston & Arlington St.","not_available",42.346667678903664,-71.08702539634044
"02116","Boston","MA","Minor Confluence (Hiram Grange #4)","boylston ave","not_available",42.35480179069944,-71.06609344482422
"02118","Boston","MA","Peters Park","1205 Washington","02118",42.34266178909323,-71.06768627830066
"02118","Boston","MA","Blackstone Square","not_available","02118",42.33947866997181,-71.07356788547759
"02118","Boston","MA","Titus Sparrow Park","W Newton St","02118",42.34361372273278,-71.08014822006226
"02118","Boston","MA","Ink Underground","90 Traveler Street","02118",42.34414502258788,-71.06216669082642
"02118","Boston","MA","South End Library Park","South End Library Park","02118",42.341187,-71.077253
"02118","Boston","MA","Bradford Street Park","18-20 Bradford St","02118",42.342689514160156,-71.06900024414062
"02118","Boston","MA","West Concord Street Park","101 W Concord St","02118",42.342995588927955,-71.07341119773682
"02118","Boston","MA","Wellington green","563 Columbus Ave","02118",42.341084,-71.081525
"02118","Boston","MA","Library Park","685 Tremont St","02118",42.34138488769531,-71.0770263671875
"02118","Boston","MA","Chaplain Acre","1500 Washington St","02118",42.33976745605469,-71.07182312011719
"02118","Boston","MA","Picture Park","46 Waltham St","02118",42.341944,-71.069345
"02119","Roxbury","MA","Clarence ""Jeep"" Jones Park","not_available","02119",42.33024859180912,-71.09170843587165
"02119","Roxbury","MA","Marcella/Connolly Park","260 Highland Street","02119",42.32273864746094,-71.09622192382812
"02119","Roxbury","MA","Waldren Park","7 Waldren Road","02119",42.31571960449219,-71.0952377319336
"02119","Roxbury","MA","Lamartine/Hubbard Streets Garden Park","Lamartine St.","02130",42.317680719940235,-71.10202601943683
"02119","Roxbury","MA","NCAAA Museum Grounds","Crawford St.","02119",42.31625434677754,-71.09249183868583
"02119","Roxbury","MA","Dillaway-Thomas House","183 Roxbury St","02119",42.330566999999995,-71.090699
"02119","Roxbury","MA","McLaughlin Playground","269 Parker Hill Ave","not_available",42.3272804673528,-71.10201045726627
"02120","Roxbury Crossing","MA","Butterfly Park","13 Bucknam St","02120",42.326980922964175,-71.10441486506728
"02120","Roxbury Crossing","MA","Nira Rock Urban Wild","18 Nira Ave","02130",42.325275,-71.108974
"02120","Roxbury Crossing","MA","Optimal Bench","Bup","02115",42.338152,-71.098039
"02121","Dorchester","MA","Franklin Park","Pier Point Rd","02130",42.3103268425333,-71.09892729030251
"02121","Dorchester","MA","Franklin Park - Overlook Ruins","Pier Point Rd.","02130",42.30727643850873,-71.0961127281189
"02121","Dorchester","MA","Franklin Park - The Steading","Robeson St.","02130",42.30913307563285,-71.09885931015015
"02122","Dorchester","MA","Joe Moakley Park","William J Day Blvd","02127",42.324602922069104,-71.0506010055542
"02122","Dorchester","MA","Cavanagh Stadium","6-36 Birch St -36","02171",42.276707,-71.02359
"02122","Dorchester","MA","Senator Joseph Finnegan Park at Port Norfolk","not_available","02122",42.288444,-71.038333
"02122","Dorchester","MA","Neponset Park","Granite Ave","02124",42.27857887980195,-71.0531759262085
"02122","Dorchester","MA","Ryan Playground","not_available","02125",42.3172277896464,-71.05605910945788
"02122","Dorchester","MA","Ronan Park","Adams street","02122",42.304535362191565,-71.06276209367219
"02122","Dorchester","MA","The Boardwalk","Marina Bay","02171",42.29887176213302,-71.02904874867443
"02122","Dorchester","MA","Savin Hill Park","Grampian Way","02125",42.31078167996807,-71.0484274400413
"02122","Dorchester","MA","Squantum Point Park","not_available","02171",42.29958276752289,-71.03405746426955
"02122","Dorchester","MA","Old Rail Yard","not_available","02127",42.332185,-71.058935
"02122","Dorchester","MA","Harbor Point Park","Ocean View St","02125",42.32001559105377,-71.04127153323114
"02122","Dorchester","MA","Atheneum Park","East Cottage Street","02125",42.31874862746232,-71.05900168418884
"02122","Dorchester","MA","Sharon's Park","Buttonwood St","02125",42.32156999184566,-71.05543233130604
"02122","Dorchester","MA","Pattens Cove","14 Davitt St","02125",42.31325912475586,-71.04974365234375
"02122","Dorchester","MA","Welcome Young Park","Coe Street","02171",42.28085139562308,-71.02939117727723
"02124","Dorchester Center","MA","Norfolk Park","Norfolk Street","02124",42.277508534365495,-71.09076254749091
"02124","Dorchester Center","MA","Dorchester Park","Dorchester Ave","02124",42.27455615292082,-71.06226100471139
"02124","Dorchester Center","MA","Milton Landing","Wharf Street","not_available",42.270297,-71.065712
"02124","Dorchester Center","MA","Codman Square Park","not_available","02124",42.289982170059396,-71.07263356139168
"02124","Dorchester Center","MA","Pavement Hockey Rink","62 king St","02122",42.293547534516804,-71.05685418777303
"02124","Dorchester Center","MA","Ryan Spray and Sprinkler Park","River Street","not_available",42.270769154441766,-71.07962643190059
"02124","Dorchester Center","MA","Codman Commons","Washington St","02124",42.2902626498602,-71.071457862854
"02125","Dorchester","MA","Coppens Square","Bowdoin St.","02122",42.3090222184325,-71.06490354342858
"02125","Dorchester","MA","McConnell Park","Playstead Rd","02125",42.30859220093935,-71.05227521199372
"02127","South Boston","MA","Castle Island","Castle Island","02127",42.33805756314948,-71.01458523533016
"02127","South Boston","MA","Marine Park","William J Day Blvd","not_available",42.33602027560826,-71.02395871730346
"02127","South Boston","MA","Dorchester Heights Monument","95 G St","02127",42.332961,-71.045778
"02127","South Boston","MA","Thomas Park","Dorchester Heights","02127",42.332693326860415,-71.04609489440918
"02127","South Boston","MA","Lawn On D","420 D St","not_available",42.3443254929444,-71.04502091837226
"02127","South Boston","MA","City Point","East 1st Street","02127",42.3334309,-71.0244937
"02127","South Boston","MA","Dry Dock Plaza Park","Northern Ave","02210",42.34545651920289,-71.0322814955666
"02127","South Boston","MA","Independence Square Park","M Street","02127",42.336315398994316,-71.03261811767064
"02127","South Boston","MA","Flag Flag Football","659 E 1st St","02127",42.33735095,-71.0324196
"02127","South Boston","MA","Charles River Run","Charles River","02114",42.33486070775508,-71.04464347235798
"02128","East Boston","MA","Piers Park","95 Marginal St","02128",42.36511146233541,-71.03626290498991
"02128","East Boston","MA","LoPresti Park","Sumner St.","02128",42.37004977973561,-71.04298362280804
"02128","East Boston","MA","Prescott Square","Trenton St","not_available",42.381031049715354,-71.03114974683109
"02128","East Boston","MA","East Boston Greenway","not_available","02128",42.36692287637422,-71.04070137872378
"02128","East Boston","MA","Putnum Square Park","Putnam St","02128",42.380118677799764,-71.03408648330274
"02128","East Boston","MA","Memorial Park","Bremen street","02128",42.372588353637184,-71.03145154679625
"02128","East Boston","MA","Mystic Overlook Park","not_available","02150",42.387147,-71.045304
"02128","East Boston","MA","Lombardi Memorial Park","61-87 Maverick St","02128",42.370614,-71.04081
"02128","East Boston","MA","Ingleside Park","Walden","02152",42.37869499674259,-70.98789142472037
"02128","East Boston","MA","Eastport Park","D St.","02210",42.34861727921208,-71.04036569595337
"02128","East Boston","MA","Publicly Organized Recreation Territory","99 Marginal St","02150",42.386663,-71.03546800000001
"02128","East Boston","MA","Alfred L. Bertulli Park","184 Meridian St","02128",42.374955087064805,-71.03936210969789
"02128","East Boston","MA","Pleasant Park Yacht Club","562 Pleasant St","02152",42.381252,-70.99206600000001
"02129","Charlestown","MA","North Point Park","Museum Way","02141",42.36911761365681,-71.06917480267327
"02129","Charlestown","MA","Winthrop Square","45-55 Winthrop St.","02129",42.37455651754521,-71.06029479107536
"02129","Charlestown","MA","Paul Revere Park","not_available","02129",42.370196991214776,-71.06178131754942
"02129","Charlestown","MA","Charlestown Navy Yard","1st Ave.","02129",42.3745881380227,-71.05415225028992
"02129","Charlestown","MA","Edwards Playground","Main St & Eden St","02129",42.37932769170876,-71.06838941574097
"02129","Charlestown","MA","City Square Park","1 City sqaure","02129",42.371542884274824,-71.06195162335673
"02129","Charlestown","MA","Lechmere Canal Park","Canal Park","02142",42.369134831068884,-71.07629656791687
"02129","Charlestown","MA","NorthPoint Common","24 East St","02141",42.37197494506836,-71.07581329345703
"02129","Charlestown","MA","John Harvard Mall","John Harvard Mall","02129",42.37290383138193,-71.06289352362951
"02129","Charlestown","MA","Mary O'Malley Waterfront Park","Admiral's Hill","02150",42.38886889215295,-71.0492109259365
"02129","Charlestown","MA","Lynde St Park","not_available","02149",42.3944685644574,-71.0659597557112
"02129","Charlestown","MA","Doherty Park - Charlestown Heights","St. Martin Street","not_available",42.38225997300985,-71.06774138233354
"02129","Charlestown","MA","Teamsters Memorial Park","544 Main St","02129",42.383699,-71.072848
"02129","Charlestown","MA","Galvin Memorial Park","6 New Rutherford Ave.","02129",42.371784740939084,-71.0647758692316
"02129","Charlestown","MA","The Secret Dog Park","Memorial","02129",42.37158618083917,-71.0645957150445
"02129","Charlestown","MA","Reader's Park","10 School St","02108",42.376952,-71.065564
"02130","Jamaica Plain","MA","Arnold Arboretum","125 Arborway","02130",42.30202445424939,-71.1214592655288
"02130","Jamaica Plain","MA","Olmsted Park","Pond Ave.","02130",42.32990480880015,-71.11404352439233
"02130","Jamaica Plain","MA","Larz Anderson Park","292-334 Goddard Avenue","02445",42.31194637119134,-71.13808325604876
"02130","Jamaica Plain","MA","Peters Hill","not_available","02131",42.29361705546863,-71.128062649407
"02130","Jamaica Plain","MA","Southwest Corridor Park","Green St","02130",42.31158470485821,-71.10909461975098
"02130","Jamaica Plain","MA","Brookline Reservoir","Route 9","02445",42.32649726112302,-71.13728833754733
"02130","Jamaica Plain","MA","Riverway (Emerald Necklace)","not_available","02130",42.32990885439447,-71.11207641512965
"02130","Jamaica Plain","MA","The Wilderness in Franklin Park","N Jewish War Vets Dr.","02130",42.304991271490245,-71.10291481018066
"02130","Jamaica Plain","MA","Emerson Garden","Emerson Garden","02445",42.33105096770512,-71.12570403510085
"02130","Jamaica Plain","MA","JP Animal Clinic","10A Green St","02130",42.31310139591729,-71.11349676510412
"02130","Jamaica Plain","MA","Parkman Playground","64 Wachusett St.","02130",42.296129425969674,-71.11321954469373
"02130","Jamaica Plain","MA","Mahoney Square","Centre Street","02130",42.32187415875479,-71.1099100112915
"02130","Jamaica Plain","MA","Clark Park","cypress st","02445",42.327542,-71.125991
"02130","Jamaica Plain","MA","Putterham School","Newton St.","02130",42.30998996660534,-71.13542318344116
"02131","Roslindale","MA","Poplar Street Play Area","Poplar St.","not_available",42.28060531616211,-71.12589263916016
"02131","Roslindale","MA","Alexander The Great Park","Belgrade Ave","02131",42.28777576704042,-71.13219385868469
"02131","Roslindale","MA","Weider Park","Weider Park","02136",42.2710451918021,-71.12369656562805
"02132","West Roxbury","MA","Millennium Park","398 Gardner St","02132",42.28188103446502,-71.18211507797241
"02132","West Roxbury","MA","Thomas J. Hynes Field","VFW Parkway","02132",42.2948022259192,-71.15359783172607
"02132","West Roxbury","MA","D. Blakely Hoar Sanctuary","Gerry Road","02467",42.30138123035431,-71.16114020347595
"02132","West Roxbury","MA","Billings Field","Lagrange St.","02132",42.28105551202298,-71.15621566772461
"02134","Allston","MA","Amory Park","Amory St","02446",42.346050826021504,-71.11361412673217
"02134","Allston","MA","Stanley A Ringer Playground","Allston St.","02134",42.35097491664334,-71.13713747692259
"02134","Allston","MA","John F. Kennedy Memorial Park","Memorial Drive","02138",42.37080162572463,-71.12280545734018
"02134","Allston","MA","Artesani Park","1234 Soldiers Field Rd","02135",42.36433128633271,-71.1378425359726
"02134","Allston","MA","Christian A Herter Park","Christian A Herter Park","02135",42.36644689739255,-71.13525171429086
"02134","Allston","MA","Winthrop Park","St Paul St","02446",42.34630084123641,-71.11702608465302
"02134","Allston","MA","Corporal Burns Playground","Corporal Burns Playground","02139",42.36771414724597,-71.11487314532114
"02134","Allston","MA","Winthrop Park","JFK St.","02138",42.37238052872521,-71.12054440655014
"02134","Allston","MA","Alberico Park","Pleasant St","02139",42.361317213375656,-71.11265668435041
"02134","Allston","MA","Wheeler Park","880 Memorial drive","02138",42.36479568481445,-71.11543273925781
"02134","Allston","MA","Michael A. Sullivan Square","not_available","02138",42.370132,-71.11319
"02134","Allston","MA","Athletes Park","not_available","02135",42.35697,-71.14289
"02134","Allston","MA","Library Park","30-32 Eatonia St","02134",42.360526,-71.126944
"02134","Allston","MA","Library Park","300 N Harvard St","02134",42.360069274902344,-71.12821960449219
"02134","Allston","MA","New Riverside Park","Memorial Drive","not_available",42.364718405362616,-71.11559283375354
"02134","Allston","MA","Herter Amphitheatre","not_available","02134",42.36653,-71.134544
"02134","Allston","MA","Fidelis Way Park","Fidelis Way","not_available",42.347169453446355,-71.14291075618846
"02134","Allston","MA","Knyvet Square","Saint Paul St.","02445",42.3480972968109,-71.11607445304803
"02134","Allston","MA","Chaplain Acre","Washington St","02118",42.351597394818526,-71.11687521637843
"02134","Allston","MA","Josiah Quincy Square","12 Quincy St","02138",42.372122016587475,-71.11545797106822
"02135","Brighton","MA","Chestnut Hill Reservoir","Chestnut Hill Reservoir","02135",42.33627378877801,-71.15406832332705
"02135","Brighton","MA","Corey Hill Outlook","Corey Hill Outlook Park","02446",42.34269096130198,-71.13344422492432
"02135","Brighton","MA","Rogers Park","Rogers Park Av","02135",42.34702135324139,-71.16684874207246
"02135","Brighton","MA","Jean B Waldstein Playground","Jean B Waldstein Playground","02445",42.336459577819085,-71.14358961869331
"02135","Brighton","MA","Arsenal Park","Arsenal Park","02472",42.36167477397062,-71.16095533858497
"02135","Brighton","MA","Watertown Greenway","Nichols Ave","02472",42.37104845387131,-71.15967673390743
"02135","Brighton","MA","Cassidy Park","400 Chestnut Hill Ave","02445",42.33546829223633,-71.14874267578125
"02135","Brighton","MA","Wilson Park","Wilson Park","02445",42.34274794978375,-71.14637629101917
"02135","Brighton","MA","Saint John's Park","127 Lake St","02135",42.34379959106445,-71.16304016113281
"02135","Brighton","MA","Charles River/Alewife Connector","49 School St","02472",42.364322662353516,-71.16634368896484
"02135","Brighton","MA","St Mark's Park","Marion St","02446",42.339876093510455,-71.12452300583568
"02135","Brighton","MA","Gallagher Memorial Park","Lake Shore Rd","02135",42.34701584147489,-71.16684277129461
"02135","Brighton","MA","Joyce Playground","10-12 Lyne Rd","02135",42.345596,-71.152024
"02135","Brighton","MA","itn greater boston","chestnut hill reservoir","02135",42.3362,-71.1536
"02135","Brighton","MA","Waterworks Park","2400 Beacon St","02467",42.33283,-71.15382199999999
"02135","Brighton","MA","Brighton Square Park","20 Chestnut Hill Ave","02135",42.3483386533565,-71.15375150234354
"02136","Hyde Park","MA","Reservation Road Park","109 Reservation Road","02136",42.250114721260836,-71.12842808019626
"02136","Hyde Park","MA","Dell Rock Park","Dell Rock Park","02136",42.2602630687347,-71.12239837646484
"02136","Hyde Park","MA","McGann Park","McGann Park","02136",42.26422519718699,-71.1278486251831
"02138","Cambridge","MA","Cambridge Common Park","Garden St. and Mass. Ave.","02138",42.377066504544466,-71.12035677748464
"02138","Cambridge","MA","Fresh Pond Reservation","250 Fresh Pond Pkwy","02138",42.387275261755896,-71.14708255100855
"02138","Cambridge","MA","Grove-Cedar Bike Path","Davis Square","02144",42.39516059625096,-71.11591815948486
"02138","Cambridge","MA","Kingsley Park","Kingsley Park","not_available",42.382529461967536,-71.14673137664795
"02138","Cambridge","MA","Albion Park","115 Albion St","02144",42.39197818623665,-71.10804288890768
"02138","Cambridge","MA","Longfellow Park","Mt. Auburn St.","not_available",42.37487314408298,-71.12772017950351
"02138","Cambridge","MA","Kenney Park","Highland Ave.","not_available",42.395516360126294,-71.120402563428
"02138","Cambridge","MA","Raymond Park","100 Raymond Street","not_available",42.3871611126335,-71.12779151572268
"02138","Cambridge","MA","Sacramento Park","7 Sacramento st","02138",42.383132,-71.118246
"02138","Cambridge","MA","Franklin Street Park","495 Franklin St","02139",42.36767351433396,-71.11055178970994
"02138","Cambridge","MA","Joan Lorentz Park","Broadway","02138",42.37339842334363,-71.11038782693072
"02138","Cambridge","MA","Bailey Park","btwn Lowell & Belmont","02143",42.38802915153214,-71.10903024673462
"02138","Cambridge","MA","James Cronin Park","Franklin St","02139",42.36522754624017,-71.10651283421495
"02138","Cambridge","MA","Conway Park","560 Somerville Avenue","02143",42.38327315143935,-71.10766053892017
"02138","Cambridge","MA","Library Park","449 Broadway","02138",42.37365258531529,-71.11021374526979
"02139","Cambridge","MA","Technology Square","Technology Square","02139",42.36344681738895,-71.09225898757485
"02139","Cambridge","MA","Edward J. Sennott Park","Broadway","02139",42.368634505127,-71.0992754633017
"02139","Cambridge","MA","Dana Park","70 Magazine St","02139",42.36162595700357,-71.10811735959795
"02139","Cambridge","MA","Fort Washington Park","Waverly Street","02139",42.356577743063816,-71.10428810119629
"02139","Cambridge","MA","Auburn Park","Brookline st","02139",42.361633000000005,-71.102869
"02139","Cambridge","MA","Hastings Square","Brookline St","02139",42.35632038458312,-71.10943617959762
"02139","Cambridge","MA","Clement G. Morgan Park","60 Columbia St","02139",42.3651999401967,-71.09858245365241
"02139","Cambridge","MA","University Park Commons","23 Sidney St","02139",42.361016486151556,-71.10213213669867
"02139","Cambridge","MA","Vellucci Plaza","Cambridge St","02139",42.37388540880414,-71.10145114094196
"02139","Cambridge","MA","Robert R. Sutherland Square","Bristol St.","02139",42.3677978515625,-71.09398651123047
"02139","Cambridge","MA","Joseph & Marie Corey Square","Palermo St.","02143",42.37206762766681,-71.09351634979248
"02139","Cambridge","MA","Liberty/War Memorial Park","Broadway & Ellery","02139",42.37270678145651,-71.11017900331682
"02140","Cambridge","MA","Magnolia Field","Magnolia St","02474",42.40065265536725,-71.14445099669823
"02140","Cambridge","MA","Seven Hills Park","Meacham Rd","02144",42.39715154674627,-71.12379769064744
"02140","Cambridge","MA","Waldo Park","1 Waldo Rd","02474",42.404156276339464,-71.13561146046672
"02140","Cambridge","MA","Trolley Square Park","Cameron Ave","02140",42.39771987758493,-71.12957696553508
"02140","Cambridge","MA","Alewife Linear Park","Wittermore Ave","02140",42.39793371703684,-71.13570213317871
"02140","Cambridge","MA","James D. Gondolfe Park","2511 Massachusetts Ave","02140",42.399837,-71.13278100000001
"02140","Cambridge","MA","Black's nook","667-671 Concord Ave","02138",42.38901842950461,-71.15052323333427
"02140","Cambridge","MA","Arlington Bicentennial Park","not_available","02140",42.40098,-71.136158
"02140","Cambridge","MA","the milky way galaxy","Garden Street","02138",42.38909919268456,-71.13547800627809
"02140","Cambridge","MA","Summer Elm Park","Summer & Elm St","02144",42.3944141375,-71.1209741
"02140","Cambridge","MA","John J. Kenney Park","Grove St","02144",42.396383909376674,-71.1205352370969
"02140","Cambridge","MA","Native Pollinator Garden","Somerville Community Path","02144",42.394736,-71.113733
"02140","Cambridge","MA","Garden Street Glen","Garden St","02138",42.386701170034,-71.13416667143834
"02141","Cambridge","MA","Gore Park","Gore St","02141",42.37240940121922,-71.08438557350536
"02141","Cambridge","MA","Hurley Street Park","259 Hurley St","02141",42.368623417031465,-71.0833405676885
"02141","Cambridge","MA","Costa Lopez Taylor Park and Community Garden","Anthony Costa Playground","02142",42.367486783545495,-71.07955679394826
"02141","Cambridge","MA","Curley Park","Palermo St","not_available",42.37389335815547,-71.08895673490761
"02141","Cambridge","MA","Elm And Hampshire Plaza","131 Hampshire St","02139",42.37059783935547,-71.09648132324219
"02141","Cambridge","MA","Cambridge Center Roof Garden","4 Cambridge Ctr","02142",42.363146523794704,-71.08682099972488
"02141","Cambridge","MA","Mayor Alfred E. Vellucci Square","Hampshire St.","02139",42.365789690494196,-71.09203577041626
"02142","Cambridge","MA","Ahern Park","259 Charles St","not_available",42.36859678005352,-71.08588564974715
"02143","Somerville","MA","Lincoln Park","Perry St","02143",42.37797650701106,-71.09986155383885
"02143","Somerville","MA","Edward Leathers Community Park","Walnut Street","00420",42.386953,-71.09347
"02143","Somerville","MA","Somerville Junction Park","2 Woodbine St.","02144",42.39106308762165,-71.10384390042546
"02143","Somerville","MA","Prospect Hill Park","Prospect Hill Avenue","02143",42.38174627313553,-71.09382071851041
"02143","Somerville","MA","Nunziato Field","Summer St.","02143",42.38238644742497,-71.09828902761141
"02143","Somerville","MA","Stone Place Park","not_available","02143",42.38024022663303,-71.09471679723698
"02143","Somerville","MA","Perry Park","Washington St","02143",42.37707070755191,-71.10101024460252
"02143","Somerville","MA","Zero New Washington Street Dog Park","0 New Washington St","02143",42.38012022430424,-71.08257293701172
"02143","Somerville","MA","Palmacci Park","Skehan St.","not_available",42.380193,-71.105722
"02143","Somerville","MA","Quincy street Open Space","Quincy Street","02143",42.38262922833859,-71.10091767523262
"02143","Somerville","MA","Symphony Park","46 Pearl St","02145",42.38385009765625,-71.08267974853516
"02143","Somerville","MA","Parking Lot Across from 156 Highland ave (Somerville)","155 Highland ave","02143",42.38875198364258,-71.1034927368164
"02143","Somerville","MA","Somerville World War Monument","Union Square","not_available",42.38909201061705,-71.08666560667888
"02143","Somerville","MA","Quincy Street Park","Quincy St.","02143",42.382791890221796,-71.10083063236512
"02144","Somerville","MA","Royall Park","George Street","02155",42.412387,-71.111043
"02144","Somerville","MA","Riverside Plaza","Riverside Ave","02155",42.418013,-71.107664
"02144","Somerville","MA","Charles E. Ryan Rd","Charles E. Ryan Rd","not_available",42.395961807779706,-71.1068159048446
"02144","Somerville","MA","Mystic River Clippership Park","Clippership Drive","02155",42.41705698983245,-71.10851526260376
"02144","Somerville","MA","Tufts Pool","449 Main St","02155",42.40530933554242,-71.10668030646816
"02145","Somerville","MA","Foss Park","688 Fellsway","02145",42.39408195532384,-71.08877107837102
"02145","Somerville","MA","Mystic River Park","3920 Mystic Valley Pkwy","02155",42.39851815684667,-71.08927117298047
"02145","Somerville","MA","Henry O Hansen Park","70 Partridge Ave","02145",42.39538245042346,-71.10270023345947
"02148","Malden","MA","Devir Park","182 - 244 Emerald St","02148",42.41967833614632,-71.08554937195866
"02148","Malden","MA","Pine Banks Park","Main St.","02176",42.44246116589416,-71.06244564056396
"02148","Malden","MA","Lincoln Commons","not_available","02148",42.42573737996351,-71.05478525161743
"02148","Malden","MA","Suffolk Park","Cross St.","02148",42.42448608398818,-71.05512857437134
"02148","Malden","MA","Tartikoff Park","20-75 Lyme St","02148",42.426505,-71.051767
"02148","Malden","MA","William F. Patchell Park","Glen Rock Road","02148",42.439618,-71.073257
"02148","Malden","MA","Robbins Farm Park","61 Eastern Ave","02476",42.427043177605576,-71.08258710575669
"02148","Malden","MA","Amerige park","Fellsway East","not_available",42.42704368524504,-71.08257382206065
"02148","Malden","MA","Holland park","108 Mountain Ave","02148",42.430782318115234,-71.06963348388672
"02148","Malden","MA","South Broadway Park","South Lodgen Ct","not_available",42.426616522582115,-71.04448096989995
"02148","Malden","MA","Swan Street Park","Swan St","not_available",42.412861,-71.05873
"02148","Malden","MA","Kirsted Park","547-657 Eastern Ave","02148",42.42898464202881,-71.05248928070068
"02149","Everett","MA","Everett Common","22 oaked st","not_available",42.405581,-71.060146
"02149","Everett","MA","Washington Park","414 Washington Ave","02150",42.40518401675344,-71.03556064751031
"02150","Chelsea","MA","Merritt Park","Webster Ave","02150",42.3987876931801,-71.02035942469112
"02151","Revere","MA","leverett ave dog park","Leverett Ave, Revere, MA 02151","02151",42.3985095944098,-70.98739822294868
"02151","Revere","MA","Pvt Frank Erricoli Memorial Park","not_available","02151",42.416096,-71.004949
"02151","Revere","MA","Jimmy Kimmerle Park","Winthrop Ave, Revere, MA 02151","02151",42.398560911712444,-70.987422456807
"02151","Revere","MA","Pond Street Park","Pond Street","02152",42.38859558105469,-70.970458984375
"02151","Revere","MA","Jacob's Park","Hastings St","02151",42.4199594162776,-70.99041635231238
"02152","Winthrop","MA","Judge A. David Mazzone Memorial","Tafts Ave","not_available",42.35488107535739,-70.96856832504272
"02155","Medford","MA","Mystic River Reserve","not_available","02155",42.40432073646971,-71.09136605935092
"02155","Medford","MA","Condon Shell","2501 Mystic Valley Parkway","02155",42.418670093401396,-71.11518084570558
"02155","Medford","MA","Mystic River Reservation","4253 Mystic Valley Parkway","not_available",42.40414285577498,-71.08691513825227
"02155","Medford","MA","Dugger Memorial Park","Mystic Street","not_available",42.4176077207881,-71.13969963818072
"02155","Medford","MA","Spy Pond Park","Linwood St.","02474",42.40964122771832,-71.14944403433552
"02155","Medford","MA","Morrison Park","Central Avenue","02155",42.4203749137276,-71.09127568483052
"02155","Medford","MA","Mystic River Reservation","Mystic Valley Pkwy","02155",42.417835049087564,-71.13896537821276
"02155","Medford","MA","the blue thing","fulton","not_available",42.43550491333008,-71.09639739990234
"02169","Quincy","MA","Blue Hills Reservation (Granite Ave Entrance)","Granite Ave","02169",42.240956723664404,-71.025403897892
"02169","Quincy","MA","Merrymount Park","Merrymount Park","not_available",42.26426218347011,-71.0045904917657
"02169","Quincy","MA","Faxon Park","70 Faxon Park Dr","not_available",42.23878066470451,-70.99356651306152
"02169","Quincy","MA","Andrew's Park","not_available","02186",42.261156372167655,-71.03713927422119
"02169","Quincy","MA","Kincaide Park","345 Water St","02169",42.241244997048256,-71.0122694014072
"02169","Quincy","MA","Pageant Field","Merrymount Pkwy","02169",42.26378658250943,-71.00457888332993
"02169","Quincy","MA","Hancock-Adams Common Park","1305 Hancock St","02169",42.250946,-71.004118
"02169","Quincy","MA","Forbes Hill Park","Reservoir Road","not_available",42.25682953201936,-71.02805628451623
"02169","Quincy","MA","Merrymount Park","2 Merrymount Pkwy","02170",42.26295474131772,-71.01103312390008
"02169","Quincy","MA","Cunningham Park","Edge Hill Rd","not_available",42.25287722821288,-71.0513408393093
"02169","Quincy","MA","Adams National Historic Park Visitor Center","1250 Hancock St","02169",42.25239170268902,-71.00418215257126
"02169","Quincy","MA","Quarry Street Park","549 Quarry Street","02169",42.251094818115234,-71.03353118896484
"02169","Quincy","MA","Bishop Field","96-120 Holbrook Rd","02171",42.27030337306667,-71.03087116205273
"02169","Quincy","MA","Abraham Lincoln Park","not_available","02184",42.22676764828546,-70.9775709887713
"02169","Quincy","MA","Safford Park","not_available","02170",42.2638681262763,-71.02174160317476
"02169","Quincy","MA","Abagail Adams Cairn","Viden Rd","not_available",42.23382552197636,-70.99752669914167
"02169","Quincy","MA","Quincy Maritime Park","6 Read Ave","02169",42.24507,-70.974
"02170","Quincy","MA","Merrymount Park","2-234 Merrymount Pkwy # 2-23434","02170",42.26382771707245,-71.00997096706166
"02170","Quincy","MA","Crane Field","Belcher Circle","not_available",42.2596604591861,-71.03597271609334
"02170","Quincy","MA","Don Kent Park","Quincy Shore Drive","not_available",42.277042388916016,-71.01168823242188
"02170","Quincy","MA","Quincy Rec","1 Merrymount Pkwy","02170",42.26229476928711,-71.00477600097656
"02171","Quincy","MA","Nickerson Beach - Chappel Rock Park","Moon Island Road","02171",42.30276950180827,-71.0124921798706
"02176","Melrose","MA","Mary M. Foley Park","Myrtle St","02176",42.45340651624989,-71.06757888902216
"02180","Stoneham","MA","Sheepfold, Middlesex Fells Reservation","Middlesex Fells Reservation","not_available",42.45354145484527,-71.10695260156363
"02184","Braintree","MA","Watson Park","91 Quincy Ave","not_available",42.22648696453205,-70.96515478758647
"02184","Braintree","MA","Hollingsworth Park","Pond st","02184",42.195924018330174,-71.0235814604989
"02184","Braintree","MA","Weston Park","not_available","02188",42.21624155819724,-70.9683822222005
"02184","Braintree","MA","French's Common Park","1 John F Kennedy Memorial Dr","02184",42.20616149902344,-71.00526428222656
"02184","Braintree","MA","William T Shea Memorial Park","Copeland St","02169",42.23614222458182,-71.02540970181995
"02184","Braintree","MA","Watson Park BNYL","26 Gordon Rd","02184",42.225535,-70.967663
"02184","Braintree","MA","Webb Park","Summit St, Weymouth, MA 02188","02188",42.22186622488498,-70.9644059728141
"02188","Weymouth","MA","King Oak Hill Park","not_available","02189",42.225996,-70.937899
"02188","Weymouth","MA","Legion Field","880 Commercial St","02189",42.22427561708689,-70.93842302746093
"02188","Weymouth","MA","Weymouth Youth Lax Headquarters","not_available","02190",42.191673278808594,-70.95523834228516
"02191","North Weymouth","MA","The Circle","Palmer St","02169",42.25442039433903,-70.96188089002398
"02191","North Weymouth","MA","Abigail Adams Park","not_available","02191",42.247250151793324,-70.93471309080581
"02215","Boston","MA","Billy Ward Park","Aspinwall Ave","02446",42.33796284145407,-71.11810742650965
"02215","Boston","MA","Pierce School Playground","Harvard Ave","02446",42.33569920231402,-71.12210869789124
"02215","Boston","MA","Lawrence School Tennis Courts","Prince","not_available",42.339961066238004,-71.11428723637354
"02301","Brockton","MA","Timothy Holster Memorial Park","West Chestnut St","02301",42.05565643310547,-71.04931640625
"02301","Brockton","MA","Italian-American Park","25 Skinner St","02301",42.0772819,-71.01691324
"02301","Brockton","MA","Edgar Park","90-100 Brook St","02301",42.074744914945114,-71.02687809298818
"02301","Brockton","MA","Perkins Park","not_available","02301",42.065758268888644,-71.01248415346468
"02301","Brockton","MA","Salisbury Brook Greenway","White Avenue","02301",42.08038780095538,-71.01800680160522
"02301","Brockton","MA","George Keith Park","Main St","02301",42.061365,-71.014085
"02302","Brockton","MA","Monroeville Community Park","Alleger St.","02302",42.075756,-70.977082
"02322","Avon","MA","D.W. Field Park","Oak St.","02301",42.12538789480415,-71.04403503922785
"02324","Bridgewater","MA","Barrage Park","Elm Street","02333",42.000972,-70.91105
"02324","Bridgewater","MA","Stanley Iron Works Park","High St","02324",42.001612780967186,-70.98258554935455
"02330","Carver","MA","Picnic Area","not_available","02330",41.839114,-70.691008
"02330","Carver","MA","Sam White & Sons Inc","22 Recycle Way","02346",41.82130432128906,-70.82203674316406
"02330","Carver","MA","whispering pines park","Whispering Pines drive","02346",41.830861,-70.784156
"02330","Carver","MA","Morton Park","not_available","02360",41.94383855725044,-70.6827731455073
"02332","Duxbury","MA","Myles Standish Monument State Reservation","Crescent Street","02332",42.01356003107531,-70.68294158922853
"02333","East Bridgewater","MA","EB Skate Park","Rt 18","not_available",42.02698,-70.957812
"02338","Halifax","MA","Hay Hays Chicken Compound","33 Franklin St","02338",41.96946334838867,-70.8498764038086
"02339","Hanover","MA","luddams ford","Water St, Hanover, MA 02339","02339",42.10125929669617,-70.82427935689354
"02341","Hanson","MA","Memorial Field","Memorial Field","02341",42.042886928283345,-70.87031364440918
"02346","Middleboro","MA","Ted Williams Park","20 Precinct St","02347",41.849313974073546,-70.95470609030724
"02346","Middleboro","MA","Pratt Farm","110 East Main Street","02346",41.8968667745579,-70.89396510232748
"02346","Middleboro","MA","Oliver Mill Park","not_available","02346",41.90723042331379,-70.91362863054415
"02346","Middleboro","MA","Frederick Watson Memorial","Tispaquin St.","not_available",41.8729571703518,-70.86555099184814
"02346","Middleboro","MA","Tick Park","525 Wareham St","02346",41.83718013031268,-70.84186750929936
"02346","Middleboro","MA","Betty's Neck","not_available","02347",41.878136179618714,-70.89723951579731
"02346","Middleboro","MA","Middleboro Park Department","26 Jackson St","02346",41.893055,-70.904155
"02351","Abington","MA","Island Grove Park","240 Park Ave","02351",42.11245465315615,-70.93717575073242
"02351","Abington","MA","Abington War Memorial","1027 Washington St","02351",42.119114,-70.945461
"02356","North Easton","MA","Povoas Park","not_available","02356",42.061432,-71.102229
"02356","North Easton","MA","Tories Park","main street","02356",42.06419145,-71.1013578
"02359","Pembroke","MA","Herring Run Historical Park","Barker Street","02359",42.097678422006815,-70.79617966808263
"02360","Plymouth","MA","Plymouth Waterfront","water st","02360",41.957500880551585,-70.6657959277638
"02360","Plymouth","MA","National Monument to the Forefathers","72 Allerton St.","02360",41.960199024516704,-70.67518149966529
"02360","Plymouth","MA","Forges Field","83 Jordan Rd.","02360",41.90379682577524,-70.62477272941331
"02360","Plymouth","MA","Brewster Gardens","Water St.","02360",41.95559664143345,-70.66256046295166
"02360","Plymouth","MA","Town Training Green","65 Sandwich St.","not_available",41.947410030849674,-70.64706802368164
"02360","Plymouth","MA","Herring Run Recreation Area","Route 6","not_available",41.76831133401622,-70.56732319003062
"02360","Plymouth","MA","Howland Memorial","not_available","02364",41.99811826799049,-70.70352612525218
"02360","Plymouth","MA","The Children's Garden of Peace","Unnamed Rd","02364",41.99458430182827,-70.72508811950684
"02360","Plymouth","MA","Carter Veal Conservation Area","not_available","02532",41.77599549293518,-70.56304514408112
"02368","Randolph","MA","Crawford Square, Randolph","not_available","02368",42.163133483701756,-71.0412483184084
"02370","Rockland","MA","Hartsuff Park","not_available","02370",42.14030310744054,-70.90349218391415
"02375","South Easton","MA","Wheaton Farm Conservation Park","Bay road","not_available",42.005813746261296,-71.12241668689404
"02379","West Bridgewater","MA","Fairytale Park","not_available","02379",42.016086,-71.007477
"02382","Whitman","MA","Murphy Park","345 Washington St","02382",42.075133,-70.93259599999999
"02420","Lexington","MA","Parker Meadow","Revere st","not_available",42.45322740946737,-71.2206125998883
"02420","Lexington","MA","Hayden Woods","Hayden Ave","02421",42.42609347563232,-71.23867099376687
"02420","Lexington","MA","Depot Square","21 Depot Sq","02420",42.447379413130996,-71.22695665132457
"02420","Lexington","MA","lower vine brook","brookwood rd","not_available",42.46277849398659,-71.2118760481372
"02420","Lexington","MA","Willard's Woods","32 Brent Road","02420",42.46494255471823,-71.22251987457275
"02420","Lexington","MA","Hastings Park","1-19 Lincoln St","02421",42.44804790244128,-71.23848536730468
"02420","Lexington","MA","Mt. Gilboa","Gilboa Rd","02474",42.42855411463177,-71.18062004217745
"02421","Lexington","MA","Juniper Hill","Barberry Rd","02421",42.420502832128896,-71.24519106624321
"02445","Brookline","MA","Warren Field","not_available","02445",42.329791715953995,-71.1479760868944
"02445","Brookline","MA","Linden Park","Linden Place","not_available",42.334960378632545,-71.11829621272597
"02445","Brookline","MA","Fisher Hill Reservoir Park","Fisher Avenue","02445",42.32936470791186,-71.14255101661307
"02445","Brookline","MA","Sky Line Park","not_available","02467",42.31064536483104,-71.16649039264773
"02446","Brookline","MA","Brookline: Park @Beacon","133 Park St.","not_available",42.340471005701914,-71.12367106202369
"02446","Brookline","MA",", , ","not_available","02446",42.34263229370117,-71.13421630859375
"02446","Brookline","MA","Judge Henry P. Crowley Park","Marion Street","02446",42.340473870927674,-71.12371992240169
"02446","Brookline","MA","Fox Fountain","775 Commonwealth Ave","02215",42.35127530573235,-71.10872244262012
"02451","Waltham","MA","Cat Rock Park","98 Drabbington Way","02493",42.38743628656058,-71.28038245208069
"02451","Waltham","MA","Prospect Hill Park","not_available","02452",42.3962181892474,-71.25138039175015
"02451","Waltham","MA","embassy park","240ish moody street","not_available",42.3721095,-71.236609
"02451","Waltham","MA","Camp #11","not_available","02451",42.390886,-71.25584
"02451","Waltham","MA","Riverwalk Park","not_available","02453",42.372426,-71.240855
"02452","Waltham","MA","Beaver Brook Reservation","115 Mill St","02478",42.38956813620317,-71.19629943666952
"02452","Waltham","MA","Elsie Turner Park","421 Trapelo Rd","02452",42.39925003051758,-71.21109771728516
"02452","Waltham","MA","Waverley Trail","Beaver Brook Reservation","02478",42.38795265679146,-71.19738430841021
"02452","Waltham","MA","Gaebler Children's Center","275 Trapelo Rd.","02452",42.39581030982705,-71.20762825012207
"02452","Waltham","MA","Duck Pond","Duck Pond","not_available",42.39391938517588,-71.19720446357121
"02453","Waltham","MA","Upper Charles River Reservation","not_available","2481",42.36739891735062,-71.19456479589918
"02453","Waltham","MA","Coletti-Magni Park","Watertown Street","not_available",42.36028503827284,-71.20204489947835
"02453","Waltham","MA","Forte Park","not_available","02458",42.36573263470981,-71.19689118526627
"02453","Waltham","MA","Chemistry Station Park","Pine St.","02453",42.369927492301805,-71.23067378997803
"02453","Waltham","MA","Cada De McAndrew","not_available","02460",42.362222,-71.218065
"02453","Waltham","MA","Fitch Water Spray Park","14 Ash St","02453",42.367127,-71.242276
"02453","Waltham","MA","Oak Street Sprinkler Park","254-282 Newton St","02453",42.36812814,-71.23062767
"02453","Waltham","MA","Wellington Park","Kilburn Road","02465",42.36016169308493,-71.22713877955387
"02453","Waltham","MA","Goldfarb Library Picnic Area","Goldfarb Library","not_available",42.36790928561901,-71.25787124488905
"02453","Waltham","MA","Hawthorne Park","Hawthorne St","not_available",42.35805980329098,-71.20334814825829
"02453","Waltham","MA","Pelligrini Park","Hawthorn St","02458",42.358513,-71.202849
"02453","Waltham","MA","Ultimate Bootcamp Watertown","545 Arsenal St.","02472",42.3632685402568,-71.1993335890779
"02453","Waltham","MA","Linwood Park","Albemarle Rd","02460",42.36044883728027,-71.21519561
"02453","Waltham","MA","Albemarle Fields","Albemarle Road","02458",42.358399654574015,-71.21604130791124
"02453","Waltham","MA","Richard J. Forte Memorial Park","235 California St Rear","not_available",42.36596547446074,-71.19777590574809
"02457","Babson Park","MA","Barefoot Park","Map Hill Dr.","02457",42.296480620798405,-71.26454549976353
"02458","Newton","MA","Watertown Square","Watertown Square","not_available",42.366102159850996,-71.18197379360187
"02458","Newton","MA","Cabot Park","East Side Pkwy.","02460",42.349894829150834,-71.19750613873784
"02458","Newton","MA","Burr Park","Arlington St.","02458",42.35260672748177,-71.18037410073957
"02458","Newton","MA","Watertown Charles River Reservation","Galen St.","02472",42.36510003036104,-71.18537932634354
"02458","Newton","MA","Farlow Park","Church Street","not_available",42.35455843660779,-71.18520108346914
"02458","Newton","MA","Edmands Park","Mill St.","02459",42.34503315560333,-71.19561195373535
"02458","Newton","MA","Outlaw Park","Newton st.","02472",42.35763956,-71.16928673
"02458","Newton","MA","Cabot Field","15 Westchester Rd","02458",42.34730911254883,-71.19786834716797
"02458","Newton","MA","Newton Park","Newton st","02472",42.356644505427035,-71.17121394195425
"02458","Newton","MA","Chaffin Park","124 Vernon St","02458",42.354969,-71.185883
"02459","Newton Center","MA","Cutler Park","Kendrick St.","02456",42.29600241237259,-71.21191608234338
"02459","Newton Center","MA","Ordway Park","Gibbs St.","02459",42.33133573520717,-71.19000601267766
"02459","Newton Center","MA","Cold Spring Park","Beacon st","not_available",42.33034558411579,-71.21234014615166
"02459","Newton Center","MA","Newton Centre Green","Centre St.","02459",42.330662891699305,-71.19445323944092
"02459","Newton Center","MA","Nahanton Park","Winchester St.","02459",42.299759783209254,-71.20766433325333
"02459","Newton Center","MA","DCR Charles River Reservation","second Ave","02494",42.30240183323706,-71.21236915225911
"02459","Newton Center","MA","Cold Spring Dog Park","Dunklee St","02472",42.325043289994994,-71.21265341199712
"02459","Newton Center","MA","Webster Conservation Area","Warren St.","02459",42.32795231513547,-71.17470580113286
"02459","Newton Center","MA","Rodney Barker Square","not_available","02461",42.321436,-71.207564
"02459","Newton Center","MA","Sam White & Sons Inc","528 Boylston St","02459",42.318477,-71.191039
"02459","Newton Center","MA","Helen Heyn Conservation Area","not_available","02459",42.293732,-71.203472
"02459","Newton Center","MA","Hammond Pond Park Reservation","Hammond Pond Park Reservation","not_available",42.324608915682646,-71.18039730752963
"02461","Newton Highlands","MA","Bobby Braceland Park","Chestnut Street and Keefe Avenue","not_available",42.31006107306054,-71.2247777655239
"02461","Newton Highlands","MA","Newton Upper Falls Playground","1135 Chestnut Street","02464",42.31035590371857,-71.22499240376044
"02462","Newton Lower Falls","MA","I-95 Island","not_available","02462",42.335703,-71.256802
"02462","Newton Lower Falls","MA","Benjamin Mills Park","60 Walnut St, Wellesley, MA 02481","02481",42.32502746582031,-71.25241088867188
"02465","West Newton","MA","Warren Fields","1600 Washington St","02465",42.34305953979492,-71.23551177978516
"02465","West Newton","MA","Stanley N. Kaplan Memorial","1600 Commonwealth Avenue","not_available",42.33894729614258,-71.23243713378906
"02465","West Newton","MA","lincoln park nature walk","not_available","02465",42.348416361838744,-71.22279380644025
"02465","West Newton","MA","Dolan Pond","Webster Park","02465",42.3511863040256,-71.2349009513855
"02466","Auburndale","MA","Norumbega Park","287 Auburn St","02466",42.347846606607796,-71.25611947949716
"02466","Auburndale","MA","Auburndale Park","West Pine St","02466",42.353333877435695,-71.25222148260859
"02467","Chestnut Hill","MA","Reservoir Place","Cleveland Circle","02135",42.3364108639815,-71.1534358955241
"02467","Chestnut Hill","MA","Theresa Hynes Park","Chestnut Hill Ave","02135",42.344224,-71.154521
"02467","Chestnut Hill","MA","Brian Honan Park","300 Allston St","02135",42.34408187866211,-71.14034271240234
"02467","Chestnut Hill","MA","Euston Path Rock Park","Euston Road","02135",42.342744008828106,-71.1463769646898
"02468","Waban","MA","Lincoln Park","not_available","02468",42.32922666818728,-71.22965060415072
"02472","Watertown","MA","Payson Park Reservoir","Payson Park Reservoir","02478",42.381683590528596,-71.17042395356312
"02472","Watertown","MA","Saltonstall Park","Saltonstall Park","02472",42.36892391987701,-71.18925766821395
"02472","Watertown","MA","Whitney Hill Park","Watertown Square","02472",42.37290780902467,-71.18398189544678
"02472","Watertown","MA","Howe Park","not_available","02472",42.369166889991156,-71.19409640744082
"02472","Watertown","MA","Grove Street Playground","Grove St","02478",42.38174643598572,-71.15890143084343
"02472","Watertown","MA","Poquosette Playground","not_available","02478",42.38093639323758,-71.18377388083037
"02474","Arlington","MA","Buzzell Field","Summer st","not_available",42.418997963741674,-71.15470655219507
"02474","Arlington","MA","Cooke's Hollow Millbrook Conservation Area","98 Mystic St.","02474",42.420685051505835,-71.15241472556211
"02474","Arlington","MA","Whittemore Park","not_available","02474",42.415443,-71.152516
"02474","Arlington","MA","Skyline Park","not_available","02476",42.413100780651305,-71.1755818691651
"02474","Arlington","MA","Foot of the Rocks","1237 Mass Ave","not_available",42.423919989125515,-71.17838411338143
"02474","Arlington","MA","Tower Park","Allston St","not_available",42.423584726905254,-71.1332905116851
"02478","Belmont","MA","Kendall Park","196 Waverly St","02478",42.39020644010893,-71.18040891092414
"02478","Belmont","MA","Blair Pond","Normandy Ave","02138",42.395247,-71.156784
"02481","Wellesley Hills","MA","Honeywell Park","525 Washington St","02482",42.297951,-71.291622
"02481","Wellesley Hills","MA","Centennial Park","150 Oakland St","02481",42.308287,-71.26031
"02492","Needham","MA","Memorial Park, Needham","Highland Ave","not_available",42.28694467082654,-71.23414632318547
"02492","Needham","MA","Memorial Park","92 Rosemary St","02494",42.286603062348725,-71.23526589407372
"02492","Needham","MA","Perry Park","Beaufort Ave","not_available",42.281611506285415,-71.21698979742439
"02493","Weston","MA","Jerico Forest","not_available","02493",42.36951345300213,-71.31806440325899
"02493","Weston","MA","Burchard Park","Acorn","not_available",42.38187952389011,-71.31818039541344
"02532","Buzzards Bay","MA","Buzzard's Bay Recreation Area","Canal St","02532",41.74374075112006,-70.61339837733595
"02532","Buzzards Bay","MA","Bourne Scenic Park","370 Scenic Hwy","02532",41.75207458628978,-70.59089869551366
"02532","Buzzards Bay","MA","Herring Run Recreation Area","Canal Service Rd","not_available",41.74458448885104,-70.60270345850185
"02535","Chilmark","MA","Martha's Vineyard Agricultural Society","35 Panhandle Rd","02575",41.39179724566372,-70.67954946974986
"02535","Chilmark","MA","Polly Hill Arboretum","not_available","02535",41.39794722335753,-70.67862011774262
"02536","East Falmouth","MA","Cape Cod Fairgrounds","1220 Nathan Ellis Hwy","02536",41.61843490600586,-70.53520965576172
"02536","East Falmouth","MA","Falmouth Marina Park","180 Scranton Ave","02540",41.54856014626086,-70.6036794302704
"02536","East Falmouth","MA","Margaret E Noonan Park","Main St.","02540",41.5523015709015,-70.61520874500275
"02536","East Falmouth","MA","Mashpee Pickleball Park","162 Ashumet Rd","02649",41.652843,-70.502551
"02536","East Falmouth","MA","Falmouth Library Lawn","not_available","02540",41.5524464380257,-70.61364236517622
"02537","East Sandwich","MA","Davis Field","not_available","02537",41.737143935764244,-70.41989071455282
"02539","Edgartown","MA","cannonball park","not_available","02539",41.391244232278,-70.52152848921341
"02542","Buzzards Bay","MA","eaton statue","Rte 130","02563",41.75862503051758,-70.50096130371094
"02543","Woods Hole","MA","Woods Hole Waterfront Park","not_available","02543",41.525016514082424,-70.67251423026588
"02554","Nantucket","MA","Main St & Fair St Park","Main St","02554",41.282853804012184,-70.09978937449334
"02554","Nantucket","MA","Essex Park","43 Essex rd.","02554",41.2632942199707,-70.10498809814453
"02554","Nantucket","MA","Grace Grossman Environmental Center","180 Polpis Rd","02554",41.2934455871582,-70.04005432128906
"02554","Nantucket","MA","Middle Moors Serengeti","not_available","02554",41.26634,-70.025118
"02557","Oak Bluffs","MA","Ocean Park","Seaview Ave","02557",41.45681186622228,-70.55611215832849
"02557","Oak Bluffs","MA","Martha's Vineyard Camp Meeting Association Cottages","Butler Ave","02557",41.45534954222879,-70.55984014659691
"02557","Oak Bluffs","MA","Nashawena Park","not_available","02557",41.45055860623016,-70.56108345498187
"02557","Oak Bluffs","MA","Under The Linden Tree","Main Street","02568",41.455036,-70.60279
"02558","Onset","MA","Onset Band Shell","Waban Ave","not_available",41.742273037546205,-70.65884772758994
"02558","Onset","MA","in the park outsidelongwood ave homestead","not_available","02558",41.740787506103516,-70.66454315185547
"02563","Sandwich","MA","Sandwich Recreation Area","not_available","02563",41.771732316875976,-70.50535475377195
"02571","Wareham","MA","Great Neck Wildlife Sanctuary","not_available","02571",41.72675704956055,-70.6640625
"02601","Hyannis","MA","Veterans Memorial Park","Veterans Memorial Park","02601",41.64106075649575,-70.27845760227083
"02601","Hyannis","MA","Michael K. Aselton Memorial Park","at Ocean & South","02601",41.651234042586935,-70.2805531438884
"02601","Hyannis","MA","Hyannis Village Green","367 Main St","02601",41.65223885159345,-70.28279981188743
"02601","Hyannis","MA","Pleasant Street Park","not_available","02601",41.651534,-70.278461
"02601","Hyannis","MA","Stone Memorial Park","Main St","02601",41.648232,-70.292071
"02631","Brewster","MA","Drummer Boy Park","56-90 Drummer Boy Rd","02631",41.752445811043486,-70.1193086549058
"02631","Brewster","MA","wellfleet audobon Nature Center","not_available","02667",41.778710077172285,-69.9944263448599
"02631","Brewster","MA","Boland Pond","not_available","02653",41.784466,-69.993812
"02632","Centerville","MA","Armstrong-Kelley Park","not_available","02655",41.628472,-70.380462
"02633","Chatham","MA","Kate Gould Park","Main Street","02633",41.68041955584651,-69.95644285727926
"02633","Chatham","MA","Chase Park","Cross Street","02633",41.678591,-69.959821
"02633","Chatham","MA","The Chatham Labyrinth","not_available","02633",41.676164,-69.958485
"02633","Chatham","MA","Nickerson Park","Stage Harbor Road","not_available",41.682498931884766,-69.96187591552734
"02638","Dennis","MA","Dennis union Bandstand","not_available","02638",41.73771502599327,-70.19222294601083
"02639","Dennis Port","MA","Sea View Park","Lower County Rd","not_available",41.659935233604735,-70.1212702891122
"02642","Eastham","MA","Doane Rock","not_available","02642",41.84429756350263,-69.95778433521133
"02642","Eastham","MA","Windmill Park","Opp city hall","02642",41.83038236857857,-69.97470564826287
"02645","Harwich","MA","8 Sarakummitt","not_available","02646",41.675907,-70.051713
"02645","Harwich","MA","William D Hacker & Barbara Lang Hacker Wildlife Sanctuary","not_available","02645",41.698246341794025,-70.0827291414567
"02646","Harwich Port","MA","Doane Park","not_available","0264",41.667685,-70.079301
"02649","Mashpee","MA","Mashpee Veteran's Park","2 Great Neck Road North","02649",41.64891052246094,-70.4802017211914
"02653","Orleans","MA","Sea Call Farm","Tonset Rd","not_available",41.787482,-69.980079
"02657","Provincetown","MA","Pilgrims' First Landing Park","1 Commercial St","02657",42.03688166147077,-70.19670178114959
"02657","Provincetown","MA","Portugese Square","not_available","02657",42.05111394321087,-70.18718693027778
"02660","South Dennis","MA","Johnny Kelley Park","180 Old Bass River Rd","02660",41.701077551576326,-70.15986868620938
"02663","South Wellfleet","MA","Pilgrim Heights","Lieutenant Island Road","not_available",41.899804024390434,-70.01729838322935
"02664","South Yarmouth","MA","Flax Pond","not_available","02664",41.69184811114547,-70.18650220927894
"02664","South Yarmouth","MA","Peter Homer Park","144 Old Town House Rd","02664",41.6846452975182,-70.2171575188384
"02673","West Yarmouth","MA","GIOC Playground and Park","25 Broadcast Ln","02673",41.635159,-70.233386
"02673","West Yarmouth","MA","Horse Pond Conservation Area","off Higgins Crowell Rd","not_available",41.66601946908366,-70.23945808410645
"02702","Assonet","MA","Freetown State Forrest","not_available","02702",41.77803486893726,-71.04207824751022
"02702","Assonet","MA","Assonet Bandstand","South Main St.","02702",41.794737,-71.067087
"02702","Assonet","MA","Hathaway Park","Water Street","02702",41.793776432219786,-71.07373237609863
"02703","Attleboro","MA","Capron Park Zoo","202 County Street","02703",41.9372,-71.29398
"02703","Attleboro","MA","Capron Park","201 County St","02703",41.937321991774404,-71.29719682946583
"02703","Attleboro","MA","Lee's Pond Softball Complex","Gardner Ave","02703",41.90657014316368,-71.36823342584223
"02703","Attleboro","MA","Attleboro Common","not_available","02703",41.93932574750829,-71.28132919163974
"02703","Attleboro","MA","Allard Memorial Park","May Street","02703",41.925968,-71.358676
"02703","Attleboro","MA","3rd tee box","not_available","02760",41.943911,-71.368232
"02703","Attleboro","MA","Horton Field","Kendall Ave","not_available",41.95172309875488,-71.27593338489532
"02718","East Taunton","MA","Ashleigh Whitty Memorial Garden","41 Stevens St","02718",41.87456130981445,-71.0445785522461
"02719","Fairhaven","MA","Fort Taber Park","1000 S Rodney French Blvd","02744",41.594616232116465,-70.90250015258789
"02719","Fairhaven","MA","Cushman park","75-95 Main St","02719",41.6411228816189,-70.90311482022918
"02719","Fairhaven","MA","Hazelwood Parkk","brock ave","02744",41.60656999809075,-70.91380859968149
"02719","Fairhaven","MA","Mattapoisett Town Landing","Mattapoisett Neck Road","02739",41.648526973857976,-70.82492389256582
"02719","Fairhaven","MA","Livesey Park","Livesey Park","02719",41.658055165001585,-70.90801151402218
"02720","Fall River","MA","North Park","Seven Hills","02720",41.71553207903128,-71.14573644119872
"02720","Fall River","MA","Britland Park","not_available","02723",41.69633817355569,-71.1437868947592
"02720","Fall River","MA","Turner Park","not_available","02720",41.70718,-71.15768
"02720","Fall River","MA","Deucey's","Odd St","not_available",41.71117401123047,-71.15448760986328
"02720","Fall River","MA","Boxce Court","not_available","02726",41.731734,-71.161853
"02720","Fall River","MA","BCC Fitness Trail","1097-1299 Elsbree St","02720",41.72220106930394,-71.12114012456497
"02720","Fall River","MA","Outside Park","38 Meadow St","02720",41.705495,-71.158364
"02720","Fall River","MA","Columbus Park","95-105 Beattie St","02723",41.69888936549947,-71.13536776147986
"02720","Fall River","MA","Pierce Park","4052-4070 Riverside Ave","02726",41.76562614732497,-71.13362705009625
"02721","Fall River","MA","Kennedy Park","Broadway","02721",41.695243370579476,-71.17494816887684
"02721","Fall River","MA","Father Kelly Park","not_available","02724",41.68682250216048,-71.16953015327454
"02721","Fall River","MA","Maplewood","50 Chicago St","02721",41.679010999999996,-71.15299
"02721","Fall River","MA","Sandywood Farms","43 Muse Way","02878",41.62285232543945,-71.15071105957031
"02721","Fall River","MA","Peanut park","Pleasant street","02723",41.691384134946304,-71.13281853418057
"02721","Fall River","MA","Maplewood Park","Stafford Rd.","02721",41.680852939259616,-71.1542481879304
"02721","Fall River","MA","Tiverton Skate Park","not_available","02878",41.65011241320006,-71.14856210608994
"02724","Fall River","MA","JFK Memorial Park","intersection of middle and broadway","02721",41.67961087388161,-71.18202177941806
"02726","Somerset","MA","Somerset Waterfront Park","274 Main St","02726",41.769222,-71.125736
"02738","Marion","MA","Washburn Park","1Washburn Park Drive","not_available",41.722812209439894,-70.7694207863186
"02738","Marion","MA","aucoot woods","not_available","02738",41.69325637817383,-70.78311920166016
"02739","Mattapoisett","MA","Shipyard Park","Water Street","02739",41.65801287445512,-70.81291720198206
"02739","Mattapoisett","MA","Mattapoisett Skatepark","Route 6","02739",41.6712636352261,-70.8063945761778
"02739","Mattapoisett","MA","Salty The Seahorse","not_available","02739",41.664182,-70.812024
"02740","New Bedford","MA","Buttonwood Park","Hawthorn St.","02740",41.632240355675876,-70.95219836485286
"02740","New Bedford","MA","Clasky Common","706 County St","02740",41.64408084597461,-70.92995326846685
"02740","New Bedford","MA","Magnet Park","not_available","02740",41.63449,-70.934784
"02740","New Bedford","MA","Apponagansett Park","not_available","02748",41.635762719273494,-70.95724282536884
"02740","New Bedford","MA","Wings Court","Union st.","02740",41.634617093383724,-70.92539032721595
"02740","New Bedford","MA","Harrington park","Court St","02740",41.63363604699345,-70.94063477392008
"02743","Acushnet","MA","Riverside Park","338-368 Belleville Ave","02746",41.666887264087805,-70.92644094580514
"02743","Acushnet","MA","Brooklawn Park","not_available","02745",41.673373900370564,-70.9285483985687
"02743","Acushnet","MA","The Wall","Acushnet Ave","02745",41.70156076151511,-70.93045832388145
"02743","Acushnet","MA","White's Factory","Hamlin st.","02743",41.69612377557643,-70.91487680205631
"02744","New Bedford","MA","Jones Park","58 Saint John St","02748",41.606393,-70.932497
"02747","North Dartmouth","MA","gidley woods","not_available","02747",41.62960816706986,-70.98228429003647
"02747","North Dartmouth","MA","Copicut Woods","not_available","02790",41.709719822001134,-71.06970290363542
"02747","North Dartmouth","MA","Lincoln Park","890 State Rd","02747",41.66281400086537,-71.03662273893882
"02760","North Attleboro","MA","WWI Memorial Park & Zoo","401 Elmwood St","02760",41.99950381596403,-71.30615227217463
"02760","North Attleboro","MA","World War 1 Memorial Park","Elmwood St","02762",41.999484066175995,-71.30619125587167
"02760","North Attleboro","MA","Plainville Park","136 South St","02762",42.00562,-71.33694200000001
"02766","Norton","MA","Lewis Park","388 Harvey St","02780",41.942207,-71.14646
"02766","Norton","MA","Woodward Springs","62 Harvey Street","02780",41.93374738065109,-71.15355491638184
"02767","Raynham","MA","Taunton Green","not_available","02780",41.90140885694441,-71.09252665655349
"02767","Raynham","MA","Bruce Johnson, III Memorial Park","115 N Main St","02767",41.925795,-71.052915
"02767","Raynham","MA","The Weir Park","E Water St.","02780",41.89691998383245,-71.0915169371754
"02767","Raynham","MA","Hopewell Park","2d Hopwell St","02780",41.91281631865396,-71.09407604863189
"02767","Raynham","MA","Taunton Center","Taunton Green","02767",41.901965613044126,-71.093430519104
"02771","Seekonk","MA","Slater Memorial Park","401 Newport Ave.","02861",41.8705373264257,-71.34526357346141
"02771","Seekonk","MA","Slater Park","426 Newport Ave","02861",41.872047,-71.344154
"02771","Seekonk","MA","Seekonk Meadows","Newman Avenue","not_available",41.853020625694114,-71.33083820343018
"02771","Seekonk","MA","winter wonderland Slater Park","not_available","02861",41.88373926427665,-71.33989928938375
"02771","Seekonk","MA","Slater Park","not_available","02916",41.852094799127855,-71.34700332456359
"02777","Swansea","MA","Veterans Memorial Park","not_available","02806",41.736166,-71.312391
"02777","Swansea","MA","Burrs Hill Park","540 Water St","02885",41.722740173339844,-71.28437042236328
"02777","Swansea","MA","Jamiel's Park","150 Market Street","02885",41.731377321003365,-71.27679211718981
"02777","Swansea","MA","Swansea Dam","not_available","02777",41.74853979415254,-71.21474764567643
"02777","Swansea","MA","Warren Fire Memorial Park - Town Common","State St","02885",41.72989,-71.28374
"02777","Swansea","MA","Cedar Crest Park","Fatima Drive","not_available",41.70447,-71.262507
"02777","Swansea","MA","Highest Point in Bristol RI","6 Kathy Ct","02809",41.693443298339844,-71.2612533569336
"02779","Berkley","MA","Berkley Bridge Village Heritage Park","Elm St","not_available",41.834437762101516,-71.1069917678833
"02779","Berkley","MA","Dimarco's","not_available","02779",41.865052,-71.098663
"02790","Westport","MA","Mass Audubon Allens Pond Wildlife Sanctuary","1280 Horseneck Rd","02790",41.50711841357416,-71.02346786881353
