"zip","city","state","name","address","postalCode","lat","lon"
"87002","Belen","NM","Las Maravillas","artissima","87031",34.729662706905145,-106.67642167550707
"87004","Bernalillo","NM","Loma Colorado Park","not_available","not_available",35.26624043646974,-106.6587073180208
"87004","Bernalillo","NM","City of Bernalillo","not_available","87004",35.31878163029978,-106.5491511378701
"87004","Bernalillo","NM","King Meadows Park","Rio Rancho","87144",35.294710993766785,-106.61467552185059
"87004","Bernalillo","NM","Football practice","300-424 Copper Dr NE","87124",35.26374287,-106.64085904
"87004","Bernalillo","NM","High Range Dog Park","1901 40th St NE","87144",35.28936514644577,-106.65777325630188
"87004","Bernalillo","NM","La Entrada Park","not_available","87048",35.223106384277344,-106.61722564697266
"87004","Bernalillo","NM","navy seals training park","not_available","87124",35.26311111450195,-106.65809631347656
"87004","Bernalillo","NM","Coronado State Monument","485 Kuaua Rd","not_available",35.329946,-106.55683300000001
"87004","Bernalillo","NM","RIO RANCHO SOCCER FIELD","Vista Larga Pl NE","87124",35.25692403316498,-106.66354537010193
"87013","Cuba","NM","Angel Peak Picnic Area","Country rd 7175","87413",36.527982,-107.893949
"87013","Cuba","NM","Havasu Park 3535","3535 Havasu Falls","87144",35.319696508101536,-106.71012380681324
"87015","Edgewood","NM","Crosley Park","not_available","87035",35.00381517077018,-106.2404784000556
"87015","Edgewood","NM","Stanley New Mexico","not_available","87070",35.14772,-105.97762399999999
"87015","Edgewood","NM","Wildlife West Nature Park","87 N Frontage Rd","87015",35.071537017822266,-106.2026138305664
"87016","Estancia","NM","Arthur Park","not_available","87016",34.755601319371685,-106.05825159448484
"87020","Grants","NM","Fire and Ice Park","Santa Fe Ave","87020",35.15347435461473,-107.86777310079349
"87020","Grants","NM","Wells Park","Sakalares Ave.","87020",35.154975,-107.818376
"87024","Jemez Pueblo","NM","Hummingbird Music Camp","104 Hummingbird Rd","87025",35.82436,-106.6607
"87024","Jemez Pueblo","NM","Father Fitzgerald Memorial Park","not_available","87025",35.771515,-106.690601
"87031","Los Lunas","NM","Los Lunas Little League","not_available","87031",34.8125414,-106.7510895
"87031","Los Lunas","NM","River Park","Main St NE","87031",34.80323076076743,-106.71560025704471
"87031","Los Lunas","NM","Huning Ranch Park","Sundance","87031",34.81356513535705,-106.77360941767017
"87031","Los Lunas","NM","Main Street Memorial Park","Main St.","87031",34.81079864501953,-106.74163818359375
"87031","Los Lunas","NM","Cypress Garden","Cypress Garden E15","not_available",34.790977478027344,-106.66158294677734
"87048","Corrales","NM","River Walk at Puerta De Corrales","3405 Calle Cuervo NW","87114",35.207812,-106.647241
"87048","Corrales","NM","Grassy spot","not_available","87113",35.198420765070765,-106.59458597336496
"87064","Youngsville","NM","Ghost Ranch","280 Private Drive 1708 US HWY 84","87510",36.34283447265625,-106.46814727783203
"87102","Albuquerque","NM","Tiguex Park","1800 Old Town Rd NW","87104",35.0965268849896,-106.66630268096924
"87102","Albuquerque","NM","Robinson Park","not_available","87102",35.08568989284112,-106.65662762377164
"87102","Albuquerque","NM","Roosevelt Park","501-599 Spruce St SE","87106",35.07695232001176,-106.63254681471514
"87102","Albuquerque","NM","Mary fox park","not_available","87104",35.090653770340346,-106.66209698102966
"87102","Albuquerque","NM","Jesse Pinkman's House","322 16th St SW","87104",35.08735748226371,-106.66567723800483
"87102","Albuquerque","NM","Duck Pond","Yale Blvd. SE","87106",35.08503108746184,-106.6221853473874
"87102","Albuquerque","NM","Dennis Chavez Community Center & Park","715 Kathryn Ave SE","87102",35.066745902487156,-106.64032816886902
"87102","Albuquerque","NM","Kirtland Dog Park","not_available","87106",35.053883,-106.63249
"87102","Albuquerque","NM","National Hispanic Cultural Center","1701 4th St SW","87102",35.06873950743979,-106.65570072524268
"87102","Albuquerque","NM","Manzano Day School","1801 Central Ave NW","87104",35.091855,-106.666113
"87102","Albuquerque","NM","South Broadway Park","264 Garfield Ave SE","not_available",35.075419891238695,-106.6448315511589
"87102","Albuquerque","NM","City View Park","off copper","87123",35.09919019039173,-106.61530100223577
"87102","Albuquerque","NM","Spruce Park","500 Spruce St","not_available",35.085305806302905,-106.63027259468147
"87102","Albuquerque","NM","Wells Park","1100-1198 6th St NW","87102",35.09542085070751,-106.65234434927427
"87104","Albuquerque","NM","ABQ BioPark Tingley Beach","1800 Tingley Dr SW","87104",35.08549200674354,-106.67378459316252
"87104","Albuquerque","NM","Kit Carson Park","1744 Kit Carson Ave NW","87106",35.08182977968027,-106.66824009625854
"87104","Albuquerque","NM","Matthew Meadows Park","3300 Mateo Prado NW","87107",35.11902618408203,-106.66144561767578
"87104","Albuquerque","NM","Valley Neighborhood Park","Valley Pool Rd","87107",35.12696813527816,-106.66370327094701
"87105","Albuquerque","NM","Embudo Hills Park","not_available","87112",35.09175896791455,-106.48757493062631
"87105","Albuquerque","NM","Alvarado Park","5601-5699 Hannett Ave NE","87110",35.098855555593296,-106.58166527119681
"87105","Albuquerque","NM","Hardin Field","2nd St SE","87117",35.05740025129431,-106.5506486027375
"87105","Albuquerque","NM","Manzano Mesa Park","not_available","87123",35.06576525333593,-106.52667036881624
"87105","Albuquerque","NM","Pat Hurley Park","not_available","87105",35.089267823666574,-106.69835364259121
"87105","Albuquerque","NM","Morningside Park","not_available","87108",35.077556978096815,-106.60086581254168
"87105","Albuquerque","NM","USS Bullhead Memorial Park","Randolph Rd SE","87108",35.05226611419765,-106.5802437536565
"87105","Albuquerque","NM","Phil Chacon Park","7505 Kathryn Ave SE","87108",35.065120697021484,-106.56495666503906
"87105","Albuquerque","NM","Inez Park","2001-2099 Wisconsin St NE","87112",35.10496822892904,-106.5520743301124
"87105","Albuquerque","NM","Altura Park","4101 Hannett Ave NE","87110",35.0982059668306,-106.5996623814551
"87105","Albuquerque","NM","Singing Arrow Park","13098 Piru Blvd","87123",35.064198787289335,-106.49946877428107
"87105","Albuquerque","NM","Crestview Heights Park","Chandelle Ct","87112",35.101249886460536,-106.4982951801861
"87106","Albuquerque","NM","Rio Bravo Park","not_available","87121",35.02353010081521,-106.63894238974927
"87106","Albuquerque","NM","Bataan Memorial Park","748 Tulane Dr NE","87106",35.08829254753622,-106.60593152046204
"87106","Albuquerque","NM","Hidden Park","Mackland","not_available",35.090522396913286,-106.60278797149658
"87107","Albuquerque","NM","Los Poblanos Open Space","5601 Tierra Viva Pl NW","87107",35.142910586738175,-106.65778481318158
"87107","Albuquerque","NM","Grecian Park","Grecian drive nr","not_available",35.146366235576274,-106.64402949568019
"87107","Albuquerque","NM","Pirate Ship Park","not_available","87107",35.13952004124345,-106.65182621694063
"87107","Albuquerque","NM","Mike King Memorial Park","not_available","87109",35.13005871,-106.60665512
"87108","Albuquerque","NM","Vail Park","Crest St","87108",35.05422673333333,-106.5937466
"87108","Albuquerque","NM","La Mesa Park","402 Espanola St NE","87108",35.08190441243468,-106.5638998569184
"87108","Albuquerque","NM","Wilson Park","6000 Anderson Ave SE","87108",35.06340789794922,-106.57918548583984
"87108","Albuquerque","NM","Marquez Park","Gibson Ave","87116",35.05745989786478,-106.55723029437429
"87109","Albuquerque","NM","Sister Cities Park","6401 Mc Kinney Dr NE","87109",35.1524386638113,-106.57844241095174
"87109","Albuquerque","NM","Loma Del Norte Park","Loma Del Norte","87109",35.1645844504144,-106.56355457678582
"87109","Albuquerque","NM","Rotary Park","Quintana & Wallace","87109",35.16968779936996,-106.53889151084167
"87109","Albuquerque","NM","Heritage Hills Park","Ventura and Harper NE","87109",35.159538602261925,-106.54382274491955
"87109","Albuquerque","NM","Park","2000-2098 San Mateo Blvd NE","87110",35.14747675889311,-106.58302924627179
"87109","Albuquerque","NM","Osuna Park","4715 Moon St NE","87111",35.135398864746094,-106.54253387451172
"87109","Albuquerque","NM","Stardust Park","Stardust Skies Park","87110",35.127603639901935,-106.56178790216723
"87109","Albuquerque","NM","USFS","3900 Masthead St NE","87109",35.165787,-106.59940800000001
"87110","Albuquerque","NM","Montgomery Park","not_available","87110",35.12538452476606,-106.58362203139026
"87110","Albuquerque","NM","Snow Heights Park","7840 Constitution Ave NE","87110",35.094152,-106.558651
"87110","Albuquerque","NM","Villa Park","Monroe","87110",35.12154523175382,-106.58912407619323
"87110","Albuquerque","NM","Grisham Park","3101-3199 Tiley Dr NE","87110",35.11853082339783,-106.59781898814315
"87110","Albuquerque","NM","Zuni Park","Cutler Ave NE","87110",35.10749803206471,-106.56375023545914
"87110","Albuquerque","NM","Jerry Cline Park","7205 Constitution Ave NE","87110",35.09483355886579,-106.56553994516182
"87111","Albuquerque","NM","Matheson Park","Los Arobles","87112",35.112147614990654,-106.52280393929318
"87111","Albuquerque","NM","Lynwood Park","12308 Lexington Ave NE","87112",35.11565833947821,-106.50264033178102
"87111","Albuquerque","NM","Academy Hills Park","1004 Academy Hills Drive","not_available",35.14946162009791,-106.52789590359512
"87111","Albuquerque","NM","El Oso Grande Park","Osuna Rd NE","87111",35.13595751865155,-106.52361519321624
"87111","Albuquerque","NM","Big Sky Hang Glider Park","10802 Wilshire Ave NE","87122",35.181434,-106.51707
"87111","Albuquerque","NM","Ernie Taylor Park","not_available","87111",35.13462448120117,-106.5286865234375
"87111","Albuquerque","NM","Summer Hills Park","Summer Ave NE","87112",35.11325563331034,-106.51595155664091
"87111","Albuquerque","NM","Sunset Canyon Park","Larchmont NE","87110",35.1347977,-106.4950936
"87111","Albuquerque","NM","Holiday Park","11794-11998 Comanche Rd NE","87111",35.12295778693786,-106.50900997475368
"87111","Albuquerque","NM","Vista Sandia Equestrian Park","11809 Pino NE","87122",35.168476080531754,-106.50738716125488
"87111","Albuquerque","NM","Little Cloud Park","1850 San Bernardino Dr NE","87122",35.17174654445222,-106.4949815379858
"87112","Albuquerque","NM","Wade Park","1041-1169 Wade Cir NE","87112",35.08843328084974,-106.53340908065174
"87112","Albuquerque","NM","Snow Park","9501 Indian School Rd NE","87112",35.1024284362793,-106.53836059570312
"87112","Albuquerque","NM","Jeanne Bellemah Park","11401-11599 Rosemont Ave NE","87112",35.09363876514467,-106.52190902242943
"87113","Albuquerque","NM","Balloon Fiesta Park","4401 Alameda Blvd NE","87113",35.19608670655655,-106.59511547972751
"87113","Albuquerque","NM","North Domingo Baca Dog Park","7520 Corona Avenue Northeast, Albuquerque, NM","87113",35.17962103807052,-106.56452171853587
"87113","Albuquerque","NM","Wildflower Park","9201 San Mateo Blvd NE","87113",35.191407,-106.589002
"87113","Albuquerque","NM","North Valley Bike Park","not_available","87114",35.19202036542053,-106.61395409078335
"87114","Albuquerque","NM","Stonebridge Community Park","Stonebridge Drive NW","87114",35.21495009904845,-106.69082705640425
"87114","Albuquerque","NM","D-Park","9930-9940 Chantilly Rd NW","87114",35.19262056,-106.67036890983582
"87114","Albuquerque","NM","Tres Placitas Park","10600 Pueblo Pl NW","87114",35.209903717041016,-106.66669464111328
"87114","Albuquerque","NM","Hunters Run Park","10300 Chandler","87114",35.19950911693584,-106.6693282574564
"87114","Albuquerque","NM","Las Terrazas Park","6900 Terrazas Rd NW","87114",35.19790267944336,-106.73417663574219
"87116","Albuquerque","NM","Millennium Park","not_available","87116",35.06406703248062,-106.53970282621461
"87120","Albuquerque","NM","Mariposa Basin Park","6401 Taylor Ranch Rd Nw","87120",35.15864799668531,-106.69470870475216
"87120","Albuquerque","NM","Montecito Estates Park","not_available","87120",35.163534,-106.732908
"87120","Albuquerque","NM","The Mail Box","Storyteller","87120",35.13963341771193,-106.70906423593209
"87120","Albuquerque","NM","Valle Del Bosque Park","480 Sunset Rd SW","87105",35.074608000000005,-106.67240600000001
"87120","Albuquerque","NM","Redlands Park","5211 Sequoia Rd NW","87120",35.122772,-106.69858799999999
"87121","Albuquerque","NM","Westgate Community Park","Cartegena Ave SW","87121",35.04518450898575,-106.74392908850686
"87121","Albuquerque","NM","East Atrisco Kimbar Park","Miami Rd","not_available",35.109253547208525,-106.713100997905
"87121","Albuquerque","NM","El Rancho 17 Park","Amole Mesa Ave SW","87121",35.037723,-106.746561
"87121","Albuquerque","NM","Santa Fe Village Park","5700 Bogart St NW","87120",35.14137538120001,-106.71635138250642
"87122","Albuquerque","NM","Vineyard Park","8300 Mendocino NE","87122",35.18529193081245,-106.54656105809062
"87122","Albuquerque","NM","W.L. Jackson Park","Cedar Hill","87122",35.182794873315046,-106.495326706619
"87124","Rio Rancho","NM","Sugar Park","500 Sugar Road","87124",35.252906,-106.709481
"87124","Rio Rancho","NM","Strawberry Drive Park","North Hills","not_available",35.29493717460049,-106.71529504646176
"87124","Rio Rancho","NM","A Park Above","2441 Westside Blvd","87124",35.221695451207694,-106.68505250308169
"87124","Rio Rancho","NM","Star Hights Rec Center","805 Polaris Blvd SE","87124",35.247249603271484,-106.70296478271484
"87144","Rio Rancho","NM","Mariposa Park","not_available","87144",35.363846,-106.68788
"87301","Gallup","NM","Bubany Park","not_available","87301",35.53516561531144,-108.74570770158725
"87301","Gallup","NM","Ford Canyon Park","1000-1098 E Buena Vista Ave","87301",35.520598642876514,-108.72296427258054
"87301","Gallup","NM","Mentmore Climbing Mecca","county road 1","87301",35.51171149854848,-108.87041723202212
"87401","Farmington","NM","Puesta Del Sol Park","not_available","87401",36.751945761404436,-108.21426257080658
"87401","Farmington","NM","Rio Vista Upper Shelter Park","2698 N Huntzinger Ave","87401",36.75312805175781,-108.17613220214844
"87401","Farmington","NM","Vietnam Veterans Park","3801 North Butler","not_available",36.76215535065003,-108.19182608999681
"87401","Farmington","NM","The Mark","3700 English Rd","87402",36.76331329345703,-108.14796447753906
"87401","Farmington","NM","vista de la plata","5190 W Comanche St, Farmington, NM 87401","87401",36.73569107055664,-108.27655029296875
"87401","Farmington","NM","Aspen Mobile Home Service & Transporting","322 Road 5500","87413",36.675549,-108.063228
"87401","Farmington","NM","Kiwanis Park","3540 E. 30th st.","87402",36.7602424621582,-108.15974426269531
"87401","Farmington","NM","Sandalwood park","not_available","87402",36.78789027284928,-108.14785540723751
"87401","Farmington","NM","Brookside Park","1501 N Dustin Ave.","87401",36.74593954099762,-108.20538972182992
"87401","Farmington","NM","Animas Park","100 N Browning Pkwy","87401",36.73373861282044,-108.17020771141175
"87401","Farmington","NM","Riverside Park","S. Lightplant Rd.","87410",36.82239815323084,-108.0082361707039
"87401","Farmington","NM","Becklandhills Park","3000-3204 Windsor Dr","87402",36.76771521440653,-108.15864917215052
"87401","Farmington","NM","U.S. West Park","407 N Allen","not_available",36.733556240930646,-108.20707508090645
"87410","Aztec","NM","capwells","D","87410",36.82576547242216,-107.99395769293021
"87410","Aztec","NM","Minnium Park","not_available","87410",36.82430718163829,-107.99502262294837
"87410","Aztec","NM","Capwalls Park","801 Lovers Lane","87410",36.823490142822266,-107.98536682128906
"87413","Bloomfield","NM","Salmon Park","not_available","87413",36.712909225255125,-107.98481334029142
"87416","Fruitland","NM","Lion's Park Kirtland","County Road 6255","87417",36.72194072,-108.32599585
"87501","Santa Fe","NM","Fort Marcy Recreation Complex","490 Bishops Lodge Rd","87501",35.6944208177957,-105.93543537768045
"87501","Santa Fe","NM","Cathedral Park","213 Cathedral Pl","87501",35.68714087348368,-105.9366072412004
"87501","Santa Fe","NM","Patrick Smith Park","not_available","87501",35.68005201447712,-105.9195832849823
"87501","Santa Fe","NM","Frank S. Ortiz Dog Park","160 Camino de Las Crucitas","87501",35.69559236060241,-105.96586523165699
"87501","Santa Fe","NM","Zozobra","254-350 Murales Rd","87501",35.69555487656139,-105.93426509621334
"87501","Santa Fe","NM","Railyard Park","not_available","87505",35.68047898689177,-105.94989812932526
"87501","Santa Fe","NM","Frenchy's Park","not_available","87507",35.68065013685188,-105.98113936581913
"87501","Santa Fe","NM","Hillside Park","600 paseo de peralta","87501",35.69282796063464,-105.93273915183966
"87501","Santa Fe","NM","John F. Griego Vietnam Veterans Memorial Park","1598-1698 Pso De La Conquistadora","87501",35.68307346666667,-105.97054013333333
"87501","Santa Fe","NM","Torreon Park","103 Sam St","87501",35.684915000000004,-105.96899599999999
"87507","Santa Fe","NM","Turquoise Trail Sports Park","not_available","87508",35.58937154991141,-106.0510462090086
"87510","Abiquiu","NM","Cebola National Forest","not_available","87518",36.538950142136635,-106.4893496163155
"87510","Abiquiu","NM","Echo Amphitheater","not_available","87510",36.3590925191741,-106.52462985728853
"87529","El Prado","NM","Sunset Park","not_available","87571",36.412085514371704,-105.57486275910868
"87532","Espanola","NM","Ranchitos","601-799 Cll Ranchitos","87532",36.018220180695494,-106.06030091872654
"87544","Los Alamos","NM","Ashley Pond","not_available","87544",35.8812113156511,-106.30251264399693
"87556","Questa","NM","Mallette Park","not_available","87558",36.70857233411543,-105.40694804928575
"87556","Questa","NM","Hollywood Terrain Park","400 Pioneer Road","87558",36.707427,-105.411222
"87571","Taos","NM","Kit Carson Park","Las Milpas","87571",36.408981390428835,-105.57082639144795
"87571","Taos","NM","Rio Fernando Park","410 La posta","87571",36.399922,-105.586905
"87701","Las Vegas","NM","Lincoln Park","not_available","87701",35.59304531860309,-105.21637547984318
"87701","Las Vegas","NM","Melody Park @NMHU","11th St","87701",35.597822608814745,-105.22287184786126
"87740","Raton","NM","Romero Park","not_available","87740",36.901835,-104.426383
"87743","Roy","NM","Roy Village Park","not_available","87743",35.945233,-104.195033
"87747","Springer","NM","Springer Park","not_available","87747",36.363524,-104.599441
"87801","Socorro","NM","Sedillo Park","1004 El Camino Real","87801",34.06922706661638,-106.89813137054443
"87825","Magdalena","NM","Parque Ecologico Marbella","Magdalena","87825",34.1167305,-107.2439251
"87901","Truth Or Consequences","NM","Ralph Edwards Fish Pond","not_available","87901",33.12862408399373,-107.24951104264514
"87901","Truth Or Consequences","NM","Ralph Edwards Park","199 Cedar Street","87901",33.12914185456292,-107.24862098693846
"87901","Truth Or Consequences","NM","Stallion Campground","not_available","87971",32.906901,-107.308149
"88001","Las Cruces","NM","Veteran's Memorial Park","2651 N Roadrunner Pkwy","88011",32.3388867140501,-106.75148783991924
"88001","Las Cruces","NM","Desert Trails Community Park - Sonora Springs Entrance","Sonora Springs RD","88011",32.344714432934744,-106.74037559601078
"88001","Las Cruces","NM","Pioneer Womans Park","Alameda Historic District","not_available",32.310424246153545,-106.78470053506308
"88001","Las Cruces","NM","Young Park","Young Park St","88001",32.308331207768724,-106.7547743623264
"88001","Las Cruces","NM","Klein Park","155 N Mesquite St","88001",32.310821533203125,-106.77474212646484
"88001","Las Cruces","NM","Copperstone Splash Park","2775 N Roadrunner Pkwy","88011",32.341453552246094,-106.7557373046875
"88001","Las Cruces","NM","Precadio Park","682-842 Gregg St","88003",32.27799534069248,-106.75163118002779
"88001","Las Cruces","NM","spitz park","not_available","88005",32.338883453020735,-106.78483056665675
"88001","Las Cruces","NM","Meerscheidt Futbol Fields","not_available","88001",32.31518339852576,-106.76445664924347
"88001","Las Cruces","NM","Camunez Park","935 S Valley Dr","88005",32.297340393066406,-106.78787231445312
"88001","Las Cruces","NM","Country Club Estates Park","Las Cruces,NM,88005","88005",32.3199396,-106.7636538
"88001","Las Cruces","NM","Frenger Park & Soccer Fields","1819 E Park Dr","88001",32.29207456111908,-106.7620038986206
"88001","Las Cruces","NM","Albert Johnson Park","S Main St, Las Cruces, NM 88007","88007",32.3159343967782,-106.77958282373297
"88001","Las Cruces","NM","Pioneer Park","329 N Miranda St","88005",32.31037428333333,-106.784624
"88005","Las Cruces","NM","Mesilla Valley Corn Maze and Pumpkin Patch","3855 W Picacho Ave","88007",32.30602339700124,-106.83676242828369
"88005","Las Cruces","NM","La Llorena Park","3479 W Picacho Ave","88007",32.31045752011525,-106.82689182606151
"88005","Las Cruces","NM","Four Hills Park","not_available","88012",32.35909588301317,-106.76278050640256
"88007","Las Cruces","NM","Leasburg State Park Visitors Office","not_available","88007",32.49269633188672,-106.91828283965413
"88008","Santa Teresa","NM","Marwood Park","Roxbury Dr","79922",31.821365384549356,-106.57383840890951
"88008","Santa Teresa","NM","West Green Park","West Green","79932",31.866094879925885,-106.59428427416704
"88008","Santa Teresa","NM","Montoya Park","not_available","79932",31.87884740496327,-106.5873053930727
"88008","Santa Teresa","NM","White Spur Park","4851-4899 Charl Ann St","79922",31.837002745956223,-106.57871106801969
"88008","Santa Teresa","NM","Sunland Park Sports Complex","4612 Mnutt rd","88063",31.831443858162466,-106.61084586563847
"88008","Santa Teresa","NM","Sunland Park Skate Plaza","4700 McNutt","not_available",31.831522,-106.61101
"88008","Santa Teresa","NM","Esmeralda Park","720 Esmeralda Armendariz Ave","79932",31.882554236511574,-106.61883524569915
"88008","Santa Teresa","NM","The Bartlett Park","not_available","79912",31.844553,-106.56661799999999
"88008","Santa Teresa","NM","YWCA Pool","not_available","79922",31.820046659016857,-106.57692307934659
"88008","Santa Teresa","NM","River Park Trail","El Paso,TX,79932","79932",31.86619677208714,-106.62131040173526
"88008","Santa Teresa","NM","Laguna Meadows Park","Villa de los arboles","79932",31.874857695403513,-106.6135051221652
"88008","Santa Teresa","NM","Valley Creek Park","Gomez RD","not_available",31.88435,-106.58817
"88008","Santa Teresa","NM","Mary Frances Keisling Park","651 Gomez Rd","79932",31.864129,-106.608774
"88011","Las Cruces","NM","Highway 70","Las Cruces, NM","88011",32.37474237006811,-106.73698425292969
"88021","Anthony","NM","Cimarron Park","Brays Landing","not_available",31.885888720943658,-106.56210322590906
"88021","Anthony","NM","Anthony park","not_available","88021",31.999115391316302,-106.59456295137875
"88021","Anthony","NM","mesquite community center","not_available","88048",32.16758728027344,-106.69799041748047
"88021","Anthony","NM","Richard White Park","100 Richard White Rd","not_available",31.999214,-106.59402
"88021","Anthony","NM","Rio Grande","not_available","88008",31.817171847993333,-106.55798413440579
"88022","Arenas Valley","NM","Bataan Memorial Park","Cll De Las Palomas","88022",32.7855930200156,-108.15601439395166
"88023","Bayard","NM","Bayard Mining Park","Central Ave.","88023",32.760536,-108.13067
"88029","Columbus","NM","Pancho Villa State Park","400 West Highway 9","88029",31.82721728341476,-107.6411013997664
"88030","Deming","NM","Luna County Courthouse Square","Ash St","88030",32.26239099024396,-107.75699655310234
"88030","Deming","NM","Chicano Park","not_available","88030",32.26586999048845,-107.75176881638731
"88030","Deming","NM","Veterans Park","S Silver Ave.","88030",32.26629,-107.75684
"88030","Deming","NM","Girl Scout Park","nickel","88030",32.259752516666666,-107.76448983333333
"88061","Silver City","NM","Tiny No Name Park","E Valle Dr.","88061",32.786716,-108.26259
"88061","Silver City","NM","Big Ditch Park","N Main St","88061",32.771408741510086,-108.2756378576903
"88061","Silver City","NM","virginia street park","not_available","88061",32.783592224121094,-108.28068542480469
"88061","Silver City","NM","Noble Park","W Market Street","not_available",32.77185961666667,-108.28673456666667
"88061","Silver City","NM","Gough Park","101-199 E 12th St","88061",32.77801042721852,-108.27530187232752
"88063","Sunland Park","NM","Paul Harvey Park","De Leon Drive","79912",31.827429068427303,-106.54040481789907
"88063","Sunland Park","NM","snow heights park","6300 fountain rd.","79912",31.837673026287185,-106.53035274814768
"88063","Sunland Park","NM","Buena Vista Park","Mesquite, El Paso, TX 79922","79922",31.808750976154393,-106.53739547642382
"88063","Sunland Park","NM","Dakota Ridge Park","Dakota Ridge","not_available",31.87758871544796,-106.5455317290054
"88063","Sunland Park","NM","Pat O'Rourke Memorial Bike/Walk Park","Resler","79912",31.86596601334493,-106.54924320630585
"88063","Sunland Park","NM","Delgado Park","7020 Imperial Ridge Dr.","79912",31.864608764648438,-106.55239868164062
"88081","Chaparral","NM","RV Park","not_available","88342",32.379364013671875,-106.08358001708984
"88081","Chaparral","NM","Chaparral Park","East Lisa Drive","88081",32.03848474965478,-106.40349984169006
"88101","Clovis","NM","Dennis Chavez Park","not_available","88101",34.41263849914998,-103.21770089205465
"88101","Clovis","NM","Dickenson Park","2053-2077 E 14th St","88101",34.41140055656433,-103.18114757537842
"88101","Clovis","NM","Greene Acres Park","Greene Acres Park","88101",34.41659383434462,-103.21267725680184
"88101","Clovis","NM","Doc Stewart Park","7500-7522 Florida Loop","88101",34.40816552024076,-103.3259191791935
"88119","Fort Sumner","NM","Bosque Redondo Park","not_available","88119",34.432242,-104.213685
"88124","Melrose","NM","Baxter Memorial Park","not_available","88124",34.424658,-103.625955
"88130","Portales","NM","Portales City Park","East 9th Street","88130",34.18253600365391,-103.32961320877075
"88130","Portales","NM","Parque VÃ­ctor Hugo","Portales","88130",34.186192,-103.334398
"88130","Portales","NM","Rotary Park","210-298 S Avenue K","88130",34.17151561380458,-103.34506531063795
"88201","Roswell","NM","Spring River Zoo","1306 E College Blvd","88201",33.40791383498481,-104.50359504054438
"88201","Roswell","NM","Altrusa Park","S Washington Ave","88201",33.386111,-104.53065
"88201","Roswell","NM","Kumbia Kings","not_available","88201",33.396667,-104.536476
"88201","Roswell","NM","Carpenter Park","SE Main","88203",33.374135,-104.518262
"88201","Roswell","NM","Bottomless Lakes State Park","545 A Bottomless Lakes Rd","88201",33.31854986328413,-104.33067547584969
"88201","Roswell","NM","West Side Base Park","not_available","88203",33.3177,-104.5326
"88210","Artesia","NM","eagle draw park","Mahone","not_available",32.84541702270508,-104.40105438232422
"88210","Artesia","NM","Navajo Nature Trail","JJ Clarke Drive","not_available",32.846167,-104.418613
"88210","Artesia","NM","Artesia skatepark","not_available","88210",32.85039427,-104.41065807
"88220","Carlsbad","NM","Lula Mae's","not_available","88220",32.4477692995968,-104.24476927509512
"88220","Carlsbad","NM","Frijole Ranch Cultural Center","not_available","79847",31.894218211103244,-104.8219237653847
"88240","Hobbs","NM","Lincoln Park","not_available","88240",32.740025689457575,-103.15309863424132
"88240","Hobbs","NM","Harry McAdams","5420-5494 State Park Rd","88240",32.773002053232396,-103.20525549236802
"88260","Lovington","NM","Ave D Park","not_available","88260",32.944032,-103.357749
"88301","Carrizozo","NM","Smokey Bear Historical Park","118 Smokey Bear Blvd","not_available",33.545867546644125,-105.57430526872426
"88301","Carrizozo","NM","Lincoln National Forest @ Lake Bonito","not_available","88341",33.45506957121174,-105.73457554184134
"88301","Carrizozo","NM","Valley Of Fires","Valley of the Fires State Park","88341",33.597363,-105.964411
"88301","Carrizozo","NM","Lincoln National Park","not_available","88324",33.39830204561985,-105.5090385347544
"88310","Alamogordo","NM","Kids Kingdom Park","not_available","88310",32.913784,-105.94426973
"88310","Alamogordo","NM","Cloudcroft Pavilion","not_available","88317",32.957237,-105.73752
"88310","Alamogordo","NM","Tiny Park","l","not_available",32.89174627005009,-105.93147557489627
"88310","Alamogordo","NM","Zenith Park","James Canyon Highway 82","not_available",32.957203217829694,-105.7358980178833
"88312","Alto","NM","Recreation Village RV & Mobile Home Park","717 White Mountain Dr","88345",33.367408752441406,-105.66522216796875
"88336","Hondo","NM","Billy The Kid Rest Area","Hwy 380","88336",33.39058047685057,-105.27403454710816
"88340","Mescalero","NM","Wingfield Park","not_available","88345",33.33026077229362,-105.67318366730008
"88340","Mescalero","NM","Kids Korral","800 Sudderth Dr","88345",33.324031829833984,-105.65557098388672
"88340","Mescalero","NM","Nine Acre Park","Wingfield St","88345",33.32943499088287,-105.67371368408203
"88340","Mescalero","NM","Riverside Park","not_available","88346",33.332472,-105.596947
"88340","Mescalero","NM","Lincoln Creek Parkway Park","Lincoln Creek Parkway Park","88346",33.3330688,-105.5842377
"88401","Tucumcari","NM","Dunn Park","not_available","88401",35.15645817325799,-103.72888556700548
"88435","Santa Rosa","NM","Power Dam Falls","not_available","88435",34.926765,-104.68013
"88435","Santa Rosa","NM","Blue Hole","7 S 6th St","88435",34.940446887183896,-104.67323899269104
