"zip","city","state","name","address","postalCode","lat","lon"
"05001","White River Junction","VT","Quechee Village Green","1 Village Grn","not_available",43.64757143867968,-72.42188481987085
"05001","White River Junction","VT","Kilowatt Park","2-352 Wilder Dam Rd","05001",43.67644624163584,-72.3050910719794
"05001","White River Junction","VT","Clifford Park","100 Recreation Drive","05001",43.70781326293945,-72.41785430908203
"05001","White River Junction","VT","River Park West Lebanon","not_available","not_available",43.656113,-72.30819
"05001","White River Junction","VT","Veteran Memorial Park","12 Railroad Row","not_available",43.64967346191406,-72.31841278076172
"05001","White River Junction","VT","Trueâ€™s Ledges","Trues Brook Rd","03784",43.605856,-72.315386
"05001","White River Junction","VT","Riverside Park","8 Glen Rd","03784",43.63344955444336,-72.31595611572266
"05001","White River Junction","VT","Kilowatt","not_available","05088",43.678269,-72.302955
"05001","White River Junction","VT","Norwich Green","not_available","05055",43.71313314833968,-72.30807685558501
"05032","Bethel","VT","Peavine Park","not_available","05032",43.82672015052407,-72.63491345222135
"05051","Newbury","VT","Newbury Common","Main St","05051",44.078326921353835,-72.06043940776102
"05051","Newbury","VT","Railroad Park","Central St","03765",44.154144,-72.039266
"05055","Norwich","VT","The Green","not_available","03755",43.703297,-72.288597
"05055","Norwich","VT","Storrs Pond Recreation Area","Reservoir Rd","03750",43.723197989244966,-72.26459091712587
"05055","Norwich","VT","Kendal Riverfront Park","Route 10","03755",43.732483,-72.263846
"05060","Randolph","VT","Randolph Park","not_available","05060",43.927009,-72.671921
"05089","Windsor","VT","Windsor Common","39 State St","05089",43.480167388916016,-72.3883056640625
"05089","Windsor","VT","Artisans Park","71 Artisans Way","05089",43.513371,-72.402394
"05089","Windsor","VT","Paradise Park","Paradise Park Rd","05089",43.491790260389266,-72.39963100695552
"05091","Woodstock","VT","The Green","not_available","05091",43.62371294978637,-72.51946309297549
"05101","Bellows Falls","VT","Herrick's Cove","Route 5","not_available",43.177297824718885,-72.44745254516602
"05148","Londonderry","VT","Pingree Park","not_available","05148",43.23126541974334,-72.81395970859582
"05149","Ludlow","VT","Dorsey Park","not_available","05149",43.38682574535025,-72.70402284936522
"05155","South Londonderry","VT","Stratton Recreation Area","not_available","05155",43.05227496147211,-72.90589900122801
"05201","Bennington","VT","Willow Park","East Rd","05201",42.899156696689886,-73.1952314987014
"05201","Bennington","VT","Howard Park","Howard Park Road","05262",42.94960033364765,-73.20178742065971
"05201","Bennington","VT","Catamount BMX","418 E Rd","05201",42.900649059398205,-73.19528910869009
"05250","Arlington","VT","Arlington Recreational Park","Recreation Park Rd","05250",43.080560150256126,-73.15238287594427
"05255","Manchester Center","VT","Factory Point Town Green","not_available","05255",43.176022,-73.056606
"05255","Manchester Center","VT","Dana L. Thompson Memorial Park","340 Rec Park Road","05255",43.18454867923619,-73.0539566830323
"05301","Brattleboro","VT","Living Memorial Park","61 Guilford St","05301",42.84749566621852,-72.58645534515381
"05301","Brattleboro","VT","Brattleboro Common","Park Place","05301",42.85751631796466,-72.56038471992116
"05301","Brattleboro","VT","The Crowell Lot","Western Avenue","05301",42.85033694863849,-72.56711509224097
"05301","Brattleboro","VT","Pliny Park","180 Main St","05301",42.8533435933737,-72.55873314131054
"05301","Brattleboro","VT","John T. Brosnahan Square","8-28 Green St","05301",42.852256965278364,-72.56104320298877
"05301","Brattleboro","VT","Brattleboro Skate Park","not_available","05301",42.8509348,-72.5578619
"05301","Brattleboro","VT","Dover Village Green","not_available","05341",42.944149,-72.802838
"05354","Vernon","VT","Main Street Park","main street","03451",42.786183681345946,-72.48374099807539
"05354","Vernon","VT","The Witches Gutter","not_available","03451",42.79918,-72.51646
"05363","Wilmington","VT","Beaver Brook Park","S Main St","05363",42.86732791801723,-72.87270080551619
"05363","Wilmington","VT","Wilmington Pergola","1 S Main St","05363",42.868325864260605,-72.87138540184621
"05401","Burlington","VT","Waterfront Park","Lake St","05401",44.47786011623926,-73.22138786315918
"05401","Burlington","VT","Oakledge Park & Beach","2 Flynn Ave","05401",44.45345006796737,-73.22765350341797
"05401","Burlington","VT","Battery Park","1 North Ave","05401",44.481381426073206,-73.22010040283203
"05401","Burlington","VT","Waterfront Shelter","not_available","05401",44.481381426073206,-73.22413444519043
"05401","Burlington","VT","Leddy Park","Leddy Park Rd","05401",44.503318537656305,-73.25148176801443
"05401","Burlington","VT","City Hall Park","St. Paul St","04501",44.47658685075859,-73.21365969496732
"05401","Burlington","VT","Valleyfield Commons","valleyfield dr","05446",44.501501976348926,-73.19959062368758
"05401","Burlington","VT","Ethan Allen Park","1 Ethan Allen Homestead","05408",44.50500876690117,-73.23975917532314
"05401","Burlington","VT","Roosevelt Park","Walnut St","05401",44.48912628819819,-73.21208891547757
"05401","Burlington","VT","Pomeroy Park","343 North St","05401",44.48475,-73.207648
"05401","Burlington","VT","Lakeside Rink","63 Conger","05401",44.45967963298556,-73.22092194646933
"05401","Burlington","VT","West Allen Park","not_available","05404",44.49156889568434,-73.18988787163288
"05401","Burlington","VT","South Park","Locust Street","05401",44.46286385833553,-73.21375346064565
"05401","Burlington","VT","Vermont Special Olympics","Spear Street","05401",44.458267,-73.203302
"05403","South Burlington","VT","Overlook Park","Spear Street","06503",44.43184819464808,-73.19336888524315
"05403","South Burlington","VT","Red Rocks Park","Queen city park drive","not_available",44.4447800543495,-73.22666645050049
"05403","South Burlington","VT","Veterns Memorial Park","not_available","05403",44.446926,-73.17566
"05403","South Burlington","VT","Dorset Park","570 Dorset St","05403",44.446388337880585,-73.1757751183753
"05403","South Burlington","VT","Five Tree Nature Area","Sunset Hill Rd.","05495",44.479254,-73.166658
"05403","South Burlington","VT","Tech Park","Kimball Ave","05403",44.44873226964153,-73.14401149749756
"05403","South Burlington","VT","South Burlington Dog Park @ Farrell Park","Farrell Park","05403",44.444596,-73.203774
"05403","South Burlington","VT","Muddy Brook Park","Poor Farm Road","05403",44.47426203669318,-73.13738107681274
"05408","Burlington","VT","Billado Park","Heineberg Drive","not_available",44.525462,-73.256528
"05408","Burlington","VT","Delta Park","Malletts Bay","05446",44.53636938942389,-73.27597422563898
"05408","Burlington","VT","Starr Farm Beach","Starr Farm Beach","05401",44.51401904630829,-73.26871754510998
"05440","Alburgh","VT","Korean War Veterans Access Area (Vt Fish & Wildlife)","not_available","05440",44.998807,-73.339746
"05443","Bristol","VT","Bristol Town Green","not_available","05443",44.13453910324775,-73.07909810886105
"05443","Bristol","VT","Morse Park","not_available","05473",44.246439,-73.141723
"05445","Charlotte","VT","Demeter Park","not_available","05445",44.329732,-73.255659
"05446","Colchester","VT","Cobble Hill","Cobbs Rd","05468",44.60713931977885,-73.1231694307706
"05446","Colchester","VT","Airport Park","Airport Road","05446",44.54400504810064,-73.27951132821346
"05446","Colchester","VT","Milton Recreation Fields","Bombardier Rd","05468",44.60711197875182,-73.12319500373437
"05446","Colchester","VT","Union Memorial Park","Main St","05466",44.54786828591848,-73.15886859318162
"05446","Colchester","VT","Sharp Farm Park","204 Cobble Hill Rd","05468",44.60304641723633,-73.13520812988281
"05446","Colchester","VT","Middle Road Recreation Park","Middle Rd","05468",44.607109869257336,-73.12319867914242
"05446","Colchester","VT","Alburg Dunes","not_available","05468",44.594757,-73.151724
"05446","Colchester","VT","Ethan Allen Gazebo","not_available","05446",44.50381113625906,-73.15066062877713
"05446","Colchester","VT","Little Park","280 N Winooski Ave","05401",44.48774239701883,-73.21067785210322
"05452","Essex Junction","VT","Essex Overlook Park","Essex Rd","not_available",44.480811059904546,-73.11512136888801
"05452","Essex Junction","VT","Maple Street Park","75 Maple St","05452",44.48646906239261,-73.10275843353489
"05452","Essex Junction","VT","Saxon Hollow Park","not_available","05452",44.49171945066502,-73.05074200652301
"05452","Essex Junction","VT","Sand Hill Park","Sand Hill Road","05452",44.50731437653268,-73.05619857382462
"05452","Essex Junction","VT","Cascade Park","29 Cascade St","05452",44.4808235168457,-73.12117767333984
"05455","Fairfield","VT","Taylor Park","36 N Main St","05478",44.811048955226134,-73.08304201158333
"05456","Ferrisburgh","VT","Town green","not_available","05941",44.16807499406944,-73.25172748193673
"05461","Hinesburg","VT","Geprags Community Park","not_available","05461",44.340855,-73.125976
"05465","Jericho","VT","Volunteers Green","200 Bridge St","05477",44.40238594567864,-72.99689608005185
"05465","Jericho","VT","Rivershore Preserve","1683 Cochran Road","05477",44.39044727152282,-72.96537366691044
"05468","Milton","VT","Bombardier Park","Bombardier Road","05468",44.61463657485383,-73.12347963542571
"05468","Milton","VT","Milton River Park","Rt. 7","05468",44.63749165591372,-73.1137641160357
"05471","Montgomery Center","VT","Montgomery Recreation Center","not_available","05471",44.88243,-72.616165
"05477","Richmond","VT","Williston Bike Path Parking","50 N Williston Rd","05495",44.43828883333333,-73.06798646666667
"05478","Saint Albans","VT","Cohen Park","not_available","05488",44.86457550960724,-73.18142612067331
"05478","Saint Albans","VT","Houghton Park","S Elm St","not_available",44.80925210473251,-73.0933331847203
"05478","Saint Albans","VT","Georgia Municipal Recreation Park","not_available","05478",44.76792584063109,-73.16155617283567
"05482","Shelburne","VT","Shelburne Bay Park","not_available","05482",44.40017229671198,-73.23727937048227
"05495","Williston","VT","Maple Tree Place Park","not_available","05495",44.446096152692775,-73.11071462927012
"05495","Williston","VT","Rossignol Park","Industrial Ave","05495",44.461525984862114,-73.12080021275895
"05602","Montpelier","VT","Peace Park","not_available","05602",44.255797696398496,-72.59989211691975
"05602","Montpelier","VT","Cuddy's Park By The River","The alley @ the river","05602",44.26093740428058,-72.57566757049119
"05602","Montpelier","VT","Canales Woods","not_available","05641",44.206463,-72.510161
"05641","Barre","VT","Currier Park","Park St","05641",44.19705152433354,-72.4976902641465
"05641","Barre","VT","City Hall Park","1-27 N Main St","05641",44.197074579249,-72.50135733175658
"05660","Moretown","VT","Mad River Path - West Greenway","Route 100","05673",44.21906178565179,-72.78841495513916
"05660","Moretown","VT","Mad River Park","236 Airport Road","05673",44.22526630213637,-72.79105537628274
"05660","Moretown","VT","Waitsfield Common","471 North Rd","05673",44.19601058959961,-72.79301452636719
"05661","Morrisville","VT","Stowe Quiet Path","Cemetary Rd.","05672",44.46740686067295,-72.68066847085969
"05661","Morrisville","VT","Oxbow Public Fields","not_available","05661",44.566363,-72.598069
"05663","Northfield","VT","Roxbury Fish Culture Station","VT Rte 12A","05669",44.09633871104178,-72.74253845214844
"05667","Plainfield","VT","Martin Bridge Park","Rte 2","05667",44.288299,-72.407472
"05676","Waterbury","VT","Rusty Parker Memorial Park","not_available","05676",44.334377817947264,-72.75245189666748
"05676","Waterbury","VT","Newton H. Baker Park","Stowe St","05676",44.34225125686768,-72.74750609494141
"05676","Waterbury","VT","Dac Rowe Field","Unnamed Rd","05676",44.34026618338824,-72.76080869400921
"05681","Woodbury","VT","Mackville Pond","not_available","05843",44.48745,-72.364553
"05701","Rutland","VT","Main Street Park","Park Square","05701",43.60582718652669,-72.97070238018834
"05701","Rutland","VT","Colton Pond","Colton Pond Acc","05751",43.69635953148074,-72.7923833330578
"05701","Rutland","VT","Northwood Park","Post Rd","05701",43.60734558105469,-72.97479248046875
"05701","Rutland","VT","Northwood Park","104 Northwood Park Road","05701",43.64602279663086,-72.9507064819336
"05701","Rutland","VT","Rotary Park","141 N Main St","05701",43.618408203125,-72.9744873046875
"05701","Rutland","VT","Rutland Recreation and Parks Department","16 N Street Ext","05701",43.618167877197266,-72.97187805175781
"05701","Rutland","VT","Rutland Dump","not_available","05701",43.620907882947776,-72.95192468337433
"05701","Rutland","VT","Swamp Park","77 Harrington Avenue","05701",43.61252748510935,-72.96477556228638
"05733","Brandon","VT","Brandon Central Park","not_available","05733",43.80269592870251,-73.08606430416579
"05743","Fair Haven","VT","the park","not_available","12887",43.55107516416427,-73.40241539188143
"05753","Middlebury","VT","Middlebury Rec Park","not_available","05753",44.012180386747815,-73.16422939553753
"05822","Barton","VT","east overlook","not_available","05851",44.722250193181,-72.04823113921945
"05851","Lyndonville","VT","Powers Park","Powers Park Dr","05850",44.536767882271405,-72.00585900395423
"05851","Lyndonville","VT","Band Stand Park","Park Ave","05851",44.53592365314089,-72.00473839351156
"05905","Guildhall","VT","Centennial Park","Main Street","03584",44.491274688426635,-71.56952494336704
