"zip","city","state","name","address","postalCode","lat","lon"
"57001","Alcester","SD","Frog Pond Park","not_available","not_available",42.99395,-96.493826
"57001","Alcester","SD","Alcester City Park","E 6th St","57001",43.02559913333333,-96.6269318
"57003","Baltic","SD","Bucher Prairie","25393 478th Ave","57030",43.704341888427734,-96.6530990600586
"57003","Baltic","SD","Riverside Park","not_available","57003",43.70576804769297,-96.78154205438136
"57004","Beresford","SD","Picnic Table","not_available","57004",42.92123,-96.779477
"57005","Brandon","SD","Harmodon Park","5721 E 41st St","57110",43.51034696002165,-96.65575488498213
"57005","Brandon","SD","Arrowhead Park","Sioux Falls, SD 57110","57110",43.5287420377502,-96.61634948998542
"57005","Brandon","SD","Frank Olson Park","4001 E. 16th","57103",43.53591641951707,-96.6736505288669
"57005","Brandon","SD","McHardy Park","McHardy Rd.","57005",43.586516702501136,-96.56880668669498
"57005","Brandon","SD","Beaver Creek Nature Area","25495 485th Ave.","57005",43.55538788728968,-96.54343674505266
"57005","Brandon","SD","Linwood Park","4409 E. Walker Way","57103",43.54912567138672,-96.67222595214844
"57005","Brandon","SD","Aspen Park","Aspen Park Rd","57005",43.58451575455867,-96.5863926922
"57005","Brandon","SD","Tallgrass Park","not_available","57005",43.5982329549358,-96.58405018815485
"57005","Brandon","SD","Izaak Walton League","not_available","57110",43.576168,-96.65980001666667
"57006","Brookings","SD","Dakota Nature Park","at 22nd Ave","57006",44.270502355689885,-96.7705340656205
"57006","Brookings","SD","Moriarity Park","17th ave south","57006",44.28695160063466,-96.77821439761163
"57006","Brookings","SD","Pioneer Park","6th St W","57006",44.311019802858496,-96.80506514228824
"57006","Brookings","SD","Hillcrest Park","5th St","57006",44.30968469539962,-96.77828391333497
"57006","Brookings","SD","Camelot Park","not_available","57006",44.29054116672249,-96.78325748173292
"57006","Brookings","SD","Dwiggins-Medary Park","8th St","57006",44.314560066489044,-96.78772687911987
"57006","Brookings","SD","McClemans Park","15th St","57006",44.28902198884116,-96.78802728652954
"57006","Brookings","SD","Brookings Prairie","W 44th St S","57006",44.25263831533901,-96.81952714920044
"57006","Brookings","SD","Pheasant Nest Park","12th St S","57006",44.2908651564595,-96.79276943206786
"57006","Brookings","SD","Larson DGC Hole 13 (Highest Point In Brookings)","100-288 Sunrise Ridge Rd S","57006",44.30436404045964,-96.7634112461061
"57006","Brookings","SD","Medary Park","Meday Ave S","57006",44.299137408488356,-96.7897221216022
"57006","Brookings","SD","Larson Park","22nd St.","57006",44.30426019920844,-96.76632485387454
"57006","Brookings","SD","Lion's Park","Medary Ave","57006",44.30489833747935,-96.78556919644336
"57006","Brookings","SD","Mickelson Park","1701-1999 12th St S","57006",44.29524518141474,-96.77361402235307
"57006","Brookings","SD","Medal Of Honor Park","SD State Univ","57007",44.31887671012889,-96.78493634327758
"57012","Canistota","SD","Lake Vermillion","not_available","57012",43.593191317266616,-97.17523524017442
"57012","Canistota","SD","Lake Vermillion West Campground","not_available","57048",43.592791,-97.179278
"57013","Canton","SD","Lifelight Sk8 Park","not_available","57077",43.32915115356445,-96.71880340576172
"57017","Colman","SD","Colman City Park","not_available","57017",43.97912388593212,-96.81085175684873
"57020","Crooks","SD","Crooks Park","Regal Dr.","not_available",43.667418,-96.811247
"57020","Crooks","SD","New Hope Park","not_available","57020",43.658791,-96.807373
"57022","Dell Rapids","SD","Dell Rapids Park","City Park Ave","57022",43.82142749890025,-96.70517317329245
"57022","Dell Rapids","SD","Brown Park","not_available","57022",43.83054369903334,-96.7078216527738
"57025","Elk Point","SD","Friendship Park","not_available","68770",42.563717,-96.720965
"57025","Elk Point","SD","Akron City Park","Hwys. 12 and 403","51001",42.832011507043184,-96.55613422393799
"57025","Elk Point","SD","Todd Larsen Park","not_available","57025",42.684329210149805,-96.6934104341422
"57030","Garretson","SD","Split Rock Park","not_available","57038",43.72155586582784,-96.5013553939784
"57030","Garretson","SD","Devil's Gulch Park","Devil's Gulch Park Rd","57030",43.72282027704902,-96.49617692298885
"57032","Harrisburg","SD","Harrisburg Heartland Park","503 Troy Ave","57032",43.44124675692249,-96.71251861434892
"57032","Harrisburg","SD","Legion Park","not_available","57032",43.433671233657925,-96.6991243917007
"57033","Hartford","SD","Turtle Creek Park","Feyder","not_available",43.61980275622098,-96.94108158947522
"57033","Hartford","SD","Hartford Park","not_available","57033",43.624599784678495,-96.93913658181201
"57036","Hurley","SD","Hurley Park","not_available","57036",43.283028,-97.09219
"57038","Jefferson","SD","Adams Homestead & Nature Preserve","272 Westshore Dr","57049",42.53858184814453,-96.53865814208984
"57038","Jefferson","SD","Goldie and Beck Park","1620 Goldie","not_available",42.517836945489975,-96.48740530014038
"57039","Lennox","SD","Lennox Skate Park","Elm St","57039",43.34788513183594,-96.89551544189453
"57039","Lennox","SD","Lennox Park","not_available","57039",43.34818358468269,-96.89273561812279
"57046","Mission Hill","SD","Fantle Memorial Park","2000 N Douglas Ave","57078",42.889423055890376,-97.39100933074951
"57046","Mission Hill","SD","West Side Park","5th street","57078",42.87038878150539,-97.39734352956934
"57046","Mission Hill","SD","Riverside Park","Levee St.","57078",42.866528506208425,-97.39139556884766
"57046","Mission Hill","SD","Ridgeway Park","not_available","57078",42.904426,-97.386311
"57049","North Sioux City","SD","Riverside Park","Riverside Blvd.","51109",42.49883953475779,-96.47239962106296
"57049","North Sioux City","SD","Veteran's Memorial Park","Main St","57049",42.52694219524669,-96.48382723331451
"57049","North Sioux City","SD","Centennial Park","not_available","57049",42.52732,-96.483372
"57059","Scotland","SD","Scotland City Park","Scotland,SD,57059","57059",43.15001971108985,-97.71316036199705
"57062","Springfield","SD","Cannon Park","not_available","57062",42.850595,-97.892465
"57062","Springfield","SD","Springfield Recreation Area","4183 Boat Basin Rd","57062",42.85910692391842,-97.88366958370626
"57062","Springfield","SD","Terrace Park","Springfield,SD,57062","57062",42.83923,-97.854592
"57064","Tea","SD","Bakker Park","6201 W 61st St","57106",43.49696471684814,-96.80307186181676
"57064","Tea","SD","Galway Park","7420 W 64th St","57064",43.49515151977539,-96.81934356689453
"57064","Tea","SD","Tea City Park","E Brian","57064",43.45326797716463,-96.83541135597277
"57068","Valley Springs","SD","Valley Springs mud volleyball","not_available","57068",43.58369827270508,-96.47093200683594
"57069","Vermillion","SD","The Tree","not_available","57069",42.78371810913086,-96.921875
"57069","Vermillion","SD","Lions Park","603 Princeton St","57069",42.78563,-96.93845400000001
"57069","Vermillion","SD","Barstow Park","593-753 W. Cherry St.","57069",42.78519791589488,-96.94141712222354
"57071","Volga","SD","Volga Pool","201-299 W 2nd St","57071",44.326665881582045,-96.91917081670105
"57103","Sioux Falls","SD","Falls Park","900 N Phillips Ave","57104",43.558127581408435,-96.72346115112305
"57103","Sioux Falls","SD","Cherry Rock Park","1800 E. 18th St.","57103",43.53803317739183,-96.70305760220161
"57103","Sioux Falls","SD","McKennan Park","400 E 26th St","57105",43.53183228472441,-96.72362076061751
"57103","Sioux Falls","SD","Riverdale Park","2000 E 24th St","57105",43.53306420027165,-96.70040931852027
"57103","Sioux Falls","SD","On the rocks at the falls at Sioux Falls","Falls Park","not_available",43.557003251709276,-96.72220301315735
"57103","Sioux Falls","SD","Tuthill Park Disc Golf Course","3500 S Cliff Ave","57105",43.512747653412575,-96.7082007622151
"57103","Sioux Falls","SD","Lewis Park","1801 E. 54th St.","57103",43.502559661865234,-96.70297241210938
"57103","Sioux Falls","SD","Pasley Park","2521 S. Southeastern Ave.","57103",43.52278530975707,-96.69869086526421
"57103","Sioux Falls","SD","Morningside Park","2500 S. Bahnson Ave.","57103",43.52299099457269,-96.67602292341233
"57103","Sioux Falls","SD","Statue of David","S. 2nd Ave.","57104",43.54534465739873,-96.72315049320733
"57103","Sioux Falls","SD","Tuthill Park","3500 S. Cliff Ave.","57103",43.51256946509,-96.7080985218035
"57103","Sioux Falls","SD","Lions Centennial Park","3700 Southeastern Ave","not_available",43.50966429757587,-96.69159816047403
"57103","Sioux Falls","SD","Bryant Park","1400 E 34th St N","57104",43.58062,-96.708465
"57103","Sioux Falls","SD","Mansor - Pioneer Park","Sioux Falls,SD,57103","57103",43.56273589852241,-96.7019763371344
"57103","Sioux Falls","SD","Leaders Park","500 N. Leadale Ave.","57103",43.55535888671875,-96.69542694091797
"57103","Sioux Falls","SD","Lions Centennial Park","2701 E. Marson Dr.","57103",43.509765625,-96.69181823730469
"57103","Sioux Falls","SD","Meldrum","1708-1718 E 6th St","57103",43.5514256,-96.70308788333334
"57103","Sioux Falls","SD","Great Plains Balloon Race","not_available","57103",43.55372489573787,-96.67904943510905
"57103","Sioux Falls","SD","Beadle Greenway Park","421 E 8th St","57103",43.546698,-96.720819
"57103","Sioux Falls","SD","Rotary-Norlin Park","2101 E. 18th St.","57103",43.52991005179334,-96.69569645893728
"57103","Sioux Falls","SD","Canoe Launch Area","E. 26th St.","57103",43.5295912708688,-96.69744253435472
"57103","Sioux Falls","SD","Whittier Park","1009 E. 3rd St.","57103",43.55438995361328,-96.71295166015625
"57104","Sioux Falls","SD","Veterans' Memorial Park","1021 W. Bailey St.","57104",43.56289734986487,-96.73877015365672
"57104","Sioux Falls","SD","Elmwood Park","2601 W. Russell St.","57104",43.56200643711146,-96.7623721040526
"57104","Sioux Falls","SD","Sherman Park","2705 W 12th St","57104",43.53511526498295,-96.76370534587882
"57104","Sioux Falls","SD","Earl McCart Fields","2001 W Madison St","57104",43.55743843359352,-96.75245469234419
"57104","Sioux Falls","SD","Terrace Park","1100 W. 4th St.","57104",43.555786297055896,-96.74134188749619
"57104","Sioux Falls","SD","Sherman Park Softball Complex","2705 W. 12th St.","57104",43.54164308683266,-96.76456804639274
"57104","Sioux Falls","SD","Van Eps Park","300 S Minnesota Ave","57104",43.54436111450195,-96.73046112060547
"57104","Sioux Falls","SD","Emerson Park","515 S Lake Ave.","57104",43.54234933722092,-96.7430687603314
"57104","Sioux Falls","SD","Verterans Memorial Park","not_available","57104",43.55839939446587,-96.74642238728306
"57104","Sioux Falls","SD","Lyon Park","600 S. Phillips Ave.","57104",43.540687561035156,-96.726318359375
"57104","Sioux Falls","SD","Terrace Park Amphitheatre","599 N Euclid Ave","57104",43.55166413510187,-96.7456987091483
"57104","Sioux Falls","SD","Heritage Park","600 E 7th St","57103",43.550117,-96.719452
"57105","Sioux Falls","SD","Sertoma Park","4300 S. Oxbow Ave.","57106",43.50683097782232,-96.76105980263098
"57105","Sioux Falls","SD","Yankton Trail Park","3901 S. Minnesota Ave.","57105",43.505680869007605,-96.73831050375433
"57105","Sioux Falls","SD","Tomar Park","100 W. Twin Oaks Rd.","57105",43.50879882423176,-96.7259931564331
"57105","Sioux Falls","SD","Spellerberg Park","1601 S Western Ave","57105",43.53060948509089,-96.75202080760735
"57105","Sioux Falls","SD","Dugan Park","Duluth Ave.","57105",43.51801761666667,-96.73339786666666
"57105","Sioux Falls","SD","Campus Park","1700 S Summit Ave","57105",43.530138,-96.735973
"57105","Sioux Falls","SD","Jefferson Park","3301 S Jefferson Ave","57105",43.515697,-96.75273
"57105","Sioux Falls","SD","Jefferson Park","2301 W 39th St.","57105",43.51613352826793,-96.7563862177243
"57105","Sioux Falls","SD","Spencer Park","3501 S. Cliff Ave.","57105",43.513167913142475,-96.7154490457415
"57105","Sioux Falls","SD","Menlo Park","1200 S. Menlo Ave.","57105",43.534385681152344,-96.7397689819336
"57106","Sioux Falls","SD","Dunham Park","1301 S Marion Rd","57106",43.53500644887887,-96.79381777278111
"57106","Sioux Falls","SD","Legacy Park","7001 W. 12th St.","57107",43.54348697442444,-96.81145346875789
"57106","Sioux Falls","SD","Marion Park","5330 W. 45th St.","57106",43.5121719790538,-96.7929337597911
"57106","Sioux Falls","SD","Spencer Park Soccer Field #8","I-229","57105",43.512284862989446,-96.77379704646057
"57106","Sioux Falls","SD","Central Park","46th Street","not_available",43.51072634692744,-96.80618998633746
"57106","Sioux Falls","SD","Patrick's Park","Sioux Falls","not_available",43.539045167874356,-96.79412362492116
"57106","Sioux Falls","SD","Touch A Truck","not_available","57108",43.49901,-96.786402
"57106","Sioux Falls","SD","Dunham Park","not_available","57106",43.534554185975196,-96.80156517070031
"57106","Sioux Falls","SD","Dunham Park","Sertoma Ave","not_available",43.51681301924114,-96.81324005126953
"57106","Sioux Falls","SD","Platinum Valley Park","7301 S. Hughes Avenue","57108",43.478885650634766,-96.77395629882812
"57106","Sioux Falls","SD","Stagecoach Station","5720-6098 W Silver Valley Dr","57106",43.53350767,-96.80215836
"57106","Sioux Falls","SD","Southern Vistas Park","8000 W. 53rd St.","57106",43.5045051574707,-96.82596588134766
"57106","Sioux Falls","SD","Memorial Park","7500 W. 26th St.","57106",43.53214265240205,-96.82006640759106
"57106","Sioux Falls","SD","Hole In Wall Park","Somewhere off 12th street","57106",43.543469309806824,-96.7861802
"57107","Sioux Falls","SD","Family Park","300 N Minnehaha County Rd 139","57107",43.54872859604576,-96.82586482383739
"57107","Sioux Falls","SD","Burnside Park","1100 W 4th St","57104",43.55340652727618,-96.74806893119508
"57107","Sioux Falls","SD","Thelin Park","4301 W Benson Rd","57104",43.58476638793945,-96.787109375
"57108","Sioux Falls","SD","Prairie Trail Park","5401 S. Tomar Rd.","57108",43.49522159888208,-96.71449341126481
"57108","Sioux Falls","SD","Glenview Park","59th St","57108",43.49628,-96.7052
"57108","Sioux Falls","SD","Laurel Oak Park","3401 E. 49th St.","57103",43.50673887696317,-96.68591620381794
"57108","Sioux Falls","SD","Glenview Park","1401 E. 57th St.","57108",43.49807357788086,-96.70580291748047
"57108","Sioux Falls","SD","Prairie Hills West Park","6601 W Hemingstone Trl","57108",43.485606,-96.761486
"57108","Sioux Falls","SD","Room 409","Here","57108",43.495304666325325,-96.77230149318243
"57110","Sioux Falls","SD","Kenny Anderson Park","3918 E 6th St.","57103",43.55240223251984,-96.67758740412744
"57201","Watertown","SD","Sandy Shore Recreation Area","not_available","57201",44.8907693596933,-97.24017886022217
"57201","Watertown","SD","Riverside Park","647-699 W Kemp Ave","57201",44.90249585782229,-97.12672913000462
"57201","Watertown","SD","Pelican Lake Recreation Area","17450 450th Avenue","57201",44.95005413482261,-97.2080397605896
"57201","Watertown","SD","Harper Park","6th Ave NE","57201",44.907517342890294,-97.09133148193358
"57201","Watertown","SD","Memorial Park","N Lake Dr","not_available",44.9181991600726,-97.24207530283684
"57221","Bryant","SD","Whirledge Recreation Complex","Grant St","57278",44.62974116877872,-97.63217210769653
"57226","Clear Lake","SD","Goodwin Ball Diamond","not_available","57238",44.877438,-96.84835
"57227","Corona","SD","Hartford Beach Disk","Hartford Beach, SD","57227",45.40197275275478,-96.67236125311459
"57231","De Smet","SD","Manchester","not_available","57231",44.36851328727807,-97.71526552523461
"57239","Grenville","SD","Pickerel Lake","not_available","57239",45.49106423540935,-97.27181312398126
"57260","Rosholt","SD","White Rock Dam","not_available","57262",45.861952,-96.573723
"57260","Rosholt","SD","Centennial Park","not_available","57260",45.86777977608255,-96.733149759298
"57279","Wilmot","SD","Wilmot City Park","not_available","57279",45.409436309702606,-96.86025780871555
"57301","Mitchell","SD","Hitchcock Park","not_available","57301",43.70783132885544,-98.00864226030987
"57301","Mitchell","SD","Hitchcock Park - Tennis Courts","351-399 S Foster St","57301",43.70702078739568,-98.00850914413554
"57301","Mitchell","SD","Patten Young Park","514-518 S Edgerton St","57301",43.70529841895373,-98.04132171836531
"57301","Mitchell","SD","Pioneer Park","South Duff St.","57301",43.69751035850623,-98.0293321609497
"57301","Mitchell","SD","Mitchell Parks and Recreation","1300 N Main St","57301",43.722081,-98.024842
"57301","Mitchell","SD","Doty Park","800-898 E 2nd Ave","57301",43.71100752452527,-98.01449429006
"57313","Armour","SD","Douglas County 4-H Grounds","not_available","57313",43.326925957023846,-98.34930896759033
"57325","Chamberlain","SD","City Park","not_available","57365",43.795363,-99.398651
"57325","Chamberlain","SD","Good Soldier Creek Recreation Area","not_available","57339",44.034996,-99.449036
"57325","Chamberlain","SD","Dinosaur Park","not_available","57325",43.807072,-99.333205
"57335","Fairfax","SD","Pease Creek Recreation Area","not_available","57342",43.14394809127713,-98.73009001360462
"57350","Huron","SD","Huron Park & Rec","not_available","57350",44.35741737102663,-98.21977861515556
"57350","Huron","SD","Prospect Park","1652-1698 Iowa Ave SE","57350",44.34718331151423,-98.20965979729147
"57355","Kimball","SD","kimball main street park","not_available","57355",43.74763107299805,-98.95777893066406
"57356","Lake Andes","SD","City Park","not_available","57356",43.15618052645952,-98.53634724546552
"57356","Lake Andes","SD","Snake Creek Recreation Area","not_available","57369",43.1419348,-98.4652004
"57362","Miller","SD","Lake Louise Recreation Area","not_available","57362",44.622307977594225,-99.13881336204359
"57366","Parkston","SD","Miltown Island Park","not_available","57366",43.42604935461758,-97.79989000193358
"57366","Parkston","SD","East Park","East Main Street","57366",43.39436787466253,-97.97826290130615
"57369","Platte","SD","Buryanek Recreation Area","not_available","57523",43.41683993059885,-99.17173375079219
"57369","Platte","SD","Buryanek Recreation Area","27450 Buryanek Rd.","57523",43.416541610325986,-99.1684248838539
"57383","White Lake","SD","Mt Rushmore","not_available","57383",43.73317948333333,-98.71438918333334
"57401","Aberdeen","SD","Wylie Park","13097 386th ave","not_available",45.48929249915656,-98.51938060881314
"57401","Aberdeen","SD","Storybook Land","Wylie Park Hwy 281 N","57401",45.49073510003987,-98.51942539215088
"57401","Aberdeen","SD","Frontier Park","not_available","57401",45.46178091891587,-98.50312130833926
"57401","Aberdeen","SD","Manor Park","12th Ave NE","not_available",45.477653909713894,-98.48052641236107
"57401","Aberdeen","SD","Wylie Lake","13097 386th ave","57401",45.489481147773844,-98.51641255871063
"57401","Aberdeen","SD","Mother Joseph Park","1100 jay st","57401",45.47641267978087,-98.48300755010087
"57401","Aberdeen","SD","Stratford Community Park","not_available","57474",45.315076,-98.30774
"57401","Aberdeen","SD","Central Park","315 2nd Ave SE","57401",45.463294982910156,-98.48284912109375
"57401","Aberdeen","SD","Anderson Park","1201-1399 7th Ave SE","57401",45.458302986646174,-98.46868225530405
"57441","Frederick","SD","Simmons Park","5th Avenue","57441",45.83326966239659,-98.5120439529419
"57445","Groton","SD","Trip's Trailer Park","not_available","57445",45.427657266666664,-98.12472406666667
"57452","Java","SD","Lake Campbell","not_available","57472",45.506272315979004,-100.0381350517273
"57469","Redfield","SD","Redfield City Park","not_available","57469",44.87994620330106,-98.51935903216251
"57501","Pierre","SD","Capitol Lake","Capitol Ave","57501",44.36612481240803,-100.34429363936485
"57501","Pierre","SD","Hilger's Gulch Park","500 East Church St","57501",44.36976820749073,-100.34171167454932
"57501","Pierre","SD","Griffin Park","Dakota ave","57501",44.359951205950644,-100.34439231464879
"57501","Pierre","SD","Lilly Park","not_available","57532",44.35320645065819,-100.36958545760878
"57501","Pierre","SD","West Bend Recreation Area","not_available","57501",44.75668253724774,-100.62956131911821
"57533","Gregory","SD","gregory park","not_available","57533",43.23831362006361,-99.43321020679566
"57536","Harrold","SD","West Bend Recreation Area","not_available","57536",44.171672969906105,-99.7155466129895
"57552","Midland","SD","Midland City Park","not_available","57552",44.070747,-101.158293
"57567","Philip","SD","Ben Reifel Visitors Center","20695 SD Highway 240","not_available",43.74914798277516,-101.94169144574592
"57567","Philip","SD","HCYW Kiddie Park","Philip,SD,57567","57567",44.0394329,-101.6651441
"57576","Vivian","SD","Fort Pierre National Grasslands","not_available","57568",43.91257054317109,-100.3067719911635
"57580","Winner","SD","Winner Park","not_available","57580",43.374109,-99.867878
"57601","Mobridge","SD","Revheim Bay Recreation Area","not_available","57601",45.518181996852846,-100.40593142914469
"57601","Mobridge","SD","Mobridge City Park","100-198 6th St W","57601",45.53877492197426,-100.43428659439087
"57638","Lemmon","SD","Petrified Wood Park & Museum","500 Main Ave","57638",45.93941879272461,-102.15859985351562
"57638","Lemmon","SD","North Park","1st Ave SW","57638",45.944175720214844,-102.16889953613281
"57638","Lemmon","SD","Llewellyn Johns Recreation Area","not_available","57638",45.77380090274235,-102.17880446464716
"57648","Pollock","SD","West Pollack Recreation Area","not_available","57648",45.88468486867703,-100.33204772272724
"57649","Prairie City","SD","Slim Buttes","Custer National Forest","57651",45.33964622911018,-103.16163791275645
"57701","Rapid City","SD","Main Street Square","526 W Main St.","57701",44.081237287120345,-103.22632958036705
"57701","Rapid City","SD","Horace Mann Park","818 Anamosa","57701",44.09798300634187,-103.22890788352846
"57701","Rapid City","SD","Sioux Park","1000 Sheridan Lake Road","57702",44.07685691801782,-103.25860977172852
"57701","Rapid City","SD","Dinosaur Park","940 Skyline Dr","57701",44.07797598870826,-103.2446700695082
"57701","Rapid City","SD","Storybook Island","1301 Sheridan Lake Rd","57702",44.07269567148955,-103.26271523853792
"57701","Rapid City","SD","Vickie Powers Memorial Park","940 Kathryn Ave","57701",44.11709555465745,-103.2295220714749
"57701","Rapid City","SD","College Park","224 E College Ave","57701",44.095117,-103.208348
"57701","Rapid City","SD","Founder's Park","1510 West Omaha Street","57702",44.08480500569419,-103.24322657177574
"57701","Rapid City","SD","Wilson Park","Mt. Rushmore Rd.","not_available",44.06907936336565,-103.23326826095581
"57701","Rapid City","SD","Memorial Park","btwn N 5th St & N 8th St","57701",44.085712373301625,-103.22623014450073
"57701","Rapid City","SD","Mary Hall Park","3220 W South St","not_available",44.078952,-103.273444
"57701","Rapid City","SD","Centennial Park","800 E Centennial","57701",44.04752793212751,-103.20207250895504
"57701","Rapid City","SD","Robbinsdale Park Off Leash Dog Area","Park Rd.","57701",44.05922684081627,-103.20364594459534
"57701","Rapid City","SD","Jackson Park","Jackson Blvd.","57702",44.069480213759874,-103.26775074005127
"57701","Rapid City","SD","Roosevelt Park Ice Arena","235 Waterloo St","57701",44.084027689261646,-103.20643551551939
"57701","Rapid City","SD","Halley Park","West Main St. & St. Joseph St.","57701",44.081912936473316,-103.23710918426514
"57701","Rapid City","SD","Leigon Park","900 Van Buren Street","57701",44.09259796142578,-103.23149871826172
"57701","Rapid City","SD","Old Storybook Island","Canyon Lake Dr.","57702",44.07361612961484,-103.26518867524813
"57701","Rapid City","SD","William Noordermeer Formal Gardens","2326 Canyon Lake Dr","57702",44.078733,-103.258398
"57701","Rapid City","SD","Chuck Lien Family Park","W. Omaha St.","57701",44.08533475257074,-103.25170040130615
"57701","Rapid City","SD","Roosevelt Park","300 East Omaha","57701",44.08305376636148,-103.20970617177223
"57701","Rapid City","SD","Rapid City Parks and Recreation Office","515 West Blvd","57701",44.08171296100575,-103.23537672994962
"57701","Rapid City","SD","Dirt Jump Park","Omaha St. & Mt. View Rd.","57702",44.08459491721228,-103.25358867645264
"57701","Rapid City","SD","Robbinsdale Park","E. Fairmont Blvd","57701",44.05675188852765,-103.20470809936523
"57701","Rapid City","SD","Skyline Wilderness Park","Skyline Dr","57701",44.06803868140037,-103.2506275177002
"57702","Rapid City","SD","Bear Country USA","13820 S Highway 16","57702",43.97589235273939,-103.29722224545299
"57702","Rapid City","SD","Canyon Lake Park","4181 Jackson Blvd.","57702",44.0589261511992,-103.29107522964478
"57702","Rapid City","SD","Wilderness Park","514 City Springs Road","57702",44.09022903442383,-103.29396057128906
"57702","Rapid City","SD","Rushmore Tramway Adventures","not_available","57751",43.887533,-103.425959
"57702","Rapid City","SD","Breezy Point Picnic Area","Hwy 244","57751",43.88934016227722,-103.4735244512558
"57702","Rapid City","SD","Braeburn Dog Park","3350 Idlehurst Lane","57702",44.05479829596137,-103.30465598492455
"57702","Rapid City","SD","The Outdoor Campus - West","4130 Adventure Trl","57702",44.08990715778172,-103.28623367698869
"57702","Rapid City","SD","Keystone City Park","Madill St","57751",43.901549,-103.409978
"57702","Rapid City","SD","Cliffside Park","West Hwy. 44 & Dark Canyon Road","57702",44.05197131398325,-103.31302642822264
"57702","Rapid City","SD","Leisure Lane Park","not_available","57718",44.179438163958736,-103.33205464970064
"57703","Rapid City","SD","Boykin Park","Tanglewood Ln","57719",44.119409,-103.1053
"57703","Rapid City","SD","Box Elder City Park","not_available","57719",44.114336,-103.079185
"57717","Belle Fourche","SD","Highland Park","National St","57717",44.66328191602278,-103.84641443590242
"57717","Belle Fourche","SD","Jones Park","Union St.","57717",44.655817,-103.843589
"57717","Belle Fourche","SD","McNenny State Fish Hatchery","19619 Trout Loop","57783",44.558994,-104.011139
"57717","Belle Fourche","SD","Herrmann Park","8th avenue","57717",44.66700473023961,-103.84818077087402
"57718","Black Hawk","SD","Piedmont Park","Park St.","57769",44.231009477336414,-103.38911533355713
"57720","Buffalo","SD","Slim Miller Park","Airport Rd","57720",45.582646485705226,-103.5415948553065
"57730","Custer","SD","Wildlife Loop","Hwy 16","57730",43.760719762310025,-103.3579193705772
"57730","Custer","SD","State Game Lodge Campground","13389 S Dakota 87","57744",43.76093229241603,-103.37553024388936
"57730","Custer","SD","Big Rock Park","not_available","57730",43.7647,-103.59765
"57730","Custer","SD","Little Devil's Tower","Custer, SD 57730","57730",43.85211084607422,-103.53827156687666
"57732","Deadwood","SD","Richard Gordon Memorial Park","Cemetery St","57732",44.37307296464862,-103.72767448425292
"57732","Deadwood","SD","Richard Gordon Park","168-234 Sherman St","57732",44.373049386765466,-103.72773179
"57735","Edgemont","SD","Edgemont City Park","not_available","57735",43.3011806165757,-103.83483409881592
"57735","Edgemont","SD","Cascade Springs","not_available","57747",43.333678,-103.550484
"57770","Pine Ridge","SD","Mato Luta Park","not_available","57770",43.02246,-102.43553
"57783","Spearfish","SD","D.C Booth Historic National Fish Hatchery & Archives","423 Hatchery Cir","57783",44.48129905720695,-103.86032241371167
"57783","Spearfish","SD","Spearfish City Park","119 S Canyon St","not_available",44.4832888887212,-103.8609814015181
"57783","Spearfish","SD","Jorgensen Park","not_available","57783",44.505546428776235,-103.86573241656004
"57783","Spearfish","SD","Frank R. Brady Memorial Park","510 Meier Ave","57783",44.487632751464844,-103.86405944824219
"57783","Spearfish","SD","Evans Park","2401-2599 3rd St","57783",44.51064600120967,-103.8653039932251
"57783","Spearfish","SD","Salem Park","W Quincy St","57783",44.497395016666665,-103.86697801
"57785","Sturgis","SD","Sturgis City Park","Lazelle Ave","57785",44.416624465455556,-103.50188653142139
"57785","Sturgis","SD","Oak Park","Park St.","57793",44.460697174072266,-103.64647674560547
"57785","Sturgis","SD","Whitewood City Park","1500-1518 Park St","57793",44.473320476949844,-103.64565580994315
"57785","Sturgis","SD","Sturgis Community Picnic","not_available","57785",44.41529959484307,-103.51549972332417
"57785","Sturgis","SD","Ft Meade Recreation Area Park","Stone Rd","57785",44.40349559983189,-103.49172592163086
"57790","Wall","SD","Wall City Park","Glenn St.","57790",43.997565,-102.238766
