"zip","city","state","name","address","postalCode","lat","lon"
"66002","Atchison","KS","Independence Park","not_available","not_available",39.565425,-95.112963
"66002","Atchison","KS","International Forest Of Friendship","Allingham Drive","66002",39.56790066393993,-95.14876318096806
"66006","Baldwin City","KS","Wells Overlook County Park","not_available","66046",38.88233154729305,-95.24821547977722
"66006","Baldwin City","KS","West Park","1000 High St","66006",38.77458953857422,-95.19390869140625
"66006","Baldwin City","KS","Wells Overlook Park","not_available","66047",38.88223182796932,-95.24916588525112
"66006","Baldwin City","KS","Firetree Park","Left hand side of the street","66006",38.78678,-95.18923
"66012","Bonner Springs","KS","De Soto Riverfront Park","not_available","66018",38.983832524736705,-94.97370787233375
"66012","Bonner Springs","KS","A Bench on the Path","not_available","66218",39.01499938964844,-94.83557891845703
"66012","Bonner Springs","KS","Wyandotte County Park","976-1098 N 126th St","66012",39.10613422123925,-94.86674835648753
"66012","Bonner Springs","KS","Wyandotte County Park Shelter A","not_available","66012",39.111477,-94.866347
"66012","Bonner Springs","KS","Kelly Murphy Park","Elm + Second Street","not_available",39.055350984188955,-94.88312244415283
"66012","Bonner Springs","KS","Shawnee Riverfront Park","5500 Frisbie Rd","66226",39.032989501953125,-94.88621520996094
"66012","Bonner Springs","KS","Monticello Springs Park","not_available","66227",38.98376552178793,-94.84469860096453
"66013","Bucyrus","KS","Stillwell Community Park","not_available","66013",38.754172,-94.660315
"66018","De Soto","KS","Sunflower Nature Park","103rd and Edgerton Rd","66018",38.941777433037004,-95.0124841274521
"66018","De Soto","KS","Lexington Lake Park","9000 Sunflower Road","66018",38.96809,-95.00694
"66020","Easton","KS","Easton Veterans Memorial","213 S 1st Street","66020",39.34327150362051,-95.11407136917114
"66021","Edgerton","KS","Celebration Park","32701 W. 159th St.","not_available",38.83864509699168,-94.96191989601338
"66021","Edgerton","KS","Martin Creek Park","20200 Sunflower Rd","66021",38.76140594482422,-95.00314331054688
"66021","Edgerton","KS","Big Bull Creek Park","not_available","66021",38.758257,-94.99886
"66021","Edgerton","KS","Kade Meyer Celebration Park Bench","not_available","66030",38.8390007019043,-94.9616470336914
"66021","Edgerton","KS","Wellsville City Park","not_available","66092",38.719110876561366,-95.07977912886965
"66021","Edgerton","KS","Westside Park and Sports Complex","321 Bedford St.","66030",38.805979739206236,-94.93979809768781
"66023","Effingham","KS","Lancaster Saddle Club","not_available","66041",39.575559,-95.303506
"66024","Elwood","KS","St. Joseph Riverwalk","not_available","64501",39.76652678698656,-94.86037662547128
"66025","Eudora","KS","CPA Park","911 Main St","66025",38.94276809692383,-95.09922790527344
"66025","Eudora","KS","Lucy Kaegi Park","not_available","66025",38.93109248230189,-95.09684050903516
"66025","Eudora","KS","East Side Park","14th Street","66025",38.935383,-95.089378
"66027","Fort Leavenworth","KS","Hill Top Park","not_available","66027",39.34083584634548,-94.93013571581474
"66030","Gardner","KS","Winwood Park","N White Dr/E Colleen Dr","66030",38.820653219818,-94.91577483882652
"66030","Gardner","KS","J, R, D & C","824 S Sumac St","66030",38.797359466552734,-94.91224670410156
"66032","Garnett","KS","Westphalia City Park","not_available","66093",38.18066342726413,-95.48992963309902
"66033","Greeley","KS","Heritage Park","not_available","66072",38.33076698653327,-94.98912276269688
"66035","Highland","KS","highland community park","Main St","66035",39.8612310665999,-95.27246642030764
"66040","La Cygne","KS","Linn County Park","Unnamed Rd","66040",38.37271606594678,-94.6650037332876
"66043","Lansing","KS","Cody Park","Limit","66048",39.28850061716373,-94.91768770701655
"66043","Lansing","KS","willow park","gillam road","66043",39.24868160032045,-94.90021955434418
"66044","Lawrence","KS","Buford M. Watson, Jr. Park","600-648 Tennessee St","66044",38.97170323926774,-95.23891624823517
"66044","Lawrence","KS","Old West Lawrence","Illinois St.","66044",38.97122100417539,-95.24532794952393
"66044","Lawrence","KS","Veterans Park","1807-1849 Ohio St","66044",38.950635623513385,-95.24039338631277
"66044","Lawrence","KS","Japanese Friendship Garden","1045 Massachusetts","66044",38.96415741367617,-95.23613800119361
"66044","Lawrence","KS","Hobbs Park","702 E 11th St.","66044",38.96409180241645,-95.2275503104673
"66044","Lawrence","KS","Brook Creek Park","1200 Brook St","66044",38.96095853170447,-95.21892122011126
"66044","Lawrence","KS","Burcham Park","not_available","66044",38.981618677075176,-95.2407314728753
"66044","Lawrence","KS","KU Sand Volleyball Courts","not_available","66045",38.95362939069655,-95.25003285427245
"66044","Lawrence","KS","Ludlam Park","not_available","66049",38.96799161314062,-95.26906358354418
"66044","Lawrence","KS","Woody Park","105-225 Maine St","66044",38.98096471666667,-95.24775833333334
"66044","Lawrence","KS","Centennial Park","600 Rockledge Road","66049",38.96974434193138,-95.2636102833533
"66044","Lawrence","KS","Robinson Park","Lawrence Ks 66045","66045",38.97317144309849,-95.23812592968626
"66044","Lawrence","KS","Water Tower Park","1225 Sunset Drive","66044",38.96205520629883,-95.25753021240234
"66044","Lawrence","KS","Boathouse, The University of Kansas","Burcham Park","not_available",38.982530928204305,-95.24087424579896
"66044","Lawrence","KS","Clinton Park","5th & Alabama","66044",38.97465287984698,-95.24670911951641
"66046","Lawrence","KS","Dad Perry Park","6th & monterey","66049",38.96161772541691,-95.28773320634636
"66046","Lawrence","KS","Holcom Park Recreation Center","2700 W 27th St","66047",38.93651285516145,-95.26751518249512
"66046","Lawrence","KS","Prairie Park Nature Center","2730 Harper St","66046",38.93337680185975,-95.21581286884059
"66046","Lawrence","KS","Pat Dawson-Billings Nature Area","3951 W 27th St","66047",38.929194,-95.289549
"66046","Lawrence","KS","Centennial Park","126 E Cedar St, Bonner Springs, KS 66012","66012",38.94802707798905,-95.26060073302271
"66047","Lawrence","KS","Clinton Lake","872 N 1402 Rd","66049",38.931277374835155,-95.35861463061428
"66047","Lawrence","KS","Clinton Lake - Bloomington Park","N 1182 Rd.","66047",38.90743562861564,-95.36909518258365
"66047","Lawrence","KS","Outlet Park","1316 E. 902 Rd.","not_available",38.929145,-95.325656
"66047","Lawrence","KS","Clinton Lake Outlet Park","1316 E. 902 Rd","66049",38.93003656944158,-95.32630920410156
"66048","Leavenworth","KS","10th Avenue Park","10th Ave","66048",39.28130078799397,-94.93410587310791
"66048","Leavenworth","KS","Bob Dougherty Park","2nd & KiowA","66027",39.325042013153606,-94.91363243314477
"66048","Leavenworth","KS","Stubby Park","4th Street","66048",39.3067088434282,-94.90941423611369
"66048","Leavenworth","KS","Wollman Park","not_available","66048",39.31995716955392,-94.93428999946084
"66048","Leavenworth","KS","Union Park","5th Ave","66048",39.31058652828044,-94.9169272263891
"66048","Leavenworth","KS","Leavenworth Landing Park","123 S. Esplanade Street","66048",39.31664338241661,-94.90908474221172
"66048","Leavenworth","KS","North Esplanade Park","300 North Esplanade","66048",39.318648082541586,-94.91226824185212
"66048","Leavenworth","KS","Shafer Park","not_available","64098",39.403618,-94.89688
"66048","Leavenworth","KS","Riverfront Park","Riverfront Park Rd","66048",39.32915063978758,-94.91074743905018
"66053","Louisburg","KS","Louisburg City Lake and Ron Weers Park","Metcalf & Shoreline Dr.","66053",38.60732132773567,-94.67511324699677
"66054","Mc Louth","KS","Chieftain Park","not_available","66086",39.114554664715186,-95.08390489290723
"66054","Mc Louth","KS","Rose Park","not_available","66054",39.199057,-95.21067
"66061","Olathe","KS","Prairie Center Park","not_available","66061",38.891235451929774,-94.84451632445557
"66061","Olathe","KS","Kill Creek Park","11670 S Homestead Ln","66018",38.91565866903115,-94.97057063800719
"66061","Olathe","KS","Ernie Miller Park & Nature Center","909 North, KS-7","66061",38.89663592348647,-94.84130144119263
"66061","Olathe","KS","Brougham Park","15501 S Brougham Dr","66062",38.84647624145032,-94.77021217346191
"66061","Olathe","KS","Frisco Lake Park","1084-1126 E Dennis Ave","66061",38.87219041454051,-94.80583666595041
"66061","Olathe","KS","Buffalo Meadows Park","Prairie Star Parkway and Lone Elm Road","66061",38.95441281352734,-94.83764595045463
"66061","Olathe","KS","Lone Elm Park","not_available","66062",38.82278225312433,-94.83074099569502
"66061","Olathe","KS","Mill Creek Park","409 E Spruce St","66061",38.886055530909076,-94.81685776225835
"66061","Olathe","KS","Olathe Kansas City Road Park","E. Kansas City Road","66061",38.88585798466817,-94.80237088983228
"66061","Olathe","KS","Scarborough Park","1825 E 153rd St","not_available",38.85091018676758,-94.78713989257812
"66061","Olathe","KS","Veterans Memorial Park","1025 S Harrison St","66061",38.86763381958008,-94.81675720214844
"66061","Olathe","KS","Hampton Park","S Warwick St","66062",38.83301716249384,-94.80533527747019
"66061","Olathe","KS","Ironwoods park","14672","not_available",38.86899367147322,-94.77965900431394
"66061","Olathe","KS","Southlake Park","College Blvd & Lakeview","66219",38.92600322557125,-94.77162356612575
"66061","Olathe","KS","Park","15501","66061",38.88154580068335,-94.83716011047363
"66061","Olathe","KS","BarNone Training","15501 S Brougham Dr.","66062",38.8465690612793,-94.77098846435547
"66062","Olathe","KS","Thomas S. Stoll Memorial Park","12500 W 119th St.","66210",38.91941070627962,-94.73383381660692
"66062","Olathe","KS","Heritage Dog Park","16050 S Pflumm Rd","66062",38.83790253735858,-94.75922584533691
"66062","Olathe","KS","Heritage Park","16000","66062",38.827428688550185,-94.74697842602787
"66062","Olathe","KS","Frontier Park","15501 Indian Creek Pkwy","66062",38.89292111369794,-94.76474933031058
"66062","Olathe","KS","Cobblestone Park","not_available","66210",38.918278,-94.716805
"66062","Olathe","KS","Indian Valley Park","11606 Knox","66210",38.91881534367074,-94.69983214653607
"66062","Olathe","KS","Black Bob Park","14570 W 151st Ter","66062",38.85729082981092,-94.7538830066134
"66062","Olathe","KS","Cross Creek","10801 Indian Creek Pkwy","66210",38.921077728271484,-94.70637512207031
"66062","Olathe","KS","Westgate Park","12698 W. 121st St.","66213",38.907641613217045,-94.73208548214889
"66062","Olathe","KS","Blue Valley Recreation","8851 W 137th St","66221",38.878604888916016,-94.69124603271484
"66062","Olathe","KS","Heatherstone park","not_available","66213",38.90496397113084,-94.74504267082241
"66062","Olathe","KS","Haven Park","Blackfoot","66062",38.85796090554151,-94.76448924205847
"66062","Olathe","KS","Kensington Park","123rd street","66213",38.90497432351903,-94.69336861025151
"66062","Olathe","KS","Heritage Soccer Park","17255 S Lackman Rd.","66062",38.815382104454265,-94.75794225352732
"66062","Olathe","KS","Lunch Spot 4","12735 135th","66221",38.88253099305497,-94.75600631988543
"66062","Olathe","KS","Wyncroft Hill Playground","12235 S Blackbob Rd","66062",38.908241271972656,-94.75920104980469
"66064","Osawatomie","KS","Osawatomie Little Lake","not_available","66064",38.529241,-94.99922
"66064","Osawatomie","KS","Bull Creek Trail","not_available","66071",38.561765,-94.882785
"66064","Osawatomie","KS","Wallace Park","Osage & Wallace Park Dr.","66071",38.56283043815324,-94.87710271434185
"66067","Ottawa","KS","Freedom Park","not_available","66067",38.61455,-95.26271
"66067","Ottawa","KS","Kanza Park","Prairie Spirit Rail-Trail","66067",38.59752416610718,-95.27074456214905
"66071","Paola","KS","Park Square","Wea & Pearl St","66071",38.57234739132505,-94.87863779583424
"66071","Paola","KS","Whitaker park","1 Brookside Dr.","66071",38.58403396606445,-94.87229919433594
"66071","Paola","KS","Paola Aboretum","Wallace Park Dr","66071",38.56649074,-94.87672829
"66083","Spring Hill","KS","BlackHawk 2","226th & Victory Rd.","66083",38.71670634662298,-94.82750579708593
"66083","Spring Hill","KS","Friendship Park","401 N Madison St","66083",38.74687957763672,-94.82730102539062
"66085","Stilwell","KS","Stanley Nature Park","16107 Russell Rd","66085",38.835506439208984,-94.65878295898438
"66085","Stilwell","KS","playground","not_available","66085",38.824642181396484,-94.68536376953125
"66086","Tonganoxie","KS","VFW Park","Yoeke St","66086",39.106617,-95.080655
"66087","Troy","KS","Troy Community Park","Park Street","66087",39.788194,-95.095202
"66087","Troy","KS","Troy Park","W Walnut St","66087",39.78627967538515,-95.0914978981018
"66090","Wathena","KS","Huston Wyeth Park","Elwood St","64501",39.776875,-94.867283
"66090","Wathena","KS","Mystery Park","not_available","64505",39.794782,-94.87034
"66095","Williamsburg","KS","Williamsburg City Park","not_available","66095",38.478845,-95.468346
"66101","Kansas City","KS","Kaw Point Park","1403 Fairfax Tfwy","66101",39.11620037242635,-94.61250877001459
"66101","Kansas City","KS","Parkwood Park","not_available","66104",39.136887787267256,-94.63346581614404
"66101","Kansas City","KS","KCK Rose Garden","not_available","66101",39.114018,-94.625169
"66101","Kansas City","KS","St. John's Park","801 N 4th St.","66101",39.1138259461144,-94.61841215666584
"66101","Kansas City","KS","John Garland Park","498 Cleveland Ave","66101",39.13491161674636,-94.62077728287818
"66101","Kansas City","KS","Bethany Park","1100 Central Ave","66102",39.101898193359375,-94.6376724243164
"66102","Kansas City","KS","Waterway Park","not_available","66102",39.11224977067207,-94.63923118431394
"66103","Kansas City","KS","Rosedale Park","Rosedale Park Rd","66103",39.05253043351129,-94.6220629798949
"66103","Kansas City","KS","Bill Clem Park","not_available","66105",39.087044,-94.63623
"66103","Kansas City","KS","Shawnee Park","S 7th Steet Trfy","not_available",39.085039419679596,-94.62636460955972
"66105","Kansas City","KS","Clopper Field","1201-1299 S 34th St","66106",39.07737941591036,-94.66734041408948
"66105","Kansas City","KS","Emerson Park","2819 Strong Ave","66106",39.07446472522853,-94.66224324794922
"66106","Kansas City","KS","Turner Walking Park","53rd and county line rd.","66106",39.044748362867665,-94.70026644275366
"66106","Kansas City","KS","Leo Alvey Park","not_available","66106",39.07534326993193,-94.68977199234884
"66106","Kansas City","KS","Highland Park Ball Field","Shawnee Drive","66106",39.0459151,-94.69234777
"66109","Kansas City","KS","Thousand Oaks Gazebo","not_available","64152",39.207934,-94.750545
"66111","Kansas City","KS","stony point park","86 N 86th St, Kansas City, KS 66111","66111",39.1082779426645,-94.77907135106003
"66111","Kansas City","KS","Edwardsville Days","not_available","66111",39.058533486271074,-94.81029510498047
"66111","Kansas City","KS","Edwardsville City Park","1200 Blake St.","66111",39.05866972762689,-94.81042599200062
"66115","Kansas City","KS","Waterwell Park","not_available","64116",39.159691574294655,-94.59303462049962
"66202","Mission","KS","Antioch Park","6501 Antioch Rd","66202",39.00947239841535,-94.68439162158941
"66202","Mission","KS","Waterfall Park","5201 Merriam Dr","66203",39.03432083129883,-94.68946838378906
"66202","Mission","KS","Mohawk Park","6601-6619 Horton St","66202",39.008397481451915,-94.65831724063344
"66202","Mission","KS","Hickory Hills Park","8420 W. 54th Terrace","66202",39.03131103515625,-94.68334197998047
"66202","Mission","KS","Gibbs Plaza","not_available","66202",39.020269,-94.666088
"66202","Mission","KS","Streamway Park","W 50th PL","66202",39.037107830780336,-94.66760285533073
"66202","Mission","KS","Review Park","7733 W 61st St","66202",39.0184326171875,-94.6761703491211
"66202","Mission","KS","Silverwood Apts ""Walking Trail""","5100 Foxridge Dr","66202",39.038509368896484,-94.66687774658203
"66202","Mission","KS","Pearl Harbor Memorial Park","6001 Maple St","66202",39.02009582519531,-94.64990234375
"66202","Mission","KS","Waterworks Park","53rd & Woodson","66202",39.03337269594393,-94.65320578054191
"66202","Mission","KS","Broadmoor Park","5929 Broadmoor St","66202",39.02531135863873,-94.66454448381333
"66202","Mission","KS","Nall Park","not_available","66205",39.04267309647907,-94.64594560620218
"66203","Shawnee","KS","Campbell Park","Turkey Creek Streamside","not_available",39.020398084465135,-94.69647909177527
"66203","Shawnee","KS","Shawnee Pioneer Park","10408 W 63rd Ter","66203",39.013971999999995,-94.706822
"66203","Shawnee","KS","Chatlain Park","6300 Carter Ave.","66203",39.01364309956123,-94.69800788770804
"66203","Shawnee","KS","Herman E. Laird Tennis Courts","not_available","66203",39.0286014400746,-94.72180882745769
"66203","Shawnee","KS","levee park","not_available","66204",38.99555969238281,-94.68534088134766
"66203","Shawnee","KS","West Flanders Park & Walking Trail","10920-11098 W 55th St","66203",39.02986157071125,-94.71328177802712
"66203","Shawnee","KS","West Flanders Park","55th & Nieman Rd.","66203",39.03039184855463,-94.7131959080931
"66203","Shawnee","KS","Water Tower Park","70th St.","66203",39.00216524712678,-94.71789369630767
"66203","Shawnee","KS","Marty Park","7405 Conser","66204",38.994391666666665,-94.672988
"66203","Shawnee","KS","Gum Springs Park","67th St.","66203",39.010445004470014,-94.71861321299812
"66204","Overland Park","KS","Young's Park","8522 W 78th St","66204",38.98764247114897,-94.68375046451322
"66204","Overland Park","KS","Sapling Grove Park","8200-8218 Grant Ln","66204",38.981167823046114,-94.69733024106237
"66205","Mission","KS","R Park","5535 Juniper Dr.","66205",39.02824020385742,-94.64376831054688
"66205","Mission","KS","Westwood Mini Park","5000 Rainbow Blvd","not_available",39.03730010986328,-94.61237335205078
"66205","Mission","KS","Fairway Park","6136 Mission Rd","66205",39.019313059692614,-94.63297152609165
"66205","Mission","KS","Neale Peterson Park","6136 Mission Road","66205",39.0174674987793,-94.63128662109375
"66205","Mission","KS","Suicide Hill","4813 State Line Rd.","66205",39.04148781789635,-94.60820224690508
"66205","Mission","KS","Verona Columns","Ensley Lane & Overhill Road","66208",39.016990442018106,-94.61359687384459
"66206","Leawood","KS","Brook Beaty Park","Lee Blvd, Leawood, KS","66206",38.9721790888719,-94.6157195794637
"66206","Leawood","KS","Taliaferro Park","79th Street","66208",38.98308897536322,-94.62227044470191
"66206","Leawood","KS","Dog Poo Island","not_available","66206",38.964139395060215,-94.62211340734603
"66207","Overland Park","KS","Roe Park","not_available","66207",38.93980853746386,-94.64091601781458
"66207","Overland Park","KS","Empire Estates Park","9700 Roe Ave","66207",38.95150375366211,-94.63945770263672
"66208","Prairie Village","KS","Bennet Park","5200 W 77th St","66208",38.98978805541992,-94.6456527709961
"66208","Prairie Village","KS","Harmon Park","7711 Delmar","66208",38.98824281187111,-94.63347590374416
"66208","Prairie Village","KS","Wassmer Park","6700 Roe Ave","66208",39.00701,-94.640598
"66208","Prairie Village","KS","Meadowlake Park","2900-2960 W 79th St","66208",38.986661,-94.61925745010376
"66208","Prairie Village","KS","Prairie Park","not_available","66208",39.00569861483229,-94.63993739560475
"66208","Prairie Village","KS","BarNone Training","7800 Delmar St.","66208",38.98796827765054,-94.63491082191467
"66208","Prairie Village","KS","Windsor Park","7200 Windsor ST.","66208",38.998008069824095,-94.62730407714844
"66208","Prairie Village","KS","Broken Fountain Park","4300 W 69th St","66208",39.004615783691406,-94.634765625
"66209","Leawood","KS","Tomahawk Park","not_available","66209",38.912806464464396,-94.63338511541026
"66209","Leawood","KS","I-Lan Park","12601 Nall","66209",38.90137499743306,-94.64875067359284
"66210","Overland Park","KS","Corporate Woods Founders' Park","9401 Indian Creek Pkwy","66210",38.931104863484244,-94.69768524169922
"66210","Overland Park","KS","Shannon Valley Park","11101 Grant","66210",38.92696475801018,-94.69378770703022
"66210","Overland Park","KS","6860","not_available","66211",38.918387,-94.664026
"66210","Overland Park","KS","Valleybrooke Park","11000 W. 108th Terr., Overland Park, KS","66210",38.93409357340466,-94.71710060057815
"66211","Leawood","KS","Leawood City Park","10601 Lee Blvd","66206",38.93187268988905,-94.61850643157959
"66211","Leawood","KS","Foxhill South Park","109th and El Monte","66211",38.92898963888417,-94.63652816116199
"66212","Overland Park","KS","Indian Creek Recreation Center","103rd","66212",38.94145161901345,-94.67349297429647
"66212","Overland Park","KS","Maple Hills Park","8445-8499 Switzer Rd","66212",38.975223185644495,-94.70374598685542
"66212","Overland Park","KS","Brookridge Park","W 101st St","66212",38.944959812802566,-94.67692033675128
"66212","Overland Park","KS","Hanover Park","not_available","66212",38.94260393441779,-94.69522174921399
"66212","Overland Park","KS","Indian Creek Bike Trail","6525 W 103rd St","66212",38.939603422388,-94.67704132933972
"66212","Overland Park","KS","Pinehurst Estates Park","Hadley","66212",38.95040587486068,-94.67896979023554
"66214","Overland Park","KS","Oak Park Park","not_available","66214",38.94164406370777,-94.7234810525608
"66214","Overland Park","KS","Bluejacket Park","10101 Bond St","66214",38.94592238014608,-94.71604102469853
"66215","Lenexa","KS","Sar-Ko-Par Park","8825 Lackman Rd","66215",38.969964511429254,-94.7584436340702
"66215","Lenexa","KS","John McNerney Park","Pennycross & Haskins","66215",38.953640164959715,-94.73736663473328
"66215","Lenexa","KS","Tamarisk Park","Lackman","66219",38.963262067230765,-94.76184001922583
"66215","Lenexa","KS","Rosehill East","10531 rosehill","66215",38.94144455855437,-94.73249476932553
"66215","Lenexa","KS","Rosehill Park","10501 Rosehill Rd","66215",38.941478350344255,-94.7362846104093
"66215","Lenexa","KS","Matt Taylor Park","not_available","66215",38.98001401,-94.73220137
"66215","Lenexa","KS","Kickapoo Park","Brentwood dr","not_available",38.95905924325026,-94.75444916004952
"66216","Shawnee","KS","Listowell Park","Quivira Rd.","66216",38.99941005126094,-94.72513311958726
"66216","Shawnee","KS","Little Mill Creek Park North","14000 W 79th St","66215",38.98674804910005,-94.74885865043767
"66216","Shawnee","KS","Ashley Park","76th Terrace","not_available",38.98985040967495,-94.74607877152033
"66216","Shawnee","KS","seven hills park","not_available","66216",38.99655339351663,-94.74438564148267
"66216","Shawnee","KS","Veteran's Park","Pflumm Rd.","not_available",39.02130298103124,-94.7425257856628
"66216","Shawnee","KS","Quivira Glenn Park","11111 51st St","66216",39.03733226496168,-94.74405712976035
"66216","Shawnee","KS","Quivera Glen Park & Walking Trail","13388 W 51st St","66216",39.03717798293864,-94.74414110183716
"66217","Shawnee","KS","Shawnee Mission Park","7900 Renner Rd.","66227",38.985515072453666,-94.7868610477626
"66217","Shawnee","KS","Mill Creek Streamway Park - Wilder Dr. Access","19425 Wilder Dr.","66218",39.04008697818427,-94.81051189897958
"66217","Shawnee","KS","Ad Astra Park","83rd St.","66219",38.97829443107847,-94.7702937105653
"66217","Shawnee","KS","Shawnee Mission Park Archery Range","not_available","66220",38.976363782370704,-94.80884013987661
"66217","Shawnee","KS","Shawnee Mission Park Administration Building","not_available","66219",38.985514,-94.78171
"66217","Shawnee","KS","The Bench By The Trashcan","Swarner Park","66217",39.017699,-94.765451
"66217","Shawnee","KS","The Bench By The Fountain","not_available","66217",39.01686862732219,-94.76212819186006
"66219","Lenexa","KS","Electric Park","9243 Loiret Blvd","66219",38.959898587109954,-94.76917119590149
"66219","Lenexa","KS","Paradise","10035 Lakeview Ave","66219",38.947049,-94.76839100000001
"66220","Lenexa","KS","Black Hoof Park","9053 Monticello Road","66227",38.96600196273799,-94.84104305900236
"66220","Lenexa","KS","Mill Creek Streamway Park 87th St","87th & Woodland","not_available",38.96376199562048,-94.81479809733221
"66221","Overland Park","KS","Tomahawk Valley Park","not_available","66221",38.876511454582214,-94.72178757190704
"66221","Overland Park","KS","Overland park community park","13800 Switzer Rd","66221",38.87821960449219,-94.70140075683594
"66223","Overland Park","KS","Kingston Lake Park","15239-15317 Lowell Ave","66223",38.85124739591792,-94.67886378213535
"66224","Overland Park","KS","Iron Horse Park","not_available","66224",38.85953353744483,-94.62567370355563
"66224","Overland Park","KS","Ironwoods Park","not_available","64145",38.86133390785402,-94.62251682863808
"66224","Overland Park","KS","Reaney Rainforest","3801-4001 W 135th St.","66224",38.883664,-94.633211
"66402","Auburn","KS","Auburn City Park","School Street","66402",38.909897450497205,-95.81927068043335
"66407","Belvue","KS","Oregon Trail Nature Park","not_available","66536",39.228820670013704,-96.15233866999483
"66407","Belvue","KS","Belvue City Park","not_available","66407",39.213240533333334,-96.18159387
"66411","Blue Rapids","KS","Monument To The Ice Age","not_available","66411",39.684112548828125,-96.66070556640625
"66411","Blue Rapids","KS","Blue Rapids Park and Pool","301-375 W 5th St","66411",39.68361773,-96.6638693
"66413","Burlingame","KS","Sumner Park","not_available","66413",38.751294,-95.83586
"66414","Carbondale","KS","Carbondale City Park","Main St. & Kansas St.","66414",38.819752827476044,-95.69557911784558
"66424","Everest","KS","City Park","628-704 N 2nd St","66424",39.67816899114544,-95.42302008846073
"66436","Holton","KS","Rafters Park","801-899 Kansas Ave","66436",39.46897478906692,-95.74256852231727
"66441","Junction City","KS","5th Street Park","not_available","66441",39.0269614816164,-96.84738313465675
"66441","Junction City","KS","Rimrock Park","S Eisenhower Dr","66441",39.01891695025239,-96.85083389282227
"66441","Junction City","KS","North Overlook Park","not_available","66442",39.093631744384766,-96.84481048583984
"66441","Junction City","KS","Heritage Park","W 6th St","66441",39.028023313836094,-96.8306379149903
"66441","Junction City","KS","McCormic Park","Pistol Range Rd","66442",39.06670550197956,-96.80397693959696
"66441","Junction City","KS","North Park","N Park Dr","66442",39.042623,-96.857885
"66441","Junction City","KS","Filby Park","W 14th St","66441",39.036652971199196,-96.85173511505127
"66441","Junction City","KS","Wofford Street Neighborhood Park","44541 Wofford Dr","66442",39.09112548828125,-96.79761505126953
"66441","Junction City","KS","Community Garden","118 10th St","66517",39.11357471614769,-96.7043112655747
"66441","Junction City","KS","Wofford Street Neighborhood Park #2","44555 Wofford Dr","66442",39.09117126464844,-96.7975845336914
"66441","Junction City","KS","Sertoma Park","E 6th St","66441",39.027552147931395,-96.81671619415283
"66451","Lyndon","KS","Melvern Lake Campground","Outlet Area","66510",38.515053381201504,-95.70568332776094
"66502","Manhattan","KS","City Park","1220 Poyntz Ave","66502",39.18193902602641,-96.57446262219129
"66502","Manhattan","KS","Cico Park","not_available","66502",39.199400876980434,-96.61970729605922
"66502","Manhattan","KS","Blue Earth Plaza","3rd & Colorado","66502",39.175930580908215,-96.55989063738737
"66502","Manhattan","KS","Anneberg Park","Anneberg Cir","66503",39.18593420817529,-96.63203049278277
"66502","Manhattan","KS","Washington Marlatt Park","Marlatt and Seth Childs","66503",39.22210385106,-96.62083934513666
"66502","Manhattan","KS","Longs Park","1601-1699 Colorado St","66502",39.17588578143635,-96.58252716064453
"66502","Manhattan","KS","Stockdale Park","not_available","66503",39.30598970172645,-96.65297284229491
"66502","Manhattan","KS","Northview Park","Griffith Street","66502",39.21287292055018,-96.57564078805284
"66502","Manhattan","KS","City Park Tennis Courts","405 S 11th St","66502",39.18151005,-96.57740950584412
"66502","Manhattan","KS","Pillsbury Crossing Wildlife Area","Pillsbury Crossing Lane","66502",39.12937327175888,-96.44084621450763
"66502","Manhattan","KS","Sojourner Truth Park","10th and Pottawatomie","66502",39.17294146442837,-96.57263517379761
"66502","Manhattan","KS","Wildcat Park","W. 62nd Ave","66503",39.203160595131685,-96.68359279632568
"66502","Manhattan","KS","Warner Memorial Park","Warner Park Road","66503",39.16812814160435,-96.61526171927919
"66502","Manhattan","KS","Optimist Park","Q","66502",39.18563697581709,-96.60483079872387
"66502","Manhattan","KS","The Little Park","not_available","66549",39.39187,-96.41585
"66502","Manhattan","KS","Triangle Park","Anderson Ave","66502",39.18631771924679,-96.57675975889782
"66502","Manhattan","KS","University Park","not_available","665ow",39.37265507991842,-96.70097866420805
"66502","Manhattan","KS","Fairmont Park","Messenger Rd.","66502",39.17771552084858,-96.5467357635498
"66503","Manhattan","KS","Keats Park","Reservation Ave.","66531",39.2236203875033,-96.71065308650039
"66507","Maple Hill","KS","Rossville city park","not_available","66533",39.13344543969436,-95.95124313666983
"66508","Marysville","KS","Pony Express Mural Park","7th & Broadway","66508",39.84185,-96.64949
"66508","Marysville","KS","Historic Trails Park","not_available","66508",39.843384,-96.659857
"66508","Marysville","KS","Dargatz Park","501 S 15th St","66508",39.8375358581543,-96.63971710205078
"66508","Marysville","KS","Lions Park","16th & North","66508",39.84931600272929,-96.63763462744666
"66508","Marysville","KS","Marysville City Park","Hwy 36 & Hwy 77","66508",39.838653768245244,-96.64639663568244
"66509","Mayetta","KS","Prairie Peoples Park","M Rd","66509",39.324508664798664,-95.80975475656533
"66510","Melvern","KS","MELVERN park","Main Street","66510",38.50645822746798,-95.63791124023128
"66514","Milford","KS","Milford City Park","not_available","66514",39.1717,-96.91053
"66524","Overbrook","KS","Overbrook-Osage County Fairgrounds","600 Cedar","66524",38.78013265514884,-95.55371761322021
"66524","Overbrook","KS","Jones Park Overbrook","400 Jones Park Drive","66524",38.77867735304255,-95.55108904838562
"66531","Riley","KS","Riley Park","not_available","66531",39.300182879889896,-96.82414827134122
"66536","Saint Marys","KS","Railroadside Park","W Bertrand Ave","66536",39.19413788497039,-96.07034200759155
"66539","Silver Lake","KS","Silver Lake City Park","not_available","66539",39.09418401846521,-95.85798331515885
"66547","Wamego","KS","Wamego City Park","not_available","66547",39.20271988826905,-96.30203614678265
"66547","Wamego","KS","Pennyland Park","902 Walnut St","66547",39.206844329833984,-96.31270599365234
"66603","Topeka","KS","Ward Meade Park","120 NW Clay St","66606",39.063378,-95.683274
"66603","Topeka","KS","Great Overland Station","not_available","66608",39.06620172743397,-95.66966708894776
"66603","Topeka","KS","Giles Park","not_available","66606",39.06147881464274,-95.67952693718104
"66604","Topeka","KS","Washburn Park","Billard Ave","66604",39.04956600717841,-95.71370727577775
"66604","Topeka","KS","Warren Nature Area","not_available","66611",39.017464427883205,-95.7213107230786
"66604","Topeka","KS","Boswell Square Park","Jewell Ave & 13th St","66604",39.04301067790167,-95.70297109331533
"66604","Topeka","KS","Collins Parkway","Collins Ave","66604",39.04105573905927,-95.71305956259522
"66604","Topeka","KS","Great Outdoors Fitness Park","18th and Sims","66604",39.03062152643417,-95.73770848592558
"66604","Topeka","KS","Tudor Park","not_available","66604",39.03685596443041,-95.7246783484779
"66604","Topeka","KS","Alex And Abbie Park","4001-4099 SW 25th St","66614",39.022011283333335,-95.72607773333333
"66604","Topeka","KS","Edgewater Disc Golf Course","not_available","66614",39.020127,-95.732664
"66604","Topeka","KS","Crestview Shelter House","4901 SW Shunga Dr.","66614",39.018794087260886,-95.73871131806732
"66605","Topeka","KS","adams park","not_available","66605",39.00638961791992,-95.67021179199219
"66605","Topeka","KS","Park","2001-2099 SE 37th St","66609",39.0032581553557,-95.66175409573198
"66606","Topeka","KS","The Topeka Zoo","635 SW Gage Blvd","66606",39.05596710475193,-95.72694067730014
"66606","Topeka","KS","Gage Park","600 - 1000 SW Gage Boulevard","66604",39.0553593155335,-95.72903752326965
"66606","Topeka","KS","Auburndale Park/Creek","The Drive","not_available",39.067144490667125,-95.70277142967738
"66606","Topeka","KS","Willow Park","6th and Garfield","66606",39.05829336108936,-95.69660179526282
"66607","Topeka","KS","Eastgate Park","640 SE Hackberry Dr.","66607",39.04116961128183,-95.61927080154419
"66607","Topeka","KS","Samuel Jackson Spray Park","1114 SE 10th Ave","66607",39.04441452026367,-95.66020965576172
"66607","Topeka","KS","Freedom Valley Park","Freedom Valley Park, SE Locust St","66607",39.038097,-95.657875
"66608","Topeka","KS","Oakland Community Center","801 NE Poplar St","66616",39.066712091394464,-95.64417825994036
"66609","Topeka","KS","wakarusa park","Topeka Blvd 75 Highway","66609",38.96884536743164,-95.7101821899414
"66611","Topeka","KS","Country Club Park","SW Topeka Blvd & SW Granthurst Ave","66611",39.024794,-95.68425
"66614","Topeka","KS","Skyline Park","3430-3440 SW Skyline Pkwy","66614",39.00817799937238,-95.73589384295052
"66616","Topeka","KS","Riverside ATV Park","not_available","66616",39.07951,-95.61617
"66617","Topeka","KS","Shawnee North Community Center","not_available","66618",39.12465207286685,-95.65782950022249
"66701","Fort Scott","KS","Riverfront Park","not_available","66701",37.85027,-94.701606
"66713","Baxter Springs","KS","Kiwanis Park","not_available","66713",37.02402140319676,-94.72218453884125
"66720","Chanute","KS","Santa Fe City Park","3000 S Sante Fe Ave","66720",37.64671576240343,-95.4541442014874
"66720","Chanute","KS","Highland Park","Kansas Ave & Chestnut St","66720",37.6861297774538,-95.46398162841797
"66739","Galena","KS","Howard ""Pappy"" Litch Park","not_available","66739",37.076925211203054,-94.62292025292224
"66749","Iola","KS","Riverside Park","Unnamed Rd","66749",37.91677950578606,-95.41275478891835
"66756","Mulberry","KS","Mulberry City Park Lake","Mulberry,KS,66756","66756",37.55644054293077,-94.62553249756893
"66760","Opolis","KS","Opolis Park","not_available","66760",37.342689514160156,-94.62129211425781
"66762","Pittsburg","KS","lakeside park","college","66762",37.40466924066423,-94.71345307914464
"66762","Pittsburg","KS","Schlanger Park","not_available","66762",37.41229097202523,-94.69357058420184
"66762","Pittsburg","KS","Lincoln Park","Memorial Dr & Catalpa","66762",37.41866170557134,-94.71684297322494
"66762","Pittsburg","KS","Shawnee Trail Conservation Area","not_available","64762",37.395977620521684,-94.69968064866632
"66762","Pittsburg","KS","Trail Head Park","Broadway","66762",37.41838836669922,-94.70527648925781
"66762","Pittsburg","KS","23rd Street Bike Park","23rd Street","66762",37.43686697514898,-94.69928103559445
"66762","Pittsburg","KS","Vietnam War Memorial","1090 South Rouse St","66762",37.38872568339666,-94.68575477600098
"66762","Pittsburg","KS","Europe Park","506 N. Broadway","66762",37.41239402104561,-94.70441768048921
"66762","Pittsburg","KS","Immigrant Park","106 W. 2nd Street","66762",37.40924072265625,-94.70529174804688
"66801","Emporia","KS","Jones Youth Recreation Park","not_available","66801",38.42300982498476,-96.20353463361747
"66801","Emporia","KS","Jones Youth Recreational Park","not_available","66835",38.50767872753171,-96.26140192794621
"66801","Emporia","KS","Peter Pan Park","Peter Pan Park","66801",38.39381185662596,-96.18714650252124
"66801","Emporia","KS","Fairgrounds","2700 W Hwy 50","66801",38.410301208496094,-96.21469116210938
"66801","Emporia","KS","Wilson Park","1599 Market St","66801",38.41927192977277,-96.1774780728633
"66801","Emporia","KS","Fremont Park","329 S Exchange St","66801",38.39316177368164,-96.1755142211914
"66801","Emporia","KS","C of E Park","C of E Drive","not_available",38.413887302868474,-96.19753360748291
"66834","Alta Vista","KS","Parkerville Park","not_available","66872",38.81898620013027,-96.50056851687987
"66839","Burlington","KS","Kelley Park","not_available","66839",38.18802018424682,-95.73648453935029
"66840","Burns","KS","Cassody City Park","not_available","66842",38.039763824559785,-96.73077969864913
"66856","Lebo","KS","Harold Spatz Memorial Park","not_available","66856",38.410031,-95.85372
"66857","Le Roy","KS","Leroy City Park","701-799 Main St","66857",38.084023206731196,-95.6334858728794
"66861","Marion","KS","Central Park","Main St","66861",38.34722664263673,-97.01680898666382
"66865","Olpe","KS","Olpe Jones Park","W Santa Fe St","66865",38.266983567741455,-96.16777638319856
"66866","Peabody","KS","Peabody City Park","Locust","66866",38.16621801932768,-97.11291895751904
"66872","White City","KS","Centennial Park","Lincoln","66872",38.79120444653083,-96.73798124132259
"66901","Concordia","KS","Blosser Municipal Airport Park","2990 Blosser Drive","66901",39.55591180255135,-97.65672099760967
"66901","Concordia","KS","Concordia City Park","1100 Washington","66901",39.5654043640112,-97.66309261322021
"66933","Barnes","KS","Ioof Park","not_available","66933",39.71318,-96.873055
"66949","Jewell","KS","Jewell City Park","not_available","67446",39.66920869144218,-98.1517344179286
"66956","Mankato","KS","Mankato City Park","not_available","66956",39.78601130355646,-98.21427850434603
"66968","Washington","KS","Washington City Park","974-1002 D St","66968",39.810167241918215,-97.05437891906826
"67002","Andover","KS","Andover Central Park","1607 E Central Ave","67002",37.690778452258996,-97.1191258894944
"67002","Andover","KS","13th Street Sports Park","1008 E 13th St","67002",37.71038119855043,-97.1239055435929
"67002","Andover","KS","Cornerstone Park","not_available","67002",37.72680556167123,-97.1404939816826
"67003","Anthony","KS","Anthony Memorial Park","W Main St & S Lawerence Ave","67003",37.151848,-98.038119
"67005","Arkansas City","KS","Wilson Park","not_available","67005",37.070212725320076,-97.0408572076557
"67010","Augusta","KS","Garvin Park","1900 Washington Ln","67010",37.696761863202845,-96.98258528773758
"67013","Belle Plaine","KS","Bartlett Arboretum","301 N Line St","67013",37.39333705683066,-97.28463957178519
"67017","Benton","KS","Benton City Park","not_available","67017",37.79294204711914,-97.13919830322266
"67019","Burden","KS","Forest Park","not_available","67019",37.32068634033203,-96.75273132324219
"67020","Burrton","KS","Harvey County West Park","NW 36th St","67020",38.07912793860298,-97.58310244435764
"67025","Cheney","KS","City Park","424 Section Line Rd","67050",37.657257080078125,-97.67859649658203
"67025","Cheney","KS","Eagle Valley Raptor Center","not_available","67025",37.698839,-97.735517
"67026","Clearwater","KS","Clearwater City Park","not_available","67026",37.50520230872598,-97.49783597378138
"67029","Coldwater","KS","Coldwater Park","not_available","67029",37.268324769574065,-99.32957074979099
"67030","Colwich","KS","Colwich City Park","31 West 53rd St N","67030",37.779955,-97.540138
"67031","Conway Springs","KS","City Park","413-417 Smith St","67031",37.38994,-97.64778
"67035","Cunningham","KS","Veterans  Memorial Park","600-612 Howard St","67583",37.758406490986474,-98.55911589179827
"67037","Derby","KS","High Park","2801 E James St","67037",37.55297967234348,-97.22751514095795
"67037","Derby","KS","Hand Park","627 S Lakeview Dr","67037",37.53509608218506,-97.26696184558129
"67037","Derby","KS","Madison Avenue Central Park","722 N Derby Ave","67037",37.54899215385533,-97.26557850837708
"67037","Derby","KS","Stone Creek Park","not_available","67037",37.577394595142785,-97.26404515032169
"67037","Derby","KS","Garrett Park","1100 E chet smith rd","not_available",37.53110132167161,-97.25569037970193
"67037","Derby","KS","Triangle Park","310 S. Derby","83702",37.540936728615605,-97.26626097504777
"67037","Derby","KS","Pinaire Park","5205","67216",37.597615000000005,-97.297667
"67042","El Dorado","KS","Graham Park","not_available","67042",37.81057897446217,-96.87132804717211
"67042","El Dorado","KS","Riverview Park","800 River Rd","67042",37.81735758377579,-96.83815414913055
"67042","El Dorado","KS","Center Park","Main St., Center Park","06040",37.851615,-96.849837
"67045","Eureka","KS","Founders Park","not_available","67045",37.818282,-96.292698
"67052","Goddard","KS","Means Park","200 N Main","67052",37.659668674973,-97.5749659538269
"67052","Goddard","KS","Goddard's New Park","not_available","67052",37.657155,-97.573083
"67054","Greensburg","KS","Davis Park","600 E Kansas","67054",37.608553240094366,-99.2845165286038
"67060","Haysville","KS","Pear Tree Park","358 N Moy Ave","67060",37.56448365,-97.34817958333333
"67060","Haysville","KS","Downing Park","not_available","67060",37.55851636588819,-97.35847402680069
"67060","Haysville","KS","midland park","not_available","67217",37.575889587402344,-97.34446716308594
"67061","Hazelton","KS","Progress Park","N 9th St","67070",37.021914206438225,-98.4820032119751
"67062","Hesston","KS","Dyck Arboretum of the Plains","177 W Hickory St","67062",38.12943398343432,-97.43399977684021
"67062","Hesston","KS","King's Park","200 N Ridge Rd","67062",38.14326477050781,-97.42607879638672
"67062","Hesston","KS","Heritage Park, Hesston,  KS","309 East Knott St","not_available",38.133567810058594,-97.41263580322266
"67067","Kechi","KS","Bel Aire Recreation Center","5251 E 48th St N","67220",37.77153384754412,-97.27371597186608
"67068","Kingman","KS","Champlin Park","not_available","67068",37.646644592285156,-98.10408782958984
"67068","Kingman","KS","Kingman City Park","237 N Main St","67068",37.64390563964844,-98.1136474609375
"67101","Maize","KS","Maize City Park","401 S Khedive St","67101",37.773941948841816,-97.46546049829156
"67107","Moundridge","KS","Black Kettle Park","218-224 Krehbiel St","67107",38.20127291666667,-97.51513975
"67107","Moundridge","KS","William P. Pack Memorial Park","not_available","67107",38.212253,-97.526428
"67110","Mulvane","KS","English Park","K15","67110",37.4821462469421,-97.23690032958984
"67110","Mulvane","KS","Main Street Park","301 E Main St","67110",37.474578857421875,-97.24189758300781
"67110","Mulvane","KS","Sunset Park","Sunset Dr.","67110",37.487217,-97.244616
"67110","Mulvane","KS","Ralph Bell Park","not_available","67110",37.477985,-97.24227
"67110","Mulvane","KS","Parks dept","507 N 1st Ave","67110",37.47970162580232,-97.24815827574761
"67114","Newton","KS","Athletic Park","Athletic Park Dr","67114",38.04531977874422,-97.35659122467041
"67114","Newton","KS","Havens Park, Newton, KS","not_available","67114",38.05674054552467,-97.34125174045653
"67114","Newton","KS","Centennial Park","Centennial Park","67114",38.06105727018435,-97.33518673550309
"67119","Oxford","KS","Island Park","not_available","67119",37.274474964937866,-97.17226272456739
"67124","Pratt","KS","Lemon Park","Lemon Park","67124",37.63487807167937,-98.73417623354426
"67124","Pratt","KS","Cherry  Street Park","Cherry & Champa Streets","67124",37.65061280707103,-98.73177286477161
"67124","Pratt","KS","May Dennis Park","Mound St","67124",37.65130978571242,-98.7459844763084
"67124","Pratt","KS","Sixth Street Park","not_available","67124",37.640743312916285,-98.73099490277154
"67133","Rose Hill","KS","Southview Park","2214 S. 45th St.","not_available",37.61657621962081,-97.12655521102432
"67135","Sedgwick","KS","McLaughlin Park","700 McLaughlin Drive","67147",37.84263163429436,-97.36878310747257
"67135","Sedgwick","KS","Sedgwick Kansas City Park","not_available","67135",37.91974001070577,-97.42612344639636
"67147","Valley Center","KS","Park City Recreation Center","6801 N Hydraulic Ave","67219",37.8068329731129,-97.32068038382668
"67147","Valley Center","KS","Harvey County Camp Hawk","1801 SW 36th St","67114",37.836865,-97.380094
"67152","Wellington","KS","Worden Park","800 W Hillside","67152",37.28751686378334,-97.40887353315297
"67152","Wellington","KS","Woods Park","1110 E 4th St","67152",37.26068198432265,-97.41957567666576
"67156","Winfield","KS","Island Park","North Main","67156",37.24853370925689,-96.99729668531663
"67156","Winfield","KS","Cherry Street Park","cherry street","67156",37.23375285,-96.97920083333334
"67202","Wichita","KS","Riverside Park","720 Nims St","67203",37.69593837186494,-97.34866232816469
"67202","Wichita","KS","Naftzger Memorial Park","102 S St Francis Ave","67202",37.68536205136384,-97.33126322914822
"67202","Wichita","KS","Heritage Park","not_available","67202",37.684898941847194,-97.33084663357248
"67202","Wichita","KS","Chester I Lewis Reflection Square Park","W Douglas Ave","67203",37.68600477153115,-97.3362942177843
"67202","Wichita","KS","Veterans Memorial Park","339 Veterans Pkwy","67203",37.690169392737275,-97.34473804455175
"67202","Wichita","KS","Seneca Park","202 S Seneca St","67213",37.68265914916992,-97.35240936279297
"67202","Wichita","KS","Mayor's Pine Grove","300 N Water","67202",37.690166,-97.34026
"67202","Wichita","KS","A. Price Woodard Park","401 W Douglas Ave","67202",37.68451366319546,-97.34248062907986
"67203","Wichita","KS","Park Villa","not_available","67203",37.702340693999446,-97.34920562719188
"67203","Wichita","KS","Sim Memorial Park","2020 W Murdock St","67203",37.703369140625,-97.36625671386719
"67203","Wichita","KS","Oak Park","1100 W 11st St N","67203",37.70518000232447,-97.35678434371948
"67203","Wichita","KS","Big Arkansas River Park","3900 W 21st St N","67204",37.72368621826172,-97.38705444335938
"67203","Wichita","KS","Woodland Park","841 W 21st St N","67203",37.722173,-97.348741
"67203","Wichita","KS","Prospect Park","1330 N Main St","not_available",37.70768356323242,-97.33787536621094
"67203","Wichita","KS","Minisa Park","704 W 13th St N","67203",37.70879364013672,-97.347412109375
"67204","Wichita","KS","Evergreen Park","2700 N Woodland St","67204",37.731302,-97.347502
"67204","Wichita","KS","Schell Park","1000 W 24th St N","67204",37.728411,-97.34800899999999
"67204","Wichita","KS","Columbine Park","2319 W Columbine Ln","67204",37.72709274291992,-97.369140625
"67204","Wichita","KS","Sherwood Park","not_available","67204",37.75122328385513,-97.36865043640137
"67205","Wichita","KS","Sedgwick County Park","6501 W 21st St N","67205",37.7196330131624,-97.41731578529361
"67205","Wichita","KS","Sedgwick County Zoo","5555 W Zoo Blvd","67212",37.717034,-97.408561
"67205","Wichita","KS","Pracht Wetland Park","not_available","67205",37.735306,-97.4579
"67205","Wichita","KS","Sunrise Boundless Playscape","W Moss Lake Dr","67212",37.719452172111204,-97.41554682686899
"67206","Wichita","KS","Eastview Park","1448 N Governeour Rd","67206",37.70882838749725,-97.25308828515189
"67206","Wichita","KS","Beech Lake & Park","1120 N Webb Rd","67206",37.702409,-97.221866
"67206","Wichita","KS","Eastborough Park","24-34 Willowbrook Rd","67207",37.680343766285866,-97.2605155814594
"67207","Wichita","KS","Harrison Park","10126 E Boston St","67207",37.66804046381736,-97.22231322582371
"67207","Wichita","KS","Boston Park","not_available","67213",37.669012601636624,-97.25942514000165
"67207","Wichita","KS","Cessna park","not_available","67218",37.656025957461644,-97.26563088231602
"67207","Wichita","KS","Boston Recreation Center","6655 E Zimmerly St","67207",37.667481,-97.259158
"67207","Wichita","KS","Cypress Park","300 S Edgemoor St","67218",37.682638855595556,-97.27004057181286
"67208","Wichita","KS","Edgemoor Park","5813 E 9th St N","67208",37.69995101623679,-97.26975202560425
"67208","Wichita","KS","Red Bud Park","5502 E 19th St N","67208",37.71999,-97.27085275
"67208","Wichita","KS","Alfred MacDonald Park","840 N Yale Ave","67208",37.70301055908203,-97.28880310058594
"67208","Wichita","KS","Fairmount Park","1647 N Yale Blvd","67218",37.7129379156001,-97.2929263114929
"67208","Wichita","KS","Claude Lambe Park","5115 E 13th St N","67208",37.70792007446289,-97.27589416503906
"67208","Wichita","KS","Sleepy Hollow Park","3600 E Sleepy Hollow Dr","67208",37.696039498218674,-97.28631729089236
"67209","Wichita","KS","Pawnee Prairie Park","2659-2787 S Tyler Rd","67215",37.649601279302544,-97.45508370150706
"67209","Wichita","KS","Pawnee Prairie Nature Center","2625 S Tyler Rd","67209",37.64707916424043,-97.44534793163392
"67210","Wichita","KS","Planeview Park","not_available","67210",37.64148397343892,-97.28408816600566
"67211","Wichita","KS","Goldenrod Park","1340 S Pattie St","67211",37.66897677714136,-97.32163472327458
"67211","Wichita","KS","South Linwood Park","1901 S Kansas St","67211",37.661855160753504,-97.32401183390678
"67211","Wichita","KS","Lincoln Park","1323 S Topeka Ave","67211",37.669267,-97.33502299999999
"67211","Wichita","KS","Henry Park","not_available","67211",37.669456,-97.3205
"67211","Wichita","KS","Schweiter Park","900 S Chautauqua St","67211",37.67093023327553,-97.30022192001343
"67211","Wichita","KS","North Linwood Park","1500 S Kansas St","67211",37.66763517283931,-97.3157250881195
"67211","Wichita","KS","Rivera Park","1301 Schweiter Dr","67211",37.667397379313066,-97.30854749679565
"67211","Wichita","KS","Grandparents Park","Estelle & E Kellogg Dr","67211",37.678826,-97.304911
"67211","Wichita","KS","Hyde Park","201 S Greenwood St","67211",37.68419647216797,-97.31914520263672
"67212","Wichita","KS","Buffalo Park","10201 W Hardtner Ave","67212",37.688371234424274,-97.46033906936646
"67212","Wichita","KS","Brownthrush Park","533 N Country Acres Ave","67212",37.690910640647544,-97.4326771229509
"67212","Wichita","KS","Swanson Park","1011 N Maize Rd.","67212",37.70070460040592,-97.46338370263997
"67212","Wichita","KS","Huntington Park","1313 N Maize Ct","67212",37.705527000000004,-97.464913
"67212","Wichita","KS","Orchard Park","4808 W 9th St N","67212",37.70204109473154,-97.39915488150065
"67212","Wichita","KS","Kevin Clark Park","7815 W Nantucket St","67212",37.709136962890625,-97.4332275390625
"67212","Wichita","KS","Redbarn Park","not_available","67212",37.69961653864276,-97.43707651746489
"67213","Wichita","KS","Aley Park","1803 S Seneca","67213",37.6610574336467,-97.35280838965272
"67213","Wichita","KS","West Douglas Park","3201 W Douglas Ave","67213",37.68285369873047,-97.38087463378906
"67214","Wichita","KS","McAdams Park","1329 E 13th St N","67214",37.70895013594874,-97.3235065329562
"67214","Wichita","KS","Murdock Park","not_available","67214",37.698858615640894,-97.31393711879299
"67214","Wichita","KS","Chautauqua Park","360 N Chautauqua St","67214",37.690663994193194,-97.30155424340053
"67214","Wichita","KS","Hope Park","1400 N Emporia","67214",37.7098388671875,-97.3331069946289
"67215","Wichita","KS","Wildwood Park","W Wildwood St","67217",37.64325737350208,-97.37461566925049
"67216","Wichita","KS","OJ Watson Park","3022 S McLean Blvd","67217",37.64179418411052,-97.33785121603695
"67216","Wichita","KS","Herman Hill Park","101 E Pawnee St","67211",37.64878019924925,-97.33891005706184
"67216","Wichita","KS","Peach Tree Park","not_available","67216",37.59332220544175,-97.31531313334048
"67217","Wichita","KS","Osage Park","2029-2083 W 31st St S","67217",37.636921706070204,-97.36147056914598
"67218","Wichita","KS","College Hill Park","304 S Circle Dr","67218",37.683073136052535,-97.29161739349364
"67219","Wichita","KS","Dr. Glen Dey Park","not_available","67219",37.736091340611715,-97.30445339427119
"67220","Wichita","KS","Bel Aire Park","4300 N Woodlawn Blvd","67226",37.765352830887785,-97.25939353326534
"67220","Wichita","KS","Chisholm Creek","not_available","67220",37.74203670300569,-97.27222708365079
"67220","Wichita","KS","Chisholm Creek Park","3100 N Oliver St","67220",37.74142479499108,-97.27415548769538
"67226","Wichita","KS","North Park","2801 N Rock Rd","67226",37.735232,-97.246768
"67226","Wichita","KS","Park","3741 N Rock Rd","67226",37.75133567788567,-97.24731030828698
"67230","Wichita","KS","At A Pond","not_available","67230",37.699433,-97.185195
"67235","Wichita","KS","The Glen at auburn Hills community park","not_available","67235",37.680292,-97.504821
"67301","Independence","KS","Riverside Park","Wells Dr","67301",37.238231197696095,-95.7022396854294
"67301","Independence","KS","Sprecher Traveling Beer Garden Kletzsch Park","6798 N Milwaukee River Pkwy","not_available",37.13284,-95.78558
"67301","Independence","KS","Exner Park","301 Exner","67337",37.04452146242287,-95.63533914757289
"67301","Independence","KS","Pfister Park","1906 N Buckeye","67337",37.06688930242894,-95.64414024353027
"67301","Independence","KS","LeClere Park","1802 Woodland","67337",37.053681159942585,-95.64011377995077
"67301","Independence","KS","Riverside Zoo","not_available","67301",37.24050221026923,-95.7027793475098
"67333","Caney","KS","Veterans Park","Taylor St","67333",37.015757,-95.930295
"67336","Chetopa","KS","Crain Park","Crain Park Dr","67356",37.161308378457925,-95.11001586914062
"67336","Chetopa","KS","Crain Park Tennis Court","Crain Park","67356",37.1607611625659,-95.11074542999268
"67336","Chetopa","KS","Elmore Park","not_available","67336",37.047504980968164,-95.08370876312256
"67337","Coffeyville","KS","Walter Johnson Park","701 Hargis","67337",37.03849405008267,-95.59442152627355
"67341","Dennis","KS","Game Day","not_available","67341",37.3463134765625,-95.41162109375
"67344","Elk City","KS","City Park","601 Kansas Ave","67352",37.376637072444105,-96.08096480369566
"67344","Elk City","KS","Longton City Park","not_available","67352",37.376599,-96.080881
"67356","Oswego","KS","Riverside Park","Riverside Park Dr","67356",37.17470231289463,-95.10076580582971
"67356","Oswego","KS","Hobart Young Park (The Caboose)","6th & Commercial","67356",37.165063,-95.109278
"67356","Oswego","KS","Thomas Park/Hollingsworth Log Cabin","Merchant St","67356",37.1684560222028,-95.10791301727295
"67356","Oswego","KS","Schmoker Park","1503-1507 4th St","67356",37.166762,-95.119424
"67356","Oswego","KS","John A. Mathews/Little Town Well Park","Union St","67356",37.16681451788389,-95.10031700134277
"67357","Parsons","KS","Forest Park","not_available","67357",37.338226,-95.279244
"67357","Parsons","KS","26th street park","26th","67357",37.351533466666666,-95.27559236666667
"67357","Parsons","KS","Marvel Park","10th & Main","67357",37.338345,-95.246224
"67361","Sedan","KS","Sedan City Park","not_available","67361",37.12670327066004,-96.19104642263821
"67401","Salina","KS","Kenwood Park","821 Kenwood Dr.","not_available",38.83240591721209,-97.60309599182285
"67401","Salina","KS","Oakdale Park","730 Oakdale Park","67401",38.833422360338865,-97.60466311050693
"67401","Salina","KS","Here","not_available","67401",38.833501,-97.605015
"67401","Salina","KS","Pacific Park","701 W. Pacific","67401",38.85596710449937,-97.61238803868085
"67401","Salina","KS","Pinnacle Park","2936 Georgia Ave","67401",38.78492736816406,-97.62638854980469
"67401","Salina","KS","Sunset Park","700 W. Sunset Dr.","67401",38.81788441881595,-97.62052158247842
"67401","Salina","KS","parking place","Mall","67401",38.82368850708008,-97.6240005493164
"67401","Salina","KS","Lakewood Park Natural Area","1323 E. Iron","67401",38.84549023449085,-97.58872032165527
"67401","Salina","KS","Thomas Park","1601 N 9th St","67401",38.86724090576172,-97.61306762695312
"67410","Abilene","KS","The Band Shell","not_available","67410",38.930381774902344,-97.21919250488281
"67410","Abilene","KS","Camp Mary Dell","980 2000 Ave","67410",38.88260269165039,-97.20780944824219
"67410","Abilene","KS","Enterprise Ecological Park","not_available","67441",38.906094,-97.11734
"67410","Abilene","KS","Solomon City Park","Old 40","not_available",38.917957591033606,-97.36984364892506
"67410","Abilene","KS","Eisenhower Park","NW 4th","67410",38.91815185546875,-97.22702026367188
"67410","Abilene","KS","Bicentennial Park","Mulberry","67410",38.931839306305164,-97.21900463104248
"67420","Beloit","KS","Chautauqua Park","Solomon River","67420",39.45617873596549,-98.11044664690817
"67420","Beloit","KS","Westside Park","not_available","67420",39.46255,-98.11636
"67422","Bennington","KS","Antelope Park","North Stark Street","67422",39.030494208915734,-97.59362339973448
"67430","Cawker City","KS","Cawker City Park","not_available","67430",39.509347888162715,-98.43260492998968
"67432","Clay Center","KS","Tiger Terrace Park","900-1006 Huntress St","67432",39.3832175,-97.11848663
"67432","Clay Center","KS","huntress park","not_available","67432",39.37795960582233,-97.13667643594204
"67437","Downs","KS","Downs Memorial Park","not_available","67437",39.507898,-98.539896
"67443","Galva","KS","maxwell wildlife","not_available","67428",38.37667499905533,-97.58292778421175
"67449","Herington","KS","Tri County Free Fair","not_available","67449",38.663421630859375,-96.94342041015625
"67449","Herington","KS","Father Padilla Park","500 N Broadway St","67449",38.67598493,-96.94387906
"67456","Lindsborg","KS","Riverside Park","520 S 1st St","67456",38.56705093383789,-97.67317962646484
"67460","Mcpherson","KS","Lakeside Park","Lakeside Dr","67460",38.3723450990077,-97.65133810021027
"67460","Mcpherson","KS","Wall Bicentennial Park","Ave A & Park St","67460",38.364609763069524,-97.65187319252037
"67460","Mcpherson","KS","McPherson Dog Park","not_available","67460",38.357876,-97.630239
"67460","Mcpherson","KS","Steinert Sanctuary","501 N Elm St","67460",38.37376403808594,-97.66450500488281
"67460","Mcpherson","KS","Memorial Park","200 West Kansas","not_available",38.369954,-97.669776
"67464","Marquette","KS","Park","washington st","67464",38.55547457926179,-97.8343864510714
"67467","Minneapolis","KS","Markley's Grove","Mill St","67467",39.117799442087176,-97.71044018148217
"67467","Minneapolis","KS","Rock City","not_available","67467",39.09063980418188,-97.7350794184346
"67481","Sylvan Grove","KS","Sylvan City Park","Sylvan Grove,KS,67481","67481",39.01042456007311,-98.38761662413937
"67490","Wilson","KS","Mural Park","Main","67648",38.8534869,-98.4458491
"67501","Hutchinson","KS","Carey Park","1601 S. Plum St.","67501",38.03260261217682,-97.92304158210754
"67501","Hutchinson","KS","Dillon Nature Center","not_available","67502",38.08784879472535,-97.87641976873851
"67501","Hutchinson","KS","Fairgrounds Park","Severance Street","67502",38.07630350828498,-97.91525526330649
"67501","Hutchinson","KS","Hyde Park","not_available","67501",38.07494105787254,-97.93103472047405
"67501","Hutchinson","KS","Centennial Park","401-499 Harvey St","67501",38.03478738073129,-97.92395560562596
"67501","Hutchinson","KS","Rice Park","1711 James St","67502",38.07547174996354,-97.95573465827964
"67501","Hutchinson","KS","Avenue A Park","1-99 W Ave A","67501",38.05064842470914,-97.93213042361425
"67521","Brownell","KS","Bluffs","not_available","67572",38.77019612806089,-99.81975975383307
"67522","Buhler","KS","Wheatland Park","400 N Main","67522",38.140961350672406,-97.7673950208133
"67523","Burdett","KS","Burdett Park","not_available","67523",38.195793336983996,-99.52432169303034
"67524","Chase","KS","Cow Creek Station","not_available","67524",38.34773622556008,-98.34896215606473
"67530","Great Bend","KS","Fort Sarah","not_available","67530",38.36508626459463,-98.70521176695702
"67530","Great Bend","KS","Harms Ball Park","Heizer & 24th St","67530",38.375839031073745,-98.76005886468697
"67546","Inman","KS","Inman Park","432-498 E Gordon St","67546",38.23105825958232,-97.7711681731137
"67550","Larned","KS","Doerr-Vernon Park","1538-1598 Carroll Ave","67550",38.18961525,-99.10649081666666
"67550","Larned","KS","Tera Jordaan Park","not_available","67550",38.183924,-99.080594
"67554","Lyons","KS","Augmon Park","4th St & West Ave","67554",38.355032,-98.20373
"67560","Ness City","KS","Ness City Public Park","Lake St & Chestnut St","67560",38.45421183246296,-99.9111707170474
"67575","Rush Center","KS","Timken City Park","not_available","67575",38.47557,-99.1778
"67578","Stafford","KS","Stafford City Park","Stafford,KS,67578","67578",37.96087250809559,-98.59852260270561
"67578","Stafford","KS","Quivira National Wildlife Refuge","not_available","67578",38.079275882617544,-98.49066436739963
"67579","Sterling","KS","Goose Poop Island","not_available","67579",38.20424168350329,-98.20311935070315
"67601","Hays","KS","Seven Hills Park","33rd & Hillcrest","67601",38.892603424645785,-99.33189481399883
"67601","Hays","KS","Frontier Park","S Main","67601",38.86453608658014,-99.33457650891799
"67601","Hays","KS","Lark's Park","202 Pine St","67601",38.86617218250079,-99.33192934144492
"67601","Hays","KS","Hickok Park","26th & Donald Dr","67601",38.88426593001858,-99.30437868478681
"67601","Hays","KS","Union Pacific Park","not_available","67601",38.871346,-99.33049
"67601","Hays","KS","Auble Bickle Park","30th & Sherman Ave","67601",38.88762813976843,-99.31066649158196
"67601","Hays","KS","Elizabeth Polly Park","27th St & Indian Trail","67601",38.88419723510742,-99.30552673339844
"67601","Hays","KS","Sunrise Park","1708-1798 Felten Dr","67601",38.874184,-99.307329
"67601","Hays","KS","Speier Park","10th & Vine","67601",38.86773100928945,-99.31383495056582
"67601","Hays","KS","Massey Park","17th & Allen","67601",38.87463838497893,-99.32329773270584
"67601","Hays","KS","Kiwanis Park","17th & Harvest Ave","67601",38.873302,-99.291155
"67601","Hays","KS","Treat Park","E 5th St","67601",38.86601491,-99.32880389
"67634","Dorrance","KS","Lucas Park","203rd","67648",38.949454987481865,-98.51968139978466
"67651","Natoma","KS","Codell Kansas Cyclone Park","not_available","67663",39.193355560302734,-99.17394256591797
"67651","Natoma","KS","Natoma Park","not_available","67651",39.187207310965256,-99.02428708376831
"67654","Norton","KS","Elmwood Park","not_available","67654",39.82609347745125,-99.88521398103273
"67661","Phillipsburg","KS","Phillipsburg City Park","Ft Bissel Ave","67661",39.75590687575772,-99.3276692920262
"67672","Wakeeney","KS","Eisenhower Park","not_available","67672",39.01501946963377,-99.88680502696496
"67701","Colby","KS","Fike Park","8th & Franklin","67701",39.40034832239402,-101.04460806467736
"67701","Colby","KS","Villa High Park","S Hwy 25","67701",39.382163067568385,-101.0546332881367
"67735","Goodland","KS","Memory Park","10th & Center","67735",39.34991566931738,-101.71342636805532
"67735","Goodland","KS","Gulick Park","8th & Caldwell","67735",39.35075938888224,-101.70837879180908
"67735","Goodland","KS","Steever Park","16th & Cherry","67735",39.342535778677174,-101.70540334913875
"67735","Goodland","KS","Pioneer Park","Hwy 24 & Cherry St","67735",39.33839209321607,-101.70541446862633
"67748","Oakley","KS","Logan County 4-H","not_available","67748",39.126595,-100.848066
"67749","Oberlin","KS","Sappa Park","not_available","67749",39.901853036556744,-100.53346502666888
"67764","Winona","KS","Winona City Park","not_available","67764",39.057424,-101.244923
"67801","Dodge City","KS","Lions Park","4th","67801",37.76317439328776,-100.01984381241277
"67801","Dodge City","KS","Eisenhower Park","511 1st Ave","67801",37.753495,-100.018127
"67801","Dodge City","KS","Wright Park","not_available","67801",37.74901502074048,-100.0215643306379
"67801","Dodge City","KS","Jean Russell Park","1808 Country Club Dr","67801",37.76213821198675,-100.01369938183527
"67801","Dodge City","KS","Friendship Park","2501 N 14th Ave","67801",37.777740478515625,-100.03317260742188
"67801","Dodge City","KS","Beeson Arboretum","100 W Beeson","67801",37.77588011940553,-100.02892197744028
"67801","Dodge City","KS","Thurow Park","Military Ave & Avenue L","67801",37.75494067498273,-100.00082752298374
"67801","Dodge City","KS","Homestead Park","1800 Pioneer Rd","67801",37.73432922363281,-100.03705596923828
"67831","Ashland","KS","City Park","not_available","67831",37.187219613510706,-99.7691947580353
"67844","Fowler","KS","Meade City Park","US 54 & R Rd","67864",37.28553393360046,-100.31986387402927
"67846","Garden City","KS","Holcomb Recreational Park","not_available","67851",37.983193151102434,-100.98787881476694
"67846","Garden City","KS","Stevens Park","100 E Spruce St","67846",37.96913651749564,-100.87251935792459
"67846","Garden City","KS","Ayala Park","Taylor St","67846",37.968448638916016,-100.88320922851562
"67846","Garden City","KS","Finnup Scout Park","Finnup Dr","67846",37.96091266758428,-100.87141117983973
"67846","Garden City","KS","Deane Wiley Park","2406 N Campus Dr","67846",37.988739013671875,-100.84679412841797
"67846","Garden City","KS","Harold Long Park","Spruce & Evans","67846",37.968578,-100.860999
"67846","Garden City","KS","Scout Park","507 W Thompson St","67846",37.9862345327652,-100.87506656248391
"67859","Kismet","KS","Arkalon Park","11123 Arkalon Park Rd","67901",37.144718170166016,-100.76421356201172
"67865","Minneola","KS","Veteran's Memorial Park","not_available","67865",37.44375735277522,-100.01245416340112
"67871","Scott City","KS","Patton Park","12th & Main","67871",38.474461529746,-100.90593615967576
"67901","Liberal","KS","Tobias Park","5th & Grant","67901",37.042787794398286,-100.92434245847114
"67901","Liberal","KS","Blue Bonnet Park","7th & Western","67901",37.046226479331125,-100.93843226327022
"67901","Liberal","KS","Mahuron Park","802 E 8th St","67901",37.04613487690935,-100.91197729110718
"67901","Liberal","KS","Light Park","11th & Kansas","67901",37.05157137727136,-100.92427074590128
"67901","Liberal","KS","Harrison Circle Park","Harrison Cir","67901",37.041628583333335,-100.93615448333334
"67951","Hugoton","KS","City Park","3rd & Main","67951",37.18050972713704,-101.34733200073242
