"zip","city","state","name","address","postalCode","lat","lon"
"19701","Bear","DE","Glasgow Park","US-40","19702",39.60945738599422,-75.73017597198486
"19701","Bear","DE","Iron Hill Park","1645 Iron Hill Rd","19702",39.63523864746094,-75.75338745117188
"19701","Bear","DE","Kingscroft Park at Scarborough Manor","not_available","19701",39.62101303823445,-75.66689301152918
"19701","Bear","DE","Wilton Park","not_available","not_available",39.65600345113575,-75.63506940855787
"19701","Bear","DE","Blue Diamond MX Park","765 Hamburg Rd","19720",39.62076377787683,-75.63747882843018
"19701","Bear","DE","Valley Park","Valley stream dr","not_available",39.64623,-75.685226
"19701","Bear","DE","Frank Hann Community Park","116 Scottfield Dr","19713",39.656968164226306,-75.72558403015137
"19701","Bear","DE","Pencader Park","Garvey Ln","19702",39.6306784246342,-75.74912708563673
"19701","Bear","DE","Douglas D. Alley Park","not_available","19713",39.65126,-75.742514
"19701","Bear","DE","Jacks Park","124 Country Woods Dr","19701",39.612873,-75.66780899999999
"19701","Bear","DE","Iron Hill Park Playground","not_available","19702",39.63810056800503,-75.75576442615848
"19701","Bear","DE","Cooch's Bridge Battlefield","Dayette Mills Rd","not_available",39.641148633475645,-75.73221445083618
"19701","Bear","DE","Wrangle Hill Estates Park","Laramie Dr","19701",39.58961679036121,-75.70118607858434
"19701","Bear","DE","Folk Memorial Park","Welch Tract Road","not_available",39.648078701351146,-75.75814902456844
"19702","Newark","DE","Edna C. Dickey Park","60 Madison Dr","19711",39.67579081198728,-75.76723735893474
"19702","Newark","DE","Kells Park","not_available","19711",39.673064738327604,-75.74533967697798
"19702","Newark","DE","Devon Park","Cornwall Dr","19711",39.66555769840916,-75.76882071143979
"19702","Newark","DE","White Chapel Park","White Chapel Dr","not_available",39.67441461682904,-75.73394622293279
"19702","Newark","DE","hudsonville park","not_available","19720",39.64427947998047,-75.62200927734375
"19702","Newark","DE","Lewis park","Academy street","19711",39.6725768001043,-75.7494507269667
"19702","Newark","DE","George Read Park","351-393 Delaware Cir","19711",39.6825565235919,-75.73982066657149
"19703","Claymont","DE","Woods Haven Kruse Park","Myrna Bair Way","19703",39.80971311900356,-75.45630586882704
"19703","Claymont","DE","Knollwood Park","Balford Ave","19703",39.811645239604275,-75.45236430733718
"19703","Claymont","DE","Playdate@Barksdale's","not_available","19703",39.800158,-75.472003
"19703","Claymont","DE","Gwinhurst Park","1800 Lincoln Ave","19809",39.78698869290891,-75.47976862639189
"19703","Claymont","DE","Lesher Memorial Park","Marvel Ave","not_available",39.797664809129316,-75.48381749378939
"19707","Hockessin","DE","Ashland Nature Center","3511 Barley Mill Rd","19707",39.79717423904015,-75.6598482130461
"19707","Hockessin","DE","mendan hill village park","not_available","19707",39.75755230257352,-75.69789743106159
"19707","Hockessin","DE","St. Anthony in the Hills","6742 Limestone Rd","19311",39.793941497802734,-75.7276611328125
"19707","Hockessin","DE","The Circle by Wawa","Lancaster Pike","not_available",39.788644,-75.696662
"19707","Hockessin","DE","Tweed's Park","630 Basher Ln","19707",39.77781745042234,-75.71486809519347
"19707","Hockessin","DE","Swift Park","Hockessin","19707",39.78853,-75.699577
"19709","Middletown","DE","C&D Canal Dock","Summit Bridge Rd","19709",39.50306724530944,-75.71259636798085
"19709","Middletown","DE","Lakeside","not_available","19709",39.44202003227324,-75.70867867027684
"19709","Middletown","DE","Green Branch Park","Greenlawn blvd","19709",39.45771051482797,-75.71131850574153
"19709","Middletown","DE","C&D Canal Museum","815 Bethel Rd","21915",39.506423918563826,-75.76970385697656
"19709","Middletown","DE","Old Academy Park","not_available","19730",39.4560443,-75.6585386
"19709","Middletown","DE","Silver Lake Park","Catherine St.","19709",39.442012930317226,-75.70866139836608
"19709","Middletown","DE","Townsend Park","not_available","19734",39.39572611603277,-75.69597463535308
"19709","Middletown","DE","Levels Road Park","Level's Road","19734",39.426052015145615,-75.74844005513698
"19711","Newark","DE","Deacons Walk Park","Ware Rd","19711",39.72441782635516,-75.70691013238547
"19711","Newark","DE","White Clay Creek Park","Fairhill School Dr","19711",39.724958120184134,-75.74350320577308
"19711","Newark","DE","Middle Run Valley Nature Area","Possum Hollow Rd","19711",39.715692930837754,-75.72351169084071
"19711","Newark","DE","White Clay Creek Park","880 New London Rd","19711",39.69850134844825,-75.7094897232549
"19711","Newark","DE","Carousel Farm Park","3700 Limestone Rd","19808",39.72992731530136,-75.68369120721206
"19711","Newark","DE","Wood Creek Park","Greenwood Dr","19808",39.7385297470421,-75.68527077050021
"19711","Newark","DE","Ocheltree Drive","Ocheltree Drive","not_available",39.74710411055265,-75.69840828158137
"19711","Newark","DE","Eastburn Acres Park","Marta Drive","not_available",39.702305,-75.68115
"19711","Newark","DE","Elan Park","Barksdale","19711",39.678314,-75.78283
"19711","Newark","DE","linden heath park","not_available","19808",39.73784368542761,-75.7026173837247
"19716","Newark","DE","George Wilson Community Center & Park","303 New London Rd.","19711",39.68952848217975,-75.76098156237293
"19720","New Castle","DE","Garfield Park","Karlyn Dr","19720",39.70210489029705,-75.560565032912
"19720","New Castle","DE","New Castle Battery Park","W. 3rd St.","19720",39.658240178117005,-75.56538105010986
"19720","New Castle","DE","Wilmington Manor Gardens Park","54 Notre Dame Ave","19720",39.67340712317671,-75.5799806621427
"19720","New Castle","DE","Llangollen Park","309 Aldwyn Dr","19720",39.639855,-75.61317700000001
"19720","New Castle","DE","Pennwood Park","Valley Forge Rd","19720",39.670942512975394,-75.59067964553832
"19720","New Castle","DE","Eden Park","new castle ave","not_available",39.722185198948516,-75.54303131930614
"19720","New Castle","DE","Banning Park","100 Middleboro Rd","19804",39.72108762484997,-75.59694060598889
"19720","New Castle","DE","Chelsea Manor Park","Jefferson Avenue & Roosevelt Avenue West","19720",39.69232803363924,-75.59203147888184
"19720","New Castle","DE","Powell Ford Park","1000 Kiamensi Rd","19804",39.72151773123472,-75.63797308138692
"19720","New Castle","DE","Holloway Terrace Park","11th Street","19720",39.69764448635044,-75.54868698120117
"19720","New Castle","DE","Jefferson farms park","34 S Independence Blvd","19720",39.674556,-75.570538
"19720","New Castle","DE","Surratte Park","Bethune Dr","19720",39.70588597758596,-75.55282100030371
"19720","New Castle","DE","Pennbeach","not_available","08070",39.643647669019124,-75.52959482758357
"19720","New Castle","DE","Castle Hills Park","Moores Ln.","19720",39.690600950708145,-75.56588136167677
"19720","New Castle","DE","James Rogers Park","Grove Street","19720",39.67857651941704,-75.56402801873178
"19732","Rockland","DE","Alapocas Woods Park (Hiking Area)","Alapocas Dr","19803",39.77337339066831,-75.56545498115574
"19734","Townsend","DE","Smyrna-Clayton Memorial Park","502 N Main St","19977",39.30659,-75.614677
"19734","Townsend","DE","Blackbird Creek Reserve - DNERR","801 Blackbird Landing Rd","19734",39.390335,-75.634624
"19734","Townsend","DE","Municipal Park","not_available","19977",39.30643827123442,-75.61558887732582
"19801","Wilmington","DE","Cool Springs Park","not_available","19801",39.75022557642607,-75.55761337280273
"19801","Wilmington","DE","Brown-Burton Winchester Park","not_available","19802",39.75247755916699,-75.53347862746632
"19801","Wilmington","DE","Midtown Pocket Park","West St.","19801",39.750201,-75.548606
"19801","Wilmington","DE","Tubman-Garrett Riverfront Park","Rosa Park Dr","19801",39.736432284277505,-75.55239915847778
"19801","Wilmington","DE","4th and woodlawn","not_available","19805",39.74991126475829,-75.57370380456703
"19801","Wilmington","DE","Holloway Park","6th St.","19801",39.7465,-75.56554
"19801","Wilmington","DE","browntown park","Duncan St","19805",39.733410845064554,-75.57186761427296
"19801","Wilmington","DE","Justison Landing Park","308 S Justison St.","19801",39.73674051860518,-75.55989533642712
"19801","Wilmington","DE","Father Tucker Memorial Park","1801 Howland St","19805",39.75241470336914,-75.568115234375
"19801","Wilmington","DE","Alban Park","Homestead Rd.","19805",39.72968745763433,-75.57334921694468
"19801","Wilmington","DE","Peoples Park","420 N Market St","19801",39.74085782714452,-75.55130186765518
"19801","Wilmington","DE","Kirkwood parkt","12th st","19801",39.7406124,-75.5515941
"19801","Wilmington","DE","Christina park","4th and Church street","19801",39.735637884320305,-75.53928423551491
"19802","Wilmington","DE","Rockwood Park & Museum","610 Shipley Rd","19809",39.77244412720999,-75.52094221115112
"19802","Wilmington","DE","18th Street Dog Park","400 W 18th Street","19802",39.75617574016902,-75.54812015097343
"19802","Wilmington","DE","Matson Run Park","E Matson Run Pkwy","19802",39.76656713188611,-75.52544934205419
"19803","Wilmington","DE","Rockford Park","Park Dr","not_available",39.76790862833409,-75.57211875915527
"19803","Wilmington","DE","Talley Day Park","1308 Foulk Rd","19803",39.7942441297224,-75.52089997936508
"19803","Wilmington","DE","Bonsall Park","3000 Silverside Rd","19803",39.81025303922108,-75.5258132850567
"19803","Wilmington","DE","Bringhurst Woods Park","550 Carr Rd","19809",39.77643070904142,-75.51468987475444
"19803","Wilmington","DE","River Road Park","not_available","19809",39.76113801600226,-75.4925998229474
"19803","Wilmington","DE","Northminster Park","Behind Birch Knoll Road","19810",39.83400498944686,-75.5046275582231
"19803","Wilmington","DE","Brandywine River","N. West","19801",39.763081917322666,-75.55689231164753
"19803","Wilmington","DE","Silverside Rd Park","Silverside Rd","19810",39.82081463993567,-75.52120137894727
"19803","Wilmington","DE","Sharpley Park","not_available","19803",39.79399344062311,-75.55220246166306
"19803","Wilmington","DE","Brandywood Park","Brandywood Dr","19810",39.82438131510052,-75.51631019972228
"19803","Wilmington","DE","Shipley Heights Park","Hoiland Drive","19803",39.784151219308356,-75.52205439332289
"19803","Wilmington","DE","Harvey Mill Park","2299 Decatur Dr","19810",39.82168492240156,-75.4957906838907
"19803","Wilmington","DE","Weldin Park","125 Weldin Park Dr","19803",39.778365,-75.530392
"19803","Wilmington","DE","Shellpot Woods Park","Shellpot Dr","19803",39.799634359316876,-75.53602695465088
"19803","Wilmington","DE","Mount Pleasant Meeting House","1009 Philadelphia Pike","19809",39.777184000000005,-75.490723
"19804","Wilmington","DE","Greenbank Park","Kirkwood Hwy.","19808",39.73845925641741,-75.62868794463611
"19804","Wilmington","DE","Gordy Estates Park","not_available","19804",39.725000404010466,-75.61153105460107
"19804","Wilmington","DE","Woodland Hgts","Faulkland Rd","19805",39.7394429,-75.599453
"19805","Wilmington","DE","Wawaset Street Park","Forty Acres","19806",39.760494232177734,-75.56112670898438
"19805","Wilmington","DE","Willow Run Park","Gulping","19805",39.74460438919737,-75.60438347065829
"19805","Wilmington","DE","Woodland Park","not_available","19807",39.74872853708902,-75.6196295387486
"19806","Wilmington","DE","Brandywine Park","North Park Dr.","19802",39.755722818235235,-75.55252654000276
"19808","Wilmington","DE","Delcastle Recreation Area","McKennan's Church Rd","19808",39.74773620175491,-75.65874601214621
"19808","Wilmington","DE","Brandywine Springs Park","Faulkland Rd","19808",39.745696863304396,-75.64175963401794
"19809","Wilmington","DE","Cauffiel House Estate","1016 Philadelphia Pike","19809",39.7754020690918,-75.4858169555664
"19809","Wilmington","DE","prr tower","fox point","08085",39.77147005635716,-75.48395401062443
"19810","Wilmington","DE","Bechtel Park","1201 Naamans Rd","19810",39.82274915452496,-75.4761986276603
"19810","Wilmington","DE","Northcrest Park","not_available","19810",39.82845408052088,-75.48548981643373
"19810","Wilmington","DE","John T Adkinson Park","2503- 4533 Naamans Creek Rd","19060",39.837648029331866,-75.48468947410583
"19901","Dover","DE","Silver Lake Park","Lewis Mill Dr.","19901",39.16814384829666,-75.52124687317078
"19901","Dover","DE","City Of Dover Parks & Recreation • Schutte Park","Hazlettville Rd.","19904",39.147925695741,-75.55547732593445
"19901","Dover","DE","Tidbury Park","not_available","19901",39.11275506485156,-75.51065771760304
"19901","Dover","DE","Dover Country Club Apts. Clubhouse","not_available","19904",39.15985345334493,-75.558871509829
"19901","Dover","DE","Kent Co Veterans Memorial Park","South Little Creek Rd.","19901",39.15680375278367,-75.50666213035583
"19901","Dover","DE","Memorial Park","Park Drive","19904",39.161390888290015,-75.518949397496
"19901","Dover","DE","Dover AFB Outdoor Rec","not_available","19902",39.126245131818244,-75.4849437539526
"19901","Dover","DE","Legislative Green Park","Federal St.","19904",39.15632502281047,-75.52138985486435
"19901","Dover","DE","Brecknock County Park • Kent County Levy Court","Old Camden Road","19934",39.12243297181459,-75.5354517636073
"19901","Dover","DE","Wyoming Park","1 N Railroad Ave","19934",39.118738,-75.558834
"19901","Dover","DE","Delaware Volunteer Fireman's Association • Fireman's Memorial","Park Drive","19901",39.159917205225504,-75.51849335432053
"19901","Dover","DE","City of Dover Park","Mary St.","19904",39.163298,-75.532914
"19901","Dover","DE","Eagle's Nest Park","Dover AFB","not_available",39.114373118294175,-75.45685866911408
"19901","Dover","DE","dover city park","Dover Street","not_available",39.147220611572266,-75.52674102783203
"19904","Dover","DE","Camden Wyoming","not_available","19934",39.093438029920584,-75.58933001485715
"19930","Bethany Beach","DE","James Farm Ecological Preserve","Cedar Neck Rd","19970",38.57505518774382,-75.07961958646774
"19930","Bethany Beach","DE","Bethany Beach Loop Canal","Pennsylvania Avenue","19930",38.54112167368867,-75.05774082483101
"19939","Dagsboro","DE","Kensington Park","Parker House Rd","19945",38.52417923289915,-75.09449829062837
"19939","Dagsboro","DE","Millsboro Little League Ballfields","W. State St.","19966",38.592659123298915,-75.29621781209295
"19939","Dagsboro","DE","Warwick Park","Warwick Cove Way","19939",38.59554143757835,-75.20850900451808
"19939","Dagsboro","DE","Cupalo Park","Dock St","19966",38.59449775807776,-75.28937197988634
"19939","Dagsboro","DE","Frankford Park","not_available","19945",38.521445643812754,-75.23734627017576
"19940","Delmar","DE","Delmar Park","State Street","19940",38.4560756231316,-75.57185053825378
"19943","Felton","DE","Cedar Ln Soccer Field","Cedar Grove Church","19952",38.97175598144531,-75.72123718261719
"19943","Felton","DE","Browns Branch Park","not_available","19963",38.950672729509776,-75.52364098705007
"19945","Frankford","DE","John T. West Park","West Ave","19970",38.54740215514196,-75.08880334964789
"19945","Frankford","DE","Plantation Park","Malcombs Manor","19945",38.51562407015917,-75.10405555118724
"19947","Georgetown","DE","Redden Forest","18909-19199 E Redden Rd","19947",38.74035437075316,-75.42127972601797
"19950","Greenwood","DE","Greenwood Library Park","100 Mill St","19950",38.806227,-75.59235799999999
"19952","Harrington","DE","Browns Branch Park","Killens Pond Rd.","19952",38.9463960259835,-75.52397650111813
"19952","Harrington","DE","Harrington Parks Recreation","not_available","19952",38.92562663008412,-75.57326039228433
"19956","Laurel","DE","Janosik Park","200 Front Street","19956",38.54839268558985,-75.56005405477119
"19956","Laurel","DE","Riverview Park",".","19956",38.55807102421811,-75.57086139504518
"19958","Lewes","DE","Cape Henlopen State Park","15099 Cape Henlopen Dr","19958",38.783143225983075,-75.09200053463454
"19958","Lewes","DE","Central Park","not_available","19971",38.719666,-75.08497
"19958","Lewes","DE","Jungle Jim's Water Park","36944 Country Club Rd","19971",38.71149794309981,-75.103228722632
"19958","Lewes","DE","Canal Front Park","not_available","19958",38.77730239540196,-75.14098472285703
"19958","Lewes","DE","Prime Hook National Wildlife Refuge","11978 Turkle Pond Rd","19968",38.82998725958705,-75.24851848947547
"19958","Lewes","DE","Deer Park","Kent Street","19971",38.717236,-75.087975
"19958","Lewes","DE","Sunset Park","Dagsworthy St & the bay","19971",38.693480851727664,-75.07719567759482
"19958","Lewes","DE","Milton play Area","Milton","not_available",38.778648120806416,-75.19392594985227
"19968","Milton","DE","Memorial Park Milton","2-62 Front St","19968",38.77884227000505,-75.31013635201819
"19973","Seaford","DE","Soroptimist Park","1158 Middleford Rd.","19973",38.64404165111214,-75.60072101338775
"19973","Seaford","DE","Gateway Park","not_available","19973",38.644290279405475,-75.62602381201809
"19973","Seaford","DE","Blades Public Park","6th St","19973",38.633475996553884,-75.60774116741713
"19973","Seaford","DE","Kiwanis Park","Stein Highway","19973",38.64503470611083,-75.62892093262926
"19973","Seaford","DE","Jays Nest Park","Market St Extended","19973",38.65377591754415,-75.61753250052993
"19977","Smyrna","DE","Delaware Aerospace Education Foundation","585 Big Oak Rd","19977",39.275742,-75.581106
