"zip","city","state","name","address","postalCode","lat","lon"
"20601","Waldorf","MD","Pinefield","not_available","20601",38.65066407563634,-76.86958116364424
"20601","Waldorf","MD","Turkey Hill Park","9430 Turkey Hill Rd","20695",38.572327030541246,-76.98096513748169
"20601","Waldorf","MD","Laurel Springs Park","Radio Station Rd","20646",38.55278321332402,-76.94661401794376
"20601","Waldorf","MD","White Plains Regional Park","1015 Saint Charles Pkwy","20695",38.577309351689365,-76.92386627197266
"20601","Waldorf","MD","Billingsley Road Park","not_available","20603",38.6236686706543,-76.91305541992188
"20601","Waldorf","MD","Ryan's Bbq & Pool Party","not_available","20637",38.546566009521484,-76.79841613769531
"20601","Waldorf","MD","Accokeek East Park","not_available","not_available",38.67527004989038,-76.946855967793
"20601","Waldorf","MD","St Charles Pond","not_available","20602",38.60522981229305,-76.89816941165495
"20601","Waldorf","MD","White Plains Soccer Field","not_available","20646",38.566330413982705,-76.99506756327253
"20603","Waldorf","MD","Kingsview Trail","4024-4046 Windsor Heights Pl","20695",38.615348717904496,-77.0335050033926
"20603","Waldorf","MD","Bensville Park","6980 bensville rd","not_available",38.59977587761886,-77.01865446874989
"20606","Abell","MD","staces beach","abell rd","not_available",38.23518007913374,-76.74266695976257
"20607","Accokeek","MD","National Colonial Farms","3400 Bryan Point Rd","20607",38.69448479464957,-77.06530858615064
"20607","Accokeek","MD","Accokeek Neighborhood Park","16058 Livingston Rd.","not_available",38.66993082161212,-77.02525618083703
"20607","Accokeek","MD","Piscataway Creek","not_available","20744",38.698125,-76.991604
"20607","Accokeek","MD","Accokeek Foundation at Piscataway Park","not_available","20607",38.694671539274,-77.06520740367364
"20608","Aquasco","MD","King's Landing Park","3255 King’s Landing Rd","20639",38.62631497611066,-76.67370713699617
"20616","Bryans Road","MD","Marshall Hall","not_available","20616",38.684786453030284,-77.09867167782285
"20619","California","MD","Chancellors Run Park","Chancellors Run Rd","20634",38.27138088594775,-76.4952486850154
"20620","Callaway","MD","Callaway Locker Room Frat Boys College","Black Duck Ct","20620",38.243175684843244,-76.52528012895868
"20622","Charlotte Hall","MD","Gilbert Run Park","13140 Charles Street","20622",38.48564573492197,-76.85623208979301
"20622","Charlotte Hall","MD","Wicomico Motorsports Park","not_available","20659",38.404889713428396,-76.85768484894736
"20622","Charlotte Hall","MD","Fifth District Park","37880 New Market Turner Rd","20659",38.477718353271484,-76.76630401611328
"20634","Great Mills","MD","Pembrooke Picnic Area","Pembrooke St","20653",38.23787871246484,-76.45489367371599
"20634","Great Mills","MD","Nicolet Park","21777 Bunker Hill Dr","20653",38.26655578613281,-76.46395874023438
"20636","Hollywood","MD","Jefferson Patterson Park & Museum","10515 Mackall Rd","20685",38.399023078876546,-76.50755722890928
"20639","Huntingtown","MD","Marley Run Park","Cox Rd","20639",38.60868799176915,-76.59613043776778
"20639","Huntingtown","MD","Marley Run Recreation Area","not_available","20639",38.601621067500766,-76.5809736879423
"20640","Indian Head","MD","The Village Green and Pavilion","100 Walter Thomas Rd","not_available",38.6001691605343,-77.16911056341914
"20640","Indian Head","MD","Lamont's","not_available","20640",38.596895924817105,-77.09014069043424
"20645","Issue","MD","Southern Park","not_available","20664",38.277633,-76.87623
"20646","La Plata","MD","Tilghman Lake Park","10598 Box Elder Rd","20646",38.544338,-76.943302
"20646","La Plata","MD","Old Women's Run","not_available","20675",38.59582,-77.02625
"20646","La Plata","MD","Wills Memorial Park","500-514 St Marys Ave","20646",38.51933358689352,-76.97937416680462
"20646","La Plata","MD","Friendship Farm Park","4705 Friendship Landing Rd","20662",38.455192,-77.154195
"20653","Lexington Park","MD","Point Lookout","not_available","20653",38.161194065646335,-76.4321386880916
"20653","Lexington Park","MD","Dog Park","Rennell Ave W","20653",38.25897777941861,-76.44890025514044
"20657","Lusby","MD","Flag Ponds Park","not_available","20657",38.44701868739252,-76.4579044011604
"20657","Lusby","MD","St. Leonard Shores MD","Bond Street","MD",38.44214053565956,-76.4961925771342
"20657","Lusby","MD","Calvert County Landfill","401 Sweetwater Rd","20657",38.381544,-76.44340600000001
"20659","Mechanicsville","MD","Southern Maryland BMX","26600 Budds Creek Road","25609",38.38018035888672,-76.80667877197266
"20659","Mechanicsville","MD","Wicomico Shores Public Landing","35668-35696 Army Navy Dr","20659",38.38007666688069,-76.85785377332307
"20662","Nanjemoy","MD","Mallows Bay Park","1440 Wilson Landing Rd","20662",38.4687503745614,-77.26253016835243
"20676","Port Republic","MD","Calver Play Park","not_available","20678",38.532003,-76.5843
"20676","Port Republic","MD","Battle Creek Cypress Swamp County Sanctuary","2880 Grays Rd","20678-3322",38.490764,-76.591091
"20678","Prince Frederick","MD","Hallowing Point Park","4755 Hallowing Point Rd","20678",38.51241365514962,-76.63307806573421
"20680","Ridge","MD","Beachville","48562–48722 Beachville Rd","20684",38.111398,-76.415568
"20687","Scotland","MD","Point Lookout Pier","Unnamed Rd","20687",38.05037157028151,-76.32218921577117
"20705","Beltsville","MD","Sunnyside Neighborhood Park","Rhode Island Avenue","20705",39.01970330676762,-76.92051344898194
"20705","Beltsville","MD","Cross Creek Club Park","3530 Briggs Chaney Rd","20904",39.07235336303711,-76.9373779296875
"20705","Beltsville","MD","West Fairland Park","2201-2211 Fairland Rd.","20904",39.07724607388124,-76.96007808006779
"20705","Beltsville","MD","Muirkirk South Community Park","Muirkirk Rd","not_available",39.05925403203887,-76.88065644431867
"20705","Beltsville","MD","Vansville Park","not_available","20705",39.04782666733384,-76.89058132777708
"20705","Beltsville","MD","Holly Park","not_available","20707",39.08250036058159,-76.85765106404452
"20705","Beltsville","MD","snowden oaks park","not_available","20708",39.06142194420798,-76.86154189801056
"20705","Beltsville","MD","Oakcrest Recreational Center","8601 lindendale drive","20707",39.08299255371094,-76.8576889038086
"20705","Beltsville","MD","Galway Park","not_available","20904",39.06871820551173,-76.95278867494854
"20705","Beltsville","MD","Calverton Galway Park","Fairland Rd","20705",39.070671031967116,-76.946855967793
"20705","Beltsville","MD","The Creek","4306 Taunton Dr","20705",39.036291999999996,-76.932062
"20706","Lanham","MD","Ardmore Neighborhood Park","9301 Ardmore Road","20774",38.93804601881165,-76.84674623221923
"20706","Lanham","MD","Tabbs Park","91st Pl","20706",38.949232279703075,-76.85419369353606
"20706","Lanham","MD","Good Luck Community Center & Park","8601 Good Luck Rd","20706",38.980100873662224,-76.8586454169265
"20706","Lanham","MD","Beckett Field","Legation Road","not_available",38.96230131226285,-76.86874327769911
"20706","Lanham","MD","Schrom Hills Park","6751 Village Park Dr","20770",38.98487026329969,-76.87297720019335
"20706","Lanham","MD","Lincoln Vista Community Park","9800 Ridge Street","20769",38.97098159790039,-76.82262420654297
"20706","Lanham","MD","LANHAM PARK","5100 Patmore St","not_available",38.958529,-76.841482
"20706","Lanham","MD","Veterans Memorial Park","not_available","20706",38.961681,-76.883102
"20707","Laurel","MD","McCullough Field","8th St.","20707",39.10008173519169,-76.85162031108247
"20707","Laurel","MD","High ridge park","10,100 superior avenue","not_available",39.113531476286724,-76.86204302402045
"20707","Laurel","MD","Supplee Lane Recreation Area Fields","Supplee Lane Recreation Area","20707",39.117174066761606,-76.88684903485994
"20707","Laurel","MD","North Laurel Community Center","9411 Whiskey Bottom Rd","20723",39.11631347700026,-76.83628671275838
"20707","Laurel","MD","Maryland City Park","508 Brock Bridge Rd","20724",39.07177002502591,-76.83198313579305
"20707","Laurel","MD","Discovery Park","1034-1098 Harrison Dr","20707",39.09824879003053,-76.86322544812667
"20707","Laurel","MD","Granville Gude Park and Lakeside","Cypress St","20707",39.08931427294993,-76.86403831500974
"20707","Laurel","MD","The Green Room","do ro su ta","20707",39.091163,-76.864193
"20707","Laurel","MD","McCullough Field (Laurel)","Montgomery St","20707",39.1059648147292,-76.85743709277897
"20707","Laurel","MD","T. Howard Duckett Park","16501 Supplee Lane","20707",39.12051420996055,-76.8879636681155
"20708","Laurel","MD","Patuxent Research Refuge, South Tract","South of MD 197","20708",39.02836149411633,-76.80350455800912
"20708","Laurel","MD","Veterans Memorial Park","12700 9th St.","20720",39.00592803955078,-76.78585815429688
"20708","Laurel","MD","College Park Woods playgroung","not_available","20740",39.00593823025689,-76.79722893173468
"20708","Laurel","MD","VIP Pool","not_available","20724",39.093748,-76.809947
"20708","Laurel","MD","Huntington North Recreation Area","12500 Duckettown Rd.","20720",39.010019481685426,-76.78850054740906
"20708","Laurel","MD","Baltimore-Washington Parkway","Baltimore Washington Pkwy","not_available",39.045026190914925,-76.84524575044604
"20710","Bladensburg","MD","Old Port of Bladensburg Community Park","4418 Baltimore Ave","20710",38.94004663560391,-76.94089711016257
"20710","Bladensburg","MD","Bladensburg Balloon Gardens","Upshur St","20710",38.940268162312975,-76.94115042686462
"20711","Lothian","MD","PGRC Model Airplane Club","not_available","20772",38.85186004638672,-76.70318603515625
"20711","Lothian","MD","Selby's Landing (Patuxent River Park)","16276-16298 Croom Airport Rd","20772",38.75260478624596,-76.70042951026292
"20712","Mount Rainier","MD","Taft Rec Center","18th & Perry Street NW","20018",38.935580178561516,-76.97738281699372
"20712","Mount Rainier","MD","Exorcist Park","not_available","20712",38.938212,-76.962177
"20714","North Beach","MD","Wetlands Overlook Park","not_available","20714",38.712863,-76.533287
"20714","North Beach","MD","Rose Haven Park","Walnut Avenue","not_available",38.72671173852494,-76.53727092585466
"20715","Bowie","MD","White Marsh Recreational Park","not_available","20715",38.9771277567335,-76.71891009871942
"20715","Bowie","MD","Jericho Park","not_available","20720",39.020100007684164,-76.77186970789386
"20715","Bowie","MD","High Bridge Park","6800 Highbridge Road","not_available",38.983104567043206,-76.77419118395444
"20715","Bowie","MD","Huntington South Recreation Area","13311 11th St","20715",39.006119,-76.77256700000001
"20715","Bowie","MD","Rockledge Park","12406 Round Tree Ln","20715",39.00159405981065,-76.75225376998537
"20715","Bowie","MD","High Bridge Community Park","6906 High Bridge Rd","20720",38.98513,-76.77385
"20715","Bowie","MD","Meadowbrook Park","Moylan Dr","20715",38.98262013156113,-76.75113228341921
"20715","Bowie","MD","Somerset Park","Somerset Park","not_available",38.96851564265278,-76.7363209576651
"20715","Bowie","MD","Tanglewood Park","8400 Zug Road","not_available",39.002376556396484,-76.78335571289062
"20715","Bowie","MD","Acorn Hill Park","Stonybrook Dr.","20715",38.976025408097634,-76.73580050468445
"20716","Bowie","MD","Allen Pond Park","3330 Northview Dr","20716",38.93483263012925,-76.7388516313845
"20716","Bowie","MD","Jack and Jill Park","Penn Manor Lane","20716",38.90256803582561,-76.7342242361496
"20716","Bowie","MD","Springlake Neighborhood Park","not_available","20716",38.930128149605444,-76.74230656685003
"20716","Bowie","MD","Governor Bridge Natural Area","17551 Governor Bridge Rd","20716",38.94228744506836,-76.69812774658203
"20716","Bowie","MD","Pollinator Meadow","not_available","21035",38.94621,-76.69561
"20720","Bowie","MD","Northridge Park","12401 quinette lane","not_available",38.99250237676268,-76.79179806295753
"20720","Bowie","MD","Glenn Dale Park","not_available","20769",38.969331274608535,-76.79445719008636
"20721","Bowie","MD","Largo Town Center Park","not_available","20774",38.896091,-76.839789
"20721","Bowie","MD","Northampton Slave Quarters","not_available","20721",38.903156618377956,-76.8174968263641
"20721","Bowie","MD","Arbor Park Playground","1020 Arbor Park Pl","20721",38.903327000000004,-76.82758000000001
"20721","Bowie","MD","Kettering Community Park","Chesterton Drive","20774",38.89706504664163,-76.80172443042626
"20722","Brentwood","MD","Fort Lincoln Park","Fort Lincoln Dr NE","20019",38.92409676860915,-76.95821019186486
"20722","Brentwood","MD","Melrose Park","Rhode Island Ave.","20781",38.94598701612935,-76.9462820394646
"20722","Brentwood","MD","Colmar Manor Community Park","3200 37th Ave","20722",38.93294252110862,-76.95152521133423
"20722","Brentwood","MD","Bartlett Park","4301-4349 38th St","20722",38.94239903657118,-76.95265889979068
"20722","Brentwood","MD","Anacostia River Park","not_available","20737",38.92360713852199,-76.96129326998967
"20722","Brentwood","MD","Cottage City Playground /Moyer's Mill Park","not_available","20722",38.93906,-76.94601
"20723","Laurel","MD","Guilford Park","Guilford Rd. and Mission Rd","20794",39.15494019095564,-76.82151317596436
"20723","Laurel","MD","Savage Park","not_available","20763",39.13955625795545,-76.8290769977017
"20723","Laurel","MD","Holiday Hills Park","10524 Vista Rd","21044",39.18077087402344,-76.8786849975586
"20723","Laurel","MD","Scott's Cove Recreational Area","Harding Rd","20723",39.13691779210091,-76.89543023831078
"20723","Laurel","MD","Savage Park","8400 Fair St","20763",39.14985587704519,-76.83442176117272
"20723","Laurel","MD","Hammond Park","Glen Hannah Dr","20723",39.14619249020888,-76.8810505275294
"20723","Laurel","MD","Hammond Park","not_available","20723",39.147175270988875,-76.8735064302964
"20724","Laurel","MD","Oxbow Lake Nature Preserve","Oxbow Pl","20724",39.11327995540946,-76.80262947012935
"20724","Laurel","MD","Smoking Pole","not_available","20755",39.107986136037205,-76.76628488826776
"20724","Laurel","MD","Patuxent Research Refuge - Hunter Control Station","Bald Eagle Dr","20708",39.08704019777281,-76.77248952368072
"20735","Clinton","MD","Tanglewood Park","Woodyard Road","not_available",38.77387549418365,-76.87359088169866
"20735","Clinton","MD","Cosca Regional Park","11201 Thrift Rd","not_available",38.737341688500784,-76.91221851531466
"20735","Clinton","MD","Tucker Road Park","1770 Tucker Rd","20744",38.787911589866724,-76.97098102563093
"20735","Clinton","MD","Johnson Park","Ashwood Circle","20762",38.790564,-76.893511
"20735","Clinton","MD","Henson Creek Neighborhood Park","5601 Temple Hill Road","20748",38.80650329589844,-76.93610382080078
"20735","Clinton","MD","Freedom Park, Base Lake","S Perimeter Rd","20762",38.786884,-76.872234
"20735","Clinton","MD","Cookout for Cross!","6414 Bushey Dr","20748",38.800898,-76.919086
"20736","Owings","MD","Dunkirk District Park","Kirskville Ln","20754",38.72358066031787,-76.66230022955679
"20736","Owings","MD","Fort dupont Park","not_available","20754",38.719026,-76.65963
"20737","Riverdale","MD","Riverdale Park","5500 Haig Dr","20737",38.9610530085967,-76.92926552966945
"20737","Riverdale","MD","Anacostia River Park - Tanglewood","Tanglewood Road","20737",38.95348646014015,-76.92610843702329
"20737","Riverdale","MD","M-NCPPC PRA","6600 Kenilworth Ave","20737",38.96868896484375,-76.91796875
"20737","Riverdale","MD","Browning Park","Nicholson Lane","not_available",38.95465475,-76.91439
"20737","Riverdale","MD","Polka Dot Park","not_available","20781",38.95592,-76.94031
"20740","College Park","MD","Chemistry Building Garden","2–1398 Chemistry Building","20740",38.98973649068059,-76.9397885843297
"20740","College Park","MD","Hollywood Neighborhood Park","53rd Avenue","20740",39.0105715473623,-76.91311405535788
"20740","College Park","MD","Fraternity Fields","Fraternity Row","20740",38.98430737886998,-76.93674430692514
"20743","Capitol Heights","MD","Kenilworth Park and Aquatic Gardens","1550 Anacostia Ave NE","20019",38.91201337785963,-76.93812099640435
"20743","Capitol Heights","MD","Fort Mahan Park","Fort Mahan Park","not_available",38.89530825492018,-76.94472312927246
"20743","Capitol Heights","MD","Fort DuPont Park","Fort Dupont Drive SE","20019",38.880703502963556,-76.94398629921832
"20743","Capitol Heights","MD","Marvin Gaye Recreational Park","411-499 Division Ave N.E.","20019",38.893472595239075,-76.9247690398238
"20743","Capitol Heights","MD","Capitol Heights South Park","not_available","20743",38.876536,-76.920493
"20743","Capitol Heights","MD","Walker Mill Park","Walker Mill Road","not_available",38.873013013439504,-76.88053258933522
"20743","Capitol Heights","MD","Fort Chaplin Park","not_available","20019",38.889735336876136,-76.94015434269407
"20743","Capitol Heights","MD","Dupont Heights Park","2000 Cambell Drive","20746",38.86016194351498,-76.92343711853027
"20743","Capitol Heights","MD","Little Washington Park","2407 Sansbury Rd","20743",38.85689926147461,-76.8440170288086
"20743","Capitol Heights","MD","Ronnie’s Park","4914 East Capitol St NE","20019",38.889997332452324,-76.93171977996826
"20743","Capitol Heights","MD","Feggans Park","68th place","20019",38.891813,-76.904126
"20743","Capitol Heights","MD","Planters Grove","601 50th Street NE","not_available",38.89727783203125,-76.92896270751953
"20743","Capitol Heights","MD","Jesse","Edgewood ave","20743",38.908612572498676,-76.91686179614851
"20743","Capitol Heights","MD","Buddy attick park","not_available","20783",38.89209951915895,-76.94056511616941
"20743","Capitol Heights","MD","Nash Run","Anacostia Avenue NE","20019",38.910635,-76.942513
"20744","Fort Washington","MD","Rosalie Island Potomac River Waterfront Community Park","Woodrow Wilson Bridge Trail","20745",38.79316214013487,-77.02465724945068
"20744","Fort Washington","MD","Betty Blume Park","not_available","20745",38.790293,-77.010316
"20744","Fort Washington","MD","Betty Blume Picnic Area","Near National Harbor","20745",38.79527683592743,-77.00695719639654
"20744","Fort Washington","MD","Tantallon North Park","Autumnwood Lane","not_available",38.73063085747635,-77.012569778456
"20744","Fort Washington","MD","Valley View Community Park","2198 Trafalgar Drive","20744",38.75559850034861,-77.0104664965631
"20745","Oxon Hill","MD","Oxon Run Park","4th St Mississippi Ave SE","20032",38.83550728492639,-77.00037136082703
"20745","Oxon Hill","MD","North Barnaby Recreation Area","38.82456 -76.96647","not_available",38.8228250204544,-76.9677472114563
"20745","Oxon Hill","MD","Silver Hill Park","5211 Abbott Drive","not_available",38.82038423517034,-76.96321964263916
"20746","Suitland","MD","Hagan Field","not_available","20748",38.81778411886793,-76.95211685193303
"20746","Suitland","MD","National Capital Parks","National Capital Parks","20746",38.8358,-76.92593
"20746","Suitland","MD","Douglas Patterson Park","6998 Marianne Dr","20746",38.824935663344895,-76.88617349464646
"20746","Suitland","MD","Off Village Park","6111 Baxter Avenue","not_available",38.81117736,-76.89992168
"20746","Suitland","MD","Suitland Community Park","3199 Logan Street","20747",38.84584118768684,-76.91349148750305
"20746","Suitland","MD","Auth Village Park","not_available","20746",38.81247484109609,-76.90010576169648
"20746","Suitland","MD","park berkshire","not_available","20747",38.84528363938727,-76.90249801253641
"20746","Suitland","MD","South Forestville Community Park","3898 Nearbrook Ave","20747",38.835909335408076,-76.8820132112196
"20748","Temple Hills","MD","Douglass Community Recreation Center","Stanton Terrace SE, Washington, DC 20020","20020",38.85221816228786,-76.97741094363015
"20748","Temple Hills","MD","Oxon Run National Parkway","13th St and Mississippi Ave SE","20032",38.85133954829021,-76.95871654992384
"20755","Fort George G Meade","MD","Severn-Provinces Park","Disney Rd","21144",39.12910069664951,-76.72942193572113
"20755","Fort George G Meade","MD","Midway Commons Park","not_available","21090",39.12023057588216,-76.75130396886838
"20755","Fort George G Meade","MD","Burba Lake Park","not_available","21144",39.096210645434795,-76.73408332619104
"20755","Fort George G Meade","MD","Constitution Park","English Avenue","20755",39.10128824395287,-76.7361011417286
"20759","Fulton","MD","Schooley Mill Park","12975 Hall Shop Rd","20777",39.16636297972876,-76.95878406417306
"20764","Shady Side","MD","Cedarhurst on the Bay","not_available","20764",38.82923991942793,-76.49930773939552
"20765","Galesville","MD","Galesville Park","not_available","20765",38.84608553694421,-76.55130958043735
"20770","Greenbelt","MD","Buddy Attick Park","555 Crescent Rd","20770",39.005108879734756,-76.89032237894095
"20770","Greenbelt","MD","Steam Valley Park","not_available","20770",39.00602503576266,-76.87969937984991
"20770","Greenbelt","MD","Northway Fields","Northway","not_available",39.003010756770806,-76.87811851501465
"20772","Upper Marlboro","MD","Melwood Park","11100 Old Marlboro Pike","20772",38.8148367826001,-76.82021659432445
"20772","Upper Marlboro","MD","Fairhaven Park","9200 Fairhaven Avenue","20772",38.762210845947266,-76.79090118408203
"20772","Upper Marlboro","MD","Holloway Estates Park","9911 Rosaryville Road","20772",38.75911989612226,-76.81827306747437
"20772","Upper Marlboro","MD","Marlton Town Center Gazebo","Center Park Way","not_available",38.76917959664346,-76.78245686636241
"20772","Upper Marlboro","MD","Allen's Pond","Northview","not_available",38.77725836973918,-76.79969640598189
"20772","Upper Marlboro","MD","Marlton Park","8061 Croom Road","20772",38.77812957763672,-76.77360534667969
"20772","Upper Marlboro","MD","Mellwood Hills Community Park","7575 Dower House Road","20772",38.78787612915039,-76.82783508300781
"20774","Upper Marlboro","MD","Watkins Regional Park","301 Watkins Park Dr","20774",38.88877264386494,-76.79430508052948
"20774","Upper Marlboro","MD","Riverwood Park","1542 Morgan Rd","21035",38.914485,-76.670704
"20774","Upper Marlboro","MD","Watkins Park Nature Center","11519 Bennington Dr","20774",38.88700561299149,-76.79718307714872
"20776","Harwood","MD","Beverly Point","Rhode River","not_available",38.882455597878476,-76.51145884669555
"20781","Hyattsville","MD","Magruder-Hamilton Park","3939 Hamilton St","20781",38.953901465250965,-76.9526975451471
"20781","Hyattsville","MD","Robert J. King Memorial Park (Gallatin Park)","Gallatin St","20781",38.95657590939609,-76.94426201539711
"20782","Hyattsville","MD","Avondale Park","4900-4928 Lasalle Rd","20782",38.95259807320848,-76.97982981006533
"20782","Hyattsville","MD","Sligo Creek North Park","not_available","20912",38.97965378491064,-76.99219340447962
"20782","Hyattsville","MD","North Michigan Park Recreation Center","1333 Emerson St","not_available",38.949864563736575,-76.98673630655655
"20782","Hyattsville","MD","Riggs Manor Neighborhood Park","25th Ave","20782",38.969013,-76.96731
"20782","Hyattsville","MD","Rollingcrest-Chillum Community Center","6120 Sargent Rd, Hyattsville, MD 20782","20782",38.964759826660156,-76.98516845703125
"20782","Hyattsville","MD","University Park Town Park","Queens Chapel Rd","20782",38.97062043076873,-76.94710493087769
"20783","Hyattsville","MD","Long Branch/Wayne Local Park","509 University Blvd E, Silver Spring, MD 20901","20901",39.00558979189195,-76.9977504251186
"20783","Hyattsville","MD","Adelphi Mill","NW. Branch Trail","20785",38.99303421825277,-76.97220740537601
"20784","Hyattsville","MD","Gast Park (Cheese Park)","Parkway St","20785",38.92849,-76.91159
"20784","Hyattsville","MD","Woodlawn Community Center & Park","6916 Greenvale Parkway","20784",38.949188232421875,-76.89994049072266
"20785","Hyattsville","MD","Town Park","6401 Forest Rd","20785",38.92411629170924,-76.90594127095164
"20785","Hyattsville","MD","Legion Park","not_available","20785",38.92568252051389,-76.91274194847993
"20794","Jessup","MD","Arbors At Arundel Mills Courtyard","Piney Branch Cir","21076",39.15414406107471,-76.74219384614908
"20794","Jessup","MD","Jessup Dorsey Park","7490 Race Rd","21076",39.162491,-76.742298
"20794","Jessup","MD","Cedar Villa Heights Park","8631 Lincoln Drive","20794",39.171675027358866,-76.79296425492818
"20812","Glen Echo","MD","Glen Echo Park","7300 MacArthur Blvd","20812",38.96758412059593,-77.13955879211426
"20812","Glen Echo","MD","Chataqua Lock (Lock #7)","Chesapeake & Ohio Canal National Historic Park","20812",38.96448244136971,-77.13828953434728
"20814","Bethesda","MD","Ayrlawn Park","not_available","20817",39.00452584648346,-77.11638362127277
"20814","Bethesda","MD","Rock Creek Park","Beach Dr","20460",39.01136810016472,-77.09181546437554
"20814","Bethesda","MD","Fleming Park","not_available","20814",39.019836737120755,-77.11129616579458
"20814","Bethesda","MD","Battery Lane Urban Park","4960 Battery Ln","20814",38.9917442128983,-77.10046996403827
"20814","Bethesda","MD","Maplewood Park","9623 Alta Vista Ter","20814",39.01274822549575,-77.10637040127553
"20814","Bethesda","MD","Greenwich Park","Old Georgetown Rd","20817",38.99427329647851,-77.10926396785446
"20814","Bethesda","MD","Cheltenham Drive Park","4723 Cheltenham Drive","20814",38.98857429871325,-77.09397403872607
"20814","Bethesda","MD","Caroline Freeland Park","7200 Arlington Rd","20814",38.98226827372603,-77.09912558369514
"20814","Bethesda","MD","Bradley Park","8703 Hartsdale Ave","20817",38.99915,-77.11668
"20814","Bethesda","MD","North Chevy Chase Park","Jones Bridge Rd.","20815",39.00167674150452,-77.08147287368774
"20814","Bethesda","MD","Cloister Drive Park","Cloister Drive","not_available",39.030085613553,-77.09912874476493
"20814","Bethesda","MD","Lynnbrook Park","8008 Newdale Rd","20814",38.98966460359243,-77.08438979976125
"20814","Bethesda","MD","Cedar & Beach","Rock Creek Trail","20814",39.01246134000636,-77.09130404259567
"20814","Bethesda","MD","DC Bocce - Bethesda","7600 Arlington Rd","20814",38.986148834228516,-77.09957122802734
"20814","Bethesda","MD","Woodacres Local Park","Bethesda,MD,20816","20816",39.01138383869007,-77.11726577841189
"20814","Bethesda","MD","Whitley Park","5450 Whitley Park Ter","20814",39.015721,-77.110116
"20814","Bethesda","MD","georgetown doctors park","5415 W Cedar Ln","20814",39.005232,-77.108547
"20814","Bethesda","MD","Riley's Park","not_available","20815",38.986639160192276,-77.08314910003024
"20814","Bethesda","MD","Elm Street Park","4511 Elm St","20815",38.982368,-77.091688
"20814","Bethesda","MD","Chase Ave Urban Park","4701 Chase Avenue","20814",38.989898681640625,-77.09425354003906
"20814","Bethesda","MD","Rock Creek Park Jogging Trail","Beach Dr","20895",39.027409495223175,-77.09855335213565
"20815","Chevy Chase","MD","Audubon Naturalist Society - Woodend Nature Sanctuary","8940 Jones Mill Rd","20815",39.00318605934443,-77.06724483899994
"20815","Chevy Chase","MD","Chevy Chase Park","5500 41st St. NW","20015",38.96354437716797,-77.08076602128563
"20815","Chevy Chase","MD","Western Grove Park","5409 Grove St","20815",38.96322250366211,-77.08392333984375
"20815","Chevy Chase","MD","Meadowbrook Local Park","7901 Meadowbrook Lane","20815",38.98685462926645,-77.06155353506746
"20815","Chevy Chase","MD","Norwood Park","Norwood Drive","20815",38.97550760598544,-77.09411964537608
"20815","Chevy Chase","MD","Little Forest - Rock Creek Park","2829-2899 Military Road Northwest","20015",38.961563,-77.05863
"20815","Chevy Chase","MD","Willard Avenue Park","4915 River Rd","20816",38.961611992121725,-77.09671601096578
"20815","Chevy Chase","MD","Chevy Chase Circle","Connecticut Ave.","20815",38.967532,-77.077196
"20815","Chevy Chase","MD","Little Falls Park","Little Falls Park","20816",38.96357874247213,-77.10136347747527
"20815","Chevy Chase","MD","Pinehurst Tributary Park","Aberfoyle St NW and Western Ave NW","20015",38.97623775449256,-77.05768211921841
"20815","Chevy Chase","MD","Softball Fields","171-175 Sitter Ave","20910",39.00782813,-77.05622614
"20815","Chevy Chase","MD","Archstone Park","4440 Willard Ave","20815",38.961185,-77.087802
"20816","Bethesda","MD","Westmoreland Hills Park","5315 Elliott Rd","20816",38.951777,-77.10970999999999
"20816","Bethesda","MD","Fort Bayard Park","PO Box","20016",38.9554042059122,-77.09142923355103
"20816","Bethesda","MD","Brookmont Lock (Lock #5)","Chesapeake & Ohio Canal National Historic Park","20816",38.939875461465924,-77.1215202686281
"20816","Bethesda","MD","Spring Valley Park","not_available","20016",38.937363,-77.09806
"20816","Bethesda","MD","Bannockburn Community House","6314 Bannockburn Dr","20817",38.973746,-77.141668
"20816","Bethesda","MD","Westmoreland Circle","Massachusetts Ave.","20816",38.94878084714426,-77.10038005036782
"20816","Bethesda","MD","Sangamore Local Park","not_available","20816",38.952106,-77.12356
"20817","Bethesda","MD","Cabin John Regional Park","7400 Tuckerman Ln","20852",39.03535292534153,-77.15136051177979
"20817","Bethesda","MD","Carderock Recreation Area","Chesapeake & Ohio Canal National Historic Park","20854",38.976270546305386,-77.20534673830755
"20817","Bethesda","MD","Seven Locks 3 (Lock #10)","Chesapeake & Ohio Canal National Historic Park","20818",38.972588875283606,-77.16910685894592
"20817","Bethesda","MD","Avenel Park","not_available","20854",38.99881350464077,-77.19730702676219
"20817","Bethesda","MD","Cabin John Train Station","Tuckerman Rd","not_available",39.03470885697997,-77.14914084953124
"20817","Bethesda","MD","Seven Locks 7 (Lock #14)","Chesapeake & Ohio Canal National Historic Park","20815",38.972206,-77.18079
"20817","Bethesda","MD","Stratton Park","9925 Harrogate Rd","not_available",39.01966815015657,-77.13753112537628
"20817","Bethesda","MD","Seven Locks Park","6922 Seven Locks Rd","20818",38.98301989100803,-77.16479149392254
"20817","Bethesda","MD","Concord Park","7125 Helmsdale Rd","20817",38.981398,-77.151992
"20817","Bethesda","MD","Fernwood Park","Michaels Drive","not_available",39.010551619987965,-77.13776145749914
"20817","Bethesda","MD","Buck Branch Park","Bells Mill Rd","20854",39.031153069424356,-77.1790904398322
"20817","Bethesda","MD","Totem Pole","not_available","20852",39.03544,-77.150913
"20832","Olney","MD","Southeast Olney Park","not_available","20832",39.14414178649304,-77.06280148418813
"20832","Olney","MD","Olney Manor Regional Park","1666-16278 Batchellors Forest Rd","20906",39.12530069752367,-77.07024393933894
"20832","Olney","MD","Manor Oaks Park","18820 Quarrymen Terrace","20833",39.16785266770279,-77.04768469068271
"20832","Olney","MD","OBGC Park","4501 Olney Laytonsville Rd","20832",39.17184754888048,-77.0880500002558
"20833","Brookeville","MD","Rachel Carson Conservation Park","21901-22225 Zion Rd","20833",39.21980130766924,-77.08545748393652
"20833","Brookeville","MD","Mt. Zion Park","5130 Brookeville Road","20882",39.183251422872374,-77.10234127700389
"20833","Brookeville","MD","McClintock Park","14561 Macclintock Dr","21738",39.275363,-77.025075
"20833","Brookeville","MD","Brighton Dam Park","2 Brighton Dam Rd","20833",39.191541502331205,-77.0066928699982
"20833","Brookeville","MD","Black History National Recreational Trail","Constitution Ave NW","20224",39.17479067306053,-77.03491067712203
"20837","Poolesville","MD","Riley's Lock (Lock #24)","Chesapeake & Ohio Canal National Historic Park","20837",39.069069011732516,-77.34079055081409
"20837","Poolesville","MD","Elizabeth Mills Riverfront Park","43513 Squirrel Ridge Pl","20176",39.08737564086914,-77.47450256347656
"20837","Poolesville","MD","Seneca Landing Park","Rileys Lock Rd.","20874",39.069016206068056,-77.34050010547288
"20837","Poolesville","MD","Montgomery County Model Airplane Park","Schaeffer Rd","20841",39.14742615198194,-77.33808737468166
"20837","Poolesville","MD","EE Halmos Park","not_available","20837",39.1407934960932,-77.40461657479216
"20837","Poolesville","MD","Brooks Park","Wooton Ave.","20837",39.143202252975435,-77.40459975949562
"20837","Poolesville","MD","Waterford Road, Ida Lee","not_available","20129",39.103923544858944,-77.49091954741287
"20837","Poolesville","MD","Seneca Creek Park","not_available","20874",39.12813583757833,-77.33620296582232
"20837","Poolesville","MD","McKee-Besheers WMA","River Road","20837",39.081327770712456,-77.37301941204225
"20837","Poolesville","MD","Lansdowne Waterfall","not_available","20176",39.0824286124724,-77.48251230164857
"20839","Beallsville","MD","Woodstock Equestrian Park","20437-20499 Darnestown Rd","20842",39.1906685101704,-77.42160437816133
"20839","Beallsville","MD","Owens Local Park","19900 Beallsville Rd","20839",39.182441,-77.409432
"20841","Boyds","MD","Black Hill Regional Park","20930 Lake Ridge Dr","20841",39.1943570288726,-77.29151224661796
"20841","Boyds","MD","South Germantown Recreational Park","18041 Central Park Cir","20841",39.14998673897426,-77.30166690399732
"20841","Boyds","MD","Waters House Special Park","12535 Milestone Manor Ln","20876",39.206755,-77.259613
"20841","Boyds","MD","Ovid Hazen Wells Recreational Park","12001 Skylark Rd","20871",39.23462129513632,-77.25297633663718
"20841","Boyds","MD","Stonecreek Club Apartment Homes","12840 Locbury Cir,","20874",39.185718,-77.265477
"20841","Boyds","MD","Seneca Creek Park","not_available","20878",39.133837348058705,-77.25099707190351
"20841","Boyds","MD","Waters Landing Park","13701 Waters Landing Dr","20876",39.19372235830944,-77.27269220438623
"20841","Boyds","MD","Byrne Park","Byrne park dr","20841",39.221869,-77.290391
"20841","Boyds","MD","South Gunners Branch Park","12919 Prairie Knoll Ct","20874",39.150783685458585,-77.27359638736768
"20841","Boyds","MD","Town Center Park","Rexmore Dr","20874",39.18274440514162,-77.26604318853973
"20841","Boyds","MD","Leaman Local Park","14021 Eternity Road","not_available",39.17023274550974,-77.29210696354048
"20841","Boyds","MD","Blue Sky Park","Blue Sky Dr","20871",39.23800167618252,-77.26282198872485
"20841","Boyds","MD","Park","13832 Hopkins Rd.","20874",39.169863939175556,-77.28866815567017
"20841","Boyds","MD","Seneca Lodge - Camp Seneca Park","not_available","20841",39.176591,-77.301441
"20841","Boyds","MD","Northern District Station","14201-14399 Black Hills Rd","20841",39.1990697,-77.29613415
"20841","Boyds","MD","Clarksburg Village Park North","12525 Blue Sky Dr","20871",39.2379867785241,-77.26282557410671
"20841","Boyds","MD","Ebbtide Tot Lot","Ebbtide Circle","not_available",39.167513,-77.25079
"20842","Dickerson","MD","C&O Canal - Noland's Ferry","Chesapeake & Ohio Canal National Historic Park","21790",39.24937706689784,-77.48203058863957
"20842","Dickerson","MD","Edwards Landing Park","901 Powhatan Ct","20176",39.11854204569645,-77.52644606844045
"20842","Dickerson","MD","Monocacy Aqueduct","Mouth of Monocacy Road","20842",39.222771609038254,-77.45025546324347
"20842","Dickerson","MD","Spinks Ferry (Lock #27)","Chesapeake & Ohio Canal National Historic Park","20842",39.215896301912586,-77.4580979347229
"20850","Rockville","MD","Rock Creek Regional Park","6700 Needwood Rd","20855",39.10901776016953,-77.12711334228516
"20850","Rockville","MD","Potomac Woods Park","Stratton Dr.","20854",39.06757690176083,-77.16956189689587
"20850","Rockville","MD","Dogwood Park","800 Monroe St.","20852",39.07490231888727,-77.15280956592314
"20850","Rockville","MD","Woodley Gardens Park","Nelson St.","20850",39.092960444776686,-77.1734519407258
"20850","Rockville","MD","Lakelands Park","1368 Main St.","20878",39.11214285939218,-77.24286179594343
"20850","Rockville","MD","Big Pines Park","13900 Travilah Rd.","20878",39.08165337530507,-77.23102053552357
"20850","Rockville","MD","Welsh Park","Martins Rd & Mannakee St","20850",39.09070035944546,-77.1601152420044
"20850","Rockville","MD","Falls Road Park","12600 Falls Rd.","20854",39.06388436414587,-77.17720348187599
"20850","Rockville","MD","King Farm Park","Watkins Pond Blvd.","20850",39.10808535292582,-77.16788291931152
"20850","Rockville","MD","Fallsgrove Park","700 Fallsgrove Dr","20850",39.09900920335063,-77.187059405606
"20850","Rockville","MD","Mattie J. T. Stepanek Park","1800 Piccard Dr.","20850",39.11683124282284,-77.17784931907434
"20850","Rockville","MD","Friends Park","not_available","20850",39.084066,-77.156812
"20850","Rockville","MD","Malcolm King Park","Summit Hall Dr","20878",39.120587214894144,-77.21157959689589
"20850","Rockville","MD","Woodley Gardens Tennis Courts","Nelson Street","not_available",39.09318747988964,-77.17372151649447
"20850","Rockville","MD","Horizon Hill Park","Longhill Dr.","20854",39.07038551448883,-77.1744436062441
"20850","Rockville","MD","Wootons Mill Park","Hurley Ave","20850",39.08561916239858,-77.17969695566597
"20850","Rockville","MD","Courthouse Square Park","Maryland Ave.","20850",39.084064287739736,-77.15139314375159
"20850","Rockville","MD","Peg Sante Park","Mannakee St","20850",39.08827725669622,-77.16688084231254
"20850","Rockville","MD","Monument Park","Monument St & Maryland Ave","20850",39.07822646417299,-77.15929273776106
"20851","Rockville","MD","Twinbrook Bridge","not_available","20851",39.074368954798764,-77.13569407034508
"20851","Rockville","MD","Twinbrook Community Recreation Center","12920 Twinbrook Pkwy","20851",39.070647213366584,-77.11466985792973
"20851","Rockville","MD","Wood Park","14615 Bauer Dr","20853",39.093379974365234,-77.10749053955078
"20852","Rockville","MD","Tilden Woods Park","6800 Tilden Ln","20852",39.043819427490234,-77.1388931274414
"20852","Rockville","MD","North Farm Park","601-699 Farm Pond Ln","20852",39.055716276354936,-77.14612149031069
"20852","Rockville","MD","Winding Creek Park","12326 Dewey Rd","20906",39.05614471435547,-77.09161376953125
"20852","Rockville","MD","Wells Park","not_available","20896",39.039596,-77.095175
"20852","Rockville","MD","Wall Park","5900 Executive Blvd","20852",39.04513168334961,-77.11717987060547
"20852","Rockville","MD","Dewey Park","11720 Dewey Road","20906",39.044081106736186,-77.09762137418512
"20852","Rockville","MD","Garrett-Waverly Park","4608 Waverly St","20852",39.039326,-77.09239
"20852","Rockville","MD","McGrath Blvd Park","McGrath Blvd","20852",39.04884,-77.108345
"20852","Rockville","MD","Luxmanor Elementary School & Park","6201 Tilden Ln","20852",39.044771811512,-77.12701964289671
"20852","Rockville","MD","Viers Mill Park","4425 Garrett Park Rd.","20906",39.04405822216211,-77.09765052730918
"20852","Rockville","MD","Elwood Smith Park","601 Harrington Rd","20852",39.075621000000005,-77.14945
"20852","Rockville","MD","Randolph Hills Park","11805 Ashley Drive","not_available",39.05325564254564,-77.09932917934687
"20853","Rockville","MD","Meadowside Nature Center","5100 Meadowside Ln","20855",39.112465091408104,-77.10665336728954
"20853","Rockville","MD","Rockville Civic Center Park","Baltimore Road","20851",39.09981826693507,-77.10151764417373
"20853","Rockville","MD","RedGate Park","14500 Avery Rd","20853",39.096553,-77.127438
"20853","Rockville","MD","Flower Valley Park","not_available","20853",39.10871564807226,-77.08849961411835
"20853","Rockville","MD","Husky Field","13407 Lydia St","20906",39.076785,-77.075726
"20853","Rockville","MD","Stoneybrook Park & Playground","4105 Havard St","20906",39.06274883101552,-77.08233118057251
"20853","Rockville","MD","Parklawn Group Picnic Area","12724 Veirs Mill Rd","20852",39.069312869022895,-77.10475202453541
"20854","Potomac","MD","Great Falls Park","9200 Old Dominion Dr","22102",38.99628623057673,-77.25339919202065
"20854","Potomac","MD","Village Centre","748 Walker Rd","22066",38.996807,-77.28896
"20854","Potomac","MD","C&O (Chesapeake & Ohio) Canal National Historical Park - Great Falls Tavern Visitor Center","11710 MacArthur Blvd","20854",39.000311276694,-77.2470682651365
"20854","Potomac","MD","Riverbend Park","8700 Potomac Hills St","22066",39.018436906898025,-77.24627126262844
"20854","Potomac","MD","Colvin Run Mill","10017 Colvin Run Rd","22066",38.9691769786477,-77.29368912027174
"20855","Derwood","MD","Green Farm Park","8711 Snouffer School Rd","20879",39.174503326416016,-77.17546844482422
"20855","Derwood","MD","Redland Park","Redland Rd.","20855",39.1390979470089,-77.14472738973551
"20855","Derwood","MD","Nike Missile Park","Snouffer School Road","not_available",39.16133685656244,-77.17560291368675
"20855","Derwood","MD","Blueberry Hill Park","16617 Bethayers Rd.","20855",39.129251168662634,-77.15650675414538
"20855","Derwood","MD","Washington Square Park","Amity Dr, Redland, MD 20877","20877",39.14679908831587,-77.1692790544991
"20855","Derwood","MD","Johnson's Park","not_available","20879",39.151920214152526,-77.16581751777963
"20855","Derwood","MD","Rockin' Jump - Gaithersburg","18620 Woodfield Rd","20879",39.1621124399064,-77.15900954430693
"20855","Derwood","MD","Second Chance Wildlife Center","7101 Barcellona Dr","20879",39.18157958984375,-77.14380645751953
"20855","Derwood","MD","Mill Creek Common Area","not_available","20855",39.14384400055717,-77.14410384301958
"20855","Derwood","MD","Sheffield Park","Antares Dr","20882",39.15972865137132,-77.14101688766118
"20855","Derwood","MD","Edward A DeSimon Recreational Area","8600 E. Village Ave","20886",39.183915385293496,-77.17253088556949
"20855","Derwood","MD","Mallord Cove Park","Needwood Rd.","20855",39.12783755759945,-77.15826485220042
"20855","Derwood","MD","Woodward Park","not_available","20880",39.13890590139544,-77.17578824373877
"20855","Derwood","MD","Pleasant Circle","Pleasant Circle","20850",39.116017,-77.174804
"20855","Derwood","MD","Laytonia Recreational Park","7300 Airpark Rd","20855",39.150437,-77.146152
"20860","Sandy Spring","MD","Ross J. Boddy Community/Recreation Center","18529 Brooke Rd","20860",39.158701,-77.031896
"20866","Burtonsville","MD","Greencastle Park & Ride","Greencastle Road","20866",39.091442394688734,-76.9311708403375
"20866","Burtonsville","MD","Burtonsville Park","15600-15964 Oursler Rd","20866",39.11610289207469,-76.95551520642749
"20866","Burtonsville","MD","Fairland Regional Trail Entrance","not_available","20866",39.08848625724703,-76.92881532535036
"20871","Clarksburg","MD","Arora Hills Local Park","23241 Arora Hills Dr","20871",39.235339,-77.243651
"20871","Clarksburg","MD","Little Bennett Regional Park","23701 Frederick Rd","20871",39.255127074303324,-77.28207491938255
"20871","Clarksburg","MD","Ridge Road Recreational Park","21155 Frederick Road","20876",39.20949202773648,-77.24555283321071
"20871","Clarksburg","MD","Dowden's Ordinary park","Shaws Tavern Ct","20871",39.247309,-77.28585431111111
"20871","Clarksburg","MD","Kings Local Park","not_available","20871",39.24710282771144,-77.27426975446218
"20872","Damascus","MD","Upper Magruder Branch Park","10300 Sweepstakes Rd.","20872",39.259591564974684,-77.21242512717761
"20872","Damascus","MD","Damascus Recreational Park","23723 Kings Valley Rd.","20872",39.24684981181589,-77.21696211940998
"20872","Damascus","MD","Wesley Foreman Memorial Park","24000 Newbury Rd","20882",39.24930191040039,-77.20384979248047
"20872","Damascus","MD","Moyer Road Park","10000 Moyer Rd.","20872",39.26620135806073,-77.20865249633789
"20872","Damascus","MD","Damascus Neighborhood Park","10030 Locust Dr.","20872",39.28840243333333,-77.20791308333334
"20872","Damascus","MD","Damascus Fire Department Activity Center","10211 Lewis Dr","20872",39.291051,-77.212515
"20874","Germantown","MD","Main Street Pavillion","Main St","20878",39.12180681031615,-77.23877558077965
"20874","Germantown","MD","Neighborhood Park","11201 Dunstable Way","20876",39.183983380314,-77.23423137883417
"20874","Germantown","MD","Aberdeen Park","12231 Triple Crown Rd","20878",39.10365786076341,-77.25885771028337
"20876","Germantown","MD","Blohm Park","18900 Watkins Mill Road","20879",39.166351318359375,-77.21515655517578
"20876","Germantown","MD","Clubside Park","19500 Montgomery Village Avenue","20886",39.17744064331055,-77.20402526855469
"20876","Germantown","MD","Great Seneca Stream Valley Park","Frederick Rd","20882",39.16725209588271,-77.22856521606445
"20876","Germantown","MD","Watkins Mill Basketball Court","not_available","20886",39.18348598401077,-77.21196436716286
"20877","Gaithersburg","MD","Bohrer Park","506 S Frederick Ave","20877",39.132643219434726,-77.19352242976997
"20877","Gaithersburg","MD","Lake Whetstone","18701 Montgomery Village Ave","20886",39.16229242754624,-77.19866481539216
"20877","Gaithersburg","MD","Morris Park","421 Summit Hall Rd.","20877",39.12503203661117,-77.19743055756496
"20877","Gaithersburg","MD","Strawberry Knoll Park","18820","20879",39.16477883859737,-77.18278564565047
"20877","Gaithersburg","MD","Bohrer Park Miniature Golf","Unnamed Rd","20877",39.132494538194834,-77.19424366950989
"20877","Gaithersburg","MD","NIST Picnic Tables","East Dr","20878",39.13570168005099,-77.2131010793646
"20877","Gaithersburg","MD","Christman Park","Cedar Ave","20877",39.13611528333333,-77.20063756666667
"20877","Gaithersburg","MD","Walder Park","Walder Park","20877",39.13523666151828,-77.2026014328003
"20877","Gaithersburg","MD","Train Park (Griffith Park)","206 Dogwood Dr","20877",39.140076,-77.19103100000001
"20877","Gaithersburg","MD","History Park","7 South Summit Ave","20877",39.14165115356445,-77.19287872314453
"20878","Gaithersburg","MD","Village Green Park","401 Casey Ln","20850",39.095821380615234,-77.19168853759766
"20878","Gaithersburg","MD","Diamond Farms Park","857 Quince Orchard Blvd.","20878",39.13479568433339,-77.23029639969543
"20879","Gaithersburg","MD","William Hurley Park","20737 Highland Hall Drive","20886",39.19400802376685,-77.19019913631132
"20879","Gaithersburg","MD","Milton M. Kaufmann Park","9607 Wightman Rd","20886",39.19626350493264,-77.1950834502932
"20879","Gaithersburg","MD","Lake Marion Park","8821 East Village Avenue","20886",39.189273834228516,-77.18168640136719
"20879","Gaithersburg","MD","Centerway Park","9401 Centerway Rd","20886",39.169638302416296,-77.19102363111405
"20882","Gaithersburg","MD","Laytonsville Park","7680 Brink Road","20882",39.209042488983066,-77.15627645822848
"20882","Gaithersburg","MD","Sundown Road Park","6200 Sundown Rd","20882",39.21255874633789,-77.12712860107422
"20895","Kensington","MD","Ken-Gar Palisades Park","4140 Wexford Dr.","20895",39.034055756532126,-77.08360068712624
"20895","Kensington","MD","Kensington Heights Park","St Paul St","20895",39.033784,-77.068669
"20895","Kensington","MD","Capital View Park","not_available","20910",39.02105359362578,-77.06304381208852
"20895","Kensington","MD","Kensington Frederick Avenue Park","not_available","20895",39.02597186659373,-77.07208199754062
"20895","Kensington","MD","Capital View - Homewood Park (Kensington)","Plyers Mill Road","not_available",39.027802186204305,-77.05941438674927
"20895","Kensington","MD","Clum-Kennedy Park","Frederick Avenue","20895",39.024684979183796,-77.07123756408691
"20895","Kensington","MD","Flinn Park","Kensington Parkway","20895",39.02549346586506,-77.07199931144714
"20895","Kensington","MD","Newport Mill Park","11201 Newport Mill Road","20895",39.03862133840622,-77.06838336866585
"20895","Kensington","MD","Joseph Park","Plyers Mill Road","20895",39.029527426180714,-77.06981062889099
"20895","Kensington","MD","Reinhardt Park","10408-10412 Armory Ave","20895",39.02670901477672,-77.07524653962659
"20895","Kensington","MD","Ernest Memorial Park","Connecticut Avenue","20895",39.02454328468943,-77.07580804824829
"20895","Kensington","MD","K Town Skate Park","Warner St","20895",39.02698657490225,-77.07594913537174
"20895","Kensington","MD","Howard Avenue Park","Howard Avenue","20895",39.027002060617626,-77.07266449928284
"20901","Silver Spring","MD","Woodside Urban Park","8800 Georgia Ave","20910",38.99813602135261,-77.03106977172315
"20901","Silver Spring","MD","Sligo Creek Park","Anacostia Tributary Trail System","20901",39.0096804557876,-77.02596187591553
"20901","Silver Spring","MD","Royce Hanson Park","Planning Place","20910",38.999260497069386,-77.03083617634549
"20901","Silver Spring","MD","Bullis Park","8501 Houston St","20910",38.99575695069664,-77.01840326785677
"20901","Silver Spring","MD","South Four Corners Park","900 Forest Glen Rd","not_available",39.0210423606818,-77.02025996818202
"20901","Silver Spring","MD","Japanese Tea House, Brookside Gardens","not_available","20902",39.04219080923477,-77.02940034261442
"20901","Silver Spring","MD","Ellsworth Park","621 Ellsworth Dr","20910",39.00154404600098,-77.02344685327375
"20901","Silver Spring","MD","Sligo Cabin Park","201 E Wayne Ave","20910",39.002906799316406,-77.00496673583984
"20901","Silver Spring","MD","Sligo Creek Park Activity Bldg","10200 Sligo Creek Pkwy","20902",39.02577,-77.029483
"20901","Silver Spring","MD","Fairview Urban Park","8900 Fairview Road","20910",38.99631319678932,-77.03144144476462
"20901","Silver Spring","MD","Sterling Park","Greenock Road and Brunett Avenue","20901",39.02108204429539,-77.02045846962541
"20901","Silver Spring","MD","Noyes Triangle Park.","1024 north Noyes Dr","20910",39.001496370289175,-77.02719613854491
"20901","Silver Spring","MD","Burnt Mills West Park","10701 Columbia Pike","20901",39.030553999999995,-77.005728
"20901","Silver Spring","MD","Montgomery Parks Headquarters","not_available","20901",39.0113305488401,-77.02405282913105
"20901","Silver Spring","MD","PARKSIDE HEADQUARTERS","9500 Brunett Ave","20901",39.011371999999994,-77.02441999999999
"20901","Silver Spring","MD","Kemp Mill Pond","1200 Arcola Ave.","20902",39.04222318598909,-77.03006384516202
"20901","Silver Spring","MD","Park","8723 1st Ave","20910",38.99515675913115,-77.03149767298665
"20901","Silver Spring","MD","Kemp Mill Park","Arcola","20902",39.043319300744635,-77.02924852372345
"20902","Silver Spring","MD","Glenmont Greenway Urban Park","12400 Georgia Ave","not_available",39.059683150707,-77.05098152160645
"20902","Silver Spring","MD","Brookside Botanical Gardens","1800 Glenallan Ave","20902",39.057083882691636,-77.03793525695801
"20902","Silver Spring","MD","Wheaton Regional Park","2000 Shorefield Rd","20902",39.0521743174652,-77.04316446351831
"20902","Silver Spring","MD","Evans Parkway Park","2001 Evans Pkwy","not_available",39.02925188958144,-77.04158459298738
"20902","Silver Spring","MD","Wheaton-Claridge Park","11901 Claridge Rd","20902",39.05052435530012,-77.06778574169613
"20904","Silver Spring","MD","Paint Branch Park","East Randolph Rd","20904",39.082279052338265,-76.98693424915574
"20904","Silver Spring","MD","Martin Luther King Jr. Park","1120 Jackson Rd","20904",39.056628088488345,-76.98494680532801
"20904","Silver Spring","MD","Pilgrim Hills Local Park","1615 East Randolph Road","20904",39.060020446777344,-76.98001098632812
"20904","Silver Spring","MD","The Park On Thomas Dr.","5 Thomas Dr.","20904",39.06559613140677,-77.00249169017714
"20905","Silver Spring","MD","Stonegate Park","Notley Rd","20905",39.1028884853656,-77.00578763949977
"20905","Silver Spring","MD","Northwest Branch Recreational Park","not_available","20905",39.11992,-77.0026
"20906","Silver Spring","MD","Glenfield Local Park","12800 Layhill Rd","20906",39.07138626967863,-77.04351201027684
"20906","Silver Spring","MD","Georgian Forest Park & Tennis Courts","not_available","20906",39.07499971069193,-77.05798387953638
"20910","Silver Spring","MD","Jesup Blair Park","900 Georgia Ave","20910",38.984496,-77.024377
"20910","Silver Spring","MD","Nolte Local Park","200 Denver Rd","20910",38.994752189083165,-77.01655129241166
"20910","Silver Spring","MD","Montgomery Hills Park","Seminary Rd","20910",39.00414556798441,-77.0444182250718
"20910","Silver Spring","MD","Acorn Park","1190 East West Hwy","20910",38.98876879377155,-77.03084896228326
"20910","Silver Spring","MD","Sligo Ave Park","500 Sligo Ave","20910",38.99009306894688,-77.01113027064436
"20910","Silver Spring","MD","Silver Spring Intermediate Park",".","20910",38.986768109869196,-77.0207913484998
"20910","Silver Spring","MD","The Park Area","Georgia Ave","not_available",38.994836,-77.027116
"20910","Silver Spring","MD","Discovery Park","East-West Hwy","20910",38.991335,-77.029881
"20910","Silver Spring","MD","Gene Lynch Urban Park","Colesville Rd","20910",38.994843,-77.029672
"20912","Takoma Park","MD","Takoma Splash Park","300 Van Buren NW","not_available",38.976053,-77.017625
"20912","Takoma Park","MD","Juniper-Blair Park","7600 Blair Rd","20912",38.982899,-77.023126
"20912","Takoma Park","MD","Takoma Urban Park","7035 Westmoreland Ave","20912",38.9747567292162,-77.01111323150967
"20912","Takoma Park","MD","Nicholson Park","not_available","20012",38.979769848448164,-77.0217765885573
"20912","Takoma Park","MD","Memorial Park","Philadelphia Avenue","20912",38.980921,-77.010883
"20912","Takoma Park","MD","Fenton Street Park","7904 Fenton Street","20910",38.98782332148368,-77.0238880909571
"20912","Takoma Park","MD","Rock Creek Park Takoma, Md","not_available","20011",38.972688246047895,-77.01352580362183
"21001","Aberdeen","MD","Bulle Rock Golf Club","320 Blenhiem Ln","21078",39.54237968741572,-76.13257572114149
"21001","Aberdeen","MD","Belcamp Park","Belcamp Garth Rd","21017",39.4715872969584,-76.23758369077666
"21001","Aberdeen","MD","Aberdeen Festival Park","not_available","21001",39.511289123954604,-76.16365302548972
"21001","Aberdeen","MD","Alice And William Longley Park","620 Long Bar Harbor Road","21009",39.456126,-76.25061
"21001","Aberdeen","MD","Alfred B. Hilton Park","4125 Gravel Hill Road","21078",39.56660810767526,-76.16391909669014
"21001","Aberdeen","MD","Churchville Recreational Center (County Park)","111 Glenville Rd","21028",39.56139488441899,-76.24153185609704
"21001","Aberdeen","MD","Chapel Road Park","2029 Chapel Road","21078",39.55377459062574,-76.14709854125975
"21005","Aberdeen Proving Ground","MD","Park Street Picnic Area","not_available","21005",39.481414,-76.123978
"21009","Abingdon","MD","Emily Bayless Graham Park","15 W Wheel Rd","21015",39.491008,-76.323753
"21009","Abingdon","MD","Harford Glen","502 W Wheel Rd","21015",39.48678791897236,-76.34227781463109
"21009","Abingdon","MD","Cedar Lane Park","not_available","21009",39.46202234587708,-76.27065624931444
"21010","Gunpowder","MD","Capa Field","not_available","21010",39.39022573767856,-76.31101563068657
"21010","Gunpowder","MD","Edgewood Recreation Park","1702 Trimble Road","21040",39.4174919128418,-76.31803894042969
"21012","Arnold","MD","Mago Vista","not_available","21012",39.06799166006566,-76.50365866764135
"21012","Arnold","MD","Spriggs Farm Park","965 Bayberry Dr","21012",39.056893,-76.476111
"21012","Arnold","MD","Soccer Field","College Avenue","21401",39.02753136677373,-76.44665759512596
"21012","Arnold","MD","AACC Student Union Sanctuary","101 College Parkway, Student Union","21012-1895",39.04898971576494,-76.5129867196083
"21012","Arnold","MD","The Timbers Rec Area","1201 Timber Turn","21012",39.057833681362155,-76.52365922927856
"21012","Arnold","MD","Broadneck Park","618 Broadneck Road","not_available",39.02753549029549,-76.44666999166876
"21013","Baldwin","MD","Hydes LAX Fields","not_available","21082",39.48292856685288,-76.48503734748017
"21013","Baldwin","MD","Hydes Road Park","5067 Hydes Rd.","21082",39.482485593915754,-76.48473238745608
"21013","Baldwin","MD","Harford County Parks & Recreation Maintenance Division","not_available","21047",39.532440185546875,-76.44163513183594
"21014","Bel Air","MD","Glenwood Country Club Park","Glenwood Road","21014",39.517004806631185,-76.31892983936416
"21014","Bel Air","MD","Friends Park","not_available","21050",39.583174896653205,-76.38310147228876
"21014","Bel Air","MD","Bynum Run Park","1055-1075 Maryland 22","21014",39.54080008333333,-76.33086385
"21014","Bel Air","MD","Rockfield Park","not_available","21014",39.53791270209588,-76.3386425297282
"21014","Bel Air","MD","Duck Pond","1041-1053 E Churchville Rd","21014",39.54061145861385,-76.33138603751753
"21014","Bel Air","MD","Shamrock Park","Shamrock Park","21014",39.53930667774655,-76.3471261553996
"21014","Bel Air","MD","Major's Choice Park","Major's Choice Park","21014",39.545619653889624,-76.34332371792479
"21014","Bel Air","MD","Tollgate Park","704 N Tollgate Rd","21014",39.52820020519994,-76.37619478465574
"21014","Bel Air","MD","veterans park","Veterans Memorial Park","not_available",39.53328323364258,-76.36727142333984
"21014","Bel Air","MD","Blake's Venture Park","Melrose Lane","not_available",39.56922926996246,-76.36544404826341
"21015","Bel Air","MD","Cedar Lane Fields","1100 Cedar Ln","21015",39.50508923016722,-76.27497782057527
"21015","Bel Air","MD","Prospect Mill Park","821 Prospect Mill Rd","not_available",39.563175201416016,-76.30841827392578
"21015","Bel Air","MD","forge hill bridge","2945-2997 Forge Hill Rd","21015",39.628751015673146,-76.27466106093632
"21029","Clarksville","MD","Cedar Lane Park","5081 Cedar Ln","21044",39.23191546272053,-76.89167048974413
"21029","Clarksville","MD","Robinson Nature Center","6692 Cedar Ln","21044",39.19013767733253,-76.89534926595584
"21029","Clarksville","MD","Nature Center","not_available","21044",39.206121747135,-76.9199797310193
"21029","Clarksville","MD","Dayton Oaks Park","4691 Ten Oaks Rd","21036",39.240947,-76.98360500000001
"21030","Cockeysville","MD","Oregon Ridge Park","13555 Beaver Dam Rd","21030",39.491675232510836,-76.68125353081338
"21030","Cockeysville","MD","Cars and Coffee  Hunt Valley Towne Centre","not_available","21030",39.49716421413209,-76.653389338026
"21030","Cockeysville","MD","Oregon Ridge Ampitheater","not_available","21013",39.49060493583876,-76.68098850866528
"21030","Cockeysville","MD","Cal Ripken Jr. Field","2296 Dulaney Valley Rd","21093",39.45120620727539,-76.59717559814453
"21030","Cockeysville","MD","Springlake Pond and Park","227 Fallsbrook Rd","21093",39.453239168971216,-76.61120309909083
"21032","Crownsville","MD","Crownsville Park","not_available","21401",39.00347806176159,-76.5918589664144
"21032","Crownsville","MD","Waterworks Park","Defense Highway","21401",38.987329769372366,-76.5673502699168
"21032","Crownsville","MD","Herald Harbor Park","not_available","21032",39.053861,-76.568888
"21034","Darlington","MD","Dublin Pond","not_available","21034",39.653362,-76.271115
"21035","Davidsonville","MD","Riva Park","Sharpsburg Dr","21035",38.92919139186457,-76.60392254325332
"21037","Edgewater","MD","Quiet Waters Park","600 Quiet Waters Park Rd","21403",38.93776991815253,-76.50374019238062
"21037","Edgewater","MD","Murray Hill","Lafayette Ave.","21401",38.97446733963919,-76.4957096849917
"21037","Edgewater","MD","Mayo Beach Park","Honeysuckle Drive","not_available",38.89298054339614,-76.49227711397724
"21037","Edgewater","MD","Sassafrass Pavilion","not_available","21403",38.943838288061336,-76.4962356610349
"21037","Edgewater","MD","Beverly Triton Nature Park","not_available","21037",38.890798,-76.503863
"21037","Edgewater","MD","Loch Haven Park","3399 Pocahontas Dr.","21061",38.91888761579043,-76.53454994820251
"21037","Edgewater","MD","Truxtun Park / Collision Field","Hilltop Ln","21403",38.96485180246934,-76.50073052658229
"21037","Edgewater","MD","""Pip"" Moyer Recreation Center","273 Hilltop Ln","21403",38.96304447551118,-76.50482199597418
"21037","Edgewater","MD","Edgewater Park","Maryland Ave","21307",38.938181905114725,-76.55324935913086
"21042","Ellicott City","MD","Font Hill Park","3519 Centennial La","21042",39.26000880568284,-76.86295817849847
"21042","Ellicott City","MD","Centennial Park","10000 State Route 108","21042",39.240007998408764,-76.86066351493515
"21042","Ellicott City","MD","Covenant Park","4560 Centennial Ln","21042",39.24582488318022,-76.87171041679551
"21042","Ellicott City","MD","Meadowbrook Park","5001 Meadowbrook Ln","21043",39.246260925620135,-76.82003019575822
"21042","Ellicott City","MD","Howard County Wetlands Park","not_available","21042",39.27202693088592,-76.85932340565647
"21042","Ellicott City","MD","Centennial Park - North","9801 Old Annapolis Rd","21042",39.248019,-76.853248
"21042","Ellicott City","MD","Alpha Ridge Community Park","11685 Old Frederick Rd","21104",39.320225199042795,-76.91641717443457
"21042","Ellicott City","MD","West Friendship Park","12985 Frederick Rd","21794",39.305019,-76.965805
"21042","Ellicott City","MD","Dorsey Hall Park","5010 Dorsey Hall Dr","21042",39.244386999999996,-76.83551700000001
"21042","Ellicott City","MD","Wolf Manor Bocce Court And Polo Grounds","1300 Old Frederick Rd","21042",39.298661152405074,-76.88721495092929
"21042","Ellicott City","MD","Centennial Park Playground","10000 route 108","21042",39.23934398388859,-76.86350005844365
"21043","Ellicott City","MD","Blandair Regional Park","5750 Oakland Mills Rd","21045",39.210829729161674,-76.83553576469421
"21043","Ellicott City","MD","Rockburn Branch Park","5400 Landing Rd","21075",39.22018813685724,-76.76020794346641
"21043","Ellicott City","MD","Benjamin Banneker Historical Park & Museum","300 Oella Ave","21228",39.2689507264754,-76.77488565444946
"21043","Ellicott City","MD","BH open space","not_available","21043",39.23781621662331,-76.80945522195036
"21043","Ellicott City","MD","Patapsaco Female Institute Historic Park","3655 Church Rd","21043",39.270790100097656,-76.79707336425781
"21044","Columbia","MD","Hawthorn Park","6200 Sunny Spring","21044",39.206483296673326,-76.88318223598482
"21044","Columbia","MD","Swansfield Playground","Cedar Ln","21044",39.216947520901975,-76.88686230237593
"21044","Columbia","MD","APL Outdoor Area","Sanner  Rd","not_available",39.217912801325454,-76.86108581526958
"21044","Columbia","MD","Symphony Woods","5950 Symphony Woods Rd","21044",39.208049656139885,-76.85804805821972
"21044","Columbia","MD","Courtyard Firepit","10201 Wincopin Cir","21044",39.217041015625,-76.85643768310547
"21044","Columbia","MD","Lake Elkhorn Dam","not_available","21045",39.1815366432022,-76.84423585174099
"21044","Columbia","MD","Atholton Park","not_available","21046",39.184320198348736,-76.86606958010474
"21047","Fallston","MD","Ladew Topiary Gardens","3535 Jarrettsvl Pike","21111",39.5808560660352,-76.5135422962959
"21047","Fallston","MD","Reckord Road Park","800 Mountain Road","21047",39.4817034981308,-76.38835189503284
"21048","Finksburg","MD","Sandymount Park","Old Westminster Pk","not_available",39.52023422535368,-76.9166873245287
"21048","Finksburg","MD","Morgan Run","not_available","21048",39.447669433456475,-76.93798791183156
"21050","Forest Hill","MD","Chrome mine","not_available","21084",39.60733413696289,-76.45863342285156
"21053","Freeland","MD","Mason Dixon Line Rail Trail","not_available","21053",39.7209103437595,-76.69787136661171
"21054","Gambrills","MD","GORC Park","940 Francis Station Rd","21113",39.0533319035289,-76.70373564204255
"21054","Gambrills","MD","Crofton Mews Park","1499 Harwick Ct","21114",39.028970037940375,-76.68099310702026
"21054","Gambrills","MD","Barbara & Thomas Swann Park","1800 blk Crofton Pkwy","21114",39.00002234777404,-76.68579829232742
"21054","Gambrills","MD","Cardinal Fields","Underwood Road","not_available",38.999936997324745,-76.66535122012584
"21054","Gambrills","MD","Crofton Park","not_available","21114",39.0025854050426,-76.67129508333521
"21054","Gambrills","MD","Piney orchard island park","not_available","21113",39.05233396222931,-76.69532146253427
"21054","Gambrills","MD","Crofton Park","2295 Davidsonville Road","21114",38.99894714355469,-76.67041778564453
"21054","Gambrills","MD","Babington Park","Odenton Rd","not_available",39.08380889892578,-76.70010375976562
"21054","Gambrills","MD","Severn Run Natural Environmental Area","Dicus Mill Rd.","not_available",39.085620601101525,-76.63276076316833
"21057","Glen Arm","MD","Cromwell Valley Park","2002 Cromwell Bridge Rd","21234",39.415963151953235,-76.5513942480185
"21057","Glen Arm","MD","Rocks Park","not_available","21236",39.4179586720061,-76.47613265927401
"21057","Glen Arm","MD","Loch Raven Drive Park","Loch Raven Drive","21057",39.452067183434735,-76.54836875856408
"21060","Glen Burnie","MD","Bachman Sports Complex","570 E Ordnance Rd","21060",39.199317261617935,-76.59157682986726
"21060","Glen Burnie","MD","Brandon Woods Park","7599 Perryman Ct.","21226",39.18176486733871,-76.54965066186024
"21060","Glen Burnie","MD","Tick Neck Park","7750 Edwin Raynor Blvd","21122",39.14271460237845,-76.52648829171834
"21060","Glen Burnie","MD","Creekside Dog Park","not_available","21060",39.172649,-76.568689
"21060","Glen Burnie","MD","Chesterfield Park","not_available","21122",39.140567874599256,-76.53329444035062
"21060","Glen Burnie","MD","Solley Park","7599 Solley Rd.","21060",39.18176046142683,-76.549627088124
"21060","Glen Burnie","MD","Tanyard Springs - Playground","Oriole Ave","21060",39.17291520149589,-76.56130561451135
"21061","Glen Burnie","MD","Thomas A. Dixon, Jr. Aircraft Observation Area","176 Dorsey Rd.","21061",39.16241248331786,-76.66331630251598
"21061","Glen Burnie","MD","BWI Trail","BWI Trail","not_available",39.162358297012176,-76.6634281458964
"21061","Glen Burnie","MD","Sawmill Creek Park","301 Dorsey Rd (MD Rte 176)","21061",39.16677796106148,-76.63800716400146
"21061","Glen Burnie","MD","Linthicum Park","306 Benton Ave","21090",39.20419476054027,-76.64523570832628
"21061","Glen Burnie","MD","Arundel Hills Park","1200 Furnace Branch Rd","21061",39.19910330535105,-76.63337230682373
"21061","Glen Burnie","MD","Southgate Old Mill Park","not_available","21061",39.12281021130846,-76.61755899518111
"21071","Glyndon","MD","Glyndon Park","Railroad ave","21071",39.46815317736717,-76.79893025482399
"21074","Hampstead","MD","Cape Horn Park","not_available","21074",39.642997384308664,-76.87888017066115
"21074","Hampstead","MD","Hampstead Lion's Park","1359-1399 Summit St","21074",39.609453285957,-76.84625939510086
"21074","Hampstead","MD","Christmas Tree Park","Christmas Tree Ln","21102",39.665468546300595,-76.877267276728
"21074","Hampstead","MD","Pine Valley Park","not_available","21102",39.665719,-76.892222
"21075","Elkridge","MD","Shelter #66","not_available","21228",39.235456,-76.732721
"21075","Elkridge","MD","Centennial Lake & Boat Rental","Centennial Park","not_available",39.18761232360819,-76.78477541404112
"21075","Elkridge","MD","Harwood Park","not_available","21075",39.191747404389645,-76.73745384908511
"21075","Elkridge","MD","Race Road Park","not_available","21076",39.166674,-76.729473
"21076","Hanover","MD","Jasons Landing Park","Jason's Landing Way","21144",39.13280462407794,-76.69561588286471
"21078","Havre De Grace","MD","Millard Tydings Memorial Park","350 Commerce Street","21078",39.538857816287546,-76.09003888959687
"21078","Havre De Grace","MD","Susquehanna State Park","4122 Wilkinson Rd","21078",39.60817267147568,-76.14276197826683
"21078","Havre De Grace","MD","David R. Craig Park","Union Ave","not_available",39.55255102614209,-76.09110941016213
"21078","Havre De Grace","MD","Perryville Community Park","Firestone Rd","21903",39.54768016142607,-76.05155124622308
"21078","Havre De Grace","MD","Port Deposit Park","128 S Main St","21904",39.600555,-76.110722
"21078","Havre De Grace","MD","Tidings Park","not_available","21078",39.53850965442832,-76.09041838726198
"21078","Havre De Grace","MD","Webster Village Park","Spring Lake Way","21078",39.572632699717126,-76.15372896194458
"21078","Havre De Grace","MD","Marina Park","Rt. 222","21904",39.599870126612984,-76.11043964555881
"21084","Jarrettsville","MD","HarCo Prks & Rec","3804 Federal Hill Rd","21084",39.612116,-76.478515
"21085","Joppa","MD","Mariner Point Park","100 Kearney Dr","21085",39.39920477014546,-76.35027735125915
"21085","Joppa","MD","Robert Copenhaver Park","Copenhaver Park","21085",39.41033383205569,-76.341961215248
"21087","Kingsville","MD","Mt. Vista Park","11063-11099 Raphael Rd","21087",39.426926217957565,-76.40691037426679
"21087","Kingsville","MD","Kingsville Park","11700  Franklinville Rd","21056",39.44164031995051,-76.3904429630851
"21087","Kingsville","MD","Lost Pond","not_available","21087",39.418899495075145,-76.42086141301733
"21090","Linthicum Heights","MD","Overlook Park","Governors Gate Lane","21090",39.21654181963913,-76.65354725800326
"21093","Lutherville Timonium","MD","Meadowood Regional Park","10650 Falls Rd","21093",39.41800232569202,-76.6702631043113
"21093","Lutherville Timonium","MD","Yorkshire-Haverford Community Green","2100 Tree Ln","21093",39.44207254108005,-76.61977518064229
"21093","Lutherville Timonium","MD","Seminary Park","1400 Burton Ave","21093",39.420514090608656,-76.63664870760218
"21093","Lutherville Timonium","MD","Valley Fields South","not_available","21093",39.42720093422366,-76.65132918708956
"21093","Lutherville Timonium","MD","Towson Manor Park","Towsontown Blvd.","21286",39.39828686671198,-76.59991777747757
"21093","Lutherville Timonium","MD","West Towson Park","611 Central Ave","21204",39.40324,-76.610487
"21093","Lutherville Timonium","MD","Olympian Park","1 W Joppa Road","21204",39.401892,-76.602864
"21093","Lutherville Timonium","MD","Loch Raven Fishing Center","12101 Dulaney Valley Rd","21204",39.46305061153997,-76.56713580521631
"21093","Lutherville Timonium","MD","City Playground","not_available","21286",39.39831993010209,-76.59759748882956
"21093","Lutherville Timonium","MD","Circle Park","not_available","21204",39.398994480676656,-76.60770893096924
"21108","Millersville","MD","Kinder Farm Park","1001 Kinder Farm Park Rd","21108",39.09890006572477,-76.58387990512566
"21108","Millersville","MD","Elvaton Park","315 Dogwood Rd","21108",39.10771198111235,-76.59654798478235
"21108","Millersville","MD","Baltimore & Annapolis Trail Park","51 W Earleigh Heights Rd","21146",39.12251541507793,-76.58872721589658
"21108","Millersville","MD","Chartridge Common Area","not_available","21146",39.08888246158083,-76.57513283867894
"21117","Owings Mills","MD","Reisterstown Regional Park","301 Mitchell Dr","21136",39.471251331269116,-76.84582086680359
"21117","Owings Mills","MD","Northwest Regional Park","4415 Deer Park Rd","21117",39.39473372648238,-76.82580469489633
"21117","Owings Mills","MD","Irvine Nature Center","11201 Garrison Forest Rd","21117",39.4330577082398,-76.76278373753914
"21117","Owings Mills","MD","Central Park","not_available","21117",39.40738252348945,-76.80769564399478
"21117","Owings Mills","MD","Soldiers Delight NEA","5340-5348 Deer Park Road","21117",39.41447159066014,-76.83583859299168
"21122","Pasadena","MD","Lake Waterford Park","898 E Pasadena Road","not_available",39.11197468421514,-76.55929066620396
"21122","Pasadena","MD","Fort Smallwood Park","9500 Fort Smallwood Rd","21122",39.16431573585801,-76.47908091545105
"21122","Pasadena","MD","John H. Downs Memorial Park","8311 John Downs Loop","21122",39.11072914613342,-76.43499175241645
"21122","Pasadena","MD","Bodkin Park","bodkin ave","21122",39.11584649946196,-76.47883635293364
"21122","Pasadena","MD","Jacobsville Park","Magothy Beach Rd.","21122",39.11404588660167,-76.51956081390381
"21122","Pasadena","MD","Rock Creek Park","Rock Creek Park","21122",39.15985072161485,-76.50824609038068
"21122","Pasadena","MD","Hog Neck Scamper","Chesapeake Bay Dr","21122",39.11412351640988,-76.44076548613418
"21122","Pasadena","MD","Weinberg Park","Ft Smallwood Rd","21122",39.153064,-76.487866
"21122","Pasadena","MD","The Beach @ Sillery Bay","262 Beach Rd","21122",39.09586301761769,-76.45505905151367
"21128","Perry Hall","MD","Honeygo Regional Park","9033 Honeygo Blvd","21128",39.39587102667168,-76.45106379238096
"21128","Perry Hall","MD","Gough Park","Honeygo Boulevard","not_available",39.401169449882666,-76.44706432725874
"21128","Perry Hall","MD","Snyder Lane Park","9401 Snyder Lane","21128",39.40549702499787,-76.45710722486844
"21131","Phoenix","MD","Briar Knoll Farm","not_available","21131",39.502599959159525,-76.54298930794008
"21133","Randallstown","MD","Rockdale Park","Rolling Road","21244",39.35156861538745,-76.76848884044172
"21133","Randallstown","MD","Scotch Branch PAL Center","3651 Rolling Road","not_available",39.359596,-76.763186
"21144","Severn","MD","colonial woods","8200 WB&A Road","21144",39.12270274706474,-76.67877674102783
"21152","Sparks Glencoe","MD","Corn Field","not_available","21152",39.549795337805236,-76.69874376459731
"21157","Westminster","MD","mayeski park","not_available","21784",39.44696371595865,-77.04386724626094
"21157","Westminster","MD","Jaycee Park","Johan Dr.","21158",39.58330014773524,-77.01888084411621
"21157","Westminster","MD","Union Mills Homestead Park","Rt. 140","not_available",39.66729690975434,-77.0174847922964
"21157","Westminster","MD","Common Ground On The Hill","not_available","21157",39.58371958155001,-77.00124874297904
"21157","Westminster","MD","Westminster City Park","11 Longwell Ave","21157",39.57263652317033,-76.99135532972733
"21157","Westminster","MD","Bennett Cerf Park","400 Bennett Cerf Dr","21157",39.589453999999996,-76.974716
"21157","Westminster","MD","Landon C. Burns Park","735 Gist Rd","21157",39.553971000000004,-76.993123
"21158","Westminster","MD","Trump Road","4250 Trump Rd","21158",39.688053000000004,-76.98020600000001
"21161","White Hall","MD","Norrisville Recreation Complex","Norrisville Road","21161",39.70125344922428,-76.53473624103384
"21162","White Marsh","MD","Loreley Beach Park","11050-11052 Bowerman Rd","21162",39.38636676712586,-76.40912546212057
"21201","Baltimore","MD","Concert Park & York Park","W York St","not_available",39.28150803412001,-76.6166641055955
"21201","Baltimore","MD","Preston Gardens","500 St. Paul","21201",39.29304138484843,-76.6139088340564
"21201","Baltimore","MD","Little Lithuania Park","Hollins","21201",39.288064189116035,-76.63048886469495
"21201","Baltimore","MD","Mount Vernon Place","Mt Vernon Pl & Washington Pl","21201",39.29751368584475,-76.61565095186234
"21201","Baltimore","MD","Homesteader Park","129 Welcome Alley","not_available",39.28251647949219,-76.6169204711914
"21201","Baltimore","MD","John Street Park","not_available","21217",39.307074660165775,-76.6224558015879
"21201","Baltimore","MD","F. Scott Fitzgerald Park","Fitzgerald Park","21217",39.30855824202762,-76.62740883152641
"21201","Baltimore","MD","Wheel Park","Hanover st","not_available",39.28147129104313,-76.615831193378
"21201","Baltimore","MD","St Mary's Park","600 N Paca St","21201",39.296615474345515,-76.6229522415112
"21201","Baltimore","MD","University Square Park","500 W. Redwood St.","21201",39.28894686385795,-76.62316097135636
"21201","Baltimore","MD","Conway Street Park","not_available","21230",39.28222565516855,-76.62388306115801
"21201","Baltimore","MD","Howard's Park","600 N Howard St","21201",39.296498966948626,-76.62031057808016
"21201","Baltimore","MD","Pearlstone Park","Cathedral St","21201",39.304585,-76.61944715
"21201","Baltimore","MD","Perkins Spring Park","not_available","21201",39.295948,-76.62894
"21201","Baltimore","MD","Arnold Sumpter Park","Laurens St","21217",39.308904,-76.630182
"21201","Baltimore","MD","Ridgely's Delight Park","Conway St","21230",39.28297897717973,-76.6244528322556
"21201","Baltimore","MD","Welcome Alley Park","Welcome Alley","21201",39.282741625106624,-76.61666750907898
"21201","Baltimore","MD","Henry  Highland Garnet Park","W. Lafette Avenue","not_available",39.302952,-76.629288
"21201","Baltimore","MD","Needle Park","1800 Jordan St.","21217",39.30895483649338,-76.62965963232023
"21201","Baltimore","MD","Solo Gibbs Park","Leadenhall St","21230",39.279240483208284,-76.618505266355
"21201","Baltimore","MD","Pig Pen Park","839 Washington Blvd","21230",39.28276062011719,-76.6300048828125
"21202","Baltimore","MD","Federal Hill Park","300 Warren Avenue","21230",39.28018367930688,-76.6091978845333
"21202","Baltimore","MD","Rash Field","300 Key Hwy.","21230",39.281290469762695,-76.60977900506758
"21202","Baltimore","MD","Pierce’s Park","Pier 5","21202",39.28530506388299,-76.60573831730578
"21202","Baltimore","MD","Robert Baker Park","across from the Science Center","21230",39.280458481756334,-76.6120188332663
"21202","Baltimore","MD","The Harry & Jeanette Weinberg Waterfront Park","601 E Pratt St","21202",39.286127,-76.607128
"21202","Baltimore","MD","West Shore Park","Inner Harbor","not_available",39.282952737045306,-76.61221794068315
"21202","Baltimore","MD","McAllister Park","McAllister Street","not_available",39.310462649488116,-76.61160133678219
"21202","Baltimore","MD","Wonderground","401 East Lanvale Street","21202",39.30879211425781,-76.6106185913086
"21202","Baltimore","MD","General Sam Smith Park","Pratt Street","21202",39.28850859927375,-76.61326567274875
"21202","Baltimore","MD","Paul Povlock Memorial Park","not_available","21202",39.30918630822054,-76.61314308643341
"21202","Baltimore","MD","Light The Night","1310 Point Street","21231",39.28027,-76.59978
"21202","Baltimore","MD","St Vincent De Paul Parish Park","110 N Front St","21202",39.290288,-76.605792
"21202","Baltimore","MD","Baltimore Bocce - Federal Hill","799 battery ave","21230",39.279789505879116,-76.60827660851633
"21204","Towson","MD","Lake Roland","1000 Lakeside Dr","21210",39.38732026689012,-76.64860725402832
"21204","Towson","MD","Glen Woods","York Rd","21252",39.392403102229494,-76.60843621769409
"21205","Baltimore","MD","Collington Square Park","Collington Square Park","21213",39.30653807301814,-76.58650390869278
"21205","Baltimore","MD","Madison Park","500 N Caroline St","21205",39.296301,-76.59818800000001
"21205","Baltimore","MD","Frank C Bocek Park","Edison Hwy","21205",39.30089695418483,-76.57444953918457
"21205","Baltimore","MD","Real Food Farm","2701 Saint Lo Dr","21213",39.31455612182617,-76.58821105957031
"21205","Baltimore","MD","Amazing Port Street","not_available","21205",39.29825,-76.582974
"21205","Baltimore","MD","Eager Park","N Wolfe St","21205",39.300871,-76.591256
"21206","Baltimore","MD","Linover Park","7664 Lillian Holt Dr","not_available",39.360612506890156,-76.50820656564129
"21206","Baltimore","MD","Holt Park","34 Elmont Ave","21206",39.3508846949273,-76.51903396798035
"21206","Baltimore","MD","Burdick Park","Burdick Park","21206",39.35749690887429,-76.54467317285535
"21206","Baltimore","MD","Red House Run","not_available","21237",39.33731957086969,-76.5043539397876
"21206","Baltimore","MD","Radecke Park","not_available","21206",39.33131,-76.536705
"21207","Gwynn Oak","MD","Leakin Park","Winans Way","21229",39.29623653685356,-76.70772475197906
"21207","Gwynn Oak","MD","Gwynn Oak Park","not_available","21207",39.3262208535571,-76.7167332857095
"21207","Gwynn Oak","MD","Ben Cardin Pavillion","1900 Eagle Dr","21207",39.30521011352539,-76.70063018798828
"21207","Gwynn Oak","MD","Burnside Park","6000 Windsor Mill Rd","21207",39.318165,-76.720237
"21207","Gwynn Oak","MD","Howard Park","4601-4799 Springdale Ave","21207",39.32062638973459,-76.6992962857234
"21208","Pikesville","MD","Blue Stone Park","6972 Greenspring Ave","21209",39.38277628701254,-76.6864405546523
"21209","Baltimore","MD","Cylburn Arboretum","4915 Greenspring Ave","21209",39.35318681602814,-76.65230870246887
"21209","Baltimore","MD","Community Greenspace","not_available","21209",39.36118182851333,-76.64757176517955
"21209","Baltimore","MD","Northwest Park & Golf Range","Rogers ave.","21209",39.35859043919166,-76.65849343787939
"21209","Baltimore","MD","Poplar Hill Park","not_available","21210",39.368532,-76.648428
"21210","Baltimore","MD","Roosevelt Park","1221 W 36th St","21211",39.33051646585857,-76.63528363991288
"21210","Baltimore","MD","Strawberry Fields","not_available","21211",39.33092956160515,-76.63282422482236
"21210","Baltimore","MD","Stony Run Park","1 Oakdale Rd.","21210",39.34856503357921,-76.62853141634073
"21210","Baltimore","MD","Stoney Run","Wyman Park","not_available",39.3424955440486,-76.62548518330212
"21210","Baltimore","MD","Sunken Park","not_available","21218",39.343718,-76.622086
"21210","Baltimore","MD","Guilford Gateway Park","3601 St Paul St","21218",39.331927402379016,-76.61601319007544
"21210","Baltimore","MD","Baltimore Bocce - Hampden","599 W 37th st","21211",39.33347698717929,-76.62559236681149
"21210","Baltimore","MD","Confederate Women of Maryland Monument","N. Charles & E. University Pkwy","21218",39.33320204094215,-76.6183090209961
"21210","Baltimore","MD","Clipper Mill Apartments","2002 Clipper Park Rd","21211",39.33165365081326,-76.64684034429251
"21210","Baltimore","MD","Buena Vista Park","Buena Vista & W 41st","21211",39.33560841967676,-76.64056896522627
"21211","Baltimore","MD","Druid Hill Park","Druid Hill Park","21217",39.31800985648587,-76.6396495487398
"21211","Baltimore","MD","Wyman Park","Wyman Park","21211",39.32799870947744,-76.62492334842682
"21211","Baltimore","MD","Howard Peters Rawlings Conservatory","Swann Drive and Reisterstown Road","21217",39.31837162038412,-76.64598379866052
"21211","Baltimore","MD","Sisson Street Park","2701 Sisson Street","21211",39.319061279296875,-76.62444305419922
"21211","Baltimore","MD","Lakeside West Grove","Grove Rd","21221",39.32018468630191,-76.64092004299164
"21211","Baltimore","MD","Lakeside Pavilion","Grove Road","21217",39.3202633918133,-76.64018540578198
"21211","Baltimore","MD","Historic Stone House Parks & People Foundation","2100 Liberty Heights Ave","21217",39.320683,-76.653185
"21211","Baltimore","MD","Druid Hill Park Tennis Courts","2600 Madison Ave","21217",39.320032835304225,-76.6348775012461
"21211","Baltimore","MD","Singer Park","700 Singer Avenue","21211",39.325744202684874,-76.62824053831538
"21212","Baltimore","MD","Sherwood Gardens","4100 Greenway","21218",39.34144390679086,-76.61447864970098
"21212","Baltimore","MD","Aigburth Vale","212 Aigburth Rd","21286",39.391791,-76.597899
"21212","Baltimore","MD","Evesham Park","Evesham Avenue","not_available",39.364773926469724,-76.59795860651101
"21212","Baltimore","MD","DeWee Rec Center","5501 Ivanhoe Ave","21212",39.356357,-76.603972
"21212","Baltimore","MD","Forge Park","301 Schwartz Ave","21212",39.37301,-76.613157
"21213","Baltimore","MD","Clifton Park","Clifton Park","21213",39.32113479281115,-76.59063448929415
"21213","Baltimore","MD","Hillen Tree Lot","1901 E 31st St","21218",39.32605,-76.589186
"21213","Baltimore","MD","Clifton Park Shop House","not_available","21213",39.319788142631495,-76.58071410028988
"21213","Baltimore","MD","Clifton Park Gardener's Cottage","Rose Street","21213",39.32368650656356,-76.58140821392345
"21214","Baltimore","MD","Herring Run Park","Harford road","not_available",39.33511896019394,-76.57680988311768
"21215","Baltimore","MD","Towanda","4000 Towanda Ave","not_available",39.33386868215151,-76.66390186776822
"21215","Baltimore","MD","Lucille Park","not_available","21216",39.33744,-76.67208
"21216","Baltimore","MD","Hilton Park","3300 W North Ave","21216",39.309199,-76.672616
"21216","Baltimore","MD","Nassaupark","Hilton parkway","not_available",39.29895418940878,-76.67382001876831
"21217","Baltimore","MD","Lafayette Square Park","not_available","21223",39.298027821621034,-76.63590976781906
"21217","Baltimore","MD","Harlem Park","1450 Edmonson Avenue","21223",39.29609806124684,-76.64137601852417
"21218","Baltimore","MD","Wyman Park Dell","3000 Charles St","21218",39.32381883676293,-76.61792005644979
"21218","Baltimore","MD","Old Goucher Green Space","N. Calvert St.","21218",39.31489322963641,-76.61373853683472
"21218","Baltimore","MD","32nd Street Park","32nd Street","21218",39.32700304928755,-76.61267892627362
"21218","Baltimore","MD","27th st Park","2700 Greenmount Ave","21218",39.321013,-76.609724
"21218","Baltimore","MD","Oakenshawe Greenspace","3410 barclay","not_available",39.33072015412239,-76.61164647160302
"21218","Baltimore","MD","Abell Open Space","300 block of E 32nd St","21218",39.32691588448749,-76.61272033307321
"21219","Sparrows Point","MD","Rocky Point Beach Park","2200 Rocky Point Rd","21221",39.2522111044196,-76.40482521913894
"21219","Sparrows Point","MD","Swirl Landing","Delmar Ave","not_available",39.24134513444887,-76.45221050905961
"21219","Sparrows Point","MD","Inverness Park","2025 Inverton Rd","21222",39.257633,-76.490441
"21219","Sparrows Point","MD","Fort Howard Park","9500 North Point Rd","21219",39.198072081255404,-76.44303084425056
"21219","Sparrows Point","MD","Fort Howard Veterans Park","not_available","21219",39.21025296414007,-76.44211566689876
"21220","Middle River","MD","Eastern Regional Park","11723 Eastern Ave","21220",39.3447633803921,-76.39010229730452
"21220","Middle River","MD","Greenleagh Crossroads Park","405 William's Coury","21220",39.362206,-76.407036
"21220","Middle River","MD","Cox's Point Park","820 Riverside Dr","21221",39.29401552050308,-76.46543938783734
"21220","Middle River","MD","Wilson Point Park","950 Beech Dr","21220",39.324139015396725,-76.42603687632158
"21220","Middle River","MD","Marshy Point Nature Center","7130 Marshy Point Rd","21220",39.34840447807689,-76.37120953638183
"21220","Middle River","MD","Hawthorne-Midthorn Park","not_available","21220",39.32231324409626,-76.43761877639018
"21220","Middle River","MD","Dundee Creek Fishing Area","Madary Rd","21220",39.345839074489305,-76.35511641203968
"21220","Middle River","MD","Fields at Renaissance Park","99 Stemmers Run Rd","21221",39.319332,-76.45394300000001
"21220","Middle River","MD","Turkey Point Park","2307 Tickwood Rd","21221",39.29707,-76.402478
"21221","Essex","MD","Bear Creek Park","Park Haven Road","21222",39.27099176501287,-76.48687838722797
"21221","Essex","MD","Gray Haven Park","Park Haven Rd","21222",39.272849491586896,-76.4869405077458
"21221","Essex","MD","Battle Acre","3115 Old North Point Rd","21222",39.27735809927344,-76.48468136787415
"21221","Essex","MD","Battle Grove Park","7873 Saint Fabian Ln","21222",39.264832,-76.46885400000001
"21221","Essex","MD","North Point Village Park","not_available","21222",39.26572305743359,-76.4705453078897
"21221","Essex","MD","Aquila Randall Monument","3998 North Point Road","21222",39.273361119379224,-76.47035837173462
"21221","Essex","MD","Golden Ring Park","Philadelphia Rd","21237",39.339261860548994,-76.4882732680593
"21222","Dundalk","MD","Watersedge Park","8820 Bullneck Road","21222",39.23746601220444,-76.49720692658875
"21222","Dundalk","MD","Stansbury Park","7880 Stansbury Rd","21222",39.260037729421384,-76.50155782699585
"21222","Dundalk","MD","Turner Station Park","Rayme Road","not_available",39.240883775594554,-76.5066647529602
"21222","Dundalk","MD","Peachorchard Park","8298 Bullneck Rd","21222",39.243604276155885,-76.49651527404785
"21222","Dundalk","MD","Harbor View Park","7298 Woodrow Ave","21224",39.28608408698553,-76.52316570281982
"21222","Dundalk","MD","Veterans Park","44 Shipping Pl","21222",39.25728988647461,-76.5230484008789
"21222","Dundalk","MD","Chesterwood Park","2200 Chesterwood Rd","21222",39.251120774661395,-76.50034090244718
"21222","Dundalk","MD","Merritt Point Park","7710 Dunmanway","21222",39.25269364790809,-76.50513489184745
"21222","Dundalk","MD","Dundalk Heritage Park","bound by Shipway, Playfield","21222",39.258303053097904,-76.52053205277487
"21222","Dundalk","MD","Gray Manor Park","2607 Parkwood Rd","21222",39.27548608290541,-76.49806524823151
"21222","Dundalk","MD","Fort Holabird Park","6711 Oak Ave","21222",39.264708,-76.530243
"21222","Dundalk","MD","Lynch Cove Park","7903 Shore Rd","21222",39.261464000000004,-76.497749
"21222","Dundalk","MD","St Helena Park","300 Willow Spring Rd","21222",39.25557564044508,-76.52667459618489
"21223","Baltimore","MD","Carroll Park","Carroll Park","21230",39.278659868390626,-76.64197683334349
"21223","Baltimore","MD","Kirby Lane Park","1822 W. Saratoga St.","21223",39.292175,-76.64616
"21223","Baltimore","MD","Traci Atkins Park - Lumberyard","437 S. Stricker Street","21223",39.282432556152344,-76.64035034179688
"21223","Baltimore","MD","Hidden Stream Park","500-598 N Woodyear St","21223",39.294634566666666,-76.63923556666667
"21223","Baltimore","MD","Carroll Park Skateboarding & Bike Facility","800 Bayard St","21223",39.281288146972656,-76.63929748535156
"21223","Baltimore","MD","Franklin Square Park","Franklin Square Park","21223",39.289416508768845,-76.63925155700329
"21224","Baltimore","MD","Patterson Park","S Linwood Ave.","21224",39.28881553839217,-76.57951773301308
"21224","Baltimore","MD","Canton Waterfront Park","3001 Boston St.","21224",39.27720300178413,-76.57378404438991
"21224","Baltimore","MD","O'Donnell Square Park","O'Donnell St","21224",39.2804456671924,-76.57538497519407
"21224","Baltimore","MD","Patterson Park Annex/""Second Park""","Linwood Ave.","21224",39.28751236987585,-76.5752649307251
"21224","Baltimore","MD","Patterson Park Kickball","S Linwood Ave","21224",39.29108294966399,-76.57788276672363
"21224","Baltimore","MD","Pulaski Monument - Patterson Park","2806 Eastern Ave.","21224",39.286353330948906,-76.57668478109366
"21224","Baltimore","MD","Canton Square Park","2900 Elliott Street","21224",39.27922368142258,-76.5759052298672
"21224","Baltimore","MD","Boston Street Waterfront Park","Boston St","not_available",39.27975810113625,-76.57965112629755
"21224","Baltimore","MD","Canton Dog Park","3221 Toone St.","21224",39.278186997156844,-76.56984681799163
"21224","Baltimore","MD","Thames Street Park","S Wolfe St & Thames St","21231",39.28334666514527,-76.58460249044232
"21224","Baltimore","MD","Parky’s","not_available","21224",39.286555,-76.576553
"21224","Baltimore","MD","Dypski Park","1200 block of S Ellwood Ave","21224",39.278590933273044,-76.57224943174667
"21224","Baltimore","MD","Halcott Square","140 S. Duncan St.","21231",39.29010875338194,-76.58674655577089
"21224","Baltimore","MD","duncan St Park","not_available","21231",39.29015987355864,-76.5867578416703
"21225","Brooklyn","MD","Field","not_available","21225",39.2261012873762,-76.59380004900524
"21225","Brooklyn","MD","Cherry Hill Park","Cherry Hill","21225",39.24738586896302,-76.61514437168788
"21225","Brooklyn","MD","Southwest Area Park","3939 Park Drive","21225",39.24066993271554,-76.6328179727958
"21225","Brooklyn","MD","Garrett Park","3rd St","21225",39.23867256987966,-76.60739808668993
"21225","Brooklyn","MD","Play Ground Spelman Rd","3400 Spelman Rd","21225",39.24068536072422,-76.63282096706781
"21226","Curtis Bay","MD","Fort Armistead Park","3999 Fort Armistead Rd.","21226",39.20926961439796,-76.5330200787159
"21227","Halethorpe","MD","Joseph Beuys Sculpture Park at UMBC","1000 Hilltop Cir","21250",39.2519627220252,-76.71044826507568
"21227","Halethorpe","MD","Swann Park","McComas St","21230",39.26618229420615,-76.61866474208975
"21227","Halethorpe","MD","Hill Crest Park","3rd Ave","not_available",39.24407212896465,-76.65265613555944
"21227","Halethorpe","MD","Jurassic Park","Haverhill Rd","21229",39.26769731292266,-76.67651688109372
"21227","Halethorpe","MD","Violetville Park","not_available","21229",39.27006804291789,-76.68216779030129
"21227","Halethorpe","MD","Florence Cummings Park","2501 Maisel Street","21230",39.262659,-76.638963
"21228","Catonsville","MD","Western Hills Park","1437 N Rolling Rd","21228",39.29963430465829,-76.75141406490697
"21228","Catonsville","MD","Catonsville Community Park","501 N Rolling Rd","21228",39.279459,-76.753618
"21229","Baltimore","MD","Irvington Park","342 Martingale Ave","21229",39.27934086976452,-76.69156551361084
"21230","Baltimore","MD","Frederick Douglass-Isaac Myers Maritime Park","1417 Thames St","21231",39.27972664511321,-76.59645770446222
"21230","Baltimore","MD","Latrobe Park","Fort Ave.","21230",39.267443746403465,-76.59276179918737
"21230","Baltimore","MD","Bond Street Landing","Thames St","not_available",39.280807370394285,-76.59458362108239
"21230","Baltimore","MD","Harbor Point Central Plaza","1310 Point St","21231",39.28081130981445,-76.59779357910156
"21230","Baltimore","MD","Leone Riverside Park","1597 Durst St.","21230",39.27030891414539,-76.60834594576772
"21230","Baltimore","MD","West Covington Park","101 West Cromwell St","21230",39.26131057739258,-76.61670684814453
"21231","Baltimore","MD","The Betty Hyatt Community Park","Baltimore St","21227",39.29176537449183,-76.59285772479534
"21231","Baltimore","MD","The Bench at Henderson's Wharf","1000 Fell St","21231",39.280174255371094,-76.58930206298828
"21231","Baltimore","MD","Fells Point Chess","1717 Aliceanna St","21231",39.283398999999996,-76.592449
"21231","Baltimore","MD","Anchorage Promenade Park","2339 Boston St","21224",39.28244,-76.584533
"21234","Parkville","MD","Double Rock Park","8211 Glen Rd.","21234",39.37186875307494,-76.52559063915814
"21234","Parkville","MD","Belmont Park","not_available","21234",39.39193883634611,-76.50319811889982
"21234","Parkville","MD","Putty Hill Park","2222 Putty Hill Road","21234",39.39022504250958,-76.54823893186617
"21234","Parkville","MD","Miracle Park","Terron Ct.","21234",39.37810078080661,-76.57409766245189
"21239","Baltimore","MD","Chinquapin Run Park","Chinquapin Run Park","21218",39.35487427283022,-76.59526348114014
"21239","Baltimore","MD","Idlewylde Park","not_available","21239",39.367383042029644,-76.58511573285392
"21244","Windsor Mill","MD","Diamond Ridge Park","not_available","21244",39.32208046557489,-76.77458560521507
"21401","Annapolis","MD","Jonas Green Park","1990 Governor Ritchie Hwy.","21409",38.995396181821434,-76.48446131127791
"21401","Annapolis","MD","Bestgate Park","716 Bestgate Rd","21401",38.99633026123047,-76.53251647949219
"21401","Annapolis","MD","Heineman Park","351 Dewey Dr.","21401",38.989281703526224,-76.5110233426094
"21401","Annapolis","MD","Annapolis Cars & Coffee","1 Dock St","21401",38.97649002075195,-76.48523712158203
"21401","Annapolis","MD","Fleet street park","Fleet street","21401",38.978595,-76.488523
"21402","Annapolis","MD","Greenbury Point Nature Center","265 Bullard Blvd","21402",38.98886895489407,-76.45412544694945
"21403","Annapolis","MD","Chesapeake Bay Foundation","6 Herndon Ave","21403",38.93239492520597,-76.46248673038266
"21403","Annapolis","MD","Fourth Street Boat Landing","Fourth","not_available",38.96886420520961,-76.47984565360605
"21403","Annapolis","MD","Peninsula Park","3103 Arundel on the Bay Rd.","21403",38.9441909653894,-76.48364807934878
"21409","Annapolis","MD","Bay Head Park","Bay Head Rd.","21409",39.02716532231247,-76.42990139015082
"21502","Cumberland","MD","Constitution Park","not_available","21502",39.64931906764557,-78.7486481666565
"21502","Cumberland","MD","Constitution Park Scenic Overlook","Constitution Park","21502",39.649859864945626,-78.748149373163
"21502","Cumberland","MD","Jaycee Rec Area","Furnace st","21502",39.663361036156324,-78.76596450805664
"21502","Cumberland","MD","North Branch 3 (Lock #75)","Chesapeake & Ohio Canal National Historic Park","21502",39.58717346191406,-78.74088287353516
"21502","Cumberland","MD","Riverside Tennis Courts","Candoc Ln.","21502",39.62363967063353,-78.76070737838745
"21502","Cumberland","MD","Ellerslie Community Park","not_available","21529",39.715857,-78.780522
"21502","Cumberland","MD","Nick Giarritta Park","Centre st","21502",39.651074395308186,-78.76346451842825
"21502","Cumberland","MD","Campobello Fire Pit","404 Tilghman St","21502",39.656834,-78.774309
"21502","Cumberland","MD","Lakeside Loop Trail","12500 Pleasant Valley Rd NE","21530",39.69580078125,-78.65081787109375
"21521","Barton","MD","Furnace Park","E Main St","21539",39.569475912886645,-78.97770882789457
"21530","Flintstone","MD","Green Ridge State Forest","28700 Headquarters Dr NE","21530",39.66527994891579,-78.44269120150129
"21531","Friendsville","MD","Friendsville Town Park","not_available","21531",39.663476634066974,-79.40102508468152
"21532","Frostburg","MD","Paris N. Glendening Recreation Complex","Rynex Ave","21532",39.67027913406454,-78.93335717308844
"21532","Frostburg","MD","Allegheny Highlands Trail","Rt. 36","not_available",39.65933794079979,-78.91828514357633
"21550","Oakland","MD","Rotary Park","not_available","21550",39.40856344949272,-79.4091497188896
"21550","Oakland","MD","Oakland Veterans Park","3rd / Oak","21550",39.4071,-79.407174
"21550","Oakland","MD","Loch Lynn Community Park","302 Roanoke Ave","21550",39.39112091064453,-79.37442016601562
"21562","Westernport","MD","Maryland Ave Park","Maryland Ave","21562",39.489770942991555,-79.04222259967946
"21601","Easton","MD","St Michaels","all over the waterfront area","21663",38.77102635688334,-76.20914926046719
"21601","Easton","MD","Idlewild Park","S Washington St.","21601",38.763893904623224,-76.07212767127864
"21601","Easton","MD","Mt. Pleasant Park","Sprinhdale Rd","not_available",38.782017424190315,-76.06922155122366
"21601","Easton","MD","Cordova Country Park","Skipton – Cordova Rd","21625",38.87852801293093,-75.9965999599893
"21601","Easton","MD","Colonel Richardson Tomb","23290-23298 Holly Park Dr","21655",38.8100132,-75.89634002
"21601","Easton","MD","Park Washburn","not_available","21601",38.746559143066406,-76.056396484375
"21601","Easton","MD","Golton Park","Golton Dr","21601",38.78365,-76.05426
"21601","Easton","MD","Cordova Country Park","not_available","21625",38.88908035025927,-76.04368131050501
"21601","Easton","MD","Moton Park","501 Port Street","21601",38.7706413269043,-76.08572387695312
"21601","Easton","MD","Oxford Town Park","not_available","21654",38.68872039321224,-76.17305011744075
"21613","Cambridge","MD","east cambridge park","not_available","21613",38.567339007737296,-76.0682070261888
"21613","Cambridge","MD","Cornish Park","701 Douglas Street","not_available",38.56526565551758,-76.08336639404297
"21613","Cambridge","MD","Secretary Park","not_available","21664",38.61097075,-75.94545
"21617","Centreville","MD","Church Hill Park","120 Hall Rd","21623",39.147639,-75.971051
"21617","Centreville","MD","Rt. 18 Park","100 Dulin Clark Rd","21617",39.028287,-76.11717
"21617","Centreville","MD","4 H Park","not_available","21617",39.02863368371698,-76.11704856593497
"21617","Centreville","MD","Millstream Park","396-498 Maryland 213","21617",39.04060105109099,-76.07244490483478
"21619","Chester","MD","Ferry Point Park","not_available","21619",38.97542278898726,-76.24960073376037
"21620","Chestertown","MD","Wilmer Park","399 S Cross St","21620",39.20480728149414,-76.06617736816406
"21620","Chestertown","MD","Fountain Park","not_available","21620",39.20965075911353,-76.06654763989876
"21620","Chestertown","MD","Chestertown Farmer's Market","Town square","21635",39.209493640452855,-76.06676364525555
"21620","Chestertown","MD","Worton Park","not_available","21678",39.27884624318141,-76.09003322544466
"21625","Cordova","MD","Rosevelt Park","32219 Park Ave","21657",38.919106,-75.955259
"21629","Denton","MD","Caroline County 4H Park","not_available","21629",38.83247434377863,-75.83474163368471
"21635","Galena","MD","toal park","not_available","21635",39.353411720872636,-75.8771977506779
"21636","Goldsboro","MD","Greensboro Christian park","not_available","21636",39.01770882908533,-75.77152475206762
"21638","Grasonville","MD","Grasonville Park","233 Perrys Corner Rd","21638",38.955528259277344,-76.2110824584961
"21643","Hurlock","MD","Ayce Breakfast Ebvfd","not_available","21659",38.58356857299805,-75.7885971069336
"21645","Kennedyville","MD","Kentmore Park","Rt. 444","not_available",39.370730327987616,-75.96084137303565
"21651","Millington","MD","Rob Vanary Park, Millington","School street","21651",39.26069929960207,-75.8427878827481
"21651","Millington","MD","Millington Waterfront Park","not_available","21651",39.256733,-75.839486
"21655","Preston","MD","Jonestown Community Park","not_available","21655",38.7307719764794,-75.89104443709604
"21660","Ridgely","MD","Railroad Memorial Park","Bell ave","21660",38.94437713262667,-75.89075025228789
"21660","Ridgely","MD","Martin Sutton Memorial Park","302 West Fourth Street","21660",38.940986821937415,-75.8866560459137
"21663","Saint Michaels","MD","Muskrat Park","Willow Street","21663",38.78507376632249,-76.222849464492
"21663","Saint Michaels","MD","Perry Cabin Park & Sports Complex • Talbot County Council","710 N Talbot Street","21663",38.79225158691406,-76.22572326660156
"21663","Saint Michaels","MD","St. Mikes Park","512-562 Railroad St","21663",38.78576618348844,-76.2298206975793
"21663","Saint Michaels","MD","Bradley Park","not_available","21663",38.786335929140066,-76.22477903838558
"21666","Stevensville","MD","Terrapin Nature Park","not_available","21666",38.99002934308398,-76.32138628705749
"21666","Stevensville","MD","Romancoke Pier","9700 Romancoke Rd.","21666",38.88086094873991,-76.33353352546692
"21666","Stevensville","MD","Batts Neck Park","Batts Neck Rd.","21666",38.936846668294805,-76.34652614593506
"21666","Stevensville","MD","Matapeake Pier","306 Marine Academy Dr","21666",38.9559,-76.354061
"21671","Tilghman","MD","Harris Creek","not_available","21671",38.67204,-76.338739
"21701","Frederick","MD","Baker Park","121 N Bentz St","21701",39.416455447365045,-77.41610085035641
"21701","Frederick","MD","Culler Lake","Baker Park","21701",39.417691102633555,-77.4244232932073
"21701","Frederick","MD","Kidwiler Park at Rosedale","551 Schley Ave","21702",39.427757,-77.425713
"21701","Frederick","MD","Carroll Creek Linear Park","44 S Market St","21701",39.412802155720144,-77.40981798901467
"21701","Frederick","MD","Waterford Park","Waterford drive","21702",39.42325353362231,-77.43372018022662
"21701","Frederick","MD","Carrolton Park","441-499 Center St","21701",39.401735926789996,-77.42271401895172
"21701","Frederick","MD","Riverwalk Park","Schifferstadt Blvd","21701",39.43423541885423,-77.38958832899866
"21701","Frederick","MD","Willow Brook Park","McClellan Dr","21702",39.46691155809713,-77.40848779678345
"21701","Frederick","MD","libertytown park","not_available","21791",39.48271388936716,-77.23639808734598
"21701","Frederick","MD","Max S. Kehne Memorial Park","not_available","21702",39.426933789765336,-77.42092503306992
"21701","Frederick","MD","Maryvale Park","101-199 Catoctin Ave","21701",39.41292710309834,-77.42755596283178
"21701","Frederick","MD","East Third Street Park","252 E 3rd St","21701",39.41732323873961,-77.40556235745714
"21701","Frederick","MD","Clerestory Park","2750 Monocacy Blvd","21701",39.46015265002381,-77.39417552947998
"21701","Frederick","MD","Walkersville Community Park","98 Kenneth Dr","21793",39.480217614996576,-77.36251990746551
"21701","Frederick","MD","Monocacy Village Park","Abbey Ct","21701",39.428828517299706,-77.39988016953625
"21701","Frederick","MD","Riverside Park","1801 Monocacy Blvd","21701",39.44476,-77.38275
"21701","Frederick","MD","Carroll Creek Promenade","38 S Market St","21701",39.41300012974375,-77.41078913211823
"21701","Frederick","MD","FMH Recreation Park","not_available","21701",39.422665,-77.413506
"21701","Frederick","MD","Springridge Playground","spring forest road","21701",39.407766,-77.342142
"21701","Frederick","MD","Clover Ridge Park","Opossumtown Pike","not_available",39.46800484919317,-77.42082595825195
"21701","Frederick","MD","Tuscarora Creek Park","425 Solitude Ct SE","20175",39.46602948487351,-77.41900964313716
"21701","Frederick","MD","Market Square Community Park","Cormorant Pl","21701",39.45007933383618,-77.39697575569153
"21701","Frederick","MD","Memorial Grounds","201 N Bentz St","21701",39.41704009514122,-77.41422891852515
"21701","Frederick","MD","College Estates Park","1251 Taney Ave","21701",39.43392253572449,-77.41737127304077
"21702","Frederick","MD","Cannon Bluff Park","1921 Chamberlain Dr","21702",39.46935272216797,-77.44084167480469
"21702","Frederick","MD","Taskers Chance Recreation Area","Key Pkwy","21702",39.4203,-77.444984
"21702","Frederick","MD","7th Street Fountain Park","641 N Market St","21701",39.422680993737444,-77.40985035896301
"21702","Frederick","MD","Bonita W. Maas Park","7 W 2nd St","21701",39.417075,-77.411039
"21702","Frederick","MD","Cobblestone Park","2401 Cobbleston Way","21702",39.45261436808241,-77.45245456695557
"21703","Frederick","MD","Ballenger Creek Park","5420 Ballenger Creek Pike","21703",39.38312436918401,-77.44648933410645
"21703","Frederick","MD","Emerald Farm Park","607 Swallowtail Dr","21703",39.40887623701827,-77.46547937393188
"21703","Frederick","MD","Baughman's Babee Park","381 Madison St","21701",39.410502,-77.420709
"21703","Frederick","MD","The Playground","not_available","21703",39.39201599617294,-77.42895134638734
"21703","Frederick","MD","Catoctin Park","421 Columbus Ave","21701",39.412375,-77.425395
"21703","Frederick","MD","Bentztown Spring Park","N Bentz St","not_available",39.414537719780206,-77.4146032333374
"21704","Frederick","MD","Urbana District Park","3805 Urbana Pike","21704",39.33775374200714,-77.36558729751023
"21704","Frederick","MD","Pinecliff Park","8350 Pinecliff Park Rd","21704",39.38946839199951,-77.37655404766235
"21704","Frederick","MD","Urbana Community Park","3636 Urbana Pike","21704",39.32716763877696,-77.36241369893443
"21704","Frederick","MD","frederick social sports softball","Urbana District Park","not_available",39.33733809175776,-77.36433693245671
"21713","Boonsboro","MD","Washington Monument State Park","6620 Zittlestown Rd","21769",39.50045629191886,-77.62321341573023
"21713","Boonsboro","MD","C&O Canal Lock #40","Chesapeake & Ohio Canal National Historic Park","21782",39.48576008507439,-77.78329947081174
"21713","Boonsboro","MD","Devil's Backbone Park","Lappans Rd","21713",39.53848719892081,-77.71021172560233
"21713","Boonsboro","MD","Greenbrier State Park Visitor Center","not_available","21713",39.537912900383475,-77.61753558944156
"21713","Boonsboro","MD","Playground","not_available","21773",39.528034,-77.604452
"21713","Boonsboro","MD","Shafer Park","Park Rd","21713",39.508473051577155,-77.65368264455762
"21713","Boonsboro","MD","Boonsboro Carnival","Shaffer Park","21713",39.508204477245144,-77.65484007556446
"21713","Boonsboro","MD","Boonsboro Lacrosse Field","10 Park View Dr","21713",39.50652313232422,-77.65613555908203
"21713","Boonsboro","MD","Boonsboro Park","37 Park Dr","21713",39.508664,-77.65372099999999
"21713","Boonsboro","MD","Oak Grove. Lee's Hdqrts","Sharpsburg Pk.","21782",39.45545760274248,-77.76035961323447
"21716","Brunswick","MD","C&O Canal - Brunswick","Chesapeake & Ohio Canal National Historic Park","21716",39.31171300982952,-77.62864040838946
"21716","Brunswick","MD","Veteran's Park","East A Street","21716",39.31304696415084,-77.6249026794736
"21716","Brunswick","MD","Square Corner Park","not_available","21716",39.31306293350021,-77.62717070445538
"21719","Cascade","MD","Pen Mar Park","High Rock Rd.","21719",39.716774016220185,-77.5079897864318
"21722","Clear Spring","MD","Riverbend Park","3247 Vineyard Rd","25419",39.6025390625,-77.92908477783203
"21722","Clear Spring","MD","Byron Memorial Park","2 N Conococheague St","21795",39.59994748942295,-77.81665599597065
"21722","Clear Spring","MD","Dam 5 on the C&O Trail","not_available","21722",39.60703,-77.92200766
"21722","Clear Spring","MD","Kemp's Mill Park","11112 Kemps Mill Rd.","21795",39.61582565307617,-77.81719207763672
"21722","Clear Spring","MD","Doubleday Hill","not_available","21795",39.598845,-77.825398
"21722","Clear Spring","MD","Potomac Park","West Salisbury St.","not_available",39.59893960103547,-77.82572507821739
"21722","Clear Spring","MD","Williamsport (Lock #44)","Chesapeake & Ohio Canal National Historic Park","21795",39.59105913414736,-77.81656664168483
"21723","Cooksville","MD","Western Regional Park & Gary J. Arthur Community Center","14800 Carrs Mill Rd","21797",39.30613899104376,-77.0254698588616
"21727","Emmitsburg","MD","Emmitsburg Memorial Park","not_available","21727",39.701813,-77.3265
"21727","Emmitsburg","MD","Eyler Park","not_available","21788",39.63435735947355,-77.40362446810904
"21737","Glenelg","MD","Warfield Pond Park","14519 Macclintock Ct","21738",39.280206,-77.020829
"21740","Hagerstown","MD","Veteran's Park","103 Kevins Ct","21783",39.65684127807617,-77.57860565185547
"21740","Hagerstown","MD","Hagerstown City Park","501 Virginia Ave","21740",39.63537339650978,-77.73127555847168
"21740","Hagerstown","MD","Woodland Way Park","Belview Ave","21740",39.656421,-77.714534
"21740","Hagerstown","MD","Marty Snook Park","17901 Halfway Blvd.","21740",39.60775498109208,-77.75804078033134
"21740","Hagerstown","MD","Hagerstown Fairgrounds","320 Fairground Ave","21740",39.645768799443864,-77.7082272526717
"21740","Hagerstown","MD","Washington County Regional Park","20025 Mount Aetna Rd","21742",39.6160888671875,-77.67095947265625
"21740","Hagerstown","MD","Black Rock Park","not_available","21740",39.61435665543007,-77.67046522946293
"21740","Hagerstown","MD","Hager Park","276 E. Memorial Blvd.","21740",39.63302878560934,-77.71588544604762
"21740","Hagerstown","MD","Woodford Square","Frederick St","not_available",39.6256352,-77.7147598
"21740","Hagerstown","MD","Washington Street Pawnbrokers","47 W Washington St","21740",39.64244079589844,-77.72164916992188
"21740","Hagerstown","MD","C&O Canal Trust","1850 Dual Hwy Ste 100","21740",39.61054992675781,-77.68803405761719
"21740","Hagerstown","MD","Old Town Rd","not_available","21742",39.698909,-77.634175
"21740","Hagerstown","MD","University System of Maryland Hagerstown Park","West Washington Street","not_available",39.643332,-77.721049
"21742","Hagerstown","MD","Doubs Woods Park","1307 Maryland Ave","21740",39.61823344639338,-77.73506774454151
"21750","Hancock","MD","Berkeley Springs State Park, Roman Bath House & Museum","2 S Washington St","25411",39.62688364233101,-78.22845366608583
"21750","Hancock","MD","Berkeley Springs Park","not_available","21750",39.69891528002856,-78.1846616538536
"21750","Hancock","MD","North Berkeley Community Park","not_available","25411",39.63056182861328,-78.22330474853516
"21754","Ijamsville","MD","New Market Community Park","not_available","21774",39.382779,-77.267363
"21754","Ijamsville","MD","New Market Grange","14 8th South Alley","21774",39.38204442822914,-77.27041467560744
"21755","Jefferson","MD","C&O Canal - Point of Rocks","Chesapeake & Ohio Canal National Historic Park","21777",39.27321161908041,-77.54077434539795
"21755","Jefferson","MD","Lander/Catoctin Lock (Lock #29)","Chesapeake & Ohio Canal National Historic Park","21755",39.30620224610344,-77.5594034662192
"21755","Jefferson","MD","Lovettsville Veterans Memorial","1 W Broad Way","20180",39.2747917175293,-77.63932037353516
"21756","Keedysville","MD","Pleasant Valley Community Park","not_available","21779",39.402203,-77.657848
"21757","Keymar","MD","Double Pipe Creek Park","1200 Keysville Road","not_available",39.60366,-77.26936
"21758","Knoxville","MD","C&O Canal Lock #33","Chesapeake & Ohio Canal National Historic Park","20132",39.32420816987424,-77.72632529672607
"21758","Knoxville","MD","Maryland Heights (Harpers Ferry National Historic Park)","Harpers Ferry Rd","21758",39.32520280941472,-77.72566145408705
"21758","Knoxville","MD","Goodheart's Lock (Lock #34)","Chesapeake & Ohio Canal National Historic Park","21758",39.333246183129795,-77.73842654174763
"21758","Knoxville","MD","Dargan Bend","not_available","21782",39.363968,-77.74014377
"21769","Middletown","MD","Remsberg Park","not_available","21769",39.433853380579144,-77.5374254650341
"21769","Middletown","MD","Memorial Park","Franklin St","not_available",39.43962888523259,-77.54507850194082
"21769","Middletown","MD","Grindstone Run Park","2629 Monument Rd","not_available",39.50784027363996,-77.57920771837234
"21769","Middletown","MD","Doub's Meadow Park","11 Wolfsville Rd","not_available",39.508758232259474,-77.56029906627086
"21769","Middletown","MD","Memorial Park at Trolley Station","303 Main St","not_available",39.506505481736994,-77.5663948059082
"21769","Middletown","MD","Harp Park","10 Harp Pl","not_available",39.51289776411179,-77.56692588329315
"21770","Monrovia","MD","Kemptown Community Park","not_available","21770",39.33314646064728,-77.23479831936217
"21770","Monrovia","MD","Old National Pike District Park","12406 Old National Pike","not_available",39.378014533427084,-77.22816887415699
"21770","Monrovia","MD","Shelter 2","not_available","21771",39.37853292894134,-77.22701247215898
"21771","Mount Airy","MD","East West Park","813 Prospect","21771",39.38283282,-77.1643019
"21771","Mount Airy","MD","Watkins Park","615 Center St.","21771",39.37548652453344,-77.14578151702881
"21771","Mount Airy","MD","Mount Airy Activities Grounds","Twin Arch Rd.","21771",39.36638802298181,-77.14706897735596
"21771","Mount Airy","MD","Prospect Park","Prospect Rd","21771",39.3773583748049,-77.16344350774709
"21773","Myersville","MD","Flook Park","800 Rocky Fountain Dr","not_available",39.51448281014735,-77.57278382778168
"21778","Rocky Ridge","MD","Loy's Station Park","13506 Old Frederick Rd","21778",39.608396,-77.35253399999999
"21780","Sabillasville","MD","Catoctin Mountain Park Headquarters","6602 Maryland 77","21788",39.63375375242037,-77.44981843790424
"21780","Sabillasville","MD","Thurmont Community Park","10 E Main St","21788",39.623321533203125,-77.41114044189453
"21782","Sharpsburg","MD","McMahons Mill","7900 Avis Mill Rd","21795",39.53093719482422,-77.82428741455078
"21782","Sharpsburg","MD","James Rumsey Monument Park","not_available","25443",39.43288097813863,-77.79954332675356
"21782","Sharpsburg","MD","Shepherdstown Lock (Lock #38)","Chesapeake & Ohio Canal National Historic Park","25443",39.43656604971721,-77.79992686425919
"21783","Smithsburg","MD","Lions Club Park","12835 Bikle Rd","21783",39.665072668767046,-77.56509561753504
"21784","Sykesville","MD","Freedom Park","100 Raincliffe Rd","21784",39.36378929337965,-76.95306209909606
"21784","Sykesville","MD","Piney Run Park","30 Martz Rd","21784",39.397135935673376,-76.9864392581734
"21784","Sykesville","MD","Hodges Park","5600 Hodges Rd","21784",39.420875549316406,-76.95445251464844
"21784","Sykesville","MD","Fairhaven Park","100 East Obrecht Road","21784",39.38055244214998,-76.9776584577507
"21784","Sykesville","MD","Carrs Mill Park","not_available","21797",39.31369698035057,-77.04869665865769
"21784","Sykesville","MD","Edgewood Park","Calvert Way","21784",39.41127430708025,-76.96722867704717
"21784","Sykesville","MD","Piney Run Park House","440 Martz Rd","21784",39.399366,-76.979926
"21784","Sykesville","MD","Millard Cooper Park","7301 Springfield Ave","21784",39.372999,-76.96548
"21787","Taneytown","MD","Big Pipe Creek Park","3939 Old Taneytown Rd","21787",39.638273999999996,-77.140798
"21787","Taneytown","MD","Wisconsin Park","not_available","21787",39.661948673735424,-77.16037678231702
"21787","Taneytown","MD","Memorial Park","Park Rd","21787",39.6622171214672,-77.18330229140338
"21788","Thurmont","MD","Catoctin Wildlife Preserves and Zoo","13019 Catoctin Furnace Rd","21788",39.59104,-77.43176
"21788","Thurmont","MD","Utica Park","10200 old frederick rd","21788",39.51375021021246,-77.40197654326559
"21793","Walkersville","MD","Woodsboro park","not_available","21798",39.53227570170648,-77.30906073534136
"21793","Walkersville","MD","Arbor Square Park","Arbor Square Dr","not_available",39.461635,-77.389079
"21793","Walkersville","MD","Fountain Rock Park & Nature Center","8516 Fountain Rock Ct","21793",39.475608825683594,-77.36985778808594
"21801","Salisbury","MD","Salisbury Zoo & Park","755 S Park Dr","21804",38.360651272462796,-75.58175321127243
"21801","Salisbury","MD","Pemberton Park - Bell Island Trail","Plantation Lane","21801",38.34719736274885,-75.64242223726647
"21801","Salisbury","MD","Hebron Ball Park","W. Church Street","21830",38.4229,-75.69435
"21801","Salisbury","MD","Amir's Bus Stop!","not_available","21801",38.36106528341011,-75.60198279421837
"21801","Salisbury","MD","Salisbury","219 Eden St","21804",38.403507232666016,-75.56570434570312
"21801","Salisbury","MD","Leonards Mill Park","2848 Leonards Mill Park Road","21801",38.423184297090344,-75.5654239654541
"21801","Salisbury","MD","Salisbury Skate Park","not_available","21804",38.35501,-75.575788
"21801","Salisbury","MD","Bille Jean Park","429 N Lake Park Dr","21801",38.384395599365234,-75.59988403320312
"21801","Salisbury","MD","Fruitland Football (Redman Field)","S. Brown St.","21826",38.3116531840775,-75.61867927994099
"21801","Salisbury","MD","Indian Village Park","Manoa Blvd","not_available",38.38255103453813,-75.61569685706837
"21801","Salisbury","MD","Schumaker Park","S Schumaker Drive","21804",38.34868117958692,-75.56753570645105
"21801","Salisbury","MD","Frances J. Tilghman Memorial Dog Park","430 North Park Drive","21805",38.3598754668778,-75.57761487059233
"21801","Salisbury","MD","Henry S. Parker Athletic Complex","798 W Naylor Mill Rd.","21801",38.41010958379958,-75.5898135468123
"21801","Salisbury","MD","Misty Creek Park","26483 County Road 429","21830",38.40178258871322,-75.69572767801974
"21801","Salisbury","MD","Delmar Park","State Street","19940",38.4560756231316,-75.57185053825378
"21804","Salisbury","MD","Winterplace Park","6737 Blue Ribbon Rd","21804",38.37791408411164,-75.51391643699164
"21804","Salisbury","MD","Kilburnie Park","5892-5998 Dundee Dr","21804",38.355603708762416,-75.50212294979603
"21804","Salisbury","MD","Salisbury Automotive Company Picnic","6737 Blue Ribbon Rd.","21804",38.377848047857114,-75.51381826400757
"21811","Berlin","MD","Assateague National Island Seashore Entrance Station","Stephen Decatur Memorial Rd","21811",38.20839684520571,-75.15277267768867
"21811","Berlin","MD","robin hood park","not_available","21811",38.363830889556134,-75.14055715331347
"21811","Berlin","MD","Grand Prix Amusements","12424 Ocean Gateway","21842",38.33865881987655,-75.12137032889143
"21811","Berlin","MD","Isle Of Wight Nature Park","13090 St. Martins Neck Rd.","21813",38.379817019538024,-75.13127806813552
"21811","Berlin","MD","Bridgewater Park","11 Bridgewater Rd.","21811",38.376449756377944,-75.14218211174011
"21811","Berlin","MD","Showell Park","11301 Racetrack  Road","21811",38.38762886979116,-75.19287163171843
"21811","Berlin","MD","Assateague Island Ranger Station","Assateague Island National Seashore","21811",38.20850712290149,-75.15292256122984
"21811","Berlin","MD","Homer Gudelsky Park","not_available","21842",38.33010953524858,-75.09855278350125
"21813","Bishopville","MD","Bishopville Park","Bishopville Road","21813",38.4403461280046,-75.19555807113647
"21840","Nanticoke","MD","Roaring Point","20490 Roaring Point Dr","21840",38.260066986083984,-75.90682220458984
"21842","Ocean City","MD","Northside Park","125th St","21842",38.43274903316375,-75.059494972229
"21842","Ocean City","MD","Inlet Park","S 2nd St","21842",38.325383243636175,-75.08810352599079
"21842","Ocean City","MD","Sunset Park","Philadelphia Ave and Bayside","21842",38.32767386294312,-75.09095793053876
"21842","Ocean City","MD","Bayside","On the dock","21842",38.332277665011894,-75.08873355428454
"21842","Ocean City","MD","Fiesta Park","505-599 Lea Ave","21842",38.44723678412742,-75.06083801818853
"21842","Ocean City","MD","OC Skate Park","3rd St & St Louis Ave","21842",38.335670228585606,-75.08629774824509
"21842","Ocean City","MD","North Surf Park","700-718 N Surf","21842",38.449238146225305,-75.06524591434203
"21842","Ocean City","MD","Shore Craft Beer Festival","700 S Philadelphia Ave","21842",38.327706,-75.090802
"21851","Pocomoke City","MD","Pocomoke River State Park","3461 Worcester Hwy","21863",38.13411147866643,-75.4408369517711
"21853","Princess Anne","MD","Deal Island Wildlife Management Area","Deal Island Rd","21821",38.18712749833648,-75.85932722250622
"21853","Princess Anne","MD","Manokin River Park","not_available","21853",38.20611455212846,-75.69846542387597
"21856","Quantico","MD","Tyaskin Park","not_available","21865",38.32716,-75.875869
"21863","Snow Hill","MD","Sturgis Park","not_available","21863",38.17766148366479,-75.39610254275358
"21901","North East","MD","Turkey Point Lighthouse","not_available","21901",39.44963,-76.00851
"21901","North East","MD","NorthBay","11 Horseshoe Point Ln","21901",39.49584953548924,-75.98587315524095
"21901","North East","MD","North East Town Park","End of Walnut St.","21901",39.59342428770484,-75.94709228939927
"21911","Rising Sun","MD","Plumpton Park Zoo","1416 Telegraph Rd","21911",39.70419103922521,-76.0018764484206
"21912","Warwick","MD","Cecilton Park","not_available","21913",39.405092,-75.861915
"21915","Chesapeake City","MD","Pell Gardens","not_available","21915",39.52728209558015,-75.81174659836483
"21915","Chesapeake City","MD","Helen Titter Park","Cecil St.","21915",39.53112,-75.80493
"21921","Elkton","MD","Deerborne","not_available","19702",39.6221,-75.779877
"21921","Elkton","MD","Brentwood Park","not_available","21921",39.567191,-75.805739
"21921","Elkton","MD","Gilpin Manor Memorial Park","Appleton Road","21921",39.601481578441025,-75.82313675568498
"21921","Elkton","MD","Chesland Park Playground","401 Elk Forest Rd","21921",39.55361557006836,-75.82051849365234
"21921","Elkton","MD","Meadow Park","Delaware Ave","21921",39.60731187202195,-75.8218031271514
"21921","Elkton","MD","Elan Park","Barksdale","19711",39.678314,-75.78283
"21921","Elkton","MD","Hatchery Park","Hazel St","21921",39.63465377647025,-75.80538428567881
