"zip","city","state","name","address","postalCode","lat","lon"
"53002","Allenton","WI","Allenton park","not_available","53002",43.420231504029736,-88.33634456606498
"53002","Allenton","WI","Lomira  Firemans Picnic","not_available","not_available",43.506367499999996,-88.3560857
"53003","Ashippun","WI","Ashippun Fireman Park","not_available","53003",43.21525042389925,-88.52618598424144
"53004","Belgium","WI","Waubedonia Park","963 Fredonia Ave","53021",43.469955330470015,-87.95232270997056
"53004","Belgium","WI","Forest Beach Migratory Preserve","4970 Country Club Beach Rd.","53074",43.45650095868627,-87.8110445956951
"53004","Belgium","WI","Fredonia Firemans Park","not_available","53021",43.46992059788361,-87.9523609143102
"53004","Belgium","WI","Village of Belgium Community Park","Main St","53004",43.49975628978046,-87.85024166107178
"53004","Belgium","WI","heritage park","not_available","53004",43.49412536621094,-87.85962677001953
"53005","Brookfield","WI","Endicott Park","Brookfield, WI 53045","53045",43.027649098901854,-88.12854054229848
"53005","Brookfield","WI","Elm Grove Village Park","13600 Juneau Blvd","53122",43.04891496852778,-88.08302719368692
"53005","Brookfield","WI","Wirth Park","2585 Pilgrim Road","53222",43.064655231773614,-88.1088924407959
"53005","Brookfield","WI","Lamplighter Park","3380 Burlawn Pkwy","53005",43.078523454149675,-88.07810917589732
"53005","Brookfield","WI","Three Meadows Park","Round the bend","not_available",43.101122196624495,-88.1163615718884
"53005","Brookfield","WI","Dousman Stagecoach Inn","1075 Pilgrim Road","53005",43.04310092168599,-88.10611878822303
"53005","Brookfield","WI","Lilly Heights Park","1412d Lilly Heights Drive","not_available",43.09513175101668,-88.08786497954365
"53005","Brookfield","WI","Mary Knoll Park","615 S Sunnyslope Rd","53005",43.0239546502394,-88.09250665622903
"53005","Brookfield","WI","Wirth Park South","not_available","53005",43.063980666187675,-88.11096834668444
"53005","Brookfield","WI","Krueger Park","W Golf Pkwy","53005",43.03067622086085,-88.07126926029268
"53005","Brookfield","WI","Kinsey Park","Kinsey Park Drive","53005",43.02318049376642,-88.0767468667266
"53005","Brookfield","WI","valley view soccer field #4","sunny slope rd","not_available",43.025851249694824,-88.08674275875092
"53007","Butler","WI","Butler Frontier Park","13015 W Custer Ave","53007",43.1116837313192,-88.06946520953699
"53010","Campbellsport","WI","Kettle Moraine State Forest","not_available","53010",43.60755435949913,-88.16437349424382
"53010","Campbellsport","WI","Columbus Parc","101-199 Columbus Parc Ct","53010",43.59623085631085,-88.2691360616441
"53010","Campbellsport","WI","Kewaskum Kiwanis Park","Brooklane Dr","53040",43.51902257127061,-88.23892593383789
"53010","Campbellsport","WI","Kewaskum Fireman's Picnic","not_available","53040",43.518458,-88.220846
"53010","Campbellsport","WI","Eden Community Park","200 Reagan Dr","53019",43.687705993652344,-88.3608627319336
"53010","Campbellsport","WI","Dundee Mill & Park","County Road F","53010",43.64953088137128,-88.17755430936813
"53011","Cascade","WI","Nichols Creek State Wildlife Area","County Rd N","53073",43.68658762320971,-88.03426265716553
"53012","Cedarburg","WI","Cedar Creek Park","not_available","53012",43.29531566945749,-87.98398452544743
"53012","Cedarburg","WI","Centennial Park","1800 Cedar St","53024",43.3176326298921,-87.94382213016382
"53012","Cedarburg","WI","Centennial Park","Evergreen Ct","53012",43.30741276415574,-87.99600466878395
"53012","Cedarburg","WI","Lime Kiln Park","2020 South Green Bay Rd.","53024",43.305568555899036,-87.95538425445557
"53012","Cedarburg","WI","Garrisons Glen","not_available","53097",43.27991614255768,-87.94663635118803
"53012","Cedarburg","WI","Mole Creek Park","476 Overland Trail","53024",43.33741760253906,-87.96077728271484
"53012","Cedarburg","WI","Mill Square","1211 Washington St","53024",43.319775,-87.950965
"53012","Cedarburg","WI","Firemen's Park","W65N796 Washington Ave","53012",43.305154047959775,-87.99165407726014
"53012","Cedarburg","WI","Beechwood Park","W53 N225 Pierce Ave","53012",43.28458748913862,-87.9758555485347
"53012","Cedarburg","WI","Wurthmann Park","Washington Ave","53012",43.28830248962233,-87.98527747392654
"53012","Cedarburg","WI","Grafton Lions Park","1121 Keup Rd","53012",43.32101821899414,-87.97657775878906
"53012","Cedarburg","WI","Herman A. Zeunert Park","Lincoln Blvd.","53012",43.28677815955363,-87.98152654635236
"53013","Cedar Grove","WI","Amsterdam Park","Amsterdam Drive","53013",43.558003182460084,-87.79226303100586
"53013","Cedar Grove","WI","Independence Park","Ramaker Avenue","not_available",43.56702144054462,-87.82333374023438
"53013","Cedar Grove","WI","Memorial park","Van Altena Ave.","53013",43.571479213415785,-87.82178384584437
"53014","Chilton","WI","Memorial Park","not_available","53014",44.023631446100815,-88.15477135775161
"53014","Chilton","WI","new holstein picnic","not_available","53061",43.95029830932617,-88.09265899658203
"53014","Chilton","WI","Nennig  Park","Chilton,WI,53014","53014",44.039670304015154,-88.16933091807468
"53014","Chilton","WI","Stockbridge Legion Firemen Park","197 Wisconsin 55","53014",44.07040539925933,-88.30004485794161
"53014","Chilton","WI","Morrissey Park","509 School Court","53014",44.02695083618164,-88.15962982177734
"53014","Chilton","WI","Riverside Park","139 E Grand St.","53014",44.03340148925781,-88.15840911865234
"53014","Chilton","WI","Civic Park","Lincoln","not_available",43.95286855447123,-88.09471044685833
"53015","Cleveland","WI","Fischer Creek Conservation Area","County Highway LS","53015",43.939761185200936,-87.72069371812144
"53017","Colgate","WI","Lowe Lake","1032 Emerald Dr","53027",43.22526550292969,-88.31529235839844
"53018","Delafield","WI","Lapham Peak Unit, Kettle Moraine State Forest","W329N846 County Road C","53018",43.04042827935571,-88.39968813216734
"53018","Delafield","WI","Nagawicka Lake","not_available","53029",43.070350388603075,-88.38579302105185
"53018","Delafield","WI","Firemen's Park","not_available","53018",43.06161389125079,-88.39462280273438
"53018","Delafield","WI","Oakwood Community Park Disc Golf Course","3000 Oakwood Road","not_available",43.07813543837215,-88.3737229569283
"53018","Delafield","WI","Del-Town Park","Golf Road","53018",43.05423064018111,-88.35957768674903
"53020","Elkhart Lake","WI","Sheboygan Co Broughton Marsh Park","not_available","53020",43.84883319316059,-88.0470945934299
"53020","Elkhart Lake","WI","Elkhart Lake Village Square Park","Arno Way","53020",43.833632901306785,-88.01762223243713
"53020","Elkhart Lake","WI","Kiel Soccer Complex","Mirrors Rd","53042",43.906316432623676,-88.02470789012288
"53020","Elkhart Lake","WI","June Vollrath Park","Highway 67","53020",43.84112468816538,-88.01345534228426
"53020","Elkhart Lake","WI","Fireman's Park","Fireman's Park","53020",43.82737612719367,-88.01501796859499
"53021","Fredonia","WI","Hawthorne Hills County Park","4720 County Road I","53080",43.44878005981445,-87.97853088378906
"53021","Fredonia","WI","Newburg Firemans Park","not_available","53095",43.43348400076047,-88.04497915906914
"53022","Germantown","WI","Spazzland","not_available","53022",43.219938271201784,-88.10506964931814
"53022","Germantown","WI","Firemen's Park - Germantown","W162N11870 Park Ave","not_available",43.23351007854774,-88.10846328735352
"53022","Germantown","WI","Dheinsville Settlement","not_available","53076",43.250158871655124,-88.1419700070411
"53022","Germantown","WI","Friedenfeldt Soccer Field 3","Country Aire Drive","not_available",43.226098461006615,-88.07946292354723
"53022","Germantown","WI","Alt Bauer Park","Old Farm Rd","53022",43.21121584328235,-88.11684241643545
"53022","Germantown","WI","Friedenfeld Park","Country Aire Dr","53022",43.22614639995425,-88.0795917575998
"53022","Germantown","WI","Germantown Little League Park","W172N12125 Division Rd","53022",43.2379035949707,-88.12342834472656
"53022","Germantown","WI","Gehlâ€™s Performing Arts Pavilion","Park Ave","53022",43.234702,-88.109785
"53022","Germantown","WI","Menomonee River Parkway Multi-Use Trail","Shady Ln","53051",43.19250268788651,-88.12447467582881
"53023","Glenbeulah","WI","Wade House State Historic Site","W7965 State Hwy 23","53026",43.777545256724956,-88.08968736097947
"53024","Grafton","WI","Pine Street Park","not_available","53024",43.31074021608154,-87.94683616356798
"53027","Hartford","WI","Glacier Hills County Park","Freiss Lake Road","53076",43.24753324178457,-88.28427024889272
"53027","Hartford","WI","Woodlawn Park","1000-1098 N Wacker Dr","53027",43.330765746017036,-88.38685512542725
"53027","Hartford","WI","Slinger Fireman's Park","not_available","53086",43.326867,-88.288241
"53027","Hartford","WI","Washington County Family Park","6375 Clover Road","53027",43.33868,-88.351326
"53027","Hartford","WI","Veterans Memorial Park","not_available","53027",43.307349091804774,-88.37951435505018
"53027","Hartford","WI","Homestead hollow county park","1664 Friess Lake Rd","53033",43.24754333496094,-88.2842025756836
"53029","Hartland","WI","Nashotah Park","not_available","53058",43.11192987811511,-88.40596386212363
"53029","Hartland","WI","Nashotah Dog Park","W330N5113 Co Rd C","not_available",43.11196164216161,-88.40557076775823
"53029","Hartland","WI","Dickten Park","Ramus Rd","53058",43.09785815098514,-88.39830498048794
"53029","Hartland","WI","Lakefront Park","Wisconsin Avenue","53072",43.084847465550205,-88.26523528156946
"53029","Hartland","WI","Bristlecone Pines","704 N Ponderosa Dr","53029",43.114432283581166,-88.32567993351124
"53029","Hartland","WI","Nixon Park","Maple Ave","53029",43.10164877987013,-88.34652807941727
"53029","Hartland","WI","Centennial Park","Co Rd K","53029",43.11899800744731,-88.33517760163237
"53029","Hartland","WI","Monches Recreational Park","W300N9223 County Road E","53017",43.18644075607432,-88.3414816818621
"53029","Hartland","WI","Penbrook Park","333 Hartwood Ln","53029",43.092951,-88.34158599999999
"53029","Hartland","WI","Carl Schurz German Park","N67W33275 County Road K","53029",43.14213943481445,-88.40312957763672
"53029","Hartland","WI","Stone Bank Park","not_available","53066",43.14732857398574,-88.4126411822536
"53029","Hartland","WI","Castle Park","512-518 Oxford Dr","53029",43.09189894130322,-88.3381423887587
"53029","Hartland","WI","Carl Schurz Forest","Hwy Q","53089",43.1379589,-88.2968683
"53029","Hartland","WI","Karolek's","W287N4080 Highland Ct","53072",43.091577475771096,-88.31636333259301
"53029","Hartland","WI","Monches Park","W300 N9223 County Road East","53029",43.152413,-88.374671
"53029","Hartland","WI","West Park","N26w27479 Prospect Ave","53072",43.06528229353236,-88.29402923583984
"53032","Horicon","WI","Horicon Kiwanis Park","not_available","53032",43.44170650987051,-88.63008819540832
"53032","Horicon","WI","Ledges Park","N7650 County Road T West","53032",43.471857531693665,-88.5834288597107
"53032","Horicon","WI","Juneau City Park","not_available","53039",43.40404452399504,-88.70234917535456
"53032","Horicon","WI","Ledge County Park","N7403 Park Rd","53032",43.46076965332031,-88.58142852783203
"53032","Horicon","WI","Nitschke Mounds County Park","W5934 County Rd E","53922",43.475379943847656,-88.6971435546875
"53034","Hustisford","WI","Neider Park","Neider Ln","not_available",43.34810086658227,-88.6145664180452
"53034","Hustisford","WI","Hustisford Lions Park","not_available","53034",43.34511136647248,-88.5993501284613
"53035","Iron Ridge","WI","Neighborhood Nature","Co-Rd MM","not_available",43.351733,-88.528063
"53035","Iron Ridge","WI","Iron Ridge Fireman's Park","not_available","53035",43.40074838036983,-88.53450674349261
"53036","Ixonia","WI","Harnischfeger Park","W3048 Crawfish Rd","53036",43.214908599853516,-88.5457992553711
"53036","Ixonia","WI","Ixonia Park","Park St.","53036",43.146803631815395,-88.5986570634576
"53036","Ixonia","WI","maranatha picnic","not_available","53036",43.212181091308594,-88.54427337646484
"53036","Ixonia","WI","Blain Street Park","Blain Street","53066",43.114666821824045,-88.51505762210984
"53037","Jackson","WI","Jackson Area Community Center","N165 W20330 Hickory Lane","53037",43.31941631796707,-88.16128382024472
"53037","Jackson","WI","Hickory Lane Park","N165w20290 Hickory Lane","53037",43.317806243896484,-88.16043090820312
"53037","Jackson","WI","Jackson Splash Park","Jackson Dr","53037",43.31840263124954,-88.16030502319336
"53037","Jackson","WI","Friends Of Nature Fist Ball Park","3792 Mayfield Rd","53037",43.328365325927734,-88.19864654541016
"53037","Jackson","WI","Jackson Park","N168W20733 Main St","53037",43.32627616227036,-88.16198744523496
"53038","Johnson Creek","WI","Johnson Creek Land Fill","not_available","53094",43.092383738944044,-88.75257781156648
"53038","Johnson Creek","WI","Firemens Park","not_available","53038",43.084973,-88.774445
"53039","Juneau","WI","Beaver Dam Disc","Beaver Dam, WI","53916",43.455930896109884,-88.80170946674669
"53039","Juneau","WI","Crystal Lake Park","W8064 State Road 33","53916",43.45610996273265,-88.80171597442065
"53040","Kewaskum","WI","Lizard Mound County Park","not_available","53090",43.46479192397754,-88.14121238559352
"53042","Kiel","WI","Oschwald Park","100 South Park Lane","54232",44.00729928323029,-87.92767521879651
"53042","Kiel","WI","Hingiss Park","225 River Terrace","53042",43.91008343666958,-88.03326842602392
"53044","Kohler","WI","Rochester Park","not_available","53085",43.72513410574553,-87.80419581797985
"53044","Kohler","WI","Roosevelt Park","not_available","53044",43.73310748298504,-87.77707070101962
"53044","Kohler","WI","River Wildlife","1116 W Riverside Dr","53044",43.739749240299965,-87.78013557995149
"53045","Brookfield","WI","Fox Brook Park","2925 N Barker Rd","53045",43.0737710700941,-88.16947853689672
"53045","Brookfield","WI","Imperial Estate Park","not_available","53045",43.100192,-88.137572
"53045","Brookfield","WI","Mitchell Park","19900 River Road","53005",43.07685132926131,-88.15934406571252
"53045","Brookfield","WI","Brookfield Indoor Soccer Complex","19485 W Lisbon Rd","53045",43.103955581106156,-88.15367814576693
"53045","Brookfield","WI","Weston Hills Park","18801 Davidson Rd","53045",43.02407219260407,-88.15084130636714
"53045","Brookfield","WI","Wray Park","Mary Lynn Dr","53045",43.05048192551211,-88.17307233810425
"53045","Brookfield","WI","Brook Park","Brook Park Dr","53045",43.045017414631225,-88.1713077968005
"53045","Brookfield","WI","Voigt Soccer Park","19355 W Lisbon Rd","53045",43.101985577175384,-88.15279483795166
"53045","Brookfield","WI","Rolling Meadows Park","18385-18671 Tamarack Dr","53045",43.047611856538715,-88.14494795221519
"53046","Lannon","WI","Menomonee Park","not_available","53051",43.15652114373879,-88.17406399673963
"53046","Lannon","WI","Camp Pow Wow","Park Dr","53051",43.16206387447557,-88.17710036073073
"53046","Lannon","WI","Lannon County Park","W220 N7884 Town Line Rd","53051",43.15792278952063,-88.1742525100708
"53050","Mayville","WI","Zeigler Park","630-898 Kekoskee Street","53050",43.507522679431375,-88.55413913726807
"53051","Menomonee Falls","WI","Lime Kiln Park","South of Main St","53051",43.17908813546803,-88.11389161149727
"53051","Menomonee Falls","WI","Mill Pond Park","At Main St and Grand Ave","53051",43.179642887432706,-88.11469217822327
"53051","Menomonee Falls","WI","Willow Wood Park","Wildwood Drive","53051",43.11708677422128,-88.09876441955566
"53051","Menomonee Falls","WI","Lepper Dam - Menomonee Falls","N88W16480 Main St","53051",43.17931881230374,-88.1146731069047
"53051","Menomonee Falls","WI","Kiwanis Park","menomonee ave","53051",43.1659039765481,-88.13731182336389
"53051","Menomonee Falls","WI","Waukesha Z Airsoft LLC.","Memorial Drive","53051",43.122039399664324,-88.17932977960648
"53051","Menomonee Falls","WI","Pitching","Crestview","53051",43.108001708984375,-88.14704132080078
"53051","Menomonee Falls","WI","Weaver Park","not_available","53089",43.115098372109365,-88.12061819045194
"53051","Menomonee Falls","WI","The Northwood Game Preserve","W145 N7377 Northwood Dr","53051",43.151602809626084,-88.0913408336917
"53051","Menomonee Falls","WI","Dreamland<3","amsterdam","53051",43.157250065842064,-88.0881858894361
"53063","Newton","WI","Newton Firemans Park","6103 Newton Rd","53063",43.99228286743164,-87.73289489746094
"53063","Newton","WI","Newton Park","not_available","53063",44.02302220641117,-87.7414202234717
"53065","Oakfield","WI","Oakfield Tennis Courts","W White St","53065",43.68369903385116,-88.54410524047749
"53065","Oakfield","WI","Acorn Park","230 S Main St","53065",43.6807861328125,-88.54804992675781
"53066","Oconomowoc","WI","Park View Place","700 Parkview Drive","53066",43.133476127680126,-88.48656892776489
"53066","Oconomowoc","WI","Corey Park","not_available","53118",43.02489784707191,-88.46323199646773
"53066","Oconomowoc","WI","Sullivan Park","not_available","53178",43.014745,-88.588377
"53066","Oconomowoc","WI","Three Pillars Senior Living Communities | Woods & Walking Path","410 N Main St","53118",43.020210999999996,-88.47061
"53070","Oostburg","WI","Veteran's Park","not_available","53070",43.62584651169823,-87.80200643470211
"53072","Pewaukee","WI","Pewaukee Village Park","not_available","53072",43.08439618114076,-88.25911496142898
"53072","Pewaukee","WI","Elmhurst Park","not_available","53188",43.043562129601845,-88.32476366145812
"53072","Pewaukee","WI","Liberty Park","400 Concord Road","not_available",43.07750871578119,-88.23128700256348
"53072","Pewaukee","WI","Pop Up Park","Water St","53202",43.053730678573686,-88.1957277344396
"53073","Plymouth","WI","Rotary Park","not_available","53073",43.7416387216471,-87.96957424225845
"53073","Plymouth","WI","Waldo Village Park","not_available","53093",43.67438766535165,-87.93648421929211
"53073","Plymouth","WI","Meyer Nature Park","200 Daleview Drive","53073",43.74335079868569,-87.98470659077388
"53073","Plymouth","WI","Veterans Memorial Trail","Eastern/Mill","53073",43.74740005598603,-87.97220507681706
"53074","Port Washington","WI","Upper Lake Park","Lake Park","not_available",43.3962544833735,-87.86436080932617
"53074","Port Washington","WI","Fisherman's Park","not_available","53074",43.38650283909283,-87.8671190749547
"53074","Port Washington","WI","Veterans Memorial Park","430 N. Lake St.","53074",43.39121461677359,-87.86631839433193
"53074","Port Washington","WI","Grady Park","Hwy 33","53080",43.38219191938075,-87.941548607713
"53074","Port Washington","WI","ehlers park","not_available","53080",43.4161356199845,-87.93776233749487
"53074","Port Washington","WI","Harborview Park","250 N Milwaukee St","53074",43.38770652241063,-87.87285780395261
"53074","Port Washington","WI","Triangle Park","200-298 E Green Bay Ave","53080",43.3812023,-87.93942035
"53075","Random Lake","WI","Burr Oak Park","not_available","53075",43.551825,-87.94908
"53079","Saint Cloud","WI","riverside park","Hwy G","53079",43.81381939998658,-88.16544979341067
"53080","Saukville","WI","Tendick Nature Park","3919 HWY O","53080",43.41706716437055,-87.948421470801
"53080","Saukville","WI","Saukville Quade Park","S0w S. Claremont Rd.","53080",43.38305420943256,-87.96008258815091
"53081","Sheboygan","WI","Cleveland Park","2300 Cleveland Ave","53081",43.75889052197057,-87.7411431338314
"53081","Sheboygan","WI","Kuene Court","1250 Kuene Court","53081",43.764417311964145,-87.71761519269707
"53081","Sheboygan","WI","Deland Park","715 Broughton Dr","53081",43.75452955841319,-87.70322994066692
"53081","Sheboygan","WI","General King Park","1601 S. 7th St.","53081",43.73659098175997,-87.71101490025652
"53081","Sheboygan","WI","Kiwanis Park","509 Kiwanis Park Dr","53081",43.75757291713003,-87.74112883338962
"53081","Sheboygan","WI","Roosevelt Park","mead ave","53081",43.72741336656076,-87.71855801328995
"53081","Sheboygan","WI","Vollrath Park","2001 N 3rd St","53081",43.76580702086569,-87.70352346457824
"53081","Sheboygan","WI","Lakeview park","Wilson ave","not_available",43.72119800939321,-87.70870072219967
"53081","Sheboygan","WI","Veterans Memorial Park","not_available","53081",43.73338447131813,-87.72844400255812
"53081","Sheboygan","WI","End Park","not_available","53083",43.771182009178204,-87.71942500603569
"53081","Sheboygan","WI","Optimist Park","2000 Carmen Avenue","53081",43.71374724974015,-87.73125051192883
"53081","Sheboygan","WI","The Shack (Disk Golfing)","100-198 Park Ave","53081",43.765675775874286,-87.70250644608838
"53081","Sheboygan","WI","Sheboygan Softball","2213 New Jersey Ave","53081",43.745208,-87.737229
"53081","Sheboygan","WI","Indian Mound Park","5000 S 9th St","53081",43.69775820802533,-87.71862072456912
"53083","Sheboygan","WI","Riverside/Millersville Park","1535 S Wisconsin Dr","53083",43.81766128540039,-87.82586669921875
"53083","Sheboygan","WI","North East Park","N. 6th St.","53081",43.77792690343773,-87.72276679492352
"53083","Sheboygan","WI","Pigeon River Park","4001 Lakeshore Road","53083",43.787357330322266,-87.7284927368164
"53083","Sheboygan","WI","Cole Park","N. 4th Street","53081",43.761149,-87.706043
"53083","Sheboygan","WI","Jaycee Quarry Park","3401 Calumet Drive","53081",43.78162934357166,-87.74625778198242
"53085","Sheboygan Falls","WI","Settlers Park","236 Broadway St","53085",43.7304900180206,-87.8123136814555
"53085","Sheboygan Falls","WI","River Park Lagoon","200-298 1st St","53085",43.72793185563884,-87.81639360687383
"53086","Slinger","WI","Heritage Trails County Park","Slinger, WI 53086","53086",43.30514923009986,-88.26634711076791
"53089","Sussex","WI","Sussex Village Park","W244N6100 Weaver Dr","53089",43.129841549526255,-88.23199559697747
"53089","Sussex","WI","The Grove At Village Park","not_available","53046",43.132199,-88.232691
"53089","Sussex","WI","Armory Park","Armory Dr","53089",43.12022525309284,-88.22289340378526
"53089","Sussex","WI","Melinda Weaver Park","W239 N6046 Maple Ave","53089",43.127098,-88.223493
"53089","Sussex","WI","Lions Park","Main St.","53089",43.134611666666665,-88.21583588333333
"53090","West Bend","WI","Riverside Park","Kilborn Avenue","53095",43.42054523465899,-88.17185465537976
"53090","West Bend","WI","Regner Park","800 North Main Street","53090",43.43422141166398,-88.1897832926929
"53090","West Bend","WI","Silverbrook Parkway","Silverbrook Drive","not_available",43.42246627807617,-88.1935806274414
"53090","West Bend","WI","Lac Lawrann Conservancy","300 Schmidt Rd","53090",43.43905000770521,-88.17365451514989
"53090","West Bend","WI","Old Settlers Park","120 N Main St","53095",43.42484144890824,-88.18334296687462
"53090","West Bend","WI","Wingate Park","Wellington Dr","53090",43.43092802589482,-88.14311531397978
"53090","West Bend","WI","Enchantment in the Park","800 North Main Street","not_available",43.43227005004883,-88.19160461425781
"53090","West Bend","WI","wb skate park","Main street","53090",43.43027537163768,-88.1862181443246
"53090","West Bend","WI","River Overlook","Main St","53090",43.444126934032056,-88.18317159272416
"53092","Mequon","WI","Thiensville Village Park","350 Elm St","53092",43.229625733161576,-87.9759413305511
"53092","Mequon","WI","Virmond Park","10606 N Lake Shore Dr","53092",43.21109299688451,-87.89811887337619
"53092","Mequon","WI","Highland Woods - Wilmeth Way Walking Trail","12701 N Cedarburg Rd","53092",43.250306436916325,-87.98492655536533
"53092","Mequon","WI","Riverview Park","not_available","53092",43.231886953801286,-87.96034117504315
"53092","Mequon","WI","River Barn Park","9808 N Cedarburg Rd","53092",43.196298839474736,-87.96488618820835
"53092","Mequon","WI","Katherine Kearney Carpenter Park","801 W Zedler Ln 100N","not_available",43.19851119066269,-87.91827544037638
"53092","Mequon","WI","Villa Grove Park","Villa Grove Road","53092",43.23521886509149,-87.95538897514663
"53092","Mequon","WI","Donald J Molyneux Park","140 S Main St","53092",43.22938,-87.983701
"53092","Mequon","WI","Fairy Chasm Park","not_available","53217",43.19230945503586,-87.89364372725429
"53092","Mequon","WI","Scout Park","11949 n laporte rd","not_available",43.237480842396664,-87.94815346812443
"53094","Watertown","WI","Union Park","Lafayette St","53094",43.19176477,-88.73319965
"53094","Watertown","WI","Grinwald Park","County Hwy A","53094",43.18138373871938,-88.74780007315864
"53094","Watertown","WI","Tivoli Island","101 Tivoli Dr","53094",43.18795394897461,-88.70636749267578
"53095","West Bend","WI","Washington County Fair Park & Conference Center","3000 Pleasant Valley Rd (County Hwy PV)","53095",43.35651415386738,-88.18654775619507
"53095","West Bend","WI","Washington country park pavilion","3000 Pleasant Valley Road","53002",43.353660583496094,-88.18595123291016
"53095","West Bend","WI","West Bend Riverside Park Landing #1","Roosevelt D","53090",43.4177586140137,-88.17013567272139
"53097","Mequon","WI","Mee-Kwon Park Sledding Hill","6333 W Bonniwell Rd","53097",43.26176768808447,-87.98950252850848
"53097","Mequon","WI","Lemke Park","10301 W Donges Bay Road","53097",43.20475949888879,-88.03735225095217
"53098","Watertown","WI","Riverside Park","900-914 Labaree St","53098",43.1997711456594,-88.71208842158376
"53098","Watertown","WI","the park with all the ducks","not_available","53098",43.20002092758918,-88.72566599486834
"53098","Watertown","WI","Lincon Park","501-599 Union St","53098",43.19892372276583,-88.73666928727562
"53098","Watertown","WI","Fannie P Lewis","513 Water St","53098",43.200341479870296,-88.72599033620622
"53103","Big Bend","WI","Heather Ridge Park","Scotland Drive","53103",42.90729901661077,-88.24677667203171
"53103","Big Bend","WI","Miniwalkin Park Mukwonago","not_available","53103",42.898719,-88.221656
"53104","Bristol","WI","Pringle Nature Center","9800 160th Ave","53104",42.533335,-88.007047
"53104","Bristol","WI","Salem Sub Division Park","not_available","53104",42.547104,-88.061889
"53105","Burlington","WI","Lance Park","not_available","53181",42.5297308314991,-88.25435781441789
"53105","Burlington","WI","Riverside Park","Congress St.","53105",42.68216567329054,-88.2702905494971
"53105","Burlington","WI","Munster Orchard","not_available","53105",42.576177,-88.2494
"53105","Burlington","WI","East Troy Town Square","not_available","53120",42.78534369173513,-88.40565128135404
"53105","Burlington","WI","Fox River Park","County Hig. F","53170",42.53885159141867,-88.17421159963088
"53105","Burlington","WI","Ten Club Park","S. 1st St.","not_available",42.76190843333333,-88.21235604
"53105","Burlington","WI","Waterford Pond","not_available","53185",42.765895,-88.217189
"53105","Burlington","WI","Park Small","101-199 Sunset Ct","53181",42.53403563,-88.25908385
"53105","Burlington","WI","Harold A. Fritz Veterans Park","1201 Townline Rd","53147",42.58340057089136,-88.40671688830163
"53105","Burlington","WI","timber ridge lodge and waterpark","7020 Grand Geneva Way","53147",42.600868225097656,-88.39981079101562
"53105","Burlington","WI","McCanna Park","Highway 11","53105",42.67848482694827,-88.2591909955257
"53105","Burlington","WI","Randall township park","not_available","53128",42.539896,-88.281071
"53105","Burlington","WI","Fire Pit","Woodbine Rd.","53157",42.549373094046096,-88.34994734330587
"53105","Burlington","WI","Wagner Park @ Echo Lake","432 W Chestnut St","53105",42.68450927734375,-88.28490447998047
"53105","Burlington","WI","Bushnell Park","Bushnell Rd.","53105",42.671771,-88.261438
"53105","Burlington","WI","New Munster Park","6813 349th Ave","53105",42.573735,-88.23276
"53105","Burlington","WI","Riverview Park","1598 Mill Street","not_available",42.647132873535156,-88.35797882080078
"53108","Caledonia","WI","Gorney Park","Gorney Park","53108",42.83308252391672,-87.89188516951432
"53108","Caledonia","WI","nhpa","3085 76th St","53126",42.79006576538086,-88.01319122314453
"53110","Cudahy","WI","Sheridan Park","4800 S Lake Dr","53110",42.9588723289968,-87.84740924835205
"53110","Cudahy","WI","Warnimont Golf Course","5400 S Lake Dr","53110",42.94756362108695,-87.84544292117374
"53110","Cudahy","WI","Immigrant Park","not_available","53110",42.95913655168366,-87.86379639674968
"53110","Cudahy","WI","Pulaski Park","5400 South Swift Avenue","53110",42.94651299778456,-87.85490594466512
"53110","Cudahy","WI","GMGO - Greater Milwaukee Grill Out hosted by DMPN","4800 S. Lake Dr.","53110",42.95743942260742,-87.84886169433594
"53110","Cudahy","WI","Warnimont Archery","Warnimont Park","53207",42.949760180512584,-87.8454525147052
"53114","Darien","WI","Allens Grove Park","Front St","53114",42.57939037,-88.76285725
"53114","Darien","WI","Cornfest","not_available","53114",42.60133252677502,-88.7149143094223
"53114","Darien","WI","Turtle Creek Elementry School Playground","not_available","53115",42.62964608327322,-88.66925372851203
"53114","Darien","WI","Carvers Roehl park","not_available","53534",42.57289359890826,-88.7645033412985
"53114","Darien","WI","Gordon Yadon Park","1407 Whispering Pines Dr","53115",42.630958,-88.671462
"53115","Delavan","WI","Elkhorn Sunset Park","451 Devendorf St","not_available",42.6684422329984,-88.55581597365757
"53115","Delavan","WI","Lions Park","not_available","53191",42.583783371688924,-88.54297695076176
"53115","Delavan","WI","Kirkpatrick Park","4098 South Shore Dr","53115",42.583103,-88.62782
"53115","Delavan","WI","Walworth County Veteran's Park","Old Courthouse Square","53121",42.66407202509605,-88.54602184829169
"53115","Delavan","WI","Elkhorn Recreation Center","200 Devendorf St","53121",42.667659759521484,-88.55638122558594
"53115","Delavan","WI","Delavan Memorial Arboretum","455-575 N Terrace St","53115",42.63815175450173,-88.64971552234454
"53118","Dousman","WI","Ottawa Lake Recreation Area","S59 W36530 Cty Rd ZZ","53118",42.936655933641,-88.47845908922201
"53118","Dousman","WI","North Prairie Veterans Park","not_available","53153",42.934886,-88.402237
"53118","Dousman","WI","Cory Park","170 S Main St","53118",43.01163864135742,-88.47251892089844
"53119","Eagle","WI","Kettle Moraine Southern Unit","S91 W39090","53119",42.87237414989255,-88.52614347903722
"53119","Eagle","WI","Eagle Town Park","not_available","53119",42.87654,-88.46613
"53121","Elkhorn","WI","Park","N. Heather Dr.","53121",42.686064,-88.53284
"53125","Fontana","WI","The Fontana Fen","599-625 S Main St","53125",42.545102553190596,-88.58471792710769
"53126","Franksville","WI","Caledonia - Mt Pleasant Park ( Franksville Park )","9600-9662 Northwestern Ave","53126",42.75857268344664,-87.90332653704468
"53126","Franksville","WI","Renak-Polak Maple-Beech Woods Nature Park","East River Rd","53402",42.808641037908224,-87.86502599716185
"53126","Franksville","WI","Playground Of Fun","not_available","53126",42.829892,-88.07161
"53126","Franksville","WI","Beaumont Park","not_available","53139",42.7423785953677,-88.1107680804994
"53126","Franksville","WI","1888 Bohemian Schoolhouse","5 Mile Rd","not_available",42.799642508934255,-87.87211940976884
"53126","Franksville","WI","Smolenski Park","450","53406",42.73306621870206,-87.88283599769991
"53128","Genoa City","WI","Veterans Park","Hwy H","53128",42.50531101025872,-88.33356941620454
"53129","Greendale","WI","Scout Lake","5902 W Loomis Rd","53221",42.93871101299821,-87.98794378593632
"53129","Greendale","WI","84th & Grange","not_available","53129",42.94517125296534,-88.01826729056305
"53129","Greendale","WI","Greendale Park Community Center","6200 South 76th Street","53129",42.932363001596464,-88.00745281660917
"53129","Greendale","WI","Daffodil Park","5636 Broad St","53129",42.941409006565976,-87.99482569507093
"53129","Greendale","WI","Creekwood Park","5065 S 43rd St.","53220",42.953887939453125,-87.97073364257812
"53129","Greendale","WI","Trimborn Farm","8881 W Grange Ave","53129",42.944494061739206,-88.02371892708025
"53129","Greendale","WI","pioneer park","7000 Northway, Greendale, WI 53129","53129",42.94431822002388,-88.0010479534006
"53129","Greendale","WI","""The"" Park","5551-5599 Gardenway","53129",42.94297635555267,-88.01986992359161
"53129","Greendale","WI","Milwaukee Repeater Club Field Day Location","6352-6434 S 92nd St","53132",42.92442155,-88.02780829
"53130","Hales Corners","WI","Hales Corners Park","5765 S New Berlin Rd","53130",42.93991201038262,-88.06053932495499
"53130","Hales Corners","WI","Wehr Nature Center","9701 W College Ave","53132",42.93074066687489,-88.03415536880493
"53130","Hales Corners","WI","Whitnall Park Picnic Area 6","not_available","53130",42.9338779326372,-88.03722807001186
"53130","Hales Corners","WI","Big Red Barn","Whitnall Park","not_available",42.92907542589342,-88.03998095526917
"53132","Franklin","WI","Franklin Field","7035 S Ballpark Dr","53132",42.917912,-88.015138
"53132","Franklin","WI","Whitnall Park","5879 S 92nd St","53130",42.92601152664274,-88.03361892700195
"53132","Franklin","WI","Whitnall Park Waterfall","Whitnall Park Dr","53132",42.92661526451944,-88.03004553394925
"53132","Franklin","WI","Grobschmidt Park","not_available","53132",42.92758997103659,-87.95777911246687
"53132","Franklin","WI","The Park On 68th","7744-7826 S 68th St","53132",42.90438425702506,-87.99925562334244
"53132","Franklin","WI","Croatian Park","9100 S. 76th Street","53132",42.87911784416635,-88.00798332728694
"53132","Franklin","WI","Lions Legend Park","8050 S Legend Dr","53132",42.89930163132927,-88.02720169899476
"53132","Franklin","WI","Franklin Woods Nature Center","3723 W Puetz Rd","not_available",42.886511967582706,-87.96292949726892
"53132","Franklin","WI","HWY I94","not_available","53154",42.84642462431559,-87.9528624235599
"53132","Franklin","WI","Veron Franklin Park","Ryan Rd","53132",42.8770074,-87.98218755
"53139","Kansasville","WI","Kansasville Veterans Memorial Wayside Park","24727 Durand Ave","53139",42.68856430053711,-88.13837432861328
"53139","Kansasville","WI","Ricahrd Bong Recreation Area","26313 Burlington Rd","53139",42.63612747192383,-88.12398529052734
"53140","Kenosha","WI","Civic center park","Sheridan rd","not_available",42.58395848259819,-87.82220618130862
"53140","Kenosha","WI","Library Park","700-748 61st St","53140",42.58096497817766,-87.81954252204513
"53140","Kenosha","WI","Wolfenbuttel Park","5901 3rd Ave.","53140",42.58086242230785,-87.81431553284185
"53140","Kenosha","WI","Pennoyer Park","not_available","53140",42.60551184350623,-87.81940813506118
"53140","Kenosha","WI","Harbor Park","5501 Ring Road","53140",42.5871108131366,-87.80884310385316
"53140","Kenosha","WI","Simmons Island Park","5001 4th Avenue","53140",42.592202104070395,-87.81744027973448
"53140","Kenosha","WI","smoking garden","3415 Sheridan Rd","53140",42.606608751133265,-87.82224826796161
"53140","Kenosha","WI","Washington Park & Velodrome","Washington Rd","53140",42.599816184949695,-87.83169808557531
"53140","Kenosha","WI","Petretti Park","1903 16th Ave","53144",42.621007,-87.82863499999999
"53140","Kenosha","WI","Veterans Memorial Park","625 52nd St","53140",42.58738327026367,-87.82071685791016
"53140","Kenosha","WI","Alford Park South","1831-1899 Sheridan Rd","53140",42.623706642686656,-87.82597822920465
"53140","Kenosha","WI","the hole","not_available","53144",42.6055339473142,-87.84735199360007
"53140","Kenosha","WI","Hobbs Park","4500 30th Ave","53144",42.595165,-87.846586
"53140","Kenosha","WI","Eichelman Park","not_available","53143",42.60493971507144,-87.82074238805865
"53142","Kenosha","WI","Tower Line Park","6651 57th Ave","53142",42.57444381713867,-87.875732421875
"53142","Kenosha","WI","Newman Park","7611 35th Avenue","53142",42.56399303033083,-87.84999376574403
"53142","Kenosha","WI","Lake Andrea","9900 Terwall Ter","53158",42.52666529095078,-87.91889567476188
"53142","Kenosha","WI","Gangler Park","not_available","53142",42.556647,-87.888043
"53142","Kenosha","WI","Roosevelt Park","6853 34th Avenue","53142",42.57143150180801,-87.84866623251857
"53142","Kenosha","WI","Bullamore Park","6800 36th Ave","53142",42.57244515252806,-87.85273682693301
"53142","Kenosha","WI","Black Jacket At The Park","6321 48th Ave","53142",42.577754999999996,-87.866013
"53142","Kenosha","WI","Southwest Library playground","7916 38th Ave","53143",42.56444508970499,-87.85419453986455
"53142","Kenosha","WI","Schulte Park","4400 87th Place","53142",42.547645568847656,-87.86050415039062
"53142","Kenosha","WI","Isetts Park","8801 32nd Avenue","53142",42.54594802856445,-87.845947265625
"53142","Kenosha","WI","Leona's Rolling Meadows","6125 83rd Ave","53142",42.579865000000005,-87.908436
"53142","Kenosha","WI","City of Kenosha Parks Department","3617 65th St","53142",42.575483,-87.852183
"53142","Kenosha","WI","Judy's","5900 93rd St","53158",42.537968,-87.877854
"53142","Kenosha","WI","Elmwood Park","3321 78th Street","53142",42.56224822998047,-87.84896850585938
"53143","Kenosha","WI","Southport Park","7501 2nd Avenue","53140",42.56132194105917,-87.81284188269252
"53143","Kenosha","WI","Kemper Center","6501 3rd Ave","53143",42.57564114913122,-87.81421953104228
"53143","Kenosha","WI","Anderson Park","8730 22nd Avnue","53143",42.5462197526781,-87.83908367156982
"53143","Kenosha","WI","Lincoln Park","6900 18th Avenue","53140",42.56939945322546,-87.83209633709585
"53143","Kenosha","WI","Baker Park","835 65th Street","53140",42.57496643066406,-87.82042694091797
"53143","Kenosha","WI","Red Arrow Park","1700 84th Place","53143",42.55235062905817,-87.82878211561014
"53143","Kenosha","WI","KASL Soccer Fields","8701-8899 30th Ave","53142",42.54620292184579,-87.84136068777369
"53143","Kenosha","WI","Sunnyside  Park","8216 26th Avenue","53143",42.5560193498209,-87.84112082704476
"53144","Kenosha","WI","Petrifying Springs County Park","761 Green Bay Road","53144",42.64625279301375,-87.8687012162196
"53144","Kenosha","WI","Charles Nash Park","5909 56th Street","53142",42.58382322965466,-87.87866263021763
"53146","New Berlin","WI","Players Park Softball Fields","not_available","53146",42.95303676329335,-88.1376752107244
"53146","New Berlin","WI","Park Arthur","S63W17833 College Avenue","53150",42.92902374267578,-88.13723754882812
"53146","New Berlin","WI","Idle Isle Park","W182 S6666 Hardtke Dr","53150",42.92362188934297,-88.14205614817135
"53146","New Berlin","WI","Jensen Park","W185 S6599 Agate Drive","not_available",42.925405690817854,-88.14633917904071
"53147","Lake Geneva","WI","Seminary Park","South Lake Shore Drive & Wrigley Drive","53147",42.58884294021858,-88.4310593614118
"53147","Lake Geneva","WI","Elm Park","Lake Geneva, WI 53147","53147",42.591406,-88.438983
"53147","Lake Geneva","WI","Williams Bay Lions Club Pancake Day","Edgewater Park","53191",42.57792876897157,-88.54030009380519
"53147","Lake Geneva","WI","Library Park","West Main St","53147",42.59160156050352,-88.44057997503572
"53149","Mukwonago","WI","Field Park","1048-1098 N Rochester St","53149",42.87288330701713,-88.33826097602237
"53149","Mukwonago","WI","Mukwonago Park","Mukwonago, WI","53149",42.86235506484051,-88.38855534472167
"53149","Mukwonago","WI","Mukwonago Camp Grounds","County Hwy LO","53149",42.8632886188764,-88.38820695877075
"53149","Mukwonago","WI","croatia land","not_available","53149",42.872127532958984,-88.33894348144531
"53149","Mukwonago","WI","Safari Park","County LO","53149",42.865601,-88.352984
"53149","Mukwonago","WI","Indian Head Park","419 Rivercrest Ct","53149",42.85444259643555,-88.33154296875
"53149","Mukwonago","WI","Mukwonago River Canoe Launch","Holz Pkwy","53149",42.86016047000885,-88.31477344036102
"53150","Muskego","WI","Kurth Park","S70W14415 Belmont Dr","53150",42.91590118408203,-88.09461212158203
"53150","Muskego","WI","Schmidt Park","Conrad Rd","53150",42.92293189130204,-88.08460235595703
"53150","Muskego","WI","Denoon Park","Crowbar Dr","53150",42.8505827643816,-88.18234803537364
"53150","Muskego","WI","Veterans Memorial Park","W182 S8200 Racine Avenue","53150",42.89661209405104,-88.14126003512598
"53150","Muskego","WI","Swayze memorial center","not_available","53150",42.901161193847656,-88.15431213378906
"53150","Muskego","WI","Manchester Hill Park","W167S7650 Parkland Dr","53150",42.90338175012187,-88.12330670670569
"53150","Muskego","WI","Bluhm park","S77W13607 McShane Dr.","53150",42.905362121278,-88.08693467728611
"53150","Muskego","WI","Manchester Park","Parkland Ave","53150",42.904866379611164,-88.14853074838611
"53150","Muskego","WI","Moorland Park","W154S7105 Moorland Road","53150",42.915727762513875,-88.10957534321578
"53150","Muskego","WI","Muskego County Park","S83 W20370 Janesville Rd","53150",42.896549584119526,-88.16466876486463
"53150","Muskego","WI","Freedom Park","Parkland Drive","53150",42.911078,-88.125108
"53150","Muskego","WI","Badertscher Preserve","S74W20312 Field Drive","53150",42.909385,-88.168769
"53151","New Berlin","WI","Buena Park","not_available","53151",43.01140520706916,-88.11606052377752
"53151","New Berlin","WI","Valley View Park","5051 S Sunny Slope Road","53151",42.95296747388008,-88.09179067611694
"53151","New Berlin","WI","John J Malone Park","W Civic Dr","53151",42.971496766964385,-88.1209945678711
"53151","New Berlin","WI","PHC Park","2950 S. Sunnyslope Rd.","not_available",42.9906531246356,-88.08733257806918
"53151","New Berlin","WI","Lion's Park","14800 W Cleveland Ave","not_available",42.99990123191446,-88.09818286321357
"53151","New Berlin","WI","Regal Park","W Mayflower Dr","not_available",42.96411712402529,-88.10056686401367
"53151","New Berlin","WI","valley view soccer field #2","Sunny Slope Road","not_available",42.95318734566251,-88.09099674224854
"53151","New Berlin","WI","Biwer Park","Near 13130 W Foxwood Dr","53151",42.983062744140625,-88.07779693603516
"53151","New Berlin","WI","Wooodfield Park","Golden Rain Ct, New Berlin, WI 53151","53151",42.941830704989705,-88.07906177872134
"53151","New Berlin","WI","Prohealth Care Park","2950 S. Sunnyslope Road","53151",42.990726470947266,-88.0860595703125
"53154","Oak Creek","WI","Grant Park","100 Hawthorne Ave","53172",42.91983689112548,-87.84603291955
"53154","Oak Creek","WI","Grant Park Seven Bridges","not_available","53172",42.92294142016696,-87.84791318791254
"53154","Oak Creek","WI","Abendschein Field","1100 E. Drexel Blvd","not_available",42.900701444964724,-87.89634611737384
"53154","Oak Creek","WI","Hickory Park","Hickory","53172",42.92618062788947,-87.88461332386541
"53154","Oak Creek","WI","S. Milwaukee Park","15th & Rawaon","not_available",42.92367982706582,-87.87027371347656
"53154","Oak Creek","WI","Grant Park Site #7","Oakleaf Trail (Old-76 Bike Tour)","53172",42.92801278931178,-87.84708338529583
"53154","Oak Creek","WI","Clement Park","7534-7748 S Clement Ave","53154",42.90352115434015,-87.8964227785447
"53168","Salem","WI","Aleck McAlonan Park","73rd street","not_available",42.570081,-88.109346
"53168","Salem","WI","Silver Lake Park","not_available","53168",42.556782,-88.130274
"53168","Salem","WI","Old Settlers Park","Hwy 50","53168",42.568979922603404,-88.09827089309692
"53168","Salem","WI","Community Park Of Salem","not_available","53179",42.53828,-88.120599
"53172","South Milwaukee","WI","Rawson Park","rawson","53217",42.92054125902996,-87.86800603980633
"53172","South Milwaukee","WI","Wil-O-Way Grant Building","207 Lake Dr","53172",42.927611609028794,-87.8475132250054
"53172","South Milwaukee","WI","South Milwaukee 15th Ave Public Park","15th Ave","53172",42.91778710454418,-87.87583075775801
"53177","Sturtevant","WI","Fireman's Memorial Park","9630 Charles St","53177",42.704425503657795,-87.90182226956202
"53177","Sturtevant","WI","Skewes memorial park","Hwy C","53186",42.7234840152378,-87.97480227553955
"53177","Sturtevant","WI","Firemans Park","not_available","53204",42.70452347277302,-87.90174082688628
"53177","Sturtevant","WI","hiawatha crossing detention ponds","not_available","53177",42.696023533536355,-87.91251392676276
"53182","Union Grove","WI","Old Settlers Park","1638 Durand Ave","53182",42.68005798086026,-88.05964186361089
"53182","Union Grove","WI","Bufton Park","not_available","53182",42.68503952026367,-88.04878234863281
"53183","Wales","WI","Wales Firemans Memorial Park","not_available","53183",43.00520025830898,-88.37760311775156
"53183","Wales","WI","Wales Community Park","Unnamed Rd","53183",42.993481355357254,-88.38848117816485
"53184","Walworth","WI","devils lane park","devils lane","53184",42.52769658728803,-88.59284807398494
"53185","Waterford","WI","huening park","313 N River St","not_available",42.76506776522301,-88.213369846344
"53186","Waukesha","WI","Riverfront Plaza","not_available","53186",43.011200496997866,-88.23284199500775
"53186","Waukesha","WI","Frame Park","1240 Frame Park Dr","53186",43.01776211164486,-88.22270316007487
"53186","Waukesha","WI","Banting Park","Butler Dr","53188",43.03002466683413,-88.20479752064787
"53186","Waukesha","WI","Fox River Sanctuary","810 W. College Avenue","not_available",43.00309977567857,-88.24457575497884
"53186","Waukesha","WI","Buchner Park Pool","231 Oakland Avenue","53186",43.00415424,-88.21623438333333
"53186","Waukesha","WI","Veterans Park","Wisconsin Ave","53186",43.01091734350244,-88.23802463623304
"53186","Waukesha","WI","Buchner Park","223-299 Oakland Ave","53186",43.00808739342602,-88.21922604179636
"53186","Waukesha","WI","Hillcrest Park","Davidson Ave","not_available",43.02362996671346,-88.19258665680735
"53186","Waukesha","WI","Bethesda Park","560 Dunbar Ave","53186",43.00602351377489,-88.24049211792142
"53186","Waukesha","WI","Grede Park","Riverwalk Dr","53188",43.008993647199404,-88.23925852775574
"53186","Waukesha","WI","Theodora W. Youmans Park","200 W. Broadway","53188",43.01092359150748,-88.22935581207275
"53186","Waukesha","WI","Roberta Park","401 E Roberta Ave","53186",42.991981506347656,-88.22380065917969
"53186","Waukesha","WI","Priedeman Park","1903 Saratoga Rd","53186",43.030309,-88.19743000000001
"53188","Waukesha","WI","Retzer Nature Center","S14W28167 Madison St","53188",43.014689161895184,-88.31025123596191
"53188","Waukesha","WI","William R Oliver Baseball Complex","3041 Summit Ave","53188",43.01887396228777,-88.2806083154318
"53188","Waukesha","WI","Sunset Park","S30 W28252 Sunset Drive","53188",42.988263278813676,-88.30823934704829
"53188","Waukesha","WI","South Park","N5w27300 Northview Rd","53188",43.0384407043457,-88.29251861572266
"53189","Waukesha","WI","Fox River Park","W264 S4500 River Road","53189",42.97828608878636,-88.2617525021686
"53189","Waukesha","WI","River Valley Park","3107 Fox Ridge Dr","53189",42.972879,-88.276416
"53189","Waukesha","WI","Waukesha West High School Stadium","not_available","53189",42.971266,-88.279112
"53190","Whitewater","WI","Trippe Lake Park","not_available","53190",42.82108530045467,-88.72478330037356
"53190","Whitewater","WI","Starin Park","504 West Starin Road","53190",42.83981184381857,-88.73605486144744
"53190","Whitewater","WI","Twin Oaks Park","755 N Tratt St","53190",42.85147476196289,-88.75460052490234
"53202","Milwaukee","WI","Milwaukee Lakefront","Oak Leaf Trail","53202",43.0420453718909,-87.8954529762268
"53202","Milwaukee","WI","Veterans Park","1010 N Lincoln Memorial Dr","53202",43.044209505578216,-87.88942337036133
"53202","Milwaukee","WI","Cathedral Square Park","520 E Wells St","53202",43.04211836840864,-87.90504153192232
"53202","Milwaukee","WI","McKinley Marina","1750 N Lincoln Memorial Dr","53202",43.05108331547338,-87.88711707029505
"53202","Milwaukee","WI","O'Donnell Park","910 E Michigan St","53202",43.038983,-87.899037
"53202","Milwaukee","WI","Lake Park Lagoon","E Lagoon Dr","53202",43.047284133667056,-87.89391684855646
"53202","Milwaukee","WI","Burns Commons","1300 N Franklin Place","53202",43.04761636097384,-87.8964227785447
"53202","Milwaukee","WI","Red Arrow Park","920 N Water St","53202",43.04342788260197,-87.91021858645905
"53202","Milwaukee","WI","Juneau Park","801 N Lincoln Memorial Dr","53202",43.0415705684223,-87.8991106278745
"53202","Milwaukee","WI","Bradford Beach","2400 N Lincoln Memorial Dr","53211",43.058499651179226,-87.87554693000504
"53202","Milwaukee","WI","Denim Park","N Water st","53202",43.050765,-87.906469
"53202","Milwaukee","WI","Catalano Square","Erie St.","53202",43.03142490745858,-87.90702124330714
"53202","Milwaukee","WI","Caesar's Park","1953 N Warren Ave","53202",43.055897628560444,-87.89266227807414
"53202","Milwaukee","WI","Pulaski Park","1840 N Pulaski St","not_available",43.055372,-87.89655
"53202","Milwaukee","WI","Cass Street Park","not_available","53202",43.050983691398635,-87.9015040397644
"53202","Milwaukee","WI","Henry Maier Festival Park","200 N Harbor Dr","53202",43.032203206594225,-87.8991920753354
"53202","Milwaukee","WI","Pompeii Square","500 N. Jackson St","not_available",43.03588447975717,-87.90383912619832
"53202","Milwaukee","WI","The Reservoir","900 E North Ave","53212",43.060357216802835,-87.89970950280279
"53202","Milwaukee","WI","Schlitz Park","N Rivercenter Dr","53212",43.05063699999999,-87.91001499999999
"53202","Milwaukee","WI","East Pointe Commons Dog Park","Cass St.","53202",43.04850654134605,-87.9004943640211
"53202","Milwaukee","WI","Kilbourn Park","Kilbourn Park","53212",43.05982319820099,-87.90211450382576
"53202","Milwaukee","WI","Postman Square","not_available","53203",43.040305,-87.912676
"53203","Milwaukee","WI","Pere Marquette Park","900 North Plankinton Avenue","53202",43.04220219573813,-87.91379928588867
"53203","Milwaukee","WI","Zeidler Union Square","301 W. Michigan St","53203",43.037152099692356,-87.91555042795662
"53203","Milwaukee","WI","MacArthur Square","James Lovell","not_available",43.041485528181376,-87.92260446828635
"53203","Milwaukee","WI","Courier Park","137 w wells","53203",43.04079020311055,-87.91340065500371
"53204","Milwaukee","WI","Mitchell Park Horticultural Conservatory (The Domes)","524 S Layton Blvd","53215",43.02637370509861,-87.94610529444888
"53204","Milwaukee","WI","Paliafito Park","921 S 3rd St","53204",43.021627,-87.914337
"53204","Milwaukee","WI","Rally Point","601 S 6th St","53204",43.025176,-87.91843
"53204","Milwaukee","WI","REISKE PARK","1601 S 23rd St","53204",43.011687697187405,-87.94621997253215
"53204","Milwaukee","WI","Stone Bracelet Park","3rd and Walker","53224",43.0192037539911,-87.9142982417324
"53205","Milwaukee","WI","Johnsons Park","1919 W. Fond du Lac Ave.","53205",43.05827713012695,-87.93701171875
"53205","Milwaukee","WI","Tiefenthaler Park","2501 W Galena St","not_available",43.05116438277499,-87.94475065128036
"53205","Milwaukee","WI","James W. Beckum Park","not_available","53205",43.057332,-87.920833
"53205","Milwaukee","WI","Lloyd Park","1300 W. Lloyd Street","53205",43.05714566891213,-87.92798280715942
"53205","Milwaukee","WI","Fondy Park","2200 W Fond du Lac Ave","53206",43.061859130859375,-87.93956756591797
"53205","Milwaukee","WI","Carver Park","911 W Brown St","53205",43.055851358304366,-87.9228438934346
"53206","Milwaukee","WI","Lindbergh Park","3629 N 16th St","53206",43.084192,-87.931503
"53206","Milwaukee","WI","Mlk youth center","not_available","53212",43.076980378998755,-87.92447195042551
"53207","Milwaukee","WI","South Shore Park","2900 S Shore Dr","53207",42.992892724733586,-87.88026094436646
"53207","Milwaukee","WI","Humboldt Park","3000 S Howell Ave","53207",42.990972106994114,-87.90174082688628
"53207","Milwaukee","WI","Bay View Park","3120 S Lake Dr","53207",42.98515462083613,-87.86822319030762
"53207","Milwaukee","WI","Cupertino Park","2000 E Iron St","53226",42.99922667290263,-87.88789821074992
"53207","Milwaukee","WI","Morgan Park","2409 E. Holt Ave.","not_available",42.98077692820358,-87.8806838874136
"53207","Milwaukee","WI","Greene Park","4235 S Lipton Ave","53235",42.96718676423479,-87.86649579186934
"53207","Milwaukee","WI","Uncas Park","not_available","53207",42.93310319637913,-87.91229706652658
"53207","Milwaukee","WI","Tippecanoe Park","1411 E Warnimont Ave","53207",42.97774521910911,-87.8911828994751
"53207","Milwaukee","WI","Bayview Park Beach","S. Lake Drive","53207",42.986546669569165,-87.86929090914875
"53207","Milwaukee","WI","Baran Park","2460-2498 S Chase Ave","53207",42.99972750117322,-87.91404657143153
"53207","Milwaukee","WI","Lewis Field","1424 E Pryor Ave","53207",42.99666062163213,-87.89112805800181
"53207","Milwaukee","WI","Lake Parkway Park (At Least Thats What I Call It)","2301-2399 E Elizabeth Ave","53235",42.973925437722805,-87.88106396834708
"53207","Milwaukee","WI","Ellen Park","1829 E Fernwood Ave","53207",42.98310827660517,-87.88454423343374
"53207","Milwaukee","WI","Greene Park Tennis Courts","4173 South Lipton Avenue","53235",42.9684578,-87.86570801
"53207","Milwaukee","WI","Zillman Park","2180 S Kinnickinnic Ave","53207",43.00502995128735,-87.90579361788397
"53207","Milwaukee","WI","Kaszubes Park","1241 South Carferry","53207",43.01703124407001,-87.90010637126362
"53207","Milwaukee","WI","oak leaf trail-south side","not_available","53235",42.99294252152535,-87.8820177575844
"53207","Milwaukee","WI","Citizens Memorial Library Park","4100-4242 South Nicholson Ave","53235",42.9676513671875,-87.8725814819336
"53207","Milwaukee","WI","Adams Play Field","495 East Morgan Avenue","53215",42.98252421111216,-87.89779647276704
"53207","Milwaukee","WI","Bay View's Rolling Mill Memorial","2400 S Superior Ave","53207",42.99944313318075,-87.88966476917267
"53208","Milwaukee","WI","Washington Park","4420 W Vliet St","53208",43.052927995436484,-87.96710014343262
"53208","Milwaukee","WI","Doyne Park","5300 W Wells St","53208",43.04144159633651,-87.9780113697052
"53208","Milwaukee","WI","Merrill Park","3500 W. Michigan Street","not_available",43.03684608615528,-87.95380989718323
"53208","Milwaukee","WI","Mitchell Boulevard Park","5109 W Bluemound Rd","53208",43.03579387030592,-87.97837018728983
"53208","Milwaukee","WI","Washington Park - Buffalo Hill","4200 W Vliet St","53208",43.04854974489544,-87.96613478958596
"53208","Milwaukee","WI","Urban Ecology Center","1859 N 40th St","53208",43.05547068740367,-87.96704371110549
"53208","Milwaukee","WI","Wick Field","4929 W Vliet St","53208",43.04870461229612,-87.97716975561153
"53208","Milwaukee","WI","Martin Drive Community Gardens and Pavilion","1335 North 46 Street","53208",43.04822392822421,-87.97139167785645
"53208","Milwaukee","WI","Highland Park","4110 W Martin Dr","53208",43.046170000000004,-87.965891
"53208","Milwaukee","WI","Airline Yards","not_available","53214",43.026928,-87.954585
"53208","Milwaukee","WI","Bluff Park","Story Parkway","53208",43.03518,-87.973222
"53209","Milwaukee","WI","Lincoln Park","1301 W Hampton Ave","53209",43.10688604202698,-87.92695820331573
"53209","Milwaukee","WI","Brown Deer Park","7835 N Green Bay Ave","53209",43.15883064243931,-87.9548692703247
"53209","Milwaukee","WI","Kletzsch Park","6560 N Milwaukee River Pkwy","53209",43.138219250961406,-87.92506090937394
"53209","Milwaukee","WI","Wahl Park","W Glendale Ave","53218",43.10378053050245,-87.9728986345819
"53209","Milwaukee","WI","Algonquin Park","7850 N 51st St","53223",43.160728999999996,-87.97428599999999
"53209","Milwaukee","WI","Brown Deer Park Boathouse","not_available","53209",43.1589030834407,-87.95503488374068
"53209","Milwaukee","WI","Wingate Park","W Wingate ave","53209",43.123846,-87.941562
"53209","Milwaukee","WI","Smith Park","3100-3298 W Custer Ave","53209",43.1166310894437,-87.95412093211435
"53209","Milwaukee","WI","Fairy Chasm Youth Sports Facility","5712 W Fairy Chasm Rd","53223",43.18545120017626,-87.98089529245125
"53209","Milwaukee","WI","Meaux Park","2025 Villard Ave","53209",43.11192373145317,-87.93185013563408
"53209","Milwaukee","WI","Brown Deer Village Park & Pond","4920 W Green Brook Dr","53223",43.18208638257221,-87.97134409352692
"53209","Milwaukee","WI","The Backyard","not_available","53228",43.105804515719285,-87.97916864426571
"53209","Milwaukee","WI","McGovern Park","51st and Silver Spring Dr","53218",43.11789594988259,-87.97524230156472
"53210","Milwaukee","WI","Sherman Park","3000 N Sherman Blvd","53210",43.074212587360435,-87.96747424640435
"53210","Milwaukee","WI","Enderis Park","2900 N 72nd St","not_available",43.07229657363626,-88.0014781597126
"53210","Milwaukee","WI","Triangle Park","not_available","53210",43.07208497081531,-87.99604291385421
"53210","Milwaukee","WI","69th St Plaza","69th St & North","53213",43.06191847172453,-88.00050779957658
"53211","Milwaukee","WI","Estabrook Park","4400 N. Estabrook Pkwy.","53211",43.10109346745993,-87.90708698456328
"53211","Milwaukee","WI","River Park","Oakland Ave.","53202",43.08359468060823,-87.88836643066207
"53211","Milwaukee","WI","Lake Park","3233 E Kenwood Blvd","53211",43.068762941370245,-87.87073394615138
"53211","Milwaukee","WI","Estabrook Park Beer Garden","4600 Estabrook Drive","53209",43.09969358023851,-87.90736301761783
"53211","Milwaukee","WI","Wahl Ave","not_available","53211",43.06155776977539,-87.87661743164062
"53211","Milwaukee","WI","Kern Park","3426-3498 N Dousman St","53212",43.08189524587993,-87.89739540575457
"53211","Milwaukee","WI","Hubbard Park","3565 N Morris Blvd","53211",43.08374769763164,-87.89091721454326
"53211","Milwaukee","WI","Gilman Triangle Park","N Downer Ave","53211",43.0631,-87.87774
"53211","Milwaukee","WI","Riverside Park","1500 E Park Pl","53211",43.0688276731045,-87.88996361469015
"53211","Milwaukee","WI","Prospect Triangle","btw N Farwell and N Maryland Aves","53211",43.065774268005,-87.87702516790513
"53211","Milwaukee","WI","Reservoir Park","N Bremen St","53212",43.062088323086,-87.90099346364892
"53211","Milwaukee","WI","Gordon Park","1321 E Locust St","53212",43.07044902969069,-87.89718938303524
"53211","Milwaukee","WI","Oakleaf Trail (Old-76 Bike Tour)","N Newhall Ave","53211",43.06355062478304,-87.89050510855454
"53211","Milwaukee","WI","North Point Park","2200 E North Ave","53202",43.05823729918421,-87.8769322449793
"53211","Milwaukee","WI","UWM Pangaea Plaza","btwn Lubar & Bolton Hall","53211",43.07793672394264,-87.88120792505265
"53211","Milwaukee","WI","Newberry Park","Newberry","53211",43.07155736914294,-87.88405467670158
"53211","Milwaukee","WI","Bremen Street Playground","N Bremen Street","53212",43.07390374227269,-87.90010929107666
"53211","Milwaukee","WI","Downer Woods","N Downer Av","53211",43.07864291468976,-87.88127006522754
"53212","Milwaukee","WI","Ogden/Knapp Park","Idk","53202",43.04733657836914,-87.89659881591797
"53213","Milwaukee","WI","Hoyt Park","1800 N Swan Blvd","53226",43.05502538654185,-88.02564427924666
"53213","Milwaukee","WI","Hart Park","7300 Chestnut St","53213",43.046431579702606,-88.00020664901805
"53213","Milwaukee","WI","Jacobus Park","6501 Hillside Ln","53213",43.0420390990244,-87.99162626266478
"53213","Milwaukee","WI","Dewey Hill","harwood","53213",43.04648623565368,-88.00838982128869
"53213","Milwaukee","WI","Tosa SkatePark","not_available","53213",43.046310201833904,-88.00087344685647
"53213","Milwaukee","WI","Christ King Playground","2646 N Swan Blvd","53226",43.067559890799636,-88.02645593060765
"53213","Milwaukee","WI","Mispibo Fitness Outdoor Bootcamp","Hoyt park","not_available",43.054547766666666,-88.0211478
"53213","Milwaukee","WI","Corner Park@St Bernard Catholic Church","7474 Harwood Ave","53213",43.05107116699219,-88.00664520263672
"53213","Milwaukee","WI","Hawthorne Park","Portland Ave","53213",43.04223356045948,-88.00971508026123
"53213","Milwaukee","WI","Picnic area #4 West","N. Menomonee River Parkway","not_available",43.052887496147115,-88.02038400025722
"53214","Milwaukee","WI","cannon park","305 N 95th St","53226",43.033108151763244,-88.03011096541013
"53214","Milwaukee","WI","Lafollette Park","9418 W Washington St","53214",43.02048768728856,-88.02973836066732
"53214","Milwaukee","WI","Maple Cove","Milwaukee County Zoo","53226",43.02993842649328,-88.0378107621781
"53214","Milwaukee","WI","Rainbow Park","700 S 119th St","53214",43.02360866351379,-88.0593458883234
"53214","Milwaukee","WI","Burnham Park","3400 W Burnham Ave","53215",43.01113650460276,-87.95740341462951
"53214","Milwaukee","WI","Oak Grove","Milwaukee County Zoo","not_available",43.02903747558594,-88.03804016113281
"53214","Milwaukee","WI","Rogers Park","3400 W Rogers St","53215",43.010185340492676,-87.95615030551747
"53214","Milwaukee","WI","Lapham Park","1205 S 95th St","53214",43.018887,-88.030712
"53214","Milwaukee","WI","Cannon Park Pavillion","303 N 95th St","53226",43.032012939453125,-88.03191375732422
"53214","Milwaukee","WI","Central Park","Wisconsin State Fair Park","53214",43.01993529749239,-88.01497939443419
"53214","Milwaukee","WI","park","511 S 63rd St","53214",43.026662,-87.99143000000001
"53214","Milwaukee","WI","Railroad station park","National Ave","53214",43.013918688744745,-88.01237532986903
"53214","Milwaukee","WI","Burbank Field","6302 W. Adler St.","not_available",43.0275279927936,-87.99029144180635
"53214","Milwaukee","WI","Natural Resources Park","State Fair Park","not_available",43.01897151978173,-88.01574908678248
"53214","Milwaukee","WI","We Energies' Energy Park","Wetley Way","not_available",43.02060884406314,-88.01690427662193
"53214","Milwaukee","WI","Central Park","1461-1541 S 98th St","53214",43.01199052655821,-88.03351163864136
"53215","Milwaukee","WI","Jackson Park","3500 W Forest Home Ave","53215",42.99514040976675,-87.96338399304663
"53215","Milwaukee","WI","Manitoba Park","4900 W Manitoba St","53219",42.99163017174364,-87.97560101521474
"53215","Milwaukee","WI","Modrzejewski Park","1020 W Cleveland Ave.","53215",42.99643325805664,-87.9255599975586
"53215","Milwaukee","WI","Kosciuszko Park","2201 S 7th St","53215",43.00419499865836,-87.92132112762913
"53215","Milwaukee","WI","Pulaski Park","2701 S 16th St","53215",42.99689088652363,-87.93429672718048
"53215","Milwaukee","WI","Jackson Park Pond","not_available","53219",42.98956729667023,-87.9657438956506
"53215","Milwaukee","WI","Pulaski Park - Sledding Hill","2677 S 16th St","53215",42.99526596069336,-87.93388366699219
"53216","Milwaukee","WI","Dineen Park","6600 W Keefe Avenue Pkwy","53216",43.08236489655433,-87.99365464694226
"53217","Milwaukee","WI","Klode Park","Belle Ave","not_available",43.12438089,-87.90220073652263
"53217","Milwaukee","WI","Cahill Park","1001 E Fairmount Ave","53217",43.10603739568793,-87.89759803362523
"53217","Milwaukee","WI","Big Bay Park","5000 N Lake Dr","53217",43.107939123747336,-87.8880659385196
"53217","Milwaukee","WI","Doctors Park","1870 E Fox Ln","53217",43.16959109611559,-87.88485504076472
"53217","Milwaukee","WI","Indian Creek Park","Indian Creek Pkwy","53217",43.169449262976045,-87.90804021977749
"53217","Milwaukee","WI","Ellsworth Park","600 E Ellsworth Ln","not_available",43.182461376640006,-87.90255546569824
"53218","Milwaukee","WI","Columbus Park","4600-4698 N 74th St","53218",43.101776471811476,-88.00350963323213
"53219","Milwaukee","WI","McCarty Park","8214 W Cleveland Ave","53219",42.99794731609298,-88.01254259014864
"53219","Milwaukee","WI","Kinnickinnic River Parkway","5100 W Jackson Park Dr","53218",42.99629033375404,-87.98211041830936
"53219","Milwaukee","WI","Fairview Playground","6750 W Arthur Ave","53219",42.99735445420413,-87.99721873498359
"53219","Milwaukee","WI","Arnold Klentz Park","2651 S 72nd St","not_available",42.997509942949044,-88.002534537537
"53219","Milwaukee","WI","Klentz Park","2665 S 72nd St","53219",42.996036529541016,-88.00321197509766
"53220","Milwaukee","WI","Konkel Park","5151 W Layton Ave","53220",42.95930780882189,-87.9783510571584
"53220","Milwaukee","WI","Armour Park","60th","53220",42.97324800284093,-87.98832152304803
"53220","Milwaukee","WI","Konkel Park","not_available","53220",42.95825988365978,-87.97787189483643
"53221","Milwaukee","WI","Wilson Park","1601 W Howard Ave","53221",42.97303538947514,-87.93399095535278
"53221","Milwaukee","WI","Maitland Park","1565 ADJ W Ramsey Ave","53221",42.93430558878618,-87.93237233157485
"53221","Milwaukee","WI","Haker Park","4335 S. 36th St.","53221",42.96493724830014,-87.96064259553229
"53221","Milwaukee","WI","Zablocki Park","3717 W Howard Ave","53221",42.97309808980546,-87.96172386495617
"53221","Milwaukee","WI","Pondview Park","3725 W Forest Home Ave","53220",42.96846612047232,-87.95622634228158
"53221","Milwaukee","WI","Jim Smrz Park","6130S. 40th St.","not_available",42.93396343250323,-87.96573294468597
"53221","Milwaukee","WI","Barnard Park","not_available","53221",42.95782623627392,-87.95861873313791
"53221","Milwaukee","WI","Wilson Recreation Area","4001 S 20th St","53221",42.971997050086756,-87.941639550835
"53221","Milwaukee","WI","Wilson Park Pavillion Ward#306","1601 West Howard Ave","53221",42.972537994384766,-87.93409729003906
"53222","Milwaukee","WI","Cooper Park","8701 W Chambers St","53222",43.07214620684407,-88.02345983374191
"53222","Milwaukee","WI","Hartung Park","3342 N Argonne Dr","53222",43.082015820320144,-88.04023832319174
"53222","Milwaukee","WI","Kops Park","3321 N 86th St","53222",43.0794187432969,-88.02075190563515
"53222","Milwaukee","WI","Hartung Park (Stonehendge)","10101-10199 W Keefe Ave","53222",43.08178315259829,-88.03807822486847
"53222","Milwaukee","WI","Rotary Park","Menominee Falls","53222",43.08576206666667,-88.03805613333333
"53222","Milwaukee","WI","Lindsay Park","not_available","53218",43.09427770071896,-88.02151562735321
"53223","Milwaukee","WI","A.C. Hanson Park","N Maura Lane","53223",43.18472833073316,-87.98898614131598
"53223","Milwaukee","WI","Noyes Park","76th& Goodhope","53218",43.144849525902714,-88.01216983780556
"53223","Milwaukee","WI","Train Tracks - Good Hope","not_available","53223",43.148634,-88.008932
"53224","Milwaukee","WI","Dretzka Park","12020 W Bradley Rd","53224",43.166955323546624,-88.06157300388762
"53224","Milwaukee","WI","Dretzka Park","not_available","53224",43.168430361365196,-88.06117422011972
"53225","Milwaukee","WI","Willow Wood Park","Willowwood Dr","53051",43.11710056,-88.051906
"53226","Milwaukee","WI","Wil-O-Way Underwood","10602 Underwood Pkwy","53226",43.05407095445023,-88.03533665574591
"53226","Milwaukee","WI","Menomonee River Pkwy - The Glove Spot!","2820 N Menomonee River Pkwy","53222",43.060430551475555,-88.03350247995846
"53226","Milwaukee","WI","Milwaukee County Research Park","10437 W Innovation Dr","53226",43.04344853743738,-88.04469056551551
"53226","Milwaukee","WI","Underwood Parkway","Underwood Pkwy","53226",43.05125774834007,-88.04414346301834
"53226","Milwaukee","WI","Breitlow Field North","12100 W. North Ave","53226",43.05774289504197,-88.06275703488711
"53226","Milwaukee","WI","Monarch Trail","9101-9165 W Watertown Plank Rd","53226",43.04606505819344,-88.03095647994
"53226","Milwaukee","WI","Fisher Soccer Field","12101 West North Ave","not_available",43.05928039550781,-88.06340789794922
"53226","Milwaukee","WI","Pick Nic Table","not_available","53226",43.04333594463944,-88.04829135951337
"53226","Milwaukee","WI","Fisher Park","12200","53226",43.05831515856019,-88.06418642652511
"53226","Milwaukee","WI","Underwood Parkway Golf Practice Area","Underwood Parkway","53226",43.05546629358498,-88.03830270123731
"53227","Milwaukee","WI","Greenfield Park","2028 S 124th St","53227",43.00878966580235,-88.06464672088623
"53227","Milwaukee","WI","Honey Creek Park","84th and National","not_available",43.008702899104904,-88.01826251232308
"53227","Milwaukee","WI","Euclid park","not_available","53227",42.98650748267358,-88.02183649204437
"53228","Milwaukee","WI","Kulwicki Park","10777 West Coldspring Road","53228",42.965689389843725,-88.04646427141536
"53228","Milwaukee","WI","Alcott Park","W Wilbur Ave","not_available",42.9768346801747,-88.03520679473877
"53228","Milwaukee","WI","Jackson Park Running Trails","not_available","53215",42.9778623063033,-88.03938208236038
"53228","Milwaukee","WI","The Backyard","4755 S 90th St","53228",42.958443,-88.026207
"53233","Milwaukee","WI","Lynden Hill","22nd And McKinley","53205",43.04571243402923,-87.94008391927366
"53233","Milwaukee","WI","Norris Park","18th St.","53233",43.04209968469655,-87.93619699668304
"53235","Saint Francis","WI","Milton Vretenar Municipal Park","4230 S. Kirkwood Ave.","53110",42.96894541079451,-87.85676956204124
"53402","Racine","WI","Wind Point Lighthouse","4725 Lighthouse Dr","53402",42.78117336684282,-87.7583920955658
"53402","Racine","WI","Cliffside County Park and Campground","7541-7621 Michna Rd","53402",42.81988330911427,-87.82143349637418
"53402","Racine","WI","Village Green Park","not_available","53402",42.784063,-87.767793
"53402","Racine","WI","Racine Quarry Park","not_available","53404",42.74680560427897,-87.82137590441961
"53402","Racine","WI","Armstrong Park","3799 Hwy 31","53406",42.74786996063324,-87.84099120475074
"53402","Racine","WI","Old Sturtevant Train Station","5 mile Rd","not_available",42.800398524583336,-87.83538297711351
"53402","Racine","WI","Island Park","300 Horlick Dr","53405",42.729613329442145,-87.80342102050781
"53402","Racine","WI","Robert G. Heck Park","2899 Donna Ave","53404",42.75441263892742,-87.80713883459505
"53402","Racine","WI","Drozd Park","not_available","53406",42.7489214910926,-87.84942885719
"53402","Racine","WI","Brose Park","not_available","53405",42.73212618920473,-87.80478635710979
"53403","Racine","WI","Roosevelt Park","Roosevelt Park","53403",42.702738984415376,-87.78898317026726
"53403","Racine","WI","Racine Lakefront Parkway","not_available","53403",42.71286670327958,-87.78271990875578
"53403","Racine","WI","Pritchard Park","2800 Ohio Street","53406",42.70395232324743,-87.83534350870129
"53403","Racine","WI","@ the Park","1300-1412 Hampden Pl","53403",42.72552749,-87.78697263
"53403","Racine","WI","Pierce Woods","Pierce Blvd","not_available",42.69912090356289,-87.82215338959219
"53403","Racine","WI","Circle Tree","North Elmwood Drive","53405",42.69064736262844,-87.82123389012796
"53403","Racine","WI","Sander's Park","Wood Rd","53403",42.67460974196343,-87.84337546738443
"53403","Racine","WI","Monument Square","500-574 Monument Sq","53403",42.72720813137433,-87.78307926791784
"53403","Racine","WI","Hantschel Park","5400 Byrd Ave","53406",42.7105598449707,-87.84330749511719
"53403","Racine","WI","Park","21 street","53406",42.71900653839111,-87.84091293811798
"53502","Albany","WI","Village Park","not_available","53502",42.708378,-89.441021
"53503","Arena","WI","Drewtopia","Wisconsin River","not_available",43.19278717042965,-89.94129180908203
"53503","Arena","WI","Arena Community Park","Sharon","53503",43.16535778928011,-89.9070627455903
"53504","Argyle","WI","Owen's Backyard","10993 Riverside Rd, Darlington, WI 53530","53530",42.65336990356445,-90.00977325439453
"53504","Argyle","WI","Wiota Park","Park St","53587",42.637463186773886,-89.95094776153564
"53504","Argyle","WI","Darlington Lions Club Park","not_available","53530",42.71562120449106,-89.93215481165242
"53506","Avoca","WI","avoca park","not_available","53506",43.19018089933614,-90.32065412458827
"53508","Belleville","WI","Belleville Community Park","Bross Circle","53508",42.86848048536954,-89.54024264477576
"53508","Belleville","WI","New Glarus Village Park","2nd Street","53574",42.81585218228604,-89.63500594621114
"53508","Belleville","WI","Paoli Mill and Terrace","6890 Paoli Rd","53508",42.93014144897461,-89.52454376220703
"53508","Belleville","WI","Blaser Park","not_available","53508",42.87230452109899,-89.54023803713017
"53508","Belleville","WI","Villas Park","not_available","53574",42.816081,-89.634685
"53508","Belleville","WI","Blazer Park","Jon St","53508",42.868504369391715,-89.54026107535279
"53510","Belmont","WI","Platte Mound M - The "" M""","18436-19520 W Mound Rd","53818",42.76307145230232,-90.40715495769152
"53511","Beloit","WI","Riverside Park","1252 S Riverside Dr","53511",42.51115763318262,-89.03289746299389
"53511","Beloit","WI","Tremont Park","not_available","53511",42.522117,-89.014325
"53511","Beloit","WI","Happy Hollow Park","Happy Hollow Rd","53546",42.604864582198495,-89.03961129483146
"53511","Beloit","WI","Hinckley Park","Beloit,WI,53511","53511",42.5127421230191,-89.05517159290976
"53511","Beloit","WI","Sweet Allyn Park","S Co Rd J","53511",42.57455805840481,-88.93929362297058
"53511","Beloit","WI","Park","1930-2098 S Riverside Dr","53511",42.52595469545466,-89.03566431048682
"53511","Beloit","WI","Summit Park","Summit, Dewey, Henry and Wilson","53511",42.5216207678398,-89.02200556555192
"53511","Beloit","WI","Turtle Island II","Riverside Park, Hwy 51","not_available",42.511585,-89.033598
"53511","Beloit","WI","Wootton Park Boat Launch","1451  4'th St.","53511",42.51851272583008,-89.0373764038086
"53511","Beloit","WI","McKearn Park","Park Ave","53511",42.547793628837056,-89.0257485224177
"53511","Beloit","WI","Strong Park","Milwaukee Rd.","53511",42.508315270026706,-89.01513014508777
"53511","Beloit","WI","Horace White Park","College Street","53511",42.500658689616856,-89.02809619903564
"53515","Black Earth","WI","Festge Park","4894 Scherbel Rd","53528",43.122382331225644,-89.68494236967065
"53515","Black Earth","WI","Salmo Pond","Scherbel Road","not_available",43.11887869326517,-89.69016626605595
"53515","Black Earth","WI","Sunny Field Park","1710 Center St","53515",43.133117999999996,-89.746992
"53515","Black Earth","WI","Hollfelder Park","not_available","53528",43.10745872895829,-89.66403062157603
"53515","Black Earth","WI","Black Earth Community Park","not_available","53515",43.13757082270374,-89.74280834197998
"53515","Black Earth","WI","Veteran's Memorial Park","1215 Mills St.","53515",43.13411777769264,-89.74823759119737
"53516","Blanchardville","WI","McKellar Park","not_available","53516",42.80923326037069,-89.85940714479203
"53517","Blue Mounds","WI","Cave of the Mounds","2975 Cave of the Mounds Rd","53517",43.017442589095246,-89.81570541858673
"53517","Blue Mounds","WI","Brigham County Park","3160 county highway F","53517",43.02715786576763,-89.81730217217067
"53517","Blue Mounds","WI","Blue Mounds Fort Historical Sign","not_available","53517",43.015081,-89.826622
"53520","Brodhead","WI","Purdy Park","W Church St","53576",42.629720162678026,-89.25740956657856
"53520","Brodhead","WI","Putnam Park","Brodhead,WI,53520","53520",42.6183424,-89.3762278
"53520","Brodhead","WI","Rock County Park Sugar River","not_available","53520",42.518801,-89.305543
"53521","Brooklyn","WI","Brooklyn Legion Park","201 S 1st St","53521",42.852087,-89.372862
"53521","Brooklyn","WI","Countryside Park","not_available","53536",42.781532,-89.281906
"53521","Brooklyn","WI","Smithfield Park","287 Hotel St","53521",42.853507,-89.363554
"53521","Brooklyn","WI","Bicentennial Park","not_available","53558",42.89748887871931,-89.3732750848848
"53521","Brooklyn","WI","Oregon Town Park","901 Glenway Rd","53575",42.902368216920664,-89.42109447421491
"53522","Browntown","WI","Cadiz Springs State Recreational Area","Cadiz Springs Rd","53522",42.58213424682617,-89.7664566040039
"53523","Cambridge","WI","Westside Park","305 W Water St","53523",43.00265,-89.019947
"53523","Cambridge","WI","Deerfield Industrial Park","400 Interpane Ln","53531",43.058252,-89.067706
"53523","Cambridge","WI","splash park","not_available","53531",43.05211577366317,-89.0828026878174
"53523","Cambridge","WI","Utica Park","1390 Country Road B","not_available",42.96697487803267,-89.11770343780518
"53523","Cambridge","WI","CamRock Park","155-199 County Road B","53523",42.97383450547668,-89.03285344922374
"53523","Cambridge","WI","Lake Ripley Park","not_available","53523",43.00288134246706,-89.002155669877
"53525","Clinton","WI","Gert Wolter Park","not_available","53525",42.56265,-88.87215
"53527","Cottage Grove","WI","Ravenwood Park","not_available","53527",43.099893796742506,-89.21604277243111
"53527","Cottage Grove","WI","Paradise Park","2623 County Highway Mn","53527",43.01793885733254,-89.20655170054367
"53527","Cottage Grove","WI","Governor Taylor Nature Park","224 W Oak St","53527",43.09027046,-89.20429727
"53527","Cottage Grove","WI","Strouse Park","not_available","53718",43.09220504760742,-89.24630737304688
"53528","Cross Plains","WI","Pope Farm Park","not_available","53562",43.07651204655862,-89.56600480680711
"53528","Cross Plains","WI","Indian Lake Park","8183 Hwy 19","53528",43.18962442271486,-89.62139939193564
"53528","Cross Plains","WI","Ice Age National Scenic Trail Interpretive Site","8075 Old Sauk Pass Rd","53528",43.0792236328125,-89.61264038085938
"53528","Cross Plains","WI","Voss Park Soccer Field","3745 Swobda Road","not_available",43.05926875108259,-89.59209068467679
"53528","Cross Plains","WI","Hickory Woods Park","4446 Stonewood Drive","53562",43.079954662494295,-89.56055253433797
"53528","Cross Plains","WI","Cross Plains World Fair","2960 Military Rd","53528",43.11498786812827,-89.63637828826904
"53528","Cross Plains","WI","Pioneer Park","7555 W Old Sauk Rd","53593",43.07379793038684,-89.57297561889139
"53528","Cross Plains","WI","Baer Park","Church St","53528",43.11710708903231,-89.64291208074755
"53528","Cross Plains","WI","Glaciers Edge Square","Glaciers Edge Square","53528",43.109557329531846,-89.6582803294677
"53529","Dane","WI","Village Park","410 E Main St","53597",43.19045619691443,-89.44817304611206
"53529","Dane","WI","Murphy Park","Main Street","53597",43.190550063340034,-89.44793701171875
"53529","Dane","WI","Ripp Park","Ripp Rd","53597",43.18708406652328,-89.47350000055062
"53529","Dane","WI","Rotary Lights","410 E Main St.","53597",43.19100902120963,-89.4469248334059
"53529","Dane","WI","Bert Deans Park","Railroad Street","53529",43.18803124214818,-89.54574379061972
"53529","Dane","WI","Waunakee Area Veterans Memorial","not_available","53597",43.19138427776735,-89.44870753151278
"53529","Dane","WI","Augusta Park","500 Augusta Dr","53597",43.19617462158203,-89.45606994628906
"53530","Darlington","WI","Park By Lion's Club Pavilion","W Alice St","53530",42.67796778,-90.11498127
"53532","Deforest","WI","Sheehan Park","1351 Linnerud Dr","53590",43.17485672089425,-89.2353343963623
"53532","Deforest","WI","Token Creek County Park","6200 U.S. 51","53532",43.183757061867944,-89.31895878137108
"53532","Deforest","WI","Castle Creek Conservancy","899 S Division St","53597",43.18351168607566,-89.4467400932876
"53532","Deforest","WI","Cherokee Marsh Conservation Area","not_available","53704",43.16687124917339,-89.3645044812906
"53532","Deforest","WI","Conservancy Commons Park","Whitebud Terrace","53532",43.22165,-89.35497991
"53532","Deforest","WI","DeForest Fireman's Park","500 Jefferson St","53532",43.24600452664253,-89.33854816422479
"53532","Deforest","WI","Bolz Conservancy Park","Wimbleton Way and Regency Ridge","53597",43.1770729050288,-89.44517438637995
"53532","Deforest","WI","Windsor Splash Park","Yellowwood Ln","53532",43.221646033333336,-89.35515532
"53532","Deforest","WI","Dahl Park","not_available","53532",43.235819493969466,-89.33226800238906
"53532","Deforest","WI","Veterans Memorial Park","231-299 County Highway C V","53532",43.248739,-89.343559
"53532","Deforest","WI","Raintree Park","6377 grossepark rd","53590",43.197364807128906,-89.2903823852539
"53533","Dodgeville","WI","Linden Village Park","not_available","53533",42.92167863892875,-90.27407477120953
"53533","Dodgeville","WI","Hollandale Park/ballfield","5th Ave","53544",42.96892166137695,-90.05875396728516
"53534","Edgerton","WI","Rock River Thresheree","Cox rd","53534",42.787704796014474,-89.04684946394036
"53534","Edgerton","WI","Racetrack Park","1000 Stoughton Rd","53534",42.8422966003418,-89.08296966552734
"53536","Evansville","WI","Magnolia Bluff Park","4002 N Croak Rd","53536",42.73182678222656,-89.35243225097656
"53538","Fort Atkinson","WI","Lorman Bicentennial Park (Riverwalk)","Glacial River Trail","53538",42.92770840277814,-88.8408350944519
"53538","Fort Atkinson","WI","Ralph Park","not_available","53538",42.936605869714036,-88.83088883688887
"53538","Fort Atkinson","WI","River Front Park","not_available","53549",43.000556833522445,-88.81361163266372
"53538","Fort Atkinson","WI","Barrie Park","210 Robert St","53538",42.930267333984375,-88.84269714355469
"53538","Fort Atkinson","WI","Rock River Park","Rock River Park Rd","53538",42.9299315540106,-88.85850548744202
"53538","Fort Atkinson","WI","Royce Dallman Park","11500 N Charley Bluff Rd","53563",42.843104,-88.973776
"53538","Fort Atkinson","WI","Rock River Clubhouse","1300 Lillian St","53538",42.927669525146484,-88.85628509521484
"53538","Fort Atkinson","WI","General Atkinson Mound Area","Koshkonong Mounds Rd","not_available",42.874637603759766,-88.90827178955078
"53538","Fort Atkinson","WI","Glacial River Trail","Robert Street","53538",42.92618421666967,-88.84106234510423
"53545","Janesville","WI","Palmer Park","not_available","53545",42.676362356532685,-88.99246533335213
"53545","Janesville","WI","Youth Sports Complex","96 Wuthering Hills Dr","53546",42.68035717861665,-88.96681114203437
"53545","Janesville","WI","the park","not_available","53546",42.722007751464844,-88.98109436035156
"53545","Janesville","WI","Ice Age Park","North sable","not_available",42.73978086787801,-88.99672936220331
"53545","Janesville","WI","Park","3220-3298 Satinwood Dr","53546",42.7326375246048,-88.9791887998581
"53545","Janesville","WI","Milton Softball Field","not_available","53563",42.78195270160107,-88.96732807159424
"53545","Janesville","WI","Bond Park","oakhill ave","53545",42.68805018780622,-89.03310276667783
"53545","Janesville","WI","Town Square","not_available","53548",42.681153,-89.023433
"53545","Janesville","WI","Optimist Park","4201 Ruger Ave","53546",42.68006573459251,-88.96050611474519
"53545","Janesville","WI","King Park Sledding Hill","Hilltop Dr.","53563",42.78242652914729,-88.95985639453123
"53545","Janesville","WI","Milton Lawns Memorial Park","2200 Milton Ave","53545",42.70888279265435,-89.00141727179289
"53546","Janesville","WI","Airport Park","1020 W Knilans Rd, Janesville, WI 53546","53546",42.62942123413086,-89.03179168701172
"53548","Janesville","WI","Bond Park","101-199 N Arch St","53548",42.68394624808853,-89.0472836100227
"53549","Jefferson","WI","Stark Park","W7250 County Road V","53551",43.085227966308594,-88.8915023803711
"53551","Lake Mills","WI","Korth Park","Korth Ln","53551",43.07581939957779,-88.94780433623295
"53551","Lake Mills","WI","Memorial Park","not_available","53551",43.088519120555034,-88.8955771806546
"53551","Lake Mills","WI","Rock Lake County Park - Upper","N6999 Rock Lake Road","53551",43.09886932373047,-88.93104553222656
"53555","Lodi","WI","Habermann Park","550 FAIR ST","53555",43.3170372122705,-89.5277309093487
"53555","Lodi","WI","Lodi Idol Contest","700 Fair Street","not_available",43.32175827026367,-89.52816009521484
"53555","Lodi","WI","Madeline Summers Park","not_available","53555",43.358025075887916,-89.57868395316372
"53555","Lodi","WI","Lake Park","Rapp rd","53555",43.360508079715636,-89.57359313964844
"53555","Lodi","WI","Lakeview Okee Conservancy Park","CR-V","53555",43.36082009410097,-89.572434425354
"53556","Lone Rock","WI","Kaul Community Park & Campground","State Hwy 130 & St Killians Rd, Lone Rock ( Bear Valley WI ) 53556","53556",43.285984344136274,-90.2131175994873
"53558","Mcfarland","WI","Brandt Park, Mcfarland","4601 Siggelkow Rd","53558",43.01336284994078,-89.29545365817529
"53558","Mcfarland","WI","Mc Daniel Park","4806 McDaniel Ln","53558",43.02655495193564,-89.3074341537518
"53558","Mcfarland","WI","Lake Farm Park","4330 Libby Rd","53711",43.02952661956396,-89.33124900449576
"53558","Mcfarland","WI","Ahuska Park","Broadway","not_available",43.0475123973449,-89.31862981687416
"53558","Mcfarland","WI","Lafollette County Park","not_available","53589",42.96880613659138,-89.22201129992378
"53558","Mcfarland","WI","Waubesa Beach Club","3rd St","53711",43.007701,-89.336486
"53558","Mcfarland","WI","Arnold Larson Park","5250 Farwell St","53558",43.01670743349768,-89.29352328251761
"53558","Mcfarland","WI","At the Gazebo in McFarland","Exchange St","53558",43.01306776859896,-89.29049108544102
"53558","Mcfarland","WI","A. O. Paunack Park","6399 Bridge Rd","not_available",43.050567166402914,-89.3398309378487
"53558","Mcfarland","WI","Indian Mound Park","Indian Mound Dr","53558",43.011044391360414,-89.29696320534838
"53558","Mcfarland","WI","Goodland County Park","2830 Waubesa Ave","53711",43.000198,-89.340096
"53559","Marshall","WI","Scenic Circle Park","not_available","53559",43.17729413509369,-89.06760513782501
"53559","Marshall","WI","Drover's Woods","5869 Prospector Ave","53559",43.167518529960915,-89.13127917948857
"53559","Marshall","WI","Riverview Park","Riverview Drive","53559",43.17473153345224,-89.06693458557127
"53559","Marshall","WI","Langer Park","900 Canal Rd","53559",43.18282124428349,-89.07663345336914
"53559","Marshall","WI","Riley Deppe County Park","main st","53559",43.17268629998317,-89.07469757104896
"53559","Marshall","WI","Waterloo Regional Trailhead","not_available","53594",43.177345,-89.002686
"53560","Mazomanie","WI","Lions Park","318 Park Street","53560",43.17931066,-89.80307221412659
"53560","Mazomanie","WI","Mazo Skate Park","not_available","53560",43.167810161859165,-89.78635282625943
"53561","Merrimac","WI","Devil's Lake South Shore","S Lake Rd.","53913",43.409793752374775,-89.7264388473991
"53561","Merrimac","WI","Wooded 14","Hwy 113","53913",43.44140696343521,-89.70764150545826
"53561","Merrimac","WI","Nome Street Boat Launch","not_available","53955",43.399151,-89.542434
"53562","Middleton","WI","Oscar Rennebohm Park","4900 Regent St","53705",43.07010414897855,-89.4618213021483
"53562","Middleton","WI","Stricker's Pond Park","7605 Voss Parkway","53562",43.08692351011007,-89.5093854320403
"53562","Middleton","WI","Quarry Park","not_available","53705",43.0723592548717,-89.4444400070696
"53562","Middleton","WI","Junction Ridge Park","Augusta Dr","53562",43.06820661166076,-89.52968990662369
"53562","Middleton","WI","Wexford Park","1101 N Westfield Rd","53717",43.081993,-89.509011
"53562","Middleton","WI","Lakeview Park","6300 Mendota Ave","53562",43.09762997550628,-89.48842763900757
"53562","Middleton","WI","Lucia Crest Park","Owen Dr","not_available",43.072294615383434,-89.44733782698674
"53562","Middleton","WI","Bordner Park","317 Bordner Dr","53705",43.07186108616855,-89.47907040812197
"53562","Middleton","WI","Middleton Bike Park","1322 Pleasant View Rd","53562",43.08753204345703,-89.5439224243164
"53562","Middleton","WI","Nautilus Point Park","321 Nautilus Drive","not_available",43.06181716918945,-89.4882583618164
"53562","Middleton","WI","Merrill Springs Park","5102 Sprung Court","53705",43.081365,-89.466316
"53562","Middleton","WI","Tessa & Hans Reese Woods","Topping Road","not_available",43.07874,-89.449088
"53562","Middleton","WI","Middleton Hills Park - South","6805 Frank Lloyd Wright Ave.","53562",43.11457761357664,-89.49715154168896
"53562","Middleton","WI","Woodland Hills Park","not_available","53717",43.079445191554775,-89.49864140302714
"53562","Middleton","WI","Sauk Creek Park","402 N High Point Road","53717",43.07117462158203,-89.52128601074219
"53562","Middleton","WI","Murphy Park","Highwood Circle","53562",43.11796970988779,-89.51956734708236
"53565","Mineral Point","WI","Water Tower Park","10 Ridge St","53565",42.86240564389464,-90.18617966620272
"53566","Monroe","WI","Lincoln Park","1500 19th Avenue","not_available",42.59352454628323,-89.64011124112596
"53566","Monroe","WI","Twining Park Tennis Courts","2nd St","53566",42.609737798324566,-89.6420431137085
"53566","Monroe","WI","Twining Park","5th St.","53566",42.60879813979349,-89.6442398428917
"53566","Monroe","WI","Rec Park","42.59499	-89.63247","not_available",42.59492270824438,-89.63208675384521
"53566","Monroe","WI","Northeast Park","5th St","53566",42.60816406774139,-89.6266013303671
"53566","Monroe","WI","recreation park","1700 22ns Ave","53566",42.594995252080615,-89.63270182133948
"53566","Monroe","WI","Forest Prairie Park","N3100 Forest prairie park","53566",42.61457073687511,-89.58257803612045
"53572","Mount Horeb","WI","Donald Park","1945 Highway 92","53572",42.960469685066045,-89.67408379807016
"53572","Mount Horeb","WI","daleyville","not_available","53572",42.916954040527344,-89.81456756591797
"53572","Mount Horeb","WI","Mt. Horeb Relay For Life","Grundahl Park","not_available",43.00291339553236,-89.74160588888074
"53572","Mount Horeb","WI","Mount Horeb Skate Park","200 Telemark Pkwy","53572",43.00688552856445,-89.71223449707031
"53575","Oregon","WI","Oregon Jaycee Park","275 North Perry Pkwy","53575",42.92792050900841,-89.37391877174377
"53575","Oregon","WI","Kiser Firemen's Park","245 Brook St","53575",42.92696209727317,-89.38169717788696
"53575","Oregon","WI","Scott Street Tot Park","530 Scott St","53575",42.91700720787048,-89.38048481941223
"53575","Oregon","WI","High Meadows Park","117 Ames St","53575",42.91845882569711,-89.38428587138368
"53575","Oregon","WI","Thomson Park","108 Thomson Ln","53575",42.91671809447582,-89.37615761278458
"53575","Oregon","WI","Meadow View","525 Prairie Grass Rd","53575",42.9270925830757,-89.39920456081029
"53575","Oregon","WI","Madsen Memorial & Waterman (Triangle) Park","121 Janesville St","53575",42.9257012132198,-89.38372492790222
"53575","Oregon","WI","Quarry Hill Park","not_available","53711",42.99940473490275,-89.4157563012734
"53575","Oregon","WI","Rustic Vineyard Park","1013 Vinyard Dr","53575",42.940582275390625,-89.37255859375
"53575","Oregon","WI","Bethel Greenacre Park","326 South Burr Oak Ave","53575",42.922193384432596,-89.38878357410431
"53575","Oregon","WI","Gasner Memorial Park","820 Scott St","53575",42.916718144723134,-89.38445239784346
"53575","Oregon","WI","Windcrest Park","650 Windward Way","53575",42.91611215090266,-89.39034461975098
"53575","Oregon","WI","Hitching Park","not_available","53575",42.927032470703125,-89.38407135009766
"53575","Oregon","WI","Liberty Pole Park","298 Liberty Park Dr","53575",42.93073654174805,-89.40550231933594
"53575","Oregon","WI","Mcgaw Park","5265 Lacy Rd","53711",42.9957790093148,-89.40480965915052
"53575","Oregon","WI","Merri-Hill Park","380 Richards Rd","53575",42.937904386967055,-89.37753438949585
"53575","Oregon","WI","Stone Ridge Park","635 Cherry Wood Dr","53575",42.92093633110542,-89.3949043750763
"53577","Plain","WI","Plain Community Park","Plain,WI,53577","53577",43.28007661497748,-90.04162533080996
"53578","Prairie Du Sac","WI","Sauk City River Walk","Polk St.","53583",43.274596365030284,-89.71791744232178
"53578","Prairie Du Sac","WI","August W. Derleth Park","236 Water St.","53583",43.27890755907343,-89.7177752141826
"53578","Prairie Du Sac","WI","vfw campground","1","not_available",43.29925530837371,-89.727594464534
"53578","Prairie Du Sac","WI","Westwynde Park","not_available","53578",43.291736839466495,-89.74525921805957
"53578","Prairie Du Sac","WI","Meyer Oak Grove Park","780 Phillips Boulevard","53583",43.27029472266726,-89.73502261401798
"53578","Prairie Du Sac","WI","Free Thinkers Park","Washington Ave","not_available",43.27692198583844,-89.72469159931825
"53578","Prairie Du Sac","WI","Junge Park","1535 Hemlock St","53583",43.278642,-89.737388
"53578","Prairie Du Sac","WI","First United Church of Christ Park","not_available","53583",43.276745,-89.725617
"53578","Prairie Du Sac","WI","Fire On The River","VFW Memorial Park","53578",43.29776061508279,-89.72676873207092
"53578","Prairie Du Sac","WI","Marion Park","1st Street","53578",43.28474827408377,-89.72161423454394
"53578","Prairie Du Sac","WI","Graff Park","Water St.","53578",43.28943880736397,-89.71924757130698
"53579","Reeseville","WI","Astico County Park Bridge","N3623 County Road T","not_available",43.32611426323121,-88.94964694976807
"53580","Rewey","WI","Rewey City Park","3rd St","53580",42.84191092807641,-90.39632419905713
"53581","Richland Center","WI","hub city","not_available","53581",43.471367554452044,-90.35531142921123
"53581","Richland Center","WI","Pier Park","17426-17468 Wisconsin 80","53581",43.44561159610748,-90.3632515668869
"53585","Sharon","WI","death park","not_available","53585",42.50549302651302,-88.72551557484813
"53586","Shullsburg","WI","Shullsburg Park","236 W Water St","53586",42.56574950294616,-90.231455203759
"53588","Spring Green","WI","Spring Green Municipal Park","not_available","53588",43.180350609521966,-90.06795010376514
"53588","Spring Green","WI","Swing Valley Fun Park","S13230 Hwy 23","53588",43.177990679649,-90.075012026474
"53588","Spring Green","WI","Spring Green Preserve","E5196A Angelo Lane","53588",43.19798786748657,-90.05905611927813
"53589","Stoughton","WI","Bjoin Park","E Wilson St","53589",42.9234013158483,-89.21969830956314
"53589","Stoughton","WI","Quam Park","1850 Country Club Road","53589",42.94747042402541,-89.24529075622559
"53589","Stoughton","WI","Virgin Lake Park","2029-2061 Roby Rd","53589",42.92721454490514,-89.2443726808718
"53589","Stoughton","WI","Criddle Park","S Monroe St","53589",42.920510031860445,-89.22439183014357
"53589","Stoughton","WI","Mandt Park","315-359 Mandt Pkwy","53589",42.91206930869606,-89.21704145889744
"53589","Stoughton","WI","Oak Knoll","100-158 County Highway B","53589",42.94132188949315,-89.22026960259498
"53590","Sun Prairie","WI","Pheasant Run Park","301-999 Sunfield St","53590",43.17681162472789,-89.22916335138751
"53590","Sun Prairie","WI","Angell Park","100 Park St","53590",43.17884642205216,-89.21017092738526
"53590","Sun Prairie","WI","Carriage Hill Estates Park","540 North Musket Ridge Dr","53590",43.18404947222198,-89.19838428497314
"53590","Sun Prairie","WI","Patriot Park","3333 Congress Way","53718",43.1378,-89.284546
"53590","Sun Prairie","WI","Eastside Field","Trail","53590",43.190223,-89.202337
"53590","Sun Prairie","WI","Cardinal Crest Park","not_available","53590",43.18829491386756,-89.18851114933207
"53590","Sun Prairie","WI","Schey Park","901 Laura St","53590",43.193946838378906,-89.20176696777344
"53590","Sun Prairie","WI","Burke Town Hall Park","5365 Reiner Rd","53718",43.140572,-89.26687199999999
"53590","Sun Prairie","WI","High Crossing Park","5501","53718",43.135494,-89.28487
"53590","Sun Prairie","WI","Smith's Crossing Community Park","1221 O'Keeffe Ave","53590",43.164986999999996,-89.252089
"53590","Sun Prairie","WI","Wetmore Park","555 North St","not_available",43.191013,-89.213686
"53590","Sun Prairie","WI","Hunter's Ridge Park","901 Huntington Drive","53590",43.17024942616761,-89.24353249527616
"53590","Sun Prairie","WI","Prairie Lakes Pavilion","Prairie Lakes Shopping Center","53590",43.16737,-89.270116
"53590","Sun Prairie","WI","Stoneridge Park","300 Stonehaven Dr","53590",43.201012400257916,-89.21758491979662
"53593","Verona","WI","Raymond Ridge Park","not_available","53719",43.02775451864571,-89.50845556145009
"53593","Verona","WI","Veterans Park","Lincoln street","not_available",42.98691154144899,-89.52863574872228
"53593","Verona","WI","Manchester Park","3238 Manchester Rd","not_available",43.0069845718722,-89.49024553418501
"53593","Verona","WI","High Point Park","7499 Watts Road","not_available",43.048641204833984,-89.51189422607422
"53593","Verona","WI","Odana School Park","678 segoe","not_available",43.05159627258962,-89.46980750231027
"53593","Verona","WI","Harmony Hills Park","not_available","53593",43.0090351,-89.5343769
"53593","Verona","WI","Fireman's Park","509 Bruce St","53593",42.97910040981458,-89.5392381653374
"53593","Verona","WI","Prairie Park","...","53711",43.03868248011901,-89.49661495831494
"53593","Verona","WI","Harriet Park","201-299 Mary Lou St","53593",42.99275990838556,-89.538897189453
"53597","Waunakee","WI","Meadow Ridge Park","4002 Meadow Valley Drive","53704",43.13813018798828,-89.40496826171875
"53598","Windsor","WI","Sunset Meadows Park","6789 Sunset Meadow Dr.","53598",43.21768285156814,-89.34135366618176
"53598","Windsor","WI","Fireman's Park","not_available","53598",43.21530724375629,-89.33935858554112
"53703","Madison","WI","Capitol Square","Martin Luther King Jr Blvd","53703",43.07459340578335,-89.38437938690186
"53703","Madison","WI","James Madison Park","614 E Gorham St.","53703",43.08084979378591,-89.38329594979129
"53703","Madison","WI","Tenney Park","N. Thornton Ave.","53703",43.09227470104665,-89.36752328969547
"53703","Madison","WI","B.B. Clarke Beach","835 Spaight Street","not_available",43.0776431939092,-89.36897963304192
"53703","Madison","WI","Orton Park","1103 Spaight St","53704",43.08092540794885,-89.36339378356934
"53703","Madison","WI","The Kohl Center Lawn","601 W Dayton St","53715",43.069323225877625,-89.3943086043601
"53703","Madison","WI","John Wall Family Pavilion","not_available","53703",43.09193281424112,-89.3669725918109
"53703","Madison","WI","Giddings Park","429 castle pl","not_available",43.086856842041016,-89.37696075439453
"53703","Madison","WI","Brearly","Brearly St","53703",43.086936336402495,-89.37706443258614
"53703","Madison","WI","James Madison Park","615 E Gorham St","53703",43.081034,-89.383242
"53703","Madison","WI","Beezow Doo-Doo Zopittybop-bop-bop","800 E Mifflin Street","53703",43.082093,-89.376259
"53703","Madison","WI","Willy Street Park","1002 Williamson Street","53703",43.081092834472656,-89.3679428100586
"53703","Madison","WI","Central Park","234 S Brearly St","not_available",43.0820224705277,-89.36901569366455
"53703","Madison","WI","Brittingham Park Parking Lot","North Shore Dr","53703",43.06544328437587,-89.38865696127787
"53703","Madison","WI","Morrison Park","1441 Morrison St","53703",43.084083557128906,-89.35546112060547
"53704","Madison","WI","Olbrich Park","3451 Atwood Ave","not_available",43.08955527475962,-89.33015586893134
"53704","Madison","WI","Demetral Field","601 North 6th Street","not_available",43.10086181966464,-89.35555431829049
"53704","Madison","WI","Howard Park (aka Olbrich playground)","Lakeland ave","53704",43.09306555,-89.33753009
"53704","Madison","WI","Heritage Heights Park","800 Meadowlark Dr","53714",43.08789925698164,-89.2957592010498
"53704","Madison","WI","Sycamore Park","830 Jana lane","30650",43.1133588427306,-89.30222311835169
"53704","Madison","WI","Johnson Park","35 Bayside Dr","53704",43.10446064478284,-89.36555647678144
"53704","Madison","WI","Reindahl Park","1818 Portage Avenue","53704",43.12557709482801,-89.31728149765016
"53704","Madison","WI","Eastmorland Park","not_available","53714",43.09613800048828,-89.31877899169922
"53704","Madison","WI","Worthington Park","Rosemary","not_available",43.103776998671194,-89.33779329994302
"53705","Madison","WI","Wingra Park","824 Knickerbocker St","53711",43.056535188165704,-89.4268200841283
"53705","Madison","WI","Hoyt Park","Regent Street","53705",43.0683861547811,-89.4411563873291
"53705","Madison","WI","Mckenna Park","1502 Edgehill Dr.","53705",43.084263551597545,-89.4501256942749
"53705","Madison","WI","Glenwood Park","Glenwood St","not_available",43.054541,-89.438086
"53705","Madison","WI","Everglade Park","406 Everglade Dr.","not_available",43.07318878173828,-89.49977111816406
"53705","Madison","WI","Wingra Park and Lakeshore","Edgewood Dr.","53711",43.05857758465597,-89.4246516814712
"53705","Madison","WI","Garner Park","333 S Rosa Rd","53705",43.064018944733355,-89.47761673165289
"53705","Madison","WI","Stevens Street Playground","2710 Stevens Street","not_available",43.07246398925781,-89.43499755859375
"53705","Madison","WI","Reservoir Park","126 Glenway","not_available",43.064037302008366,-89.44061547334367
"53706","Madison","WI","The Hill","45 N Randall Ave, Madison, WI 53715","53715",43.0693473815918,-89.40868377685547
"53706","Madison","WI","Alumni Park","724 Langdon St","53706",43.07635423690991,-89.39892500638962
"53706","Madison","WI","Camp Randall Memorial Park","not_available","53706",43.070596,-89.410087
"53711","Madison","WI","McKee Farms Park","Schumann Dr.","53711",43.01160022192494,-89.43224456080686
"53711","Madison","WI","Olin-Turville Park","1156 Olin-Turville Ct.","53713",43.05444271971289,-89.3777399074582
"53711","Madison","WI","Midland Park","not_available","53715",43.05427172217857,-89.39941397013321
"53711","Madison","WI","UW Arboretum","1207 Seminole Hwy","53711",43.040927848338306,-89.43157000677803
"53711","Madison","WI","Winnequah Park","5323-5447 Healy Ln.","53716",43.062949260338215,-89.34299833327213
"53711","Madison","WI","Henry Vilas Park Playground","702 S Randall Ave","53715",43.06105194618278,-89.41183656482507
"53711","Madison","WI","Aldo Leopold Park","Traceway Drive","53713",43.03010889645548,-89.41812274828406
"53711","Madison","WI","Wyldhaven Park","5199 Tonyawatha Trl","53716",43.063868,-89.349254
"53711","Madison","WI","Monona Youth Dream Park","not_available","53716",43.06258258378709,-89.34292789314712
"53711","Madison","WI","Graham Park","Winnequah Rd","53716",43.05215406902545,-89.33786739767852
"53713","Madison","WI","The Jenni & Kyle Preserve","925 Post Road","53711",43.026483268315985,-89.39992621409719
"53713","Madison","WI","Evjue Forest","Seminole Hwy","53711",43.028726,-89.436766
"53713","Madison","WI","Southdale Park","not_available","53713",43.034909,-89.38641
"53713","Madison","WI","Goodman Park","1402 Wingra Creek Pkwy","53715",43.052307108140184,-89.38633039827116
"53713","Madison","WI","The Thron","Mcdevit","53713",43.032203,-89.424985
"53713","Madison","WI","Manitou Way Outfall","Manitou Way","53711",43.0489271805969,-89.439834816877
"53713","Madison","WI","Ragnar Relay Start","174-668 John Nolen Dr","53715",43.05643040724532,-89.38134841574633
"53713","Madison","WI","Rimrock Park","2906 Rockwood Drive","53713",43.033687591552734,-89.37761688232422
"53714","Madison","WI","Kennedy Park","Retana Drive","53714",43.09277264422077,-89.29369926452637
"53714","Madison","WI","Thurber Park","3325 Thurber Ave","53714",43.103265,-89.331142
"53714","Madison","WI","Olbrich Park","Atwood Avenue","53716",43.08512169106579,-89.32473884335415
"53715","Madison","WI","Edward Klief Park","Charter St","not_available",43.066752039051345,-89.40664509523138
"53716","Madison","WI","Lake Edge Park","4008 Maher Ave","53716",43.081982,-89.317559
"53716","Madison","WI","Quaker Park","4321 Buckeye Rd","53716",43.07541275024414,-89.31896209716797
"53716","Madison","WI","Droster Park","Droster Avenue","53716",43.07867800933921,-89.28470799530976
"53716","Madison","WI","Arrowhead Park","Vogts Lane & Tonyawatha Trail","not_available",43.065102,-89.346725
"53716","Madison","WI","Fireman's Park","4900 Winnequah Rd","53716",43.066885,-89.341646
"53717","Madison","WI","Zion National Park","Utah 9","not_available",43.0758,-89.518
"53717","Madison","WI","Owen Park","Old Sauk","not_available",43.074786,-89.511761
"53718","Madison","WI","Cottage Grove Firemen's  Park","Grove Street","53527",43.103917775496406,-89.27488603659413
"53719","Madison","WI","Pineway Park","Pine Way Trail","not_available",43.01519122050245,-89.45892333984375
"53719","Madison","WI","Marlborough Park","2222 Whenona Dr","53711",43.0288703128811,-89.45043473283361
"53719","Madison","WI","Valley Ridge Park","1281 Meadow Sweet Dr","not_available",43.03865051269531,-89.51509094238281
"53719","Madison","WI","Prairie Ridge Park","Raymond","53719",43.02626922737329,-89.51015711155395
"53719","Madison","WI","Western Hills Park","Whitney Way","not_available",43.02634492381586,-89.47479010757053
"53719","Madison","WI","Seminole Glenn Park","5872 Schumann Dr","53711",43.01032735502399,-89.45252895355225
"53719","Madison","WI","Midtown commons park","1310 Waldorf Blvd","53719",43.0376356884996,-89.5245965955033
"53726","Madison","WI","Hillington Triangle Park","435 Hillington Way","53726",43.06352233886719,-89.42681884765625
"53801","Bagley","WI","Sand Cave Trail","not_available","53801",42.989286,-91.115526
"53805","Boscobel","WI","Floyd Von Haden Recreation Area","Hwy 61","53805",43.148722033333335,-90.71448466666666
"53806","Cassville","WI","Turkey River Landing","Oak Rd.","not_available",42.717601497258826,-91.01037740707397
"53807","Cuba City","WI","Eagle Point Park","2601 Shiras Avenue","52001",42.53916873854672,-90.64956665039062
"53807","Cuba City","WI","Jamestown Park","2164-2198 Valley Ln","53807",42.5818869866023,-90.59537989950556
"53807","Cuba City","WI","Terrace Room","not_available","52001",42.539762,-90.65135
"53807","Cuba City","WI","Dickeyville Community Park","not_available","53808",42.63160008188477,-90.59571740860711
"53807","Cuba City","WI","Splinter Park","Cuba City,WI,53807","53807",42.60377884198426,-90.4287968949006
"53807","Cuba City","WI","Veterans Park","not_available","53818",42.70121383666992,-90.51090240478516
"53810","Glen Haven","WI","Glen Haven Recreation Area","Rock School Rd","53810",42.826989901079315,-91.07612786284186
"53811","Hazel Green","WI","A.Y. McDonald Park","Volunteer Dr","52001",42.52713118968348,-90.64329769039126
"53811","Hazel Green","WI","Miller Riverview Park","1851 Admiral Sheehy Dr.","52001",42.52123789584544,-90.64073797325844
"53813","Lancaster","WI","klondyke Park","not_available","53813",42.861419677734375,-90.69245147705078
"53818","Platteville","WI","Mound View Park","Mitchell Hollow Rd","53818",42.74012619086247,-90.46176173173365
"53818","Platteville","WI","City Park","N Bonson St","53818",42.73512979574696,-90.47910690307617
"53818","Platteville","WI","Highland Park","445-499 Stevens Ave","53818",42.73625314235687,-90.47162890434265
"53818","Platteville","WI","Indian Park","N 4th St","53818",42.73901737989585,-90.47638062367058
"53818","Platteville","WI","Jenor Park","E Mineral St","53818",42.73468849649917,-90.47593116760254
"53818","Platteville","WI","Legion Park & Field","Pitt St","53818",42.74472284747206,-90.46957285745938
"53818","Platteville","WI","Sherman Park","S. Court Street","not_available",42.73046243840566,-90.47962129191
"53818","Platteville","WI","Valley View Park","Southwest Rd","53818",42.729235,-90.485222
"53820","Potosi","WI","Mississippi River","Park Ln","53820",42.6456680113426,-90.70573956643463
"53821","Prairie Du Chien","WI","Lawler Park","not_available","53821",43.05267223556598,-91.15977675820483
"53821","Prairie Du Chien","WI","Triangle Park","not_available","52157",43.024869,-91.174899
"53821","Prairie Du Chien","WI","Lochner Park","915-931 S Wacouta Ave","53821",43.0400658,-91.14451968333333
"53901","Portage","WI","Veterans Park","not_available","53901",43.54020938880495,-89.44583947293968
"53901","Portage","WI","sanborn park","Sanborn","53901",43.541233183275686,-89.47868738107013
"53901","Portage","WI","Riverside Park","300 E Wisconsin St","53901",43.537227630615234,-89.45610809326172
"53901","Portage","WI","Lower Narrows State Natural Area","not_available","53913",43.48968,-89.64043
"53901","Portage","WI","Sanborn park","Sanborn St","53901",43.54304829945043,-89.47931037499596
"53901","Portage","WI","Lincoln Park","600-698 E Howard St","53901",43.54649851071756,-89.45101198929771
"53901","Portage","WI","Sunset Park","Sunset St","53901",43.54130828434381,-89.47868276626384
"53913","Baraboo","WI","Ochsner Park & Zoo","8th Avenue","53913",43.47366986877332,-89.75419628220902
"53913","Baraboo","WI","Pewits Nest State Natural Area","County Rd W","53913",43.45255968342562,-89.78948545136932
"53913","Baraboo","WI","Man Mound County Park","Man Mound Road","53913",43.486804738190635,-89.70129570330478
"53913","Baraboo","WI","Steinhorst Park","1107 15th St","53913",43.4822,-89.724478
"53913","Baraboo","WI","Max J. Hill Park","Connie Rd.","53913",43.47545973111974,-89.7644370087833
"53913","Baraboo","WI","Wilderland Park","Wilderness Resort","53965",43.59188462457823,-89.7833844312845
"53913","Baraboo","WI","Timme Mill","not_available","53965",43.5846879409333,-89.79731280352631
"53916","Beaver Dam","WI","Dodge County Park","N8379 County Road CP","53916",43.49911880493164,-88.88170623779297
"53916","Beaver Dam","WI","Tahoe Park","96 La Crosse","53916",43.45380262937518,-88.84848228338664
"53916","Beaver Dam","WI","Swan City Park","400-498 S University Ave","53916",43.45223684096493,-88.8294680989066
"53916","Beaver Dam","WI","Roller Ave Park","not_available","53916",43.446410920933815,-88.8349772914276
"53916","Beaver Dam","WI","Smithe Court","chatham st","53916",43.436032028677694,-88.85273772255633
"53916","Beaver Dam","WI","Waterworks Park","858-898 Denning Ave","53916",43.47259710688785,-88.84625597189145
"53916","Beaver Dam","WI","Cotton Mill Park","95 West St","53916",43.454551696777344,-88.84315490722656
"53919","Brandon","WI","Brandon Community Park","not_available","53919",43.73512595531001,-88.78802506178803
"53919","Brandon","WI","The Brandon Park","not_available","54971",43.72763942293354,-88.77221860625038
"53923","Cambria","WI","Tarrant Lake Park","not_available","53923",43.54370986765304,-89.10307476275614
"53925","Columbus","WI","Columbus Fireman's Park","not_available","53925",43.32978011812331,-89.02348038723606
"53925","Columbus","WI","Firemans Park","1049 Park Ave","53925",43.3264045715332,-89.0248031616211
"53929","Elroy","WI","Elroy Fairgrounds","not_available","53929",43.7300307769354,-90.26764585454363
"53929","Elroy","WI","angel valley","not_available","54638",43.794801496256575,-90.37261249440982
"53930","Endeavor","WI","Endeavor Lions Park","201-327 E Prairie St","53930",43.712911482784435,-89.46859351860365
"53934","Friendship","WI","Community Park in Grand Marsh","High Street","53936",43.88700080820519,-89.70631957054138
"53941","La Valle","WI","Ramsey Park","not_available","53959",43.532070129823765,-90.02563318645866
"53941","La Valle","WI","Hemlock Park","not_available","53941",43.588279724121094,-90.12985229492188
"53944","Lyndon Station","WI","Lyndon Station War Memorial","County Hwy HH","53944",43.71960418665828,-89.89761760900775
"53944","Lyndon Station","WI","Travis Fitzgerald Memorial Park","not_available","53944",43.71269128399821,-89.8998044853307
"53946","Markesan","WI","Puckaway Park and Launch","not_available","53949",43.770635,-89.192374
"53948","Mauston","WI","Riverside park","not_available","53948",43.80159687933105,-90.08224367718681
"53948","Mauston","WI","Park","222-298 Mansion St","53948",43.79671292636271,-90.07505765035108
"53948","Mauston","WI","Pleasant Acres","W8741 Pleasant Acres Dr","53950",43.857686,-90.203432
"53949","Montello","WI","Washington Square Park","Liberty St","53953",43.76515902059874,-89.4587516784668
"53949","Montello","WI","Daggett Memorial Park","1-149 E Montello St","53949",43.792255949013764,-89.32507038116455
"53949","Montello","WI","Montello City Park","345 Doty St","53949",43.79807189872033,-89.32880401611328
"53950","New Lisbon","WI","Kenedy Park","not_available","53950",43.918053,-90.17235
"53954","Pardeeville","WI","Chandler Park","Chandler Park Dr","53954",43.54070922973245,-89.29636001586914
"53954","Pardeeville","WI","Wyona Park","Hwy GG","53960",43.495177627197286,-89.29516446832373
"53955","Poynette","WI","Pauquette Park","S Main St","53955",43.39467619028572,-89.38946232285869
"53956","Randolph","WI","Randolph Park","not_available","53956",43.540051576096054,-89.01140956411261
"53959","Reedsburg","WI","Anna Stone Memorial Park","300 W. 2nd Street","53959",43.53369140625,-90.01814270019531
"53959","Reedsburg","WI","Oak park","Oak street","53959",43.53775833,-89.998391
"53959","Reedsburg","WI","Nishan Park","1700 8th St","not_available",43.541887,-89.986436
"53960","Rio","WI","Fireman's Park","Lyons Avenue","not_available",43.445588838818935,-89.23333282873882
"53963","Waupun","WI","Tanner Park","510 E. Spring St.","53963",43.64139938354492,-88.72171783447266
"53963","Waupun","WI","Waupun County Park","not_available","53963",43.64289611600087,-88.75157251158824
"53963","Waupun","WI","Johnson's West End Park","200-298 Beaver Dam St","53963",43.63050484845275,-88.74467569257116
"53964","Westfield","WI","Pioneer Park","Pioneer park road","53964",43.890721168576306,-89.48561360103275
"53965","Wisconsin Dells","WI","Timbavati Wildlife Park","2220 Wisconsin Dells Pkwy","53965",43.620900315104905,-89.78336265144304
"54001","Amery","WI","Clear Lake Park","398 7th St NW","54005",45.25441591860024,-92.2784729831827
"54001","Amery","WI","Michael Riverfront Park","not_available","54001",45.309517985559346,-92.36018767046082
"54001","Amery","WI","Michaels park","Cattail Trail","54001",45.31088767,-92.36018154
"54001","Amery","WI","D. D. Kennedy Park","1449-1459 Kennedy Mill Ave","54001",45.378652811050415,-92.45920479297638
"54002","Baldwin","WI","New Centerville","not_available","54002",44.86780785666405,-92.41351136588003
"54007","Deer Park","WI","Deer Park","200 South St W","54007",45.18695831298828,-92.38790893554688
"54009","Dresser","WI","Pothole Park","Highway 36","not_available",45.39960487025666,-92.65164552361018
"54009","Dresser","WI","Interstate Park","not_available","54009",45.395286825483666,-92.63658815166713
"54009","Dresser","WI","Devil's Parlor","not_available","55084",45.39981006029234,-92.6509833488399
"54011","Ellsworth","WI","East End Park","372, 398 E Main St","54011",44.73369,-92.46888
"54013","Glenwood City","WI","Glen Hills County Park","1049 Rustic Road 3","54013",45.00791549682617,-92.17414855957031
"54014","Hager City","WI","Anderson Park","not_available","55066",44.571715053393284,-92.60369244576151
"54014","Hager City","WI","Izzak Walton Club House","744-1098 E 5th St","55066",44.570283,-92.518721
"54016","Hudson","WI","Lakefront Park","414 1st St","54016",44.974845487477936,-92.75853947354693
"54016","Hudson","WI","Birkmose Park","66 Coulee Rd","54016",44.96751986037658,-92.75427751319303
"54016","Hudson","WI","Weitkamp Park","648 61st St","54016",44.95381082881213,-92.71257947261122
"54016","Hudson","WI","Lakeside Park","2 Central Avenue","55003",45.016574718797436,-92.77348604537329
"54016","Hudson","WI","Prospect Park","not_available","55125",44.973823256890434,-92.75246074325108
"54016","Hudson","WI","Birkmose Park Indian Burial Mounds","Coulee Road","54016",44.98400927213329,-92.7576648622181
"54016","Hudson","WI","Humphries Park","not_available","55043",44.952577,-92.779166
"54016","Hudson","WI","HHS Courtyard","not_available","54016",44.97971,-92.739854
"54016","Hudson","WI","Hudson Hot Air Balloon Affair","300 13th St","54016",44.979158479148815,-92.74211883544922
"54016","Hudson","WI","Park & Ride","1046-1062 Rivercrest Rd N","55043",44.964059975555834,-92.77187726872474
"54016","Hudson","WI","Cully Park","T","not_available",44.94569729459365,-92.77596114515089
"54016","Hudson","WI","El Winter Wonderland","not_available","55003",45.021148681640625,-92.79125213623047
"54016","Hudson","WI","Ferry Park","715 Galahad Rd N","54016",45.00263214111328,-92.7628173828125
"54016","Hudson","WI","Glen Oaks Park","525-587 4th St N","54016",44.996862852641826,-92.77794890152735
"54017","New Richmond","WI","Hatfield Trail","Blue Bill ave","54017",45.134828583058464,-92.54324913024902
"54017","New Richmond","WI","Nature Center Park","not_available","54017",45.117588,-92.55883
"54017","New Richmond","WI","Float Rite Park on the Apple River","710 Spring St","54025",45.132907104336724,-92.68247059007662
"54020","Osceola","WI","Standing Cedars Natural Area","645 River Ridge Road","54020",45.30235,-92.72951
"54020","Osceola","WI","Somerset Landing","Marine Rd","54025",45.205747243259474,-92.75894165039062
"54021","Prescott","WI","Mercord Park","101-299 Front St","54021",44.746971130371094,-92.80164778232574
"54021","Prescott","WI","Freedom Park","769-783 Monroe St","54021",44.74228305138149,-92.79104232788086
"54021","Prescott","WI","St. Croix Bluffs Park","not_available","54021",44.765181500664944,-92.79486340390024
"54022","River Falls","WI","Hoffman Park","1058-1098 E Division St.","54022",44.86535968020009,-92.61011123657227
"54022","River Falls","WI","Wells Park","250 Kennedy St","54022",44.841976165771484,-92.62516021728516
"54022","River Falls","WI","Glen Park","not_available","54022",44.85194412484082,-92.63351751658695
"54022","River Falls","WI","Hoffman Park Volleyball Courts","673-999 Hanson Dr","54022",44.864510917768165,-92.60960748437742
"54022","River Falls","WI","Knollwood Park","1834 Morning Glory Drive","54022",44.837284088134766,-92.61071014404297
"54022","River Falls","WI","Ryan Desanctis Park","17-23 Dry Run Dr","54022",44.86336864608517,-92.64947728467523
"54022","River Falls","WI","Spring Creek Park","1837 Greenwood Valley Rd.","54022",44.838282,-92.631898
"54022","River Falls","WI","Brandan's Park","633 Foster Street","54022",44.84861755371094,-92.6406021118164
"54023","Roberts","WI","Badlands Snow Park","772 Kinney Rd","54016",44.96102270523849,-92.58795174137398
"54023","Roberts","WI","Warren Park","700-710 112th St","54023",44.960695016904914,-92.5772704727272
"54023","Roberts","WI","Centennial Square And Veteran's Park","305 W Pine St","54023",44.981025,-92.557261
"54024","Saint Croix Falls","WI","Lions Park. WI","1501-1513 240th St","54024",45.42754031974804,-92.64586120861655
"54024","Saint Croix Falls","WI","White Pine Park","not_available","54024",45.410382,-92.639948
"54024","Saint Croix Falls","WI","Cherry Hill Park","Maple Street","55084",45.411109924316406,-92.66082763671875
"54024","Saint Croix Falls","WI","Triangle Park","Triangle Park, Park Ave & 5th Street","not_available",45.57132685278502,-92.4737099700528
"54024","Saint Croix Falls","WI","South Lions Park & Boat Landing","County Road 16 and State Highway 95","not_available",45.427545704877694,-92.65058734519779
"54024","Saint Croix Falls","WI","Lions Park St Croix Falls Wi","State Hwy 87","54024",45.41532897949219,-92.6760025024414
"54024","Saint Croix Falls","WI","St. Croix National Scenic Riverway","401 N Washington St","54024",45.4161406628219,-92.64626897588755
"54027","Wilson","WI","Wilson Memorial Ball Park","Main St","not_available",44.952614916322425,-92.17380102459965
"54028","Woodville","WI","Eau Galle Recreation Area","not_available","54767",44.85914121012411,-92.24500929187107
"54082","Houlton","WI","St Croix River Boom Site","9056-9078 St Croix Trail N","55082",45.08052575085981,-92.79876383931652
"54082","Houlton","WI","Arcola Heights Park","not_available","55082",45.093625403600086,-92.79132099473426
"54102","Amberg","WI","Dave's Falls County Park","County Park Rd.","54102",45.49471351938078,-87.98805367920482
"54104","Athelstane","WI","Goodman Park","not_available","54104",45.5187594038975,-88.33921051539953
"54104","Athelstane","WI","Peshtigo River State Forest","not_available","54114",45.31479464549483,-88.19801568069701
"54104","Athelstane","WI","Eighteen Foot Falls","not_available","54119",45.58711160947642,-88.1296063028276
"54106","Black Creek","WI","Yard Ape Ave","607 N Main St","54106",44.4798,-88.451099
"54107","Bonduel","WI","Village Park","214-218 Park St","54107",44.74310489699247,-88.44128507397811
"54110","Brillion","WI","Freitag Memorial Park","Church St","54110",44.20167133651487,-88.14397120843601
"54110","Brillion","WI","Hilbert Civic Park","201-299 N 8th St","54129",44.14275404723825,-88.16328764377492
"54110","Brillion","WI","Horn Park","201-269 Park Ave","54110",44.17786973942912,-88.05858207197933
"54111","Cecil","WI","Advance Park","County Rd E","54111",44.787725508685966,-88.33274395271044
"54111","Cecil","WI","Oconto River Park","not_available","54124",44.84366246157577,-88.35986689580002
"54113","Combined Locks","WI","Van Zeeland Park","114 Elm St","54113",44.269749999367654,-88.32168881708186
"54113","Combined Locks","WI","Doyle Park","100 Van Buren St","54140",44.27666027595585,-88.31124790381703
"54113","Combined Locks","WI","Heesakker Park","1509 E. Lincoln Ave.","54140",44.277427673339844,-88.29586791992188
"54113","Combined Locks","WI","Memorial Park","360 Wallace St","54113",44.2652942632966,-88.31217344990213
"54113","Combined Locks","WI","Triangle Park","1010 Prospect St","54113",44.27524948120117,-88.32184600830078
"54113","Combined Locks","WI","Don Fries Recreational Area","not_available","54113",44.26553569336692,-88.30701387209587
"54113","Combined Locks","WI","Lindberg Park","Park St.","54113",44.26655745342195,-88.3057084539069
"54113","Combined Locks","WI","Island Park","River St","54140",44.27590008463058,-88.31674867999594
"54114","Crivitz","WI","Veterans Memorial Park","Kitty Dell Cir","54114",45.268600771429604,-88.21248115088521
"54114","Crivitz","WI","Johnson Falls Hydroelectric Dam","not_available","54161",45.28682,-88.160108
"54115","De Pere","WI","Legion Park","washington and charles","54115",44.44528605658272,-88.04859914788153
"54115","De Pere","WI","Voyageur Park","100 William St","54115",44.4520715299441,-88.06378841400146
"54115","De Pere","WI","Preble Park","451-479 Skyline Blvd","54302",44.492268311050346,-87.96835443895273
"54115","De Pere","WI","Rusk Park","not_available","54115",44.448622391283,-88.0454078924709
"54115","De Pere","WI","Sand Acres Park","3680 Misty Meadow Ln","54115",44.45256341652339,-88.10548522022157
"54115","De Pere","WI","Cornerstone Community Center","1640 Fernando Dr","54115",44.46165990369717,-88.12587486296628
"54115","De Pere","WI","Astor Park","900 Clay St","54301",44.49651118622986,-88.00939600401504
"54115","De Pere","WI","Hidden Valley Park","1556 waube lane","not_available",44.47462868569314,-88.1078068956751
"54115","De Pere","WI","Green Isle Park","2500 Greene Ave.","54301",44.466695594860916,-88.01188310310397
"54115","De Pere","WI","Ashwaubomay Memorial River Park","2881 S. Broadway","54304",44.46618357688358,-88.0612744658915
"54115","De Pere","WI","VFW Memorial Park","not_available","54130",44.37917450223177,-88.28969846218925
"54115","De Pere","WI","Fonferek's Glen","4205 Memory Ln","54311",44.42424157880286,-87.94071699245389
"54115","De Pere","WI","Patriot Park","733 Colleen Lane","54115",44.42557467599639,-88.0851312662955
"54115","De Pere","WI","Fort Howard Park","2153-2185 Crary St","54304",44.487994790092316,-88.0467939376831
"54115","De Pere","WI","DeBroux Park","Brighton Place","54311",44.46147067156785,-87.9362257190271
"54115","De Pere","WI","Christa McAluffe Park","3010 Sitka St.","54311",44.49614537601851,-87.92636329509394
"54115","De Pere","WI","East River Van Beaver Park","John Street","not_available",44.49612813890196,-87.99425492162486
"54115","De Pere","WI","Smith Park","2319 Shady Ln","54313",44.498315000000005,-88.094111
"54115","De Pere","WI","Lois Aubinger Park","not_available","54304",44.494708,-88.069418
"54115","De Pere","WI","Ledgeview Park","Dickinson Rd","not_available",44.435066128069764,-88.02517130966056
"54115","De Pere","WI","Wilder Park","not_available","54311",44.48508981651458,-87.94821267494989
"54115","De Pere","WI","Shamrock Park","not_available","54180",44.328827,-88.200249
"54115","De Pere","WI","Creviere Commons","104 N Broadway","54115",44.44955062866211,-88.0603256225586
"54121","Florence","WI","Lodal Park","not_available","49802",45.79846125002602,-88.09216618537903
"54121","Florence","WI","Menomonee River Recreation Area","Sterling St.","49802",45.78632,-88.092285
"54121","Florence","WI","Florence County Fair Park","5505 County N","54121",45.917428447857,-88.25405045959701
"54121","Florence","WI","Iron Mountain Park","not_available","49801",45.81836170150732,-88.09146003158203
"54126","Greenleaf","WI","Greenleaf Fireman's Park","Fair Rd","54126",44.32066310021463,-88.09547363872674
"54129","Hilbert","WI","Calumet County Park","not_available","54129",44.108850528599774,-88.32308292388916
"54129","Hilbert","WI","Wanick Choute Park","Castle Dr","54169",44.178293195928646,-88.2722336306962
"54130","Kaukauna","WI","Darboy Community Park","Noe Rd","54915",44.22934524444926,-88.332094007743
"54130","Kaukauna","WI","Legion Park","1125 Grand Ave.","54140",44.28446409044102,-88.31779275202013
"54130","Kaukauna","WI","Van Lieshout Park","721 W. Elm Dr.","54140",44.29378794651555,-88.32434892654419
"54130","Kaukauna","WI","Kaukauna Veterans Memorial Park","420 Lawe St","54130",44.28347836674409,-88.26583653688431
"54130","Kaukauna","WI","Nikki's Darling Little Garbage Dump","206 Dodge st","54130",44.276521,-88.271595
"54130","Kaukauna","WI","John St Park","226-398 N John St","54136",44.275283583333334,-88.33693466666666
"54130","Kaukauna","WI","Bard's Ned Kelly Memorial Dog Park: Outlaw These Paws","202 Dodge St","54130",44.27639709070084,-88.2718915786832
"54130","Kaukauna","WI","Sunset Park","Sunset Park Rd","not_available",44.27177020839744,-88.34550619125366
"54136","Kimberly","WI","Roosevelt Park","not_available","54136",44.268776999194586,-88.32530087660439
"54136","Kimberly","WI","Memorial Park","311 E Kimberly Ave","54136",44.2728226659892,-88.33149433135986
"54138","Lakewood","WI","Lakewood Town Park","not_available","54138",45.303317,-88.521125
"54138","Lakewood","WI","Lakewood Town Hall","17258 National Forest Road 2341","54138",45.30283496,-88.52111577987671
"54138","Lakewood","WI","Nicolet National Forest: Lakewood Ranger Station","15085 State Rd 32","54138",45.29468849090689,-88.51430506616704
"54139","Lena","WI","west side park","not_available","54154",44.874630085883396,-88.15398061203857
"54139","Lena","WI","Memorial Field","601 E Central Ave","54154",44.877178,-88.137968
"54139","Lena","WI","Crystals Dog Training N Boarding","6865 Fredrickson Rd","54139",44.91974,-88.03124
"54140","Little Chute","WI","Little Chute Park/ Soccer Field","not_available","54140",44.2923854217239,-88.30682874245062
"54140","Little Chute","WI","Kinley Tot Lot","1609 Grant St","54140",44.290724,-88.30580400000001
"54143","Marinette","WI","Badger Park","not_available","54157",45.06017661591501,-87.75096798662369
"54143","Marinette","WI","Water Tower Park","not_available","49858",45.1309644822408,-87.62386274593749
"54143","Marinette","WI","Marinette City Park","not_available","54143",45.09124464885599,-87.63814936981922
"54143","Marinette","WI","Gibraltar Town Park","9141 Cottage Row","54212",45.12936935321206,-87.63376335674558
"54143","Marinette","WI","John Henes Park","not_available","49859",45.14008900600162,-87.6010929543949
"54151","Niagara","WI","Niagara Heights Park","not_available","54151",45.78293535980423,-88.01201978610361
"54151","Niagara","WI","Pembine Run","not_available","54156",45.63722229003906,-87.9906234741211
"54153","Oconto","WI","Ner-park","not_available","54153",44.89983474137301,-87.86447368357366
"54153","Oconto","WI","Holtwood Park","Holtwood way","54153",44.886387133039925,-87.88899561820124
"54155","Oneida","WI","Ted Fritsch Park","LaCount Rd","not_available",44.52856882317623,-88.12099479661629
"54155","Oneida","WI","Family park","not_available","54313",44.56754814597439,-88.11894964337561
"54155","Oneida","WI","Cora House Park","not_available","54155",44.505295,-88.14314
"54162","Pulaski","WI","Shippey Park","not_available","54162",44.67061022589488,-88.23754919020197
"54165","Seymour","WI","Rock Ledge Park","406 W High St","54165",44.507521999999994,-88.335054
"54166","Shawano","WI","Pella","County D","54950",44.74283596466009,-88.80096341601693
"54166","Shawano","WI","Sunset Park","end of North Franklin St.","54166",44.78651696484093,-88.61212972748858
"54166","Shawano","WI","Memorial Park","not_available","54166",44.77183498845754,-88.60801012956125
"54166","Shawano","WI","Diamonds By The Tank","116 E Lieg Ave","54166",44.77082824707031,-88.60807800292969
"54166","Shawano","WI","Sturgeon Park","W Oshkosh St","54166",44.77414473271274,-88.61942995425854
"54166","Shawano","WI","Gibson Island","Clover leaf lake road","not_available",44.687614201244294,-88.65167916710021
"54170","Shiocton","WI","Shiocton Lake Park","Lake Park St","54170",44.44558047496213,-88.56941226193106
"54171","Sobieski","WI","Reinhard Family Picnic Grounds","not_available","54171",44.72258758544922,-88.07401275634766
"54173","Suamico","WI","sensiba","not_available","54173",44.634042135953926,-88.02174093483572
"54201","Algoma","WI","Forestville Dam County Park","467-475 Mill Rd","54213",44.69354393002998,-87.4902318399926
"54201","Algoma","WI","Olson Park","-","54201",44.616389569277494,-87.4446121550119
"54201","Algoma","WI","Fred L. Peterson Memorial Park","not_available","54201",44.61614818006004,-87.43860163217703
"54202","Baileys Harbor","WI","Clark Park","3900 County Road F","54212",45.12527084350586,-87.22835540771484
"54202","Baileys Harbor","WI","Harborside Park","9986 Water St. (Hwy. 42)","54211",45.15556825,-87.17016411
"54202","Baileys Harbor","WI","Baileys Harbor Recreational Park","Summit Rd","54202",45.05243097844492,-87.13873558590815
"54202","Baileys Harbor","WI","Pioneer Park","not_available","54234",45.155827,-87.171696
"54204","Brussels","WI","Sugar Creek County Park","not_available","54204",44.787292,-87.660406
"54204","Brussels","WI","Town Park","1332 Junction Rd","54204",44.73508834838867,-87.6180648803711
"54208","Denmark","WI","Denmark Village Memorial Park","not_available","54208",44.34756227650139,-87.82430201768875
"54208","Denmark","WI","Cherney Maribel Caves County Park","County Highway R","not_available",44.2859321943099,-87.77222411691041
"54208","Denmark","WI","Neshota Co. Park","Park Entrance Rd","54208",44.395757072948825,-87.81621632635529
"54208","Denmark","WI","Lily Lake","3346-3998 Lily Lake Rd","54311",44.42899953494176,-87.85469013511542
"54209","Egg Harbor","WI","Harbor View Park","7809 State Highway 42","54209",45.04983800599762,-87.2811097601308
"54209","Egg Harbor","WI","Frank E. Murphy County Park","not_available","54209",45.014961090788205,-87.33192783384354
"54210","Ellison Bay","WI","Ellison Bluff County Park","not_available","54210",45.25511633641708,-87.10265764287793
"54210","Ellison Bay","WI","Door Bluff Headlands County Park","12900 Door Bluff Park Rd","54211",45.29717260405004,-87.06105401762575
"54210","Ellison Bay","WI","Ellison Bay Overlook","County Park","not_available",45.25598446692726,-87.10826167487045
"54210","Ellison Bay","WI","Liberty Grove Town Park","Ellison Bay Beach","54210",45.25294744994602,-87.07772883387646
"54210","Ellison Bay","WI","Fitzgerald Park","Old School Rd","54210",45.25928157740073,-87.06995929523865
"54212","Fish Creek","WI","Sunset Beach Park","Main St.","54212",45.12907303796747,-87.25170200179956
"54212","Fish Creek","WI","Nicolet Beach - Peninsula State Park","10170 Shore Rd","54212",45.165128,-87.223425
"54212","Fish Creek","WI","Peninsula Park Site 848","not_available","54212",45.164965,-87.217298
"54212","Fish Creek","WI","Fish Creek Park","4055 Main St.","54212",45.12301254272461,-87.23914337158203
"54216","Kewaunee","WI","Music in the Park","not_available","54216",44.45967361783401,-87.50262050778544
"54216","Kewaunee","WI","Bruemmer Park","County Road F","54216",44.4603558785968,-87.55118599428765
"54217","Luxemburg","WI","Bay Shore County Park","5637 Sturgeon Bay Rd","54229",44.636080847993846,-87.80142066062798
"54217","Luxemburg","WI","Fireman's Park","207 Maple St","54217",44.540977478027344,-87.7072982788086
"54217","Luxemburg","WI","Sugarbush Tractor Pulls","5970 Humboldt Rd","54217",44.5010986328125,-87.78189849853516
"54220","Manitowoc","WI","Little Manitowoc River Walkway","900 Maritime Dr","54220",44.105661191116525,-87.6464581489563
"54220","Manitowoc","WI","Silver Creek Park","not_available","54220",44.061329,-87.655047
"54220","Manitowoc","WI","Dale Street Park","3520 Dale St","54220",44.092037200927734,-87.69197082519531
"54220","Manitowoc","WI","Riverview Park","708 N Water St","54220",44.10083770751953,-87.66267395019531
"54220","Manitowoc","WI","Whitelaw Sportsmans Park","Hickory St","54247",44.14644867161102,-87.83258095166208
"54220","Manitowoc","WI","Calumet Avenue Wayside Park","2106 S 42nd St","54220",44.073097229003906,-87.7020263671875
"54220","Manitowoc","WI","Branch Park","8337-8999 U.S. 10","54230",44.145833816666666,-87.79601296666667
"54220","Manitowoc","WI","Lakeview Park","301 Huron St","54220",44.10169219970703,-87.65129852294922
"54220","Manitowoc","WI","Pulaski Square","1715 Columbus St","54220",44.081539154052734,-87.67132568359375
"54220","Manitowoc","WI","Town of Two Rivers Firemens Park","6525 County Road B","54241",44.17693491326504,-87.64856100082397
"54220","Manitowoc","WI","Emma Radant Park","2201 Flambeau St","54220",44.068763732910156,-87.6760482788086
"54220","Manitowoc","WI","Schuette Park","Broadway Street","54220",44.09805285078345,-87.69169920677557
"54220","Manitowoc","WI","Rheaume Park","1145 Fleetwood Drive","54220",44.11048889160156,-87.68682098388672
"54220","Manitowoc","WI","CP","N. 18th St.","54220",44.0982387,-87.6616034
"54220","Manitowoc","WI","Washington Park","1000-1098 S 11th St","54220",44.088247418403625,-87.662611
"54220","Manitowoc","WI","Lower Cato Falls County Park","12600-12762 County Road JJ","54230",44.090271154211614,-87.84399391179615
"54227","Maribel","WI","Maribel Fireman Park","not_available","54227",44.2776666059708,-87.80432544918304
"54228","Mishicot","WI","Mishicot Dam","not_available","54228",44.238329,-87.641745
"54229","New Franken","WI","Wequiock Falls County Park","3426 Bay Settlement Road","54311",44.56721833394663,-87.89201182923078
"54230","Reedsville","WI","Manitowoc River Clarks Mills","Mill St","54230",44.11702752113342,-87.85989224910736
"54230","Reedsville","WI","Veterans Memorial Community Center","136 E Wilson St","54245",44.069156646728516,-87.88374328613281
"54234","Sister Bay","WI","Sister Bay Beach and Waterfront Park","648 N Bay Shore Dr","54234",45.18957022834394,-87.12195226517413
"54234","Sister Bay","WI","Sister Bay Skate Park","111 Autumn Ct","54234",45.188395,-87.109498
"54234","Sister Bay","WI","dog park","woodcrest rd","not_available",45.189122557640076,-87.10761845111847
"54235","Sturgeon Bay","WI","Cave Point County Park","not_available","54235",44.930508933418714,-87.17302710398579
"54235","Sturgeon Bay","WI","Otumba Park","225 W Juniper St","54235",44.83043366228784,-87.38922007634088
"54235","Sturgeon Bay","WI","George K. Pinney County Park","4877 North Bay Shore Drive","54235",44.90342660674266,-87.4049244338792
"54235","Sturgeon Bay","WI","Sunset Park","747 N 3rd Avenue","54235",44.845666953021556,-87.38514053265749
"54235","Sturgeon Bay","WI","Martin Park","207 S 3rd Ave","54235",44.832133509032815,-87.37498525683948
"54235","Sturgeon Bay","WI","Wisconsin Motorcycle Memorial","4758 Mathey Rd","54235",44.90087890625,-87.31604766845703
"54235","Sturgeon Bay","WI","Olde Stone Quarry County Park","4879 Bay Shore Dr","54235",44.90399169921875,-87.40492248535156
"54235","Sturgeon Bay","WI","Door County Land Trust","5340 Lake Lane","54235",44.805721282958984,-87.33380889892578
"54241","Two Rivers","WI","Point Beach State Forest","9400 County Road O","54241",44.2181944687208,-87.50994193736017
"54241","Two Rivers","WI","Two Creeks Park","6798 2 Creeks Rd","54241",44.30499759,-87.54484679
"54241","Two Rivers","WI","Central Park","1700 Washington","54241",44.14926767349243,-87.56844018
"54241","Two Rivers","WI","Washington Park","2909 Adams Street","54241",44.16069412231445,-87.56900787353516
"54241","Two Rivers","WI","two rivers skate park","not_available","54241",44.17637003644589,-87.53687382245373
"54241","Two Rivers","WI","Neshotah Park","Pierce St","54241",44.15208965052695,-87.55548263929859
"54241","Two Rivers","WI","Lakeshore park","Adams St.","54241",44.14921494841705,-87.57028609020826
"54241","Two Rivers","WI","brillion park","not_available","54110",44.16570191245079,-87.57661242183826
"54241","Two Rivers","WI","Walsh Field - Two Rivers Polar Bears","2201-2299 Polk St","54241",44.1544381049516,-87.55630812846358
"54246","Washington Island","WI","percy johnson memorial county park","not_available","54246",45.36288652760238,-86.86487289547047
"54301","Green Bay","WI","City Deck of Green Bay","Fox River Trail (Green Bay to Greenleaf)","54301",44.51452589504591,-88.01679840820087
"54301","Green Bay","WI","Jackson Square Park","300 S Monroe Ave","not_available",44.510292053222656,-88.01274871826172
"54301","Green Bay","WI","Baird Place","Webster Ave.","54301",44.50301086380216,-88.00844214222126
"54301","Green Bay","WI","St James Park","Monroe Ave","54301",44.50310801835299,-88.0179686945872
"54301","Green Bay","WI","Meyer Park","not_available","54301",44.50189139044108,-87.99532103260117
"54301","Green Bay","WI","Terror On The Fox","2285 S Broadway","54304",44.48173936306228,-88.050783038589
"54301","Green Bay","WI","Leicht Memorial Park","128 Dousman Street","54303",44.519772869524765,-88.01583051681519
"54301","Green Bay","WI","Osprey Pointe Park","County Road GV","54301",44.446189402106285,-88.01177501678467
"54301","Green Bay","WI","bethel park","Seville","not_available",44.47507989115639,-87.99265809771286
"54301","Green Bay","WI","Joannes Skatepark","S. Baird St.","54301",44.5040126635604,-87.99616882450127
"54301","Green Bay","WI","Marquette park","Gross ave","54304",44.5111792873833,-88.0451653977542
"54301","Green Bay","WI","East Lawn Park","Boyd","54301",44.4893103437991,-87.99989115576736
"54302","Green Bay","WI","Baird Park","2930-2954 Humboldt Rd","54311",44.51058415862567,-87.93266746301423
"54302","Green Bay","WI","Baird Creek","Baird Creek Road","54311",44.5096608475961,-87.9495173935614
"54302","Green Bay","WI","Gracieâ€™s Bench","not_available","54302",44.52776,-87.972973
"54302","Green Bay","WI","Edison Park","Alpine Drive","54302",44.49149389930252,-87.94505491201788
"54302","Green Bay","WI","Joannes Park & Shelter","215 South Baird Street","54301",44.50517654418945,-87.9938735961914
"54303","Green Bay","WI","Duck Creek Quarry","not_available","54303",44.562434,-88.066226
"54303","Green Bay","WI","Pamperin Park","2477 Shawano Ave","54303",44.54499710589599,-88.1012094058751
"54303","Green Bay","WI","Enos Colburn Park","1380 9th Street","54304",44.51682764074643,-88.05936813354492
"54303","Green Bay","WI","John Muir Park","Biemeret St.","54304",44.51003888390589,-88.0609450860738
"54303","Green Bay","WI","Firemans' Park","Mason","54303",44.524376536293765,-88.0700427046975
"54303","Green Bay","WI","Chappell Park","1469-1551 Dousman St","54303",44.53086031,-88.05523464
"54303","Green Bay","WI","John Muir Park","1609 Shannon St","54304",44.51451316038256,-88.08031916305019
"54303","Green Bay","WI","Howard Memorial Park","Riverview","not_available",44.56205811945492,-88.06330797391595
"54304","Green Bay","WI","Titletown","1065 Lombardi Ave","54304",44.50340020130747,-88.06588374275152
"54304","Green Bay","WI","Argonne Park","2020 Argonne St","54304",44.50468063354492,-88.08043670654297
"54304","Green Bay","WI","Sherwood Forest","2200-2250 Shady Ln","54313",44.5035764856657,-88.09458165692841
"54304","Green Bay","WI","Canterbury Park","Canterbury Rd","54313",44.50138384276738,-88.0720424023578
"54304","Green Bay","WI","Klipstine Park","936 Anderson Dr","54304",44.48631957848802,-88.0696227089655
"54311","Green Bay","WI","Communiversity Park","Nicolet Dr.","54311",44.53699471783323,-87.92747467576429
"54401","Wausau","WI","400 Block","400 Block","54403",44.96013315078087,-89.62785037934053
"54401","Wausau","WI","Isle Of Ferns","not_available","54403",44.952752317972376,-89.62997579589336
"54401","Wausau","WI","Oak Island","500 River Rd","54401",44.951286906378066,-89.62847249351067
"54401","Wausau","WI","Marathon Park","1201 Stewart Ave","54401",44.95860326455075,-89.65041160583496
"54401","Wausau","WI","Scholfield Park","not_available","54401",44.97967454187007,-89.63015556335449
"54401","Wausau","WI","White Water Park","200 River Dr","54403",44.958200280088015,-89.63253633446408
"54401","Wausau","WI","Sunnyvale Park","1099 S 66th Ave","54401",44.94957105798229,-89.72709920424124
"54401","Wausau","WI","River Street Park","not_available","54474",44.884390252389075,-89.63493582590525
"54401","Wausau","WI","Liberty Park","Liberty Avenue","54401",44.91583328157928,-89.64331450882828
"54401","Wausau","WI","Sunset Park","not_available","54455",44.854001455856725,-89.62356682232851
"54403","Wausau","WI","Pleasant View Park","1221 Sumner St.","54403",44.945747337663704,-89.61048346077237
"54403","Wausau","WI","Weston Elementary Park","not_available","54476",44.91964308072875,-89.55608516216567
"54403","Wausau","WI","Radtke Park","Wausau, WI","54403",44.92000398231529,-89.62020560129378
"54405","Abbotsford","WI","Dorchester Park","Park Dr","54425",45.000848338247685,-90.32741465337641
"54405","Abbotsford","WI","Shortner Park","not_available","54405",44.954452262708415,-90.30391752717816
"54406","Amherst","WI","Standing Rock Park","7782 Standing Rock Rd","54481",44.4335400171277,-89.42016092318889
"54406","Amherst","WI","Stedman Park","not_available","54406",44.38364791870117,-89.25284576416016
"54408","Aniwa","WI","Dells Of The Eau Claire River","not_available","54408",45.00579283083844,-89.33772251895867
"54409","Antigo","WI","third ward Park","not_available","54409",45.150153596208106,-89.15833639745955
"54409","Antigo","WI","Saratoga Park","Nantasket St","54409",45.14893957327008,-89.15788098455252
"54410","Arpin","WI","North Wood County Park","not_available","54466",44.520187145491356,-90.14338532468976
"54411","Athens","WI","Center Of The Northern Half Of The Western Hemisphere","45ÂºN 90ÂºW","54426",44.999245878078014,-90.00398890918342
"54411","Athens","WI","Rib Falls Park","not_available","54426",44.97529642755956,-89.90745529170408
"54411","Athens","WI","The Tree Stand","Cth C","54451",45.20287135,-90.16165493333334
"54411","Athens","WI","Lion's Park","not_available","54448",44.9350471496582,-89.84122467041016
"54412","Auburndale","WI","Auburndale Park","10654 Park Avenue","54412",44.6322021484375,-90.00919342041016
"54422","Curtiss","WI","Curtiss Park","Curtiss","54422",44.953410161747364,-90.43237209320068
"54423","Custer","WI","Stockton Park","not_available","54423",44.496573,-89.424864
"54423","Custer","WI","Eastwood Park","not_available","54481",44.531151,-89.504768
"54427","Eland","WI","Eland Mill Pond Park","Pine","not_available",44.870153918233626,-89.21422649350299
"54427","Eland","WI","Wilson Lake Park","not_available","54499",44.827030967414515,-89.21826771931305
"54437","Greenwood","WI","Longwood Town Park","Colby Factory Rd","54498",44.88597042,-90.64387121
"54440","Hatley","WI","Mission Lake County Park","not_available","54440",44.77876789881978,-89.35596630282654
"54441","Hewitt","WI","The Village","7594-7666 Yellowstone Dr","54449",44.64139401912689,-90.09635031223297
"54442","Irma","WI","French Town Park","S. Wilson St","54487",45.46243187270478,-89.73434188530868
"54443","Junction City","WI","Junction City Village Park","not_available","54443",44.59423222629767,-89.75926887167725
"54447","Lublin","WI","Lublin Community Park","not_available","54447",45.07487487792969,-90.72916412353516
"54449","Marshfield","WI","Wildwood Park And Zoo","608 W 17th St","54449",44.65118854010921,-90.18761184036664
"54449","Marshfield","WI","North Hills Park","not_available","54449",44.684463,-90.182043
"54449","Marshfield","WI","Ted Fritsch Field","not_available","54479",44.76053897017993,-90.2963824302529
"54449","Marshfield","WI","Marshfield Fairground Park","513 E 17th St","54449",44.653255179713824,-90.17428505854721
"54451","Medford","WI","Grahl Park","501-599 Medford Ave","54451",45.146702957063205,-90.3425788555021
"54451","Medford","WI","Downtown Mini Park","not_available","54451",45.13769290219567,-90.34480404571035
"54451","Medford","WI","Centennial Park","Centennial Dr","54451",45.141554641161704,-90.35239862514017
"54451","Medford","WI","Chelsea Lake","Chelsea Lake Ln","54490",45.30087585348403,-90.30414619585218
"54451","Medford","WI","Picnic Point","Medford,WI,54451","54451",45.1385798,-90.3401404
"54452","Merrill","WI","Stanges Park Outdoor Pool","not_available","54452",45.181640625,-89.70242309570312
"54452","Merrill","WI","Normal Park","Center Ave","54452",45.18543547562765,-89.68379723922405
"54452","Merrill","WI","Lion's Park","East Third Street","54452",45.18316722439581,-89.70231298275449
"54452","Merrill","WI","Gebert Park","Merrill,WI,54452","54452",45.1805223,-89.683459
"54455","Mosinee","WI","River Park","1068-1000 Armory Rd","54455",44.79685658085545,-89.70744421838981
"54456","Neillsville","WI","Tock Memorial Field","Park Street","54456",44.55772018432617,-90.60294342041016
"54456","Neillsville","WI","Russell's Park Campground Office","W8180 South Road","54754",44.42369785130534,-90.72387090313003
"54456","Neillsville","WI","Cliff's Park","12th Street","54456",44.566265627544496,-90.59611964920516
"54457","Nekoosa","WI","Sheffield Beach Club on Lake Camelot","not_available","54457",44.32151451354575,-89.88749426885222
"54457","Nekoosa","WI","Edwards Alexander Memorial Park","311 Alexander Ave","54469",44.340797424316406,-89.86278533935547
"54457","Nekoosa","WI","Jim Freeman Memorial Park (boat launch)","Shelia Lane","54457",44.29516028044018,-89.89100575447083
"54465","Pickerel","WI","pickerel park","not_available","54465",45.36321725830334,-88.90882699684434
"54466","Pittsville","WI","Riverside Park","Bower street","54466",44.44155937964931,-90.131668362233
"54467","Plover","WI","Little Plover River Park","Hoover Ave S","54467",44.47617679978177,-89.53120141145911
"54467","Plover","WI","Okray Park","not_available","54467",44.45344818305721,-89.55787677726455
"54467","Plover","WI","Al Tech Park","2855 West River Drive West","54481",44.48128462494001,-89.57542017608097
"54467","Plover","WI","Lower Whiting Park","3700","54481",44.49256390516002,-89.55532519805347
"54467","Plover","WI","Hein Park","Robert Strret","54481",44.449245088603234,-89.54796430432731
"54467","Plover","WI","Consolidated Parkway Boat Landing","3950 West River Drive","54481",44.492250215833025,-89.58771228790283
"54467","Plover","WI","Oakwood Forest Park","Ponderosa","54467",44.491211712953174,-89.52275737524661
"54473","Rosholt","WI","Rosholt Fair Park","not_available","54473",44.63352716867956,-89.30898208414573
"54475","Rudolph","WI","Cera Park","Hwy 66","54475",44.452059076974436,-89.73245501872464
"54475","Rudolph","WI","Dick Trickle Memorial Park","not_available","54475",44.49593,-89.80515
"54476","Schofield","WI","Kellyland Park","6100 Rogan Ln","54476",44.911170959472656,-89.54388427734375
"54476","Schofield","WI","green acres mobile park","4311 Schofield Ave","54476",44.903316497802734,-89.56668090820312
"54476","Schofield","WI","Wisconsin Valley Radio Assoc. Field Day","5800 Alta Verde Street","54476",44.905070519619564,-89.59666013717651
"54481","Stevens Point","WI","Plover River Park","Parkway Drive","54481",44.509800021000245,-89.53839954369722
"54481","Stevens Point","WI","Iverson Park","4273-4325 Park Ridge Dr","54481",44.520733504267426,-89.54069879903281
"54481","Stevens Point","WI","Mead Park","1208 W Whitney St","54481",44.522,-89.593655
"54481","Stevens Point","WI","Parkwood Park","Feltz Ave","54481",44.50196014611728,-89.53991089292043
"54481","Stevens Point","WI","Atwood","Lindbergh Ave","54481",44.52976300169658,-89.55773699717818
"54481","Stevens Point","WI","Midstate Tennis Courts","2442 Sims Ave","54481",44.52529525756836,-89.56195831298828
"54481","Stevens Point","WI","Zenoff Park","1001 2nd St. North","54481",44.549113255478055,-89.5839220038363
"54481","Stevens Point","WI","Bannach Playground","816 Sandy Ln","54482",44.527646000000004,-89.51959000000001
"54487","Tomahawk","WI","Sara Park","900 W. Somo Ave","54487",45.47230911254883,-89.74127960205078
"54487","Tomahawk","WI","Washington Park","not_available","54487",45.47327,-89.728474
"54487","Tomahawk","WI","Bradley Park","Bradley park rd","not_available",45.477631684241196,-89.72272396087646
"54487","Tomahawk","WI","townline park","7180 County K","54501",45.64301681518555,-89.54398345947266
"54494","Wisconsin Rapids","WI","red sands beach playground","not_available","54494",44.36316680908203,-89.7369613647461
"54494","Wisconsin Rapids","WI","Ben Hansen Park","2121 2nd Avenue South","not_available",44.376285552978516,-89.84777069091797
"54494","Wisconsin Rapids","WI","Henry Demitz Park","3rd Street North","54494",44.38195668470005,-89.83277677909517
"54494","Wisconsin Rapids","WI","Robinson Park","1959-1999 Apricot St","54494",44.397070421133726,-89.8027459162523
"54501","Rhinelander","WI","Hodag Park","not_available","54501",45.65166459820373,-89.4121068975092
"54501","Rhinelander","WI","Three Lakes","not_available","54562",45.79811106678497,-89.16512312000893
"54501","Rhinelander","WI","Cy Williams Park","1704 Superior St","54562",45.798528999999995,-89.164925
"54511","Argonne","WI","Satparty","Forest","not_available",45.670448303222656,-88.83757781982422
"54512","Boulder Junction","WI","Boulder Junction Winter Park","not_available","54512",46.109845,-89.63283
"54514","Butternut","WI","Butternut Area Park","532 Michigan St.","54514",46.013502,-90.500701
"54514","Butternut","WI","Triangle Park","not_available","54552",45.93462645735358,-90.4502399153759
"54520","Crandon","WI","Lake Lucerne Assn Pavilion","not_available","54520",45.51956152780154,-88.85341425190155
"54521","Eagle River","WI","Eagle river wayside","not_available","54521",45.9031321,-89.4070925
"54521","Eagle River","WI","Wavering Park","2223 East Hill Road","54554",46.06352233886719,-89.08263397216797
"54527","Glidden","WI","Wayside","not_available","54527",46.186415,-90.625309
"54531","Hazelhurst","WI","Lake Catherine Park","not_available","54531",45.805042,-89.72131
"54534","Hurley","WI","W.s. Carow Park","2532-2552 County Highway J","54547",46.17507359747275,-90.05364773822875
"54534","Hurley","WI","Vietnam Veteran's Park","not_available","54534",46.444669,-90.183376
"54534","Hurley","WI","Norrie Park","Ironwood,MI,49938","49938",46.43177823433808,-90.1620735092085
"54534","Hurley","WI","Longyear Park","not_available","49938",46.458046,-90.176065
"54534","Hurley","WI","Dr Emil Kuitunen Memorial Park","100-198 E Frederick St","49938",46.457271,-90.1716935634613
"54534","Hurley","WI","Depot Park","101-199 East Frederick Street","49938",46.455362316203846,-90.17123222351074
"54542","Long Lake","WI","Pentoga Park","424","not_available",46.040622172252725,-88.50735062632403
"54546","Mellen","WI","Morgan falls","not_available","54806",46.32722918059207,-90.66141542390662
"54548","Minocqua","WI","Torpy Park","806 US-51","54548",45.87300912344092,-89.708411693573
"54548","Minocqua","WI","Brandy Lake Park","not_available","54568",45.902055962944615,-89.70262578267706
"54548","Minocqua","WI","Dorwin Park","not_available","54548",45.87068583333333,-89.7118157
"54555","Phillips","WI","Elk Lake Park","not_available","54555",45.69393698856103,-90.39848932030058
"54555","Phillips","WI","Bostrom Park","Hwy 13","not_available",45.68810746961624,-90.39418100502829
"54560","Sayner","WI","Plum Lake Park","not_available","54560",45.992882,-89.531501
"54566","Wabeno","WI","Firefighters Park","not_available","54566",45.4402346050334,-88.65414678628397
"54601","La Crosse","WI","Riverside Park","410 Veterans Memorial Dr","54601",43.81596207079425,-91.25547935793334
"54601","La Crosse","WI","Houska Park","1298-1500 Joseph Houska Dr","54601",43.79720920376212,-91.25322883251944
"54601","La Crosse","WI","Myrick Park","789 Myrick Park Dr","54601",43.82192365133678,-91.22524125513853
"54601","La Crosse","WI","Weigent Park","Cass Street","54601",43.80815483758609,-91.23366515261989
"54601","La Crosse","WI","Pettibone Park","N Pettibone Dr","54601",43.81639889152391,-91.26426458358763
"54601","La Crosse","WI","Springbrook Park","not_available","54601",43.770186,-91.205661
"54601","La Crosse","WI","Plainview Park","French Island","54603",43.86681621712687,-91.2653802827211
"54601","La Crosse","WI","Waterford","4730 Southfield Grn","54601",43.763093,-91.189971
"54601","La Crosse","WI","Cameron Park","456 King Street","54601",43.810095848093965,-91.25130728937374
"54601","La Crosse","WI","Weigent Park","Cass","54601",43.79540204440848,-91.21941970693202
"54601","La Crosse","WI","Pammel Creek Park","Hwy 33","54601",43.792057037353516,-91.18775177001953
"54601","La Crosse","WI","Seminary Park","3349 East Ave S","54601",43.776014667050404,-91.22555199333084
"54601","La Crosse","WI","Veterans Freedom Park","Clinton St","54603",43.8405841761446,-91.25353891862692
"54601","La Crosse","WI","Hood Park","513 Hood Street","54601",43.79876,-91.24985
"54601","La Crosse","WI","Terlingua Heights","1025 Oak Ave S","54650",43.870703,-91.227621
"54601","La Crosse","WI","Pumpkin Park","4565 Brickyard Ln","54601",43.754179,-91.191964
"54601","La Crosse","WI","Train Crossing","not_available","54650",43.86662721733996,-91.23163650081176
"54601","La Crosse","WI","Rotary Lights","100 State St.","54601",43.81502265984695,-91.2549719220476
"54601","La Crosse","WI","Barry Mills park","not_available","54669",43.84012985229492,-91.10709381103516
"54603","La Crosse","WI","Thomas G. Rowe Park","710 Hilltopper Dr.","54650",43.87560888832011,-91.21997757026793
"54603","La Crosse","WI","The Sunfish","701 2nd Ave N","54650",43.89230984701043,-91.23920940679727
"54603","La Crosse","WI","Nelson Park","not_available","54603",43.89209566276712,-91.27008956198878
"54603","La Crosse","WI","Glen Fox Park","Winter St","54650",43.87193500891194,-91.20800900362111
"54610","Alma","WI","sledding hill","not_available","55981",44.3814697265625,-92.02972412109375
"54612","Arcadia","WI","Rudy Klink Deer Park","610 W River Street","54612",44.25423049926758,-91.50511169433594
"54612","Arcadia","WI","Washington Court","Washington Street","54612",44.252115750603565,-91.49933338165283
"54612","Arcadia","WI","Memorial Park","not_available","54612",44.24288381435124,-91.49386227489752
"54612","Arcadia","WI","Pietrick Park","Arcadia, WI","54612",44.2529767,-91.47347793333333
"54614","Bangor","WI","Ridge history park","not_available","54614",43.78394218496135,-90.96619267620737
"54615","Black River Falls","WI","Lunda Park","not_available","54615",44.2934382489133,-90.86922871798559
"54615","Black River Falls","WI","Al Young Park","S First st","54615",44.30159532,-90.8454912
"54616","Blair","WI","Blair Wayside","not_available","54616",44.29544497068518,-91.25900338737924
"54616","Blair","WI","Blair Park","Park RD","54616",44.29439523068634,-91.23440713775139
"54618","Camp Douglas","WI","Oakdale Park","not_available","54660",43.95763807910682,-90.37894248962402
"54619","Cashton","WI","Jersey Valley County Park","E9095 County Rd. X","54667",43.69010572377431,-90.79948880678465
"54619","Cashton","WI","Big Brother","not_available","54656",43.850082,-90.843823
"54621","Chaseburg","WI","Esofea-Rentz Memorial County Park","Park Rd","54667",43.62977352757274,-90.96556745020959
"54621","Chaseburg","WI","Duck Egg County Park","Irish Ridge Road where it meets Upper Newton Road","54665",43.59714506991927,-91.01280212402344
"54622","Cochrane","WI","Ragnar exchange 2","not_available","54629",44.191410064697266,-91.77811431884766
"54624","De Soto","WI","Blackhawk Park","not_available","54624",43.460896,-91.22232
"54627","Ettrick","WI","Recreation Park","not_available","54630",44.08274236979237,-91.3580441992
"54629","Fountain City","WI","Levee Park","not_available","55987",44.054689463015045,-91.6363498590755
"54629","Fountain City","WI","Garvin Heights City Park","Garvin Heights Road","55987",44.034628844280974,-91.65147263133039
"54629","Fountain City","WI","Lake Winona","Lake Winona","55987",44.02962079796729,-91.62252306395179
"54629","Fountain City","WI","Paul Watkins Park","330 Fourth Street","55987",44.049097189455416,-91.62955696812887
"54629","Fountain City","WI","6th Street Park","301-349 Liberty St","55987",44.04750004156732,-91.63189371051791
"54629","Fountain City","WI","Latsch Island","10 Old Duke Road","55987",44.05814751913359,-91.63495137484051
"54630","Galesville","WI","Trempealeau Youth Sports Club","Trempealeau,WI,54661","54661",44.0055185,-91.4420883
"54631","Gays Mills","WI","Lions Park","Orin Street","54631",43.31854788333333,-90.85022075
"54631","Gays Mills","WI","Robb Park","Robb Park","54631",43.319793266309325,-90.85083219592408
"54631","Gays Mills","WI","Bell Center town hall park","not_available","54631",43.29202241564215,-90.83929032795547
"54634","Hillsboro","WI","Hillsboro Veterans Park","not_available","54634",43.65016757576458,-90.34013561238272
"54636","Holmen","WI","Cedar Meadows East Park","3103 S. Cedar Ave","54636",43.93244934082031,-91.24272155761719
"54636","Holmen","WI","Long Coulee Park","not_available","54636",43.994747161865234,-91.25672912597656
"54636","Holmen","WI","Deerwood Park","500 Anderson St","54636",43.957110819201496,-91.25330870296453
"54636","Holmen","WI","Halfway Creek Park","Picnic St","54636",43.963109740089195,-91.26063244335737
"54644","Mindoro","WI","Mindoro County Park","not_available","54644",44.02013358814738,-91.09995218684736
"54646","Necedah","WI","old mill park","not_available","54646",44.02657916035307,-90.07378476451433
"54650","Onalaska","WI","Omni Center","255 Riders Club Rd","54650",43.90774249224711,-91.24095110866391
"54650","Onalaska","WI","Coachlite Greens Park","2054-2096 Grand View Blvd","54650",43.88229225,-91.2057781
"54652","Readstown","WI","Banker Park","321 W Mill St","54664",43.505543,-90.67159
"54656","Sparta","WI","Memorial Park","Pine Street","not_available",43.946801543053816,-90.79715613504261
"54656","Sparta","WI","Evans Bosshard Park","East Ave.","not_available",43.94128514,-90.80311033
"54656","Sparta","WI","West Side Park","700 Hill St","54656",43.94074249267578,-90.81968688964844
"54658","Stoddard","WI","Goose Island","County Highway Gi","54658",43.73752269469074,-91.2264338333886
"54658","Stoddard","WI","Manske Park","not_available","54658",43.72940708370668,-91.1696269369834
"54658","Stoddard","WI","Goose Island County Park & Campground","W6488 County Road Gi","54658",43.73463439941406,-91.2280044555664
"54658","Stoddard","WI","Stoddard Village Park","136 S Main St","54658",43.66080093383789,-91.21919250488281
"54660","Tomah","WI","Tomah Recreation Park","1625 Butts Ave","54660",43.970060842141606,-90.51693340940686
"54660","Tomah","WI","Buckley Park","E Holton St.","54660",43.97477631666667,-90.49981953333334
"54660","Tomah","WI","Veterans Park","Veterans Ave","54660",44.00081813089103,-90.49890944187807
"54660","Tomah","WI","Winnebago Park","808 Lakeside Dr","54660",43.97893524169922,-90.51839447021484
"54660","Tomah","WI","Waterman Park","Waterman Ave","not_available",43.99271971,-90.49699088
"54665","Viroqua","WI","Eckhart Viroqua City Park","500 West Decker","54665",43.5567960888741,-90.89401407752571
"54665","Viroqua","WI","Eagles Park","Hornby Hollow Rd","54665",43.5569174,-90.8887413
"54665","Viroqua","WI","Ekhart Viroqua City Park","West Decker","54665",43.556728078431995,-90.89465618133545
"54665","Viroqua","WI","Eckhardt Park","not_available","54665",43.561402252001464,-90.89156886361685
"54666","Warrens","WI","Warrens Area Park","not_available","54666",44.132626,-90.50684
"54701","Eau Claire","WI","Owen Park","Chippewa River State Trail","54703",44.80501586004945,-91.50092202943623
"54701","Eau Claire","WI","Centennial Park","not_available","54720",44.80586389732447,-91.46042698277898
"54701","Eau Claire","WI","Phoenix Park","Riverfront Terrace","54703",44.813774788031,-91.50400335847853
"54701","Eau Claire","WI","Carson Park","Carson Park Dr","54703",44.80856861107638,-91.5205480273776
"54701","Eau Claire","WI","Boyd Park","1150 Main Street","54701",44.813018740612776,-91.48538589477539
"54701","Eau Claire","WI","Jaycette Park","2379-2599 County Highway F","54701",44.79247005047762,-91.49559156372338
"54701","Eau Claire","WI","Randall Park","Niagra St","54701",44.804017361637605,-91.50641375518659
"54701","Eau Claire","WI","Altoona Tennis Courts","10th Street","not_available",44.806134,-91.43381
"54701","Eau Claire","WI","Lowes Creek Park","not_available","54701",44.75647926091277,-91.46948815186204
"54701","Eau Claire","WI","Pioneer Park","S 4964 Porterville Rd.","54701",44.791974029807456,-91.57185816809522
"54701","Eau Claire","WI","Archery Park","1898 Fairway St","not_available",44.8120405090606,-91.47187298985666
"54701","Eau Claire","WI","The White Rabbit's Hole to Wonderland","not_available","54703",44.806589,-91.513841
"54701","Eau Claire","WI","Oakwood Hills Neighborhood park","4430-4498 S Oakwood Hills Pkwy","54701",44.77206220405484,-91.44584685168374
"54701","Eau Claire","WI","Lowes Creek County Park","Lowes Creek","54701",44.756826872864245,-91.4695873206878
"54701","Eau Claire","WI","Cinder City Park","1904 Spooner Ave","54720",44.80781173706055,-91.44066619873047
"54701","Eau Claire","WI","University Park","610 Main St, Eau Claire, WI 54701","54701",44.81224822998047,-91.49537658691406
"54701","Eau Claire","WI","Wilson Park","500-598 S Barstow St","54701",44.80681292945995,-91.49374168454
"54701","Eau Claire","WI","Rod and Gun Park","1515 Rod and Gun Park Dr","54703",44.808226336354345,-91.52836878913831
"54701","Eau Claire","WI","The Living Room at Mayo Clinic Health System Luther Campus","1221 Whipple St","54703",44.812007904052734,-91.51368713378906
"54701","Eau Claire","WI","Fairfax Pool","4200 Fairfax St","54701",44.773020501476054,-91.47044679349604
"54703","Eau Claire","WI","Mount Tom Park","2122 Birch St","54703",44.818858007007044,-91.48152233246945
"54703","Eau Claire","WI","River Prairie Park","Front Porch Place","54720",44.82169,-91.459625
"54703","Eau Claire","WI","Tower Ridge Recreation Area","1230 S 82nd Ave","54703",44.828189849853516,-91.36548614501953
"54703","Eau Claire","WI","Big Falls County Park","not_available","54742",44.82103999964634,-91.2958730443242
"54721","Arkansaw","WI","Pine View Park","not_available","54737",44.702231,-92.013226
"54722","Augusta","WI","Harstad County Park","not_available","54722",44.73477759266009,-91.18101778650967
"54723","Bay City","WI","Colvill Park","515 Nymphara Lane","55066",44.56613279964456,-92.50388034888827
"54724","Bloomer","WI","Witt Park","1920 Chippewa Rd","54724",45.096466064453125,-91.48844146728516
"54724","Bloomer","WI","Chippewa Moraine State Recreation Area","not_available","54757",45.2113433,-91.3815898
"54724","Bloomer","WI","north park","not_available","54724",45.11416383968915,-91.50593311697256
"54725","Boyceville","WI","Andy Pafko Park","500-574 Railroad Avenue","54725",45.04281539577302,-92.04374134540558
"54726","Boyd","WI","Chapman Park","not_available","54768",44.96373081025681,-90.94701563459505
"54726","Boyd","WI","Lotz Park","not_available","54726",44.950018859146084,-91.0410083568531
"54727","Cadott","WI","Anson PARK","12100-12398 Horseshoe Ln","54748",45.02868,-91.28634858333334
"54728","Chetek","WI","City Park","600 Lakeview Dr","54868â€Ž",45.31204299679407,-91.63901013986464
"54728","Chetek","WI","Airport Park Pavilion","210 Lakeview Dr","not_available",45.31224637546746,-91.63514971733093
"54729","Chippewa Falls","WI","Irvine Park","Irvine Pk Dr","54729",44.947889011791574,-91.40001339323521
"54729","Chippewa Falls","WI","Hallie Park","4902 117th Street","54729",44.91384128384422,-91.43618991314128
"54729","Chippewa Falls","WI","Riverfront Park","12 South Bridge Street","54729",44.934181213378906,-91.3902816772461
"54729","Chippewa Falls","WI","The Bear Den","not_available","54729",44.913312715746144,-91.38111669446464
"54729","Chippewa Falls","WI","Eau Claire Rod And Gun","801-1299 County Highway Qs","54703",44.823766308968786,-91.40290355289656
"54729","Chippewa Falls","WI","Domer Park","3709-4223 Old Wells Rd","54703",44.835629866847945,-91.51029903325707
"54730","Colfax","WI","Hoffman Hills State Recreation Area","not_available","54730",44.94445841780783,-91.78188196390835
"54736","Durand","WI","Chippewa View Park","not_available","54736",44.62816563888741,-91.96850851354758
"54738","Eleva","WI","Eleva Memorial Park","not_available","54738",44.57836,-91.47126
"54746","Humbird","WI","Wildcat Mound","not_available","54437",44.527036,-90.807162
"54747","Independence","WI","Island Park","Island Road","54747",44.3615608215332,-91.42534637451172
"54747","Independence","WI","4 seasons","not_available","54747",44.359479962895236,-91.41367855652317
"54751","Menomonie","WI","Wakanda Park","Wakanda Park Rd.","54751",44.90084353157122,-91.91863800514892
"54751","Menomonie","WI","Dunn County Fairgrounds","not_available","54751",44.87714413369792,-91.90823750572864
"54751","Menomonie","WI","Elmwood Park","4th Ave. E","54751",44.885325978767746,-91.92070408411736
"54751","Menomonie","WI","Riverside Park","Riverside Park Dr","54751",44.87325233940339,-91.93981647491455
"54754","Merrillan","WI","Merrillan Municipal Parking Lot","601-719 S Hammond St","54754",44.4459414703916,-90.84016480877467
"54755","Mondovi","WI","Tourist Park","not_available","54755",44.556495,-91.669353
"54758","Osseo","WI","Osseo Jr. Baseball Field","13131 Ball Park Rd","54758",44.570185852517525,-91.21289491653442
"54758","Osseo","WI","Central Park","Charles St","54758",44.5785852475002,-91.22249939293994
"54769","Stockholm","WI","McCahill Park","not_available","55041",44.447776,-92.263377
"54771","Thorp","WI","Conway Park","S Adams Street","54771",44.95278756524393,-90.80650806427002
"54771","Thorp","WI","Tucker James Memorial Dog Park","not_available","54771",44.959906,-90.787727
"54801","Spooner","WI","St. Croix National Scenic Riverway - Namekagon VC","US 63","not_available",45.91139147020801,-91.82579040527344
"54805","Almena","WI","Shadyside Park","not_available","54805",45.414404,-92.033767
"54806","Ashland","WI","H. Pearson Plaza","Hwy 2","not_available",46.58946091,-90.88980268
"54810","Balsam Lake","WI","Pine Park","300-398 Tuttle St","54810",45.4509646,-92.45607197284698
"54812","Barron","WI","Anderson Park","not_available","54812",45.40587563185518,-91.8556893489895
"54814","Bayfield","WI","Bayfield Pavilion","2 Front St.","54814",46.81113052368164,-90.8130111694336
"54814","Bayfield","WI","Ball Field","M","54850",46.779361424584536,-90.78482450280707
"54814","Bayfield","WI","Memorial Park","not_available","54814",46.81065651561583,-90.81373544444632
"54819","Bruce","WI","Bruce Park","not_available","54819",45.454378,-91.278414
"54822","Cameron","WI","Babe & Phyl Park & Boat Landing","371 Rudolph RD","54822",45.41273593095877,-91.75959140366425
"54822","Cameron","WI","Sportsman's Park","6th Street","54822",45.41284942626953,-91.7413101196289
"54830","Danbury","WI","Mcdowell Landing","Lower McKenzie Road","54888",46.03201,-92.03527
"54832","Drummond","WI","Drummond Park","not_available","54832",46.33831335659867,-91.25804811832852
"54835","Exeland","WI","Troutfest, Exeland WI","not_available","54835",45.668169033910935,-91.24296787477795
"54840","Grantsburg","WI","Park","not_available","54840",45.77699,-92.754492
"54843","Hayward","WI","Stone Lake Lions Park","not_available","54876",45.85496411180399,-91.53940751562057
"54850","La Pointe","WI","Stockton Island","Apostle Islands","54850",46.91593176630195,-90.5536414466395
"54868","Rice Lake","WI","The U","not_available","54868",45.483875,-91.746386
"54868","Rice Lake","WI","City Park","39-99 E Douglas St","54868",45.50754721,-91.73182018
"54870","Sarona","WI","Hunt Hill Audobon Sanctuary","not_available","54870",45.71802451641517,-91.73766306600241
"54873","Solon Springs","WI","barnes town park","not_available","54873",46.34579655049309,-91.50289596851049
"54880","Superior","WI","Park Point Beach","5000 Minnesota Ave","55802",46.73066109433933,-92.05127825403461
"54880","Superior","WI","Mont du Lac","3125 South Mont Du Lac Road","54880",46.652021,-92.28433000000001
"54880","Superior","WI","Norton Park","81st Ave W","not_available",46.72113027836399,-92.19896078109741
"54880","Superior","WI","Billings Park","Billings 1st Point Rd","54880",46.71343096389562,-92.13941832037972
"54880","Superior","WI","Memorial Park","5315 Grand Ave","55807",46.74211120605469,-92.16525268554688
"54880","Superior","WI","Broadway Community Gardens","not_available","54880",46.72630070286034,-92.09825992584229
"54880","Superior","WI","Morgan park hockey rink","not_available","55808",46.68757455632741,-92.2085382764809
"54880","Superior","WI","Fairnont Park","not_available","55807",46.72680412681265,-92.19083200810232
"54880","Superior","WI","Klang Park","9211-9299 Orchard St","55810",46.74393954954404,-92.21729952080553
"54880","Superior","WI","Heritage Park","3000 Hammond Ave","54880",46.703468322753906,-92.09574890136719
"54880","Superior","WI","Irving Playfield","Irving Playfield","55807",46.73299546679577,-92.16777819607462
"54880","Superior","WI","Kelly Park","711 Grand Ave","54880",46.72990036010742,-92.09371185302734
"54880","Superior","WI","Hammond Park","Hammond ave","54880",46.715863780248554,-92.09715211248172
"54880","Superior","WI","Benny Peterson Park","1107 Hughitt Ave","54880",46.72534,-92.09957204
"54880","Superior","WI","Webster Dream Park","5700-5762 Tower Ave","54880",46.669486278974794,-92.10325126654591
"54880","Superior","WI","Magney-Snively Natural Area","Skyline Parkway","55807",46.70210207951137,-92.22685736154814
"54889","Turtle Lake","WI","Turtle Lake Beer Gardens","not_available","54889",45.399549,-92.142716
"54893","Webster","WI","The Small Park","not_available","54893",45.87648889389896,-92.36821830712533
"54901","Oshkosh","WI","Menominee Park","Hazel St.","54901",44.0225399,-88.51631500000002
"54901","Oshkosh","WI","Stoegbauer Park","at W 6th & Idaho","54902",44.01205890028072,-88.55827005232015
"54901","Oshkosh","WI","East Hall Park","Jackson St","54901",44.031163647852345,-88.54381254894223
"54901","Oshkosh","WI","South Park","South Park","54902",44.00701504975531,-88.55516910552979
"54901","Oshkosh","WI","Abe Rochlin Park","Oshkosh Ave & N Sawyer St","54902",44.032157865845726,-88.56511240941296
"54901","Oshkosh","WI","Winnebago County Community Park","501 E. County Rd. Y","54901",44.07562367724454,-88.5336685180664
"54901","Oshkosh","WI","Riverside Park","btw Main & Court on Fox River","54901",44.01368196107489,-88.5362434387207
"54901","Oshkosh","WI","William A Steiger Park","at Ohio & Witzel","54902",44.01809529098926,-88.5532808303833
"54901","Oshkosh","WI","Opera House Square","at Main & Algoma","54901",44.01738547687575,-88.53796005249023
"54901","Oshkosh","WI","South Park Gazebo","not_available","54902",44.00630913441457,-88.55637759259648
"54901","Oshkosh","WI","Teichmiller Park","at north end of Crane St","54901",44.04903708618166,-88.55151518652033
"54901","Oshkosh","WI","Jackson Athletic Field","at Jackson & W Nevada","54901",44.033037832533005,-88.54058959032653
"54901","Oshkosh","WI","Rainbow Park","Rainbow Dr","54902",44.03674897325656,-88.56852669504927
"54901","Oshkosh","WI","The Boat Park","Hazel St","54901",44.040860424693086,-88.51640867297345
"54901","Oshkosh","WI","Roe Park","Washington Ave.","54901",44.018912822577185,-88.53512137003695
"54901","Oshkosh","WI","Stevens Park","Frankfort St","54901",44.008418901382214,-88.52064224004768
"54901","Oshkosh","WI","Menominee Park Tennis Courts","Siewert Trail","54901",44.02026325757203,-88.5202145576477
"54901","Oshkosh","WI","Mary Jewell Park","at Oshkosh & N Eagle","54902",44.03466336689606,-88.57210300704365
"54901","Oshkosh","WI","Buaman Park","at Josslyn & Buchanan","54902",44.03209529,-88.56505969
"54901","Oshkosh","WI","Menomonee Park Shelter #2","583 Pratt Trail","not_available",44.0224609375,-88.516845703125
"54901","Oshkosh","WI","brickyard","not_available","54901",44.06550979614258,-88.54000854492188
"54901","Oshkosh","WI","Congress Athletic Field & Tot Lot","at Congress & Beech","54901",44.03578339455216,-88.54955195157397
"54902","Oshkosh","WI","Fugleberg Park","at Doty & Fugleberg","54902",43.99590521452223,-88.53830087775273
"54902","Oshkosh","WI","Vern Park","W. Waukau Ave.","54902",43.98367859046094,-88.56961832675866
"54904","Oshkosh","WI","Westhaven Circle Park","at Newport Ave. & Westhaven Cir.","54904",44.00103506024526,-88.59773295918885
"54904","Oshkosh","WI","Abbey Park","at S Westhaven & Abbey","54904",44.01408318645818,-88.594651222229
"54904","Oshkosh","WI","Scott Park","not_available","54963",44.03318914525953,-88.64567493055209
"54904","Oshkosh","WI","44th Parallel Park","at Allerton & Thornton","54904",43.99901222339056,-88.58703374862671
"54904","Oshkosh","WI","Lake Winneconne Park","not_available","54986",44.11296974103125,-88.70576827883201
"54904","Oshkosh","WI","waterfront park","south 1st street","54986",44.10983656912949,-88.71219635009766
"54911","Appleton","WI","Appleton Memorial Park","1620 Witzke Blvd","not_available",44.29198820906709,-88.37890302481657
"54911","Appleton","WI","Telulah Park","1300 E. Newberry St.","54915",44.26267311653479,-88.38136196136475
"54911","Appleton","WI","Erb Park","1800 N. Morrison Street","54911",44.27851482893137,-88.40264797210693
"54911","Appleton","WI","Vulcan Heritage Park","not_available","54911",44.254260941174905,-88.41303421209973
"54911","Appleton","WI","Schaefer Park","S Buchanan St","54915",44.25626247098618,-88.37138322564508
"54911","Appleton","WI","Newberry Park","not_available","54915",44.264086225360444,-88.39249241631536
"54911","Appleton","WI","Einstein Park","3200 N Durkee St","54911",44.293704986572266,-88.40017700195312
"54911","Appleton","WI","Future Park","Walnut St","not_available",44.25659295466139,-88.41201137996049
"54911","Appleton","WI","Memorial Park Main Playground","1717 E Witzke Blvd","54911",44.29070707412954,-88.38123818892781
"54911","Appleton","WI","Colony Oaks Park","N. Kensington","not_available",44.26910046789658,-88.36005179893357
"54911","Appleton","WI","Richmond Park And Ride","Richmond","54914",44.298605613451755,-88.41536390572406
"54911","Appleton","WI","Peabody Park","601 N Green Bay Rd","54911",44.26668635978895,-88.38604414869327
"54913","Appleton","WI","Scheels USA Youth Sports Complex","3300 E Evergreen Dr","54913",44.304522568593086,-88.35875271915468
"54913","Appleton","WI","Plamann Park","1375 E Broadway Dr","54913",44.32526359486868,-88.38735188410865
"54913","Appleton","WI","Appleton Memorial Park","3131 North Richmond St","54911",44.29237365722656,-88.41822052001953
"54913","Appleton","WI","Grand Chute Lions Park","3155 Longwood Ln","54913",44.293291336609784,-88.4452646436702
"54913","Appleton","WI","Patriot Park","2950 W. Darling Street","54914",44.277661086353035,-88.45019009273591
"54913","Appleton","WI","Summit Park","2423 N Summit St","54914",44.28367822016632,-88.42216032097754
"54913","Appleton","WI","Butterfly Gardens Of Wisconsin","N2550 State Hwy 47","54913",44.33126,-88.413992
"54913","Appleton","WI","Neighborhood Beer Garden","Evergreen Dr","54913",44.304373,-88.356061
"54914","Appleton","WI","Alicia Park","1301 Cedar St.","54914",44.2463200955397,-88.42711462501575
"54914","Appleton","WI","Pierce Park","W Prospect Ave at S Pierce Ave","54914",44.253536785152335,-88.42215339115673
"54914","Appleton","WI","Lutz Park","1200 S Lutz Dr","54914",44.249297364408896,-88.42200189409922
"54914","Appleton","WI","Arrowhead Park","5000 Aster Lane","54914",44.252484274038096,-88.4840993066133
"54914","Appleton","WI","Jennerjohn Park","W6750 Rickey Ln.","54942",44.2989912521591,-88.53072435198865
"54914","Appleton","WI","Woodland Prairie","not_available","54914",44.234657287597656,-88.49177551269531
"54914","Appleton","WI","Lion's Park","Hwy 76","not_available",44.27777030353393,-88.54013012896051
"54914","Appleton","WI","Kiwanis Park","Marquette st.","54914",44.282902235937776,-88.43088250811724
"54914","Appleton","WI","Palisades Park","2525 Theresa St","54915",44.23855734918211,-88.42969916330166
"54915","Appleton","WI","Green Meadows Park","55 Pheasant Ct","54915",44.23168044819591,-88.3905157206684
"54915","Appleton","WI","Woodland Park","Schaefer Cir","54915",44.237222885678705,-88.37451920173996
"54923","Berlin","WI","Redgranite Memorial Park","not_available","54970",44.04429249936964,-89.10301886646069
"54923","Berlin","WI","Poy Sippi Park","not_available","54967",44.135896,-88.99843
"54923","Berlin","WI","River Side Park","not_available","54923",43.980215397221585,-88.94887504528091
"54923","Berlin","WI","white river marsh","not_available","54941",43.92052670628829,-89.07835649116973
"54923","Berlin","WI","Riverside Park","Water St","54923",43.9792428319947,-88.94975871003295
"54929","Clintonville","WI","Olen Park","not_available","54929",44.62519984139991,-88.75562644790013
"54930","Coloma","WI","Coloma Community Park","not_available","54930",44.03007860032995,-89.52098260805053
"54931","Dale","WI","Daufen Park","Hwy 96","54931",44.272359345559934,-88.68010176987553
"54932","Eldorado","WI","rosendale Taylor park","not_available","54974",43.8089162587753,-88.67501459734618
"54932","Eldorado","WI","Chirko Park","not_available","54964",43.893789389168255,-88.6689901405486
"54932","Eldorado","WI","Northwoods Park","not_available","54932",43.84072195375505,-88.67473222013454
"54935","Fond Du Lac","WI","Lakeside Park","555 N Park Ave","54935",43.79553959072653,-88.44260215759277
"54935","Fond Du Lac","WI","Cardinal Park","Hunter's Grove","54937",43.792736,-88.38867
"54935","Fond Du Lac","WI","Taylor Park & Pool","380 Emma Street","54935",43.77583438680483,-88.46082448591719
"54935","Fond Du Lac","WI","Buttermilk Creek Park","700 S. Park Avenue","54935",43.75852502829468,-88.43849773613488
"54935","Fond Du Lac","WI","Hamilton Park","not_available","54935",43.77714,-88.44984
"54935","Fond Du Lac","WI","Lallier Park","640 4th St","54935",43.769752502441406,-88.42130279541016
"54935","Fond Du Lac","WI","McDermott Park","E Johnson St","54935",43.78320951234267,-88.43015670776367
"54935","Fond Du Lac","WI","Adelaide Park","Hickory Street and Arndt Street","54935",43.78860036205685,-88.46564769744873
"54935","Fond Du Lac","WI","Le Mieux Park","not_available","54937",43.797394037246704,-88.47486111111111
"54935","Fond Du Lac","WI","Fond Du Lac OHV Park","Warehouse Ct","54937",43.74417332000107,-88.45532655715942
"54935","Fond Du Lac","WI","Playmore Park","Seymore St","54935",43.7795403163338,-88.46624001230981
"54935","Fond Du Lac","WI","Veteran's Park","190 S Main St","54935",43.773677825927734,-88.44763946533203
"54935","Fond Du Lac","WI","Fond Du Lac BMX Club","307 N Hickory St","54935",43.78762435913086,-88.46218872070312
"54937","Fond Du Lac","WI","Lemieux Park","101-199 North St","54937",43.81831349219587,-88.4846051406187
"54941","Green Lake","WI","Deacon Mills Park","534 Mill St","54941",43.84590530395508,-88.95967864990234
"54941","Green Lake","WI","Zobel Memorial County Park","Hwy. 49 and County Road J","54941",43.87065887352311,-88.94764068830304
"54942","Greenville","WI","Greenville Community Park","not_available","54942",44.30012605696529,-88.53885537103577
"54944","Hortonville","WI","Armitage Park","Municipal Dr","54944",44.272689116552435,-88.63781397934692
"54944","Hortonville","WI","Stephensville Park","not_available","54944",44.37306291630727,-88.5846990618492
"54944","Hortonville","WI","Commercial Club Park","315 N Olk St","54944",44.340232152178565,-88.63667404377831
"54947","Larsen","WI","Trail Head Park","not_available","54947",44.19395603779961,-88.62379346634293
"54949","Manawa","WI","Lindsay Park","not_available","54949",44.46512290230862,-88.92187911215107
"54950","Marion","WI","Little Falls Park","not_available","54950",44.60748291015625,-89.00170135498047
"54952","Menasha","WI","Riverside Park","E Wisconsin Ave","54956",44.18241925520515,-88.44762098084546
"54952","Menasha","WI","Kimberly Point","Lakeshore Drive","54956",44.18479432130614,-88.44201885495396
"54952","Menasha","WI","Jefferson Park","not_available","54952",44.2038260108556,-88.43054644150016
"54952","Menasha","WI","Shattuck Park","100-298 E Wisconsin Ave","54956",44.18565279589075,-88.459178408806
"54952","Menasha","WI","Mahler Park","1536 S Park Ave","54956",44.15234586085237,-88.45541300651853
"54952","Menasha","WI","Ivy Williams Tennis Courts","801-899 E Cecil St","54956",44.17107936,-88.45042462
"54952","Menasha","WI","Quarry Park in Neener","not_available","54956",44.176884,-88.449974
"54952","Menasha","WI","Clinton Center Park","Tayco st","54952",44.20370459579528,-88.45343828201294
"54952","Menasha","WI","Doty Park","701 Lincoln St","54956",44.186155851780974,-88.4482691874765
"54952","Menasha","WI","Pleasants Park","Tayco St","54952",44.20868054851148,-88.45251560211182
"54952","Menasha","WI","Quarry Park - Neener","Belmont","54956",44.176913,-88.450105
"54956","Neenah","WI","Memorial Park","1131-1145 Gay Dr","54956",44.165746567226186,-88.50157784287354
"54956","Neenah","WI","Washington Park","631 Winneconne Ave.","not_available",44.179653950206685,-88.47652389855335
"54956","Neenah","WI","Fritse Park","N Lake St","54956",44.205564864671956,-88.4715460919409
"54956","Neenah","WI","O'Hauser Park","1986 O'Leary Rd","54956",44.20942096598404,-88.5098041792572
"54956","Neenah","WI","Shultz Park","Cold Spring Road","54956",44.2128511,-88.4869919
"54956","Neenah","WI","schildt park","1780 Cold Spring Rd","54956",44.224852,-88.486311
"54960","Neshkoro","WI","Neshkoro Fireworks","not_available","54960",43.963105843338546,-89.21799831679644
"54960","Neshkoro","WI","Stan O'gene Park","Wisconsin 73","54960",43.95745426535309,-89.21383628485127
"54961","New London","WI","weyauwega swim lake","not_available","54983",44.31769517690999,-88.94185648703855
"54961","New London","WI","Wayauwega Community Park","411 W High St.","54983 â€Ž",44.316646575927734,-88.94129180908203
"54961","New London","WI","Taft Park","not_available","54961",44.39250620718357,-88.74317684704872
"54961","New London","WI","Hatten Park","801 Werner Allen Dr","not_available",44.38418727746665,-88.75277980818962
"54962","Ogdensburg","WI","Reid F. Murray Memorial Park","not_available","54962",44.45209503173828,-89.03187561035156
"54963","Omro","WI","Waukau Creek Dam","Hwy. K","not_available",43.994686182638226,-88.77177333461553
"54971","Ripon","WI","Barlow Park","Park Rd","54971",43.830781514310644,-88.83975446164428
"54971","Ripon","WI","Selfridge Park","334 Spring St","54971",43.84324645996094,-88.83377838134766
"54971","Ripon","WI","Horner Park","Houston St.","54971",43.845303,-88.835358
"54979","Van Dyne","WI","Van Dyne Lions Park","700 Lone Elm Rd","54979",43.894533199427755,-88.50563406944275
"54981","Waupaca","WI","South Park","not_available","54981",44.34863847742706,-89.0852958886698
"54981","Waupaca","WI","Brainard's Bridge Park","Brainard's Rd","54981",44.3651937436089,-89.09873325624321
"54982","Wautoma","WI","hogwarts park","not_available","54984",44.168904,-89.202543
"54982","Wautoma","WI","Bowers Creek","Brown Deer Dr","54982",44.090078,-89.317467
"54982","Wautoma","WI","Bird Creek Park","16th Ave","54982",44.070994667646886,-89.3062218949118
"54984","Wild Rose","WI","Pineland Park","W6400 Pineland Dr","54984",44.18682861328125,-89.20155334472656
