"zip","city","state","name","address","postalCode","lat","lon"
"59001","Absarokee","MT","Hawkins Park","not_available","59001",45.517764,-109.44971
"59002","Acton","MT","Acton Recreation Area","not_available","not_available",46.04551466345797,-108.70414723584852
"59003","Ashland","MT","Poker Jim Lookout","not_available","59012",45.32458,-106.36275
"59007","Bearcreek","MT","Finn Park","not_available","59068",45.180836,-109.245544
"59011","Big Timber","MT","little bighorn battlefield national monument","not_available","59011",45.94609451293945,-109.6619873046875
"59022","Crow Agency","MT","Little Bighorn Battlefield Memorial","not_available","59050",45.526607543351055,-107.41703803100249
"59030","Gardiner","MT","Roosevelt Gate","Yellowstone National Park","59030",45.02968453136356,-110.70760975792916
"59030","Gardiner","MT","Arch Park","not_available","59030",45.03034646717143,-110.71005268245567
"59036","Harlowton","MT","Chief Joseph Park","Harlowton,MT,59036","59036",46.4337061,-109.8393167
"59037","Huntley","MT","Barkemeyer Park","Huntley,MT,59037","59037",45.899401,-108.3015173
"59044","Laurel","MT","Oscar's Park","3670 Wise Ln","59101",45.702766413483126,-108.6178457736969
"59044","Laurel","MT","Riverside Park","1425 U.S. 212, Laurel, Mt 59044","59044",45.653011322021484,-108.75581359863281
"59044","Laurel","MT","Gorham Park","not_available","59102",45.776418,-108.568538
"59044","Laurel","MT","Sacajawea Park","Berthoud","59102",45.763232725112054,-108.57107413290197
"59044","Laurel","MT","18th Street West Park","1140 18th St W","59102",45.781847,-108.561762
"59044","Laurel","MT","Thompson Park","6th Street","59044",45.675566844702466,-108.77018788736942
"59044","Laurel","MT","Firemans Park","not_available","59044",45.669151306152344,-108.77088928222656
"59044","Laurel","MT","Rosebud Park","South 24th Street","59102",45.75751963852494,-108.57461799487854
"59047","Livingston","MT","Sacajawea Park","River Dr","59047",45.65357122061393,-110.5595265745662
"59047","Livingston","MT","Miles Park","not_available","59047",45.656083553739016,-110.56593844084038
"59047","Livingston","MT","Ssacajewa PARK","333-399 W Butte St","59047",45.65462674936774,-110.55726261564452
"59062","Otter","MT","Random Blm Parcel In The Middle Of Nowhere Mt/Wy Border","not_available","59062",45.00916,-106.12243
"59072","Roundup","MT","Roundup City Park","8th Ave E.","59072",46.449345462190514,-108.53769063949585
"59101","Billings","MT","Pioneer Park","3rd St W & Parkhill","59102",45.787335111392835,-108.52334793352406
"59101","Billings","MT","Riverfront Park","not_available","59101",45.74163099759658,-108.53103811761825
"59101","Billings","MT","Montana Sky","27 N 27th St","59101",45.782397,-108.503996
"59101","Billings","MT","Swords Rimrock Park","not_available","59105",45.799096,-108.508095
"59101","Billings","MT","CastleRock Park","Wicks Ln.","59105",45.82624071711349,-108.49960198809411
"59101","Billings","MT","Swords Park Rims Overlook","Chief Black Otter Trail","59105",45.79810969001394,-108.4888744354248
"59101","Billings","MT","Terry Park","5th St W","59101",45.77440458964402,-108.52921435403366
"59101","Billings","MT","Evergreen Park","Ave D","59102",45.787252,-108.552284
"59101","Billings","MT","Castle Rock Park","448-546 W Wicks Ln","59105",45.82697648538782,-108.50048507915521
"59101","Billings","MT","Rimrock West Park","4555 Rangeview Dr","59106",45.791656494140625,-108.63141632080078
"59101","Billings","MT","Peaks To Plains Park","Montana State University - Billings, 1500 University Dr, Billings, Mt 59101","59101",45.79756079596644,-108.52661334138692
"59101","Billings","MT","Hawthorne Park","1401-1427 Janie St","59105",45.82963247089949,-108.43603231186206
"59101","Billings","MT","Poly Vista Park","not_available","59106",45.79257210795259,-108.61875419535306
"59102","Billings","MT","Veteran's Park","13th & Poly","59102",45.79516476216559,-108.54515273859013
"59102","Billings","MT","Rose park pool","Ave b","59102",45.786319718972784,-108.57004098916119
"59105","Billings","MT","Arrowhead Park","Crow Ln","59105",45.82522674987451,-108.47328757199882
"59105","Billings","MT","Strip Of Grass","Shamrock","not_available",45.81570109110574,-108.48368649438059
"59105","Billings","MT","Two Moon Park","800-906 2 Moon Park Rd","59105",45.82964568750146,-108.4359675234999
"59270","Sidney","MT","Richland Park","not_available","59270",47.70661083339195,-104.1498014459674
"59270","Sidney","MT","Alexander Park","not_available","58831",47.8416961496791,-103.64241572203692
"59301","Miles City","MT","Wibaux Park","not_available","59301",46.404970346793945,-105.83399600111724
"59301","Miles City","MT","murn park","not_available","59349",46.79444133128907,-105.25524579509754
"59313","Baker","MT","Steve McClain Memorial Park","not_available","59313",46.35829629327416,-104.2743401212237
"59323","Colstrip","MT","Obert Rye Park","Water Avenue","59323",45.883764829156554,-106.62473917007446
"59323","Colstrip","MT","Castle Rock Lake","not_available","59323",45.892986,-106.63975
"59327","Forsyth","MT","Riverside Park","not_available","59327",46.269636,-106.680619
"59330","Glendive","MT","Whipkey Park","500 E Raymond St","59330",47.09561868817081,-104.71508145332336
"59330","Glendive","MT","Jaycee West Park","not_available","59330",47.108253588198615,-104.72483244908987
"59401","Great Falls","MT","Gibson Park","400-498 Park Dr N","59401",47.5099545018055,-111.30428074135341
"59401","Great Falls","MT","Veterans Memorial","not_available","59401",47.517534537852754,-111.26232104531957
"59401","Great Falls","MT","Elks Riverside Park","River Drive","not_available",47.51226712698105,-111.29303714964755
"59401","Great Falls","MT","West Bank Park","not_available","59404",47.518859600309014,-111.30766448192188
"59404","Great Falls","MT","warden park","not_available","59405",47.49092477210591,-111.30385452362566
"59404","Great Falls","MT","Black Eagle Park","not_available","59414",47.52413658794485,-111.25732102681273
"59404","Great Falls","MT","Ryan Dam","Ryan Dam Road","59404",47.56797002373956,-111.11891984939575
"59404","Great Falls","MT","Lion's Park","801-899 27th St S","59405",47.49537229069064,-111.25866007372345
"59404","Great Falls","MT","Heron Park","4th Ave N & 44th St E","not_available",47.51063450239346,-111.23039439315535
"59410","Augusta","MT","Augusta American Legion Rodeo Grounds","not_available","59410",47.491069,-112.39081
"59410","Augusta","MT","Choteau City Park","Park Ave.","not_available",47.812761874342016,-112.18023258644209
"59411","Babb","MT","Glacier National Park Visitor Center","US Rt 89 & Going To The Sun Road","59417",48.74732946530521,-113.4389222730918
"59417","Browning","MT","Glacier Highline","10167 Hwy 2 E","59913",48.42035790677556,-114.04691576957701
"59417","Browning","MT","Park Headquarters, Glacier National Park","64 Grinnell Dr.","59936",48.50246692594981,-113.98649096488953
"59417","Browning","MT","Belton Stage Park","not_available","59936",48.48755,-114.008806
"59421","Cascade","MT","Railroad Park","not_available","59421",47.270808,-111.700311
"59421","Cascade","MT","Gibson Park","Gibson Park","59401",47.3302718714152,-111.63326025009155
"59442","Fort Benton","MT","Fort Benton City","not_available","59442",47.816509207164835,-110.67025446530657
"59454","Kevin","MT","OA Nepstad Park","not_available","59454",48.745235,-111.96579
"59457","Lewistown","MT","Sims Park","220 NE Washington St","59457",47.07278060913086,-109.416015625
"59457","Lewistown","MT","Frank day Park","not_available","59457",47.05793,-109.418949
"59457","Lewistown","MT","Lewistown Civic Center","5th Ave S","59457",47.05883,-109.43042
"59474","Shelby","MT","Aronow Park","not_available","59474",48.5139413775268,-111.85948329160291
"59474","Shelby","MT","Champions Park","446 12th Avenue North","59474",48.511543,-111.87
"59489","Winifred","MT","Upper Missouri River Breaks National Monument-Lloyd Rd","68545 Lloyd Rd","59523",47.75972392879049,-109.36464786529541
"59501","Havre","MT","Beaver Creek Park","not_available","59521",48.298679771435275,-109.9997171408206
"59501","Havre","MT","Town Square","326 1st Ave","59501",48.55101776123047,-109.68209838867188
"59501","Havre","MT","Beaver Creek County Park","17863 Beaver Creek Rd","59501",48.29505920410156,-109.66555786132812
"59523","Chinook","MT","Zurich Park","Park Road","59547",48.603261661279475,-109.01765584945679
"59523","Chinook","MT","Sweet Girl Scout Park","810 New York Street","59523",48.58793489579639,-109.23431396484375
"59601","Helena","MT","Paws Park","not_available","59601",46.60240622770555,-112.03070198876195
"59601","Helena","MT","Spring Meadow Lake State Park","930 W Custer Ave","59602",46.61017541152172,-112.07567921803513
"59601","Helena","MT","Locky Park","1720 Lockey Ave","59601",46.585248,-112.011226
"59601","Helena","MT","Park Lake Campground","Park Lake Rd","59601",46.566443580547826,-112.08127498626709
"59601","Helena","MT","Mount Helena City Park","Readers Village Dr","59801",46.587591,-112.049902
"59601","Helena","MT","Mount Helena Hiking trail","Mount Helena","59601",46.58788486467327,-112.05143056463615
"59601","Helena","MT","Northwest Park","Valley Drive","not_available",46.6118,-112.0499
"59601","Helena","MT","Helena Park","helena Ave","59601",46.59557179921313,-112.0269227027893
"59601","Helena","MT","Skelton Park","not_available","59602",46.620667,-112.025979
"59601","Helena","MT","Memorial Park","N. Main Street","59601",46.5993286521799,-112.02908420684939
"59601","Helena","MT","Historic Broadwater Park","Highway 12","not_available",46.6034374208708,-112.08890318870544
"59601","Helena","MT","Barney Park","1730 Allison St","59601",46.606169,-112.0513
"59601","Helena","MT","Robinson Park","Townsend Ave","59601",46.59591092173079,-112.01074361801147
"59601","Helena","MT","Hill Park","516 Fuller Ave","59601",46.59337546377406,-112.0393301414878
"59602","Helena","MT","JFK Park","160-188 Harrison Ave N","59635",46.592401460190956,-111.92038894476171
"59632","Boulder","MT","Jefferson County Fairgrounds","not_available","59632",46.223954,-112.12012
"59632","Boulder","MT","Ringing Rocks","Unnamed Rd","59759",45.94327782,-112.23907701
"59639","Lincoln","MT","Hooper Park","not_available","59639",46.954459,-112.671032
"59639","Lincoln","MT","Washington woods","Yup","59639",46.966184,-112.572742
"59645","White Sulphur Springs","MT","Rader Park","3rd Ave SW","59645",46.546794,-110.905725
"59701","Butte","MT","Stodden Park","Gilman Ave","59701",45.98111641649473,-112.52400437576955
"59701","Butte","MT","Old Lexington Gardens","300-304 E Granite St","59701",46.01456,-112.531866
"59701","Butte","MT","Chester Steele Memorial Park","not_available","59701",46.008087,-112.547386
"59701","Butte","MT","snow-covered picnic table","Legion St.","59759",45.84534414454618,-112.3196182285523
"59711","Anaconda","MT","Beaver Dam Park","not_available","59711",46.118679167628144,-112.79958638702021
"59711","Anaconda","MT","Kennedy Commons","Main St","59711",46.127946781453176,-112.95422673225403
"59714","Belgrade","MT","River Rock Park","not_available","59714",45.778834,-111.213642
"59714","Belgrade","MT","Railroad Park","not_available","59741",45.85597,-111.33164
"59714","Belgrade","MT","Sacajawea Park","not_available","59715",45.778924023457186,-111.16098331459395
"59714","Belgrade","MT","Lewis and Clark Park","91 E Central Ave","59714",45.777037,-111.175015
"59715","Bozeman","MT","East Gallatin Recreation Area","Manley Rd.","59715",45.70453094294404,-111.03873252868652
"59715","Bozeman","MT","Lindley Park Center","900 E Main St","59715",45.67742678067309,-111.02473533424174
"59715","Bozeman","MT","South Side Park","S 5th Ave","59715",45.67203595551334,-111.04354110992823
"59715","Bozeman","MT","Bobcat Statue","Montana State University Campus","59715",45.66872705328027,-111.04886035978303
"59715","Bozeman","MT","Christie Fields Park","204 E Lincoln St","59715",45.664106,-111.034286
"59715","Bozeman","MT","Bozeman Beacon Park","415 N Bozeman Ave","59715",45.68341827392578,-111.0350341796875
"59715","Bozeman","MT","The Duck Pond","11th St","59715",45.666371,-111.05180773
"59715","Bozeman","MT","Soroptimist Park","E Main St","59715",45.67893462,-111.03228299
"59715","Bozeman","MT","Kirk Park","N. 20th Ave.","59718",45.68120123577193,-111.06378861941988
"59715","Bozeman","MT","Matthew Madison Park","cattail st.","not_available",45.70746815,-111.07219702
"59715","Bozeman","MT","North Meadows Park","335 Michael Grove Ave","59718",45.683411,-111.076872
"59715","Bozeman","MT","Cooper Park","S 8th Ave","59715",45.6753140433864,-111.05071798744876
"59715","Bozeman","MT","Bogert Park","232 S Church Ave","59715",45.67591870146265,-111.03128452428858
"59716","Big Sky","MT","Pioneer Mountain","not_available","59729",45.2461976990214,-111.41819381914578
"59718","Bozeman","MT","Bozeman Pond","542 S. Fowler Ln","59715",45.67340858100584,-111.082585565293
"59718","Bozeman","MT","Gallatin County Regional Park","3791 Laduke St","59718",45.69438410914729,-111.08835492400726
"59718","Bozeman","MT","Dinosaur Playground","Davis St","59718",45.69500206241279,-111.08473376779907
"59718","Bozeman","MT","Gallactic Park","not_available","59718",45.681924,-111.201466
"59721","Cardwell","MT","Coffelt Park","1510 South19th Drive","59721",45.87443204968684,-111.98338282950796
"59722","Deer Lodge","MT","Arrrowstone park","not_available","59722",46.398873726664256,-112.73518269436687
"59725","Dillon","MT","Barrett Park","not_available","59725",45.129329,-112.741103
"59725","Dillon","MT","Jessen Park","not_available","59754",45.545418,-112.33069
"59725","Dillon","MT","Big Hole National Battlefield","not_available","59761",45.41896871485146,-113.43618823046721
"59758","West Yellowstone","MT","West Yellowstone Town Park","179 Firehole Avenue","59758",44.66233473998535,-111.10117435455322
"59759","Whitehall","MT","Chamber Of Commerce Frontier Days Barbecue","Legion Avenue","59759",45.86909103393555,-112.10552215576172
"59801","Missoula","MT","Bess Reed Park","S Pattee St","59802",46.86758785863897,-113.99350246914578
"59801","Missoula","MT","Jacob's Island Bark Park","University of MT Missoula","59812",46.86631982903953,-113.98174528239882
"59801","Missoula","MT","Bonner Park","1798 Ronald","not_available",46.85513421441087,-113.99348181304345
"59801","Missoula","MT","John H Toole Riverfront Park","S 4rd St E","59801",46.86570812582407,-113.99156555219936
"59801","Missoula","MT","Caras Park","Carousel Dr","59802",46.86920147951588,-113.99632539144123
"59801","Missoula","MT","Clark Fork Natural Area","200 Chestnut St","59802",46.8698616027832,-114.001220703125
"59801","Missoula","MT","Johnsrud Park","not_available","59823",46.855604479484896,-114.02684016418026
"59801","Missoula","MT","Silver Park","700 Cregg Ln","59801",46.873232,-114.007606
"59801","Missoula","MT","McCormick Park","Cottonwood St","59801",46.8725968271806,-114.003952777715
"59801","Missoula","MT","Montana Rail Link Park","not_available","59801",46.850544,-114.02737
"59801","Missoula","MT","Greenough Park","1001 Monroe","59802",46.8755058229372,-113.97921076050366
"59801","Missoula","MT","Sacajawea Park","401-499 S 6th St W","59801",46.86387173736739,-114.0027536396024
"59801","Missoula","MT","Downtown Lions Club City Park","not_available","59802",46.876467,-114.013366
"59801","Missoula","MT","Phyllis J. Washington Park","not_available","59803",46.86219787597656,-113.9803237915039
"59801","Missoula","MT","Currents Aquatic Park","600 Cregg Ln","59801",46.872872369854065,-114.00512441255928
"59801","Missoula","MT","McLeod Park","McLeod Park","59801",46.851698,-114.020526
"59801","Missoula","MT","Blue Mountain Recreation Area","Missoula,MT,59804","59804",46.85944135782813,-113.9994074748592
"59801","Missoula","MT","Playfair Park","Stephens Ave","59801",46.8418474495777,-114.01486873626709
"59801","Missoula","MT","Little McCormick Park","McCormick ST","59801",46.87762663667184,-113.99961682911781
"59801","Missoula","MT","Downtown Tonight At Caras Park","Carousel Dr.","59802",46.868978431816274,-113.99660022161854
"59801","Missoula","MT","Franklin Park","1100 Kemp St","59801",46.86111831665039,-114.03119659423828
"59801","Missoula","MT","Spartan Park","Bancroft St.","59801",46.844342542653116,-114.01044845581055
"59801","Missoula","MT","Westside Park","901-999 Scott St","59802",46.88077103129887,-114.00710050710074
"59803","Missoula","MT","Skyview Park","5600 Skyview Dr","59803",46.814771,-114.026588
"59803","Missoula","MT","Fort Missoula Recreation Area","Fort Missoula","59804",46.84587202831414,-114.0531787612517
"59803","Missoula","MT","Pheasant Run Park","2414 Arcadia Dr","59803",46.821425227745536,-114.04779562722725
"59804","Missoula","MT","O'Shaughnesy Street Park","not_available","59808",46.89669,-114.04818
"59804","Missoula","MT","Fort Missoula Regional Park","not_available","59804",46.842778,-114.058056
"59808","Missoula","MT","8th Street Pocket Park","1900 S 8th St W","59801",46.86277389526367,-114.02651977539062
"59823","Bonner","MT","warren park","not_available","59832",46.826882,-113.336129
"59828","Corvallis","MT","Veterans Memorial Park.","not_available","59870",46.265814678322165,-114.09253127928316
"59831","Dixon","MT","National Bison Range","58355 Bison Range Rd","59824",47.33263779038091,-114.20289119707788
"59833","Florence","MT","Florence Park","5330 Florence Carlton Loop","59833",46.637494110191696,-114.08404971415878
"59840","Hamilton","MT","Hieronymus Park","not_available","59840",46.26560028782192,-114.1585981893558
"59860","Polson","MT","Polson Bay View Point","not_available","59860",47.670812,-114.105819
"59860","Polson","MT","Boettcher Park","Country Club Dr","not_available",47.698042152092015,-114.13470291018876
"59865","Saint Ignatius","MT","Taelman Park","350 Beartrack Ave","59865",47.31448,-114.104032
"59865","Saint Ignatius","MT","Pinehaven Christian Children's Ranch","not_available","59865",47.32048034667969,-114.0535888671875
"59872","Superior","MT","Big Eddy Park","not_available","59872",47.192721,-114.879844
"59901","Kalispell","MT","Lawrence Park","N Main Street","59901",48.210367711634014,-114.31278561363253
"59901","Kalispell","MT","Woodland Park","1 Woodland Ave","59901",48.20107704054202,-114.30229733252843
"59901","Kalispell","MT","Depot Park Whitefish","not_available","59937",48.41312288060627,-114.3356461093333
"59901","Kalispell","MT","Herron Park","not_available","59901",48.15339,-114.35957
"59901","Kalispell","MT","Pinewood Park","not_available","59912",48.370112,-114.18622
"59901","Kalispell","MT","Martin & Martin Asphalt Paving","100 2nd St E","59937",48.410823822021484,-114.3420639038086
"59901","Kalispell","MT","Northridge Park","Northridge Drive","59901",48.220040748019905,-114.33372974395752
"59901","Kalispell","MT","Kate Patterson Park","5th Ave","59937",48.407469270810736,-114.33713941090986
"59901","Kalispell","MT","Spruce Park on the River","1985 Highway 35","59901",48.22371604373059,-114.24343818688013
"59901","Kalispell","MT","Depot Park","Main Street","59901",48.19911179027465,-114.31312190040158
"59917","Eureka","MT","Eureka Historical Village","US 93","59917",48.89053921503195,-115.05358746112199
"59922","Lakeside","MT","Ben Williams Park","Soren Ln","59922",48.01366,-114.228427
"59923","Libby","MT","Pioneer Park","505 W Balsam St","59923",48.3823356628418,-115.56236267089844
"59923","Libby","MT","Fireman's Park","Treasure Ave","59923",48.391119572672686,-115.56430874720554
"59923","Libby","MT","J. Neils County Park","not_available","59923",48.40040945032696,-115.5368261706269
