"zip","city","state","name","address","postalCode","lat","lon"
"58001","Abercrombie","ND","Abercrombie Park","County Road 4","58075",46.44717213530143,-96.72371864318848
"58007","Ayr","ND","City Park","Main","58064",47.03876876831055,-97.48686218261719
"58011","Buffalo","ND","Fort Ransom State Park","not_available","not_available",46.87590685500256,-97.58842408991784
"58012","Casselton","ND","Tinta Tawa Park","121 2nd St N","58012",46.90259552001953,-97.22079467773438
"58012","Casselton","ND","The Res.","not_available","58012",46.902958532943664,-97.22248077392578
"58021","Davenport","ND","Horace Disc Course","507 Sheyenne Dr","58047",46.75728,-96.90988
"58045","Hillsboro","ND","Woodland Park","not_available","58045",47.408516927811796,-97.05742139695887
"58047","Horace","ND","Iwen Park","not_available","58104",46.803967136454844,-96.79866267119914
"58047","Horace","ND","Superior Plumbing","not_available","58047",46.75,-96.9
"58051","Kindred","ND","Kindred City Park","not_available","58051",46.6450170305095,-97.0098352432251
"58059","Mapleton","ND","praire view park","not_available","58059",46.893558502197266,-97.0484390258789
"58060","Milnor","ND","Gwinner Park","not_available","58040",46.22544955411512,-97.45200104547315
"58072","Valley City","ND","Chautauqua Park","not_available","58072",46.936168527137454,-97.98973011845847
"58072","Valley City","ND","City Park","426 4th Ave SW","58072",46.92007827758789,-98.0079116821289
"58072","Valley City","ND","Medicine Wheel Park","900 2nd Ave SE","58072",46.91623242973423,-98.00282863072802
"58075","Wahpeton","ND","Chahinkapa park","not_available","58075",46.271501563855885,-96.59921604816178
"58075","Wahpeton","ND","Railroad Park","not_available","56520",46.263189,-96.589004
"58075","Wahpeton","ND","Hughes shelter","Chahinkapa Park","58075",46.27000635523543,-96.59885626977201
"58075","Wahpeton","ND","John Miller Memorial Park","Hill St","58075",46.30478600127936,-96.7377519607544
"58075","Wahpeton","ND","North meadows mini park","1300 14 1/2 Ave n","58075",46.267467,-96.609615
"58078","West Fargo","ND","Rendezvous Park","1055 32nd Ave W.","not_available",46.83067650097866,-96.91896661559933
"58078","West Fargo","ND","Charleswood Lake","17th Ave E","58078",46.85646411022558,-96.89520835876465
"58078","West Fargo","ND","Rainbow Play Systems of North Dakota","5226 51st Ave S","58104",46.804617,-96.874353
"58078","West Fargo","ND","Meadowridge Park","not_available","58078",46.87080745710749,-96.87091360547429
"58078","West Fargo","ND","Riverâ€™s Bend Park","2548 1st St E","58078",46.84003448486328,-96.90142059326172
"58078","West Fargo","ND","Rendezvous Frolf Course","Grand View Way","58078",46.83083320390094,-96.91820724452239
"58078","West Fargo","ND","Kennedy Park","4500 42nd St S","58103",46.80933917016322,-96.86954026580314
"58078","West Fargo","ND","Tintes Park","131 6th Ave E","58078",46.870507,-96.898688
"58078","West Fargo","ND","Urban Plains Park","5050 30th Ave S","58104",46.83491897583008,-96.8729019165039
"58078","West Fargo","ND","West Fargo Park District","500 13th Ave W","58078",46.86163188414531,-96.92246903646426
"58078","West Fargo","ND","Osgood Park","4951 47th St S","58104",46.806126,-96.869845
"58081","Wyndmere","ND","softball field-wyndmere","not_available","58081",46.262672424316406,-97.12748718261719
"58102","Fargo","ND","Wildflower Grove Park","9 Lower Terrace N","58102",46.88222885131836,-96.77644348144531
"58102","Fargo","ND","Trollwood park","not_available","58102",46.924774702942244,-96.78020545068298
"58102","Fargo","ND","Trefoil Park","Elm street","not_available",46.89234316754865,-96.76800727844238
"58102","Fargo","ND","Original Homestead Park","not_available","56560",46.885635,-96.769835
"58102","Fargo","ND","Roosevelt Park","1220 9th street north","58102",46.89117991095552,-96.79285766601066
"58102","Fargo","ND","Elephant Park","19th Avenue","58102",46.90268335049271,-96.779566604889
"58102","Fargo","ND","Madison Park","29th St N 10th Ave","58103",46.881313572489034,-96.77600304156611
"58102","Fargo","ND","Fargo Civic Center","207 4th St N","58102",46.87843593108027,-96.78416548925065
"58102","Fargo","ND","Highland Park","62nd ave N","58102",46.963471927470714,-96.80123088875149
"58102","Fargo","ND","Johnson Park","1420 11th Ave N","not_available",46.888359,-96.802503
"58102","Fargo","ND","Davy Park","moorhead","56560",46.87672873763945,-96.76830723478437
"58102","Fargo","ND","Riverside Gardens","345 2nd Street N","58102",46.87920300999955,-96.78171873092651
"58103","Fargo","ND","Island Park","not_available","58103",46.871164809454,-96.78826332092285
"58103","Fargo","ND","Lindenwood Park","1712 5th St. S","58103",46.85035964331813,-96.7864179611206
"58103","Fargo","ND","Gooseberry Mound Park","100 22nd Avenue South","56560",46.85307040346458,-96.78094611843062
"58103","Fargo","ND","Rabanus Park","4315 18 Avenue Southwest","58103",46.850913004656164,-96.85064153320653
"58103","Fargo","ND","Boler Park","1734 34th St S","58103",46.85356,-96.834954
"58103","Fargo","ND","Jefferson West Park","21st st & 5th Ave S","58103",46.871018488636906,-96.81239252072862
"58103","Fargo","ND","was Round House","3707 Rivershore Dr S, Moorhead, MN 56560","56560",46.83632592081863,-96.7811134021271
"58103","Fargo","ND","Fargo Skatepark","200 4th St S","58102",46.871858,-96.78449
"58104","Fargo","ND","Eagle Picnic Shelter","3502 University Dr S","58104",46.826255798339844,-96.80117797851562
"58104","Fargo","ND","Hubble Periscope","37th Ave S","not_available",46.8239982,-96.81192539999999
"58201","Grand Forks","ND","Ben Franklin Park","20th St","58201",47.91231004720312,-97.05666503083434
"58201","Grand Forks","ND","Lincoln Drive Park","120 Euclid Ave.","58201",47.91032076139921,-97.0231928552091
"58201","Grand Forks","ND","University Park","2301 University Ave","58203",47.92386728307757,-97.0613015583758
"58201","Grand Forks","ND","Sertoma Park","3300 11th Avenue S","not_available",47.91072807086651,-97.07496694416942
"58201","Grand Forks","ND","Independence Park","5th ave.","58201",47.91745,-97.03974
"58201","Grand Forks","ND","IRET Legacy Park","3500 30th Ave S","58201",47.892689000000004,-97.078203
"58201","Grand Forks","ND","Quad","not_available","58203",47.92057970385578,-97.07185669054745
"58201","Grand Forks","ND","Millenium Park","3rd Street N","not_available",47.92614807470644,-97.031079894612
"58201","Grand Forks","ND","Lincoln Park Frolf Course","not_available","58201",47.91134348958912,-97.02166833414053
"58201","Grand Forks","ND","The Greenway","Gateway Dr","58203",47.92302869825865,-97.0355976895331
"58201","Grand Forks","ND","Optimist Park","4427-4479 Cherry St","58201",47.876745449906906,-97.03647687310811
"58201","Grand Forks","ND","Century Park (Lions Park)","3351 17th Ave S","58201",47.902950286865234,-97.07620239257812
"58201","Grand Forks","ND","Pillsbury Park","Kittson Ave","58201",47.923999490636696,-97.02982306480408
"58201","Grand Forks","ND","Loon Park","3rd St","not_available",47.924396761101185,-97.02958051313638
"58201","Grand Forks","ND","Kiwanis Park","3701-4000 Ruemmele Rd","58201",47.884173978904556,-97.07633421389545
"58203","Grand Forks","ND","The Great Wall Of Bing Bong","not_available","56721",47.942325,-97.028553
"58203","Grand Forks","ND","Ray Ronan Memorial Park","not_available","58256",48.069693,-97.178754
"58225","Drayton","ND","Schumacher Park - Drayton","not_available","58225",48.5643310546875,-97.18215942382812
"58225","Drayton","ND","Pumpkin Park","not_available","58237",48.415176642222214,-97.40527232192552
"58249","Langdon","ND","Langdon Arboretum / City Park","1284-1398 7th St","58249",48.76536441407044,-98.37445569534619
"58257","Mayville","ND","Thunderstreak Park","not_available","58257",47.49895,-97.32789
"58261","Minto","ND","Minto Park","Unnamed Rd","58261",48.28546615977317,-97.37276875960185
"58267","Northwood","ND","Northwood Park","not_available","58267",47.73444900362537,-97.56690519047531
"58274","Portland","ND","Portland Centennial Park","600-646 Grand Forks Ave","58274",47.500374283333336,-97.37231055
"58301","Devils Lake","ND","Black Tiger Bay State Recreation Area","not_available","58370",47.991359639933435,-98.7170102913975
"58301","Devils Lake","ND","Graham's Island State Park","not_available","58301",48.04320463341352,-99.0528002026127
"58301","Devils Lake","ND","Ruger Park","12th Street NE","58301",48.12003466692284,-98.85721902648393
"58324","Cando","ND","cando city park","2nd Avenue","58324",48.52902670152381,-99.20639104806882
"58341","Harvey","ND","Maddock Park","not_available","58348",47.95990777818752,-99.52875035573425
"58341","Harvey","ND","Fessenden Track n Feild","not_available","58341",47.76607032379894,-99.93363702885215
"58344","Lakota","ND","Lakota City Park","not_available","58344",48.04456415763698,-98.3526692183409
"58352","Munich","ND","Munich Bar","Main St","58352",48.67049809016616,-98.83520919762512
"58368","Rugby","ND","Ellery Park","not_available","58368",48.36671234838798,-100.00710694852857
"58401","Jamestown","ND","Northern Plains Wildlife Refuge","8711 37th St SE","58401",46.879252,-98.627344
"58401","Jamestown","ND","Bolinger court","not_available","58401",46.913213,-98.711899
"58401","Jamestown","ND","Jamestown Dam Park","8313 32nd St SE","58401",46.95069367159218,-98.70146236374246
"58413","Ashley","ND","Centenial park","not_available","58413",46.031873,-99.372052
"58425","Cooperstown","ND","Ronald Reagan Minuteman Missle State Historic Site - November 33","not_available","58425",47.44058651904389,-98.06612042985746
"58428","Dawson","ND","Tappen City Park","not_available","58487",46.877426,-99.63606
"58433","Edgeley","ND","Kulm City Park","not_available","58456",46.29859,-98.94574
"58436","Ellendale","ND","South Park","not_available","58436",45.99465560913086,-98.52620697021484
"58436","Ellendale","ND","Fullerton Park","not_available","58441",46.16230545695246,-98.42388383269233
"58474","Oakes","ND","Hickenberry Park","not_available","58474",46.142775,-98.089601
"58486","Sykeston","ND","Lake Hiawatha","not_available","58486",47.467312,-99.401366
"58494","Wing","ND","Wing Park","not_available","58494",47.14147,-100.283159
"58501","Bismarck","ND","Keelboat Park","River Rd","58501",46.82311343600781,-100.82842317045518
"58501","Bismarck","ND","Sertoma Park","201-299 Riverside Park Rd","58504",46.80064102717558,-100.80981731414795
"58501","Bismarck","ND","Igoe Park","2413 Tyler Pkwy","58503",46.834347,-100.817596
"58501","Bismarck","ND","Kiwanis Park","348 S Washington","58504",46.803220379404415,-100.79888547611222
"58501","Bismarck","ND","Hillside Park","1701-1799 E Boulevard Ave","58501",46.81530423090737,-100.76183795928955
"58501","Bismarck","ND","Seratoma Park Shelter 9","601-799 W Arbor Ave","58504",46.804934279367,-100.80656442571174
"58501","Bismarck","ND","Pioneer Park","2000 River Road","58503",46.83102101020603,-100.83260844020205
"58501","Bismarck","ND","Trinity Lutheran Water Fountain","502 N 4th St","58501",46.809948,-100.7869
"58501","Bismarck","ND","23rd Street Park","not_available","58501",46.80971838324645,-100.75795946043011
"58501","Bismarck","ND","Steamboat Park","River Rd","not_available",46.8168429010502,-100.82337327201267
"58501","Bismarck","ND","Sertoma Park","602","not_available",46.83083087369015,-100.83310873942105
"58501","Bismarck","ND","Jaycee Centenial Park","321 E Century Ave","not_available",46.83736038208008,-100.78611755371094
"58501","Bismarck","ND","Custer Park","W Broadway Ave","58501",46.80693767518421,-100.79534815229545
"58501","Bismarck","ND","seratoma shelter 2","not_available","58504",46.8065071105957,-100.8132553100586
"58501","Bismarck","ND","BAGA Art Park","400 E Front Ave","58504",46.804578,-100.785455
"58501","Bismarck","ND","Horizon Park","not_available","58503",46.858162,-100.801353
"58501","Bismarck","ND","Camp Hancock","612 E Boulevard Ave","58505",46.819346,-100.779604
"58503","Bismarck","ND","Eagles Park","14th Street Northeast","58554",46.83960910571733,-100.89163541793823
"58503","Bismarck","ND","Art in the Park","Dykshoorn Park","58554",46.8257442481234,-100.89429252160097
"58503","Bismarck","ND","Custer Park","Parky","not_available",46.8300578228996,-100.87869264715422
"58503","Bismarck","ND","New Generations Park","Valley Dr","not_available",46.84952735262964,-100.80898346826028
"58503","Bismarck","ND","Dykshoorn Park","west main street","58554",46.82595700006561,-100.89415502914564
"58503","Bismarck","ND","Kiwanis Park - Mandan","201 3rd Ave SW","58554",46.822515,-100.894021
"58504","Bismarck","ND","Roosevelt Park Minot nd","1215 East Burdick Expressway","58701",46.77165235980263,-100.75825286202235
"58504","Bismarck","ND","Holiday Park","702-774 S 12th St","58504",46.798412,-100.774105
"58504","Bismarck","ND","Tatley Volleyball Courts","airport road","58504",46.80078965448023,-100.76493878047224
"58504","Bismarck","ND","Star Gazer Park","14th Ave SE","58504",46.8028374,-100.7961153
"58523","Beulah","ND","Riverside Park","not_available","58523",47.2542134652135,-101.78135458235244
"58545","Hazen","ND","Sakakawea Park","not_available","58571",47.320998,-101.377907
"58545","Hazen","ND","The Pocket Park","not_available","58545",47.29839324951172,-101.62844848632812
"58554","Mandan","ND","George Custer House At Fort Lincoln","not_available","58554",46.75791039147701,-100.84677888674146
"58559","Mercer","ND","Mercer Centennial Park","not_available","58559",47.48921,-100.712554
"58563","New Salem","ND","Site 15","not_available","58563",46.99441146850586,-101.53482818603516
"58563","New Salem","ND","New Salem Railroad Park","Main St","58563",46.85863719618393,-101.38531812377386
"58601","Dickinson","ND","Optimist Park","7th Ave","58601",46.88494635939348,-102.7965488943276
"58601","Dickinson","ND","Elks Warming House","not_available","58601",46.882337,-102.771294
"58620","Amidon","ND","Theodore Roosevelt NationalGrassland","not_available","58620",46.48245959138781,-103.31920277891979
"58622","Belfield","ND","Chimney Park","not_available","58645",46.916326255510604,-103.52897951805407
"58626","Dunn Center","ND","Lion's Park","215 Hilltop Drive","58640",47.367940363442344,-102.76086151599884
"58626","Dunn Center","ND","Jack's Jungle","not_available","58640",47.371784,-102.751015
"58626","Dunn Center","ND","Log Cabin Park","Central Ave","58640",47.37028012749769,-102.75294899940491
"58638","Hebron","ND","Hebron Boy Scout Cabin","not_available","58638",46.89725392050572,-102.04813676837169
"58639","Hettinger","ND","Mirror Lake Park","not_available","58639",45.99760490690638,-102.63753458456517
"58647","New England","ND","Lion's Park","not_available","58647",46.5382259166203,-102.86828935146332
"58652","Richardton","ND","Richardton Little Opry Land","104 North Ave E","58652",46.88404083251953,-102.31597137451172
"58701","Minot","ND","Oak Park","1139-1381 4th Ave NW","58703",48.23923753391255,-101.31473779678345
"58701","Minot","ND","Roosevelt Park Zoo","1219 Burdick Expy E","58701",48.233290114771386,-101.2760477649427
"58701","Minot","ND","Scandanavian Heritage Park","11th Ave SE","58701",48.225778000273145,-101.29753332163618
"58701","Minot","ND","Nubbin Park","not_available","58703",48.241791,-101.309344
"58701","Minot","ND","Archery Range","not_available","58701",48.231242625093294,-101.39486445712193
"58701","Minot","ND","AFP's Obama's #FailingAgenda Bus Stop - Minot, ND","Oak Park","not_available",48.238959,-101.312667
"58703","Minot","ND","Femaville","Femaville","58703",48.26577243634982,-101.2294724006077
"58703","Minot","ND","Metigoshi Park","not_available","58704",48.424554,-101.330147
"58703","Minot","ND","Old Settlers Park","not_available","58722",48.28310585153306,-101.43014287127858
"58721","Bowbells","ND","Bowbells City Park","Main St","not_available",48.80442,-102.24403
"58721","Bowbells","ND","Niobi","Niobi","58746",48.69092452453674,-102.21878115264623
"58730","Crosby","ND","Crosby Park District ball diamonds","not_available","58730",48.906798747761826,-103.28899980098555
"58776","Ross","ND","City Park","333 3rd St east","58776",48.31354614014407,-102.54300295049958
"58782","Sherwood","ND","Mouse River Park","Mouse River Park,ND,58782","58782",48.960810427407786,-101.63722753955713
"58784","Stanley","ND","Stanley Park","6th Avenue","58784",48.31375707848466,-102.38182173895561
"58790","Velva","ND","Velva Park","not_available","58790",48.05931854248047,-100.93860626220703
"58801","Williston","ND","Harmon Park","1101-1117 Main St","58801",48.15643981099722,-103.62402467314428
"58801","Williston","ND","Cote Park","3700 37th St W","58801",48.179268,-103.67395
"58801","Williston","ND","Spring lake park","not_available","58801",48.1994738056811,-103.62143347543535
"58801","Williston","ND","Western Star Complex","1600 19th Ave W","58801",48.16057287078397,-103.65093479821257
"58801","Williston","ND","Keal Boat","Spring Lake Park","58801",48.202716329481454,-103.61709064207815
"58801","Williston","ND","West Lawn Park","7th St W","58801",48.15075382012206,-103.63373499261624
"58831","Alexander","ND","Nelson Park","not_available","58835",47.806391,-103.441111
"58831","Alexander","ND","Alexander Park","not_available","58831",47.8416961496791,-103.64241572203692
"58852","Tioga","ND","Gile's Park","not_available","58852",48.343868,-102.902394
"58852","Tioga","ND","Park","518 2nd St NE","58852",48.396026611328125,-102.92964172363281
"58854","Watford City","ND","Mckenzie County Heritage Park","not_available","58854",47.798488,-103.297504
"58854","Watford City","ND","Cherry Creek Park","3rd Ave SE","58854",47.80401459274887,-103.26543985539477
