"zip","city","state","name","address","postalCode","lat","lon"
"63005","Chesterfield","MO","Babler State Park","800 Guy Park Dr","63005",38.61712089697699,-90.6883114979871
"63005","Chesterfield","MO","Chesterfield Central Park","16365 Lydia Hill Dr","63017",38.65152219612287,-90.5725006607506
"63005","Chesterfield","MO","Weldon Springs Conservation Area","Hwy 94","63304",38.69090606018326,-90.72450541576923
"63005","Chesterfield","MO","Chesterfield Parks","17891 Outer 40","63005",38.67340080555419,-90.63306905791681
"63005","Chesterfield","MO","Cochran Shelter","not_available","not_available",38.6178389287036,-90.68128215010944
"63005","Chesterfield","MO","Mockingbird Park","not_available","63011",38.60395907121061,-90.57349875389727
"63010","Arnold","MO","Arnold City Park","1 Bradley Beach Rd","63010",38.448330202199074,-90.35896919838285
"63010","Arnold","MO","Lower Meramec Park","not_available","63128",38.46071251194831,-90.39302189403529
"63010","Arnold","MO","Vogel Manor","71 Vogel Cir","63010",38.4214973449707,-90.41199493408203
"63010","Arnold","MO","Arnold Park","Jeffco Blvd.","63010",38.44211005375177,-90.37826778936557
"63010","Arnold","MO","Gobble Gobble 5k Arnold Park","not_available","63010",38.453826904296875,-90.35346221923828
"63010","Arnold","MO","Strawberry Creek Nature Reserve","3539-3595 Tenbrook Rd","63010",38.41525801,-90.36525978333333
"63010","Arnold","MO","RockView Heights","201 Rockview Ln","63010",38.4312806,-90.4059214
"63010","Arnold","MO","Hidden Acres","2111 Richardson Rd","63010",38.4214,-90.397352
"63011","Ballwin","MO","Town & Country Center Square","not_available","63131",38.625713,-90.48082
"63011","Ballwin","MO","Manchester Parks & Recreation","359 Old Meramec Station Rd","63021",38.58729152245281,-90.51348667888948
"63011","Ballwin","MO","Queeny County Park","550 Weidman Rd","63131",38.613064556425336,-90.49067258834839
"63011","Ballwin","MO","New Ballwin Park","not_available","63021",38.5826248744784,-90.55790636292366
"63011","Ballwin","MO","Paul Schroeder Park","359 Old Meramec Station Road","63021",38.58805465698242,-90.51388549804688
"63011","Ballwin","MO","Longview Park","13525 Clayton Road","63141",38.630905120715106,-90.48529655736007
"63011","Ballwin","MO","Owl Hollow Park","809 Corvallis Ct","63021",38.58584976196289,-90.56400299072266
"63011","Ballwin","MO","Vlasis Park","300 Park Dr","63011",38.59560338359232,-90.53921286646299
"63011","Ballwin","MO","Bobwhite Park","934 Parkdale Cir","63021",38.589496999999994,-90.571563
"63012","Barnhart","MO","Sun Valley Sports Complex","1511 Marble Springs Rd","63070",38.29824525122662,-90.40332639164494
"63012","Barnhart","MO","Parkton Park","not_available","63012",38.346458289967046,-90.41187148930757
"63014","Berger","MO","New Haven Park","not_available","63068",38.599783,-91.23107
"63016","Cedar Hill","MO","Cedar Hill Park","6901-6917 Old Gravois Rd","63016",38.34929267370529,-90.64386705294541
"63017","Chesterfield","MO","Faust County Park","15185 Olive Blvd","63017",38.66591003020511,-90.54182767868042
"63017","Chesterfield","MO","Butterfly House at Faust County Park","15193 Olive Blvd","63017",38.664720542163984,-90.5427357051765
"63017","Chesterfield","MO","Central Park Square I","16150 Main Circle Dr","63017",38.650946999999995,-90.570071
"63017","Chesterfield","MO","Green Trails Elementary Park","not_available","63017",38.66862415904373,-90.526442527771
"63017","Chesterfield","MO","Thursday Job Tt","14743 Thornhill Terrace Dr","63017",38.661604,-90.536615
"63019","Crystal City","MO","Crystal City Park","not_available","63019",38.2342742270074,-90.38400207770042
"63020","De Soto","MO","North Park Complex","not_available","63020",38.126858,-90.57345
"63020","De Soto","MO","HILLSBORO PARK","not_available","63050",38.19842700851324,-90.60613402152462
"63020","De Soto","MO","Gannon Drive Park","not_available","63028",38.21085332621112,-90.40376809600565
"63021","Ballwin","MO","Twin Oaks Park","Ann Ave, Twin Oaks, MO","63088",38.56430776876811,-90.50186597380879
"63021","Ballwin","MO","Buder County Park","215 Valley Park Dr","63026",38.53702150144897,-90.48914909362793
"63021","Ballwin","MO","Simpson County Park","1234 Marshall Rd","63088",38.555817477515035,-90.4660177230835
"63021","Ballwin","MO","Ferris park","500 New Ballwin Rd","63021",38.57035263890245,-90.55878852433494
"63021","Ballwin","MO","World Bird Sanctuary","125 Bald Eagle Ridge Rd","63088",38.53552442829528,-90.53392688531142
"63021","Ballwin","MO","Meramec Landing Park","not_available","63088",38.54685952690445,-90.48192172800697
"63021","Ballwin","MO","Love County Park","2239 Mason Ln","63021",38.59116292079144,-90.47750537747808
"63021","Ballwin","MO","Leonard Park","436 Leonard Ave","63088",38.55401611328125,-90.4850082397461
"63021","Ballwin","MO","Ferris Park","674 Rustic Valley Dr","63021",38.571707,-90.55469000000001
"63021","Ballwin","MO","Westside Park","1220 Woodridge Trails","not_available",38.53244130241177,-90.46852777368461
"63021","Ballwin","MO","Frisco Caboose","Becket Memorial Dr.","not_available",38.54923944473397,-90.49133777618408
"63021","Ballwin","MO","Ohlendorf West County Park","1150 Hanna Rd","63021",38.56215436000095,-90.51030008058959
"63023","Dittmer","MO","El Rancho Reedo","not_available","63630",38.32045300689207,-90.75512135942797
"63023","Dittmer","MO","Big River Saddle Club Park","10561 Joe Buck Rd","63023",38.278748,-90.745817
"63025","Eureka","MO","Lone Elk County Park","1 Lone Elk Park Dr.","63025",38.53118032281198,-90.53858757019043
"63025","Eureka","MO","Lions Park","400 Bald Hill Road","63025",38.498702228090345,-90.63035266079505
"63025","Eureka","MO","Rockwoods Reservation","Hwy 109","63038",38.5457685467091,-90.63315698526193
"63025","Eureka","MO","West Tyson County Park","131 N Outer Rd E","63025",38.509163,-90.58796
"63025","Eureka","MO","Glencoe City Park","505 Washington Ave","63038",38.54658889770508,-90.62648010253906
"63025","Eureka","MO","Legion Park","333 Bald Hill Rd","63025",38.500036,-90.632543
"63025","Eureka","MO","Berry Park","401 Forby Rd.","63025",38.52048169271395,-90.64233025548435
"63025","Eureka","MO","Rockford Beach","not_available","63025",38.421589451635256,-90.5897721176233
"63025","Eureka","MO","Greensfelder County Park","4515 Hencken Rd","63069",38.53165032024639,-90.6730842590332
"63025","Eureka","MO","PlayPro Installations","310 Keys Ave","63038",38.545887269257406,-90.62290549278259
"63025","Eureka","MO","Drewel Park","2 Hill Walk","63025",38.499507904052734,-90.63440704345703
"63025","Eureka","MO","Kircher Park","25 Williams Rd.","63025",38.50271224975586,-90.61473083496094
"63025","Eureka","MO","Durham Park","not_available","63051",38.43981710745825,-90.5401177860499
"63025","Eureka","MO","Labarque Park, Pacific Mo 63069","not_available","63069",38.438635,-90.670833
"63025","Eureka","MO","Soetebier Park","102-150 Williams Rd.","63025",38.49931181011131,-90.61462246777752
"63025","Eureka","MO","Bowlby Park","807 Williams Dr","63025",38.48765563964844,-90.62017822265625
"63025","Eureka","MO","Bush Ranch","3847 Quarter Horse Ln","63051",38.43492889404297,-90.55574798583984
"63025","Eureka","MO","Loesch Lounge","1 Huntress Hill Rd","63049",38.47272491455078,-90.53910064697266
"63025","Eureka","MO","Eureka Mountain Bike Park","1 Coffey Park Ln","63025",38.492603,-90.62678
"63026","Fenton","MO","Laumeier Sculpture Park","12580 Rott Rd","63127",38.55034339307322,-90.41539682454564
"63026","Fenton","MO","Minnie Ha Ha Park","801 Old Gravois Rd","63127",38.51466971516111,-90.43145544826984
"63026","Fenton","MO","Fenton City Park","1199 Larkin Williams Dr","63026",38.526011828813,-90.43871062808327
"63026","Fenton","MO","Watson Trail Park","12450 W Watson Rd","63127",38.54559659751813,-90.40599969898447
"63026","Fenton","MO","Emmenegger Park","11911 Stoneywood Dr","63122",38.54689155232778,-90.43310190278054
"63026","Fenton","MO","Fenton Missouri","141 @ Hwy 30","63026",38.47185147480111,-90.45199423498484
"63026","Fenton","MO","George Winter County Park","401 Allen Rd","63026",38.50371658466967,-90.42260495332776
"63026","Fenton","MO","Bud Weil Memorial Park","Gregory Lane","63026",38.52135737032587,-90.45184587472323
"63026","Fenton","MO","Meramec Greenway at George Unger Park - Fenton","not_available","63026",38.50657646139994,-90.42627396419984
"63026","Fenton","MO","Siesta Manor","35 San Aymores Ct","63026",38.495588,-90.46531399999999
"63026","Fenton","MO","Unger County Park","500 Yarnell Rd","63026",38.55159139931222,-90.44158897792242
"63026","Fenton","MO","Playground At Fenton Park","Larkin Williams Rd.","63026",38.523775273015175,-90.4436386616053
"63026","Fenton","MO","Treecourt Unleashed Dog Adventure Park","2499 Marshall Rd","63122",38.55690002441406,-90.4606704711914
"63026","Fenton","MO","Sunset Hills Park","not_available","63127",38.51482790676954,-90.43448328824802
"63026","Fenton","MO","High P Grass Courts","Oak Lawn Pl.","63016",38.52631231167547,-90.43700695037842
"63026","Fenton","MO","Kirkwood Park","3658-3898 Tree Court Industrial Blvd","63122",38.55919995553057,-90.45280042282567
"63028","Festus","MO","West City Park","Old State Hwy A","63028",38.23527279029868,-90.42375579829326
"63028","Festus","MO","Billy Porter Memorial Park","N 5th St","63028",38.22378823579545,-90.41035283894554
"63031","Florissant","MO","Sunset Park","2300 Sunset Park Dr.","63031",38.82605988274554,-90.35424530057473
"63031","Florissant","MO","St. Ferdinand Park","st. ferdinand","63031",38.80399326764077,-90.32581058609159
"63031","Florissant","MO","Queen Anne Park","545 Queen Ann Dr","63042",38.78853251558546,-90.35048191432634
"63031","Florissant","MO","Pershall Park","not_available","63042",38.7753777738896,-90.37222225879076
"63031","Florissant","MO","St. Stanislaus (Conservation Reserve)","Aubuchon","63042",38.81164538904895,-90.39487054911147
"63031","Florissant","MO","Howdershell Park","6701 Howdershell Rd","63042",38.78730624520254,-90.37217573719451
"63031","Florissant","MO","Truman Park","1795 Janria Dr","63031",38.79415288036198,-90.37651134233785
"63031","Florissant","MO","Lorretto Manor Park","not_available","63031",38.80380550548389,-90.33195973920138
"63031","Florissant","MO","Bangert Park","195 S New Florissant Rd","63031",38.78507470091483,-90.32765762889683
"63031","Florissant","MO","Spanish Land Grant Park","700-798 St Charles St","63031",38.797052968195715,-90.33111928266943
"63031","Florissant","MO","Park 370 Business Park","Park 370 Blvd & St. Louis Mills Blvd","63042",38.7893848172105,-90.40472974034154
"63031","Florissant","MO","BlackFoot Park","600-650 Manresa Ln","63031",38.79120939430423,-90.34714617419262
"63031","Florissant","MO","St Stanislaus Conservation Area","Aubuchon Road","not_available",38.81373016272503,-90.39473533630371
"63031","Florissant","MO","OConnor Park","12798 Hemet Ave","63044",38.76702018460374,-90.42712106162567
"63031","Florissant","MO","Rock Pointe Park","Villa Rosa and Villa Maria Lanes","63042",38.7782675212281,-90.39994418621063
"63033","Florissant","MO","Glazebrook Park","not_available","62035",38.82000588,-90.24819079
"63033","Florissant","MO","Dunegant Park","not_available","63033",38.780573135195446,-90.28784869223729
"63033","Florissant","MO","Florissant Valley Park","1 Civic Center Dr","63033",38.792877197265625,-90.29908752441406
"63033","Florissant","MO","Veterans Memorial County Park and North County Recreation Complex","2577 Redman Rd","63136",38.78156661987305,-90.2503890991211
"63033","Florissant","MO","North County Recreational Complex","2577 Redman Road","63136",38.78500585605712,-90.24914358283647
"63034","Florissant","MO","Sioux Passage County Park","17930 Old Jamestown Rd","63034",38.85382528239481,-90.281697299464
"63034","Florissant","MO","Black Buffalo Shelter","not_available","63034",38.855841253437404,-90.27775004
"63034","Florissant","MO","West Alton Memorial Park","St Charles St.","not_available",38.86789339440498,-90.22646544030171
"63038","Wildwood","MO","Bluff View Park","1900 Old State Rd.","63038",38.55160140991211,-90.6210708618164
"63038","Wildwood","MO","Wildwood Community Park","2153 Highway 109","63038",38.58824920654297,-90.64839172363281
"63038","Wildwood","MO","Megan And Amanda's Soccer Practice","not_available","63040",38.58126372957896,-90.62879473340648
"63038","Wildwood","MO","Old Pond School","17123 Manchester Rd","63040",38.578291,-90.646677
"63043","Maryland Heights","MO","Creve Coeur County Park","2143 Creve Coeur","63146",38.712505040412246,-90.48803329467773
"63043","Maryland Heights","MO","Mckelvey Woods Nature Park","not_available","63043",38.728855,-90.44777
"63043","Maryland Heights","MO","Creve Coeur Park","13725 Marine Ave","63043",38.72471618652344,-90.48507690429688
"63043","Maryland Heights","MO","Playground #2 At Creve Coeur County Park","Unnamed Rd","63043",38.7205413300296,-90.46957399613615
"63043","Maryland Heights","MO","Sportport","12525 Sportport Rd","63043",38.73515955573294,-90.49928303203382
"63043","Maryland Heights","MO","Apple Tree Park","not_available","63044",38.73596993665157,-90.42350260951947
"63043","Maryland Heights","MO","The Tremayne Shelter at Creve Coeur Lake Memorial Park","13725 Marine Ave.","63043",38.72502912102309,-90.48582217140927
"63043","Maryland Heights","MO","Webster Park","2201 S River Rd","63303",38.748958587646484,-90.51573181152344
"63043","Maryland Heights","MO","The Patio Party","12545 Western Cape Dr","63146",38.697021484375,-90.46321868896484
"63043","Maryland Heights","MO","blanchette park","not_available","63045",38.76290512084961,-90.47291564941406
"63043","Maryland Heights","MO","Quiet Hollow Park","not_available","63146",38.70265,-90.458534
"63043","Maryland Heights","MO","Louis H. Bangert Memorial Wildlife Area","Old South River Rd","63303",38.762390998997205,-90.4932153224945
"63043","Maryland Heights","MO","Matthews Park","Fee Fee","63044",38.724791,-90.415281
"63043","Maryland Heights","MO","Vogt Brothers Park","500 Fairgrounds Rd.","63303",38.75407733586653,-90.50969458638609
"63043","Maryland Heights","MO","SLSG Creve Coeur","2350 Creve Coeur Mill Road","63043",38.73754119873047,-90.4593276977539
"63044","Bridgeton","MO","St. Ann Park","4309 Ashby Rd","63074",38.74019616944238,-90.37970018043448
"63044","Bridgeton","MO","Blanchette Landing","not_available","63301",38.793619551914894,-90.47475808430237
"63044","Bridgeton","MO","Pro Pool","3990 Fee Fee Rd.","not_available",38.741136,-90.402902
"63044","Bridgeton","MO","Motorcycle Training Facility","2301 North Main Street","63301",38.801788330078125,-90.47091674804688
"63044","Bridgeton","MO","Walking Down Main St","main st","63044",38.78452,-90.467886
"63045","Earth City","MO","Frontier Park","500 S. Riverside Dr.","63301",38.778354886293336,-90.48217990151807
"63045","Earth City","MO","Saint Charles Riverfront","Katy Trail State Park","63301",38.77982883660881,-90.48169582756498
"63045","Earth City","MO","Berthold Square","221 S Main St.","63301",38.77975511652006,-90.48211074773404
"63048","Herculaneum","MO","Dunklin & Fletcher Memorial  Park","not_available","63048",38.26616314760829,-90.37540785556122
"63049","High Ridge","MO","Williams Patio/Deck","not_available","63049",38.459253617542636,-90.5256412952031
"63049","High Ridge","MO","Country Club Manor","4003 Birch Dr","63052",38.42998559999999,-90.4859444
"63051","House Springs","MO","Sycamore Springs","5077 Sycamore Springs Dr","63051",38.3953538,-90.5372484
"63051","House Springs","MO","Brookshire Village","4896 Bettina Dr","63051",38.399147033691406,-90.51026916503906
"63051","House Springs","MO","Donau park","5020 W Four Ridge Rd","63051",38.39421081542969,-90.4986572265625
"63055","Labadie","MO","Klondike Park","not_available","63332",38.58164285925087,-90.83259280019233
"63069","Pacific","MO","Pacific City Park","birk circle","63069",38.47831165628816,-90.75040092125103
"63069","Pacific","MO","Daniel Boone's Spanish Land Grant","Hwy. 94","63341",38.601712699284455,-90.77831268310547
"63069","Pacific","MO","Blackburn Park","West 2nd street","63069",38.48235782204018,-90.7418155000223
"63070","Pevely","MO","Pevely Park","Main St","63070",38.2846749077775,-90.39591937975415
"63074","Saint Ann","MO","McDonnell County Park","2961 Adie Rd","63074",38.71434677872275,-90.40207386016846
"63074","Saint Ann","MO","Tiemeyer Park","not_available","63074",38.7201588758471,-90.39328815577983
"63077","Saint Clair","MO","Orchard Park","Orchard Drive","63077",38.36402124726909,-90.97328545799961
"63077","Saint Clair","MO","Johnston Trampoline","1302-1398 Parkway Dr","63077",38.33742512,-90.97020913
"63080","Sullivan","MO","Meramec State Park","Meramec State Park campgrounds","63080",38.226777968677695,-91.08260320506733
"63080","Sullivan","MO","Jim Bottomly Park","not_available","63080",38.21106403785511,-91.16904083080436
"63080","Sullivan","MO","Heartland Farms","8289 N Service Rd","65441",38.14249038696289,-91.27596282958984
"63084","Union","MO","Clark Vitt Memorial Park","not_available","63084",38.448039293289185,-91.02033376693726
"63090","Washington","MO","Lion's Lake","Lakeshore Drive","63090",38.56264116608673,-91.03220743547135
"63090","Washington","MO","Washington City Park","not_available","63090",38.56425243883797,-91.02374013035659
"63090","Washington","MO","Washington Town and Country Fair","1261 Veterans Dr","63090",38.56525888347224,-91.02966986543763
"63090","Washington","MO","MacArthur Park","5th St","not_available",38.54754716,-90.99423964
"63090","Washington","MO","Norbert F Watermann Memorial Tree","Lion's Lake","not_available",38.56346871754053,-91.0323715209961
"63090","Washington","MO","Washington Pool pavilion","205 High Street","63090",38.565006256103516,-91.02294921875
"63090","Washington","MO","Washington Motorsports Arena","Washington Fairgrounds","63090",38.559537552264004,-91.02299722124081
"63101","Saint Louis","MO","Citygarden","801 Market St","63101",38.6266461409823,-90.19370260352767
"63101","Saint Louis","MO","Kiener Plaza","Gateway Mall","63102",38.62613708802865,-90.19106179132388
"63101","Saint Louis","MO","Father Filipiac Park","Carr St","63101",38.636190293173364,-90.19176721572876
"63101","Saint Louis","MO","Luther Ely Smith Square","300-398 Chestnut Ave","63119",38.625880683683725,-90.18859258234079
"63101","Saint Louis","MO","The Big Pink Suit","not_available","63101",38.62717873271337,-90.19461332581108
"63101","Saint Louis","MO","Columbus Square Park","N 11th St","63101",38.63673502850912,-90.19288301467894
"63102","Saint Louis","MO","Lorretta Hall Park","not_available","63106",38.63676349501443,-90.19921760615033
"63102","Saint Louis","MO","Katherine Ward Burg Garden","not_available","63102",38.629601,-90.183093
"63102","Saint Louis","MO","Gateway Mall","Chestnut to Market St","63101",38.62891620720735,-90.20375376879844
"63102","Saint Louis","MO","Blues On The Landing","100-198 Washington Ave","63102",38.629034757614136,-90.18430531024933
"63102","Saint Louis","MO","Parque Antonio Reymondi","San Luis","not_available",38.6270025,-90.19940419999999
"63102","Saint Louis","MO","Recycling Dumpster","2123 N Market St","63106",38.64830017089844,-90.20601654052734
"63102","Saint Louis","MO","Mestres Park","Tucker Blvd","63104",38.616602212746756,-90.20217418670654
"63102","Saint Louis","MO","Poelker Park","Market St","63103",38.62796847717401,-90.19897699356079
"63102","Saint Louis","MO","Neighborhood Rm (Gateway Mall)","1601 Market St.","63103",38.628991017353584,-90.20365476608276
"63102","Saint Louis","MO","Triangle Park","Clark Ave","63103",38.625120585598786,-90.20260022405809
"63102","Saint Louis","MO","Lucas Dog Park","1300 St. Charles Street","63103",38.63152882853213,-90.1990094036409
"63102","Saint Louis","MO","Lucas Park Playground","13th & Locust","63103",38.631278,-90.198763
"63102","Saint Louis","MO","park pacific","not_available","63103",38.6300084757402,-90.19930457098037
"63102","Saint Louis","MO","Homeless Park","1300 St Charles St, St Louis, MO 63103","63103",38.63145632194943,-90.20019711603507
"63102","Saint Louis","MO","Washington Square Park","Market St","63103â€Ž",38.628720366179046,-90.20176712974774
"63102","Saint Louis","MO","Thomas F. Eagleton U.S. Courthouse Park","S 10th St","63102",38.624826021638256,-90.19557898939286
"63102","Saint Louis","MO","Soldier's Memorial Park","1315 Chestnut St","63103",38.62830628556735,-90.19998198791211
"63102","Saint Louis","MO","Eternal Flame Park","14th St Between Chestnut And Pine","63103",38.62927856281527,-90.2006685712014
"63102","Saint Louis","MO","Ray Leisure Park","1129 Park Avenue","63104",38.61405377647498,-90.20410537719727
"63102","Saint Louis","MO","Lucas Park Fountain","14th St.","not_available",38.63150892608628,-90.1991443727605
"63102","Saint Louis","MO","Murphy Park","1920 Cass Ave","63106",38.64303970336914,-90.20378112792969
"63102","Saint Louis","MO","St. Louis Place Park","Rauschenbach Ave.","62059",38.65104862379155,-90.20463726078555
"63103","Saint Louis","MO","Lafayette Square Fountain","Park Avenue","63104",38.61678663522928,-90.21154109304565
"63103","Saint Louis","MO","Terry Park","1624 S Compton Ave","63104",38.61724090576172,-90.23190307617188
"63103","Saint Louis","MO","Fountain @ Grand & Washington","3598-3532 Washington Blvd","63103",38.63472350860448,-90.23145371285658
"63103","Saint Louis","MO","Chambers Park","N Compton Ave","63106",38.640191899746334,-90.22387765401173
"63103","Saint Louis","MO","Historical Downtown Granite City Civic Park","Niedringhaus Ave","62040",38.62969816000177,-90.2126994823088
"63103","Saint Louis","MO","Laclede Park","Olive Ave","not_available",38.63441403105975,-90.22602573348526
"63103","Saint Louis","MO","Aloe Plaza","1901 Market St","63103",38.62997319487417,-90.20766783695342
"63103","Saint Louis","MO","Dolphin Pond","SLU","not_available",38.63495724976237,-90.23287208919142
"63103","Saint Louis","MO","Firefighters Memorial Park","201 Market St","not_available",38.62875838018821,-90.19950138684226
"63104","Saint Louis","MO","Benton Park","2200 Arensal St.","63118",38.597741545629404,-90.22225178796653
"63104","Saint Louis","MO","Lafayette Park","Mississippi Ave","63104",38.61411673923698,-90.21794242723197
"63104","Saint Louis","MO","Tiffany Community Park","3811 Blaine Ave","63110",38.61952590942383,-90.24248504638672
"63104","Saint Louis","MO","Compton Hill Reservoir Park","South Grand Boulevard and Russell Boulevard","63104",38.61449,-90.237515
"63104","Saint Louis","MO","Eads Square Park","Eads Ave","63104",38.615817378201086,-90.22315860063583
"63104","Saint Louis","MO","Fox Park","Shenandoah Ave","63104",38.60721472366408,-90.22792942072884
"63104","Saint Louis","MO","Pontiac Square Park","S 9th St.","63104",38.60554408440468,-90.20682547782887
"63104","Saint Louis","MO","Fremont Park","2801 Salena Ave","63118",38.603487817403334,-90.21892121161726
"63104","Saint Louis","MO","Stupp Center at Tower Grove Park","Tower Grove Park","not_available",38.60837478613429,-90.24082157292662
"63104","Saint Louis","MO","Park Keeper's House Basement Depression","3526? Louisiana Avenue","63118",38.59225,-90.239242
"63104","Saint Louis","MO","Arsenal Park","3001-3099 S Grand Blvd","63116",38.60278091414895,-90.24230736352675
"63104","Saint Louis","MO","Cherokee Park","Lemp Ave.","63118",38.59519828521321,-90.21814391697123
"63104","Saint Louis","MO","Lyon Park","3259 S Broadway","not_available",38.59373834124484,-90.21037358153777
"63104","Saint Louis","MO","Carnegie Park","Indiana and Utah","63118",38.593302655733844,-90.22341507674611
"63104","Saint Louis","MO","Aboussie Park","13th St","63118",38.601667447956146,-90.21407769006005
"63104","Saint Louis","MO","Soulard Market Park","not_available","63104",38.61064437498028,-90.20233473052203
"63105","Saint Louis","MO","Shaw Park","2 Topton Way","63105",38.648034726732185,-90.34438038998265
"63105","Saint Louis","MO","Oak Knoll Park","6715 Clayton Rd.","63105",38.63614517121222,-90.31919409238911
"63105","Saint Louis","MO","Pershing Park (Parkview)","Pershing Ave","not_available",38.65081631173367,-90.30566613433905
"63105","Saint Louis","MO","Wydown Running, Bike Path","not_available","63105",38.64027559452441,-90.31335674699422
"63105","Saint Louis","MO","Henry Wright Park","6424 Alamo Ave","63105",38.634733,-90.310546
"63105","Saint Louis","MO","Memorial Park","41 S Central Ave Fl 7","63105",38.649658203125,-90.33905792236328
"63105","Saint Louis","MO","Wydown Terrace Park","Wydown Terrace","not_available",38.64244194088812,-90.30894326234797
"63105","Saint Louis","MO","Momentum Picnic Table","not_available","63117",38.636383006554105,-90.34233387112748
"63105","Saint Louis","MO","Ameren Pure Power Green Event in Shaw Park","111 South Brentwood Boulevard","63105",38.64854431152344,-90.34203338623047
"63105","Saint Louis","MO","Northmoor Park","7000 Northmoor Drive","63105",38.64636993408203,-90.3167724609375
"63105","Saint Louis","MO","Luther Park","801 DE Mun Ave","63105",38.637447357177734,-90.30845642089844
"63105","Saint Louis","MO","Shark Fitness Boot Camp","111 South Brentwood Blvd","63105",38.64854431152344,-90.34203338623047
"63105","Saint Louis","MO","Concordia Park","Demun Ave","not_available",38.63865545503687,-90.30809871008807
"63105","Saint Louis","MO","Clayton Plaza Fountains","102-190 Carondelet Plaza","63105",38.649133468086916,-90.33275887853173
"63105","Saint Louis","MO","Lewis Park","Cornell Ave","63130",38.65720219851496,-90.31610432967351
"63105","Saint Louis","MO","Washington Park (Parkview)","Westgate Ave","not_available",38.65461680950172,-90.30431270599365
"63106","Saint Louis","MO","Al Colbert Playground at Rumbold Park","Prairie Ave","63113",38.65277353323652,-90.2263355255127
"63106","Saint Louis","MO","Strodtman Park","3100 N 14 St","63107",38.655220053250744,-90.19659519195557
"63107","Saint Louis","MO","Fairgrounds Park","12 Grand Blvd","63115",38.666486845196026,-90.22685018784782
"63107","Saint Louis","MO","Hyde Park","not_available","63107",38.661459661530905,-90.20246289958841
"63107","Saint Louis","MO","Windsor Park","Blair Ave","63107",38.6656922252835,-90.20398736000061
"63108","Saint Louis","MO","Fountain Park","Fountain Ave","63113",38.6556491666622,-90.26020485924043
"63108","Saint Louis","MO","Taylor Park","Taylor","63108",38.643255659099154,-90.25748392013928
"63108","Saint Louis","MO","Cortex Commons","not_available","63110",38.634857,-90.25245
"63108","Saint Louis","MO","Juneteenth Celebration","4800 Fountain Ave","63113",38.65538024902344,-90.25971221923828
"63108","Saint Louis","MO","Forest Park Driving Range (AAA)","5267-5413 Clayton Ave","63110",38.63379526821916,-90.27239177832547
"63108","Saint Louis","MO","The Great Forest Park Balloon Race","Wells Dr","63110",38.63881657920566,-90.27571197567154
"63108","Saint Louis","MO","Murphy Lake - Forest Park","not_available","63108",38.644189,-90.271021
"63108","Saint Louis","MO","Recycle Dumpster","McPherson","63108",38.641486621185976,-90.24534970521927
"63108","Saint Louis","MO","The Trestle","Chambers","63102",38.64301281179975,-90.25918257843594
"63109","Saint Louis","MO","Francis Park","Donovan","63109",38.58539246303409,-90.30111808279912
"63109","Saint Louis","MO","Lindenwood Park","3859 Prather Avenue","63109",38.5969934725948,-90.30729089456226
"63109","Saint Louis","MO","Willmore Park","Hampton Ave.","63109",38.56864982322647,-90.29245025584497
"63109","Saint Louis","MO","Christy Park","not_available","63109",38.58157297165141,-90.27661036810059
"63109","Saint Louis","MO","Southwest City Dog Park","7399 Hampton Avenue","63116",38.57358829158436,-90.3052484808987
"63109","Saint Louis","MO","River Des Peres","not_available","63119",38.58104037579377,-90.3128839950905
"63109","Saint Louis","MO","St. Marcus Commemorative Park","Gravois Ave","63116",38.5709890847772,-90.28222478581742
"63109","Saint Louis","MO","Boot Camp at Francis Park","Nottingham Avenue","63109",38.58669877052307,-90.29382526874542
"63109","Saint Louis","MO","Park","not_available","63139",38.599453,-90.271737
"63110","Saint Louis","MO","Forest Park","btwn Lindell Blvd & Oakland Ave","63112",38.6428051174203,-90.28255962868076
"63110","Saint Louis","MO","Tower Grove Park","4256 Magnolia Ave","63110",38.606458228774095,-90.25835037231444
"63110","Saint Louis","MO","Missouri Botanical Garden","4344 Shaw Blvd","63110",38.61565555384747,-90.25807781185578
"63110","Saint Louis","MO","Forest Park Running, Biking,  and Walking Path","not_available","63112",38.64395509893983,-90.28345867304823
"63110","Saint Louis","MO","Art Hill","Fine Arts Dr","63110",38.63983575079896,-90.29332637786865
"63110","Saint Louis","MO","Clifton Heights Park","Simpson Ave.","63139",38.613962826466405,-90.29142712951548
"63110","Saint Louis","MO","John F. Kennedy Memorial Forest","11-49 Government Dr","63110",38.63664814502817,-90.29965419092275
"63110","Saint Louis","MO","Ruins & Fountain Pond","Tower Grove Park","63116",38.610390420134394,-90.25700612410189
"63110","Saint Louis","MO","Dennis & Judith Jones Visitor and Education Center","5595 Grand Dr","63112",38.64379858990902,-90.2835071341273
"63110","Saint Louis","MO","Franz Park","Mitchell Ave","63139",38.626456053240396,-90.30401913067776
"63110","Saint Louis","MO","Berra Park","Macklind & Daggett Aves","63110",38.617688074521844,-90.27795464458957
"63110","Saint Louis","MO","Tower Grove Park Cypress South Pavilion","Tower Grove Park","63110",38.60520520548295,-90.24911706684284
"63110","Saint Louis","MO","Light Thr Night Leukemia And Lymphoma Walk","Forest Park","63112",38.63875172769568,-90.27900493673786
"63110","Saint Louis","MO","Sublette Park","5600 Southwest Ave","63139",38.60755876216296,-90.28247706442016
"63111","Saint Louis","MO","Carondelet Park Rec Complex","930 Holly Hills Ave","63111",38.56043589520724,-90.2659310444877
"63111","Saint Louis","MO","Lemay County Park","236 Fannie Ave","63125",38.54147512579549,-90.27257520726535
"63111","Saint Louis","MO","Fanetti Plaza","Ivory Ave","63111",38.548895423908554,-90.26157975196838
"63111","Saint Louis","MO","Mount Pleasant Park","4498 Michigan Ave","63111",38.57430351371717,-90.24093713133651
"63111","Saint Louis","MO","Carondelet Park Recycle Center","not_available","63116",38.559956660723635,-90.25792085505377
"63111","Saint Louis","MO","Alaska Park","Alaska Ave, St Louis, MO 63111","63111",38.55264185231366,-90.26547664373528
"63111","Saint Louis","MO","Sr. Marie Charles Park","not_available","63111",38.55971574783325,-90.24190843105316
"63111","Saint Louis","MO","St. Louis Square Park","7700 Pennsylvania Ave","63111",38.54668045043945,-90.25970458984375
"63111","Saint Louis","MO","Bellerive Park","Bellerive Blvd","63111",38.56173411844094,-90.24243537824022
"63111","Saint Louis","MO","Sister Marie Charles Park","154 Elwood St","63111",38.558570861816406,-90.2429428100586
"63111","Saint Louis","MO","Minnie Wood Memorial Park","S Broadway","63118",38.57949623643761,-90.2304963179721
"63112","Saint Louis","MO","Parkland Park","1000 Hamilton Ave","63112",38.66204833984375,-90.2889404296875
"63112","Saint Louis","MO","Kingsbury Square Park","5708 Kingsbury Pl","63112",38.651187896728516,-90.28539276123047
"63112","Saint Louis","MO","Great Rivers Greenway","6174A Delmar Blvd","63112",38.65536011444886,-90.29874452533683
"63113","Saint Louis","MO","Wohl Recreation Center / Sherman Park","1515 N Kingshighway Blvd","63113",38.664322895333235,-90.26165810279048
"63113","Saint Louis","MO","W.C. Handy Park","4821 Ashland Ave","63115",38.6723747253418,-90.24893188476562
"63114","Saint Louis","MO","Wild Acres","not_available","63114",38.70428019141456,-90.39044261464974
"63114","Saint Louis","MO","Rabe Park","Midland","63130",38.6777020176127,-90.32710095563944
"63114","Saint Louis","MO","Robert B Brooks Park","overland","63114",38.69421173197493,-90.3716056613974
"63114","Saint Louis","MO","Vinita Park","2201 Yeoman Ave","63114",38.69439564925281,-90.33892290321396
"63114","Saint Louis","MO","Mort Jacobs Park","2855 Krem Ave","63114",38.70858733836964,-90.38524837288669
"63114","Saint Louis","MO","gutknecht arrowhead","not_available","63121",38.70872497558594,-90.32757568359375
"63114","Saint Louis","MO","Ramona Lake Park","5101 Haversham Pl","63134",38.72343268962422,-90.32285804994297
"63114","Saint Louis","MO","Norman Meyer Park","1800 Midland","63114",38.69826435796357,-90.34737130474949
"63114","Saint Louis","MO","King County Park","1491 Dielman Rd","63132",38.685677255938565,-90.37630319595337
"63114","Saint Louis","MO","Woodson dog park","1655 Woodson Rd","63114",38.683114,-90.364923
"63114","Saint Louis","MO","Warson Park","not_available","63132",38.68060522954572,-90.39096988045887
"63114","Saint Louis","MO","Endicott County Park","2950 Endicott Ave","63114",38.711366487541035,-90.33551216125488
"63114","Saint Louis","MO","Fogerty Park","not_available","63130",38.68228332001519,-90.34777102953517
"63114","Saint Louis","MO","Vinita County Park","Vinita County Park","63114",38.693733347004304,-90.34000754356384
"63114","Saint Louis","MO","Overland Community center","9225 Lackland Rd","63114",38.700460488964296,-90.35987497093488
"63115","Saint Louis","MO","Eugene ""Tink"" Bradley Park","not_available","63115",38.674466312472944,-90.24196370215128
"63115","Saint Louis","MO","Dwight Davis Park","not_available","63120",38.69838804461932,-90.2556208499805
"63115","Saint Louis","MO","Vivian Astra Park","Vivian Ave","63147",38.708712584352604,-90.24941325187683
"63115","Saint Louis","MO","twilight Tuesday","Forest Park","63115",38.6817741394043,-90.23995971679688
"63115","Saint Louis","MO","Busche Park","7500 N Broadway","63147",38.700531005859375,-90.22815704345703
"63116","Saint Louis","MO","Tilles Park","Hampton Ave","63119",38.60031056320197,-90.28992689857506
"63116","Saint Louis","MO","Fultz Field","River des Peres Pkwy","63128",38.5603907146557,-90.29122526022229
"63116","Saint Louis","MO","The Greens","not_available","63123",38.560479,-90.289846
"63116","Saint Louis","MO","Amberg Park","Gustine Ave","63116",38.58721239973068,-90.25199986413811
"63116","Saint Louis","MO","SCOSaG","4255 Arsenal St","63116",38.60464096069336,-90.2597427368164
"63117","Saint Louis","MO","Lindbergh Park","not_available","63143",38.61989974975586,-90.32775115966797
"63117","Saint Louis","MO","Hubert Park","Lyndover Pl","63139",38.61882966666667,-90.30216458333334
"63117","Saint Louis","MO","Memorial Park","1599 Strassner Dr","63144",38.62134734206015,-90.34149076740117
"63117","Saint Louis","MO","Hanley Park Volleyball Courts","not_available","63144",38.6214383991731,-90.34179855490075
"63118","Saint Louis","MO","Marquette Park","3201-3299 Gasconade St","63118",38.5829466990229,-90.23978266873252
"63118","Saint Louis","MO","Laclede Park","E Iowa Ave","63118",38.581066833324215,-90.23148536682129
"63118","Saint Louis","MO","Gravois Park","3200 Potomac St","63118",38.59212606113868,-90.23718742289186
"63119","Saint Louis","MO","Rocket Park","3523 S Big Bend Blvd","63143",38.60400961194113,-90.33281858499835
"63119","Saint Louis","MO","Paul C. Wehner Memorial Park","5200 Shrewsbury Ave","63119",38.58561857430901,-90.32972774675262
"63119","Saint Louis","MO","Oak Tree Park","Florence","63144",38.61355423437888,-90.33727033818663
"63119","Saint Louis","MO","Deer Creek Park","3200 N Laclede Station Rd","63143",38.605261,-90.335579
"63119","Saint Louis","MO","Ivory Crockett Park","Bell Ave","63119",38.605623888332126,-90.3573196898436
"63119","Saint Louis","MO","Brinkop Park","4900 Laurella Ave","63119",38.58950424194336,-90.32921600341797
"63119","Saint Louis","MO","Lockwood Park","Newport","63119",38.59841137997197,-90.33239509950057
"63119","Saint Louis","MO","The Cushing realm","140 Trevillian Ave, Glendale, MO 63122","63122",38.5844612121582,-90.38081359863281
"63119","Saint Louis","MO","Central Park","3101 Walter Avenue","63143",38.607930443893984,-90.32289150346946
"63119","Saint Louis","MO","Greenwood Park","Kensington","63143",38.602079696636316,-90.3214164781281
"63119","Saint Louis","MO","McKree Park","643 Foote Ave","63119",38.598267,-90.372274
"63119","Saint Louis","MO","Ferndale Park","974 Liggett Ave.","63126",38.5685920715332,-90.3798599243164
"63119","Saint Louis","MO","Lorraine Davis Park","700 Lorraine Davis Ln","63119",38.60334777832031,-90.35264587402344
"63119","Saint Louis","MO","Oak Haven Park","Gilbert Ave","63119",38.61103872755702,-90.3770722933282
"63119","Saint Louis","MO","Royal Oaks Park","Warson Woods Drive","63122",38.604329305425594,-90.38555190463283
"63120","Saint Louis","MO","Barrett Brothers Park","Goodfellow Blvd","63120",38.68032076047585,-90.274249036203
"63121","Saint Louis","MO","St. Vincent's County Park & Community Center","7335 Saint Charles Rock Rd","63133",38.6976119205373,-90.30855770361838
"63122","Saint Louis","MO","Des Peres Park","off Manchester","63131",38.60506646289451,-90.44116973876953
"63122","Saint Louis","MO","Kirkwood Park","111 S Geyer Rd","63122",38.58208720774471,-90.41900072420667
"63122","Saint Louis","MO","Sugar Creek Park","400 Des Peres Road","not_available",38.58107224340515,-90.45439902677184
"63122","Saint Louis","MO","Des Peres City Hall","12325 Manchester Rd","63131",38.60335606303694,-90.44271469116211
"63122","Saint Louis","MO","Fillmore Park","340 S Fillmore Avenue","63122",38.57582092285156,-90.4014663696289
"63122","Saint Louis","MO","Spellman Park","not_available","63126",38.563537691454,-90.39443814461558
"63122","Saint Louis","MO","Kirkwood/Webster Turkey Trot","100 W Argonne Dr","63122",38.580955505371094,-90.4075698852539
"63122","Saint Louis","MO","Scout Shelter at Kirkwood Park","Rifle Range Rd","63122",38.580863433333334,-90.42161503333334
"63122","Saint Louis","MO","Monfort Park","2036 Briargate Ln","63122",38.56766891479492,-90.44376373291016
"63122","Saint Louis","MO","Ken Conner Park","S. Kirkwood Rd.","63122",38.581260008808904,-90.40633560069057
"63122","Saint Louis","MO","Avery Park","not_available","63122",38.601363801361614,-90.4116229788794
"63122","Saint Louis","MO","Harwood Park","Harwood Rd.","63122",38.60315673879102,-90.42982821229704
"63122","Saint Louis","MO","McEntee Park","131 W Madison Ave","63122",38.580135536393016,-90.40841188287162
"63123","Saint Louis","MO","Jefferson Barracks County Park","251 Cy Rd","63125",38.51241148814346,-90.27965784072876
"63123","Saint Louis","MO","9 Mile Garden","9375 Gravois Road","63123",38.55416003537422,-90.32006643212118
"63123","Saint Louis","MO","Clydesdale County Park","9517 Green Park Rd","63123",38.52893100687152,-90.33970177173615
"63123","Saint Louis","MO","Bohrer County Park","5705 South Lindbergh Blvd","63123",38.51937147601278,-90.35237964517047
"63123","Saint Louis","MO","Whitecliff Park","9245 Whitecliff Park Ln","63126",38.55428032952865,-90.36749584362047
"63123","Saint Louis","MO","Sylvan Springs County Park","300 Halsey St","63125",38.504788399543436,-90.29126644134521
"63123","Saint Louis","MO","Mathilda-Welmering Park","8301 Matilda Ave","63123",38.56082520354855,-90.31258152272606
"63123","Saint Louis","MO","Ohlendorf County Park","4444 Spring Dr","63125",38.54352656061701,-90.30346244016317
"63123","Saint Louis","MO","Gold Star Pavillion","not_available","63125",38.521101,-90.276018
"63123","Saint Louis","MO","Black Forest County Park","9822 Perrin Ave","63125",38.52588653564453,-90.2718276977539
"63124","Saint Louis","MO","Tilles County Park","9551 Litzsinger Rd","63124",38.62019163662214,-90.36424139373916
"63124","Saint Louis","MO","Gloria Rogers Shelter","not_available","63124",38.62114985631912,-90.36619035392665
"63124","Saint Louis","MO","Girlscouts - Camp Tidaca","Meet @ Gloria Rogers Pavillion","63144",38.62088374005562,-90.36643398075176
"63124","Saint Louis","MO","Norm West Park","Pendleton Ave.","63144",38.61021090218339,-90.34822589373037
"63125","Saint Louis","MO","Budweiser Fountain","not_available","63118",38.53330499968212,-90.31127505568706
"63126","Saint Louis","MO","Crestwood Park","Meadowfern Dr.","63126",38.5424753143763,-90.38303341295467
"63128","Saint Louis","MO","Suson County Park","6073 Wells Rd","63128",38.47149929750715,-90.3911304473877
"63128","Saint Louis","MO","The Park","5050-5098 Bacardi Ln","63129",38.487905592154554,-90.34569893718991
"63128","Saint Louis","MO","Hot Spit","not_available","63129",38.493706,-90.342357
"63129","Saint Louis","MO","Cliff Cave County Park","806 Cliff Cave Road","63129",38.459570600877875,-90.29362678527832
"63129","Saint Louis","MO","Bee Tree County Park","2701 Finestown Rd","63129",38.409753747824745,-90.32633866813212
"63130","Saint Louis","MO","Heman Park","7210 Olive Blvd","63130",38.66793090879604,-90.32681141247026
"63130","Saint Louis","MO","Joseph W Mooney Park","Jackson Ave","63130",38.66792177785232,-90.32680230795746
"63130","Saint Louis","MO","Plymouth Industrial Park","Page at Ogden","63133",38.67185592651367,-90.29566192626953
"63130","Saint Louis","MO","Janet Majerus Park","1300 Partridge Ave.","63130",38.672828674316406,-90.31732177734375
"63130","Saint Louis","MO","Non Park","6701 Olive Blvd","63130",38.66328811645508,-90.30747985839844
"63131","Saint Louis","MO","Drace Park","2310 Cedar Valley Rd","63131",38.6251335144043,-90.44939422607422
"63131","Saint Louis","MO","Conway Park","not_available","63141",38.65176236619457,-90.45375404910013
"63131","Saint Louis","MO","The Park of Crystal Lake Park","Putter Ln.","63131",38.62166089086579,-90.43008604585809
"63131","Saint Louis","MO","Pioneer Park","960 Tallie Dr.","63131",38.59805691842737,-90.43110609054565
"63131","Saint Louis","MO","Walker Park","135 E. Washington Ave.","63122",38.58458709716797,-90.4043197631836
"63131","Saint Louis","MO","Frank Lloyd Wright House in Ebsworth Park","120 N Ballas Rd","63122",38.58262,-90.442246
"63132","Saint Louis","MO","Irv Zeid park","Old Bonhomme rd","not_available",38.66662804161774,-90.3667723785011
"63132","Saint Louis","MO","BRDG Park @ Danforth Plant Science Center","1005 N Warson Rd","63132",38.67597953644037,-90.39656027595287
"63132","Saint Louis","MO","Villa Park","9305-9309 Villa Ave W","63132",38.67011551324907,-90.36994145518734
"63132","Saint Louis","MO","Stacy Park","9750 Old Bonhomme","63132",38.66939481884824,-90.39224624633789
"63133","Saint Louis","MO","Amherst Park","Plymouth Ave","63112",38.66731736911232,-90.2904725074768
"63134","Saint Louis","MO","Kinloch Park","5541 Mable Ave","63140",38.73439025878906,-90.32028198242188
"63134","Saint Louis","MO","John L Brown Park","not_available","63134",38.73059072858072,-90.35998527458378
"63134","Saint Louis","MO","Oakland Park","4505 Woodson Rd","63134",38.7332763671875,-90.35749053955078
"63134","Saint Louis","MO","Fitness with Fido","4440 Holman Ln","63134",38.73295974731445,-90.36308288574219
"63134","Saint Louis","MO","Dade Park","not_available","63135",38.73568764,-90.31439092
"63136","Saint Louis","MO","Koeneman Park","not_available","63136",38.73756108777768,-90.25758732387492
"63136","Saint Louis","MO","Bon Oak County Park","1750 Crown Point Dr","63136",38.75537872314453,-90.27135467529297
"63136","Saint Louis","MO","Castlepoint County Park","2465 Baroness Dr","63136",38.7626838684082,-90.2437744140625
"63137","Saint Louis","MO","Bella Fontaine County Park","9565 Bellefontaine Rd","63137",38.7402090637013,-90.22835715241693
"63137","Saint Louis","MO","Hickey Park","North Broadway","63147",38.72172661775335,-90.22875566041633
"63137","Saint Louis","MO","Russell Park","not_available","63137",38.73493,-90.229984
"63138","Saint Louis","MO","Columbia Bottom Conservation Area","801 Strodtman Rd","63138",38.810732945504874,-90.18413819207089
"63138","Saint Louis","MO","Larimore County Park","11726 Larimore Rd","63138",38.78291702270508,-90.19712829589844
"63138","Saint Louis","MO","Spanish Lake County Park","12636 Spanish Pond Rd","63138",38.79816881507179,-90.20590531294648
"63138","Saint Louis","MO","Fort Bellefontaine County Park","13002 Bellefontaine Rd","63138",38.82624474504842,-90.21254844142189
"63138","Saint Louis","MO","Ft. Bellefountaine County Park Front Gate.","13300 Bellefontaine Rd","63138",38.827640533447266,-90.21588134765625
"63138","Saint Louis","MO","Plumbers & Pipefitters Local 562 Union Hall/Emerald Greens Complex","12385 Larimore Rd, St Louis, MO 63138","63138",38.80086135864258,-90.18829345703125
"63139","Saint Louis","MO","Francis Slay Park","McCausland Ave","not_available",38.60879861845413,-90.31154008326527
"63139","Saint Louis","MO","Carol Gates Throop Memorial Park","1210 Macklind Avenue","63110",38.62649917602539,-90.27456665039062
"63139","Saint Louis","MO","Clifton Heights Pond","Simpson Avenue","63139",38.61022603597073,-90.29130084448985
"63139","Saint Louis","MO","Tower Grove - Team St. Louis Kickball!","Kingshighway & Arsenal","not_available",38.606059049468776,-90.26836573044604
"63139","Saint Louis","MO","The Gazebo","Clayton","63139",38.605688,-90.29337
"63141","Saint Louis","MO","Fountain Park","11915 Olive Blvd","63141",38.6710387490889,-90.44707306169077
"63143","Saint Louis","MO","Ryan Hummert Memorial Park","2400 Sutton Blvd","63143",38.61634378160946,-90.31919868359995
"63143","Saint Louis","MO","Sutton Trolley Loop","2815 Sutton Blvd","63143",38.61006939173161,-90.32015218553532
"63146","Saint Louis","MO","Meadowside Park","1500 Meadowside Dr","63146",38.68650119547982,-90.41980163554052
"63301","Saint Charles","MO","370 Lakeside Park","1000 Lakeside Park Dr","63376",38.82125356554901,-90.57107213884592
"63301","Saint Charles","MO","Saint Peters Park","5200 Mexico Rd","63376",38.791864670148634,-90.5982742482372
"63301","Saint Charles","MO","Rabbit Run Park","not_available","63376",38.78104448446061,-90.63100513460886
"63301","Saint Charles","MO","Pegasus Farms Subdivision","off Willott & St. Peters-Howell Rd","63376",38.767261701925065,-90.61792999948347
"63301","Saint Charles","MO","Woodlands Sports Park","1 Woodlands Parkway","63376",38.775905,-90.645952
"63301","Saint Charles","MO","McNair Park","3050 Droste Rd.","63301",38.79745482161491,-90.52073577236725
"63301","Saint Charles","MO","Wapelhorst Park","1874 Muegge Road","63303",38.76751674395815,-90.54829069605515
"63301","Saint Charles","MO","Blanchette Park","1900 W Randolph St","63301",38.79916594076722,-90.48264741897583
"63301","Saint Charles","MO","Laurel Park","181 Driftwood Ln","63376",38.76513332346797,-90.57164121166528
"63301","Saint Charles","MO","City Centre Park","1 Saint Peters Centre Blvd","63376",38.79081104704763,-90.60177745353545
"63301","Saint Charles","MO","Fountain Lakes Park","3894-3994 Huster Rd","63301",38.82441286595379,-90.52835543694339
"63301","Saint Charles","MO","Jaycee Park","2805 Elm St.","63301",38.799341030338134,-90.50399702737677
"63303","Saint Charles","MO","Schaefer Park","1647 Wilshire Valley Dr.","63303",38.755582954622994,-90.55340769942401
"63303","Saint Charles","MO","Rec Plex Park","5875 Mexico Rd","63376",38.79080226039587,-90.60174620673068
"63303","Saint Charles","MO","Nob Hill Pool - St. Peters","50 Sutters Mill Rd","63376",38.77976989746094,-90.58023071289062
"63303","Saint Charles","MO","Gazebo","209 S Kingshighway St","63301",38.787932772631834,-90.4943390126341
"63303","Saint Charles","MO","Covenant Park","2059 Willott Rd","63376",38.77476807094446,-90.58674557973724
"63304","Saint Charles","MO","Pin Oak Park","not_available","63366",38.758755630392784,-90.76923954589232
"63304","Saint Charles","MO","Busch Wildlife Conservation Area","2360 Highway D","63304",38.705954072475016,-90.74081785316223
"63304","Saint Charles","MO","O'Fallon Sports Park","3573 Hwy K","63368",38.73814048774443,-90.69782647375963
"63304","Saint Charles","MO","Veterans Tribute Park","1031 Kisker Rd","63304",38.72734832763672,-90.61904907226562
"63304","Saint Charles","MO","O'Day Park","1000 O'Day Park Dr","63368",38.748074,-90.771454
"63304","Saint Charles","MO","Dardenne Greenway at BaratHaven","BaratHaven Blvd","not_available",38.735255836140325,-90.7229615660598
"63304","Saint Charles","MO","Weldon Spring Park","5401 Independence Rd","63304",38.71366800037464,-90.65112104818729
"63304","Saint Charles","MO","Katy Trail at Greens Bottom Road","4495 Greens Bottom Road","63304",38.70464861303162,-90.60917270418133
"63304","Saint Charles","MO","Knoll Patk","2 Knoll Creek Ct","63368",38.7384033203125,-90.72806549072266
"63304","Saint Charles","MO","Kiwanis Playground","not_available","63368",38.75289947416046,-90.73097263238357
"63304","Saint Charles","MO","Hollenbeck baseball fields","Central School Rd","not_available",38.744938,-90.617438
"63304","Saint Charles","MO","The Pond at Montecito","Venice Cir","63304",38.72973923705372,-90.63631231635115
"63304","Saint Charles","MO","Cottleville Park","not_available","63304",38.75089141988249,-90.6509593029326
"63304","Saint Charles","MO","St. Peters Community Park","4523-4597 County Rd N","63304",38.744363791106395,-90.6173239201218
"63304","Saint Charles","MO","Park","McClure Rd","63368",38.755514,-90.72063
"63334","Bowling Green","MO","Bowling Green City Park","198 W. Adams","not_available",39.33690095426203,-91.19189568854577
"63341","Defiance","MO","Broemmelsiek park","1615 Schwede Rd","63385",38.718976486248415,-90.8121582061914
"63341","Defiance","MO","The Park At New Melle Lakes","404 Foristell Rd, Wentzville, MO 63385","63385",38.725135803222656,-90.8932113647461
"63341","Defiance","MO","broemmelsiek park","not_available","63341",38.72012629367397,-90.81153998160347
"63343","Elsberry","MO","B.K. Leach Conservation Area","State Hwy M","63343",39.12251130876765,-90.72942137718199
"63348","Foristell","MO","Towne Park","not_available","63348",38.87565871281942,-90.89939406315763
"63348","Foristell","MO","Indian Camp Creek Park","1825 Dietrich Rd","63348",38.881445578860024,-90.92963218688965
"63348","Foristell","MO","Girl Scout Den","not_available","63385",38.822177,-90.883412
"63350","High Hill","MO","Old Bellflower School Park","not_available","63350",38.87736892700195,-91.35449981689453
"63352","Laddonia","MO","Corner Park to Mexico","not_available","63352",39.16326330435737,-91.64898093195299
"63353","Louisiana","MO","Veterans Park","not_available","63353",39.439735,-91.068855
"63353","Louisiana","MO","Louisiana City Park","Mansion Street","63353",39.454360535617795,-91.05809207349284
"63357","Marthasville","MO","Reifsnider State Forest","not_available","63383",38.77018,-91.092636
"63361","Montgomery City","MO","New Florence City Park","Mortimer St.","not_available",38.91217803955078,-91.4464340209961
"63361","Montgomery City","MO","Norwood Park","not_available","63361",38.97747699126442,-91.5012622880017
"63362","Moscow Mills","MO","Troy Fairgrounds Park","Monroe Street","63379",38.981683,-90.963229
"63362","Moscow Mills","MO","Sacred Heart Soccer Fields","not_available","63379",38.981670486717434,-90.96184895186532
"63366","O Fallon","MO","Civic Park","308 Civic Park Dr","63366",38.81269465639841,-90.70522032347834
"63366","O Fallon","MO","Fort Zumwalt Park","1001 Jessup Drive","63366",38.79710230891446,-90.70847497462921
"63366","O Fallon","MO","Boulevard Park","not_available","63367",38.7831827405851,-90.77923807003525
"63366","O Fallon","MO","Founders Park","7 Freymuth Rd","63367",38.80166771017954,-90.81064752360952
"63366","O Fallon","MO","Ft Zumwalt Park","Off Veterans Pkwy","63366",38.793865879091044,-90.71767472626553
"63367","Lake Saint Louis","MO","Quail Ridge Lodge","24 Columbine Lane","63385",38.801170076133715,-90.84246473006678
"63367","Lake Saint Louis","MO","Quail Ridge Park","5501 Quail Ridge Pkwy","63385",38.8018766219832,-90.83965314218487
"63379","Troy","MO","Troy Mo City Park","309 S Lincoln Dr","63379",38.97655076501078,-90.97044353201532
"63379","Troy","MO","Weinand Park","Boone Street","63379",38.97487829451507,-90.99705519345044
"63382","Vandalia","MO","Vandalia Country Club","hwy 54","63382",39.31458079871895,-91.47402181938152
"63383","Warrenton","MO","Binkley Woods And Spector Lake","418 S Morgan St","63383",38.803867,-91.15101
"63385","Wentzville","MO","Great Oaks Subdivision","off Wentzville Pkwy","63385",38.833824233697726,-90.8765459060669
"63386","West Alton","MO","Piasa Park","Great River Rd","62002",38.8978523874134,-90.19901144289186
"63386","West Alton","MO","Gordon Moore Park","4550 College Avenue","62002",38.90741506391651,-90.10961503376085
"63386","West Alton","MO","Russell Commons Park","Madison County Transit Confluence Trail","62002",38.886266903863394,-90.17267956646158
"63386","West Alton","MO","Riverfront Park","not_available","62002",38.88676808615824,-90.182236778434
"63386","West Alton","MO","Alton Hellrun Park","701 Central Ave","62002",38.893150329589844,-90.16903686523438
"63386","West Alton","MO","River Park","1 front st","not_available",38.88840666057223,-90.18298148757555
"63386","West Alton","MO","River by the View","riverview","62002",38.89456656170078,-90.19627007146279
"63386","West Alton","MO","Park","rozier","62002",38.918274922093204,-90.19246835734708
"63390","Wright City","MO","Diekroeger Park","not_available","63390",38.82834290514221,-91.0300483880874
"63401","Hannibal","MO","Mississippi Overlook","not_available","63401",39.729811129208116,-91.37515577658692
"63401","Hannibal","MO","Hannibal Rocks","not_available","63459",39.61910784244537,-91.4100855588913
"63401","Hannibal","MO","Palmyra Roadside Park","not_available","63461",39.761567,-91.518648
"63401","Hannibal","MO","Glascock's Landing","100 hill st","63401",39.71270004306908,-91.35606050491333
"63430","Alexandria","MO","Chatfield Park","Iowa Rd, Keokuk, IA 52632","52632",40.43832567223928,-91.45661705033696
"63430","Alexandria","MO","warsaw fairgrounds","not_available","62379",40.34809894015399,-91.42880117651205
"63441","Frankford","MO","Frankford City Park","319 Main St","63441",39.493437541747106,-91.32053821071324
"63445","Kahoka","MO","Clark County Fairgrounds","not_available","63445",40.418527,-91.697895
"63448","La Grange","MO","Washington Park","not_available","63448",40.04482361397729,-91.5025520324707
"63456","Monroe City","MO","South Park","not_available","63456",39.650298,-91.731644
"63461","Palmyra","MO","South Park","12th/Harrison","62301",39.910952901747855,-91.39842459644106
"63461","Palmyra","MO","Soulard Access","not_available","63471",39.888983,-91.488626
"63462","Perry","MO","Bill Trower Memorial Park","not_available","63462",39.430196,-91.668434
"63465","Revere","MO","Battle of Athens State Historic Site","not_available","52626",40.58492974296663,-91.69629959324513
"63471","Taylor","MO","Riverside Fest","Longcommon","not_available",39.983039,-91.43451
"63471","Taylor","MO","Quinsippi Island","Quinsippi Island Road","62301",39.94363191024959,-91.4246119647599
"63501","Kirksville","MO","Big Creek State Forrest","Rainbow Basin","63501",40.15946,-92.60098
"63501","Kirksville","MO","Swimming Pool Park","1000-1006 N New St","63501",40.2035610534391,-92.57520325801195
"63501","Kirksville","MO","juss relaxx","not_available","63501",40.18603333650883,-92.5794104031898
"63501","Kirksville","MO","P C Mills Park","Baird","63501",40.186697,-92.59587
"63501","Kirksville","MO","Sugar Creek State Forest","State Hwy N","not_available",40.12666170105158,-92.63638079166412
"63501","Kirksville","MO","Devlin St Park","1001-1113 W Patterson St","63501",40.18431102605768,-92.58870717340402
"63552","Macon","MO","Bee Trace Pavillion","not_available","63552",39.834627644369945,-92.51004855069125
"63601","Park Hills","MO","sundale park","Sundale Dr.","63624",37.756862806275564,-90.62198250343268
"63601","Park Hills","MO","Doe Run City Park","not_available","63637",37.7418356233099,-90.49939372608902
"63601","Park Hills","MO","Columbia park","not_available","63601",37.84128393366493,-90.49666797483776
"63601","Park Hills","MO","Elephant Rock","not_available","63650",37.83545569157439,-90.48206464527841
"63627","Bloomsdale","MO","Fort de Chartres","1350 Illinois 155","62277",38.086737968433084,-90.15828342992374
"63627","Bloomsdale","MO","Fourche a du Clos Valley Roadside Park","Highway 61","not_available",38.021891,-90.233246
"63628","Bonne Terre","MO","Veterans Park","not_available","63628",37.925213,-90.54998
"63636","Des Arc","MO","Sam A. Baker State Park","not_available","63956",37.240699,-90.511805
"63638","Ellington","MO","Brawley Park","not_available","63638",37.251263,-90.962758
"63640","Farmington","MO","Engler Park","near Hwy 67","not_available",37.7579563242849,-90.44595986543536
"63640","Farmington","MO","Castle Rock","not_available","63640",37.652839567753496,-90.34074783325195
"63645","Fredericktown","MO","Azalea Park","not_available","63645",37.562788959872954,-90.2956207412852
"63650","Ironton","MO","Taum Sauk Mountain State Park","148 Taum Sauk Trl","63656",37.571677270107934,-90.72571695419992
"63650","Ironton","MO","Fort Davidson State Historic Site","118 East Maple","63663",37.62026526142379,-90.63883781433105
"63670","Sainte Genevieve","MO","Main Street Park","not_available","63670",37.98149,-90.04302
"63673","Saint Mary","MO","Ball Mill Resurgence Natural Area","CR 916","63775",37.80288390570866,-89.88569498062134
"63673","Saint Mary","MO","carondelet park","not_available","63775",37.71453025014744,-89.89581870737811
"63701","Cape Girardeau","MO","Jackson City Park","Hwy 61 N","63775",37.39105656706263,-89.66825611747609
"63701","Cape Girardeau","MO","Riverfront Park","Broadway St","63701",37.305867332973186,-89.51764029807848
"63701","Cape Girardeau","MO","Ranney Park","600 South Ranney Ave","63701",37.294522826354836,-89.52677249908447
"63701","Cape Girardeau","MO","Shawnee Park Center","835 SW End Blvd","63703",37.294620513916016,-89.53791046142578
"63701","Cape Girardeau","MO","apartment park","not_available","63703",37.28700638045224,-89.53236278643394
"63701","Cape Girardeau","MO","Galaxy Park","411 gizmo ln","63701",37.35304213714769,-89.48827579058951
"63701","Cape Girardeau","MO","Arena Park","410 Kiwanis Dr","63701",37.31334895795747,-89.55906629562378
"63701","Cape Girardeau","MO","Rose Garden","not_available","63701",37.31501818378347,-89.53704020162205
"63701","Cape Girardeau","MO","Missouri Park","400 North Fountain Street","63701",37.309783935546875,-89.52047729492188
"63701","Cape Girardeau","MO","Twin Trees Park","1 East Cape Rock Drive","63701",37.338809967041016,-89.49496459960938
"63701","Cape Girardeau","MO","Groves Park","2400 Jean Ann Drive","63701",37.32497024536133,-89.54798889160156
"63701","Cape Girardeau","MO","Cape Rock Park","20 E Cape Rock Dr","63701",37.33021545410156,-89.49443817138672
"63701","Cape Girardeau","MO","Washington Park","400 Washington Ave","63701",37.310386657714844,-89.52238464355469
"63701","Cape Girardeau","MO","Delaware Park","Lexington Ave","63701",37.3384658816116,-89.53179359436035
"63701","Cape Girardeau","MO","Casquin Park","North Sprigg Street","63701",37.32884326986668,-89.52394008636475
"63701","Cape Girardeau","MO","Cape County Park","S County Park Rd","63701",37.34160126306761,-89.59252323239102
"63701","Cape Girardeau","MO","Choctaw Park","2240 Broadway","63701",37.31334895795747,-89.55054759979248
"63701","Cape Girardeau","MO","Osage Park","1625 N Kingshighway St","63701",37.329158782958984,-89.56710815429688
"63701","Cape Girardeau","MO","Mississippi River","Water St","63703",37.29964969753539,-89.52141132533428
"63703","Cape Girardeau","MO","Indian Park","300 William Street","63701",37.30077362060547,-89.52224731445312
"63730","Advance","MO","Umfleet Park, Advance MO","not_available","63730",37.103658,-89.910693
"63732","Altenburg","MO","Devil's Backbone Park Campground","Brunkhorst Ave","62942",37.639179469080226,-89.51235830783844
"63736","Benton","MO","Elks Park","not_available","63740",37.178159,-89.629812
"63740","Chaffee","MO","Old WhiteWater Roadside Park","Hwy 25","63730",37.18514128322495,-89.76263190419031
"63755","Jackson","MO","Pocahontas Town Park","not_available","63755",37.500753,-89.640225
"63764","Marble Hill","MO","Magnolia Park","Magnolia St","63764",37.301298,-89.979163
"63764","Marble Hill","MO","The Lanes","not_available","63764",37.304092,-89.977166
"63780","Scott City","MO","Scott City Park Shop","not_available","63780",37.22584083869777,-89.51962266767902
"63801","Sikeston","MO","Legion Square","not_available","63801",36.876849,-89.588727
"63801","Sikeston","MO","Rotary Park","298 Russell Ave","63801",36.89411358537052,-89.55762807462781
"63822","Bernie","MO","Bernie city park","not_available","63822",36.67180473871164,-89.97570184862967
"63825","Bloomfield","MO","Bloomfield Park","not_available","63825",36.87709254767609,-89.93013399906239
"63834","Charleston","MO","Duck Pond","not_available","63834",36.926334,-89.341705
"63834","Charleston","MO","Cairo Park","not_available","62914",37.001302,-89.17702
"63837","Clarkton","MO","Charles B James Memorial Park","not_available","63837",36.460897976630505,-89.97252593792786
"63837","Clarkton","MO","Holcomb City Park","not_available","63852",36.429690496650025,-89.99347205819048
"63841","Dexter","MO","Triangle","not_available","63846",36.813007,-89.864537
"63841","Dexter","MO","East Park","Highway 114 East","63841",36.78752169388352,-89.94381688134774
"63841","Dexter","MO","Boon Park","Adams St","63841",36.79029872712015,-89.97862815856934
"63857","Kennett","MO","Jones park","not_available","63857",36.238180479268514,-90.03460145494955
"63869","New Madrid","MO","New Madrid County Veterans Park","not_available","63869",36.585061079582516,-89.5270487562856
"63873","Portageville","MO","Meatte Park","not_available","63873",36.435063085823934,-89.70809572073382
"63877","Steele","MO","Joseph A. Saliba Park","not_available","63877",36.089453178604735,-89.82745765199466
"63901","Poplar Bluff","MO","McLane Park","not_available","63901",36.803653275390886,-90.43348247979311
"63936","Dudley","MO","Bacon Park","Harper St","63901",36.779363,-90.215283
"63965","Van Buren","MO","Van Buren Riverfront Park","not_available","63937",36.992389,-91.014335
"64012","Belton","MO","Wallace Park","Belton, MO","64012",38.82428988361797,-94.51337981595603
"64012","Belton","MO","Belton Community Days","Markey Lane","64012",38.82913337024745,-94.55006507767372
"64012","Belton","MO","Country View Park Of West Belton","Chula Vista Dr","64012",38.81026479973632,-94.56106493580172
"64012","Belton","MO","county park","not_available","64012",38.8252,-94.544
"64014","Blue Springs","MO","Railroad Park","not_available","64014",39.020022762551335,-94.27021706756234
"64014","Blue Springs","MO","Pink hill park","NW Park Dr","not_available",39.05081235275852,-94.27618404470714
"64014","Blue Springs","MO","Wilbur Young Park","1100 SE Adams Dairy Parkway","64015",39.00664138793945,-94.25180053710938
"64014","Blue Springs","MO","Young park","Adams dairy parkway","64014",39.02438398665069,-94.25099305018435
"64014","Blue Springs","MO","Blue Springs Railroad Park","400 NW Vesper St","64014",39.020332,-94.268416
"64014","Blue Springs","MO","Young Park","1100 SE Adams Dairy Pkwy","not_available",39.005835,-94.252172
"64014","Blue Springs","MO","Rotary Park At Railroad Lake","?","not_available",39.01989735771705,-94.26886945554718
"64015","Blue Springs","MO","Old Mill Park","5300 NW Woods Chapel Rd","64015",39.019202439500425,-94.29991832662549
"64015","Blue Springs","MO","Little Blue Trace Trail-Necessary Rd Access","2660-3056 Necessary Rd","64057",39.06347890283566,-94.33447226912914
"64015","Blue Springs","MO","Starwood Park","19701 W 67th St","66218",39.01415242436086,-94.35150281259953
"64015","Blue Springs","MO","Football Practice At Old Mill Park","not_available","64015",39.01916416006547,-94.29997847766658
"64015","Blue Springs","MO","Fleming Park","22807 SW Woods Chapel Rd","64015",38.993469,-94.314642
"64015","Blue Springs","MO","Lake Tapawingo Clubhouse","244 Dockside","not_available",39.02055004867631,-94.3053973638471
"64015","Blue Springs","MO","Jacomo XC Course","not_available","64064",38.95916882506428,-94.33456157225184
"64016","Buckner","MO","William L Landahl Park Reserve","28015 E Truman Rd","64057",39.07116871862363,-94.2480284255126
"64024","Excelsior Springs","MO","Tryst Falls","not_available","64024",39.37213014168864,-94.2733282286227
"64024","Excelsior Springs","MO","Kingdom Camp for Kids - Camp Maurer","901 Lake Maurer Rd","64024",39.321678161621094,-94.23487091064453
"64029","Grain Valley","MO","Armstrong Park","not_available","64029",39.018112306185984,-94.19723003878173
"64030","Grandview","MO","John Anderson Park (Chill Spot)","11th St","64030",38.87959859607391,-94.53502951426273
"64030","Grandview","MO","Terrace Park","1300 E. 125th Terrace","64030",38.89745604367804,-94.52882214463352
"64030","Grandview","MO","longview lake shelter 9","not_available","64030",38.87658769762052,-94.49668915587037
"64030","Grandview","MO","Longview Lake Shelter 11","not_available","64149",38.895306,-94.489709
"64030","Grandview","MO","Freedom Park","1201-1299 Jones Ave","64030",38.894862234819804,-94.53268256038128
"64034","Greenwood","MO","James A. Reed Wildlife Area","12405 SE Ranson Rd","64082",38.879858714485756,-94.33558702468872
"64034","Greenwood","MO","Shawnee Trace Nature Trail","James A. Reed Wildlife Area","not_available",38.873193497132405,-94.32372093200684
"64034","Greenwood","MO","Gopher Lake","not_available","64086",38.87479721555849,-94.31702613830566
"64034","Greenwood","MO","Pleasant Hill City Lake","25818 E 161st St","64080",38.82453215447645,-94.29515157359627
"64034","Greenwood","MO","lees summit recovery park","not_available","64082",38.87003707885742,-94.36439514160156
"64036","Henrietta","MO","Highland Park","Highland Avenue","64067",39.180044211232186,-93.8949966430664
"64036","Henrietta","MO","Lexington Riverfront Park","not_available","64067",39.195616506260166,-93.88504263033037
"64037","Higginsville","MO","Confederate Memorial State Historic Site","211 W 1st St","64037",39.09989929199219,-93.72567749023438
"64050","Independence","MO","McCoy Park","N Northwest Pkwy","64050",39.09645737010864,-94.4191519922998
"64050","Independence","MO","Bingham-Waggoner Estate","313 W Pacific Ave","64050",39.08556228245386,-94.41906041899557
"64050","Independence","MO","Independence Skate Park","not_available","64050",39.102,-94.433138
"64050","Independence","MO","Mike Onka Memorial Hall","not_available","64054",39.11105453968048,-94.43864822387695
"64050","Independence","MO","Children's Peace Pavilion","301-399 S Grand Ave","64050",39.09012940088266,-94.42793364321848
"64050","Independence","MO","War Memorial","412 W Maple","64050",39.09290313720703,-94.42036437988281
"64050","Independence","MO","LaBenite Park","2997 Missouri 291","64050",39.16702222093462,-94.39459003432624
"64050","Independence","MO","WM Henry Harrison Park","11500 E Silver Ln","64054",39.11760864643338,-94.43559050559998
"64052","Independence","MO","Santa Fe Park","Crysler","not_available",39.065791798145,-94.42358705951486
"64052","Independence","MO","Hill Park","Hill Park Dr","64052",39.08507253070719,-94.46040721799973
"64052","Independence","MO","maple forest community park","not_available","64052",39.087135314941406,-94.43997192382812
"64052","Independence","MO","Rotary Park","2400-2498 S Hedges St","64052",39.07887399543294,-94.45321308745054
"64053","Independence","MO","Fairmount Park","not_available","64053",39.11193209034516,-94.45883860421388
"64053","Independence","MO","faremont park","Home","64053",39.114007737413814,-94.45919556037506
"64055","Independence","MO","Adair Park","4400 S Lees Summit Rd","64055",39.03843831116915,-94.38870013066484
"64055","Independence","MO","Van Hook Park","on South Shrank Drive","64055",39.06176356277028,-94.38320318644764
"64055","Independence","MO","Glendale Park","16000-16198 Crackerneck Rd","64055",39.06178237119006,-94.3831893630123
"64055","Independence","MO","Health Park","17400 Berry","64055",39.07527258479021,-94.37555193901062
"64055","Independence","MO","sheila phelps","320 E Gudgell Ave","64055",39.07194150000001,-94.4116784
"64055","Independence","MO","The Cliffs Shelter/Pond","18100 Block of Cliff Dr.","64055",39.030252514471734,-94.36526298522949
"64055","Independence","MO","Dog Park","not_available","64055",39.05242760385077,-94.39702552101394
"64056","Independence","MO","George Owens Nature Park","1601 S Speck Rd","64057",39.082457395534405,-94.36597269020321
"64056","Independence","MO","Salem Park","E Old Lexington Rd","64058",39.13491046999986,-94.34158924970635
"64056","Independence","MO","Little Blue Trace Trail","Jackson County","64056",39.10297508394695,-94.29636709419671
"64056","Independence","MO","Little Blue Trace Trail-Ripley Junction Access","21592-21594 E Old Lexington Rd","64056",39.13438525202937,-94.31425092383431
"64058","Independence","MO","Mouth of the Little Blue Park Reserve","N Galvin Rd","64088",39.20388577269228,-94.21980772851407
"64058","Independence","MO","Clay Woods/Clay Meadows Park","1010 Claywoods Parkway","64068",39.23586592954297,-94.40544763664379
"64058","Independence","MO","Clay ridge Park","not_available","64068",39.21891963575125,-94.40225842661908
"64058","Independence","MO","Ruth Stocksdale Park","901 S La Frenz Rd","64068",39.233544139760355,-94.38887084336962
"64058","Independence","MO","Little Blue Trace Trail-Blue Mills Access","Blue Mills Rd","not_available",39.14918139079779,-94.31561152634188
"64058","Independence","MO","Cooley Lake Conservation Area","not_available","64077",39.2284,-94.23366
"64060","Kearney","MO","North Hampton","291 and Stark","64157",39.29442604348214,-94.47496742742698
"64060","Kearney","MO","LIONS PARK","106 S Jefferson St","64060",39.371905,-94.36268100000001
"64060","Kearney","MO","Jesse James Park","21011 Jesse James Farm Rd","64060",39.38774911834401,-94.32397024771036
"64060","Kearney","MO","Claybrook park & picnic shelter","Jesse James Farm Rd, Kearney, MO 64060","64060",39.387883858889786,-94.32399923059032
"64063","Lees Summit","MO","Summit Park","451 NW Blue Parkway","64063",38.9199557422315,-94.40041530064951
"64063","Lees Summit","MO","South Lea Park","SW Lea Dr","64081",38.903972,-94.392027
"64063","Lees Summit","MO","Harris Park","1-99 SW 6th St","64063",38.90648751656807,-94.37693018823528
"64063","Lees Summit","MO","Miller J Fields Park","not_available","64063",38.911733349542395,-94.34873325086865
"64064","Lees Summit","MO","Legacy Park","1201-1501 NE Legacy Park Dr.","64063",38.94430763574532,-94.31645240461192
"64064","Lees Summit","MO","Velie Park Trail & Bridge","2 NW Anderson Dr.","64064",39.01703345935118,-94.37701764938338
"64065","Lees Summit","MO","Peace Pole","1901 NW Blue Pkwy","64065",38.946292877197266,-94.405029296875
"64067","Lexington","MO","College park","16th street","64067",39.18930830832871,-93.87625336647034
"64068","Liberty","MO","San Rafael Park","not_available","64119",39.18465458178782,-94.48570182275533
"64068","Liberty","MO","Northwyck Park","1617 Ridgeway Drive","64068",39.26958294646898,-94.43014408199176
"64068","Liberty","MO","Wilshire Park","755 Wilshire Boulevard","64068",39.2271658069866,-94.45720468024707
"64068","Liberty","MO","Ruth Moore Park","401 N. Morse Avenue","64068",39.250100195399796,-94.4241949948833
"64068","Liberty","MO","Westboro/Canterbury Greenway Park","1400 Canterbury Lane","64068",39.22893360042955,-94.44518555609226
"64068","Liberty","MO","Place LibertÃ© Park","1300 Lynette Lane","64068",39.27008450095066,-94.44361738715064
"64068","Liberty","MO","Canterbury Greenway","1456 Park Ln","64068",39.2296142578125,-94.44292449951172
"64070","Lone Jack","MO","Hitt Park neighbors","not_available","64034",38.84253011162963,-94.17666735419029
"64070","Lone Jack","MO","Jackson Park","33107 East Shenandoah Drive","64070",38.89707946777344,-94.20027923583984
"64075","Oak Grove","MO","Frick Park","not_available","64075",39.002676602773256,-94.13697529985905
"64076","Odessa","MO","Dyer Park","not_available","64076",39.0037140138208,-93.95996391090365
"64076","Odessa","MO","Odessa Park And Rec","400 Park Dr","64076",39.004947662353516,-93.95774841308594
"64079","Platte City","MO","Stubby Park","4th Street","66048",39.3067088434282,-94.90941423611369
"64079","Platte City","MO","Leavenworth Landing Park","123 S. Esplanade Street","66048",39.31664338241661,-94.90908474221172
"64079","Platte City","MO","Shafer Park","not_available","64098",39.403618,-94.89688
"64079","Platte City","MO","guy b conservation area","not_available","64079",39.41796720601172,-94.79616845301365
"64079","Platte City","MO","Platte Falls Conservation Area","15278-15288 County Road Hh","64079",39.37835382553879,-94.75648129451942
"64080","Pleasant Hill","MO","Harrisonville skate park","not_available","64701",38.66154098510742,-94.33151245117188
"64080","Pleasant Hill","MO","Cass County Fairgrounds","not_available","64080",38.7838317440334,-94.27882455912854
"64081","Lees Summit","MO","Lowenstein Park","1901 NW Lowenstein Dr","64086",38.92892126405101,-94.41685163332969
"64081","Lees Summit","MO","Flights Of fancy","not_available","64081",38.909968,-94.451112
"64081","Lees Summit","MO","Deer Valley Park","1400 NE Neawanna","not_available",38.938147142879515,-94.35288764749235
"64082","Lees Summit","MO","Longview Lake County Park","Southeast Raytown Road","64149",38.90140363553897,-94.46864604949951
"64083","Raymore","MO","Raymore Recreational  Park","not_available","64083",38.78769753567965,-94.45392692733972
"64083","Raymore","MO","Raymore Memorial Park","Olive & Madison","64083",38.79864528783925,-94.45546523430261
"64085","Richmond","MO","Roberts park","not_available","64085",39.275994469562335,-93.96329074076279
"64086","Lees Summit","MO","Legacy Park Community Center","901 NE Bluestem Dr","64086",38.92727938393531,-94.31266074327166
"64086","Lees Summit","MO","Legacy Park Soccer Complex","1510 Legacy Dr.","64086",38.938967458491426,-94.31069647699498
"64089","Smithville","MO","nehemiahfest","not_available","64089",39.3877067565918,-94.58110046386719
"64089","Smithville","MO","Heritage Park","327 E Main St","64089",39.3868408203125,-94.5755844116211
"64093","Warrensburg","MO","park","162-198 Vamo Rd","64093",38.76990548691059,-93.73857243122035
"64093","Warrensburg","MO","Cave Hollow Park","West Gay Street","64093",38.76934929636693,-93.76200738220953
"64093","Warrensburg","MO","Warrensburg Parks ABC Building","not_available","64093",38.767066,-93.728353
"64093","Warrensburg","MO","Children's Memorial Park","Main","64093",38.76915023562719,-93.75113916449688
"64101","Kansas City","MO","Case Park","W 10th St","64105",39.10467471736802,-94.59215261907461
"64101","Kansas City","MO","Mulkey Park","900 W 13th St","64108",39.098296553994956,-94.59437138413682
"64102","Kansas City","MO","Observation Park","2033 Holly St","64108",39.088319896885736,-94.59878606605749
"64102","Kansas City","MO","Jarboe Park","1100-1198 W 17th St","64108",39.09431271753962,-94.59682486977364
"64102","Kansas City","MO","Gage Park","not_available","64108",39.086604952518854,-94.59687023340237
"64105","Kansas City","MO","River Bluff Park","400 Beardsley Rd","64105",39.10809575932472,-94.59096550941467
"64105","Kansas City","MO","West Terrace Park","596-698 W 8th St","64105",39.10500649912403,-94.59149238739036
"64105","Kansas City","MO","Barney Allis Plaza","12th & Wyandotte St","64105",39.0995792979236,-94.58629649327031
"64105","Kansas City","MO","Rooftop Park","1271 Main St Fl 5","64105",39.09940501581675,-94.58294755011657
"64105","Kansas City","MO","City Market Park","5 W 3rd St","64105",39.109492918725316,-94.58362062558471
"64105","Kansas City","MO","Oppenstein Brothers Memorial Park","12th St & Walnut St","64106",39.1001593933381,-94.58168506622314
"64105","Kansas City","MO","Garment District Place","800 Bank St","64105",39.10475828393152,-94.58892209628493
"64106","Kansas City","MO","Richard L Berkley Riverfront Park","1298 E River Front Rd","64105",39.11632090692992,-94.57423849452306
"64106","Kansas City","MO","Columbus Square Park","Independence to E Missouri Ave","64106",39.108044507795235,-94.57460939884184
"64106","Kansas City","MO","Maple Park","not_available","64124",39.11297066515614,-94.55976034857825
"64106","Kansas City","MO","River Market Dog Park","Locust Ln","64106",39.10971628046877,-94.57808285560967
"64106","Kansas City","MO","12th St & Vine","E 12th St","64116",39.09934836725664,-94.5628783138977
"64106","Kansas City","MO","Parade Park","Paseo and Truman Road","64127",39.09374993351654,-94.56229903373631
"64106","Kansas City","MO","Admiral Plaza Park","Admiral Blvd to E 8th St","64106",39.10479,-94.577625
"64106","Kansas City","MO","Ilus Davis Park","E 9th St to E 11th St","64106",39.10204938268273,-94.57785487174986
"64108","Kansas City","MO","Western Auto Lofts Courtyard","2029 Grand Blvd","64108",39.087868,-94.58115
"64108","Kansas City","MO","18Broadway","1800 Broadway St","64108",39.091660987405966,-94.58826217285443
"64109","Kansas City","MO","Spring Valley Park","not_available","64109",39.07578548586443,-94.55827446707215
"64109","Kansas City","MO","Brooklyn Park","E 28 St","64127",39.07563869626129,-94.56006760374223
"64110","Kansas City","MO","Historic Hyde Park","Gillham Rd.","64110",39.05105808199971,-94.5780123144182
"64110","Kansas City","MO","Gillham Park","Gillham Rd.","64111",39.052949,-94.57908
"64110","Kansas City","MO","Donald J. Hall Sculpture Park","Nelson-Atkins Museum of Art","64111",39.043247248807965,-94.58105574641935
"64110","Kansas City","MO","WAKA-Gillham Park","Gillham","64110",39.0540901851862,-94.57932741887107
"64110","Kansas City","MO","Martin Luther King, Jr. Square Park","Swope Pkwy","64110",39.042025280409206,-94.56262874069961
"64110","Kansas City","MO","Harris Park Midtown Sports & Activity Center","4029 Wayne Ave","64110",39.052972,-94.565084
"64110","Kansas City","MO","Southmoreland Park","4525 Oak St","64111",39.043981928447664,-94.58247674503454
"64110","Kansas City","MO","Marion Helzberg Bloch Park","600 E 52nd St","not_available",39.031787,-94.580547
"64110","Kansas City","MO","Campbell Park","4140 Charlotte St","64110",39.05163271850266,-94.57733447916814
"64110","Kansas City","MO","Sycamore Park","29th & Truman","64127",39.019496471938,-94.56265667553862
"64110","Kansas City","MO","Frank A Theis Park","400-482 U.S. 56","64110",39.03867809642024,-94.58239612000305
"64111","Kansas City","MO","Roanoke Park","not_available","64111",39.06203240677636,-94.6001386642456
"64111","Kansas City","MO","Mill Creek Park","JC Nichols Pkwy","not_available",39.04492934444045,-94.58815103269862
"64112","Kansas City","MO","Loose Park","5200 Wornall Rd","64112",39.033329630661335,-94.59316062187345
"64112","Kansas City","MO","Bloch Cancer Survivors Park","not_available","64112",39.04093193339017,-94.5961685015772
"64112","Kansas City","MO","Ed Holland Park","5000 Mercier St","64112",39.0379,-94.6036
"64113","Kansas City","MO","Trolley Track Trail","Brookside Blvd","64114",39.001483022618785,-94.59338922183218
"64113","Kansas City","MO","Brookside Park","Brookside Blvd","not_available",39.024378198882786,-94.58459823425324
"64113","Kansas City","MO","Triangle Park","6246 Valley Rd","64113",39.014511,-94.597747
"64113","Kansas City","MO","Triangle Park","58th Terr & Brookside Blvd","64110",39.02161225001127,-94.58784703226358
"64113","Kansas City","MO","Michelle Park","not_available","64113",39.00385494675971,-94.58851892441517
"64113","Kansas City","MO","Arbor Villa Park","66th and Main","64113",39.00778118406234,-94.58803335153372
"64113","Kansas City","MO","Edgevale Linden & Main Park","6800 Main St.","not_available",39.006457,-94.588983
"64113","Kansas City","MO","Bob Arfsten Memorial Park","6300 Brookside Blvd","not_available",39.013620008512135,-94.5917897426508
"64114","Kansas City","MO","Waldo Tower Park","75th st","64131",38.98971501639419,-94.58229029983117
"64114","Kansas City","MO","The Park On Oak","301-399 E 83rd St","64114",38.97719027221537,-94.58610921223345
"64114","Kansas City","MO","Brush Creek Park","Ward Pkwy.","not_available",38.99739,-94.60292
"64114","Kansas City","MO","Sunnyside Park","8183-8265 Summit St","64114",38.97683484968117,-94.60061464504916
"64116","Kansas City","MO","Macken Park","Howell St","not_available",39.150056426489634,-94.57034468650818
"64116","Kansas City","MO","Crestview Park","not_available","64116",39.17255552049174,-94.56758834352753
"64116","Kansas City","MO","Cliff Drive","not_available","64123",39.114262321076424,-94.54660177230835
"64116","Kansas City","MO","Chaumiere Lake","not_available","64117",39.17352748519106,-94.53837766182775
"64116","Kansas City","MO","Golden Oaks Park","Antioch Rd","not_available",39.179279078614385,-94.54713821411133
"64116","Kansas City","MO","Cooley Park","3501-3599 NE Antioch Rd","64117",39.158482805098615,-94.54678167075424
"64116","Kansas City","MO","The Concourse Park","200 Benton Blvd","not_available",39.11247922275841,-94.54533145892186
"64116","Kansas City","MO","Riverview Park","1212 NE 33rd Ter","64116",39.154695000000004,-94.565675
"64116","Kansas City","MO","Anita Gorman Park (North Oak Fountain)","437-569 NE Vivion Rd","64116",39.180726170242295,-94.5758056640625
"64116","Kansas City","MO","River Forest Park","E 26th Ave","64116",39.1460291,-94.5654913
"64116","Kansas City","MO","Nicholson Park","not_available","64120",39.12402899207159,-94.53713907478766
"64116","Kansas City","MO","Mulberry Park","4200 N Hickory Ln","64116",39.17030334472656,-94.60101318359375
"64116","Kansas City","MO","Rock Creek Road","2926-2948 Walker Rd","64116",39.15301683982392,-94.54813126787151
"64116","Kansas City","MO","Water Works Athletic Complex","NW Tullison Rd","not_available",39.15789883938554,-94.57865222715886
"64117","Kansas City","MO","Chouteau Greenway Park","4218-4298 NE Winn Rd","64117",39.17032134750208,-94.5299145496779
"64118","Kansas City","MO","Englewood Park","Englewood Park","64118",39.194228757762104,-94.56930118314835
"64118","Kansas City","MO","Maple Woods Natural Area","2606 N Agnes Ave.","64156",39.23102924932648,-94.54843342109473
"64118","Kansas City","MO","Linden Square","70Th Holmes","64118",39.22051979474664,-94.5742298175253
"64118","Kansas City","MO","Oak Grove Park","7600 N Troost Ave","64118",39.233262665976774,-94.5684900964582
"64118","Kansas City","MO","Hamilton Heights Park","6600 N Main St","not_available",39.213834803708124,-94.58172798156738
"64118","Kansas City","MO","Creekwood Park","8015 N Hickory St","64118",39.240535736083984,-94.59385681152344
"64118","Kansas City","MO","Central Park","not_available","64118",39.220993,-94.570353
"64118","Kansas City","MO","Meadowbrook Park","60th Terrace","64118",39.203056561665726,-94.5587802667375
"64118","Kansas City","MO","Penguin Park","2025-2181 NE 72 St","64118",39.209634001680726,-94.54515011324933
"64118","Kansas City","MO","Jarboe Park","NW 64th St","64118",39.21114146486467,-94.59241390228271
"64118","Kansas City","MO","Bridge Point Park","NE 83rd Street","64118",39.247336,-94.555354
"64119","Kansas City","MO","Penguin Park","NE Vivion Rd.","64119",39.18726073256417,-94.53146574612435
"64119","Kansas City","MO","Happy Rock Park","7600 Northeast Antioch Road","64119",39.230155913677685,-94.53384638391691
"64119","Kansas City","MO","Mildred Keeney Memorial Park","100 N Poe St.","64119",39.2000338,-94.50465465
"64119","Kansas City","MO","Big Shoal Park","3607 NE 56th Ter","64119",39.19558334350586,-94.53627014160156
"64119","Kansas City","MO","Park Office","199 s randolph","64119",39.19959535,-94.49353205
"64120","Kansas City","MO","Budd Park","5400 Saint John Ave","64123",39.112803464453286,-94.52315407521411
"64120","Kansas City","MO","Heim Park","800 N Chestnut Ave","64120",39.12227249145508,-94.5477066040039
"64124","Kansas City","MO","Harmony Park","11th","64127",39.100794074491056,-94.54555799800961
"64125","Kansas City","MO","Sheffield Park","6601 Independence Ave","64125",39.10437774658203,-94.50489807128906
"64125","Kansas City","MO","Huff Park","not_available","64127",39.09444444444445,-94.51777777777778
"64126","Kansas City","MO","Blue Valley Park","2400-2548 Blue Valley Park Rd S","64129",39.081301687311395,-94.50866444480661
"64126","Kansas City","MO","Corrington Park","Bristol Ave","64126",39.089957339680254,-94.500482719868
"64127","Kansas City","MO","Montgall Park","22nd","64127",39.085604604028,-94.5485794624245
"64127","Kansas City","MO","The Grove Park","Benton Blvd & Truman Ave","not_available",39.09193742404176,-94.54808594503365
"64127","Kansas City","MO","Santa Fe Trail Historic Site","not_available","64129",39.075949,-94.515559
"64127","Kansas City","MO","Prospect Plaza Park","E 12 St & Prospect Ave","64123",39.09874646604302,-94.54490840521392
"64128","Kansas City","MO","Central Park","Linwood","64127",39.06836341706402,-94.54344810882166
"64128","Kansas City","MO","Central Track","not_available","64128",39.067840725725304,-94.54181665192434
"64128","Kansas City","MO","Leon M Jordan Memorial Park","31st","64127",39.06987482646452,-94.54958665474852
"64129","Kansas City","MO","Swope Soccer Village","6310 Lewis Rd","64132",39.011171077463594,-94.51858884289257
"64129","Kansas City","MO","Sarah Colman-Livengood Park","59th & Lane","not_available",39.015509737287616,-94.47573377789988
"64131","Kansas City","MO","Minor Park","not_available","64131",38.92330547839034,-94.57062111416148
"64131","Kansas City","MO","Holmes Park","6900 Holmes Rd","64113",39.001065540497265,-94.57904020942831
"64131","Kansas City","MO","Blue River Park","10466-10756 Blue River Rd","64131",38.93613706177199,-94.56546752012179
"64131","Kansas City","MO","Arleta Park","7700 ProspectÂ Ave","64132",38.98567581176758,-94.55799865722656
"64131","Kansas City","MO","Marlboro Community Fountain","not_available","64132",38.983665985120254,-94.5660669843502
"64132","Kansas City","MO","Kansas City Zoo","6800 Zoo Dr","64132",39.0068733,-94.5291644
"64132","Kansas City","MO","Noble Park","73rd and Indiana","64132",38.993658597750134,-94.54754207394235
"64132","Kansas City","MO","Hope Lodge - Swope Park","not_available","64138",38.990745,-94.508
"64133","Kansas City","MO","Henry Clay Park","7501-7625 Woodson Rd","64138",38.985312833465024,-94.44538660670837
"64133","Kansas City","MO","Raytown Pocket Park","9921 E 63rd St","64133",39.00847625732422,-94.46373748779297
"64134","Kansas City","MO","Forest Park","5809 E 95th Ter","64134",38.951858,-94.520692
"64134","Kansas City","MO","Ewing Park","not_available","64134",38.9306972724436,-94.51357608900928
"64134","Kansas City","MO","Quindaro Park","not_available","64137",38.946035710845784,-94.5233453502683
"64138","Kansas City","MO","Raytown Soccer Complex","14200 E. 87th St.","64139",38.96507327591146,-94.42207478742341
"64138","Kansas City","MO","james a Reed community park","87th and James a Reed","64138",38.963723201240995,-94.4931172112241
"64138","Kansas City","MO","C. Lee Kenagy Park","79th & Raytown Rd.","not_available",38.98065627,-94.46868360042572
"64145","Kansas City","MO","Jerry Smith Park","139th & Holmes","64146",38.87816479379283,-94.56851312641116
"64145","Kansas City","MO","Blue River Parkway","not_available","64146",38.90460148747565,-94.57570969879461
"64150","Riverside","MO","E. H. Young Riverfront Park","1001 Argosy Pkwy","64150",39.162717734557376,-94.61572462161848
"64150","Riverside","MO","Midwest All Truck Nationals","EH Young Riverfront Park","not_available",39.16309080016888,-94.61559352574618
"64151","Kansas City","MO","Line Creek Park","not_available","64151",39.2007825508777,-94.60929121256554
"64151","Kansas City","MO","Frank Vaydik Park","Kansas City,MO,64151","64151",39.19915671976516,-94.60784430462543
"64151","Kansas City","MO","Northland Passage Mailboxes","6360 N London Ave","64151",39.209458000000005,-94.634619
"64151","Kansas City","MO","Embassy Park","7900 N. Hull","64151",39.23805348011349,-94.64547642736989
"64151","Kansas City","MO","Imeson Park","7305 NW Prairie View Rd","64151",39.22769,-94.653711
"64152","Kansas City","MO","English Landing Park","S. Main Street","64152",39.18779701108558,-94.68322037969675
"64152","Kansas City","MO","Thousand Oaks Gazebo","not_available","64152",39.207934,-94.750545
"64152","Kansas City","MO","Cristhaven Park","7600 NW Roberts Rd","64152",39.232941,-94.705187
"64154","Kansas City","MO","Barry-Platte Park Sand Volleyball Courts","not_available","64154",39.250579096960614,-94.60566141191023
"64155","Kansas City","MO","Fox Hill Park","not_available","64155",39.279382983716474,-94.571507803436
"64155","Kansas City","MO","Fairfield","11600 N Harrison St","64155",39.305031897583504,-94.56653044029822
"64155","Kansas City","MO","Highland Acres Park","960-1018 NE 112 Terrace","64155",39.297041598418744,-94.5660216464875
"64155","Kansas City","MO","The Park at Highland View","1020 NE 85th Ter","64155",39.25158127673984,-94.56197665441819
"64155","Kansas City","MO","Pine Lake Park","111th","64155",39.293914717558124,-94.5757500063231
"64156","Kansas City","MO","Hodge Park","not_available","64156",39.26211305564852,-94.50125253402881
"64423","Barnard","MO","Barnard Park","401-403 McKenzie Street","64423",40.173840049776054,-94.82441425323486
"64424","Bethany","MO","Memorial Park","702 N 28th St","64424",40.27254081387675,-94.02327511574467
"64428","Burlington Junction","MO","Bj park","not_available","64428",40.437631,-95.02897
"64429","Cameron","MO","McCorkle Park","305 N Cherry St","64429",39.74198968463462,-94.2390833360865
"64429","Cameron","MO","Lake Allaman","not_available","64429",39.658026695251465,-94.2145174741745
"64429","Cameron","MO","Gazebo Park","925 West Fourth St.","64429",39.74232756,-94.25036635
"64429","Cameron","MO","Earl Park","Walnut st.","64429",39.741141767318396,-94.23624168278994
"64429","Cameron","MO","City Of Cameron Department Of Parks & Recreation","724 Tracy St","64429",39.73182175965757,-94.24010187666131
"64429","Cameron","MO","Recreation Park","Seminary","64429",39.726167668197284,-94.18488946200738
"64429","Cameron","MO","Kelsey Park","814-1298 Park Ave","64429",39.73181160859575,-94.24344343
"64429","Cameron","MO","Mccorkle park","4th street","64429",39.742017,-94.238625
"64437","Craig","MO","Squaw Creek Wildlife Refuge","not_available","64473",40.069620049155766,-95.22873472316058
"64437","Craig","MO","Griffith Park","not_available","64470",40.116996353482804,-95.22652735105986
"64439","Dearborn","MO","Bee Creek Conservstion Area","not_available","64448",39.56715,-94.78139
"64444","Edgerton","MO","Edgerton City Park","not_available","64444",39.504458492466114,-94.63097423616338
"64446","Fairfax","MO","Fairfax City Park","not_available","64446",40.340033,-95.391414
"64468","Maryville","MO","Beal Park","N Laura Street","64468",40.34960245999956,-94.85831977133955
"64468","Maryville","MO","Robertson Crist Park","not_available","64468",40.356782091930796,-94.87859219874248
"64468","Maryville","MO","Water Tower Park","Mulberry St","64468",40.35370051860809,-94.87603068351746
"64468","Maryville","MO","Sisson Eek","702 W Lincoln St","64468",40.338279724121094,-94.881591796875
"64482","Rock Port","MO","Rock Port Memorial Park","not_available","64482",40.408891206936644,-95.51147804367727
"64483","Rosendale","MO","Pojok Pule corp","Pule","64483",40.0537279,-94.86243549999999
"64485","Savannah","MO","Messick Park","not_available","64485",39.94266932782508,-94.8402836276658
"64490","Stewartsville","MO","Stewartsville City Park","not_available","64490",39.7527924438954,-94.49728282596982
"64501","Saint Joseph","MO","Huston Wyeth Park","Elwood St","64501",39.776875,-94.867283
"64501","Saint Joseph","MO","Bartlett Park","not_available","64507",39.752803889353295,-94.81503430451656
"64501","Saint Joseph","MO","Sherwood Park","Edmond St","64501",39.765677,-94.822133
"64501","Saint Joseph","MO","Patee Park","S. 9th Street","64503",39.756857428918046,-94.84870883599658
"64501","Saint Joseph","MO","Bartlett Park","SW Parkway","not_available",39.7527283029442,-94.81888713868739
"64501","Saint Joseph","MO","Civic Center Park","1100 Frederick Ave","64501",39.76862716674805,-94.8470458984375
"64501","Saint Joseph","MO","St. Joseph Riverwalk","not_available","64501",39.76652678698656,-94.86037662547128
"64501","Saint Joseph","MO","Frances Park","2601 Clay Street","not_available",39.77106231658703,-94.8276431583304
"64501","Saint Joseph","MO","Mitchell Park","St Joseph, MO 64501","64501",39.7549115128123,-94.84691978423935
"64501","Saint Joseph","MO","Coleman Hawkins Park","701 Felix Street","not_available",39.7672638892364,-94.85085602658042
"64501","Saint Joseph","MO","College Hill Park","St. Joseph,MO,64501","64501",39.757944,-94.836541
"64503","Saint Joseph","MO","Hyde Park","not_available","64504",39.71082755075922,-94.85100269948235
"64503","Saint Joseph","MO","Cardinal Bench","East Hyde Park Avenue","64504",39.709711952611556,-94.85030896032684
"64503","Saint Joseph","MO","Red Seat","not_available","64503",39.724123,-94.793196
"64503","Saint Joseph","MO","Mystery Park","not_available","64505",39.794782,-94.87034
"64505","Saint Joseph","MO","Krug Park","3600 St. Joseph Ave","64505",39.79909473241588,-94.84903797171795
"64601","Chillicothe","MO","Silver Moon Plaza","707 Webster St","64601",39.794509,-93.552932
"64601","Chillicothe","MO","Gravesville Park","not_available","64601",39.778413,-93.554098
"64601","Chillicothe","MO","Waddell Park","2940 Cottonwood Dr","80221",39.77595687189111,-93.47095012664795
"64625","Breckenridge","MO","Breckenridge City Park","not_available","64625",39.760802097700285,-93.80106978210799
"64631","Bucklin","MO","Bucklin City Park","not_available","64631",39.78640829831467,-92.88822105955296
"64633","Carrollton","MO","Carrollton City Park","not_available","64633",39.36574477387834,-93.48768572870895
"64640","Gallatin","MO","Dockery Park","Gallatin,MO,64640","64640",39.91910750558771,-93.95513341677847
"64655","Lucerne","MO","Moose Tacos Park","not_available","64655",40.467353636862775,-93.28665608073136
"64659","Meadville","MO","Strickler Memorial Park","Linn Street","64659",39.7880274728305,-93.30362319946289
"64671","Polo","MO","Tiffanys Reception","not_available","64671",39.54623715940029,-94.03896412920383
"64683","Trenton","MO","Moberly Park","1410 Tindall Ave","64683",40.07926940917969,-93.62334442138672
"64683","Trenton","MO","Eastside Park","E 11th St","64683",40.0811721476283,-93.60385236712607
"64683","Trenton","MO","Ray Van Meter Park","not_available","64683",40.069111,-93.610269
"64701","Harrisonville","MO","Lord's Park","S Oakland St","64701",38.65647912025452,-94.3559756
"64720","Adrian","MO","Adrian City Park","not_available","64720",38.39271469022813,-94.33694917293268
"64724","Appleton City","MO","Donnohue-Dugan Park","100-118 E 4th St","64724",38.190434456501556,-94.02728319168091
"64730","Butler","MO","Butler City Park","Meadow Dr","64730",38.24655598253858,-94.33923482894897
"64735","Clinton","MO","Artesian Park","not_available","64735",38.36194266801912,-93.78661454239285
"64735","Clinton","MO","Bucksaw Storage and RV Park LLC","577 S.E. U Hwy.","64735",38.2784558,-93.612477
"64742","Drexel","MO","Drexel City Park","not_available","64742",38.47840150100393,-94.60497581012912
"64744","El Dorado Springs","MO","South City Park","not_available","64744",37.85663604736328,-94.02051544189453
"64744","El Dorado Springs","MO","El Dorado Springs - Main Park & Spring","104-198 Gay St","64744",37.87634389525958,-94.02219772338867
"64759","Lamar","MO","Lamar City Park","1960-1998 Walnut St","64759",37.484419221512375,-94.27950099293251
"64759","Lamar","MO","Wheeler Park","not_available","64759",37.498673,-94.257644
"64772","Nevada","MO","Walton Park","not_available","64772",37.85172516162951,-94.362597555553
"64779","Rich Hill","MO","West Park","not_available","64779",38.096393283074,-94.3655936828657
"64779","Rich Hill","MO","Rich Hill Park","5th St","64779",38.0966455490244,-94.36497637652786
"64801","Joplin","MO","Parr Hill Park","18th & Kansas","64804",37.0717081869434,-94.49780103488027
"64801","Joplin","MO","Praying Hands","290 W Tracy St","64870",37.14022120989889,-94.4659960269928
"64801","Joplin","MO","The Pond Of Doom","not_available","64801",37.095969,-94.517988
"64801","Joplin","MO","Mercy Park","not_available","64804",37.060444,-94.53096
"64801","Joplin","MO","Leonard Park","501-599 Turk Ave","64801",37.085487842559814,-94.4817727804184
"64801","Joplin","MO","Landreth Park","501-699 NW Murphy Blvd","64801",37.099350642587574,-94.51083414340258
"64801","Joplin","MO","Comets Park","not_available","64835",37.14964,-94.44731
"64801","Joplin","MO","Schifferdecker Park","7th & Schifferdecker","64801",37.087526789410994,-94.5497453212738
"64804","Joplin","MO","Spooklight","68998-69300 E 50 Rd","74363",37.045313318015076,-94.4967495288019
"64831","Anderson","MO","Cowskin Access","not_available","64831",36.63115692138672,-94.58768463134766
"64831","Anderson","MO","Pineville Community Building","not_available","64856",36.594578,-94.385194
"64836","Carthage","MO","Central Park","Chestnut","64836",37.17359589633881,-94.31308300538998
"64836","Carthage","MO","Battle of Carthage State Historic Site","Chestnut Street","not_available",37.173106757477846,-94.2973279953003
"64836","Carthage","MO","Carter Park","River St","64836",37.17182756406346,-94.31259165253697
"64836","Carthage","MO","Carthage municipal park","Oak street","64836",37.17436375317091,-94.33679869073302
"64836","Carthage","MO","Kellog Park","not_available","64836",37.199462890625,-94.30805969238281
"64844","Granby","MO","Dick Smith Park","not_available","64844",36.916918708062305,-94.25611643397954
"64850","Neosho","MO","UH-1H SN 68-15533 - Helicopter - Morse Park","not_available","64850",36.86945724487305,-94.35826110839844
"64850","Neosho","MO","Morse Park","Coler St","64850",36.87243413471323,-94.36288862921148
"64850","Neosho","MO","Big Springs Park","Big Spring Park","64850",36.86978336707348,-94.37172698454587
"64862","Sarcoxie","MO","Stebben Memorial Park","not_available","64862",37.06877773609332,-94.1290554847016
"64866","Stark City","MO","Jolly Mill Park","31628-31630 Jolly Mill Dr","64866",36.896854542848686,-94.07132458160044
"65010","Ashland","MO","Ashland City Park","College","65010",38.77632327225355,-92.25825614140308
"65013","Belle","MO","Oak Creek Whitetail Ranch","178 Oak Creek Ln","65014",38.3673474,-91.6822925
"65016","Bonnots Mill","MO","Clark s Hill Norton State Historic Site","not_available","65203",38.56131661647749,-92.02232806783466
"65017","Brumley","MO","Morningstar Community","22 Blue Jay Rd","65047",38.18215560913086,-92.55488586425781
"65017","Brumley","MO","PAZAR KEYFÄ°","usa","54100",38.140614,-92.57491
"65020","Camdenton","MO","Loverâ€™s Leap","not_available","65020",38.077714,-92.758505
"65020","Camdenton","MO","Big Surf Waterpark","954 State Road Y","65052",38.070152282714844,-92.69336700439453
"65032","Eugene","MO","Saline Valley Conservation Area","not_available","65032",38.38838625975356,-92.38593485895285
"65037","Gravois Mills","MO","Camp Hohn Scout Reservation","Rt RA","not_available",38.18157834384698,-92.88952575562054
"65037","Gravois Mills","MO","Hillbilly Fairgrounds","not_available","65037",38.20516245233322,-92.83993935995619
"65041","Hermann","MO","The Spot","not_available","65041",38.70688772882383,-91.43526507128506
"65041","Hermann","MO","Hermann Amphitheater","Fourth Street","65041",38.70363054527275,-91.43435955047607
"65043","Holts Summit","MO","Missouri State Capitol","201 W Capitol Ave","65101",38.57910424467062,-92.1729326248169
"65043","Holts Summit","MO","Community Park","not_available","65101",38.56702,-92.171716
"65043","Holts Summit","MO","McClung Park","Chestnut St","65109",38.558704194213384,-92.17156483068423
"65043","Holts Summit","MO","Jefferson Landing State Historic Site","100 Jefferson St","65101",38.578952177363256,-92.17019551140095
"65043","Holts Summit","MO","Hibernia Station Park","not_available","65043",38.64942026531607,-92.11849508134273
"65043","Holts Summit","MO","Duensing Field","700 Ohio St.","65109",38.5758,-92.1861
"65043","Holts Summit","MO","Mckay","Southridge","65043",38.64599841512328,-92.06375991980782
"65043","Holts Summit","MO","Ellis Porter Park","1509 Edwards St","65101",38.566375732421875,-92.14664459228516
"65047","Kaiser","MO","Osage Beach City Park","not_available","65047",38.14198502533183,-92.61883760892562
"65051","Linn","MO","Linn City Park","not_available","65051",38.47545786003101,-91.84049875591857
"65053","Lohman","MO","Binder Park","not_available","65109",38.58732900449127,-92.30338688000235
"65084","Versailles","MO","Versailles City Park","not_available","65084",38.43112249292603,-92.85549208085908
"65101","Jefferson City","MO","McKay Park","1700 Southridge Drive","65109",38.560089111328125,-92.19609832763672
"65101","Jefferson City","MO","Memorial Park","W. Main St.","not_available",38.59307279938977,-92.20884122211068
"65101","Jefferson City","MO","County Park Lake","3959 County Park Road","65109",38.56274725380991,-92.26944923400879
"65201","Columbia","MO","Stephens Lake Park","2001 E Broadway","65201",38.95029802985823,-92.30863094329834
"65201","Columbia","MO","Peace Park","Elm St","65201",38.948219804339445,-92.32979156112445
"65201","Columbia","MO","Cosmo-Bethel Park","4500 Bethel St","65203",38.901945934855384,-92.34389798170048
"65201","Columbia","MO","Rock Quarry Park","off Grindstone","65201",38.91202589345436,-92.31099139767987
"65201","Columbia","MO","Flat Branch Park","101 S 4th St","65201",38.95002995881696,-92.3330083461444
"65201","Columbia","MO","Shepard Park","Shepard Boulevard","65201",38.937340372734,-92.29555748101109
"65201","Columbia","MO","Capen Park","not_available","65201",38.93004649424033,-92.32125025476981
"65201","Columbia","MO","Donna May Funday","1101 S Eastwood Cir","65201",38.962073,-92.299305
"65201","Columbia","MO","Capen Park Mulch Site","Wilde Dr","65201",38.930145739923525,-92.32166874541153
"65201","Columbia","MO","Perry Philips Park","5050 Bristol Lake Parkway","65201",38.89330417988778,-92.29365348815918
"65201","Columbia","MO","Stephens Amphitheatre","1800-1858 E Walnut St","65201",38.94613864,-92.30279379
"65201","Columbia","MO","Riechmann Pavilion","2300 E Walnut St","65201",38.951641,-92.307544
"65201","Columbia","MO","Douglas Park","North Providence Avenue","not_available",38.961695753416414,-92.33270495701949
"65201","Columbia","MO","Stephens Lake: Collins Shelter","E. Broadway","not_available",38.94984547529278,-92.30810826949035
"65201","Columbia","MO","Douglass Park & Pool - School","400 North Providence Road","65201",38.956695556640625,-92.3333969116211
"65201","Columbia","MO","Bethel Park","13015-13999 S Hudson Rd","65203",38.90194109611507,-92.34430741722703
"65202","Columbia","MO","Cosmo Park","Stadium Blvd & Business Loop 70 W","not_available",38.969684969503334,-92.3643116124989
"65202","Columbia","MO","Cosmo Park Burford Shelter","not_available","65202",38.969664,-92.367519
"65202","Columbia","MO","Norma Sutherland Smith Park","3350 Waco Rd","65202",39.010897,-92.286998
"65202","Columbia","MO","Harmony Bends Disc Golf Course","801 N. Strawn Rd.","65203",38.964393615722656,-92.40876770019531
"65202","Columbia","MO","Albert Oakland Park","1900 blue ridge rd","not_available",38.984187741270716,-92.30903720402746
"65202","Columbia","MO","Bear Creek Park","1402 Eletta Blvd","65202",38.97528099360075,-92.32389397205819
"65202","Columbia","MO","Tribble Park, Hallsville, MO","not_available","65240",39.11559445195691,-92.22014784056742
"65202","Columbia","MO","Columbia Cosmopolitan Recreation Area","Columbia,MO,65201","65201",38.96945869041311,-92.3535134614252
"65202","Columbia","MO","CM Albert Oakland Park","Parker St (South Entrance)","65202",38.979299165852126,-92.3113042689918
"65202","Columbia","MO","Garth Nature Area","2799 N Garth Ave","65202",38.98037338256836,-92.3401870727539
"65202","Columbia","MO","Again Street Park-School","1200 Again Street","65203",38.95940680392972,-92.357066079427
"65202","Columbia","MO","Proctor Park","341-703 Proctor Dr","65202",38.977034419183404,-92.3441243750079
"65203","Columbia","MO","Oakwood Hills Park","Lynnwood","65203",38.923003023964384,-92.35297225590917
"65203","Columbia","MO","Twin Lakes Recreation Area","2500 Chapel Hill Rd.","65203",38.928325447556304,-92.38016894540111
"65203","Columbia","MO","Mill Creek Park","3302 Crabapple Ln","65203",38.893863,-92.386879
"65203","Columbia","MO","Columbia Audubon Nature Sanctuary","3607 Bray Ave","65203",38.94101919987799,-92.38937616348267
"65230","Armstrong","MO","Central Missouri Off-Road Park","620 County Road 118","65248",39.209754943847656,-92.59329223632812
"65231","Auxvasse","MO","Backstage Safari Behind the Scenes at Animal Kingdom","Animal Kingdom","65262",38.952819,-91.939067
"65233","Boonville","MO","Katy Trail Exit I-70","Boonville, MO","65233",38.93640578715004,-92.74459245086884
"65233","Boonville","MO","Heritage Days Carnival","Kemper Park","65233",38.965948,-92.7441311
"65233","Boonville","MO","Boonville Lions Park Aquatic Center","not_available","65233",38.965652889805675,-92.73291351565697
"65240","Centralia","MO","Softball Park","600-698 Adams St","65240",39.20310074306135,-92.14772700267098
"65240","Centralia","MO","Nathan A.Toalson Bicentennial Park","800 W. Lakeview St.","65240",39.2031,-92.1478
"65247","Excello","MO","Ardmore Memorial Park","not_available","65247",39.637322,-92.532561
"65248","Fayette","MO","New Franklin City Park","not_available","65274",39.022114,-92.738919
"65250","Franklin","MO","Boone s Lick State Historic Site","Hwy. 187","65250",39.082222,-92.879167
"65251","Fulton","MO","Carver Park","1000 Westminster Avenue","65251",38.856865,-91.954216
"65251","Fulton","MO","Mark Twain National Forest","not_available","65251",38.84834289550781,-92.0860366821289
"65251","Fulton","MO","Big Orange Park","Wood St, Fulton, MO 65251","65251",38.854740142822266,-91.9350357055664
"65255","Hallsville","MO","Pinnacles Youth Park","not_available","65284",39.134794400868415,-92.32354644601995
"65259","Huntsville","MO","Old Fairgrounds","Adah Street","65259",39.43198346809304,-92.53445148468018
"65261","Keytesville","MO","Maxwell Taylor Park","Keytesville,MO,65261","65261",39.43556874517861,-92.9361810829629
"65264","Martinsburg","MO","Swaim Park","Acr 711","65264",39.08687812264471,-91.74170716571614
"65265","Mexico","MO","Lakeview Park","not_available","65265",39.15410032066209,-91.89459653104878
"65270","Moberly","MO","Candyland park","not_available","65270",39.422969818115234,-92.43952941894531
"65276","Pilot Grove","MO","Pilot Grove, MO - City Park","Mt Vernon St","65276",38.87181473686535,-92.91637392267359
"65281","Salisbury","MO","Salisbury City Park","not_available","65281",39.41640267566163,-92.8018569946289
"65301","Sedalia","MO","Katy Park","2101-2281 Clinton Rd","65301",38.69135356868165,-93.23813073780562
"65301","Sedalia","MO","Smithton City Park","not_available","65350",38.683675,-93.093312
"65301","Sedalia","MO","Liberty Park","W 3rd St","65301",38.70986220604162,-93.24441470752258
"65301","Sedalia","MO","Sedalia Lion's Club Pavillion","3201 W 16th St","65301",38.697137,-93.270365
"65301","Sedalia","MO","Vermont Park","not_available","65301",38.70114045908453,-93.23353609673302
"65301","Sedalia","MO","Centennial Park","New York Avenue","65301",38.674195631415934,-93.210863755699
"65305","Whiteman Air Force Base","MO","Ike Skelton Park","not_available","65305",38.72243998325415,-93.56717075032483
"65325","Cole Camp","MO","Drovers Prairie","not_available","65335",38.531814,-93.290704
"65325","Cole Camp","MO","Lincoln Park","not_available","65338",38.387623,-93.325044
"65332","Green Ridge","MO","Farrington Park","N County Line Rd","65360",38.52696990966797,-93.51244354248047
"65336","Knob Noster","MO","Knob Noster City Park","not_available","65336",38.762229919433594,-93.56259155273438
"65340","Marshall","MO","Jim the Wonder Dog Memorial Park","110 N Lafayette Ave","65340",39.12173080444336,-93.1971435546875
"65340","Marshall","MO","Marshall Skate Park","not_available","65340",39.11963139144698,-93.167222229683
"65401","Rolla","MO","Schuman Park","not_available","65401",37.95533063516722,-91.76860830378315
"65401","Rolla","MO","Lions Club Park","1061 S Bishop Ave","65401",37.92776166849412,-91.77684976851987
"65401","Rolla","MO","Nelson Hart Park","not_available","65559",37.99179092296884,-91.63430192466775
"65401","Rolla","MO","Ber Juan Park","1200 Holloway St","65401",37.9533685085875,-91.75997972488403
"65438","Birch Tree","MO","Lions Park","Hoover St","65588",37.014687,-91.330931
"65441","Bourbon","MO","Steelville Community Park","not_available","65565",37.97450648932539,-91.3388806006501
"65444","Bucyrus","MO","Dogs Bluff","7621-7623 Missouri 17","65483",37.32687373390712,-92.00196838784484
"65452","Crocker","MO","Frisco Park","Commercial St.","not_available",37.936210321652965,-92.2638638950662
"65459","Dixon","MO","Rest Area","not_available","65550",37.89658259136189,-92.0084319826909
"65459","Dixon","MO","Park","not_available","65582",38.191264,-91.954439
"65466","Eminence","MO","Round Spring","not_available","65466",37.20094980946298,-91.37782277139324
"65473","Fort Leonard Wood","MO","Colyer Park","Nebraska Ave","65473",37.75210442255562,-92.11218325725046
"65473","Fort Leonard Wood","MO","Memorial Grove Park And Walking Trail","Nebraska","not_available",37.7760544,-92.1204159
"65486","Iberia","MO","Iberia City Park","not_available","65486",38.078814438165985,-92.29655352511672
"65536","Lebanon","MO","Bennett Spring State Park","26250 Highway 64A","65536",37.72466660966121,-92.85605907440186
"65536","Lebanon","MO","Route 66 Mural","not_available","65536",37.670101,-92.665874
"65536","Lebanon","MO","Harke Park","2810-2898 National Ave","65536",37.6378039,-92.65814055
"65536","Lebanon","MO","Boswell Park","Drury Rd","65536",37.66972979728127,-92.66769806353197
"65536","Lebanon","MO","Park Running Trail Lebanon","25509 Granger Ln","65536",37.708179,-92.669664
"65542","Licking","MO","Old City Park, Licking Mo","not_available","65542",37.50876235961914,-91.86390686035156
"65556","Richland","MO","Relay For Life","407 E Jefferson Ave","65556",37.8575325012207,-92.39561462402344
"65556","Richland","MO","Tri county fair","not_available","65556",37.85546086410813,-92.39742546352507
"65559","Saint James","MO","Maramec Springs Trout Park","21880 Maramec Spring Dr","65559",37.955395333588925,-91.53229389291579
"65583","Waynesville","MO","15th Annual FROG-TOBERFEST","not_available","65583",37.83100509643555,-92.2042007446289
"65583","Waynesville","MO","Waynesville City Park","207 Olive St","65583",37.831514814494355,-92.2036739740009
"65584","Saint Robert","MO","Bosa Heights Park","not_available","65584",37.81084206870012,-92.12582884036028
"65604","Ash Grove","MO","Ash Grove Park","not_available","65604",37.315865379077586,-93.5793686123675
"65605","Aurora","MO","Marionville Park","not_available","65705",37.005909,-93.63366365432468
"65605","Aurora","MO","Baldwin Park","not_available","65706",36.96183171341649,-93.71640722229759
"65605","Aurora","MO","White park","Lewis Shaw Dr","65605",36.96983433047889,-93.73361403957036
"65605","Aurora","MO","Baldwin Park","not_available","65605",36.95995635281911,-93.70458742738433
"65608","Ava","MO","Ava Park","not_available","65608",36.95332726426421,-92.66784843755495
"65608","Ava","MO","South Riverside Park","not_available","50677",36.951999,-92.6604457
"65609","Bakersfield","MO","Pride Park","Bakersfield,MO,65609","65609",36.5225638,-92.1420999
"65610","Billings","MO","J.R. Martin Park","Park Dr","65738",37.12376091341482,-93.4724125760203
"65610","Billings","MO","Corn Maze","not_available","65631",36.99372794249755,-93.41883089764916
"65610","Billings","MO","Miller Park","711 E Miller Rd","65738",37.11284255981445,-93.46599578857422
"65610","Billings","MO","Billings City Park","not_available","65610",37.057864855734294,-93.55620114249956
"65611","Blue Eye","MO","The Square","not_available","72660",36.49852724373062,-93.39744694148902
"65611","Blue Eye","MO","Picnic Area","Hwy 165","65619",36.5828999716718,-93.31012560098655
"65613","Bolivar","MO","Dunnegan Park","not_available","65613",37.627509259607784,-93.41673692094498
"65613","Bolivar","MO","Miles Park","Springfield,MO,65802","65802",37.7800134,-93.5281482
"65613","Bolivar","MO","Freedom Park","1800 South Meadow Lane","65613",37.59852066833722,-93.42916336316772
"65613","Bolivar","MO","Cribbs Family Youth Park","309 S Clark","65613",37.608505,-93.41318
"65616","Branson","MO","The Track","3345 W 76 Country Blvd","65616",36.63949889,-93.28404544
"65616","Branson","MO","Cantwell Park","not_available","65616",36.64706756102899,-93.22990388742558
"65616","Branson","MO","Henning Park","1601 Sycamore Church Rd","65616",36.68355596034229,-93.28736368844113
"65616","Branson","MO","Hulland Park","not_available","65672",36.631097,-93.218846
"65616","Branson","MO","Downing View Park","Old Mill Road","65672",36.6215836739519,-93.21643271567383
"65616","Branson","MO","Shepherd Of The Hills Fish Hatchery At Table Rock Dam","483 Hatchery Rd","65616",36.597177859122745,-93.30537961436468
"65616","Branson","MO","Murphy Park","401 Neihardt Ave","65616",36.61686521666667,-93.25688586666666
"65616","Branson","MO","hick hick's lagoon","not_available","65737",36.75092872148091,-93.28272511281169
"65616","Branson","MO","Liberty Plaza","221 US-65 BUS,","65616",36.64296,-93.2179
"65616","Branson","MO","Branson Stagecoach Camppground","5751 Missouri 165","65616",36.583715,-93.300405
"65619","Brookline","MO","Battlefield City Park","5434 S Tower Dr","65619",37.11507240625698,-93.36371250702148
"65619","Brookline","MO","Rutledge-Wilson Farm Park","3825 W. Farm Rd.","65807",37.16865,-93.357953
"65622","Buffalo","MO","Louisburg Park","not_available","65685",37.7579298652296,-93.14479144879373
"65625","Cassville","MO","Cassville Aquatic Center","FR 2180","65625",36.6759129890144,-93.87514754832068
"65625","Cassville","MO","Cassville City Park","303-307 W 7th St","65625",36.68828948751183,-93.87549061219657
"65625","Cassville","MO","cassville greenways","not_available","65625",36.683326721191406,-93.85910034179688
"65633","Crane","MO","Crane City Fields","not_available","65633",36.90305831535289,-93.5728343802187
"65640","Dunnegan","MO","Dunnegan Springs","not_available","65640",37.71581820743906,-93.57186074381998
"65648","Fair Grove","MO","Wommack Mill","38 S Main St","65648",37.38152981703265,-93.15080141876565
"65667","Hartville","MO","Hartville Park","not_available","65667",37.25075936103897,-92.51028059944103
"65672","Hollister","MO","Thunderhead Point","not_available","65739",36.53514485898436,-93.28641038599915
"65672","Hollister","MO","Empire Park","not_available","65653",36.631187350000005,-93.1187444
"65674","Humansville","MO","Dimmitt Memorial Park","not_available","65674",37.795066833496094,-93.5770263671875
"65689","Cabool","MO","Roberts Park","not_available","65689",37.12906134052014,-92.10404198181763
"65704","Mansfield","MO","Mansfield City Park","not_available","65704",37.111807,-92.589795
"65707","Miller","MO","Miller Public Park","642 E Main St.","65708",37.21437581100993,-93.83561115116895
"65707","Miller","MO","Cash America Picnic","not_available","65707",37.18967056274414,-93.79788208007812
"65708","Monett","MO","parr hill park","South Kansas and 18th Street","65708",36.92017364501953,-93.92084503173828
"65708","Monett","MO","Monett North Park","Hwy 37","65708",36.941104,-93.925377
"65708","Monett","MO","Kandies Kustom Krafts Booth","not_available","65723",36.94178771972656,-93.9990463256836
"65708","Monett","MO","PC Park","498 Fair Ave","65723",36.941715240478516,-93.9947738647461
"65711","Mountain Grove","MO","Mountain Grove Town Square","not_available","65711",37.129168771216946,-92.26376291887455
"65712","Mount Vernon","MO","Underwood ""Spirit of 76"" Park","400 N Main St.","65712",37.10738097744985,-93.81769440067589
"65714","Nixa","MO","Nixa City Park","701 N Taylor Way","65714",37.05020225567895,-93.30082492143185
"65714","Nixa","MO","Grubaugh Park","not_available","65721",37.06501388549805,-93.23429107666016
"65721","Ozark","MO","Archery Complex","5780 S Farm Road 141","65810",37.11101150512695,-93.32231903076172
"65724","Pittsburg","MO","pittsburg community building","not_available","65724",37.83717727661133,-93.30117797851562
"65738","Republic","MO","Brookline Park","Sawyer","65738",37.16908653857724,-93.43947485424926
"65742","Rogersville","MO","HSBC Pavilion & Sand Volleyball Court","not_available","65802",37.214591,-93.221099
"65742","Rogersville","MO","ATA Martial Arts of Springfield","3536 E Sunshine St","65809",37.1772,-93.221882
"65742","Rogersville","MO","miracle league park","not_available","65809",37.16327322684439,-93.21805691105715
"65746","Seymour","MO","SMORR","not_available","65746",37.124814880718745,-92.70776799941417
"65747","Shell Knob","MO","Shell Knob Park","not_available","65747",36.612459479502526,-93.59588098058008
"65757","Strafford","MO","Croxdale City Park","Strafford,MO,65757","65757",37.2683802,-93.1171264
"65757","Strafford","MO","Splashpark","not_available","65757",37.264776,-93.108847
"65770","Walnut Grove","MO","Jackson Street Park","not_available","65781",37.30761762853668,-93.43487962174237
"65775","West Plains","MO","Heart Of The Ozarks Fairgrounds","not_available","65775",36.76404117552073,-91.87767042267002
"65775","West Plains","MO","Butler Park","1158 West Broadway Street","65775",36.72788170189464,-91.88521723312637
"65779","Wheatland","MO","Outlet Park","254 Hwy","65668",37.931666666666665,-93.40194444444445
"65781","Willard","MO","Ritter Springs Park","3683 W Farm Road 92","65803",37.2770881652832,-93.34699249267578
"65785","Stockton","MO","City Park","North Street","65785",37.70016695581699,-93.79675561561669
"65786","Macks Creek","MO","Macks Creek Park","Upper Prairie Hollow Road, Macks Creek, MO 65786","65786",37.97124125765828,-92.95940802352726
"65802","Springfield","MO","Phelps Grove Park","950 East Bennett St","65807",37.18947899058169,-93.28317715807711
"65802","Springfield","MO","Rutledge-Wilson Farm Park","3825 W Farm Road 146","65802",37.19118400188153,-93.36029008513695
"65802","Springfield","MO","Nathanael Greene Park","2400 S Scenic Ave","65807",37.171533746698856,-93.33001613616943
"65802","Springfield","MO","Giraffe Deck","not_available","65803",37.25514659919003,-93.30484414773376
"65802","Springfield","MO","Jordan Valley Park","635 E Trafficway St","65806",37.210822840532636,-93.28332947861674
"65802","Springfield","MO","Fassnight Park","700 W Meadowmere","not_available",37.191330776854876,-93.29877376556396
"65802","Springfield","MO","Washington Park","1600 N. Summit Ave.","65803",37.22796718555144,-93.28299535676253
"65802","Springfield","MO","Springfield-Greene County Park Board","1923 N Weller Ave","65803",37.2328337,-93.268188
"65802","Springfield","MO","Meador Park","2500 S Fremont Ave.","65804",37.166662329245966,-93.26908218777164
"65802","Springfield","MO","R. Lee McDaniel Park","2405 S National Ave","65807",37.16933660617968,-93.27948331832886
"65802","Springfield","MO","Cooper Tennis Complex","2331 E Pythian St","65802",37.219568,-93.249781
"65802","Springfield","MO","Max & Una Lilley Park","W. Chestnut Expy.","65802",37.21071425888243,-93.35826775506187
"65802","Springfield","MO","Kensington Park","Kansas Expressway","65807",37.190303118622666,-93.31600345661082
"65802","Springfield","MO","outside of the inside","not_available","65806",37.19713668221185,-93.31502243833746
"65802","Springfield","MO","Nichols Park","1925 W Nichols St","65802",37.216674,-93.317947
"65802","Springfield","MO","Courtyard @ Columns IV","not_available","65804",37.183892180139416,-93.25402878139938
"65803","Springfield","MO","Doling Park","301 E Talmage St","65803",37.24661917790862,-93.29043993512344
"65803","Springfield","MO","Smith Park","1536 E Division St","65803",37.224849700927734,-93.26885223388672
"65803","Springfield","MO","Watershed Center","2450 E Valley Water Mill Rd","65803",37.263465881347656,-93.24671173095703
"65804","Springfield","MO","Cowden Park","not_available","65807",37.161492361006935,-93.2865578026907
"65804","Springfield","MO","Sequiota Park","3500 S Lone Pine Ave","65804",37.14787418026126,-93.23829273624686
"65804","Springfield","MO","Burrell Park","1252 E Bradford Parkway","65804",37.14505651185329,-93.275964585627
"65804","Springfield","MO","Washers Wargrounds","2641-2699 E Mimosa St","65804",37.15437335,-93.24168215
"65804","Springfield","MO","Springfield Conservation Nature Center","4600 S Chrisman Ave","65804",37.12918758717691,-93.23988329493702
"65804","Springfield","MO","Gillenwaters Park & Tennis Complex","Jefferson","65807",37.148856157200264,-93.29164886444646
"65804","Springfield","MO","Living Memorial Park","4405 S. Nature Center Way","65804",37.134066722891156,-93.24680577391928
"65804","Springfield","MO","Miles Park","2300 E. Cherry Street","65802",37.20216258857125,-93.25481939970409
"65804","Springfield","MO","Jenny Lincoln Park","700-770 South Ave","65806",37.201694096816716,-93.29103456736637
"65806","Springfield","MO","Founders Park","330 E. Water St.","65804",37.211032652399965,-93.29003257089077
"65806","Springfield","MO","Jubilee Park","Springfield,MO,65806","65806",37.20905291588136,-93.29205676195924
"65807","Springfield","MO","Sanford Park","3100 S Franklin Ave","65807",37.15806579589844,-93.30677795410156
"65807","Springfield","MO","Chesterfield Family Center","2511 W Republic Rd","65807",37.139168136070445,-93.32909987628585
"65807","Springfield","MO","Chesterfield Park","S Scenic","65807",37.139618676070135,-93.32592407891485
