"zip","city","state","name","address","postalCode","lat","lon"
"30002","Avondale Estates","GA","Avondale Lake & Bess Walking Park","105 Berkeley Rd","30002",33.768739310752174,-84.2661175490801
"30002","Avondale Estates","GA","Midway Park","not_available","30032",33.761493696937244,-84.25157997554413
"30002","Avondale Estates","GA","Cedar Park","3165 Cedar Street","30002",33.78472900390625,-84.260009765625
"30002","Avondale Estates","GA","Stone Mountain Trail Park at Avondale Estates","Stone Mountain Trail","30002",33.779753730545956,-84.26642417907715
"30002","Avondale Estates","GA","Avondale Park","not_available","30002",33.770045,-84.269903
"30002","Avondale Estates","GA","John Fletcher Park","Lakeshore Drive","30002",33.7644,-84.2622
"30002","Avondale Estates","GA","Willis Park","51 Dartmouth Avenue","30002",33.77054977416992,-84.26993560791016
"30004","Alpharetta","GA","Fowler Park","4110 Carolene Way","30040",34.15125632198797,-84.21357035972417
"30004","Alpharetta","GA","Midway Park","5100 Post Rd","not_available",34.20257127393572,-84.21754877417062
"30004","Alpharetta","GA","Alpharetta North Park","13450 Cogburn Rd","30004",34.11130014421484,-84.28257080675014
"30004","Alpharetta","GA","Greenway Trailhead Marconi Drive","Marconi Drive","30005",34.08408158838208,-84.24728499216639
"30004","Alpharetta","GA","Providence Park","not_available","30004",34.108242,-84.30112
"30004","Alpharetta","GA","Brooke Street Park","Academy Street","30004",34.07537577952426,-84.29300083969899
"30004","Alpharetta","GA","Union Hill Park","not_available","30005",34.09368748685065,-84.23374921441089
"30004","Alpharetta","GA","Alpharetta North Park - Field 3","not_available","not_available",34.112729638688016,-84.28237545104659
"30004","Alpharetta","GA","Wexford Playground","not_available","30075",34.07427215576172,-84.37381744384766
"30004","Alpharetta","GA","Freedom Park","Deerfield Pkwy","30004",34.09763981368429,-84.26512506633165
"30004","Alpharetta","GA","Hyde Park Subdivision","Hyde Dr","30040",34.225691831545944,-84.25077245469674
"30004","Alpharetta","GA","Broadwell Pavilion","Broadwell Road","30004",34.087227,-84.33954
"30004","Alpharetta","GA","Silos Park","Crabapple Rd","not_available",34.08380107155366,-84.35607433319092
"30004","Alpharetta","GA","Old Rucker Park & Farm","910 Rucker Rd","30004",34.07722091674805,-84.3344955444336
"30004","Alpharetta","GA","Outpost 1","1077 Bream Drive","30004",34.16998518451599,-84.32779312133789
"30004","Alpharetta","GA","Fieldstone Playground","not_available","30040",34.20690006668718,-84.22242814585992
"30005","Alpharetta","GA","Webb Bridge Park","Webb Bridge Road","not_available",34.06735538699571,-84.21856263559265
"30005","Alpharetta","GA","Caney Creek Preserve","3055 Caney Road","30041",34.09966462162414,-84.18592001104089
"30005","Alpharetta","GA","Leadership Johns Creek Fitness Trail","11555 Medlock Bridge Rd","30097",34.061920166015625,-84.1707763671875
"30005","Alpharetta","GA","Deer Lake Tot Lot","not_available","30041",34.076775,-84.173072
"30005","Alpharetta","GA","The Green at Seven Oaks","Seven Oaks Parkway","30005",34.07494576750396,-84.19114114534389
"30008","Marietta","GA","Jim R Miller Park","2245 Callaway Rd SW","30008",33.899157977873244,-84.59172004651366
"30008","Marietta","GA","Mud Creek Soccer Complex","5600 Ernest Barrett Parkway","30127",33.89327303924785,-84.63573397714256
"30008","Marietta","GA","Tumlin Park at Hickory Hills","not_available","30064",33.934773020714466,-84.56363832445822
"30008","Marietta","GA","Fair Oaks Recreation Center","1465 W Booth Road Ext SW","30008",33.91780270826164,-84.56414956832513
"30008","Marietta","GA","KARC/ARC HAMFEST","Jim R Miller Park","not_available",33.89785764210564,-84.59047735545987
"30008","Marietta","GA","Hurt Rd Park.","3601 Kelsey Chase Ct","30060",33.865833,-84.583334
"30008","Marietta","GA","MILFORD PK.","855 Winfield Ct SW","30060",33.878382,-84.578123
"30008","Marietta","GA","Tiffany dr","Tiffany Dr","30008",33.884489103382464,-84.61507562908791
"30008","Marietta","GA","A's Lake & Park","1400 Velvet Creek Trace","30008",33.871493339538574,-84.59518790245056
"30008","Marietta","GA","North Georgia State Fair","not_available","30008",33.9077283752585,-84.58184426367553
"30009","Alpharetta","GA","Wills Park","11925 Wills Rd","30009",34.072501417887516,-84.31043325184416
"30009","Alpharetta","GA","Hembree Park","850 Hembree Rd","30076",34.062694449885015,-84.33587372076938
"30009","Alpharetta","GA","Alpharetta Greenway Northpoint","6800 N Point Pkwy","30022",34.04439391067304,-84.28444721695806
"30009","Alpharetta","GA","Alpharetta Community Center","175 Roswell St","30009",34.07098229652864,-84.30064817111473
"30009","Alpharetta","GA","Dotsie Garner Mills Park","not_available","30076",34.046997352835476,-84.32359153168667
"30009","Alpharetta","GA","Nature Walk","Cranberry Trail","30076",34.03366,-84.293913
"30009","Alpharetta","GA","Alpharetta Recreation & Parks Administrative Office","1825 Old Milton Pkwy","30009",34.072639,-84.305311
"30011","Auburn","GA","Little Mulberry Park","3900 Hog Mountain Rd","30019",34.05417856934171,-83.88553230290388
"30011","Auburn","GA","Duncan Creek Park","3700 Braselton Hwy, Dacula, GA 30019","30019",34.07137028426784,-83.90313400720855
"30011","Auburn","GA","Duncan Creek Park Lacrosse Field","3700 Braselton Highway","30019",34.07271194458008,-83.90409851074219
"30011","Auburn","GA","Little Mulberry Park","3855 Fence Rd.","30019",34.03718488081577,-83.87684874236584
"30011","Auburn","GA","Dacula Park","205 Dacula Rd","30044",33.994410276670024,-83.89705564027022
"30011","Auburn","GA","Little mulberry park","Harbins rd.","not_available",33.972515,-83.846318
"30011","Auburn","GA","Dacula Park Field 2","not_available","30019",33.99446885297754,-83.8965692926191
"30011","Auburn","GA","The Pond Trail - Little Mulberry Park","Fence Rd.","30019",34.039102122156216,-83.87723643665122
"30011","Auburn","GA","Shackleford memorial park","Browns Bridge Rd","30011",33.988521575927734,-83.84370422363281
"30012","Conyers","GA","Georgia International Horse Park","1996 Centennial Olympic Pkwy NE","30013",33.66430165365209,-83.9346427636995
"30012","Conyers","GA","Pine Log Park","1451 Pine Log Rd NE","30012",33.662654775865796,-83.99827138971862
"30012","Conyers","GA","Wonderworks","not_available","30012",33.705372,-83.992851
"30012","Conyers","GA","Winsley","not_available","30038",33.68870855755721,-84.08358371808576
"30012","Conyers","GA","Parker Rd Park","Parker rd","not_available",33.65632894260862,-84.00268241087433
"30013","Conyers","GA","Costley mill park","not_available","30013",33.70251900429069,-83.93023198574917
"30013","Conyers","GA","Earl O'Neal Park","2709 Old Covington Rd NE","30013",33.63534942938503,-83.95258767409825
"30013","Conyers","GA","Brisco Pavillion","not_available","30016",33.55924987792969,-83.9423828125
"30014","Covington","GA","Walk Of Heroes At Black Shoals Lake","not_available","30054",33.72389602661133,-83.908203125
"30014","Covington","GA","Chimney Park","not_available","30014",33.58679149555243,-83.84344625002541
"30014","Covington","GA","Orchard Park","Orchard Drive","30014",33.63989225837064,-83.83207652745001
"30014","Covington","GA","Newton County Recreational Center","6199-6229 Turner Lake Rd NW","30014",33.600781520228836,-83.88632405184303
"30014","Covington","GA","B.C. Crowell Park","Hwy 81","30014",33.57365,-83.89623
"30016","Covington","GA","Denny Dobbs Park","Hwy 212","30016",33.52795573023989,-84.00469670513306
"30017","Grayson","GA","Alexander Park","800 Old Snellville Hwy","30044",33.91681106243809,-84.00628743391182
"30017","Grayson","GA","Grayson Park","475 Grayson Pkwy","30017",33.89407009391914,-83.95919354649497
"30017","Grayson","GA","Bay Creek Park","175 Ozora Road","30052",33.883318820448835,-83.92270759128164
"30017","Grayson","GA","Rick And Laury's Wedding","not_available","30017",33.882574,-83.958324
"30017","Grayson","GA","Vine's Botanical Gardens","3500 Oak Grove Rd","30052",33.86160493166452,-83.9238953590393
"30019","Dacula","GA","Tribble Mill Park","2125 Tribble Mill Parkway","30045",33.90964559696677,-83.90833885678674
"30019","Dacula","GA","Rabbit Hill Park","400 Rabbit Hill Rd.","30019",33.99906073016043,-83.92784806820342
"30019","Dacula","GA","Harbins Park","2995 Luke Edwards Road","30019",33.91030425653295,-83.85259063959826
"30019","Dacula","GA","Freeman's Mill Park","1401 Alcovy Road","30045",33.96338495936024,-83.92474004477596
"30021","Clarkston","GA","Milam Park","Norman road","not_available",33.80635896596924,-84.24720096127393
"30021","Clarkston","GA","Friendship Forest Wildlife Sanctuary","4380 E Ponce De Leon Ave","30021",33.81574249267578,-84.23640441894531
"30021","Clarkston","GA","Milam Dog Park","Norman Road","30021",33.80597816868535,-84.23164653992467
"30021","Clarkston","GA","Montreal Park","not_available","30084",33.82555629054031,-84.24587177318794
"30021","Clarkston","GA","Lantern Ridge Dog Park","not_available","30021",33.793634637445514,-84.24867726800555
"30021","Clarkston","GA","Tobie Grant","N Decatur Road","not_available",33.79350342772199,-84.25385176844858
"30021","Clarkston","GA","Stoneview Park","800 Holly Hedge Road","30083",33.80104446411133,-84.22905731201172
"30021","Clarkston","GA","Parc 1000","1000 Montral Road","30021",33.814247131347656,-84.24401092529297
"30022","Alpharetta","GA","Jones Bridge Park","4901 East Jones Bridge","30092",33.99637833571806,-84.22663843256082
"30022","Alpharetta","GA","Newtown Park","Old Alabama Rd","30022",34.0193721352679,-84.26719665527344
"30022","Alpharetta","GA","Ocee Park","10900 Buice Rd","30022",34.047106083172395,-84.23977772167774
"30022","Alpharetta","GA","East Roswell Park","9000 Fouts Rd","30076",34.001079305269016,-84.29725663011499
"30022","Alpharetta","GA","Simpsonwood Park","4511 Jones Bridge Cir","30092",33.985191345214844,-84.24662017822266
"30022","Alpharetta","GA","Country Club Of The South Clubhouse","4100 Old Alabama Rd","30022",34.01605069194812,-84.24046576023102
"30022","Alpharetta","GA","Holcomb Bridge Rd. Entrance Area","Martin Landing Pl.","30076",34.01320935416946,-84.30817008018494
"30022","Alpharetta","GA","Peachtree Corners Town Green","not_available","30092",33.97918,-84.21367
"30022","Alpharetta","GA","Garrard Landing Park","8000 Holcomb Bridge Road","not_available",33.97424348333333,-84.26526921
"30022","Alpharetta","GA","Medlock Bridge Chattahoochee River National Recreation Area","not_available","30097",33.99595007358233,-84.20244689201478
"30022","Alpharetta","GA","Chattahoochee River Environmental Educational Center","not_available","30022",33.98977875709534,-84.258249
"30022","Alpharetta","GA","The Climbing Tree Circle","Foal Drive","30076",33.992378867209055,-84.29115951061249
"30022","Alpharetta","GA","Johns Creek Farmer's Market","3150 Old Alabama Road","30022",34.02105712890625,-84.26702880859375
"30024","Suwanee","GA","Rogers Bridge Park","4291 Rogers Bridge Rd","30097",34.02859547026058,-84.14100152660535
"30024","Suwanee","GA","E.E Robinson Park","755 Level Creek Rd","not_available",34.09648017579357,-84.04414273554585
"30024","Suwanee","GA","Rock Springs Park","550 Rock Springs Rd","30024",34.0406060297112,-84.02017871610492
"30024","Suwanee","GA","Sharon Springs Park","1950 Sharon Rd","30041",34.11657228409111,-84.16413977864602
"30024","Suwanee","GA","Bunten Road Park","3180 Bunten Rd","30096",34.00076994869707,-84.12083909668017
"30024","Suwanee","GA","George Pierce Park","55 Highway 23 NE","30024",34.05999878315492,-84.05462465867818
"30024","Suwanee","GA","Sims Lake Park","Suwanee Dam Rd","not_available",34.0747626464391,-84.07514456310363
"30024","Suwanee","GA","Suwanee Creek Park","1170 Buford Hwy","30024",34.0354392917835,-84.08326907638882
"30024","Suwanee","GA","Chattahoochee Pointe","5790 Chattahoochee Pointe Drive","30097",34.06561872450923,-84.13012504577637
"30024","Suwanee","GA","Settles Bridge Park","380 Johnson Rd","30024",34.095522808813634,-84.0940639597126
"30024","Suwanee","GA","Level Creek Park","not_available","30518",34.089794,-84.047844
"30024","Suwanee","GA","Peachtree Ridge Park","3180 Suwanee Creek Drive","not_available",34.017336597975444,-84.07998329379244
"30024","Suwanee","GA","Collins Hill Park","2200 Collins Hill Rd","30043",34.015863577020454,-84.0164920185709
"30024","Suwanee","GA","Suwanee Town Center Fountains","Town Center Ave","30024",34.05605768381933,-84.06452688526674
"30024","Suwanee","GA","Chattahoochee River National Recreation Area - Settles Bridge","not_available","30024",34.098313844903295,-84.10867239884811
"30024","Suwanee","GA","Duluth Festival Center","not_available","30096",34.002690865894536,-84.14630901706958
"30024","Suwanee","GA","Scapes N Stones","1310 Compton Way","30024",34.113023,-84.11732099999999
"30024","Suwanee","GA","Laurel Springs ""Park Of Dreams""","5555 Laurel Oak Drive","30024",34.099333884449905,-84.14273810666181
"30025","Social Circle","GA","South Walton Park","550 Fairplay Dr NE","30025",33.660343170166016,-83.70577239990234
"30025","Social Circle","GA","Historic Rutledge Park","not_available","30663",33.62691586571421,-83.61230197303304
"30025","Social Circle","GA","Indian Creek Park","Fears Rd","30663",33.60120155183629,-83.59470008424823
"30028","Cumming","GA","Central Park","2300 Keith Bridge Rd","30040",34.24542589972708,-84.1026654743282
"30028","Cumming","GA","Sawnee Mountain Park","3995 Watson Rd","30028",34.25776045701768,-84.21595332285375
"30028","Cumming","GA","Coal Mountain Park","3560 Settingdown Road","30028",34.27131281065344,-84.0900412476125
"30028","Cumming","GA","Poole's Mill Covered Bridge","not_available","30107",34.29534562604163,-84.24326112838828
"30028","Cumming","GA","Pooles Mill Park","7725 Pooles Mill Dr","not_available",34.289828157108886,-84.24223165998013
"30028","Cumming","GA","Ducktown","5895 Heardsville Road","30028",34.2590402893496,-84.24133810178783
"30028","Cumming","GA","Eagles Beak Park","not_available","30028",34.312975,-84.230569
"30030","Decatur","GA","Hidden Cove Park","758 Scott Blvd","30030",33.78444828975523,-84.30794615750177
"30030","Decatur","GA","Glenlake Park","1211 Church St","30030",33.78401934182929,-84.29193170427254
"30030","Decatur","GA","McKoy Park","534 McKoy Street","30030",33.757412793448026,-84.29882420543237
"30030","Decatur","GA","Oakhurst Park","not_available","30030",33.76091558295886,-84.30690298562027
"30030","Decatur","GA","Deerborn Park","1301 Deerwood Dr","30030",33.75618860179817,-84.28659087878728
"30030","Decatur","GA","Griffin Park / Rev. Roy Moss Sr. Gardens","918 S. McDonough Street","30030",33.757777934683396,-84.2955207824707
"30030","Decatur","GA","Rutledge Park","1812 Ridgewood Dr NE","30307",33.7872428894043,-84.31723022460938
"30030","Decatur","GA","Marshall Street Park","Marshall St","30030",33.77658346344255,-84.29810106754303
"30030","Decatur","GA","Path Trail - Oakhurst","Green St","30030",33.762566401126406,-84.29258449598184
"30030","Decatur","GA","Kirkwood Park","2000-2056 Ridgedale Rd NE","30317",33.75366781725483,-84.32026241896573
"30030","Decatur","GA","Harmony Park","Oakview Rd at E Lake Dr","30030-3262",33.76001228019007,-84.3034343620948
"30030","Decatur","GA","Citronella Verdana","not_available","30079",33.788701826101885,-84.26662149770974
"30030","Decatur","GA","Hawk Hollow","2304 1st Ave.","30317",33.75484848022461,-84.31190490722656
"30030","Decatur","GA","Scott Park","231 Sycamore St","30030",33.77341842651367,-84.29338073730469
"30032","Decatur","GA","East Lake Park","Memorial Drive SE","30317",33.74643037232349,-84.29979556737733
"30032","Decatur","GA","Barker Bryant Memorial Park","2300 McAfee Road","30032",33.732586867951866,-84.2952110105097
"30032","Decatur","GA","Arbor Park","not_available","30317",33.7452006114791,-84.30370141244457
"30032","Decatur","GA","McAfee-Starmount Park","2100 McAfee Rd","30032",33.733048428775824,-84.30371761322021
"30032","Decatur","GA","Lou Walker Park","3569 Larkspur Terrace","30032",33.739288330078125,-84.24336242675781
"30033","Decatur","GA","Medlock Park","Scott Cir","30033",33.80299818387322,-84.295863766138
"30033","Decatur","GA","Mason Mill Park","1340 McConnell Dr","30033",33.80777670714474,-84.30681028706776
"30033","Decatur","GA","Clyde Shepherd Nature Preserve","2580 Pine Bluff Dr","30033",33.80606744655158,-84.28480706967348
"30033","Decatur","GA","Mason Mill Dog Park","not_available","30033",33.80792450084889,-84.30521228874944
"30033","Decatur","GA","Lamark Park","not_available","30329",33.814032,-84.315481
"30033","Decatur","GA","Frazier-Rowe Park","2680 Lavista Road","30033",33.82216262817383,-84.30078125
"30033","Decatur","GA","Columns Cul-de-sac @ Chattahoochee","4001 Columns Dr","30033",33.809623,-84.26658
"30033","Decatur","GA","W.D. Thompson Park","Mason Mill Road","not_available",33.811877945077796,-84.31846814026672
"30034","Decatur","GA","Gresham Park","not_available","30316",33.69741903410325,-84.30411767812699
"30034","Decatur","GA","Summergate Park","not_available","30034",33.69490069232464,-84.24639046869503
"30034","Decatur","GA","Fork Creek Park","River Rd","30034",33.67333676887594,-84.27451956297661
"30035","Decatur","GA","Cub's Crib","1779 Gretna Green Way","30035",33.742785,-84.228089
"30038","Lithonia","GA","Salem Road Park","Salem Rd","not_available",33.67863118606185,-84.1720926185415
"30038","Lithonia","GA","Summerlyn Park","not_available","30058",33.699953960650426,-84.15786979226145
"30038","Lithonia","GA","Panola Mountain Trailhead","5015-5089 Flat Bridge Rd SW","30281",33.632546945978596,-84.14735637508831
"30038","Lithonia","GA","Laguna East Coast","East Cost","not_available",33.7031843,-84.1292438
"30039","Snellville","GA","Yellow River Park","3062 Juhan Road SW","30058",33.791789216634164,-84.07202342772449
"30039","Snellville","GA","T.W. Briscoe Park","2500 Sawyer Pkwy","30078",33.84211856471391,-84.0095329284668
"30039","Snellville","GA","Park","not_available","30047",33.84733581542969,-84.08308410644531
"30039","Snellville","GA","Lenora Park Football Stadium","not_available","30039",33.79313906981469,-83.99905134767339
"30040","Cumming","GA","Mary Alice Park","Mary Alice Park Rd.","30040",34.19939365936585,-84.09815344194523
"30040","Cumming","GA","Dobbs Creek Park","875 Dahlonega","not_available",34.22732728,-84.130015
"30040","Cumming","GA","Windermere Dog Park","3355 Windermere Parkway","not_available",34.130477178279214,-84.11845853542235
"30041","Cumming","GA","Buford Dam Park","Buford Dam Rd","30518",34.154169501166756,-84.06152903991581
"30041","Cumming","GA","Charleston Park","5899 Charleston Park Rd","30041",34.24721198079345,-84.0452076977565
"30041","Cumming","GA","Gary Pirkle Park","6195 Austin Garner Rd","30518",34.132116679344236,-84.06520279887893
"30041","Cumming","GA","West Bank Turnout","3256-3298 Buford Dam Rd","30041",34.1650986867958,-84.07575329468014
"30041","Cumming","GA","Lower Pool East","Powerhouse Rd","30518",34.15930176414797,-84.07318419938657
"30043","Lawrenceville","GA","Rhodes Jordan Park","100 E Crogan St","30046",33.96226258287948,-83.9806079864502
"30043","Lawrenceville","GA","Grove Park","Hortense Street","not_available",33.967773357902196,-84.01542298813709
"30043","Lawrenceville","GA","Chandler pond","not_available","30043",34.011239486571945,-84.00224338915929
"30043","Lawrenceville","GA","Suwanee Station Tennis Courts","Lake Point Way","30024",34.04006913360535,-84.09060430158581
"30043","Lawrenceville","GA","Burnett Pavilion","Main Street","30024",34.051224,-84.074348
"30043","Lawrenceville","GA","Rhodes Jordan Park Community Center","not_available","30045",33.965796634784,-83.97637166587107
"30043","Lawrenceville","GA","Training Run","Omie way","30043",33.96932774,-84.04737117
"30044","Lawrenceville","GA","Bethesda Community Park","225 Bethesda Church Rd","30044",33.90215360354934,-84.08891174559311
"30044","Lawrenceville","GA","Sweetwater Park","800 Bethesda School Rd","30044",33.93687284962761,-84.07906509965316
"30044","Lawrenceville","GA","Ronald Reagan Park at Five Forks Trickum","2777 Five Forks Trickum Rd.","30044",33.89403290710835,-84.055739320655
"30044","Lawrenceville","GA","Club Drive Park","3330 Club Dr","30044",33.94130389823786,-84.1101586818695
"30044","Lawrenceville","GA","Fun Forest","1630 Pleasant Hill Rd","30096",33.94651826227712,-84.12310020819764
"30044","Lawrenceville","GA","Bartow Jenkins Park","not_available","Georgia",33.94360202863771,-84.0070001495261
"30044","Lawrenceville","GA","1st Baptist Church Park","3455 Lawrenceville Hwy","30044",33.915367126464844,-84.0975341796875
"30044","Lawrenceville","GA","CLUB DRIVE PARK","not_available","30044",33.935510838468204,-84.11731822468329
"30044","Lawrenceville","GA","Sweetwater Playground","2659 Summerfield Way","30044",33.935752,-84.077809
"30044","Lawrenceville","GA","The Big Purple Mango Tree","pleasant oaks drive","30044",33.934603604677655,-84.12226182106649
"30045","Lawrenceville","GA","Downtown Lawrenceville","not_available","30046",33.95637,-83.988742
"30045","Lawrenceville","GA","Yoga Pn The Lawn @ Isaac Adair House","Downtown Lawrenceville","30046",33.956085,-83.98605
"30047","Lilburn","GA","Lilburn City Park","1 Main St","30047",33.88575992121578,-84.13330407161098
"30047","Lilburn","GA","Stone Mountain Park","1000 Robert E. Lee Dr.","30083",33.811935328649334,-84.14733439077375
"30047","Lilburn","GA","Camp Creek Greenway Trail","76 Main St NW","30047",33.88575869809063,-84.13332103005163
"30047","Lilburn","GA","Summit Skyride","Stone Mountain Park","30083",33.811438348437854,-84.14208478685538
"30047","Lilburn","GA","Almost To The Top Of Stone Mountain","not_available","30083",33.80712291093384,-84.14933781214374
"30047","Lilburn","GA","Smoke Rise Park","5623 Hugh Howell Rd","30087",33.83662414550781,-84.16287231445312
"30047","Lilburn","GA","Mountain Park Park","5 Forks Trickum Rd.","30047",33.84715531054015,-84.11918436404737
"30047","Lilburn","GA","Snow Mountain","5368 E Mountain St","30083",33.818662345737,-84.14471681917823
"30047","Lilburn","GA","SRAA Park","2593 Rockwood Way","30087",33.808363,-84.10701999999999
"30047","Lilburn","GA","Camp Creek Restoration Project Trail","Lilburn City Park","30047",33.887691020795145,-84.13327133278875
"30047","Lilburn","GA","Blue Rooster @ Country Living Fair South","stone mountain","30087",33.817455,-84.14785
"30047","Lilburn","GA","Yellow River Post Office Park","3524 5 Forks Trickum","30047",33.875496475110275,-84.07299847741946
"30052","Loganville","GA","Swingin'","Bullock Tr.","30052",33.87258,-83.82838
"30052","Loganville","GA","Meridian Park","HWY 81","not_available",33.82411592902786,-83.8766930001669
"30052","Loganville","GA","Bluesprings Youth Soccer Association","Center Hill Church Rd","30052",33.778084158485306,-83.86089501151639
"30052","Loganville","GA","Jingle Jog For Autism","Chicamauga Ct","30052",33.8261892,-83.8698656
"30052","Loganville","GA","Destination Park","Harrison Rd","30052",33.83384620318002,-83.92109308492539
"30055","Mansfield","GA","Charlie Elliott Wildlife Center","543 Elliott Trl","30055",33.46764373779297,-83.73589324951172
"30055","Mansfield","GA","New Town Park","not_available","30056",33.51675190878186,-83.69552422957342
"30055","Mansfield","GA","Beaver Park","not_available","30055",33.521066523800926,-83.72604378612611
"30058","Lithonia","GA","Wade-Walker Park","5585 Rockbridge Rd","30088",33.78192959843068,-84.16377067565918
"30058","Lithonia","GA","Redan Park","1745 Phillips Rd","not_available",33.740360200855676,-84.13357540589897
"30060","Marietta","GA","Smyrna Village Green","200 Village Green Cir SE","30080",33.880123645213146,-84.51722875953277
"30060","Marietta","GA","Tolleson Park","King springs rd","30080",33.86804289983102,-84.52208320879205
"30060","Marietta","GA","Glover Park","Park Square","not_available",33.95270054519283,-84.54959571361542
"30060","Marietta","GA","durham park","not_available","30080",33.882481337017026,-84.50813290167113
"30060","Marietta","GA","Laurel Park","151 Manning Rd SW","30064",33.948570093911584,-84.5726062496998
"30060","Marietta","GA","Merrit Park Playground","1261 Andrews Dr","30062",33.963756133492595,-84.51474061502421
"30060","Marietta","GA","Whitaker Park","Scufflegrit Rd","30062",33.990756878479985,-84.50716151435363
"30060","Marietta","GA","Tolleson Softball Park","3515 McCauley Road SE","30080",33.867748376207246,-84.52158656322308
"30060","Marietta","GA","Kennesaw Mountain Old 41 Parking Lot","Old Hwy 41","30152",33.98532250663177,-84.58254453505884
"30060","Marietta","GA","Sewell Park","2085 Lower Roswell Rd","30068",33.95234599020388,-84.487937902055
"30060","Marietta","GA","Piedmont Bend Swim/Tennis/Park","1831 Chondra Dr.","30062",33.99042510986328,-84.49247741699219
"30060","Marietta","GA","Rebel Ridge Park","1073 Soaring Way","30062",33.97434675569344,-84.51112286353695
"30060","Marietta","GA","Taylor-Brawner Park","3180 Atlanta Rd SE","30080",33.874979713805246,-84.50653670685368
"30060","Marietta","GA","Larry Bell Park","not_available","30060",33.941082961925275,-84.5369601311897
"30060","Marietta","GA","Monarch Park","268 Kennesaw Ave NW","30060",33.958404541015625,-84.55217742919922
"30062","Marietta","GA","East Cobb Park","3322 Roswell Rd","30062",33.97814843336897,-84.45292688200911
"30062","Marietta","GA","Noonday Creek Park","Noonday Creek Park","30144",34.061717298505435,-84.5373842393726
"30062","Marietta","GA","Fullers Park","3499 Robinson Rd NE","30068",33.9732425627463,-84.45313192572512
"30062","Marietta","GA","Harrison Park","2653 Shallowford Rd","30066",34.04236167611724,-84.47067588178926
"30062","Marietta","GA","Aviation Park Kennesaw","not_available","30144",34.012142,-84.57824
"30062","Marietta","GA","Hudson Pond","Hudson Pond Lane","30062",34.02823,-84.463283
"30062","Marietta","GA","Mabry Park","not_available","30062",34.057007,-84.43099
"30062","Marietta","GA","Bells Ferry Park","Ingram Pkwy","not_available",34.00731770617725,-84.5420376868337
"30062","Marietta","GA","United Quest Park","605 Hawkins Store Rd NE","30144",34.05151748313403,-84.52768425833949
"30062","Marietta","GA","Sandy Plains Softball Assoc.","2985 Gordy Pkwy","30066",34.0401496887207,-84.46186065673828
"30062","Marietta","GA","Noonday Creek","Chastain Meadows","not_available",34.021684174376745,-84.5522403717041
"30062","Marietta","GA","Shaw Park","900 Shaw Park Rd","30066",34.023724220491225,-84.52077606798282
"30062","Marietta","GA","Roswell Park","Roswell Rd, Marietta, GA","30062",33.97912251326942,-84.44608313624276
"30062","Marietta","GA","Shaw Park - Clubhouse","not_available","30066",34.023732302464424,-84.52076846870396
"30062","Marietta","GA","Ebenezer Downs Park","4076 Ebenezer Rd","30066",34.047592,-84.524114
"30062","Marietta","GA","Sewell Mill Water Park","2085 Lower Roswell Rd","30067",33.953952,-84.489715
"30064","Marietta","GA","Lost Mountain Park","Dallas Hwy","30127",33.94204181276167,-84.69255479254485
"30064","Marietta","GA","Boots Ward Rec Center @ Lost Mountain Park","4845 Dallas Hwy","30127",33.94348446912885,-84.69225329825902
"30064","Marietta","GA","Oregon Park","145 Old Hamilton Rd NW","30064",33.95876225585034,-84.66783122283054
"30064","Marietta","GA","West Cobb Senior Center","not_available","30127",33.942509745209726,-84.69514805760477
"30064","Marietta","GA","Swap My Whip 2nd Sunday Cruise-In","4845 Dallas Hwy, Powder Springs, GA 30127","30127",33.94358825683594,-84.6928939819336
"30064","Marietta","GA","McNeel Alley","McNeel Alley NE","30060",33.95312339780794,-84.55080262500968
"30064","Marietta","GA","Bentley Park","not_available","30082",33.854005965267646,-84.55631531239055
"30064","Marietta","GA","Henry Memorial park","Wright st","not_available",33.94702099046441,-84.55486268213083
"30066","Marietta","GA","Shiloh Valley - Latimer Park","1924 Shiloh Valley Trl NW","30144",33.9979362487793,-84.56441497802734
"30067","Marietta","GA","Chattahoochee Nature Trails & Park","152-168 Columns Dr","30067",33.92150513842686,-84.43935109379494
"30067","Marietta","GA","Cochran Shoals - Chattahoochee River","Eugene Gunby Rd","30328",33.90303988249374,-84.44468379020691
"30067","Marietta","GA","Chattahoochee Trail","Riverbend Club Dr","30339",33.90215609909512,-84.44462200831653
"30067","Marietta","GA","Terrell Mill Park","480 Terrell Mill Rd SE","30067",33.939072348864386,-84.46275792002307
"30067","Marietta","GA","Club 1934","not_available","30339",33.897833,-84.446347
"30067","Marietta","GA","Cochran Shoals at Columns Dr","not_available","30067",33.92135823401997,-84.4395094169495
"30067","Marietta","GA","Parkwood Place Tennis","1250 Parkwood Cir SE","30339",33.9024543762207,-84.46151733398438
"30067","Marietta","GA","Interstate North Park","2270 Interstate North Pkwy SE","30339",33.90018028590734,-84.46731408200961
"30067","Marietta","GA","Powers Island Park - Chattahoochee River","Riveredge Ln NW","30328",33.903453702567134,-84.44389399413879
"30067","Marietta","GA","Merritt Park","501 Wallace Road","30062",33.96379852294922,-84.51534271240234
"30067","Marietta","GA","River Park @ WOTC","6640 Akers Mill Rd SE","30339",33.89762710481045,-84.4453317290348
"30067","Marietta","GA","Parkway Place Park","1852 Parkway Place","30067",33.93847429818857,-84.50445738072231
"30067","Marietta","GA","Weatherstone Green","not_available","30068",33.95234683323955,-84.48790207210575
"30067","Marietta","GA","19th Century Village","1269 Barclay Cir SE","30060",33.931881233333336,-84.51611689
"30068","Marietta","GA","Morgan Falls Overlook Park","200 Morgan Falls Rd","30350",33.97092030490494,-84.37959843304523
"30068","Marietta","GA","Willeo Park","Willeo Rd","30075",33.994550015163966,-84.38568003875471
"30068","Marietta","GA","Abernathy Park","314-318 River Valley Rd","30328",33.94242009596075,-84.38184008056147
"30068","Marietta","GA","Willow Point Park","Willow Point Pkwy","30068",33.98249435424805,-84.39502716064453
"30071","Norcross","GA","Lillian Webb Park","College St","30071",33.9414274202212,-84.21157847956928
"30071","Norcross","GA","Thrasher Park","1-9 Thrasher St NW","30071",33.943187186886114,-84.21362182861512
"30071","Norcross","GA","Pinckneyville Park","4758 S Old Peachtree Rd","30071",33.96488215554109,-84.18801057906452
"30071","Norcross","GA","Pinnacle Park","250 Pinnacle Way","30071",33.92971420288086,-84.18463897705078
"30071","Norcross","GA","Pinckneyville Community Center","4650 Peachtree Industrial Blvd","30071",33.97059631347656,-84.18522644042969
"30071","Norcross","GA","Best Friend Park","not_available","30071",33.926486906094574,-84.22247381778696
"30071","Norcross","GA","Honeysuckle Park","not_available","30340",33.90741070395767,-84.2627080701479
"30071","Norcross","GA","USKG Picnic Table","3040 Northwoods Pkwy","30071",33.960142,-84.196993
"30071","Norcross","GA","Tech Park & Reps Miller","Reps Miller & Guthridge Ct","30092",33.959373235702515,-84.22086187
"30071","Norcross","GA","Recliner","not_available","30360",33.933044,-84.262672
"30075","Roswell","GA","Roswell Area Park","10495 Woodstock Rd","30075",34.0373332444537,-84.36534404754639
"30075","Roswell","GA","Chattahoochee River at Azalea Drive","Azalea Drive","30075",34.00166071647185,-84.36338603496552
"30075","Roswell","GA","Riverside Park","575 Riverside Rd","30075",34.00645851744876,-84.34691061751815
"30075","Roswell","GA","Roswell River Landing","245 Azalea Dr","30075",34.003222756544,-84.35667525445895
"30075","Roswell","GA","Azalea Park","203 Azalea Dr","30075",34.002057652376116,-84.36536417959616
"30075","Roswell","GA","Don White Memorial Park","Riverside drive","30075",34.009975,-84.332342
"30075","Roswell","GA","Grimes Bridge Park","830 Grimes Bridge Rd","30075",34.018791303032515,-84.34532377320896
"30075","Roswell","GA","Sweet Apple Park","11850 Crabapple Road","30076",34.07273455056265,-84.36067688479248
"30075","Roswell","GA","Sloan Street Park","75 Sloan Street","30075",34.01514797077196,-84.35979415799545
"30075","Roswell","GA","Waller Park Extension","160 Dobbs Drive","30075",34.02083043298755,-84.34899039745412
"30075","Roswell","GA","Mountain Park Swimming Pool","91-105 Pine St","30075",34.08490644201055,-84.41652538589878
"30075","Roswell","GA","Coleman Village Track","3013 Glendower Way","30075",34.004426,-84.387517
"30076","Roswell","GA","Outside Smoking","not_available","30350",33.989794979865394,-84.33760204509927
"30076","Roswell","GA","Community Garden","Fouts Road","30076",34.000826,-84.295634
"30076","Roswell","GA","Martin's Landing Entrance Field","9561 Martin Rd.","30076",34.01263129258932,-84.308180809021
"30078","Snellville","GA","Gwinnett Park South","2115 McGee Road","not_available",33.855326285234455,-84.03697826994818
"30078","Snellville","GA","South Gwinnett Park","McGee Road","30078",33.856240204811705,-84.03836167658258
"30080","Smyrna","GA","Rhyne Park","4145 King Springs Rd SE","not_available",33.852724529194546,-84.51479694248727
"30080","Smyrna","GA","Lake CT Park","3454 Lake Dr SE","30082",33.869266510009766,-84.53046417236328
"30080","Smyrna","GA","Cumberland UMC Playground","2375 Paces Ferry Rd SE","30080",33.86338424682617,-84.4846420288086
"30080","Smyrna","GA","River Lake Park","not_available","30126",33.8176981436993,-84.49984265078817
"30082","Smyrna","GA","Brinkley Pk.","3154 Dunn St SE","30080",33.876538000000004,-84.51645
"30082","Smyrna","GA","Heritage Park Trail","Nickajack Road","not_available",33.84020694080271,-84.54527705570307
"30083","Stone Mountain","GA","Stone Mountain Park Campground","4003 Stonewall Jackson Dr","30083",33.80295778160875,-84.12561230717739
"30083","Stone Mountain","GA","Randolph Medlock Park","810 Main St","30083",33.80044937133789,-84.16963958740234
"30083","Stone Mountain","GA","Oak Creek Park","606 Hawkeye Dr","30083",33.796071999999995,-84.21648
"30084","Tucker","GA","Henderson Park","2803 Henderson Rd","30340",33.866064805454094,-84.22861282756548
"30084","Tucker","GA","Lucky Shoals Park","4651 Britt Rd","30093",33.881702343505054,-84.19976480217396
"30084","Tucker","GA","Kelly Cofer Park","4259 N. Park Dr.","30084",33.86319720024925,-84.21443503120456
"30084","Tucker","GA","Barbeque N Play Spot","not_available","30093",33.876515,-84.195863
"30084","Tucker","GA","TFL","Lawrenceville Hwy","30084",33.864455787657434,-84.19110774993896
"30084","Tucker","GA","The Fork In The Road","E Ponce de Leon Ave","30083",33.81908873891244,-84.18434946239815
"30087","Stone Mountain","GA","DeShong Park","2859 North Deshon Rd.","30087",33.80448197433715,-84.09714785727749
"30093","Norcross","GA","Graves Park","1540 Graves Road","30093",33.897023948988185,-84.2242080362849
"30093","Norcross","GA","Harmony Grove Park","119 Harmony Grove Drive","not_available",33.86909,-84.163136
"30094","Conyers","GA","Bud Kelley Park","not_available","30252",33.540966,-84.09568
"30094","Conyers","GA","Kelleytown Bike Trails","Kelleytown Rd","30252",33.531519,-84.069141
"30094","Conyers","GA","Johnson Park","not_available","30094",33.64145856986404,-84.04325496592706
"30096","Duluth","GA","Shorty Howell Park","2750 Pleasant Hill Rd.","30096",33.9735499669423,-84.14796815571395
"30096","Duluth","GA","City Of Duluth egg hunt","Rogers Bridge Rd, Duluth, GA 30097","30097",34.02622985839844,-84.14009094238281
"30096","Duluth","GA","Epic Center","2650","30097",34.020546843012944,-84.13779619359832
"30101","Acworth","GA","Swift-Cantrell Park","3140 Old US Highway 41","30144",34.030574798163386,-84.6478132583622
"30101","Acworth","GA","Logan Farm Park","4762 Logan Rd","30101",34.068271769489606,-84.66572703317301
"30101","Acworth","GA","Adams Park","2600 Park Drive","30144",34.022611934541665,-84.62058081449862
"30101","Acworth","GA","Dallas Landing Park","5120 Allatoona Dr","30101",34.0695182605009,-84.70165112460622
"30101","Acworth","GA","Cauble Park","4425 Beach St","30101",34.06016148172456,-84.68244552612305
"30101","Acworth","GA","Mount Paran Football Field","not_available","30152",33.98558795672788,-84.6102294052362
"30101","Acworth","GA","Spreading Oaks Farm Subdivision","Spreading Oaks Drive","30101",34.02598795635977,-84.69210147857666
"30101","Acworth","GA","Kennesaw Archery Club","2586 Pitner Rd NW","30101",34.017654,-84.737613
"30101","Acworth","GA","Kennworth Park","not_available","30101",34.05008953626077,-84.66029766436641
"30101","Acworth","GA","Legacy Park - Bellingrath","Bellingrath Main NW","30144",34.05086419040705,-84.62569376302184
"30101","Acworth","GA","Camden Pointe Tennis Courts","5100 Camden Lake Pkwy NW","30101",34.00824737548828,-84.7011489868164
"30101","Acworth","GA","Operation Boot Camp","3140 Old Hwy 41","30144",34.032575,-84.631126
"30101","Acworth","GA","Park","3412 Woodstock Rd","30101",34.07824218,-84.62695915
"30101","Acworth","GA","Price Park","4715 Stilesboro Road","30152",33.996369118391435,-84.68806224531009
"30101","Acworth","GA","Cauble Park- Gate Booth","4476 Dallas St","30101",34.063507,-84.681005
"30101","Acworth","GA","Cobb County Sport Aviation Complex","2302 Pitner Rd. NW","not_available",34.013423733476515,-84.72421485014662
"30101","Acworth","GA","Legacy Park","Legacy park circle","30144",34.05543277222633,-84.63064670562744
"30101","Acworth","GA","Acworth Sports Complex","4000 South Main Street","30101",34.05043175899242,-84.66041514436844
"30102","Acworth","GA","Hobgood Park","6680 Bells Ferry Road","30189",34.130523726482025,-84.58386151325514
"30102","Acworth","GA","Patriots Park","not_available","30102",34.12011569145282,-84.59080316638311
"30102","Acworth","GA","Bartow Carver Park","Reem Rd","30102",34.14213366206419,-84.66770865078553
"30102","Acworth","GA","RTM Vaughan Log Cabin","50 Lodge Rd SE","30102",34.156288146972656,-84.70382690429688
"30102","Acworth","GA","Navy Lakesite Cabin # 8","not_available","30121",34.092259,-84.723111
"30102","Acworth","GA","Y M C A","not_available","30189",34.15265312,-84.577993
"30102","Acworth","GA","Wellsley @ Towne Lake Tennis Courts","1001 Wellsley Crest Dr","not_available",34.114604465094004,-84.57013536862597
"30102","Acworth","GA","Miller Legacy Park","164 Oak Hollow Rd SE","30121",34.11117935180664,-84.72132873535156
"30103","Adairsville","GA","Sonoraville Receration Department","Fairmount Hwy","30701",34.450249307512806,-84.8248399972394
"30103","Adairsville","GA","Manning Mill Park","163 Manning Mill Rd","not_available",34.34420559201887,-84.90386645828926
"30103","Adairsville","GA","Sittin On John Deere","not_available","30103",34.34458118176116,-84.9035002604921
"30104","Aragon","GA","Tom Pittman Recreation Center","not_available","30104",34.042033,-85.060611
"30106","Austell","GA","Louise Suggs Memorial Park","not_available","30168",33.801922251585424,-84.63741003547518
"30106","Austell","GA","Sweetwater Tennis Center","2447 Clay Rd","30106",33.83182875205912,-84.62631895402579
"30106","Austell","GA","Clarkdale Baseball Park","not_available","30106",33.83766,-84.656436
"30106","Austell","GA","City of Austell Veterans Memorial Park","2633 Veterans Memorial Hwy.","30168",33.813321,-84.629884
"30106","Austell","GA","Clarkdale Park","4095 Austell Powder Springs Rd","30601",33.83085545320964,-84.64814410675685
"30106","Austell","GA","Sweetwater Park (Softball Fields)","Clay Road","30106",33.83249981889224,-84.62636146132841
"30107","Ball Ground","GA","Cherokee Veterans Park","7345 Cumming Hwy","30115",34.250587463378906,-84.37394714355469
"30107","Ball Ground","GA","Towne Mill Park","not_available","30114",34.295714,-84.463815
"30108","Bowdon","GA","Ed Saxon Park","160 Saxon Rd","30108",33.49596405029297,-85.27941131591797
"30110","Bremen","GA","Bremen Parks and Recreation","417 River Cir Bremen","30110 ‎",33.72701663093248,-85.1363182067871
"30110","Bremen","GA","VFW PARK","GA HWY 120","30113",33.812239016666666,-85.14295655
"30110","Bremen","GA","Depot Park","not_available","30113",33.803322,-85.187771
"30110","Bremen","GA","west GA mud bogg","not_available","30176",33.721994346423756,-85.22314771687188
"30113","Buchanan","GA","Tough Mudder","985-987 Culp Lake Rd","30125",33.93414260118614,-85.35031595362852
"30114","Canton","GA","Blankets Creek Mountain Bike Park","2335 Sixes Rd","30114",34.161674454014786,-84.5392643657511
"30114","Canton","GA","Park At Hickory Manor","Wheaten Drive","30188",34.164981,-84.410297
"30114","Canton","GA","Heritage Park","Waleska St.","30114",34.24227470045952,-84.4907965164174
"30114","Canton","GA","Hickory Trails Park","3860 Hickory Road Canton","30114",34.16676330566406,-84.43879699707031
"30114","Canton","GA","Arbor View Park #2","Highlands Drive","30188",34.14095155471854,-84.50348939326932
"30114","Canton","GA","founders field","not_available","30115",34.15192794799805,-84.47398376464844
"30114","Canton","GA","Bradshaw Farm Tennis Courts","3030 Bradshaw Club Dr","30188",34.16346740722656,-84.43946075439453
"30114","Canton","GA","The Tree.(;","1009 Upper Burris Rd","30114",34.33823013305664,-84.49781036376953
"30115","Canton","GA","Brown Park - Canton","251 East Marietta Street","30114",34.23500091491141,-84.49049017307948
"30115","Canton","GA","Prominence Court Green","100 Oleander Way","30114",34.187346000000005,-84.509763
"30116","Carrollton","GA","McIntosh Reserve","1046 W McIntosh Cir","30185",33.44901657104492,-84.95379638671875
"30116","Carrollton","GA","Carroll County Veterans Memorial Park","not_available","30116",33.56692296694436,-85.04515924999603
"30116","Carrollton","GA","Hays Mill Creek","not_available","30117",33.564418414409566,-85.09227376588504
"30116","Carrollton","GA","East Carrollton Recreation Center","410 Northlake Dr","30117",33.59862477769347,-85.04573974346363
"30116","Carrollton","GA","Alice Park","Tanner Street","30116",33.57680753,-85.07368141
"30116","Carrollton","GA","Rock Gym","590 N. Cliff Street","30117",33.58539581298828,-85.0776596069336
"30116","Carrollton","GA","Longview Park and Pavilion","Longview Street","30117",33.570190517010275,-85.08835529232307
"30116","Carrollton","GA","Kramer Park","202 South St","30117",33.57466125488281,-85.08045196533203
"30116","Carrollton","GA","East Carrollton Park","405 Northlake Dr","30117",33.59708619094468,-85.04547740041028
"30116","Carrollton","GA","Catherine Hardy Lavender Rec.center","425 willie north st.","30117",33.585418701171875,-85.0896224975586
"30116","Carrollton","GA","Grassy Lawn","705 Dixie St","30117",33.56957244873047,-85.0740737915039
"30116","Carrollton","GA","McIntosh Reserve","not_available","30185",33.51509224586042,-85.04097724143254
"30116","Carrollton","GA","Pond At Smokrise","175 Mink Hollow Dr","30116",33.5531005859375,-85.01908874511719
"30120","Cartersville","GA","Euharlee","not_available","30145",34.15082717509385,-84.94222967820893
"30120","Cartersville","GA","Old Mill Trail","not_available","30120",34.15027,-84.803668
"30120","Cartersville","GA","Dellinger Park","100 Pine Grove Rd","30120",34.13960243052153,-84.81515197593427
"30120","Cartersville","GA","Cooper's Furnace Day Use Area - U.S. Army Corps of Engineers Park","Old River Road","30120",34.16461491286421,-84.73326777860012
"30120","Cartersville","GA","The Kings Park","Johnson St","30145",34.236419677734375,-84.94767761230469
"30120","Cartersville","GA","Frankie Harris Park","5 Forks Road Southwest","30178",34.1463696744122,-84.93948698043823
"30120","Cartersville","GA","Riverside Park at Allatoona Lake","513 Allatoona Dam Rd SE","30121",34.16220474243164,-84.73578643798828
"30120","Cartersville","GA","Dellinger Park Concession Stand","Dellinger Park","30120",34.136572309863894,-84.81365940532869
"30121","Cartersville","GA","Gatewood Park","not_available","30184",34.22206993397253,-84.70481051214979
"30122","Lithia Springs","GA","Deerlick Park","2105 Mack Rd","30135",33.748326707335416,-84.68488151371656
"30122","Lithia Springs","GA","Mt Carmel Recreation Park","2300-2698 Kent Dr","30122",33.732866901503414,-84.65965918190435
"30122","Lithia Springs","GA","Lithia Springs Girls Park","Lithia Springs","30122",33.78953344346235,-84.63925977504665
"30122","Lithia Springs","GA","I 20 rest stop","not_available","30122",33.78157043457031,-84.63082885742188
"30124","Cave Spring","GA","Rolater Park","not_available","30124",34.10558328052748,-85.33543028279944
"30124","Cave Spring","GA","Lock and Dam","1-199 Lock and Dam Rd SW","30161",34.1989242405264,-85.25695871713175
"30124","Cave Spring","GA","Rolater Park","Cedertown St","30124",34.10501926678955,-85.33405252214597
"30125","Cedartown","GA","Peek Forest Park","Jule Peek Ave","30125",34.03022290438299,-85.25976672261001
"30125","Cedartown","GA","Urban Treehouse","Delano St.","30125",34.014256,-85.233866
"30127","Powder Springs","GA","Hiram Park","Hwy 92","30141",33.87978532736809,-84.7600435739139
"30127","Powder Springs","GA","White Oak Park","Mustang Drive","30157",33.927064,-84.747001
"30127","Powder Springs","GA","Morningside","2948-3004 Hiram Douglasville Hwy","30141",33.85085755936492,-84.75657107837723
"30127","Powder Springs","GA","Ben Hill Strickland Park","295 Oak St","30141",33.87986426309132,-84.76112964152794
"30127","Powder Springs","GA","Stout Park","Stout Parkway","30127",33.831855,-84.716437
"30132","Dallas","GA","Burnt Hickory Park","8512 Cartersville Hwy","30132",34.03452667410947,-84.84015816616974
"30132","Dallas","GA","Mt. Tabor Park","1550 E Paulding Drive","not_available",33.94391930681238,-84.77076414553764
"30132","Dallas","GA","White Oak Park","298 Mustang Dr","30157",33.87956373516199,-84.83464479446411
"30132","Dallas","GA","Sarah Babb Park","not_available","30132",33.931895521001856,-84.8230726422238
"30132","Dallas","GA","Powell Park","not_available","30157",33.89513,-84.83488
"30132","Dallas","GA","Coleman Park","Lester Rd","30132",33.922924,-84.83364265
"30132","Dallas","GA","Ben Stiller Park","not_available","30141",33.90265575,-84.79263547
"30134","Douglasville","GA","Hunter Park","Gurley Rd","not_available",33.73946579706152,-84.76681458810253
"30134","Douglasville","GA","Jessie Davis Memorial Park","7770 old dallas road","30134",33.76664384870989,-84.74726915359496
"30134","Douglasville","GA","Jesse Davis Park","7770-7776 Old Dallas Rd","30134",33.76534673381089,-84.74647134246773
"30135","Douglasville","GA","Boundary Waters Aquatic Center","4950-5042 Georgia 92","30135",33.66678476357674,-84.66437867703812
"30135","Douglasville","GA","(TCP) Tributary Commercial Park","not_available","30135",33.71362303738351,-84.64021017065774
"30135","Douglasville","GA","Dog River Reservoir","hwy 166","not_available",33.6585985,-84.790153
"30135","Douglasville","GA","Cedar Grove Park","7375 RiverTown Road","30213",33.576499938964844,-84.6301498413086
"30135","Douglasville","GA","Bill Arp Park","4650-4780 Georgia 5","30187",33.66900663687268,-84.79264369733455
"30135","Douglasville","GA","Cave Spring","3 cedartown st sw","30124",33.69126727047895,-84.76553488714994
"30135","Douglasville","GA","Eubanks Park","Barksdale Road","not_available",33.62692601570853,-84.68772018471003
"30139","Fairmount","GA","Fairmount Square","not_available","30139",34.4532238538138,-84.70011197383198
"30139","Fairmount","GA","Moto Mountain Park","12878 Highway 53 W","30139",34.45295715332031,-84.62713623046875
"30143","Jasper","GA","Lee Newton Park","not_available","30143",34.46736930779767,-84.43820799487602
"30143","Jasper","GA","Doris Wigington Park","Lumber Company Rd","30143",34.49304935379092,-84.45300377348674
"30143","Jasper","GA","Jasper City Park","201 Burnt Mountain Rd","30143",34.47184907804674,-84.42769590437777
"30153","Rockmart","GA","The Swamp Bottoms","not_available","30153",33.90632917636125,-84.99193613099385
"30153","Rockmart","GA","Rockmart Greenway","Silver Comet Trail","30153",33.990561,-85.05286
"30157","Dallas","GA","Mulberry Rock Park","1849 Mulberry Rock Rd","30157",33.837647,-84.949348
"30157","Dallas","GA","Union Park","Mulberry Rock Road","not_available",33.83848355700169,-84.95156373945522
"30161","Rome","GA","Ridge Ferry Park","not_available","30161",34.26788041226705,-85.17114708596888
"30161","Rome","GA","Heritage Park Trail","Riverside Parkway","30165",34.28180460735496,-85.16989174662962
"30161","Rome","GA","Scenerio's","not_available","30165",34.25923538208008,-85.23853302001953
"30161","Rome","GA","Midway Park","not_available","30173",34.16747843988562,-85.1368478615278
"30161","Rome","GA","Etowah Park","1325 Kingston Rd NE","30161",34.26112365722656,-85.13362121582031
"30165","Rome","GA","Angus Mcleod Park","Hwy 114","not_available",34.41291901984215,-85.40008023574192
"30165","Rome","GA","Lyerly Park","Hwy 114","30730",34.418119,-85.391401
"30179","Temple","GA","Gold Dust Park","not_available","30180",33.747778000102635,-84.93727200916526
"30180","Villa Rica","GA","Clinton Nature Preserve Trail","Ephesus Church Rd","30135",33.707557265552516,-84.86312258093953
"30188","Woodstock","GA","Dupree Park","513 Neese Rd","30188",34.10542019820965,-84.49312733630191
"30188","Woodstock","GA","JJ Biello Park - Cherokee Tennis Center","155 Brooke Blvd","30188",34.11982363339483,-84.50473262379724
"30188","Woodstock","GA","On da toliet","not_available","30188",34.09052799404234,-84.52584119365152
"30188","Woodstock","GA","Molly's New Halfway Gazebo","Woodglen Dr","30188",34.090915,-84.514153
"30188","Woodstock","GA","Woodstock City Park","101 Arnold Mill Rd","30188",34.101692084240526,-84.51865268392977
"30188","Woodstock","GA","""Tillie"" Wood Preserve","Hickory Oak Hollow","not_available",34.071406319993166,-84.39647672405539
"30204","Barnesville","GA","Lamar County Park","Andrews Dr","30204",33.04208349486172,-84.13874956613759
"30204","Barnesville","GA","Milner Walking Trac","not_available","30257",33.12063121656325,-84.19639786264499
"30204","Barnesville","GA","Trading Post","not_available","30233",33.178453224860576,-84.01898078283178
"30205","Brooks","GA","Starrs Mill Park","not_available","30215",33.3293673902947,-84.50871348381041
"30205","Brooks","GA","Brooks Park","not_available","30205",33.29179901743141,-84.45620749531723
"30206","Concord","GA","Williamson Walking Trac","not_available","30292",33.179493442394694,-84.36331578003492
"30213","Fairburn","GA","Creel Park","2775 Creel Rd","30349",33.56760065751164,-84.48414164171643
"30213","Fairburn","GA","Welcome All Park","4255 Will Lee Rd","30349",33.631242776697995,-84.52682928836462
"30213","Fairburn","GA","Mayor's Park","not_available","30291",33.57595115913877,-84.5493641208123
"30213","Fairburn","GA","Cliftondale Park","4645 Butner Rd","30349",33.65239864593004,-84.59880747826092
"30213","Fairburn","GA","Wilkerson Mill Park","Wilkerson Mill Road","not_available",33.53768117470332,-84.64926369201119
"30213","Fairburn","GA","Charles E. Phillips Sr. Esquire Park","4400 Herschel Rd","30337",33.63566262087114,-84.47217735493471
"30213","Fairburn","GA","Clayton park","2300 Highway 138","30344",33.65501403808594,-84.5020523071289
"30213","Fairburn","GA","Wayside Park","not_available","30268",33.51989466607556,-84.66731539704571
"30213","Fairburn","GA","Clarence Duncan Memorial Park","6000 Rivertown Rd","30213",33.57152511271519,-84.60116386413574
"30213","Fairburn","GA","Cliftondale Community Cener","not_available","30349",33.650886757097275,-84.59433319050015
"30214","Fayetteville","GA","Kenwood Park","305-325 Hwy 279","30214",33.517463367365636,-84.43847974589181
"30214","Fayetteville","GA","McCurry Park","146 McDonough Rd","not_available",33.45836989641371,-84.4145679473877
"30215","Fayetteville","GA","NHBC Upward Sports (South)","1563 Highway 74","30276",33.329612731933594,-84.51758575439453
"30215","Fayetteville","GA","Baseball Soccer Complex","74 S Cooper Circle","30269",33.3427006468475,-84.54704761505127
"30215","Fayetteville","GA","Seavy Street Park","Senoia,GA,30276","30276",33.3023411,-84.5538165
"30215","Fayetteville","GA","Prime Community Park","1205 Highway 92 S","30215",33.400761984004355,-84.44197650507354
"30215","Fayetteville","GA","Fayette County Parks And Rec Office","980 Redwine Rd.","30215",33.422245025634766,-84.4701156616211
"30215","Fayetteville","GA","Pratt Park","347 Doster Rd","30215",33.362376435351514,-84.43827465090213
"30215","Fayetteville","GA","Five Star","not_available","30269",33.356589,-84.552672
"30215","Fayetteville","GA","Brechin Park","not_available","30276",33.333830904265305,-84.52174964860406
"30216","Flovilla","GA","Dauset Trails","360 Mount Vernon Church Rd","30233",33.232604736796944,-83.94875592349321
"30217","Franklin","GA","Cross Roads Park","not_available","30240",33.140056,-85.073077
"30217","Franklin","GA","Brush Creek Park","not_available","30217",33.20481875708073,-85.08325528741592
"30217","Franklin","GA","Snake Creek Park","S River Rd","30217",33.216150017447376,-85.08234778231045
"30218","Gay","GA","Covered Bridge","Covered Bridge Road","30293",33.0387,-84.552321
"30220","Grantville","GA","Colley Park","not_available","30220",33.184281330275994,-84.85625612138291
"30220","Grantville","GA","Keith St Park","Keith St","30230",33.17765414714813,-84.91171002388
"30220","Grantville","GA","Calvin Hoop Park","490 Main St","not_available",33.1727199,-84.9120727
"30223","Griffin","GA","Airport Rd Park","147-199 Airport Rd","30224",33.2232083095746,-84.27482805985234
"30223","Griffin","GA","Griffin Veterans Memorial Park","not_available","30223",33.246628,-84.254295
"30223","Griffin","GA","Third Ward Park","Bieze Street","30224",33.237274150626405,-84.25491224565563
"30223","Griffin","GA","Wyomia Tyus Olympic Park","1301 Cowan Rd","30223",33.28370510003665,-84.30859877293746
"30223","Griffin","GA","J. William Edwards Pavilion","E. Solomon St.","30223",33.24836959085386,-84.26268235689452
"30223","Griffin","GA","Tyus Park","Cowan Rd","30223",33.28319522954968,-84.30862960498496
"30223","Griffin","GA","City Park","Pimento Ave","30224",33.23473934504564,-84.27169674219414
"30223","Griffin","GA","Heron Bay Lakefront Park","Heron Bay","30248",33.33562044962962,-84.20722305332433
"30228","Hampton","GA","Panhandle Park","10930 Panhandle Rd","30228",33.458031362207976,-84.34454317396057
"30228","Hampton","GA","Mt. Carmel Park","not_available","30228",33.45327445418202,-84.24626989186869
"30228","Hampton","GA","Hampton City Park","14 College St","30228",33.388414000000004,-84.285157
"30228","Hampton","GA","Memorial Park Stockbridge, GA","106 Jennings Way","30281",33.44838836908428,-84.23003814013498
"30230","Hogansville","GA","Strozier Field","602 W Boyd Rd","30230",33.17197036743164,-84.92487335205078
"30230","Hogansville","GA","Gazebo","not_available","30241",33.072379123554796,-84.89454293360855
"30233","Jackson","GA","Heritage Park","101 Lake Dow Rd","30252",33.44176739184124,-84.12203501218649
"30236","Jonesboro","GA","Clayton County International Park","2300 Highway 138 E","30236",33.52487234832827,-84.31232419586091
"30236","Jonesboro","GA","Lee Street Park & Amphitheater","155 Lee Street","30236",33.52312088012695,-84.3580322265625
"30236","Jonesboro","GA","Lovejoy park","not_available","30236",33.54741287231445,-84.35701751708984
"30236","Jonesboro","GA","Carl Rhodenizer Recreational Center","not_available","30273",33.589628078315755,-84.27677155333909
"30236","Jonesboro","GA","W.H. Reynolds Memorial Nature Preserve","5665 Reynolds Rd","30260",33.601043752445115,-84.3471121987247
"30236","Jonesboro","GA","Duffey Park","1735-1799 Duffey Dr","30260",33.57594609260559,-84.33263719081879
"30240","Lagrange","GA","Glass Bridge Park","Upper Glass Bridge Road","not_available",33.00340904605143,-85.17168045043945
"30240","Lagrange","GA","Pyne Road Park","4481 Roanoke Rd","30240",33.02907180786133,-85.15277099609375
"30240","Lagrange","GA","Halfmoon Creek Park","Cameron Mill Rd","30240",33.066615,-85.097941
"30240","Lagrange","GA","Anderson Park at West Point Lake","3065-3499 County Road 212","36863",32.937737049710755,-85.20181304907989
"30240","Lagrange","GA","Troup County Parks & Rec.","400 Fort Dr","30240",33.010005950927734,-85.04161071777344
"30240","Lagrange","GA","Boyd Park","200 Smith St","30240",33.04364013671875,-85.03252410888672
"30240","Lagrange","GA","Easy Street Park","130 Easy St","30240",33.05156326293945,-85.03274536132812
"30241","Lagrange","GA","Union Park","1220 Hogansville Rd","30241",33.05252456665039,-85.0023193359375
"30248","Locust Grove","GA","Pool Park","not_available","30253",33.38775801107285,-84.18567799475555
"30251","Luthersville","GA","Camp Merryweather","not_available","30251",33.21866235793819,-84.72380400167872
"30252","Mcdonough","GA","Mcdonough Downtown Park","1-31 Macon St","30253",33.44745944671833,-84.14723133893163
"30252","Mcdonough","GA","Big Springs Park","5065 Anastasia","30253",33.45271264252734,-84.14543820856659
"30252","Mcdonough","GA","Park In The Ghetto","296 Simpson St","30253",33.43974636,-84.14949597
"30253","Mcdonough","GA","Pates Creek Nature Park","not_available","30281",33.49527308073631,-84.24227281531637
"30259","Moreland","GA","Will's House","Lee Rd","30276",33.27242722157252,-84.65428176365866
"30263","Newnan","GA","B. T. Brown Reservoir","621 S Alexander Creek Road","30263",33.48406419166268,-84.74026322364807
"30263","Newnan","GA","Carl Miller Park","74 Sewell Road","not_available",33.358539190564805,-84.8017683832287
"30263","Newnan","GA","Temple Ave. Park","Temple Avenue","30263",33.37832921288731,-84.80125376278968
"30263","Newnan","GA","Newnan Utilities Park","not_available","30263",33.35848320054737,-84.80187538293399
"30263","Newnan","GA","Overby Park","303 Overby Park Dr","30263",33.39735019301707,-84.80754122551704
"30265","Newnan","GA","Hanna's Room","not_available","30265",33.475897504575784,-84.66275958647125
"30268","Palmetto","GA","Cochran Mill Park","not_available","30213",33.51663993161943,-84.67065030782307
"30269","Peachtree City","GA","Lake Peachtree Dock","Battery Way","30269",33.39480725650072,-84.57088096902753
"30269","Peachtree City","GA","Luther Glass Park (Three Ponds)","269 S Peachtree Pkwy","30269",33.38342453507032,-84.5585929653167
"30269","Peachtree City","GA","Peachtree City Park","100-198 Line Creek Cir","30269",33.39477591666667,-84.60105033333333
"30273","Rex","GA","Reality Training Center","not_available","30294",33.60883331298828,-84.27616119384766
"30274","Riverdale","GA","Riverdale Regional Park","33.56983	-84.41961","not_available",33.570434520372444,-84.4218635559082
"30276","Senoia","GA","Senoia City Park At Merimac Lakes","168 Pylant St","30276",33.298179,-84.560937
"30277","Sharpsburg","GA","Shamrock Park","not_available","30290",33.478208623585864,-84.59369923397722
"30277","Sharpsburg","GA","Polo Bear","120 Huntingdon Ct","30290",33.46634292602539,-84.5882339477539
"30281","Stockbridge","GA","J. P. Moseley Park","1041 Millers Mill Rd","30281",33.53377359726285,-84.16224412742439
"30281","Stockbridge","GA","Cochran Park","East Atlanta Road","30281",33.55337344750327,-84.23449909684963
"30281","Stockbridge","GA","Richardson Park Tennis Courts","Union Church Rd","30281",33.59000842455338,-84.13799717609464
"30286","Thomaston","GA","Greatest Generation Memorial Park","Thomaston,GA,30286","30286",32.88995893078991,-84.32075563266456
"30288","Conley","GA","Bouldercrest Park","not_available","30288",33.656707940783896,-84.29010693344831
"30294","Ellenwood","GA","Constitution Lakes","1305 South River Industrial Blvd","30315",33.6819431918799,-84.34135437011719
"30297","Forest Park","GA","Forest Park Starr Park & Recreation","Lake Drive","30297",33.61826089776487,-84.36475839465216
"30297","Forest Park","GA","Gym","Southpoint Dr","30297",33.63263413236095,-84.38298569024508
"30297","Forest Park","GA","Starr park","5031 Park Ave","30297",33.618335232710194,-84.36662979436238
"30297","Forest Park","GA","R & U Truck Parking and Drop Lot","not_available","30297",33.61171206139493,-84.3806556209152
"30303","Atlanta","GA","Pemberton Place","Centennial Olympic Park Dr NW & Baker St NW","not_available",33.762973771642805,-84.39360840627404
"30303","Atlanta","GA","Centennial Olympic Park","285 Andrew Young International Blvd NW","30313",33.76035574468761,-84.39350724220276
"30303","Atlanta","GA","Vine City Park","not_available","30314",33.75816188035845,-84.40698927273576
"30303","Atlanta","GA","Falcons Landing","306-318 Andrew Young International Blvd NW","30313",33.75754013039289,-84.40074758864834
"30303","Atlanta","GA","Robert W. Woodruff Park","51 Peachtree St NE","30303",33.755232,-84.388561
"30303","Atlanta","GA","Hardy Ivy Park","300 Peachtree St NE","30308",33.762912,-84.387324
"30303","Atlanta","GA","Hurt Park","Edgewood Avenue","30303",33.75420529617853,-84.3855004193557
"30303","Atlanta","GA","Auburn Ave/Calhoun Park","41-67 Piedmont Ave NE","30303",33.755742,-84.381985
"30303","Atlanta","GA","Cleopas R. Johnson Park","Fair St","30314",33.74897605201035,-84.40602480289232
"30303","Atlanta","GA","John Calhoun Park","Piedmont Av","30303",33.75555624622344,-84.38186172548887
"30303","Atlanta","GA","Piedmont and Harris Park","Piedmont Ave NE","not_available",33.761027,-84.382009
"30303","Atlanta","GA","Greek Grassy Knoll","not_available","30303",33.754846,-84.383
"30303","Atlanta","GA","Memorial Drive Greenway","301 Martin Luther King Jr. Dr. SE","30312",33.747133,-84.377347
"30303","Atlanta","GA","Georgia International Plaza","not_available","30313",33.757550588613704,-84.39853423261437
"30303","Atlanta","GA","#SHRM12 #streethockey","not_available","30308",33.75966414275798,-84.39389575746974
"30303","Atlanta","GA","GSU Pack Memorial Pocket Park","50 Hurt Plz SE","30303",33.754098415374756,-84.38711285591125
"30303","Atlanta","GA","The Home Depot Backyard","1 Backyard Way","30313",33.75663371891413,-84.40108180410456
"30305","Atlanta","GA","Atlanta Memorial Park","Northside Dr","30305",33.81914652266749,-84.409308039731
"30305","Atlanta","GA","Peachtree Heights East Duck Pond and Parks","2514 Parkside Dr NE","30305",33.82561154070701,-84.38462797448163
"30305","Atlanta","GA","Tanyard Creek Park","Collier Rd","30318",33.80985634053532,-84.40259259836586
"30305","Atlanta","GA","Frankie Allen Tennis Center","425 Pharr Road","30328",33.83691568526707,-84.37357246552786
"30305","Atlanta","GA","Garden Hills Park","not_available","30305",33.83088632560126,-84.37810475653035
"30305","Atlanta","GA","Frankie Allen Park Buckhead","425 Pharr Rd NE","not_available",33.83406768617871,-84.37317722091184
"30305","Atlanta","GA","Peachtree Hills Park","308 Peachtree Hills Ave NE","30305",33.81836475810362,-84.37658547697949
"30305","Atlanta","GA","Louise G Howard Park","460 Collier Rd NW","30318",33.81073178,-84.40285
"30305","Atlanta","GA","Sibley Park","Habersham Ave. NW","30305",33.82874230976753,-84.39447892204667
"30305","Atlanta","GA","Charlie Loudermilk Park","3101-3155 U.S. 19","30305",33.84040778212202,-84.37814581759619
"30305","Atlanta","GA","Tuxedo Park","Tuxedo Rd NW","30305",33.846050530914255,-84.40082767978183
"30305","Atlanta","GA","Peachtree Park Nature Trail","751 Burke Rd NE","30305",33.83435821533203,-84.36200714111328
"30305","Atlanta","GA","North Buckhead Park","not_available","30342",33.855869,-84.361223
"30305","Atlanta","GA","Haynes Manor Park","556 Peachtree Battle Ave NW","30305",33.822208,-84.406309
"30305","Atlanta","GA","G's zen place","Pharr rd","30305",33.83526223,-84.37348445
"30305","Atlanta","GA","McKinley Wilson Triangle Park","not_available","30318",33.8148829387395,-84.40970304180397
"30306","Atlanta","GA","Piedmont Park Conservancy","1320 Monroe Dr NE","30306",33.79120316947243,-84.3669855594635
"30306","Atlanta","GA","Sidney Marcus Park","786 Cumberland Rd. NE","30306",33.79652901838559,-84.36106707907318
"30306","Atlanta","GA","Candler Park","585 Candler Park Dr NE","30307",33.76579443261052,-84.33856508522841
"30306","Atlanta","GA","Historic Fourth Ward Park","680 Dallas St NE","30308",33.768890636040695,-84.36489187322505
"30306","Atlanta","GA","Morningside Nature Preserve","Wellbourne Drive","30324",33.80823187719297,-84.35664643764775
"30306","Atlanta","GA","Freedom Park","Moreland Ave. NE","30307",33.76951674370636,-84.3490776952574
"30306","Atlanta","GA","Orme Park","795 Brookridge Drive NE","30306",33.785763556933986,-84.36283318933474
"30306","Atlanta","GA","John Howell Memorial Park","869 Virginia Ave NE","30306",33.781778002869515,-84.35964703559875
"30306","Atlanta","GA","Jimmy Carter Presidential Library & Museum","441 Freedom Pkwy NE","30307",33.76721968917241,-84.35624257950981
"30306","Atlanta","GA","The Rainbow City","not_available","30306",33.78187840291898,-84.36925542944329
"30306","Atlanta","GA","Shadyside Park","S Ponce De Leon Ave. NE","30307",33.77371299506949,-84.33436876319075
"30306","Atlanta","GA","Olmsted Linear Park","Ponce De Leon Ave NE","30307",33.774356897525664,-84.34470237596027
"30306","Atlanta","GA","Morningside-Lenox Park Tennis Courts","Lenox Road","30306",33.8065731766003,-84.3521022276988
"30306","Atlanta","GA","Goldsboro Park","Euclid Ave","30307",33.769919,-84.34307391
"30306","Atlanta","GA","Ray Kluka Park","Monroe","30308",33.776902,-84.370333
"30306","Atlanta","GA","Wildwood Gardens","753 Wildwood Road","not_available",33.80280696519305,-84.36384970557133
"30306","Atlanta","GA","Fire Fitness Workouts","not_available","30309",33.78448577132784,-84.37043096761495
"30306","Atlanta","GA","Paideia Field Day","not_available","30307",33.766193,-84.338152
"30306","Atlanta","GA","Morningside Presbyterian Park","1401 N. Morningside Dr.","not_available",33.79362283697498,-84.35565033568311
"30307","Atlanta","GA","Bessie Branham Park","2051 Delano Dr NE","30317",33.753846627550566,-84.32047306281898
"30307","Atlanta","GA","Inman Park","Euclid Ave.","30307",33.75526208624002,-84.36016210824455
"30307","Atlanta","GA","Gilliam Park","650 Woodbine Ave","30307",33.75535735606976,-84.33182103439285
"30307","Atlanta","GA","Deepdene Park","Ponce de Leon Ave. NE","30307",33.77191843321147,-84.32365831752603
"30307","Atlanta","GA","Iverson Park","1429 Iverson Street NE","not_available",33.76338802317375,-84.340758148486
"30307","Atlanta","GA","The Mailboxes","664-710 John Wesley Dobbs Ave NE","30312",33.75992555,-84.364405
"30308","Atlanta","GA","Central Park","400 Merritts Ave NE","30308",33.76871429764313,-84.37678052181603
"30308","Atlanta","GA","Renaissance Park","501 Piedmont Ave NE","30308",33.768009,-84.380894
"30308","Atlanta","GA","Charles Allen Dr & 10th Entrance","440 10th Street NE","30309",33.781274695091646,-84.37331318217784
"30308","Atlanta","GA","PARKing Day Park @ Tech Square","48 5th Street","30308",33.77688217163086,-84.38844299316406
"30308","Atlanta","GA","Parkway-Merritts Park","Boulevard Ave NE","30312",33.769071285755814,-84.37281277222914
"30308","Atlanta","GA","The Park at St. Luke's","435 Peachtree Street, N.E., Atlanta, GA 30308","30308",33.7717008,-84.3726049
"30308","Atlanta","GA","Amli Parkside Tree Swing","Ralph McGill Blvd","30308",33.764604,-84.367471
"30308","Atlanta","GA","Ponce De Leon Park","650 Ponce De Leon Rd","not_available",33.77548843981496,-84.36652439440823
"30308","Atlanta","GA","Boy Scout Adventure Base 100","10th St.","not_available",33.78144530675032,-84.38498721805391
"30308","Atlanta","GA","AT&T Park","Peachtree St. NE","30308",33.776112371501554,-84.3849512937953
"30308","Atlanta","GA","Georgia Power Pavilion & Walking Track","241 Ralph McGill Blvd NE","30308",33.76222817121139,-84.37892083984681
"30309","Atlanta","GA","Piedmont Park","400 Park Dr NE","30306",33.78280827319654,-84.3731412894517
"30309","Atlanta","GA","Piedmont Park Dog Park","490-514 Park Dr NE","30309",33.78808807295722,-84.37143708647508
"30309","Atlanta","GA","Piedmont Loop","Charles Allen Dr NE","30309",33.786465513797054,-84.37832003220878
"30309","Atlanta","GA","McClatchey Park","Westminster Dr NE","30309",33.79425989667502,-84.37428595234525
"30309","Atlanta","GA","Lake Clara Meer","Piedmont Park","30309",33.78472960936874,-84.37375545501709
"30309","Atlanta","GA","Atlantic Station Central Lawn","18th St NW","30363",33.79283221194472,-84.39609702633207
"30309","Atlanta","GA","The Grove at Colony Square","1175 Peachtree St NE","30361",33.78731918334961,-84.38261413574219
"30309","Atlanta","GA","Eubanks Park","Barksdale Drive","30309",33.79286554703606,-84.3776736136115
"30309","Atlanta","GA","Target Plaza","not_available","30363",33.79258,-84.399095
"30310","Atlanta","GA","West End Park","1111 Oak St. SW","30310",33.7419260872835,-84.42497270942442
"30310","Atlanta","GA","Pittman Park Recreation Center","950 Garibaldi St SW","30310",33.7287186712046,-84.39885304429676
"30310","Atlanta","GA","Mozley Park","Martin Luther King Blvd","not_available",33.75321054352725,-84.43882327839239
"30310","Atlanta","GA","Reverend James Orange Park at Oakland City","1305 Oakland Dr SW","30310",33.719146103427,-84.42933082580566
"30310","Atlanta","GA","Arthur Langford Park","not_available","30315",33.71573898007282,-84.39494941149249
"30310","Atlanta","GA","Outdoor Activity Center, Inc","1442 Richland Rd SW","30310",33.72916793823242,-84.43472290039062
"30310","Atlanta","GA","Rose Circle Park","Rose Circle","not_available",33.734472566821914,-84.42080799886655
"30310","Atlanta","GA","Perkerson Park","770 Deckner Ave SW","30310",33.71350728365204,-84.41251927834197
"30310","Atlanta","GA","Adair Park One","not_available","30310",33.73052473645102,-84.41283731478808
"30310","Atlanta","GA","Gordon White Park","1354 Ralph David Abernathy Blvd SW","30310",33.73856233452023,-84.43124055862427
"30310","Atlanta","GA","Howell Park","938 Ralph David Abernathy Blvd SW","30310",33.73762130737305,-84.41861724853516
"30310","Atlanta","GA","Rosa Burney Park","not_available","30312",33.741106,-84.399831
"30310","Atlanta","GA","Mozley Park South Entrance","Martin luther king","not_available",33.751353778866914,-84.43651003901714
"30310","Atlanta","GA","Dick Lane Velodrome","not_available","30344",33.699941731354315,-84.42894719829536
"30310","Atlanta","GA","Joyland Park","211 Thornton St SW","30315",33.71239471435547,-84.39527130126953
"30310","Atlanta","GA","Bus Stop","Almont Dr SW","30310",33.7260078,-84.4307801
"30310","Atlanta","GA","Bonnie Brae Park","693 Bonnie Brae Ave SW","30310",33.73051441150315,-84.41076993942261
"30310","Atlanta","GA","C.A. Scott Recreation Center","1565 Martin Luther King Jr Dr NW","30314",33.753576,-84.441572
"30310","Atlanta","GA","Adair Park Two","866 Murphy Ave SW","30310",33.732467,-84.412082
"30310","Atlanta","GA","Emma Millican Park","Deckner ave","30310",33.71591547724002,-84.41172930939881
"30311","Atlanta","GA","Cascade Springs Nature Preserve","Cascade Rd SW","not_available",33.719495120757976,-84.4814825536929
"30311","Atlanta","GA","Adams Park","2300 Wilson Dr SW","30311",33.711639961108816,-84.467044508724
"30311","Atlanta","GA","Isabel Gates Park","Peyton Road","30311",33.74922488823484,-84.47516868458939
"30311","Atlanta","GA","Anderson Park","120 Anderson Ave NW","30314",33.7557188238903,-84.45471586423834
"30312","Atlanta","GA","Grant Park","537 Park Ave SE","30312",33.73849130458109,-84.37256124999318
"30312","Atlanta","GA","Boulevard Crossing Park","560 Englewood Ave SE","30315",33.72220921150041,-84.370097301957
"30312","Atlanta","GA","Esther Peachy Lefevre Park","Powell Street","30316",33.75118132377972,-84.36610309184393
"30312","Atlanta","GA","Oakland Cemetery","248 Oakland Ave SE","30312",33.74776407953224,-84.37325421682411
"30312","Atlanta","GA","Cabbagetown Park","701 Kirkwood Ave","30316",33.74935714317614,-84.36416387557983
"30312","Atlanta","GA","Daniel Stanton Park","1030 Martin St SE","30315",33.72522835378004,-84.38199516542684
"30312","Atlanta","GA","Grant Park Gazebo","840 Cherokee Ave SE","30315",33.73435592651367,-84.37071990966797
"30312","Atlanta","GA","Publix Tailgating Zone","755 Hank Aaron Dr SW","30315",33.73685073852539,-84.38859558105469
"30313","Atlanta","GA","Robert W. Woodruff Plaza","Coca-Cola Headquarters","not_available",33.771882685846386,-84.39725663601742
"30314","Atlanta","GA","Washington Park","1027 Lena St NW","30314",33.75830606040731,-84.42143903462213
"30314","Atlanta","GA","Grove Park","David Lee Hollowell Pkwy NW","30318",33.770272994778686,-84.44410397252864
"30315","Atlanta","GA","Benteen Park","Cassanova Street SE","30315",33.71569878911814,-84.36118621550754
"30315","Atlanta","GA","Brownwood Park","Portland Ave. SE","30316",33.73692069089299,-84.34689044952393
"30315","Atlanta","GA","Stoney Point Park","1039 E Confederate Ave SE","30316",33.727769691375265,-84.35694737274542
"30315","Atlanta","GA","Park @ Browns Mills","585 McWilliams Rd SE","30315",33.68847254158545,-84.36880637242622
"30315","Atlanta","GA","South Atlanta Park","Gammon Ave SE","30315",33.71612500897591,-84.3874454116922
"30315","Atlanta","GA","Phoenix Park II","161 Georgia Ave","30312",33.73508755992699,-84.38228770557792
"30315","Atlanta","GA","Chosewood Park","187 Milton Ave SE","30315",33.71873343047713,-84.37500456343133
"30315","Atlanta","GA","Tullwater Park","680 McWilliams Rd SE, Atlanta, GA 30315","30315",33.69508657803641,-84.356843051198
"30316","Atlanta","GA","Reynoldstown Glade Stumpery","Kenyon Street At Kirkwood Ave","30316",33.75048,-84.357455
"30316","Atlanta","GA","Coan Park","1530 Woodbine Ave SE","30317",33.75185765355848,-84.33646952956765
"30316","Atlanta","GA","Walker Park","200 Memorial Terrace SE","30316",33.746667059997115,-84.34093276829239
"30316","Atlanta","GA","Kirkwood Urban Forest And Community Garden","1807 Dixie St. SE","30317",33.748836517333984,-84.32864379882812
"30316","Atlanta","GA","Lang-Carson Park","100 Flat Shoals Ave SE","30316",33.75163269042969,-84.35504913330078
"30316","Atlanta","GA","Adams Park Recreation Center","Delowe drive","30311",33.74201585091569,-84.36471415333743
"30316","Atlanta","GA","Gresham/Recreation Center","3113 Gresham Rd SE","30316",33.693824768066406,-84.31292724609375
"30317","Atlanta","GA","Euclid Wavery Park","Euclid Avenue","30307",33.76389024483919,-84.35110091407705
"30318","Atlanta","GA","Proctor Creek Greenway at Donald Lee Hollowell Pkwy","1288 Donald Lee Hollowell Pkwy NW","30318",33.77156448364258,-84.42964935302734
"30318","Atlanta","GA","Underwood Hills Park","Underwood Hills Park","30318",33.805388006229705,-84.41666007041931
"30318","Atlanta","GA","Westside Park - Bellwood Quarry","W Marietta St","30318",33.78131605911204,-84.4372337827712
"30318","Atlanta","GA","Spink-Collins Park","2101 Collins Drive NW","30318",33.81336327174546,-84.4636343296954
"30318","Atlanta","GA","Maddox Park","Donald Lee Hollowell Pkwy NW","not_available",33.770558,-84.426732
"30318","Atlanta","GA","Ardmore Park","Ardmore","30309",33.806431432252346,-84.39984258591404
"30318","Atlanta","GA","Dr. Mary Shy Scott Memorial Park","3114 Collier Dr NW","30318",33.7662467956543,-84.49125671386719
"30319","Atlanta","GA","Murphey Candler Park","1551 W Nancy Creek Dr NE","30319",33.909353115219375,-84.32375907897949
"30319","Atlanta","GA","Blackburn Park","3493 Ashford Dunwoody","30319",33.89561873440399,-84.32871841000026
"30319","Atlanta","GA","Dresden Park","Dresden Park","not_available",33.86793181959724,-84.3137800201156
"30319","Atlanta","GA","Briarwood Recreation Center & Park","2235 Briarwood Way NE","30319",33.85019440297285,-84.32812766009364
"30319","Atlanta","GA","Skyland Park","not_available","30319",33.86330183188282,-84.314677514707
"30319","Atlanta","GA","Clairmont Park","Clairmont Rd.","30341",33.879657507180966,-84.30966760788948
"30319","Atlanta","GA","Hewitt Park","3462 Lakeside Dr NE","30326",33.846909183976095,-84.35857741915716
"30319","Atlanta","GA","Vermont Road Park","Vermont Road","30319",33.85872075647809,-84.3555579129992
"30319","Atlanta","GA","Kevin's Bench","2360 Logan Cir NE","30319",33.854496999999995,-84.33659399999999
"30319","Atlanta","GA","Osborne Road Dog Park","Osborne Road","not_available",33.877201,-84.342596
"30319","Atlanta","GA","Little Nancy Creek Park","4012 Peachtree Dunwoody Rd NE","30342",33.86382540021294,-84.35861291949448
"30319","Atlanta","GA","Brookhaven Rec Center/Park","Osbourne & Peachtree","30319",33.8650660691727,-84.33736323150724
"30319","Atlanta","GA","Tree Climbers International","3530 Ashford Dunwoody Rd Atlanta GA 30319","not_available",33.895416,-84.328323
"30322","Atlanta","GA","Lullwater Preserve","1463 Clifton Rd NE","30329",33.797764565789606,-84.32284660760112
"30322","Atlanta","GA","Hahn Woods Nature Park","880 Houston Mill Rd NE","30329",33.80353406702249,-84.32321650211203
"30322","Atlanta","GA","Baker Woodlands","not_available","30322",33.789493,-84.324507
"30324","Atlanta","GA","Patch Of Grass Off The Beaten Path","not_available","30324",33.826214496746196,-84.34706467780242
"30324","Atlanta","GA","Indian Creek Park","3162 Lenox Rd NE","30324",33.841272,-84.359525
"30324","Atlanta","GA","La Vista Park","1303 Brook Forest Dr NE","30324",33.81759,-84.341789
"30327","Atlanta","GA","Atlanta Memorial Park","Northside Dr","not_available",33.86346296425321,-84.40491666907124
"30327","Atlanta","GA","Chastain Park Conservancy","4001 Powers Ferry Rd NW","30342",33.865638,-84.389646
"30327","Atlanta","GA","Chattahoochee River - East Palisades Area - National Recreation Area","Harris Trail NW & Whitewater Creek Rd NW","not_available",33.87804059044946,-84.44229125976562
"30327","Atlanta","GA","Chastain Park Playground","135 W Wieuca Rd NW","30342",33.87716989096056,-84.38956765019412
"30327","Atlanta","GA","North Fulton Golf Course","216 W Wieuca Rd NW","30342",33.87422506905533,-84.3926939730145
"30327","Atlanta","GA","Chastain Park Ball Fields","West Wieuca Rd NW","not_available",33.87519018812204,-84.38860416412354
"30327","Atlanta","GA","Cochise Riverview Club","3795 Paces Ferry Ave SE","30339",33.86038716,-84.45663186
"30327","Atlanta","GA","Chastain Park Swimming Pool","235 W Wieuca Rd NW","30342",33.87469871120449,-84.39498500872148
"30327","Atlanta","GA","Chastain Memorial Park","135 W Wieuca Rd","30342",33.87351553235876,-84.39128637313843
"30327","Atlanta","GA","Chattahoochee Palisades West","Akers Ridge Dr.","not_available",33.89047580661977,-84.44832346163855
"30327","Atlanta","GA","The Master Grill At Chastain Park","27 W. Weiuca Road","30327",33.87577809139507,-84.391930103302
"30328","Atlanta","GA","Hammond Park","705 Hammond Dr","30328",33.917762730491596,-84.36147267302462
"30328","Atlanta","GA","Allen Road Park","5900 Lake Forrest Dr","30328",33.913009077116584,-84.38664997404202
"30328","Atlanta","GA","Perimeter Park","not_available","30328",33.924185,-84.352537
"30328","Atlanta","GA","Central park","9000 Central Park W","30328",33.926059051096146,-84.35157846576837
"30328","Atlanta","GA","Heritage Sandy Springs","6110 Blue Stone Rd","30328",33.92215061916529,-84.38258903505398
"30328","Atlanta","GA","West Vinings Place Park","Basque Circle","30080",33.91248579292419,-84.37999866841342
"30328","Atlanta","GA","Bank of North Georgia Park","280 Sandy Springs Cir","30328",33.92698287963867,-84.38273620605469
"30331","Atlanta","GA","Tuscan Trail Park","Tuscam Trail","30331",33.69137019704041,-84.54294395655529
"30331","Atlanta","GA","FPS Fulton County Range","3530-3598 Aldredge Rd SW","30331",33.665974261612355,-84.55708860010361
"30331","Atlanta","GA","Deerwood Park","3755 Kathryn Dr SW","30331",33.677653,-84.51234699999999
"30331","Atlanta","GA","Stonewell Park","not_available","30331",33.680764869393016,-84.59427182643574
"30331","Atlanta","GA","Prominade park","3915 Cascade Rd SW","30331",33.72688293457031,-84.51608276367188
"30331","Atlanta","GA","Sandtown Park and Recreation Center","5320 Campbellton Rd SW","30331",33.71115088146244,-84.55149549927833
"30331","Atlanta","GA","Trammell Crow Park","4980 Cascade Rd SW","30331",33.730616281299284,-84.55298977472228
"30331","Atlanta","GA","Ben Hill Park Recreation Center","2405 Fairburn Rd SW","30331",33.68929590395443,-84.51270697082471
"30337","Atlanta","GA","Egan Park","Bachelor St","30344",33.66462976851734,-84.43236551819857
"30337","Atlanta","GA","Barrett Park","2001 Walker Ave","30337",33.6631047493696,-84.45551550624272
"30337","Atlanta","GA","Sykes Park","3235 Dodson Conn","30344",33.66896057128906,-84.47350311279297
"30337","Atlanta","GA","Richard D Zupp Park","not_available","30337",33.656610598518746,-84.44003229168598
"30337","Atlanta","GA","On Way To Lakewood To See Jimmy buffet","not_available","30354",33.654115,-84.398642
"30337","Atlanta","GA","Jess Lucas Park","620 S Central Ave","30354",33.65913065974746,-84.412473111618
"30337","Atlanta","GA","Delta Outdoor Seating Area","1030 Delta Blvd","30354",33.65648135904554,-84.42360337157098
"30337","Atlanta","GA","Brady Center","breningham rd","not_available",33.65763426220647,-84.46218901549118
"30337","Atlanta","GA","Tom E. Morris Sports Complex","3430 Claire Dr","30354",33.66111470942689,-84.40339808139542
"30337","Atlanta","GA","Service Animal Relief Area","Concourse A, near Gate A9","30320",33.638851,-84.439257
"30338","Atlanta","GA","Dunwoody Nature Center","not_available","30338",33.9577141643059,-84.33084654706391
"30338","Atlanta","GA","Brook Run Park","4770 N Peachtree Rd","30338",33.933562495358814,-84.29906576253467
"30338","Atlanta","GA","Park at Pernoshal Court","4575 N Shallowford Rd","not_available",33.926162,-84.308783
"30338","Atlanta","GA","Dunwoody Nature Center Playground","5343 Roberts Dr","30338",33.95631526128801,-84.33188781094341
"30338","Atlanta","GA","Donaldson Bannister Farm","Ashford Dunwoody Rd and Womack Rd","30338",33.932377,-84.31693
"30338","Atlanta","GA","PanCan Walk","not_available","30346",33.925622,-84.338038
"30338","Atlanta","GA","Georgetown Park","4400 Dunwoody Park Dr","30338",33.926563064771614,-84.31518067324112
"30339","Atlanta","GA","The Park at Vinings Pond","3000 Spring Hill Pkwy SE","30080",33.87740707397461,-84.47785186767578
"30340","Atlanta","GA","Bernard Halpern","Tilly Mill Road","30360",33.915732408008445,-84.28213896696667
"30340","Atlanta","GA","shallowford park","not_available","30341",33.8774314728234,-84.28774749870321
"30340","Atlanta","GA","Brook Park","Brook Pk Way and Raymond Dr","30340",33.88741147435322,-84.27389515425622
"30341","Atlanta","GA","Ramsgate Pool","2825 Northeast Expy NE","30345",33.861957000000004,-84.290612
"30342","Atlanta","GA","The Blue Heron Nature Preserve","4055 Roswell Rd NE","30342",33.86626078375593,-84.37987035652279
"30345","Atlanta","GA","Mary Scott nature preserve","4125 Briarcliff Rd","30345",33.856550074989464,-84.27937820271784
"30345","Atlanta","GA","Fisher Trail Park","Fisher Trail NE","30345",33.849308,-84.30201
"30350","Atlanta","GA","Sandy Springs Gun Club And Range","8040 Roswell Rd","30350",33.97445729126674,-84.35549658295844
"30350","Atlanta","GA","River Eves 2nd & 3rd Playground","Eves Rd","not_available",33.99394827457701,-84.31118860900315
"30350","Atlanta","GA","Circa 400 Apartments","501 Northridge Road","30350",33.9810297,-84.3455452
"30350","Atlanta","GA","Riverwalk End","9102-9104 Willeo Rd","30075",34.00678845199506,-84.37451485004173
"30350","Atlanta","GA","CHS HS Knights Football","Scott Road","30076",34.00756824337553,-84.29174665964698
"30354","Atlanta","GA","Harper Park","Ruby H Parker Blvd","30354",33.65427193388743,-84.38493076563768
"30354","Atlanta","GA","Empire Park","Oak Dr. S.E.","30349",33.66921080954873,-84.39276591941967
"30360","Atlanta","GA","Windwood Hollow Park","4865 Lakeside Dr","30360",33.941946885306194,-84.27860843401857
"30401","Swainsboro","GA","Harmon Park","Meadowlake Pkwy","30401",32.57811141919462,-82.32158138021131
"30401","Swainsboro","GA","main n main","not_available","30401",32.59189773582138,-82.3442326955238
"30415","Brooklet","GA","Brooklet Rec Park","Hwy 80","30415",32.38857057620833,-81.66196062115132
"30415","Brooklet","GA","Brooklet Gazebo","Parker Ave.","30415",32.38035779988562,-81.66278324121211
"30415","Brooklet","GA","Stilson Rec Park","Stilson","30415",32.322939695961566,-81.54374703818901
"30417","Claxton","GA","Senior Citizens Park","not_available","30417",32.1615814,-81.9040047
"30417","Claxton","GA","Bucknell Park","not_available","98503",32.16218808379599,-81.90354353763341
"30427","Glennville","GA","Glennville Rec","not_available","30427",31.947263166666666,-81.9558208
"30427","Glennville","GA","Barnard Park","214 W Barnard St","30427",31.936750411987305,-81.92851257324219
"30434","Louisville","GA","Wadley Memorial Park","not_available","30477",32.864383199305855,-82.39995343528895
"30442","Millen","GA","Ponderosa RV Park Inc.","460 Sandy Rd","30455",32.76593780517578,-81.80281829833984
"30457","Soperton","GA","Iva Park","not_available","30457",32.39185333251953,-82.5847396850586
"30458","Statesboro","GA","The Bark Park","2000 Stambuk Ln","30458",32.40270233154297,-81.76937866210938
"30458","Statesboro","GA","Mill Creek Tennis Courts","not_available","30461",32.45179068089343,-81.73660644130219
"30458","Statesboro","GA","Catherine Ave Park","Wells street","30458",32.42808705424871,-81.77608802102998
"30458","Statesboro","GA","Luetta Moore Park","not_available","30458",32.452946,-81.79044
"30458","Statesboro","GA","Mill Creek Regional Park","922 State Hig. 24","30461",32.45375826264932,-81.74136180396762
"30458","Statesboro","GA","Park Ave","Park Ave","30458",32.44441276144113,-81.77495050412023
"30467","Sylvania","GA","Sylvan Heights Park","W Ogeechee St.","30467",32.74052458257041,-81.64734663093189
"30501","Gainesville","GA","Clarks Bridge Park","3105 Clarks Bridge Rd","30506",34.35307116129517,-83.7941695408957
"30501","Gainesville","GA","Gainesville Circle In Square","not_available","30501",34.299471,-83.826907
"30501","Gainesville","GA","Holly Park","Holly Park Dr.","30501",34.33506757255631,-83.85343976649857
"30501","Gainesville","GA","Lanier Point Park","not_available","30504",34.29895515146369,-83.86945189697596
"30501","Gainesville","GA","City Park","Prior","30501",34.310760696839516,-83.82516375578706
"30501","Gainesville","GA","Midway Park","562 Grove Street","not_available",34.292078,-83.825252
"30501","Gainesville","GA","Laurel Park","3100 Old Cleveland Road","30506",34.34826940297314,-83.8080261165499
"30501","Gainesville","GA","Thompson Bridge Park","not_available","30506",34.35243280733502,-83.84600950873318
"30501","Gainesville","GA","Wilshire Park","Wilshire Rd","30501",34.305072832446726,-83.84410266145466
"30501","Gainesville","GA","Hh Dean Memorial Park","Ridgewood Ave","30501",34.305572,-83.832546
"30501","Gainesville","GA","Georgia Poultry Park","Jesse Jewell Pkwy","not_available",34.29678134577893,-83.82786762788875
"30501","Gainesville","GA","Dogwood Park","2249 Valley Rd NE","30501",34.339759826660156,-83.8311767578125
"30501","Gainesville","GA","Linwood Nature Preserve","160 Springview Drive","30501",34.32697296142578,-83.84452056884766
"30501","Gainesville","GA","Carrington Park Dog Park","100 Carrington Park Drive","not_available",34.30606421546698,-83.864586058636
"30504","Gainesville","GA","Little Hall Park","3375 Dawsonville Hwy.","30506",34.31203249314573,-83.94284813518237
"30504","Gainesville","GA","Keith's Bridge Park","9260 Old Keith Bridge Rd","30506",34.28301,-83.945881
"30504","Gainesville","GA","Chicopee Woods","2125 Elachee Dr","30504",34.24610900878906,-83.83199310302734
"30504","Gainesville","GA","Oakwood City Park","not_available","30566",34.22769685952,-83.88376764922108
"30506","Gainesville","GA","Toto Creek Park","not_available","30534",34.39436224072448,-83.98361045099631
"30506","Gainesville","GA","North Hall Park","Nopone Rd","not_available",34.40585050119527,-83.79869373844794
"30506","Gainesville","GA","Cool Springs Park","5579 Cool Springs Rd","30506",34.36289978027344,-83.95293426513672
"30506","Gainesville","GA","CB’s Party Cottage","2 Cottage Loop","30506",34.38085,-83.73781
"30506","Gainesville","GA","Tadmore Park","not_available","30507",34.26690633291132,-83.73519517741734
"30506","Gainesville","GA","Long Hollow","8515 Bryant Rd","30506",34.283308,-83.975561
"30506","Gainesville","GA","Alberta Banks Park","5576-5590 Jim Crow Rd","30542",34.2018744764316,-83.92638457602189
"30507","Gainesville","GA","Platt Park","U.S. 83","30504",34.188127351595874,-83.8241171836853
"30507","Gainesville","GA","East Hall Park","East Hall Rd","30507",34.31945354838781,-83.73690702271986
"30512","Blairsville","GA","Meeks Park","not_available","30512",34.86771107182749,-83.97500234846858
"30513","Blue Ridge","GA","Toccoa River Park","East Market Street","not_available",34.98598201646413,-84.36882935523649
"30513","Blue Ridge","GA","McCaysville City Park","Market St","30555",34.98630066688454,-84.37036423463441
"30513","Blue Ridge","GA","Veterans Memorial Bridge Ellijay","not_available","30540",34.67154031380378,-84.496803
"30513","Blue Ridge","GA","Blue Ridge Baseball Field & Pool","not_available","30513",34.86517,-84.317965
"30513","Blue Ridge","GA","Harrison Park of Ellijay","75 McCutchen St","30540",34.69755935668945,-84.4775390625
"30516","Bowersville","GA","Bowersville Park","not_available","30516",34.38734040738589,-83.07674112497874
"30517","Braselton","GA","Braselton Park","not_available","30517",34.106717127111644,-83.76417087164363
"30517","Braselton","GA","Riverstone Park","not_available","30548",34.125391694530116,-83.83567972862758
"30518","Buford","GA","Bogan Park","2723 North Bogan Road","30519",34.10671950378219,-83.96834651068707
"30518","Buford","GA","Buford High School","2750 Sawnee Ave","30518",34.13215136118127,-83.98637449939321
"30518","Buford","GA","Bogan Park Community Recreation Center","2723 Bogan Rd","30519",34.107584306273466,-83.96870672323094
"30518","Buford","GA","Sugar Hill City Lawn and Amphitheatre","5039 W Broad St","30518",34.10795052563318,-84.03534188624678
"30518","Buford","GA","Lower Overlook","800-1042 Buford Dam Rd","30518",34.158950461830315,-84.0700936143231
"30518","Buford","GA","bogan park","not_available","30519",34.104490430827816,-83.96543176893789
"30518","Buford","GA","Upper Overlook","1025 Buford Dam Rd","30518",34.153709411621094,-84.07044219970703
"30518","Buford","GA","Terror On The Trail","4600 Suwanee Dam Rd","30024",34.074795,-84.075525
"30519","Buford","GA","Old Ruined Water Mill","Woodward Mill Rd","30519",34.058555240722555,-83.99366891749729
"30519","Buford","GA","Brenau Park","not_available","30542",34.125496632829304,-83.86518403856806
"30520","Canon","GA","Royston Wellness and Community Park","Skelton St.","30662",34.2747072421894,-83.10873560164138
"30520","Canon","GA","Tri-County Wellness Park","Skelton Street","30662",34.28992462864151,-83.0996152522815
"30521","Carnesville","GA","Rocky Ford Park","not_available","30521",34.361729,-83.229438
"30521","Carnesville","GA","Sid And Augusta White Memorial Park","Aderholt Cir","30521",34.366745242556874,-83.2338686064269
"30523","Clarkesville","GA","athens community park","Talmadge Dr, GA","30523",34.61943054199219,-83.4311294555664
"30523","Clarkesville","GA","Tallulah Point Recreation Area","not_available","30523",34.725532,-83.382763
"30523","Clarkesville","GA","Terrora Day Use Park","not_available","30552",34.73893760626963,-83.39732318971741
"30523","Clarkesville","GA","Sam Pitts Park","221 Sam Pitts Creek","30523",34.61764589949709,-83.52848517149384
"30525","Clayton","GA","Mountain Rest Community Club and Hillbilly Day Park","145 Verner Mill Road","29664",34.842405,-83.133485
"30525","Clayton","GA","Reedy Branch Falls","not_available","29664",34.804923,-83.281222
"30528","Cleveland","GA","Yahoola Creek Park","not_available","30533",34.52922809750922,-83.96018074765664
"30528","Cleveland","GA","Riverside Park","Edelweiss Street","not_available",34.7007501677827,-83.72180484501249
"30528","Cleveland","GA","Smithgall Woods Conservation Area","not_available","30545",34.66724897818929,-83.7285652223142
"30528","Cleveland","GA","Cleveland City Park","not_available","30528",34.602134723032314,-83.7575491972578
"30529","Commerce","GA","Commerce City Park","113 Ridgeway Dr.","30529",34.2097730253962,-83.46253945749456
"30529","Commerce","GA","Hurricane Shoals Park","not_available","30558",34.21340098252533,-83.54289513618819
"30529","Commerce","GA","Lamar Murphy Park","not_available","30549",34.14954921862936,-83.55583996252781
"30529","Commerce","GA","LMP Soccer Fields","I w Davis Rd","30549",34.15015923898991,-83.55629256714403
"30529","Commerce","GA","Commerce City Parks Department","204 Carson St","30529",34.2112875586881,-83.46583843231201
"30530","Commerce","GA","East Jackson Recreation Fields","175 Lakeview Dr","30565",34.116485595703125,-83.42914581298828
"30531","Cornelia","GA","Cornelia City Park","not_available","30531",34.51414998186028,-83.52643451571187
"30531","Cornelia","GA","Mount Airy Town Park","Somewhere","30563",34.51235,-83.512856
"30533","Dahlonega","GA","Bull Mountain/ Jake Mtn.","Nimblewill Church Rd","30533",34.55493138581933,-84.14504144547536
"30534","Dawsonville","GA","Amicalola Falls","418 Amicalola Falls State Park Rd","30534",34.41150515337925,-84.1170604660796
"30534","Dawsonville","GA","Ettowa River","1396 Hugh Stowers Rd","30534",34.37075424194336,-84.09536743164062
"30534","Dawsonville","GA","River Park","34.359291,-84.114829","not_available",34.35939754284685,-84.11349534988403
"30535","Demorest","GA","Demorest Park","540 Georgia St","not_available",34.565087,-83.544185
"30538","Eastanollee","GA","Rose Lane Park","not_available","30577",34.5432110818573,-83.2975587733455
"30542","Flowery Branch","GA","Flowery Branch City Park","1 Park Road","30542",34.180954396513165,-83.93421359295712
"30542","Flowery Branch","GA","Old Federal Park","6223 Costa Lake Pt","30542",34.22328186035156,-83.94601440429688
"30542","Flowery Branch","GA","Alberta Park","Jim Crow Road","30542",34.21224748084557,-83.93302947973486
"30546","Hiawassee","GA","Hiawassee Town Square","N Main St","30546",34.95495528448744,-83.75911004718513
"30546","Hiawassee","GA","Towns County Park","not_available","30546",34.969161732537394,-83.77124547958374
"30548","Hoschton","GA","Signature Park","1675 HWY 211 NW","30548",34.07594563897925,-83.79040718078613
"30549","Jefferson","GA","Arcade City Park","344 Arcade Park St","30549",34.079429626464844,-83.56963348388672
"30549","Jefferson","GA","Boy Scout Hut","Boyscout ln","30549",34.01706592760768,-83.59421136132177
"30553","Lavonia","GA","Fairplay Recreation","Lakeshore Dr","29643",34.49019863237967,-83.00630276834222
"30554","Lula","GA","Lula Veterans Park","Main Street","30554",34.38736581519059,-83.6631148987979
"30554","Lula","GA","Lula Train Depot","Wall Street","30554",34.386817,-83.667191
"30565","Nicholson","GA","Sandy Creek Park","400 Bob Holman Rd","30607",34.027175036205,-83.38372002994126
"30577","Toccoa","GA","Paul Anderson Park","780-798 E Tugalo St","30577",34.580764424646944,-83.31870001651919
"30577","Toccoa","GA","Henderson Falls Park","Henderson Falls Road","30577‎",34.5775213657758,-83.33277940750122
"30577","Toccoa","GA","Rotary Park","115-101 Andrews Dr","30577",34.579094,-83.31720548333334
"30577","Toccoa","GA","Henderson Falls Park","674-704 Henderson Falls Rd","30577",34.59137198167062,-83.33305552722196
"30577","Toccoa","GA","Demorest Springs Park","not_available","30535",34.573840498924255,-83.31345677375793
"30601","Athens","GA","Dudley Park","1177 E Broad St.","30601",33.955107841563255,-83.36591005325317
"30601","Athens","GA","North Oconee River Park","Martin Luther King Jr. Dr.","30601",33.96229322639793,-83.36868955601416
"30601","Athens","GA","Sandy Creek Nature Center","205 Old Commerce Rd","30607",33.98711026920375,-83.38268193992967
"30601","Athens","GA","Highland Greens","950 Danielsville Rd","30601",33.98346710205078,-83.35702514648438
"30601","Athens","GA","Thomas N Lay Community Center & Park","297 Hoyt St","30601",33.964138,-83.37578
"30601","Athens","GA","Boulevard Woods","Boulevard","30601",33.96532363168104,-83.3846640586853
"30601","Athens","GA","ARMC Park","not_available","30606",33.958754923803305,-83.4004001900911
"30601","Athens","GA","Wesley Whitehead Park","Cherokee Ed","30683",33.967049673585116,-83.29275297726588
"30601","Athens","GA","ACC Tent City Nomadic Living and Recreational Park","151 Winterville RD","30605",33.948023698987726,-83.34938764572142
"30602","Athens","GA","UGA Intramural Fields","Uga","30602",33.93337296092277,-83.37299108505249
"30602","Athens","GA","Eugenia calhoun Hargreaves Memorial Park","not_available","30605",33.929647,-83.373331
"30602","Athens","GA","Tent City","not_available","30602",33.945914,-83.376503
"30602","Athens","GA","Oconee Forest Park","405 College Station Rd","30602",33.92885862233328,-83.37481486111793
"30605","Athens","GA","Athens Memorial Park","298 Gran Ellen Dr.","30606",33.92776478165384,-83.3858871459961
"30605","Athens","GA","Southeast Clarke Park","4440 Lexington Rd","30605",33.92749771628687,-83.31065654754639
"30605","Athens","GA","Satterfield Park","3028 Cherokee Rd.","30605",33.941811239456314,-83.32067728042603
"30606","Athens","GA","Bishop Park","705 Sunset Dr","30606",33.96571515323279,-83.41281652450562
"30606","Athens","GA","Bark Park","not_available","30622",33.880857,-83.483003
"30621","Bishop","GA","Herman C Michael Park","1051 Elder Rd","30621",33.86585445407186,-83.48000049591064
"30621","Bishop","GA","Oconee County Veterans Memorial Park","3500 Hog Mountain Rd","30677",33.869649446230845,-83.47935676574707
"30621","Bishop","GA","Heritage Park","2543 Macon Hwy","30677",33.76185989379883,-83.44500732421875
"30621","Bishop","GA","Harris Shoals Park","Harris Shoals Dr.","30677",33.868018155418554,-83.4194325745684
"30622","Bogart","GA","Bogart Sports Complex","200 S Burson Ave","30622",33.944502075617905,-83.52997367690153
"30627","Carlton","GA","Elbert County","not_available","30635",34.07963238055724,-82.90337360377994
"30627","Carlton","GA","McWilliams Park Baseball and Softball Fields","Mobley Hill Road, GA 30635","30635",34.08755727235824,-82.83278761925561
"30628","Colbert","GA","Madison Co. Memorial Park","not_available","30633",34.099159240722656,-83.20518136024475
"30630","Crawford","GA","Shaking Rock Park","Shaking Rock Road","30648",33.86710165320442,-83.11809539794922
"30630","Crawford","GA","Bryan Park","not_available","30630",33.889622730907625,-83.15527628726987
"30631","Crawfordville","GA","Kettle Creek Battlefield","not_available","30673",33.69077599113803,-82.88572490147769
"30634","Dewy Rose","GA","Dewy rose","not_available","30634",34.171446001545455,-82.96236134106717
"30642","Greensboro","GA","Greene County Recreation Complex","not_available","30642",33.60380703972573,-83.11370781813879
"30643","Hartwell","GA","Hart State Outdoor Recreation Area","Hartwell,GA,30643","30643",34.3528825,-82.932087
"30643","Hartwell","GA","Hattons Ford","Andersonville Road","not_available",34.483179688744755,-82.87305574165305
"30650","Madison","GA","Rock Eagle","not_available","31024",33.43533266589887,-83.39194590620417
"30650","Madison","GA","Hill Park","not_available","30650",33.58801521745506,-83.47430785882709
"30650","Madison","GA","SOUTHWIND RV PARK","RR 3 Box 52A","73942",33.608114541451336,-83.45461606979369
"30650","Madison","GA","Town Park","Madison St.","30650",33.596887404196515,-83.46957783832679
"30655","Monroe","GA","Felker park","not_available","30655",33.784338964958835,-83.7018462913107
"30655","Monroe","GA","Pilot Park","501-599 E Church St","30655",33.79314061396333,-83.70642393549247
"30655","Monroe","GA","Mathews Park","not_available","30656",33.824937469627244,-83.70349158311366
"30655","Monroe","GA","Stephen Felker Park Walking Trail","South Madison","30655",33.78307656973365,-83.70186186209929
"30666","Statham","GA","dooley town park","not_available","30666",33.96595764160156,-83.60289001464844
"30680","Winder","GA","Mayors Walk Park","not_available","30680",33.995972,-83.718731
"30680","Winder","GA","Barrow County Parks","Maynard st","30680",33.98357968333333,-83.72277733333334
"30701","Calhoun","GA","Calhoun Pedestrian Trail","Mauldin Rd","30701",34.51388,-84.952
"30701","Calhoun","GA","RiverPark Soccer Complex","not_available","30701",34.51630529113658,-84.95166537461255
"30701","Calhoun","GA","Calhoun Recreation Center","601 S River St","30701",34.49136444596195,-84.96066952072768
"30701","Calhoun","GA","Park With Water Fountain","215 N Piedmont St","30701",34.50408172607422,-84.94998931884766
"30701","Calhoun","GA","BB&T Park","N Wall St","30701",34.505800329939,-84.95092558950611
"30701","Calhoun","GA","Harold ""Ooky"" Faith Park","Amakanata Rd.","30701",34.46298168489362,-84.92768455612989
"30705","Chatsworth","GA","Veteran's Memorial Park","651 Hyden Tyler Rd","30705",34.79380416870117,-84.76150512695312
"30705","Chatsworth","GA","Eton Park","Glenn St.","not_available",34.824958,-84.758718
"30705","Chatsworth","GA","Heritage Park","not_available","30721",34.79505942864758,-84.94039291705276
"30705","Chatsworth","GA","Petty - Fairy Valley Park","HWY 41","30705",34.89957825159455,-84.75099220768271
"30705","Chatsworth","GA","Edwards Park Basketball Gym","3508 Cleveland Hwy","30721",34.8747444152832,-84.94412994384766
"30705","Chatsworth","GA","Chatsworth Park","not_available","30705",34.77062,-84.768376
"30705","Chatsworth","GA","Murray County Recreation Dept.","745 W Chestnut St","30705",34.77627944946289,-84.78369140625
"30705","Chatsworth","GA","Moravian Spring","Ellijay Rd.","30705",34.76670999783283,-84.83034034702546
"30707","Chickamauga","GA","Lafayette Parks & Recreation","not_available","30728",34.69324496461432,-85.27820127646646
"30707","Chickamauga","GA","Quarry In The Battlefield","not_available","30707",34.90414278575445,-85.28110607742698
"30707","Chickamauga","GA","Chickamauga Ball Park","400-498 Cove Rd","30707",34.86840872608574,-85.29325405448135
"30707","Chickamauga","GA","Joe Stock Park","101-199 Wardlaw St E","30728",34.70823622452237,-85.28066657829554
"30710","Cohutta","GA","Highland Forest Community Park","not_available","30710",34.907545107016176,-84.95892673136632
"30710","Cohutta","GA","Fidler Park","Highland Forest","30710",34.95930742175478,-84.95797655814584
"30710","Cohutta","GA","Varnell Springs Park","Spring St","not_available",34.899947551506756,-84.97631663691259
"30720","Dalton","GA","Civitan Park","North Tibbs Rd.","30720",34.779198811965955,-84.99615068897242
"30720","Dalton","GA","Brookwood Park","900-998 Brookwood Dr","30720",34.75789634,-84.98145766
"30720","Dalton","GA","Burr Performing Arts Park","not_available","30720",34.770967,-84.967487
"30720","Dalton","GA","Haig Mill Lake Park","652 Haig Mill Lake Rd","30721",34.80755,-84.987185
"30720","Dalton","GA","Dalton Green","250 North Selvidge Stree","30740",34.77281346370527,-84.97035295783887
"30720","Dalton","GA","James E. Brown Park","904 Civic Dr","30721",34.78504180908203,-84.96054077148438
"30720","Dalton","GA","The Spot","101 S Hamilton St","30720",34.77118682861328,-84.96756744384766
"30720","Dalton","GA","Valley Point Park","Old Field Rd SW","30721",34.68282319702136,-84.98883627004726
"30720","Dalton","GA","Lakeshore Park","41 Cedar St","30720",34.75327072651821,-84.97439654360322
"30720","Dalton","GA","Al Rollins Park","521 Threadmill Rd","30720",34.746196801059156,-84.97684478759766
"30720","Dalton","GA","Harry Griffin Park","Russell Ln","30755",34.84755459977203,-85.03813084323781
"30721","Dalton","GA","Dalton Community Center - Mack Gaston","214 Fredrick Street","30721",34.77337832308705,-84.95760563055308
"30725","Flintstone","GA","See Seven States","1400 Patten Rd","30750",34.9737978412053,-85.34768645707157
"30734","Ranger","GA","Salacoa Creek Park","not_available","30734",34.52575786129025,-84.75945209178809
"30736","Ringgold","GA","South Chickamauga Creek Memorial Canoe Launch","not_available","30736",34.910683,-85.11191
"30736","Ringgold","GA","Fort Oglethorpe Park","not_available","30742",34.957443,-85.254326
"30736","Ringgold","GA","Mcconnell Park","41 Catoosa Pkwy, Tunnel Hill, GA 30755","30755",34.906853,-85.07788
"30736","Ringgold","GA","Elsie A. Holmes Nature Park","88 Ben Holmes Rd","30736",34.9569206237793,-85.12120819091797
"30738","Rising Fawn","GA","Pee Wee's Pavilion","cureton mill rd","30738",34.7929,-85.5361
"30738","Rising Fawn","GA","Jenkins Park","not_available","30752",34.8685233,-85.50959481
"30747","Summerville","GA","Oscar H. Perry Park","not_available","30747",34.469555,-85.354847
"30747","Summerville","GA","Dowdy Park","10096 Commerce St","30747",34.480960845947266,-85.34719848632812
"30747","Summerville","GA","Sketchy Park Near Nathan's House","Simmons St","30753",34.538172483444214,-85.31124114990234
"30802","Appling","GA","Patriots Park","5445 Columbia Rd","30809",33.51966539071199,-82.22937313538199
"30802","Appling","GA","Blanchard Woods Park","4600 Blanchard Woods Dr","30809",33.55423297426901,-82.17320356977682
"30802","Appling","GA","ER Park","not_available","30809",33.521482,-82.219802
"30802","Appling","GA","Gateway Park Pavilion","not_available","30813",33.477404,-82.192375
"30805","Blythe","GA","Diamond Lakes Recreation Park","Windsor Spring Road","30815",33.355384594289355,-82.08980172331343
"30805","Blythe","GA","Fairlane Drive","not_available","30815",33.353339,-82.100771
"30809","Evans","GA","Lakeside Park","not_available","30907",33.537945,-82.095424
"30809","Evans","GA","Columbia County Amphitheatre","7022 Evans Town Center Blvd","30809",33.547044732560124,-82.13371491710329
"30809","Evans","GA","Boat Ramp","Hardy McManus Rd","30809",33.580664662064756,-82.13278494569792
"30809","Evans","GA","Wedge Wood Park","473 Old Evans Rd","30907",33.5281797410121,-82.11229592596113
"30809","Evans","GA","Riverside Park","Hardy McManus Rd","30907",33.581153753499365,-82.13249266646305
"30809","Evans","GA","Keeling Park","Keeling Ln.","not_available",33.586554942083055,-82.15133956399497
"30813","Grovetown","GA","Centurion Field","not_available","30905",33.42369,-82.150977
"30813","Grovetown","GA","Liberty Park","1040 Newmantown Rd","30813",33.437313079833984,-82.20687103271484
"30813","Grovetown","GA","Blanchard Park Softball Field","Sheldon Dr","30907",33.50195693517044,-82.1472592381514
"30813","Grovetown","GA","Goodale Park","5200 Wrightsboro Rd.","30813",33.45707321166992,-82.20240783691406
"30815","Hephzibah","GA","Phinizy Swamp Nature Park","1858 Lock and Dam Rd","30906",33.38542771172053,-81.96713716007265
"30815","Hephzibah","GA","Elliott Park","2027 Lumpkin Rd","30906",33.419564,-82.02015899999999
"30815","Hephzibah","GA","Fleming Athletic Complex","Lumpkin Rd","not_available",33.418235,-82.012474
"30815","Hephzibah","GA","Applevalley Park","not_available","30906",33.39426,-81.998584
"30816","Keysville","GA","Davis Park","Davis Rd, Waynesboro, GA 30830","30830",33.097253091754375,-82.00881515953579
"30816","Keysville","GA","Jonathan Broxton Park","465 Burke Veterans Pkwy","30830",33.07596969604492,-81.9940185546875
"30817","Lincolnton","GA","lincoln county historical park","147 Lumber St.","not_available",33.78776931762695,-82.478759765625
"30818","Matthews","GA","The Track","not_available","30833",33.2137005617507,-82.38304225506336
"30820","Mitchell","GA","Hamburg State Outdoor Recreation Area","Mitchell,GA,30820","30820",33.21041795646532,-82.77796054805421
"30824","Thomson","GA","Relay For Life","not_available","30824",33.471746508887236,-82.47447452379856
"30830","Waynesboro","GA","Waynesboro City Park","not_available","30830",33.08788777846921,-81.96450052513921
"30901","Augusta","GA","Riverwalk","605 Reynolds St","30901",33.47719263871109,-81.96273206157748
"30901","Augusta","GA","Doughty Park","Nellieville Rd","30901",33.44485606098459,-82.00369390283733
"30901","Augusta","GA","May Park","4th St","not_available",33.46528681841607,-81.95931147264947
"30901","Augusta","GA","Awkward Statue","not_available","30901",33.47898,-81.972973
"30901","Augusta","GA","Greenwat","not_available","29841",33.483896,-81.988935
"30901","Augusta","GA","8th Street Bulkhead & Stage","8th Street","30901",33.47827590097899,-81.9636642390258
"30901","Augusta","GA","Augusta Green Way","Broad St.","30901",33.47430107793505,-81.96264266967773
"30904","Augusta","GA","Riverview Park","100 Riverview Park Dr","29841",33.49983951190009,-81.9850264508107
"30904","Augusta","GA","Pendleton King Park","White Rd.","30904",33.45964907646943,-82.01414897115103
"30904","Augusta","GA","Lions Park","Alta Vista","29841",33.495950455279655,-81.98225467304337
"30904","Augusta","GA","Green Space of CSRLT","not_available","30909",33.494819071803725,-82.03099951497529
"30904","Augusta","GA","North Augusta Greenway","Greenway Dr.","30909",33.49454553683387,-81.98292832338502
"30904","Augusta","GA","Julian Smith Barbeque Pit","87 Milledge Road","3094",33.49350906376558,-82.00322008834165
"30904","Augusta","GA","Hickman Park","965 Hickman Rd","30904",33.473566999999996,-82.01100600000001
"30904","Augusta","GA","Wood Park Community Center","1866 Highland Avenue","30906",33.46302093474108,-82.03610286459157
"30904","Augusta","GA","Miracle Field","1 Freedom Way","30904",33.46455764770508,-82.02649688720703
"30904","Augusta","GA","Premiere Tree Services of Augusta","2803 Wrightsboro Rd Ste 15-162","30909",33.47030258178711,-82.03569793701172
"30904","Augusta","GA","Minnick Park","Kissingerbower Road","30904",33.450647,-82.023218
"30904","Augusta","GA","A.L. Williams Park","Broad St.","not_available",33.48550038321906,-81.99506360219914
"30904","Augusta","GA","Boeckh Park","Front Street","29841",33.48594019335036,-81.98295494974963
"30907","Augusta","GA","Montclair Park","Crane Ferry Rd","30907",33.51263101277187,-82.06895043088656
"30907","Augusta","GA","Savannah Rapids","3300 Evans To Locks Rd","30907",33.548617077480195,-82.03868366982837
"30907","Augusta","GA","Swamp Soiree","Augusta, GA 30907","30907",33.542575,-82.033496
"30907","Augusta","GA","SBH Fitness","mobile service","30916",33.49803131621426,-82.10829734802246
"30907","Augusta","GA","Brookfield Park","River Watch Parkway","30907",33.52268499300181,-82.05550803502139
"31005","Bonaire","GA","the halfway point","Hunt Rd","31047",32.53731358693804,-83.66120366644076
"31005","Bonaire","GA","indian springs","not_available","31005",32.5589094,-83.6355649
"31005","Bonaire","GA","Ted Wright Park","Moody Rd.","31088",32.56400629938281,-83.62479600617482
"31006","Butler","GA","Taylor County Boondocks Mud Park","1209 W Fall Line Fwy","31006",32.581146240234375,-84.33104705810547
"31008","Byron","GA","North Peach Park","not_available","31008",32.64638541674649,-83.74869346618652
"31008","Byron","GA","Jailhouse Park","Jailhouse Alley","31008",32.65294195238876,-83.75923449864386
"31014","Cochran","GA","River Town Park Downtown Hawkinsville","commerce st","31036",32.281568663679565,-83.46467033015011
"31015","Cordele","GA","Turner park","not_available","31015",31.955910150195887,-83.7761160963554
"31015","Cordele","GA","Cordele Catfish Hatchery","252 Williams Lake Rd","31015",31.969253540039062,-83.82234191894531
"31016","Culloden","GA","Roberta City Park","not_available","31078",32.719930225717086,-84.01103354912675
"31017","Danville","GA","The Smoke Pit","350 Warner Robins Rd, Jeffersonville, GA 31044","31044",32.68880844116211,-83.33854675292969
"31020","Dry Branch","GA","East Macon Park","3326 Ocmulgee East Blvd","31217",32.83375930786133,-83.57213592529297
"31020","Dry Branch","GA","Barbarian Challenge","not_available","31217",32.750584,-83.511313
"31021","Dublin","GA","Fairview Fitness Park Track","200 Industrial Blvd","31021",32.53226089477539,-82.95049285888672
"31021","Dublin","GA","warnock park","not_available","31021",32.53493881225586,-82.9002456665039
"31021","Dublin","GA","Southern Pines Regional Park","575 Southern Pines Rd","31021",32.49012077440195,-82.92172161457363
"31024","Eatonton","GA","Rock Eagle","350 Rock Eagle Rd","31024",33.41764653857039,-83.37233663534302
"31028","Centerville","GA","Center Park At Centerville","Church St","31028",32.624474,-83.68523
"31028","Centerville","GA","Miller Park","Miller Ct.","31028",32.630168184162955,-83.68803262710571
"31029","Forsyth","GA","Monroe County Rest Area No. 22","Interstate 75","31046",32.97220655161471,-83.82791103531765
"31029","Forsyth","GA","Tabernacle Lake","not_available","31066",32.854884,-83.917621
"31029","Forsyth","GA","Mt Zion Park","not_available","31029",33.0152209,-83.8881972
"31030","Fort Valley","GA","Perry Creekwood Park","Creekwood Dr","31069",32.455457014512035,-83.74508691673752
"31030","Fort Valley","GA","Music On The Mound","1033 Macon Rd","31069",32.459651947021484,-83.7311782836914
"31030","Fort Valley","GA","festival park fort valley","310 Martin Luther King Jr Dr","31030",32.55092239379883,-83.88468933105469
"31031","Gordon","GA","Gordon Park","not_available","31031",32.887204772906365,-83.33037907628608
"31031","Gordon","GA","Jones County","Hwy 49","not_available",32.94896312212083,-83.46072633598271
"31032","Gray","GA","Liberty Park","not_available","31032",32.93568569078717,-83.64750652269827
"31032","Gray","GA","Bibb County Relay For Life","1600-1746 Jennifer Dr","31206",32.93081195806724,-83.67888033479343
"31042","Irwinton","GA","City Park","not_available","31090",32.823177,-83.076195
"31047","Kathleen","GA","Rozar Park","1060 Keith Dr","31069",32.46310587344875,-83.70660039123067
"31052","Lizella","GA","Claystone Park","Moseley Dixon Rd.","not_available",32.827476210166246,-83.77652045166177
"31052","Lizella","GA","Arrowhead Park","2800 Arrowhead Dr","31052",32.81377029418945,-83.79937744140625
"31052","Lizella","GA","Claystone Pavillion","Lake Tobe","31220",32.82743261352163,-83.77478377877345
"31061","Milledgeville","GA","Oconee Greenway","201 E Greene St","31061",33.08276433906619,-83.2156075917004
"31061","Milledgeville","GA","Central City Park","not_available","31061",33.078847428962746,-83.23920683703628
"31061","Milledgeville","GA","Baldwin County Recreation Department","Hwy 22","not_available",33.09400447338252,-83.22901623844776
"31061","Milledgeville","GA","Front Lawn","261 W Hancock St.","31061",33.08123539516767,-83.23059016055521
"31061","Milledgeville","GA","Green Way","Idk","31061",33.082823976743185,-83.21584817687061
"31064","Monticello","GA","Westview Park","not_available","31064",33.307662753246035,-83.68879660240091
"31068","Oglethorpe","GA","Ohlethorpe Park","not_available","31068",32.305330639615036,-84.06538338520585
"31082","Sandersville","GA","Gin Branch","not_available","31089",32.88029098510742,-82.81964874267578
"31087","Sparta","GA","School Playground","not_available","31087",33.299514367029616,-82.97016291676147
"31088","Warner Robins","GA","Wellston Park","not_available","31093",32.619723,-83.652704
"31088","Warner Robins","GA","Briarcliff Park","208 Briarcliff Rd","31088",32.61350631713867,-83.63251495361328
"31088","Warner Robins","GA","The Walk At Sandy Run","not_available","31088",32.575198,-83.663839
"31088","Warner Robins","GA","Fountain Park","614 Kimberly Rd.","31088",32.60396670229938,-83.64566723676474
"31088","Warner Robins","GA","Tanner Park","200 Carl Vinson Pwky.","31088",32.59636894265993,-83.66302141596616
"31093","Warner Robins","GA","Peavy Park","711 Johnson Rd.","31093",32.641165101919974,-83.6461298899689
"31093","Warner Robins","GA","Ferguson Memorial Park","Elberta Rd","31093",32.65133440614818,-83.62575738228244
"31201","Macon","GA","Central City Park","Riverside Dr","not_available",32.8320085793878,-83.61606334322462
"31201","Macon","GA","Central City Park","not_available","31204",32.854219624172615,-83.64555844862015
"31201","Macon","GA","Center City Park","not_available","31201",32.81659090929726,-83.62408925541652
"31201","Macon","GA","Rose Park","High St","31201",32.83487814689022,-83.63905403942942
"31201","Macon","GA","Third Street Park","Cherry Street","31201",32.835973238389464,-83.62718791225794
"31201","Macon","GA","The Peaceful Place","Ocmulgee National Park Rd","31217",32.8393113,-83.61154866
"31201","Macon","GA","G. Bernd Park","Magnolia St","31201",32.83935642897107,-83.63410949707031
"31201","Macon","GA","Tatnall Square Park","1155 College St","31201",32.83302136708789,-83.64705457491523
"31201","Macon","GA","Awakening Fires","pursley st","31211",32.842514783333336,-83.64744055
"31201","Macon","GA","Washington Park","1150 Magnolia St.","31201",32.839215134398486,-83.63787048876081
"31204","Macon","GA","Freedom Park","3315 Roff Ave","not_available",32.84248182962067,-83.68476579291317
"31204","Macon","GA","North Macon Park","998 N Macon Park Dr","31210",32.88769581969568,-83.68218210735061
"31204","Macon","GA","John Drew Smith Tennis Center","not_available","31210",32.88852391010885,-83.67926354964382
"31301","Allenhurst","GA","Hillery park","not_available","31301",31.774826049804688,-81.62268829345703
"31302","Bloomingdale","GA","Taylor Park","not_available","31302",32.11027417741295,-81.30929861676466
"31305","Darien","GA","Fort King George Historic Site","not_available","31305",31.36469359042071,-81.41647049342458
"31308","Ellabell","GA","Hendrix Park","444 Park Pl","31308",32.173606872558594,-81.51253509521484
"31308","Ellabell","GA","Hendrix Park-go Coop And The Swamp Gators!","not_available","31308",32.1753823501786,-81.51498978571283
"31312","Guyton","GA","Ulmer Park","not_available","31329",32.37253558727806,-81.31337177952146
"31312","Guyton","GA","Springfield Recreational Park","224 Courthouse Rd","31329",32.34950637817383,-81.31261444091797
"31312","Guyton","GA","Honey Badger Hut","not_available","31312",32.248754,-81.365212
"31313","Hinesville","GA","Irene B. Thomas Park","Sharon Street","31313",31.826893535542908,-81.61548225124744
"31313","Hinesville","GA","James A. Brown Park- Liberty County","Patriots Trail","31313",31.846256371535002,-81.5723808263711
"31313","Hinesville","GA","Bradwell Park","Commerce Street","31313",31.847033902244245,-81.59560761055506
"31313","Hinesville","GA","Motor Pool Tree","Gulick Ave","31315",31.87373121710131,-81.62369177553455
"31313","Hinesville","GA","Playground By Px","Hase Rd","31314",31.866261085858657,-81.60665308656881
"31313","Hinesville","GA","Holmes Town Park","not_available","31320",31.80771,-81.536835
"31313","Hinesville","GA","Bryan Village Park","not_available","31315",31.895070838494043,-81.59782389762337
"31313","Hinesville","GA","Gwinett Ct Park","Gwinett Ct","31315",31.893899,-81.603556
"31313","Hinesville","GA","Gum Branch Park","GA Hwy 196 W","31313",31.849223104941647,-81.70211823051065
"31313","Hinesville","GA","Park @ Ft Stewart","Across from PX","31314",31.86634245608862,-81.60684896745447
"31316","Ludowici","GA","Wayne County Recreation Department","Bill Morris Park","31545",31.602775328804928,-81.90956211444247
"31320","Midway","GA","Tranquilla Hall Park","not_available","31324",31.849198713674564,-81.26171044459436
"31322","Pooler","GA","Pooler Park","Rogers St","31322",32.107481485644165,-81.25047700044203
"31322","Pooler","GA","Pooler Memorial Park","not_available","31322",32.12102,-81.267001
"31322","Pooler","GA","Berwick Plantation Lakeside Park","not_available","31405",32.044351592491346,-81.235826433127
"31322","Pooler","GA","Pooler Recreation Park","S.Rogers Road","31322",32.106756653913436,-81.25046086698559
"31323","Riceboro","GA","Harris Neck National Wildlife Refuge","Harris Neck Rd","31331",31.606751175159967,-81.41774372875004
"31323","Riceboro","GA","Smallest Church In America","not_available","31331",31.658249151349622,-81.3929483923869
"31324","Richmond Hill","GA","J F Gregory Park","521 Cedar St","31324",31.946595415041593,-81.3048436832853
"31324","Richmond Hill","GA","Crusader Community Park","81 Coffee Bluff Villa Rd","31419",31.94584846496582,-81.14928436279297
"31324","Richmond Hill","GA","Veterans Memorial Park","not_available","31419",31.979883,-81.138794
"31324","Richmond Hill","GA","Coffee Bluff Marina","Coffee Bluff Rd","31419",31.936303999999996,-81.154386
"31324","Richmond Hill","GA","Joseph J. Tribble Park","Lavida Ct.","31419",31.96871512047028,-81.15602731704712
"31326","Rincon","GA","Giles Park","101-119 Atlantic St","31326",32.290059125130085,-81.24043596054744
"31326","Rincon","GA","Patriot Park Tennis Courts","not_available","31326",32.306169839836976,-81.24166763132874
"31328","Tybee Island","GA","Fort Screven","Van Horne St","31328",32.02174430682417,-80.84441460612778
"31328","Tybee Island","GA","Memorial Park","5th St","31328",32.008498468298264,-80.84402539707791
"31328","Tybee Island","GA","Battery Park","not_available","31328",32.01611661,-80.87057255
"31328","Tybee Island","GA","Tybee Island Dog Park","80 Van Horne Street","31328",32.02400020687568,-80.8502795413554
"31328","Tybee Island","GA","The Park Of Seven Flags","End Of U.S 280","not_available",31.992129,-80.849577
"31328","Tybee Island","GA","Tybee Island Tennis Club (ha!)","4th Street","31328",31.99099328,-80.84894301
"31401","Savannah","GA","Forsyth Park","Drayton St","31401",32.068119657785196,-81.09589892468117
"31401","Savannah","GA","Chippewa Square","16 W Hull St","31401",32.075790622380005,-81.09314829111099
"31401","Savannah","GA","Cann Park","46th Street","31405",32.05103083954129,-81.11096128287753
"31401","Savannah","GA","Atlantic Avenue Mall","Atlantic Avenue","not_available",32.0527098721556,-81.09174664945101
"31401","Savannah","GA","Wells Park","38th Street","31401",32.05769993541927,-81.10538005839771
"31401","Savannah","GA","Washington Square","Houston St","31401",32.07835861623115,-81.0853159948024
"31401","Savannah","GA","Starland Yard","2411 Desoto Ave","31401",32.054627,-81.101965
"31401","Savannah","GA","Warren Square","Warren Square","31401",32.07896340610782,-81.08730348968115
"31401","Savannah","GA","Orleans Square","Orleans Square","31401",32.07634466419842,-81.09540851938998
"31401","Savannah","GA","Guckenheimer Park","Battey St","31405",32.04966291666313,-81.09544089849689
"31401","Savannah","GA","Reynolds Square","E Congress St","31401",32.07932536630871,-81.08935469101534
"31401","Savannah","GA","Emmett Park","300-398 E Bay St","31401",32.080008746843085,-81.08654388185943
"31401","Savannah","GA","Troup Square","Troup Square","31401",32.07250906298363,-81.0896780349669
"31401","Savannah","GA","Whitefield Square","Whitefield Square","31401",32.07031061257636,-81.09047692718524
"31401","Savannah","GA","Avondale Park","Texas Ave","31404",32.05110717790735,-81.06035891422867
"31401","Savannah","GA","Calhoun Square","Abercorn Street","not_available",32.070792686322825,-81.09253406524658
"31401","Savannah","GA","Nathanael Greene Monument","Johnson Square","31401",32.07988259690835,-81.09159535803931
"31401","Savannah","GA","Live Oak Park","not_available","31404",32.06042583130486,-81.07409929682726
"31401","Savannah","GA","Entelman Park","46th Street","not_available",32.050073718870486,-81.10197556322919
"31401","Savannah","GA","Savannah's Irish and Robert Emmet Park","E Bay Ave","not_available",32.07992643969387,-81.08646843342267
"31401","Savannah","GA","Morrell Park","488-572 E River St","31401",32.08004530523118,-81.08459270524904
"31401","Savannah","GA","Ardsley Park - Hedman Park","500 E. 46th St.","not_available",32.048677673799915,-81.09231547181287
"31401","Savannah","GA","Ben Clark Park","Live Oak","31404",32.05998220950499,-81.079137325396
"31401","Savannah","GA","Soldiers Field Park","Paulsen","31401",32.06548458934617,-81.0831713677544
"31404","Savannah","GA","Solomons Park","East 50th St.","not_available",32.043940261697045,-81.08750831112533
"31404","Savannah","GA","Theus Park","45th Street","31405",32.04722438541606,-81.0880708694458
"31404","Savannah","GA","Daffin Park","1100-1198 Washington Ave","31405",32.04504182822618,-81.08184814453125
"31404","Savannah","GA","Forrest Hills Park","Skidaway","31404",32.022291022029265,-81.07602890283621
"31404","Savannah","GA","Hull Park","East 55th Street","31405",32.04219986739108,-81.09486705173998
"31404","Savannah","GA","Scarborough Fields","Skidaway Road","31406",32.01207888959607,-81.08124732971191
"31404","Savannah","GA","March of Dimes-March for Babies","4750 Waters Ave","31404",32.030404,-81.088838
"31405","Savannah","GA","McCauley Park","East 50th Street","31405",32.04378178889092,-81.09938145250148
"31405","Savannah","GA","Snowy Mountain Christmas Trees","not_available","31406",32.00491714477539,-81.11460876464844
"31405","Savannah","GA","Bowles Ford Park","Cloverdale","31415",32.06462993123669,-81.11975669871754
"31405","Savannah","GA","Vetsburg Park","3400-3498 Abercorn St Exn","31405",32.03805894004843,-81.1024365071225
"31405","Savannah","GA","Kennedy Park","Collat St.","31415",32.073001903209565,-81.12557172786182
"31406","Savannah","GA","Lake Mayer Park","Lake Mayer Park","31406",31.99074379154175,-81.0875732068447
"31406","Savannah","GA","Midpoint Square","12 Tidewater Way","31411",31.92788314819336,-81.04507446289062
"31406","Savannah","GA","Barjan Terrace Park","5600 Emory Dr.","31406",32.01407119201737,-81.07222795497364
"31407","Port Wentworth","GA","Aerial Silks Class","38 Bearing Cir","31407",32.192192999999996,-81.201818
"31407","Port Wentworth","GA","Gulfstream Aerospace Picnic Area","not_available","31408",32.139239,-81.191116
"31407","Port Wentworth","GA","walkin the dogs","not_available","31407",32.15417509516098,-81.17272845603485
"31408","Savannah","GA","Hudson Hill Park","not_available","31415",32.09211518387552,-81.1265751820487
"31408","Savannah","GA","Charlie S. Bryan Park","King St.","31408",32.08739232640082,-81.13657951365894
"31408","Savannah","GA","Carver Village Park","Winburn St","31415",32.06966684364746,-81.11876964580006
"31408","Savannah","GA","W.C. Ross Park","Stratford","31415",32.0887209547879,-81.13076448451466
"31408","Savannah","GA","Rebecca Gray Park","W. Lathrop","31415",32.09340963315667,-81.12718105327076
"31408","Savannah","GA","Ten Broeck Race Course Park","2053 Augusta Ave","31415",32.08717871381749,-81.12514436244965
"31408","Savannah","GA","Fellwood Park","Richards St.","31415",32.085466764779056,-81.1183619500298
"31409","Savannah","GA","Staley Heights Park","Dillon Ave","31405",32.033547683738774,-81.12359762202686
"31410","Savannah","GA","Charles C. Brooks Community Park","7001 Johnny Mercer Blvd","31410",32.02130341201029,-80.96972228284542
"31410","Savannah","GA","Mary Musgrove Drive","not_available","31410",31.996843909252778,-80.97672082502154
"31410","Savannah","GA","East Downtown Park","330 Bunting Dr","31404",32.061803000000005,-81.043408
"31415","Savannah","GA","Westside Park","Carolan","31415",32.08878306845822,-81.11593723308033
"31415","Savannah","GA","Cloverdale Park","Cloverdale Dr.","31415",32.06429057364581,-81.1210269796613
"31415","Savannah","GA","Man On Fire","not_available","31401",32.05881226359182,-81.1013465364253
"31419","Savannah","GA","Al Henderson Park","Brown Thrush Rd.","not_available",32.0081443189423,-81.25817227446409
"31501","Waycross","GA","Waycross Water Tower Park","not_available","31501",31.208342738635906,-82.35874312072191
"31501","Waycross","GA","Voight Field","McQuaig Street","31501",31.221242836744313,-82.3474645614624
"31501","Waycross","GA","Folks Park","not_available","31503",31.211131218632264,-82.3640665625459
"31503","Waycross","GA","Okefenokee Swamp Park","US 1 South","31503",31.1234304230234,-82.2705216481394
"31503","Waycross","GA","Emerson Park Community Center","1224 New Mexico","not_available",31.16838,-82.419648
"31510","Alma","GA","Alma Mx Park","not_available","31510",31.48094397657935,-82.4496580350327
"31513","Baxley","GA","Water Works Park","93 Tippins St","31513",31.777873992919922,-82.35028076171875
"31520","Brunswick","GA","Howard Coffin Park","not_available","31520",31.15179096024829,-81.47864574689143
"31520","Brunswick","GA","Sidney Lanier Park","1 Conservation Way","31520",31.129396438598633,-81.4762191772461
"31520","Brunswick","GA","Marshes of Glynn Overlook Park","US 17","31520",31.153139666455232,-81.47844736118766
"31520","Brunswick","GA","Jekyll Square","Newcastle Street","not_available",31.148859667055316,-81.49619277693657
"31522","Saint Simons Island","GA","Neptune Park","Mallery St","31522",31.13424690121001,-81.39487541916607
"31522","Saint Simons Island","GA","Mallery Recreation Park","98-102 Mallery St","31522",31.138661933149827,-81.39364083937855
"31522","Saint Simons Island","GA","Harrington Community Park","not_available","31522",31.206522,-81.367472
"31522","Saint Simons Island","GA","Frederica Park","Lawrence Rd","31522",31.23968523044192,-81.35541264915463
"31523","Brunswick","GA","our dog park","not_available","31523",31.191348997763978,-81.65816832065211
"31527","Jekyll Island","GA","Great Dunes Beach Park","N Beachview Dr","31527",31.050193836412603,-81.40960507036652
"31527","Jekyll Island","GA","Jekyll Island Bike Trails","100 Great Dunes Rd","31527",31.11625886290825,-81.4162519436338
"31533","Douglas","GA","Emma Ward Park","not_available","31533",31.509740240334928,-82.84634275392736
"31537","Folkston","GA","Hilliard Ball Park","not_available","32046",30.68327189838442,-81.95616919232867
"31537","Folkston","GA","cedar ridge rv park","not_available","31537",30.82162547790535,-81.99923779395847
"31539","Hazlehurst","GA","Weather Park - Walking Track","22-36 Davis St","31539",31.85933413232742,-82.60198001492529
"31547","Kings Bay","GA","Bancroft Memorial","USS Benjamin Franklin Dr","31558",30.78197822750796,-81.57512135019977
"31547","Kings Bay","GA","Hidden Park","not_available","31558",30.77680015563965,-81.55705261230469
"31548","Kingsland","GA","Howard Peeple's Park","656 Gross Rd.","31548",30.801646189034678,-81.63460251450498
"31548","Kingsland","GA","Kingsland Veteran's Memorial Park","King Ave","not_available",30.7998,-81.69104
"31548","Kingsland","GA","Lookout Park","not_available","31548",30.76842498779297,-81.62303924560547
"31558","Saint Marys","GA","Sugarmill Pool","2200 Sugarmill Blvd","31558",30.774740601145048,-81.58226251602173
"31558","Saint Marys","GA","Waterfront","Dilworth St","31558",30.720421427949066,-81.55133771704384
"31558","Saint Marys","GA","Howard Gilman Memorial Park","St Marys St","31558",30.720341946225002,-81.5513805697914
"31558","Saint Marys","GA","Sugarmill Ruins","3570 Charlie Smith SR Hwy","31558",30.793140741759604,-81.57768753432619
"31568","White Oak","GA","Crooked River, Georgia","not_available","31569",30.920073338504597,-81.68596689842092
"31601","Valdosta","GA","Mack's Park","not_available","31601",30.831860081768568,-83.27775868073617
"31601","Valdosta","GA","Shannon Hill Memorial Park","Hillcrest Drive","31602",30.852710492237566,-83.30036895322397
"31601","Valdosta","GA","Drexel Park","100-198 E Brookwood Dr","31602",30.846499781532597,-83.28581005869614
"31601","Valdosta","GA","Payton park","539 Griffin Ave, Valdosta, GA 31601","31601",30.82155280417788,-83.25350182031893
"31601","Valdosta","GA","Park","1201 River St","31601",30.828688144683838,-83.30034613609314
"31601","Valdosta","GA","Wood Valley Community Center","not_available","31602",30.849814422636157,-83.32275199116725
"31601","Valdosta","GA","Lake Park Library Park","not_available","31636",30.682242045474965,-83.217851275277
"31601","Valdosta","GA","McKey Park","Ashley Street","31602",30.856860345584597,-83.29966903140986
"31602","Valdosta","GA","Valdosta Lowndes Parks and Recreation Authority","Forrest St","31602",30.86182752142898,-83.26246299898214
"31602","Valdosta","GA","Jungle Jym's","3124 N Oak St","31602",30.881202697753906,-83.29240417480469
"31602","Valdosta","GA","Pike's Park","Planters Crossing","31602",30.90615491365923,-83.3593439457498
"31602","Valdosta","GA","Grove Point","not_available","31632",30.917875030853168,-83.33888947381273
"31605","Valdosta","GA","Grand Bay WMA","not_available","31605",30.932706461291048,-83.19424890846705
"31605","Valdosta","GA","Moody AFB Airshow","not_available","31699",30.974966340557707,-83.20010365818911
"31626","Boston","GA","Boston Park","not_available","31626",30.792747,-83.790187
"31631","Fargo","GA","Okefenokee Swamp","Fargo, GA 31631","31631",30.68533276544179,-82.56168230580252
"31632","Hahira","GA","Hahira City Park","303 S Church St","31632",30.988597869873047,-83.3713150024414
"31634","Homerville","GA","Macy Brance Park","not_available","31634",31.035774,-82.75312
"31639","Nashville","GA","ATCO Senior Center","not_available","31650",31.33453,-83.04277
"31701","Albany","GA","Chehaw Park","105 Chehaw Park Rd","31701",31.62528467107889,-84.13460969924927
"31701","Albany","GA","Pratt park","347 Doster Road","36067",31.608576730251837,-84.17632614816918
"31701","Albany","GA","walk MS","not_available","31701",31.577482386813443,-84.15373871563807
"31701","Albany","GA","Confederate War Memorial","Philema Rd.","31701",31.62282025615679,-84.12925123912026
"31701","Albany","GA","Riverfront Park","Front St.","31701",31.577874938653398,-84.14851432175901
"31701","Albany","GA","Hilsman Park","not_available","31707",31.589949358581272,-84.16981639328431
"31709","Americus","GA","Reese Park","not_available","31709",32.066154772903744,-84.22475350705396
"31738","Coolidge","GA","barwick City Park","Hwy 33","31720",30.9489909564694,-83.80486020962105
"31744","Doerun","GA","Doerun City Park","Doerun,GA,31744","31744",31.263895998649726,-83.91397709934546
"31750","Fitzgerald","GA","Legion Park","809 N Main St","31750",31.723485946655273,-83.25402069091797
"31757","Thomasville","GA","Remington Park","2551 E Pinetree Blvd","31792",30.84928321838379,-83.949951171875
"31763","Leesburg","GA","Leesburg Central Park","4th Street","31763",31.73054638211019,-84.17216987541144
"31763","Leesburg","GA","Indian Oaks & Foxchase","not_available","31763",31.726972836570635,-84.16414492979052
"31768","Moultrie","GA","Packer Park","not_available","31771",31.204976,-83.753557
"31768","Moultrie","GA","WOW Park","not_available","31768",31.176076626788177,-83.7945012229856
"31772","Oakfield","GA","Creek Bottom Trail Rides","101 Cleo Boyd Rd","31796",31.687152862548828,-83.90635681152344
"31781","Poulan","GA","Possum Poke Park","not_available","31781",31.515755033653264,-83.78285500659126
"31781","Poulan","GA","Jeffords Park","not_available","31791",31.53051728623612,-83.83538811955597
"31792","Thomasville","GA","Holder Park","not_available","39828",30.87757128765056,-84.2154386520438
"31792","Thomasville","GA","Southern Terrace","1006-1098 1st St SW","39828",30.86469623052287,-84.21065937074394
"31794","Tifton","GA","Veterans Memorial Park","not_available","31794",31.459742040027376,-83.50539844262754
"31805","Cusseta","GA","SlashPad","not_available","31805",32.30850464506256,-84.78822875120913
"31808","Fortson","GA","Track Practice","not_available","31909",32.58921848173246,-84.91421056495614
"31808","Fortson","GA","Lamds Lake Park","4915-4923 Turnberry Ln","31909",32.56756288333333,-84.92100408333333
"31811","Hamilton","GA","The North Face Endurance Race","not_available","31822",32.847156,-84.813041
"31811","Hamilton","GA","Pine Mountain Trail Head (Country Store)","not_available","31811",32.8106153011322,-84.855627
"31815","Lumpkin","GA","Hatchechubbee Creek Park","Chubcreek Rd","36027",32.13880563290034,-85.06342369330459
"31816","Manchester","GA","Eddie Baker Russell Walking Trail","Fourth Avenue","31816",32.84892745,-84.62158915
"31820","Midland","GA","Psalmond Road Park & Super Center","6550 Psalmond Road","31820",32.54182196214112,-84.85439539452157
"31901","Columbus","GA","Tennis Courts At Lakebottom","not_available","31901",32.48196313217176,-84.96594429016113
"31901","Columbus","GA","Chattahoochee Riverwalk","1200 Bay Ave","31901",32.462339676833516,-84.9962854385376
"31901","Columbus","GA","Weracoba Park at Lakebottom","Cherokee Ave.","31901",32.47589914461209,-84.9658852815628
"31901","Columbus","GA","Dinglewood Park","not_available","31906",32.47017218315478,-84.96991607059749
"31901","Columbus","GA","CSU Frank & Edith Lumpkin RiverPark Glen","6 W. 10th Street","31901",32.46416091918945,-84.99567413330078
"31901","Columbus","GA","Chattahoochee Glide Tours","100 Bay Ave.","31901",32.46505535458633,-84.99585628509521
"31901","Columbus","GA","Mildred Tillis Rec Center","13th Avenue","not_available",32.47399617119486,-84.97479783837207
"31901","Columbus","GA","Bulldog Bait & Tackle","1300 Victory Dr","31901",32.445782,-84.97693100000001
"31901","Columbus","GA","Basketball Court","Wildwood Park","31901",32.48001727023057,-84.9648767709732
"31901","Columbus","GA","TSYS Fountain","One TSYS Way, Columbus, GA 31901","31901",32.472909015560795,-84.99339081683964
"31901","Columbus","GA","Aflac Outdoor Games","Downtown","31901",32.46393288437683,-84.99658584594727
"31901","Columbus","GA","Art Park","not_available","36867",32.471876,-84.99777
"31903","Columbus","GA","Aunt Nell's","2931 Knox St","31903",32.411842346191406,-84.95967102050781
"31904","Columbus","GA","Lakewood Park","4312 Park Dr","36867",32.50502989187175,-85.04145416384348
"31904","Columbus","GA","Double Churches Park","2300 Double Churches Road","31904",32.555362767002066,-84.95762595541602
"31904","Columbus","GA","Rivercity Swingsets","1241 Suite A Double Churches Rd","31904",32.5568817,-84.97376969999999
"31904","Columbus","GA","Columbus Parks & Recreation","3720 5th Ave","31904",32.498253000000005,-84.985551
"31904","Columbus","GA","Hemlock Park","not_available","31904",32.504822,-84.991195
"31904","Columbus","GA","Idle Hour Park","1218 Airport Rd.","36867",32.499048016512916,-85.01088231369837
"31904","Columbus","GA","Charlie Hill Park","11th Avenue","31904",32.513084,-84.97363
"31905","Fort Benning","GA","Russ Pond","Clark Rd","31905",32.372717226250785,-84.96281363643796
"31905","Fort Benning","GA","Pratt park","not_available","31905",32.358707427978516,-84.95067596435547
"31905","Fort Benning","GA","Sand Hill Recreation Center","41st Inf Regiment St","31905",32.413924802913904,-84.89621570662561
"31906","Columbus","GA","The Smoking Stoop","not_available","31907",32.49031721370801,-84.92847764169515
"31907","Columbus","GA","Cooper Creek Park","4816 Milgen Rd","31907",32.51316407837283,-84.91098649903539
"31907","Columbus","GA","Edgewood Park","3800-3898 Woodland Dr","31907",32.475940625498424,-84.92589498873403
"31909","Columbus","GA","Heath Park","Effingham Way","31909",32.540432830329685,-84.93380017719576
"39817","Bainbridge","GA","Bill Reynolds Tennis Complex","1500 Cox Ave","39819",30.889999389648438,-84.59868621826172
"39817","Bainbridge","GA","College Street Park","not_available","39819",30.901904436747746,-84.58141973605585
"39817","Bainbridge","GA","Willis Park","E Broughton St, Bainbridge, GA","39817",30.90590916753942,-84.57591082466139
"39819","Bainbridge","GA","Chattahoochee Nature Park","not_available","32324",30.70241928100586,-84.85346221923828
"39819","Bainbridge","GA","Chattahoochee Park","Booster Club Cir","39819",30.7361898653806,-84.85940577462316
"39823","Blakely","GA","Kolomoki mounds","205 Indian Mounds Rd","39823",31.468348,-84.948327
"39823","Blakely","GA","Park","Colquitt, GA 39837","39837",31.172173,-84.738587
"39823","Blakely","GA","Spring Creek Park","Colquitt,GA,39837","39837",31.1712935,-84.7332527
"39840","Cuthbert","GA","Iris Gardens","508 college street","39840",31.7737405,-84.7959286
"39845","Donalsonville","GA","Neal's Landing Park","6973 State Highway 2","32423",30.973631615151643,-85.00661290276183
"39845","Donalsonville","GA","Sneads Park @ The Lake","Legion Rd","32460",30.72656418058029,-84.90514397621155
"39854","Georgetown","GA","Governers Park","not_available","36027",31.889924,-85.134898
