"zip","city","state","name","address","postalCode","lat","lon"
"24701","Bluefield","WV","Bluefield City Park","Stadium Dr.","24605",37.24734298402364,-81.25033179921253
"24701","Bluefield","WV","Graham Recreation Park","not_available","24605",37.23752632776474,-81.31051843884984
"24701","Bluefield","WV","Princeton City Park","not_available","not_available",37.35973752062388,-81.11329654527157
"24701","Bluefield","WV","Glenwood Park","New Hope Road","24740",37.3360932702896,-81.17007531074238
"24701","Bluefield","WV","Chicory Square","Raleigh St.","24701",37.27298560637016,-81.21836157678922
"24712","Athens","WV","windfield","not_available","24712",37.421348571777344,-81.00639343261719
"24712","Athens","WV","Athens Park","301-399 Vermillion St","24712",37.42241516692006,-81.01051211357117
"24740","Princeton","WV","Dick Copeland Town Square","not_available","24740",37.3697,-81.0943
"24801","Welch","WV","Linkous City Park","Riverside Drive","24801",37.43234100120862,-81.5841293334961
"24815","Berwind","WV","BERWINDLAKE","not_available","24894",37.2560166,-81.6856808
"24901","Lewisburg","WV","Hollowell Park","not_available","24901",37.801687222539044,-80.4371803608998
"24910","Alderson","WV","John Henry Historical Park","not_available","25951",37.65018929728159,-80.76611995697021
"24927","Cass","WV","Seneca State Forest","10135 Browns Creek Rd","24934",38.29636764526367,-79.92908477783203
"24946","Hillsboro","WV","CALVIN PRICE STATE FOREST","not_available","24854",38.063611,-80.151667
"24946","Hillsboro","WV","Stillwell Park","not_available","24954",38.209804,-80.098686
"24946","Hillsboro","WV","GREENBRIER RIVER TRAIL","not_available","24924",38.13434146912819,-80.17645837916531
"24951","Lindside","WV","Shangri La","Pinky's Farm","24951",37.505643900088344,-80.59362969845526
"24970","Ronceverte","WV","Island Park","not_available","24970",37.74530038922687,-80.46639220052558
"24986","White Sulphur Springs","WV","Jackson River Sports Complex","2035 S Lee Ave","24426",37.764179999999996,-79.995654
"24986","White Sulphur Springs","WV","Covington Skate Park","not_available","24426",37.783128,-79.996142
"24986","White Sulphur Springs","WV","Jackson River Sports Complex +","870 W. Edgemont Dr.","24426",37.762245178222656,-79.99291229248047
"24986","White Sulphur Springs","WV","Main Street Park","Main St.","24426",37.789471896089765,-79.99995231628418
"24986","White Sulphur Springs","WV","Brad Paisley Community Park","not_available","24986",37.799132,-80.300218
"24986","White Sulphur Springs","WV","George Washington National Forest - James River Ranger District","810A E Madison St","24426",37.77698516845703,-79.96792602539062
"24986","White Sulphur Springs","WV","Jackson River Scenic Trail","Covington,VA","24426",37.84037715275285,-79.98860535054143
"25009","Ashford","WV","Horrible Hunting Spot","not_available","25003",38.221268,-81.650015
"25011","Bancroft","WV","Bancroft Public park","not_available","25011",38.50801088735879,-81.84249804933256
"25064","Dunbar","WV","Shawnee Park","not_available","25064",38.37932956652136,-81.75965373359504
"25064","Dunbar","WV","Outside","Dunbar","25064",38.37414717297666,-81.75173704789654
"25070","Eleanor","WV","Putnam County Park","Park Rd","25070",38.54038153769815,-81.93089765605227
"25143","Nitro","WV","Roadside Park","not_available","25177",38.38846371357043,-81.82642552110113
"25143","Nitro","WV","Ordance Park","MacCorkle Ave","not_available",38.38155741403636,-81.79822604033373
"25213","Winfield","WV","Valley Park","not_available","25526",38.44535919940304,-81.993888307219
"25213","Winfield","WV","Teays Valley Acres","4607-4609 County Route 33","25560",38.45024405389107,-81.88020018270653
"25234","Arnoldsburg","WV","Mt. Zion Community Park","not_available","26151",38.86984912241678,-81.10110406919112
"25253","Letart","WV","Dave Diles Park","not_available","45760",39.002037,-82.047679
"25267","Normantown","WV","City Square","not_available","26351",38.933591,-80.837586
"25270","Reedy","WV","Washington Park","Park Ave","25276",38.793277736959666,-81.35402705460159
"25276","Spencer","WV","Heritage Park","not_available","25276",38.802811,-81.34924829006195
"25301","Charleston","WV","Haddad Riverfront Park","not_available","25301",38.349501649302866,-81.63816479652749
"25301","Charleston","WV","Ruth Raftery Peyton dog park","E Washington St. and Maxwell St.","not_available",38.340893,-81.616838
"25301","Charleston","WV","Lee Street Triangle","800-922 Lee St E","25301",38.3503532409668,-81.632781
"25301","Charleston","WV","Spring Hill Cemetery","1555 Farnsworth Dr","25311",38.351428,-81.612557
"25302","Charleston","WV","Magic Island","Kanawha Blvd W","25302",38.356685460982824,-81.64647462198509
"25302","Charleston","WV","Coonskin","not_available","25311",38.38483491717253,-81.58484644236329
"25302","Charleston","WV","Coonskin Park Playground","2000 Coonskin Drive Charleston","25311",38.37723922729492,-81.58292388916016
"25302","Charleston","WV","Cato Park","not_available","25302",38.37483797093583,-81.63563517946339
"25302","Charleston","WV","Coonskin Park","2000 Coonskin Dr","25311",38.376528,-81.583117
"25302","Charleston","WV","Riverside Pavillion Coonskin Park","Coonskin Park","not_available",38.38929023745367,-81.58356142328664
"25303","South Charleston","WV","The Mound","350-372 Maccorkle Ave SW","25303",38.368392765505874,-81.69655307479724
"25303","South Charleston","WV","Vandalia Park","not_available","25314",38.36001353939672,-81.66971678930761
"25304","Charleston","WV","Daniel Boone Park","2901 Kanawha Boulevard E.","25305",38.330421100377066,-81.58349717175352
"25305","Charleston","WV","Kanawha State Forest","7500 Kanawha State Forest Dr","25314",38.34004369236184,-81.61628504771632
"25305","Charleston","WV","Spot 494","Parking Lot","25305",38.33893029977324,-81.61123263807505
"25309","South Charleston","WV","Little Creek Park","not_available","25309",38.34250616213143,-81.72354631897291
"25312","Charleston","WV","Camp Virgil Tate","Camp Virgil Tate Rd","25312",38.48810577392578,-81.71035766601562
"25312","Charleston","WV","Pocatalico Park And Ride","not_available","25320",38.51855022389863,-81.64373548447054
"25401","Martinsburg","WV","Ambrose Park","700 Porter Ave","25401",39.452896685395416,-77.97866913028592
"25401","Martinsburg","WV","War Memorial Park","Georgia Avenue","not_available",39.467523076838496,-77.9793271365729
"25401","Martinsburg","WV","P.G. Faulkner Park","not_available","25401",39.45079092046207,-77.96232363648382
"25403","Martinsburg","WV","Poor House Farm Park","Poor House Road","25403",39.459801173179294,-78.03929477251691
"25403","Martinsburg","WV","Moose Acers","1063 Douglas Grove Rd #M","25405",39.420997619628906,-77.95047760009766
"25404","Martinsburg","WV","McMahons Mill","7900 Avis Mill Rd","21795",39.53093719482422,-77.82428741455078
"25411","Berkeley Springs","WV","Berkeley Springs State Park, Roman Bath House & Museum","2 S Washington St","25411",39.62688364233101,-78.22845366608583
"25411","Berkeley Springs","WV","North Berkeley Community Park","not_available","25411",39.63056182861328,-78.22330474853516
"25413","Bunker Hill","WV","Lion's Pavilion","Inwood, WV","25413",39.34539971666667,-78.04717143333333
"25414","Charles Town","WV","Willingham Knolls Park","Old Cave Road","25414",39.258810173063644,-77.86390577121442
"25414","Charles Town","WV","Moulton Park","Riverside","not_available",39.258338773050525,-77.80720079315039
"25414","Charles Town","WV","Jefferson County Parks and Rec","235 Sam Michals Rd","25442",39.342951388296754,-77.8093143766621
"25414","Charles Town","WV","Charles Town park","not_available","25414",39.276456,-77.843434
"25414","Charles Town","WV","Little Demons Playground","83 Holly Springs Dr","25414",39.267066955566406,-77.88175964355469
"25419","Falling Waters","WV","Riverbend Park","3247 Vineyard Rd","25419",39.6025390625,-77.92908477783203
"25419","Falling Waters","WV","Dam 5 on the C&O Trail","not_available","21722",39.60703,-77.92200766
"25425","Harpers Ferry","WV","Bolivar Heights Battlefield","not_available","25425",39.32388890406441,-77.76113537047364
"25425","Harpers Ferry","WV","C&O Canal Lock #33","Chesapeake & Ohio Canal National Historic Park","20132",39.32420816987424,-77.72632529672607
"25425","Harpers Ferry","WV","Maryland Heights (Harpers Ferry National Historic Park)","Harpers Ferry Rd","21758",39.32520280941472,-77.72566145408705
"25425","Harpers Ferry","WV","Goodheart's Lock (Lock #34)","Chesapeake & Ohio Canal National Historic Park","21758",39.333246183129795,-77.73842654174763
"25425","Harpers Ferry","WV","Dargan Bend","not_available","21782",39.363968,-77.74014377
"25425","Harpers Ferry","WV","Mountain Lock (Lock #37)","Chesapeake & Ohio Canal National Historic Park","21782",39.38497353450345,-77.73610166132937
"25443","Shepherdstown","WV","James Rumsey Monument Park","not_available","25443",39.43288097813863,-77.79954332675356
"25443","Shepherdstown","WV","Shepherdstown Lock (Lock #38)","Chesapeake & Ohio Canal National Historic Park","25443",39.43656604971721,-77.79992686425919
"25443","Shepherdstown","WV","Oak Grove. Lee's Hdqrts","Sharpsburg Pk.","21782",39.45545760274248,-77.76035961323447
"25504","Barboursville","WV","Barboursville Park","721 Central Ave","25504",38.38858232919439,-82.29920951178697
"25504","Barboursville","WV","Martha Road Estates","1859 Martha Rd","25504",38.3848961,-82.2845047
"25504","Barboursville","WV","April Dawn Park","855 Mason St.","25541",38.43949256630296,-82.1297770693372
"25507","Ceredo","WV","Ceredo Park","not_available","25507",38.392029962300306,-82.5630185504654
"25508","Chapmanville","WV","Christman In The Park","not_available","25601",37.889924,-81.991677
"25515","Gallipolis Ferry","WV","Yellow Fever Victims Monument","not_available","45631",38.80693738023887,-82.20540830359893
"25530","Kenova","WV","Virginia Point Park","VA Point Park","25530",38.4126895496558,-82.59400366946097
"25550","Point Pleasant","WV","Point Pleasant River Front","4th St","25550",38.842551266327014,-82.13965581927181
"25570","Wayne","WV","Wayne Park","not_available","25570",38.224458626377846,-82.44275835094344
"25661","Williamson","WV","South Williamson Mini Park","not_available","41503",37.674757208037946,-82.28311181221231
"25670","Delbarton","WV","Hardy Community Park","not_available","41514",37.615212,-82.23885
"25701","Huntington","WV","Harris Riverfront Park","900-968 Veterans Memorial Blvd","25701",38.42402314801677,-82.4424673581753
"25701","Huntington","WV","Ritter Park","1310 8th Ave","25701",38.407783923849905,-82.43846654891968
"25701","Huntington","WV","Altizer Park","not_available","25705",38.417894616517096,-82.35567599833138
"25701","Huntington","WV","Chesapeake Park","not_available","45619",38.427889654310796,-82.45997339003925
"25701","Huntington","WV","CSX Dispatch Office","1050 8th Ave","25701",38.416304,-82.441536
"25701","Huntington","WV","Horseshoe Ritter Park","not_available","25701",38.40583526467297,-82.4672661364155
"25701","Huntington","WV","Huntington Memorial Park","not_available","25703",38.40539623586443,-82.46779918670654
"25701","Huntington","WV","Susie Chapel Camp","4022 16th Street Rd","25701",38.386722564697266,-82.35768127441406
"25701","Huntington","WV","route 7","route 7","not_available",38.4281843227473,-82.4472500661604
"25701","Huntington","WV","Kinetic Park","422 Kinetic Dr","25701",38.39411502140827,-82.42054043759408
"25702","Huntington","WV","McClellan Park","not_available","25702",38.434477876711874,-82.40314036733378
"25702","Huntington","WV","Rotary Park","Rotary Park Dr","25705",38.44229089054777,-82.38678594159386
"25801","Beckley","WV","the park","not_available","25801",37.81201092323756,-81.18165332421725
"25801","Beckley","WV","New River Park","Adair St","not_available",37.784278576541496,-81.19436599069276
"25801","Beckley","WV","Perry Park","not_available","25880",37.911655,-81.126259
"25813","Beaver","WV","Grandview","Grandview Road","25813",37.83085564400217,-81.06470930739322
"25813","Beaver","WV","Gauley River National Recreation Area","not_available","25846",37.78229002429696,-81.08556843575187
"25840","Fayetteville","WV","Fayetteville Town Park","not_available","25840",38.05683084563009,-81.09432007017611
"25840","Fayetteville","WV","Beckwith Park","1612 Fayette County Park Rd","25840",38.07761764526367,-81.15505981445312
"25880","Mount Hope","WV","Plum Orchard Lake","1156 Plum Orchard Lake Rd","25904",37.93464963116747,-81.26267830478679
"25918","Shady Spring","WV","Sandstone Visitors Center","330 Meadow Creek Rd","25985",37.78312111305044,-80.89768767356871
"25951","Hinton","WV","Bellepoint Park","Central Ave","not_available",37.64412773054841,-80.88380682466224
"25971","Lerona","WV","Canyon Rim Center","Route 20","25979",37.53436010551624,-80.99822759628296
"26003","Wheeling","WV","Oglebay Park","Bethany Pike","not_available",40.10460492522132,-80.65829354580086
"26003","Wheeling","WV","Oglebay Resort and Conference Center","465 Lodge Dr","26003",40.09904167778492,-80.660850862324
"26003","Wheeling","WV","Wheeling Park","1801 National Rd","26003",40.05870746095977,-80.66860900974419
"26003","Wheeling","WV","Tunnel Green","not_available","26003",40.07341324957329,-80.71336103015025
"26003","Wheeling","WV","Fodor Memorial Park","not_available","43935",40.094549942247895,-80.72749154417369
"26003","Wheeling","WV","Bethany Park","Church st","26032",40.202887288892065,-80.55264773033637
"26003","Wheeling","WV","Yorkville Park","618 Public Rd","43971",40.15944290161133,-80.7078857421875
"26003","Wheeling","WV","Schwertzfeger Shelter","Wheeling Park","26003",40.0748531,-80.6935458
"26003","Wheeling","WV","Riverside Park Monument","Greater Wheeling Trail","26003",40.06814821,-80.72483687
"26003","Wheeling","WV","Oglebay Park Levinson Shelter","not_available","43906",40.059078216552734,-80.73456573486328
"26003","Wheeling","WV","Warren Township Park","not_available","43971",40.165803552946706,-80.70363065906767
"26034","Chester","WV","Virginia Gardens","not_available","26034",40.61397308139886,-80.56030221324531
"26034","Chester","WV","Chester City Park","Louella Ave.","26034",40.61315929401471,-80.56510827893673
"26035","Colliers","WV","Follansbee Park","not_available","26037",40.336100174041746,-80.59387370666308
"26035","Colliers","WV","THE stairs At L.B Millsop Primary","not_available","26062",40.3950957682096,-80.61123980416457
"26035","Colliers","WV","Mahan Park","Follansbee,WV,26037","16720",40.3275693,-80.5959065
"26038","Glen Dale","WV","Grand Vue Park","250 Trail Dr","26041",39.94459283786059,-80.73034441802143
"26038","Glen Dale","WV","The Robin--Bon Fire","not_available","26038",39.95054,-80.727077
"26041","Moundsville","WV","CnH Tiny Home And RV Park","1522 6th St","26041",39.919136,-80.735594
"26041","Moundsville","WV","Moundsville Riverfront Park","13th St","26041",39.91351954157877,-80.75159976431806
"26041","Moundsville","WV","East End","not_available","26041",39.922783,-80.729641
"26047","New Cumberland","WV","Town Square","Third Street","not_available",40.465364142211776,-80.59986591339111
"26055","Proctor","WV","McKenna Shelter -- PPG Park","not_available","26055",39.708527881863304,-80.82616840015226
"26062","Weirton","WV","Belleview Park","920-2198 Bell View Blvd","43952",40.37734350620076,-80.63091657059105
"26070","Wellsburg","WV","Wellsburg Wharf Park","not_available","26070",40.26880843511726,-80.61424854167655
"26070","Wellsburg","WV","Wells Township Community Park","not_available","43913",40.2722341,-80.6136675
"26070","Wellsburg","WV","18th Street Park","18th street","not_available",40.28048080706249,-80.612145147616
"26070","Wellsburg","WV","Brooke Hills Park","140 Gist Ln","26070",40.27048873901367,-80.5399169921875
"26101","Parkersburg","WV","Parkersburg City Park","1920 Park Ave","26101",39.26974662357235,-81.53102345092495
"26101","Parkersburg","WV","The Point","113 Ann St","26101",39.26550330436106,-81.56765799308369
"26101","Parkersburg","WV","Quincy Park","1002 Quincy St","26101",39.26779556274414,-81.55207824707031
"26101","Parkersburg","WV","Fort Boreman Park","Fort Boreman Ave.","26101",39.26242775070985,-81.56933923471686
"26101","Parkersburg","WV","Civitan Park","1500 Blennerhassett Ave","45714",39.274000713382144,-81.59197789704808
"26101","Parkersburg","WV","Depot Park","Depot","not_available",39.279651994813705,-81.57591510356582
"26101","Parkersburg","WV","Kraton","not_available","45714",39.27827643427342,-81.63219469085999
"26101","Parkersburg","WV","quincy Top Of Steps","not_available","26101",39.267667813285215,-81.55253222821693
"26101","Parkersburg","WV","City Park Walking Trail","City Park Dr","26101",39.271836334394905,-81.5299404286546
"26101","Parkersburg","WV","Johnson T. Janes Park","36th ST","26104",39.280337445208254,-81.51632308959961
"26104","Parkersburg","WV","McDonough Park","not_available","26105",39.324784717403546,-81.52310921301974
"26104","Parkersburg","WV","Veterans Memorial Park","not_available","26104",39.34013461815336,-81.42577096145281
"26136","Big Bend","WV","Town Park","not_available","26147",38.919685,-81.090079
"26143","Elizabeth","WV","Sportsman's Park","Rt 14","26143",39.06567258515352,-81.4055134464857
"26146","Friendly","WV","New Matamoras Park","not_available","45767",39.51288,-81.078847
"26149","Middlebourne","WV","Middlebourne Park","Dodd St","26149",39.49300448,-80.91184097
"26161","Petroleum","WV","Mountwood Park","1014 Volcano Rd","26184",39.242744,-81.296728
"26164","Ravenswood","WV","Washington Western Land Park","WV Rte 68","not_available",38.943546,-81.759224
"26170","Saint Marys","WV","Pleasants County Park","605 Cherry St","26170",39.39406204223633,-81.1972427368164
"26181","Washington","WV","Belpre township park","not_available","45742",39.25814850617077,-81.70188301625674
"26187","Williamstown","WV","Tomlinson Park","Highland Ave","26187",39.399495746283876,-81.44932727403466
"26187","Williamstown","WV","Fenton Park","not_available","26187",39.404595,-81.454045
"26201","Buckhannon","WV","Pringle Tree","Pringle Tree Park Rd","26201",39.018808,-80.207478
"26201","Buckhannon","WV","City Park","19-31 Park St","26201",38.9852836789107,-80.22393752986463
"26201","Buckhannon","WV","Riverview Park","not_available","26201",38.9968696646609,-80.21718909497082
"26241","Elkins","WV","Elkins City Park","not_available","26241",38.9270340124597,-79.84681139026954
"26241","Elkins","WV","Glendale Park","Glendale Ave","not_available",38.921489637879205,-79.86215114593506
"26260","Davis","WV","Douglas Falls","Blackwater Canyon Trail","not_available",39.12371,-79.51931
"26260","Davis","WV","BWF Cabin 14","not_available","26260",39.101586,-79.505834
"26260","Davis","WV","Canaan Valley National Wildlife Refuge Visitor Center","not_available","26292",39.04527239384661,-79.44642151183808
"26260","Davis","WV","Davis Riverfront Park","W Virginia 32, Davis, WV 26260","26260",39.13038112371998,-79.4681719855673
"26261","Richwood","WV","Dain Park","not_available","26261",38.220919,-80.561426
"26269","Hambleton","WV","TCHS Class Of 1980","not_available","26287",39.091008,-79.656933
"26273","Huttonsville","WV","Kumbrabow State Forest","not_available","26273",38.66412283429152,-80.04820677582566
"26301","Clarksburg","WV","Clarksburg City Park","1501 Buckhannon Pike","26301",39.257335261988835,-80.32042660484232
"26301","Clarksburg","WV","Clarksburg Veterans Park","not_available","26301",39.27427186080365,-80.36723156015628
"26301","Clarksburg","WV","Stealey park","Milford St, Clarksburg, WV 26301","26301",39.25029373168945,-80.39140319824219
"26301","Clarksburg","WV","VA Park","222 W Main St","26301",39.27833557128906,-80.33658599853516
"26330","Bridgeport","WV","Hinkle-Deegan Park","not_available","26330",39.268926110688184,-80.25182428906398
"26346","Ellenboro","WV","NORTH BEND RAIL TRAIL","not_available","26362",39.26697777243453,-81.05195394053804
"26351","Glenville","WV","Gilmer County Recreation Center","1365 Sycamore Rd","26351",38.952498,-80.829445
"26354","Grafton","WV","Guyses Run Fishing Park","Colfax Road","26566",39.44597006266406,-80.11312007904053
"26425","Rowlesburg","WV","Cannon Hill","Cannon Hill Rd","not_available",39.35440970129457,-79.67126369476317
"26426","Salem","WV","Salem Depot Stage","not_available","26426",39.289126,-80.538924
"26431","Shinnston","WV","Worthington Park","W Fork River Trail","26591",39.44266990030006,-80.27276192250307
"26452","Weston","WV","Lewis County Park","Smith run riaf","26452",39.038909018980206,-80.44460107461538
"26456","West Union","WV","Doddridge County Park","Snow Bird Rd","26456",39.27228088158653,-80.73273166028443
"26501","Morgantown","WV","Mylan Park","500 Mylan Park Ln","26501",39.63795124426834,-80.03145217895508
"26501","Morgantown","WV","Krepps Park","Laurel St","26505",39.65022913737629,-79.9781625681071
"26501","Morgantown","WV","Wiles Hill Park","Eureka Drive","not_available",39.64092992129157,-79.95369907630393
"26501","Morgantown","WV","Mason Dixon Historical Park","79 Buckeye Rd","26541",39.718328524751605,-80.11614561080933
"26501","Morgantown","WV","Dorsey's Knob","Fawley Ln","26508",39.598670330946845,-79.9595568966912
"26501","Morgantown","WV","Westover park","not_available","26501",39.62868367925991,-79.98309464490967
"26501","Morgantown","WV","frisbee field","not_available","26505",39.64768222049579,-79.9669155153393
"26501","Morgantown","WV","Pedlar WMA: Mason Lake Unit","Mason-Dixon Highway","not_available",39.686713943469876,-80.1146650314331
"26501","Morgantown","WV","Winter Wonderland","Maple Grove Ave, Westover, WV 26501","26501",39.635347780272504,-79.98072968611274
"26501","Morgantown","WV","White Park","Mississippi Street","26501",39.64987476553456,-79.96972878016707
"26501","Morgantown","WV","White Park","Mississippi St","26501",39.613289501706674,-79.96752617605422
"26501","Morgantown","WV","Pedlar WMA: Dixon Lake Unit","Little Indian Creek Rd","not_available",39.65714988192965,-80.10200500488281
"26501","Morgantown","WV","Jerome Park","Denver Ave.","not_available",39.630781482780286,-79.93426408908748
"26501","Morgantown","WV","Granville Park","Dents Run Blvd","26501",39.642107560980726,-79.98536123107085
"26501","Morgantown","WV","Indian Park","Collins Ferry Rd","26505",39.6616348119743,-79.97496504842445
"26501","Morgantown","WV","Jack Roberts Park","West Virginia Ave","26501",39.613292716933394,-79.96753239137736
"26505","Morgantown","WV","Westover Park","Dupont Rd","26501",39.627595988234766,-79.98279424954599
"26508","Morgantown","WV","Cheat Lake Park","Morgans Run Rd","26508",39.71010795014838,-79.8418442920328
"26508","Morgantown","WV","Coopers Rock State Forest","61 County Line Dr","26525",39.63651867019043,-79.81581158853788
"26508","Morgantown","WV","Chestnut Ridge Regional Park","Rt. 1 Box 267","26525",39.680039990009305,-79.78303848669081
"26554","Fairmont","WV","Mary Lou Retton Park","Mary Lou Retton Park","26554",39.46008347578501,-80.184948273131
"26554","Fairmont","WV","Morris Park","Pleasant Valley Rd","26554",39.45887399768905,-80.1387722606038
"26554","Fairmont","WV","5th Street Park","117-499 Benoni Avenue","26554",39.48036115720715,-80.1514220237732
"26554","Fairmont","WV","Merideth Field Fairmont Flyers","448 montana roaf","not_available",39.506726,-80.110547
"26554","Fairmont","WV","Rail Trail","Rt.73","26508",39.517569140881314,-80.09487328155646
"26554","Fairmont","WV","WVRRC","Bunner Ridge","26554",39.45965595476696,-80.03114454354464
"26554","Fairmont","WV","Palatine Park","Everest Drive","26554",39.48341140085105,-80.13669142830665
"26601","Sutton","WV","Holly Gray Park","Holly Gray Park Dr","26601",38.685140112573706,-80.65614252044952
"26704","Augusta","WV","Central Hampshire Park","not_available","26704",39.300973551507624,-78.61578698690755
"26704","Augusta","WV","Shanks Roadside Park","Northwestern Pike (U.S. Route 50)","not_available",39.31643900031909,-78.67115042679295
"26710","Burlington","WV","Fort Mill Ridge WMA","Core Rd","not_available",39.32457110419151,-78.79308700561523
"26710","Burlington","WV","Hampshire County Park","Hampshire Park Dr","26757",39.30115558687555,-78.79781865671426
"26710","Burlington","WV","Mill Meadow Park","not_available","26726",39.43576981496666,-78.96317940920541
"26726","Keyser","WV","Maryland Ave Park","Maryland Ave","21562",39.489770942991555,-79.04222259967946
"26753","Ridgeley","WV","Holly Field","not_available","21502",39.647603,-78.816935
"26753","Ridgeley","WV","North Branch 3 (Lock #75)","Chesapeake & Ohio Canal National Historic Park","21502",39.58717346191406,-78.74088287353516
"26753","Ridgeley","WV","Riverside Tennis Courts","Candoc Ln.","21502",39.62363967063353,-78.76070737838745
"26764","Terra Alta","WV","Lewis Pavilion","not_available","21550",39.43762567594549,-79.51500670980708
"26802","Brandywine","WV","Franklin Town Park","By the pool","not_available",38.64318773210687,-79.3257737159729
"26802","Brandywine","WV","High Knob Fire Detection Tower","not_available","26802",38.568736,-79.170678
"26818","Fisher","WV","Brighton Park","644 Fisher Rd","26836",39.05022048950195,-78.99188232421875
"26851","Wardensville","WV","J. Allen Hawkins Community Park","not_available","26851",39.079710868472056,-78.58196214403725
