"zip","city","state","name","address","postalCode","lat","lon"
"68002","Arlington","NE","Arlington City Park","not_available","not_available",41.454553,-96.353115
"68003","Ashland","NE","Picnic Area @ Wildlife Safari","not_available","68003",41.012511794627905,-96.29076321200361
"68003","Ashland","NE","Plum Creek Park","not_available","68028",41.12792228357733,-96.25875234603882
"68003","Ashland","NE","Mud, Sweat and Beers","not_available","68058",41.008812,-96.277443
"68003","Ashland","NE","Ashland City Park","200-246 N 25th St","68003",41.04156732866494,-96.38215752045555
"68003","Ashland","NE","North Park (Gretna City Park)","Hwy 6/31 & E Angus Rd","68028",41.140056091418636,-96.23688170432409
"68003","Ashland","NE","Peterson Park","Angus & Cherokee Dr.","68028",41.14014533609221,-96.24194854115207
"68003","Ashland","NE","Greenwood City Park","400-498 Elm St","68366",40.96102304,-96.43736021
"68005","Bellevue","NE","Haworth Park","2502 Payne Dr","68005",41.13477496987227,-95.88111877441406
"68005","Bellevue","NE","Washington Park","150-198 E 20th Ave","68005",41.140154010639804,-95.89312188153747
"68005","Bellevue","NE","American Heroes Park","not_available","68005",41.138314166661054,-95.88459491729736
"68005","Bellevue","NE","College Heights Park","Kountze Memorial Drive","68005",41.1537454183217,-95.88697671890259
"68005","Bellevue","NE","Gilbert Park","521 W 29th Ave","68005",41.12759902598025,-95.90023756027222
"68005","Bellevue","NE","Twin Ridge II Park","1600 Bryan Avenue","68005",41.14484852,-95.93424814
"68005","Bellevue","NE","Thompson Park","2602 S Franklin St","68005",41.13076688176051,-95.89442253112793
"68005","Bellevue","NE","Heber Park","1327 Englewood Dr","68005",41.144085,-95.917156
"68005","Bellevue","NE","A View in Fontenelle Hills","1102 Country Club Ct","68005",41.16444798228416,-95.90804132691501
"68005","Bellevue","NE","Jewell Park","Combs Road","68005",41.153892619291724,-95.89500696480094
"68005","Bellevue","NE","Progressive Park/Myers Landing","6865 Gifford Rd","51501",41.186968,-95.895402
"68005","Bellevue","NE","Everett Park","1701 Betz Rd","68005",41.14437399168535,-95.92042922973633
"68007","Bennington","NE","Centennial Park","15551 Warehouse Street","68007",41.363143348676736,-96.15762233734131
"68007","Bennington","NE","John-Bohn Park City Of Bennington","not_available","68007",41.365657214146395,-96.15838693378318
"68008","Blair","NE","Black Elk-Neihardt Park","College Drive & N 32 ST","68008",41.551372189071515,-96.16153040141616
"68008","Blair","NE","DeSoto National Wildlife Refuge","1434 316th Ln","51555",41.5408910163613,-96.03125039770478
"68008","Blair","NE","Stemmerman Park","10 Street","68008",41.55281826691556,-96.12916050004199
"68008","Blair","NE","Ridgeview Park","14 Street","68008",41.552730194028136,-96.12902513723661
"68008","Blair","NE","Blair Optimist River Park","not_available","68008",41.552142178169035,-96.09716022296944
"68008","Blair","NE","Veteran's Park","1299 Washington","68008",41.54639825392251,-96.1296992090093
"68008","Blair","NE","Lions Park","N 16 ST","68008",41.54805504016683,-96.13682717725716
"68017","Ceresco","NE","max roper park","not_available","68017",40.99558879922177,-96.64171019521802
"68019","Craig","NE","Craig Community Center","not_available","68019",41.78897690561709,-96.36441144490234
"68019","Craig","NE","Summit Reservoir State Recreation Area","not_available","68061",41.76091216158574,-96.29645132552204
"68020","Decatur","NE","Trolley Park","not_available","68020",42.006967,-96.249536
"68022","Elkhorn","NE","Whitehawk park & lake","not_available","68022",41.22590530929372,-96.22470228352572
"68022","Elkhorn","NE","Coyote Run Park","18801-18899 R St","68135",41.19813859541713,-96.20693953401769
"68022","Elkhorn","NE","Ta-Ha-Zouka park","Elkhorn Dr.","68022",41.28520754593651,-96.245733382792
"68022","Elkhorn","NE","The Grove","800 S. 190th Ave","68022",41.2540151699807,-96.20395187555809
"68022","Elkhorn","NE","Oakmont Park North","not_available","68130",41.225284,-96.210941
"68022","Elkhorn","NE","Cattail Creek Park","18838 P St","68135",41.21318878784906,-96.21186883073861
"68022","Elkhorn","NE","Love Memorial Park","not_available","68069",41.28735399325859,-96.29092928094585
"68022","Elkhorn","NE","Fairmeadows Park","N 192nd & Grant St","68022",41.280934810010876,-96.21537566184998
"68022","Elkhorn","NE","Elkhorn Middle School Football & Track","2700 N 207th Plz.","68022",41.28585277744948,-96.23959064483643
"68022","Elkhorn","NE","Park","18908 Q St","68135",41.205539,-96.211789
"68025","Fremont","NE","Buckridge Park","Fremont,NE,68025","68025",41.426311134289456,-96.47346138848292
"68025","Fremont","NE","Memorial Park","1500-1798 E Military Ave","68025",41.436613662311814,-96.47744838027852
"68025","Fremont","NE","Rotary Park","not_available","68025",41.4346753102481,-96.50435686111449
"68025","Fremont","NE","Milliken Park","Wyoming Ave","68025",41.45677885764402,-96.5122385147954
"68025","Fremont","NE","Ruwe Park","N Howard and E 5th Streets","68025",41.431014448716134,-96.4676999530608
"68025","Fremont","NE","John C. Fremont City Park","101 E 9th St","68025",41.43731199178292,-96.50271971871648
"68025","Fremont","NE","Clemmons Dog Park","1600 N Luther Rd","68025",41.44503484629056,-96.46528519871683
"68025","Fremont","NE","Miller Park","201-299 S M St","68025",41.42754062328524,-96.50645792595645
"68025","Fremont","NE","Valley Trap Shooting","27601 Pawnee St.","68064",41.37931450842262,-96.35076363836274
"68028","Gretna","NE","Chalco Hills Recreation Area","8901 S 154th St","68138",41.165473971527646,-96.16127014160156
"68031","Hooper","NE","Uehling Park","230-340 W 5th St","68063",41.73549713,-96.50887716
"68031","Hooper","NE","EVCC Team TNR Meetup","Main St","68031",41.61486371666667,-96.54769355
"68041","Mead","NE","Mead Park","not_available","68041",41.22972106933594,-96.48993682861328
"68045","Oakland","NE","Brink Memorial Park","Main Street","68038",41.83787773464552,-96.47243084926187
"68045","Oakland","NE","Oakland City Park","not_available","68045",41.83033106075288,-96.47790643199296
"68046","Papillion","NE","Walnut Creek Recreation Area","11710 Turkey Rd","68046",41.13984379717069,-96.06528484635191
"68046","Papillion","NE","Halleck Park","not_available","68046",41.15044451261047,-96.03393372587873
"68046","Papillion","NE","Eagle Ridge Neighborhood Park","2101-2121 Cobblestone Rd","68133",41.1528228,-96.00943368333333
"68046","Papillion","NE","Schwer Park","800 W Centennial Rd","US",41.16816844229708,-96.05465479666492
"68046","Papillion","NE","Papillion City Park","Lincoln & Washington","68046",41.15503300538114,-96.0434011631305
"68046","Papillion","NE","West Papio Trail (Papillion)","South Washington Street","68046",41.15628189803651,-96.04206244457748
"68046","Papillion","NE","Val Verde Park","not_available","68128",41.16949609111722,-96.06434583663939
"68048","Plattsmouth","NE","Rhylander Park","not_available","68048",41.00460069688967,-95.88545350699793
"68048","Plattsmouth","NE","Tyson Park","not_available","68409",40.91781031015465,-95.92839445553378
"68057","Scribner","NE","Fireman Park","not_available","68633",41.70431876705702,-96.78195476531982
"68059","Springfield","NE","Buffalo Park","281-299 S 6th St","68059",41.08043563890157,-96.1282654329556
"68059","Springfield","NE","City Park","580 Cedar St","68059",41.082975,-96.12905
"68066","Wahoo","NE","Placek Park","E 16th St","68066",41.22026405,-96.6195477
"68066","Wahoo","NE","Hackberry Park","781 North Hackberry Street","68066",41.21311950683594,-96.63195037841797
"68066","Wahoo","NE","Smith Park","441 North Elm Street","68066",41.2097799167697,-96.61718242926284
"68073","Yutan","NE","Timbercrest Park","not_available","68073",41.24449806411764,-96.39305591583252
"68102","Omaha","NE","First National Park Spirit Of Nebraska","199 South 16th St.","68102",41.25946881002496,-95.93684044400261
"68102","Omaha","NE","First National Park","1400-1420 Dodge St","68179",41.26080459890068,-95.93538024065928
"68102","Omaha","NE","Tom Hanafan River's Edge Park","not_available","51501",41.26282909769537,-95.91869102357487
"68102","Omaha","NE","Omaha World-Herald","1314 Douglas St","68102",41.25922406971748,-95.93354502990854
"68102","Omaha","NE","Gene Leahy Mall","1203 Farnam St.","68102",41.25774972434745,-95.93096888651611
"68102","Omaha","NE","Victory '95 50th Anniversary WW II Memorial","602 Douglas St","68102",41.2589225769043,-95.92415618896484
"68102","Omaha","NE","Heartland of America Park","608 Conagra Dr","68102",41.25826710586881,-95.92558798641899
"68102","Omaha","NE","Old market dog park","10th and Jones","68102",41.25242045529075,-95.92982869413191
"68104","Omaha","NE","Metcalfe Park","51st and Country Club Ave","not_available",41.275346186594504,-95.99191013479843
"68104","Omaha","NE","Husker Park","not_available","68104",41.291637,-96.017364
"68104","Omaha","NE","Logan Fontenelle Park","not_available","68110",41.29831605085583,-95.9802808330872
"68104","Omaha","NE","Benson Park","6912 Military Ave","68104",41.29670293907801,-96.02014058929555
"68104","Omaha","NE","Orchard Park","5701-5799 N 66th St","68104",41.31595228542177,-96.0170093675417
"68104","Omaha","NE","Gallagher Park","2936 N 52nd St","68104",41.286465,-95.996005
"68104","Omaha","NE","Fontenelle Park","4410 Fontenelle Blvd.","68104",41.29154261313006,-95.98422212039442
"68104","Omaha","NE","Orchard Park Tennis Courts","66th St","68104",41.312204552465175,-96.01320702945753
"68104","Omaha","NE","Norwick Park","5326 N 50th St","68104",41.30768966674805,-95.99048614501953
"68105","Omaha","NE","Dewey Park","550 Turner Blvd","68105",41.25582463286245,-95.96177299314364
"68105","Omaha","NE","Hanscom Park","3201 Woolworth Ave.","68105",41.24189933192706,-95.95823672279649
"68105","Omaha","NE","Leavenworth Park","800-998 S 35th St","68105",41.250386849255655,-95.96228981389766
"68105","Omaha","NE","Columbus Community Center & Park","1329 S 24th St","68108",41.24316351725834,-95.94975669926566
"68105","Omaha","NE","Harrison Heights Park","3720 Martha St","not_available",41.2392692565918,-95.9692611694336
"68105","Omaha","NE","Endless Trail Bike Shop","1335 Park Ave","68105",41.245685,-95.955335
"68105","Omaha","NE","Highland Park","3800 C St","68105",41.22496691134951,-95.94800726358935
"68105","Omaha","NE","24th & D","not_available","68107",41.22179782848221,-95.94864203844712
"68106","Omaha","NE","Elmwood Park","802 South 60th Street","68106",41.25058033317914,-96.00831985473633
"68106","Omaha","NE","Stinson Park","2285 S 67th St","68106",41.23795536287802,-96.01558327674866
"68106","Omaha","NE","Welcome Center Picnic Place","not_available","68132",41.257896,-96.013187
"68106","Omaha","NE","The Wall At Stinson","not_available","68106",41.23829,-96.01456
"68106","Omaha","NE","American Heart Association Heart Walk","Stinson Park, 2285 S 67th St, Omaha, NE 68106","68106",41.23844909667969,-96.01380157470703
"68107","Omaha","NE","Pulaski Park","4065 G St","68107",41.21800051743412,-95.97419142723083
"68107","Omaha","NE","Mt. Vernon Gardens","6011 South 13th Street","68107",41.19890027570775,-95.93210394106858
"68107","Omaha","NE","Essex Park","36th & Washington","68107",41.196114,-95.967018
"68107","Omaha","NE","Morton Park","41st","68107",41.200939570246994,-95.9746683751504
"68107","Omaha","NE","Christie heights Park","36 & Q","68107",41.20609137654992,-95.96894802337088
"68107","Omaha","NE","Deer Hollow Park","not_available","68108",41.22956122567104,-95.93563011650566
"68108","Omaha","NE","Lauritzen Gardens - Omaha's Botanical Center","100 Bancroft St","68108",41.234471876299374,-95.91631265582897
"68108","Omaha","NE","Omaha Park Maintenance","1523 S 24th St","68108",41.244376,-95.946163
"68110","Omaha","NE","Levi Carter Lake Park","4405 Carter Lakeshore Dr","68110",41.302072,-95.927159
"68110","Omaha","NE","Wirt Park","1824 Wirt Street","68110",41.28691,-95.939861
"68110","Omaha","NE","wavecrest park","not_available","51510",41.29926300048828,-95.92340087890625
"68110","Omaha","NE","mabrey park","Willow St","51510",41.28886795043945,-95.90921020507812
"68110","Omaha","NE","Roberts Park","1000 North 25th Street","51501",41.27120429521031,-95.88195490199976
"68111","Omaha","NE","Miller Park","6315 N 30th ST","not_available",41.316287394456474,-95.9537914440147
"68111","Omaha","NE","Steve Hogan Golf Course","6315 N 30th St","68111",41.315692,-95.95404
"68111","Omaha","NE","Adams Park","3121 Bedford Ave","not_available",41.28671646118164,-95.95977783203125
"68112","Omaha","NE","Hummel Park","11808 John J Pershing Dr","68112",41.370153206905556,-95.95759668576422
"68112","Omaha","NE","Vennelyst Park","not_available","68112",41.341708152081694,-95.96663999843862
"68112","Omaha","NE","Florence Park","3000-3098 Mormon St","68112",41.33543112819066,-95.9606833783124
"68112","Omaha","NE","Hummel Park","not_available","51526",41.3457815454511,-95.96006396250974
"68112","Omaha","NE","N.P. Dodge Park","11005 J.J. Pershing Drive","68112",41.361047321898866,-95.949023938724
"68112","Omaha","NE","Neale Woods Nature Center","41.39065 -95.95330","not_available",41.390895747126336,-95.95394611358643
"68114","Omaha","NE","Swanson Science Park Arboretum","300 S 86th St","68114",41.2566984975772,-96.047345126415
"68114","Omaha","NE","Keystone Trail","78th","68114",41.26633450825004,-96.03785523473968
"68114","Omaha","NE","Regency Park","not_available","68114",41.25776598220695,-96.06170010007382
"68114","Omaha","NE","Cancer Survivors Park","not_available","68124",41.24847765458541,-96.07605120771498
"68114","Omaha","NE","Roberts Park","730 N 78th St","68114",41.26730244133739,-96.03799994966698
"68114","Omaha","NE","Oakbrook Park","not_available","68154",41.27434997812107,-96.08425394442901
"68116","Omaha","NE","Flanagan Lake & Recreation Area","168th & Fort","68116",41.31095282242083,-96.1830711364746
"68116","Omaha","NE","Torrey Pines Park","not_available","68116",41.298747,-96.149021
"68116","Omaha","NE","West Papio Trail Park","2144 N 160th St","68116",41.28010177612305,-96.16474914550781
"68117","Omaha","NE","Seymour Smith Park","6802 Harrison St","68128",41.193843821723085,-96.019293226648
"68117","Omaha","NE","Karen Park","63rd & H St","68117",41.21826171875,-96.0116195678711
"68117","Omaha","NE","Harper Park","not_available","68117",41.192697767150555,-95.98703505860689
"68117","Omaha","NE","LCC Playground","5616 L St","68117",41.214423,-96.00131800000001
"68117","Omaha","NE","All Play Water Park","72nd St","68127",41.1971321105957,-96.02240753173828
"68118","Omaha","NE","West Papio Trail","160th & Pacific","68118",41.24935326486291,-96.16404218362992
"68118","Omaha","NE","Pacific Meadows Park","not_available","68118",41.256290314901115,-96.16948041354107
"68118","Omaha","NE","Pacific Springs Park","17400 Leavenworth","68118",41.24938752748554,-96.18497423021842
"68122","Omaha","NE","Somerset Park","7134-7450 Wenninghoff Rd","68122",41.3256323816877,-96.04592361615482
"68122","Omaha","NE","Glenmoor","8999 Quest Street","68122",41.324552681252456,-96.04740234082956
"68122","Omaha","NE","Country Club Manor Park","65th And Sorenson","not_available",41.32219408598665,-96.00606246624447
"68122","Omaha","NE","Neighborhood Park","not_available","68122",41.32444539159219,-96.05235427562049
"68123","Bellevue","NE","Blackhawk Park","25th and Blackhawk Dr","68123",41.10943527167439,-95.95570822884522
"68123","Bellevue","NE","Bellevue Keystone Trail Bench","not_available","68123",41.15083829966781,-95.96907947087972
"68123","Bellevue","NE","Sokol Park","915 Allied Rd","68123",41.064109802246094,-95.92340087890625
"68123","Bellevue","NE","Looking Glass Park","13200 S 30th St","68123",41.113657026915654,-95.95762610435486
"68123","Bellevue","NE","Stonecroft Park","13201 S 25th St","68123",41.113859106023234,-95.94686508178711
"68123","Bellevue","NE","Leawood Park II","12912 S 25th St","68123",41.11618701248314,-95.94931125640869
"68123","Bellevue","NE","Leawood Park","13001 S 36th St","68123",41.116219343936045,-95.96598386764526
"68123","Bellevue","NE","Swanson Park","3110 Cornhusker Rd","68147",41.16326089280824,-95.96070528030396
"68124","Omaha","NE","One Pacific Place Park","10041-10067 Pacific St.","68124",41.24689864623306,-96.06866169900414
"68124","Omaha","NE","Towl Park","9310 W Center Rd","68124",41.23358917236328,-96.05863952636719
"68124","Omaha","NE","Rockbrook Park","96th & Paddock","not_available",41.224259359068,-96.04711759345122
"68124","Omaha","NE","Rockbrook Park","105th Street","68124",41.234028022087585,-96.08111960371382
"68124","Omaha","NE","The Tyrannosaur Paddock","Behind Electric Fence","not_available",41.24719,-96.029064
"68127","Omaha","NE","Ralston Park","8049-8221 Park Dr","68127",41.200542098723425,-96.03741075532527
"68127","Omaha","NE","Koch Park","not_available","68127",41.202097,-96.027451
"68127","Omaha","NE","Fairview Park","85th Street","68127",41.19376,-96.04531
"68127","Omaha","NE","Oak Heights Park","10301-10399 U St","68127",41.2008506119837,-96.07237429760946
"68128","La Vista","NE","Camenzind Park","7120 Wood Lane Dr","68128",41.188381,-96.047942
"68128","La Vista","NE","Park","not_available","68138",41.188946208325675,-96.11291008308957
"68128","La Vista","NE","Cimarron Woods Park","tween 101st & 103rd","68128",41.18402519513614,-96.06624302128266
"68130","Omaha","NE","Zorinsky Lake Park","3808 S 156th St","68130",41.225169,-96.159742
"68130","Omaha","NE","Ontario Plaza Park","Ontario Plaza","68130",41.22733592,-96.17544797
"68130","Omaha","NE","Lakeside Hills Park","1834 S 173rd St","68130",41.241335928001384,-96.18477736025865
"68130","Omaha","NE","Harvey Oaks Park","14948 W Center Rd","68144",41.23512348514818,-96.15071296691895
"68130","Omaha","NE","Woodhaven Park","15812 W Center Rd","68130",41.238197,-96.162246
"68130","Omaha","NE","Oakbrook Meadows Park","oakbrook meadows park","68144",41.222987782313716,-96.15311622619629
"68131","Omaha","NE","Bemis Park","1300 n 38th st","not_available",41.27196241827581,-95.9631559428242
"68131","Omaha","NE","Turner Park","3110 Farnam St","68131",41.25869452137459,-95.95821619033813
"68131","Omaha","NE","graham park","not_available","68131",41.259559631347656,-95.96003723144531
"68131","Omaha","NE","Clarkson Park","42nd Ave","68131",41.263435459805,-95.97300312687267
"68132","Omaha","NE","Memorial Park","5700 Dodge Street","68132",41.26273216918981,-96.00180609009492
"68133","Papillion","NE","Glenmorrie Park","4916 Glasgow Ave","68157",41.18188396008707,-95.98993062973022
"68133","Papillion","NE","Faulkland Heights Park","4600 Schoeder St","68157",41.171579742731495,-95.98540306091309
"68133","Papillion","NE","Gilder Park","3801 Chandler Rd W","68147",41.182287697356045,-95.9714126586914
"68133","Papillion","NE","Goldenrod Park","8201 S 42nd St","68147",41.177955627441406,-95.97550964355469
"68133","Papillion","NE","Lakewood Park","not_available","68133",41.13459598875001,-95.99104096265266
"68134","Omaha","NE","Esther Pilster Park","4008 N 88th Ave","68134",41.2974552698175,-96.04953750361776
"68134","Omaha","NE","Keystone Park","80th","68134",41.286695070585594,-96.02657886389389
"68134","Omaha","NE","Democracy Park","8798 Templeton Dr.","68134",41.30579912886319,-96.04778807020895
"68134","Omaha","NE","Saddle Hills Park","not_available","68134",41.3072134153051,-96.03745937347412
"68134","Omaha","NE","OPPD Arboretum","108th St. and Blondo St.","68114",41.2787201436109,-96.07830426148008
"68134","Omaha","NE","Maplewood Village","Maplewood Blvd","68134",41.29193512952325,-96.06069546741064
"68134","Omaha","NE","Sunny Slope Park","104th St","68134",41.3022915946131,-96.07690654896273
"68134","Omaha","NE","North Oaks Park","9336 Ellison Ave","68134",41.30974197387695,-96.0585708618164
"68134","Omaha","NE","Templeton Mini Park","4711 N 85th St","68134",41.302005767822266,-96.04325103759766
"68134","Omaha","NE","Tomahawk Park","96th And Fort","not_available",41.305323456833584,-96.05775676004676
"68134","Omaha","NE","Maple Village Park","Parkview Drive & Ames Ave","68134",41.29833281140557,-96.06478328977822
"68135","Omaha","NE","Black Elk Park","16121 Z St","68135",41.196605,-96.16670500000001
"68135","Omaha","NE","Hawthorne Park","not_available","68135",41.212308,-96.19143
"68135","Omaha","NE","Pheasant Run Park","6202 S 156th Ave","68135",41.196177,-96.159313
"68137","Omaha","NE","Walnut Grove Park","not_available","68137",41.21211501012186,-96.14738392917214
"68137","Omaha","NE","Brookhaven Park","116th street","68137",41.19157262477742,-96.08598261687953
"68137","Omaha","NE","Oaks Park","12672 Anne St","68137",41.21185801111601,-96.10989328872274
"68138","Omaha","NE","SID 92","152nd & Rock Creek","68135",41.179762849293624,-96.15171730669763
"68144","Omaha","NE","Kingswood Park","3310 S 137th St","68144",41.22760772705078,-96.12824249267578
"68144","Omaha","NE","Westwood Park","3201-3323 Pedersen Dr","68144",41.23030178425152,-96.10750379647506
"68144","Omaha","NE","Parkside Park","not_available","68144",41.24173580513769,-96.13331132493491
"68144","Omaha","NE","Prarie Lane Park","3119 South 116th Avenue","68144",41.22981643676758,-96.0947036743164
"68154","Omaha","NE","Pepperwood Park","Pepperwood Dr.","68154",41.27378033948837,-96.15073944125479
"68157","Omaha","NE","Sun Valley Park","52 Aspen Dr","68157",41.186018111969354,-95.99982261657715
"68164","Omaha","NE","Rambleridge Pond","5514-5598 N 114th St","68164",41.30739700845584,-96.0891109379927
"68164","Omaha","NE","Hefflinger Park","Papillion Pkwy","68164",41.28991647688505,-96.09200229949751
"68164","Omaha","NE","Crosskey Villages Park.","Big Papio Trail","68154",41.28224745585983,-96.09473042764094
"68164","Omaha","NE","Ramble Ridge Park","N 114th St","68164",41.31181884120001,-96.08916266523784
"68164","Omaha","NE","Roanoke Park","4601-4699 N 113th St","68164",41.299104174794955,-96.08397545696178
"68164","Omaha","NE","Willow Wood Park West","not_available","68164",41.281405952978055,-96.11372252134112
"68301","Adams","NE","Buchanan Field","100 Main St","68372",40.61845779418945,-96.63555145263672
"68301","Adams","NE","Adams Ball Field","not_available","68301",40.45690384148354,-96.50466657119172
"68303","Alexandria","NE","Alexandria Community Center","506-510 Nebraska 53","68303",40.24717072159241,-97.38786578178406
"68305","Auburn","NE","Coryell Park","Unnamed Rd","68378",40.4366934299469,-95.95340430736542
"68305","Auburn","NE","Coryell Park","Unnamed Rd","68320",40.43709576129913,-95.9541928768158
"68305","Auburn","NE","Legion Memorial Park","not_available","68305",40.39459018635647,-95.83803404382941
"68310","Beatrice","NE","Hannibal Park","501 N 22nd St","68310",40.27541988809033,-96.72041255989592
"68310","Beatrice","NE","Prairie Playground","not_available","68310",40.225423744891245,-96.81114476369154
"68313","Beaver Crossing","NE","Pickle Park (Lots Of Trucker Pickles)","I-80 Westbound","68434",40.824258,-97.171875
"68319","Bradshaw","NE","Bradshaw City Park","not_available","68319",40.883708,-97.74762
"68329","Cook","NE","Wirth Brothers Recreation Area & Lake","not_available","68329",40.45071,-96.19936
"68333","Crete","NE","Crete Park","301-399 Nebraska 103","68333",40.62468222,-96.95918696
"68339","Denton","NE","Denton Community Park","not_available","68522",40.774024963378906,-96.80106353759766
"68339","Denton","NE","Denton Community Park","7115 Lancaster Ave","68339",40.739471435546875,-96.84578704833984
"68346","Dunbar","NE","Dunbar Roos Park","not_available","68346",40.670842,-96.0484185
"68347","Eagle","NE","Eagle Park","546-598 D St","68347",40.81435092354682,-96.43851875351373
"68352","Fairbury","NE","Rock Creek Station Historical Park","57416 710 Road","68352",40.11311128902507,-97.06511948380923
"68352","Fairbury","NE","The Old Dam At Fairbury","not_available","68352",40.131974,-97.182658
"68352","Fairbury","NE","McNish Park","Park Dr.","68352",40.14496944612666,-97.1741634607315
"68352","Fairbury","NE","Fairbury City Park Fountain","8th And E St.","not_available",40.136884,-97.187926
"68352","Fairbury","NE","Crystal Springs Park","Walt Maughn Dr.","68352",40.12986919373177,-97.2041130065918
"68354","Fairmont","NE","Geneva playground","not_available","68361",40.530995,-97.60417
"68361","Geneva","NE","Westside Park","W Murray","68436",40.41926296230622,-97.72647857666016
"68366","Greenwood","NE","Waverly Park","not_available","68462",40.90936126702326,-96.52914047241211
"68366","Greenwood","NE","Wayne Park","10410 N 140th St","68462",40.91010284423828,-96.52922058105469
"68370","Hebron","NE","Roosevelt Park","not_available","68370",40.165731937988845,-97.58962422609329
"68371","Henderson","NE","Henderson Downtown Park","not_available","68371",40.78026194623968,-97.81148076351901
"68376","Humboldt","NE","Kirkman's Cove Recreation Area","not_available","68376",40.188561707355035,-95.99402904510498
"68401","Mc Cool Junction","NE","Chipping Greenbelt","35 Chipping Road","68467",40.770957,-97.559274
"68402","Malcolm","NE","Larry Murray Park","10209 State Spur 55M","68402",40.90525834999091,-96.86267852783203
"68405","Milford","NE","Bemis Park","not_available","68434",40.82276462945512,-97.07344527261654
"68405","Milford","NE","Milford City Park","2nd Street","68405",40.772812,-97.052495
"68410","Nebraska City","NE","Steinhart Park","S Steinhart Park Road","not_available",40.67589152741653,-95.87527941936364
"68410","Nebraska City","NE","Whispering Bench","not_available","68410",40.680071,-95.875429
"68413","Nehawka","NE","The Nehawka Park","not_available","68413",40.82995604414971,-95.9900664423778
"68418","Palmyra","NE","Elmwood Park","not_available","68349",40.702414461912525,-96.33671890984654
"68418","Palmyra","NE","The Forest","not_available","68418",40.69133,-96.357618
"68434","Seward","NE","Memorial Park","Seward St","68434",40.90791320800781,-97.0957260131836
"68434","Seward","NE","Plum Creek Park","Karol Kay Blvd","68434",40.924468994140625,-97.08348846435547
"68446","Syracuse","NE","south park","not_available","68446",40.66966827963943,-96.1624315238712
"68448","Talmage","NE","Talmage Park","not_available","68448",40.53199,-96.019972
"68450","Tecumseh","NE","Tecumseh City Park","not_available","68450",40.3670159801159,-96.18972301483154
"68465","Wilber","NE","Legion Memorial Park","not_available","68465",40.474370895877264,-96.96433701102353
"68467","York","NE","Harrison Park","601-699 State Spur 930","68467",40.86272105329709,-97.60005715276846
"68467","York","NE","Foster Park Arboretum","not_available","68467",40.864079,-97.58655716
"68502","Lincoln","NE","Antelope Park","3247-3283 Normal Blvd","68506",40.796820774798775,-96.67482592103232
"68502","Lincoln","NE","Peterson Park","not_available","68512",40.768318437033265,-96.68639664397033
"68502","Lincoln","NE","Wilderness Park","Pioneers Blvd at So 1st St","68502",40.76935290154071,-96.71896003938726
"68502","Lincoln","NE","Northwest Shelter","not_available","68510",40.80177509531563,-96.68089268582705
"68502","Lincoln","NE","Little Park","not_available","68516",40.759254,-96.677191
"68502","Lincoln","NE","Irvingdale Park","Van Dorn St.","USA",40.78506111470083,-96.69367157288183
"68502","Lincoln","NE","Breta Park","not_available","68502",40.799041392882984,-96.6928893327713
"68502","Lincoln","NE","Lake Street Park","Lake St.","68502",40.789020469620525,-96.69943256286966
"68502","Lincoln","NE","Memorial Park","S 33rd St","not_available",40.787511506372944,-96.67350769042969
"68502","Lincoln","NE","Wild Plum, Salt Creek Reservoir 26-A","12799 W Stagecoach Rd","68333",40.79157845917383,-96.67657444501577
"68502","Lincoln","NE","Veterans Memorial Garden","not_available","68506",40.79656704171902,-96.67438149543511
"68502","Lincoln","NE","Antelope Creek","Vine St","not_available",40.80185007108248,-96.69059150896803
"68502","Lincoln","NE","Woodshire Park","3400-3598 W Pershing Rd","68502",40.78370153903961,-96.6933935880661
"68502","Lincoln","NE","Maple Lodge Park","2000-2030 Euclid Ave","68502",40.79202,-96.69101
"68502","Lincoln","NE","Tierra Briarhurst Park","S 27th St & Tierra Dr","68516",40.765121804411464,-96.67911607929584
"68502","Lincoln","NE","Peach Park","1425 Peach St.","68502",40.793757,-96.700928
"68502","Lincoln","NE","Pocras Park","2850 Sewell St.","68502",40.7902429,-96.68043758333333
"68503","Lincoln","NE","Trago Park","N 22nd St","68503",40.81894898259163,-96.69097423553467
"68503","Lincoln","NE","Ready Mixed Park","17th And Y","68503",40.824578,-96.694393
"68503","Lincoln","NE","McAdams Park","not_available","68504",40.82434663754057,-96.65855270807506
"68503","Lincoln","NE","Lintel Park","John Dietrich Bike Trail","68503",40.8285305154537,-96.69146237257083
"68503","Lincoln","NE","Ecco Park","47th & holdrege","not_available",40.82795515613297,-96.65750872997083
"68503","Lincoln","NE","Hartley Park","not_available","68503",40.81735584649729,-96.67662665901284
"68503","Lincoln","NE","Peter Pan Park","3100 W St.","not_available",40.82256375359715,-96.67469476936628
"68504","Lincoln","NE","hood side","30th Leighton","68503",40.833785592683,-96.64764919448284
"68504","Lincoln","NE","Upco Park","3800-3898 Cleveland Ave","68504",40.84156177026162,-96.6657762541283
"68504","Lincoln","NE","University Place Park","4900 Francis St","68504",40.83148956298828,-96.65210723876953
"68505","Lincoln","NE","Bethany Park","not_available","68505",40.821326164437416,-96.63224442188371
"68506","Lincoln","NE","Holmes Lake Park","6537-6799 Normal Blvd","68506",40.78346947509733,-96.63105477643306
"68506","Lincoln","NE","Holmes Lake","Holmes South Shore Rd","68506",40.77946139573926,-96.63355931887966
"68506","Lincoln","NE","Roberts Park","1550 S 56th St.","68506",40.795090443719204,-96.64212874564679
"68506","Lincoln","NE","Henry Park","44th & Prescott Avenue","68506",40.77334159027206,-96.6596759823083
"68506","Lincoln","NE","Pansing Park","5240 E Van Dorn St.","68506",40.78179951904642,-96.6484132165129
"68506","Lincoln","NE","Roose Park","5520 E Van Dorn St.","68506",40.784278392604236,-96.64634227752686
"68506","Lincoln","NE","Tigers Park","2753 S 39th St","68506",40.78508671664206,-96.66478048963282
"68506","Lincoln","NE","Eden Park","4530 Antelope Creek Rd.","68506",40.7868922126813,-96.65803071690047
"68506","Lincoln","NE","College View Park","3900 S. 44th St.","not_available",40.7733579340851,-96.65946098283759
"68507","Lincoln","NE","Mahoney park","70th & Fremont","68507",40.85004815755603,-96.61426643646239
"68507","Lincoln","NE","Tyrrell park","2700 N Cotner Blvd","68507",40.838761,-96.628578
"68507","Lincoln","NE","Shooting Stars Boccee","3120 N 61st St the field!","68507",40.843997955322266,-96.63683319091797
"68507","Lincoln","NE","Mahoney Park Baseball/Softball Fields","70th and Fremont","68507",40.850029622731405,-96.61054208803952
"68507","Lincoln","NE","Havelock Park","6300 Morrill Ave","68507",40.855422,-96.633746
"68508","Lincoln","NE","American Legion Park","700 S. 26th St.","not_available",40.80687679934535,-96.68225785522763
"68508","Lincoln","NE","Haymarket Park","not_available","68508",40.82321463610059,-96.71415337017304
"68508","Lincoln","NE","Oak Lake Park","100-198 Charleston St","68508",40.829509553155184,-96.71554308772333
"68508","Lincoln","NE","Iron Horse Park","201 N 7th St","68508",40.8156807,-96.71130748333333
"68508","Lincoln","NE","The Rocks","1451 O St","68508",40.813257,-96.700547
"68508","Lincoln","NE","West Depot Parking Lot","700 O St","68508",40.814215925978964,-96.71184651473217
"68508","Lincoln","NE","Abel Park","1780 E St,","68508",40.80391022929608,-96.6957700252533
"68508","Lincoln","NE","Lincoln Foundation Garden","1417 N St","68508",40.81229103662261,-96.70050284119623
"68510","Lincoln","NE","Woods Park","299 S 31st St","68510",40.80852822180379,-96.67313768621271
"68512","Lincoln","NE","Rolling Hills","5899 Woodstock Ave","68512",40.75145191867107,-96.69355667170589
"68512","Lincoln","NE","Van Dorn Park","1","not_available",40.747902,-96.719966
"68512","Lincoln","NE","Lincoln Memorial Park","6800 S 14th St","68512",40.740194008489624,-96.70041925978404
"68512","Lincoln","NE","Col. Densmore Park","6701 S 14th St","68512",40.745071498855964,-96.70698582895508
"68516","Lincoln","NE","Vintage Heights Park","not_available","68526",40.74682327165976,-96.60190493863584
"68516","Lincoln","NE","Edenton South Park","6314-6398 Ashbrook Dr","68516",40.74990181972136,-96.61775384623277
"68516","Lincoln","NE","Edenton/phares Park Bike Trail","80th steet","68526",40.76185,-96.610568
"68521","Lincoln","NE","Highlands Park","not_available","68521",40.87096237232145,-96.73601520419129
"68521","Lincoln","NE","Frisby Park","Roper Park Trail","68521",40.85381048754486,-96.71552741405017
"68522","Lincoln","NE","Pioneers Park","3201 S Coddington Ave","68522",40.77453803112233,-96.77540816743819
"68522","Lincoln","NE","Coddington Park","Coddington Street","68522",40.79661800201184,-96.74303011628275
"68524","Lincoln","NE","air park","not_available","68524",40.8522867449516,-96.78976919658446
"68524","Lincoln","NE","Nebraska Flag Football Fields","3720 NW 46th St","68524",40.8508186340332,-96.78447723388672
"68524","Lincoln","NE","Tanker Hill","5139 W Loring St","68524",40.856505,-96.791612
"68524","Lincoln","NE","Eagles View Park","West Knight Dr","68524",40.85252990873366,-96.7914011504108
"68601","Columbus","NE","Airport Park","not_available","68601",41.44172628342091,-97.34834057059089
"68601","Columbus","NE","Pawnee Park","Pawnee Plaza","68601",41.42513756370368,-97.36544246811972
"68620","Albion","NE","Fuller Park","Albion,NE,68620","68620",41.68249619465469,-98.0064219146472
"68628","Clarks","NE","Mormon Trail State Wayside Patk","not_available","68628",41.1918,-97.87304
"68636","Elgin","NE","Riverside Park","not_available","68756",42.12237274115783,-98.02460200656944
"68642","Humphrey","NE","Creston Park","not_available","68748",41.79118045,-97.464718
"68643","Leigh","NE","Maple Creek Recreation Area","Nebraska 91","68643",41.714230127906816,-97.25561663475119
"68649","North Bend","NE","North Bend City Park","1101-1199 Locust St","68649",41.466148677487986,-96.77897945779306
"68666","Stromsburg","NE","Buckley Park","not_available","68666",41.10657516075863,-97.59941657819572
"68666","Stromsburg","NE","stromsburg town square","4th street","68666",41.11372582684054,-97.59735195648761
"68701","Norfolk","NE","Skyview Park","1900 W Maple Ave","not_available",42.04039799363402,-97.44002368864452
"68701","Norfolk","NE","Ta-Ha-Zouka Park","not_available","68701",42.006942209186974,-97.42651422018008
"68711","Amelia","NE","Perkins Memorial Park","not_available","68711",42.31711196899414,-98.94232940673828
"68716","Beemer","NE","Wisner River Park","not_available","68791",41.980827,-96.917127
"68725","Chambers","NE","Chambers Ball Fields","not_available","68725",42.20202872965148,-98.74102651473196
"68728","Concord","NE","Concord Park","Maple Street","68728",42.38303704419917,-96.98798013556994
"68730","Crofton","NE","Gavins Point Dam Park","not_available","57078",42.851909256536025,-97.46580890805498
"68731","Dakota City","NE","Crystal Cove Park","W 39th St","68776",42.45164828289616,-96.43022442749465
"68731","Dakota City","NE","ATOKAD Park","not_available","68776",42.44716965683479,-96.4310294660284
"68731","Dakota City","NE","Cardinal Park","E 37th St.","68776",42.45356140327355,-96.4139675127826
"68760","Niobrara","NE","Cannon Park","not_available","57062",42.850595,-97.892465
"68760","Niobrara","NE","Springfield Recreation Area","4183 Boat Basin Rd","57062",42.85910692391842,-97.88366958370626
"68760","Niobrara","NE","Terrace Park","Springfield,SD,57062","57062",42.83923,-97.854592
"68763","Oneill","NE","Ford Park O'Neill Ne","not_available","68763",42.459000660123515,-98.65436760761824
"68764","Orchard","NE","Ashfall Fossil Beds State Historical Park","86930 517th Ave","68773",42.42721176147461,-98.1650619506836
"68765","Osmond","NE","Osmond Poolside Park","not_available","68765",42.357003,-97.599905
"68767","Pierce","NE","Willow Creek State Recreation Area","SW of Pierce, NE","68767",42.175951339299225,-97.57123231887817
"68767","Pierce","NE","Gilman Park","not_available","68767",42.20165232606342,-97.52336786588296
"68768","Pilger","NE","Pilger Recreation Area","not_available","68768",42.02665,-97.040045
"68770","Ponca","NE","Friendship Park","not_available","68770",42.563717,-96.720965
"68774","Saint Helena","NE","Riverside Park","Levee St.","57078",42.866528506208425,-97.39139556884766
"68776","South Sioux City","NE","Puffers Patio Paradise","not_available","51106",42.49053747757197,-96.40202453040898
"68776","South Sioux City","NE","Chris Larsen Park","Larsen Park Dr","51103",42.48916060712214,-96.40965176320609
"68776","South Sioux City","NE","Scenic Park Playground","not_available","51103",42.48427741515855,-96.40748880016696
"68776","South Sioux City","NE","Pavilion Park!","401-613 Larsen Park Rd","51103",42.48968833373948,-96.41517909572943
"68784","Wakefield","NE","Graves Park","not_available","68784",42.2726936340332,-96.87340545654297
"68786","Wausa","NE","Gladstone Park","not_available","68786",42.49759389540962,-97.53908082795932
"68787","Wayne","NE","Viken Park","not_available","68787",42.239337,-97.011493
"68787","Wayne","NE","Willow Bowl","1111 Main St","68787",42.239795702296696,-97.01667728827908
"68788","West Point","NE","Timmerman Park","207 S Water St","68788",41.83843774371453,-96.72176061178047
"68788","West Point","NE","Neleigh Park","492 W Bridge St","68788",41.842103347752044,-96.71663761138916
"68788","West Point","NE","Wilderness Park","County Rd 18","68788",41.83455766884141,-96.69509410858153
"68801","Grand Island","NE","Fonner Park","not_available","68801",40.90418257739831,-98.32984567546586
"68801","Grand Island","NE","Hall County Park","3138 W Schimmer Dr","68801",40.87409706704993,-98.37426424026489
"68801","Grand Island","NE","Lions Club Park","511 N Sycamore","68801",40.930441,-98.341166
"68801","Grand Island","NE","Veterans Athletic Park","Grand Island,NE,63127","68803",40.9263957,-98.3420118
"68801","Grand Island","NE","Northside Fun Park","2401-2421 N Lafayette Ave","68803",40.94485938549042,-98.36416304111481
"68801","Grand Island","NE","Buechler Park","2400-2498 W Division St","68803",40.913358249210845,-98.364220355596
"68801","Grand Island","NE","Ashley Park","not_available","68803",40.946518048250454,-98.35641966500737
"68801","Grand Island","NE","Phillips Park","not_available","68865",40.899338893900044,-98.21427316463264
"68801","Grand Island","NE","Pier Park","South Oak Street","68803",40.915202599155506,-98.32881885210708
"68801","Grand Island","NE","Pier Park Skate Park","South Pine Street","68801",40.91783530794061,-98.33772380826342
"68803","Grand Island","NE","Cedar Hills Park","Hampton Road","68803",40.89339841357942,-98.39436608815066
"68803","Grand Island","NE","George Park","4100-4198 Norseman Ave","68803",40.942752693584296,-98.4052168221771
"68818","Aurora","NE","Stockham City Park","not_available","68818",40.717407,-97.943876
"68818","Aurora","NE","Cole Park","1409-1427 7th St","68818",40.87112730003717,-98.00900433754686
"68818","Aurora","NE","Streeter Park","1201-1299 Q St","68818",40.8738539480098,-98.0029238108898
"68822","Broken Bow","NE","The Square","not_available","68822",41.40220443435726,-99.6405540284558
"68822","Broken Bow","NE","Charles Horn Oconto Sculpture Garden","not_available","68860",41.14136,-99.76518
"68822","Broken Bow","NE","Melham Memorial Park","Memorial Drive","68822",41.41348443878076,-99.6332297191206
"68823","Burwell","NE","Fort Hartsuff State Historical Park","82034 Fort Avenue","68823",41.71946716308594,-99.0234603881836
"68823","Burwell","NE","Burwell Park","not_available","68823",41.788141570063964,-99.13313339651847
"68826","Central City","NE","Lone Tree Park (South Park)","Highway 14","68826",41.10550988638314,-98.00952615793818
"68826","Central City","NE","North Park","not_available","68826",41.11846995381747,-98.00793408508525
"68836","Elm Creek","NE","Lorn Park","5121 Catalpa Pl","68845",40.712669372558594,-99.14798736572266
"68836","Elm Creek","NE","Elm Creek City Park","534-580 N Tyler St","68836",40.72342102794725,-99.37215328216553
"68840","Gibbon","NE","Fort Kearney State Historical Park","1024-1028 State Highway 50A","68847",40.642998428758055,-99.00453739777386
"68840","Gibbon","NE","Davis Park","not_available","68840",40.7534340047494,-98.84893664438094
"68845","Kearney","NE","Harmon Park","600-698 W 33rd St","68845",40.70718949655447,-99.08964157104492
"68845","Kearney","NE","Baldwin Park","not_available","68845",40.72012690534248,-99.10782435728102
"68845","Kearney","NE","Yanney Park","2020 West 11th","68845",40.68200490334786,-99.10702228546143
"68845","Kearney","NE","Yanney Heritage Park","22nd St","68848",40.680519561743566,-99.10774332072579
"68845","Kearney","NE","Apollo park","7th Street","68845",40.70921325683594,-99.09030151367188
"68845","Kearney","NE","Centenial Park","1000 4th Ave","68845",40.684410095214844,-99.08790588378906
"68847","Kearney","NE","Harvey Park","not_available","68847",40.71634109698504,-99.0657612632225
"68850","Lexington","NE","Park","not_available","68850",40.773293,-99.740488
"68853","Loup City","NE","Jenners Park","not_available","68853",41.27491982586092,-98.95838772874714
"68862","Ord","NE","James Bussell Park","not_available","68862",41.60696616034073,-98.93941466531051
"68901","Hastings","NE","Highland Park","701-799 W 14th St","68901",40.5975040165028,-98.38846117258072
"68901","Hastings","NE","Crosier Park","101-199 Pacific St","68901",40.60108884600171,-98.37871104905142
"68901","Hastings","NE","Lincoln Park","not_available","68901",40.56857488333333,-98.39132165
"68901","Hastings","NE","Range","Unnamed Rd","68901",40.56398295,-98.27452098333333
"68901","Hastings","NE","Chautauqua Park","4th Street","68901",40.587405,-98.412788
"68901","Hastings","NE","Lake Hastings Park","1020 South Shore Dr","68901",40.60868437543459,-98.39449990605581
"68901","Hastings","NE","Backyard Park","1953-1999 W D St","68901",40.57764606,-98.40999055
"68901","Hastings","NE","Heartwell Park","North California Avenue","68901",40.59521770254836,-98.37619543075562
"68922","Arapahoe","NE","Arapahoe City Park","not_available","68922",40.30374554950991,-99.89893042365006
"68923","Atlanta","NE","parkbench","Decatur St, Atlanta, NE 68923","68923",40.366695404052734,-99.47473907470703
"68925","Ayr","NE","Crystal Lake State Recreation Area","Ayr,NE,68925","68925",40.45532502352809,-98.4405742604901
"68933","Clay Center","NE","Clay Center City Park","not_available","68933",40.523907,-98.056379
"68935","Edgar","NE","South Park","300 S C St","68935",40.3666481301522,-97.96932578086853
"68935","Edgar","NE","Centennial Park","704 N A St","68935",40.37481801365285,-97.9670003056526
"68935","Edgar","NE","Water Tower Park","200 S C St","68935",40.36844240154399,-97.97070175409317
"68938","Fairfield","NE","Fairfield City Park","not_available","68938",40.435321,-98.104031
"68940","Funk","NE","Harmony Park","not_available","68940",40.461903,-99.25018
"68948","Holbrook","NE","Holbrook City Park","Norwich Street","68948",40.30541812041123,-100.01584053039551
"68949","Holdrege","NE","North Park","18th","68949",40.45122769649144,-99.37662292051455
"68949","Holdrege","NE","South Park","Park Rd.","68949",40.43600544529148,-99.37833309173584
"68959","Minden","NE","Chautauqua Park","Minden,NE,68959","68959",40.50083345413707,-98.94372754820505
"68967","Oxford","NE","Oxford Park","not_available","68967",40.24820616526595,-99.62946178236261
"69001","Mc Cook","NE","Karrer Park","1778 E B St","69001",40.194439,-100.603423
"69001","Mc Cook","NE","Kelly Park","not_available","69001",40.21206747543135,-100.62012200692465
"69027","Enders","NE","Enders Reservoir State Recreation Area","RR 1 Box 4B","69027",40.42578077549262,-101.53478622436523
"69028","Eustis","NE","Eustis City Park","110 E Allison St","69028",40.660587310791016,-100.02564239501953
"69101","North Platte","NE","Centennial Park","800-960 W Francis St","69101",41.12133052851006,-100.7744985009094
"69101","North Platte","NE","Orabella Square","Boyd Ave","69101",41.13180083,-100.77543675899506
"69101","North Platte","NE","Memorial Park","1000-1198 E 2nd St","69101",41.13382863374543,-100.75102784505854
"69101","North Platte","NE","Kriz Park","not_available","69101",41.134274650952456,-100.7942895509497
"69101","North Platte","NE","Cody Park","1402 N Jeffers St","69101",41.14979792274836,-100.75814772260041
"69101","North Platte","NE","Orabella Square","921 Charles Ave","69101",41.13185501098633,-100.77537536621094
"69127","Brule","NE","Barton Park","not_available","69127",41.095821380615234,-101.88958740234375
"69128","Bushnell","NE","Texas Trail Park","not_available","82082",41.190272097616244,-104.00359872977059
"69130","Cozad","NE","Muny Park","40.86583	-99.99647","not_available",40.86633690763987,-99.99710261821747
"69130","Cozad","NE","Bellamy Ballpark","not_available","69130",40.85450223223646,-99.98379349708557
"69130","Cozad","NE","Ehmen Park","15th-16th St","69138",40.933173367933854,-100.15949052647392
"69147","Lewellen","NE","Ash Hollow State Historical Park","4265 Highway 26","69147",41.29105273724644,-102.12018315029586
"69153","Ogallala","NE","Ogallala Nature Park","not_available","69153",41.115918,-101.720816
"69153","Ogallala","NE","West Park","560-698 W L St","69153",41.127960116666664,-101.73388755
"69153","Ogallala","NE","North Park","300-398 W 9th St","69153",41.13123232046404,-101.72339623284142
"69162","Sidney","NE","Legion Park","1046 Toledo St","69162",41.13468933105469,-102.9770736694336
"69162","Sidney","NE","Park","not_available","69162",41.13359579213508,-102.97546357949378
"69201","Valentine","NE","Colburn Park","not_available","69201",42.874994,-100.547367
"69210","Ainsworth","NE","East City Park","not_available","69210",42.54706542247469,-99.84465012653567
"69218","Merriman","NE","Bowring Ranch State Historical Park","90468 State Hwy 61","69218",42.641883,-101.758304
"69301","Alliance","NE","LAING LAKE & PARK","200 West Burnam Drive","69301",42.11395594408824,-102.87423887556353
"69301","Alliance","NE","Central Park","300 East 9th","69301",42.103448259408935,-102.86626956665427
"69301","Alliance","NE","Chimney Rock National Historic Site","Oregon trail road","69334",41.70278449098782,-103.33184035436422
"69301","Alliance","NE","Fun Runl","not_available","69301",42.104523,-102.869532
"69301","Alliance","NE","Library Park","Ave A","69334",41.75884953333333,-103.3243456
"69301","Alliance","NE","Pool Park","not_available","69334",41.76277333035032,-103.32282185554504
"69301","Alliance","NE","J & C Lawn Service & RV Park","2491 S Highway 385","69301",42.0901597,-102.8971117
"69334","Bayard","NE","Melbeta Community Park","not_available","69355",41.78327107505425,-103.51639145288867
"69334","Bayard","NE","Bridgeport City Park (East)","not_available","69336",41.665016819307205,-103.09350562516595
"69337","Chadron","NE","War Memorial Park","not_available","69337",42.822306,-102.997031
"69341","Gering","NE","Gardner Park","not_available","69341",41.828611275579,-103.6626804447533
"69341","Gering","NE","Legion Park","1320 12th St","69341",41.82317352294922,-103.66383361816406
"69341","Gering","NE","5th Ave. Railroad Crossing","not_available","69361",41.85516543624215,-103.65590175361088
"69341","Gering","NE","McClellan Park","400 D Street","69341",41.81471899398291,-103.65272453829826
"69341","Gering","NE","Oregon Trail Park","1501-1699 Park Terrace","69341",41.81714745,-103.66898946666667
"69343","Gordon","NE","Winship park","not_available","69343",42.80760206141203,-102.204909324646
"69352","Lyman","NE","Morrill Park","not_available","69358",41.963843,-103.929842
"69357","Mitchell","NE","Captain Critters Country Campground","180454 US-26","69361",41.8991216,-103.7179206
"69357","Mitchell","NE","Mitchell City Park","not_available","69357",41.943487390244044,-103.81575347584256
"69361","Scottsbluff","NE","Northwood Park","610 W 33rd St","69361",41.87861251831055,-103.67163848876953
"69361","Scottsbluff","NE","Lacy Park & Softball Complex","240000 Highland Rd","69361",41.85874226144346,-103.61457109451293
