"zip","city","state","name","address","postalCode","lat","lon"
"98001","Auburn","WA","Sacajawea Park","not_available","not_available",47.33514713928787,-122.30680413854985
"98001","Auburn","WA","Steel Lake Park","2410 S 312th St","98003",47.325240477502895,-122.30103524817534
"98001","Auburn","WA","City Of Pacific Park","Kc Parks Dept Rd","98047",47.26522319493622,-122.23677567019611
"98001","Auburn","WA","Enchanted Meadows Park","30th Ct S","not_available",47.261327,-122.295938
"98001","Auburn","WA","Auburn Environmental Park","West Main Street","98001",47.30766398578175,-122.23335042357279
"98001","Auburn","WA","Atlas Park","29215 44th Pl S","98001",47.339691162109375,-122.27959442138672
"98001","Auburn","WA","John Matchett Memorial Park","not_available","98001",47.278167679151466,-122.24854526168795
"98001","Auburn","WA","Wildwood Park","not_available","98003",47.32987141141723,-122.29961281674305
"98001","Auburn","WA","Five Mile Lake Park","36429 44th Ave S","98001",47.273644839277836,-122.28186848862391
"98001","Auburn","WA","Centennial View Point Park","402 Mountain View Dr","98001",47.306902947533935,-122.26613790298296
"98001","Auburn","WA","GSA Park","15th St SW","98001-4916",47.29484361399195,-122.23359263117844
"98001","Auburn","WA","Federal Way Interim Sculpture Park","2031 S 316th St","98003",47.31829071044922,-122.30589294433594
"98001","Auburn","WA","Memorial Park","not_available","98047",47.27185820283254,-122.25789943752638
"98001","Auburn","WA","Lake Killarney Open Space Park","34902 Weyerhaeuser Way S","98003",47.287823,-122.29155
"98001","Auburn","WA","Steel Lake Park","2410 SW 312th St","98003",47.323742,-122.30123
"98002","Auburn","WA","Game Farm Park","910 9th St","98002",47.281246208163275,-122.20785827085737
"98002","Auburn","WA","Les Gove Park","11th & Auburn Way S.","98002",47.29919273108743,-122.21718621516538
"98002","Auburn","WA","South 277th Corridor Recreational Trail","Green River Road South","98030",47.35389615081837,-122.20590115825405
"98002","Auburn","WA","Auburn Lazer Tag Club, Auburndale Park","10854 SE 318th Pl","98092",47.317071,-122.19696599999999
"98002","Auburn","WA","Frank Fulmer Park","not_available","98002",47.31236074065188,-122.21518523137462
"98002","Auburn","WA","Brannan Park","991 26th St NE","98002",47.332122977183815,-122.21461773931077
"98002","Auburn","WA","Dykstra Park","1533 22nd St NE","98002",47.326351165771484,-122.20914459228516
"98002","Auburn","WA","Indian Tom Park","512 N St NE","98002",47.312987,-122.21191
"98002","Auburn","WA","Game Farm Wilderness Park","2633-3499 Stuck River Dr","98092",47.27924764449147,-122.19737296382361
"98002","Auburn","WA","21st Street Playground","405 21st St. SE","not_available",47.29093551635742,-122.22371673583984
"98002","Auburn","WA","Issac Evans Park","29627 Green River Rd SE","98092",47.33332498102783,-122.21099022666803
"98002","Auburn","WA","William C. Warren Building","not_available","98032",47.3122128413361,-122.22323887948116
"98002","Auburn","WA","Veterans Memorial Park","405 E St NE","98002",47.31209182739258,-122.22291564941406
"98002","Auburn","WA","Auburndale Park","31802 108th Avenue SE","not_available",47.3181266784668,-122.19639587402344
"98003","Federal Way","WA","Celebration Park","1101 S 324th St","98003",47.307644,-122.320114
"98003","Federal Way","WA","Mirror Lake Park","898 S 315th St","98003",47.31994425099456,-122.32441900667872
"98003","Federal Way","WA","The Park at The Ridge","not_available","98023",47.302577,-122.340665
"98003","Federal Way","WA","Hylebos Wetlands","411 S 348th St","98003",47.286915,-122.32786
"98004","Bellevue","WA","Bellevue Downtown Park","10201 NE 4th St.","98004",47.61286025107819,-122.20380496096878
"98004","Bellevue","WA","Meydenbauer Bay Park","101 Park Pl","98004",47.61128722396346,-122.21128919296676
"98004","Bellevue","WA","Luther Burbank Park","8236 SE 24th St","98040",47.590961064556126,-122.22606004769257
"98004","Bellevue","WA","Chism Beach Park","1175  96th Ave SE","not_available",47.60017325737256,-122.211012840271
"98004","Bellevue","WA","Medina Park","8300 NE 12th St","98039",47.620749322652486,-122.23052797144797
"98004","Bellevue","WA","Inspiration Playground","not_available","98004",47.61194821487355,-122.20581268508766
"98004","Bellevue","WA","Mercerdale Park","3200 78th Ave SE","98040",47.581169539270206,-122.23428017583572
"98004","Bellevue","WA","Surrey Downs Park","585 112th Ave SE","98004",47.60366511229531,-122.19186572028292
"98004","Bellevue","WA","Wildwood Park","260 101st Avenue SE","98004",47.60849612259798,-122.2045974889135
"98004","Bellevue","WA","Kirkland Watershed Park","4500 110th Avenue NE","98033",47.65262303247815,-122.19141078002953
"98004","Bellevue","WA","Medina Viewpoint Park","Overlake Drive West","not_available",47.61275854828906,-122.22787850054095
"98004","Bellevue","WA","Goddard Park","715 100th Ave NE","98004",47.61635971069336,-122.20743560791016
"98004","Bellevue","WA","Hunts Point Park","Hunts Point Rd","not_available",47.643648727772906,-122.22993850708008
"98004","Bellevue","WA","Bellevue Towers - Urban Garden","500 106th Ave NE","98004",47.61471939086914,-122.19869995117188
"98004","Bellevue","WA","Carillon Woods","5429 106th Avenue NE","98033",47.65644454956055,-122.19908905029297
"98004","Bellevue","WA","McCormick Park","11108 NE 12th St","98004",47.62110380677329,-122.1945148280754
"98004","Bellevue","WA","Ashwood Park","NE 108th St","98004",47.62019762644452,-122.1951826066005
"98004","Bellevue","WA","Clise Park","Island Crest Way","not_available",47.57463785134632,-122.22690790057402
"98004","Bellevue","WA","Sixth Street Park","10116 SE 6th St","98004",47.604890000000005,-122.204975
"98004","Bellevue","WA","Upper Luther Burbank","not_available","98040",47.587027038939,-122.22928903120777
"98004","Bellevue","WA","Mercer Slough North Bridge","2380 Bellevue Way SE","98004",47.588977,-122.191319
"98004","Bellevue","WA","Denny Park","not_available","98034",47.64952128057355,-122.20392459790897
"98004","Bellevue","WA","Bellefields Nature Park","2549 118TH SE AVE","98005",47.59143648323559,-122.18300087031272
"98005","Bellevue","WA","Kelsey Creek Park","410 130th Ave SE","98005",47.60488239767633,-122.1661984497623
"98005","Bellevue","WA","Wilburton Hill Park","12001 Main Street","not_available",47.608554027645795,-122.17454842613556
"98005","Bellevue","WA","Bellevue Botanical Garden","12001 Main St","98005",47.609570105411066,-122.17896212262448
"98005","Bellevue","WA","Skyridge Park","SE 20th St.","98005",47.59219212744953,-122.15886283632588
"98005","Bellevue","WA","Bridle Trails Corner Park","2402 134th Avenue NE","98005",47.63209915161133,-122.16138458251953
"98005","Bellevue","WA","Viewpoint Park","NE 24th St","not_available",47.63150960483849,-122.16211650684727
"98005","Bellevue","WA","Sunset Park Bellevue","2837 139th Avenue SE","98005",47.586553332270775,-122.15577299770256
"98005","Bellevue","WA","Essex Property Trust Seattle","11911 NE 1st St","98005",47.610640000000004,-122.18082700000001
"98005","Bellevue","WA","Woodridge Water Tower Park","not_available","98005",47.59300848910707,-122.1722155527237
"98005","Bellevue","WA","Bellevue Highlands Park","14224 Bel Red Rd","98007",47.62654179,-122.152223
"98005","Bellevue","WA","Goldsmith Park","NE 35th","98007",47.63960046219337,-122.14642961987776
"98005","Bellevue","WA","crossroads spray park","not_available","98008",47.599610814590854,-122.17527054281175
"98005","Bellevue","WA","Spiritwood Park","1813 146th Ave SE","98007",47.59429168701172,-122.14572143554688
"98006","Bellevue","WA","Cougar Mountain Regional Wildland Park","7500 Lakemont Blvd SE","98006",47.54806286541504,-122.11455216351504
"98006","Bellevue","WA","Lewis Creek Park","5808 Lakemont Blvd SE","98006",47.55296462764606,-122.12561689966273
"98006","Bellevue","WA","Lakemont Community Park","not_available","98006",47.55860737525415,-122.11465121118643
"98006","Bellevue","WA","Vasa Park","3564-3798 W Lake Sammamish Pkwy SE","98008",47.5770991684266,-122.11283631998269
"98006","Bellevue","WA","Foresthill Park","13232-13234 SE 51st Pl","98006",47.55824451479171,-122.16446203898214
"98006","Bellevue","WA","Donegal Park","not_available","98056",47.5363957093953,-122.17476561245952
"98006","Bellevue","WA","Newport Hills Park","6029 120th Ave SE","not_available",47.548793378822886,-122.18061266075195
"98006","Bellevue","WA","Madison Lane Park","6809 115th Ct SE","98056",47.541768,-122.18739599999999
"98006","Bellevue","WA","Shangrila","Cougar mountain Wildlife Preserve","not_available",47.54046326970521,-122.09954031840138
"98006","Bellevue","WA","Regency gazebo","7454 Newcastle Golf Club Rd","98059",47.53498077392578,-122.1627197265625
"98007","Bellevue","WA","Robinswood Park","2430 148th Ave SE","98007",47.59034754915111,-122.14051585485258
"98007","Bellevue","WA","Master Demonstration and Community Gardens -- Lake Hills","at Lake Hills Greenbelt","98007",47.59643869152542,-122.13298243450086
"98007","Bellevue","WA","Lake Hills Greenbelt","156th Ave. SE","98007",47.59642338668002,-122.13319136507477
"98007","Bellevue","WA","Spiritridge Park","SE 33rd Pl","98008",47.58076368121693,-122.1279498413929
"98007","Bellevue","WA","Chevy Chase Neighborhood Park","15010 NE 15th St","98007",47.61867678961933,-122.14028247031295
"98007","Bellevue","WA","Bellevue Park Ranger Station","15416 SE 16th St","98007",47.596604,-122.134129
"98007","Bellevue","WA","Westside Park","5818 156th Ave NE","98052",47.66029426404337,-122.13270922896022
"98007","Bellevue","WA","Unigard Park","15785-15805 NE 24th St","98008",47.630262039325686,-122.12898782307602
"98007","Bellevue","WA","Commissioner's Waterway Mini Park","1669 148th Ave NE","98007",47.62586212158203,-122.14354705810547
"98007","Bellevue","WA","Bellevue Airfield Park","160th Ave SE","98008",47.585303,-122.129171
"98007","Bellevue","WA","Microsoft Softball Field 4","not_available","98052",47.641965744170506,-122.12980565872192
"98008","Bellevue","WA","Idylwood Park","3650 West Lake Sammamish Parkway NE","not_available",47.642940616322484,-122.10272524014216
"98008","Bellevue","WA","Crossroads Park","16000 NE 10th St","98008",47.617619367741106,-122.12397991622683
"98008","Bellevue","WA","Lake Hills Park","1201-1399 164th Ave SE","98008",47.59928601337351,-122.12149996754385
"98008","Bellevue","WA","South Cove Private Park","not_available","98027",47.57016221927581,-122.09035220502368
"98008","Bellevue","WA","Ardmore Park","16833 NE 30th Street","98008",47.63338081076902,-122.1174423629167
"98008","Bellevue","WA","Timberlake Park","4500 W. Lake Sammamish Parkway S.E.","98027",47.565306037964405,-122.09593534469604
"98008","Bellevue","WA","Keaney Park","17156-17198 Northup Way","98008",47.619095170849626,-122.11033344268799
"98008","Bellevue","WA","Evergreen Park","17126 SE 29th Pl","98008",47.583712,-122.112222
"98008","Bellevue","WA","Viewpoint Park","18440 NE 24th Street","not_available",47.63563996895552,-122.09526500702454
"98010","Black Diamond","WA","Green River Gorge State Park","not_available","98010",47.28873,-121.968297
"98011","Bothell","WA","Bothell Landing","9919 NE 180th St","not_available",47.758207721399906,-122.20857891918814
"98011","Bothell","WA","Big Finn Hill Park","13351 Juanita Dr","98034",47.72527932601413,-122.23757842236088
"98011","Bothell","WA","Wilmot Gateway Park","131st Ave NE","98072",47.75332908756603,-122.16656518284631
"98011","Bothell","WA","Woodinville Sports Field","17401 133rd Ave NE","98072",47.75357863063283,-122.16423511505126
"98011","Bothell","WA","Sammamish River Park","not_available","98011",47.75854732333783,-122.2046692478196
"98011","Bothell","WA","Swamp Creek Park","19506 68th Ave NE","98028",47.7705102127199,-122.24428584078703
"98011","Bothell","WA","Blyth Park","16950 W Riverside Dr","98011",47.750497150748224,-122.20852180001867
"98011","Bothell","WA","Moorlands Park","not_available","98028",47.739536,-122.23028
"98011","Bothell","WA","William Penn Park","19900 100th ave ne","not_available",47.772594,-122.205174
"98011","Bothell","WA","Highwoodlands Park","14801 116th Pl NE","98034",47.731867599045806,-122.18407229167771
"98011","Bothell","WA","UWREN North Creek Forest Restoration Site","112th ave NE","not_available",47.764200393154425,-122.1928969763091
"98011","Bothell","WA","Red Brick Road","SR 522 & 96th Ave NE","98011",47.74692901799202,-122.22363836220188
"98011","Bothell","WA","North Creek Sportsfields","11800 North Creek Prkwy S","not_available",47.76350021362305,-122.17945861816406
"98011","Bothell","WA","3&4 Park","Ne 142 Pl","98034",47.72905303989036,-122.17498247357479
"98012","Bothell","WA","Tambark Creek Park","17217","not_available",47.83921720048452,-122.18094395671616
"98012","Bothell","WA","Mill Creek Nature Preserve","not_available","98012",47.85665678173943,-122.21224988729622
"98012","Bothell","WA","Martha Lake Park","16300 E Shore Dr","98087",47.84999084472656,-122.2437744140625
"98012","Bothell","WA","McCollum Pioneer Park","600 128th St SE","98208",47.880627553391726,-122.22448755508715
"98012","Bothell","WA","Mays Pond","180th","98012",47.838085,-122.197754
"98012","Bothell","WA","Pine Meadow Park","15803 32nd Ave SE","not_available",47.85248985591025,-122.1799598785446
"98012","Bothell","WA","Centennial Park","1210 208th St.","not_available",47.80910997923533,-122.2174886654314
"98012","Bothell","WA","Tire Park","not_available","98208",47.863648,-122.161686
"98012","Bothell","WA","Shaunnesy Park","not_available","98296",47.85662310552249,-122.18191746025055
"98012","Bothell","WA","Raju Park","1000 39th Ave. SE","98012",47.85252548333333,-122.17990915
"98012","Bothell","WA","Cougar Park","14719 32nd Dr SE","98012",47.86389996664001,-122.18869196476821
"98012","Bothell","WA","Library Park","15429 Bothell Everett Hwy","98012",47.857662,-122.21819099999999
"98012","Bothell","WA","Highlands Park","16101 highlands Blvd","not_available",47.852520849822916,-122.17994219238658
"98014","Carnation","WA","Nick Loutsis Park","32401 Entwistle St.","98014-1238",47.64769045,-121.9076028
"98014","Carnation","WA","Tolt-MacDonald Park And Campground","31020 NE 40th St","98014",47.64434022966189,-121.92238499115295
"98014","Carnation","WA","Soaring Eagle Park","25992 NE 8th St","98053",47.61148257793196,-121.98935461369653
"98014","Carnation","WA","Beaver Lake Preserve","Beaver Lake Dr SE","98075",47.59046082626304,-121.99229293311556
"98014","Carnation","WA","Broadhurst Comminity Park","not_available","98053",47.641764,-121.986872
"98014","Carnation","WA","Braemore Park","266th Peter Lik SE","98075",47.58875567742871,-121.97916351908249
"98014","Carnation","WA","Duvall Park","not_available","98019",47.719856961941815,-121.98642453992807
"98014","Carnation","WA","McDonald Park","not_available","98014",47.643963150063975,-121.92374917501662
"98014","Carnation","WA","Valley Memorial Park","Stossel Ave NE & Blanche St","98014-1238",47.644134838235466,-121.91223084926605
"98019","Duvall","WA","McCormick Park","26200 NE Stephens St","98019",47.73999851824592,-121.98815386842486
"98019","Duvall","WA","Duvall Community Car Park","NE Woodinville Duvall Rd","98019",47.74343625,-121.986585
"98020","Edmonds","WA","Yost Park","not_available","98020",47.80867,-122.359406
"98020","Edmonds","WA","Sunset Ave Park","Sunset ave","not_available",47.81664406448321,-122.3776535021631
"98020","Edmonds","WA","Yost Park Playground","Walnut Street","98020",47.807617,-122.359985
"98020","Edmonds","WA","Maplewood Park","not_available","98026",47.8211312835915,-122.35332832184626
"98020","Edmonds","WA","Waterfront Park","144 Railroad Ave","98020",47.81217575073242,-122.3849105834961
"98021","Bothell","WA","Logan Park","1411 Logan Rd","98036",47.8083893717636,-122.25271151235434
"98021","Bothell","WA","Stipek Park","1800 242nd St SE","98021",47.77817335809238,-122.20621676436626
"98021","Bothell","WA","Business Park Trails","not_available","98021",47.7962438090557,-122.19868440232722
"98021","Bothell","WA","Locust Creek Park","not_available","98036",47.797777,-122.262454
"98022","Enumclaw","WA","Veterans Memorial Park","not_available","98022",47.19740045764519,-122.00220216069862
"98022","Enumclaw","WA","Ellenson Park","2550 Farman St","98022",47.206534,-121.963834
"98023","Federal Way","WA","Olympic View Park","30th Ave SW","98023",47.30672,-122.37291
"98023","Federal Way","WA","Saghalie Park","33914 19th Ave SW","98023",47.299355,-122.35418
"98023","Federal Way","WA","Alderdale Park","2700 SW 340th Pl","98023",47.29774,-122.36751
"98023","Federal Way","WA","Madrona Park","1508 SW 356th St","98023",47.279736,-122.3545
"98023","Federal Way","WA","Coronado Park","349th pl sw","98023",47.288610160515375,-122.36893665806396
"98023","Federal Way","WA","Alderwood Park","4501-4599 33rd St NE","98422",47.28630330472821,-122.38726163611918
"98023","Federal Way","WA","Palisades Park","5039 SW Dash Point Rd","98023",47.321953,-122.3971
"98023","Federal Way","WA","Wedgewood Park","3913 S 337th St","98001",47.298874,-122.38209
"98023","Federal Way","WA","Lakota Park","31334 SW Dash Point Rd","98023",47.32071,-122.357475
"98023","Federal Way","WA","Treasure Island Park (Private)","4106 SW 325th St","98023",47.311726,-122.385605
"98023","Federal Way","WA","Picnic Shelter and Area, Dash Point State Park","Dash Point Park Rd","98023",47.320236,-122.410385
"98024","Fall City","WA","Fisher Creek Park","not_available","98065",47.530551366520235,-121.85628522796073
"98024","Fall City","WA","Snoqualmie Ridge Community Park","35109-35113 SE Ridge St.","98065",47.53311094387013,-121.87299802506712
"98024","Fall City","WA","Carmichael Park","SE Carmichael St","98065",47.53960175114108,-121.88728923002371
"98024","Fall City","WA","Azalea Park","6604 Azalea Way SE","98065",47.54183339847851,-121.8769154733302
"98024","Fall City","WA","Peregrine Viewpoint","SR-202","98024",47.54327926949725,-121.83727646314786
"98024","Fall City","WA","Chanticleer Park","7114 Chanticleer Ave SE","98065",47.537133341430334,-121.8682284636368
"98024","Fall City","WA","Ironwood Park","36200 SE Isley St","98065",47.53240963517339,-121.85754253291122
"98024","Fall City","WA","Thompson Park","7127 Thompson Ave SE","98065",47.53675382511008,-121.87593215561401
"98024","Fall City","WA","Montaine Sportsfield Park","278th Avenue SE","98075",47.58237121011674,-121.97308815709802
"98024","Fall City","WA","Autumn Park","7121 Autumn Ave SE","98065",47.53644077088587,-121.87112106534875
"98024","Fall City","WA","Park with Purple Spinny Thing","36609 se woody creek ln","98065",47.53087954982854,-121.8524014941665
"98024","Fall City","WA","Borden Park","35201 SE Kinsey St","98965",47.53173270354645,-121.870662593195
"98024","Fall City","WA","GuardWell RV & Boat Storage","SE Redmond - Fall City Rd","98024",47.567822479180414,-121.88637112272308
"98024","Fall City","WA","Eagle Park","6920 Eagle Lake Dr SE","98065",47.538269190265254,-121.85704186242674
"98024","Fall City","WA","Quigley Park","not_available","98024",47.568537,-121.892181
"98026","Edmonds","WA","Meadowdale Beach Park","6026 156th St SW","98037",47.85745036216763,-122.31638542624383
"98026","Edmonds","WA","Interurban Trail Aurora Village Trail-Head","not_available","98133",47.782701336842095,-122.33520195589703
"98026","Edmonds","WA","Crown Park","not_available","98275",47.88351892720212,-122.29607637136709
"98026","Edmonds","WA","Meadowdale Playfields","16700 66th Ave W","98046",47.847766604227544,-122.32362473262782
"98026","Edmonds","WA","Picnic Point Park","12001 Picnic Point Road","not_available",47.88043398091892,-122.33216285705566
"98026","Edmonds","WA","Lynndale Park","75th Ave W","98037",47.82723065807957,-122.33164352626585
"98026","Edmonds","WA","Lake Ballinger Park","Lakeview Drive","98043",47.78905877853137,-122.32846898683385
"98026","Edmonds","WA","Pine Ridge Park","83rd Ave W","98026",47.814163201447606,-122.34619617462158
"98026","Edmonds","WA","Wilcox Park","196th St SW","not_available",47.82179577994128,-122.3054077976935
"98026","Edmonds","WA","Daleway Park","196th St","not_available",47.826163284696975,-122.31859571127929
"98026","Edmonds","WA","Meadowdale Neighborhood Park","5700 168th St SW","98037",47.846047322581846,-122.31086879968643
"98026","Edmonds","WA","Harbour Pointe Village Park","12215 Possession Way","98275",47.888421085802825,-122.29958482666316
"98026","Edmonds","WA","Jack Long Park","22106 58th Avenue West","98043",47.79848756343489,-122.31346269222001
"98026","Edmonds","WA","candy cane park","not_available","98043",47.7847648237552,-122.29965501180503
"98026","Edmonds","WA","Terrace Creek Park","2330 48th Ave. W.","98043",47.78755260625674,-122.29788959026337
"98026","Edmonds","WA","Mukilteo Possession View Park & Tidelands","6750 Harbour Heights Parkway","98275",47.898997,-122.323667
"98026","Edmonds","WA","Seaview Park","8000 184th St SW","98026",47.831849142900566,-122.3419444952829
"98026","Edmonds","WA","Mountlake Terrace City Park","56th and 234th","not_available",47.78604717050961,-122.30821105632818
"98026","Edmonds","WA","Dragon Park","18510 44th Ave W","98037",47.83075992080571,-122.29441864275077
"98026","Edmonds","WA","neighborhood park","Lynnwood, WA","98036",47.82268446287363,-122.32572423480033
"98027","Issaquah","WA","Tiger Mountain Summit","11900 Issaquah Hobart Rd SE","98027",47.44414339220613,-121.9614759387515
"98027","Issaquah","WA","Central Park","1907 N.E. Park Drive","98029",47.54761715135266,-121.99738260954341
"98027","Issaquah","WA","Beaver Lake Park","25328 SE Issaquah Beaver Lake Rd","98075",47.57398908335816,-122.00994565885874
"98027","Issaquah","WA","Depot Park","2 E Sunset Way","98027",47.5310277841062,-122.03479105083746
"98027","Issaquah","WA","Tibbetts Valley Park","965 12th Ave. N.W.","98027",47.540940143629406,-122.05870259850981
"98027","Issaquah","WA","Klahanie Park","25000 SE Klahanie Blvd","98027",47.576587966930866,-122.00665810176623
"98027","Issaquah","WA","Grand Ridge Park","not_available","98029",47.539398801343694,-121.99549237961608
"98027","Issaquah","WA","Maple Hills Park","not_available","98059",47.46506181575506,-122.06827107624919
"98027","Issaquah","WA","Grand View Park","2306 NE Natalie Way","98029",47.55410012162209,-121.99634645023878
"98027","Issaquah","WA","Meerwood Park","4601 192nd Ave SE","98027",47.560734235760364,-122.08509922027588
"98027","Issaquah","WA","Petrovitsky Park","16400 SE Petrovitsky Rd","98058",47.44109238307251,-122.11904525756836
"98027","Issaquah","WA","Tiger Mountain Mnt Bike Trails","Unnamed Rd","98027",47.4664754408665,-121.93132308332652
"98027","Issaquah","WA","Rest Spot - East Lake Sammamish Trail","East Lake Sammamish Trail","98075",47.579834,-122.075559
"98027","Issaquah","WA","Wisteria Park","2937 NE Davis Loop","98029",47.54085489767876,-121.99272228725789
"98028","Kenmore","WA","Log Boom Park","6101 NE 175th St","98028",47.75780755077855,-122.26443512379073
"98028","Kenmore","WA","Rhododendron Park","6667 NE 170th St.","98028",47.75217734017978,-122.24824640205368
"98028","Kenmore","WA","Lyon Creek Waterfront Preserve","Beach Dr & Ballinger Way","98155",47.75358066,-122.27583816
"98029","Issaquah","WA","Black Nugget Park","1953 24th Ave NE","not_available",47.54888720887982,-121.99654789515552
"98029","Issaquah","WA","Berntsen Park","810 4th Ave NW","98027",47.538315999999995,-122.043026
"98029","Issaquah","WA","Ruth Kees Big Tree Trail","I-90 Exit 20","not_available",47.53191546348836,-121.98028009810463
"98029","Issaquah","WA","Village Green Park","26th Walk NE","98029",47.54763198483953,-121.99607133865356
"98029","Issaquah","WA","Fly A Kite Park","Jewel","not_available",47.54613841386657,-121.99559713560035
"98029","Issaquah","WA","Kirk Park","24th Ct NE & NE Natalie Way","98029",47.54890881676737,-121.99642040729357
"98029","Issaquah","WA","Ashland Park","15th Ave NE","98029",47.54933702075486,-122.00788039715859
"98029","Issaquah","WA","Issaquah Highlands Tunnel Park","29th LN NE","not_available",47.550398248157094,-121.99488580226898
"98029","Issaquah","WA","Memorial Park Center","105 2nd Ave NE","98027",47.53110122680664,-122.0338134765625
"98029","Issaquah","WA","Klahanie Park Div 1","24109 SE 44th Ct","98029",47.56549864862336,-122.01770040935826
"98029","Issaquah","WA","Fire Engine Park - Issaquah Highlands","10th Ave NE","98029",47.54520026250252,-122.01530202200165
"98029","Issaquah","WA","King County Park","Klahanie Blvd","98029",47.576374656473064,-122.00647322944526
"98029","Issaquah","WA","St James Park","King east","98029",47.5480339,-121.9836029
"98030","Kent","WA","Clark Lake Park","127th Ave SE & SE 240th St","98030",47.38191402553595,-122.17657462188055
"98030","Kent","WA","Scenic Hill Park - Kent","not_available","98030",47.37581278,-122.22087126
"98030","Kent","WA","Tudor Square Park and Playground","112th Ave SE","98030",47.362086865538934,-122.19281136989594
"98030","Kent","WA","Mill Creek Park","Mill Creek Park","98030",47.38224236440144,-122.2241970323115
"98030","Kent","WA","Earthworks Park","100-246 Jason Ave","98030",47.3831358106526,-122.22528138346453
"98030","Kent","WA","Campus Park","9890 S. 252nd Street","98030",47.375627769864806,-122.2096824645996
"98030","Kent","WA","Pine Tree Park","27654 114th Ave Se","not_available",47.35316050436136,-122.18873900035892
"98030","Kent","WA","Canterbury Park","220 4th Ave S","98032",47.38472520187937,-122.20741176196167
"98031","Kent","WA","Chestnut Ridge Park","not_available","98031",47.41869469326579,-122.21212207995302
"98031","Kent","WA","Garrison Creek Park","9165 S 218th St","not_available",47.40287381198344,-122.2168476004743
"98031","Kent","WA","Kent Memorial Park","850 Central Ave. N.","98052",47.39026641845703,-122.22940063476562
"98032","Kent","WA","Angle Lake Park","19408 International Blvd","98188",47.42821229791427,-122.2934093437948
"98032","Kent","WA","Johnson Pit #30, Earthworks Park","21630-21720 37th Pl S","98032",47.40814884127441,-122.28389778833284
"98032","Kent","WA","West Fenwick Park","3808 Reith Rd","98032",47.37036783471905,-122.28282121758336
"98032","Kent","WA","Seattle / Tacoma KOA","5801 S 212th St","98032",47.41182,-122.2623135
"98032","Kent","WA","Glen Nelson Park","Military Rd","98032",47.361983311922856,-122.29133665041508
"98032","Kent","WA","Old Fishing Hole","Frager Road","98032",47.377731507377064,-122.26985146438828
"98032","Kent","WA","VETERANS MEMORIAL PARK","VETERANS MEMORIAL PARK","not_available",47.440617084503174,-122.2175145149231
"98032","Kent","WA","Salt Air Vista Park","24615 26th Place S","98032",47.38108684506919,-122.29974178112741
"98032","Kent","WA","Robert Morris Earthwork","not_available","98198",47.408205457611565,-122.28469654738936
"98032","Kent","WA","Bow Lake 55+ Residential Community","18050 32nd Ave S","98188",47.440576,-122.291454
"98032","Kent","WA","Underwood Memorial Park","21800 20th Ave s","not_available",47.40561294555664,-122.30714416503906
"98033","Kirkland","WA","Kirkland Marina Park","25 Lakeshore Plaza Dr","98033",47.67538639828759,-122.20830917358398
"98033","Kirkland","WA","Heritage Park","111 Waverly Way","not_available",47.67824450077347,-122.21053732288054
"98033","Kirkland","WA","Juanita Bay Park","2201 Market St","98033",47.695417800959284,-122.21078333558283
"98033","Kirkland","WA","David E Brink Park","David E Brink Park","98033",47.670788169408105,-122.20610865423725
"98033","Kirkland","WA","Peter Kirk Park","202 3rd Street","not_available",47.67784238698113,-122.20204162228065
"98033","Kirkland","WA","Houghton Beach Park","5811 Lake Washington Blvd","not_available",47.66019923733621,-122.20685005187988
"98033","Kirkland","WA","Mark Twain Park","not_available","98033",47.695322392582156,-122.16897046856118
"98033","Kirkland","WA","Nature Walk At Juanita Bay Park","not_available","98115",47.698133,-122.213347
"98033","Kirkland","WA","North Rose Hill Woodlands Park","9930 124th Ave NE","98033",47.68749035663648,-122.17522249758692
"98033","Kirkland","WA","Highlands Park","11210 NE 102nd Street","98033",47.690599,-122.188849
"98033","Kirkland","WA","Spinney Homestead Park","11710 NE 100th St","98033",47.68812452459188,-122.18580051643714
"98033","Kirkland","WA","Crestwood Field","1900-1998 6th St","98033",47.69080088332651,-122.19719162345008
"98033","Kirkland","WA","South Rose Hill Park","126th ave","98033",47.66961666780438,-122.16969948044061
"98033","Kirkland","WA","Cotton Hill Park","110th Ave NE","98033",47.68739731583406,-122.18849349188945
"98033","Kirkland","WA","Houghton Park Playground","5811 Lake Washington Blvd","98033",47.660047487933596,-122.20679104328157
"98033","Kirkland","WA","Alki Park","58th ave","not_available",47.65944129441417,-122.19400645301353
"98034","Kirkland","WA","Juanita Beach Park","9703 NE Juanita Dr","98034",47.70470779545952,-122.21530437469482
"98034","Kirkland","WA","O.O. Denny Park","12400 Holmes Point Dr NE","98034",47.70933079155846,-122.25012351531353
"98034","Kirkland","WA","132nd Place Park","13159 NE 132nd St","98034",47.71736969362072,-122.16589841850858
"98034","Kirkland","WA","Edith Moulton Park","13438 108th Ave NE","98034",47.71994208190005,-122.19907226027509
"98034","Kirkland","WA","North Kirkland Community Center & Park","12421 103rd Ave NE","98034",47.71181397487607,-122.20416722784782
"98034","Kirkland","WA","Brookhaven Park","9911 NE 128th St","98034",47.715160909807516,-122.21062253810109
"98034","Kirkland","WA","Juanita High School Baseball Fields","10601 NE 132nd","98034",47.71436724543455,-122.1999192237854
"98036","Lynnwood","WA","Bobcat Park","3228 236th St SW","98036",47.784027099609375,-122.27713775634766
"98036","Lynnwood","WA","Lynnwood Heritage Park","19921 Poplar Way","98036",47.81767654418945,-122.27765655517578
"98036","Lynnwood","WA","Pioneer Park","not_available","98037",47.82423602307631,-122.2596660397505
"98036","Lynnwood","WA","Veterans Memorial Plaza","19200 44th Ave W","98036",47.82303877508301,-122.29302406311035
"98036","Lynnwood","WA","Veterans Memorial Park","23400 58th Ave W","98043",47.786170959472656,-122.31150817871094
"98036","Lynnwood","WA","North Lynnwood Park","188th St SW","98036",47.83001314999952,-122.29247378626845
"98037","Lynnwood","WA","Alderwood Artesian Well","2399 164th St SW","98087",47.850156782455336,-122.26558238267899
"98037","Lynnwood","WA","Spruce Park","16864 36th Ave W","98037",47.84619033715643,-122.2822796322642
"98037","Lynnwood","WA","Andrew Obrastoff Memorial Park","17725 44th Ave W","98037",47.837562561035156,-122.29093933105469
"98038","Maple Valley","WA","Summit Park","23675 SE Tahoma Way","98038",47.3569221496582,-122.02378845214844
"98038","Maple Valley","WA","Belmont Park","SE 244th St","98038",47.38247137965907,-122.02993154525758
"98038","Maple Valley","WA","Lake Wilderness Park","23601 SE 248th St","98038",47.376806211450464,-122.039440750146
"98038","Maple Valley","WA","Lake Wilderness Arboretum","22520 SE 248th St","98038",47.380371000000004,-122.040198
"98038","Maple Valley","WA","Royal Arch Park","20821 Renton Maple Valley Rd SE","98038",47.414710998535156,-122.0484390258789
"98038","Maple Valley","WA","Fred v habernicht rotary park","not_available","98038",47.394133,-122.043744
"98038","Maple Valley","WA","Cedar River Park","15800 SE Renton-Maple Valley Rd","98058",47.46181265222575,-122.08634376525879
"98038","Maple Valley","WA","Maple Valley Heights Park","not_available","98058",47.45424730575764,-122.08779364914298
"98038","Maple Valley","WA","Levdansky County Park","276th Ave SE & SE 224th St","98038",47.40144862333851,-121.97332661782083
"98039","Medina","WA","Medina City Hall Park","501 76th Ave. NE","98039",47.61650755342756,-122.23774196504263
"98039","Medina","WA","520 Bridge View Park","Evergreen Point Rd","98039",47.63737,-122.23871
"98040","Mercer Island","WA","Seward Park","5895 Lake Washington Blvd. S","98118",47.550206931134966,-122.25733181932064
"98040","Mercer Island","WA","Aubrey Davis Park","2301 W Mercer Way","98040",47.59216667631705,-122.24438761210979
"98040","Mercer Island","WA","Lake Washington Blvd Park","I-90 to Seward Park","98118",47.561613877158365,-122.26603031158447
"98040","Mercer Island","WA","Martha Washington Park","6612 57th Ave. S","98115",47.543454481317,-122.26111558729791
"98040","Mercer Island","WA","The Magnificent Forest","not_available","98118",47.554362,-122.251183
"98040","Mercer Island","WA","Ferdinand Street Boat Lanch","Lake Washington Blvd. S & S Ferdinand St.","98118",47.55751055971697,-122.26227858353701
"98042","Kent","WA","Lake Meridian Park","14800 SE 272nd St","not_available",47.35933267254718,-122.14432455753519
"98042","Kent","WA","Gary Grant Soos Creek Park","136th Ave SE","98042",47.41615601837188,-122.15959709383925
"98042","Kent","WA","Wood Creek Park","not_available","98042",47.37144099049201,-122.1032014837947
"98042","Kent","WA","Lake Youngs Park","19463 148TH SE AVE","98058",47.427601438580595,-122.14404506020816
"98042","Kent","WA","Boulevard Lane Park","12504 SE 188th Pl","98058",47.43391799926758,-122.17355346679688
"98042","Kent","WA","PGP Motor Sports Park","31001 144th Ave SE","98042",47.327674865722656,-122.15238189697266
"98042","Kent","WA","The Reserve","25907 161st Ct SE","98042",47.36944580078125,-122.12803649902344
"98042","Kent","WA","Remington Park","SE 294th Way","98042",47.33701957516057,-122.07128047943115
"98042","Kent","WA","Food Creek Park","148th SE Kent WA 98042","98042",47.36362641,-122.14399392
"98043","Mountlake Terrace","WA","Lynnwood S. Neighborhood Park","208th Sw","98036",47.80872098053189,-122.31427659163643
"98045","North Bend","WA","Rattlesnake Lake Recreation Area","not_available","98045",47.433468,-121.769416
"98045","North Bend","WA","Snoqualmie Mountain","not_available","98068",47.41691532863671,-121.41193934424257
"98045","North Bend","WA","Snoqualmie Point Park","37198 Winery Rd","98045",47.510243080651314,-121.84199354495621
"98045","North Bend","WA","Si View Park","400 SE Orchard Dr","98045",47.490501,-121.78468799999999
"98045","North Bend","WA","Centennial Fields Park","39903 SE Park St","98065",47.52218007318053,-121.80861502808563
"98045","North Bend","WA","E. J. Roberts Park","400-598 Thrasher Ave NE","98045",47.49684528859098,-121.77558672389934
"98045","North Bend","WA","William Henry Taylor Railroad Park","205 E. McClellan St.","98045",47.493220627551004,-121.78481850816412
"98045","North Bend","WA","Cedar River Watershed Education Center","Rattlesnake Lake","98045",47.42718836130632,-121.7739310448038
"98045","North Bend","WA","Stop Three Bench","Here","98065",47.52213494728986,-121.84320454865505
"98045","North Bend","WA","Big Snow Mountain","not_available","98288",47.53494,-121.365822
"98045","North Bend","WA","North Fork Roundabout","North Fork Rd","not_available",47.533302,-121.76208
"98052","Redmond","WA","Marymoor Park","6046 W Lake Sammamish Pkwy NE","98052",47.66265318016147,-122.1180500689696
"98052","Redmond","WA","Sammamish Landing","4607 E Lake Sammamish Parkway NE","98074",47.65519568270872,-122.08952570840036
"98052","Redmond","WA","Grass Lawn Park","7031 148 Ave NE","not_available",47.66832970520762,-122.14589039325611
"98052","Redmond","WA","Sixty Acres Park","15200 NE 116th St","98052",47.704115753009546,-122.13902235031128
"98052","Redmond","WA","Marymoor Group Health Velodrome","Marymoor Park Rd","98052",47.665864862448515,-122.11266995012092
"98052","Redmond","WA","Farrel-McWhirter Park","Redmond Rd","not_available",47.69361266331997,-122.08018667570713
"98052","Redmond","WA","Downtown Park","16101 NE Redmond Rd","98052",47.67441304228183,-122.12525326356939
"98052","Redmond","WA","Luke McRedmond Park","Bear Creek Pkwy","98052",47.67356361108299,-122.12991541178465
"98052","Redmond","WA","Anderson Park","7802 168th Ave NE","98052",47.67301768949415,-122.11528792194996
"98052","Redmond","WA","Downtown Central Park","16119 Redmond Way","98052",47.67441177368164,-122.12543487548828
"98052","Redmond","WA","Cascade View Park","16202 NE 40 St","not_available",47.64689971115196,-122.12422541892381
"98052","Redmond","WA","Redmond West Wetlands","NE 60th St","98052",47.656257699948185,-122.08116877150127
"98052","Redmond","WA","Meadow Neighborhood Park","10710 160 Ave NE","98052",47.69532096488396,-122.12634086608887
"98052","Redmond","WA","Spiritbrook Park","6500 151st Ave NE","98052",47.664643,-122.13897800000001
"98052","Redmond","WA","Juel Community Park","18661 NE 116th St","98052",47.70221435780019,-122.08894444592721
"98053","Redmond","WA","Renaissance Park","SE 9th st","98074",47.600679,-122.016913
"98053","Redmond","WA","Crosswater Community Park","not_available","98074",47.609970603555404,-122.00869469170313
"98053","Redmond","WA","Sammamish Commons","801 228th Ave SE","98075",47.6011331898143,-122.03784495803687
"98053","Redmond","WA","N.E. Sammamish Park","Sahalee Way","not_available",47.63952708148689,-122.05596228141621
"98053","Redmond","WA","Ebright Creek Park","1317 212th Ave SE","98075",47.59775800395048,-122.05807530757333
"98053","Redmond","WA","Tuscany Neighborhood Park","not_available","98077",47.710544829621426,-122.07353353500366
"98053","Redmond","WA","Big Rock Park","21805 SE 8th Ct","98075",47.60045623779297,-122.04808044433594
"98053","Redmond","WA","Cascara Circle Park","10100-10198 226th Ave NE","98053",47.68960003850713,-122.03805406039396
"98053","Redmond","WA","Woodbridge Phase 1 Park","6100 189th PL NE","98052",47.66108082037928,-122.08718061447144
"98053","Redmond","WA","SE 8th Street Park","SE 8th St","98075",47.60171205693172,-122.04883713435594
"98055","Renton","WA","Thomas Teasdale Park","710 S 23rd St","98055",47.45770266598386,-122.2085189772514
"98055","Renton","WA","Philip Arnold Park","720 Jones Ave South","98057",47.4726450736238,-122.19528727891384
"98055","Renton","WA","Tonkin Park","399 Williams S","not_available",47.47824489003476,-122.20690910951723
"98056","Renton","WA","Gene Coulon Park","1201 Lake Washington Blvd N","98056",47.50660166897992,-122.20196627795137
"98056","Renton","WA","Cedar River Trail Park","not_available","98055",47.49586436835717,-122.21328735351562
"98056","Renton","WA","Heritage Park","301 Union Ave NE","98059",47.48584596263769,-122.16480754260392
"98056","Renton","WA","Liberty Park","1101 Bronson Way N","98057",47.48263625433393,-122.20089315411373
"98056","Renton","WA","Kiwanis Park","815 Union Ave NE","98059",47.496781883333334,-122.165317
"98056","Renton","WA","Coulon Kids Park","1399 Coulon Beach Acrd","98057",47.50415129594876,-122.20397566161995
"98056","Renton","WA","Windsor Hill Park","434 Windsor Way NE","98056",47.489806,-122.18751699999999
"98056","Renton","WA","Piazza","Logan Ave S","98057",47.479898372367906,-122.20859999244168
"98057","Renton","WA","Earlington Park","281 Thomas Ave SW","98057",47.480115000000005,-122.22869299999999
"98057","Renton","WA","Riverview Park","Maple Valley Highway","98058",47.47614374685794,-122.18030691146849
"98057","Renton","WA","Fort Dent Park","not_available","98168",47.469774306510374,-122.24941751625985
"98057","Renton","WA","Tiffany Park","1808-1812 Kirkland Ave SE","98058",47.46444782815678,-122.18238840471516
"98057","Renton","WA","Lorna Jordan Waterworks Gardens","1200 Monster Rd SW","98057",47.467622,-122.240595
"98057","Renton","WA","Tukwila Park","not_available","98188",47.46455059493152,-122.25183116261674
"98058","Renton","WA","Ron Regis Park","14355-14899 SE Renton Maple Valley Rd","98058",47.46721615588581,-122.14574198721716
"98058","Renton","WA","Cavanaugh Pond Natural Area","17410 SE Renton/Maple Valley Hwy 169","not_available",47.463940329528036,-122.11241061631937
"98058","Renton","WA","Maplewood Park","3400 SE 6th St","98058",47.475449,-122.172735
"98059","Renton","WA","Harvey Manning Park","917 Bear Ridge Ct NW","98027",47.53817892070937,-122.07192269554018
"98059","Renton","WA","Highland Estates Neighborhood Park","6100 SE 2nd Lane","98059",47.48055252829916,-122.13711261749268
"98065","Snoqualmie","WA","Jeanne Hansen Park","34226 SE Jacobia Street","98065",47.5185420875111,-121.88177059951767
"98065","Snoqualmie","WA","Jacobia Park","9204 Jacobia Ave SE","98065",47.51782412977943,-121.87470124473731
"98065","Snoqualmie","WA","Swenson Park","35007 SE Swenson St.","98065",47.52257455841836,-121.87674367129502
"98065","Snoqualmie","WA","Bybee Park","34802 SE Bybee St","98065",47.523583873551935,-121.876325566914
"98070","Vashon","WA","Point Robinson","Point Robinsin","98070",47.38775833798615,-122.37482829774328
"98070","Vashon","WA","Maury Island Marine Park","not_available","98070",47.38529381312468,-122.39991087687757
"98070","Vashon","WA","Winghaven Park","12090 Cunliffe Rd SW","98070",47.49755096435547,-122.46147918701172
"98070","Vashon","WA","Inspiration Point","26400 Vashon Hwy SW","not_available",47.36731484031564,-122.4919572402723
"98070","Vashon","WA","Ober Memorial Park","17200 Vashon Hwy SW","98070",47.451469970987596,-122.45969750167191
"98070","Vashon","WA","Sir. Roland Symonette Park","Plank St.","98146",47.50480715978948,-122.37347481022775
"98070","Vashon","WA","Spring Beach County Park","14799 SW Spring Beach Rd","98070",47.3491779819294,-122.52771338233744
"98070","Vashon","WA","Agren Memorial Park","12814 SW Bank Road","not_available",47.449073791503906,-122.50125885009766
"98072","Woodinville","WA","Cottage Lake Park","19450 NE Woodinville Duvall Rd","not_available",47.7563763497934,-122.08658949612922
"98072","Woodinville","WA","Maltby Community Park","20322 Broadway Ave","98296",47.8125103682561,-122.11101381094775
"98072","Woodinville","WA","DeYoung Park","13680 NE 175th Street","98072",47.75495231521377,-122.1566085101997
"98072","Woodinville","WA","Rotary Community Park","not_available","98072",47.769826968316764,-122.15821684617971
"98075","Sammamish","WA","Pine Lake Park","228th Ave SE","not_available",47.58783219394562,-122.03935129270135
"98075","Sammamish","WA","Redford Ranch Community Park","22907 SE 13th Way","98075",47.598266327034686,-122.0364490352781
"98075","Sammamish","WA","Spinning Park","not_available","98075",47.5788628310408,-122.029191674778
"98077","Woodinville","WA","Paradise Valley Conservation Area","23120 Paradise Lake Rd","98077",47.78866062588589,-122.0797066457655
"98087","Lynnwood","WA","Hampton Park","115 124th St SE","98208",47.8872293615271,-122.23090154473364
"98087","Lynnwood","WA","158th pl sw Dog Park","158th","not_available",47.85463009787492,-122.28135225986692
"98092","Auburn","WA","Lake Tapps North Park","2022 198th Ave E.","98390",47.238243103027344,-122.16481018066406
"98092","Auburn","WA","Sunset Park","1306 69th ST SE","98092",47.24558942173379,-122.21202127964914
"98092","Auburn","WA","Lea Hill Park","124th AVE SE","98092",47.31893679864652,-122.18287895202008
"98092","Auburn","WA","Cameron Park","not_available","98092",47.276523,-122.15408
"98092","Auburn","WA","Driftwood Point Park","18538 Driftwood Dr E","98391",47.22867965698242,-122.18405151367188
"98092","Auburn","WA","Tacoma Point Park","not_available","98390",47.23861990201202,-122.18531505363917
"98092","Auburn","WA","Auburndale II","29725 118th Ave. SE","not_available",47.3361930847168,-122.18553161621094
"98101","Seattle","WA","Waterfront Park","1301 Alaskan Way","98101",47.6069291389153,-122.34174462950551
"98101","Seattle","WA","The Harbor Steps","University St","98101",47.606852466411496,-122.3387632132612
"98101","Seattle","WA","Westlake Park","401 Pine St.","98101",47.61104967887254,-122.33719678826789
"98101","Seattle","WA","Victor Steinbrueck Park","2001 Western Ave","98121",47.610257606928414,-122.34365983611289
"98101","Seattle","WA","Plymouth Pillars Park","Boren Ave. & Pike St.","98101",47.61432924932539,-122.32951561332182
"98101","Seattle","WA","Jim Ellis Freeway Park","700 Seneca St.","98101",47.61000059787849,-122.3310700805732
"98101","Seattle","WA","Belltown Cottage Park","2512 Elliott Ave","98121",47.61378,-122.350827
"98101","Seattle","WA","Growing Vine Street","81 Vine St","98121",47.614811581943115,-122.35010111496135
"98101","Seattle","WA","Sheraton Seattle Garden Walk","7th Ave and Union St","98101",47.61042929379853,-122.33318887204392
"98101","Seattle","WA","First Hill Park","University St. & Minor Ave. E","98101",47.61211522062597,-122.32575571254725
"98101","Seattle","WA","Headwaters Park - Growing Vine St","Fifth Denny Taylor & Vine","98121",47.618261,-122.346287
"98101","Seattle","WA","Elliott Bay Beach","2415 Western Ave","98121",47.613563537597656,-122.3493881225586
"98101","Seattle","WA","Public Space","925 4th Ave, 7th Fl","not_available",47.605061,-122.332847
"98101","Seattle","WA","Bell Street Park Boulevard","Bell Street","98121",47.61164973304476,-122.34731823092069
"98101","Seattle","WA","Kurt Cobain Park","seattle","not_available",47.60629067594331,-122.33209692664707
"98101","Seattle","WA","Harborview Park","779 Alder St.","98104",47.604084155709295,-122.3257577593957
"98101","Seattle","WA","Armeni Park","armeni park","not_available",47.60555736786861,-122.33371729348616
"98101","Seattle","WA","Nap Time","not_available","98122",47.617885,-122.326234
"98101","Seattle","WA","Republic Parking 1st and Bell","2312 1st Ave","98121",47.61380097941834,-122.34719938534427
"98101","Seattle","WA","Public Space","1600 7th Ave","98101",47.61334991455078,-122.33467102050781
"98101","Seattle","WA","The Light Park","not_available","98101",47.613049,-122.33748
"98101","Seattle","WA","Nomad Park","Pike Place","not_available",47.6103005964696,-122.34373320561808
"98101","Seattle","WA","Chromer Building Parklet","1516 2nd Ave","98101",47.60992431640625,-122.33901977539062
"98101","Seattle","WA","The Grassy Knoll","4th Ave.","not_available",47.617092,-122.346979
"98102","Seattle","WA","Volunteer Park","1247 15th Ave E","98112",47.62912253358359,-122.3162988143689
"98102","Seattle","WA","Lake Union Park","860 Terry Ave N","98109",47.62668985910958,-122.33750961057686
"98102","Seattle","WA","Gas Works Park","2101 N Northlake Way","98103",47.64634323243984,-122.33547335317364
"98102","Seattle","WA","Louisa Boren Lookout","15th Ave. E & E Olin Pl.","98102",47.634539407812554,-122.31253310556033
"98102","Seattle","WA","Lynn Street Mini Park","E Lynn St. & Fairview Ave. E","98102",47.63976515530511,-122.32966511782674
"98102","Seattle","WA","Grand Army of the Republic Cemetery","1200 E Howe St.","98102",47.63628622441767,-122.31632054149192
"98102","Seattle","WA","Seattle City Light Denny Park Substation","1251 John St","98109",47.619135,-122.331473
"98102","Seattle","WA","Terry Pettus Park","E Newton St. & Fairview Ave. E","98102",47.63675676731051,-122.3293122798336
"98102","Seattle","WA","Thomas Street Mini Park","306 Bellevue Ave. E","98102",47.6213415577774,-122.32671129476776
"98102","Seattle","WA","Tashkent Park","521 Boylston Ave. E","98102",47.62377631615776,-122.32321984722566
"98102","Seattle","WA","Belmont Place","Belmont Pl. E & Belmont Ave. E","98102",47.62577696299431,-122.32448101043701
"98102","Seattle","WA","Cascade Playground","333 Pontius Ave. N","98109",47.62150331774851,-122.33205556869507
"98102","Seattle","WA","Fairview Park","2900 Fairview Ave. E","98102",47.647861,-122.32499063014984
"98102","Seattle","WA","I-5 Colonnade","E Howe St. & Franklin Ave. E","98102",47.635622423718104,-122.32359692102466
"98102","Seattle","WA","Gasworks Park Marina","2143 N Northlake Way","98103",47.64682705911423,-122.33376688320172
"98102","Seattle","WA","Rogers Playground","Eastlake Ave. E & E Roanoke St.","98102",47.64258510070266,-122.3249479548378
"98102","Seattle","WA","Eastlake Boulodrome Park","not_available","98102",47.642049,-122.329641
"98102","Seattle","WA","Volunteer Park Lily Ponds","not_available","98113",47.63022021689149,-122.31548393363995
"98102","Seattle","WA","The View","not_available","98112",47.63459972899492,-122.31256620464144
"98102","Seattle","WA","Summit Place","Belmont Ave. E & Bellevue Pl. E","98102",47.6278760955859,-122.32679060879404
"98102","Seattle","WA","South Passage Point Park","3320 Fuhrman Ave E","98102",47.6520150725916,-122.32272752733459
"98102","Seattle","WA","Broadway Hill Park","500 Federal Avenue East","98102",47.623169005322275,-122.31864079608417
"98102","Seattle","WA","Seattle Times Park","not_available","98109",47.61955642700195,-122.33501434326172
"98102","Seattle","WA","Roanoke Street Mini Park","E Roanoke St. & Fairview Ave. E","98102",47.643176307056734,-122.32884097451577
"98102","Seattle","WA","Summit Slope Park","200 Summit Ave. E","98102",47.61976437338383,-122.32506386168684
"98102","Seattle","WA","Sakuma Viewpoint","not_available","98105",47.65160892435802,-122.31477177076874
"98103","Seattle","WA","Green Lake Park","7201 E Green Lake Dr N","98115",47.68044866290678,-122.3326198276763
"98103","Seattle","WA","Woodland Park","1000 NE 50th St","98105",47.67194521174647,-122.34926894131739
"98103","Seattle","WA","Lower Woodland Athletic Fields & Courts","5499 Green Lake Way N","98103",47.66769,-122.34184
"98103","Seattle","WA","Wallingford Playfield","4219 Wallingford Ave. N","98101",47.65890450733264,-122.33710484037101
"98103","Seattle","WA","Fremont Canal Park","199 N Canal St.","98103",47.65292603885009,-122.35570906876117
"98103","Seattle","WA","Fremont Peak Park","4357 Palentine Ave. N","98103",47.661102967568425,-122.35675150915488
"98103","Seattle","WA","North Meadow","601 N 59th St","98103",47.67190418871632,-122.34936973795826
"98103","Seattle","WA","Sandel Playground","9053 1st Ave. NW","98103",47.69488768574753,-122.3585557937622
"98103","Seattle","WA","Licton Springs Park","9536 Ashworth Ave. N","98103",47.698426083618585,-122.33918508435578
"98103","Seattle","WA","Sandel Park","9053 1st Ave NW","98117",47.69291205039123,-122.35826067921084
"98103","Seattle","WA","B.F. Day Playfield","4020 Fremont Ave. N","98103",47.65613798222677,-122.34917879104614
"98103","Seattle","WA","David Rodgers Park","2800 1st Ave. W","98119",47.64530454333783,-122.35606750782591
"98103","Seattle","WA","Library Park","not_available","98103",47.687969,-122.35502
"98103","Seattle","WA","Linden Orchard Park P-Patch","N 67th St. & Linden Ave. N","98103",47.6780158859417,-122.34749436378479
"98103","Seattle","WA","A. B. Ernst Park","723 N 35th St.","98103",47.650227250152184,-122.34875197369446
"98103","Seattle","WA","Woodland Park Off-Leash Area","5401 Green Lake Way N","98103",47.67005218032859,-122.34467356794438
"98103","Seattle","WA","Alice Ball Park","8104 Greenwood Ave N","98103",47.687973,-122.35496
"98103","Seattle","WA","Corliss Place","N 50th St. & Keystone Pl. N","98103",47.66517059287432,-122.33087539672852
"98103","Seattle","WA","Highlands Park","2600 highlands park Ave","98012",47.66359052736696,-122.33252729497453
"98103","Seattle","WA","Fremont Canal Steps","47 N Canal St","98103",47.64888488108312,-122.35137515048287
"98104","Seattle","WA","Dr. Jose Rizal Park","1008 12th Ave. S","98144",47.59277912109141,-122.31833338737486
"98104","Seattle","WA","Waterfall Garden Park","219 2nd Ave S","98104",47.6001720804735,-122.33206127298888
"98104","Seattle","WA","Kobe Terrace Park","221 6th Ave. S","98104",47.6004432175403,-122.32502564326187
"98104","Seattle","WA","Hing Hay Park","423 Maynard Ave. S","98104",47.59862612960453,-122.32532970426705
"98104","Seattle","WA","Occidental Square","Occidental Ave S & S Main St","98104",47.60107551122758,-122.33378655295799
"98104","Seattle","WA","Yesler Community Park","not_available","98104",47.601353,-122.32105
"98104","Seattle","WA","Pioneer Square","100 Yesler Way","98104",47.601976647403845,-122.33389589387261
"98104","Seattle","WA","City Hall Park","450 3rd Ave.","98104",47.60198920394335,-122.3306777486063
"98104","Seattle","WA","Seattle University Park","Seattle University","98122",47.6072480767418,-122.31748580932616
"98104","Seattle","WA","Prefontaine Place","Prefontaine Place","98104",47.601862475533736,-122.33093440532684
"98104","Seattle","WA","Lib Tech's Downtown Throwdown","Occidental Park","not_available",47.600367,-122.33321
"98104","Seattle","WA","International Children's Park","700 S Lane St.","98104",47.5969304423085,-122.32351972188953
"98104","Seattle","WA","Boylston Place","Broadway & Boylston Ave. E","98102",47.60999672595199,-122.32087612152098
"98104","Seattle","WA","Boren Place","Boren Ave. & Terrace St.","98104",47.604918845139174,-122.32094049453735
"98104","Seattle","WA","Pioneer Square Pergola","Pioneer Square","98104",47.601059935046635,-122.33372034424515
"98105","Seattle","WA","Ravenna Park","5520 Ravenna Ave. NE","98105",47.67082059945155,-122.30401039123535
"98105","Seattle","WA","UW: Rainier Vista","West Stevens Way NE","98105",47.65244289457096,-122.30600453522311
"98105","Seattle","WA","Cowen Park","5849 15th Ave. NE","98105",47.67208537645008,-122.31477657433558
"98105","Seattle","WA","Burke-Gilman Playground Park","5201 Sand Point Pl NE","98105",47.66762307263185,-122.28155635318535
"98105","Seattle","WA","Union Bay Natural Area","Union Bay","98105",47.65582000585881,-122.2931957244873
"98105","Seattle","WA","Yesler Swamp","NE 41st","not_available",47.65811221694261,-122.28840105192494
"98105","Seattle","WA","Peace Park","NE 40th St. & Eastlake Ave. E","98105",47.65573446456077,-122.31864736672716
"98105","Seattle","WA","Rooster Park","348 NE 59th St","98105",47.671733,-122.32332
"98105","Seattle","WA","Sylvan Grove Theatre","Steven's Circle","98105",47.653042064747396,-122.30661497807922
"98105","Seattle","WA","University Circle Park","Vassar Ave. NE & Ann Arbor Ave. NE","98115",47.671803146857776,-122.27537512779236
"98105","Seattle","WA","Laurelhurst Triangle","46th Ave. NE & E Laurelhurst Dr. NE","98105",47.65291476846963,-122.27742433547974
"98105","Seattle","WA","Middle of Campus Parkway","Campus Parkway","not_available",47.656152,-122.312507
"98105","Seattle","WA","North Passage Point Park","600 NE Northlake Way","98105",47.653868744838846,-122.3223352432251
"98106","Seattle","WA","Camp Long","5200 35th Ave SW","98126",47.55528331950861,-122.37515613419178
"98106","Seattle","WA","Westcrest Park","9000 8th Ave. SW","98108",47.523844787207004,-122.34153985977173
"98106","Seattle","WA","Greg Davis Park","26th Ave. SW & SW Brandon St.","98106",47.554011550209346,-122.36604452133179
"98106","Seattle","WA","Delridge Playfield","4458 Delridge Way SW","98106",47.563841246043786,-122.3640773436851
"98106","Seattle","WA","Herring's House Park","4540 West Marginal Way","98106",47.56154413385651,-122.35125299461221
"98106","Seattle","WA","Walt Hundley Playfield","6920 34th Ave SW","98126",47.53948349621945,-122.37387734423994
"98106","Seattle","WA","High Point Pond Park","3000-3104 High Point Dr SW","98126",47.54931098410245,-122.37243455730575
"98106","Seattle","WA","T-105 Park","not_available","98106",47.56769362210383,-122.35235304262066
"98106","Seattle","WA","Riverview Fields","7300-7498 12th Ave SW","98106",47.539131,-122.349735
"98106","Seattle","WA","No-Name Park","SW Thistle St","98126",47.52840137592014,-122.3717242119536
"98106","Seattle","WA","bridge gear park","not_available","98134",47.571776,-122.349452
"98106","Seattle","WA","Spaciblō","not_available","98126",47.566624,-122.36777
"98106","Seattle","WA","Pigeon Point Park","20th Ave. SW & SW Genesee St.","98106",47.564987508857726,-122.35701084136961
"98107","Seattle","WA","Discovery Park","3801 Discovery Park Blvd","98199",47.65817329174455,-122.41026101941712
"98107","Seattle","WA","Commodore Park","3330 W Commodore Way","98199",47.66485718354243,-122.39929049940137
"98107","Seattle","WA","Gemenskap Park","not_available","98107",47.672286,-122.373593
"98107","Seattle","WA","Ballard Playfield","2644 NW 60th St.","98107",47.67299012328336,-122.39104261234692
"98107","Seattle","WA","Ballard Corners Park","6201 17th Ave. NW","98107",47.67444035425347,-122.37904156975138
"98107","Seattle","WA","Gilman Park Playfield","NW 9th & 53rd","not_available",47.66729483589208,-122.36958503723145
"98107","Seattle","WA","Ross Park","4320 4th Ave. NW","98107",47.66016803162098,-122.36111194272625
"98107","Seattle","WA","Kiwanis Park","33rd Ave. W and W Fort St.","98199",47.661846773887945,-122.39994764328002
"98107","Seattle","WA","Lawton Park Apartments","3721 27th Pl W","98199",47.65188046590045,-122.38824037001781
"98107","Seattle","WA","Sunset Place Park","1st Ave. NW & NW 52nd St.","98107",47.66552358385096,-122.35969017056965
"98107","Seattle","WA","discovery park radar tower","not_available","98199",47.656443415476666,-122.41277559880591
"98107","Seattle","WA","Kiwanis Ravine","3408 W Government Way","98199",47.65934873797033,-122.40118451940475
"98107","Seattle","WA","West Ewing Mini Park","W Ewing St. & 3rd Ave. W","98119",47.65221426971751,-122.36065019288145
"98108","Seattle","WA","South Park Meadow","9100 8th Ave. S","98108",47.52082353354318,-122.32355833053589
"98108","Seattle","WA","Jefferson Park","4165 16th Ave. S","98108",47.5674053858961,-122.3103618621826
"98108","Seattle","WA","Maple Wood Playfield","4801 Corson Ave. S","98108",47.55971924838994,-122.31813867108191
"98108","Seattle","WA","Duwamish Waterway Park","7900 10th Ave. S","98108",47.5311393737793,-122.31977844238281
"98108","Seattle","WA","Dearborn Park","2919 S Brandon St.","98108",47.550063008721104,-122.29451828567964
"98108","Seattle","WA","Georgetown Duwamish River Park","8th Ave S","not_available",47.530632098283405,-122.32291842176593
"98108","Seattle","WA","Lake People Park","S Bradford St. & 31st Ave. S","98108",47.56917937010184,-122.29418792205463
"98108","Seattle","WA","Cesar Chavez Park","7th Ave. S & S Cloverdale St.","98108",47.52667750728217,-122.32533931732176
"98108","Seattle","WA","York Park","3650 Renton Ave. S","98144",47.57046127319336,-122.29553985595703
"98108","Seattle","WA","horticulture","not_available","98108",47.56728206447176,-122.31176253387002
"98108","Seattle","WA","Oxbow Park","6430 Corson Ave. S","98108",47.54385161059548,-122.32240173716762
"98108","Seattle","WA","South Park Marina","8604 Dallas Ave S","98108",47.52610397338867,-122.31210327148438
"98108","Seattle","WA","Georgetown Playfield","750 S Homer St.","98108",47.55121444058369,-122.32159411366375
"98108","Seattle","WA","Ferdinand P Patch","2016 S Pearl St","98108",47.556909000000005,-122.30603500000001
"98109","Seattle","WA","Seattle Center","305 Harrison St","98109",47.622190306287365,-122.35147476196289
"98109","Seattle","WA","Kerry Park","211 Highland Dr","98109",47.62948099401784,-122.35989162643655
"98109","Seattle","WA","Myrtle Edwards Park","3130 Alaskan Way W","98121",47.6191188961201,-122.35999927289357
"98109","Seattle","WA","Bhy Kracke Park","1215 5th Ave. N","98109",47.63069253160077,-122.34879000087379
"98109","Seattle","WA","Denny Park","100 Dexter Ave N","98109",47.61885828876579,-122.3410151631088
"98109","Seattle","WA","Myrtle Edwards Running Trail","3130 Alaskan Way","98119",47.61809091206324,-122.3518805256003
"98109","Seattle","WA","Trolley Hill Park","5th Ave. N & Blaine St.","98119",47.63512158988159,-122.34712777424753
"98109","Seattle","WA","Counterbalance Park","Queen Anne Ave. N & Roy St.","98109",47.623637233997066,-122.35428591298441
"98109","Seattle","WA","Franklin Place","2nd Ave","98119",47.627925328509995,-122.35900748108493
"98109","Seattle","WA","Space Needle Park","378 Broad St","98109",47.620004,-122.349709
"98109","Seattle","WA","Urban Triangle Park","2100 Westlake Ave N","98109",47.63877868652344,-122.34027862548828
"98109","Seattle","WA","MacLean Park","Taylor Ave. N & Newton St.","98109",47.636246518983036,-122.34586936125486
"98110","Bainbridge Island","WA","Battle Point Park","11299 Arrow Point Dr NE","98110",47.66258767343569,-122.57665307052972
"98110","Bainbridge Island","WA","Waterfront Park","100 Brien Dr. / Eagle Harbor","98110",47.623343205401014,-122.51607840996054
"98110","Bainbridge Island","WA","Fay Bainbridge Park","15446 Sunrise Dr NE","98110",47.70359501543927,-122.50804156574938
"98110","Bainbridge Island","WA","Hilltop","not_available","98110",47.6551978084432,-122.5495148001234
"98110","Bainbridge Island","WA","Fort Ward Park","2241 Pleasant Beach Dr NE","98110",47.58376152833376,-122.52457402276103
"98110","Bainbridge Island","WA","Bainbridge Island Japanese American Exclusion Memorial","4192 Eagle Harbor Drive","98110",47.61533795039509,-122.50965758631675
"98110","Bainbridge Island","WA","Gideon Park","274 Gideon Ln NW","98110",47.62935980976772,-122.52413681519396
"98110","Bainbridge Island","WA","Rotary Park","Alma Pl NE","98110",47.701830093462576,-122.5581719661281
"98112","Seattle","WA","Madison Park","E Madison St. & E Howe St.","98112",47.63546187577772,-122.27730631828308
"98112","Seattle","WA","Denny Blaine Park","200 Lake Washington Blvd. E","98112",47.620062977110365,-122.28025783155528
"98112","Seattle","WA","Interlaken Park","2451 Delmar Dr. E","98112",47.63534981724853,-122.30737924575804
"98112","Seattle","WA","Homer Harris Park","2401 E Howell St.","98122",47.61738,-122.30113
"98112","Seattle","WA","Howell Park","1740 E Howell Pl.","98112",47.617609853217104,-122.28017588761973
"98112","Seattle","WA","Azalea Way","1200 Lake Washington Blvd E","98112",47.63794044275235,-122.29629356704069
"98112","Seattle","WA","Seven Hills Park","1514 E Howell St.","98122",47.61786763088391,-122.31184353569776
"98112","Seattle","WA","Montlake Playfield","1618 E Calhoun St","98112",47.64151966464283,-122.30917984083598
"98112","Seattle","WA","Julia Lee's Park","E Harrison St & Martin Luther King Jr Way S","not_available",47.622342165693375,-122.29637145996094
"98112","Seattle","WA","East Montlake Park","2802 E Park Dr. E","98112",47.64662676098461,-122.30109214782713
"98112","Seattle","WA","Madison North Beach Park","2300 43rd Ave E","98112",47.63949711066135,-122.27674537784426
"98112","Seattle","WA","West Montlake Park","2815 W Park Dr. E","98112",47.64584663235967,-122.30922446283094
"98112","Seattle","WA","Lakeview Park","340 37th Ave. E","98112",47.62186723144439,-122.28554284573904
"98112","Seattle","WA","Duck Bay","E Foster Island Rd","98112",47.64214448978242,-122.29241067967924
"98112","Seattle","WA","Kurt Cobain Memorial Bench","151 lake Washington boulevard E","98112",47.61911260701266,-122.28187530414718
"98112","Seattle","WA","3001 E Madison","3001 E Madison","98112",47.62518402463063,-122.29321718215942
"98112","Seattle","WA","Viretta Park","151 Lake Washington Blvd. E","98122",47.619071420063726,-122.2819275560487
"98112","Seattle","WA","William Grose Park","1814 30th Ave.","98122",47.61802291870117,-122.29293823242188
"98112","Seattle","WA","Mud Park","30th ave E","98122",47.62083016488617,-122.28598866213102
"98115","Seattle","WA","Warren G. Magnuson Park","7400 Sand Point Way NE","98115",47.680998829361336,-122.25848304392021
"98115","Seattle","WA","Maple Leaf Park","8400 14th Ave NE","98115",47.69011316572095,-122.31644223958897
"98115","Seattle","WA","Matthews Beach Park","4998 NE 93rd St","98115",47.69655245150628,-122.27325575137968
"98115","Seattle","WA","Bryant Neighborhood Playground","4103 NE 65th St.","98115",47.675517610002274,-122.28359756080715
"98115","Seattle","WA","View Ridge Area","NE 65th St & Sandpoint Way","98115",47.67951649270066,-122.27165378219081
"98115","Seattle","WA","View Ridge Playfield","4408 NE 70th St.","98115",47.6798318401681,-122.28051576863702
"98115","Seattle","WA","Ravenna-Eckstein Park","6535 Ravenna Ave NE","98115",47.67679977416992,-122.30435180664062
"98115","Seattle","WA","Penguin Park","3554 NE 94th St","98115",47.696905,-122.288097
"98115","Seattle","WA","Wedgwood Square","31st Ave. NE & NE 82nd St.","98115",47.68817139874953,-122.29480504989623
"98115","Seattle","WA","Hunter Farms Pumpkin Patch","35th Ave NE","98115",47.68588079067371,-122.29046193600782
"98115","Seattle","WA","Rainbow Point","NE 75th St. & Banner Way NE","98115",47.68299190001858,-122.32141654384262
"98115","Seattle","WA","Madrone Fight Practice","Green Lakes","98115",47.67673112,-122.32067531
"98116","Seattle","WA","Alki Beach Park","1702 Alki Ave. SW","98116",47.5798688713907,-122.40904215862092
"98116","Seattle","WA","Hiawatha Playfield","2700 California Ave SW","98116",47.5777168565091,-122.38390271105862
"98116","Seattle","WA","Emma Schmitz Memorial Viewpoint","4503 Beach Dr. SW","98116",47.563192126758175,-122.40655660629271
"98116","Seattle","WA","Schmitz Preserve Park","5551 SW Admiral Way","98116",47.57728498325171,-122.4020581229318
"98116","Seattle","WA","Seacrest Park","1660 Harbor Ave SW","98126",47.589382384824646,-122.38027271314593
"98116","Seattle","WA","Hamilton Viewpoint Park","1531 California Way SW","98116",47.592875584108235,-122.38529855219369
"98116","Seattle","WA","Luna Park","1150 Alki Ave SW","98116",47.595091770853315,-122.38745935027676
"98116","Seattle","WA","Constellation Park","3400 Beach Dr SW","98116",47.57376642780386,-122.41594910739812
"98116","Seattle","WA","Cormorant Cove","3701 Beach Dr. SW","98116",47.57106132655048,-122.41128039483907
"98116","Seattle","WA","Whale Tail Park","5817 SW Lander St","98116",47.579341840888866,-122.40712298142041
"98116","Seattle","WA","Junction Plaza Park","42nd Ave. SW & SW Alaska St.","98116",47.56110211810497,-122.38572995611102
"98116","Seattle","WA","Marshall Reserve Park","not_available","98116",47.59424569611023,-122.38389157309007
"98116","Seattle","WA","Fauntleroy Place","Fauntleroy Way SW & 38th Ave. SW","98126",47.56269259418382,-122.37983107566833
"98116","Seattle","WA","Calfornia Place","California Ave. SW & SW Hill St.","98116",47.586330132651824,-122.38655787044341
"98116","Seattle","WA","Dakota Place Park","4304 SW Dakota St.","98116",47.56684112548828,-122.38716888427734
"98116","Seattle","WA","Don Armeni park","4000 Harbor Ave SW","not_available",47.58968056203505,-122.38072422083017
"98116","Seattle","WA","Alki playfield","57th near Alki","98116",47.57871869854162,-122.40743637084961
"98116","Seattle","WA","Andover Place","4000 Beach Dr. SW","98116",47.568389892578125,-122.4090576171875
"98116","Seattle","WA","Nantes Park","5062 SW Admiral Way","98116",47.579715728759766,-122.39704895019531
"98116","Seattle","WA","Ercolini Park","4542 48th Ave. SW","98116",47.56154677099043,-122.3931893923515
"98117","Seattle","WA","Sunset Hill Park","7531 34th Ave. NW","98117",47.68381618268326,-122.40063428878783
"98117","Seattle","WA","Salmon Bay Park","2001 NW Canoe Pl.","98107",47.67918224152669,-122.38126445349697
"98117","Seattle","WA","Golden Gardens Park Waterfront","8498 Seaview Place Northwest","98117",47.691586954296554,-122.4038082353192
"98117","Seattle","WA","Ballard High School","1418 NW 65th St","98117",47.67701977664608,-122.37496535593321
"98117","Seattle","WA","6th Avenue NW Pocket Park","6th Ave. NW & NW 76th St.","98117",47.684326623844434,-122.36309802822456
"98117","Seattle","WA","O'Zone","7519 Mary Ave NW","98117",47.683845,-122.375747
"98117","Seattle","WA","Carkeek Park - Upper Lot","9749 Holman Rd NW","98117",47.703226251161844,-122.36327292329234
"98117","Seattle","WA","Golden Gardens Staircase","NW 85th Street","98117",47.690454071768016,-122.40002674480334
"98117","Seattle","WA","Blue Ridge Beach Park","not_available","98177",47.699010840418694,-122.39413534498136
"98117","Seattle","WA","Whitman Field","9201 15th Ave W","not_available",47.69723775221023,-122.37953363480538
"98117","Seattle","WA","Kirke Park","7028 9th Ave NW","98117",47.68013059275492,-122.36811954119197
"98117","Seattle","WA","North Beach Park","24th Ave. NW & NW 90th St.","98117",47.694528948709,-122.38750060973493
"98117","Seattle","WA","Baker Park on Crown Hill","8347 14th Ave NW","98117",47.69011688232422,-122.37479400634766
"98117","Seattle","WA","Crown Hill Park","9089 Holman Rd NW","98117",47.69701594365138,-122.37351781414853
"98117","Seattle","WA","Crown Hill Glen","8735 19th Ave NW","98117",47.693422999999996,-122.381367
"98117","Seattle","WA","crown hill skate park","not_available","98117",47.69278047217946,-122.37299334886522
"98117","Seattle","WA","Blue Ridge Places","NW Milford Way & Radford Ave. NW","98177",47.70306883221918,-122.38105416297911
"98118","Seattle","WA","Genesee Park & Playground","4316 S Genesee St.","98118",47.56448480019845,-122.2792736207043
"98118","Seattle","WA","Brighton Playfield","6000 39th Ave. S","98118",47.547733306884766,-122.28253173828125
"98118","Seattle","WA","Stanley Sayres Memorial Park","3808 Lake Washington Blvd. S","98118",47.57004776036421,-122.27668609902575
"98118","Seattle","WA","Lake Washington beach park","Lake Washington Blvd","not_available",47.565227092578006,-122.2682315912527
"98118","Seattle","WA","Angel Morgan P-Patch","3956 S Morgan St","98118",47.544498443603516,-122.281005859375
"98118","Seattle","WA","Rainier Community Center Garden","4600 38th Ave S","98118",47.56153869628906,-122.28433990478516
"98118","Seattle","WA","Columbia Park","4801 Rainier Ave S","98118",47.559803899363644,-122.28750944137573
"98118","Seattle","WA","John C. Little, Sr. Park","6961 37th Ave. S","98118",47.53929138183594,-122.28653717041016
"98118","Seattle","WA","Hitt's Hill Park","5234 37th Ave. S","98118",47.55420684814453,-122.28455352783203
"98118","Seattle","WA","Othello Playground","4315 S Othello St.","98118",47.53641792824911,-122.27381605285423
"98118","Seattle","WA","Hubble Periscope","37th Ave S","not_available",47.572761,-122.291595
"98118","Seattle","WA","Landing Parkway","S Horton St. & Lake Washington Blvd.","98144",47.57341339944039,-122.2809648513794
"98118","Seattle","WA","Horton Hill Corridor","36th Ave. S & S Horton St.","98144",47.573646014682424,-122.28699452668278
"98118","Seattle","WA","Sierra Place","S Horton St. & Sierra Dr.","98144",47.57324692160287,-122.28246688842773
"98118","Seattle","WA","Brandon Street Orchard","S Brandon St","98118",47.55316604315907,-122.27421217583449
"98119","Seattle","WA","Centennial Park","3130 Alaskan Way","98121",47.62465370284115,-122.36867401246097
"98119","Seattle","WA","Marshall Park","1206 7th Ave. W","98119",47.6296632667877,-122.36675964681625
"98119","Seattle","WA","Parsons Gardens","698 W Highland Dr.","98119",47.629757640387005,-122.36602682807154
"98119","Seattle","WA","Thorndyke Park","Thorndyke Ave. W & Magnolia Way W","98199",47.63468743377526,-122.38985229452966
"98119","Seattle","WA","Smith Cove Park","1451 23rd Ave. W","98199",47.63176687176973,-122.38691492176659
"98119","Seattle","WA","Kinnear Park","899 W Olympic Pl.","98119",47.627419702288975,-122.36503846223812
"98119","Seattle","WA","Southwest Queen Anne Greenbelt","12th Ave. W & W Howe St.","98119",47.635870345156,-122.37364053726195
"98119","Seattle","WA","Betty Bowen Viewpoint","7th Ave W","98119",47.629598796803,-122.36666080852785
"98119","Seattle","WA","Blaine Place","W Olympic Pl. & 6th Ave. W","98119",47.626825435102,-122.36423134803772
"98119","Seattle","WA","Kinnear Place","Queen Anne Ave. N & W Queen Anne Dr.","98109",47.62618189264585,-122.35696792602538
"98119","Seattle","WA","Magnolia Manor Park","3450-3520 28th Ave W","98199",47.651862012422974,-122.38827942966893
"98121","Seattle","WA","Olympic Sculpture Park Pocket Beach","not_available","98121",47.61709400264109,-122.35804672123568
"98121","Seattle","WA","SAM Remix","olympic Sculpture park","not_available",47.616325236235255,-122.35427799558624
"98121","Seattle","WA","Broad Street Green","Broad St","98109",47.619471225121096,-122.34988689422609
"98122","Seattle","WA","Cal Anderson Park","1635 11th Ave W","98119",47.616612079087474,-122.31900123101065
"98122","Seattle","WA","Leschi Park","201 Lakeside Ave. S","98122",47.60143295516684,-122.28569579803232
"98122","Seattle","WA","Madrona Park","853 Lake Washington Blvd.","98122",47.60988099626664,-122.28278875350952
"98122","Seattle","WA","Spruce Street Mini Park","160 21st Ave.","98122",47.603883913905236,-122.30398325135192
"98122","Seattle","WA","Dr. Blanche S. Lavizzo Park","2100 S Jackson St.","98144",47.60049157245997,-122.30424642562866
"98122","Seattle","WA","Gerber Park","Martin Luther King Jr. Way & E Cherry St.","98112",47.607660383332025,-122.29648947715759
"98122","Seattle","WA","Madrona Playground","3211 E Spring St.","98122",47.61104374626671,-122.29007898839347
"98122","Seattle","WA","Leschi-Lake Dell Natural Area","3525 E Terrace St.","98122",47.604766845703125,-122.28697204589844
"98122","Seattle","WA","Spring Street Mini Park","E Spring St. & 15th Ave.","98122",47.61120026028154,-122.309440532128
"98125","Seattle","WA","Northacres Park","12718 1st Ave. NE","98125",47.72168468216491,-122.3285549667155
"98125","Seattle","WA","Thornton Creek Park #1","13002 10th Ave. NE","98125",47.723317603701005,-122.31712102890013
"98125","Seattle","WA","Pinehurst Pocket Park","1905 NE 117th St","98125",47.71420373686118,-122.30831564401798
"98125","Seattle","WA","Hubbard Homestead Park","11203 5th Ave. NE","98125",47.7099925593979,-122.32460975646973
"98125","Seattle","WA","Lake City Mini Park","12359 Lake City Way NE","98125",47.7189826965332,-122.29582214355469
"98125","Seattle","WA","Meadowbrook Playfield","10533 35th Ave. NE","98125",47.70652502460017,-122.29385477613855
"98125","Seattle","WA","Duck Creek","547 NE 105th St","98125",47.704689025878906,-122.3212890625
"98125","Seattle","WA","Northgate Creek","not_available","98125",47.70162448820534,-122.32529259297827
"98125","Seattle","WA","Cedar Park","3737 NE 135th St","98125",47.72642292196983,-122.29062004211063
"98125","Seattle","WA","Maple Leaf Community Garden","529 NE 103rd St.","98115",47.70292663574219,-122.32208251953125
"98125","Seattle","WA","Licorice Fern Natural Area on Thornton Creek","1100 NE 130th St","98125",47.72244410316441,-122.31655948446785
"98125","Seattle","WA","Northgate Park","10510 5th Ave NE","98125",47.70519256591797,-122.32242584228516
"98125","Seattle","WA","Victory Creek Park","1059 Northgate Way","98125",47.709068486327816,-122.31555461883545
"98126","Seattle","WA","Lincoln Park","8011 Fauntleroy Way SW","98136",47.529425108116584,-122.39329509819414
"98126","Seattle","WA","Fairmount Playground","5400 Fauntleroy Way SW","98116",47.554759635860066,-122.38052686640782
"98126","Seattle","WA","Lincoln Park - Beach Rd Entrance","Beach Rd","98136",47.537211468057805,-122.39603175115325
"98126","Seattle","WA","Morgan Junction Park","6413 California Ave SW","98136",47.54576839041687,-122.38729735986644
"98126","Seattle","WA","Solstice Park","7400 Fauntleroy Way SW","98136",47.53640665651844,-122.3900494115487
"98126","Seattle","WA","Fauntleroy Park","3951 SW Barton St.","98136",47.521246601839294,-122.38505619185398
"98126","Seattle","WA","Leprechan Tree","Lincoln Park","not_available",47.53382076440303,-122.39259964708069
"98126","Seattle","WA","Lowman Beach","not_available","98136",47.54006683885207,-122.39634609174875
"98126","Seattle","WA","Endolyne Park","50th Ave. SW & 49th Ave. SW","98136",47.51449789948732,-122.39431500434874
"98126","Seattle","WA","Fauntleroy Creek Ravine","9102 Fauntleroy Way SW","98136",47.52264934792697,-122.3924160003662
"98133","Seattle","WA","Echo Lake Park","Interurban Trail","98133",47.773223724780856,-122.34151840209961
"98133","Seattle","WA","Boeing Creek Park","17229 3rd Ave NW","98177",47.75556934623108,-122.36298789739631
"98133","Seattle","WA","Ronald Bog Park","2301 N 175th St.","98133",47.75510781021155,-122.33297824859619
"98133","Seattle","WA","Twin Ponds Field","15001 1st Ave NE","not_available",47.73929178714752,-122.32932238333333
"98133","Seattle","WA","Cromwell Park","18030 Meridian Avenue N","98133",47.76047775044577,-122.33381874593654
"98133","Seattle","WA","Meridian Park","16765 Wallingford Ave N","98133",47.7516975402832,-122.33876037597656
"98133","Seattle","WA","Broadview Park","Greenwood Ave. N & N 122nd St.","98133",47.71792591878161,-122.35575556755064
"98133","Seattle","WA","Mineral Springs Park","1500 N 105th St.","98133",47.7052116394043,-122.33781433105469
"98133","Seattle","WA","James Keough Park","2301 N 167th St","98133",47.751154933210685,-122.33104705810547
"98133","Seattle","WA","Pacific Northwest Conifer Arboretum","N. 175th St.","not_available",47.75619312721846,-122.3456178195908
"98133","Seattle","WA","Ridgecrest Park","108 NE 161st","98155",47.74600410162319,-122.32879516458156
"98133","Seattle","WA","McCormick Park","16405-16377 Corliss Ave N","98133",47.74778609485158,-122.33260273933412
"98134","Seattle","WA","Eric Smith Park","not_available","98144",47.585000406376714,-122.31740505366041
"98134","Seattle","WA","Beacon Place","S Dearborn St. & 10th Ave. S","98134",47.596237565386616,-122.31834411621095
"98134","Seattle","WA","Jack Perry Memorial Park","1729 Alaskan Way S","98134",47.587793,-122.339526
"98136","Seattle","WA","Cove Park","4807 SW Barton St","98136",47.522963,-122.393685
"98136","Seattle","WA","Fauntleroy Tennis Courts","7400-7498 Fauntleroy Way SW","98136",47.53637484,-122.39148
"98136","Seattle","WA","Kilbourne Park","9131 California Ave SW","98136",47.521907806396484,-122.38848114013672
"98144","Seattle","WA","Judkins Park and Playfield","2150 S Norman St.","98144",47.593098875295226,-122.30348188220185
"98144","Seattle","WA","Sam Smith Park","1400 Martin Luther King Jr. Way S","98144",47.590159812433235,-122.29819536209105
"98144","Seattle","WA","Frink Park","398 Lake Washington Blvd. S","98144",47.59918936213052,-122.28916168212889
"98144","Seattle","WA","Mount Baker Park","2521 Lake Park Dr. S","98144",47.58031814437581,-122.28858232498169
"98144","Seattle","WA","Daejeon Park","1144 Sturgus Ave. S","98144",47.59123070584851,-122.31166005134583
"98144","Seattle","WA","Colman Park","1800 Lake Washington Blvd S","98144",47.58615100335924,-122.28763818740843
"98144","Seattle","WA","Martin Luther King, Jr. Memorial Park","2200 Martin Luther King Jr Way","98144",47.584284125527205,-122.29647625501524
"98144","Seattle","WA","College Street Park","30th Ave. S & S. College St.","98144",47.58260550887463,-122.29434835858056
"98144","Seattle","WA","Jimi Hendrix Park","2400 S Massachusetts St.","98144",47.589132313017565,-122.30117797851561
"98144","Seattle","WA","Sturgus Park","904 Sturgus Ave. S","98144",47.59272123723377,-122.31276512145996
"98144","Seattle","WA","Stevens Place","2900 Beacon Ave. S","98144",47.574244532602776,-122.31167546878662
"98144","Seattle","WA","Lakewood Triangle","Cascadia Ave. S & Lakewood Ave. S","98144",47.576105924004786,-122.28377580642702
"98144","Seattle","WA","Judge Charles M. Stokes Overlook","S Judkins St. & 20th Ave. S","98144",47.59123070584851,-122.30458974838255
"98144","Seattle","WA","Trudy Sander Triangle","2974-2998 Mt Rainier Dr S","98144",47.5765460729599,-122.28621125221252
"98144","Seattle","WA","Basketball Court","Legacy At Pratt Park, 1800 S Jackson St, Seattle, WA 98144-2177","98144-2177",47.599666595458984,-122.30831146240234
"98144","Seattle","WA","Wisteria Park","1430 S Main St","98144",47.59957151039409,-122.30983069391571
"98146","Seattle","WA","Salmon Creek Park","704 SW 118th St","98146",47.497269971886446,-122.34146849931
"98146","Seattle","WA","Lakewood Park","not_available","98146",47.503746529845955,-122.34251275889183
"98146","Seattle","WA","Chelsea Park","839 SW 136th St.","98166",47.484297359447666,-122.3498212958529
"98146","Seattle","WA","Shorewood Park","11800 28th Ave SW","98146",47.49691215436752,-122.36750024409105
"98148","Seattle","WA","Town Square Park","5th Ave SW","98166",47.467243206783714,-122.33949779434016
"98148","Seattle","WA","E.J. Nist Family Park","not_available","98166",47.44076383504145,-122.33872464384295
"98148","Seattle","WA","Camp Schonwald Park","16030 Sylvester Rd SW","98166",47.457124,-122.338723
"98155","Seattle","WA","Hamlin Park","16000 15th Ave NE","98155",47.74522176570873,-122.30803469043462
"98155","Seattle","WA","Animal Acres Park","17410-17798 Brookside Blvd NE","98155",47.75596903807732,-122.2862119456887
"98155","Seattle","WA","North Crest Park","833 NE 170th St","98155",47.750048079632464,-122.32002428729149
"98155","Seattle","WA","Paramount Park Open Space","15219-15225 11th Ave NE","98155",47.738922964811174,-122.3176543217531
"98155","Seattle","WA","North City Park","not_available","98155",47.768618574639156,-122.3194787168984
"98155","Seattle","WA","Fir Crest Janky DGC","NE 155th","98155",47.74086204948334,-122.31327696977154
"98155","Seattle","WA","Brugger's Bog Park","19605-19791 25th Ave NE","98155",47.77293530423495,-122.30426788330078
"98166","Seattle","WA","Ed Munro Seahurst Park","1711 SW 140th St","98166",47.47585157089255,-122.35144249081785
"98166","Seattle","WA","Eagle Landing Park","SW 149th St & 25th Ave SW","98166",47.4707989454788,-122.36585854042801
"98166","Seattle","WA","Mathison Park","14700 6th Ave SW","98166",47.470988,-122.341373
"98166","Seattle","WA","Lakeview Park - Burien","SW 160th St.","98166",47.46028027556518,-122.34095195789966
"98166","Seattle","WA","Dottie Harper Park","421 SW 146th St","98166",47.47156496121571,-122.34096898242763
"98166","Seattle","WA","Nature Trails Bridge","Ed Munro Seahurst Park, 2400 SW 140th St, Burien, WA 98166","98166",47.47987227507147,-122.36173964476255
"98168","Seattle","WA","Arbor Lake Park","S 124th Street","98168",47.492442791418625,-122.32945919036865
"98168","Seattle","WA","North SeaTac Park","12800 20th Ave S","98168",47.48577297525534,-122.30958938598633
"98168","Seattle","WA","Cascade View Community Park","37th Ave S","98168",47.474804,-122.286994
"98168","Seattle","WA","Foster Memorial Park","13919 53rd Ave S","not_available",47.47837367929925,-122.26824954853029
"98168","Seattle","WA","southern heights park","12025 14th Ave S","not_available",47.495115999999996,-122.31571399999999
"98177","Seattle","WA","Carkeek Park","950 NW Carkeek Park Rd","98177",47.71239128271022,-122.3780129902939
"98177","Seattle","WA","Richmond Beach Park","2021 NW 190th St","98177",47.76538690249675,-122.38394746420802
"98177","Seattle","WA","Blue Ridge Circle","NW Blue Ridge Dr. & NW Roundhill","98177",47.70434679476565,-122.38041043281554
"98178","Seattle","WA","Lakeridge Park","Rainier Ave. S & 68th St.","98118",47.506823512189456,-122.24736213684082
"98188","Seattle","WA","Briscoe Park","S. 190th St.","not_available",47.432608760986376,-122.25973365350136
"98188","Seattle","WA","SYNLawn Seattle","19038 72nd Ave S D","98032",47.43095515966945,-122.24273156910324
"98198","Seattle","WA","Water Tower Park","208th St","98198",47.41563107040562,-122.32850142588403
"98198","Seattle","WA","Midway Village RV Park","24426 Pacific Hwy S","98032",47.38233,-122.29748
"98198","Seattle","WA","Midway Park","2900-2968 S 221st St","98198",47.403426633647506,-122.29587915086437
"98199","Seattle","WA","Magnolia Park","1461 Magnolia Blvd. W","98199",47.63442973467934,-122.39777093643383
"98199","Seattle","WA","Magnolia Playfield","2518 34th Ave. W","98119",47.64142553378783,-122.40002865615433
"98199","Seattle","WA","Carleton Center","Rosemont Pl. W & Montavista Pl.","98199",47.63947775023627,-122.40634202957153
"98199","Seattle","WA","Parkmont Place","Magnolia Blvd. W & W Parkmont Pl.","98199",47.640381369813795,-122.40966796874999
"98199","Seattle","WA","28th Ave NW Street End Park","5300 28th Ave NW","98107",47.667347,-122.392746
"98199","Seattle","WA","Eastmont Place","Eastmont Way W & Westmont Way W","98199",47.637721069054486,-122.40556955337524
"98199","Seattle","WA","32nd Ave West Boat Launch","32nd Ave W","98199",47.63257358083382,-122.39881038665771
"98201","Everett","WA","Grand Avenue Park","1700 Grand Avenue","98201",47.99412015946163,-122.21271974909439
"98201","Everett","WA","American Legion Memorial Park","145 Alverson Blvd","98201",48.01596637,-122.20405519008636
"98201","Everett","WA","Kiwanis Park","3530 Rockefeller Ave","98201",47.97028350830078,-122.20576477050781
"98201","Everett","WA","Henry Jackson Park","not_available","98201",47.994288990793336,-122.18897016747066
"98201","Everett","WA","Forest Park","802 E Mukilteo Blvd","98203",47.95988451931928,-122.2207760810852
"98201","Everett","WA","Depot Park","2800 Bond St, Everett, WA 98201","98201",47.977300728278784,-122.21939328559523
"98201","Everett","WA","Dagmars Marina","1870 Ross Ave","98201",48.0183403,-122.185312
"98201","Everett","WA","Wiggums Hollow Park","2976 11th St","98201",48.00332464392983,-122.1925738945534
"98201","Everett","WA","Bayside Park","1201 23rd Street","98201",47.988471,-122.21346
"98201","Everett","WA","Langus Riverfront Park","400 Smith Island Rd.","98201",47.998454618610175,-122.17807942665868
"98201","Everett","WA","naval station everett shields park","2000 W Marine View Dr","98207",47.990966796875,-122.2142562866211
"98201","Everett","WA","Garfield Park","2300 State St","98201",47.98651949592872,-122.18691411198002
"98201","Everett","WA","Henry M. Jackson Bust","1700 Grand Ave","not_available",47.99515959328865,-122.21275672548866
"98201","Everett","WA","Clark Park","2400 Lombard Ave, Everett, WA","98201",47.984840882060844,-122.20386888413019
"98201","Everett","WA","Northwest Neighborhood Park","1238 Colby Ave","98201",48.00054037886242,-122.2084379196167
"98203","Everett","WA","Narbeck Wetland Sanctuary","Seaway Blvd","not_available",47.93451572406047,-122.26111214956485
"98203","Everett","WA","Lowell Riverfront Trail","3001-3085 Lenora St","98203",47.94749717851294,-122.19148890447822
"98203","Everett","WA","Lions Park","7530 Cascade Dr","98203",47.92950412123045,-122.21518196827572
"98203","Everett","WA","Harborview Park","1621 Mukilteo Blvd.","98203",47.95722994633889,-122.25183130477835
"98203","Everett","WA","Edgewater Park","3880 Shore Ave","98203",47.952010487080784,-122.28455788959972
"98203","Everett","WA","Brookridge Park","2 59th Pl SW","98203",47.945396,-122.234677
"98203","Everett","WA","Interurban Park","Commercial Ave","not_available",47.9357962167941,-122.20648527145386
"98203","Everett","WA","Edgewater Beach Park","not_available","98203",47.952075,-122.29009
"98203","Everett","WA","Northcreek Park","183rd St","not_available",47.92926788330078,-122.22948455810547
"98203","Everett","WA","52nd Street Substation","2221 Lowell Road","98208",47.94816589355469,-122.2020034790039
"98203","Everett","WA","Walter Park","Walter E Hall Rd","98204",47.92096313,-122.24985829
"98204","Everett","WA","Loganberry Lane Park","9300 Loganberry Ln","98204",47.91474577677456,-122.2581556544994
"98204","Everett","WA","Kasch Park","2300 Kasch Park Rd","98204",47.91536004372979,-122.26379209405725
"98208","Everett","WA","Willis D Tucker Community Park","6705 Puget Park Dr","98296",47.8632179245289,-122.14059756217192
"98208","Everett","WA","Thornton A. Sullivan Park","11400 W Silver Lake Rd","98208",47.88941362422241,-122.21106945801462
"98208","Everett","WA","Hauge Homestead Park","1819 121st St SE","98208",47.88849983050967,-122.20710104989814
"98208","Everett","WA","Silverlake Meadows Community Park","12000 Block","98208",47.88347022438971,-122.21476125592
"98208","Everett","WA","Rotary Park","3505 Lowell Snohomish River Rd","98208",47.883851,-122.149261
"98221","Anacortes","WA","Washington Park","6300 Sunset Ave","98221",48.49890860621525,-122.69254194598047
"98221","Anacortes","WA","Bowman Bay","4382-4598 Bowman Bay Rd","98221",48.416585163131444,-122.65088931973244
"98221","Anacortes","WA","Cap Sante Park","not_available","98221",48.51338200555421,-122.59916520862687
"98221","Anacortes","WA","Storvik Park","32nd St.","98221",48.497569488944556,-122.61512070493615
"98223","Arlington","WA","Twin Rivers Park","WA-530","98223",48.20309840426938,-122.12035029658823
"98223","Arlington","WA","Jensen park","not_available","98223",48.18084466495016,-122.12849972352551
"98223","Arlington","WA","River Meadows Park","19932 106th Ave NE","98223",48.17722702026367,-122.08558654785156
"98223","Arlington","WA","Strawberry Fields Athletic Complex","6101 152nd St NE","98271",48.133385937492385,-122.14996820093245
"98223","Arlington","WA","Nature's Connection Place","27225 71st Ave NE","98223",48.2437575369099,-122.13293364664743
"98223","Arlington","WA","River Meadows Country Park - South Fork Stillaguamish River","20416 Jordan Rd","98223",48.179710388183594,-122.08148956298828
"98223","Arlington","WA","Jordan Bridge","Jordan Rd","98223",48.147837,-122.037915
"98223","Arlington","WA","J ""Rudy"" York Memorial Park","3209 180th St NE","98223",48.162094076770494,-122.18547836178799
"98223","Arlington","WA","the park","13801-13899 54th Dr NE","98271",48.12209415,-122.15749963333333
"98223","Arlington","WA","Masonic Family Park","24310 Mountain Loop Hwy","98252",48.119972229003906,-121.89866638183594
"98223","Arlington","WA","Riverscene Park","Bergan Rd.","not_available",48.09722322058997,-121.97310505974531
"98223","Arlington","WA","Mother Nature’s Window","not_available","98270",48.083461,-122.153603
"98225","Bellingham","WA","Boulevard Park","S State St & Bayview Dr","98225",48.73128242959381,-122.50268235337202
"98225","Bellingham","WA","Zuanich Park","Harbour Loop Dr","98225",48.75490557336236,-122.5004065355738
"98225","Bellingham","WA","Waypoint Park","not_available","98225",48.751407,-122.484858
"98225","Bellingham","WA","Port of Bellingham Marine Park","355 Harris Ave","98225",48.719309160733125,-122.5155138369687
"98225","Bellingham","WA","Maritime Heritage Park","1600 C St","98225",48.75340744089209,-122.48296758961766
"98225","Bellingham","WA","Battersby Field","1800 F St","98225",48.757779,-122.48347
"98225","Bellingham","WA","Fairhaven Park","107 Chuckanut Dr N","98229",48.71406124728267,-122.49866509920237
"98225","Bellingham","WA","Cornwall Park","2800 Cornwall Ave.","98225",48.773896787935,-122.4810791015625
"98225","Bellingham","WA","Fouts Park","H St","not_available",48.75870231988665,-122.48443953406758
"98225","Bellingham","WA","Elizabeth Park","Elizabeth St","98225",48.759798790592654,-122.49039417783636
"98225","Bellingham","WA","Birchwood Park","2709 Cedarwood Ave","98225",48.770713806152344,-122.50028228759766
"98225","Bellingham","WA","Поляна","not_available","98229",48.72547410120705,-122.4674527121618
"98225","Bellingham","WA","Broadway Park","Broadway & Cornwall","98225",48.7641232692675,-122.47545372056537
"98225","Bellingham","WA","Rock Hill Park","1300 Iron","98225",48.74565719201858,-122.46691534949986
"98225","Bellingham","WA","Laurel Park","910-998 High St","98225",48.74214647541101,-122.47875311127613
"98225","Bellingham","WA","Memorial Park","Illionois","98225",48.76156818554372,-122.46365266195836
"98225","Bellingham","WA","Peabody Plaza","2910 Northwest Ave.","98225",48.76961886350379,-122.49205470085144
"98226","Bellingham","WA","Whatcom Falls Park","1401 Electric Ave","98226",48.75122776686693,-122.42888271087048
"98226","Bellingham","WA","Lake Padden Park","2244 Samish Way","98229",48.70555509498115,-122.45012295376503
"98226","Bellingham","WA","Bloedel-Donovan Park","2214 Electric Ave","98226",48.760656278347795,-122.41927342833345
"98226","Bellingham","WA","Lake Whatcom Park","not_available","98226",48.73030650389694,-122.30893501934231
"98226","Bellingham","WA","Hovander Homestead Park","5299 Nielsen Ave","98248",48.83129464709455,-122.59287489094983
"98226","Bellingham","WA","Oxford Park","6160 Malloy Ave","98248",48.8712043762207,-122.59246063232422
"98226","Bellingham","WA","Cedar Creek Park","6179 Apollo Dr","98248",48.86606979370117,-122.61075592041016
"98226","Bellingham","WA","Pioneer Park","2nd Ave","not_available",48.843077880369826,-122.59302017956907
"98229","Bellingham","WA","Fragrance Lake","Fragrance Lake Rd","98229",48.653505210563424,-122.48949405949591
"98229","Bellingham","WA","St. Clair Park","2000 St Clair St","98229",48.757659109879114,-122.43737553625417
"98229","Bellingham","WA","Kulshan Ski & Snowboard Swap","2214 Electric Avenue","98225",48.760501861572266,-122.41895294189453
"98229","Bellingham","WA","Lake Samish County Park","679 N Samish Dr","not_available",48.67157241638537,-122.41259581875093
"98230","Blaine","WA","Pt. Whitehorn Marine Reserve","not_available","98230",48.887272324504984,-122.77975015396663
"98230","Blaine","WA","US Customs and Border Protection (Peace Arch)","138 Peace Park Drive","not_available",49.00161029286017,-122.75637613654197
"98230","Blaine","WA","Salishan Park","1201-1299 Blaine Ave","98230",48.98774757348996,-122.72931833973878
"98230","Blaine","WA","Bay Horizon Park","7511 Gemini St, Blaine, WA 98230","98230",48.91437530517578,-122.73471069335938
"98230","Blaine","WA","Bender Park","not_available","98248",48.862682,-122.622284
"98233","Burlington","WA","Alpha Memorial Park","Burlington Blvd","98233",48.477466619085085,-122.33257768300179
"98233","Burlington","WA","Pomona Grange Park","5550-5720 Burlington Alger Rd","98233",48.56402405160636,-122.33273032587915
"98233","Burlington","WA","Skagit River Park","1100 S Skagit St","98233",48.46069882122411,-122.3193673980178
"98233","Burlington","WA","Grafton Park","not_available","98233",48.46695537304977,-122.33584341268373
"98236","Clinton","WA","Margueritte Brons Memorial Park","not_available","98236",47.994367,-122.458575
"98237","Concrete","WA","Cape Horn","42118-42156 Cedar St","98237",48.53205715756038,-121.82920226187639
"98237","Concrete","WA","Skagit River Bald Eagle Interpretive Center","not_available","98283",48.484796,-121.596741
"98239","Coupeville","WA","Chetkemoka Park","not_available","98368",48.12206051404039,-122.7557558126497
"98239","Coupeville","WA","Port Townsend Rotary Park","Water Street","not_available",48.11226309970866,-122.76015222072601
"98239","Coupeville","WA","Fort Casey Dive Park","12980 State Route 20","not_available",48.15870080783579,-122.67299572950654
"98239","Coupeville","WA","Fort Casey","Whidbey Island","98260",48.15875826479675,-122.67713395189385
"98239","Coupeville","WA","Coupeville Park","not_available","98239",48.22081336671603,-122.69082877625553
"98239","Coupeville","WA","Adams St. Park","810 Water St","98368",48.11484909057617,-122.7560043334961
"98239","Coupeville","WA","Bobby McGarraugh Park","1650 Cherry St","98368",48.128279062494286,-122.76964902899637
"98239","Coupeville","WA","Courthouse Court","PT","98368",48.11128895379584,-122.76646773341832
"98239","Coupeville","WA","Rothschild House Historic Site","418 Taylor Street","98368",48.116744,-122.75838
"98239","Coupeville","WA","Ataturk Havalimani de-icing Havuz","Ahl","98368",48.1349619,-122.7708275
"98241","Darrington","WA","Park","not_available","98241",48.251809,-121.603292
"98243","Deer Harbor","WA","Turtleback Mountain","Wild Rose Road","not_available",48.66621879453302,-122.95433812061023
"98245","Eastsound","WA","Eastsound Village Green Park","not_available","98245",48.696078,-122.906877
"98247","Everson","WA","Whatcom Falls Park","not_available","98264",48.95088034861411,-122.43117404565601
"98247","Everson","WA","Riverside Park","199-281 Park Dr","98247",48.92026937203771,-122.35023150265725
"98248","Ferndale","WA","VanderYacht Park","Portal Way","98248",48.85033179137066,-122.58757339481487
"98249","Freeland","WA","Trillium Community Forest","not_available","98249",48.031908,-122.570574
"98249","Freeland","WA","Goss Lake County Park","not_available","98260",48.039394,-122.47788
"98250","Friday Harbor","WA","American Camp","Cattle Point Road","not_available",48.46452571661844,-123.02396588607571
"98250","Friday Harbor","WA","Memorial Park","not_available","98250",48.535375,-123.015245
"98250","Friday Harbor","WA","Otis Perkins","Bayshore Rd","98261",48.501979043508435,-122.9268847777261
"98250","Friday Harbor","WA","San Juan National Park","West Island Road","not_available",48.535012105513,-123.01558812504938
"98251","Gold Bar","WA","Gold Bar City Park","not_available","98251",47.85362781379688,-121.69719909059965
"98251","Gold Bar","WA","Sky Valley Lions Community Park","36621 Stevens Pass Hwy","98294",47.867408280042376,-121.7405104637146
"98252","Granite Falls","WA","Lake Roesiger","1916 S Lake Roesiger Rd","98290",47.998022864318735,-121.90310050029402
"98252","Granite Falls","WA","Lake Connor Park","14320 28th St NE","98258",48.02224126947231,-122.03750503063202
"98252","Granite Falls","WA","Lake Stevens Community County Park","1601 N Machias Rd","98258",48.0135383605957,-122.04049682617188
"98257","La Conner","WA","Swinomish Park","not_available","98257",48.39183915976323,-122.49741765479479
"98257","La Conner","WA","Pioneer Picnic","Pioneer Park","98257",48.385651,-122.502569
"98258","Lake Stevens","WA","Lundeen Park","not_available","98258",48.01675845010739,-122.09948581795504
"98258","Lake Stevens","WA","Centennial Trail","Centennial trail","not_available",47.981442551081436,-122.04897909740194
"98258","Lake Stevens","WA","Shasta Ridge Park","3907 82nd Ave NE","98205",48.03363879532231,-122.11946851642413
"98258","Lake Stevens","WA","Berrywoods Neighborhood","79th St NE","98270",48.06762882903936,-122.11298349575091
"98260","Langley","WA","Cedars Park","900 Cedar Circle","98260",48.031276,-122.396293
"98260","Langley","WA","Trustland Trails","SR 525","98260",48.003546732651806,-122.43654490799355
"98260","Langley","WA","Community Park","5475 Maxwelton Rd","98260",48.011540999999994,-122.408904
"98260","Langley","WA","South Whidbey Park & Recreation","5495 Maxwelton Rd","98260",48.011627197265625,-122.40531921386719
"98264","Lynden","WA","Camp David","Loomis Trail Rd","98248",48.91184,-122.477114
"98264","Lynden","WA","Lynden Farmers Market","Centennial Park, 319 Grover St","98264",48.94401550292969,-122.45201873779297
"98267","Marblemount","WA","Pressentin County Park","60060 SR 20","not_available",48.52650461439198,-121.43489761698403
"98270","Marysville","WA","Jennings Memorial Park","6915 Armar Rd","98270",48.058689532528376,-122.16093220737649
"98270","Marysville","WA","Deering Wildflower Acres Park","4708 79th Ave NE","98270",48.03886795043945,-122.12628173828125
"98270","Marysville","WA","Jennings Nature Park","5314 64th Street Ne","98270",48.052592613532404,-122.1608723193283
"98270","Marysville","WA","Comeford Park","State ave","98270",48.053113249992926,-122.1773971275337
"98271","Marysville","WA","Lake Goodwin Community Club","not_available","98292",48.1545855620417,-122.29313215102775
"98272","Monroe","WA","Lake Tye Park","14964 Fryelands Blvs","98272",47.86239955133533,-122.01000359672614
"98272","Monroe","WA","Arbor Heights Park","not_available","98272",47.845497,-122.008721
"98272","Monroe","WA","Osprey Park","not_available","98294",47.87446236529507,-121.81973287840569
"98272","Monroe","WA","Fairfield Park","15532 Fryelands Blvd.","not_available",47.857723236083984,-122.01502227783203
"98272","Monroe","WA","Evergreen Equestrian Park","14405 179th Ave SE","98272",47.867942810058594,-121.98615264892578
"98272","Monroe","WA","Al Borlin Park","615 Simons Rd","98272",47.85412013172273,-121.96257591247559
"98272","Monroe","WA","Rainier View City Park","19921 Rainier View Rd. SE","98272",47.870880126953125,-121.96501922607422
"98272","Monroe","WA","Sultan Estates Homeowners Community Park","Woods Lake Road","98272",47.900937,-121.846379
"98272","Monroe","WA","Sportsman Park","1 Albion St.","98294",47.8612231335864,-121.8214886842259
"98272","Monroe","WA","Skykomish River Centennial Park","261 Sky River Pkwy","98272",47.8482,-121.979
"98272","Monroe","WA","Fryelands Neighborhood City Park","152nd St. SE","98272",47.86175079577557,-122.00510501861572
"98272","Monroe","WA","Currie View Park","17237-17327 154th St SE","98272",47.8571568172077,-121.99629360851858
"98272","Monroe","WA","Blueberry Children's Park","18399 Blueberry Lane","not_available",47.85805674886776,-121.98496327310288
"98272","Monroe","WA","Skykomish river boat launch- monroe","820 Village Way","98272",47.846771240234375,-121.97643280029297
"98273","Mount Vernon","WA","Hillcrest Park","13th St","98273",48.40896408785707,-122.32694520429133
"98273","Mount Vernon","WA","Mt. Vernon Roadside Park","not_available","98273",48.42600309183663,-122.33899273421689
"98273","Mount Vernon","WA","Pine Square","Pine St","98274",48.41813166996967,-122.33764558752158
"98273","Mount Vernon","WA","Tulip Town","15002 Bradshaw Rd","98273",48.42780804317857,-122.4243195114613
"98275","Mukilteo","WA","Mukilteo Lighthouse Park","601 Front St","98275",47.947811646499254,-122.30630272436304
"98275","Mukilteo","WA","Goat Trail Park","1404 Goat Trail Road","98275",47.93494413445175,-122.30207700174444
"98275","Mukilteo","WA","Barbara Brennen Dobro Memorial Park","802 Mukilteo Lane","98275",47.94797421269593,-122.30177492351096
"98275","Mukilteo","WA","92nd St Park","4700 92nd St SW","98275",47.923070125124475,-122.30482418122884
"98275","Mukilteo","WA","Totem Park","700 2nd Street","98275",47.94565368365971,-122.30721829815472
"98275","Mukilteo","WA","Centennial Park","1126 5th Street","98275",47.94660984095327,-122.29425279411701
"98275","Mukilteo","WA","Elliott Pointe Park","945 Goat Trail Loop Road","98275",47.93645095825195,-122.29759216308594
"98275","Mukilteo","WA","Mary Lou Morrow Park","1011 9th Street","98275",47.94142532348633,-122.294921875
"98277","Oak Harbor","WA","Flintstone Park","not_available","98277",48.28693739130182,-122.64751397907311
"98277","Oak Harbor","WA","Waterfront Trail","Windjammer Park","98277",48.29437755,-122.64167919
"98277","Oak Harbor","WA","NOPFWI Parking Lot","1280 W Intruder St","98278",48.340455293655396,-122.6849216222763
"98281","Point Roberts","WA","Lighthouse Marine Park","811 Marine Dr","98281",48.97340293580225,-123.08394763480125
"98281","Point Roberts","WA","Lily Point Park","APA Street","not_available",48.975940775620494,-123.0603137980225
"98282","Camano Island","WA","Cavalero Beach Park","1099 Simonson Pl","not_available",48.17026271130957,-122.48002416974235
"98284","Sedro Woolley","WA","Bingham City Park","301 Munro St","98284",48.50807101666667,-122.24524646666667
"98284","Sedro Woolley","WA","Gordon Carter Conservation Site","not_available","98284",48.670747,-122.287644
"98284","Sedro Woolley","WA","North Skagit Recreation Area","25749 Helmick Rd","98284",48.534358978271484,-122.1995849609375
"98284","Sedro Woolley","WA","Hammer Heritage Square","Corner of Metcalf & Ferry","98284",48.50555827765145,-122.2388613890685
"98290","Snohomish","WA","Lord Hill Regional Park","12921 150th St SE","98290",47.86132940618449,-122.05859928937981
"98290","Snohomish","WA","Bob Heirman Wildlfe Park At Thomas Eddy","14901-14913 Connelly Rd","98296",47.8605637,-122.09317865
"98296","Snohomish","WA","Unicorn Park","not_available","98290",47.919683,-122.091013
"98303","Anderson Island","WA","Ray Park","not_available","98303",47.15817006082942,-122.69965715394235
"98304","Ashford","WA","Ashford County Park","not_available","98304",46.760167,-122.03625
"98304","Ashford","WA","Washington State","Pierce Country,","not_available",46.87985,-121.72697
"98304","Ashford","WA","Paradise Picnic Area","not_available","98361",46.782108,-121.742557
"98304","Ashford","WA","Ex-Nihilo Sculpture Park","State Rte 706","98304",46.75621209655069,-122.1363201591781
"98305","Beaver","WA","Playground At Picnic Loop Park","not_available","98305",48.059848,-124.344617
"98310","Bremerton","WA","Lions Park","251 Lebo Blvd.","98310",47.58439921613708,-122.64110402493814
"98310","Bremerton","WA","Evergreen Park","799 Park Dr.","98337",47.574019242810316,-122.62882617559485
"98310","Bremerton","WA","Lower Roto Vista Park","1800 Elizabeth Ave.","98337",47.57688759875313,-122.63136863708496
"98310","Bremerton","WA","Kiwanis Park","1701 5th St","98337",47.566399,-122.640569
"98310","Bremerton","WA","East 9Th St Mini Park","not_available","98310",47.56851,-122.615
"98310","Bremerton","WA","Matan Park","not_available","98312",47.57701364600827,-122.64825156006164
"98310","Bremerton","WA","Lulu D. Haddon Park","1525 N Lafayette Ave","98312",47.575477600097656,-122.65686798095703
"98310","Bremerton","WA","Blueberry Park","737 Sylvan Way","98310",47.595573389883434,-122.63606210196164
"98310","Bremerton","WA","Forest Ridge Park","110 N. Summit Ave.","98312",47.563740085898246,-122.65758263308214
"98310","Bremerton","WA","Harborside Fountain Park","100 Washington Ave","98337",47.56231618232116,-122.6255896649355
"98310","Bremerton","WA","Bremerton Waterfront","100 2nd St.","98310",47.56296046006962,-122.62430906295776
"98310","Bremerton","WA","Smith Natural Play Park","801-899 13th St.","98337",47.57166713013964,-122.6308432831027
"98310","Bremerton","WA","Kiwanis Field","1726 4th St","98337",47.565991,-122.642427
"98310","Bremerton","WA","The Harborside Steps","Burwell St","98337",47.564842,-122.624306
"98310","Bremerton","WA","Bremerton Boardwalk","243 2nd St","98337",47.56399917602539,-122.62580108642578
"98310","Bremerton","WA","Bremerton Parks And Recreation","680","not_available",47.58580207124509,-122.62817578778741
"98310","Bremerton","WA","Bremerton Farmers Market","Evergreen Park","98337",47.574112005701025,-122.62989569684773
"98310","Bremerton","WA","~<Kiwanis Park>~ Under construction","not_available","98337",47.56673835825415,-122.64012037569714
"98311","Bremerton","WA","Old Mill Park","2901 NW Bucklin Hill Rd","98383",47.649833102050906,-122.68837634949385
"98311","Bremerton","WA","Park Place","2143 NE Eton Ln","98311",47.624064000000004,-122.622771
"98312","Bremerton","WA","Silverdale Waterfront Park","3337 NW Byron St","98383",47.64432037119559,-122.69471224976617
"98312","Bremerton","WA","Van Zee Park","300 Tremont St.","98366",47.52400207519531,-122.64452362060547
"98312","Bremerton","WA","twelve oaks park","park","98383",47.65558242566088,-122.71176785230637
"98312","Bremerton","WA","Otto jarsted Park","not_available","98367",47.505904998145645,-122.68102006944788
"98312","Bremerton","WA","Camp McKean","not_available","98311",47.571708,-122.709608
"98312","Bremerton","WA","NAD Park","6002 Kitsap Way","98312",47.57907667912393,-122.69428289701229
"98312","Bremerton","WA","Vanzee Park","Tremont St. W","98367",47.52845074940636,-122.65407964490313
"98315","Silverdale","WA","Climbing Rock Playground","Swordfish Ct","98315",47.69499884055427,-122.72970763788086
"98315","Silverdale","WA","Deterrent Park","not_available","98315",47.701221067688515,-122.69409698506564
"98325","Chimacum","WA","HJ Carrol Park","not_available","98325",48.0184899091537,-122.77548376449728
"98325","Chimacum","WA","H. J. Carroll Park","9884, SR 19","98325",48.01831824150589,-122.77595641548821
"98327","Dupont","WA","Hoffman Hill Neighborhood Park","not_available","98327",47.09110254666645,-122.67048793169309
"98327","Dupont","WA","Fort Lewis Dog Park","West Way","98433",47.09008201113559,-122.63025283813477
"98327","Dupont","WA","Old Dupont Park","505-507 Barksdale Ave","98327",47.0976258818564,-122.63955182728343
"98327","Dupont","WA","Clock Tower Village","1090 Ross Ave","98327",47.0927856,-122.6406625
"98328","Eatonville","WA","Northwest Trek Wildlife Park","11610 Trek Dr E","98328",46.91497276103691,-122.2764377660793
"98328","Eatonville","WA","Alder Lake","not_available","98328",46.79886775789584,-122.27122685207924
"98328","Eatonville","WA","Alder Lake Park","50324 School Rd","98328",46.799278122857054,-122.29769996897197
"98328","Eatonville","WA","Deschutes Falls Park","25005 Bald Hill Rd SE","98597",46.80531311035156,-122.41632080078125
"98329","Gig Harbor","WA","Sehmel Homestead Park","10123 78th Ave NW","98332",47.35000587024884,-122.63930807021336
"98329","Gig Harbor","WA","Gateway Park","not_available","98329",47.390007,-122.67678
"98331","Forks","WA","Olympic National Park Entrance","Upper Hoh Rd","98331",47.80894757094492,-124.25558104013653
"98331","Forks","WA","Tilicum Park","Tilicum Lane","98331",47.95470726346555,-124.38504027074299
"98332","Gig Harbor","WA","Crescent Lake County Trailhead","not_available","98332",47.388866,-122.56819
"98332","Gig Harbor","WA","Skansie Brothers Park","Harborview","98335",47.332236157083116,-122.58539992752453
"98332","Gig Harbor","WA","End-of-the-Road Park","Harborview Drive","98332",47.33222339626237,-122.5853876287959
"98332","Gig Harbor","WA","Wilkinson Farm City Park","4098-4118 Rosedale St NW","98332",47.33221751562135,-122.58539245102374
"98332","Gig Harbor","WA","Austin Estuary Park","not_available","98335",47.33696898914054,-122.59215451396443
"98333","Fox Island","WA","Nichols Community Center","not_available","98333",47.25390269078587,-122.6211342830563
"98333","Fox Island","WA","North Meadow","4870 Grandview Dr W","98467",47.2122402198532,-122.56950764748927
"98336","Glenoma","WA","Glenoma Park","not_available","98336",46.524807,-122.16854
"98338","Graham","WA","Frontier Park","21800 Meridian South","98338",47.05962849580618,-122.29621847666381
"98338","Graham","WA","Autumn Ridge Park","not_available","98387",47.08078695629031,-122.39431316854075
"98338","Graham","WA","Backyard Park","not_available","98338",47.08549,-122.295819
"98340","Hansville","WA","Foulweather Bluff Preserve","not_available","98340",47.92203448950775,-122.60178229469685
"98346","Kingston","WA","Village Green Community Park","10878 West Kingston Rd. NE","98346",47.799050656735794,-122.50322013722231
"98346","Kingston","WA","North Kitsap Heritage Park","Miller Bay Rd.","98346",47.78982351786275,-122.52381453951796
"98346","Kingston","WA","North Beach Park","not_available","98346",47.796395,-122.496066
"98346","Kingston","WA","Mike Wallace Memorial Park","Washington Blvd","not_available",47.79619659182442,-122.49722799929457
"98346","Kingston","WA","Kola Kole Park","11128 NE Maine St.","98346",47.79920688315945,-122.49921162867686
"98349","Lakebay","WA","Volunteer Park","5514 Key Peninsula Hwy N","98349",47.30882500676177,-122.7550436126272
"98349","Lakebay","WA","Home Park","not_available","98349",47.277478,-122.766872
"98354","Milton","WA","Milton Community Park Veterans Memorial","not_available","98354",47.24733352661133,-122.31529998779297
"98354","Milton","WA","Milton Community Park","47.24718	-122.31680","not_available",47.24706183681859,-122.31679916381835
"98356","Morton","WA","Jubilee Park","not_available","98356",46.55345509392307,-122.2708499941384
"98357","Neah Bay","WA","Lock Pick Village","not_available","98357",48.339799,-124.665513
"98359","Olalla","WA","Olalla Triangle Park","not_available","98359",47.433446,-122.572854
"98360","Orting","WA","Big Sky Park","not_available","98391",47.127632,-122.18627
"98360","Orting","WA","City Park","107 Calistoga St W","98360",47.09741403270665,-122.20413126227804
"98360","Orting","WA","Williams park","not_available","98360",47.11145931582783,-122.22412962528608
"98360","Orting","WA","Village Green Small Park","1105 Boatman Ave NW","98360",47.10966,-122.22546499999999
"98360","Orting","WA","Sunrise Basketball Court","not_available","98374",47.09911,-122.24327
"98361","Packwood","WA","Skate Creek Park","not_available","98377",46.618168,-121.69031
"98362","Port Angeles","WA","City Pier","222 N Lincoln St","98362",48.12026351795731,-123.42904881330985
"98362","Port Angeles","WA","Francis Street Park","317 N Francis St","98362",48.115994,-123.418343
"98362","Port Angeles","WA","Quinn Redlin Kinter Memorial Park","not_available","98362",48.113728,-123.415375
"98362","Port Angeles","WA","Shane Park","1300 - 1340 W 8th St","98363",48.12385765112606,-123.463675500826
"98362","Port Angeles","WA","Elks Memorial Park","526 W 14th St","98362",48.111324310302734,-123.45329284667969
"98362","Port Angeles","WA","Veterans Memorial Park","217 S. Lincoln St.","98362",48.116657631101994,-123.43264102935791
"98362","Port Angeles","WA","Volunteer Park","not_available","98363",48.117836,-123.48153
"98362","Port Angeles","WA","Erickson Park","298-300 S Race St","98362",48.1117191605625,-123.42168059464488
"98362","Port Angeles","WA","Eleven Eleven dental","1111 Columbia St","98362",48.11489856886604,-123.41166423386473
"98363","Port Angeles","WA","Harbor View Park","Ediz Hook Rd","98363",48.141848,-123.42949938333334
"98366","Port Orchard","WA","South Kitsap Community Park","3200 SE Lund Ave.","98366",47.52337694553469,-122.61239734065597
"98366","Port Orchard","WA","Veterans Memorial Park","985 Retsil Rd. SE","98366",47.53872272288166,-122.61805919766452
"98366","Port Orchard","WA","Pomeroy Park","9003 E Main St.","98366",47.55575942993164,-122.54373931884766
"98366","Port Orchard","WA","Train Park","3000-3198 SE Marbeth Ln.","98366",47.52296558982097,-122.6116507283287
"98366","Port Orchard","WA","Mary Ann Huntington Children's Park","not_available","98366",47.541843595343444,-122.63535444962942
"98370","Poulsbo","WA","Frank Raab Municipal Park","Park Pl","98370",47.72890741467509,-122.62886340852498
"98370","Poulsbo","WA","Trident Park","not_available","98383",47.70126537516512,-122.68643358777449
"98370","Poulsbo","WA","Nelson Park","217 NW Lindvig Way","98370",47.74621251666667,-122.65412245
"98370","Poulsbo","WA","Poulsbo Fish Park","228 NW Lindvig Way","98370",47.74749209680811,-122.65313226836015
"98370","Poulsbo","WA","American Legion Park","not_available","98370",47.7383746460576,-122.64977500285167
"98370","Poulsbo","WA","Poulsbo Park","20180 Viking Ave NW","98370",47.746134000000005,-122.65478200000001
"98370","Poulsbo","WA","Suquamish Pathway Park","not_available","98392",47.73482909920253,-122.56267336836278
"98371","Puyallup","WA","Pioneer Park","330 S Meridian","98371",47.18949373320283,-122.29439735412598
"98371","Puyallup","WA","Sam Peach Park","not_available","98371",47.199390497708926,-122.31764483408419
"98371","Puyallup","WA","South Sound RV Park","7910 River Rd E","98371",47.207315,-122.323769
"98371","Puyallup","WA","Warm Memorial Park","3rd st se","not_available",47.178969,-122.294049
"98371","Puyallup","WA","Saddle Creek Dog Park","39th St E","98424",47.2215501189796,-122.34630346298219
"98371","Puyallup","WA","DeCoursey Park","not_available","98372",47.184868385199614,-122.32342692210925
"98371","Puyallup","WA","5 Acre Park","not_available","98424",47.226494,-122.34584
"98371","Puyallup","WA","Dacca Park","2820 54th Ave E","98424",47.231263,-122.357452
"98371","Puyallup","WA","Clark's Creek Park","1700 12th Avenue Southwest","98371",47.18045887846835,-122.31353416477097
"98372","Puyallup","WA","Bradley Lake Park","531 31st Ave SE","98374",47.16237349394483,-122.2863710246462
"98372","Puyallup","WA","Edgemont Park","1101 24th St E","98372",47.23521811773127,-122.2822093963623
"98372","Puyallup","WA","Loyalty Park","1400-1480 Park St","98390",47.199484105765606,-122.2377562090679
"98372","Puyallup","WA","Pierce County Foothill Trails","13407 80th St. E.","98372",47.18520736694336,-122.25043487548828
"98372","Puyallup","WA","Wildwood Park","501 10th St SE","98372",47.18816375732422,-122.28111267089844
"98372","Puyallup","WA","Heritage Park","914 Kincaid Ave","98390",47.20308836589088,-122.24199589008937
"98373","Puyallup","WA","Woodland Avenue Passive Recreation Area","Woodland Ave E","not_available",47.150292,-122.335576
"98373","Puyallup","WA","Half Dollar Park","not_available","98373",47.146833,-122.304643
"98373","Puyallup","WA","South Hill Community Park","86th Ave. E & 144th St. E","98375",47.1261271818199,-122.31461165620766
"98375","Puyallup","WA","Meridian Habitat center","14422 Meridian E","98375",47.124149322509766,-122.29558563232422
"98375","Puyallup","WA","Moonlight Pond Tour","16309 74th Ave E","98375",47.10794448852539,-122.32940673828125
"98376","Quilcene","WA","Indian George Creek Estuarine Restoration Site","1000 Linger Longer Rd","98376",47.81137466430664,-122.8719482421875
"98382","Sequim","WA","Dungeness River Audubon Center","not_available","98382",48.08537011493269,-123.14650847749253
"98387","Spanaway","WA","Spanaway Park","14905 Gus G. Bresemann Rd. S.","98387",47.11988180195964,-122.44510077583698
"98387","Spanaway","WA","Fantasy Lights at Spanaway Park","1000-1052 Military Rd S","98444",47.120866329793884,-122.44522681671455
"98387","Spanaway","WA","Wakadoo Park","not_available","98446",47.0957438885739,-122.37902424175577
"98387","Spanaway","WA","Bresemann Forest","1000 Military Road S","98387",47.12268309501053,-122.44526287416544
"98387","Spanaway","WA","private park Ridge At Southwood","not_available","98445",47.076059297796824,-122.40503737695877
"98388","Steilacoom","WA","Chambers Bay Beach Park","not_available","98467",47.20189297403543,-122.57781777196948
"98388","Steilacoom","WA","Central Meadow","6320 Grandview Dr W","98467",47.20184028183987,-122.57785218693577
"98388","Steilacoom","WA","Farrell's Marsh","not_available","98388",47.1647,-122.5961
"98388","Steilacoom","WA","Washington Park","Military Sw Rd","not_available",47.152564915826936,-122.57723895787926
"98388","Steilacoom","WA","Sunnyside Beach Park","2509 Chambers Creek Rd","98388",47.177267468751026,-122.5899988620467
"98391","Bonney Lake","WA","Allan Yorke Park","7203 W Tapps Hwy. E","98391",47.19119655960412,-122.16608202149263
"98391","Bonney Lake","WA","Jenks Park","Park Rd","98391",47.20882222316695,-122.17591628507773
"98391","Bonney Lake","WA","Viking Park","18902 E 82nd St E","98391",47.18275,-122.176999
"98391","Bonney Lake","WA","Allan York Park Trail","195th ave ct e","98391",47.18760106684019,-122.1665973780123
"98402","Tacoma","WA","Thea's Park","405 Dock St.","98402",47.26118219229378,-122.4397296329666
"98402","Tacoma","WA","Fireman's Park","A St","not_available",47.25588843577199,-122.43786002060311
"98402","Tacoma","WA","Fountain on Broadway","1101 Broadway","98402",47.25307083129883,-122.43972778320312
"98402","Tacoma","WA","Ben Gilbert Park","St Helens","not_available",47.25874271465145,-122.44537353515625
"98402","Tacoma","WA","Norton Memorial Park","S 1st St","not_available",47.26330853884063,-122.44680874263715
"98402","Tacoma","WA","Tacoma Park","Tacoma Ave","98433",47.25308074293384,-122.44377560351963
"98402","Tacoma","WA","Broadway Plaza","1130 Broadway","98402",47.251646,-122.440525
"98402","Tacoma","WA","Thea Foss Waterway","Dock St","98402",47.24714470736389,-122.43455667326494
"98402","Tacoma","WA","Theater Square","Broadway","not_available",47.25400586122769,-122.4400144815445
"98402","Tacoma","WA","Harborview Park","900-1000 S Fawcett Ave S","98402",47.25381288281262,-122.44280934333801
"98402","Tacoma","WA","George H. Weyerhaeuser Jr. Park","not_available","98421",47.242841,-122.433104
"98402","Tacoma","WA","509 Bridge Park","Dock St","not_available",47.244034956219764,-122.43447607655794
"98402","Tacoma","WA","McCormick Park","900-1000 Court E","98402",47.253765548377004,-122.44355231523514
"98402","Tacoma","WA","Frost Park","S 9th St","98402",47.25530896106244,-122.4395182035862
"98402","Tacoma","WA","Donald A Pugnetti Park","Pacific Ave and 21st","not_available",47.24401248019328,-122.4345558416762
"98403","Tacoma","WA","Wright Park","501 S I St","98405",47.258466790278334,-122.44946084984169
"98403","Tacoma","WA","Peoples Park","Martin Luther King Jr Way","98405",47.25504004469462,-122.45184612155333
"98403","Tacoma","WA","Chinese Reconciliation Park","1741 N Schuster Pkwy.","98402",47.275003919587384,-122.46085486627253
"98403","Tacoma","WA","Jack Hyde Park","2000 Ruston Way","not_available",47.27546785261948,-122.46374988342039
"98403","Tacoma","WA","Wright Park Duck Pond","Tacoma, WA 98405","98405",47.25908494590984,-122.44987964630128
"98403","Tacoma","WA","Carr Park","N. 30th","not_available",47.27465534898464,-122.46799940547616
"98403","Tacoma","WA","Neighbor's Park","8th Street","98405",47.25504208123327,-122.45184312068208
"98403","Tacoma","WA","Old Town Park","2350 N 30th St","98403",47.2745246887207,-122.46875762939453
"98403","Tacoma","WA","Gateway Park","not_available","98403",47.274890806701215,-122.46367335080639
"98404","Tacoma","WA","Blueberry Park","7402 E. D St.","98404",47.19019215758007,-122.42654550982874
"98404","Tacoma","WA","McKinley Park","McKinley Way","not_available",47.23428041360261,-122.42160344446748
"98404","Tacoma","WA","Stewart Heights Park","402 E 56th St","98404",47.20428452699201,-122.42544306850569
"98404","Tacoma","WA","Roosevelt Park","3604 E Roosevelt Ave","98404",47.226178000000004,-122.399125
"98404","Tacoma","WA","Portland Avenue Park","3513 E Portland Ave","98404",47.228038585926086,-122.40303784667225
"98405","Tacoma","WA","Sheridan Park","2347 S Sheridan Ave","98405",47.237620745481046,-122.45249194708285
"98405","Tacoma","WA","Jefferson Park","4115 N 9th St","98406",47.2574637030812,-122.49267319672214
"98405","Tacoma","WA","DeLong Park","4702 S 12th St","98405",47.251777916435785,-122.49699534497461
"98405","Tacoma","WA","Reshaping Once-Upon-A-Time","not_available","98405",47.243267120473355,-122.47001776459899
"98405","Tacoma","WA","Tacoma Nature Center","1919 S Tyler St","98405",47.242203,-122.49318000000001
"98405","Tacoma","WA","Franklin Park","1201 S Puget Sound Ave","98405",47.248098,-122.481609
"98405","Tacoma","WA","Irving Park","1902 S 25th St.","not_available",47.23603439331055,-122.46250915527344
"98406","Tacoma","WA","Kandle Park","not_available","98406",47.27017084816958,-122.50859609840184
"98406","Tacoma","WA","Titlow Park","8425 6th Ave","98465",47.248144894123406,-122.54994187562025
"98406","Tacoma","WA","War Memorial Park","624 N Meyers St","98406",47.256235732080704,-122.53388061197626
"98406","Tacoma","WA","Minnitti Park","not_available","98465",47.24835647482021,-122.51769803053136
"98406","Tacoma","WA","Puget Park","3101 N Proctor St","98407",47.2762851439124,-122.48860863251004
"98406","Tacoma","WA","Kandle Playfield","5232-5362 N 26th St","98407",47.270017770551256,-122.50883364795762
"98406","Tacoma","WA","grasshopper hill","not_available","98407",47.271192618557365,-122.49949284057423
"98406","Tacoma","WA","Ursich Park","N 29th St","98407",47.27454181666667,-122.48346971666666
"98407","Tacoma","WA","Point Defiance Park","5400 N Pearl St","98407",47.304360886358964,-122.51691273441854
"98407","Tacoma","WA","Dune Peninsula Park","5361 Yacht Club Rd","98407",47.304179,-122.508494
"98407","Tacoma","WA","Owen Beach","Point Defiance Park","98407",47.31299100112403,-122.52866193486338
"98407","Tacoma","WA","Jane Clark Park","4825 N 39th St","98407",47.28502031036742,-122.50259999475706
"98407","Tacoma","WA","Marine Park","3427 Ruston Way","98402",47.283477783203125,-122.48272705078125
"98407","Tacoma","WA","Vassault Park","6100 N 37th St","98407",47.28074295505489,-122.51890897750854
"98407","Tacoma","WA","Point Defiance Duck Pond","5910 N Waterfront Dr","98407",47.30314758272715,-122.51689917664312
"98407","Tacoma","WA","Rocky Shores Cafe","Point Defiance Zoo","98407",47.30670621329138,-122.52011351955926
"98407","Tacoma","WA","Cummimgs Park","4101-4303 Ruston Way","98402",47.28705317623463,-122.4884672045467
"98408","Tacoma","WA","Fern Hill Park","458 S 88th St","not_available",47.1811965015254,-122.44200411233123
"98408","Tacoma","WA","Wapato Park","6500 S Sheridan Ave","98408",47.194095559234036,-122.45468966785481
"98408","Tacoma","WA","Wapato Lake","not_available","98408",47.19267355899667,-122.45509975795707
"98408","Tacoma","WA","54","not_available","98409",47.20624585,-122.44398983333333
"98408","Tacoma","WA","alice peers park","Regents","98466",47.20336908385506,-122.46298439824989
"98409","Tacoma","WA","Lincoln-Eldridge Park","not_available","98418",47.22359756137218,-122.44806185529002
"98409","Tacoma","WA","Wapato Hills Park","6231 S Wapato St","98409",47.199977000000004,-122.46803899999999
"98409","Tacoma","WA","STAR Center","3873 S 66th St","98409",47.19829170964187,-122.48862778582094
"98409","Tacoma","WA","South Park","4851 South Tacoma Way","98409",47.2039975149078,-122.48202096006439
"98422","Tacoma","WA","Dash Point Park & Pier","1500 Beach Dr NE","98422",47.319122,-122.42679
"98422","Tacoma","WA","This Place And That Place","503 Mana Wana Pl NE","98422",47.30158996582031,-122.4396743774414
"98430","Camp Murray","WA","Shoreline Park","Shoreline Beach Rd.","98433",47.114595152520245,-122.58134781014823
"98430","Camp Murray","WA","Shoreline Park","American Lake","98433",47.114973760744576,-122.58111156350478
"98433","Tacoma","WA","American Lake","American Lake","98498",47.12884856102574,-122.56456017494202
"98433","Tacoma","WA","Splash Park","not_available","98433",47.0869439423173,-122.591930421354
"98433","Tacoma","WA","Harry Todd Park","not_available","98498",47.12743033880176,-122.55571768072576
"98433","Tacoma","WA","Springbrook Park","not_available","98499",47.1417773327389,-122.5008674825185
"98433","Tacoma","WA","Memorial Park","S Division St","98433",47.082571,-122.605055
"98433","Tacoma","WA","Sycamore Ln  Park","Sycamore Ln","not_available",47.10850395,-122.54825683333334
"98433","Tacoma","WA","Garcia Blvd Park","Garcia Blvd","98433",47.10106618306112,-122.58133674543245
"98444","Tacoma","WA","Firwood Village RV Parks","901 136th Street","98444",47.132921,-122.44772
"98444","Tacoma","WA","Trinity Park","not_available","98444",47.146957,-122.43781
"98445","Tacoma","WA","Dawson Playfield","1605 - 90th St E","98445",47.176205028199014,-122.4065541551783
"98445","Tacoma","WA","Mayfair County Park","1200-1300 136th St","98445",47.1336142404654,-122.4109153283036
"98465","Tacoma","WA","China Lake Nature Area","1811 S Shirley St","98465",47.245277404785156,-122.50934600830078
"98466","Tacoma","WA","Fircrest Parks and Recreation","555 Contra Costa Ave","98466",47.23454284667969,-122.511962890625
"98466","Tacoma","WA","Sunset Terrace Park","1902 Seaview St","not_available",47.24245467582015,-122.53384908593074
"98466","Tacoma","WA","University Place Veteran's Memorial","Bridgeport Way W","98467",47.212884669660234,-122.53714933991432
"98466","Tacoma","WA","Adriana Hess Wetland Park","2917 Morrison Rd W","98466",47.232842,-122.533923
"98466","Tacoma","WA","Homestead Park","3761 Bridgeport Way W","not_available",47.22310256958008,-122.53612518310547
"98466","Tacoma","WA","Fircrest Park","471 Electron Way","98466",47.23430135290844,-122.51153851270286
"98466","Tacoma","WA","Colgate Park","3717 Grandview Dr W","98466",47.223946999999995,-122.55169599999999
"98466","Tacoma","WA","Curran Apple Orchard","3920 Grandview Dr W","98466",47.2210983445685,-122.56118059158325
"98467","University Place","WA","Oakbrook 7th Addition Park","9701 Onyx Drive SW","98498",47.1882438659668,-122.56495666503906
"98467","University Place","WA","Leach Creek East Park","Cirque Dr W","98467",47.204998936037626,-122.51233685132217
"98498","Lakewood","WA","Ft. Steilacoom Park","8724-8862 Steilacoom Blvd SW","98498",47.17543027721429,-122.56017476695406
"98498","Lakewood","WA","JugglingJuggersJugs","Into Your Heart","98498",47.160546,-122.554209
"98498","Lakewood","WA","Drpg7","Toxic Dump Zone Off Limits","98498",47.160424,-122.554321
"98498","Lakewood","WA","AintReal","Dumb Dumb Ave","98498",47.160635,-122.554309
"98498","Lakewood","WA","Fprgz9","Destroyed By Landfill","98498",47.160483,-122.554132
"98498","Lakewood","WA","Bntrz21","Still Ain't Real.","98498",47.160574,-122.55441
"98499","Lakewood","WA","Kiwanis Park","Fairlawn DR SW","98499",47.17513774493738,-122.51612501324921
"98499","Lakewood","WA","Lakewood Active Park","10506 Russell Road SW","98499",47.16192626953125,-122.50862884521484
"98501","Olympia","WA","Watershed Park","2500 Henderson Blvd SE","98501",47.02855739922172,-122.8891907225498
"98501","Olympia","WA","Percival Landing Park","217 Thurston Ave. NW","98501",47.04675375991203,-122.90411134330407
"98501","Olympia","WA","Wonderwood Park","5304 32nd Ave SE","not_available",47.01794568609092,-122.81811405778444
"98501","Olympia","WA","Lions Park","800 Wilson St SE","not_available",47.042551,-122.87244299999999
"98501","Olympia","WA","Rainier Vista Community Park","45th Ave SE","98503",47.00541878871797,-122.8122938621964
"98501","Olympia","WA","Capitol Lake","not_available","98501",47.03429219291364,-122.91439862559442
"98501","Olympia","WA","Tumwater Historical Park","411 Cleveland Ave SE","98501",47.020628388506736,-122.90370574935075
"98501","Olympia","WA","Marathon Park","Deschutes Pkwy SW","98502",47.034313951620234,-122.91438950279785
"98501","Olympia","WA","Heritage Park","5th Ave SW","98501",47.043545114336425,-122.90445776074876
"98501","Olympia","WA","Overlook Park","1205 Barnes Blvd.","98512",47.01538253817953,-122.91722070764523
"98501","Olympia","WA","Port Plaza","700 Capitol Way N","98501",47.05051709071026,-122.90463769741035
"98501","Olympia","WA","Pioneer Park","5749 Henderson Blvd SE","98501",46.996668080711544,-122.88398286429775
"98501","Olympia","WA","East Bay Park","East bay DR","98506",47.047628459569864,-122.89328227319763
"98501","Olympia","WA","William A. Bush Park","not_available","98513",46.994061513643885,-122.83218642251482
"98501","Olympia","WA","Harry Fains Leigon Park","1115 20th Ave SE","98501",47.03133424767296,-122.88607125142224
"98501","Olympia","WA","West Bay Park","700 West Bay Dr. NW","98502",47.05228290039964,-122.91266546015741
"98501","Olympia","WA","woodland square loop","not_available","98503",47.04211085283573,-122.82546083278137
"98501","Olympia","WA","Decatur Woods Park","SW Decatur St","98502",47.03887158036597,-122.92362850192707
"98501","Olympia","WA","Trillium Park","Trillium Park","98501",47.02259870117412,-122.88810803125214
"98501","Olympia","WA","LBA City of Olympia Park","3333 Morse-Merryman Road SE","98501",47.01566822053475,-122.85392761230469
"98501","Olympia","WA","Woodruff Park","1500 Harrison Avenue NW","98502",47.04615198366502,-122.92052388567298
"98501","Olympia","WA","McGrath Woods Park","2300 Cain Rd SE","98501",47.02775573730469,-122.87244415283203
"98501","Olympia","WA","Smoky Mountains","45th","98503",47.005756,-122.820776
"98501","Olympia","WA","Tumwater Falls Park","110 Deschutes Way SW","98501",47.014457464519666,-122.90487846180521
"98502","Olympia","WA","Yauger Park","530 Alta Street SW","98502",47.04263503682381,-122.94258914705678
"98502","Olympia","WA","Frye Cove Park","4000 NW 61st Ave","98502",47.116331835794114,-122.96571799100542
"98502","Olympia","WA","Burri Park","not_available","98502",47.06494148451685,-122.93001695494281
"98502","Olympia","WA","Ballfield Park","not_available","98512",47.034023,-122.945778
"98502","Olympia","WA","Rotary International Park","813 West Bay Dr NW","98502",47.05256271362305,-122.91356658935547
"98502","Olympia","WA","Rustic Hut","not_available","98505",47.074752,-122.973097
"98502","Olympia","WA","Evergreen Park","Evergreen Park Drive","not_available",47.03429017155588,-122.91440049485583
"98503","Lacey","WA","Woodland Creek Community Park","6729 Pacific Ave SE","98503",47.03670765979511,-122.79280433479744
"98503","Lacey","WA","Thurston County Fairgrounds","3054 Carpenter Rd SE","98503",47.018615367870815,-122.77803455071059
"98503","Lacey","WA","Scatter Creek Wlidlife Recreation Area","183rd SW","98579",47.04752308742972,-122.79675169876681
"98503","Lacey","WA","Brooks Park","1324 College St","98503",47.035117,-122.825248
"98503","Lacey","WA","Dream Team Park","409 Marvin Rd SE","98513",47.04901983280778,-122.76544022232653
"98503","Lacey","WA","Thomas W. Huntamer Park","618 Woodland Square Loop SE","98503",47.040974902615375,-122.82702543533111
"98503","Lacey","WA","Wedgewood Park","7045 41st Ave SE","98503",47.00991439819336,-122.78642272949219
"98503","Lacey","WA","Tanglewilde Pool And Park","Ranger Dr.","98503",47.0495332468941,-122.78445390462575
"98503","Lacey","WA","Long Lake Park","2790 Carpenter Rd","98503",47.018627194837144,-122.77806252635563
"98503","Lacey","WA","College Regional Storm Facility","4801-4939 6th Ave SE","98503",47.04327906666666,-122.8179153
"98503","Lacey","WA","Avonlea Park","ingleside Dr Se","98503",47.008148,-122.831818
"98506","Olympia","WA","Priest Point Park","2600 E Bay Dr NE","98506",47.0696836275877,-122.89559085418936
"98506","Olympia","WA","Burfoot Park","boston harbor rd","98506",47.13228196526651,-122.90169422761329
"98506","Olympia","WA","Future Olympia Park","3000 8th Ave NE","98506",47.051579,-122.85764499999999
"98506","Olympia","WA","Madison Scenic Park","825 McCormick St SE","98501",47.041878999999994,-122.87943
"98506","Olympia","WA","Sylvester Park","Capitol Way and Legion","98501",47.0428325136432,-122.90072679519653
"98506","Olympia","WA","Bigelow Park","1220 Bigelow Ave NE","98506",47.05048751831055,-122.8852767944336
"98512","Olympia","WA","Capitol State Forest","capitol state forest","not_available",46.972317154658036,-123.17429065704346
"98512","Olympia","WA","Capital Soccer Fields","2832 SW 93rd Ave","98502",46.9594508916383,-122.94338945358135
"98513","Olympia","WA","City Of Lacey Park","not_available","98516",47.06722967420869,-122.76299078964543
"98516","Olympia","WA","Meridian Neighborhood Park","Campus Park Dr NE","98516",47.08365710944792,-122.75194043372728
"98520","Aberdeen","WA","Westport Observation Tower","West haven","98595",46.911594710491926,-124.11748607616379
"98520","Aberdeen","WA","Sunshine Park","not_available","98550",46.987358,-123.882203
"98520","Aberdeen","WA","Makarenko Park","Stanford Dr.","98520",46.94909881663014,-123.78677486168966
"98520","Aberdeen","WA","lions club park",".","98550",46.98273370404307,-123.90605695400716
"98520","Aberdeen","WA","Pioneer Park","214 S Tilden St","98520",46.96775817871094,-123.79210662841797
"98520","Aberdeen","WA","West End Playfield","2498 West Second Street","98520",46.9715557819961,-123.84767532348633
"98520","Aberdeen","WA","Finch Playfield","Sumner Ave at N Alder St","98520",46.97682660127081,-123.8307237625122
"98520","Aberdeen","WA","North End Playfield","not_available","98520",46.986509,-123.80589
"98520","Aberdeen","WA","Sam Benn Memorial Park","300 Hanna Ave","98520",46.98316676056332,-123.82112995043238
"98520","Aberdeen","WA","Riverfront Park","aberdeen","not_available",46.97685588214904,-123.80499601364136
"98520","Aberdeen","WA","Westport City Park","not_available","98595",46.894801,-124.10567
"98520","Aberdeen","WA","Mill Creek Park","100-199 C St.","98537",46.95057,-123.77287
"98520","Aberdeen","WA","Outside","Cosmopolis","98537",46.95540138752462,-123.77422077945104
"98531","Centralia","WA","Schaefer Park","Big Hanaford Road","98531",46.75344649015559,-122.93741941452026
"98531","Centralia","WA","Riverside Park","313 Lowe St","98531",46.7252197265625,-122.97191619873047
"98531","Centralia","WA","Borst Park","2030 Borst Ave","98531",46.72387574049831,-122.97996443018855
"98531","Centralia","WA","Brick Wagner Park","not_available","98531",46.71706283493222,-122.97237615148538
"98532","Chehalis","WA","The Egg","Fir St","98596",46.49651678732753,-122.94728489799843
"98532","Chehalis","WA","Magnet Shaddock Park","not_available","98532",46.57870335561599,-122.90719963095104
"98532","Chehalis","WA","Stan Hedwall Park","3-57 Stan Hedwall Loop","98532",46.64338442682148,-122.96340984810003
"98532","Chehalis","WA","Carlisle Lake Park","Alexander Road","98570",46.577403526358076,-122.72554636001585
"98532","Chehalis","WA","V.R. Lee Community Building","221 SW 13th Street","98532",46.6520867719527,-122.95654144615574
"98533","Cinebar","WA","Mayfield Lake Park","180 Beach Rd","98564",46.53876876831055,-122.56046295166016
"98535","Copalis Beach","WA","K/M Resorts - Ocean Mist Resort","2781 WA-109","98569",47.0837684,-124.16827359
"98541","Elma","WA","vance creek pond 2","not_available","98541",47.0040386744753,-123.3958306990982
"98541","Elma","WA","K/M Resorts - Travel Inn Resort","801 E Main Street","98541",47.00867014,-123.38556204
"98541","Elma","WA","Beerbower Park","1-149 N Summit Rd.","98557",47.055693618579724,-123.26466030150942
"98548","Hoodsport","WA","Port Of Hoodsport Park","not_available","98548",47.40481226700577,-123.14199405473686
"98548","Hoodsport","WA","Lake Cushman","N Lake Cushman Rd","USA",47.4558805557291,-123.21627115934653
"98548","Hoodsport","WA","Rendisland Park","not_available","98588",47.3871,-123.112436
"98550","Hoquiam","WA","Pacific Park","not_available","98569",46.985418,-124.164146
"98550","Hoquiam","WA","Bill Ellis Memorial Park","Mount Olympus","98569",46.963609,-124.143626
"98550","Hoquiam","WA","K/M Resorts - Ocean Breeze Resort","2428 WA-109","98569",47.05477661,-124.16233025
"98563","Montesano","WA","Fleet Park","201-299 E Marcy Ave","98563",46.97964142898232,-123.6018209247609
"98568","Oakville","WA","Oakville City Park","State St","98568",46.840044,-123.232711
"98576","Rainier","WA","Cochrane Memorial Park","750 Mill Rd","98597",46.93722594511881,-122.61079178995168
"98576","Rainier","WA","Wilkowski Park","Rochester ST E","98576",46.89199672613497,-122.68570185272195
"98577","Raymond","WA","5th Steet Park","not_available","98577",46.687151,-123.73121
"98580","Roy","WA","Longmire Park","16820 Canal Rd SE","98597",46.947158,-122.58510600000001
"98580","Roy","WA","Mckenna Park","not_available","98580",46.96313957396998,-122.52642419826067
"98580","Roy","WA","Yelm City Park","not_available","98597",46.94024365412489,-122.60810538583509
"98584","Shelton","WA","Kneeland Park","not_available","98584",47.208405025101996,-123.10197718519915
"98584","Shelton","WA","Robin Hood Village Resort Dock","not_available","98592",47.34852,-123.073773
"98589","Tenino","WA","Tenino City Park","309 Park Ave","98589",46.855954828699,-122.85154010808341
"98591","Toledo","WA","South County Park","212 Ray Road","98591",46.43231201171875,-122.84544372558594
"98591","Toledo","WA","RiversEdge RV Park","162 Cowlitz Loop","98591",46.415828704833984,-122.88972473144531
"98593","Vader","WA","J. K. Werden Memorial Park","520 A Street","98593",46.403475,-122.960826
"98604","Battle Ground","WA","Daybreak Park","not_available","98604",45.813577699192436,-122.58875784752287
"98604","Battle Ground","WA","Lucia Falls County Park","21401-21653 NE Lucia Falls Rd","98675",45.8404797596187,-122.44829812588732
"98604","Battle Ground","WA","Lewisville Park","26411 NE Lewisville Hwy","98604",45.814149,-122.54625
"98604","Battle Ground","WA","Lucia Falls Regional Park","not_available","98675",45.839773,-122.450067
"98604","Battle Ground","WA","Salmon-Morgan Creek Nature Park","not_available","98606",45.755747,-122.507149
"98604","Battle Ground","WA","Allie Park","7702 NE 219th Street","not_available",45.780555725097656,-122.59481811523438
"98604","Battle Ground","WA","Cherry Neighborhood Park","101st Street","98682",45.731047936035594,-122.52341791909978
"98604","Battle Ground","WA","Alderbrook Park","24414 NE Westerholm Rd","98606",45.754877,-122.418868
"98605","Bingen","WA","Hood River Waterfront Park","Portway Ave","97031",45.71543157785811,-121.51858448982239
"98605","Bingen","WA","Hood River Marina","Marina Way","97031",45.71247206441977,-121.50565677541398
"98605","Bingen","WA","Jackson Park","May St","97031",45.70383384498269,-121.52611407547975
"98605","Bingen","WA","Culbertson Park","6th St","97031",45.695265801805185,-121.51600415557375
"98605","Bingen","WA","Rheingarten Park","Main St","98672",45.729309879936466,-121.48693146095006
"98605","Bingen","WA","Hazelview Park","not_available","97031",45.697581,-121.534483
"98605","Bingen","WA","Waucoma Park","Oak St","not_available",45.70813399984238,-121.52473574505379
"98605","Bingen","WA","Bingen Skate Park","not_available","98605",45.717119538116165,-121.47019633140224
"98605","Bingen","WA","Hollenbeck Park","not_available","98672",45.727885006053974,-121.51609932397318
"98605","Bingen","WA","Gaddis Park","Spring st","98605",45.73464298380262,-121.47758960723877
"98605","Bingen","WA","Library Lawn","Oak St","97031",45.70867043783553,-121.51570916175842
"98605","Bingen","WA","Ruthton Park","Westcliff Dr","97031",45.708919193261266,-121.56267499207515
"98605","Bingen","WA","White Salmon Pioneer Cemetery","NE Tohomist Streen","not_available",45.72764825036127,-121.48146271705627
"98605","Bingen","WA","Tsuruta Park","13th","97031",45.708374,-121.524859
"98605","Bingen","WA","Mann Park","Eugene St","97031",45.70670000157337,-121.53462946414948
"98605","Bingen","WA","Spring Creek National Fish Hatchery","not_available","98651",45.72818859359071,-121.54368392734635
"98606","Brush Prairie","WA","Prairie View Splash Park","not_available","98682",45.693319,-122.542851
"98606","Brush Prairie","WA","Hockinson Meadows Park","10209 NE 172 Ave","98682",45.70084202599586,-122.50386239391965
"98606","Brush Prairie","WA","Orchard Highlands Neighborhood Park","93rd St. & 112th Ave","not_available",45.69176366463851,-122.56429245838117
"98607","Camas","WA","Lacamas Park","not_available","98607",45.603669,-122.406553
"98607","Camas","WA","Lacamas Heritage Park","341 NW Lake Rd","98607",45.60505786666667,-122.41115431
"98607","Camas","WA","Fisher Basin Park","601 SE 192nd Ave","98683",45.61604962925546,-122.47319848601177
"98607","Camas","WA","Oak Tree Park","Lookout Ridge Drive","98672",45.59482799260019,-122.37679903844895
"98607","Camas","WA","Grass Valley Park","2949 NW 38th Ave","98607",45.60790179811194,-122.44209379556739
"98607","Camas","WA","Ash Creek Park","2010 NW Maryland St","98607",45.594417572021484,-122.44782257080078
"98607","Camas","WA","Steamboat Landing Park","not_available","98671",45.5762759878096,-122.35467554713803
"98607","Camas","WA","Louis Bloch Babe Ruth Park","www.cwbaberuth.com","98607",45.58779725901677,-122.39669206433003
"98607","Camas","WA","Oak Park","SE 8th Ave.","98607",45.58253014268363,-122.4247555584668
"98607","Camas","WA","Camp Bonneville","23201 NE Pluss Road","98682",45.68693923950195,-122.42402648925781
"98607","Camas","WA","Dorothy Fox Park","NW Sierra St","98607",45.59656375995159,-122.43022441864014
"98607","Camas","WA","Hathaway Park","799 25th St","98671",45.583297,-122.344462
"98610","Carson","WA","Sailboard Park","not_available","98648",45.694571,-121.87799
"98610","Carson","WA","Historic Columbia River Highway State Trail","Wa Na Pa","not_available",45.66225658201207,-121.89836079927383
"98610","Carson","WA","Train Appreciation Park","not_available","97014",45.679101,-121.862985
"98611","Castle Rock","WA","Lions Park","not_available","98611",46.26564451666667,-122.90221531666667
"98611","Castle Rock","WA","Harry Gardner Park","not_available","98649",46.324999,-122.707845
"98612","Cathlamet","WA","Puget Island","not_available","98612",46.20231246948242,-123.38581848144531
"98613","Centerville","WA","WWII Memorial Park","E Collins","98620",45.8193489083863,-120.82059860229492
"98613","Centerville","WA","Ekone Park","not_available","98620",45.682740368385495,-120.81943968761802
"98613","Centerville","WA","Eddieville Motorsports Park","10 Stringstreet","98613",45.7368598993514,-120.825299110251
"98613","Centerville","WA","Grass Valley Pavillon","not_available","98613",45.71043014526367,-120.816162109375
"98613","Centerville","WA","Dalles Mountain Ranch","not_available","98635",45.677842183414775,-121.09290832085473
"98624","Ilwaco","WA","Willapa Wildlife Refuge","not_available","98586",46.41913146601283,-123.90153037423427
"98624","Ilwaco","WA","Clark's Tree","discovery trail","not_available",46.3711623894483,-124.061836553853
"98625","Kalama","WA","Port Of Kalama Marine Park","N Hendickson Dr.","98625",46.00457758969794,-122.84605196417576
"98625","Kalama","WA","Louis Rasmussen Day Park","N Hendrickson Dr.","98625",46.00121205361306,-122.84496824255204
"98625","Kalama","WA","Haydu Park","not_available","98625",46.042098,-122.841928
"98626","Kelso","WA","Tam O'Shanter Park","444 Valley View Dr","98626",46.13824462890625,-122.88761138916016
"98626","Kelso","WA","Gerhart Park","40 Tenant Way","98632",46.107933885920254,-122.89572715759277
"98626","Kelso","WA","Gerhart Gardens Park","not_available","98626",46.110221554360066,-122.89482004467719
"98626","Kelso","WA","Prescott Beach","not_available","97048",46.04928604072644,-122.88665891151054
"98629","La Center","WA","Wintler Park","32016-32098 NW La Center Rd.","98642",45.853227,-122.678276
"98629","La Center","WA","Holly Park","not_available","98629",45.86122,-122.66212
"98629","La Center","WA","Sternwheeler Park","100-298 W 4th St.","98629",45.862201630572706,-122.67170204278273
"98632","Longview","WA","Civic Circle","not_available","98632",46.13879927787358,-122.93747262143269
"98632","Longview","WA","Rainier City Park","10 West 6th Street","97048",46.0912471429341,-122.94097914246342
"98632","Longview","WA","archie anderson park","200 21st & 22nd","98632",46.122031027199824,-122.95754764996744
"98632","Longview","WA","Elks War Memorial (the Boulevard)","2122 Kessler Blvd","98632",46.131453,-122.948329
"98632","Longview","WA","Vandercook Park","20th Avenue","98632",46.14052690165264,-122.94378285927107
"98642","Ridgefield","WA","Overlook Park","104 N Main Ave","98642",45.81520640090467,-122.74648904800415
"98642","Ridgefield","WA","Abrams Park","Division St.","98642",45.817637202824685,-122.73637881263679
"98642","Ridgefield","WA","Sauvie Island Wildlife Area","Portland,OR,97231","97231",45.734954988001746,-122.77385742349284
"98642","Ridgefield","WA","Vista Meadows","not_available","98663",45.73519725746414,-122.64100310390539
"98642","Ridgefield","WA","Jefferson Davis Park","24024 NW Maplecrest Rd.","98642",45.795326232910156,-122.67742156982422
"98642","Ridgefield","WA","Lark Park","not_available","98642",45.821693,-122.72759
"98649","Toutle","WA","Applebee Aviation","1400 Spirit Lake Hwy","98649",46.35526614022758,-122.52508878707886
"98660","Vancouver","WA","Kelley Point Park","Kelley Point Park","97203",45.64639454951127,-122.76245541672223
"98660","Vancouver","WA","Frenchman's Bar Park","9612 NW Lower River Rd","not_available",45.68121090019152,-122.7674954942079
"98660","Vancouver","WA","Esther Short Park","301 W 8th St.","98660",45.626565053288935,-122.67445893653007
"98660","Vancouver","WA","Vancouver Farmers Market","Esther St","98660",45.62661386971874,-122.67608642578125
"98660","Vancouver","WA","Rasberry Fields Park","not_available","98685",45.7035960026312,-122.70866018222611
"98660","Vancouver","WA","Frenchmans Bar Beach","8001 NW Lower River Rd","98660",45.66686907453285,-122.75886215670094
"98660","Vancouver","WA","Columbia River Renaissance Trail","not_available","98660",45.66659867763519,-122.75762557983398
"98660","Vancouver","WA","Salmon Creek Park","306 NE 117th St","98685",45.706513,-122.66801299999999
"98660","Vancouver","WA","Vancouver Lake Park","6801 NW Lower River Rd","98660",45.67809380888056,-122.7426958806149
"98660","Vancouver","WA","John Ball Park","23rd & Kauffman","98660",45.637820016919115,-122.68003692944397
"98660","Vancouver","WA","HB Fuller Park","NW 139th Street","not_available",45.71988752511762,-122.67296629021607
"98660","Vancouver","WA","Fruit Valley Park","Fruit Valley Rd","98660",45.64617540926022,-122.69305220062935
"98660","Vancouver","WA","Franklin Park","NW 58th Street & Cherry St","98660",45.663022963441975,-122.68676939502342
"98660","Vancouver","WA","Arnada Park","E 25th & G St.","98663",45.63934456544102,-122.66525832112593
"98660","Vancouver","WA","Jurassic Park 2","not_available","98665",45.6726486389976,-122.67762070656899
"98660","Vancouver","WA","Sergeant Brad Crawford Neighborhood Park","4601-4699 NW 131st St","98685",45.71440383026949,-122.7191311937055
"98660","Vancouver","WA","Fountain O Life","3801 NW 121st St","98685",45.7090408,-122.7107301
"98660","Vancouver","WA","Hidden Park","3810 Daniels St","98660",45.64925765991211,-122.6758041381836
"98660","Vancouver","WA","Carter Park","108 W 33rd St","98660",45.64227702658839,-122.67419438049868
"98660","Vancouver","WA","Brickyard Park","3120 Lincoln Ave","98660",45.644710540771484,-122.68329620361328
"98660","Vancouver","WA","George Vancouver Statue","6th and Esther","98660",45.625847,-122.67627
"98661","Vancouver","WA","West Minnehaha Neighborhood Park","2502 NE 49th St","98663",45.657252,-122.645423
"98661","Vancouver","WA","Wintler Park","not_available","98661",45.611448504599934,-122.60538535300198
"98661","Vancouver","WA","Vancouver Waterfront","SE Columbia Way","98661",45.61708470822684,-122.6532494616174
"98661","Vancouver","WA","Marine Park","Columbia Way","not_available",45.615180853921125,-122.62483980056962
"98661","Vancouver","WA","Father Blanchet Park","Louisiana Drive","98664",45.615658402047856,-122.5953197479248
"98661","Vancouver","WA","Van Fleet Park","900 Flint Ave","98664",45.627822368117066,-122.59624780050605
"98661","Vancouver","WA","Hazel Dell Park","2300-2368 NE 68th St","98665",45.67200079960391,-122.6476634151377
"98661","Vancouver","WA","Fort Vancouver Visitor Center","612 E Reserve St","98661",45.62625264858538,-122.65661389530155
"98661","Vancouver","WA","Leverich Park","4246 NE Leverich Park Way","98663",45.65096000787981,-122.65901766360953
"98661","Vancouver","WA","South Cliff Park","Oregon Dr.","98661",45.62519580751267,-122.62540528214322
"98661","Vancouver","WA","Fort Vancouver Village","1001 E. Fifth St.","98661",45.6241842784492,-122.65952572347679
"98661","Vancouver","WA","Carl Gustafson Park","not_available","98664",45.62046113892612,-122.6013290157871
"98661","Vancouver","WA","The G Spot","1811 E Reserve St","98661",45.635005950927734,-122.64817810058594
"98661","Vancouver","WA","Edgewood Park","3200 E Evergreen Blvd","98661",45.62660901666667,-122.63385506666667
"98661","Vancouver","WA","Bagley Downs Park","4500 Plomondon St","98661",45.644633687629415,-122.62409548332998
"98662","Vancouver","WA","Orchards Park","Orchards Park","98662",45.66255677206694,-122.57339000701904
"98662","Vancouver","WA","Orchard Highlands Park","Orchard Highlands Park","98662",45.689682829531115,-122.5572971094732
"98662","Vancouver","WA","Shaffer County Park","not_available","98662",45.66443983872971,-122.59369551453219
"98664","Vancouver","WA","David Douglas Park","1016 N. Garrison Rd","98664",45.63336330045891,-122.58440625114437
"98664","Vancouver","WA","Meadowbrook Park","2110 NE 90th Ave","98664",45.637954,-122.580801
"98664","Vancouver","WA","Biddlewood Prk","11852 SE Riverridge Dr","98683",45.60800767754738,-122.5494059110121
"98664","Vancouver","WA","Tanning Topless In The Park","not_available","97224",45.61000936064488,-122.59690476961423
"98665","Vancouver","WA","Sam's Good RV Park","8510 NE Highway 99","98665",45.683204650878906,-122.66162872314453
"98671","Washougal","WA","Thousand Acres Dog Park","Thousand Acres Rd","not_available",45.54679706319209,-122.37392776392777
"98671","Washougal","WA","Benson State Rec Area","I-84","97019",45.576771768221164,-122.12815108309849
"98674","Woodland","WA","Horseshoe Lake Park","Park Rd.","98674",45.90146098197076,-122.74299821920827
"98674","Woodland","WA","Grey Cliffs Waterfront Park","not_available","97051",45.86809,-122.79876
"98674","Woodland","WA","Pixie Park","not_available","97018",45.890395002140735,-122.80708573610038
"98674","Woodland","WA","Columbia View Park","260 The Strand","97051",45.86288708088221,-122.79652903747386
"98674","Woodland","WA","Martin's Bar / Lions Day Park","1337 Dike Rd","98674",45.91942831270861,-122.80316616178739
"98675","Yacolt","WA","Oak Grove Neighborhood Park","7008 NE 162nd Ave","98682",45.674596,-122.50643400000001
"98675","Yacolt","WA","Tiger Tree Park","14700 NE 85th Cir","98682",45.68680800440017,-122.52884983497623
"98682","Vancouver","WA","Neighborhood Park","not_available","98684",45.641259637019715,-122.53799301553644
"98683","Vancouver","WA","Northfield Park","not_available","98683",45.60754,-122.49559
"98684","Vancouver","WA","Vandervort Park","Vandervort Park","98684",45.62512539073789,-122.49754238986905
"98684","Vancouver","WA","Countryside Park","15214 NE 7th Street","98683",45.62653883954989,-122.51584053039551
"98686","Vancouver","WA","Kate & Clarence LaLonde Park","4988 NE 99th St.","98686-5887",45.695125192039704,-122.61172109012456
"98801","Wenatchee","WA","Lincoln Park","Mission","98801",47.403282039039446,-120.3046220382723
"98801","Wenatchee","WA","Eastmont cimmunity park","not_available","98802",47.40858114540454,-120.27527220282049
"98801","Wenatchee","WA","Memorial Park","not_available","98801",47.42244305119362,-120.31403267637937
"98801","Wenatchee","WA","Locomotive Park","1016 Crescent St","98801",47.41057586669922,-120.30209350585938
"98801","Wenatchee","WA","Centennial Park","130 S Wenatchee Ave","98801",47.422428131103516,-120.310302734375
"98801","Wenatchee","WA","Kirby Billingsley Hydro Park","1682 SR28","98802",47.383267873861186,-120.24489450042167
"98801","Wenatchee","WA","Applesox","Paul Thomas Senior Field 1300 5th St","98801",47.43053,-120.33486
"98812","Brewster","WA","Alta Lake Campground","1B State Route 153","98846",48.029272,-119.936664
"98812","Brewster","WA","Pateros City Park","Lakeshore Dr","98846",48.05308532714844,-119.90071868896484
"98812","Brewster","WA","Willow Flats Recreation Area","not_available","98813",48.025723,-119.67632
"98815","Cashmere","WA","Dryden School Memorial Park","Main St.","not_available",47.544756394378226,-120.56760075193412
"98815","Cashmere","WA","Orion River Expeditions - Cashmere","not_available","98815",47.52340914315363,-120.46493141102655
"98816","Chelan","WA","Don Morse Park","Chelan, WA","98816",47.84275722694039,-120.02357561363722
"98816","Chelan","WA","Riverwalk Park","128 Webster Ave","98816",47.838941850977776,-120.01833915710449
"98816","Chelan","WA","Chelan Falls Park","not_available","98817",47.799168,-119.98438
"98816","Chelan","WA","Centinial Park","not_available","98816",47.83725357055664,-120.02234649658203
"98816","Chelan","WA","The Ranger Station","428 W Woodin Ave","98816",47.837983,-120.02366599999999
"98816","Chelan","WA","Willow Point Park","Willow Point Rd.","98831",47.89365275972357,-120.18948695153861
"98816","Chelan","WA","The Point","not_available","98831",47.877477746885916,-120.1617612422731
"98816","Chelan","WA","Lakeside Park","2230 Terrace Ave","98816",47.8370008664697,-120.05400727901666
"98822","Entiat","WA","Entiat City Park","not_available","98822",47.6717003258792,-120.21344317240026
"98823","Ephrata","WA","Dog Park","not_available","98858",47.386603,-119.499252
"98823","Ephrata","WA","Lions Park","Parkway Blvd","98823",47.30739317473393,-119.56087374635557
"98823","Ephrata","WA","Sun Basin Plaza","32 Basin St NW","98823",47.32134246826172,-119.5509033203125
"98823","Ephrata","WA","Lions Park","Parkway St","98823",47.31198252697238,-119.5410968870517
"98824","George","WA","George Community Hall","not_available","98848",47.07941794117625,-119.85638705305604
"98826","Leavenworth","WA","Waterfront Park","not_available","98826",47.59386303749461,-120.66118162494415
"98826","Leavenworth","WA","Blackbird Island","314 Commercial St","98826",47.59245681762695,-120.66596984863281
"98826","Leavenworth","WA","Lion's Club Park","U.S. 2","98826",47.59499069243207,-120.66412962554922
"98832","Marlin","WA","Wilson Creek City Park","not_available","98860",47.42169189453125,-119.12248992919922
"98837","Moses Lake","WA","Connelly Park","not_available","98837",47.18693,-119.35225
"98837","Moses Lake","WA","Civic Center Park","411 S Balsam St","98837",47.130521,-119.273746
"98837","Moses Lake","WA","McCosh Park","401 W 4th Ave","98837",47.12710952758789,-119.28203582763672
"98837","Moses Lake","WA","Blue Heron Park","111 Westshore Dr NE","98837",47.10483546719634,-119.32847499847412
"98837","Moses Lake","WA","Cascade Park","2001 W Valley Rd.","98837",47.13726206215879,-119.30272768260026
"98837","Moses Lake","WA","Marina Park","1414 W Marina Dr.","98837",47.11965560913086,-119.30045318603516
"98837","Moses Lake","WA","Barrington Point Park","Paxson Dr.","98837",47.13665103067516,-119.30017232894897
"98837","Moses Lake","WA","John E. Calbom Island Park","Lewis Horn","98837",47.10331648823265,-119.29388523101807
"98837","Moses Lake","WA","Moses Lake Parks & Rec","321 S Balsam St","98837",47.130966,-119.274027
"98837","Moses Lake","WA","Crossroads Park","1600 E Truman Dr","98837",47.1253547668457,-119.25077819824219
"98837","Moses Lake","WA","Sinkiuse Square","306 Ash St","98837",47.12908749,-119.27952468395233
"98837","Moses Lake","WA","Gillette Park","205 E 11th Ave.","98837",47.118854764949425,-119.27287817001341
"98837","Moses Lake","WA","Carl T. Ahlers Park","500 W 3rd Ave.","98837",47.127960205078125,-119.28388977050781
"98837","Moses Lake","WA","Harrison K Dano Park","501 N Paxson Dr.","98837",47.137150887995695,-119.30275216900175
"98840","Okanogan","WA","Eastside Park","not_available","98841",48.40921671430772,-119.5158082381183
"98840","Okanogan","WA","Omak Stampede","401 Omak Ave","98841",48.40851974487305,-119.521240234375
"98840","Okanogan","WA","Alma Park","not_available","98840",48.359981536865234,-119.58361053466797
"98844","Oroville","WA","Oroville Centennial Park","not_available","98844",48.938637,-119.435555
"98856","Twisp","WA","Mack Lloyd Park","not_available","98862",48.47665,-120.189218
"98856","Twisp","WA","Twisp Park","not_available","98856",48.368228,-120.119887
"98901","Yakima","WA","Franklin Park","21st Avenue and Tieton Drive","not_available",46.591448330557675,-120.53671059542124
"98901","Yakima","WA","Lions Park","not_available","98902",46.59564854007714,-120.51377847338753
"98901","Yakima","WA","Sarg Hubbard Park","111 S 18th St","98901",46.60250723361969,-120.4761815071106
"98901","Yakima","WA","Arboretum","1401 Arboretum Dr","98901",46.587402000000004,-120.472396
"98901","Yakima","WA","Umtanum Recreation Site","Canyon Rd.","not_available",46.85528579696966,-120.48293841392466
"98901","Yakima","WA","Miller Park","N. 4th Street","98901",46.60976889582261,-120.50542831420898
"98901","Yakima","WA","Noel Pathway (Greenway)","not_available","98901",46.5913462880167,-120.4753964499376
"98901","Yakima","WA","Wixson Park","not_available","98942",46.65068349465269,-120.5336842510165
"98901","Yakima","WA","Lmuma","not_available","98926",46.815289,-120.450961
"98901","Yakima","WA","Greenway Park","not_available","98908",46.62271923448865,-120.54584953669405
"98901","Yakima","WA","YISA","E Lincoln Ave","not_available",46.60926771173975,-120.49427032470703
"98901","Yakima","WA","Ahtanum Youth Activities Park","1000 Ahtanum Rd","98903",46.55588542120436,-120.51984792076233
"98901","Yakima","WA","Sherman Park","2441-2519 W Birchfield Rd","98901",46.58567733427152,-120.4681348800659
"98902","Yakima","WA","Chesterley Park","3710 River Road","not_available",46.61713945401109,-120.56110373447133
"98903","Yakima","WA","Randell Park","1312 S 44th Ave","98908",46.58014677889826,-120.57126855362567
"98908","Yakima","WA","Eshbah Park Yakima","not_available","98937",46.65781272973561,-120.63384275664124
"98922","Cle Elum","WA","Suncadia Park","Coal mine way","not_available",47.20850745390088,-120.9987741689993
"98922","Cle Elum","WA","Riverfront Park","not_available","98922",47.206836,-121.026853
"98922","Cle Elum","WA","Washington State Horse Park","1202 Douglas Munro Blvd.","not_available",47.19359114948031,-120.96912860870361
"98922","Cle Elum","WA","Dawson Park","431 Coal Mine Rd","not_available",47.2102711976312,-121.0157868848936
"98926","Ellensburg","WA","N Alder Street Park","N Alder Street","98926",47.01620745874603,-120.5315551086145
"98926","Ellensburg","WA","wanapum","not_available","98950",46.93942684710439,-120.02361703399772
"98930","Grandview","WA","Prosser City Park","902 7th St","99350",46.204834000000005,-119.765442
"98930","Grandview","WA","Legion Park","not_available","98930",46.25475223164712,-119.88412319678297
"98932","Granger","WA","Dino Parks","not_available","98932",46.3410551820578,-120.19243683019165
"98937","Naches","WA","Applewood Park","105 W 4th St","98937",46.733882904052734,-120.70257568359375
"98937","Naches","WA","Tieton City Park","not_available","98947",46.70412,-120.75587
"98944","Sunnyside","WA","Leslie Groves Park","2 Park St","99354",46.30757273562989,-119.26414489746094
"98944","Sunnyside","WA","Jason Lee Park","not_available","99352",46.29972039277815,-119.29107764478573
"98944","Sunnyside","WA","Howard Amon Park","500 Amon Park Dr","99352",46.27478895478707,-119.2715316378487
"98944","Sunnyside","WA","Westwood Park","1422 Westwood Ct.","99352",46.297367095947266,-119.2918701171875
"98944","Sunnyside","WA","John Dam Plaza","800-898 Jadwin Ave","99352",46.27711983014214,-119.27434001835452
"98944","Sunnyside","WA","Hanford Legacy Park","2705 Kingsgate Way","99354",46.32963562011719,-119.31681060791016
"98944","Sunnyside","WA","Bombing Range Sports Complex","not_available","99353",46.27319258603506,-119.34377703423993
"98944","Sunnyside","WA","Leslie Grove Park Boat Launch","2200-2298 Harris Ave","99354",46.31964375270653,-119.27238057724956
"98944","Sunnyside","WA","Craighill Park","200 Craighill","99352",46.26711270917623,-119.2774046738755
"98944","Sunnyside","WA","Desert Aire","not_available","99349",46.68324014667471,-119.92045410878224
"98944","Sunnyside","WA","Hot August Nights","1320-1398 George Washington Way","99354",46.2880632,-119.2739609
"98944","Sunnyside","WA","Central Park","not_available","98944",46.32347473316478,-120.0173539727935
"98944","Sunnyside","WA","Richland-Goethals","Goethals Drive","99352",46.261735235611745,-119.27174184754857
"98944","Sunnyside","WA","Rodney Block Park","1210 Perkins Ave","not_available",46.284847259521484,-119.29227447509766
"98944","Sunnyside","WA","South Hill Park","1521 S 1st St","98944",46.31209182739258,-120.0230712890625
"98944","Sunnyside","WA","Flat Head Park","111 Austin Dr","99353",46.29906463623047,-119.34687042236328
"98944","Sunnyside","WA","Paul Liddel Park","702 Cottonwood Loop","99352",46.27728271484375,-119.30400085449219
"98948","Toppenish","WA","Teapot Dome Gas Station National Historic Site","117 1st Ave","98953",46.404671354006915,-120.26950120925903
"98948","Toppenish","WA","Shelley Park","not_available","98953",46.4054069519043,-120.26610565185547
"98948","Toppenish","WA","Railroad Park","not_available","98948",46.376775,-120.308744
"99001","Airway Heights","WA","Traditions Park","Horton St","99001",47.65140349689872,-117.58847532182055
"99001","Airway Heights","WA","Sunset Park","913 S Lawson St","99001",47.64665985107422,-117.5875015258789
"99004","Cheney","WA","Centennial Park","625 Clay St","99004",47.50028610229492,-117.56842041015625
"99004","Cheney","WA","Eagle Park","not_available","99004",47.590985,-117.54474
"99004","Cheney","WA","Coney Island Park","N 100 Jefferson","99022",47.57297873497009,-117.68398582935333
"99004","Cheney","WA","sheppards park","not_available","99022",47.574969257975155,-117.67462396463404
"99006","Deer Park","WA","Mix Park","not_available","99006",47.95860449666909,-117.48171607360356
"99011","Fairchild Air Force Base","WA","Fairchild AFB Miller Park","not_available","99011",47.629136,-117.659375
"99016","Greenacres","WA","Half Moon Park","19995 E Meyers Ave","99016",47.67645263671875,-117.1364517211914
"99016","Greenacres","WA","Greenacres Park","not_available","99016",47.66886740809572,-117.16518525120831
"99016","Greenacres","WA","Terrace view park","24th","not_available",47.63586411093239,-117.22329388738285
"99016","Greenacres","WA","Mirabeau Springs","S Mirabeau Pkwy","99216",47.681478266666666,-117.22419915
"99016","Greenacres","WA","Pavillion Park","727 N Molter Rd","99019",47.663461190820605,-117.09150664898426
"99016","Greenacres","WA","Sullivan Park","not_available","99216",47.67432273070505,-117.19702286549419
"99019","Liberty Lake","WA","Rocky Hill Park","E Mission Ave.","99019",47.67169719714245,-117.07103081706502
"99021","Mead","WA","Becky’s Backyard","not_available","99021",47.764429,-117.348251
"99021","Mead","WA","Camelot Neighborhood Playground","901-999 E Percival Ave","99218",47.764854523904546,-117.39407969527184
"99026","Nine Mile Falls","WA","Nine Mile Recreation Area","11226 W. Charles Road","99026",47.7875862121582,-117.5677261352539
"99109","Chewelah","WA","Chewelah park","not_available","99109",48.28117711908609,-117.71546112567407
"99111","Colfax","WA","Military Hill Park","Military Hill Park","99163",46.745656995562285,-117.18159306777899
"99111","Colfax","WA","Sunnyside Park","Sunnyside Park","99163",46.72860520704537,-117.19351378371171
"99111","Colfax","WA","Schmuck Park","E 6th St.","99111",46.89575966778947,-117.35810279846193
"99111","Colfax","WA","Conservation Park","not_available","99163",46.74088416680107,-117.1854073103789
"99111","Colfax","WA","Sunnyside Park","Old Wawaiwai Road","99163",46.7268631893496,-117.20053136391418
"99113","Colton","WA","holzer park","not_available","99179",46.55349349975586,-117.1032485961914
"99114","Colville","WA","Yep-Kanum-Colville City Park","not_available","99114",48.53692575656011,-117.90132522583008
"99114","Colville","WA","Douglas Falls Grange Park","Douglas Falls Rd","99114",48.617460313133,-117.90546655654906
"99116","Coulee Dam","WA","Mason City Memorial Park","not_available","99116",47.966136650160614,-118.97580370898355
"99118","Curlew","WA","Ranald McDonald's Gravesite State Park","986 Customs Road","99118",48.94719,-118.761626
"99122","Davenport","WA","Harrington Park","not_available","99134",47.478369897421366,-118.25153671832251
"99123","Electric City","WA","King's Court RV Park","212 E Grand Coulee Ave","99133",47.9339502,-118.9967901
"99139","Ione","WA","Ione City Park","not_available","99139",48.7402173418356,-117.41544153583875
"99139","Ione","WA","Box Canyon Dam Viewpoint","not_available","99153",48.779313,-117.409726
"99141","Kettle Falls","WA","Kettle Falls Marina","not_available","99141",48.59888994545922,-118.1223928030686
"99156","Newport","WA","K/M Resorts - Old American Kampground","701 N Newport Ave","99156",48.18677008,-117.04110324
"99156","Newport","WA","Camp Spalding/Clearwater Lodge","not_available","99156",48.21935986826826,-117.29688887466922
"99159","Odessa","WA","Odessa Tourist Camping Park","Second Street","99159",47.333284,-118.687338
"99161","Palouse","WA","Hayton Green Park","not_available","99161",46.909061431884766,-117.08177185058594
"99163","Pullman","WA","Reaney Park","690 Reaney Way","99163",46.73107683519372,-117.17286483516725
"99163","Pullman","WA","Wawawai County Park","13501 Wawawai Rd","not_available",46.74213464216978,-117.1588031690931
"99163","Pullman","WA","Flag Lane","Stadium Way","99163",46.734660500468856,-117.15952814709262
"99163","Pullman","WA","Lawson Gardens","705 Derby St.","99163",46.72202650367039,-117.17555584450916
"99166","Republic","WA","Ferry County Fairgrounds","not_available","99166",48.650384,-118.690547
"99169","Ritzville","WA","Ritzville City Park","not_available","99169",47.12266319681795,-118.37097146963171
"99201","Spokane","WA","Riverfront Park","507 N Howard St","99201",47.66080650410899,-117.42102442186068
"99201","Spokane","WA","The United States Pavilion, Expo '74","not_available","99201",47.662697,-117.419395
"99201","Spokane","WA","Coeur D'Alene Park","398 S Chestnut St","99201",47.65334767270639,-117.44499804516738
"99201","Spokane","WA","Peoples Park","2500-2834 W Clarke Ave","99201",47.656040195633025,-117.45367062692361
"99201","Spokane","WA","Riverfront Park Pavillion","not_available","99202",47.661900758700284,-117.41669988007568
"99201","Spokane","WA","olmstead brothers green","W Summit Pkwy","99201",47.662132,-117.446375
"99201","Spokane","WA","High Bridge Park","not_available","99224",47.650883897099895,-117.44993090629578
"99201","Spokane","WA","Cowley Park","602 S. Division St.","not_available",47.64990997314453,-117.41177368164062
"99201","Spokane","WA","The Ice","W Spokane Falls Blvd","99201",47.6603,-117.423326
"99202","Spokane","WA","Grant Park","1103 E 11th Ave","99202",47.645995772173315,-117.39233717911681
"99202","Spokane","WA","Heath Park","E Agusta","99207",47.671910882392694,-117.40030150853723
"99202","Spokane","WA","Liberty Park","Liberty Park Ln","not_available",47.652298,-117.387446
"99202","Spokane","WA","Old Liberty PARK","Arthur","not_available",47.6527275270169,-117.39428693149964
"99202","Spokane","WA","Horseshoe Pits","Grant Park","99202",47.64588915,-117.39403271666667
"99203","Spokane","WA","Manito Park","1702 S Grand Blvd.","99203",47.638797324378885,-117.4118086984849
"99203","Spokane","WA","Nishomiya Japanese Garden","Manito Park","99223",47.635885319592596,-117.4159917215081
"99203","Spokane","WA","Cannon Hill Park","not_available","99203",47.63814692499439,-117.42259839834146
"99204","Spokane","WA","Polly Judd Park","1732 W 14th Ave","99204",47.642831,-117.437969
"99204","Spokane","WA","Edwidge Woldson Park","525 W 7th Ave","not_available",47.64680951231267,-117.41784544601742
"99205","Spokane","WA","Webster Park","not_available","99205",47.69516905157428,-117.46633195832013
"99205","Spokane","WA","Riverside Frisbee Course","2035 W Northwest Blvd","99205",47.682152,-117.442898
"99205","Spokane","WA","Corbin Park","401 W Waverly Pl,","99205",47.68269621118468,-117.42399837705344
"99205","Spokane","WA","Audobon Park","3500-3598 N Audubon St.","99205",47.68967432009022,-117.45339765811849
"99206","Spokane","WA","Browns Park","3019 S Pines Rd","99206",47.62875118486111,-117.23803330943959
"99206","Spokane","WA","Plantes Ferry Park & Sports Complex","12320 E Upriver Dr","99216",47.69833948459309,-117.23730433590119
"99206","Spokane","WA","Valley Mission Park","Mission","99206",47.67204292655308,-117.25438931751052
"99206","Spokane","WA","Balfour Park","105 N. Balfour","99206",47.657987988142274,-117.26557731628418
"99206","Spokane","WA","Knox Park","not_available","99212",47.6734057,-117.2819019
"99207","Spokane","WA","Rochester Heights Park","5420-5498 N Magnolia St","99207",47.707852,-117.38387978333333
"99207","Spokane","WA","James J. Hill Park","5500 N Cook","99208",47.70912170410156,-117.37291717529297
"99207","Spokane","WA","Glass Park","not_available","99207",47.698415176992,-117.39890866560357
"99208","Spokane","WA","Pine River Park","not_available","99208",47.790082998718155,-117.40019068483114
"99208","Spokane","WA","Sky Prairie Park","7000 N Nettleton Ct","99208",47.73493633920942,-117.44693756103516
"99208","Spokane","WA","Morgan Acres Park","7221 N Regal St","99217",47.723546,-117.36895
"99208","Spokane","WA","Harmon Park","6022 N Regal St","99208",47.71292495727539,-117.36775207519531
"99208","Spokane","WA","Linwood Park","7603 N Hughes Dr","99208",47.727041,-117.42700400000001
"99212","Spokane","WA","Plantes Ferry Park","Upriver Rd","not_available",47.6849906575923,-117.32366805701852
"99223","Spokane","WA","Glenrose Pond","not_available","99223",47.61127124921603,-117.3373468843936
"99223","Spokane","WA","Olmsted Triangle Parks","Rhyolite Rd","99201",47.630817,-117.358445
"99223","Spokane","WA","Thorton Murphy Park","3105 E 27th Ave","99223",47.6305046081543,-117.36514282226562
"99224","Spokane","WA","Palisades Park","100 N. Rimrock Dr","99224",47.65517297132125,-117.48409213637441
"99224","Spokane","WA","Grandview Park","3203 W 17th Ave","99224",47.638980865478516,-117.45980834960938
"99301","Pasco","WA","Columbia Point Marina Park","Columbia Point Dr","99352",46.262814,-119.24836
"99301","Pasco","WA","Highland Grange Park","not_available","99338",46.194980284931304,-119.1806004799832
"99301","Pasco","WA","Chiawana Park - East End (Docks)","Chiawana Dr","99301",46.24497045467898,-119.20676708221434
"99301","Pasco","WA","Vintage Park","not_available","99301",46.272104655363556,-119.2040462125193
"99301","Pasco","WA","Eastgate Park","1110 E 10th Ave","99336",46.197535,-119.098515
"99301","Pasco","WA","Desert Dunes Park","4601 Cathedral Dr","99301",46.25992965698242,-119.1507797241211
"99301","Pasco","WA","Leslie Grove","Newcombe","99354",46.2448,-119.235
"99301","Pasco","WA","Memorial Park","1520 W. Shoshone St.","99301",46.230987548828125,-119.1095962524414
"99301","Pasco","WA","Vista Park","5590 Umatilla Ave","99336",46.22708579696016,-119.19620990753174
"99301","Pasco","WA","Fruitland Park","303 N Fruitland St","99336",46.21271896362305,-119.12676239013672
"99301","Pasco","WA","Wade Park","601 Rd 54","99301",46.237239036548246,-119.15112941272028
"99301","Pasco","WA","Hansen park","not_available","99336",46.20323223508061,-119.22341930784268
"99301","Pasco","WA","Lawrence Scott Park","6000 W Quinalt Ave","99336",46.22405374510163,-119.20232966314732
"99301","Pasco","WA","Desert Rim Park","415 Satus St","not_available",46.23727798461914,-119.25399017333984
"99301","Pasco","WA","Wye Park","1600 Columbia Pk Trail","not_available",46.237670232120884,-119.22621481962905
"99323","Burbank","WA","Hood Park","Hood Park Rd","99323",46.214289116999375,-119.0172629344471
"99324","College Place","WA","Kiwanis Park","Kiwanis Park","99324",46.047354340553284,-118.38394045829773
"99324","College Place","WA","Lyoms City Park","not_available","99324",46.04115284,-118.37793978
"99324","College Place","WA","Walla Walla Valley BMX","1712-1898 Dalles Military Rd","99362",46.04528758335325,-118.36266505291451
"99326","Connell","WA","Poe Park","Park Ave","99353",46.574136,-119.045088
"99328","Dayton","WA","Dayton City Park","Second Street","99328",46.31488037109375,-117.97540283203125
"99336","Kennewick","WA","Layton Park","324 E. 6th Ave","not_available",46.202131,-119.110671
"99336","Kennewick","WA","Claybell Park","423 Broadmoor","99352",46.21636024402022,-119.25400045124051
"99336","Kennewick","WA","Columbia Park/Big Field","5111 Columbia Park Trail","99336",46.22205826168707,-119.14794437259381
"99337","Kennewick","WA","Two Rivers Park","215998 E Finley Rd.","99337",46.19108156823996,-119.05265455695266
"99337","Kennewick","WA","Kenwood Park","2013 South Garfield Street","99337",46.189533,-119.127
"99338","Kennewick","WA","Badger Mountain Dog Park","350 Keene Rd","99352",46.23795174879654,-119.27730482268134
"99344","Othello","WA","Kiwanis Park","not_available","99344",46.819880748862765,-119.16862187947002
"99345","Paterson","WA","Boardman Park","not_available","97818",45.84205945640932,-119.71334177179848
"99345","Paterson","WA","Tremor Memorial Park","hwy. 730","97844",45.845,-119.50861111111111
"99346","Plymouth","WA","Mcnary Ponds","Cline Ave","97882",45.92748406036296,-119.32614911680805
"99346","Plymouth","WA","West park","not_available","97882",45.925748788885926,-119.30644085510325
"99350","Prosser","WA","Irrigon Marina","not_available","99350",46.07000041889558,-119.51278181400933
"99361","Waitsburg","WA","Vista Terrace Park","Mountain Park Dr","not_available",46.083181860864,-118.30496146005704
"99361","Waitsburg","WA","Lions Park","Tacoma","99362",46.07438368982074,-118.3010777731546
"99361","Waitsburg","WA","Preston Park","not_available","99361",46.271442269248325,-118.15298142765137
"99361","Waitsburg","WA","Rooks Park","Rooks Park Rd","99362",46.08157154011149,-118.25567352744795
"99362","Walla Walla","WA","Fort Walla Walla Park","Myra Rd.","not_available",46.0462615883301,-118.35977782916241
"99362","Walla Walla","WA","Wildwood park","S. Division St","99362",46.06986074798976,-118.31933590929322
"99362","Walla Walla","WA","Pioneer Park","E Alder Street","99362",46.06571572132996,-118.31671122733579
"99362","Walla Walla","WA","Peopeomoxmox Statue","not_available","99362",46.06709539890289,-118.34166347980499
"99362","Walla Walla","WA","St Mary Medical Center Patio","401 W Poplar St","99362",46.06208801269531,-118.34255981445312
"99362","Walla Walla","WA","Tietan Park","Tietan St","99362",46.06623709201813,-118.38867723941803
"99403","Clarkston","WA","Chestnut Beach Park","not_available","99403",46.409628,-117.038081
"99403","Clarkston","WA","Asotin City Park (Lions Club Park)","Asotin Creek Rd","99402",46.3505359262903,-117.06129388794913
