"zip","city","state","name","address","postalCode","lat","lon"
"83201","Pocatello","ID","Ammon Park","1695-1699 Homer Dr","83201",42.88598764721465,-112.4328391300828
"83201","Pocatello","ID","Sacajawea Park","Aspen Ln.","83204",42.90169224553378,-112.46849428824589
"83201","Pocatello","ID","Caldwell Park","not_available","83201",42.86766782566012,-112.44062644193248
"83201","Pocatello","ID","NOP Park","Hussey St","83202",42.89741,-112.460817
"83201","Pocatello","ID","Taysom-Rotary Park","1818 Whitewater St","83204",42.848697662353516,-112.43741607666016
"83201","Pocatello","ID","Rainy Park","400-498 W Lovejoy St","83204",42.85490733991592,-112.4452477134105
"83201","Pocatello","ID","Rose Garden","2652-2898 S 4th Ave","83204",42.85233914852142,-112.41540312767029
"83201","Pocatello","ID","Bark Park - Old Town Pocatello","N. Union Pacific Ave.","83204",42.86313330734371,-112.4501756618951
"83201","Pocatello","ID","Ward Park","1501 Emerald Dr","83202",42.907041919338525,-112.48326869438115
"83201","Pocatello","ID","Caldwell Park Pocatello,idaho","not_available","not_available",42.875796,-112.434471
"83201","Pocatello","ID","Sister City Park","2164 Marigold St","83201",42.910839501686894,-112.4110890684219
"83201","Pocatello","ID","Cotant Park","4600-4699 Teton St.","83202",42.918463765887,-112.47947316670793
"83201","Pocatello","ID","Memorial Park","401-499 N Grant Ave","83204",42.861857,-112.45698008333333
"83201","Pocatello","ID","Raymond Park","[100-199] N. Grant Ave.","83204",42.86488069001458,-112.4669530957157
"83201","Pocatello","ID","Centennial Park","Centennial Park","83204",42.85351721666667,-112.445828
"83201","Pocatello","ID","The Track Park","1777 Churchill Downs","83201",42.90726089477539,-112.43504333496094
"83201","Pocatello","ID","Alameda Park","601-699 E Poplar St","83201",42.884985058025755,-112.44451909143818
"83201","Pocatello","ID","Brady Park","400-450 W Wyeth St","83204",42.86441052,-112.45533938
"83201","Pocatello","ID","Larry Miller City Park","Alpine St.","83202",42.913473183388,-112.48061239537302
"83201","Pocatello","ID","Pioneer Park","441 S Main St","83204",42.859249114990234,-112.44757843017578
"83201","Pocatello","ID","N.O.P. Park","682-742 W Eldredge Rd","83201",42.895748735600755,-112.46222188752921
"83201","Pocatello","ID","Bartz Field","Bartz Dr","83201",42.86010296262139,-112.425676708251
"83202","Pocatello","ID","FMC Employee Park","not_available","83202",42.92561013938887,-112.52889539378957
"83202","Pocatello","ID","Bicenntenial park","Abraham St","83202",42.93773158773833,-112.47111797332764
"83204","Pocatello","ID","Pocatello Zoo","2900 S. 2nd Ave.","83201",42.842383296173146,-112.4218860250322
"83204","Pocatello","ID","Constitution Park","4020 S 5th Ave","83204",42.840325471662226,-112.40326300384208
"83204","Pocatello","ID","Ross Park","S 4th St","83204",42.8448076987557,-112.42387390304366
"83210","Aberdeen","ID","Springfield Park","not_available","83277",43.08137275,-112.68415269
"83210","Aberdeen","ID","Sportsman's ParkPark","Aberdeen,ID,83210","83210",42.9496429019029,-112.77486152746025
"83211","American Falls","ID","Massacre Rocks","not_available","83211",42.67596994078075,-112.98577758508597
"83213","Arco","ID","Bottolfsen Park","not_available","83213",43.63172667640929,-113.30504894256592
"83217","Bancroft","ID","Lava Hot Springs Veterans Park","not_available","83246",42.619157,-112.011688
"83221","Blackfoot","ID","Airport Park","not_available","83221",43.20673400280475,-112.34557079610684
"83221","Blackfoot","ID","Jensen Grove Park","Jensen Grove Dr.","83221",43.20206680515645,-112.35552553849517
"83221","Blackfoot","ID","Rose Ponds","359-369 Archery Range Rd","83221",43.24108082137688,-112.3267884093264
"83221","Blackfoot","ID","Shelley City Park- Dawn Lloyd Field","not_available","83274",43.383442,-112.123026
"83221","Blackfoot","ID","Twin Bridges Park","1858 W Bridge","83221",43.197766,-112.36677
"83221","Blackfoot","ID","Sealander Park","not_available","83402",43.425625,-112.13399
"83226","Challis","ID","Yankee Fork Historic Area","not_available","83226",44.475810046266545,-114.21038412847574
"83226","Challis","ID","Hotspring Park","Taman Hotspring","not_available",44.496555,-114.157646
"83226","Challis","ID","Sawtooth Valley Pioneer Park","Airport Road","not_available",44.323111226553735,-114.78443741798401
"83234","Downey","ID","Woodland Park","not_available","83234",42.4285,-112.120445
"83245","Inkom","ID","Helmandollar Park","not_available","83245",42.80012617442235,-112.23482131753276
"83250","Mccammon","ID","McCammon Railroad Park","507 Center St","83250",42.651092529296875,-112.1925277709961
"83251","Mackay","ID","Rotary Park","Warm Springs Rd.","83340",43.6866311567559,-114.37237921965492
"83251","Mackay","ID","Atkinson Park","200-222 8th St W","83340",43.68173854128381,-114.37181776194396
"83251","Mackay","ID","lucy loken park","Walnut Ave S","83353",43.68173456,-114.36022319
"83251","Mackay","ID","Ketchum Forest Park","1st Ave S","83340",43.678416,-114.36398553333333
"83251","Mackay","ID","Memory Park","not_available","83340",43.68229098759928,-114.36602757695758
"83251","Mackay","ID","Christina Potters Outdoor Ice Rink","900","83340",43.681354,-114.371965
"83252","Malad City","ID","Malad City Park","2-76 Bush Avenue","83252",42.184029034536984,-112.25388050079344
"83254","Montpelier","ID","City Park","344-398 N 4th St","83254",42.314674,-111.295035
"83254","Montpelier","ID","Adams Street Park","Adams St","83254",42.31167476,-111.30304733
"83263","Preston","ID","Tingey Park","not_available","83286",42.03821526261819,-111.98185730329506
"83263","Preston","ID","Preston City Park","not_available","83263",42.10067815813059,-111.87867736143471
"83276","Soda Springs","ID","Kelly Park","not_available","83276",42.66997351101647,-111.58071345121542
"83285","Wayan","ID","Caribou National Forest","not_available","83285",42.964661,-111.292651
"83301","Twin Falls","ID","Northridge Park","not_available","83301",42.602613,-114.489811
"83301","Twin Falls","ID","Twin Falls City Park","400-598 Shoshone St N","83301",42.55816782444359,-114.46573658664825
"83301","Twin Falls","ID","Angel Garcia","353 6th Ave E","83301",42.556983947753906,-114.46179962158203
"83301","Twin Falls","ID","Thompson Park","Carriage Lane","83301",42.56027750655672,-114.43350240547191
"83301","Twin Falls","ID","Mary Alice Park On Main","436 Main Ave N","83301",42.55927,-114.47421
"83301","Twin Falls","ID","Sunrise Park","Madrona Street North","83301",42.5677945629596,-114.45027465843943
"83301","Twin Falls","ID","Harry Barry Park","Filer Ave W","83301",42.56841101953108,-114.48534965515137
"83313","Bellevue","ID","Old Cutters Park","not_available","83333",43.530579,-114.307003
"83313","Bellevue","ID","Lions Park","Bullion St","83333",43.51472861054063,-114.32013337244057
"83313","Bellevue","ID","Echo Hill Park","Berry Creek Dr","83333",43.49609913333333,-114.278213
"83313","Bellevue","ID","Deerfield Park","Chestnut St","not_available",43.518735,-114.303044
"83313","Bellevue","ID","Lawrence Heagle Park","War Eagle Drive","83333",43.50761444567157,-114.31355629465399
"83314","Bliss","ID","Malad River Park","not_available","83314",42.862717,-114.895905
"83316","Buhl","ID","Wendell City Park","not_available","83355",42.77264386629663,-114.6952759944904
"83316","Buhl","ID","Faris Field","13th Ave. N","83316",42.602578541445084,-114.76900422971734
"83316","Buhl","ID","Balanced Rock Park","not_available","83316",42.542816,-114.94978
"83318","Burley","ID","Riverside Park","not_available","83336",42.54505071791788,-113.75926610907652
"83318","Burley","ID","Freedom Park","not_available","83318",42.537755982884256,-113.7688763386352
"83318","Burley","ID","Gaa Lawn park","17 th street","83336",42.557281788494656,-113.75826374568344
"83318","Burley","ID","Add The Words, Idaho","Lex Kunau","83318",42.55975402404868,-113.79747394322465
"83318","Burley","ID","Some Park","900-998 Oakley Ave","83318",42.541542321462536,-113.7948224692284
"83318","Burley","ID","Chicano Park","200-298 W 10th St","83318",42.555794,-113.795467
"83324","Dietrich","ID","lincoln county fairgrounds","not_available","83352",42.93232727050781,-114.40299224853516
"83325","Eden","ID","Rolling Hills","Rockey Ln","83334",42.53640405,-114.3022376
"83327","Fairfield","ID","4-H park","not_available","83327",43.3461245168523,-114.79545917005514
"83330","Gooding","ID","East Park","Illinois Street","83330",42.94048060886762,-114.70423936843872
"83332","Hagerman","ID","Hagerman Fossil Bed Visitor Center","221 N State St","83332",42.817710876464844,-114.89825439453125
"83332","Hagerman","ID","Coltharp Park","not_available","83332",42.82008010773691,-114.89850135234626
"83336","Heyburn","ID","Paul Water Park","not_available","83347",42.603981,-113.791535
"83338","Jerome","ID","Forsyth Park","not_available","83338",42.73111632655224,-114.50113968693351
"83341","Kimberly","ID","Kimberly City Park","not_available","83341",42.534844,-114.362184
"83350","Rupert","ID","Square","not_available","83350",42.61058868664933,-113.67669236443851
"83401","Idaho Falls","ID","North Tourist Park","not_available","83401",43.511017,-112.01529
"83401","Idaho Falls","ID","Ucon, ID","not_available","83454",43.58983926145918,-111.97186151628028
"83401","Idaho Falls","ID","Idaho Falls Greenbelt","Snake River","not_available",43.49589160649624,-112.04386672111602
"83401","Idaho Falls","ID","Freeman Park","Micro St","83402",43.51396999048014,-112.05176609276305
"83401","Idaho Falls","ID","Tautphaus Park","Rogers St","not_available",43.4734147214809,-112.04016208648682
"83401","Idaho Falls","ID","Sportsmen's Park","Broadway","not_available",43.492284671583754,-112.04475402832031
"83401","Idaho Falls","ID","Heaven's Park","across","83404",43.48271526612626,-111.99610675174972
"83401","Idaho Falls","ID","Capital Park","330 S Capital Ave","83402",43.4895,-112.04558
"83401","Idaho Falls","ID","Kate Curley Park","S Higbee Ave","83401",43.48926463023518,-112.02720165252686
"83401","Idaho Falls","ID","Simmons Park","4147-4253 East 105th North","83401",43.59068017432023,-111.94963216781616
"83401","Idaho Falls","ID","Civitan Plaza","B","83402",43.49379576843129,-112.03996883079724
"83401","Idaho Falls","ID","South Tourist Park","S Yellowstone Hwy","not_available",43.47272956291769,-112.05526828765869
"83401","Idaho Falls","ID","Peterson Park","not_available","83406",43.469008313042075,-111.95910992933659
"83401","Idaho Falls","ID","Community Park","E. 25th St.","83404",43.474583754349176,-112.01960099367331
"83401","Idaho Falls","ID","Woodland Hills Park","5200 Clearfield","83406",43.450515,-111.962547
"83401","Idaho Falls","ID","20th Street Park","20th St","not_available",43.47956522888478,-112.03091382980347
"83401","Idaho Falls","ID","Pocket Park","B St & Park Ave","not_available",43.493576705004585,-112.03984022140502
"83401","Idaho Falls","ID","Sugar Mill Sub Station Park","895 N","83401",43.50285,-111.98837
"83401","Idaho Falls","ID","Highland Park","Blaine Ave","not_available",43.50489249101866,-112.03917503356932
"83404","Idaho Falls","ID","Cedar Ridge Subdivision","not_available","83404",43.469885094327424,-112.01699071186162
"83404","Idaho Falls","ID","Lions Park","Salmon St","83406",43.47785249224813,-111.97675466537476
"83420","Ashton","ID","Ashton Visitors Center","not_available","83420",44.079721,-111.455156
"83422","Driggs","ID","City Park","not_available","83422",43.727453,-111.092378
"83422","Driggs","ID","Picnic Tables With A View","not_available","83452",43.812004,-111.160019
"83429","Island Park","ID","West Yellowstone Town Park","179 Firehole Avenue","59758",44.66233473998535,-111.10117435455322
"83434","Menan","ID","Pool","not_available","83442",43.67797667817551,-111.91210078790535
"83440","Rexburg","ID","Yellowstone Bear World","6010 S 4300 W","83440",43.73885246911873,-111.86511237495873
"83440","Rexburg","ID","Porter Park","Porter Park,","83440",43.82262319715135,-111.79104654072408
"83440","Rexburg","ID","Smith Park","Main St","83440",43.825151457584845,-111.77551525884317
"83440","Rexburg","ID","Mariah St Park","Mariah Street","83440",43.81683241515115,-111.80517911911011
"83440","Rexburg","ID","Heritage Park","not_available","83448",43.871966772870906,-111.74326622963697
"83440","Rexburg","ID","Nature Park","N 5th W","83440",43.8347977396839,-111.80126399326106
"83440","Rexburg","ID","Park Street Park","5th West","83440",43.82225893568753,-111.79866671562195
"83440","Rexburg","ID","Rotary Park","Nina St. and Rodney St.","83440",43.830751,-111.767524
"83440","Rexburg","ID","Central Quad","S Center St","83460",43.81920125652611,-111.78242325782776
"83440","Rexburg","ID","Nauvoo House","175 W 5th S","83440",43.81453177555266,-111.789240946824
"83440","Rexburg","ID","North City Park","N 1st West","83442",43.67533698848473,-111.91712379455566
"83443","Ririe","ID","Rest Area","US-26, Milepost 357","83443",43.587923741304444,-111.6229713779021
"83455","Victor","ID","Pioneer Park","100-146 Elm St,","83455",43.599444913358695,-111.10437154769897
"83467","Salmon","ID","Salmon, ID","not_available","83467",45.17739,-113.898255
"83467","Salmon","ID","Salmon City Park And Pool","E Main","83467",45.16572555,-113.87008895
"83467","Salmon","ID","Island Park","Salmon, ID","83467",45.17787433410056,-113.90074204149391
"83501","Lewiston","ID","Kiwanis Park","1021 Snake River Ave","83501",46.41114952408708,-117.0334891073231
"83501","Lewiston","ID","Pioneer Park","203 5th Street","83501",46.419372203790616,-117.02629822743197
"83501","Lewiston","ID","Sunrise Community Park","not_available","83501",46.402526,-117.021582
"83501","Lewiston","ID","Chestnut Beach Park","not_available","99403",46.409628,-117.038081
"83501","Lewiston","ID","Asotin City Park (Lions Club Park)","Asotin Creek Rd","99402",46.3505359262903,-117.06129388794913
"83501","Lewiston","ID","Brackenbury Square","605 Main St","83501",46.42165756225586,-117.02569580078125
"83501","Lewiston","ID","Community Park","Lewiston,ID, 83501","83501",46.4004089,-117.0011889
"83501","Lewiston","ID","Locomotive Park","21st St","83501",46.4161061953739,-117.00239976933277
"83530","Grangeville","ID","Pioneer Park","not_available","83530",45.927330017089844,-116.121337890625
"83530","Grangeville","ID","Soroptimist Park","201-299 W Main St","83530",45.9261365,-116.1215362
"83536","Kamiah","ID","Kamiah Centennial Garden","not_available","83536",46.229248046875,-116.0189208984375
"83537","Kendrick","ID","Troy City Park","100 Hwy 8","83871",46.73697830393798,-116.77520513534546
"83541","Lenore","ID","Orofino City Park","not_available","83544",46.47845996964327,-116.2555069107422
"83549","Riggins","ID","Cleo H. Patterson Memorial City Park","Riggins, ID 83549","83549",45.42396619995031,-116.31300357524798
"83604","Bruneau","ID","C.J. Strike Dam","Strike Dam Cut-Off Rd","83604",42.9484599292312,-115.9748125076294
"83605","Caldwell","ID","Memorial Park","800-1098 S Kimball Ave","83605",43.661362111199836,-116.69522036441388
"83605","Caldwell","ID","Crestwood Park","N Pelican Butte Dr.","83651",43.606038282688004,-116.6272393062772
"83605","Caldwell","ID","Winter Wonderland","not_available","83605",43.66579055786133,-116.6900634765625
"83605","Caldwell","ID","Neighborhood Park","3421 Parktrail Ct","83605",43.66691589355469,-116.65596771240234
"83605","Caldwell","ID","Luby Park","N Illinois Ave","not_available",43.67456283950686,-116.67611773128672
"83605","Caldwell","ID","Griffith Park","2218 Griffiths Parkway","83605",43.65690719840292,-116.65516357948124
"83605","Caldwell","ID","Brothers Park","3707-3849 Indiana Ave","83605",43.635848471618196,-116.67131298840528
"83605","Caldwell","ID","Caldwell Dog Park","not_available","83607",43.685639,-116.709744
"83605","Caldwell","ID","Curtis Park","14281 Channel Rd","83607",43.699005126953125,-116.6785659790039
"83607","Caldwell","ID","Midway Park","14309 Midway Rd","83651",43.580515999999996,-116.633234
"83607","Caldwell","ID","Middleton Park","not_available","83644",43.70601531447634,-116.61758490981495
"83607","Caldwell","ID","Sunrise Skypark","Airpark Loop Rd","83686",43.420169830322266,-116.70746612548828
"83607","Caldwell","ID","Jubilee Park","not_available","83686",43.416540354334735,-116.86332153260489
"83607","Caldwell","ID","Foote Park","Middleton Rd & Main St","83644",43.707369710814135,-116.61237301432487
"83607","Caldwell","ID","Tower Park","not_available","83656",43.728823,-116.801928
"83611","Cascade","ID","Legacy Park","1100 E Lake St","83638",44.911691,-116.097886
"83612","Council","ID","City Park","not_available","83612",44.727779388427734,-116.43721771240234
"83612","Council","ID","Dorsey Warr Memorial Park","not_available","83654",44.97071,-116.286904
"83616","Eagle","ID","Merrill Park","E Shore Dr","83616",43.68747024771531,-116.34666016153973
"83616","Eagle","ID","Guerber Park","not_available","83616",43.695595843895,-116.32529507842763
"83616","Eagle","ID","Eagle Sports Community Park","not_available","83703",43.671358877026904,-116.37311441133272
"83616","Eagle","ID","Tulley Park","not_available","83646",43.681956264715794,-116.29987159297994
"83616","Eagle","ID","Optimist Youth Sports Complex","9889 W Hill Rd","83703",43.689031,-116.305227
"83616","Eagle","ID","Hunter Creek Park","not_available","83669",43.705338,-116.492516
"83616","Eagle","ID","Reid Merill Park","637 E Shore Dr","83616",43.687521999999994,-116.34635
"83617","Emmett","ID","Emmett Park","Dewey St","83617",43.87632298141406,-116.49521529288427
"83617","Emmett","ID","Emmett city park","E Main St. and S Johns Ave","83617",43.87546842011615,-116.49303674697876
"83619","Fruitland","ID","Beck-Kiwanis Park","NW 7th St","97914",44.036823248673514,-116.96914921050025
"83619","Fruitland","ID","Lions Park","790 SW 3rd Ave","97914",44.025489807128906,-116.97389221191406
"83619","Fruitland","ID","Laxson's Park","not_available","97914",44.03055,-116.96754
"83619","Fruitland","ID","Moore Park","Oregon St","97914",44.02599525705622,-116.96585655212401
"83628","Homedale","ID","Wilder Park","not_available","83676",43.676420389935146,-116.90439776316742
"83629","Horseshoe Bend","ID","Foothills Heritage Park","not_available","83714",43.777307,-116.262527
"83634","Kuna","ID","Winchester Park","not_available","83634",43.48612594761173,-116.43523977726211
"83634","Kuna","ID","Nicholson Park","Sego Prairie Rd.","83634",43.49679888478838,-116.44104480743407
"83634","Kuna","ID","Kuna Park","Mendi and Goiri","not_available",43.49029689401987,-116.4149693228572
"83634","Kuna","ID","Kuna Chamber of Commerce Visitor and Information Center","123 Swan Falls Rd.","83634",43.488512,-116.413993
"83642","Meridian","ID","Julius M Kleiner Memorial Park","3600 E Fairview Ave","83642",43.62452005198794,-116.3483302317974
"83642","Meridian","ID","Fuller Park","not_available","83642",43.6153306715224,-116.44021196862964
"83642","Meridian","ID","Gordon Harris Park","2400 E Three Bars Dr.","not_available",43.582759857177734,-116.36640167236328
"83642","Meridian","ID","Storey Park","215 Franklin","83642",43.60391044921787,-116.3901621985049
"83642","Meridian","ID","Duck Pond","knapp st","83642",43.58111628,-116.34669422
"83642","Meridian","ID","Rockhampton swings","not_available","83709",43.55772404846821,-116.33791064300381
"83642","Meridian","ID","Renaissance Park","4155 S. Genoard","83642",43.570226475397554,-116.361693015753
"83642","Meridian","ID","The Park","Meridan Downs","83642",43.612109,-116.391513
"83642","Meridian","ID","The Park","1021 Tammy St","83646",43.62128461,-116.38089439
"83642","Meridian","ID","Bear Creek Park","2400 S. Stoddard Road","83642",43.58413910246949,-116.4025871035947
"83642","Meridian","ID","8th St. Park","862 W Delmar Dr","83646",43.624538,-116.404275
"83646","Meridian","ID","Settlers Park","3245 N Meridian Rd","83646",43.635513763759086,-116.39654679731264
"83646","Meridian","ID","Hobble Creek Park","not_available","83713",43.65871671628504,-116.34483125861175
"83647","Mountain Home","ID","Legacy Park","N Haskett St","83647",43.152615132288986,-115.70133150455615
"83647","Mountain Home","ID","Ridgecrest Park","not_available","83647",43.117562683271345,-115.70055307820262
"83647","Mountain Home","ID","East Side Park","E. 3rd St. S.","83647",43.13208856758132,-115.68260897489989
"83647","Mountain Home","ID","Carl Miller Park","N 10th E","83647",43.135201782566824,-115.68843283175559
"83651","Nampa","ID","West Park","S Park Dr","83651",43.57517195976179,-116.58552637012968
"83651","Nampa","ID","Train Depot Museum","1200 Front St","83651",43.5796012878418,-116.55873107910156
"83651","Nampa","ID","West Park","not_available","83651",43.573858789686284,-116.56673834129212
"83651","Nampa","ID","Dallan Woods Pool","W Mountain Ash Loop","not_available",43.56772125235692,-116.59285902718514
"83655","New Plymouth","ID","Big Nasty Hill Climb","5433 Big Willow Road","83661",44.0054522,-116.7769008
"83660","Parma","ID","Thunderegg Memorial Park","not_available","97913",43.877007,-116.99971
"83661","Payette","ID","Kiwanas park","not_available","83661",44.068356680634324,-116.93596597141749
"83672","Weiser","ID","Weiser Sports Complex","E. Park","not_available",44.24869239733394,-116.96543268138613
"83686","Nampa","ID","Wilson Creek Park","Juniper","83686",43.54268382,-116.56503963
"83686","Nampa","ID","Liberty Park","Constitution Way","83686",43.55285580682043,-116.5655548437946
"83686","Nampa","ID","Liberty Park","Holly St/Sunny Ridge Rd","not_available",43.552983612013385,-116.56520439793151
"83687","Nampa","ID","Pacific Pond","3801-3835 E Flamingo Ave","83687",43.59626591205597,-116.53053939342499
"83687","Nampa","ID","Optimist Park","not_available","83687",43.614807828394525,-116.51957805165864
"83702","Boise","ID","Ann Morrison Park","1000 Americana Blvd.","83702",43.61097388438795,-116.22076034545898
"83702","Boise","ID","Boise Whitewater Park","607 N. Whitewater Park Blvd.","83702",43.62549906059962,-116.23415287716911
"83702","Boise","ID","Shoreline Park","1500 W Shoreline Dr","83702",43.61595153808594,-116.21810913085938
"83702","Boise","ID","Ann Morrison Park Bridge","Boise River Greenbelt","83702",43.612154624596364,-116.21724128723145
"83702","Boise","ID","Julia Davis Rose Garden","700 S Capitol","83702",43.60935353748739,-116.20491364247654
"83702","Boise","ID","Camel's Back Park","1300 Heron St.","83702",43.6341804999836,-116.20282173156738
"83702","Boise","ID","Julia Davis Park","700 S Capitol Blvd","83702",43.60805300638365,-116.20200634002686
"83702","Boise","ID","Elm Grove Park","2200 W Irene St","83702",43.6369137551154,-116.21689796447754
"83702","Boise","ID","Capitol Park","601 W. Jefferson St.","83702",43.616550596862304,-116.19980132305622
"83702","Boise","ID","Tour de Fat","not_available","83706",43.611279832852645,-116.21961644676654
"83702","Boise","ID","Gordon S Bowen","1013 Ofarrell St","83702",43.624761460744274,-116.20096445289785
"83702","Boise","ID","Cecil D. Andrus Park","601 W Jefferson St","83702",43.616689,-116.199929
"83702","Boise","ID","Boise Hills Park","651 E. Clubview Dr.","83702",43.631979,-116.181243
"83702","Boise","ID","Playground At Julia Davis Park","Julia Davis Park","83702",43.60763739120416,-116.19910955429077
"83702","Boise","ID","McAuley Park","1650 W Resseguie St","83702",43.62641489235922,-116.20863676071166
"83702","Boise","ID","Kathryn Albertson Park","Americana Blvd","83702",43.614989503050964,-116.22451174818391
"83702","Boise","ID","FitOne - Blue Fit & Fun Wave","not_available","83702",43.616824,-116.201597
"83702","Boise","ID","C.W. Moore Park","5th & Grove St.","83702",43.613072633743286,-116.200102
"83702","Boise","ID","Sunset Park","2625 N 32nd St","83703",43.64412229774896,-116.23016582262618
"83702","Boise","ID","Pioneer Tot Lot","604 S Pioneer St","83702",43.61463255005393,-116.21211290359497
"83702","Boise","ID","Paddle Boats @ Julia Davis Park","Myrtle","83702",43.608548027507666,-116.20078121403614
"83702","Boise","ID","The Courtyard","not_available","83712",43.608684874209445,-116.18742794266758
"83703","Boise","ID","Castle Hills Park","5350 N Eugene St","83703",43.66856219933248,-116.26209878735104
"83703","Boise","ID","Veterans Memorial Park","State","83714",43.63803186910978,-116.23608112335205
"83703","Boise","ID","Owens Park","3496 N 39th St","83703",43.65178680419922,-116.23645782470703
"83703","Boise","ID","Catalpa Park","4516 W Catalpa Dr","83703",43.65593338012695,-116.2457275390625
"83703","Boise","ID","Mystic Cove Park","4750 W. Mystic Cove Way","Garden City",43.64346684907469,-116.25599384307861
"83703","Boise","ID","Westmorland Park","not_available","83704",43.63857476530242,-116.27050159557817
"83703","Boise","ID","Ladybird Park","7400-7622 W Chinden Blvd","83714",43.647211075415214,-116.27582140154297
"83703","Boise","ID","Esther Simplot Park","625 N 31st St","83702",43.62846755981445,-116.23084259033203
"83703","Boise","ID","Hillside Park","4150 n 36th","83703",43.65739423195354,-116.23073296028181
"83703","Boise","ID","Park","4555-4717 Willow Ln","83703",43.645063,-116.250455
"83703","Boise","ID","Roosters Pool Table","3949 Adams St","83714",43.6312788,-116.2430447
"83704","Boise","ID","Winstead Park","6150 Northview St","83704",43.6273286603166,-116.25769842528052
"83704","Boise","ID","Nottingham Park","5121-5299 W Decatur Dr","83704",43.653956763916185,-116.30338741672483
"83704","Boise","ID","Milwaukee Park","3950 N Milwaukee St","83704",43.640037536621094,-116.28376770019531
"83704","Boise","ID","Summerwind Park","3600 Jullion St","83704",43.639601290994335,-116.30727732250024
"83704","Boise","ID","Northview Park","8199 Northview St","83704",43.62678771947106,-116.28259090346877
"83704","Boise","ID","Jullion Park","3901 N Jullion Way","83704",43.6394699001521,-116.30765364687457
"83704","Boise","ID","Fairmont Park","Northview","not_available",43.626261164251424,-116.28066586776656
"83705","Boise","ID","Municipal Park","500 S. Walnut St.","83712",43.602869727477746,-116.18410757690967
"83705","Boise","ID","Owyhee Park","3400 W Elder St","83705",43.573589172808866,-116.22493743603974
"83705","Boise","ID","Williams Park","300 W Williams St","83706",43.5891227722168,-116.18414306640625
"83705","Boise","ID","Borah Park","801 S Aurora Dr","83705",43.597416,-116.262828
"83705","Boise","ID","Cassia Park","4600 W Camas St","83705",43.595652145504424,-116.23931151612891
"83705","Boise","ID","Baggley Park","1411 E Parkcenter Blvd","83706",43.58162093750352,-116.16527472488626
"83705","Boise","ID","Manitou Park","2001 S Manitou Ave","83706",43.58729553222656,-116.19976043701172
"83705","Boise","ID","Terry Day Park","1225 S Federal Way","83705",43.59238052368164,-116.20635223388672
"83705","Boise","ID","Pin Oak #9","500 S. Walnut St.","not_available",43.601924896240234,-116.18260192871094
"83705","Boise","ID","Fishing Hole","Municipal Park","not_available",43.603057861328125,-116.18352508544922
"83705","Boise","ID","Baggley Park (Civic)","E Parkcenter Blvd","83706",43.58295609032419,-116.16522290254349
"83705","Boise","ID","Morrison- Knudsen Nature Preserve Stream Walk","600 S Walnut St","83712",43.60376465190968,-116.1864709854126
"83705","Boise","ID","Ivywild Park","416 W. Ivywild St","83706",43.58135458245754,-116.18857383728027
"83705","Boise","ID","Parkcenter Pond","136 E Mallard Dr","83706",43.59677488411438,-116.18332977329956
"83705","Boise","ID","Shoshone Park","2800 W Canal St","83705",43.57766388483081,-116.21685037972262
"83705","Boise","ID","Warm Springs Park","203 S Homestead Dr","83712",43.60167694091797,-116.17320251464844
"83705","Boise","ID","Bowden Park","not_available","83705",43.59453540426798,-116.22186736722593
"83705","Boise","ID","Lidgard Brothers' Bench","Williams park","83706",43.589073,-116.18339
"83705","Boise","ID","Quarry View Park","1250 E Old Penitentiary Rd","83712-8247",43.60364745656535,-116.16764448524374
"83705","Boise","ID","Fort Boise Skatepark","509 E Highland St.","83706",43.59421920776367,-116.18756103515625
"83706","Boise","ID","Greenbelt","Boise River Greenbelt","83706",43.577665704479614,-116.15402899205343
"83706","Boise","ID","Helen B. Lowder","3450 Law","83706",43.57082145099802,-116.1633822749822
"83706","Boise","ID","MAW Gazebo","3451 E. Barber Valley Dr.","83716",43.572227478027344,-116.14167785644531
"83709","Boise","ID","Peppermint Park","2030 S Sumpter Way","83709",43.58388900756836,-116.33088684082031
"83709","Boise","ID","Pine Grove Park","8995 W Shoup Dr","83704",43.59991608065131,-116.29203425045428
"83709","Boise","ID","Sumpter Park","Sumpter Way","83642",43.58446938892257,-116.3319258642239
"83712","Boise","ID","Aldape Park","629 N San Jose Way","83712",43.61380360180314,-116.17956293060384
"83712","Boise","ID","Cypress Park","4382 S Tableridge Way","83716",43.563655853271484,-116.16392517089844
"83712","Boise","ID","Memorial Park","900 N 6th St","83702",43.622127532958984,-116.19481658935547
"83713","Boise","ID","DeMeyer Park","4980 N Tumbleweed Pl","83713",43.65150027129452,-116.32710167300242
"83713","Boise","ID","Redwood Park","2675 N Shamrock St","83713",43.62975054537888,-116.32490083003523
"83716","Boise","ID","Sandy Point","43 Sandy Point","not_available",43.52907250325005,-116.06539411224733
"83716","Boise","ID","Simplot Sports Complex","2401 E. Lake Forest Dr.","83716",43.54626819981808,-116.14253057974203
"83716","Boise","ID","Oregon Trail Historic Reserve","not_available","83716",43.550916,-116.123709
"83801","Athol","ID","Farragut State Park Visitor Center","not_available","83801",47.95157924726263,-116.60319704836142
"83801","Athol","ID","Old Doe Draw","18401–19299 E Cape Horn Rd","83803",47.985071,-116.535123
"83801","Athol","ID","Idaho Forest Group","23103-23907 U.S. 95","83801",47.865511221681224,-116.74924889589455
"83805","Bonners Ferry","ID","Veterans Memorial","not_available","83805",48.69519317111365,-116.31220251261017
"83814","Coeur D Alene","ID","City Park","415 W Mullan Rd.","83814",47.67444247051039,-116.78926378265957
"83814","Coeur D Alene","ID","Johnson Mill River Park","4340 W Shoreview Ln","83814",47.70063400268555,-116.84378814697266
"83814","Coeur D Alene","ID","McEuen Park","420 E Front Ave.","83814",47.671836412665634,-116.77945176706102
"83814","Coeur D Alene","ID","Independence Point","105 Northwest Blvd","83814",47.67354967163805,-116.78755167911524
"83814","Coeur D Alene","ID","Stoddard Park","2365 Prairie","83815",47.747663868677755,-116.81760923167755
"83814","Coeur D Alene","ID","Riverstone Park","1805 Tilford Lane","83814",47.69513163594891,-116.81115564340843
"83814","Coeur D Alene","ID","Sunshine Meadows Park","West Timberlake Loop","83815",47.741185652914076,-116.8188743008001
"83814","Coeur D Alene","ID","Higgens Point","not_available","83814",47.62971182989354,-116.68791462024141
"83814","Coeur D Alene","ID","The Falls Park","305 W 4th Ave","83854",47.710365192689686,-116.95319952903256
"83814","Coeur D Alene","ID","Cherry Hill Park","1530 N 15th St.","83814",47.69002317997791,-116.76246603186101
"83814","Coeur D Alene","ID","Ramsey Park","3525 N Ramsey Rd","83814",47.708000006416135,-116.80951595306396
"83814","Coeur D Alene","ID","Corbin Park","896 S Corbin Rd","83854",47.70320947950252,-116.98982361986945
"83814","Coeur D Alene","ID","Coeur d'Alene Soccer Complex","6701 N Courcelles Parkway","83814",47.73429870605469,-116.8178939819336
"83814","Coeur D Alene","ID","Q'emiln Park","12201 W Parkway Dr","83854",47.70303273112727,-116.95190906524658
"83814","Coeur D Alene","ID","Kiwanis Park","Weatherby Ave.","83854",47.7023705050883,-116.8776072567547
"83814","Coeur D Alene","ID","The Landings Park","3849 W. Longmeadow Dr.","83814",47.73576001575241,-116.83636936485908
"83814","Coeur D Alene","ID","Treaty Rock Park","not_available","83854",47.71438945258803,-116.95137798684625
"83814","Coeur D Alene","ID","Bluegrass Park","6036 N Courcelles Pkwy","83814",47.727120736435865,-116.81830748266012
"83814","Coeur D Alene","ID","White Pine Park","Poleline n Spokane  St.","83854",47.73154385,-116.94807179
"83814","Coeur D Alene","ID","Shared Harvest Community Garden","1009 Foster Ave","83814",47.67809205962642,-116.77149839086522
"83814","Coeur D Alene","ID","Hayden City Park","8930 N Government Way","83835",47.753028869628906,-116.78620147705078
"83814","Coeur D Alene","ID","North Pines Park","not_available","83815",47.743225,-116.789817
"83815","Coeur D Alene","ID","Tamarack RV Park and Vacation Cabins","3630 N Government Way","83815",47.711645632935195,-116.78618153733309
"83815","Coeur D Alene","ID","Northshire Park","3889 Nez Perce Rd","83814",47.71600447,-116.83235679
"83815","Coeur D Alene","ID","Sunset Park","1355 East Best Ave.","not_available",47.7010383605957,-116.76686096191406
"83815","Coeur D Alene","ID","Shadduck lane park","Shadduck lane","83815",47.71543516150453,-116.75782364239241
"83815","Coeur D Alene","ID","Ward B. Newcomb Memorial Park","North Fourth Street.","83814",47.729339599609375,-116.77554321289062
"83821","Coolin","ID","Coolin Community Park","251-499 Cavanaugh Bay Rd","83821",48.47617793333333,-116.84039585
"83822","Oldtown","ID","K/M Resorts - Old American Kampground","701 N Newport Ave","99156",48.18677008,-117.04110324
"83833","Harrison","ID","Harrison Public Park","101-111 Harrison Rd.","83833",47.45368097580035,-116.78743022188422
"83833","Harrison","ID","Harlow Launch","not_available","83833",47.458828,-116.824413
"83835","Hayden","ID","Crofoot Park","1500 W. Lancaster","not_available",47.78667423823052,-116.80509625272991
"83835","Hayden","ID","Fernan Hill","not_available","83835",47.713601,-116.674558
"83837","Kellogg","ID","Smelterville City Park","117 1st Ave","83868",47.54343032836914,-116.1760025024414
"83837","Kellogg","ID","Gene Day Park","Trail of the Coeur D'Alenes","83837",47.5143167418046,-116.0324478149414
"83837","Kellogg","ID","Silver Valley Veterans Memorial","not_available","83837",47.537799,-116.127814
"83839","Kingston","ID","West Shoshone County Park","not_available","83850",47.54088260273428,-116.22808217526759
"83843","Moscow","ID","East City Park","not_available","83843",46.73319698810188,-116.99007708950433
"83843","Moscow","ID","mountain view park","1380 mountain view","83843",46.7438671502693,-116.9713957653039
"83843","Moscow","ID","Jim Lyle Rotary Park","F Street","83843",46.74065335376249,-116.98648744930848
"83846","Mullan","ID","Trail of the Coeur d Alenes","not_available","83846",47.4640524,-115.8324185
"83851","Plummer","ID","Veterans of Schitsu'umsh","not_available","83851",47.34081280049323,-116.88987996098402
"83852","Ponderay","ID","Kootenai Memorial Park","Spokane street","not_available",48.311146,-116.530495
"83854","Post Falls","ID","Majestic Park","5750 W Majestic Ave","83858",47.792724609375,-116.86261749267578
"83854","Post Falls","ID","Post Falls Climbing Park","Post Falls","83854",47.702621359588186,-116.95480317574517
"83854","Post Falls","ID","Black Bay Park","1299 E 3rd","83854",47.702772802527406,-116.92800521850586
"83854","Post Falls","ID","Majestic Park","7502 W Majestic Ave","83858",47.792877197265625,-116.88543701171875
"83854","Post Falls","ID","Stub Myer Park","8316 W Montana St.","83858",47.805779749500864,-116.89669011241388
"83860","Sagle","ID","Travers Park","Pine Street","83864",48.274102083219766,-116.57808128307651
"83860","Sagle","ID","Farmin Park","not_available","83864",48.275071,-116.551118
"83860","Sagle","ID","Great Northern Park","601-799 N Lincoln Ave","83864",48.27855698333333,-116.57612646666666
"83869","Spirit Lake","ID","Spirit Lake City Park","not_available","83869",47.966466712560056,-116.86873279372435
