"zip","city","state","name","address","postalCode","lat","lon"
"96701","Aiea","HI","East Foster Village community Park","not_available","not_available",21.365968297608713,-157.91778975210008
"96701","Aiea","HI","Ka'onohi Neighborhood Park","not_available","96701",21.39586841006965,-157.92808531554186
"96701","Aiea","HI","Nahele Neighborhood Park","98-1801 Nahele St.","96701",21.406460502194218,-157.94306248192748
"96701","Aiea","HI","Waiau District Park","98-1650 Kaahumanu St","96782",21.402985633275,-157.95155664385737
"96701","Aiea","HI","Halawa District Park","99-795 Iwaiwa St","96701",21.373402434185444,-157.91520595550537
"96701","Aiea","HI","Aiea Bay State Recreation Area","Kamehameha Hwy","96701",21.377714807286775,-157.93589573643726
"96701","Aiea","HI","Kilinoe Park","Kilinoe Street","96701",21.394806,-157.944283
"96701","Aiea","HI","Kaahele Neighborhood Park","98-750 Kaahele St.","96701",21.40000448862587,-157.9375645859264
"96701","Aiea","HI","Moanalua Valley Park","1849 Ala Aolani St","96819",21.373617000000003,-157.880908
"96701","Aiea","HI","Richardson Field","Off Kamehameha Highway","96820",21.372042849336548,-157.93398033833057
"96701","Aiea","HI","Hillside Park","not_available","96819",21.366645,-157.903228
"96701","Aiea","HI","Pearlridge Community Park","98-960 Moanalua Road","96701",21.387380533192626,-157.9433885081928
"96701","Aiea","HI","East Foster Village Community Association","not_available","96818",21.366101999999998,-157.91795
"96703","Anahola","HI","Anahola Village","not_available","96754",22.145798,-159.302275
"96703","Anahola","HI","Common Ground","Kuawa Rd","not_available",22.197892,-159.417229
"96704","Captain Cook","HI","Kealakekua Bay State Historical Park","Napo'opo'o Road","96704",19.474955456242835,-155.91960068930436
"96704","Captain Cook","HI","Kona Paradise Park","not_available","96704",19.314889,-155.881567
"96704","Captain Cook","HI","Kipahoehoe Natural Area Reserve","not_available","96740",19.466717217844025,-155.89823810807047
"96704","Captain Cook","HI","Manuka","not_available","96737",19.109665192541854,-155.82552348880665
"96704","Captain Cook","HI","Clarence Lum Won Park","not_available","96750",19.515817,-155.927576
"96705","Eleele","HI","Eleele Park","not_available","96705",21.90947134826379,-159.58303407642134
"96705","Eleele","HI","hanapepe beach park","not_available","96716",21.904094696044922,-159.59262084960938
"96706","Ewa Beach","HI","Geiger Park","91-1129 Kahiuka St.","96706",21.33203945261931,-158.02785971611837
"96706","Ewa Beach","HI","Asing Center Community Park (Ewa)","91-1450 Renton Rd","96706",21.351528520343862,-158.0253445830157
"96706","Ewa Beach","HI","Ewa Pu'uloa District Park","Keoneula Blvd","not_available",21.319180906845187,-158.0222625596848
"96706","Ewa Beach","HI","Ewa By Gentry Park","not_available","96706",21.335409567360966,-158.01742076236624
"96706","Ewa Beach","HI","Big Green Wall","Renton Rd.","96706",21.338541522944283,-158.03274443625423
"96706","Ewa Beach","HI","Ewa By Genry Community Park 2","91-1200 Keaunui Dr","96706",21.331963497575035,-158.01782248387283
"96706","Ewa Beach","HI","Thomas H Gentry Community Park","91 1795 Keanui Dr","96706",21.345034581672653,-158.0225907474268
"96706","Ewa Beach","HI","‘Ewa Beach Park (Ewa Beach Park)","Fort Weaver Rd","96706",21.31387654835605,-157.99195522016663
"96706","Ewa Beach","HI","Future Park","Idk","96706",21.344431,-158.022505
"96706","Ewa Beach","HI","Sun Terra Park","91-110 Launahele St","not_available",21.330867798353736,-158.0242034584651
"96706","Ewa Beach","HI","Ocean Point Park","Kaiko Street","96706",21.319189182995746,-158.0222386721252
"96706","Ewa Beach","HI","Sun Terra Neighborhood Park","91-140 Pilokahe Pl","not_available",21.331119,-158.022926
"96706","Ewa Beach","HI","Hill Park","Mik'iala","96706",21.351102,-158.028476
"96706","Ewa Beach","HI","Keolu's Dog Park","Kapolei prkwy","96706",21.319189589832835,-158.02219129191394
"96706","Ewa Beach","HI","Aloha Aina Park","not_available","96814",21.327313,-157.981821
"96707","Kapolei","HI","Nanakuli Ranch","89-346 Kauwahi Ave","96792",21.381738662719727,-158.13714599609375
"96707","Kapolei","HI","Makakilo Community Park","92-1140 Makakilo Dr","96707",21.363015697294784,-158.08919577123478
"96707","Kapolei","HI","Kapolei Community Park","not_available","96707",21.337011743866515,-158.06467221918214
"96707","Kapolei","HI","Cambridge Park","92-1348 Panana St","96707",21.359590530395508,-158.08311462402344
"96707","Kapolei","HI","kalanianaole beach park","not_available","96792",21.377465,-158.142756
"96707","Kapolei","HI","Nanakuli Community Park","21.37878	-158.14341","not_available",21.377958241691875,-158.14368724822998
"96707","Kapolei","HI","Department of Parks and Recreation","1000 Uluohia St Ste 309","96707",21.329835891723633,-158.08201599121094
"96708","Haiku","HI","Pukalani Swimming Pool & Park","63 Pukalani St.","96788",20.837289810180664,-156.3434600830078
"96708","Haiku","HI","Pukalani Skate Park","not_available","96768",20.838193,-156.343678
"96708","Haiku","HI","Rice Memorial Park-Kula","Kula Hwy.","96790",20.74147282873563,-156.33264811892136
"96708","Haiku","HI","Kaumahina State Wayside Park","20.8742°N 156.1725°W","96713",20.872105248747367,-156.17194175720215
"96708","Haiku","HI","Pukalani Park","63 Pukalani St.","96768",20.837289810180664,-156.3434600830078
"96708","Haiku","HI","Rainbow Park","Baldwin Ave","96768",20.890544006161992,-156.34827635339605
"96710","Hakalau","HI","World Botanical Gardens & Waterfalls","not_available","96710",19.90378578758783,-155.13654251175004
"96710","Hakalau","HI","Kolekole Beach Park","Kolekole Beach Park","96728",19.881140961362366,-155.11951758630508
"96712","Haleiwa","HI","Hale'iwa Beach Park","62-449 Kamehameha Hwy","96712",21.599683,-158.102895
"96712","Haleiwa","HI","Ehukai Beach Park","21 Ke Nui Rd.","96712",21.669009921040193,-158.05068230847755
"96712","Haleiwa","HI","Sunset Beach Park","59-104 Kamehameha Hwy","96712",21.674602766333145,-158.03988813428634
"96712","Haleiwa","HI","Waimea Bay","61-031 Kamehameha Hwy","not_available",21.63957589087619,-158.0633803528228
"96712","Haleiwa","HI","Waimea Valley Waterfall","59-864 Kamehameha Hwy","96712",21.6361111,-158.0540155
"96712","Haleiwa","HI","Kahuku District Park","not_available","96731",21.66597222222222,-157.99965277777775
"96712","Haleiwa","HI","Jameson's Beach Park","not_available","96712",21.589233708497996,-158.10307002915238
"96713","Hana","HI","Kipahulu Point Park","not_available","96713",20.65968824385277,-156.04490424171797
"96714","Hanalei","HI","Waimea Canyon Lookout","not_available","96796",22.071825580949895,-159.66162220858752
"96716","Hanapepe","HI","Russian Fort Historical Park","Kaumualii Hwy","96769",21.951907097610082,-159.66310004063445
"96716","Hanapepe","HI","Hoffguard Park","Waimea","96796",21.95470832306586,-159.667010307312
"96716","Hanapepe","HI","Waimea Valley Park","4563-4599 Maile Rd","96796",21.956380043856715,-159.66642558574677
"96716","Hanapepe","HI","Lucy wright park","4471 A alawai road","not_available",21.953131583498475,-159.66588084364133
"96716","Hanapepe","HI","Kaumakani Ball Park","Highway 50","96741",21.928003104514318,-159.6340672982958
"96717","Hauula","HI","Swanzy Beach Park","51-489 Kamehameha Hwy","96730",21.556322,-157.853059
"96717","Hauula","HI","Hauula Beach Park","54-135 Kamehameha Hwy","96717",21.608960759869316,-157.90913851536013
"96719","Hawi","HI","Kamehameha Park","Kamehameha Park","96755",20.233787930681558,-155.7995386210793
"96720","Hilo","HI","Rainbow Falls Park","Rainbow drive","96720",19.718883990335353,-155.1086058246475
"96720","Hilo","HI","Lili‘uokalani Park And Gardens","Lihiwai St","96720",19.726370515451844,-155.0690873746714
"96720","Hilo","HI","University Heights Park","not_available","96720",19.705444643356874,-155.0856069010443
"96720","Hilo","HI","Herbert C. Shipman Park","not_available","96749",19.622622555008988,-155.04200079220522
"96720","Hilo","HI","Kikaha Park","Kikaha St","96720",19.678403845593884,-155.0962804102188
"96720","Hilo","HI","Kurtistown Park","17-400 Volcano Rd","96760",19.591157913208008,-155.06118774414062
"96720","Hilo","HI","Coconut Island Park","Coconut Island","not_available",19.72916207813565,-155.0683167533323
"96720","Hilo","HI","Chuks","KALANIANAOLE","96720",19.730005584516142,-155.04890114752268
"96720","Hilo","HI","Pe‘epe‘e Boiling Pots","Wailuku River Boiling Pots State Park","96720",19.714121363499974,-155.13098500319603
"96720","Hilo","HI","Mo'Oheau County Park","Kamehameha Ave","96720",19.723906487087667,-155.08436135242482
"96720","Hilo","HI","Ainaloa Park","Ainaloa drive","96749",19.526643091024315,-154.99414251668048
"96720","Hilo","HI","Kuhio Kalaniana'ole Park","212-300 Kalanianaole Ave","96720",19.725027399339137,-155.06052951963835
"96725","Holualoa","HI","Harold H. Higashihara Park","Kailua Kona,HI,96740","96740",19.551992247567778,-155.93644061020626
"96727","Honokaa","HI","Waimea Park","1257 Lindsey Rd.","96743",20.022145433629735,-155.67124843597412
"96727","Honokaa","HI","Honokaa Park","not_available","96727",20.07571393976049,-155.46736868971226
"96731","Kahuku","HI","Kahuku - Laie Bike Path","Kamehameha Hgwy","not_available",21.671212206002107,-157.93974982453457
"96731","Kahuku","HI","La'ie Park","not_available","96762",21.650459519239423,-157.93029509317014
"96731","Kahuku","HI","Paddle Board Legends Tour","55-370 Kamehameha Hey","not_available",21.64181,-157.919818
"96732","Kahului","HI","Kahului Community Center Park","275 Uhu St","96732",20.8822889669311,-156.47843907639376
"96732","Kahului","HI","Keopuolani Park","Kanaloa Ave.","96793",20.893897558765214,-156.4843225479126
"96732","Kahului","HI","Kamalii Park","not_available","96732",20.881587,-156.461417
"96732","Kahului","HI","Botanical Gardens","224-262 Kanaloa Ave","96793",20.892923,-156.48635488333332
"96732","Kahului","HI","Kahului Community Center","Onehee Ave.","96732",20.882069558413864,-156.4786148071289
"96732","Kahului","HI","Wells Park","not_available","96793",20.887785071683854,-156.49026874282038
"96732","Kahului","HI","Ho'aloha Park","Heterodox View","96732",20.891821324136266,-156.46883018948964
"96732","Kahului","HI","Maui Nui Botanical Gardens","150 Kanaloa Ave","96732",20.89082908630371,-156.48663330078125
"96734","Kailua","HI","Kailua Beach Park","450 Kawailoa Rd","96734",21.396153382110416,-157.7255903744949
"96734","Kailua","HI","Pohakupu Neighborhood Park","not_available","96734",21.380669999655744,-157.75550621016964
"96734","Kailua","HI","Waimanalo District Park & Gym","not_available","96795",21.341630935668945,-157.71546936035156
"96734","Kailua","HI","Lanikai Park","Kaiolena Dr","96734",21.390645817744716,-157.71685928106308
"96734","Kailua","HI","Nuʻuanu Pali Lookout","Nuuanu Pali Dr.","96817",21.36715692215992,-157.79309532128397
"96734","Kailua","HI","Kaelepulu Mini Park","Awakea Rd","96734",21.393722106322436,-157.73173184026746
"96734","Kailua","HI","Friendship Garden","Kokokahi Place","96744",21.406031156308927,-157.77671648792506
"96734","Kailua","HI","Down by the river","Mokulele Dr.","96744",21.40016527403115,-157.79007221594512
"96734","Kailua","HI","Lanikai Community Park","126 Kaiolena Dr","96734",21.39102,-157.716332
"96734","Kailua","HI","Souzas Dairy","not_available","96744",21.40201426485658,-157.7868837335133
"96738","Waikoloa","HI","Lava Lava Grassy Game Area","not_available","96743",19.913462,-155.88767
"96738","Waikoloa","HI","Kohala Suites Grill Lanai","not_available","96738",19.921691,-155.878005
"96738","Waikoloa","HI","Petroglyph Park","Holoholokai Beach Park Rd","96743",19.955313866666668,-155.859383
"96738","Waikoloa","HI","Waikoloa Community Park","Pu‘u Nui Street","96738",19.93883418436276,-155.78733444213867
"96738","Waikoloa","HI","Ho‘okō Community Park","Ho‘okō Street","96738",19.946685721933957,-155.79276323318481
"96740","Kailua Kona","HI","Wawaloli Beach Park","Wawaloli Beach Park","96740",19.71560081181756,-156.04901654292712
"96740","Kailua Kona","HI","Henry Sues","73-1497","96740",19.716112,-155.98736
"96740","Kailua Kona","HI","Kelua town square","Kelua","71552",19.640945,-156.0023997
"96741","Kalaheo","HI","Kōloa Park","Maluhia Rd","96756",21.908049521302004,-159.46460719906597
"96742","Kalaupapa","HI","Kalaupapa Overlook","Highway 470","96757",21.175470195095926,-157.0051857687611
"96743","Kamuela","HI","Mahukona","not_available","96719",20.187795984032554,-155.89697229478668
"96743","Kamuela","HI","Lapakahi State Historical Park","Kawaihae-Mahukona Rd","96743",20.175405260739417,-155.89756455560888
"96744","Kaneohe","HI","Kahaluu Regional Park","Waihee Road","not_available",21.458739371501686,-157.84234577550424
"96744","Kaneohe","HI","Kaneohe Community Park","46-13 Alaloa st","96744",21.41752,-157.805624
"96744","Kaneohe","HI","Heeia Playground","46-202 Haiku Rd","96744",21.418023765158527,-157.81023383884084
"96744","Kaneohe","HI","Senator Fong's Plantation & Garden","47-285 Pulama Rd","96744",21.47003173828125,-157.85475158691406
"96744","Kaneohe","HI","Kaneohe Judo Academy","45-660 Keaahala Rd","96744",21.409454345703125,-157.80894470214844
"96744","Kaneohe","HI","Kaneohe Bay","46-499 Kamehameha Hwy","not_available",21.44384870727511,-157.81072867082304
"96744","Kaneohe","HI","Ahuimanu Community Park","47-450 Hui Aeko Pl","96744",21.435773849487305,-157.82962036132812
"96744","Kaneohe","HI","Kāneʻohe District Park","45-660 Keaahala Rd.","96744",21.410837290360544,-157.8099020104045
"96744","Kaneohe","HI","Komo Mai","46 Kamehameha Hwy","96744",21.442294716615276,-157.80841169390428
"96746","Kapaa","HI","Lihi Park","not_available","96746",22.06146878570524,-159.32048296388834
"96746","Kapaa","HI","Lydgate Beach","Highway 56","96722",22.04196971242537,-159.3349313735962
"96746","Kapaa","HI","Wailua Homesteads Park (Sunshine Markets)","Malu Road","96746",22.060256714128204,-159.36806317471118
"96746","Kapaa","HI","Hele On Kauai Bike Rentals","4-1286 Kuhio Hwy.","96746",22.073850631713867,-159.31881713867188
"96748","Kaunakakai","HI","One Alii Park","Kamehameha V Hwy.","96748",21.070864371435302,-156.97595915636765
"96748","Kaunakakai","HI","Kapuaiwa Coconut Grove","not_available","96748",21.095807093400897,-157.03635072427105
"96748","Kaunakakai","HI","Duke Maliu Regional Park","240 W kamehameha V hwy","96748",21.087012639592885,-157.0162798230599
"96749","Keaau","HI","Ainaloa Longhouse And Park","Ainaloa boulevard","96749",19.53332603078647,-154.985213
"96752","Kekaha","HI","Kekaha Faye Park","Faye Park","not_available",21.969697714029255,-159.71646706328704
"96753","Kihei","HI","Kalama Beach Park","1910 South Kihei Rd","not_available",20.73125401223148,-156.45236814164485
"96753","Kihei","HI","Piikea Park & Soccer Field","not_available","96753",20.752743816945998,-156.44968752222613
"96753","Kihei","HI","kilohana street","Kilohana Dr, Wailea-Makena, HI 96753","96753",20.697368620251318,-156.43483703576476
"96753","Kihei","HI","Waipuilani Park","W Waipuilani Rd","not_available",20.755500149844885,-156.45893662935896
"96756","Koloa","HI","Poipu Beach Park","not_available","96756",21.87387349733597,-159.45466781860307
"96756","Koloa","HI","The Point At Poipu","1613 Pee Rd.","96756",21.87154832245745,-159.4422841939152
"96759","Kunia","HI","Bowman Park","Lyman Rd","96786",21.487371851229444,-158.08775769524988
"96761","Lahaina","HI","Honokowai Beach Park","not_available","96761",20.954292848579318,-156.68636620683972
"96761","Lahaina","HI","The Banyan Tree","Front St","96761",20.871903,-156.677723
"96761","Lahaina","HI","Launiupoko Beach Park","Honoapiilani Hwy","96761",20.84332892559946,-156.65282046339158
"96761","Lahaina","HI","Malu Ulu Olele Park","Front Street","96761",20.869599030636607,-156.67460918426514
"96761","Lahaina","HI","Nakalele Blowhole","Mile marker 38.5","96761",20.99734274071184,-156.654052734375
"96761","Lahaina","HI","Moku'ula","131 Shaw St","96761",20.868419647216797,-156.674560546875
"96763","Lanai City","HI","Dole Park","not_available","96763",20.825219005618855,-156.9194054499252
"96764","Laupahoehoe","HI","Laupāhoehoe Point County Park","Laupāhoehoe Point County Park","96764",19.992582055684725,-155.2408453358669
"96764","Laupahoehoe","HI","Maulua Tract","Mana Road","96764",19.868684768676758,-155.33718872070312
"96766","Lihue","HI","Puhi Park","not_available","96766",21.96511086484346,-159.3919454483435
"96766","Lihue","HI","Nawiliwili Park","3366 Waapa Rd","96766",21.958151819841692,-159.35361021261687
"96772","Naalehu","HI","Waiohinu Park","not_available","96772",19.065018,-155.607412
"96773","Ninole","HI","Waikaumalo Park","Old Māmalahoa Highway","96773",19.93246492398881,-155.1629376411438
"96778","Pahoa","HI","Aid Station Three","not_available","96785",19.432701355615624,-155.23526867112446
"96778","Pahoa","HI","Kīlauea Iki Crater","Kīlauea","96785",19.415748985196526,-155.2429844329173
"96778","Pahoa","HI","East Coast Pit 17","East Coast","96778",19.514422,-154.809744
"96779","Paia","HI","Paia Ballpark","not_available","96779",20.918135,-156.37534
"96782","Pearl City","HI","Manana Community Park","Kuala St","96782",21.411021584503395,-157.96634585673434
"96782","Pearl City","HI","Manana Neighborhood Park","not_available","96782",21.409314022246342,-157.96769504432206
"96782","Pearl City","HI","Hoaloha Park","Hoaloha St.","96818",21.39736266675555,-157.97493756109577
"96782","Pearl City","HI","Manana Kai Community Park","Hooli Circle","not_available",21.411080298641103,-157.9664025714679
"96782","Pearl City","HI","Neal S. Blaisdell Park","Kamehameha Hwy.","96701",21.38654211308897,-157.9569472249517
"96786","Wahiawa","HI","Kanamee Square","Kanamee St.","96789",21.45872341828688,-158.01000571526143
"96786","Wahiawa","HI","mendonca Park","not_available","96786",21.490114212036133,-158.0445098876953
"96786","Wahiawa","HI","Launani Valley Park","not_available","96789",21.47637972544276,-158.0168094471295
"96786","Wahiawa","HI","Wahiawa State Freshwater Recreaton Area","380 Walker Ave","96786",21.489933099562705,-158.0276792319642
"96786","Wahiawa","HI","16 Acres (Makaunulau Park)","95-800 Makaunulau St.","96789",21.458906446578727,-158.00430371063945
"96786","Wahiawa","HI","Mililani Dog Park","Ukuwai St.","96789",21.46819658614207,-158.00422127998348
"96786","Wahiawa","HI","Huey Park- Hafa Adai Clubs Xmas Party","Huey Park","96786",21.483137,-158.046854
"96786","Wahiawa","HI","Mililani Mauka Park","Lehiwa Dr","96789",21.477486660156075,-157.99321277269934
"96789","Mililani","HI","Crestview Community Park","Lumikula St","96797",21.40969374590719,-157.99477307011267
"96789","Mililani","HI","Mililani District Park","94-1150 Lanikuaha Ave","96789",21.440339506507275,-158.0183464685243
"96789","Mililani","HI","Patsy T. Mink Central Oahu Regional Park & Playground","94-801 Kamehameha Hwy","96797",21.41312110472371,-158.0041265487671
"96789","Mililani","HI","Kuahelani Neighborhood Park","Kamehameha hwy","96789",21.449617159156706,-158.01596292127672
"96789","Mililani","HI","Kanoelani Neighborhood Park","Oli Lp.","96797",21.41679657119926,-157.99553821199254
"96789","Mililani","HI","Park","not_available","96797",21.411913534925414,-157.99524465270335
"96789","Mililani","HI","Waipio Neighborhood Park","94-111 Oli Loop","96797",21.4168791405861,-157.9994073911912
"96789","Mililani","HI","Holanialii Park","94-239 Holanialii St","96789",21.438753128051758,-158.02304077148438
"96790","Kula","HI","polipoli","not_available","96790",20.677460804268563,-156.3298825494276
"96791","Waialua","HI","Aweoweo Beach Park","68 Aweoweo Street","96791",21.583118251291037,-158.13983150242657
"96791","Waialua","HI","Waialua District Park","not_available","96791",21.575527868440535,-158.1234069925132
"96792","Waianae","HI","Pokaʻi Bay Beach Park","85-037 Waianae Valley Rd","96792",21.442690253773026,-158.18926838247523
"96793","Wailuku","HI","Iao Valley - Kepaniwai","1-199 Iao Valley Rd","96793",20.88280308239198,-156.53558986091926
"96793","Wailuku","HI","Terrace Park","Alihilani Street","96793",20.907377,-156.497776
"96797","Waipahu","HI","Salt Lake District Park","1159 Ala Lilikoi Pl","96818",21.35271556546077,-157.9110830032854
"96797","Waipahu","HI","Aliamanu Park","4282 Salt Lake Blvd","96701",21.357106269456988,-157.92619228363037
"96797","Waipahu","HI","Hoa Aloha Neighborhood Park","Ala Loke St","96818",21.34685340245923,-157.9118472614098
"96797","Waipahu","HI","Moanalua Botanical Gardens","Mahiole Street","96819",21.347885844590643,-157.89334397638817
"96797","Waipahu","HI","USS Parche Submarine Memorial Park","Pierce St","not_available",21.35494796577169,-157.94016122817993
"96797","Waipahu","HI","Mitsuo “Mits” Shito Waikele Neighborhood Park","94-920 Lumiauau St","96797",21.403587787958923,-157.9971794632653
"96813","Honolulu","HI","Ala Moana Beach Park","1201 Ala Moana Blvd","96814",21.288182940561562,-157.84347517471792
"96813","Honolulu","HI","Booth Park","2331 Kanealii Ave","96813",21.320200899110226,-157.84306526184082
"96813","Honolulu","HI","Makiki District Park","1541-1599 Keeaumoku St","96822",21.303301814416155,-157.8365648911472
"96813","Honolulu","HI","Kewalo Basin","420 Ward Ave","96814",21.293173047096342,-157.85664796829224
"96813","Honolulu","HI","Lanakila District Park","1701 Lanakila Ave","not_available",21.32680903284648,-157.86236650316843
"96813","Honolulu","HI","Allure Waikiki Public Park","1837 Kalakaua Ave","96815",21.287124,-157.834066
"96813","Honolulu","HI","Kalaepohaku Neighborhood Park","3034 Gulston St.","96816",21.29855852473893,-157.80486713247532
"96813","Honolulu","HI","Mānoa Valley District Park","2721 Kaaipu Ave","96822",21.315047129000497,-157.80856305412246
"96813","Honolulu","HI","Old Stadium Park","2237 S King St","96826",21.293308678344367,-157.8264818565974
"96813","Honolulu","HI","Thomas Square","925 S Beretania St.","96814",21.30279341956419,-157.84959955625294
"96813","Honolulu","HI","Kalo Place Mini Park","2705 Varsity Place","96926",21.292117,-157.819337
"96813","Honolulu","HI","Frank C. Judd Park","1960 Kapiolani Blvd","96826",21.289907455444336,-157.8328399658203
"96813","Honolulu","HI","Kolowalu Park","Queen Street","96814",21.29391427128064,-157.85004262104815
"96813","Honolulu","HI","Papakolea Community Park","2150 Tantalus Dr","96813",21.317180633544922,-157.8406219482422
"96813","Honolulu","HI","Aala Park","not_available","96817",21.31467165064978,-157.86391507549973
"96813","Honolulu","HI","Na Pueo Park","1840 Alewa Dr","96817",21.33851610807201,-157.85171864295793
"96813","Honolulu","HI","Mother Waldron Neighborhood Park","not_available","96813",21.299104,-157.85845
"96813","Honolulu","HI","Pu'unui Community Park","2555 Puunui Ave","96817",21.33409787474468,-157.84941080386818
"96813","Honolulu","HI","Hobron City","not_available","96815",21.287180711004734,-157.83652461753772
"96813","Honolulu","HI","SBP park","2528 Klebahn Place","96817",21.330874730708793,-157.8417992591858
"96813","Honolulu","HI","Cartwright Neighborhood Park","1314 Makiki St","96814",21.301511583248917,-157.83855588878282
"96814","Honolulu","HI","Picnic Area 32","Magic Island","96815",21.28549941371553,-157.84671783459325
"96814","Honolulu","HI","Kaka'ako Agora","441 Cooke Street","not_available",21.297856284173054,-157.85919291480033
"96814","Honolulu","HI","カメハメハ大王","Kalakaua Ave","96815",21.290074,-157.848245
"96814","Honolulu","HI","Piikoi Street Mini Park","Piikoi St","96822",21.30422143877474,-157.84234768170725
"96815","Honolulu","HI","Kapiolani Regional Park","3840 Paki Ave","96815",21.265220381866396,-157.81868934631348
"96815","Honolulu","HI","Fort DeRussy Beach Park","Kalakaua Ave & Saratoga Rd","96815",21.27913739410871,-157.83433198928833
"96815","Honolulu","HI","Waikīkī Gateway Park","Kalakaua Ave","not_available",21.283791352148345,-157.83123933011305
"96815","Honolulu","HI","Huge Banyan Tree On The Beach","Kalakaua","not_available",21.27506762848795,-157.82493689433386
"96815","Honolulu","HI","Ainahau Triangle Park","Kalia Rd","not_available",21.28311542882246,-157.83313013364148
"96815","Honolulu","HI","Waikiki Artfests","Kapiolani park","96815",21.269181020692734,-157.8218071178605
"96815","Honolulu","HI","Crane Park","2903 Kaimuki Avenue","96816",21.28493583534591,-157.8164063056863
"96815","Honolulu","HI","Dolphins and You","307 Lewers St #401","96815",21.2803963,-157.8292356
"96816","Honolulu","HI","Hunakai Park","Hunakai Avenue","96816",21.266522288170005,-157.78571361602323
"96816","Honolulu","HI","Palolo Valley District Park","2007 Palolo Ave","96816",21.299372304849236,-157.79561015474755
"96816","Honolulu","HI","Mau'umae Nature Park","not_available","96816",21.285531119279437,-157.79006226525544
"96816","Honolulu","HI","Fort Ruger Park","Paikau Street","96816",21.260106445968077,-157.79654741782696
"96816","Honolulu","HI","Pukele Mini Park","1415 Pukele Ave","96816",21.28984982461269,-157.8034230063632
"96816","Honolulu","HI","Wai‘alae Beach Park (Waialae Beach Park)","4925 Kahala Ave","96816",21.2699094237587,-157.77742967065458
"96816","Honolulu","HI","Puu O Kaimuki Mini Park","Sunset Street","96816",21.27336020218059,-157.79842776686687
"96816","Honolulu","HI","Harold L. Lyon Arboretum","3860 Manoa Rd","96822",21.332849053054726,-157.80179260654265
"96816","Honolulu","HI","Waahila Ridge State Recreation Area","End of Ruth Place","96816",21.307167378256363,-157.79770374298096
"96816","Honolulu","HI","Honolulu City Wilson Park","4901 Kilauea Ave","96816",21.281997680664062,-157.78488159179688
"96816","Honolulu","HI","Laukahi Slopes Mini Park","not_available","96821",21.283266,-157.76665
"96816","Honolulu","HI","Triangle Park aka Ft Ruger Park","Diamond Head Road","96816",21.262190317160684,-157.7932175162839
"96816","Honolulu","HI","Wailupe Beach Park","4983-5013 Hawaii 72","96821",21.276604669198704,-157.7600061449136
"96816","Honolulu","HI","Kamole Mini Park","1451 Kamole St.","96821",21.28046204110777,-157.76721239089966
"96816","Honolulu","HI","Nuvema Town","316 poelua st","not_available",21.315862,-157.806344
"96817","Honolulu","HI","Kalakaua District Park","755 McNeill St","96817",21.327184713547346,-157.8767112148942
"96817","Honolulu","HI","Sand Island Beach Park","400 Sand Island Pkwy","96819",21.30165037424943,-157.87628040645396
"96817","Honolulu","HI","Wm. G. Irwin Memorial Park","S Nimitz Hwy","96813",21.307686,-157.864384
"96817","Honolulu","HI","Peter Buck Park","1214 Kapalama Ave","96817",21.331217173721736,-157.86764679002016
"96818","Honolulu","HI","Ala Pu'umalu Park","1575 Ala Puumalu St.","96818",21.35665662547748,-157.90353298187256
"96818","Honolulu","HI","Hot Mom Park","Vicars Rd","96818",21.333048343458692,-157.96379433982568
"96818","Honolulu","HI","North Kildonan Area","North Kildonan Area","96818",21.362845,-157.942517
"96821","Honolulu","HI","Wailupe Valley Playground","969 Hind Iuka Dr.","96821",21.288558332308728,-157.75667022844135
"96821","Honolulu","HI","ʻĀina Haina Community Park","827 W Hind Dr","96821",21.27879171233807,-157.75684512878135
"96821","Honolulu","HI","Nehu Mini Park","5231 Nehu Pl.","96821",21.281316806990436,-157.7493166923523
"96822","Honolulu","HI","tamitown","808 Tami Drive","96826",21.292673224909777,-157.82665014266968
"96822","Honolulu","HI","Hanupaoa Park","111 Hanupaoa St","96822",21.30671,-157.807972
"96825","Honolulu","HI","Kalama Valley Park","not_available","96825",21.299910666556144,-157.67310649799347
"96825","Honolulu","HI","Koko Head Regional Park","423 Kaumakani Street","96825",21.27784636164204,-157.69416737386197
"96825","Honolulu","HI","Koko Head Neighborhood Park","435 Poipu Drive","96825",21.274009704589844,-157.70498657226562
"96826","Honolulu","HI","needle park","not_available","96826",21.289230346679688,-157.8226776123047
