"zip","city","state","name","address","postalCode","lat","lon"
"73003","Edmond","OK","Shannon Miller Park","not_available","73034",35.654196414735964,-97.4767962708975
"73003","Edmond","OK","Stephenson Park","E 4th & Littler","not_available",35.65034819812812,-97.4793291091919
"73003","Edmond","OK","Chitwood Park","not_available","73003",35.661140687191555,-97.49010318525502
"73003","Edmond","OK","Meadow Lakes Park","not_available","not_available",35.661148133798875,-97.49010723485195
"73003","Edmond","OK","Cedar Pointe Recreation Area","2200 Cedar Meadow Ln","not_available",35.67578887939453,-97.51299285888672
"73003","Edmond","OK","Westborough Park","1903 Ryan Way","73003",35.67391604937908,-97.48766074571877
"73003","Edmond","OK","Pebble Creek Park","1616 Victoria Dr, Edmond, OK 73003","73003",35.66836929321289,-97.50565338134766
"73005","Anadarko","OK","Randlett Park","not_available","73005",35.07361922040273,-98.25775661753183
"73008","Bethany","OK","Eldon Lyon Park","7400 NW 36th St","73008",35.510931019736944,-97.64199848547143
"73008","Bethany","OK","Harry Garrison Park - Bethany","6810 NW 19","73008",35.489062239403104,-97.63330099981904
"73008","Bethany","OK","Eldon Lyon Running Trail","not_available","73008",35.50800591195407,-97.64269242411294
"73008","Bethany","OK","Lilly Sloan Park","not_available","73122",35.513134,-97.621345
"73008","Bethany","OK","Baker-Kiwanis Park","N Hammond Ave","73122",35.52012879755378,-97.62280583381653
"73010","Blanchard","OK","Veteran's Park","not_available","73065",35.257417039391406,-97.60710386223185
"73010","Blanchard","OK","Lions Park","not_available","73010",35.13218704825176,-97.6632965358609
"73010","Blanchard","OK","Prairie Dog Palace","not_available","73018",35.06105220289676,-97.78202706068411
"73010","Blanchard","OK","Lessa Cornett Park","100 Stan Patty Blvd","73065",35.251934000000006,-97.597245
"73012","Edmond","OK","Scissortail Landing Park","Scissortail Landing","73012",35.68613052353744,-97.55301974597016
"73012","Edmond","OK","Valencia Park (1 of 3)","Valencia","73012",35.66277500089221,-97.56289241793947
"73012","Edmond","OK","Valencia Multisport Center","not_available","73012",35.663549,-97.563111
"73012","Edmond","OK","Valencia Sports Complex, Lake, & Park","NW 178th St","73012",35.65644687825785,-97.56159608662344
"73013","Edmond","OK","Bluff Creek","not_available","73162",35.5859669448058,-97.61537537699532
"73013","Edmond","OK","Bluff Creek Park","11301","73120",35.584113010769855,-97.60587553396508
"73013","Edmond","OK","Lone Oak Ridge Community Park","not_available","73013",35.634695457628325,-97.61019066210116
"73013","Edmond","OK","Maclamburg park","not_available","73120",35.58907796596865,-97.55215211854785
"73013","Edmond","OK","Oakdale Park Addition","not_available","73131",35.587617,-97.444513
"73013","Edmond","OK","The Whispering Hill Playground","3608 meadow","73013",35.623562517929926,-97.48642366284068
"73013","Edmond","OK","Murphy Park","4591 W. Hefner Rd.","73162",35.58240196993346,-97.60545727195839
"73013","Edmond","OK","Macklanburg Community Center","2234 NW 117th","73120",35.58892228163214,-97.55272348172652
"73013","Edmond","OK","H.B. Parsons Fish Hatchery","10940 N Meridian Ave","73120",35.584092,-97.602001
"73013","Edmond","OK","Noahs Park and Playgrounds, LLC","14710 Metro Plaza Blvd Ste A","73013",35.6200267,-97.5087368
"73013","Edmond","OK","narnia","1713 Whispering Creek Dr","73013",35.63600158691406,-97.50712585449219
"73018","Chickasha","OK","Washita Valley Park","1427 Henderson St","73018",35.035976,-97.92927
"73019","Norman","OK","Randall M. Lacewell Grove","not_available","73069",35.20783615112305,-97.44664001464844
"73019","Norman","OK","The Haunted Playground","not_available","73072",35.199104,-97.442053
"73020","Choctaw","OK","Choctaw Creek Park","not_available","73020",35.48466757615811,-97.27426145203094
"73020","Choctaw","OK","Oakwood East Park","not_available","73130",35.44810433657432,-97.32776179642619
"73020","Choctaw","OK","Next Step Personal Training and Group Exercise","1960 Harper St","73020",35.48897933959961,-97.27352142333984
"73027","Coyle","OK","T.G. Green Park","Langston,OK,73050","73050",35.9450505,-97.2553142
"73028","Crescent","OK","Kingfisher In Lights","not_available","73750",35.95470908787278,-97.58612995664541
"73029","Cyril","OK","Keith Coleman Park","not_available","73029",34.899773,-98.206202
"73030","Davis","OK","Turner Falls Park","US-77","73030",34.42946094209813,-97.14900970458984
"73034","Edmond","OK","Gossett Park","717 N University Dr","73034",35.66247258047201,-97.4747231973238
"73034","Edmond","OK","E.C. Hafer Park","1034 S Bryant Ave","73034",35.64349752612575,-97.45735540359223
"73036","El Reno","OK","Rinehart Park","not_available","73036",35.509794,-97.968104
"73044","Guthrie","OK","Banner Park","not_available","73044",35.88141,-97.43899
"73044","Guthrie","OK","The Island","910 W Perkins Ave","73044",35.87409591674805,-97.43596649169922
"73044","Guthrie","OK","Avid Extreme Sports Park","2651 East Seward Road","73044",35.7979192,-97.39235479999999
"73045","Harrah","OK","Lions Park","not_available","73045",35.475400185502,-97.17054766931496
"73045","Harrah","OK","Harrah Park","harrah rd","73045",35.48191417732812,-97.15839097440113
"73047","Hinton","OK","Hinton Walking Trail","not_available","73047",35.48133679666266,-98.35377146827845
"73048","Hydro","OK","Ole Fishing Hole","not_available","73096",35.56420939790515,-98.68344184684341
"73049","Jones","OK","Ben Black Park","Northeast 52nd Street","73084",35.523599529743734,-97.3772120475769
"73051","Lexington","OK","Chandler Park Aquatic Center","1400 Chandler Road","73080",34.98574150014852,-97.37635374069214
"73051","Lexington","OK","Red Hill Park & Swimming Pool","not_available","73080",35.02338953759621,-97.36122608184814
"73055","Marlow","OK","Red Bud Park","North Elm Street","73055",34.64980244483855,-97.95191287994383
"73055","Marlow","OK","Chickasaw Senior Center Park","not_available","73533",34.537052,-97.96991
"73059","Minco","OK","Bill Johnson Park","not_available","73059",35.324105,-97.94176
"73062","Mountain View","OK","Tolbert Park","Mountain View,OK,73062","73062",35.109127578967225,-98.75939730557693
"73062","Mountain View","OK","Gotebo Get Down","not_available","73062",35.09963607788086,-98.75405883789062
"73064","Mustang","OK","Old City Park","not_available","73064",35.38148,-97.722692
"73064","Mustang","OK","Meadows Park","414 S Meadow Ln","73064",35.388397216796875,-97.71746826171875
"73065","Newcastle","OK","Little River Park Moore","not_available","73170",35.327112285756854,-97.5470418018839
"73068","Noble","OK","Eagle Cliff Park","3901 Eagle Cliff Drive","not_available",35.17325037909924,-97.4255287088505
"73068","Noble","OK","East Ridge Park","Clearwater Dr","73071",35.19720288346262,-97.40123391151428
"73068","Noble","OK","Noble Splash Pad","not_available","73068",35.13308,-97.388313
"73068","Noble","OK","Riley Trails","1400 N. Main St","73071",35.15567032179583,-97.40173618118696
"73069","Norman","OK","Legacy Park","1898 Legacy Park Drive","not_available",35.24210515685998,-97.48299261444959
"73069","Norman","OK","Andrews Park","not_available","73071",35.22474585264508,-97.4529916888095
"73069","Norman","OK","Patton Family Tailgate","Jenkins Ave","73019",35.20741271972656,-97.43934631347656
"73069","Norman","OK","Normandy Park, City of Norman","209 Westside Drive","73069",35.21251618059868,-97.47972286612779
"73069","Norman","OK","Apple Valley splash pad & park","4401 Melrose Dr","73160",35.30232567571552,-97.46963877744008
"73069","Norman","OK","Centennial Park","419 W Symmes St","73069",35.216002,-97.447395
"73069","Norman","OK","Andrews Park Splashpad","201 W Daws Str","73070",35.22399139404297,-97.4478988647461
"73071","Norman","OK","Sutton Wilderness","East Rock Creek Road","73071",35.24243593412471,-97.42428578334415
"73071","Norman","OK","Reaves Park","S Jenkins Ave","73072",35.193871201883,-97.44002897042694
"73071","Norman","OK","Norman Day Celebration","S Jenkins Ave","73069",35.19414303270513,-97.4382483959198
"73071","Norman","OK","Frances Cate Park","601-799 N Carter Ave","73071",35.23064988646491,-97.43229687641087
"73071","Norman","OK","Sunrise Park","324 Skyline Dr.","73071",35.21356964111328,-97.41968536376953
"73075","Pauls Valley","OK","Wacker Park","Chickasaw St","73075",34.74809597316878,-97.2290473605611
"73075","Pauls Valley","OK","Wynnewood Park","not_available","73098",34.648344,-97.170677
"73077","Perry","OK","Parking area","not_available","73077",36.38925036654857,-97.32696556205237
"73077","Perry","OK","Perry SkatePark","14th st","not_available",36.29066267794243,-97.28264428030579
"73086","Sulphur","OK","Little Niagra","not_available","73086",34.504944604043104,-96.95182473018076
"73089","Tuttle","OK","Schrock Park","not_available","73089",35.29088891222422,-97.7314567565918
"73096","Weatherford","OK","McPhretridge Centenial Park","200 W Main St","73096",35.525718688964844,-98.70941162109375
"73099","Yukon","OK","Horseshoe Pit","not_available","73099",35.482591,-97.748066
"73099","Yukon","OK","City Park","2200 Holly Ave","73099",35.48029708862305,-97.74870300292969
"73099","Yukon","OK","Route 66 Park","9901 NW 23rd St","73141",35.49785362799176,-97.69180297851562
"73099","Yukon","OK","KirkpatrickFarms","1001 Garth Brooks Blvd","not_available",35.49537658691406,-97.75800323486328
"73099","Yukon","OK","Kirkpatrick Farm","Garth Brooks","73099",35.49671493361306,-97.75970605611042
"73099","Yukon","OK","yukon city park chritmas lights","I-40","73099",35.48082466582133,-97.74775241482878
"73099","Yukon","OK","at the park","not_available","73128",35.4381,-97.6828
"73099","Yukon","OK","Mustang soccer field","Mustang road","not_available",35.47079793333373,-97.72506040075467
"73102","Oklahoma City","OK","Bicentennial Park","not_available","73102",35.46901425599468,-97.52194879277206
"73102","Oklahoma City","OK","Elliptical Courtyard at the Federal Building","NW 8th St","73103",35.47579891258007,-97.51841830847397
"73102","Oklahoma City","OK","Bricktown Park","1 East Reno Ave.","73104",35.464576721191406,-97.51174926757812
"73102","Oklahoma City","OK","Bricktown Splash Park","4 E Sheridan Ave","73104",35.466102600097656,-97.51136779785156
"73103","Oklahoma City","OK","Perle Mesta Park","1900 N. Shartel","73103",35.48825512208825,-97.5243469711896
"73103","Oklahoma City","OK","Winans Park","not_available","73103",35.488938,-97.515166
"73104","Oklahoma City","OK","Parklet 124 Sheridan, Okc","124 E Sheridan Ave","73104",35.46609878540039,-97.50939178466797
"73104","Oklahoma City","OK","Deep Deuce Dog Park","not_available","73104",35.469283,-97.510321
"73104","Oklahoma City","OK","Washington Park","not_available","73117",35.47005038661227,-97.49394542352982
"73104","Oklahoma City","OK","Nichols Court Park","1901 Culbertson Dr","not_available",35.48797658016118,-97.49840688821037
"73106","Oklahoma City","OK","Gatewood Triangle Park","not_available","73106",35.490759988557315,-97.54261188662242
"73106","Oklahoma City","OK","73160","not_available","73160",35.470785,-97.543667
"73107","Oklahoma City","OK","Avalon Federal, Private Pay Yard","400 S May Ave","73108",35.461965,-97.564798
"73107","Oklahoma City","OK","Waymans Park","1901 N Drexel","73107",35.48868236391025,-97.570792625893
"73107","Oklahoma City","OK","Denniston Park","Drexel","not_available",35.49504082180794,-97.56870239628981
"73107","Oklahoma City","OK","Otis Gray Neighborhood Park","4800 Nw 26th Street","not_available",35.49640655517578,-97.60649108886719
"73107","Oklahoma City","OK","Swatek Park","2301-2399 NW 29th St","73107",35.49951460972817,-97.55542164927368
"73107","Oklahoma City","OK","Milam Place Historic Neighborhood","May to Drexel (linwood place)","73107",35.49083058579681,-97.56786346435547
"73107","Oklahoma City","OK","Gate 3","not_available","73107",35.4737641023565,-97.5685277723624
"73108","Oklahoma City","OK","Tulsa Park","not_available","73108",35.441322,-97.59321
"73109","Oklahoma City","OK","Scissortail Park","not_available","73109",35.458378,-97.517512
"73109","Oklahoma City","OK","Wheeler Park","1200 S Western Ave","73109",35.453948376600486,-97.52933227280715
"73109","Oklahoma City","OK","Wiley Post Park","S. Robinson and the Oklahoma River","73109",35.44632477016682,-97.51851348892693
"73109","Oklahoma City","OK","Mike Dover Park","SW 46th St.","73109",35.419150007462406,-97.52177238464354
"73110","Oklahoma City","OK","Oklahoma welcome center park","not_available","73110",35.43651091893419,-97.4118617285075
"73110","Oklahoma City","OK","Charles B. Hall Air Park","not_available","73145",35.43342667774909,-97.40539978807601
"73110","Oklahoma City","OK","Pecan Grove East Park","Midwest Blvd","not_available",35.449295074041615,-97.38870926724023
"73110","Oklahoma City","OK","Kiwanis Park","900 S Midwest Blvd.","73110",35.45435849697884,-97.38916843957084
"73111","Oklahoma City","OK","Oklahoma City Zoo Strollers/tram Office","not_available","73111",35.52355571209368,-97.47243506862092
"73111","Oklahoma City","OK","Stinchcomb Nature Preserve","Unnamed Rd","73099",35.54331529368278,-97.48584786275357
"73112","Oklahoma City","OK","Will Rogers Park and Garden Center","3400 NW 36th St","73112",35.506671724385484,-97.5776934763493
"73112","Oklahoma City","OK","Smitty Park","not_available","73112",35.51619101800031,-97.55525167607466
"73112","Oklahoma City","OK","Belle Isle Park","2701 NW 62nd St","73112",35.535343170166016,-97.5606689453125
"73112","Oklahoma City","OK","Will Rogers Park","3130 N Portland Ave","73112",35.503958982937455,-97.58025527000427
"73112","Oklahoma City","OK","Lake Hefner Park","Lake Hefner - South Shore","73116",35.53676390896126,-97.55501956274344
"73112","Oklahoma City","OK","North Rotary Park","NW 56th and Tulsa","73112",35.527663680628116,-97.59220655059632
"73112","Oklahoma City","OK","Ross Park","2700 NW 62nd St","73112",35.530086647544195,-97.55998126211088
"73114","Oklahoma City","OK","britton park","NW 96th","73114",35.56879425048828,-97.5357666015625
"73114","Oklahoma City","OK","North Highland Park","not_available","73114",35.55452841694557,-97.51786309177844
"73115","Oklahoma City","OK","Sequoyah Park","not_available","73115",35.426717,-97.454089
"73116","Oklahoma City","OK","Kite Park","1500 Camden Way","73116",35.541786335700934,-97.53868941498001
"73116","Oklahoma City","OK","Northwest Optomist Park","not_available","73116",35.545723,-97.57280273
"73116","Oklahoma City","OK","Stars & Stripes Park","7398 N. Portland Ave.","73120",35.55123515222928,-97.58280605164244
"73116","Oklahoma City","OK","Lake Hefner Golf Course","4491 S Lake Hefner Dr","73116",35.55323839637096,-97.60104184914867
"73116","Oklahoma City","OK","Chesapeake Central Park","6120 N Western Ave, Oklahoma City, OK 73118","73118",35.536220451380856,-97.52948655865892
"73116","Oklahoma City","OK","The Park at Lake Hefner","Lake Hefner Parkway","73116",35.55160340042614,-97.57667735714757
"73116","Oklahoma City","OK","Kids Lake","3200 W Wilshire Blvd","73116",35.55073165893555,-97.5715103149414
"73116","Oklahoma City","OK","Cherokee Hills Park","5551 NW 66th St.","73132",35.53864114052358,-97.61043951813637
"73117","Oklahoma City","OK","regatta park okc","not_available","73129",35.459018303342816,-97.50001393197643
"73118","Oklahoma City","OK","Memorial Park","1150 NW 36th St","73118",35.506544229425856,-97.53220081329346
"73118","Oklahoma City","OK","Edgemere Park","NW 34th and Harvey Parkway","73118",35.503649314342304,-97.52131608325456
"73118","Oklahoma City","OK","Crown Height Park","38th","not_available",35.51139945485818,-97.52507596849816
"73118","Oklahoma City","OK","douglas park","not_available","73118",35.51805812438469,-97.52264867740966
"73118","Oklahoma City","OK","Guy James Park","34th and Hudson","not_available",35.50444,-97.520267
"73119","Oklahoma City","OK","Sprayground @ Youngs Park","S. Youngs","73119",35.41953,-97.55204
"73119","Oklahoma City","OK","wild horse park","not_available","73119",35.41836929321289,-97.5952377319336
"73120","Oklahoma City","OK","Bumpass Park","2101-2135 Huntleigh Dr","73120",35.5717155756025,-97.5499677658081
"73120","Oklahoma City","OK","Harrison Park","2319 Oxford Way","73120",35.566287694761186,-97.5539182456158
"73122","Oklahoma City","OK","Dolese Youth Park","Oklahoma City, OK 73112","73112",35.52529134148161,-97.60717798618265
"73122","Oklahoma City","OK","Jack W Cornett Park","3100 Grove Avenue","not_available",35.50032159900259,-97.61407901704777
"73127","Oklahoma City","OK","Lake Overholser","9000-9398 S Overholser Rd","73127",35.48534865645848,-97.66591420655163
"73127","Oklahoma City","OK","Lake Overholser Park","1500 E Overholser Dr","73127",35.484278687041844,-97.66461342573166
"73127","Oklahoma City","OK","Greenvale Park","not_available","73127",35.475838,-97.645222
"73129","Oklahoma City","OK","McCracker Park","not_available","73149",35.400421142578125,-97.50126647949219
"73129","Oklahoma City","OK","Regatta Park","701 S Lincoln Blvd","73129",35.45845621093633,-97.50362991733988
"73129","Oklahoma City","OK","Regatta Park","725 S Lincoln Blvd","73129",35.457957,-97.50444
"73130","Oklahoma City","OK","Zachary Park","N Post","not_available",35.48289556128006,-97.36599201003443
"73130","Oklahoma City","OK","Railroad Park","not_available","73141",35.487109,-97.353812
"73135","Oklahoma City","OK","Chief Murphy Park","SE 44 St","73145",35.42139,-97.412672
"73135","Oklahoma City","OK","liberty trail park","not_available","73135",35.39731648640266,-97.41881533105831
"73139","Oklahoma City","OK","duck pond","not_available","73139",35.37453079223633,-97.52543640136719
"73139","Oklahoma City","OK","Lightning Creek Park","801 SW 81St","73139",35.38510512638416,-97.52894711886273
"73159","Oklahoma City","OK","Sellers Park","not_available","73159",35.38153466666667,-97.56246258333333
"73159","Oklahoma City","OK","Siler Park","2500 SW 95th St","73159",35.37158215595013,-97.5530160039791
"73159","Oklahoma City","OK","Sprayground at Sellers Park","8301 S Villa Ave","73159",35.383656,-97.557694
"73160","Oklahoma City","OK","Veterans Memorial Park","1900 SE 4th Street","73160",35.32966639569725,-97.45982266278303
"73160","Oklahoma City","OK","little river park","4th St","73160",35.33296985845077,-97.49761923898579
"73160","Oklahoma City","OK","Veterans Memorial Park","1900 SE 4th St","73160",35.33361272754588,-97.45945930480957
"73160","Oklahoma City","OK","Moore Central Park","700 S Broadway St","73160",35.33174133300781,-97.48652648925781
"73170","Oklahoma City","OK","Earlywine Park","11801 S May Ave","73170",35.3518118677873,-97.5697818994138
"73401","Ardmore","OK","Michaelplayground","not_available","73401",34.15938456192963,-97.14153516834911
"73401","Ardmore","OK","Pecan Grove Picnic Area","Lake Murray State Park","not_available",34.120317014681916,-97.11327113102124
"73401","Ardmore","OK","Off Road Vehicle (ORV) Area","Lake Murray State Park","73401",34.11337466772593,-97.04864432664903
"73401","Ardmore","OK","Sullivan Park","315 Church St","73443",34.177303314208984,-97.2601089477539
"73432","Coleman","OK","Coleman Community Center","not_available","73432",34.27113187801788,-96.42469057243734
"73439","Kingston","OK","Lake Texoma State Resort Park","1988 State Park Rd","73439",33.99191,-96.63488
"73453","Overbrook","OK","Warren Park","Webb St","not_available",34.04482650756836,-97.38558959960938
"73460","Tishomingo","OK","Pennington Park","not_available","73460",34.239120500680166,-96.67371318281845
"73463","Wilson","OK","Wilson Park","Hwy  76","73463",34.06771,-97.42167
"73501","Lawton","OK","Garden Village Park","not_available","73507",34.6374,-98.372102
"73501","Lawton","OK","Eisenhower Village Park","not_available","73505",34.59701107801816,-98.46942195765666
"73501","Lawton","OK","Kathy Newcombe Park","1001-1099 NW Laird Ave","73507",34.620040002451816,-98.4095924371188
"73501","Lawton","OK","Playground In The Park","Elmer Thomas Park","73507",34.6201801542401,-98.39415852225291
"73501","Lawton","OK","Greer Park","38th St","73505",34.617157486494555,-98.43904495239258
"73501","Lawton","OK","The Ghetto Park","I street","73507",34.608798191571424,-98.40456369939413
"73501","Lawton","OK","Albert Johnson Park","7807-7827 NW Welco Ave","73505",34.63695454935557,-98.49050893950816
"73501","Lawton","OK","Olson Park","not_available","73501",34.602792,-98.406195
"73503","Fort Sill","OK","Rucker Park","not_available","73503",34.676986,-98.388448
"73503","Fort Sill","OK","Butner Field","Quinette Rd","73503",34.672893304870634,-98.39659820216451
"73507","Lawton","OK","Osborne Park","not_available","73538",34.766324,-98.282655
"73521","Altus","OK","Fire Smoke Pit","not_available","73523",34.65488095745606,-99.27957744027619
"73521","Altus","OK","Altus Airplane Park","not_available","73521",34.647300419622454,-99.31393605445858
"73531","Devol","OK","Burkburnett Friendship Park","Davy Drive","76354",34.08296579999572,-98.57010841369629
"73531","Devol","OK","Persian Park","600-698 Davy Dr","76354",34.08226132392883,-98.56891214847565
"73533","Duncan","OK","Halliburton","1409 S 13th St","73533",34.487125396728516,-97.96526336669922
"73568","Temple","OK","Walters City Park","E. Kansas","73572",34.357927301043055,-98.30205917358398
"73601","Clinton","OK","The F-Shack","not_available","73601",35.495359496863266,-98.97986802003022
"73601","Clinton","OK","Acme Brick Park","600 S 28th St","73601",35.50560246180632,-98.99701744654413
"73627","Carter","OK","BK5 Basketball Court","BK5","73627",35.247884,-99.5409019
"73632","Cordell","OK","Lee Park","not_available","73632",35.291271,-98.9876227
"73644","Elk City","OK","Ackley Park","3rd Street","73644",35.41187258490503,-99.43371465746776
"73644","Elk City","OK","Rotary Park","not_available","73644",35.42165887841683,-99.4065112843955
"73644","Elk City","OK","Kiowa Creek Outfitters","19940 E 1030 Rd","73650",35.523193359375,-99.42817687988281
"73651","Hobart","OK","Hunter Park","not_available","73651",35.03195532753856,-99.10477203722097
"73662","Sayre","OK","north fork red river","not_available","73662",35.27154483448749,-99.62882565390002
"73663","Seiling","OK","Crystal Beach Park","Temple Houston Dr.","not_available",36.104747,-98.875379
"73701","Enid","OK","Crosslin Park","not_available","73703",36.43236180437418,-97.89570462725841
"73701","Enid","OK","Champlin Park","1100 W. Owen K Garriott","73703",36.39013035167239,-97.89102113812666
"73701","Enid","OK","High Point Community","2700 N Van Buren St Trlr 93","73703",36.4238206,-97.8958654
"73701","Enid","OK","Weldon Park and Bird Sanctuary","Lincoln Street","73703",36.388867,-97.89932
"73701","Enid","OK","Jessie Chisholm & Chisholm Trail Monument","7200 U.S. 64","73701",36.463971,-97.873008
"73701","Enid","OK","Phillips Southern Heights Park","400 E. Iowa Ave","73701",36.384781,-97.873517
"73701","Enid","OK","Enid Skate Park","Jefferson Street","73701",36.389519417258,-97.88341444574247
"73701","Enid","OK","Government Springs Park - South","700 S 9th St.","73701",36.38746762083248,-97.86611503229564
"73701","Enid","OK","Glenwood Park","1800 E. Randolph Ave","73701",36.39845275878906,-97.85128784179688
"73701","Enid","OK","Frisco Park","100 E. Chestnut Ave","73701",36.405007,-97.877659
"73701","Enid","OK","Berry Park","4100 N Washington St","73701",36.438242680963796,-97.88144595392123
"73701","Enid","OK","Government Springs Park - North","500 E Oklahoma Ave.","73701",36.39238176015974,-97.87106260786585
"73701","Enid","OK","Bunker 101","1209 N 30th St","73701",36.407814025878906,-97.83560180664062
"73701","Enid","OK","Exchange Park","200 North Walker Street","not_available",36.398978,-97.873543
"73703","Enid","OK","Monsees Park","1700 W. James Ave","73703",36.398738861083984,-97.8993911743164
"73703","Enid","OK","LaMesa Park","4200 Prospect Ave","73703",36.39702224731445,-97.93035888671875
"73703","Enid","OK","Hoover Park","2900 W. Oklahoma Ave","73703",36.39315,-97.915961
"73703","Enid","OK","Meadows Park","2700 Indian Dr","73703",36.3851432800293,-97.91446685791016
"73717","Alva","OK","The Square","College Ave","73717",36.8042594608454,-98.66643190383911
"73760","Meno","OK","Enid ho","not_available","73760",36.3904898740175,-98.16362745131991
"73801","Woodward","OK","Woodward County Veterans Memorial","not_available","73801",36.424686,-99.39077
"73801","Woodward","OK","Crystal Beach","1100-1198 6th St","73801",36.42487887857674,-99.3753220241363
"73844","Gate","OK","Gate Community Park","Hwy 64","73844",36.85306335455691,-100.0594961643219
"73933","Boise City","OK","Blue Tables Rest Stop","not_available","73937",36.525241,-102.99242
"73942","Guymon","OK","Thompson Park","not_available","73942",36.67971792823889,-101.49426565168417
"73945","Hooker","OK","straight ok","not_available","73945",36.86564339510032,-101.19988551832611
"74003","Bartlesville","OK","Nellie Johnstone No. 1 Oil Well Historic Site","not_available","74003",36.755707449487645,-95.9730575355846
"74006","Bartlesville","OK","Jo Allyn Lowe Park","not_available","74006",36.71466185348108,-95.94674805512258
"74006","Bartlesville","OK","Sooner Park Play Tower","Sooner Park","74006",36.751965,-95.915095
"74006","Bartlesville","OK","Squirrelfriend's Nuthouse","1625 King Dr","74006",36.72873317645224,-95.90666435268572
"74006","Bartlesville","OK","Subway (Washington Park Mall)","2350 SE Washington Blvd Ste 326","74006",36.71651077270508,-95.93316650390625
"74006","Bartlesville","OK","Robinwood Park","Washington Blvd.","not_available",36.75334629068444,-95.94938519796081
"74008","Bixby","OK","Ray Harrel Park and Nature Center","7101 S. 3rd St.","74011",35.98451299036638,-95.78637212947169
"74008","Bixby","OK","Haikey Creek Park","S. Garnett Rd & E.111th St. S","74008",36.00356503507024,-95.84689093057253
"74008","Bixby","OK","Summit Park","13800 S Garnett Rd","74008",35.96408072092171,-95.85190303109187
"74010","Bristow","OK","National Wake Island Memorial","not_available","74010",35.825750945110066,-96.4057626426822
"74010","Bristow","OK","Kellyville City Park","not_available","74039",35.942622759551085,-96.21133975157437
"74011","Broken Arrow","OK","Leisure Park","801 W. Charleston","74011",36.00719789282811,-95.79874742103692
"74011","Broken Arrow","OK","Villages of Birchwood Pond","not_available","74011",36.01030172738503,-95.82771166424813
"74012","Broken Arrow","OK","Jackson Park","4800 W. Washington St.","74012",36.03266792457443,-95.84798812866211
"74012","Broken Arrow","OK","Battlecreek Park","3722 North Battlecreek Dr W","74012",36.08998462414287,-95.80302210756444
"74012","Broken Arrow","OK","Hunting Park","not_available","74134",36.099919,-95.779224
"74012","Broken Arrow","OK","Nienhuis Park","3201 N 9th St","74012",36.085130390278415,-95.77739238314594
"74012","Broken Arrow","OK","Veteran's Park","not_available","74012",36.04035559080859,-95.79091275085999
"74012","Broken Arrow","OK","Rhema Park","Rhema Bible Church","74012",36.06012762760778,-95.80758196017975
"74012","Broken Arrow","OK","Morrow Park","2500 N 11th","not_available",36.0776865,-95.77672912
"74012","Broken Arrow","OK","Country Aire Park","N Fir Ave","not_available",36.0605483388222,-95.82356929779053
"74014","Broken Arrow","OK","Broken Arrow Parks","not_available","74014",36.020582,-95.743412
"74014","Broken Arrow","OK","G W Roland Park","not_available","74429",35.96230602373896,-95.6619125716581
"74015","Catoosa","OK","Curtis Conley Memorial Park","209 S Bluff St","74015",36.186092376708984,-95.74574279785156
"74015","Catoosa","OK","Rose Dew Park","3rd + 167thd East Ave","74108",36.155217874022284,-95.79102599107537
"74015","Catoosa","OK","The Cowboy Trade Day","not_available","74015",36.211887,-95.721824
"74016","Chelsea","OK","Ed Galloway's Totem Pole Park","21300 Hwy 28A E","74031",36.437118297741854,-95.44869121477781
"74016","Chelsea","OK","Alluwe City Park","not_available","74016",36.60756611338419,-95.48681097195329
"74017","Claremore","OK","Claremore Gazebo","not_available","74017",36.3111509556585,-95.61158468210049
"74017","Claremore","OK","Lions Kiddie Park","E 7th St","74017",36.311763763427734,-95.602294921875
"74017","Claremore","OK","RSU Nature Reserve","Rogers State University","74017",36.317981,-95.638976
"74020","Cleveland","OK","Osage Point","Tallchief","74054",36.28093534242599,-96.40308737754822
"74021","Collinsville","OK","Colinsville City Park","Collinsville,OK,74021","74021",36.36098388030354,-95.84657555950132
"74021","Collinsville","OK","vera park","not_available","74021",36.38691728474017,-95.90606496920559
"74023","Cushing","OK","Centennial Park","not_available","74023",35.980113,-96.77219
"74023","Cushing","OK","whitlock park","not_available","74030",35.99008214970167,-96.63550040663401
"74035","Hominy","OK","Hominy Tennis Courts","not_available","74035",36.420066529343245,-96.38959521715348
"74037","Jenks","OK","96th and Riverside Park","not_available","74137",36.024752037537226,-95.9510108912122
"74037","Jenks","OK","old baseball field","not_available","74037",36.02982594179246,-95.9770588986223
"74037","Jenks","OK","96th & Riverside","E. 96th St.","74137",36.02578553960524,-95.95070123198822
"74037","Jenks","OK","Helm's Park","84th & Oswego","not_available",36.041217,-95.932607
"74037","Jenks","OK","Veterans Park","316 S. Birch Street","74037",36.019579007254606,-95.97351228373093
"74038","Jennings","OK","Oilton City Park","West Main Street","74052",36.08635537442574,-96.5886640548706
"74048","Nowata","OK","Bowling Ball Yard Art","not_available","74048",36.714398138699146,-95.61120493481641
"74055","Owasso","OK","Rayola Park","8300 N Owasso Expy","74055",36.2723388671875,-95.84954071044922
"74055","Owasso","OK","Centennial Park","86th Street North","74055",36.27934190719007,-95.80291225968442
"74055","Owasso","OK","The Creek","not_available","74055",36.267632,-95.84022
"74055","Owasso","OK","Ator Park","100 W 20th St","74055",36.28644187455617,-95.85555112765883
"74055","Owasso","OK","Lake Valley Park","not_available","74073",36.31074068086157,-95.80858081886035
"74056","Pawhuska","OK","Tall Grass Prairie HQ","not_available","74056",36.84558206451817,-96.42475298162445
"74061","Ramona","OK","Ramona Park","not_available","74061",36.530152125903,-95.92277133051499
"74063","Sand Springs","OK","Case Community Park","2500 S River City Park Rd","74063",36.129051208496094,-96.1251220703125
"74063","Sand Springs","OK","Ray Brown Park","601 Washington Ave","74063",36.143709,-96.106064
"74063","Sand Springs","OK","Pratt Civitan Park","not_available","74063",36.09411776259198,-96.11448839655188
"74063","Sand Springs","OK","Chandler Park Community Center","not_available","74107",36.13010081212508,-96.07604603609681
"74063","Sand Springs","OK","Riverview Rv Park","11450 W Highway 51","74063",36.1202501,-96.1207597
"74063","Sand Springs","OK","Case Community Park","S. River City Park Rd.","74063",36.129735,-96.127253
"74066","Sapulpa","OK","West Highlands Park","not_available","74132",36.07524470530019,-96.0225794061554
"74066","Sapulpa","OK","Kelly Lane Park","1151 S. Park Street","74066",35.985624190038116,-96.10913264530144
"74066","Sapulpa","OK","Davis Park","828-934 S Maple St","74066",35.98919608307921,-96.10634887432771
"74066","Sapulpa","OK","sapulpa girls softball complex","not_available","74066",35.978440006919506,-96.13352450092495
"74070","Skiatook","OK","O'brien Park","2401-2531 E 61st St N","74130",36.247451509210244,-95.95092831526425
"74070","Skiatook","OK","Skiatook Tennis Courts","not_available","74070",36.36114336949288,-96.00281850206868
"74074","Stillwater","OK","Boomer Lake Park","Lakeview Rd","74075",36.14923872477458,-97.06591262126321
"74074","Stillwater","OK","Babcock Park","not_available","74074",36.10140452651211,-97.08795091891187
"74074","Stillwater","OK","Strictland Park","not_available","74075",36.12682595405167,-97.05681049382113
"74074","Stillwater","OK","Tower Park","University and Walnut","not_available",36.11790836666667,-97.077546
"74074","Stillwater","OK","Southern Woods Park","Hester St.","not_available",36.10938545022477,-97.06675304214129
"74079","Stroud","OK","Ed Smalley Memorial Park (Centennial Park)","W. Main St.","74079",35.7487,-96.6548
"74103","Tulsa","OK","Chapman Centennial Green","600 S. Main St.","not_available",36.15134406535667,-95.98859113978278
"74103","Tulsa","OK","John Hope Franklin Reconciliation Park","not_available","74103",36.160927696166276,-95.99016370395726
"74103","Tulsa","OK","Guthrie Green","111 E. Brady Street","74103",36.1594350521622,-95.9922613206534
"74103","Tulsa","OK","Nuvali EvoLiving Center Dockside","Nuvali Blvd, Santa Rosa City","74103",36.15074157714844,-95.99296569824219
"74104","Tulsa","OK","Swan Lake","not_available","74120",36.136,-95.968856
"74104","Tulsa","OK","City View Park","1326 S Atlanta Ave","74104",36.1431770324707,-95.95519256591797
"74105","Tulsa","OK","Riverside Park","5600 Riverside Dr","74105",36.082119146159336,-95.98387473107613
"74105","Tulsa","OK","Zink Park","not_available","74105",36.11734992029168,-95.96989277350468
"74105","Tulsa","OK","River Parks-41st Street Plaza","4100 S Riverside Dr","74105",36.108253932610765,-95.98211760331615
"74105","Tulsa","OK","Heller Park","5328 S Wheeling Ave","74105",36.08469808126886,-95.9711069137578
"74105","Tulsa","OK","Riverside Frisbee Golf Course","Riverside","not_available",36.10364913204553,-95.9838953862774
"74105","Tulsa","OK","Manion Park","3003 E 56th St","74105",36.083238,-95.945235
"74106","Tulsa","OK","Crawford Park","2201-2299 N Hartford Ave","74106",36.18861863043686,-95.9835907227715
"74106","Tulsa","OK","Hill Park","not_available","74106",36.169655,-95.992558
"74107","Tulsa","OK","Riverside Park","1800 S Riverside","74119",36.134900554432576,-95.9924369143424
"74107","Tulsa","OK","21st Street Bridge","not_available","74114",36.13257140120546,-95.99108898756323
"74107","Tulsa","OK","Chalenger 7","3999 W 41st St.","74107",36.105088229882995,-96.03663034000824
"74107","Tulsa","OK","Route 66 Monument","800-898 W 13th St","74127",36.143414503093034,-96.0024052706549
"74107","Tulsa","OK","Veterans Park","1875 S Boulder Dr.","74119",36.13440398112558,-95.98790262828061
"74107","Tulsa","OK","Council Oak Park","1750 S Cheyenne Ave.","74119",36.13611502238851,-95.98985986968351
"74107","Tulsa","OK","Tulsa Riverparks","not_available","74119",36.143020751144235,-96.00131022099494
"74107","Tulsa","OK","Chandler Park","W. 21St & E 27th St","74107",36.13134446790269,-96.07407050995938
"74107","Tulsa","OK","Chandler Park","Berryhill","not_available",36.13019277602778,-96.06178243875381
"74110","Tulsa","OK","Archer Park","2823 E Archer St","74110",36.16241646173826,-95.94865236004453
"74110","Tulsa","OK","Franklin Park and Community Center","not_available","74110",36.1856128,-95.956825
"74112","Tulsa","OK","McClure Park","S Memorial Dr & E 7th St","74112",36.15076356957595,-95.89255987417398
"74112","Tulsa","OK","Mega Ride Pass Entrance","not_available","74112",36.135183,-95.925798
"74112","Tulsa","OK","Braden Park","5200 E. 9th","74112",36.1505109595107,-95.9183815298755
"74114","Tulsa","OK","Woodward Park","2324 S. Rockford","74114",36.13103328151729,-95.97337247200637
"74114","Tulsa","OK","Maple Park","404 E 15th St","not_available",36.13995894667274,-95.98181957369803
"74115","Tulsa","OK","Mohawk Park","5701 E 36th St N","74115",36.21547120903648,-95.90476512908936
"74115","Tulsa","OK","Tulsa Zoo","6421 E 36th St N","74115",36.20635223388672,-95.90567016601562
"74119","Tulsa","OK","Gunboat South","1299 S Elgin","not_available",36.14523014362705,-95.98139044608835
"74120","Tulsa","OK","Centennial (Central) Park","1300 E 6th Street","not_available",36.15204259701376,-95.97669747434124
"74120","Tulsa","OK","In Loving Memory Of Missy Eubanks","6th & peoria","74120",36.152143478393555,-95.97559154033661
"74120","Tulsa","OK","Tracy Park","11th","not_available",36.14737337824242,-95.97757005949644
"74127","Tulsa","OK","Ziegler Park","3903 W 4th St","74127",36.152629,-96.036923
"74127","Tulsa","OK","Owen Park","560 N Maybelle Ave","74127",36.15904923356352,-96.00774918675172
"74128","Tulsa","OK","Cowan Park","10901 East 19th Street","not_available",36.13591,-95.85564
"74129","Tulsa","OK","Terrace Park","not_available","74129",36.1254962862911,-95.89236768851319
"74132","Tulsa","OK","Turkey Mountain Park","S. Elwood Ave.","74132",36.06517337424702,-95.99293787559834
"74132","Tulsa","OK","Sand Volleyball Courts","7100 Riverside Pkwy","74136",36.05927962303118,-95.97657355794064
"74132","Tulsa","OK","River Parks- BOK Plaza","6800 S Riverside Dr","not_available",36.06270941565347,-95.97803991824073
"74133","Tulsa","OK","Cedar Ridge Park","not_available","74133",36.02400199867662,-95.87409418871489
"74133","Tulsa","OK","Central Park at Union","62nd & Mingo","74133",36.07335217925136,-95.86354886041065
"74133","Tulsa","OK","Crescent Park","8501 S 71st East Ave","74133",36.040956531010266,-95.89635997103794
"74134","Tulsa","OK","Norberg Park","not_available","74146",36.11566583339003,-95.84717320201199
"74135","Tulsa","OK","LaFortune Park","5323 S Yale Ave","74135",36.08167631265521,-95.92164160983985
"74135","Tulsa","OK","Whiteside Park","4009 S Pittsburg Ave","74135",36.105853613466316,-95.93088633792878
"74135","Tulsa","OK","Langenheim Park","47th and Harvard Ave","74114",36.0948344667211,-95.93984842300415
"74135","Tulsa","OK","Highland Park","3501 S Yale Ave","74135",36.113566999999996,-95.92189599999999
"74135","Tulsa","OK","Mitchell Park","not_available","74135",36.110856576664965,-95.91039714107113
"74136","Tulsa","OK","Minshall Park","not_available","74136",36.05671471684718,-95.90957164764404
"74136","Tulsa","OK","Victory Park","7700 S Lewis Ave","74136",36.051788330078125,-95.96012878417969
"74136","Tulsa","OK","Graham Park","6410 S Yorktown Ave","74136",36.069833,-95.96464499999999
"74137","Tulsa","OK","Hunter Park","Darlington South","74137",36.02853703692048,-95.91147507502818
"74145","Tulsa","OK","Aaronson Park","8730 E 50th St","74145",36.091198999999996,-95.87831700000001
"74145","Tulsa","OK","Explorer Park aka Dame & Challenge's Dog Park","not_available","74145",36.082300422818925,-95.89617949968722
"74146","Tulsa","OK","Hicks Community Center","3443 S Mingo Rd","74146",36.113481,-95.867875
"74146","Tulsa","OK","Hicks park","34th and mingo","74145",36.11350887673358,-95.86765635724842
"74301","Vinita","OK","attucks park","not_available","74301",36.6314582824707,-95.1546401977539
"74337","Chouteau","OK","Chouteau City Park","not_available","74337",36.189113714487554,-95.34120916560248
"74342","Eucha","OK","Garth Savage Park","not_available","74342",36.485113,-94.982278
"74342","Eucha","OK","Joe Davis Park","not_available","74340",36.488542,-94.978803
"74344","Grove","OK","Campsite","not_available","74344",36.575592,-94.786078
"74346","Jay","OK","Jay Park","401-497 W Monroe St","74346",36.43097714,-94.79600434
"74352","Locust Grove","OK","Gorda Park","Park blvd.","74352",36.194044825,-95.1664388179779
"74354","Miami","OK","Scruffy Patio Osborn Rehab","not_available","74354",36.906718729656575,-94.8595561537161
"74354","Miami","OK","Bear Park","not_available","74370",36.806798,-94.722491
"74361","Pryor","OK","Green Country","501 N Taylor St","74361",36.314476013183594,-95.31849670410156
"74401","Muskogee","OK","Honor Heights Park","Honor Heights Dr","74401",35.76571942652161,-95.41413037877416
"74401","Muskogee","OK","Garden Of Lights","not_available","74401",35.76572435843409,-95.4141516132863
"74401","Muskogee","OK","Spaulding Park","not_available","74403",35.743324655940214,-95.35895696864193
"74401","Muskogee","OK","douglas maxey park","w s s blvd","74401",35.743504,-95.380194
"74403","Muskogee","OK","Ft. Gibson Splash Pad & Skate Park","not_available","74434",35.79570272460492,-95.25061424086161
"74403","Muskogee","OK","bill pool park","gawf lane","not_available",35.729942875016384,-95.33015659007991
"74403","Muskogee","OK","Civitan Park","3301 Gibson St","74403",35.753570762081566,-95.32690353286807
"74425","Canadian","OK","Lookout Point","Arrowhead State Park","not_available",35.16507797288991,-95.6428555176734
"74426","Checotah","OK","Tracy Scroggins Park","200-298 E Okmulgee Ave","74426",35.470953583717346,-95.51869332790375
"74426","Checotah","OK","Honey Springs Battlefield","not_available","74426",35.472499,-95.520203
"74426","Checotah","OK","Terra Starr Rv Park","420589 E 1147 Rd","74426",35.358407,-95.540098
"74427","Cookson","OK","Chicken Creek Park South","not_available","74427",35.67831656828888,-94.96149876162436
"74427","Cookson","OK","Piddles","not_available","74451",35.754361,-94.945118
"74435","Gore","OK","City of Webbers Falls Historic Park","100 River Street","74470",35.51586265358638,-95.12846946716307
"74437","Henryetta","OK","Nichols Park","Henryetta,OK,74437","74437",35.432385392518064,-95.97076009806568
"74437","Henryetta","OK","Living Legends Rodeo","not_available","74437",35.411354064941406,-95.97635650634766
"74441","Hulbert","OK","Hulbert City Park","not_available","74441",35.93285157652279,-95.13925437207573
"74447","Okmulgee","OK","Okmulgee Municipal Park","not_available","74447",35.623585,-95.973307
"74455","Porum","OK","Roye Park","not_available","74462",35.26585300778676,-95.13517747527425
"74464","Tahlequah","OK","Southridge Neighborhood","Southridge Drive","74464",35.87916726870168,-94.9793580727548
"74464","Tahlequah","OK","Norris Park","not_available","74464",35.91641981922368,-94.96939008737476
"74467","Wagoner","OK","BLAKE PARK","not_available","74467",35.958651251233576,-95.39575736658823
"74501","Mcalester","OK","Chadick Park","400 E Chadick Ave","74501",34.925409911932356,-95.76516647347778
"74501","Mcalester","OK","Komar","10 Komar Drive","74501",34.914649963378906,-95.77494812011719
"74525","Atoka","OK","Confederate Memorial Museum","not_available","74525",34.3998623512071,-96.11763479503351
"74525","Atoka","OK","45th Infantry Division Memorial Park","not_available","74538",34.52255185415574,-96.21928581382026
"74571","Talihina","OK","Harper Park","not_available","74571",34.75720206320383,-95.03807042032193
"74578","Wilburton","OK","Goldberg- Joseph Park","not_available","74578",34.91903,-95.30878
"74601","Ponca City","OK","White Eagle Park","not_available","74601",36.60896996029756,-97.08192446596469
"74604","Ponca City","OK","Pioneer Park","Ponca City,OK,74601","74601",36.75358032803475,-96.87667535488174
"74631","Blackwell","OK","Bagby Park","400 Southwest Blvd","74631",36.795176,-97.287127
"74631","Blackwell","OK","Monkey Park","not_available","74631",36.801834,-97.275076
"74631","Blackwell","OK","Smith's RV Park","5001 S 13th St","74631",36.7496557,-97.3031872
"74637","Fairfax","OK","Fairfax horseshoe pits","not_available","74637",36.57078098181434,-96.70542913598628
"74653","Tonkawa","OK","Heart In The Park","not_available","74653",36.67803,-97.30744
"74701","Durant","OK","Carl Albert Park","not_available","74701",34.01673099815092,-96.38760566711426
"74701","Durant","OK","James E.  Eaton City Park","404 Donell","74730",33.94351822,-96.42982617
"74728","Broken Bow","OK","Tiny Town Sales, Rentals and RV Park","6773 N US Highway 259","74728",34.118239,-94.739364
"74728","Broken Bow","OK","Mccurtian county boys and girls club","not_available","74728",34.027950286865234,-94.71829223632812
"74801","Shawnee","OK","Charles Martin Park","515 N 3rd St","74873",35.26244354248047,-96.9337387084961
"74801","Shawnee","OK","Pine Tree","not_available","74873",35.26516796102802,-96.9580829905339
"74801","Shawnee","OK","Labor of Love Sundays in the Park","101 E. Highland","74801",35.331909,-96.921584
"74801","Shawnee","OK","Woodlands Veterans Park","not_available","74801",35.33207231996253,-96.92208484246653
"74801","Shawnee","OK","slide park","Leo street","74804",35.355326287708436,-96.94840078620273
"74801","Shawnee","OK","Briscoe Rotary Boy Scout Park","1400 E. Main St.","74801",35.327759765513136,-96.90352848460546
"74801","Shawnee","OK","Kid Space","1301 N. Center St.","74801",35.34033442007605,-96.90743923187256
"74801","Shawnee","OK","Woodland Park","101-157 E Highland St","74801",35.331687139690644,-96.92213773727417
"74820","Ada","OK","Wintersmith Park Lodge","1621 E Wintersmith Dr","74820",34.780467096923985,-96.65064499683476
"74820","Ada","OK","Wintersmith Park","not_available","74820",34.76389512049956,-96.65513374304192
"74820","Ada","OK","Glenwood","Jjk","74820",34.775234306336365,-96.6801146500432
"74820","Ada","OK","Ox Bow County Park","not_available","46528",34.7745586105531,-96.69261135617877
"74820","Ada","OK","Washington Market Park","not_available","10013",34.7750352,-96.6888745999
"74820","Ada","OK","Glenwood Park & Splash Pad","W Main St","74820",34.77514949096845,-96.68885112246478
"74829","Boley","OK","Boley Park","not_available","74829",35.493984273221486,-96.49571576366401
"74834","Chandler","OK","MS The Mother Road Ride Campsite","not_available","74834",35.698767,-96.886608
"74840","Earlsboro","OK","neighborhood","not_available","74868",35.2444,-96.6944
"74848","Holdenville","OK","Stroup Park","not_available","74848",35.08558531499588,-96.39442941300432
"74864","Prague","OK","Prague City Park","15th St","74864",35.48737897560577,-96.69191151826695
"74931","Bunch","OK","Candy Mink Springs","not_available","74960",35.716377,-94.63907
"74937","Heavener","OK","Farrell Cooper Park","not_available","74937",34.895015280478006,-94.61354645429142
"74937","Heavener","OK","Conser Crossing","not_available","74939",34.86763320401981,-94.70486716429035
"74946","Moffett","OK","Belle Point Park","not_available","72901",35.388342,-94.431246
"74948","Muldrow","OK","Roland City Park","not_available","74954",35.414714,-94.514961
"74953","Poteau","OK","The field next to Twyman Park","not_available","74953",35.049930572509766,-94.62324523925781
"74953","Poteau","OK","Poteau Recreational Complex Area","Hwy 271","not_available",35.027662,-94.655114
"74955","Sallisaw","OK","Sallisaw City Park","not_available","74955",35.4641013508062,-94.8600271637944
