"zip","city","state","name","address","postalCode","lat","lon"
"02804","Ashaway","RI","Crandall Field","188 Main St","02804",41.42396655607058,-71.78875162826357
"02804","Ashaway","RI","Playground","20 Bowling Ln","02808",41.403935,-71.750209
"02806","Barrington","RI","Veterans Memorial Park","not_available","02806",41.736166,-71.312391
"02806","Barrington","RI","Conimicut Point Park","2 Point st","02889",41.71685160639494,-71.36026575754913
"02806","Barrington","RI","Dellafamine Park","not_available","02915",41.77311621625506,-71.35142225552661
"02806","Barrington","RI","Lombardi Park","not_available","not_available",41.73966598510742,-71.33496856689453
"02806","Barrington","RI","t Rose Larisa Memorial Park","800 bullocka point ave","02915",41.763213,-71.362951
"02806","Barrington","RI","Rose Larisa Memorial Park","753-779 Bullocks Point Ave, Riverside","02914",41.75592443578126,-71.36064425020464
"02806","Barrington","RI","Flynn Farm & Swim Club","County RD","02806",41.75141510752654,-71.32134696729868
"02807","Block Island","RI","Cherry Tree Hill","Cherry Tree Hill","02807",41.16182356221739,-71.59275713656496
"02807","Block Island","RI","Esta's Park","not_available","02807",41.173322,-71.558481
"02809","Bristol","RI","Independence Park","Independence Park","02809",41.67335521886123,-71.27922241222284
"02809","Bristol","RI","Union Street Beach","Union Street","02809",41.66629702945881,-71.27168206650356
"02809","Bristol","RI","Cedar Crest Park","Fatima Drive","not_available",41.70447,-71.262507
"02809","Bristol","RI","Bristol Firemans Memorial  Park","not_available","02809",41.668466,-71.277414
"02809","Bristol","RI","Highest Point in Bristol RI","6 Kathy Ct","02809",41.693443298339844,-71.2612533569336
"02812","Carolina","RI","Washington County Fair","not_available","02812",41.488975736442896,-71.6569669757257
"02813","Charlestown","RI","Green Hill Park","573 Green Hill Beach Rd","02879",41.378482818603516,-71.60250854492188
"02813","Charlestown","RI","Ninigret Park","not_available","02813",41.37217120301799,-71.66175842285156
"02814","Chepachet","RI","Glocester Memorial Park","52 Adelaide Rd.","02814",41.9140406468782,-71.67301027407623
"02814","Chepachet","RI","Pulaski Park, 151 Pulaski Rd, Chepachet, RI  02814","151 Pulaski Rd","02814",41.927059173583984,-71.7955093383789
"02815","Clayville","RI","Ponaganset Reservoir Dam","George Allen Rd","02814",41.779472863306474,-71.63742542266846
"02816","Coventry","RI","Hope Village Green Park and Gazebo","90 Main St.","02831",41.730169914678626,-71.54537200927734
"02816","Coventry","RI","Coventry Parks And Rec","not_available","02816",41.6923777571862,-71.57058421675963
"02816","Coventry","RI","Phoenix Tree Lighting","not_available","02893",41.72230911254883,-71.5328369140625
"02816","Coventry","RI","""Fudge"" Whipple Park","Washington Street","02816",41.690464,-71.558724
"02816","Coventry","RI","Pilgrim park, coventry, ri","Pilgrim ave","02816",41.68801279823893,-71.54893030816864
"02817","West Greenwich","RI","Carrs Pond","not_available","02817",41.63510841029662,-71.55309290957298
"02817","West Greenwich","RI","Big River Management Area","Hopkins Hill Rd","02817",41.63112144940934,-71.57130285978435
"02818","East Greenwich","RI","Scalloptown Park","not_available","02818",41.65014485874853,-71.45420239169663
"02818","East Greenwich","RI","Frenchtown Park","Frenchtown Road","02818",41.66117858886719,-71.45783996582031
"02818","East Greenwich","RI","Devil's Foot Rock","6900 Post Rd","02852",41.61022186279297,-71.45618438720703
"02822","Exeter","RI","Long Pond Woods","North Rd","02833",41.506327637890664,-71.77844524383545
"02822","Exeter","RI","Arcadia Park","not_available","02822",41.57730803822709,-71.68499154620858
"02825","Foster","RI","Esek hopkins hill","not_available","02857",41.829807646372345,-71.6059234366402
"02825","Foster","RI","Little Rhody Vasa Park","10 Boswell Trail","not_available",41.79732131958008,-71.76879119873047
"02830","Harrisville","RI","white mill park","not_available","02859",41.96503461869447,-71.71479220754256
"02830","Harrisville","RI","Burrillville Farmer's Market","Stillwater Mill Center","not_available",41.96470287405115,-71.67400679869685
"02830","Harrisville","RI","Waterfall Park","2-40 Steere St","02830",41.96609071073622,-71.67473680902188
"02830","Harrisville","RI","bridgeway park bench","Bridgeway","02859",41.958655398328766,-71.70225586587932
"02830","Harrisville","RI","Freedom Park","Steere St","02830",41.9659224188453,-71.67470784038876
"02831","Hope","RI","Lawton Farm","not_available","02831",41.758852115713125,-71.55415933676517
"02831","Hope","RI","Hope Park","Clinton Avenue","02831",41.735338142992916,-71.56279495716944
"02835","Jamestown","RI","Newport Claiborne Pell Bridge","Route 138","02840",41.504043,-71.341325
"02835","Jamestown","RI","Beavertail State Park","Beavertail Road","02835",41.45401517184457,-71.39915723718534
"02835","Jamestown","RI","Beavertail Lighthouse","800 Beavertail Rd","02835",41.45084657271569,-71.39936017871109
"02835","Jamestown","RI","old ferry beach","not_available","02835",41.496280670166016,-71.3668212890625
"02835","Jamestown","RI","Beavertail","Beavertail Road","not_available",41.47142262174547,-71.39410664874292
"02835","Jamestown","RI","Eisenhower Park","not_available","02840",41.47210017471973,-71.3418594367963
"02837","Little Compton","RI","Wishing Well","Point Meadows Rd","not_available",41.478042,-71.148668
"02838","Manville","RI","Manville Memorial Park","High St","02838",41.9668599565263,-71.47719430965786
"02840","Newport","RI","Perotti Park","49-67 Rhode Island 138 Scenic","02840",41.4891072177316,-71.31708919765143
"02840","Newport","RI","Touro Park","Mill Street","not_available",41.48563222482368,-71.30942868620991
"02840","Newport","RI","Rovensky Park","Bellevue Ave","not_available",41.46009769687524,-71.30747996761869
"02840","Newport","RI","Washington Square","Near 56 Spring St","02840",41.49006907282628,-71.31418895576678
"02840","Newport","RI","Morton Park","52 Morton Ave","02840",41.47247942110422,-71.31123820153265
"02840","Newport","RI","Braga Park","Kay street","not_available",41.49379288765502,-71.30025251107
"02840","Newport","RI","Ballard Park","Wickham Road","02840",41.46647277252945,-71.32340000502923
"02840","Newport","RI","Murphy Field Tennis Courts","94 Ruggles Ave","02840",41.46749496459961,-71.31517791748047
"02840","Newport","RI","Rochambeau Statue","King Park","02840",41.47690812872025,-71.32164542132793
"02842","Middletown","RI","Glen Park","Glen Rd, Portsmouth, RI 02871","02871",41.55013385376462,-71.25760479850878
"02842","Middletown","RI","Glen Park","not_available","02871",41.55920810330339,-71.24285916694184
"02852","North Kingstown","RI","John H Chafee Nature Preserve","1200 Boston Neck Rd.","02874",41.53709318927505,-71.43097127992182
"02852","North Kingstown","RI","Wilson park","not_available","02852",41.57430095088716,-71.45781418079515
"02852","North Kingstown","RI","Ryan Park","Oak Hill Rd","not_available",41.58108611085029,-71.48394782961779
"02860","Pawtucket","RI","Lippitt Park","Hope St","02906",41.85419871570832,-71.39213539057425
"02860","Pawtucket","RI","9th Street Park","97 9th street","02906",41.85373727886815,-71.39657458763513
"02860","Pawtucket","RI","Veterans Memorial Park","Legion","02860",41.866716536619656,-71.40890121459961
"02860","Pawtucket","RI","Park Bench","672-798 Blackstone Blvd","02906",41.85497045516968,-71.39113962650299
"02860","Pawtucket","RI","Morris St. Pocket Park","not_available","02906",41.84364,-71.395985
"02860","Pawtucket","RI","barton street park","not_available","02860",41.88224635566582,-71.38694574714657
"02861","Pawtucket","RI","Slater Memorial Park","401 Newport Ave.","02861",41.8705373264257,-71.34526357346141
"02861","Pawtucket","RI","Slater Park","426 Newport Ave","02861",41.872047,-71.344154
"02861","Pawtucket","RI","Pawucket McKinnon-Alves Soccer Complex","1 Monticello Place","02861",41.869987482237775,-71.35959987873704
"02861","Pawtucket","RI","winter wonderland Slater Park","not_available","02861",41.88373926427665,-71.33989928938375
"02863","Central Falls","RI","River Island Park","1461 High St","02863",41.89862823486328,-71.3866195678711
"02864","Cumberland","RI","Sneech Pond","Nate Whipple Hwy","02864",41.97801378366612,-71.45236498383119
"02864","Cumberland","RI","Cumberland/Lincoln Bike Path","not_available","02865",41.90986925184622,-71.40728640604416
"02864","Cumberland","RI","Lonsdale Park","River Rd","02865",41.914023,-71.41983
"02864","Cumberland","RI","Evans Park","Old River Rd","02865",41.935963,-71.45241
"02871","Portsmouth","RI","Ystrad Mynach Park","Opposite thee police station","not_available",41.59286880493164,-71.25311279296875
"02878","Tiverton","RI","Sandywood Farms","43 Muse Way","02878",41.62285232543945,-71.15071105957031
"02878","Tiverton","RI","Tiverton Skate Park","not_available","02878",41.65011241320006,-71.14856210608994
"02879","Wakefield","RI","The Towers","35 Ocean Road","02882",41.430466737013134,-71.45577040350301
"02879","Wakefield","RI","Trustom Pond NWR","not_available","02879",41.38330287308542,-71.58537131344686
"02879","Wakefield","RI","Tuckertown Park","Tuckertown Park Dr","02879",41.42693088519468,-71.55691812224701
"02879","Wakefield","RI","A TRIBUTE TO VETERANS WORLD WAR II - KOREA - VIETNAM","SOUTH KINGSTOWN - NARRAGANSETT","not_available",41.438572,-71.501331
"02879","Wakefield","RI","Buggy Park","not_available","02882",41.434088,-71.468317
"02879","Wakefield","RI","Pettaquamscutt Park","700-702 Middlebridge Rd","02879",41.47105126666667,-71.45141576666667
"02879","Wakefield","RI","24 Salt Pond Rd Office Park","24 Salt Pond Rd","02879",41.431311424948106,-71.49120554561995
"02885","Warren","RI","Burrs Hill Park","540 Water St","02885",41.722740173339844,-71.28437042236328
"02885","Warren","RI","Jamiel's Park","150 Market Street","02885",41.731377321003365,-71.27679211718981
"02885","Warren","RI","Swansea Dam","not_available","02777",41.74853979415254,-71.21474764567643
"02885","Warren","RI","Warren Fire Memorial Park - Town Common","State St","02885",41.72989,-71.28374
"02886","Warwick","RI","Mulligan's Island Golf & Entertainment","1000 New London Ave","02920",41.7409298321119,-71.47230155025491
"02886","Warwick","RI","Spring Green Park","not_available","02888",41.73937598556666,-71.40757631597354
"02886","Warwick","RI","Citizens Picnic Table","not_available","02886",41.735277,-71.439927
"02886","Warwick","RI","Riverpoint Park","104 Hay St","02893",41.71749445175792,-71.51655420345162
"02886","Warwick","RI","The Bus Stop","Normandy Drive","02920",41.70072518012692,-71.44087381995344
"02886","Warwick","RI","Masonic - Shriners Family Center","116 Long St","02886",41.69641876220703,-71.43250274658203
"02888","Warwick","RI","Boys and Girls Club","42 Frederick St","02888",41.751024,-71.42924000000001
"02888","Warwick","RI","Bishop Park","Washington Street","02888",41.75163432377419,-71.40207378592241
"02888","Warwick","RI","Pawtuxet Memorial Park","North Country Club Drive","02888",41.7501007164816,-71.40130261328787
"02888","Warwick","RI","Pawtuxet Village Gazebo","1-29 E View St","02888",41.762747089380085,-71.3896652454948
"02889","Warwick","RI","Rocky Point","Rocky Point Ave","not_available",41.68916161640009,-71.37122357634442
"02889","Warwick","RI","Conimicut Beach","not_available","02889",41.7173435913447,-71.36596607930754
"02889","Warwick","RI","Lippitt Park","Lippitt Ave.","02889",41.71004708998783,-71.36765354315358
"02891","Westerly","RI","Wilcox Park","71 High St","02891",41.378039642246684,-71.828454574682
"02891","Westerly","RI","Westerly Public Library","44 Broad St","02891",41.377292237182736,-71.82970064267954
"02891","Westerly","RI","Rotary Park","138 Airport, Rd","02891",41.345765390463235,-71.81485366399014
"02891","Westerly","RI","stonington park","not_available","06379",41.364416406108106,-71.85644693995107
"02891","Westerly","RI","The Runaway Bunny","Wilcox Park","02891",41.37753017293848,-71.82868621385782
"02893","West Warwick","RI","Picnic Palace","159 West St","02893",41.70582962036133,-71.5304183959961
"02895","Woonsocket","RI","Cass Park","562 Cass Ave","02895",42.00607681274414,-71.48873138427734
"02895","Woonsocket","RI","Dunn Park","Mason Street","02895",41.998047940800305,-71.53148545906673
"02895","Woonsocket","RI","River Island Park","Bernon Street","02895",41.9993,-71.515107
"02895","Woonsocket","RI","Costa Park","First Avenue","not_available",42.00032780126672,-71.52524158972592
"02895","Woonsocket","RI","Autumnfest","Social Street","02895",42.00884634462981,-71.50939555265673
"02895","Woonsocket","RI","Cold Spring Park","Harris ave","02895",42.00931187724601,-71.5222827392167
"02895","Woonsocket","RI","Tupper Park Boys And Girls Club","not_available","02895",42.01389149365213,-71.49569806644597
"02896","North Smithfield","RI","Rocky Hill Conservation Area","not_available","02896",41.947946,-71.529011
"02903","Providence","RI","India Point Park","India St.","02903",41.81735275292363,-71.38988971710205
"02903","Providence","RI","Waterplace Park","Waterplace Park","not_available",41.827228,-71.413901
"02903","Providence","RI","Prospect Terrace Park","60 Congdon St","02906",41.82978011271179,-71.40726109642499
"02903","Providence","RI","Kennedy Plaza","25 Dorrance St","02903",41.82467289177321,-71.41244315086185
"02903","Providence","RI","WaterFire - Waterplace Park","10 Finance Way","02903",41.8273948455342,-71.41430854797363
"02903","Providence","RI","WaterFire - Memorial Park","4 North Main Street","02903",41.825747922391514,-71.40851497650146
"02903","Providence","RI","Gano Park","153 Gano St.","02906",41.82378115284332,-71.38851642608643
"02903","Providence","RI","Rhode Island Irish Famine Memorial Park","Providence River Walk","02903",41.82330791991149,-71.4079627293558
"02903","Providence","RI","Roger Williams Landing","146 Gano St","02906",41.82346682626231,-71.3904342522782
"02903","Providence","RI","The Boardwalk","South Water St","not_available",41.820449,-71.402577
"02903","Providence","RI","Korean War Memorial","not_available","02903",41.825429,-71.407967
"02903","Providence","RI","Robert E Freeman Park","Matthewson","not_available",41.822194,-71.413984
"02903","Providence","RI","People Park","not_available","02908",41.830207040002534,-71.41291061721151
"02903","Providence","RI","Dexter Training Grounds","not_available","02907",41.81456894571348,-71.43163223080252
"02903","Providence","RI","Market Square, Waterplace Park","Waterplace Park","02903",41.82549880939598,-71.408475035279
"02904","Providence","RI","Governor John Notte Memorial Park","1801 Douglas Ave","02904",41.87132326360568,-71.46384340994307
"02904","Providence","RI","Davis Park","50 Raymond St, Providence, RI 02908","02908",41.83297488178736,-71.42975807189941
"02904","Providence","RI","Wanskuck Park","323 Woodward Rd","02904",41.860068712839,-71.43216133117676
"02904","Providence","RI","Captain Steven Olney Park","201 High Service Ave","02904",41.855708354072085,-71.45296173662385
"02904","Providence","RI","Brown Street Park","Brown street","not_available",41.83368813026526,-71.40430611851389
"02904","Providence","RI","Stephen Olney field","not_available","02904",41.855598288675225,-71.45299652140501
"02904","Providence","RI","Corliss Park","Providence,RI,2908","2908",41.84745117103347,-71.42937107801623
"02905","Providence","RI","Roger Williams Park","1000 Elmwood Ave","02907",41.7825130387238,-71.41104698181152
"02905","Providence","RI","Providence River","Dyer Street","02903",41.77692239381074,-71.38286936088356
"02905","Providence","RI","Cool Old Oak Tree","By The Planetarium","02905",41.786569,-71.414142
"02905","Providence","RI","Pawtuxet Oxboes Park","Rhodes Pl","02905",41.769493,-71.399836
"02905","Providence","RI","Rose Larissa Park","not_available","02905",41.787084,-71.401642
"02905","Providence","RI","Lifespan Cancer Survivor's Day Event","Roger Williams Park Casino","not_available",41.784231,-71.416718
"02906","Providence","RI","Parkside Dog Park","parkside","02906",41.82956339232381,-71.38072967476488
"02906","Providence","RI","Providence River Greenway","243 South Water St","02903",41.821590452224925,-71.4054787158966
"02907","Providence","RI","Friendly Neighborhood Tot Park","1 Doric Ave","02910",41.78446,-71.423754
"02907","Providence","RI","Stan Lutchka Field","Parade St","not_available",41.8136294927065,-71.4313713292844
"02907","Providence","RI","Ronald Mcdonald House WALK","not_available","02910",41.782117,-71.425962
"02909","Providence","RI","Manton Gateway Park","616 Manton Avenue","02909",41.82673927926176,-71.46044254302979
"02909","Providence","RI","St. John's Park","not_available","02909",41.82369613647461,-71.42936706542969
"02910","Cranston","RI","The Fire","Eden Crest Dr","02920",41.7605321,-71.45229781666667
"02914","East Providence","RI","Freedom Green","Center St.","02916",41.831927551130605,-71.35964714570183
"02914","East Providence","RI","Winter Wonderland","Cushman","02914",41.800476,-71.361081
"02914","East Providence","RI","Silver Spring Park","East Providence,RI,02914","02914",41.7994554,-71.368706
"02914","East Providence","RI","Kent Heights Playground","not_available","02914",41.80480873966886,-71.35621227051648
"02916","Rumford","RI","Slater Park","not_available","02916",41.852094799127855,-71.34700332456359
"02919","Johnston","RI","Johnston Memorial Park","1583 Hartford Ave.","02919",41.82772077054386,-71.50671754199689
"02920","Cranston","RI","Dean Parkway","Dean Pkwy","02920",41.76735115921435,-71.46703770047208
"02920","Cranston","RI","Sivo Park","Knightsville","not_available",41.78805017903136,-71.46121143209861
"02920","Cranston","RI","Brayton Park","not_available","02920",41.74636159127808,-71.47159429745042
"02921","Cranston","RI","Briggs Field","not_available","02921",41.752051700948336,-71.51311056153483
