"zip","city","state","name","address","postalCode","lat","lon"
"82001","Cheyenne","WY","Holliday park","1001 E 19th St","82001",41.137662573158806,-104.80079686732087
"82001","Cheyenne","WY","Lions Park","4805-4875 Central Ave","not_available",41.15331897385693,-104.82665448373173
"82001","Cheyenne","WY","Frontier Park","not_available","82001",41.15508748854954,-104.83563754147056
"82001","Cheyenne","WY","Sunrise Park","12th Street","82001",41.13659427408427,-104.74481046705394
"82001","Cheyenne","WY","Archer Fairgrounds","not_available","not_available",41.030501,-104.782684
"82001","Cheyenne","WY","Pando Park","100-198 E 29th St","82001",41.14529305370644,-104.8210574324274
"82001","Cheyenne","WY","Martin Luther King Jr Park","1101-1199 Martin Luther King Dr","82001",41.13016840384737,-104.82699646890161
"82001","Cheyenne","WY","Lions Park/Botanic Gardens","Yellowstone & Central Ave","82001",41.15929088741764,-104.83106614963195
"82001","Cheyenne","WY","North Park","181-289 Southwest Dr","82007",41.12087114,-104.84082245
"82001","Cheyenne","WY","David R Romero Park","1600-1698 Van Tassel Dr","82007",41.12398986102619,-104.82554873678477
"82001","Cheyenne","WY","Civic Commons Park","W. 21 Street and Bent Avenue","82001",41.134884,-104.82291
"82001","Cheyenne","WY","Clear Creek Park","291-499 Southwest Dr","82007",41.1180172970701,-104.84246067670156
"82009","Cheyenne","WY","North Park","not_available","82009",41.17992650217384,-104.77316010930886
"82070","Laramie","WY","Washington Park","Sheridan St.","82070",41.306828739330705,-105.57020233712984
"82070","Laramie","WY","Undine Park","Undine Park","82070",41.30511796410961,-105.59020042419434
"82070","Laramie","WY","Kiowa Park","not_available","82072",41.323277,-105.544379
"82070","Laramie","WY","Laramie Barnstormers, Stark Field","2 miles north of Laramie on 287/30","82070",41.366528,-105.587776
"82070","Laramie","WY","City Park","9th and Ivinson","82071",41.31180705343441,-105.58459997177124
"82070","Laramie","WY","St Mathews Episcopal Church Courtyard","not_available","82070",41.31183624267578,-105.59334564208984
"82070","Laramie","WY","O'Dell City Park","Albin & Mill","82070",41.32772,-105.58971
"82070","Laramie","WY","Harbon Park","N 14th St","82072",41.31808377503092,-105.57867592269015
"82070","Laramie","WY","Fraternity Mall","1501-1639 Sorority Row","82072",41.31171416069979,-105.5757158471504
"82070","Laramie","WY","La Bonte Park","5th and Canby","82072",41.32420286069421,-105.58980238259903
"82070","Laramie","WY","Vedeuwoo Back","Vedauwoo Glen Rd","82009",41.181392697644114,-105.31168073980456
"82070","Laramie","WY","Ivinson mansion","603 E Ivinson St","82070",41.31222709140413,-105.58902226088512
"82082","Pine Bluffs","WY","Texas Trail Park","not_available","82082",41.190272097616244,-104.00359872977059
"82082","Pine Bluffs","WY","Longhorn Lane","not_available","82221",41.585819,-104.248238
"82190","Yellowstone National Park","WY","Yellowstone General Store","Old Faithful Blvd.","not_available",44.45690069700783,-110.82776970812841
"82190","Yellowstone National Park","WY","Lamar Buffalo Ranch","not_available","82190",44.895458,-110.235788
"82201","Wheatland","WY","Chugwater Town Park","not_available","82210",41.75809420403287,-104.82411811699278
"82212","Fort Laramie","WY","Whipple Park","not_available","82223",42.137073046149894,-104.35128780800366
"82240","Torrington","WY","Jirdon Park","E. F St.","82240",42.069557198449495,-104.17652606964111
"82301","Rawlins","WY","Pathfinder National Wildlife Refuge","not_available","82620",42.54952293022635,-107.0808576125046
"82301","Rawlins","WY","Washington park","Cherry street","82301",41.7924952222099,-107.25151580943069
"82301","Rawlins","WY","The Parco Inn","not_available","82334",41.779816,-107.123241
"82336","Wamsutter","WY","Huddart County Park","1100 King mountain road","not_available",41.64304716375729,-108.20636850316934
"82401","Worland","WY","Sanders Park","1000-1098 Obie Sue Ave","82401",44.012792697334305,-107.95405926279685
"82414","Cody","WY","Beck Lake","not_available","82414",44.5112205531093,-109.05263923538031
"82414","Cody","WY","Park","Park","not_available",44.678104400634766,-109.45777893066406
"82414","Cody","WY","Glendale Park","Meadowlane","82414",44.516894,-109.058083
"82414","Cody","WY","City Park","908 Sheridan Avenue","82414",44.52557186020033,-109.06896888396432
"82414","Cody","WY","Park County Complex","1501 Stampede Ave","82414",44.52006530761719,-109.05857849121094
"82426","Greybull","WY","Cloud Peak Wilderness Registration","not_available","82432",44.546444,-107.499352
"82428","Hyattville","WY","Medicine Lodge Archeological Site","not_available","82428",44.2457932,-107.60286
"82431","Lovell","WY","Bighorn Canyon Visitor Center","8-34 U.S. 14 Alt","82431",44.83814827530238,-108.37670779540198
"82501","Riverton","WY","Riverton City Park","not_available","82501",43.02489957838803,-108.37911442534437
"82520","Lander","WY","South Pass City State Historic Site","not_available","82520",42.495177636340884,-108.7318851493035
"82520","Lander","WY","City Park","357-399 Fremont St","82520",42.82242536602687,-108.7373375438861
"82601","Casper","WY","Mike Sedar Park","College Drive","82601",42.823190652733594,-106.33570690029599
"82601","Casper","WY","Long Park","400 W Wyo blvd","82609",42.84570291961449,-106.2703122196174
"82601","Casper","WY","Paradise Valley Park","2 W Riverbend Rd","82604",42.82762908935547,-106.39781951904297
"82601","Casper","WY","Washington Park","1030 S. McKinley","82601",42.84100404541815,-106.31357104669421
"82601","Casper","WY","Beartrap Meadows","not_available","82601",42.73326738773825,-106.31391016522716
"82601","Casper","WY","Casper Mountain","Rotary park road","82601",42.76469580725852,-106.32790648230524
"82601","Casper","WY","Bryan Stock Trail","1318-1342 Bryan Stock Trail","82601",42.86513915,-106.29831165
"82601","Casper","WY","Green Meadows Park","not_available","82604",42.811872,-106.346219
"82601","Casper","WY","White Water Park","1007 W 1st St, Casper, WY 82604","82602",42.84633744068844,-106.3442146965731
"82601","Casper","WY","Morad Park","2500-2756 SW Wyoming Blvd","82604",42.82330481553634,-106.37110855511673
"82601","Casper","WY","Verda James Park","not_available","82609",42.84234799515772,-106.26635289304942
"82601","Casper","WY","Hospital Park","E 2nd Street","not_available",42.84898,-106.308412
"82601","Casper","WY","Susie McMurray Park","2100-2298 Newport St","82609",42.82942551521505,-106.25500976721857
"82601","Casper","WY","Midwest Park","not_available","82643",43.41066678929127,-106.2718408048163
"82601","Casper","WY","Marion Kreiner Park","400-482 E L St","82601",42.86234602,-106.31968697
"82633","Douglas","WY","Keithrider Park","not_available","82633",42.7667684065918,-105.3985056620383
"82633","Douglas","WY","Glenrock Town Park","not_available","82637",42.82158336181426,-105.77637280648503
"82701","Newcastle","WY","Weston County Fairgrounds","Unnamed Rd","82701",43.84325444698334,-104.21378195285797
"82701","Newcastle","WY","Park","Bonnie Brae Ave","82701",43.847814733948965,-104.20943004781478
"82716","Gillette","WY","Sage Bluffs Park","Lodahl","not_available",44.27193921745621,-105.51054954528809
"82716","Gillette","WY","Sunflower Park","not_available","82718",44.2719853107515,-105.50475597381592
"82716","Gillette","WY","Dalbey Memorial Park","Douglas Highway","82718",44.26662294473172,-105.48837660638301
"82716","Gillette","WY","Bicentennial Park","300 W Warlow Dr","82716",44.29960728393751,-105.50793925228021
"82716","Gillette","WY","Lakeland Park","not_available","82716",44.30007727,-105.47995803
"82801","Sheridan","WY","Connor Battlefield State Historic Site","not_available","82832",44.90904726983608,-107.16241592081475
"82801","Sheridan","WY","Kendrick Park Playground","not_available","82801",44.799679736306594,-106.96444233957601
"82801","Sheridan","WY","Thorne Rider Park","West 14th Street","82801",44.81487583134733,-106.96280479431152
"82801","Sheridan","WY","Grinnell Plaza Park","West Alger Street","82801",44.79974336716851,-106.95799827575684
"82834","Buffalo","WY","City Park","not_available","82834",44.34434172614329,-106.70285314412742
"82901","Rock Springs","WY","Expedition Island","S. 2nd E.","82935",41.52187807874638,-109.47218406385836
"82901","Rock Springs","WY","Centennial Park","not_available","82935",41.530537,-109.469138
"82901","Rock Springs","WY","FMC Park/Scott's Bottom","Scotts Bottom Rd","82935",41.49172589304831,-109.43893978439914
"82901","Rock Springs","WY","Bunning Park","Evans Street","82901",41.589292,-109.22217
"82901","Rock Springs","WY","Centenial Park","not_available","82901",41.60116444352505,-109.23674664151349
"82901","Rock Springs","WY","Crossroads West Park","500-612 Gookin-White Mountain Rd","82901",41.57822210348494,-109.28582184436853
"82901","Rock Springs","WY","Hoover Park","100 Hoover","82935",41.5171007998674,-109.467348810387
"82901","Rock Springs","WY","Century Park","1057 Evergreen Way","82901",41.619232000000004,-109.223949
"82923","Boulder","WY","American Legion Park","234-238 Bonneville St","82941",42.8684550576174,-109.8694235086441
"82923","Boulder","WY","Boyd Skinner Park","not_available","82941",42.86245516520553,-109.86221922801067
"82923","Boulder","WY","Wrangler Park","54 S Tyler Ave.","82941",42.8650029493752,-109.86178994178772
"82923","Boulder","WY","Burzlander Park","Fremont Lake Road","82941",42.86717331786433,-109.85243439674377
"82923","Boulder","WY","Split Diamond Park","Arroyo","not_available",42.87881022401426,-109.87269043922424
"82930","Evanston","WY","Hamblin Park","Bear River Drive","82930",41.27179954705522,-110.95217999575198
"82930","Evanston","WY","Centennial Park","Colonial Drive","82930",41.26932007285016,-110.99382540206884
"82930","Evanston","WY","Anderson Park","not_available","82930",41.267968,-110.973329
"82930","Evanston","WY","Evanston Skate park","6th","82939",41.261119,-110.965389
"83001","Jackson","WY","Jackson Town Square","Broadway","83001",43.4799817279554,-110.76184809207916
"83001","Jackson","WY","Cascade Canyon Turnout","Teton Park Rd","83013",43.773297718443395,-110.7118867711135
"83001","Jackson","WY","Albright View Turnout","Jackson, WY 83001","83001",43.63378274222238,-110.71713880173287
"83001","Jackson","WY","Yellowstone National Park","not_available","83013",43.74741588748508,-110.06144951312717
"83001","Jackson","WY","Miller Park Playground","not_available","83001",43.48112214116085,-110.76557619769372
"83001","Jackson","WY","Blacktail Ponds","US 191","83001",43.66699571945607,-110.69681675817456
"83001","Jackson","WY","Phil Baux Park","400 Snow King Ave","not_available",43.473137510987456,-110.76060779059864
"83001","Jackson","WY","Terra Fountain","not_available","83014",43.586925,-110.828782
"83001","Jackson","WY","Beaver Preserve","not_available","83012",43.63008199775655,-110.7793626903204
"83013","Moran","WY","Colter Bay Visitor Center","Colter Bay Village","not_available",43.902940520971015,-110.64175352057447
"83101","Kemmerer","WY","Cokeville City Park","Park St","83114",42.084669,-110.959265
"83110","Afton","WY","Canyon View Park","not_available","83110",42.73124637088347,-110.92095535696222
"83110","Afton","WY","Star View Park","400-498 Adams St","83110",42.72365978272245,-110.93352314324805
"83113","Big Piney","WY","riverview Park","Leigh Drive","83113",42.614125668975184,-110.20521334999061
