"zip","city","state","name","address","postalCode","lat","lon"
"02802","Albion","RI","Depault Hardware","2000 Mendon Rd Ste 9","02864",41.94998550415039,-71.44219207763672
"02804","Ashaway","RI","hardwarre and party express store, westerly","not_available","02804",41.41835021972656,-71.78881072998047
"02806","Barrington","RI","Ace Hardware","156 County Rd","02806",41.7436,-71.3198
"02806","Barrington","RI","Mercier's Hardware","Water St, Warren, RI 02885","02885",41.73140927536678,-71.28538218312842
"02806","Barrington","RI","East Providence Paint and Wallpaper","200 Willett Ave","02915",41.775276,-71.355965
"02806","Barrington","RI","Quality Paint & Wallpaper","Maple","02806",41.736993144204824,-71.30467286706829
"02807","Block Island","RI","Island True Value Hardware","102 Ocean Ave","02807",41.174614,-71.567892
"02809","Bristol","RI","Bristol Ace Hardware","28 Gooding Ave","02809",41.6927999,-71.2761
"02809","Bristol","RI","MF Engineering Company, Inc.","7 Peter Rd","02809",41.69175338745117,-71.26557159423828
"02813","Charlestown","RI","Compass Hardware","not_available","not_available",41.390404,-71.615944
"02813","Charlestown","RI","Husqvarna US","PO Box 1619","02813",41.40209197998047,-71.6595230102539
"02816","Coventry","RI","The Home Depot","700 Centre Of NE Blvd","02816",41.66331602360734,-71.55211347348086
"02816","Coventry","RI","Tractor Supply Co.","1175 Tiogue Ave","02816",41.680184490725225,-71.58352508635629
"02816","Coventry","RI","S & T  True Value Hardware","2300 Nooseneck Hill Rd","02816",41.663958,-71.60135122
"02816","Coventry","RI","Koszela Lumber","1284 Victory Hwy","02827",41.692054748535156,-71.69235229492188
"02816","Coventry","RI","Benny's","495 Tiogue Ave","02816",41.68585375595815,-71.55020642800906
"02816","Coventry","RI","Aargo Tool Inc","11 Grandview St","02816",41.66365432739258,-71.54645538330078
"02816","Coventry","RI","truvalue","not_available","02817",41.669347272448164,-71.6012816786547
"02816","Coventry","RI","Coventry Lumber & Hardware","2030 Nooseneck Hill Road","02816",41.6681192,-71.6000186
"02816","Coventry","RI","Coventry Ace Hardware","633 Washington St","02816",41.6971059,-71.547995
"02816","Coventry","RI","Hardware Store","Washington St.","not_available",41.689466,-71.564137
"02816","Coventry","RI","sherwin williams Eg","not_available","02816",41.66941833496094,-71.611328125
"02818","East Greenwich","RI","Lowe's","510 Quaker Lane","02886",41.6824157,-71.4971812
"02818","East Greenwich","RI","Salk's Ace Hdw & Marine","5939 Post Rd","02852",41.632494,-71.470054
"02818","East Greenwich","RI","Woodcraft","not_available","02818",41.6624892724963,-71.49803415459375
"02818","East Greenwich","RI","minuteKEY","510 Quaker Ln","02886",41.682738,-71.497162
"02818","East Greenwich","RI","Metal Commodities, Inc.","220 Old Baptist Rd","02852",41.608677,-71.47811300000001
"02818","East Greenwich","RI","Sears","6655 Post Rd","02852",41.61618510229637,-71.45933345713274
"02818","East Greenwich","RI","Tractor Supply Co.","6625 Post Rd","02852",41.617375,-71.45915
"02818","East Greenwich","RI","Sherwin-Williams Paint Store","750 Main St","02818",41.654102,-71.454252
"02818","East Greenwich","RI","Kent County Lawn Mower","75 Tiogue Ave","02893",41.680152893066406,-71.53190612792969
"02818","East Greenwich","RI","Diffley & Daughters Sptic Service","South County Trail","02818",41.645946997543994,-71.4955763343799
"02818","East Greenwich","RI","Bayview Marine Inc.","not_available","02889",41.68746913596081,-71.39825269643374
"02818","East Greenwich","RI","Bannon Tile","5700 Post Rd #4","02818",41.640782,-71.46784
"02818","East Greenwich","RI","Benny's","5600 Post Rd","02818",41.64178907371051,-71.46613079444433
"02822","Exeter","RI","The Home Depot","1255 Ten Rod Rd","02852",41.5833377,-71.5021658
"02822","Exeter","RI","Wyoming Hardware","1190 Main St","02898",41.514898,-71.696534
"02822","Exeter","RI","Riverhead Building Supply","38 Kingstown Road","02898",41.51035690307617,-71.68367767333984
"02822","Exeter","RI","United Builders Supply","not_available","02898",41.510249534361,-71.68385021544432
"02825","Foster","RI","Scituate Hardware","32 Danielson Pike","02857",41.82215118408203,-71.70272064208984
"02825","Foster","RI","Scituate Lumber","622 Danielson Pike","02857",41.82835388183594,-71.6328125
"02826","Glendale","RI","D&S Pump & Supply","not_available","02839",41.95255413842486,-71.65501438004625
"02828","Greenville","RI","Sherwin-Williams Paint Store","400 Putnam Pike","02917",41.870189,-71.529249
"02828","Greenville","RI","Smithfield Supply","1 Austin Ave","02828",41.87297850455027,-71.55310432902897
"02828","Greenville","RI","Rocky's Ace Hardware","633 Putnam Pike","02828",41.8732109,-71.554828
"02830","Harrisville","RI","asheville hardware","buxton St","not_available",42.00862121582031,-71.60079193115234
"02830","Harrisville","RI","Lawrence Hardware","not_available","02830",41.971433806862876,-71.69467821525859
"02830","Harrisville","RI","Chum's Hardware","66 Pascoag Main St","02859",41.95587601177339,-71.70221531316696
"02835","Jamestown","RI","Jamestown Hardware Ltd","5 Narragansett Ave","02835",41.496138,-71.367638
"02835","Jamestown","RI","Conanicut Marine Services Shop","25 Knowles Ct","02835",41.49651352355452,-71.36885389930396
"02840","Newport","RI","One Stop Building Supply Center","236 Connell Hwy","02840",41.511922202488094,-71.31782081961732
"02840","Newport","RI","Newport Hardware","not_available","02840",41.48165585,-71.30766
"02840","Newport","RI","surplus building materials","1035 Aquidneck Ave","02842",41.50736155900807,-71.28795742479728
"02840","Newport","RI","The Electric Connection","832 W. Main Ed","02842",41.52002350090447,-71.29698223193044
"02840","Newport","RI","Coristine's","Spring Street","02840",41.488206,-71.313044
"02840","Newport","RI","Rocky's Ace Hardware","278 W Main Rd","02842",41.5160279,-71.300918
"02840","Newport","RI","Newport hardware","Broadway","02840",41.495812215624724,-71.30525864805122
"02842","Middletown","RI","The Home Depot","878 W Main Rd","02842",41.5270317,-71.3010945
"02842","Middletown","RI","Sherwin-Williams Paint Store","884 W Main Rd","02842",41.52703616,-71.29856838333333
"02842","Middletown","RI","Broden Mill Works","185 Oliphant Ln","02842",41.53886079732334,-71.28568075464881
"02842","Middletown","RI","Bulk Lawn & Garden","787 Aquidneck Ave","02842",41.50932693481445,-71.2817611694336
"02842","Middletown","RI","Reliance Vacuum","796 Aquidneck Ave","02842",41.50973892211914,-71.28311920166016
"02842","Middletown","RI","Jt's Lumber","1400 W Main Rd","02842",41.538631439208984,-71.29356384277344
"02842","Middletown","RI","Ace Hardware","58 Aquidneck Ave","02842",41.49131393432617,-71.2841796875
"02842","Middletown","RI","Plumbers Supply","305 Oliphant Ln","02842",41.535322,-71.28177600000001
"02842","Middletown","RI","Richardsons Hardware","790 Aquidneck Ave","02842",41.509315490722656,-71.28307342529297
"02852","North Kingstown","RI","Taylor Rental","7785 Post Rd","02852",41.5865592956543,-71.45873260498047
"02852","North Kingstown","RI","The Color House","8190 Post Rd","02852",41.575164794921875,-71.46076202392578
"02852","North Kingstown","RI","Wickford Lumber","not_available","02852",41.56308260609375,-71.46346078882411
"02852","North Kingstown","RI","Chief's Mowers","7702 Post Rd","02852",41.588471,-71.4579783
"02857","North Scituate","RI","Tractor Supply Co.","2750 A Hartford Ave","02919",41.83285418055762,-71.55701272175767
"02860","Pawtucket","RI","The Home Depot","387 Charles St","02904",41.8437274,-71.4176218
"02860","Pawtucket","RI","Benny's","1100 N Main St","02904",41.850514,-71.403208
"02860","Pawtucket","RI","minuteKEY","51 Silver Spring St","02904",41.8454475402832,-71.41678619384766
"02860","Pawtucket","RI","Brass Works","379 Charles St","02904",41.842342,-71.417573
"02860","Pawtucket","RI","Factory Carpet Outlet","25 Esten Ave","02860",41.86506271362305,-71.40262603759766
"02860","Pawtucket","RI","Wood & Wire Fence Company","Higginson Ave","02865",41.884615999999994,-71.407783
"02860","Pawtucket","RI","Grossman's Bargain Outlet","Dexter street","02863",41.883076,-71.392579
"02860","Pawtucket","RI","Ferdie's Key Shop","not_available","02861",41.887099,-71.365544
"02860","Pawtucket","RI","Glidden Professional Paint","not_available","02904",41.85614268783169,-71.40254924492505
"02860","Pawtucket","RI","Benny's","66 Branch Ave","02904",41.84377079938162,-71.40930947072219
"02861","Pawtucket","RI","Granite City Electric","690 Narragansett Park Dr","02861",41.860828000000005,-71.34884100000001
"02861","Pawtucket","RI","Landrys hardware","not_available","02703",41.89674356136739,-71.37081389268884
"02861","Pawtucket","RI","Sherwin-Williams Paint Store","285 Newport Ave","02861",41.865615000000005,-71.353851
"02861","Pawtucket","RI","Tessier's Hardware and Paint","837 Central Ave","02861",41.88853177213602,-71.3509003373015
"02864","Cumberland","RI","Roger's Hardware Inc","159 Broad St","02864",41.9027999,-71.3913
"02864","Cumberland","RI","Harvey Building Supply's","not_available","02865",41.92678832531517,-71.46510141889885
"02864","Cumberland","RI","Harvey Industries","21 Wellington Rd","02865",41.927093505859375,-71.47625732421875
"02864","Cumberland","RI","Lowe's Home Improvement","not_available","02019",41.99691191917264,-71.4844405706543
"02864","Cumberland","RI","Tractor Supply Co.","1913 Diamond Hill Rd","02895",42.01466751098633,-71.47091674804688
"02864","Cumberland","RI","Fastenal","not_available","02895",41.99504470825195,-71.48627471923828
"02864","Cumberland","RI","NorthEast Electrical","895 Cumberland Hill Rd","02895",41.99414973055894,-71.48734241724014
"02864","Cumberland","RI","Commercial Heating Service","46 Pine Swamp Rd","02864",42.012866,-71.453383
"02864","Cumberland","RI","Wood's Beekeeping Supply","690 George Washington Hwy","02865",41.938026428222656,-71.436767578125
"02864","Cumberland","RI","Ace Hardware","Diamond Hill Rd.","02864",41.95310934,-71.39474817
"02871","Portsmouth","RI","Portsmouth Ace Hardware","3001 E Main Rd","02871",41.610008239746094,-71.245849609375
"02871","Portsmouth","RI","Portsmouth Locksmith","2900 E Main Rd","02871",41.607918110009095,-71.24687433242798
"02871","Portsmouth","RI","Ronstan Industrial","45 Highpoint Ave #2","02871",41.595193933944444,-71.26137971878052
"02878","Tiverton","RI","Humphrey's Hardware","not_available","02721",41.65722739320816,-71.19208755305783
"02878","Tiverton","RI","Burns Power Tools","350 Mariano Bishop Blvd","02721",41.672591,-71.16349
"02879","Wakefield","RI","Damon's Hardware","430 Main St","02879",41.43654251098633,-71.5018310546875
"02879","Wakefield","RI","EZ Squeeze Pneumatic Rosin Press","402 Main St","02879",41.437095642089844,-71.50086975097656
"02879","Wakefield","RI","Sherwin-Williams Paint Store","14 Woodruff Ave","02882",41.430107,-71.482252
"02879","Wakefield","RI","Jerry's Paint & Hardware","not_available","02882",41.427021,-71.480377
"02885","Warren","RI","Taylor True Value Rental","333 Market St","02885",41.743189,-71.273069
"02885","Warren","RI","Tractor Supply Co.","207 Swansea Mall Dr Ste 15","02777",41.754749,-71.212827
"02886","Warwick","RI","The Home Depot","80 Universal Blvd","02886",41.70407646347563,-71.50092512369156
"02886","Warwick","RI","Bargain Outlet","20 Pilla Street","02886",41.729468,-71.479366
"02886","Warwick","RI","Adi","487 Jefferson Blvd Ste 200","02886",41.73432,-71.442006
"02886","Warwick","RI","Best Tile","1110 Jefferson Blvd","not_available",41.717831,-71.446201
"02886","Warwick","RI","minuteKEY","555 Greenwich Ave","02886",41.720602,-71.466864
"02886","Warwick","RI","Lowe's","555 Greenwich Avenue","02886",41.7203265,-71.4664878
"02886","Warwick","RI","minuteKEY","650 Bald Hill Rd","02886",41.72037124633789,-71.48211669921875
"02886","Warwick","RI","Taylor True Value Rental Of Warwick","2296 Post Rd","02886",41.719256,-71.442709
"02886","Warwick","RI","Salk's Ace Hardware & Marine","2524 W Shore Rd","02889",41.7047,-71.413399
"02886","Warwick","RI","National Building Products","3356 Post Rd","02886",41.69766223781228,-71.45936254301637
"02886","Warwick","RI","lowe`s home improvement center","RT 5 Greenwhich ave","02886",41.709517041095495,-71.50516405456816
"02886","Warwick","RI","ORECK Store","not_available","02886",41.72994096535226,-71.47656242865705
"02886","Warwick","RI","TRIBORO PAINT CENTER","615 Greenwich Ave","02886",41.717578,-71.464847
"02886","Warwick","RI","Sherwin-Williams Paint Store","80 Lambert Lind Hwy","02886",41.73000977849151,-71.4759886264801
"02886","Warwick","RI","Best Tile","1112 Jefferson Blvd","02886",41.72162,-71.444869
"02886","Warwick","RI","Benjamin Moore - The Paint Shoppes","not_available","02888",41.739865,-71.408171
"02886","Warwick","RI","Harbor Freight Tools","1245 Bald Hill Rd Ste 25","02886",41.70765150474334,-71.49700348179043
"02888","Warwick","RI","Ace Hardware","320 Warwick Ave","02888",41.767187,-71.404019
"02888","Warwick","RI","Sherwin-Williams Floorcovering Store","26 Albion Rd","02865",41.749775573558715,-71.43653869628906
"02888","Warwick","RI","W.L. Fuller, Inc.","7 Cypress St","02888",41.747027696237055,-71.43370784057032
"02888","Warwick","RI","Munro","Elmwood Ave","02910",41.766695,-71.424823
"02888","Warwick","RI","Ace Hardware","Warwick Ave","02888",41.76482693131767,-71.40346537148922
"02888","Warwick","RI","Munro Electric Supply","Elwood Ave","02910",41.766835,-71.424791
"02891","Westerly","RI","The Home Depot","120 Franklin St","02891",41.3623108,-71.8076305
"02891","Westerly","RI","Tractor Supply Co.","331 Liberty St","06379",41.39691904,-71.84467907
"02891","Westerly","RI","Mcquade's Ace Hardware","105 Franklin St","02891",41.36209,-71.813213
"02891","Westerly","RI","Benny's","not_available","02891",41.35223765,-71.7676983
"02891","Westerly","RI","Riverhead Building Supply","30 Oak St","02891",41.383385,-71.822239
"02891","Westerly","RI","United Builders Supply","10 Oak St","02891",41.383342999999996,-71.823667
"02891","Westerly","RI","Mastro Electric","37 S Broad St","06379",41.37528112,-71.84710408
"02891","Westerly","RI","The Ultimate Bath Store","114 Cross St","02891",41.371514000000005,-71.815179
"02891","Westerly","RI","Sherwin-Williams Paint Store","116 Granite St","02891",41.372261,-71.818353
"02891","Westerly","RI","North Stonington Hardware Store","Main St","06359",41.41797,-71.8906
"02891","Westerly","RI","WESTERLY PAINTS, INC.","85 Franklin St","02891",41.362183,-71.813869
"02891","Westerly","RI","Revival Interiors","100 Main St","02891",41.3752589,-71.8305133
"02893","West Warwick","RI","builders surplus","not_available","02893",41.717107,-71.52109499999999
"02895","Woonsocket","RI","Lowe's","19 Dowling Village Blvd","02896",41.9804844,-71.5070488
"02895","Woonsocket","RI","Fuel & Flame","405 Cumberland Hill Rd","02895",42.0003672,-71.4928953
"02895","Woonsocket","RI","Grossman Bargain Outlet","River St","02895",42.00350570678711,-71.51952362060547
"02895","Woonsocket","RI","Vose True Value Hardware","849 Cumberland Hill Rd","02895",41.995631845603704,-71.48828387260437
"02895","Woonsocket","RI","Ardente Supply and Waterspot Showrooms","281 Railroad St","02895",42.00461961328983,-71.51778481900692
"02895","Woonsocket","RI","Beauchemin Lumber","334 Social St","02895",42.00812,-71.50759
"02896","North Smithfield","RI","Branch Village Pool & Spa","not_available","02896",42.000761,-71.556711
"02896","North Smithfield","RI","Leeway Ace Hardware","790 Great Rd","02896",41.9874,-71.551
"02896","North Smithfield","RI","Husqvarna repair facility","Rte 146 north","not_available",41.977258,-71.536329
"02903","Providence","RI","American Safe & Lock Company","not_available","02903",41.828244,-71.409793
"02903","Providence","RI","Spritzo","333 Harris Ave","02909",41.82602,-71.43103
"02903","Providence","RI","Locksmith Providence","10 Dorrance St #700","02903",41.824500709686376,-71.41188383102417
"02903","Providence","RI","Clark The Locksmith","133 Washington St","02903",41.823025,-71.415245
"02903","Providence","RI","Tops Electric","120 Point St","02903",41.816209,-71.40756
"02903","Providence","RI","G.W.Wagner Plumbing,LLC","169 Waterman Street","02906",41.827497,-71.39338769999999
"02904","Providence","RI","Lowe's","1703 Mineral Springs Avenue","02904",41.8635597,-71.4553375
"02904","Providence","RI","The Paint Shoppes","275 Smith Street","02908",41.833577,-71.420776
"02904","Providence","RI","King's Hardware Co","531 Smith St","02908",41.836135,-71.42834722995758
"02904","Providence","RI","Ok Lets Grow Rhode Island Grow Shop","1 Hillside Ave","02919",41.83234786987305,-71.470458984375
"02904","Providence","RI","Sherwin-Williams Paint Store","509 N Main St","02904",41.837035,-71.408255
"02904","Providence","RI","Sherwin-Williams Paint Store","1873 Mineral Spring Ave","02904",41.86108350948611,-71.46592497825623
"02907","Providence","RI","Benny's","819 Park Ave","02910",41.778934,-71.434562
"02907","Providence","RI","Security Supply","115 Niantic Ave","02907",41.800046,-71.439543
"02907","Providence","RI","Durfee True Value Hardware","65 Rolfe Square","02910",41.776498,-71.437057
"02907","Providence","RI","NorthEast Electrical","50 Niantic Ave","02907",41.802022,-71.438303
"02907","Providence","RI","casey","not_available","02910",41.77793884277344,-71.4240951538086
"02907","Providence","RI","Olneyville Hardware On The Square","not_available","02909",41.81707291816682,-71.44052596018646
"02908","Providence","RI","Ardente Supply and Waterspot Showroom","404 Valley St","02908",41.8275226,-71.4364166
"02909","Providence","RI","Acoustical supplies","11 Ricom Way","02909",41.812303,-71.442679
"02909","Providence","RI","L Sweet Lumber","709 Harris Ave","02909",41.818387,-71.440402
"02910","Cranston","RI","Cole Cabinets","530 Wellington Ave","02910",41.77278518676758,-71.42664337158203
"02914","East Providence","RI","The Home Depot","95 Highland Ave","02771",41.7999612,-71.3389379
"02914","East Providence","RI","Salk's Ace Hardware & Marine Of Seekonk","not_available","02771",41.82467,-71.343216
"02914","East Providence","RI","Nepco Products Co.","125 Amaral Street","02915",41.79841683980174,-71.3466611741604
"02914","East Providence","RI","Benny's","2715 Pawtucket Ave","02914",41.801536999999996,-71.362542
"02915","Riverside","RI","Lowe's","1000 Fall River Avenue","02771",41.7988872,-71.3274403
"02915","Riverside","RI","Sherwin-Williams Paint Store","1275 Fall River Ave","02771",41.78979287291867,-71.32241606712341
"02916","Rumford","RI","Bargain Outlet of East Providence","Gansett Shopping Center, 80 Newport Ave.","02916",41.8555793762207,-71.35340881347656
"02916","Rumford","RI","Bargain Outlet East Providence","80 Newport Ave.","02916",41.855377,-71.3521906
"02917","Smithfield","RI","The Home Depot","371 Putnam Pike","02917",41.87502534435966,-71.52074396610266
"02919","Johnston","RI","The Home Depot","100 Stone Hill Rd","02919",41.816369246767415,-71.50208115577698
"02919","Johnston","RI","The Paint Shoppes","1417 Atwood Ave","02919",41.81892776489258,-71.49684143066406
"02919","Johnston","RI","Sherwin-Williams Paint Store","1386 Atwood Ave","02919",41.81509017944336,-71.49781799316406
"02919","Johnston","RI","The Pool Store","not_available","02919",41.823552,-71.499849
"02919","Johnston","RI","Atwood tile","not_available","02920",41.7908587384703,-71.47209285285287
"02920","Cranston","RI","Lowe's","247 Garfield Avenue","02920",41.7966839,-71.4443055
"02920","Cranston","RI","R.e. Barry Pump","2-10 Saverio St","02920",41.787199,-71.472042
"02920","Cranston","RI","J & J Hardware","45 Sockanosset Cross Rd","02920",41.753516999999995,-71.452752
"02920","Cranston","RI","HD Supply A.H. Harris","30 Freeway Dr","02920",41.75041406,-71.44807219
"02920","Cranston","RI","minuteKEY","247 Garfield Ave","02920",41.796926,-71.44458
"02921","Cranston","RI","minuteKEY","1776 Plainfield Pike","02921",41.78807830810547,-71.4985122680664
"02921","Cranston","RI","Milton CAT in Cranston","2158 Plainfield Pike","02921",41.78786,-71.514054
"02921","Cranston","RI","Kamco","37 Amflex Dr","02921",41.784776,-71.509342
