"zip","city","state","name","address","postalCode","lat","lon"
"38603","Ashland","MS","Ashland Hardware","not_available","38603",34.82753920283124,-89.18914795649916
"38606","Batesville","MS","Lowe's","1135 Highway 6 East","38606",34.3114013,-89.9095687
"38606","Batesville","MS","Tractor Supply Co.","1216 Hwy 6 East","38606",34.3089871984619,-89.90592956542969
"38606","Batesville","MS","Klyce True Value Hardware","213 S Main St","38666",34.43545316,-89.91621684
"38606","Batesville","MS","Sherwin-Williams Paint Store","203 Highway 51 S","38606",34.30817187902989,-89.94569063186646
"38606","Batesville","MS","True Value Building Materials","125 McMahan Dr","38606",34.31724,-89.93619
"38606","Batesville","MS","Lotts Ace Hardware","139 Hwy 51 North","38606",34.315299,-89.943879
"38606","Batesville","MS","Husqvarna","155 Cracker Barrell Dr","38606",34.31166458129883,-89.92393493652344
"38610","Blue Mountain","MS","Benson home supply","not_available","38663",34.729534,-88.94718
"38611","Byhalia","MS","Alliance Express","10400 Marina Dr Ste 108","38654",34.98817825317383,-89.80546569824219
"38611","Byhalia","MS","todds feed store","not_available","not_available",34.69820022583008,-89.81137084960938
"38611","Byhalia","MS","John Deere","not_available","38654",34.967907129285514,-89.79561451359245
"38611","Byhalia","MS","Husqvarna","7341 Hacks Cross Rd","38654",34.96775817871094,-89.7957992553711
"38611","Byhalia","MS","Husqvarna","8599 Highway 178","38611",34.87607955932617,-89.70282745361328
"38614","Clarksdale","MS","Mr B's Buildings and Supplies","18110 Highway 61 N","38645",34.26354766094871,-90.52050948143005
"38614","Clarksdale","MS","True Value Building Materials","861 S State St","38614",34.18645095825195,-90.5875473022461
"38614","Clarksdale","MS","minuteKEY","1000 S State St","38614",34.18133544921875,-90.5909194946289
"38614","Clarksdale","MS","Discount Building Materials","5191 Highway 61 S","38614",34.131115,-90.665759
"38614","Clarksdale","MS","Sherwin-Williams Paint Store","229 1st St","38614",34.20466847070804,-90.57300567626953
"38614","Clarksdale","MS","Sears","937 Commerce Avenue","38614",34.186939144147566,-90.59171124363274
"38618","Coldwater","MS","Tractor Supply Co.","133 Northwest Plaza Dr","38668",34.62682,-89.97357
"38618","Coldwater","MS","minuteKEY","5219 Highway 51 N","38668",34.62936019897461,-89.97174072265625
"38618","Coldwater","MS","True Value Building Materials","560 N Robinson Rd","38668",34.62538976,-89.96403829
"38618","Coldwater","MS","Husqvarna","206 Wilson Dr","38668",34.6273078918457,-89.97062683105469
"38621","Crenshaw","MS","Redd's","not_available","38621",34.527469635009766,-90.19607543945312
"38632","Hernando","MS","Atlas Copco Rental","618 Whitfield Dr","38632",34.838826776712025,-89.99940127116395
"38632","Hernando","MS","Universal Windows Direct of Memphis","2805 Railroad Ave","38632",34.818713,-89.980448
"38632","Hernando","MS","Sherwin-Williams Paint Store","585 Olivia Dr","38632",34.8257706040179,-89.97948799170707
"38632","Hernando","MS","Hernando Glass","381 W Commerce St","38632",34.823371,-89.996082
"38632","Hernando","MS","COMPLETE HOME CENTER Hernando's Hardware Choice","32 E Commerce St","38632",34.82461166381836,-89.98909759521484
"38632","Hernando","MS","Farrell-Calhoun Paint","419 E Commerce St","38632",34.82327729114454,-89.98262189493425
"38635","Holly Springs","MS","Husqvarna","177 S East Boundary St","38635",34.766754150390625,-89.43073272705078
"38637","Horn Lake","MS","Tractor Supply Co.","6915 Windchase Dr","38637",34.96121049997451,-90.0101869351833
"38637","Horn Lake","MS","The Home Depot","7260 Interstate Blvd","38637",34.9660654,-90.0027645
"38637","Horn Lake","MS","All Around Security","not_available","38671",34.977513572675946,-89.99879837036133
"38637","Horn Lake","MS","Miller Small Engines","not_available","38637",34.959971,-90.022311
"38637","Horn Lake","MS","Farrell Calhoun","1012","38637",34.96308135986328,-90.01094818115234
"38637","Horn Lake","MS","minuteKEY","2401 Goodman Rd W","38637",34.96144104003906,-90.03284454345703
"38637","Horn Lake","MS","Husqvarna","5811 Highway 51 N","38637",34.94700241088867,-90.0174331665039
"38637","Horn Lake","MS","Husqvarna","1691 Dancy Blvd","38637",34.959938049316406,-90.02242279052734
"38651","Nesbit","MS","John Henry Supply","641 Old Highway 51 N","38651",34.8838458,-89.9934672
"38652","New Albany","MS","Tractor Supply Co.","112 Virginia Way","38652",34.487047,-89.028838
"38652","New Albany","MS","Lowe's","500 Park Plaza Drive","38652",34.489866,-89.029069
"38652","New Albany","MS","minuteKEY","202 Park Plaza Dr","38652",34.4929068,-89.0325493
"38652","New Albany","MS","Sherwin-Williams Paint Store","606 W Bankhead St","38652",34.49863815307617,-89.02391052246094
"38652","New Albany","MS","Husqvarna","908 W Bankhead St","38652",34.50735092163086,-89.03260803222656
"38654","Olive Branch","MS","Lowe's","8370 Camp Creek Boulevard","38654",34.9679946,-89.8418273
"38654","Olive Branch","MS","The Home Depot","7740 Craft Goodman Rd","38654",34.967447302117066,-89.8537015914917
"38654","Olive Branch","MS","M & M Roofing","5853 Savannah Pkwy","38672",34.945579528808594,-89.9327392578125
"38654","Olive Branch","MS","BartonÂ’s Home Outlet of Olive Branch","7131 Highway 305","38654",34.9640677,-89.831411
"38654","Olive Branch","MS","Sears","7501 GOODMAN RD, Suite E","38654",34.960523,-89.855947
"38654","Olive Branch","MS","Sherwin-Williams Paint Store","8905 Goodman Rd","38654",34.96169,-89.832143
"38654","Olive Branch","MS","Minor Brothers Hardware","8900 Midsouth Dr","38654",34.94984908041017,-89.83156940597497
"38654","Olive Branch","MS","Sherwin-Williams Commercial Paint Store","8325A Highway 178","38654",34.97306522487295,-89.84254360198975
"38654","Olive Branch","MS","Farrell- Calhoun","Goodman Rd.","38654",34.9627389273042,-89.86923174084832
"38654","Olive Branch","MS","Farrell-Calhoun Paint","6874 Goodman Rd","38654",34.9628703431296,-89.86887016547587
"38654","Olive Branch","MS","Secure-1 Lock Service","4894 N Terrace Stone Dr","38654",34.968248,-89.9039595
"38655","Oxford","MS","The Home Depot","201 Home Depot Dr","38655",34.3649562,-89.5661065
"38655","Oxford","MS","Sneed's Ace Hardware","1400 University Ave","38655",34.363386,-89.5175
"38655","Oxford","MS","Sears","707 North Lamar","38655",34.374481,-89.51686
"38655","Oxford","MS","Sherwin-Williams Paint Store","1905 Jackson Ave W","38655",34.364506,-89.556965
"38655","Oxford","MS","Sherwin-Williams Floorcovering Store","2617 W Oxford Loop","38655",34.363400721122744,-89.57125425338745
"38668","Senatobia","MS","Atwood Paint and Supply","112 N Front St","38668",34.6190974,-89.96465750000002
"38671","Southaven","MS","Lowe's","178 Goodman Road West","38671",34.9654435,-89.9920945
"38671","Southaven","MS","Harbor Freight Tools","725 Goodman Rd E","38671",34.962412937474724,-89.97477610007556
"38671","Southaven","MS","Sherwin-Williams Product Finishes","8955 First Industrial Dr","38671",34.991074,-90.026477
"38671","Southaven","MS","Sherwin-Williams Paint Store","836 Goodman Rd E","38671",34.963059462883955,-89.97506395371504
"38671","Southaven","MS","minuteKEY","6811 Southcrest Pkwy","38671",34.96023178100586,-89.99622344970703
"38671","Southaven","MS","Sherwin-Williams Paint Store","1144 Main St","38671",34.99222832154254,-90.00967741012573
"38671","Southaven","MS","Sears","7457 Airways Boulevard","38671",34.96875,-89.99051666259766
"38671","Southaven","MS","Mid America","2001-2157 Stateline Rd W","38671",34.991846428012046,-90.02854035230193
"38671","Southaven","MS","minuteKEY","178 Goodman Rd W","38671",34.965450286865234,-89.99287414550781
"38671","Southaven","MS","Southaven Supply Co.","8560 Highway 51 N","38671",34.9853195752625,-90.01607179641724
"38676","Tunica","MS","Tunica Farm Supply","not_available","38676",34.684545,-90.382877
"38676","Tunica","MS","Ace Hardware","2180 Highway 61 N","38676",34.7016309,-90.380166
"38676","Tunica","MS","Clayton True Value Supply","1381 Main St","38676",34.69059753,-90.38287354
"38701","Greenville","MS","Lowe's","1886 Dr Martin Luther King Jr Blvd","38701",33.3675689,-91.0381088
"38701","Greenville","MS","minuteKEY","1831 Highway 1 S","38701",33.3681954,-91.0434853
"38701","Greenville","MS","Sherwin-Williams Paint Store","1668 George Abraham Blvd","38703",33.37232677960624,-91.03692054748535
"38701","Greenville","MS","Surplus Warehouse of Greenville (MS)","800 Martin Luther King, Suite C58","38701",33.3975088,-91.037332
"38701","Greenville","MS","Greenville Paint","1710 Highway 1 S","38701",33.37178039550781,-91.03784942626953
"38701","Greenville","MS","Glen's Small engine repair","1212 Highway 1 N","38703",33.42393549021794,-91.03883482698704
"38701","Greenville","MS","Surplus WareHouse Greenville (MS)","800 Martin Luther King","38701",33.3975088,-91.037332
"38701","Greenville","MS","The Co-op,  Farmers Inc","N Raceway Rd","38703",33.415326665653865,-91.0061708766835
"38701","Greenville","MS","Surplus Warehouse","800 Martin Luther King Suite C58","38701",33.395853,-91.036898
"38721","Anguilla","MS","Service Lumber Co. Inc.","20558 Highway 61","39159",32.905929,-90.871402
"38721","Anguilla","MS","Rolling Fork True Value","19999 Hwy 61","39159",32.9061,-90.87143
"38721","Anguilla","MS","Husqvarna","20151 Highway 61","39159",32.90560531616211,-90.87235260009766
"38732","Cleveland","MS","Ace Hardware","401 1st St","38732",33.7492,-90.7171
"38732","Cleveland","MS","Fleming True Value Lumber","224 N Sharpe Ave","38732",33.756593,-90.716696
"38732","Cleveland","MS","Sherwin-Williams Paint Store","109 Commerce Ave","38732",33.745440836584066,-90.72067737579344
"38732","Cleveland","MS","minuteKEY","710 N Davis Ave","38732",33.7572305,-90.7120458
"38732","Cleveland","MS","Sears","522 Third Street","38732",33.7513,-90.7135063
"38751","Indianola","MS","Sherwin-Williams Paint Store","612 Sunflower Avenue Ext","38751",33.46004104614258,-90.64431762695312
"38751","Indianola","MS","Y-D LUMBER","not_available","38751",33.45768356323242,-90.6429443359375
"38754","Isola","MS","Husqvarna US","PO Box 671","39038",33.182960510253906,-90.48624420166016
"38801","Tupelo","MS","Tupelo Hardware Co","114 W Main Street","38804",34.257584,-88.703647
"38801","Tupelo","MS","MTH Plumbing","1717 McCullough Blvd","38801",34.291900634765625,-88.75507354736328
"38801","Tupelo","MS","Sherwin-Williams Floorcovering Store","1889 McCullough Blvd","38801",34.286421197679644,-88.74425411224365
"38801","Tupelo","MS","irby","601 Crossover Rd","38801",34.243377685546875,-88.71202087402344
"38801","Tupelo","MS","Harbor Freight Tools","2605 W Main St #C","38801",34.25394319759396,-88.74770611021594
"38801","Tupelo","MS","Black and Decker Outlet","2824 S Eason Blvd #10","38804",34.23674011230469,-88.6878662109375
"38801","Tupelo","MS","minuteKEY","2270 W Main St","38801",34.2580321,-88.7411611
"38801","Tupelo","MS","Sherwin-Williams Paint Store","526 W Main St","38804",34.25762456134288,-88.71027806097113
"38801","Tupelo","MS","Building Blocks","3720-3798 W Main St","38801",34.242659,-88.800204
"38801","Tupelo","MS","Husqvarna US","1941 McCullough Blvd","38801",34.288631439208984,-88.74595642089844
"38801","Tupelo","MS","Farrell-Calhoun Paint","1289 N Gloster St Ste C","38804",34.28116875245659,-88.716347031721
"38801","Tupelo","MS","Marvin's Hardware","not_available","38801",34.20823461473906,-88.71608504597337
"38801","Tupelo","MS","Copeland's Lock & Key","1744 Cliff Gookin Blvd","38801",34.22394943237305,-88.72653198242188
"38801","Tupelo","MS","Busy Lad","1776 McCullough Blvd","38801",34.287750244140625,-88.74124908447266
"38801","Tupelo","MS","Husqvarna","4855 Cliff Gookin Blvd","38801",34.23980712890625,-88.76980590820312
"38801","Tupelo","MS","Ferguson Plumbing Supply","3099 International Dr","38801",34.21315002441406,-88.70559692382812
"38801","Tupelo","MS","Foundation Building Materials","3406 W Main St","38801",34.25255958,-88.76348598
"38804","Tupelo","MS","Lowe's","3354 North Gloster Street","38804",34.302786,-88.704974
"38804","Tupelo","MS","Scrugg's Farm, Lawn & Garden","Tom Watson Dr","38866",34.30632781982422,-88.69615173339844
"38804","Tupelo","MS","Tractor Supply Co.","850 Symphony Ln","38804",34.30923,-88.7048
"38804","Tupelo","MS","minuteKEY","3929 N Gloster St","38804",34.3140232,-88.7068045
"38804","Tupelo","MS","Sherwin-Williams Paint Store","876 Harmony Ln","38804",34.315092,-88.705443
"38804","Tupelo","MS","The Home Depot","1074 Cross Creek Dr","38866",34.31854888650709,-88.69636058807367
"38821","Amory","MS","Sherwin-Williams Paint Store","1111 Highway 278 E","38821",33.97777135499686,-88.47174167633055
"38821","Amory","MS","Husqvarna","51670 Highway 25 S","39730",33.85421371459961,-88.47476959228516
"38824","Baldwyn","MS","Baldwyn Hardware & Supply","1189-1221 N 4th St","38824",34.533146023750305,-88.63278687000275
"38824","Baldwyn","MS","Husqvarna","213 E Main St","38824",34.508384704589844,-88.6319351196289
"38827","Belmont","MS","Belmont Ace Hardware","326 Second Street","38827",34.505248,-88.20702
"38827","Belmont","MS","Silver Dollar Sales","not_available","38847",34.489594447877224,-88.17902032523256
"38827","Belmont","MS","X-Force","21 Front St","38827",34.510528564453125,-88.20873260498047
"38829","Booneville","MS","Heartland Siding","300 Industrial Park Road","38829",34.672977447509766,-88.55162048339844
"38829","Booneville","MS","minuteKEY","300 Walmart Cir","38829",34.6760139465332,-88.56404113769531
"38829","Booneville","MS","Tractor Supply Co.","214 Walmart Cir","38829",34.67620131241986,-88.56408119201662
"38834","Corinth","MS","Lowe's","1800 South Parkway","38834",34.9142102,-88.5074971
"38834","Corinth","MS","Tractor Supply Co.","1983 Hwy 72 East","38834",34.90895080566406,-88.49124145507812
"38834","Corinth","MS","Husqvarna US","602 Cruise St","38834",34.9339599609375,-88.51981353759766
"38834","Corinth","MS","Smith's Home Center","412 Pinecrest Rd","38834",34.93252182006836,-88.49041748046875
"38834","Corinth","MS","Biggers Hardware","not_available","38834",34.93415282154171,-88.51952631961157
"38834","Corinth","MS","Sherwin-Williams Paint Store","103 N Cass St","38834",34.93192854593474,-88.51830750703812
"38834","Corinth","MS","Husqvarna","805 Highway 72 W","38834",34.927391052246094,-88.52747344970703
"38847","Golden","MS","Underwood True Value Hardware","1104 4th St Nw","35582",34.460289001464844,-88.1535415649414
"38851","Houston","MS","Best Home Center","636 W Madison St","38851",33.895729064941406,-89.01628875732422
"38852","Iuka","MS","Piggly Wiggly #59-Iuka Ace Hardware","627 Battleground Dr","38852",34.80747,-88.199524
"38852","Iuka","MS","Iuka Hardware","2090 Paul Edmondson Dr","38852",34.8166389465332,-88.20465850830078
"38863","Pontotoc","MS","Peeples Building Materials Inc.","192 Highway 15 N","38863",34.255864,-89.017389
"38863","Pontotoc","MS","The True Value Hardware Store","155 Hwy 15 By-Pass N","38863",34.25370849,-89.0187337
"38863","Pontotoc","MS","Brothers Locksmith","106 S Columbia St","38863",34.24882728936106,-89.00914907455444
"38863","Pontotoc","MS","Husqvarna","328 W Reynolds St","38863",34.24962615966797,-89.01860809326172
"38863","Pontotoc","MS","Husqvarna","3261 Highway 15 N","38863",34.244754791259766,-89.01756286621094
"38866","Saltillo","MS","Husqvarna","3575 Tom Watson Dr","38866",34.30573654174805,-88.6961441040039
"38873","Tishomingo","MS","Husqvarna","1295 Main St","38873",34.636558532714844,-88.23239135742188
"38901","Grenada","MS","Sears","2231 Commerce St","38901",33.75587351660541,-89.8081174492836
"38901","Grenada","MS","Tractor Supply Co.","2075 Sunset Dr","38901",33.7864990234375,-89.85160064697266
"38901","Grenada","MS","True Value Home Center","1865 S Commerce St","38901",33.762801,-89.810622
"38901","Grenada","MS","Sherwin-Williams Paint Store","1955 Commerce St","38901",33.762503,-89.809478
"38915","Bruce","MS","Tedford True Value Home & Auto","101 Bailey Alley","38915",33.98964,-89.34632
"38916","Calhoun City","MS","Husqvarna","534 E Veterans Ave","38916",33.85521697998047,-89.30323028564453
"38930","Greenwood","MS","Tractor Supply Co.","2211 Hwy 82 West","38930",33.52729,-90.22206
"38930","Greenwood","MS","Sherwin-Williams Paint Store","619 W Park Ave","38930",33.52796222514272,-90.19867658615112
"38930","Greenwood","MS","Leflore Hardware Inc","318 W Park Ave","38930",33.531529,-90.194307
"38930","Greenwood","MS","Sears","717 West Park Ave","38930",33.5269022,-90.2002518
"38965","Water Valley","MS","Sartains Home & Auto True Value Hardware","421 N Main St","38965",34.15339894,-89.63127588
"38967","Winona","MS","Sherwin-Williams Paint Store","418D N Applegate St","38967",33.49075500280345,-89.7353008389473
"38967","Winona","MS","Husqvarna US","1218 Highway 51","38967",33.50061798095703,-89.73580169677734
"39040","Bentonia","MS","Richardson Brothers","not_available","39040",32.640971,-90.364814
"39040","Bentonia","MS","Husqvarna","1085 Highway 49","39071",32.55427169799805,-90.32271575927734
"39041","Bolton","MS","Warren CAT Rental Power","10000 W I-20","79706",32.3641959,-90.5179419
"39042","Brandon","MS","The Home Depot","200 Orleans Way","39042",32.2751013,-90.0378397
"39042","Brandon","MS","Revell Ace Hardware","1919 Spillway Rd","39047",32.381753,-90.036238
"39042","Brandon","MS","MISSISSIPPI REAL KNIFEMAN","610 Grants Ferry Rd Unit 4064","39047",32.3587334,-90.0155707
"39042","Brandon","MS","Fastenal","not_available","39042",32.274574,-89.99367
"39042","Brandon","MS","Sherwin-Williams Paint Store","205 Mar Lyn Dr","39042",32.282686,-90.030633
"39042","Brandon","MS","The Home Depot","not_available","39073",32.182968,-90.048274
"39042","Brandon","MS","Farrell-Calhoun Paint","315 Crossgate Blvd., Ste K","39042",32.285157123162946,-90.03696375246841
"39042","Brandon","MS","minuteKEY","5520 Highway 80 E","39208",32.2866065,-90.0462197
"39042","Brandon","MS","Tractor Supply Co.","5572 Highway 25","39232",32.35747915617228,-90.01773476600647
"39042","Brandon","MS","Husqvarna","606 Second St","39145",32.31267547607422,-89.79996490478516
"39044","Braxton","MS","Broadhead Do it Center","1707 Simpson Highway 149","39114",31.962215423583984,-89.876953125
"39045","Camden","MS","2 Rivers Outdoors Farm & Hardware","1213 MS-15","39476",32.74942026953844,-89.75148797035217
"39046","Canton","MS","The Home Depot","211 Colony Way","39110",32.475727174828975,-90.14495193958282
"39046","Canton","MS","Tractor Supply Co.","176 Feather Ln","39046",32.600986,-90.07074
"39046","Canton","MS","Dun-Rite Seamless Gutters, Inc.","115 Cherrybrook Dr.","39110",32.51155,-90.153165
"39046","Canton","MS","Flora Farm And Auto","not_available","39046",32.58799,-90.07935
"39046","Canton","MS","Barnett Phillips Lumber","515 W Fulton St","39046",32.610938,-90.0418
"39046","Canton","MS","Husqvarna","3356 N Liberty St","39046",32.61362075805664,-90.03466796875
"39046","Canton","MS","Husqvarna","2173 Highway 51","39110",32.540592193603516,-90.07093811035156
"39047","Brandon","MS","Lowe's","120 Ridge Way","39232",32.3408446,-90.0714649
"39047","Brandon","MS","Madison Ace Hardware","952 Highway 51","39110",32.456455,-90.113383
"39047","Brandon","MS","McGraw Hardware","220 Lakeland Pkwy","39232",32.341311,-90.08064499999999
"39047","Brandon","MS","Vector marketing","6700 Old Canyon Rd.","39157",32.407609,-90.106062
"39051","Carthage","MS","Thomas Drilling/Radio Shack","Hwy 16","not_available",32.717494,-89.315768
"39051","Carthage","MS","minuteKEY","905 Highway 16 W","39051",32.72627639770508,-89.54739379882812
"39051","Carthage","MS","Husqvarna","800 S Van Buren St","39051",32.7303466796875,-89.53153228759766
"39054","Cary","MS","BELMONT TRUE VALUE HARDWARE","9416 HWY 61","39054",32.82905578613281,-90.91555786132812
"39054","Cary","MS","Belmont True Value Hardware","9416 Hwy 61","39054",32.81147,-90.92498
"39056","Clinton","MS","The Home Depot","5000 Hampstead Blvd","39056",32.32830997838488,-90.3216290473938
"39056","Clinton","MS","Lowe's","2250 Greenway Drive","39204",32.2921232,-90.2716202
"39056","Clinton","MS","Tractor Supply Co.","464 Springridge Rd","39056",32.32968266,-90.32762021
"39056","Clinton","MS","Mills True Value Hardware","205 Clinton Blvd","39056",32.335265,-90.313408
"39056","Clinton","MS","Energy Piping Inc","5259 Greenway Drive Ext","39204",32.290965,-90.279753
"39056","Clinton","MS","Wolseley Industrial Group","5259 Greenway Dr Exd","39204",32.292511526919,-90.2828295033845
"39056","Clinton","MS","NETech4u LLC","123-a highway 80 E #102","39056",32.33454132080078,-90.32398986816406
"39056","Clinton","MS","Sherwin-Williams Paint Store","1551 Highway 80 E","39056",32.32452944340372,-90.29532194137573
"39056","Clinton","MS","Revell Ace Hardware","730 Clinton Pkwy","39056",32.347623999999996,-90.326951
"39057","Conehatta","MS","Husqvarna US","PO Box 108","39359",32.57268142700195,-89.33502197265625
"39059","Crystal Springs","MS","Ace Hardware","306 E Railroad Ave","39059",31.986631393432617,-90.35799407958984
"39059","Crystal Springs","MS","City Ace Hardware","109 Bo Bo Dr","39059",31.99057960510254,-90.36678314208984
"39059","Crystal Springs","MS","Tractor Supply Co.","110d Market Pl","39083",31.872663497924805,-90.4053726196289
"39067","Ethel","MS","Scarborough Building Supply","not_available","39090",33.071538,-89.5911376
"39067","Ethel","MS","Sherwin-Williams Paint Store","112 Northside Ctr","39090",33.065102068104146,-89.59137082099915
"39067","Ethel","MS","Tractor Supply Co.","180 Highway 12 West","39090",33.06690676284539,-89.59297822374744
"39067","Ethel","MS","Husqvarna","333 Highway 12 W","39090",33.06428146362305,-89.59947967529297
"39067","Ethel","MS","Husqvarna","140 Highway 12 W","39090",33.0660285949707,-89.59196472167969
"39067","Ethel","MS","Husqvarna","418 Fairground St","39090",33.06081771850586,-89.58168029785156
"39073","Florence","MS","Revell Ace Hardware","1899 49 South","39073",32.1571,-90.126099
"39073","Florence","MS","Courtney's Hardware","116 S Church St","39073",32.152846999999994,-90.13117700000001
"39073","Florence","MS","Revell Ace Hardware","1899 Highway 49 S","39073",32.19121170043945,-90.14024353027344
"39073","Florence","MS","Tractor Supply Co.","102 Baptist Dr","39218",32.209522,-90.147882
"39074","Forest","MS","minuteKEY","1309 Highway 35 S","39074",32.338504791259766,-89.48616790771484
"39074","Forest","MS","Fountain Ace Hardware Inc","231 E First St","39074",32.3618,-89.471299
"39074","Forest","MS","Tractor Supply Co.","476 West Third St","39074",32.365116,-89.47802
"39083","Hazlehurst","MS","Husqvarna US","1002 Lonesome Pine Ln","39191",31.721778869628906,-90.39886474609375
"39083","Hazlehurst","MS","Wesson Ace Hardware","2057 Highway 51","39191",31.7018999,-90.397199
"39090","Kosciusko","MS","Husqvarna","6613 Attala Road 4216","39090",33.04700469970703,-89.63143920898438
"39095","Lexington","MS","Thurmond's True Value Hardware","120 Court Square","39095",33.11246089,-90.05322826
"39095","Lexington","MS","Husqvarna","120 Court Sq","39095",33.112667083740234,-90.0537109375
"39096","Lorman","MS","Husqvarna US","PO Box 1015","39150",31.945079803466797,-90.9705581665039
"39096","Lorman","MS","Claiborne Ace Hardware Co","1057 Highway 61 N","39150",31.9681679,-90.979275
"39096","Lorman","MS","Ace Hardware","Hwy 61 N","39150",31.926604,-91.02303
"39110","Madison","MS","Lowe's","128 Grandview Boulevard","39110",32.4658856,-90.1298527
"39110","Madison","MS","Sherwin-Williams Paint Store","802 Highway 51","39110",32.446550915288896,-90.11854022741318
"39110","Madison","MS","Farrell-Calhoun Paint","607 Highway 51","39157",32.434447999999996,-90.126094
"39110","Madison","MS","Seabrook","not_available","39157",32.429753,-90.141334
"39111","Magee","MS","Magee Cooperative AAL","714 Co Op Rd SE","39111",31.866002,-89.726068
"39111","Magee","MS","Ace Hardware","205 2nd St SE","39111",31.8713599,-89.730574
"39111","Magee","MS","Tractor Supply Co.","1800 Simpson Hwy 49","39111",31.875958350176994,-89.75665568584442
"39111","Magee","MS","Sears","410 Pinola Drive SE","39111",31.8639345,-89.7289358
"39116","Mize","MS","Husqvarna","415 HWY 28 E","39116",31.86689567565918,-89.55081939697266
"39119","Mount Olive","MS","Garage Door Repair Williamsburg","International Dr","32821",31.649435947622624,-89.56142663955688
"39119","Mount Olive","MS","Pope Company Hardware","not_available","39428",31.645879,-89.555098
"39120","Natchez","MS","Stine","108 Highway 61 S","39120",31.518402726841117,-91.38864168482577
"39120","Natchez","MS","Budget Build Home Center","2204 Ee Wallace Blvd N","71334",31.653417662869703,-91.55176393233319
"39120","Natchez","MS","Home Hardware Center","not_available","39120",31.54422496530227,-91.37397975198287
"39120","Natchez","MS","Sears","31 South Sergeant Prentiss Dr., #3","39120",31.524172,-91.388138
"39120","Natchez","MS","Home Hardware Center","not_available","71334",31.63064760715437,-91.5554782444475
"39120","Natchez","MS","Sherwin-Williams Paint Store","706 Main St","39120",31.557748,-91.400351
"39120","Natchez","MS","Concordia Lumber & Supply","1720 Carter St","71373",31.572092056274414,-91.44824981689453
"39120","Natchez","MS","Budget Build Home Center","2204 E E. Wallace Blvd","71334",31.6527698,-91.55104469
"39120","Natchez","MS","Tractor Supply Co.","780 Hwy 61 North","39120",31.577619552612305,-91.30682373046875
"39120","Natchez","MS","Elliot Electric","6 S Hickory St","71373",31.567550659179688,-91.4303970336914
"39120","Natchez","MS","Husqvarna","5003 Highway 84 W","71373",31.58271026611328,-91.49019622802734
"39120","Natchez","MS","Husqvarna","114 Northgate Rd","39120",31.5655460357666,-91.35115814208984
"39120","Natchez","MS","Husqvarna US","236 Highway 61 S","39120",31.513336181640625,-91.38261413574219
"39150","Port Gibson","MS","Husqvarna","2104 HWY#61 N","39150",31.979501724243164,-90.97686004638672
"39154","Raymond","MS","Husqvarna","1023 Deviney Dr","39154",32.27386474609375,-90.34026336669922
"39157","Ridgeland","MS","Lowe's","910 East County Line","39157",32.4010905,-90.1389755
"39157","Ridgeland","MS","McGraw Rental & Supply","710 Adcock St","39157",32.4062614440918,-90.14427185058594
"39157","Ridgeland","MS","Harbor Freight Tools","826 S Wheatley St","39157",32.40054702758789,-90.13247680664062
"39157","Ridgeland","MS","ProSource of Jackson","6370 Cole Rd","39157",32.4028025,-90.1753257
"39157","Ridgeland","MS","Ewing Irrigation","112 E Marketridge Dr","39157",32.40660095214844,-90.17060852050781
"39157","Ridgeland","MS","minuteKEY","815 S Wheatley St","39157",32.40190124511719,-90.1340103149414
"39157","Ridgeland","MS","Appliance Parts Co","825 Wilson Dr","39157",32.4044303894043,-90.13839721679688
"39157","Ridgeland","MS","Ferguson Plumbing Supply","950 W County Line Rd","39213",32.4002657603698,-90.1742396314307
"39157","Ridgeland","MS","Capitol Hardware / Building Products Inc.","107 Business Park Dr","39157",32.405126,-90.17531600000001
"39170","Terry","MS","Ace Hardware","5726 Terry Rd","39272",32.189544677734375,-90.25614929199219
"39170","Terry","MS","Sears","5547 I-55 SOUTH","39272",32.189569,-90.255017
"39174","Tougaloo","MS","The Home Depot","6325 I-55 North","39213",32.395268085419865,-90.14846778207357
"39180","Vicksburg","MS","Tractor Supply Co.","1800 South Frontage Rd Ste G","39180",32.319726,-90.871031
"39180","Vicksburg","MS","Sherwin-Williams Paint Store","1601D N Frontage Rd","39180",32.32178233695078,-90.87485074996948
"39180","Vicksburg","MS","The Home Depot","50 Halls Ferry Park Rd","39180",32.3166759,-90.8732939
"39180","Vicksburg","MS","Mid-South Lumber & Supply","4925 Hwy 61 S","39180",32.257968,-90.916598
"39180","Vicksburg","MS","Sears","2480 S Frontage Rd Ste E","39180",32.32694208048454,-90.86104973218426
"39180","Vicksburg","MS","Rexel","520","39180",32.345337,-90.884829
"39180","Vicksburg","MS","Rebel Welding","not_available","39183",32.344891,-90.826593
"39180","Vicksburg","MS","Haden True Value Hardware","2110 S Frontage Rd","39180",32.323049,-90.865829
"39180","Vicksburg","MS","PPG Porter's Paint","1882 S Frontage Rd","39180",32.321388244628906,-90.86876678466797
"39180","Vicksburg","MS","Husqvarna","680 Highway 80","39180",32.345489501953125,-90.81764221191406
"39183","Vicksburg","MS","irby","2690 Highway 61 N","39183",32.383422572441795,-90.82667827606201
"39183","Vicksburg","MS","MID-SOUTH LBR & SPLY","4925 Highway 61 S","39180",32.41864776611328,-90.83199310302734
"39191","Wesson","MS","Husqvarna","607 Country Club Rd NE","39601",31.612363815307617,-90.44476318359375
"39194","Yazoo City","MS","Sherwin-Williams Paint Store","1423 Calhoun Ave","39194",32.86610003675399,-90.40104433137539
"39194","Yazoo City","MS","Gilbert's Lumber and Home Center","Corner of North Main @ Canal","39194",32.854065,-90.4122384
"39194","Yazoo City","MS","Delta Ace","647 Haley Barbour Pkwy","39194",32.8564009,-90.430702
"39194","Yazoo City","MS","Adams Hardware","not_available","39194",32.841256,-90.394593
"39194","Yazoo City","MS","Husqvarna","322 S Washington St","39194",32.84438705444336,-90.41461944580078
"39194","Yazoo City","MS","Husqvarna","397 Haley Barbour Pkwy","39194",32.86063003540039,-90.42826080322266
"39201","Jackson","MS","Ace bolt and screw","not_available","39201",32.28154,-90.19574200000001
"39201","Jackson","MS","Capweld Welding Supplies","Rankin St","not_available",32.28606824929835,-90.18575414222899
"39201","Jackson","MS","May & Co.","not_available","39203",32.3030852,-90.194796
"39201","Jackson","MS","Builders Specialities","not_available","39204",32.289953,-90.193019
"39201","Jackson","MS","Appliance Parts Co","727 gallatin","not_available",32.28427343365907,-90.19324496221701
"39201","Jackson","MS","Irby","505 Beasley Street","39201",32.28927993774414,-90.18338012695312
"39201","Jackson","MS","Home Outlet","440 Hwy 80 West","39201",32.284908,-90.194621
"39202","Jackson","MS","Jackson Safe & Lock Co","842 Larson St","39202",32.308112,-90.167085
"39204","Jackson","MS","Revell Ace Hardware Co","3876 Terry Rd","39212",32.243625,-90.229159
"39204","Jackson","MS","Sherwin-Williams Paint Store","2805 Terry Rd","39212",32.267324,-90.219888
"39204","Jackson","MS","Farrell-Calhoun Paint","2550 Terry Rd","39204",32.271844,-90.216512
"39204","Jackson","MS","Bell Fence Co.","not_available","39209",32.29921968256542,-90.24395698038748
"39204","Jackson","MS","H&E Equipment Services","4200 I-55 S","39212",32.2285856,-90.221502
"39204","Jackson","MS","Grainger","3551 I 55 S","39212",32.249275990180884,-90.21356944163935
"39206","Jackson","MS","Carroll's Landscape Services LLC","1155 Forest Ave","39206",32.370579,-90.195374
"39206","Jackson","MS","Ye Olde Lamp Shoppe","4505 N Hwy 55","39206",32.353632,-90.153023
"39206","Jackson","MS","Northern Tool","not_available","39206",32.37806573799548,-90.14920399902101
"39206","Jackson","MS","Sherwin-Williams Paint Store","5317 I 55 N","39206",32.37071911249201,-90.14980673789978
"39208","Pearl","MS","Revell Hardware","2509 Highway 80 E","39208",32.280306,-90.129009
"39208","Pearl","MS","Harbor Freight","not_available","39208",32.28424036350086,-90.11601366138044
"39208","Pearl","MS","minuteKEY","200 Market Pl","39218",32.2199898,-90.153555
"39208","Pearl","MS","Sherwin-Williams Paint Store","700 Highway 49 S","39218",32.233185999999996,-90.161645
"39208","Pearl","MS","Sherwin-Williams Paint Store","2223 Highway 80 E","39208",32.27975,-90.134202
"39208","Pearl","MS","Sutherlands","717 Highway 80 E","39208",32.276453000000004,-90.15483
"39208","Pearl","MS","Ferguson Plumbing Supply","173 Carrier Blvd","39218",32.263746999999995,-90.16405300000001
"39208","Pearl","MS","Direct Tools Factory Outlet","200 Bass Pro Dr Ste 525","39208",32.27486921367284,-90.15086889266968
"39208","Pearl","MS","Sherwin-Williams Product Finishes","400 Industrial Park Dr","39218",32.256063,-90.15118000000001
"39208","Pearl","MS","Southern Pipe","not_available","39218",32.259192999999996,-90.159308
"39208","Pearl","MS","Revell Industrial Supply","2502 Smithbridge St","39208",32.278664,-90.12892
"39208","Pearl","MS","Harbor Freight Tools","3100 Highway 80 E","39208",32.284251481754374,-90.11577115576006
"39208","Pearl","MS","Husqvarna","3698 Highway 80 E Ste B","39208",32.284095764160156,-90.09208679199219
"39208","Pearl","MS","Husqvarna","1752 Highway 49 S","39073",32.24191665649414,-90.16524505615234
"39209","Jackson","MS","driver technology consulting, llc","445 Greenmont Dr","39212",32.264332,-90.295906
"39209","Jackson","MS","ProSource","I-220 South","39213",32.375308871269226,-90.2126133441925
"39209","Jackson","MS","Hotel & Restaurant Supply","4251 Industrial Dr","39209",32.339617,-90.236558
"39209","Jackson","MS","Sherwin-Williams Floorcovering Store","4227 Space Center Dr","39209",32.33964157141121,-90.23520827293396
"39209","Jackson","MS","Husqvarna","3190 Medgar Evers Blvd","39213",32.334938049316406,-90.2068099975586
"39211","Jackson","MS","Revell Ace Hardware","5060 B I-55 North","39211",32.3727,-90.1312
"39213","Jackson","MS","Jackson Heating And Cooling","265 Louis St","30133",32.340945,-90.195014
"39213","Jackson","MS","Montgomery Ace Hardware Co","2801 Old Canton Rd","39216",32.333945,-90.174387
"39218","Richland","MS","84 Lumber","184 Interstate Dr","39218",32.254121000000005,-90.157135
"39301","Meridian","MS","Blackwell Shepard's Locksmith","not_available","39301",32.371113,-88.690007
"39301","Meridian","MS","Broadmoor Ace","4900 Poplar Springs Dr, Suite 18","39305",32.410381,-88.698103
"39301","Meridian","MS","Wilson's Saw and Outdoor Power","71 Highway 19 N","39307",32.351985931396484,-88.73432922363281
"39301","Meridian","MS","Commercial Contract Services LLC","16310 County Road 514","39301",32.21799318697571,-88.45247268676758
"39301","Meridian","MS","minuteKEY","2400 Highway 19 N","39307",32.387052,-88.7484439
"39301","Meridian","MS","Tractor Supply Co.","2110 Hwy 19 North","39307",32.379502,-88.744793
"39301","Meridian","MS","Southern Pipe & Supply Company Inc.","4330 Highway 39 N","39301",32.40325,-88.67675
"39301","Meridian","MS","Lowe's","100 15th Place South","39301",32.354132,-88.6801052
"39301","Meridian","MS","Benjamin Moore The Paint Store At North Hills","4636 Poplar Springs Dr","39305",32.4074865,-88.70038029999999
"39301","Meridian","MS","Irby","1019 B St","39301",32.3660774230957,-88.68718719482422
"39301","Meridian","MS","Hughes Supply","1301 5th St","39301",32.367822,-88.692163
"39301","Meridian","MS","Lowe's","100 15th Pl S","39301",32.354132,-88.6801052
"39301","Meridian","MS","minuteKEY","1733 2nd St S","39301",32.3546653,-88.6829637
"39301","Meridian","MS","Sherwin-Williams Paint Store","1101 24th Ave","39301",32.368019104003906,-88.70293426513672
"39301","Meridian","MS","Marvin's Building Materials and Home Centers","2015 Highway 19 N","39307",32.37874984741211,-88.74735260009766
"39301","Meridian","MS","Husqvarna US","2622 N Frontage Rd","39301",32.34962844848633,-88.70213317871094
"39301","Meridian","MS","Harbor Freight Tools","2108 N Frontage Rd","39301",32.35565749095599,-88.68991255760191
"39305","Meridian","MS","Collinsville Hardware","not_available","39305",32.48617935180664,-88.7656478881836
"39307","Meridian","MS","Mid South Welding Supply","Hwy 11","39305",32.28537898862335,-88.7687532520667
"39322","Buckatunna","MS","Gatlins Building Supply","84 Old Highway 63 Dr, Waynesboro, MS 39367","39367",31.64464569091797,-88.64700317382812
"39322","Buckatunna","MS","Sears","1108 A Mississippi Drive","39367",31.6834462,-88.6460682
"39322","Buckatunna","MS","Chickasawhay Building Supply","Hwy 64","39367",31.644562,-88.648965
"39322","Buckatunna","MS","Kountry Propane","104 Turner Street","39367",31.65424,-88.64327
"39322","Buckatunna","MS","Husqvarna","1117 Mississippi Dr","39367",31.685150146484375,-88.64720153808594
"39338","Louin","MS","ALEXANDER TRUE VALUE HARDWARE","2488 HIGHWAY 15 SOUTH","39422",31.987781524658203,-89.28791046142578
"39339","Louisville","MS","Ace Hardware","123 N Columbus Ave","39339",33.124149322509766,-89.05361938476562
"39339","Louisville","MS","Bennett's Do it center","not_available","39339",33.11845149470423,-89.05459798162526
"39339","Louisville","MS","Sherwin-Williams Paint Store","365 N Court Ave","39339",33.126197814941406,-89.05449676513672
"39339","Louisville","MS","Noxapater Hardware","23 E Main St.","39346",32.99272918701172,-89.06375122070312
"39339","Louisville","MS","Husqvarna","16211 W Main St","39339",33.123870849609375,-89.05973052978516
"39341","Macon","MS","Holcombe Supply","3809 Jefferson St","39341",33.1101801550954,-88.55982542037964
"39341","Macon","MS","Holcombe Supply","Jefferson Street","39341",33.120036,-88.560623
"39341","Macon","MS","Husqvarna","15878 HWY 45","39341",33.15098190307617,-88.55427551269531
"39345","Newton","MS","Hailey's Hardware","123 S Main St","39345",32.32147979736328,-89.16319274902344
"39350","Philadelphia","MS","Lowe's","1105 Central Drive","39350",32.7619999,-89.1471102
"39350","Philadelphia","MS","Sherwin-Williams Paint Store","1030 W Beacon St","39350",32.767938930830816,-89.13306713104248
"39350","Philadelphia","MS","minuteKEY","1002 W Beacon St","39350",32.7696248,-89.1294149
"39350","Philadelphia","MS","Tractor Supply Co.","14841 Hwy 16 West","39350",32.76499938964844,-89.1675796508789
"39355","Quitman","MS","Greer's Cash Saver","550 S Archusa Ave","39355",32.0317719,-88.727973
"39360","Shubuta","MS","Pauls hardware","not_available","39360",31.856904983520508,-88.6981201171875
"39362","State Line","MS","REVETTES TRUE VALUE HARDWARE","243 Main St","39362",31.45622444152832,-88.48697662353516
"39365","Union","MS","Union Supply Company Hardware","not_available","39365",32.572029,-89.122054
"39365","Union","MS","Long's Building Materials","23484 Highway 15","39365",32.5536972,-89.1072885
"39367","Waynesboro","MS","M.S. Gatlin BLDG SPLY","57 Woodards Switch Rd","39367",31.692295,-88.6627349
"39401","Hattiesburg","MS","Tractor Supply Co.","7168 Us Hwy 49","39402",31.38570585,-89.37144222
"39401","Hattiesburg","MS","Lowe's","40 Tyner Road","39465",31.3535199,-89.237766
"39401","Hattiesburg","MS","The Home Depot","4100 O'Ferrell Street","39402",31.3223283,-89.3504101
"39401","Hattiesburg","MS","Ace Hardware","S. Main st.","39465",31.294375000000002,-89.28166666666667
"39401","Hattiesburg","MS","Taylor True Value Rental","4219 Lincoln Rd","39402",31.299410637,-89.3701863557
"39401","Hattiesburg","MS","Garner Lumley","not_available","39401",31.329245,-89.28815
"39401","Hattiesburg","MS","Boleware Construction","75 Fillingame Rd","39401",31.18756458448896,-89.323890209198
"39401","Hattiesburg","MS","ACE HDWE OF PETAL  INC.","401 S Main St","39465",31.34173,-89.262199
"39401","Hattiesburg","MS","Appliance Parts Co.","121 Lundy Ln","39401",31.327854,-89.350594
"39401","Hattiesburg","MS","Ferguson Plumbing Supply","5115 Hwy 42","39401",31.341036,-89.286313
"39401","Hattiesburg","MS","Allbritton Chain Saw & Lawn","1601 Broadway Dr","39402",31.30276,-89.32215
"39401","Hattiesburg","MS","U Wood Inc.","7225 U S Highway 49","39402",31.386579,-89.37454799999999
"39401","Hattiesburg","MS","Dirt Cheap Building Supplies","5912 U S Highway 49","39401",31.31097257777301,-89.3181062481111
"39401","Hattiesburg","MS","Bill Rainey Millworks","1909 Country Club Rd","39401",31.301041,-89.315888
"39401","Hattiesburg","MS","Buck's Bargain Center","6888 US 49","39402",31.3105164,-89.3200187
"39401","Hattiesburg","MS","Husqvarna US","16 OFFICE PARTK DRIVE, SUITE 6","39402",31.31363296508789,-89.38909912109375
"39401","Hattiesburg","MS","Oak Grove Glass","2126 Oak Grove Rd","39402",31.318365,-89.3621
"39401","Hattiesburg","MS","Sherwin-Williams Paint Store","368 Hegwood Rd","39402",31.317301440635777,-89.3989930352553
"39401","Hattiesburg","MS","Harbor Freight Tools","4400 Hardy St Ste B10","39402",31.322775,-89.354396
"39401","Hattiesburg","MS","ProBuild","not_available","39402",31.31230043220369,-89.40820306925923
"39401","Hattiesburg","MS","minuteKEY","6004 U S Highway 98","39402",31.320148468017578,-89.37470245361328
"39401","Hattiesburg","MS","Pylant's Ace Hardware","115 Shelby Speights Dr","39475",31.142925262451172,-89.41001892089844
"39401","Hattiesburg","MS","Sherwin-Williams Floorcovering Store","6424 U S Highway 98","39402",31.31599139404771,-89.40901279449463
"39402","Hattiesburg","MS","G & G Hardware","5029 Old Highway 11","39402",31.295387,-89.411006
"39402","Hattiesburg","MS","Ace Hardware","6610 U S Highway 98","39402",31.316261291503906,-89.42398071289062
"39402","Hattiesburg","MS","Lowe's","6004 US Hwy 98","39402",31.3201938,-89.3748247
"39402","Hattiesburg","MS","Farrell-Calhoun Paint","5290 Old Highway 11","39402",31.313611089861652,-89.41048341410351
"39402","Hattiesburg","MS","Husqvarna","6655 U S Highway 98","39402",31.31730842590332,-89.42816925048828
"39422","Bay Springs","MS","Alexander True Value Hardware","2488 Highway 15 S","39422",31.95657,-89.2899
"39422","Bay Springs","MS","Alexander True Value Hardware","2488 Highway 15 South","39422",31.95544321498988,-89.14060582141103
"39426","Carriere","MS","Quick & Grice Ace Hardware","1007 Highway 11 S","39466",30.5457,-89.6692
"39426","Carriere","MS","Hooker's Ace Hdw","6422 Hwy 11 N","39466",30.558719,-89.66431999999999
"39426","Carriere","MS","Sherwin-Williams Paint Store","102 Hayden Oaks Dr","39466",30.55738297625514,-89.66629028320312
"39426","Carriere","MS","Husqvarna","2217 US 11","39466",30.54413604736328,-89.67052459716797
"39428","Collins","MS","seminary farm center","not_available","39479",31.554399490356445,-89.50415802001953
"39428","Collins","MS","Seminary Ace Hardware","211 W Main St","39479",31.56216049194336,-89.50041961669922
"39429","Columbia","MS","Tractor Supply Co.","940 Hwy 13 South","39429",31.234283,-89.823094
"39429","Columbia","MS","Beacon supply","not_available","39429",31.24213,-89.803059
"39429","Columbia","MS","Husqvarna US","3215 Highway 13 N","39429",31.35630989074707,-89.88941955566406
"39429","Columbia","MS","Hill Hardware Inc","717 Main St","39429",31.2519549,-89.835248
"39429","Columbia","MS","Gordons Ace Hardware Inc","115 R A Johnson Dr","39429",31.2577,-89.758799
"39429","Columbia","MS","Husqvarna","216 Herring Rd","39478",31.045373916625977,-89.94384002685547
"39437","Ellisville","MS","Dixie Pump","not_available","39440",31.671958923339844,-89.14686584472656
"39437","Ellisville","MS","Ellisville Auto Supply Inc.","704 Hill St","39437",31.60851,-89.203049
"39437","Ellisville","MS","Alexander True Value Hardware","803 Hill St","39437",31.609643,-89.203503
"39439","Heidelberg","MS","Rent All of Laurel","1518 Bush Dairy Rd","39440",31.736221313476562,-89.14733123779297
"39439","Heidelberg","MS","Tractor Supply Co.","1501 Northwest Dr","39440",31.741398026683942,-89.13817649656805
"39440","Laurel","MS","Lowe's","1490 Highway 15 North","39440",31.7073135,-89.1500701
"39440","Laurel","MS","Sears","910 Sawmill Rd Suite 240, Suite 240","39440",31.6914949,-89.1361728
"39440","Laurel","MS","Sherwin-Williams Paint Store","106 Mason St","39440",31.689216,-89.136534
"39440","Laurel","MS","minuteKEY","1621 Highway 15 N","39440",31.7096688,-89.146736
"39440","Laurel","MS","Husqvarna","1104 Highway 15 N","39440",31.702381134033203,-89.14909362792969
"39440","Laurel","MS","Husqvarna","1721 Old Amy Rd","39440",31.7213077545166,-89.14927673339844
"39440","Laurel","MS","Husqvarna","118 N 12th Ave","39440",31.689985275268555,-89.14171600341797
"39443","Laurel","MS","Southern Seed And Feed","Lower Myrick Rd","not_available",31.65009633,-89.04409095
"39451","Leakesville","MS","Husqvarna US","PO Box 879","39451",31.165433883666992,-88.5924301147461
"39451","Leakesville","MS","Davis Hardware Store","59 Lilly Pad Rd","39451",31.1534423828125,-88.5292739868164
"39451","Leakesville","MS","Husqvarna","401 Main St","39451",31.153202056884766,-88.5517578125
"39452","Lucedale","MS","Hurley Hardware","6550-6588 Hurley Wade Rd","39562",30.658132553100586,-88.49420928955078
"39452","Lucedale","MS","minuteKEY","11228 Old 63 S","39452",30.901826858520508,-88.59514617919922
"39452","Lucedale","MS","Jacks","533 Cowart St","39452",30.910024642944336,-88.5898208618164
"39452","Lucedale","MS","Husqvarna","7000 HWY 614","39562",30.652708053588867,-88.49313354492188
"39452","Lucedale","MS","Husqvarna","6113 Highway 613","39452",30.813335418701172,-88.52013397216797
"39452","Lucedale","MS","Tractor Supply Co.","12120b Old 63 South","39452",30.909318,-88.596654
"39455","Lumberton","MS","Husqvarna US","PO Box 421","39475",31.185258865356445,-89.41749572753906
"39455","Lumberton","MS","Global Electric & Safety, LLC","20 David Swan Ln","39475",31.138403,-89.37939899999999
"39455","Lumberton","MS","Ace Hardware","140 S Main St","39470",30.83112359046936,-89.52707290649414
"39455","Lumberton","MS","Knights Ace Hardware","1312 S Main St","39470",30.844486,-89.534864
"39455","Lumberton","MS","Husqvarna","HIGHWAY 11 NORTH","39475",31.142553329467773,-89.40552520751953
"39455","Lumberton","MS","Husqvarna","104 EAST MAGNOLIA ST.","39470",30.840486526489258,-89.53457641601562
"39465","Petal","MS","Sherwin-Williams Paint Store","1241 Highway 42","39465",31.35083,-89.197082
"39465","Petal","MS","Leisure Time Pool","not_available","39465",31.34256360833795,-89.2619383082335
"39465","Petal","MS","Elk's Septic Tank Service","166 John Evans Rd","39465",31.285870000000003,-89.203812
"39465","Petal","MS","Big Red Supply","300 McInnis St","39465",31.343434999999996,-89.27112
"39465","Petal","MS","Husqvarna","1400-1/2 EAST HARDY ST.","39401",31.32630157470703,-89.27645874023438
"39465","Petal","MS","Clemts Hardware","5422 U S Highway 49","39401",31.2835097,-89.2951097
"39466","Picayune","MS","The Home Depot","2000 Hwy 43 South","39466",30.514791916482427,-89.65787351131439
"39466","Picayune","MS","Sears","781 Memorial Blvd, Space 3 Picayune MS","39466",30.518942,-89.674031
"39466","Picayune","MS","Tractor Supply Co.","2320 Hwy 43 South","39466",30.518118,-89.65098
"39466","Picayune","MS","Husqvarna","2417 E Canal St","39466",30.520336151123047,-89.64604187011719
"39470","Poplarville","MS","Husqvarna","63176 Highway 10","70427",30.792587280273438,-89.83229064941406
"39476","Richton","MS","Ramey's Ace Hdwe-Richton","701 N Front St","39476",31.349902,-88.935795
"39479","Seminary","MS","Custom Stone Yard","1335 Highway 49","39479",31.5147263,-89.4843382
"39482","Sumrall","MS","Sears","923 Highway 42","39482",31.4099699278243,-89.56496154232786
"39501","Gulfport","MS","Lowe's","2151 John Hill Boulevard","39501",30.3966705,-89.0875067
"39501","Gulfport","MS","Ppg Paints","2400 Pass Rd","39501",30.380566,-89.092026
"39501","Gulfport","MS","Oreck","not_available","39507",30.400666,-89.018534
"39501","Gulfport","MS","Irby","15288 Russell Blvd","39503",30.415459999999996,-89.094978
"39501","Gulfport","MS","Irby Electrical Supplies","not_available","39501",30.41780345777228,-89.09353868083771
"39501","Gulfport","MS","Pass Road True Value","504 E Pass Rd","39507",30.395298999999998,-89.04219599999999
"39501","Gulfport","MS","Rosskopf Electrical Supply","2607 15th Ave","39501",30.38205361526343,-89.08062159507635
"39501","Gulfport","MS","Hood's Home Center","7900 Highway 49","39501",30.3975092,-89.0918031
"39501","Gulfport","MS","minuteKEY","2151 John Hill Blvd","39501",30.396197,-89.087501
"39501","Gulfport","MS","Sherwin-Williams Paint Store","2305 Pass Rd","39501",30.379987716674805,-89.0906982421875
"39501","Gulfport","MS","threaded fasteners","1479 34th St","39501",30.390813,-89.080407
"39501","Gulfport","MS","Southern Fastener & Tool Co.","2701 13th Ave","39501",30.3830046,-89.0779557
"39501","Gulfport","MS","Bayou View Hardware","4800 Washington Ave","39507",30.409746170043945,-89.05184936523438
"39503","Gulfport","MS","The Home Depot","15220 Creosote Rd","39503",30.429481,-89.0943381
"39503","Gulfport","MS","Tractor Supply Co.","13440 Hwy 49","39503",30.483418,-89.10173
"39503","Gulfport","MS","Harbor Freight Tools","290 Eisenhower Dr","39531",30.399519766964232,-88.99191385812293
"39503","Gulfport","MS","Fastenal","not_available","39503",30.43541907822089,-89.05218686112303
"39503","Gulfport","MS","Orange Grove Lock And Key","123 W Chipwood Dr","39503",30.482471000000004,-89.064586
"39503","Gulfport","MS","HD Supply White Cap","14220 Highway 49","39503",30.49229793,-89.10385251
"39503","Gulfport","MS","Sherwin-Williams Paint Store","14321 Dedeaux Rd","39503",30.448793918192855,-89.07965898513794
"39503","Gulfport","MS","Sherwin-Williams Floorcovering Store","14231 Seaway Rd","39503",30.433734893798828,-89.07564544677734
"39503","Gulfport","MS","minuteKEY","11333 Highway 49","39503",30.451417922973633,-89.10143280029297
"39503","Gulfport","MS","Lawn & Garden Center","15539 13th St","39503",30.458993,-89.103247
"39520","Bay Saint Louis","MS","Tractor Supply Co.","1220 Hwy 90","39520",30.31022834777832,-89.36444091796875
"39520","Bay Saint Louis","MS","Lowe's","9020 Highway 603","39576",30.3094841,-89.3806554
"39520","Bay Saint Louis","MS","Fastenal","129 Highway 90","39576",30.308348,-89.37015
"39520","Bay Saint Louis","MS","Sherwin-Williams Paint Store","214 Highway 90","39576",30.308344187266062,-89.37377393245697
"39520","Bay Saint Louis","MS","Hubbard's","703 Nicholson Ave.","39576",30.296021,-89.367376
"39525","Diamondhead","MS","Husqvarna","4474 Leisure Time Dr","39525",30.376937866210938,-89.3831558227539
"39525","Diamondhead","MS","Diamondhead True Value","4405A Aloha Dr","39525",30.37559948,-89.37340001
"39530","Biloxi","MS","Bankston Paints","not_available","39530",30.40362,-88.890246
"39530","Biloxi","MS","Necase Locksmith","not_available","39531",30.402572999999997,-88.972095
"39530","Biloxi","MS","Pass Road Hardware","1707 Pass Rd","39531",30.4025936126709,-88.93912506103516
"39530","Biloxi","MS","minuteKEY","2050 Pass Rd","39531",30.403040999999998,-88.957761
"39531","Biloxi","MS","Sherwin-Williams Paint Store","2565 Pass Rd","39531",30.400419,-88.986723
"39532","Biloxi","MS","The Home Depot","1680 Elizabeth Blvd","39532",30.4467304,-88.9318515
"39532","Biloxi","MS","Lowe's","3700 Sangani Blvd","39540",30.4598463,-88.8973123
"39532","Biloxi","MS","Home Town Lumber & Supply True Value","7812 Lamar Pool Rd","39532",30.45766073,-88.84329362
"39532","Biloxi","MS","minuteKEY","10290 Diberville Blvd","39540",30.43679428100586,-88.89171600341797
"39532","Biloxi","MS","Popps Ferry Hardware","not_available","39532",30.437603633020434,-88.95617757014094
"39532","Biloxi","MS","Sherwin-Williams Paint Store","3586 Sangani Blvd","39540",30.45931,-88.894115
"39532","Biloxi","MS","Husqvarna","11378 Cedar Lake Rd","39532",30.453615188598633,-88.9344253540039
"39532","Biloxi","MS","Husqvarna","9231 W Oaklawn Rd","39532",30.451465606689453,-88.9905776977539
"39532","Biloxi","MS","Ferguson Plumbing Supply","12346 Intraplex Parkway","39503",30.441446999999997,-89.040336
"39553","Gautier","MS","Tractor Supply Co.","5001 Bienville Blvd","39564",30.396560668945312,-88.68395233154297
"39553","Gautier","MS","Harbor Freight. Tools","2029 Highway 90","39553",30.389654999999998,-88.643047
"39553","Gautier","MS","Lowe's","3200 Highway 90","39553",30.3949652,-88.6618422
"39553","Gautier","MS","Sherwin-Williams Paint Store","4960 Gautier Vancleave Rd","39553",30.413514,-88.65275700000001
"39556","Kiln","MS","Husqvarna","6148 Kiln Delisle Rd","39556",30.407360076904297,-89.4301986694336
"39560","Long Beach","MS","Walker Rent All Hardware","19079 Pineville Rd","39560",30.356534,-89.157053
"39560","Long Beach","MS","CJ's Plumbing","447 Klondyke Rd","39560",30.361379623413086,-89.1535873413086
"39560","Long Beach","MS","minuteKEY","1617 E Beach Blvd","39571",30.335426330566406,-89.18891143798828
"39561","Mc Henry","MS","McDaniel's General Merchandise","496 US 49","39561",30.7131599,-89.13410122
"39562","Moss Point","MS","Lowe's","3301 Denny Avenue","39581",30.3798601,-88.5275724
"39562","Moss Point","MS","minuteKEY","3301 Denny Ave","39581",30.37954,-88.527499
"39562","Moss Point","MS","Shields Septic Tanks & Hardware","SARACENNIA Rd Moss Point","39567",30.48713482037556,-88.50284968220899
"39562","Moss Point","MS","Hooper Electronics","3519 Market St","39567",30.369124,-88.548851
"39562","Moss Point","MS","minuteKEY","4253 Denny Ave","39581",30.386323928833008,-88.51875305175781
"39562","Moss Point","MS","city lock shop","not_available","39581",30.36628,-88.526147
"39562","Moss Point","MS","City Electric Supply Pascagoula","4607 Hospital St","39581",30.37949312728292,-88.53526094108717
"39562","Moss Point","MS","Husqvarna","2453 Amonett St","39567",30.37436294555664,-88.53768920898438
"39564","Ocean Springs","MS","Ace Hardware of Ocean Spg","2933 Bienville Blvd","39564",30.4136999,-88.787899
"39564","Ocean Springs","MS","Hintonâ€™s","not_available","39564",30.415663,-88.807119
"39564","Ocean Springs","MS","Sherwin-Williams Paint Store","6409 Washington Ave","39564",30.434863716839683,-88.83066952228546
"39564","Ocean Springs","MS","Elzeys Hardware","Howard Ave","39530",30.39127383339131,-88.86117701555197
"39564","Ocean Springs","MS","Husqvarna","2200 Government St","39564",30.41326332092285,-88.81254577636719
"39565","Vancleave","MS","Vancleave Old Place","not_available","39565",30.526024749659918,-88.67819591674616
"39567","Pascagoula","MS","Sherwin-Williams Paint Store","1934 Market St","39567",30.355476355016282,-88.54806393384932
"39573","Perkinston","MS","Hardware plus","21017 Highway 49","39574",30.589475,-89.12791899999999
"39573","Perkinston","MS","Lyle Machinery","19450 Highway 49","39574",30.570974349975586,-89.12334442138672
"39573","Perkinston","MS","Casey's Hardware & Feed","23451 Central Dr","39574",30.629154999999997,-89.132982
"39574","Saucier","MS","Husqvarna","16101 Highway 49","39503",30.517133712768555,-89.10760498046875
"39577","Wiggins","MS","Alexander's Hardware","206 Magnolia Dr N","39577",30.860609718192762,-89.13853950833132
"39577","Wiggins","MS","minuteKEY","1053 Frontage Dr E","39577",30.8455627,-89.1444233
"39577","Wiggins","MS","Jack's Home Improvement Center","747 Hall St","39577",30.848431,-89.141773
"39601","Brookhaven","MS","The Home Depot","101 Stribling Road","39601",31.580765594945518,-90.47721862792969
"39601","Brookhaven","MS","Sherwin-Williams Paint Store","550 Highway 51 S","39601",31.570905685424805,-90.45653533935547
"39601","Brookhaven","MS","Harbor Freight Tools","not_available","39601",31.580492,-90.46987
"39601","Brookhaven","MS","minuteKEY","960 Brookway Blvd","39601",31.582119,-90.468479
"39601","Brookhaven","MS","Perkins Ace Hardware","220 US Hwy 51","39601",31.584382085636125,-90.45546008511565
"39601","Brookhaven","MS","Co-Lin Feed & Seed","1232 Highway 51 NE","39601",31.599609375,-90.45095825195312
"39601","Brookhaven","MS","Sears","222 Highway 51 North","39601",31.5846,-90.455406
"39645","Liberty","MS","Husqvarna US","PO Box 220","39645",31.15890121459961,-90.8055648803711
"39648","Mccomb","MS","Pike County Co-Op","105 Nehi Cir","39648",31.231456756591797,-90.45051574707031
"39648","Mccomb","MS","Harbor Freight","not_available","39648",31.246397,-90.47384
"39648","Mccomb","MS","Spears Hardware & Supply LLC","1092 Airport Fernwood Rd","39648",31.18863,-90.48764
"39648","Mccomb","MS","McComb Electric Supply Co., Inc.","119 S Front St","39648",31.24295997619629,-90.45166015625
"39648","Mccomb","MS","Tractor Supply Co.","602 West Presley Blvd","39648",31.226774,-90.464745
"39648","Mccomb","MS","Irby","1260 Parklane Rd","39648",31.228891372680664,-90.47673034667969
"39648","Mccomb","MS","Sherwin-Williams Paint Store","1000 Delaware Ave","39648",31.247772642880744,-90.46397818355634
"39648","Mccomb","MS","Lowe's","1802 Pikes Point Circle","39648",31.2583637,-90.4774551
"39666","Summit","MS","Covington's Ace Hardware","721 Robb Street","39666",31.283676,-90.468298
"39669","Woodville","MS","Husqvarna US","PO Box 1217","39669",31.120159149169922,-91.32302856445312
"39669","Woodville","MS","Husqvarna","1315 US Highway 61 S","39669",31.121183395385742,-91.28285217285156
"39701","Columbus","MS","Lowe's","2301 Woodmont Drive","39705",33.5207863,-88.4137956
"39701","Columbus","MS","Sears","1404 Old Aberdeen Rd, Pad-c","37905",33.511558532714844,-88.43112182617188
"39701","Columbus","MS","Biddy Saw Works","1218 Highway 69 S","39702",33.47948455810547,-88.3895492553711
"39701","Columbus","MS","minuteKEY","2301 Woodmont Dr","39705",33.52065658569336,-88.41352844238281
"39701","Columbus","MS","Military Hardware & Garden Center","1002 13th St N","39701",33.50577892230928,-88.4200394153595
"39701","Columbus","MS","minuteKEY","1913 Highway 45 N","39705",33.51866,-88.439086
"39701","Columbus","MS","Newell Paper Co","1616 7th Ave S","39701",33.48892593383789,-88.41390228271484
"39701","Columbus","MS","Marvins Building Supply","not_available","39702",33.520189,-88.361828
"39701","Columbus","MS","Sherwin-Williams Paint Store","103B Alabama St","39702",33.4973982557115,-88.38839899150005
"39701","Columbus","MS","Irby","1125 N Lehmberg Rd","39702",33.516740999999996,-88.364235
"39701","Columbus","MS","Fastenal","4335 Airport Rd","not_available",33.462938,-88.582291
"39702","Columbus","MS","Tractor Supply Co.","4010 Hwy 45 North","39705",33.55149841308594,-88.43241119384766
"39702","Columbus","MS","Husqvarna","8177 Highway 12 E","39766",33.56344985961914,-88.31614685058594
"39705","Columbus","MS","Dallas Slatton Mobile Home Parts","not_available","39705",33.582609,-88.446262
"39735","Ackerman","MS","Husqvarna US","HWY 12 NORTH","39735",33.33468246459961,-89.1858901977539
"39735","Ackerman","MS","Black Brother's Building Supply","421 Seward St","39735",33.315162426288516,-89.1783857345581
"39744","Eupora","MS","Husqvarna","1515 Veterans Memorial Blvd","39744",33.53721618652344,-89.26695251464844
"39750","Maben","MS","Husqvarna US","1104 MS Highway 15","39750",33.54792404174805,-89.09397888183594
"39750","Maben","MS","Nuway","not_available","39750",33.657005310058594,-89.06108856201172
"39759","Starkville","MS","Lowe's","882 Highway 12 West","39759",33.447978,-88.8440005
"39759","Starkville","MS","Tractor Supply Co.","1301 Greta Ln","39759",33.440972,-88.850612
"39759","Starkville","MS","Robinsons True Value","308 University Dr","39759",33.463470458984375,-88.81253814697266
"39759","Starkville","MS","minuteKEY","1010 Highway 12 W","39759",33.44449996948242,-88.85140228271484
"39759","Starkville","MS","Oktibbeha County Co-Op","201 Pollard Road","39759",33.445067802433655,-88.84157538414001
"39759","Starkville","MS","Sherwin-Williams Paint Store","422A Highway 12 W","39759",33.454078674316406,-88.82939910888672
"39759","Starkville","MS","Discount Building Materials","1471 Hwy. 182 East","39759",33.47665785542005,-88.73663135440493
"39759","Starkville","MS","Bell Building Supply","402 E Lampkin St","39759",33.46255111694336,-88.8115005493164
"39759","Starkville","MS","Farrell-Calhoun Paint","102A Willow Rd","39759",33.45316570801521,-88.82747261196289
"39759","Starkville","MS","Nesco Electrical Distributors","500 E Lampkin St","39759",33.4625040385487,-88.81014970456881
"39759","Starkville","MS","Husqvarna","38 Old Highway 12","39759",33.405555725097656,-88.92056274414062
"39759","Starkville","MS","Husqvarna","907D Lynn Ln","39759",33.44230270385742,-88.8327865600586
"39773","West Point","MS","Sherwin-Williams Paint Store","406 Highway 45 S","39773",33.6023241854669,-88.65868091583252
"39773","West Point","MS","Andrews' Hardware","not_available","39773",33.603392,-88.655414
"39773","West Point","MS","Kellogg True Value Hardware","120 Commerce St","39773",33.60685744,-88.64864129
"39773","West Point","MS","Husqvarna US","55 W Broad St Ext","39773",33.60649871826172,-88.65680694580078
