"zip","city","state","name","address","postalCode","lat","lon"
"29001","Alcolu","SC","M&M Rental Center","not_available","not_available",33.719376356193365,-80.19637396712987
"29003","Bamberg","SC","Brooker True Value Hardware","4823 Carolina Hwy","29042",33.32401373,-81.14243117
"29003","Bamberg","SC","Husqvarna US","2492 Main Hwy","29003",33.30469512939453,-81.03410339355469
"29003","Bamberg","SC","Sanders Supply","not_available","29003",33.308386343276055,-81.02830844812362
"29006","Batesburg","SC","Western Auto","111 Main St","29070",33.917149901390076,-81.51229441165924
"29006","Batesburg","SC","Bob's Ace Hardware Inc","345 E Columbia Ave","29070",33.914833,-81.516126
"29006","Batesburg","SC","Tractor Supply Co.","330 West Church St","29006",33.910196,-81.538654
"29006","Batesburg","SC","Roof Hardware","not_available","29006",33.90645,-81.548162
"29006","Batesburg","SC","Jack's  Roof","135 N Oak St","29006",33.906338,-81.548474
"29006","Batesburg","SC","B & B Enterprises","349 Saluda Ave","29006",33.91033949704894,-81.55620134765825
"29010","Bishopville","SC","Jared's Hardware","576 Sumter Hwy","29010",34.219355,-80.247094
"29010","Bishopville","SC","Sparrow & Kennedy Tractor Co.","not_available","29161",34.14841332030049,-80.26152070057073
"29010","Bishopville","SC","Husqvarna US","760 Highway 15 N","29010",34.23540115356445,-80.23284149169922
"29016","Blythewood","SC","Lowe's","1051 Sams Crossing Drive","29229",34.139655,-80.94161
"29016","Blythewood","SC","minuteKEY","1051 Sams Crossing Rd","29229",34.139651,-80.941604
"29016","Blythewood","SC","Builders First Source","180 Hobart Rd","29016",34.17149353027344,-80.9502182006836
"29016","Blythewood","SC","Blythewood Feed & Hardware Inc","412 McNulty St","29016",34.21568,-80.978933
"29016","Blythewood","SC","minuteKEY","321 Killian Rd","29203",34.13772964477539,-80.96641540527344
"29016","Blythewood","SC","Sherwin-Williams Paint Store","10080 Farrow Rd","29203",34.149417877197266,-80.95272827148438
"29020","Camden","SC","Lowe's","11 Bay Lane","29020",34.2479515,-80.6420974
"29020","Camden","SC","Tractor Supply Co.","1635 East Springdale Drive","29020",34.251931,-80.648521
"29020","Camden","SC","Caulder Plumbing Co","1604 Shannon St","29020",34.255905,-80.567981
"29020","Camden","SC","Sherwin-Williams Paint Store","1013 W Dekalb St","29020",34.24570846557617,-80.61756896972656
"29020","Camden","SC","elgin power equipment","not_available","29045",34.186248779296875,-80.77265167236328
"29020","Camden","SC","Camden Builders Supply (Ace Hardware)","914 W Dekalb St","29021",34.24595,-80.613602
"29020","Camden","SC","Wateree Hardware","886 Highway 1 S","29078",34.226849,-80.679503
"29020","Camden","SC","Triangle Hardware","2615A Broad St","29020",34.27677294608459,-80.61052419627326
"29020","Camden","SC","Camden Tool Rental","2650 Broad St","29020",34.277091,-80.609591
"29020","Camden","SC","minuteKEY","2240 W Dekalb St","29020",34.2508464,-80.6498027
"29030","Cameron","SC","Helmly Brothers Ace Hdwe","650 Railroad Ave","29047",33.5309999,-80.576099
"29033","Cayce","SC","South East Ace  Inc.","815 State St","29033",33.9877419,-81.055019
"29033","Cayce","SC","United Refrigeration Inc","916 Hemlock Dr","29201",33.972621999999994,-81.023569
"29033","Cayce","SC","BC Industrial Supply","651 Rosewood Dr","29201",33.969612474049526,-81.03247404098511
"29033","Cayce","SC","matco tool truck","not_available","29033",33.966566835913426,-81.07666490781929
"29033","Cayce","SC","Fastener Supply","930 Brookwood Dr, Columbia, SC 29201","29201",33.970892,-81.02769599999999
"29033","Cayce","SC","Carolina Power Equipment","2490 Charleston Hwy","29033",33.94288,-81.08031
"29033","Cayce","SC","Home Depot DC 5088","not_available","29172",33.9507835951942,-81.0586068290664
"29033","Cayce","SC","Fluid Air","300 Huger St, Columbia, SC 29201","29201",33.986148834228516,-81.03915405273438
"29033","Cayce","SC","Tucker Materials","728 Vine Street","29201",33.97062013,-81.02732289
"29033","Cayce","SC","Sherwin-Williams Paint Store","1221 Knox Abbott Dr","29033",33.97916165726541,-81.07010518494543
"29033","Cayce","SC","McCall's Supply","not_available","29169",33.99020254611969,-81.07011079788208
"29033","Cayce","SC","Richland Industrial","919 Catawba St","29201",33.988507,-81.032294
"29033","Cayce","SC","PSI/National Specialties","not_available","29201",33.971192,-81.028331
"29033","Cayce","SC","POWERHOME SOLAR","2109 Landmark Dr","29033",33.953724,-81.08878
"29036","Chapin","SC","Boland's Ace","745 Chapin Rd","29036",34.1606659,-81.343732
"29036","Chapin","SC","Boland's True Value","757 Chapin Rd","29036",34.15410598333333,-81.33839419
"29036","Chapin","SC","Tom's Hardware","not_available","29036",34.078170377377674,-81.37693983977206
"29045","Elgin","SC","Lowe's","10106 Two Notch Road","29223",34.1137496,-80.8867754
"29045","Elgin","SC","The Home Depot","285 Forum Drive","29229",34.1264312,-80.8723532
"29045","Elgin","SC","Husqvarna Construction Products","10250 2 Notch Rd","29229",34.120562,-80.875121
"29045","Elgin","SC","Ferguson Waterworks","166 Pontiac Business Center Dr","29045",34.105893,-80.837336
"29045","Elgin","SC","minuteKEY","10106 Two Notch Rd","29223",34.1139030456543,-80.88641357421875
"29045","Elgin","SC","Gateway Plumbing Supply","1117 Sparkleberry Lane Ext","29223",34.11802291703186,-80.88621652912454
"29045","Elgin","SC","minuteKEY","10060 Two Notch Rd","29223",34.110527,-80.886662
"29045","Elgin","SC","Miller Lumber","Main St.","29045",34.16895270001957,-80.79393682343866
"29048","Eutawville","SC","Home pump & supply co","not_available","29048",33.39524841308594,-80.34737396240234
"29053","Gaston","SC","Swansea Hardware","1530 Southbound Rd","29160",33.76213455200195,-81.10440063476562
"29053","Gaston","SC","Mid Eastern Chrime Shop","225 Bellinger Ln","29053",33.80461120605469,-81.00169372558594
"29058","Heath Springs","SC","Kershaw Builder's Supply","not_available","29067",34.54664611816406,-80.58196258544922
"29059","Holly Hill","SC","Westbury's Ace Hardware","8516 Old State Rd","29059",33.3231049,-80.414233
"29061","Hopkins","SC","Lowe's","7420 Garners Ferry Road","29209",33.9678828,-80.9427631
"29061","Hopkins","SC","Ace Hardware","9641 Garners Ferry Rd","29061",33.950736,-80.844479
"29061","Hopkins","SC","Sherwin-Williams Paint Store","6884 Garners Ferry Rd","29209",33.97660584850795,-80.9565782546997
"29061","Hopkins","SC","Tractor Supply Co.","7831 Garners Ferry Rd","29209",33.955307930008075,-80.92819342652865
"29061","Hopkins","SC","Tucker Materials","2840 Shop Road","29209",33.93859014,-80.95371618
"29061","Hopkins","SC","Ecstatic Stone, LLC","108 N Shorecrest Rd Ste A","29209",33.943474,-80.963752
"29061","Hopkins","SC","Clean Aire Inc, Duct Cleaning","10006 Rabbit Run","not_available",33.95941245,-80.88538551666667
"29061","Hopkins","SC","Surplus WareHouse Columbia","7543 Garners Ferry Rd.","29209",33.9602913,-80.9426319
"29061","Hopkins","SC","Store","not_available","29209",33.97794,-80.959671
"29061","Hopkins","SC","minuteKEY","7520 Garners Ferry Rd","29209",33.964163,-80.938714
"29061","Hopkins","SC","minuteKEY","7420 Garners Ferry Rd","29209",33.96799087524414,-80.94277954101562
"29061","Hopkins","SC","Bilt Rite Corporation","128 N Shorecrest Rd Ste A","29209",33.94218826293945,-80.96587371826172
"29061","Hopkins","SC","Cedar Terrace Hardware","6420 Garners Ferry Rd Ste A","29209",33.981064,-80.959248
"29061","Hopkins","SC","Tribles","126 Atlas Ct Unit A","29209",33.955387115478516,-80.94960021972656
"29061","Hopkins","SC","Wolseley Industrial Group","1200 Veterans Rd","29209",33.95615005493164,-80.96292114257812
"29063","Irmo","SC","Lowe's","390 Harbison Blvd","29212",34.0806697,-81.1523224
"29063","Irmo","SC","Tractor Supply Co.","1003 Dutch Fork Rd","29063",34.122607,-81.215
"29063","Irmo","SC","Vacuum Mart","945 Lake Murray Blvd","29063",34.089826,-81.172389
"29063","Irmo","SC","loews","not_available","29073",34.140709,-81.220511
"29063","Irmo","SC","Lake Murray Hardware","1321 Dutch Fork Rd","29063",34.12382125854492,-81.235107421875
"29063","Irmo","SC","ProSource of Irmo","1201 Lake Murray Blvd","29063",34.08647,-81.18119
"29063","Irmo","SC","Sherwin-Williams Paint Store","7230 Woodrow St","29063",34.082413,-81.180662
"29070","Leesville","SC","Lexington True Value Hardware","2028 Augusta Hwy","29072",33.98087,-81.28588
"29070","Leesville","SC","Do It Best","170 Longs Pond Rd","29072",33.93348434320584,-81.29249848859517
"29072","Lexington","SC","Lowe's","5412 Sunset Blvd","29072",34.0015638,-81.2140774
"29072","Lexington","SC","The Home Depot","5600 Sun Set Blvd","29072",33.996186,-81.2275028
"29072","Lexington","SC","Lowe's","5570 Platt Springs Road","29073",33.9085526,-81.2293985
"29072","Lexington","SC","Plumbing Solutions, LLC","4458 Augusta Rd Bldg 2","29073",33.97649908375593,-81.16051197052002
"29072","Lexington","SC","Butler Laser, LLC","300 Cedarcrest Dr","29072",33.968647,-81.208737
"29072","Lexington","SC","City Electric Supply Lexington Sc","1929 Augusta Hwy","29072",33.979774475097656,-81.28192138671875
"29072","Lexington","SC","Tractor Supply Co.","5589 Sunset Blvd","29072",33.993694,-81.225435
"29072","Lexington","SC","Congaree feed and seed","not_available","29170",33.90991881031522,-81.13691102351616
"29072","Lexington","SC","Sears","523 Columbia Avenue","29072",33.989605,-81.237738
"29072","Lexington","SC","Ace Glass Co. Inc.","4661 Augusta Rd","29073",33.975241,-81.175984
"29072","Lexington","SC","Sherwin-Williams Product Finishes","681 Industrial Dr","29072",33.946991287271295,-81.25520467758179
"29072","Lexington","SC","minuteKEY","1780 S Lake Dr","29073",33.910916,-81.229589
"29072","Lexington","SC","84 lumber","not_available","29072",33.976987325286416,-81.22275474909854
"29072","Lexington","SC","minuteKEY","5556 Sunset Blvd","29072",33.997635,-81.224997
"29072","Lexington","SC","Sherwin-Williams Paint Store","412 Columbia Ave","29072",33.987959000000004,-81.23945
"29072","Lexington","SC","Ferguson Plumbing Supply","820 S Lake Dr","29072",33.965734000000005,-81.233688
"29072","Lexington","SC","Three Fountains Ace Hardware","2930 Emanuel Church Rd","29170",33.946429,-81.171341
"29072","Lexington","SC","Gateway Supply","5315 Sunset Blvd","29072",34.0033945017654,-81.20699586087854
"29102","Manning","SC","Tractor Supply Co.","1920 Paxville Hwy","29102",33.698413,-80.224448
"29102","Manning","SC","Sparrow and Kennedy","605 East Boyce Street","29102",33.694032,-80.20435400000001
"29102","Manning","SC","minuteKEY","2010 Paxville Hwy","29102",33.70033264160156,-80.22632598876953
"29102","Manning","SC","Baucom Enterprise","not_available","29148",33.60767190915268,-80.34992395776293
"29102","Manning","SC","Daniels Hardware","618 S Mill St","29102",33.68345362763356,-80.21205796555519
"29102","Manning","SC","Simpson Manning Hardware Inc","110 N Brooks St","29102",33.697375,-80.20996099999999
"29107","Neeses","SC","Neeses Lawn and Garden","not_available","29107",33.53010177612305,-81.12269592285156
"29108","Newberry","SC","Hamm Hardware","309 S Main St","29127",34.2079898075836,-81.53158385348983
"29108","Newberry","SC","Fulmer Building Supply","Hwy 395","29108",34.260250091552734,-81.60897064208984
"29108","Newberry","SC","Tractor Supply Co.","2808 Main St","29108",34.281426,-81.59433
"29108","Newberry","SC","Lowe's","2911 Main Street","29108",34.2842787,-81.5901215
"29108","Newberry","SC","Newberry Hardware Inc","2427 Wilson Rd/Bypass 76","29108",34.2971289,-81.611628
"29108","Newberry","SC","Newberry Tool & Equipment Rental","2419 Wilson Rd","29108",34.30467987060547,-81.61724090576172
"29108","Newberry","SC","Sherwin-Williams Paint Store","2800 College St","29108",34.29337068283234,-81.62183046340942
"29108","Newberry","SC","C.T. Summer, Inc.","1207 Boyce St","29108",34.275135999999996,-81.619437
"29108","Newberry","SC","Earth Safe Finishes","395 Nance Street","29108",34.1418709,-81.6291705
"29115","Orangeburg","SC","Lowe's","2896 North Road Hwy 178","29118",33.528259,-80.890506
"29115","Orangeburg","SC","Dillon Industrial Supply","not_available","29115",33.472110748291016,-80.84593200683594
"29115","Orangeburg","SC","minuteKEY","322 Stonewall Jackson Blvd","29115",33.48133850097656,-80.86891174316406
"29115","Orangeburg","SC","Sherwin-Williams Paint Store","1546 Broughton St","29115",33.492895,-80.869649
"29115","Orangeburg","SC","ACE HARDWARE","1700 Boulevard St","29115",33.5113569,-80.866056
"29115","Orangeburg","SC","City Electric Supply Orangeburg","645 Broughton St","29115",33.48315929303804,-80.86049348115921
"29115","Orangeburg","SC","Fastenal","1849 Joe S Jeffords Hwy","29115",33.4736442565918,-80.8437728881836
"29115","Orangeburg","SC","C & D Bldg. Sply & True Value Hardware","Hwy 21 By Pass","29115",33.47132481156851,-80.84731199185146
"29115","Orangeburg","SC","Carolina Hydraulics","1139 Calhoun Dr","29115",33.485949,-80.863533
"29115","Orangeburg","SC","Morehouse-Huber, Inc.","160 George Patton St","29115",33.476584,-80.855146
"29115","Orangeburg","SC","Tractor Supply Co.","2994 North Rd","29118",33.531002,-80.894403
"29137","Salley","SC","Busbee's Hardware Store","not_available","29164",33.64427404107626,-81.34425736305622
"29137","Salley","SC","Husqvarna US","PO Box 97","29164",33.65523910522461,-81.39815521240234
"29138","Saluda","SC","Crouch Hardware & Farm Supply saluda","not_available","29138",34.015511,-81.768073
"29142","Santee","SC","Waters Edge Equipment Rentals","not_available","29142",33.481547,-80.481769
"29150","Sumter","SC","Lowe's","1251 Broad Street","29150",33.9582861,-80.3850713
"29150","Sumter","SC","Tractor Supply Co.","2705 Broad St","29150",33.963284,-80.401167
"29150","Sumter","SC","Simpson Ace Hardware","320 W Liberty St","29150",33.9208649,-80.348321
"29150","Sumter","SC","Simpsons Ace Hardware","40 W Wesmark Blvd","29150",33.9502219,-80.37867
"29150","Sumter","SC","Shaw Lumber","not_available","29150",33.91460037231445,-80.34496307373047
"29150","Sumter","SC","Simpson Ace Hardware","350 Pinewood Rd","29150",33.90485,-80.381087
"29150","Sumter","SC","minuteKEY","1251 Broad St","29150",33.958251953125,-80.38521575927734
"29150","Sumter","SC","Sherwin-Williams Paint Store","106 W Liberty St","29150",33.920173,-80.34404
"29150","Sumter","SC","Sherwin - Williams","Bultman dr","not_available",33.891897,-80.4078
"29150","Sumter","SC","minuteKEY","1283 Broad St","29150",33.9599598,-80.3893484
"29150","Sumter","SC","City Electric Supply Sumter","1142 Pocalla Rd","29150",33.887703224003545,-80.34651116293844
"29150","Sumter","SC","Sherwin-Williams Paint Store","549 Bultman Dr","29150",33.936632,-80.370796
"29161","Timmonsville","SC","The Home Depot","3051 West Radio Drive","29501",34.18758147003393,-79.83966565439914
"29161","Timmonsville","SC","Native Glass","3091 S Cashua Dr","29501",34.16432,-79.83079
"29161","Timmonsville","SC","Husqvarna US","375 S. EBENEZER RD","29501",34.18428421020508,-79.85235595703125
"29169","West Columbia","SC","Lowe's","2829 Augusta Road","29170",33.9787776,-81.111957
"29169","West Columbia","SC","Lumber Liquidators, Inc.","3200 Clark Ln","65202",34.023615,-81.052144
"29169","West Columbia","SC","Ferguson HVAC Supply","102 Corporate Blvd","29169",33.992958,-81.105263
"29169","West Columbia","SC","Columbia Utility Buildings","3113 Augusta Rd","29170",33.97739028930664,-81.12238311767578
"29169","West Columbia","SC","Grainger Supply","Chris Dr.","not_available",33.984704,-81.10605100000001
"29169","West Columbia","SC","City Electric Supply West Columbia","731 Sunset Blvd","29169",33.9966994,-81.0668653
"29169","West Columbia","SC","minuteKEY","2829 Augusta Rd","29170",33.97838592529297,-81.11222839355469
"29169","West Columbia","SC","Capital Electric","900 Sunset Blvd","29169",33.99855422973633,-81.06857299804688
"29169","West Columbia","SC","Mann Tool and Supply, Inc.","802 Chris Dr","29169",33.993466,-81.106751
"29178","Whitmire","SC","W E Baker & Son INC","not_available","29178",34.503325,-81.616085
"29180","Winnsboro","SC","Winnsboro Home Center","340 S Vanderhorst","29180",34.37532,-81.086777
"29180","Winnsboro","SC","Husqvarna US","PO Box 475","29180",34.357444763183594,-81.09837341308594
"29201","Columbia","SC","Concrete Supply","2001 Taylor St","29204",34.011565999999995,-81.022533
"29201","Columbia","SC","Sherwin-Williams Commercial Paint Store","2529 Forest Dr","29204",34.014088,-81.009784
"29201","Columbia","SC","Classical Glass","3031 N Main St","29201",34.025936,-81.042337
"29201","Columbia","SC","Capital Supply","2508 Two Notch Rd","29204",34.027706146240234,-81.00934600830078
"29201","Columbia","SC","Praxair","1941-1955 Bluff Rd","29201",33.95850779184014,-81.00374952493861
"29201","Columbia","SC","G&E Appliance Parts","1214 Bluff Rd","29201",33.969916999999995,-81.015525
"29201","Columbia","SC","Hvac repairs","1006 Huger St","29201",33.99551010131836,-81.04318237304688
"29201","Columbia","SC","Murray Supply","1222-1226 Bluff Rd","29201",33.96957688288666,-81.01511210203171
"29201","Columbia","SC","Hilti","1616 Bluff Rd","29201",33.96584,-81.004465
"29201","Columbia","SC","E.D.'s Paint Center","2900 Devine St Ste B","29205",33.9977044,-81.0009736
"29201","Columbia","SC","Ace Hardware","3125 Bluff Rd","29209",33.943262,-80.986274
"29203","Columbia","SC","Lowe's","7441 Two Notch Road","29223",34.0717322,-80.9521249
"29203","Columbia","SC","The Home Depot","7701 Two Notch Rd","29223",34.0792421,-80.9454714
"29203","Columbia","SC","The Home Depot","5200 Fernandina Rd","29212",34.0765291,-81.1497629
"29203","Columbia","SC","Harbor Freight Tools","577 Saint Andrews Rd","29210",34.04615999187763,-81.12652485270665
"29203","Columbia","SC","Sherwin-Williams Paint Store","2503 Broad River Rd","29210",34.042843,-81.098504
"29203","Columbia","SC","Northern Tool","not_available","29212",34.069934,-81.14288
"29203","Columbia","SC","Cool Temp Awning","6005 Two Notch Rd","29223",34.056073,-80.97575400000001
"29203","Columbia","SC","City Electric Supply Ne Columbia","1000 Fontaine Rd Unit 1","29223",34.05266975940032,-80.9832899200104
"29203","Columbia","SC","Wood True Value Hardware","1332 Broad River Rd","29210",34.02919271277777,-81.08486048252779
"29203","Columbia","SC","Ewing Irrigation","101 Sunbelt Blvd","29203",34.068084716796875,-81.04268646240234
"29203","Columbia","SC","Dentsville Mobile Home Supply","6209 Two Notch Rd","29223",34.05680847167969,-80.97408294677734
"29203","Columbia","SC","alamo lumber carrizo springs","Hwy 277","29204",34.053714752197266,-80.9924545288086
"29203","Columbia","SC","minuteKEY","1326 Bush River Rd","29210",34.02884292602539,-81.10831451416016
"29203","Columbia","SC","White Cap Supply","Dutch Square","29210",34.032674,-81.092552
"29203","Columbia","SC","Ferguson Plumbing Supply","9221 Farrow Rd","29203",34.11616,-80.94699
"29203","Columbia","SC","minuteKEY","360 Harbison Blvd","29212",34.073924,-81.15114100000001
"29203","Columbia","SC","Glidden","not_available","29210",34.02960386504715,-81.09639728021084
"29203","Columbia","SC","Ppg Paints","110 Arrowwood Dr","29210",34.02985,-81.09637
"29203","Columbia","SC","minuteKEY","7441 Two Notch Rd","29223",34.071983337402344,-80.95211029052734
"29203","Columbia","SC","Husqvarna US","417 Piney Grove Rd","29210",34.0670051574707,-81.14617156982422
"29204","Columbia","SC","Owen's Welding","2467 Millwood Ave","29205",34.006582,-81.010323
"29204","Columbia","SC","Stier Supply","not_available","29204",34.012503,-81.02355899999999
"29204","Columbia","SC","Ace Glass Company, Inc.","5506 Two Notch Rd","29223",34.0517692565918,-80.98016357421875
"29204","Columbia","SC","South East Ace  Inc.","2085 N Beltline Blvd","29204",34.014727,-80.986982
"29205","Columbia","SC","Guaranteed Supply","1850 Shop Rd","29201",33.966228,-80.99729599999999
"29205","Columbia","SC","Sherwin-Williams Paint Store","3125 Millwood Ave","29205",34.001158179447046,-80.99726736545563
"29207","Columbia","SC","Harbor Freight","Two Notch Road","not_available",34.08611145483739,-80.93446551906995
"29207","Columbia","SC","Creative Tile","841 Sparkleberry Ln","29229",34.100265,-80.856175
"29207","Columbia","SC","Gaines W. Harrison & Sons, Ins.","2401 Alpine Rd","29223",34.084068298339844,-80.93424987792969
"29207","Columbia","SC","Home of the Pipe Hitters","not_available","29223",34.087442,-80.880854
"29207","Columbia","SC","Husqvarna US","7734 Two Notch Rd","29223",34.07923126220703,-80.941650390625
"29207","Columbia","SC","Sherwin-Williams Paint Store","8907 Two Notch Rd","29223",34.089103,-80.929676
"29210","Columbia","SC","GTG Inc","not_available","29203",34.044297439427254,-81.07872380381798
"29212","Columbia","SC","The Tile Shop","275 Harbison Boulevard","29212",34.074416,-81.159309
"29223","Columbia","SC","Tractor Supply Co.","256 Killian Rd","29203",34.13269048573631,-80.97177477588254
"29223","Columbia","SC","Benjamin Moore Paint","8210 Two Notch Rd","29223",34.10647383333333,-80.90034546666666
"29301","Spartanburg","SC","Lowe's","120 East Blackstock Road","29301",34.9335883,-81.9915016
"29301","Spartanburg","SC","The Home Depot","121 Dorman Center Drive","29301",34.935605130073505,-81.98492646217346
"29301","Spartanburg","SC","Harbor Freight Tools","1440 Wo Ezell Blvd #700","29301",34.939378295073055,-81.98140740394592
"29301","Spartanburg","SC","McReys","1201 n church st","29303",34.97341735,-81.94191633333334
"29301","Spartanburg","SC","Ellis Repair Service","not_available","29306",34.94340066242868,-81.94224180765917
"29301","Spartanburg","SC","minuteKEY","120 E Blackstock Rd","29301",34.933639,-81.991428
"29301","Spartanburg","SC","OSS LLC","380 Wingo Heights Rd # 4a, 4b","29303",34.97299,-82.0048599
"29301","Spartanburg","SC","minuteKEY","141 Dorman Centre Dr","29301",34.93295669555664,-81.98531341552734
"29301","Spartanburg","SC","National Welders","not_available","29303",34.98053049378748,-81.97911532658362
"29301","Spartanburg","SC","Ken, Inc","not_available","29301",34.964459,-81.966615
"29301","Spartanburg","SC","Surplus Warehouse","110 Franklin Ave","29301",34.93878173828125,-82.00237274169922
"29301","Spartanburg","SC","Bullis True Value Hardware","100 S Blackstock Rd","29301",34.93477809,-82.00329994
"29301","Spartanburg","SC","Surplus WareHouse Spartanburg","108-A Franklin Avenue","29301",34.938111,-82.001734
"29301","Spartanburg","SC","Carson's Nuts-Bolt & Tool Co., Inc.","522 Broadcast Dr, Spartanburg, SC 29303","29303",34.981163024902344,-81.9788589477539
"29301","Spartanburg","SC","The Tool Box","1507 Asheville Hwy","29303",34.9800059319305,-81.96578423213786
"29301","Spartanburg","SC","Lullaby Paints","PO Box 489","29336",34.9567466872469,-82.00998902320862
"29301","Spartanburg","SC","Fastenal SCSP1","1865 E Main St Ste J","29334",34.89459991455078,-82.08307647705078
"29301","Spartanburg","SC","Sherwin-Williams Paint Store","234 E Blackstock Rd","29301",34.925208239046924,-81.98809146881104
"29302","Spartanburg","SC","City Electric Supply Spartanburg","222 E Henry St","29306",34.94784089919639,-81.92504078149801
"29302","Spartanburg","SC","Ferguson Plumbing Supply","199 Quarry Rd","29302",34.927799224853516,-81.89378356933594
"29303","Spartanburg","SC","Irwin Ace Hardware","147 Fernwood Dr","29307",34.9654239,-81.894126
"29303","Spartanburg","SC","Northern Tool + Equipment","190 Sloane Garden Rd","29316",35.01104690461005,-81.95204063080118
"29303","Spartanburg","SC","Sherwin-Williams Paint Store","3109 Boiling Springs Rd","29316",35.0393722299124,-81.97529680260409
"29303","Spartanburg","SC","Probuild","259 Access Rd","29303",34.99651977300172,-81.98401999628062
"29303","Spartanburg","SC","ProSource Plumbing Supply","7412 Asheville Hwy","29303",34.98757553100586,-81.97883605957031
"29303","Spartanburg","SC","Duron Paints & Wallcoverings","901 Beaumont Ave","29303",34.97321,-81.93018
"29303","Spartanburg","SC","Tucker Materials","151 Derrick Road","29303",35.00490386,-82.02799043
"29303","Spartanburg","SC","Winfield Supply","1340 Boiling Springs Rd","29303",34.99218524340534,-81.9469844377123
"29306","Spartanburg","SC","Husqvarna US","3271 Carolina Country Club Rd","29376",34.86857604980469,-81.94802856445312
"29307","Spartanburg","SC","The Home Depot","2300 E Main St","29307",34.98028267903027,-81.87512218952179
"29307","Spartanburg","SC","Tractor Supply Co.","2091 East Main St","29307",34.972672,-81.881576
"29307","Spartanburg","SC","Lowe's","2079 East Main Street","29307",34.9707796,-81.8837224
"29307","Spartanburg","SC","Threadgill's True Value","5275 S Main St","29330",35.0153694152832,-81.80572509765625
"29307","Spartanburg","SC","minuteKEY","2151 E Main St","29307",34.97481155395508,-81.87901306152344
"29307","Spartanburg","SC","Cowpens True Value","187 Battleground Rd","29330",35.02533721923828,-81.80599212646484
"29307","Spartanburg","SC","Lowe's","2079 E Main St","29307",34.970945,-81.883881
"29307","Spartanburg","SC","Sherwin-Williams Paint Store","2060 E Main St","29307",34.97196960449219,-81.88607788085938
"29316","Boiling Springs","SC","Lowe's","170 Rainbow Lake Road","29316",35.0519409,-81.9826126
"29316","Boiling Springs","SC","Southern Mulch Boiling Springs","3981 Highway 9","29316",35.04922012588568,-81.9869754180918
"29316","Boiling Springs","SC","Husqvarna US","4240 Highway 9","29316",35.05662536621094,-81.99344635009766
"29316","Boiling Springs","SC","minuteKEY","4000 HWY #9","29316",35.0525527,-81.9857401
"29322","Campobello","SC","Landrum Hardware","not_available","29356",35.179445,-82.164174
"29322","Campobello","SC","Henderson Building Materials","not_available","28722",35.19007110595703,-82.21576690673828
"29322","Campobello","SC","Inman Hardware","11611 Asheville Hwy","29349",35.03978263518019,-82.08432912826537
"29322","Campobello","SC","Husqvarna US","330 S Howard Ave","29356",35.169612884521484,-82.18555450439453
"29322","Campobello","SC","O'sullivan cleaning supplies","Old furnance rd","not_available",35.0512048,-82.0473321
"29322","Campobello","SC","burnett lime company","S Carolina 11, Campobello, SC 29322","29322",35.127166748046875,-82.13287353515625
"29322","Campobello","SC","Landrum Hardware","216 E Rutherford St","29356",35.1750602722168,-82.18682098388672
"29323","Chesnee","SC","Chesnee Hardware","Hwy 11 (W. Cherokee St.)","29323",35.148567120780164,-81.86127687189607
"29323","Chesnee","SC","Cook's Farm Supply","Hwy 110","29330",35.09245229119237,-81.81416597829981
"29325","Clinton","SC","Clinton True Value","200 E Carolina Ave","29325",34.472265,-81.879707
"29325","Clinton","SC","Epting Turf and Tractor, Inc.","not_available","29325",34.45472503867829,-81.83710358051243
"29334","Duncan","SC","Johnson's Ace Hardware","10409 Greenville Hwy","29385",34.9452,-82.0922
"29334","Duncan","SC","R&H Granite","not_available","29365",34.95728162670043,-82.1729698793523
"29334","Duncan","SC","BRB Trading Post","1985 Highway 101 S","29651",34.883944123139365,-82.15039195337295
"29334","Duncan","SC","Fastenal","151 Homer Cir, Greer, SC 29334","29334",34.8871447530827,-82.15552059255363
"29334","Duncan","SC","Carolina Fresh Farms","2004 E Wade Hampton Blvd","29365",34.95560049202324,-82.14571311604668
"29340","Gaffney","SC","Tractor Supply Co.","1333 West Floyd Baker Blvd","29341",35.085779,-81.66123
"29340","Gaffney","SC","Lowe's","1601 West Floyd Baker Boulevard","29341",35.090695,-81.6658629
"29340","Gaffney","SC","minuteKEY","165 Walton Dr","29341",35.087597,-81.666323
"29340","Gaffney","SC","City Electric Supply Gaffney","144 Willis Plz","29341",35.06843948364258,-81.66490936279297
"29340","Gaffney","SC","Sherwin-Williams Paint Store","1207 W Floyd Baker Blvd","29341",35.083571474311846,-81.65846943855286
"29340","Gaffney","SC","Buford Street Ace Hardware","113 W Buford St","29340",35.0752,-81.649199
"29341","Gaffney","SC","Bridges Riding Equipment","2614 Gaffney Rd","28114",35.1819,-81.67469399999999
"29349","Inman","SC","Holly Springs General Store","3204-3298 S Carolina 357","29365",35.02700363333334,-82.18400508333333
"29353","Jonesville","SC","Husqvarna US","1035 Jonesville Lockhart Hwy","29379",34.81423568725586,-81.6186752319336
"29353","Jonesville","SC","Robinsons Hardware","110 N Main St","29353",34.836054468974574,-81.6809994288766
"29360","Laurens","SC","Tractor Supply Co.","917 East Main St Ste H","29360",34.493753000000005,-81.978853
"29360","Laurens","SC","The Feed Store","not_available","29360",34.47078043804509,-82.03270244564544
"29360","Laurens","SC","Robertson's Ace Hardware","340 Hillcrest Dr","29360",34.4983,-82.0189
"29360","Laurens","SC","Sherwin-Williams Paint Store","901 E Main St","29360",34.494777,-81.982952
"29360","Laurens","SC","Doc's Plants","not_available","29645",34.51235720030532,-82.18868384599983
"29360","Laurens","SC","minuteKEY","922 E Main St","29360",34.48952865600586,-81.98345184326172
"29365","Lyman","SC","City Electric Supply Greer","103 Lakeview Dr","29651",34.948797,-82.216033
"29365","Lyman","SC","minuteKEY","14055 E Wade Hampton Blvd","29651",34.94416809082031,-82.20614624023438
"29372","Pacolet","SC","Pacolet Tire & Farm Supply","7111 S Pine St.","29372",34.896808,-81.759809
"29379","Union","SC","Paradise Home Center","100-198 Mims Ln","29379",34.728227108219336,-81.63783422655798
"29379","Union","SC","Sherwin-Williams Paint Store","407 N Duncan Byp","29379",34.72057434302916,-81.64013385772705
"29379","Union","SC","Jordans Ace Hardware","489 Buffalo-West Spgs Hwy","29379",34.7288,-81.6328
"29388","Woodruff","SC","Robertson's Ace Hardware","578 N Main St","29388",34.746713,-82.045045
"29388","Woodruff","SC","Robertson's Ace Hardware","345 S Main St","29388",34.737525,-82.033962
"29401","Charleston","SC","myPhoneMD","471 King St","29403",32.789037,-79.938874
"29401","Charleston","SC","Hughes Lumber & Building Supply Company","82 Mary St","29403",32.791187,-79.93919100000001
"29401","Charleston","SC","Local Hardscape Pros Charleston","334 E Bay St #256","29401",32.78752517700195,-79.92881774902344
"29401","Charleston","SC","East Bay True Value Hardware","1409A King St","29403",32.785444,-79.928891
"29401","Charleston","SC","Sherwin-Williams Paint Store","472 Meeting St","29403",32.795199,-79.93965
"29401","Charleston","SC","Jantzen Lock And Safe Co","276 Meeting St","29401",32.78418,-79.932414
"29403","Charleston","SC","Southern Lumber and Millwork","2031 King Street Ext","29405",32.83336908348289,-79.95578018966978
"29403","Charleston","SC","Dillion Supply","Hagood St","29405",32.82710015773773,-79.9533998966217
"29403","Charleston","SC","City Electric Supply Charleston Downtown","1836 Meeting Street Rd","29405",32.829196243977215,-79.95180248571023
"29403","Charleston","SC","Lansing Building Products","1859 Summerville Ave","29405",32.82906819227141,-79.95401157380174
"29403","Charleston","SC","Port City Glass","Monrovia street","not_available",32.81843897474034,-79.9513343953672
"29403","Charleston","SC","Charleston Hardware Co.","4236 Pace St","29405",32.8155435,-79.9534696
"29403","Charleston","SC","Charleston Hardware","not_available","29403",32.811393535357844,-79.94910517196237
"29403","Charleston","SC","East Bay Hardware","1409 King St","29403",32.815166,-79.951753
"29403","Charleston","SC","Spectrum Paint","1063 Morrison Dr","29403",32.809241,-79.945747
"29403","Charleston","SC","Souther Lumber","2028 Summerville Ave","29405",32.832777,-79.956414
"29403","Charleston","SC","Sherwin-Williams Paint Store","464 Savannah Hwy","29407",32.780179,-79.97206700000001
"29403","Charleston","SC","Carolina Supplies & Materials, Inc.","2115 Monrovia St","29405",32.818282466666666,-79.95233
"29403","Charleston","SC","Charleston Rigging","1304 Meeting Street Rd","29405",32.813278000000004,-79.950046
"29404","Charleston Afb","SC","Accurate Tech","pepperdam","29418",32.91555,-80.07332
"29404","Charleston Afb","SC","Ferguson Waterworks","7387 Peppermill Lane","29418",32.9245,-80.077484
"29404","Charleston Afb","SC","Ewing Irrigation","7281 Pepperdam Ave","29418",32.924615,-80.064965
"29404","Charleston Afb","SC","Fastenal","7178 Cross County Rd, North Charleston, SC 29418","29418",32.91326141357422,-80.06393432617188
"29404","Charleston Afb","SC","Cross County Rental","7280 Cross County Rd","29418",32.923382000000004,-80.069942
"29404","Charleston Afb","SC","Sherwin-Williams Floorcovering Store","7379 Peppermill Ln","29418",32.924176,-80.077854
"29405","North Charleston","SC","The Home Depot","2008 Magwood Rd","29414",32.8137647,-80.0445165
"29405","North Charleston","SC","CED","3535 Meeting Street Rd","29405",32.853790283203125,-79.98271942138672
"29405","North Charleston","SC","City Electric Supply North Charleston","2589 Oscar Johnson Dr","29405",32.8552824,-80.0193443
"29405","North Charleston","SC","Harbor Freight","5054 Dorchester Rd","29418",32.85831410333187,-80.03245479612309
"29405","North Charleston","SC","HD Supply White Cap","3445 Buffalo Ave","29418",32.858174,-80.022638
"29405","North Charleston","SC","Re Nu Batteries","1923 E Montague Ave","29405",32.87817840260981,-80.00672977896954
"29405","North Charleston","SC","Bearing Distributors","2039 Meeting Street Rd","29405",32.833553314208984,-79.95429229736328
"29405","North Charleston","SC","Ferguson HVAC Supply","4301 Dorchester Rd Bldg 17","29405",32.852875,-80.005198
"29405","North Charleston","SC","Wolseley Industrial Group","not_available","29418",32.865448,-80.05024
"29405","North Charleston","SC","Ferguson","5720 Dorchester Rd","29418",32.865594,-80.050039
"29405","North Charleston","SC","Epting Distributors","not_available","29406",32.887929,-80.010615
"29405","North Charleston","SC","Fastenal","3870 Leeds Ave #102","29405",32.8450803293441,-80.01599192619324
"29405","North Charleston","SC","Clover Patch","not_available","29405",32.889526,-79.98286
"29405","North Charleston","SC","Hagemeyer Site 01","4790 Goer Dr","29406",32.874313,-80.00929000000001
"29405","North Charleston","SC","Sherwin-Williams Commercial Paint Store","5350 Rivers Ave","29406",32.892509000000004,-80.012732
"29405","North Charleston","SC","McCall's Supply, Inc.","4575 Rivers Ave","29405",32.873560999999995,-80.00151600000001
"29405","North Charleston","SC","Capitol Materials Coastal","4550 Gaynor Avenue","29405",32.875082,-79.997213
"29405","North Charleston","SC","Allen and Webb","3127 Rivers Ave","29405",32.85155,-79.971176
"29405","North Charleston","SC","Ferguson Plumbing Supply","4711 Rivers Ave","29405",32.8765018518518,-80.0042081481481
"29405","North Charleston","SC","Sherwin-Williams Product Finishes","3161 W Montague Ave","29418",32.863746,-80.015121
"29406","Charleston","SC","Lowe's","7555 Northwood Blvd","29406",32.9377423,-80.047306
"29406","Charleston","SC","The Home Depot","7554 Northwood Blvd","29406",32.938584,-80.0452357
"29406","Charleston","SC","Northern Tool And Equipment","5900 Rivers Ave Unit A","29406",32.905501306284435,-80.01889468511314
"29406","Charleston","SC","Grainger","7401 Pepperdam Ave","29418",32.92901611328125,-80.06605529785156
"29406","Charleston","SC","Blackwell True Value Hardware Store & Building Sup","1279 Yeaman's Hall Rd","29410",32.90226611,-80.009086
"29406","Charleston","SC","Duncan Ace Hardware","925 Redbank Rd","29445",32.9735999,-80.023499
"29406","Charleston","SC","Ed's Repair Service","1710 Remount Rd","29406",32.90055,-80.00729100000001
"29406","Charleston","SC","New Horizon","7259 Spa Rd","29418",32.927520545941455,-80.0544828227095
"29406","Charleston","SC","minuteKEY","1635 Red Bank Rd","29445",32.96904754638672,-80.00328826904297
"29406","Charleston","SC","PPG/Porter Paints","5624 Rivers Ave","29406",32.896902000000004,-80.01500899999999
"29407","Charleston","SC","Carolina Rod & Gun","1319 Savannah Hwy Ste B","29407",32.784273999999996,-80.00126999999999
"29407","Charleston","SC","West Ashley True Value","1119 Wappoo Rd","29407",32.80103735920208,-80.01545548439026
"29407","Charleston","SC","City Electric Supply West Ashley","940 St Andrews Blvd","29407",32.792847,-79.989173
"29407","Charleston","SC","Charleston Hardware","1028 Wappoo Rd","29407",32.797558,-80.01545300000001
"29407","Charleston","SC","Rapid Repairs","1591B Sam Rittenberg Blvd","29407",32.8065071105957,-80.00909423828125
"29407","Charleston","SC","Possum's Landscape & Pest Control Supply","not_available","29407",32.78789425740303,-80.02358390723835
"29407","Charleston","SC","Design On Tap","2048 Sam Rittenberg Blvd","29407",32.793029,-80.030265
"29407","Charleston","SC","Lumber Liquidators Flooring","2049 Savannah Hwy","29407",32.789584,-80.034208
"29410","Hanahan","SC","Action Locksmith Service","1130 Dickson Ave","29410",32.907773,-79.999935
"29410","Hanahan","SC","Sherwin-Williams Paint Store","2135 Ashley Phosphate Rd","29406",32.93608532829731,-80.04086860061169
"29410","Hanahan","SC","Atta-Boy Plumbing LLC","7620 Rivers Ave Ste 370-158","29406",32.942847,-80.03911800000003
"29412","Charleston","SC","Lowe's","770 Daniel Ellis Drive","29412",32.7492054,-79.9683415
"29412","Charleston","SC","Precision Flooring","not_available","29412",32.753726959228516,-79.98372650146484
"29412","Charleston","SC","Corky's Outdoor Power Equipment","1640 Camp Rd","29412",32.734415999999996,-79.967764
"29412","Charleston","SC","Sherwin-Williams Paint Store","823 Folly Rd","29412",32.738495,-79.967412
"29412","Charleston","SC","minuteKEY","770 Daniel Ellis Dr","29412",32.749421000000005,-79.96792099999999
"29412","Charleston","SC","Ace hardware","866 Folly Rd","29412",32.73590850830078,-79.96730041503906
"29412","Charleston","SC","Buck Lumber","1911 Maybank Hwy","29412",32.761639,-79.982923
"29412","Charleston","SC","minuteKEY","1231 Folly Rd","29412",32.72078323364258,-79.96855163574219
"29412","Charleston","SC","Johnny's FixIt, LLC","2138 Golfview Dr","29412",32.758534999999995,-79.995458
"29414","Charleston","SC","Lowe's","3125 Glenn Mcconnell Parkway","29414",32.8107337,-80.0460586
"29414","Charleston","SC","Moodys Ace Hardware","8012 Dorchester Rd","29418",32.9080009,-80.095018
"29414","Charleston","SC","Tractor Supply Co.","4405 Savannah Hwy","29470",32.780271,-80.155901
"29414","Charleston","SC","Sherwin-Williams Paint Store","3525 Mary Ader Ave","29414",32.820338,-80.066017
"29414","Charleston","SC","Red Top Feed & Farm Supply","3815 Savannah Hwy","29455",32.802489,-80.122027
"29414","Charleston","SC","the bullpen","not_available","29414",32.810555825007796,-80.04568531403498
"29414","Charleston","SC","Carolina Garden and Turf","3913 Savannah Hwy","not_available",32.80002212524414,-80.12660217285156
"29414","Charleston","SC","minuteKEY","3951 W Ashley Cir","29414",32.822086334228516,-80.08125305175781
"29414","Charleston","SC","abc supply co.","4001 Dorchester Rd, North Charleston, SC 29405","29405",32.853990272298304,-80.16713923186356
"29414","Charleston","SC","Craven's","2462 Ashley River Rd","29414",32.828387,-80.04049499999999
"29414","Charleston","SC","JC Diamond Blade","1491 Seabago Dr","29414",32.805446999999994,-80.101599
"29414","Charleston","SC","minuteKEY","3125 Glenn McConnell Pkwy","29414",32.81093978881836,-80.04637145996094
"29418","North Charleston","SC","American Freight (Sears Outlet) - Appliance, Furniture, Mattress","5101 Ashley Phosphate Road, Suite 136","29418",32.914675,-80.102534
"29420","North Charleston","SC","Lowe's","9600 Dorchester Rd","29485",32.9379768,-80.1434478
"29420","North Charleston","SC","minuteKEY","9600 DORCHESTER ROAD","29485",32.938655853271484,-80.14347839355469
"29420","North Charleston","SC","Vallen","8381 Palmetto Commerce Pkwy","29456",32.963018525953224,-80.0929069519043
"29429","Awendaw","SC","Lowe's","3265 N Highway 17","29466",32.86913920785222,-79.77822482585907
"29429","Awendaw","SC","Tractor Supply Co.","4765 North Hwy 17","29429",32.924426,-79.713978
"29429","Awendaw","SC","Sweetgrass Hardware","3008 N Highway 17","29466",32.8629249,-79.791191
"29429","Awendaw","SC","Guy C Lee","not_available","29466",32.86154189392381,-79.79109608228673
"29431","Bonneau","SC","Tractor Supply Co.","455 North Highway 52","29461",33.20726904582612,-79.98628596576978
"29431","Bonneau","SC","Sherwin-Williams Paint Store","307 N Highway 52","29461",33.19904335582231,-79.99240394597543
"29437","Dorchester","SC","Westbury's Ace Hardware","118 W Main St","29448",33.2146219,-80.448746
"29437","Dorchester","SC","showa denko","not_available","29472",33.08770327334135,-80.34254379066594
"29438","Edisto Island","SC","EDISTO TRUE VALUE","438 Highway 174","29438",32.52018356323242,-80.2998046875
"29438","Edisto Island","SC","Edisto Ace Hardware","487 Highway 174","29438",32.521910999999996,-80.300926
"29438","Edisto Island","SC","Yeargin Construction","1211 Thistle St","29438",32.489146000000005,-80.31939399999999
"29440","Georgetown","SC","Palmetto Ace Home Center","8317 S Ocean Hwy","29585",33.4279999,-79.1508
"29440","Georgetown","SC","Husqvarna US","PO Box 588","29510",33.466434478759766,-79.57105255126953
"29440","Georgetown","SC","Georgetown Small Engines","2211 S Fraser St","29440",33.34314727783203,-79.2991943359375
"29440","Georgetown","SC","Georgetown Hardware","2404 Highmarket St","29440",33.381459,-79.303108
"29440","Georgetown","SC","Fastenal","309 Reservoir St","29440",33.38430404663086,-79.30610656738281
"29440","Georgetown","SC","RollAStep","219 Safety Ave","29510",33.43272399902344,-79.52772521972656
"29440","Georgetown","SC","Sears","1249 N. Fraser Street","29440",33.38993280071461,-79.29111794198116
"29440","Georgetown","SC","Sherwin-Williams Paint Store","1107 Church St","29440",33.37360335,-79.28372821
"29440","Georgetown","SC","Tractor Supply Co.","1295 North Fraser St","29440",33.39235305786133,-79.2906265258789
"29440","Georgetown","SC","minuteKEY","1310 N Fraser St","29440",33.393586,-79.286973
"29445","Goose Creek","SC","Lowe's","520 Saint James Avenue","29445",33.0323164,-80.0571551
"29445","Goose Creek","SC","Lowcountry Ace Hardware","548 College Park Rd","29456",33.008403,-80.087478
"29445","Goose Creek","SC","Barfield's Appliance & Parts","100 Lumber Lane","29445",33.00108684844482,-80.0382678610833
"29445","Goose Creek","SC","Westbury's Hardwear","not_available","29483",33.02021595579488,-80.04599640744885
"29445","Goose Creek","SC","minuteKEY","605 Saint James Ave","29445",33.033898,-80.063611
"29445","Goose Creek","SC","minuteKEY","520 Saint James Ave","29445",33.032356,-80.05725
"29445","Goose Creek","SC","Sherwin-Williams Paint Store","114 S Goose Creek Blvd","29445",32.992206,-80.039827
"29445","Goose Creek","SC","Charleston Winlectric","not_available","29445",33.034828186035156,-80.03130340576172
"29449","Hollywood","SC","Schoen Ace Hardware","3714 Betsy Kerrison Pkwy","29455",32.648413,-80.13838299999999
"29449","Hollywood","SC","Ravenel Ace Hardware","6270 Savannah Hwy","29470",32.7762999,-80.247799
"29455","Johns Island","SC","All Seasons True Value/Just Ask Rental","2876 Maybank Hwy","29455",32.74129104614258,-80.04299926757812
"29455","Johns Island","SC","Spectrum Paint","3575 Maybank Hwy Ste G","29455",32.720987,-80.078687
"29455","Johns Island","SC","Sherwin-Williams Paint Store","1776 Main Rd","29455",32.720444,-80.08371899999999
"29455","Johns Island","SC","Jim's Johns Island Small Engine","3226 Maybank Hwy Ste E4","29455",32.733214000000004,-80.062038
"29455","Johns Island","SC","A-1 Locksmith Service","4400 Dorchester Rd","29405",32.855108,-80.01209899999999
"29456","Ladson","SC","Lowe's","1207 North Main Street","29483",33.0330238,-80.1580237
"29456","Ladson","SC","The Home Depot","190 Marymeade Dr","29483",33.030804,-80.1614584
"29456","Ladson","SC","Berkeley Locksmith","not_available","29456",32.991692,-80.101439
"29456","Ladson","SC","fastenal","not_available","29485",33.03246765659975,-80.16390181670623
"29456","Ladson","SC","minuteKEY","9880 DORCHESTER RD","29485",32.951222,-80.157081
"29456","Ladson","SC","Fastenal","214 Hwy 78","29483",33.020748,-80.161438
"29456","Ladson","SC","minuteKEY","1317 N Main St Ste A1","29483",33.0349153,-80.1533167
"29456","Ladson","SC","St. Andrews parks and playgrounds","1322 Pinyon Pine Dr","29456",33.02015686035156,-80.1126480102539
"29456","Ladson","SC","Sherwin-Williams Paint Store","1706 Old Trolley Rd","29485",32.9588956380044,-80.16558408737183
"29456","Ladson","SC","Cross County General Rental","418 5th","29483",33.020716370300406,-80.16107306581057
"29456","Ladson","SC","Westbury's Hardware","College Park Rd","29483",33.02976383810163,-80.09055306583649
"29458","Mc Clellanville","SC","Bulls Bay General Store","US17","not_available",33.09534418881058,-79.47692327975166
"29461","Moncks Corner","SC","Wood's Ace Hardware","713 Old Trolley Rd","29485",32.976022,-80.171527
"29461","Moncks Corner","SC","Marvin's Moncks Corner","309 Rembert C Dennis Blvd","29461",33.191314697265625,-79.99041748046875
"29461","Moncks Corner","SC","Tractor Supply Co.","1672 North Main St Ste 5","29486",33.041555,-80.135867
"29461","Moncks Corner","SC","Sherwin-Williams Paint Store","801 N Main St","29483",33.02867889404297,-80.16787719726562
"29461","Moncks Corner","SC","Mo's Discount Lumber and Salvage","1630 N Main St","29486",33.041201,-80.137761
"29461","Moncks Corner","SC","Berlin Myers Lumber","350 N Main St","29483",33.02394485473633,-80.1729736328125
"29461","Moncks Corner","SC","Sears Hometown Store","1013 Old Hwy 52, Suite G","29461",33.1852302,-80.0027313
"29461","Moncks Corner","SC","Capital Electric","502 E Main St","29461",33.192864,-79.999158
"29461","Moncks Corner","SC","City Electric Supply Summerville","320 E 5th North St","29483",33.02403259277344,-80.16685485839844
"29464","Mount Pleasant","SC","Lowe's","1104 Market Center Blvd","29464",32.8267987,-79.8337126
"29464","Mount Pleasant","SC","The Home Depot","2213 N Highway 17","29466",32.8414951,-79.8156424
"29464","Mount Pleasant","SC","Royall Ace Hardware","883 Ben Sawyer Blvd","29464",32.7941659,-79.863096
"29464","Mount Pleasant","SC","Hughes Party Rental","1345 Bowman Rd","29464",32.807472,-79.84916199999999
"29464","Mount Pleasant","SC","Low Country True Value Hardware","1640 N Hwy 17","29464",32.82315456,-79.84060247
"29464","Mount Pleasant","SC","Ppg Paints","636 Coleman Blvd","29464",32.79149627685547,-79.87354278564453
"29464","Mount Pleasant","SC","Hardware","1012 Parrish St","29464",32.795144416666666,-79.85240485
"29464","Mount Pleasant","SC","Sears","616 Coleman Blvd","29464",32.79130172729492,-79.87411499023438
"29464","Mount Pleasant","SC","Saw","1513 Rifle Range Rd","29464",32.79524116666666,-79.85244845
"29464","Mount Pleasant","SC","Sherwin-Williams Paint Store","705 Johnnie Dodds Blvd","29464",32.80801010131836,-79.87660217285156
"29464","Mount Pleasant","SC","City Electric Supply Mount Pleasant","500B La Mesa Rd","29464",32.8387125,-79.8692051
"29464","Mount Pleasant","SC","Spectrum Paint","826 Coleman Blvd Ste B","29464",32.793968200683594,-79.86515808105469
"29464","Mount Pleasant","SC","East Cooper Lock & Safe","Sea Island Shopping Center","29464",32.796708226721016,-79.86011395953355
"29464","Mount Pleasant","SC","Info-mercials On The Couch","not_available","29464",32.796623,-79.889789
"29464","Mount Pleasant","SC","Tribles","547 Long Point Rd","29464",32.839377,-79.868809
"29464","Mount Pleasant","SC","Sherwin-Williams Paint Store","483A Long Point Rd","29464",32.838454993697326,-79.87238645553589
"29464","Mount Pleasant","SC","Walker Design Group","1440 Ben Sawyer Blvd","29464",32.79238510131836,-79.853759765625
"29464","Mount Pleasant","SC","Low country doors and harware","501 La Mesa Rd","29464",32.8391227722168,-79.86991882324219
"29464","Mount Pleasant","SC","Simply Cool Misting Systems","1514 Mathis Ferry Rd","29464",32.825660705566406,-79.84932708740234
"29464","Mount Pleasant","SC","minuteKEY","1481 N Highway 17","29464",32.81447982788086,-79.84513092041016
"29472","Ridgeville","SC","Summerville Lumber","139 Lawrence Dr","29483",33.039703369140625,-80.2012939453125
"29472","Ridgeville","SC","Line Drive, LLC","126 Sarmiento Ln","29483",33.029307,-80.250237
"29472","Ridgeville","SC","H&E Equipment Services","1115 Newton Way","29483",33.066701,-80.19097099999999
"29472","Ridgeville","SC","Capitol Materials Coastal","430 Industrial Rd","29483",33.03427663,-80.20583888
"29472","Ridgeville","SC","Summerville Lawn Mower and Heater Repair","625 Boone Hill Rd","29483",32.9996028,-80.2112988
"29472","Ridgeville","SC","Arres Solar","2960 Bacons Bridge Rd.","29485",32.94682840000001,-80.201804
"29472","Ridgeville","SC","Metalworx","340 Deming Way","29483",33.055240631103516,-80.21031951904297
"29472","Ridgeville","SC","84 Lumber","2520 W 5th North St","29483",33.0468864440918,-80.22209930419922
"29477","Saint George","SC","Hutto Ace Hardware","5726 Memorial Blvd","29477",33.19098663330078,-80.58357238769531
"29479","Saint Stephen","SC","Husqvarna US","PO Box 1611","29479",33.38332748413086,-79.91492462158203
"29485","Summerville","SC","Summerville Electric","98 A Peytons Way","29483",32.97957,-80.16733
"29488","Walterboro","SC","Tractor Supply Co.","297 Bells Hwy","29488",32.91643524169922,-80.67444610595703
"29488","Walterboro","SC","Westbury Ace Hardware","1050 Bells Hwy","29488",32.923241,-80.680198
"29488","Walterboro","SC","Sears","377 Bells Highway","29488",32.913815,-80.673983
"29488","Walterboro","SC","City Electric Supply Walterboro","721 S Jefferies Blvd","29488",32.896440762715365,-80.67256893220019
"29488","Walterboro","SC","Lowcountry Equipment","1617 Bells Hwy","29488",32.928153,-80.6880539
"29488","Walterboro","SC","minuteKEY","2110 Bells Hwy","29488",32.93455123901367,-80.69021606445312
"29488","Walterboro","SC","Corbettâ€™s Building Supply","not_available","29488",32.897827,-80.662516
"29492","Charleston","SC","Clements Ferry Ace Hardware","1008 Clements Crest Lane Suite 140","29492",32.907316,-79.908095
"29492","Charleston","SC","Murray Supply","2509 Clements Ferry Rd","29492",32.89438709127422,-79.9220368418355
"29492","Charleston","SC","Bearing Service Company of PA","480 Jessen Ln Ste F","29492",32.905007,-79.92058899999999
"29501","Florence","SC","Lowe's","2301 David H Mcleod Blvd","29501",34.1887968,-79.8190152
"29501","Florence","SC","Tractor Supply Co.","2590 South Irby St","29505",34.14686584472656,-79.76924133300781
"29501","Florence","SC","Baker Distributing Co.","not_available","29501",34.19939,-79.772253
"29501","Florence","SC","Lowe's","1701 Freedom Blvd","29505",34.1596316,-79.7586256
"29501","Florence","SC","Carolina True Value","218 2nd Loop Rd","29505",34.1663489903991,-79.7646054087915
"29501","Florence","SC","Ferguson Plumbing Supply","1610 W Lucas St","29501",34.2241481818182,-79.7924981818182
"29501","Florence","SC","Carolina","218 W 2nd Loop Rd","29505",34.16634899,-79.76460541
"29501","Florence","SC","minuteKEY","2301 David H McLeod Blvd","29501",34.18891143798828,-79.819091796875
"29501","Florence","SC","Trayco, Inc. Plumbing","1307 E National Cemetery Rd","29506",34.18379211425781,-79.74542236328125
"29501","Florence","SC","Florence Electric And Rewinding Inc.","209 Dejongh St","29501",34.18684005737305,-79.76842498779297
"29501","Florence","SC","Tractor Supply Co.","1527 South Main St","29532",34.281128,-79.85567
"29501","Florence","SC","Schofield's","155 S Cashua Dr","29501",34.19346618652344,-79.80413818359375
"29501","Florence","SC","Florence Lock & Key","1212 W Evans St","29501",34.19572830200195,-79.78826904296875
"29501","Florence","SC","A-1 Capital Mobile Lock & Key II","109 Quinby Cir","29506",34.23566436767578,-79.7335433959961
"29501","Florence","SC","Spectrum Paint","107 David H McLeod Blvd","29501",34.18746566772461,-79.81065368652344
"29501","Florence","SC","Quinby Hardware","407 Quinby Plz","29506",34.23086929321289,-79.74150085449219
"29501","Florence","SC","minuteKEY","2014 S Irby St","29505",34.1550212,-79.7643683
"29501","Florence","SC","Harbor Freight Tools","937 S Irby St","29501",34.178764,-79.768566
"29501","Florence","SC","City Electric Supply Florence","1416 N Cashua Dr","29501",34.219947999999995,-79.795851
"29501","Florence","SC","Sherwin-Williams Paint Store","521 W Palmetto St","29501",34.193330869581544,-79.77639261008471
"29501","Florence","SC","Carolina Supply House","not_available","29505",34.165836334228516,-79.76763916015625
"29505","Florence","SC","Sherwin-Williams Paint Store","1356 James Jones Ave","29505",34.16785473287873,-79.76316690444946
"29506","Florence","SC","National Hardware","1607 E Palmetto St","29506",34.19723892211914,-79.74437713623047
"29511","Aynor","SC","Ace Hardware","8th & Elm","29511",33.9992999,-79.194699
"29511","Aynor","SC","Blanton's JP Exhaust & Wrckr","3070 Highway 19 W","29571",34.060848236083984,-79.02764129638672
"29512","Bennettsville","SC","True Value","235 E Main St","29512",34.61753667,-79.68224333
"29520","Cheraw","SC","Ace Hardware","not_available","29520",34.69782638549805,-79.9240951538086
"29520","Cheraw","SC","William and Taylor General Store","232 2nd St","29520",34.69826126098633,-79.88385009765625
"29520","Cheraw","SC","CMC BUILDING SUPPLY INC","40 Windsor Dr","29520",34.69768524169922,-79.92389678955078
"29520","Cheraw","SC","minuteKEY","1040 Chesterfield Hwy","29520",34.7011085,-79.9313108
"29525","Clio","SC","True Value","119 S Main","29525",34.57881546020508,-79.54605865478516
"29526","Conway","SC","Lowe's","2301 E Highway 501","29526",33.7926864,-78.9965286
"29526","Conway","SC","Tractor Supply Co.","3353 Church St","29526",33.872479,-79.10541500000001
"29526","Conway","SC","southern fab","not_available","29526",33.80366897583008,-79.00462341308594
"29526","Conway","SC","ECD","not_available","29527",33.84310055549585,-79.08253067097853
"29526","Conway","SC","Walker's True Value Hardware","2502 Main St","29526",33.86293411254883,-79.05480194091797
"29526","Conway","SC","Ferguson Waterworks","3046 Emory Rd","29577",33.807331,-79.006532
"29526","Conway","SC","City Electric Supply Conway","1724 Husted Rd","29526",33.80427519224572,-79.00443635880947
"29526","Conway","SC","Sherwin-Williams Paint Store","4405 Highway 501","29579",33.74742889404297,-78.95909118652344
"29526","Conway","SC","minuteKEY","151 Myrtle Ridge Dr","29526",33.7775334,-78.989003
"29526","Conway","SC","Sherwin-Williams Floorcovering Store","770 Century Cir","29526",33.793551,-78.99410400000001
"29526","Conway","SC","Direct Tools Factory Outlet","4635 Factory Stores Blvd Ste DD170","29579",33.752601623535156,-78.95849609375
"29526","Conway","SC","HD Supply White Cap","269 E Cox Ferry Rd","29526",33.806929,-79.00488299999999
"29526","Conway","SC","Capitol Materials Coastal","140 Winyah Rd","29526",33.79205897,-78.99119143
"29526","Conway","SC","Ace Hardware","7737 N Kings Hwy","29572",33.749087,-78.81907700000001
"29526","Conway","SC","minuteKEY","2709 Church St Ste A","29526",33.858360290527344,-79.09098815917969
"29527","Conway","SC","Sherwin-Williams Paint Store","1229 16th Ave","29526",33.846209,-79.06151700000001
"29532","Darlington","SC","Vallen","2240 N Douglas St","29501",34.23657989501953,-79.78262329101562
"29536","Dillon","SC","Harbor Freight Tools","117 CALDWELL RD","29536",34.41703015053268,-79.41439352128987
"29536","Dillon","SC","Ace Hardware of Dillon","205 W Main St","29536",34.4125999,-79.3622
"29536","Dillon","SC","A Septic Tank Service","533 Gravel Pit Pt","29536",34.385119,-79.372795
"29536","Dillon","SC","Home & Industrial","600 Highway 301 S","29536",34.41212677509099,-79.3744033855928
"29536","Dillon","SC","minuteKEY","805 Enterprise Rd","29536",34.43595504760742,-79.37663269042969
"29544","Galivants Ferry","SC","Collins Feed And Grain","Marion, SC 29571","29571",34.07262725815412,-79.30498171123989
"29546","Gresham","SC","Hemingway Hardware And Supply","34 Lewis Rd","29554",33.763023376464844,-79.44755554199219
"29550","Hartsville","SC","Ace Hardware","935 S 4th St","29550",34.363157,-80.062609
"29550","Hartsville","SC","minuteKEY","1150 S 4th St","29550",34.3578512,-80.063869
"29550","Hartsville","SC","Husqvarna US","810 W Bobo Newsom Hwy","29550",34.34257888793945,-80.09244537353516
"29550","Hartsville","SC","Gateway Supply Co Inc","1016 W Bobo Newsom Hwy","29550",34.345697,-80.099878
"29550","Hartsville","SC","Sherwin-Williams Paint Store","215 N 6th St","29550",34.37508433648467,-80.07625990020726
"29550","Hartsville","SC","Ricky's Glass & Repair, LLC","704 S Rolling Rd","29550",34.367000579833984,-80.01675415039062
"29550","Hartsville","SC","Lowe's","819 South Fourth Street","29550",34.3656694,-80.0639292
"29554","Hemingway","SC","Husqvarna US","3727 Hemingway Hwy","29554",33.72960662841797,-79.51393127441406
"29555","Johnsonville","SC","Hannah Hardware & Supply","Hwy 378 Hannah 1300","not_available",33.883196,-79.581704
"29556","Kingstree","SC","Kingstree True Value Hardware","110 S Longstreet St","29556",33.6620979309082,-79.8336181640625
"29560","Lake City","SC","Lake City Lumber","729 S Ron McNair Blvd","29560",33.8515510559082,-79.76268768310547
"29560","Lake City","SC","Husqvarna US","PO Box 369","29560",33.86722946166992,-79.7601318359375
"29560","Lake City","SC","Palmetto Hardware","222 N Church St","29560",33.874568939208984,-79.7513427734375
"29560","Lake City","SC","Sears","404 W. Main St.","29560",33.8780774,-79.7673212
"29560","Lake City","SC","minuteKEY","900 US 52 Hwy","29560",33.89249038696289,-79.75169372558594
"29566","Little River","SC","Boulineau's","212 Sea Mountain Highway","29582",33.828113,-78.642871
"29566","Little River","SC","Lowe's","214 US Hwy #17 North","29582",33.8290902,-78.674977
"29566","Little River","SC","The Home Depot","620 Highway 17 N","29582",33.832955,-78.670682
"29566","Little River","SC","Harbor Freight Tools","851 Highway 17 S","29582",33.821425992982306,-78.6877701315493
"29566","Little River","SC","THOMPSON LOGGING CHIPPING TIMBER COMPANY, LLC","1709 Edge Dr","29582",33.81013009999999,-78.7038339
"29566","Little River","SC","Spectrum Paint","1502 Highway 17 S","29582",33.814393,-78.698039
"29566","Little River","SC","Benjamin Moore","not_available","29582",33.814855,-78.698669
"29566","Little River","SC","minuteKEY","550 Highway 17 N","29582",33.8299213,-78.6714579
"29566","Little River","SC","Rent A Tool Inc Rent A Party","1511 Old Highway 17 N","29582",33.825528,-78.68106
"29566","Little River","SC","McCall's Supply, Inc","340 Highway 90 E","29566",33.861123,-78.651607
"29566","Little River","SC","Sherwin-Williams Paint Store","950B Highway 17 N","29582",33.83574676513672,-78.66952514648438
"29566","Little River","SC","NMB Pools","not_available","29566",33.859873,-78.660347
"29566","Little River","SC","minuteKEY","214 U.S. HWY. #17 NORTH","29582",33.828956,-78.67516
"29566","Little River","SC","Furniture & Mattresses","1008 Highway 17 North","29566",33.8374375,-78.66831969999998
"29566","Little River","SC","Dew Appliances","Main Street","29582",33.822603,-78.674361
"29568","Longs","SC","Sherwin-Williams Paint Store","2600 Highway 17 S","29582",33.808141,-78.71463
"29568","Longs","SC","Husqvarna US","8862 HWY 90","29568",33.89773178100586,-78.74319458007812
"29568","Longs","SC","Direct Tools Factory Outlet","10835 Kings Rd Ste 635","29572",33.78446121117676,-78.77589221713313
"29568","Longs","SC","Badcock Home Furniture &more","2301 N Kings Hwy","29582",33.8083339,-78.71170066
"29568","Longs","SC","minuteKEY","10820 Kings Rd","29572",33.78713,-78.769068
"29568","Longs","SC","Vereens Turf Products","8862 Highway 90","29568",33.857059478759766,-78.7557373046875
"29569","Loris","SC","Loris True Value Hardware","4355 Main St","29569",34.054922,-78.88618199999999
"29569","Loris","SC","blanton Building Supplies","5001 Broad St","29569",34.062,-78.885246
"29569","Loris","SC","John deere","not_available","29569",34.0578224,-78.8893534
"29570","Mc Coll","SC","Lowe's","910 US 15-401 By-Pass","28352",34.7614983,-79.4797258
"29570","Mc Coll","SC","Tractor Supply Co.","1690 South Main St","28352",34.752657,-79.476141
"29570","Mc Coll","SC","Fastenal","hwy 401 s","28352",34.765709,-79.497448
"29570","Mc Coll","SC","Sherwin-Williams Paint Store","1664 S Main St","28352",34.752657,-79.476141
"29571","Marion","SC","Tractor Supply Co.","2565 East Hwy 76","29571",34.18399,-79.364513
"29571","Marion","SC","Blanton's Building Supply","not_available","29571",34.18147623538971,-79.37270700931549
"29571","Marion","SC","Bargain Builders","not_available","29574",34.19797519230672,-79.28330847546975
"29571","Marion","SC","Baxley Hardware","100-198 W Fairlee St","29571",34.18188809334523,-79.40036058425903
"29574","Mullins","SC","Husqvarna US","527 S Park St","29574",34.19895935058594,-79.2507553100586
"29574","Mullins","SC","Mullins Hardware Company","304 Gapway St","29574",34.20185470581055,-79.25843048095703
"29574","Mullins","SC","Hinson And Fowler Hardware","312 S Main St","29574",34.202461,-79.253767
"29575","Myrtle Beach","SC","Lowe's","8672 Highway 17 Byp S","29588",33.6463736,-78.9871836
"29575","Myrtle Beach","SC","Surfside Equipment Rental and Sales","2301 Glens Bay Rd","29575",33.618625766512245,-79.00608210638555
"29575","Myrtle Beach","SC","Surfside Equipment Rental & Sales","2301 Glenns Bay Rd","29575",33.619873,-79.004028
"29575","Myrtle Beach","SC","minuteKEY","2751 Beaver Run Blvd","29575",33.64738082885742,-78.98124694824219
"29575","Myrtle Beach","SC","Harbor Freight","1756-a Kings Hwy","29575",33.625863,-78.969286
"29576","Murrells Inlet","SC","The Home Depot","12262 Hwy 17 Bypass","29576",33.5769304,-79.0312161
"29576","Murrells Inlet","SC","Spectrum Paint","4440 Highway 17","29576",33.553958892822266,-79.04593658447266
"29576","Murrells Inlet","SC","America's Tree and Lawn Company","550 Garden City Connector","29576",33.590992,-79.010725
"29576","Murrells Inlet","SC","Truck Rental Center at the Home Depot","12262 Highway 17 Byp","29576",33.576862,-79.031285
"29576","Murrells Inlet","SC","Sherwin-Williams Paint Store","3920 Highway 17","29576",33.564369678497314,-79.0378772
"29576","Murrells Inlet","SC","minuteKEY","545 Garden City Connector","29576",33.5882481,-79.0115636
"29577","Myrtle Beach","SC","The Home Depot","951 Oak Forest Lane","29577",33.7046913,-78.9140852
"29577","Myrtle Beach","SC","Lowe's","1160 Seaboard Street","29577",33.7144434,-78.8928345
"29577","Myrtle Beach","SC","Sherwin-Williams Paint Store","601 Broadway St","29577",33.69298823903907,-78.88801248070794
"29577","Myrtle Beach","SC","Sears","1200 Coastal Grand Cir","29577",33.70354139645657,-78.92161688219636
"29577","Myrtle Beach","SC","Grand Strand Power Equipment Sales & Service","1606 Plaza Pl","29577",33.7059021,-78.8946025
"29577","Myrtle Beach","SC","Southlantic Water Systems","908 Seaboard St","29577",33.709408,-78.90025
"29577","Myrtle Beach","SC","Truck Rental Center at the Home Depot","951 Oak Forest Ln","29577",33.704769,-78.914089
"29577","Myrtle Beach","SC","CK SUPPLY","3014 Drywall Dr","29577",33.705847,-78.929356
"29577","Myrtle Beach","SC","D&L Parts","not_available","29577",33.710031,-78.900337
"29577","Myrtle Beach","SC","City Electric Supply Myrtle Beach","803 Seaboard St","29577",33.709331472831195,-78.90357255935669
"29577","Myrtle Beach","SC","Mark's Lock & Key","105 S Kings Hwy, Myrtle Beach, SC 29577","29577",33.68574235937451,-78.89044989431986
"29577","Myrtle Beach","SC","Gateway Supply - Myrtle Beach","4928 Highway 17 Byp S","29588",33.675351,-78.967391
"29577","Myrtle Beach","SC","84 Lumber","812 Lumber Street","29577",33.696991,-78.888674
"29577","Myrtle Beach","SC","Sherwin-Williams Commercial Paint Store","1626 Plaza Pl","29577",33.70618438720703,-78.89501953125
"29577","Myrtle Beach","SC","Spectrum Paint","1203 3rd Ave. S.","29577",33.69655990600586,-78.89901733398438
"29577","Myrtle Beach","SC","minuteKEY","1160 Seaboard St","29577",33.714208,-78.892129
"29577","Myrtle Beach","SC","Ferguson HVAC Supply","1302 Enterprise Ave","29577",33.704015999999996,-78.901454
"29577","Myrtle Beach","SC","Sherwin-Williams Paint Store","901 Seaboard St","29577",33.70986,-78.901993
"29577","Myrtle Beach","SC","Capital Electric","3908 Wesley St","29579",33.720619201660156,-78.93927764892578
"29581","Nichols","SC","Ellis Meares & Son","1143 Main St","28439",34.313477,-79.03630799999999
"29585","Pawleys Island","SC","Pawley's Island Supplies","10460 Ocean Hwy","29585",33.438169,-79.12738900000001
"29585","Pawleys Island","SC","Rhett Tison","162 Midway Dr","29585",33.476383209228516,-79.10055541992188
"29585","Pawleys Island","SC","Sherwin-Williams Paint Store","10707 Ocean Hwy","29585",33.44136147208359,-79.1258955001831
"29588","Myrtle Beach","SC","Socastee Hardware","4860 Dick Pond Rd","29588",33.67185598681756,-78.99336016075064
"29588","Myrtle Beach","SC","Vacation Gear","200 Horsetail Moss Ct. Unit D","29588",33.6475062,-79.015193
"29601","Greenville","SC","jw vaughn","not_available","29601",34.844547271728516,-82.40727996826172
"29601","Greenville","SC","ASAP Locksmith and Security","116 S Main St","29601",34.8491325378418,-82.4000473022461
"29601","Greenville","SC","Ace Hardware","1506 Augusta St","29605",34.829044342041016,-82.40060424804688
"29601","Greenville","SC","Sherwin-Williams Paint Store","306 Wade Hampton Blvd","29609",34.863166,-82.38351
"29605","Greenville","SC","The Home Depot","1339 S Pleasantburg Dr","29605",34.8003253,-82.3753852
"29605","Greenville","SC","Harbor Freight Tools","5 K Mart Plz","29605",34.819319409183414,-82.41935306049429
"29605","Greenville","SC","Clayton Tile","Woodruff Rd.","not_available",34.837339,-82.331862
"29605","Greenville","SC","Sherwin-Williams Paint Store","2105 Augusta St","29605",34.824667,-82.39380899999999
"29605","Greenville","SC","Dewalt / Porter Cable Tool & Repair","1259 S Pleasantburg Dr","29605",34.805694580078125,-82.37362670898438
"29605","Greenville","SC","Surplus Warehouse","20 Haywood Road","29607",34.833382,-82.346908
"29605","Greenville","SC","ProSource Plumbing Supply","200 Industrial Dr","29607",34.836748,-82.349133
"29605","Greenville","SC","Palmetto Specialties","not_available","29607",34.837683,-82.32374300000001
"29605","Greenville","SC","John Deere Landscapes","714 Mauldin Rd","29607",34.791196,-82.352263
"29605","Greenville","SC","Super Supply Landscape Company","Augusta Road","29601",34.785078484816594,-82.3762321483813
"29605","Greenville","SC","84 Lumber","not_available","29611",34.798959904379124,-82.42723879651511
"29605","Greenville","SC","H D Kitchen & Bath Collection","1234 S Pleasantburg Dr","29605",34.80759054,-82.37289726
"29605","Greenville","SC","Fastenal Co.","7108 Augusta Rd","29673",34.74441094317656,-82.38966108334665
"29605","Greenville","SC","Ferguson Plumbing Supply","575 Woodruff Rd","29607",34.8370619376442,-82.3294342650123
"29605","Greenville","SC","McKinney Lumber And Hardware","2046 Laurens Rd","29607",34.836569,-82.355215
"29605","Greenville","SC","Florida Irrigation Supply","1 N Kings Rd","29605",34.801972,-82.371284
"29605","Greenville","SC","AAA Supply Inc","203 Haywood Rd","29607",34.837677,-82.345085
"29605","Greenville","SC","Builder's First Choice","108 White Horse Ct","29605",34.786565621326886,-82.4050355168326
"29605","Greenville","SC","Sherwin-Williams Commercial Paint Store","1139 White Horse Rd","29605",34.78370798809936,-82.40527153015135
"29605","Greenville","SC","Builders FirstSource","S. Washington Ave","29611",34.82095,-82.42849
"29607","Greenville","SC","Lowe's","1131 Woodruff Road","29607",34.827404,-82.295247
"29607","Greenville","SC","The Home Depot","79 Woodruff Industrial Ln","29607",34.8280209,-82.3078814
"29607","Greenville","SC","Northern Tool + Equipment","1242 Woodruff Rd","29607",34.82132648128746,-82.2865183479144
"29607","Greenville","SC","Tucker Materials","101 Bi Lo Boulevard","29607",34.80182275,-82.31003682
"29607","Greenville","SC","Classic Ace Hardware","1622 Woodruff Rd","29607",34.8192999,-82.272999
"29607","Greenville","SC","Sears","1117 Woodruff Road, Suite K.","29607",34.8317865,-82.30298730000001
"29607","Greenville","SC","Tractor Supply Co.","206 New Neely Ferry Rd Ste F","29662",34.775181,-82.308366
"29607","Greenville","SC","minuteKEY","1451 Woodruff Rd","29607",34.8234837,-82.2849459
"29607","Greenville","SC","Sherwin-Williams Paint Store","1266 E Butler Rd","29607",34.818025,-82.270048
"29607","Greenville","SC","Latrines R Us","not_available","29681",34.75600876302221,-82.26649592658347
"29607","Greenville","SC","Direct Tools Factory Outlet","1451 Woodruff Rd Ste B","29607",34.82362667527983,-82.28576227484155
"29607","Greenville","SC","minuteKEY","1131 Woodruff Rd","29607",34.827418,-82.29527399999999
"29607","Greenville","SC","Cregger Company","not_available","29680",34.74894553724569,-82.28990447324949
"29607","Greenville","SC","Sears","700 Haywood Rd","29607",34.848679,-82.334407
"29607","Greenville","SC","Woodcraft","1327 Miller Rd","29607",34.823132,-82.297494
"29607","Greenville","SC","HD Supply White Cap","1030 Thousand Oaks Blvd","29607",34.81773175,-82.29337496
"29607","Greenville","SC","Vallen","125 Old Mill Rd","29607",34.7946891784668,-82.304931640625
"29609","Greenville","SC","Lowe's","1900 Poinsett Highway","29609",34.8934583,-82.4068925
"29609","Greenville","SC","The Home Depot","2490 N Pleasantburg Dr","29609",34.8911369,-82.3814986
"29609","Greenville","SC","Landscapers Supply of Greenville","1620 N Pleasantburg Dr","29609",34.881909,-82.364754
"29609","Greenville","SC","GS Plumbing","55 Donkle Rd","29609",34.9089328,-82.3405106
"29609","Greenville","SC","Husqvarna US","109 White Oak Rd","29609",34.88178634643555,-82.36473846435547
"29609","Greenville","SC","Home Depo","south pleasentburg drive","29609",34.89976983333333,-82.41481035
"29609","Greenville","SC","Landscapers Supply","20 Piney Mountain Rd","29609",34.89094,-82.37465999999999
"29609","Greenville","SC","Fastenal","not_available","29687",34.902868699837455,-82.33519328146022
"29609","Greenville","SC","Corbin Turf & Ornamental Supply, Inc.","1801 Rutherford Rd Ste 105","29609",34.9024736,-82.3595004
"29609","Greenville","SC","tool Shed","901 Poinsett Hwy, Greenville, SC 29609","29609",34.87892150878906,-82.4050521850586
"29609","Greenville","SC","minuteKEY","5009 Old Buncombe Rd","29617",34.911800384521484,-82.4306411743164
"29609","Greenville","SC","BJU Distribution Center","21 Buena Vista Ave","29607",34.870033,-82.37014599999999
"29609","Greenville","SC","The Tool Shed","not_available","29609",34.878847,-82.405107
"29609","Greenville","SC","Duron Paints & Wallcoverings","1172 N Pleasantburg Dr","29607",34.872352600097656,-82.3584213256836
"29609","Greenville","SC","Ferguson HVAC Supply","615 Poinsette Hwy","29609",34.873717,-82.404961
"29609","Greenville","SC","Sherwin-Williams Paint Store","6521 State Park Rd","29690",34.964238143619454,-82.43473291397095
"29609","Greenville","SC","minuteKEY","9 Benton Rd","29690",34.960369,-82.4311
"29609","Greenville","SC","Fairview Builders LLC","551 Fairview Dr","29609",34.91682052612305,-82.38933563232422
"29609","Greenville","SC","minuteKEY","1900 Poinsett Hwy","29609",34.893707275390625,-82.4066162109375
"29611","Greenville","SC","Epps Bros Lawn & Garden Center","701 Farrs Bridge Rd","29611",34.89611002855864,-82.47503547603225
"29611","Greenville","SC","Berea Hardware","703 Sulphur Springs Rd","29617",34.88573455810547,-82.45549774169922
"29611","Greenville","SC","Tri-County Ace","11032 Anderson Rd","29673",34.78884,-82.482158
"29611","Greenville","SC","Pittman Discount Building Supply","4912 White Horse Rd","29611",34.84405227005482,-82.44540341198444
"29611","Greenville","SC","Little Loaders","2200 Anderson Rd","29611",34.820822,-82.434209
"29615","Greenville","SC","Classic Ace Hardware of Greer Inc","2110 Old Spartanburg Rd","29650",34.892437,-82.287357
"29615","Greenville","SC","Sherwin-Williams Paint Store","2114 Old Spartanburg Rd","29650",34.89287467870391,-82.2920518992584
"29615","Greenville","SC","Paco's Tool Shed","not_available","29650",34.90007247806796,-82.2818867990992
"29615","Greenville","SC","Ewing Irrigation","20 Concourse Way","29650",34.8763683347327,-82.2283154726029
"29615","Greenville","SC","City Electric Supply Greenville","515 Airport Rd","29607",34.8429304,-82.3455853
"29615","Greenville","SC","Duron Paints","1258 Woodruff Rd","29607",34.821834564208984,-82.28712463378906
"29615","Greenville","SC","Phillip's Hardware","4359 E North St","29615",34.88303756713867,-82.31327056884766
"29615","Greenville","SC","carolina atlantic","not_available","29615",34.85654067993164,-82.24223327636719
"29617","Greenville","SC","Tractor Supply Co.","550 Roe Center Ct","29690",34.95978136,-82.43761503
"29620","Abbeville","SC","Abbeville Hardware","not_available","29620",34.176631,-82.378206
"29620","Abbeville","SC","Nance lawnmower & small engine","1590 Flat Rock Rd","29620",34.24745559692383,-82.5296401977539
"29621","Anderson","SC","Lowe's","3515 Clemson Blvd","29621",34.5487783,-82.6781911
"29621","Anderson","SC","Lowe's","408 South Carolina 28 Bypass","29626",34.4831856,-82.6638094
"29621","Anderson","SC","The Home Depot","3427 Clemson Blvd","29621",34.545890759849875,-82.67568111419683
"29621","Anderson","SC","Tractor Supply Co.","3719 Clemson Blvd","29621",34.55247,-82.681104
"29621","Anderson","SC","Harbor Freight","3035 N Main St.","29621",34.53809356689453,-82.66792297363281
"29621","Anderson","SC","White Jones Ace Hardware","2903 N Main St","29621",34.5329029,-82.664455
"29621","Anderson","SC","White Jones Ace Hardware","Watson Village Shpg Ctr 128 E Shockley Ferry Rd","29624",34.479400634765625,-82.64553833007812
"29621","Anderson","SC","Watson Village Shopping Center","not_available","29624",34.479513120373255,-82.64646364983606
"29621","Anderson","SC","TTI Outdoor Product Test Center","305 Power Dr","29621",34.634828,-82.612155
"29621","Anderson","SC","Starrwood Awning LLC","6005 Highway 81 S","29684",34.418368554174,-82.67289827870813
"29621","Anderson","SC","Clayton Tile Distributing Co.","1718 Pearman Dairy Rd","not_available",34.54566955566406,-82.69750213623047
"29621","Anderson","SC","Husqvarna US","PO Box 13012","29624",34.470802307128906,-82.64440155029297
"29621","Anderson","SC","Capital Electric","615 McGee Rd","29625",34.542301177978516,-82.69698333740234
"29621","Anderson","SC","minuteKEY","651 HIGHWAY 28 BYP","29624",34.487987,-82.67818100000001
"29621","Anderson","SC","minuteKEY","3812 Liberty Hwy","29621",34.5555696,-82.6792283
"29621","Anderson","SC","Sherwin-Williams Paint Store","4134A Clemson Blvd","29621",34.56149551740708,-82.69512176513672
"29621","Anderson","SC","ProSource Plumbing Supply","1104 Salem Church Rd","29625",34.55334889134159,-82.689950466156
"29621","Anderson","SC","Gus's Home Center","1303 Anderson St","29627",34.50602722167969,-82.51895141601562
"29621","Anderson","SC","Husqvarna US","406 Wood Valley Dr","29621",34.44881057739258,-82.54646301269531
"29621","Anderson","SC","Direct Tools Factory Outlet","1204 Martin Rd","29621",34.637265,-82.60296
"29621","Anderson","SC","United Refrigeration, Inc.","509 Camson Rd","29625",34.547689,-82.693697
"29621","Anderson","SC","Sears","not_available","29625",34.53908095764657,-82.67276023908406
"29621","Anderson","SC","City Electric Supply Anderson","2706 N Main St","29621",34.53057850884688,-82.66144730150694
"29621","Anderson","SC","Anderson Paint And Decorating","not_available","29621",34.529352437089884,-82.66074185996646
"29621","Anderson","SC","M and L Mobile Home Supply","1100 Highway 28 Byp","29624",34.50116173333333,-82.68338891666667
"29625","Anderson","SC","White Jones Ace Hardware","4433 Highway 24","29626",34.5115169,-82.764348
"29625","Anderson","SC","White Jones","Hwy 24","29625",34.55161157391218,-82.76110031981307
"29625","Anderson","SC","Anderson Outdoor Power Equipment","110 Miracle Mile Dr #12","29621",34.5473892,-82.6680064
"29625","Anderson","SC","Sherwin-Williams Paint Store","613 N Murray Ave","29625",34.509623,-82.65351609914377
"29625","Anderson","SC","Carson Nut, Bolt & Tool","626 McGee Rd","29625",34.54330062866211,-82.69657897949219
"29625","Anderson","SC","Memory Makers Photography","2508 N Main St","29621",34.5296745300293,-82.66011810302734
"29625","Anderson","SC","Tucker Materials","205 Chapman Road","29625",34.58453868,-82.74221874
"29627","Belton","SC","Ace Hardware","Maryland Avenue","29654",34.44664042418033,-82.38961872484519
"29627","Belton","SC","Ace Hardware of Honea Path","6 Maryland Ave","29654",34.4478259,-82.390243
"29630","Central","SC","Lowe's","608 Issaqueena Trail","29630",34.6906653,-82.7872575
"29630","Central","SC","Ace Hardware","1301 Tiger Blvd","29631",34.690242767333984,-82.8267822265625
"29630","Central","SC","Brooks Center Scene Shop","105 Brooks Center","29631",34.673601531239434,-82.83580186188729
"29630","Central","SC","Tri-County Ace","305 W Main St","29657",34.7868649,-82.696811
"29630","Central","SC","minuteKEY","680 Old Greenville Hwy","29631",34.69788360595703,-82.80117797851562
"29630","Central","SC","Carter Color Company","not_available","29631",34.690895,-82.83415
"29630","Central","SC","Sherwin-Williams Paint Store","1012 Tiger Blvd","29631",34.6918734572777,-82.8435330863609
"29635","Cleveland","SC","Jarrard Hardware","3019 Geer Hwy","29661",35.02746,-82.50052
"29635","Cleveland","SC","Husqvarna US","3251 Geer Hwy","29661",35.03628921508789,-82.50250244140625
"29638","Donalds","SC","Due West Supply Co.","208 S Main St","29639",34.33211415772184,-82.38972544670105
"29640","Easley","SC","Lowe's","6068 Calhoun Memorial Hwy","29640",34.8250054,-82.5767533
"29640","Easley","SC","The Home Depot","6607 Calhoun Memorial Hw","29640",34.8192878,-82.5869764
"29640","Easley","SC","Tractor Supply Co.","339 Rolling Hills Cir","29640",34.828884260200034,-82.54003753261726
"29640","Easley","SC","Residential Maintenance & Repair","125 Anna Ln","29671",34.874889,-82.675804
"29640","Easley","SC","Abc Supply","4797 S Carolina 153","29642",34.80856968333333,-82.51422818333333
"29640","Easley","SC","Ace Hardware","5284 Calhoun Memorial Hwy","29640",34.826446533203125,-82.56275177001953
"29640","Easley","SC","Carter Lumber","4588 Calhoun Memorial Hwy","29640",34.828486,-82.53584000000001
"29640","Easley","SC","minuteKEY","115 Rolling Hills Cir","29640",34.82851791381836,-82.54997253417969
"29640","Easley","SC","Sherwin-Williams Paint Store","6128 Calhoun Memorial Hwy","29640",34.823777,-82.579768
"29640","Easley","SC","O'reileys","not_available","29640",34.82121658325195,-82.59095764160156
"29642","Easley","SC","Upstate Door Company Inc.","1805 South Carolina 86","29673",34.707764,-82.494378
"29644","Fountain Inn","SC","Lowe's","3958 Grandview Drive","29680",34.7103251,-82.2495072
"29644","Fountain Inn","SC","The Home Depot","669 Fairview Road","29680",34.7090276,-82.2544664
"29644","Fountain Inn","SC","minuteKEY","3950 Grandview Dr","29680",34.7120293,-82.2518137
"29644","Fountain Inn","SC","City Electric Supply Simpsonville","10035 Pelham Rd","29681",34.7538684,-82.2691015
"29644","Fountain Inn","SC","Sherwin-Williams Paint Store","314 N Main St","29662",34.7838798163821,-82.31155514717102
"29644","Fountain Inn","SC","minuteKEY","3958 Grandview Dr","29680",34.71036911010742,-82.24949645996094
"29644","Fountain Inn","SC","Classic Ace Hardware of Mauldin  Inc.","114 W Butler Rd","29662",34.777958,-82.31214399999999
"29644","Fountain Inn","SC","Rainbow Paint Store","102 E Butler Rd","29662",34.778781,-82.304303
"29644","Fountain Inn","SC","Sherwin-Williams Paint Store","632 Fairview Rd","29680",34.71328336405968,-82.25678980350494
"29644","Fountain Inn","SC","minuteKEY","115 Highway 14","29681",34.75743103027344,-82.26715850830078
"29644","Fountain Inn","SC","Simpsonville Ace Hardware","30 Ray E Talley Ct","29680",34.713728,-82.253518
"29644","Fountain Inn","SC","Wolseley Industrial Group","10 Carlisle Dr","29681",34.7692464705882,-82.2938205882353
"29644","Fountain Inn","SC","B.W. Burdette & Son Hardware","124 N Main St","29644",34.691024,-82.210809
"29644","Fountain Inn","SC","Ferreteria Cuesta (Supermercado Nacional)","Amiama","29681",34.769352,-82.211079
"29644","Fountain Inn","SC","Blades Outdoor Equipment","220 N Nelson Dr","29644",34.6837333,-82.2096614
"29646","Greenwood","SC","Lowe's","513 Bypass 72 NW","29649",34.2045594,-82.1885506
"29646","Greenwood","SC","Tractor Supply Co.","109 Towers Dr","29649",34.210274,-82.185115
"29646","Greenwood","SC","Triangle True Value Hardware","1500 Kateway","29646",34.19543885662143,-82.1307708517222
"29646","Greenwood","SC","Lakelands Ace","2572 Highway 72 221 E","29649",34.232557,-82.104325
"29646","Greenwood","SC","Sears","1410 Montague Ave. Ext.","29649",34.21770207685653,-82.18298077583313
"29646","Greenwood","SC","B&F Small Engine","not_available","29646",34.188718940690435,-82.15816614815938
"29646","Greenwood","SC","Greenwood Equipment","not_available","29649",34.217281341552734,-82.1286392211914
"29646","Greenwood","SC","Harbor Freight Tools","236 Bypass 72 NW","29649",34.21385955810547,-82.17616271972656
"29646","Greenwood","SC","Maxlink Lighting LLC","408 Old Abbeville Hwy","29649",34.202762603759766,-82.20137786865234
"29646","Greenwood","SC","B & F Inc","519 Phoenix St","29646",34.1885256,-82.15807
"29646","Greenwood","SC","minuteKEY","508 Bypass 72 NW","29649",34.2069544,-82.1886704
"29646","Greenwood","SC","Sherwin-Williams Paint Store","110 Montague Ave","29649",34.19809766890805,-82.17037975788115
"29650","Greer","SC","The Home Depot","1385 Wade Hampton Blvd W","29650",34.9377958,-82.2668929
"29650","Greer","SC","Lowe's","1370 W Wade Hampton Blvd","29650",34.9410067,-82.2658562
"29650","Greer","SC","Harbor Freight","Wade hampton Blvd","29650",34.940597,-82.259193
"29650","Greer","SC","Tractor Supply Co.","1326 West Wade Hampton Blvd","29650",34.941625638707876,-82.2636592191653
"29650","Greer","SC","Sherwin-Williams Paint Store","2895 S Highway 14","29650",34.85799026489258,-82.22431945800781
"29650","Greer","SC","KINGS SEWER AND DRAIN COMPANY","183Â Â  KINGS HWY","10989",34.93838444793834,-82.25635528564453
"29650","Greer","SC","Southern Pools","1421 W Wade Hampton Blvd","29650",34.937732000000004,-82.269807
"29650","Greer","SC","Dr Flush","200 Ford St","29650",34.940751,-82.237618
"29650","Greer","SC","Top Turf","1788 Poplar Drive Ext","29651",34.89750665817499,-82.22401824439778
"29650","Greer","SC","Sherwin-Williams Paint Store","201 E Wade Hampton Blvd","29651",34.948767,-82.223161
"29650","Greer","SC","Habitat For Humanity ReStore","5201A Wade Hampton Blvd","29687",34.93329145,-82.28576529
"29650","Greer","SC","Dobson True Value Hardware 2","1407 Wade Hampton Blvd","29650",34.937999,-82.268831
"29650","Greer","SC","B&C Construction Co., Inc.","4320 Wade Hampton Blvd Ste B","29687",34.92478942871094,-82.30183410644531
"29650","Greer","SC","Home Depot","1385 W Wade Hampton Blvd","29650",34.93792724609375,-82.26697540283203
"29650","Greer","SC","Dobson Hardware","1407 W Wade Hampton Blvd","29650",34.93796,-82.268806
"29650","Greer","SC","ProSource of Greenville","2 Distribution Ct","29650",34.85623,-82.23262
"29650","Greer","SC","Sherwin-Williams Floorcovering Store","321 Tandem Dr","29650",34.891241,-82.236073
"29653","Hodges","SC","Home depot","not_available","29653",34.3507262,-82.2245334
"29654","Honea Path","SC","Browns","119B S Greenwood Ave","29692",34.384624423353884,-82.23480721822317
"29657","Liberty","SC","Ace Hardware","not_available","29657",34.787548,-82.6946
"29657","Liberty","SC","Power Tool Warehouse","7240 Moorefield Memorial Hwy","29657",34.77438735961914,-82.67463684082031
"29661","Marietta","SC","Sunex Tools","999 Geer Hwy","29690",34.98115158081055,-82.4634780883789
"29662","Mauldin","SC","Gbs Lumber","103 Old Mill Rd","29607",34.795196533203125,-82.30658721923828
"29669","Pelzer","SC","Ace Hardware & Rental","29 Pelzer Ave Town Square Center","29697",34.620787,-82.475547
"29669","Pelzer","SC","Cokers Hardware","not_available","29669",34.66387781487081,-82.37858345792428
"29670","Pendleton","SC","Griffs Farm & Home Center","not_available","29670",34.63392594012824,-82.78494667015293
"29670","Pendleton","SC","TTI Distribution Center","203 Orange Way","29621",34.632999420166016,-82.61286163330078
"29670","Pendleton","SC","TTI Innovation Center","115 Innovation Way","29621",34.628515,-82.611586
"29671","Pickens","SC","Ace Hardware","440 Ann St","29671",34.89237976074219,-82.70926666259766
"29671","Pickens","SC","Husqvarna US","213 W Cedar Rock St","29671",34.8814811706543,-82.70929718017578
"29672","Seneca","SC","The Home Depot","1614 Sandifer Blvd","29678",34.6915099,-82.9958719
"29672","Seneca","SC","Lowe's","195 Bilo Place","29678",34.6893319,-82.9843776
"29672","Seneca","SC","Tractor Supply Co.","125 Thrift Ave","29678",34.684543,-82.998969
"29672","Seneca","SC","Black Electrical Supply INC.","W North 1st ST.","29678",34.68848671216634,-82.97027841098077
"29672","Seneca","SC","minuteKEY","1636 Sandifer Blvd","29678",34.6897148,-82.9985727
"29672","Seneca","SC","Oconee Welding Supply","not_available","29678",34.68718787695136,-82.9461199891453
"29672","Seneca","SC","Grand Rental Station","915 E North First St","29678",34.69552993774414,-82.9413070678711
"29672","Seneca","SC","Vickery Outdoor Power Equipment","not_available","29672",34.700016283978194,-82.98595225735924
"29672","Seneca","SC","Sears","366 Market St","29678",34.6889765,-82.99279109999999
"29672","Seneca","SC","Tri-County Ace","1645 Sandifer Blvd","29678",34.68547,-83.00037
"29672","Seneca","SC","Sherwin-Williams Paint Store","533 By Pass 123","29678",34.6966023090168,-82.95512437820435
"29672","Seneca","SC","The Paint Place","349 Market St","29678",34.688201904296875,-82.99324035644531
"29673","Piedmont","SC","grove station general store","not_available","29673",34.739108607163296,-82.44314457582189
"29673","Piedmont","SC","FGS Hardware","1000-1098 S Carolina 86","29673",34.70200606666667,-82.477809
"29676","Salem","SC","Tri-County Ace","15741 N Highway 11","29676",34.9134924040544,-82.9241277081175
"29678","Seneca","SC","Tri-Star True Value","12087 Wells Hwy","29678",34.65930966,-82.93302305
"29681","Simpsonville","SC","Sherwin-Williams Paint Store","109 Batesville Rd","29681",34.807294,-82.23262700000001
"29681","Simpsonville","SC","Five Forks Mower Repair-Sales-Rentals","430 Scuffletown Rd","29681",34.79763559277623,-82.22082846830722
"29687","Taylors","SC","Greenville Scale Co.","Landmark Ct.","29609",34.91201788074255,-82.3209111712517
"29687","Taylors","SC","Emergency Septic Service","3835 Camp Rd","29651",35.014634316666665,-82.28295565
"29687","Taylors","SC","Gilreath Mill Farm Supply","2303 N Highway 101","29651",34.968292236328125,-82.27617645263672
"29687","Taylors","SC","Total Comfort Heating & Cooling","1772 Memorial Drive Ext","29651",34.9811007,-82.27146491666667
"29690","Travelers Rest","SC","McLeskey-Todd True Value","28 S Main St","29690",34.96744918823242,-82.44215393066406
"29690","Travelers Rest","SC","Tru Value Hardware","not_available","29690",34.967071,-82.442133
"29690","Travelers Rest","SC","BWN Plumbing Inc.","5539 Locust Hill Rd","29690",35.01583319823278,-82.38093852996826
"29690","Travelers Rest","SC","McLeskey-Todd True Value","21 Plaza Dr","29690",34.97209548950195,-82.42991638183594
"29691","Walhalla","SC","Tri-County Ace","160 Scenic Plaza Dr","29696",34.7540959,-83.047574
"29691","Walhalla","SC","Neville Hardware","120 S. Highway 11","29691",34.75762176513672,-83.04534149169922
"29691","Walhalla","SC","Grand Hardware & Enterprise","Cheng Height","not_available",34.715309,-83.177886
"29693","Westminster","SC","The Home Depot","302 Memorial Drive","30577",34.54514844478547,-83.28702092170715
"29693","Westminster","SC","Harbor Freight","not_available","30577",34.565086,-83.2973
"29693","Westminster","SC","TOCCOA RENTALS TRUE VALUE HDW.","2552 Highway 17 Alt","30577",34.56420135498047,-83.2957763671875
"29693","Westminster","SC","minuteKEY","3886 Highway 17 S.","30538",34.5349932,-83.2599521
"29693","Westminster","SC","Tractor Supply","Big A Road","30577",34.54744884319787,-83.28304626609537
"29693","Westminster","SC","City Electric Supply Toccoa","2151 Clary Connector Ste 1","30538",34.54046,-83.26980158895492
"29693","Westminster","SC","Tractor Supply Co.","998 Big A Rd","30577",34.5698083920371,-83.30930560701626
"29693","Westminster","SC","Sherwin-Williams Paint Store","33 N Sage St","30577",34.57785262828984,-83.33011865615845
"29693","Westminster","SC","Husqvarna US","80 Isaac Walker Rd","30538",34.53596878051758,-83.30064392089844
"29693","Westminster","SC","Toccoa Rentals & Sales Inc","2552 Hwy 17","30577",34.56419,-83.29574
"29704","Catawba","SC","Hood Paint Co Inc","510 Payge Dr","29730",34.879135,-80.928453
"29706","Chester","SC","City True Value","125 Church St","29706",34.70343316,-81.21189227
"29706","Chester","SC","True Value","not_available","29706",34.7079032,-81.2134971
"29706","Chester","SC","Blue 2 Green Irrigation & Pump Services","NA","29707",34.73378333305341,-81.27664089202881
"29706","Chester","SC","Tractor Supply Co.","1839 J A Cochran Byp","29706",34.70769500732422,-81.19116973876953
"29706","Chester","SC","Ezell Hardware Inc","157 Gadsden St","29706",34.7051384,-81.2112011
"29707","Fort Mill","SC","Lowe's","181 Fort Mill Highway","29707",34.9996851,-80.8587489
"29707","Fort Mill","SC","Lowe's","1640 Highway 160 West","29708",35.0332187,-80.9644047
"29707","Fort Mill","SC","Lowe's","1350 Springdale Road","29730",34.9391289,-80.962236
"29707","Fort Mill","SC","minuteKEY","181 Fort Mill Hwy","29707",34.999786376953125,-80.85833740234375
"29707","Fort Mill","SC","minuteKEY","1640 Highway 160 W","29708",35.032554626464844,-80.96421813964844
"29707","Fort Mill","SC","Fort Mill Garage Doors","856 Gold Hill Rd Ste 110","29708",35.06157684326172,-80.9618148803711
"29707","Fort Mill","SC","Home depot","not_available","29715",35.0268245672178,-80.96475672969068
"29707","Fort Mill","SC","City Electric Supply Indian Land","9636 Possum Hollow Road, Suite 105","29707",34.9987027,-80.86333669999999
"29707","Fort Mill","SC","Tractor Supply Co.","2374 Cross Pointe Dr","29730",34.939849,-80.960584
"29707","Fort Mill","SC","minuteKEY","1350 Springdale Rd","29730",34.938873291015625,-80.96255493164062
"29707","Fort Mill","SC","Locksmith","not_available","29707",34.951022119954196,-80.84391474723816
"29707","Fort Mill","SC","Avanti Tile & Stone","3020 U.S. 21, Fort Mill, SC 29715","29715",35.06379540828918,-80.93999988623158
"29707","Fort Mill","SC","Colonial Materials Inc","9072 Northfield Drive","29707",34.96438058,-80.85879802
"29707","Fort Mill","SC","Northern Tool & Equipment Distribution Center","1850 Banks Rd","29715",34.974394000000004,-80.949262
"29707","Fort Mill","SC","Sherwin-Williams Paint Store","8137 Williams Pond Ln","28277",35.053218,-80.81355
"29707","Fort Mill","SC","Atlas Copco Compressors LLC","300 Technology Center Way Ste 550","29730",34.94825202451236,-80.94647973775864
"29707","Fort Mill","SC","Sunbelt Rentals Inc.","2341 Deerfield Dr","29715",35.05014229448564,-80.95744219848814
"29707","Fort Mill","SC","Gabbidon Builders Inc","9714 Longstone Ln","28277",35.026748,-80.84100600000001
"29707","Fort Mill","SC","Sears","11812 Carolina Place Parkway","28134",35.07357,-80.8815
"29707","Fort Mill","SC","minuteKEY","10048 Charlotte Hwy","29707",35.011131286621094,-80.84945678710938
"29707","Fort Mill","SC","Exterior Contract Services","1974 Carolina Place Dr","29708",35.033052000000005,-80.966071
"29707","Fort Mill","SC","Sherwin-Williams Paint Store","4160 Dobys Bridge Rd","29707",34.95645493257639,-80.8549117257849
"29708","Fort Mill","SC","The Home Depot","14310 Rivergate Pkwy","28273",35.1009886,-80.9838402
"29708","Fort Mill","SC","Sherwin-Williams Paint Store","1724 Pleasant Rd","29708",35.033209,-80.96889499999999
"29708","Fort Mill","SC","Carolina Paint and Design","2435 Highway 160 W","29708",35.04666519165039,-80.99126434326172
"29708","Fort Mill","SC","Ferguson Industrial","3463 Lakemont Blvd","29708",35.091182,-80.942132
"29708","Fort Mill","SC","Benjamin Moore","not_available","29708",35.03791666666667,-81.02291666666666
"29708","Fort Mill","SC","Maximum Advantage-Carolinas","2166 Gold Hill Rd Ste C3","29708",35.0535143,-81.007476
"29710","Clover","SC","Lowe's","5288 Highway 557","29710",35.1213133,-81.0871146
"29710","Clover","SC","Carter Lumber","126 Hands Mill Rd","29732",34.99214553833008,-81.10104370117188
"29710","Clover","SC","Lowe's","1010 East Liberty Street","29745",34.9838163,-81.2101953
"29710","Clover","SC","Sherwin-Williams Paint Store","4034 Charlotte Hwy","29710",35.109426,-81.041146
"29710","Clover","SC","Tractor Supply Co.","802 East Liberty St","29745",34.984134000000005,-81.222065
"29710","Clover","SC","Eagle Building Center","not_available","29710",35.10562368551872,-81.20777607933469
"29710","Clover","SC","Dixie Exterminating Company Inc","5019 Old York Rd","29732",34.983804,-81.094679
"29710","Clover","SC","Husqvarna US","PO Box 624","29745",35.005775451660156,-81.20783233642578
"29710","Clover","SC","The Building Center","not_available","29732",34.985356,-81.09318
"29710","Clover","SC","Fogles","not_available","29745",35.00070449140556,-81.21171471733729
"29715","Fort Mill","SC","The Home Depot","10210 Centrum Pkwy","28134",35.0933229,-80.877285
"29715","Fort Mill","SC","Harbor Freight Tools","601 N Polk St Ste J","28134",35.09252218507687,-80.8854536687966
"29715","Fort Mill","SC","Sherwin-Williams Paint Store","9101 Pineville Matthews Rd # 1B","28134",35.08707506533613,-80.87094663418549
"29715","Fort Mill","SC","Sherwin-Williams Commercial Paint Store","515 N Polk St","28134",35.090626,-80.886329
"29718","Jefferson","SC","Atkinson's","3605 Evans Mill Rd","29728",34.730098724365234,-80.35213470458984
"29720","Lancaster","SC","The Home Depot","1116 US Hwy 9 Byp W","29720",34.73556876554283,-80.79296886920929
"29720","Lancaster","SC","Tractor Supply Co.","593 Lancaster Byp East","29720",34.730552,-80.75831
"29720","Lancaster","SC","Waxhaw Ace Hardware","3927 Providence Rd S","28173",34.936409000000005,-80.749539
"29720","Lancaster","SC","Hughes Plumbing & Showroom","not_available","29720",34.72159957885742,-80.7146224975586
"29720","Lancaster","SC","City Electric Supply Waxhaw","27294 Waxhaw Pkwy","28173",34.93441551690056,-80.74749175248598
"29720","Lancaster","SC","Waxhaw Garage Door","102 E South Main St","28173",34.92461013793945,-80.7432861328125
"29720","Lancaster","SC","City Electric Supply Lancaster Sc","648 Hubbard Dr","29720",34.745398974437066,-80.78032493591309
"29720","Lancaster","SC","minuteKEY","805 Hwy. 9 Bypass West","29720",34.7358085,-80.7816919
"29720","Lancaster","SC","Sherwin-Williams Paint Store","228 Northpark Sq","29720",34.73709847578162,-80.77426314353943
"29720","Lancaster","SC","A & T Lawn & Shrub Service","1566 Charlotte Hwy","29720",34.74428109999999,-80.7772736
"29720","Lancaster","SC","Husqvarna US","955 University Dr","29720",34.74320983886719,-80.77981567382812
"29720","Lancaster","SC","minuteKEY","1703 Mineral Spring Ave","02904",34.9179236,-80.7344684
"29720","Lancaster","SC","Mc Bride Building Splies/Hardware","557 Hwy 9 Bypass","29720",34.7293,-80.7587
"29720","Lancaster","SC","Ace Hardware","714 S Market St","29720",34.711341857910156,-80.76393127441406
"29720","Lancaster","SC","Home Specialties","660 Hwy 9 Bypass","29720",34.728387124855665,-80.75620651245117
"29728","Pageland","SC","Pageland Hardware","not_available","29728",34.772296769028806,-80.39159313521124
"29728","Pageland","SC","Pageland Farm Equipment","218 W McGregor St","29728",34.77164077758789,-80.39295196533203
"29730","Rock Hill","SC","The Home Depot","2815 Home Depot Blvd","29730",34.9785852,-80.9845327
"29730","Rock Hill","SC","Newport Hardware","101-123 Pennington Rd","29732",34.980606069058716,-81.08605885492646
"29730","Rock Hill","SC","Ace Hardware","199 Cherry Rd","29732",34.945819,-81.026505
"29730","Rock Hill","SC","Sherwin-Williams Paint Store","1240 Cherry Rd","29732",34.95244632646824,-81.01634549162657
"29730","Rock Hill","SC","Ace Hardware","not_available","28209",34.919756803837295,-81.08937314577368
"29730","Rock Hill","SC","Northern Tool & Equipment","Stanton Dr.","29730",34.94110049380579,-80.97066026058042
"29730","Rock Hill","SC","minuteKEY","1225 Cherry Rd","29732",34.95295333862305,-81.01750183105469
"29730","Rock Hill","SC","Ferguson Plumbing Supply","711 Riverview Rd","29730",34.964622999999996,-80.98513
"29730","Rock Hill","SC","New Furniture Factory Outlet","1460 E Main St","29730",34.9179101,-80.9960567
"29730","Rock Hill","SC","Champion Services Inc.","521 South Anderson Road","29730",34.928470000000004,-80.99396800000001
"29730","Rock Hill","SC","Southern States - 72709","982 N Anderson Rd","29730",34.9632332743363,-80.9941077876106
"29730","Rock Hill","SC","D&T Screen Co","not_available","29730",34.93645,-81.00907600000001
"29730","Rock Hill","SC","Ace Builders Hardware","1249 E Main St","29730",34.916228000000004,-81.004069
"29730","Rock Hill","SC","Rock Hill Garage Doors","851 Heckle Blvd Ste 118","29730",34.93008041381836,-81.05828857421875
"29730","Rock Hill","SC","Rock Hill True Value","1735 Heckle Blvd","29732",34.95146942138672,-81.06449890136719
"29730","Rock Hill","SC","City Electric Supply Rock Hill","164 Rental Ct","29732",34.946985663993004,-81.04270935058594
"29732","Rock Hill","SC","PurAqua Products","1880 Langston Sr.","29730",34.949119,-80.993412
"29732","Rock Hill","SC","City Plumbing","1713 Celanese Rd","29732",34.979558527325246,-80.99694632742542
"29732","Rock Hill","SC","Rock Hill Ace Hardware","725 Cherry Rd # 199","29732",34.94580216332773,-81.02655325379372
"29801","Aiken","SC","The Home Depot","1785 Whiskey Road","29803",33.5251277,-81.7216817
"29801","Aiken","SC","Carolina Outdoors Equipment Co.","3980 Richland Ave W","29801",33.562547,-81.777729
"29801","Aiken","SC","Sherwin-Williams Paint Store","576 Silver Bluff Rd","29803",33.51736466277642,-81.72900256751882
"29801","Aiken","SC","Harbor Freight Tools","2270 Whiskey Rd","29803",33.513171,-81.712917
"29801","Aiken","SC","True Value Hardware","121 Laurens St Sw","29801",33.561245,-81.723137
"29801","Aiken","SC","Park Avenue Paints","200 Park Ave SW","29801",33.559449,-81.721744
"29801","Aiken","SC","minuteKEY","3581 Richland Ave W","29801",33.561289,-81.767297
"29801","Aiken","SC","Larry's plumbing","not_available","29801",33.557042,-81.70739
"29801","Aiken","SC","Handy Woman : )","not_available","29828",33.522148560565995,-81.82223045350149
"29801","Aiken","SC","minuteKEY","2035 Whiskey Rd","29803",33.51822280883789,-81.71930694580078
"29801","Aiken","SC","Cliffs Work","218 State Highway 940","29801",33.59333358333333,-81.70316103333333
"29801","Aiken","SC","Goldman's True Value","2615 Columbia Hwy N","29805",33.66054,-81.67572
"29801","Aiken","SC","City Electric Supply Aiken","106 Bolton Ct","29803",33.53198233978772,-81.69803604483604
"29803","Aiken","SC","Lowe's","2470 Whiskey Road","29803",33.5090361,-81.7101342
"29803","Aiken","SC","Tractor Supply Co.","2655 Whiskey Rd","29803",33.5022655554856,-81.70741007225286
"29803","Aiken","SC","minuteKEY","2470 Whiskey Rd","29803",33.50927734375,-81.70941162109375
"29803","Aiken","SC","Hh","Woodside Plantation Dr","29803",33.4964666,-81.72206115
"29812","Barnwell","SC","Palmetto Building Supply","9156 Marlboro Ave","29812",33.23759841918945,-81.35639953613281
"29812","Barnwell","SC","Black's Supply","Allen St","29812",33.245211,-81.364532
"29812","Barnwell","SC","Webs Hardware","61-105 Cemetery Rd","29812",33.24353496056756,-81.36680257271712
"29812","Barnwell","SC","minuteKEY","11391 Dunbarton Blvd","29812",33.238521575927734,-81.39197540283203
"29812","Barnwell","SC","Bolen Buildings and Supply","470 Legion Rd","29817",33.37678909301758,-81.33924865722656
"29812","Barnwell","SC","Tractor Supply Co.","10499 Dunbarton Blvd","29812",33.242835998535156,-81.37710571289062
"29824","Edgefield","SC","Crouch Hardware","112 Courthouse Sq","29824",33.7881229,-81.927136
"29827","Fairfax","SC","Ace Hardware","616 Railroad Ave W","29924",32.87871551513672,-81.12055969238281
"29835","Mc Cormick","SC","Whites Hardware","not_available","29835",33.911761,-82.292656
"29835","Mc Cormick","SC","Kelly's Saw Shop","US Hwy 378 W","29835",33.88893465395472,-82.3250132702634
"29841","North Augusta","SC","Tractor Supply Co.","195 Edgewood Dr","29841",33.526798,-81.953745
"29841","North Augusta","SC","Lowe's","1220 Knox Avenue","29841",33.5020606,-81.9612576
"29841","North Augusta","SC","B C Wall Hardware","1704 Knox Ave","29841",33.51248550415039,-81.95784759521484
"29841","North Augusta","SC","The Window Gallery","1129 Broad St","30901",33.477841,-81.971585
"29841","North Augusta","SC","minuteKEY","1041 Edgefield Rd","29860",33.57223892211914,-81.93576049804688
"29841","North Augusta","SC","Ppg Paints","1725 Walton Way","30904",33.475974,-81.996225
"29841","North Augusta","SC","Adams Supply","871 Edgefield Road","29841",33.52636170888382,-81.9207609909895
"29841","North Augusta","SC","Adams Insulation and Gutter Supply","871 Edgefield Rd","29841",33.55406951904297,-81.9332275390625
"29841","North Augusta","SC","McCall's Supply","not_available","29841",33.482872009277344,-81.94596099853516
"29841","North Augusta","SC","Sherwin-Williams Paint Store","419 E Martintown Rd","29841",33.496010999999996,-81.95796899999999
"29841","North Augusta","SC","minuteKEY","1201 Knox Ave","29841",33.501265999999994,-81.956744
"29841","North Augusta","SC","Gexpro","1547 15th St","30901",33.462223,-81.996465
"29841","North Augusta","SC","Pratt-Dudley Builders Supply Center","1002 Ra Dent Blvd","30901",33.469008,-81.980583
"29841","North Augusta","SC","Stafford Nut And Bolt","1370 Reynolds St","30901",33.48046,-81.977527
"29841","North Augusta","SC","minuteKEY","1220 Knox Ave","29841",33.501928,-81.961439
"29853","Williston","SC","Bucks Hardware Store","5466 West Street","29853",33.399309699441176,-81.4212852595365
"29853","Williston","SC","Mahuron's Building Supply","not_available","29853",33.399841,-81.421311
"29902","Beaufort","SC","Lowe's","207 Robert Smalls Parkway","29906",32.428366,-80.717947
"29902","Beaufort","SC","Grayco","136 Sea Island Pkwy","29907",32.414473807113474,-80.65319679292462
"29902","Beaufort","SC","Bargain Builders","481 Parris Island Gtwy","29906",32.40309143066406,-80.73465728759766
"29902","Beaufort","SC","Lowes Parking Lot","not_available","29902",32.42701461465908,-80.71465507619058
"29902","Beaufort","SC","minuteKEY","207 Robert Smalls Pkwy","29906",32.428355,-80.717877
"29902","Beaufort","SC","City Electric Supply Beaufort","116 Industrial Village Rd","29906",32.43383822783947,-80.72115540504456
"29902","Beaufort","SC","Tractor Supply Beaufort Sc","36 Parris Island Gtwy","29906",32.438255310058594,-80.72307586669922
"29902","Beaufort","SC","Ferguson Plumbing Supply","1425 S Ribaut Rd","29935",32.3956184387207,-80.68509674072266
"29902","Beaufort","SC","Sherwin-Williams Paint Store","251 Robert Smalls Pkwy","29906",32.42710086335343,-80.72329044342041
"29906","Beaufort","SC","Hunter's Hardware","691 Summer Dr","29906",32.40373229980469,-80.76785278320312
"29907","Beaufort","SC","Sherwin-Williams Paint Store","160 Sea Island Pkwy","29907",32.413255,-80.650075
"29909","Okatie","SC","The Home Depot","20 Gateway Village Rd","29910",32.25511001221308,-80.8453094959259
"29909","Okatie","SC","Heuser Hardware at Buckwalter Place","29 Innovation Dr","29910",32.271035,-80.918942
"29909","Okatie","SC","Ferguson Bath, Kitchen & Lighting Gallery","114 Bluffton Rd","29910",32.24846389001445,-80.857835755551
"29909","Okatie","SC","Tractor Supply Co.","40 Cecil Reynolds Dr","29910",32.289552,-80.934391
"29909","Okatie","SC","Heuser Ace Hardware","259 Cooper Plate Rd","29927",32.309193,-80.97313
"29909","Okatie","SC","the light post","not_available","29910",32.263938,-80.85962099999999
"29909","Okatie","SC","City Electric Supply Bluffton","17 Kitties Landing Rd","29910",32.252730997302265,-80.85371594133449
"29909","Okatie","SC","minuteKEY","4400 Highway 278","29927",32.3093217,-80.9946519
"29909","Okatie","SC","Comfort Master Mechanical Inc.","108 Graham Hall N","29936",32.4591764,-80.9694796
"29909","Okatie","SC","Capitol Materials Coastal","203 Pearlstine Dr","29936",32.32409746,-80.93756863
"29909","Okatie","SC","anchor hardware","not_available","29928",32.25372098791181,-80.70417216834991
"29909","Okatie","SC","Hilton Head Garage Doors","516 Browns Cove Rd Ste K","29936",32.31821060180664,-80.93804931640625
"29909","Okatie","SC","Energy One America","270 Red Cedar St","29910",32.25284254,-80.86582617
"29909","Okatie","SC","Sherwin-Williams Commercial Paint Store","138 Bluffton Rd","29910",32.24528121948242,-80.85850524902344
"29910","Bluffton","SC","Lowe's","35 Malphrus Road","29910",32.2413889,-80.827639
"29910","Bluffton","SC","Grayco","Palmetto Bay Rd","29928",32.161793,-80.766979
"29910","Bluffton","SC","Espy Lumber Company","147 Arrow Rd","29928",32.15795098487188,-80.76004189636107
"29910","Bluffton","SC","Southern Welding","151 Burnt Church Rd","29910",32.23590087890625,-80.85283660888672
"29910","Bluffton","SC","minuteKEY","35 Malphrus Rd","29910",32.241485,-80.826615
"29910","Bluffton","SC","Sherwin-Williams Paint Store","108 Arrow Rd","29928",32.160759316292584,-80.76431674212353
"29910","Bluffton","SC","Design On Tap - Bluffton","1 Kitties Landing Dr","29910",32.25469978,-80.85391219
"29910","Bluffton","SC","G and J Equipment Rental","39 Persimmons St Ste 301","29910",32.2594219,-80.8630895
"29910","Bluffton","SC","Sherwin-Williams Paint Store","11 Sheridan Park Cir","29910",32.262068862676614,-80.85823774337769
"29910","Bluffton","SC","Pritchardville Mercantile","1 King George Rd","29910",32.23685836791992,-80.96330261230469
"29911","Brunson","SC","Walsh Supply Co.","not_available","29944",32.84967041015625,-81.08108520507812
"29918","Estill","SC","Wiggins Hardware","50 Rail Road Ave","29918",32.754581,-81.241024
"29918","Estill","SC","Green Acres Turf Farms LLC","14058 Savannah Highway","29918",32.68147,-81.18784
"29926","Hilton Head Island","SC","Ace Hardware of Hilton Head","3 Northridge Dr","29926",32.216977,-80.705295
"29926","Hilton Head Island","SC","Piper Plumbing","not_available","29926",32.22236633300781,-80.70520782470703
"29926","Hilton Head Island","SC","Sherwin-Williams Paint Store","608 William Hilton Pkwy","29928",32.197695036394684,-80.70228338241577
"29926","Hilton Head Island","SC","Headland tile","3 Hunter Rd","29926",32.22161865234375,-80.702880859375
"29926","Hilton Head Island","SC","Smith Turf & Irrigation Co.","8 Cardinal Rd","29926",32.222303966666665,-80.70242326666667
"29926","Hilton Head Island","SC","City Electric Supply Hilton Head","40 Capital Dr","29926",32.20581211678451,-80.70939901469501
"29926","Hilton Head Island","SC","Capitol Materials Coastal","33 Mathews Drive","29926",32.2196628,-80.7034655
"29927","Hardeeville","SC","The Home Depot","1901 E Victory Dr","31404",32.0419444,-81.0684806
"29927","Hardeeville","SC","Sherwin-Williams Paint Store","2135 E Victory Dr","31404",32.039722,-81.063439
"29927","Hardeeville","SC","Guerry Lumber","not_available","31405",32.05183139151309,-81.1040782819912
"29927","Hardeeville","SC","City Electric Supply Savannah Downtown","116 Randolph St","31401",32.07581093556735,-81.08244849444566
"29927","Hardeeville","SC","Fergursons Plumbing Showroom","11 Hudson St, Savannah, GA 31415","31415",32.09084701538086,-81.1234359741211
"29927","Hardeeville","SC","Coleman, H E Plumbing Co","1300 Bull St","31401",32.063229,-81.097862
"29927","Hardeeville","SC","411marine.com","11832 Speedway Blvd","29927",32.255680084228516,-81.07743072509766
"29927","Hardeeville","SC","Precision Cutting Service","105 Estus Dr","31404",32.06260681152344,-81.04761505126953
"29927","Hardeeville","SC","New South Construction Supply","358 Hardeeville Industrial Park Road","29927",32.2978401184082,-81.07658386230469
"29927","Hardeeville","SC","Ferguson Plumbing Supply","1275 Chatham Parkway","31405",32.06096,-81.16049
"29927","Hardeeville","SC","B and B Paint Store","not_available","31401",32.073467185574934,-81.09973546226492
"29927","Hardeeville","SC","Hughes Supply","4116 Ogeechee Rd","31405",32.049999,-81.161653
"29927","Hardeeville","SC","CED Electrical Supply","2900 Tremont Rd","31405",32.057919,-81.132763
"29927","Hardeeville","SC","Creative Stone Accessories","Louisville Rd","31415",32.082964016666665,-81.13848728333333
"29927","Hardeeville","SC","Savannah Toolhouse","not_available","31408",32.10591,-81.152536
"29927","Hardeeville","SC","Sherwin-Williams Paint Store","508 W Jones St","31401",32.07445,-81.100205
"29927","Hardeeville","SC","Johnstone Supply","101-149 Alton St","31401",32.07954648333333,-81.09793465
"29928","Hilton Head Island","SC","Grayco","Willliam Hilton Parkway","29938",32.15765778105611,-80.75746064575719
"29928","Hilton Head Island","SC","Coligny Hardware","3 Lagoon Rd","29928",32.144439697265625,-80.7523422241211
"29936","Ridgeland","SC","Pinckney Well Drilling and Geothermal","9721 W Frontage Rd","29945",32.6155187,-80.89424029999999
