"zip","city","state","name","address","postalCode","lat","lon"
"40004","Bardstown","KY","Lowe's","3790 East John Rowan Boulevard","40004",37.7999034,-85.4313909
"40004","Bardstown","KY","Sherwin-Williams Paint Store","1346 E John Rowan Blvd","40004",37.82493805875627,-85.45324802398682
"40004","Bardstown","KY","Bardstown Mills","1393 Withrow Ct","40004",37.8324106,-85.4770068
"40004","Bardstown","KY","Buzick Lumber & Home Center","1330 E John Rowan Blvd","40004",37.825124499295505,-85.45444965362549
"40004","Bardstown","KY","minuteKEY","3795 E John Rowan Blvd","40004",37.79999542236328,-85.43612670898438
"40004","Bardstown","KY","Patron's Home Center","not_available","not_available",37.81484864962181,-85.44970829946348
"40004","Bardstown","KY","Tractor Supply Co.","235 Kentucky Home Sq","40004",37.82487106323242,-85.46456146240234
"40006","Bedford","KY","Bedford Hardware + Farm & Home","not_available","40006",38.595734,-85.317074
"40014","Crestwood","KY","Tractor Supply Co.","2003 Priest Dr","40031",38.39060652844368,-85.36579147924415
"40014","Crestwood","KY","Wattâ€™s Hardware","not_available","40031",38.389325,-85.407886
"40014","Crestwood","KY","Boland Maloney Lumber","4010 Collins Ln","40245",38.301279,-85.52431800000001
"40014","Crestwood","KY","minuteKEY","3706 Diann Marie Rd","40241",38.30002975463867,-85.54537963867188
"40014","Crestwood","KY","Ace Hardware","6536 W Highway 22","40014",38.324231,-85.471401
"40014","Crestwood","KY","minuteKEY","1015 New Moody Ln","40031",38.39495086669922,-85.37271881103516
"40014","Crestwood","KY","Beards Outdoor Power Equipment","6159 W Highway 146","40014",38.34172439575195,-85.46662902832031
"40014","Crestwood","KY","Fastenal","3600 Chamberlain Ln Ste 128","40241",38.29683,-85.54355100000001
"40014","Crestwood","KY","Sherwin-Williams Paint Store","1200 Market St","40031",38.394829,-85.368995
"40014","Crestwood","KY","DW Tool Sales & Service","2104 Button Ln Ste 15","40031",38.392961,-85.405048
"40014","Crestwood","KY","Crestwood Hardware","6536 W Hwy 22","40014",38.324353,-85.471924
"40019","Eminence","KY","cooks true value","not_available","40019",38.368473052978516,-85.18022918701172
"40033","Lebanon","KY","Husqvarna US","602 W Main St","40033",37.56379318237305,-85.2645492553711
"40033","Lebanon","KY","Tractor Supply Co.","507 West Main St","40033",37.565879821777344,-85.26332092285156
"40045","Milton","KY","Blue Flame","not_available","47250",38.73270881840419,-85.45690940600785
"40045","Milton","KY","Boonie's Water Conditioning","412 E 2nd St","47250",38.7349276,-85.3750771
"40047","Mount Washington","KY","Ace Hardware","337 N Bardstown Rd","40047",38.049190521240234,-85.54621887207031
"40059","Prospect","KY","Brownsboro Hardware & Paint","9521 U.S. 42","not_available",38.343638650884664,-85.61840906668978
"40065","Shelbyville","KY","Lowe's","544 Taylorsville Road","40065",38.2079706,-85.2659548
"40065","Shelbyville","KY","Tractor Supply Co.","448 Old Brunerstown Road","40065",38.214727993747786,-85.25342398939674
"40065","Shelbyville","KY","Ace hardware","1545 Midland Trl","40065",38.21289698399948,-85.23849870808031
"40065","Shelbyville","KY","Andriots Paint, Flooring and Blinds","1857 Midland Trl","40065",38.21308621600023,-85.24982030555725
"40065","Shelbyville","KY","Sherwin-Williams Paint Store","1870 Midland Trl","40065",38.21181597808567,-85.25222182273863
"40065","Shelbyville","KY","Fastenal","not_available","40065",38.22026443481445,-85.20243072509766
"40065","Shelbyville","KY","Chism's","250 Boone Station Rd","40065",38.21482849121094,-85.2037353515625
"40065","Shelbyville","KY","Kingsolver Painting","1466 Rockbridge Rd","40065",38.163918,-85.191133
"40067","Simpsonville","KY","Brother's Country Depot","7015 Shelbyville Rd","40067",38.22246583437212,-85.35431476074791
"40069","Springfield","KY","Ace Hardware","805 Bardstown Rd","40069",37.69086456298828,-85.23396301269531
"40071","Taylorsville","KY","Bennett Hardware","not_available","40071",38.031367,-85.344203
"40108","Brandenburg","KY","Cox's Home Center","570 River Ridge Plaza","40108",38.0048689,-86.165659
"40108","Brandenburg","KY","Cox's Home Center","570 Bypass Rd","40108",37.98027038574219,-86.16348266601562
"40143","Hardinsburg","KY","Willoughby Lumber Company","50 Tules Creek Rd","40143",37.75949478149414,-86.43930053710938
"40143","Hardinsburg","KY","Tractor Supply Co.","980 East Hwy 60","40143",37.760495,-86.441545
"40160","Radcliff","KY","Rural King","5985 N Dixie Hwy","42701",37.7712287,-85.906845
"40160","Radcliff","KY","Radcliff Electric Supply","2480 S Dixie Blvd","40160",37.80434036254883,-85.91819763183594
"40160","Radcliff","KY","True Value Hardware","508 N Dixie Blvd","40160",37.8446696,-85.94238342
"40160","Radcliff","KY","Basham Lumber Company","1628 N Logsdon Pkwy","40160",37.856380462646484,-85.96934509277344
"40160","Radcliff","KY","B&R Drywall Supply","238 Globe St","40160",37.85249044102445,-85.95338413708829
"40162","Rineyville","KY","Rineyville Feed & Supply","6085 Rineyville Rd","40162",37.750205993652344,-85.97171020507812
"40162","Rineyville","KY","Miller's Floor Covering","not_available","40162",37.75014877319336,-85.97115325927734
"40165","Shepherdsville","KY","Lowe's","800 Conestoga Parkway","40165",38.0030454,-85.7038411
"40165","Shepherdsville","KY","minuteKEY","545 Conestoga Pkwy Lot 1","40165",38.0005036,-85.705901
"40165","Shepherdsville","KY","Thomas Equipment Rental","not_available","40165",38.00851193,-85.73508251
"40165","Shepherdsville","KY","Anthony Hester Plumbing & Electric","2749 W Blue Lick Rd","40165",38.02671225263256,-85.71835756301878
"40175","Vine Grove","KY","Don's Lumber & Hardware","2001 W Lincoln Trail Blvd","40175",37.82656516030753,-85.97685813903809
"40202","Louisville","KY","Bargain Supply","not_available","40202",38.251290999999995,-85.73701700000001
"40202","Louisville","KY","Sherwin-Williams Commercial Paint Store","717 S 1st St","40202",38.244803000000005,-85.753247
"40202","Louisville","KY","Metro electric","not_available","40203",38.245208740234375,-85.76360321044922
"40202","Louisville","KY","Porter Paints","801 S 3rd St","40203",38.243719,-85.756834
"40202","Louisville","KY","E & H Electrical Supply","804 S 5th St","40203",38.243877219378795,-85.76064915594259
"40202","Louisville","KY","Richards Electric Supply","226 E Jacob St","40203",38.243719,-85.75089799999999
"40203","Louisville","KY","Ace Hardware","2527 Portland Ave","40212",38.27144241333008,-85.78988647460938
"40203","Louisville","KY","Porter Paints Factory","400 S 13th St","40203",38.25442886352539,-85.77229309082031
"40203","Louisville","KY","Bailey Tools & Supply","not_available","40217",38.228926,-85.742526
"40203","Louisville","KY","Wolf Glass & Paint Co","not_available","47130",38.27635955810547,-85.74349212646484
"40204","Louisville","KY","Sherwin-Williams Paint Store","1255 Bardstown Rd","40204",38.23646,-85.716864
"40204","Louisville","KY","Speier Ace Hardware","992 Barret Ave","40204",38.236918,-85.728326
"40204","Louisville","KY","Highland Lock and Key","2157 Alta Ave #2","40205",38.23415194683364,-85.69792985916138
"40204","Louisville","KY","Plumber's Supply Company","1000 E Main St","40206",38.253694,-85.733231
"40204","Louisville","KY","Keiths Hardware","1201 Bardstown Rd","40204",38.2374346379392,-85.71875673981081
"40204","Louisville","KY","Scott of All Trades","1562 Bardstown Rd","40205",38.230938,-85.70626700000001
"40204","Louisville","KY","Dages Paint Co","1140 E Oak St","40204",38.2341,-85.731702
"40204","Louisville","KY","Hauck's","1000 Goss Ave","40217",38.227589,-85.736402
"40205","Louisville","KY","The Home Depot","964 Breckenridge Lane","40207",38.23319754052085,-85.64338445663452
"40205","Louisville","KY","Lowe's","2100 Bashford Manor Lane","40218",38.2007,-85.665289
"40205","Louisville","KY","Harbor Freight Tools","2249 HIKES LANE","40218",38.2009921359191,-85.65853217726115
"40205","Louisville","KY","Horton's Hardware","2202 Dundee Rd","40205",38.2241,-85.69408
"40205","Louisville","KY","minuteKEY","2100 Bashford Manor Ln","40218",38.200987,-85.665784
"40206","Louisville","KY","Oscar's Hardware","2628 Frankfort Ave","40206",38.254096000000004,-85.694841
"40206","Louisville","KY","Browning Equipment Company","1338 River Rd","40206",38.262664,-85.73163199999999
"40206","Louisville","KY","Revcore Supply","212 Adams St","40206",38.25886535644531,-85.72667694091797
"40207","Louisville","KY","St. Matthew's Feed & Seed","225 Chenoweth Ln","40207",38.257671,-85.658955
"40207","Louisville","KY","Brownsboro Hardware & Paint","4858 Brownsboro Ctr","40207",38.27830807363117,-85.63612530505583
"40207","Louisville","KY","Sherwin-Williams Paint Store","1901 Rudy Ln","40207",38.27966236702448,-85.63894271850586
"40207","Louisville","KY","Sherwin-Williams Paint Store","4406 Shelbyville Rd","40207",38.2506103515625,-85.63394165039062
"40208","Louisville","KY","Oscar's Hardware","1515 S Shelby St, Louisville, KY 40217","40217",38.224136,-85.74217900000001
"40208","Louisville","KY","Badgett Constructors LLC","300 E. Burnett St.","40208",38.22633767002348,-85.75317340194972
"40208","Louisville","KY","Acme Furnace Supply","314 E Burnett Ave","40208",38.225916999999995,-85.75235500000001
"40208","Louisville","KY","Welders Supply Company","355 Boxley Ave","not_available",38.206171000000005,-85.754561
"40209","Louisville","KY","General Rubber & Plastics","3118 Preston Hwy","40213",38.203588,-85.73663
"40209","Louisville","KY","Equipment Depot","4820 Crittenden Dr","40209",38.177886220486,-85.75218291596684
"40209","Louisville","KY","Valley Interior Products","4603 Allmond Avenue","40209",38.18275307,-85.75734158
"40210","Louisville","KY","Jellico Wood Coatings","829 S 26th St","40211",38.246373,-85.794712
"40211","Louisville","KY","Ace Hardware","2616 W Market St","40212",38.259161999999996,-85.794229
"40211","Louisville","KY","Porter Paints","2731 W Broadway","40211",38.250093,-85.79755899999999
"40213","Louisville","KY","The Home Depot","8232 Preston Hwy","40219",38.131137053622766,-85.68538811804501
"40213","Louisville","KY","Ferguson HVAC Supply","3840 Business Park Dr","40213",38.17615509033203,-85.69181060791016
"40213","Louisville","KY","ProSource of Louisville","3303 Gilmore Industrial Blvd","40213",38.18079,-85.70005
"40213","Louisville","KY","Jiffy Fastening Systems, Inc.","3709 Bishop Lane","40218",38.185792,-85.699395
"40213","Louisville","KY","winnelson company","not_available","40213",38.19379806518555,-85.71116638183594
"40213","Louisville","KY","Louisville Drywall Distributors","4743 Poplar Level Rd","40213",38.17546081542969,-85.68714904785156
"40213","Louisville","KY","Ace Hardware","5416 Preston Hwy","40213",38.169113,-85.70840600000001
"40213","Louisville","KY","Phelps Do It Best","Southside Drive","40214",38.156985,-85.764986
"40213","Louisville","KY","Sherwin-Williams Paint Store","4410 Outer Loop","40219",38.137594518744876,-85.67941188812256
"40213","Louisville","KY","Ace Hardware","5011 Preston Hwy","40213",38.1831999,-85.710099
"40213","Louisville","KY","Ferguson Waterworks","3726 Bishop Lane","40213",38.185646057128906,-85.69754791259766
"40213","Louisville","KY","Cooks Locksmiths","not_available","40218",38.18162836614702,-85.6970339347808
"40213","Louisville","KY","Sherwin-Williams Floorcovering Store","3865 Produce Rd","40218",38.180567836632946,-85.69104194641112
"40213","Louisville","KY","Porter Paints","7900 Preston Hwy","40219",38.137584000000004,-85.686797
"40213","Louisville","KY","Louisville Tile Distributors","4520 Bishop Lane Louisville Ky","40218",38.193466,-85.688011
"40214","Louisville","KY","Lanning Paints","4806 Dixie Hwy","40216",38.172836,-85.825672
"40214","Louisville","KY","Porter Paints","4432 Dixie Hwy.","40216",38.1806521723793,-85.8167839050293
"40214","Louisville","KY","Ace Hardware","3348 Taylor Blvd","40215",38.200056,-85.783159
"40214","Louisville","KY","Handyman","Dixie Hwy","not_available",38.18393452748916,-85.8271081825972
"40214","Louisville","KY","Harbor Freight Tools","3943 7th Street Rd","40216",38.192848205566406,-85.805908203125
"40214","Louisville","KY","Harbor Freight Tools","not_available","40216",38.192311504230695,-85.80545642174053
"40214","Louisville","KY","Higdon's Paint & Ladder Inc","3819 Dixie Hwy","40216",38.195801,-85.805634
"40216","Louisville","KY","The Home Depot","6840 Dixie Hwy","40258",38.1518427,-85.8388682
"40216","Louisville","KY","Lowe's","6651 Dixie Highway","40258",38.1536732,-85.8327471
"40216","Louisville","KY","minuteKEY","6651 Dixie Hwy","40258",38.153690000000005,-85.83273299999999
"40216","Louisville","KY","Sherwin-Williams Paint Store","5232 Dixie Hwy","40216",38.162328,-85.833627
"40216","Louisville","KY","Cane Run Hardware","4118 Cane Run Rd","40216",38.203943,-85.83193
"40216","Louisville","KY","minuteKEY","7100 Raggard Rd","40216",38.171440000000004,-85.870267
"40218","Louisville","KY","Hikes Point Paint & Wallpaper","4117 Browns Ln","40220",38.221,-85.624706
"40218","Louisville","KY","84 Lumber","4100 Progress Blvd","40218",38.189229,-85.654197
"40218","Louisville","KY","Ferguson Plumbing Supply","4700 Poplar Level Rd","40213",38.177572,-85.69130600000001
"40218","Louisville","KY","Porter Paints","2931 Richland Ave","40220",38.220985412597656,-85.6260757446289
"40218","Louisville","KY","Vallen","4820 Poplar Place Dr","40213",38.179581,-85.695391
"40218","Louisville","KY","Sherwin-Williams Commercial Paint Store","4702A Poplar Level Rd","40213",38.1771268549417,-85.68990468978882
"40218","Louisville","KY","Sherwin-Williams Paint Store","4107 Browns Ln","40220",38.220727000000004,-85.625127
"40218","Louisville","KY","Kens API","3304 Gilmore Industrial Blvd","40213",38.17964,-85.699131
"40218","Louisville","KY","HD Supply White Cap","4609 Poplar Level Rd","40213",38.182496,-85.69619200000001
"40218","Louisville","KY","Foundation Building Materials","4621 E. Indian Trail","40213",38.18057633,-85.6762041
"40219","Louisville","KY","Builders Surplus","5600 Poplar Level Rd","40228",38.158575,-85.6574
"40219","Louisville","KY","Primax Compozit Home Systems","5611 Fern Valley Rd","40228",38.1564794,-85.6564309
"40219","Louisville","KY","The Mower Shop","7400 Preston Hwy","40219",38.144517,-85.690611
"40219","Louisville","KY","river city wholesale","6705 Preston Hwy","40219",38.154839,-85.694363
"40219","Louisville","KY","Rapid Industries","4003 Oaklawn Drive","40219",38.1483009500375,-85.6862085109672
"40220","Louisville","KY","The Home Depot","2600 S Hurstbourne Pkwy","40220",38.21404988354839,-85.59590935707092
"40220","Louisville","KY","Meiners J-town Hardware","10513 Watterson Trl","40299",38.194857,-85.565248
"40220","Louisville","KY","Lumber Liquidators, Inc.","2223 Plantside Dr","40299",38.21195319293728,-85.56827987849795
"40220","Louisville","KY","Atlas Copco Rental","2440 Holloway Rd","40299",38.209485056457225,-85.55532217025757
"40220","Louisville","KY","eckart electric supply","not_available","40299",38.211227,-85.568962
"40220","Louisville","KY","Richelieu Hardware","2701 Grassland Dr","40299",38.2051897268789,-85.56395083665848
"40220","Louisville","KY","Dieruf Hardware","9608 Taylorsville Rd","40299",38.204386,-85.57896
"40220","Louisville","KY","minuteKEY","1915 S Hurstbourne Pkwy","40220",38.21666717529297,-85.58351135253906
"40220","Louisville","KY","Lee Brick & Block","Old Henry Rd","not_available",38.203993958541695,-85.59614032419005
"40220","Louisville","KY","Storm Guard Roofing & Construction","2540 Ridgemar Ct","40299",38.206487,-85.558514
"40220","Louisville","KY","derby city applianc","not_available","40220",38.21295166015625,-85.59536743164062
"40220","Louisville","KY","Plumbers Supply","2102 Production Dr","40299",38.217899322509766,-85.56246185302734
"40220","Louisville","KY","Jtown Hardware And Rental","10513 Watterson Trail","40299",38.194854736328125,-85.56526184082031
"40220","Louisville","KY","BLEDSOE & ASSOCIATES, INC.","10121 Production Ct","40299",38.22088199534035,-85.56552125396729
"40222","Louisville","KY","Lowe's","4930 Norton Healthcare Boulevard","40241",38.3125148,-85.5754326
"40222","Louisville","KY","Porter Paints","117 S Hurstbourne Pkwy","40222",38.24485,-85.57633
"40222","Louisville","KY","minuteKEY","4930 Norton Healthcare Blvd","40241",38.312584,-85.575561
"40222","Louisville","KY","Sherwin-Williams Paint Store","9210 Westport Rd","40242",38.28390884399414,-85.58049774169922
"40223","Louisville","KY","Lowe's","501 So Hurstbourne Pkwy","40222",38.2401199,-85.5742481
"40223","Louisville","KY","Louisville Outdoor Turf Products","13005 Middletown Industrial Blvd Ste E","40223",38.2510451,-85.5123837
"40223","Louisville","KY","Sherwin-Williams Paint Store","13122 Shelbyville Rd","40243",38.242221,-85.51276999999999
"40223","Louisville","KY","minuteKEY","501 S Hurstbourne Pkwy","40222",38.23997,-85.57454
"40223","Louisville","KY","Dages Hikes Point Paint & Wallpaper East","9810 Shelbyville Rd","40223",38.245563,-85.573666
"40223","Louisville","KY","Lanning Paints","11608 Shelbyville Rd","40243",38.24578,-85.54107
"40223","Louisville","KY","CourterCo (Division of Richelieu America LTD)","2510 Stanley Gault Pkwy","40223",38.27486038208008,-85.51699829101562
"40223","Louisville","KY","Kenny Outdoor Solutions","not_available","40223",38.266567,-85.514548
"40223","Louisville","KY","Willis Klein Showrooms","11530 Shelbyville Rd","40243",38.24546831560749,-85.54216359459456
"40228","Louisville","KY","Highview Hardware","7400 Fegenbush Ln","40228",38.142493,-85.623633
"40228","Louisville","KY","Surya mandiri","Taman kopo indah 2 ruko 2A no 56","40228",38.1352484,-85.6280697
"40229","Louisville","KY","Lowe's","9800 Preston Crossing Blvd","40229",38.1060571,-85.6718582
"40229","Louisville","KY","Menards","9625 Preston Crossing Blvd","40229",38.1063232421875,-85.66899108886719
"40229","Louisville","KY","Harbor Freight Tools","not_available","40229",38.085523,-85.666259
"40229","Louisville","KY","Tractor Supply Co.","11250 Preston Hwy","40229",38.085567,-85.669945
"40241","Louisville","KY","The Home Depot","10301 Westport Rd","40241",38.2938257,-85.5615712
"40245","Louisville","KY","Kitchen Tune-Up","427 Timberlake Trl Ste C","40245",38.2486004,-85.4949309
"40272","Louisville","KY","Bluegrass Lawn And Garden","12711 Dixie Hwy","40272",38.0705592,-85.8844055
"40272","Louisville","KY","Porter Paints","5425 Valley Station Rd","40272",38.107444,-85.865045
"40272","Louisville","KY","84 lumber","10005 dixie hwy","40272",38.110554,-85.863292
"40272","Louisville","KY","West Point Lumber & Hardware","not_available","40272",38.06120711219372,-85.884088262568
"40272","Louisville","KY","Tractor Supply Co.","10713 Dixie Hwy Ste 101","40272",38.097343,-85.870335
"40272","Louisville","KY","minuteKEY","10445 Dixie Hwy","40272",38.10259246826172,-85.86629486083984
"40291","Louisville","KY","Porter Paints","5727 Bardstown Rd.","40291",38.163165,-85.59471500000001
"40291","Louisville","KY","Sherwin-Williams Paint Store","8119 Bardstown Rd","40291",38.12924575805664,-85.57542419433594
"40299","Louisville","KY","Sherwin-Williams Paint Store","4610 S Hurstbourne Pkwy","40299",38.18488148485376,-85.60713708400726
"40299","Louisville","KY","Atlas Copco Tools and Assembly Systems Service Center","1720 Bluegrass Pkwy","40299",38.219149793097934,-85.54499418650818
"40312","Clay City","KY","Billings Drug & True Value","163 E College Ave","40380",37.84551689,-83.85767672
"40312","Clay City","KY","Allen's Hardware","30 Black Creek Rd","40312",37.865418,-83.933835
"40312","Clay City","KY","Rogers Hardware & Building Supply","176 E College Ave","40380",37.845771,-83.854967
"40313","Clearfield","KY","Big 4 Lumber Inc","1470 Flemingsburg Rd","40351",38.1792719,-83.459046
"40324","Georgetown","KY","Lowe's","109 Magnolia Drive","40324",38.2280883,-84.5324249
"40324","Georgetown","KY","Tractor Supply Co.","305 Connector Rd","40324",38.224846,-84.534275
"40324","Georgetown","KY","Sherwin-Williams Paint Store","105 Finley Dr","40324",38.213448,-84.53856999999999
"40324","Georgetown","KY","Mosess Inc.","511 N Broadway St","40324",38.21681849154447,-84.56196495700834
"40324","Georgetown","KY","84 Lumber","Frazier Ct, Georgetown, KY 40324","40324",38.234310150146484,-84.5350570678711
"40324","Georgetown","KY","Ferguson Plumbing Supply","101 Frazier Ct Ste C","40324",38.233895,-84.535831
"40324","Georgetown","KY","Farrell-Calhoun Paint","401 Outlet Center Dr Ste 130","40324",38.2169265,-84.5361328
"40324","Georgetown","KY","CED Georgetown","155 W Main St","40324",38.210335,-84.56111999999999
"40324","Georgetown","KY","Georgetown Hardware","not_available","40324",38.210139099091414,-84.54873201193381
"40324","Georgetown","KY","minuteKEY","109 Magnolia Dr","40324",38.227869,-84.532252
"40324","Georgetown","KY","M&P Mower","150 Edwards Ave","40324",38.216678619384766,-84.53697967529297
"40324","Georgetown","KY","Kentucky Lighting and Supply Georgetown","122 Frazier Ct","40324",38.234676,-84.537361
"40330","Harrodsburg","KY","Jeff Rogers Septic Tank Cleaning","235 Calvary Rd","40330",37.790897369384766,-84.9107666015625
"40330","Harrodsburg","KY","Husqvarna US","1668 Louisville Rd","40330",37.80512237548828,-84.8485107421875
"40330","Harrodsburg","KY","Southern Hardware","Greenville St.","40330",37.761810302734375,-84.84252166748047
"40330","Harrodsburg","KY","Kidd Glass","not_available","40330",37.710374,-84.810613
"40330","Harrodsburg","KY","minuteKEY","591 Joseph Dr","40330",37.7426106,-84.8445315
"40336","Irvine","KY","Meades Do-It-Center","218 River Dr.","40336",37.6957385,-83.9688329
"40336","Irvine","KY","D & J True Value Hardware","20 S Irvine Rd","40336",37.6954155,-83.97754669
"40336","Irvine","KY","Bryant Paint Store","not_available","40472",37.68559833712794,-83.95409706011365
"40342","Lawrenceburg","KY","Edmondson Supply","not_available","40383",38.03934671112453,-84.88576225653424
"40342","Lawrenceburg","KY","Corn's Metal Sales","Versailles Road","not_available",38.044982499627615,-84.8664002712243
"40342","Lawrenceburg","KY","Griffith's hardware","not_available","40342",38.02049512650147,-84.91058983466965
"40342","Lawrenceburg","KY","Ace Hardware","1106 S US 127","40342",38.0176999,-84.906999
"40342","Lawrenceburg","KY","Tractor Supply Co.","230 West Park","40342",38.01972961425781,-84.9073486328125
"40342","Lawrenceburg","KY","Blasters Tool and Supply Company","1100 Dylan Dr","40342",38.0723564839031,-84.9194884300232
"40351","Morehead","KY","Tractor Supply Co.","250 Pinecrest Dr","40351",38.188986,-83.481681
"40351","Morehead","KY","Lowe's","100 Kroger Center","40351",38.191842,-83.482294
"40351","Morehead","KY","Mason's Small Engine Repair","180 Valley Rd","40351",38.2326818,-83.5040075
"40351","Morehead","KY","Hinton Mills","not_available","41081",38.187258306395094,-83.44070040878324
"40351","Morehead","KY","Big-4","not_available","40351",38.185539,-83.471756
"40351","Morehead","KY","Sherwin-Williams Paint Store","256 Kroger Ctr","40351",38.19281005859375,-83.48355865478516
"40351","Morehead","KY","Husqvarna US","2078 Webb Rdg","41164",38.34123611450195,-83.23175048828125
"40353","Mount Sterling","KY","Lowe's","550 Indian Mound Drive","40353",38.0681758,-83.9525027
"40353","Mount Sterling","KY","Layton's","440 N Maysville St","40353",38.065417,-83.945201
"40353","Mount Sterling","KY","Tractor Supply Co.","804 Indian Mound Dr","40353",38.063023,-83.953502
"40353","Mount Sterling","KY","minuteKEY","499 Indian Mound Dr","40353",38.0690917,-83.957909
"40353","Mount Sterling","KY","Ag-Wood","not_available","40353",38.035867,-83.95121
"40356","Nicholasville","KY","Lowe's","4055 Nichols Park Drive","40503",37.979624,-84.5338903
"40356","Nicholasville","KY","Tractor Supply Co.","1015 North Main","40356",37.89999446,-84.5664903
"40356","Nicholasville","KY","Lowe's","1421 Keene Road","40356",37.899872,-84.5857544
"40356","Nicholasville","KY","Sherwin-Williams Paint Store","229 E Brannon Rd","40356",37.956329345703125,-84.53595733642578
"40356","Nicholasville","KY","Lockmasters","2101 John C Watts Dr","40356",37.862494,-84.577764
"40356","Nicholasville","KY","Fastenal","216 Wilson Dr","40356",37.889888763427734,-84.5896987915039
"40356","Nicholasville","KY","Sears","4228 Saron Dr","40515",37.9671837,-84.5008543
"40356","Nicholasville","KY","Harbor Freight Nicholasville","not_available","40356",37.89608,-84.56518
"40356","Nicholasville","KY","Witt Wesley B Inc","3320 Clays Mill Rd Ste 112","40503",37.997432708740234,-84.5472183227539
"40356","Nicholasville","KY","minuteKEY","4051 Nicholasville Rd","40503",37.978878021240234,-84.53120422363281
"40356","Nicholasville","KY","O'Hair Sod Company","300 Windom Ln","40356",37.95380401611328,-84.56320190429688
"40356","Nicholasville","KY","Sherwin-Williams Paint Store","212 Blueberry Ln","40356",37.89143371582031,-84.56776428222656
"40356","Nicholasville","KY","minuteKEY","4055 Nichols Park Dr","40503",37.979934,-84.53435
"40356","Nicholasville","KY","Farrell-Calhoun Paint","180 Moore Dr Ste A","40503",38.000112722854524,-84.52432668289009
"40359","Owenton","KY","Kelly Bros Home & Design Center","3885 US-127","40359",38.58345031738281,-84.82328033447266
"40360","Owingsville","KY","Bath County Ace Hardware","88 Water St","40360",38.146507,-83.760683
"40361","Paris","KY","Eads Hardware","301 Commerce Dr","40361",38.218177795410156,-84.2741470336914
"40361","Paris","KY","Tractor Supply Co.","2040 Bypass Rd","40361",38.204974,-84.27326
"40361","Paris","KY","Eads Hardware","203 Commerce Dr","40361",38.217877551,-84.2755685714
"40383","Versailles","KY","Sherwin-Williams Paint Store","99 Crossfield Ct","40383",38.05366134643555,-84.7165298461914
"40383","Versailles","KY","Primax Compozit Home Systems","240 Crossfield Dr","40383",38.05533265,-84.71291913
"40383","Versailles","KY","Main Street Hardware Co","221 N Main St","40383",38.0542659,-84.730146
"40391","Winchester","KY","Lowe's","1221 By-Pass Road","40391",37.997606,-84.217026
"40391","Winchester","KY","Cantrell Lighting & Supply","245 N Main St","40391",37.998497,-84.173986
"40391","Winchester","KY","Humble Plumbing Co","120 Wall St","40391",37.991443,-84.178917
"40391","Winchester","KY","Red River Hardwoods","4793 Rockwell Rd","40391",38.028126,-84.24704
"40391","Winchester","KY","D & S Hardware","7 N Main St","40391",37.99385368247223,-84.17662986263502
"40391","Winchester","KY","Sherwin-Williams Paint Store","20 Winchester Plz","40391",38.00926,-84.211415
"40391","Winchester","KY","Bypass Rental","845 Bypass Rd","40391",38.002838134765625,-84.21331024169922
"40391","Winchester","KY","Michael T. Jones amp Company, LLC","5618 Winchester Rd","40509",38.02793,-84.317362
"40391","Winchester","KY","LAY MOR PAVING INC","4618 Old Boonesboro Rd","40391",37.94552230834961,-84.22425079345703
"40391","Winchester","KY","Tractor Supply Co.","1500 Bypass Rd","40391",37.995919,-84.213875
"40403","Berea","KY","Tractor Supply Co.","304 Cooper Dr","40403",37.598104,-84.320723
"40403","Berea","KY","Berea Ace Hardware","292 Mini Mall Dr","40403",37.58812333,-84.28572433
"40403","Berea","KY","Hogg Enterprises","Richmond Rd","40403",37.604008,-84.282685
"40403","Berea","KY","Montgomery Farm & Garden","1762 Big Hill Rd","40403",37.563915631274774,-84.25981783087686
"40403","Berea","KY","Ace Rental Center","not_available","40403",37.542361,-84.312724
"40409","Brodhead","KY","Mark's True Value Hardware","226 West St","40409",37.40007019042969,-84.42562866210938
"40422","Danville","KY","Lowe's","51 May Blvd","40422",37.6148382,-84.7772381
"40422","Danville","KY","Ace Hardware & Appliance","975 Hustonville Rd","40422",37.630366,-84.774856
"40422","Danville","KY","Southern States - 75672","1244 Lebanon Rd","40422",37.63967514038086,-84.79086303710938
"40422","Danville","KY","84 Lumber","not_available","40422",37.66146778754926,-84.79316189149017
"40422","Danville","KY","Sherwin-Williams Paint Store","111 N 4th St","40422",37.646443,-84.774327
"40422","Danville","KY","Sears","804 South 4th Street","40422",37.6324176,-84.7743515
"40422","Danville","KY","minuteKEY","100 Walton Ave","40422",37.614906311035156,-84.77213287353516
"40422","Danville","KY","Ferguson Plumbing Supply","1050 Stanford Ave","40422",37.63661575317383,-84.7570571899414
"40422","Danville","KY","Tractor Supply Co.","2900 South Danville Byp Ste 100","40422",37.618152,-84.778486
"40437","Hustonville","KY","Bluegrass Feed & Suply","150 Jeffries Ln","40437",37.502479553222656,-84.81014251708984
"40444","Lancaster","KY","Lancaster Metal Roof","Lexington road","40444",37.672818,-84.641776
"40456","Mount Vernon","KY","Lumber King","not_available","40456",37.34678967981222,-84.32055012745609
"40456","Mount Vernon","KY","Ace Hardware","315A US Highway 150","40456",37.35206985473633,-84.3458023071289
"40475","Richmond","KY","Lowe's","814 Eastern Bypass","40475",37.7286262,-84.2859039
"40475","Richmond","KY","Sherwin-Williams Paint Store","204 Wayne Dr","40475",37.735081,-84.313537
"40475","Richmond","KY","Harbor Freight","not_available","40475",37.733477,-84.281958
"40475","Richmond","KY","Ace Hardware","670 University Shopping Ctr","40475",37.73579,-84.3053
"40475","Richmond","KY","Tractor Supply Co.","856 Eastern Byp","40475",37.73093,-84.276217
"40475","Richmond","KY","84 lumber","Boggs Ln.","40475",37.732869627732455,-84.28707409162632
"40475","Richmond","KY","Ferguson Plumbing Supply","233 N Keeneland Dr","40475",37.780542,-84.318955
"40475","Richmond","KY","Southern States - 78752","1607 E Main St","40475",37.74258041381836,-84.27493286132812
"40475","Richmond","KY","Jim's Lock & Key","211 Geri Ln","40475",37.73756470681845,-84.31497552658095
"40475","Richmond","KY","CED Richmond","234 N Keeneland Dr","40475",37.78040313720703,-84.3200912475586
"40489","Waynesburg","KY","McDonald Hardware","not_available","42567",37.278411,-84.658556
"40502","Lexington","KY","The Home Depot","2397 Richmond Rd","40502",38.01558096902629,-84.45857763290405
"40502","Lexington","KY","Equipment Depot","321 St. George Dr","40502",38.02606165125149,-84.45717082188821
"40502","Lexington","KY","Farrell-Calhoun Paint","921 National Ave.","40502",38.03921386823081,-84.4757422153616
"40502","Lexington","KY","Willis Klein Showrooms","245 Walton Ave","40502",38.04044083657039,-84.48059248026641
"40502","Lexington","KY","Foundation Building Materials","1115 Delaware Avenue","40505",38.0380807,-84.46943219
"40502","Lexington","KY","liz douglas designs","921 National Ave","40502",38.04114,-84.46981
"40503","Lexington","KY","The Home Depot","2021 Harrodsburg Rd","40504",38.0269989,-84.5376302
"40503","Lexington","KY","Grott The Loc Doc","2519 Regency Rd #105","40503",38.00288009643555,-84.52506256103516
"40503","Lexington","KY","Sherwin-Williams Paint Store","2551 Regency Rd","40503",38.001691963173684,-84.52518224716187
"40503","Lexington","KY","Do It Best Hardware","not_available","40513",38.003989,-84.570281
"40504","Lexington","KY","Landscaper's Corner","1305 Old Frankfort Pike","40504",38.0578477,-84.524428
"40504","Lexington","KY","Valley Interior Products","725 Allenridge Point","40510",38.06449136,-84.55939219
"40504","Lexington","KY","Bluegrass Mulch LLC","1158 Manchester St Ste C","40508",38.055124,-84.51664099999999
"40504","Lexington","KY","2","not_available","40504",38.038759,-84.55339
"40504","Lexington","KY","Pinkston's","Leestown Rd","40511",38.063686,-84.52115500000001
"40504","Lexington","KY","Salvage Building Materials","not_available","40508",38.047274175595,-84.5122519109533
"40505","Lexington","KY","Harbor Freight Tools","1301 Winchester Rd Ste 213","40505",38.04480381112542,-84.45840316669171
"40505","Lexington","KY","Lowe's","2300 Grey Lag Way","40509",38.0395045,-84.42271
"40505","Lexington","KY","Jiffy Fastening Systems, Inc.","2433 Fortune Dr","40509",38.034009429122854,-84.44771337509155
"40505","Lexington","KY","Lexington Outdoor Power Equipment","1111 Winchester Rd","40505",38.042744,-84.46382
"40505","Lexington","KY","Ferguson Waterworks","1209 Industry Rd","40505",38.048621999999995,-84.45884699999999
"40505","Lexington","KY","ProSource of Lexington","1183 Brock McVey Dr Ste C","40509",38.032633000000004,-84.44800500000001
"40505","Lexington","KY","Richards Electric Supply Co","996 Contract St","40505",38.05111570796545,-84.46306228637695
"40505","Lexington","KY","Pro Locksmith Lexington","694 E New Circle Rd #205","40505",38.048030853271484,-84.45455932617188
"40505","Lexington","KY","Congleton Lumber","Industry","40505",38.04776,-84.455999
"40505","Lexington","KY","Kwik-Set Fasteners","1151 Commercial Dr","40505",38.047401428222656,-84.45789337158203
"40505","Lexington","KY","Eckart Supply","667 E New Circle Rd","40505",38.049899,-84.454185
"40505","Lexington","KY","CED Lexington","1720 Fortune Ct","40509",38.04005058606227,-84.44889939211912
"40505","Lexington","KY","Ced lexington","1720 Fortune Ct #140","40509",38.03974533081055,-84.44916534423828
"40505","Lexington","KY","Sherwin-Williams Floorcovering Store","2140 Capstone Dr","40511",38.032633000000004,-84.44800500000001
"40505","Lexington","KY","Southland Flooring Supply","100 Brock McVey Drive","40509",38.03336486869706,-84.4518145073393
"40505","Lexington","KY","Lonnie's Tractor Sales","815 Contract St","40505",38.04859799916471,-84.46761131286621
"40505","Lexington","KY","Swh","not_available","40505",38.04886198583555,-84.45553088386656
"40505","Lexington","KY","Tribles","not_available","40509",38.040151,-84.449284
"40505","Lexington","KY","Sherwin-Williams Commercial Paint Store","915 Murray Dr","40505",38.045379638671875,-84.45574951171875
"40507","Lexington","KY","Porter Paints","353 W Main St","not_available",38.04197,-84.492604
"40508","Lexington","KY","Lexmark International - Building 001 - basement","not_available","40511",38.070108177725565,-84.49407500568871
"40509","Lexington","KY","Louisville Tile Distributors","2495 Palumbo Dr","40509",38.017298,-84.444073
"40509","Lexington","KY","Lowe's","200 Old Todds Road","40509",38.0094135,-84.451264
"40509","Lexington","KY","84 Lumber","2345 Palumbo Dr","40509",38.023109436035156,-84.45174407958984
"40509","Lexington","KY","Sherwin-Williams Paint Store","2909 Richmond Rd","40509",38.005924,-84.447525
"40509","Lexington","KY","minuteKEY","200 Old Todds Rd","40509",38.009722,-84.450475
"40509","Lexington","KY","Sherwin-Williams Paint Store","1895 Vendor Way","40509",38.02157576,-84.42191519
"40510","Lexington","KY","Irby","601 Bizzell Dr","40510",38.067622,-84.541567
"40511","Lexington","KY","Grainger","1351 Georgetown Rd","40511",38.07900585670019,-84.50857498907745
"40511","Lexington","KY","CED Tripplecrown","1105 Nandino Blvd","40511",38.078396999999995,-84.505911
"40511","Lexington","KY","Sherwin-Williams Paint Store","130 Towne Center Dr","40511",38.06732,-84.52985799999999
"40601","Frankfort","KY","Lowe's","350 Leonardwood Drive","40601",38.163032,-84.899001
"40601","Frankfort","KY","Tractor Supply Co.","111 Arrowhead Ct","40601",38.183655,-84.818985
"40601","Frankfort","KY","minuteKEY","301 Leonardwood Rd","40601",38.160396575927734,-84.89847564697266
"40601","Frankfort","KY","Farrell-Calhoun Paint","507 Eastwood Shopping Ctr","40601",38.20170126198349,-84.8317828509783
"40601","Frankfort","KY","Lyons Lumber Do It Best","555 Holmes St","40601",38.205291748046875,-84.85794830322266
"40601","Frankfort","KY","Lyons Do It Best Hardware","106 Brighton Park Blvd","40601",38.1975444,-84.8286585
"40601","Frankfort","KY","Jackson Construction","not_available","40601",38.146541,-84.87592
"40601","Frankfort","KY","Southern States","1211-1237 Wilkinson Blvd","40601",38.217721000000004,-84.863437
"40601","Frankfort","KY","Sherwin-Williams Paint Store","640 Versailles Rd","40601",38.19008,-84.822004
"40701","Corbin","KY","Lowe's","777 West Cumberland Gap Pky","40701",36.9717218,-84.0997484
"40701","Corbin","KY","Bryant True Value Of Corbin","1405 S Main St","40701",36.934415,-84.092492
"40701","Corbin","KY","Husqvarna US","PO Box 1187","40702",36.951480865478516,-84.08699798583984
"40701","Corbin","KY","Brock Mcvey Co","71 E Peachtree St","40701",36.9616584777832,-84.07829284667969
"40701","Corbin","KY","Sherwin-Williams Paint Store","1220 Master St","40701",36.954429626464844,-84.08049011230469
"40701","Corbin","KY","Southern States","not_available","40701",36.953772,-84.08181
"40701","Corbin","KY","minuteKEY","60 S Stewart Rd","40701",36.97256851196289,-84.10250091552734
"40741","London","KY","Lowe's","136 Keavy Road","40744",37.1044854,-84.0867147
"40741","London","KY","Ormsby True Value Hardware","1520 S Main","40741",37.11270837,-84.07512909
"40741","London","KY","Asphalt Concrete Professionals","400 Royal Dr","40744",37.10371017456055,-84.10601043701172
"40741","London","KY","84 Lumber","not_available","40741",37.142560023396406,-84.06720469714186
"40741","London","KY","Tractor Supply Co.","100 London Shopping Ctr","40741",37.111706,-84.09045
"40741","London","KY","MARK'S TRUE VALUE HARDWARE","1807 N Main St","40741",37.139007568359375,-84.10038757324219
"40741","London","KY","CED London","1135 E. 192 ByPass","40741",37.111656188964844,-84.06755828857422
"40741","London","KY","corbin surplus","not_available","40744",37.09587097167969,-84.06681823730469
"40741","London","KY","Foundation Building Materials","895 Morentown Rd","40741",37.15349463,-84.09527902
"40769","Williamsburg","KY","Tractor Supply Co.","159 Penny Ln","40769",36.72534607911956,-84.16953215938567
"40769","Williamsburg","KY","Bryant & Son True Value Hardware","372 S 5th St","40769",36.739509999999996,-84.160558
"40806","Baxter","KY","Kentucky  Mine Supply Company","213 River St","40831",36.8439461,-83.3201505
"40829","Grays Knob","KY","Sears","168 Village Center Road, Suite 138","40831",36.8140627,-83.3170039
"40829","Grays Knob","KY","Tractor Supply Co.","10 Comprehensive Dr","40831",36.80815124511719,-83.3107681274414
"40902","Arjay","KY","Husqvarna US","ROUTE 66","40902",36.8385124206543,-83.62519073486328
"40906","Barbourville","KY","Tractor Supply Co.","1575 South Us Hwy 25e","40906",36.852073669433594,-83.86040496826172
"40906","Barbourville","KY","Pope Lumber","not_available","40906",36.859447,-83.876106
"40906","Barbourville","KY","R & S Vrty & True Value Hardware","100 Manchester Shopping Center","40962",36.88352,-83.88368
"40962","Manchester","KY","h7","not_available","40962",37.155477,-83.759814
"40962","Manchester","KY","Clay Building Supply","1621 S Highway 421","40962",37.13682174682617,-83.76170349121094
"40965","Middlesboro","KY","minuteKEY","US Hwy. 441 Hwy 25E","40965",36.6296999,-83.7160396
"40965","Middlesboro","KY","Sherwin-Williams Paint Store","1309 Cumberland Ave","40965",36.60784149169922,-83.7049331665039
"40965","Middlesboro","KY","Tractor Supply Co.","2030 Us Hwy 25 East","40965",36.632456,-83.702259
"40965","Middlesboro","KY","Sears","2801 US HIGHWAY 25E, Ste 400","40965",36.642536020535275,-83.70290799999992
"41001","Alexandria","KY","Tractor Supply Co.","7910 Alexandria Pike","41001",38.972202,-84.389676
"41001","Alexandria","KY","Sherwin-Williams Paint Store","180 Plaza Dr","41076",39.003658294677734,-84.42571258544922
"41001","Alexandria","KY","Southern States - 72712","2 S Jefferson St","41001",38.958444,-84.388375
"41004","Brooksville","KY","Sova's","not_available","41004",38.659819,-84.10536
"41005","Burlington","KY","Lowe's","970 West Eads Parkway","47025",39.0837473,-84.8787217
"41005","Burlington","KY","Tractor Supply Co.","401 West Eads Pkwy Ste 120","47025",39.10537830654779,-84.8514924198389
"41005","Burlington","KY","Ace Hardware Hebron","3545 N Bend Rd","41048",39.0561999,-84.704599
"41005","Burlington","KY","Valley Supply","1323 State Road 262","47040",38.9530182737052,-84.867545382292
"41005","Burlington","KY","Fastenal","1818 Petersburg Rd","41048",39.06638,-84.69613000000001
"41005","Burlington","KY","Sayler Park Ace Hardware","6571 Gracely Dr","45233",39.112087,-84.69246
"41005","Burlington","KY","Tri-State Battery Supply","48 Doughty Rd","47025",39.095814,-84.866787
"41005","Burlington","KY","A-Cress Heating  Cooling LLC","6163 E Bend Rd","41005",39.022010803222656,-84.72423553466797
"41005","Burlington","KY","Orscheln","Reese Dr","47025",39.08526695127219,-84.87528572588062
"41007","California","KY","Metzger Hardware","400 Front St","45157",38.953052,-84.28463
"41008","Carrollton","KY","Tractor Supply Co.","324 Floyd Dr","41008",38.65974807739258,-85.1301498413086
"41008","Carrollton","KY","craigs do it yourself center","not_available","41008",38.66592449864845,-85.14244432835527
"41011","Covington","KY","Small's Hardware","not_available","41017",39.047739305616986,-84.55319958429318
"41011","Covington","KY","Ideal Supplies, Inc.","512 Adela Ave","41016",39.088316,-84.55029
"41011","Covington","KY","B & E Decorating Center","3712 Winston Ave","41015",39.04698474229581,-84.50335785155528
"41011","Covington","KY","Kelly Bros","not_available","41015",39.04542745876907,-84.51165788357262
"41011","Covington","KY","Porter Paints","1987 Dixie Hwy","41011",39.05524826049805,-84.54795837402344
"41011","Covington","KY","Kelly Bros Home & Design Center","3502 Latonia Ave","41015",39.04565,-84.51137
"41011","Covington","KY","Mueller Distributers","4301 Boron Dr","41015",39.042401,-84.512191
"41011","Covington","KY","Klingenberg's Hardware","West Pike St","not_available",39.083559,-84.51079200000001
"41015","Latonia","KY","Lowe's","2369 Alexandria Pike","41076",39.0392567,-84.4470331
"41015","Latonia","KY","PPG Porter Paint","Alexandria Pike","41076",39.020245316828436,-84.43882327839239
"41015","Latonia","KY","NKU Scene Shop","not_available","41076",39.031446,-84.463625
"41015","Latonia","KY","Sparks Hardware","5 Beacon Dr","41076",39.015252480088584,-84.47726567854312
"41015","Latonia","KY","Wilder Winlectric Company","7 Beacon Dr","41076",39.016477,-84.480423
"41015","Latonia","KY","Foundation Building Materials","2048 Rolling Hills Drive","41017",39.0143775,-84.5252734
"41016","Covington","KY","Cincinnati Plating & Repair Co","330 Pike St","41011",39.08160400390625,-84.5647201538086
"41017","Ft Mitchell","KY","The Home Depot","500 Clock Tower Way","41017",39.05367219821052,-84.57091391086573
"41017","Ft Mitchell","KY","Sherwin-Williams Paint Store","6843 Dixie Hwy","41042",39.001681,-84.62261
"41017","Ft Mitchell","KY","Crescent Springs Hardware","Anderson Rd","not_available",39.050959000000006,-84.578636
"41017","Ft Mitchell","KY","Primesource","8170 dixie hwy","41042",38.974179,-84.614407
"41017","Ft Mitchell","KY","Dorning Supply Co.","7350 Industrial Rd","41042",38.980308532714844,-84.62128448486328
"41017","Ft Mitchell","KY","Arts Tool Rental","not_available","41018",39.0239334442369,-84.59192460215597
"41017","Ft Mitchell","KY","Sherwin-Williams Paint Store","2412 Sarah Ln","41017",39.0525829,-84.5758992
"41017","Ft Mitchell","KY","Computer Mania","not_available","41042",39.005589,-84.617722
"41017","Ft Mitchell","KY","Specialized Plumbing Parts Supply","921 Dudley Pike","41017",39.0242478,-84.53867249999999
"41018","Erlanger","KY","The Home Depot","99 Spiral Dr","41042",39.0092552812426,-84.64155793190002
"41018","Erlanger","KY","Lowe's","4800 Houston Road","41042",39.0201132,-84.6249709
"41018","Erlanger","KY","Sears","51 Spiral Drive","41042",39.0123174,-84.641532
"41018","Erlanger","KY","Equipment Depot","1342 Jamike Ave","41018",39.03942173914975,-84.62769091129309
"41018","Erlanger","KY","minuteKEY","4800 Houston Rd","41042",39.019898,-84.62442
"41018","Erlanger","KY","Sherwin-Williams Commercial Paint Store","1390 Donaldson Hwy","41018",39.03931965708094,-84.63420867919922
"41018","Erlanger","KY","City Electric Supply Erlanger","1335 Donaldson Hwy Unit 8A","41018",39.036947521682166,-84.6357643604278
"41031","Cynthiana","KY","Van Hook True Value Hardware","121 E Pike St","41031",38.38900121,-84.29664576
"41031","Cynthiana","KY","Tractor Supply Co.","994 Us Hwy 27 South Ste 1","41031",38.378574,-84.311646
"41035","Dry Ridge","KY","Kelly Bros Home & Design Center","85 S Main St","41035",38.676783,-84.583995
"41035","Dry Ridge","KY","Tractor Supply Co.","1418 North Main St","41097",38.66273,-84.575264
"41035","Dry Ridge","KY","John Deere (limestone)","not_available","41035",38.719047227400935,-84.58521991479624
"41035","Dry Ridge","KY","minuteKEY","20 Ferguson Blvd","41035",38.6789389,-84.5972545
"41040","Falmouth","KY","Ace Hardware","1124 Ridgeway Ave","41040",38.678712,-84.342773
"41040","Falmouth","KY","Southern States","77-411 Ridgeway Ave","41040",38.66756200790405,-84.33350622653961
"41041","Flemingsburg","KY","Steve's Ace Hardware","135 Windsor Rd","41041",38.4193,-83.736599
"41041","Flemingsburg","KY","Husqvarna US","936 Mt Sterling Rd","41041",38.409542083740234,-83.74126434326172
"41042","Florence","KY","Tractor Supply Co.","5895 Centennial Cir","41042",39.015233,-84.671293
"41042","Florence","KY","Ace Hardware Florence","8515 US Highway 42","41042",38.9735119,-84.661478
"41042","Florence","KY","Harbor Freight Tools","7816 Connector Dr","41042",38.989991815061735,-84.65361670250198
"41042","Florence","KY","Sherwin-Williams Paint Store","8522 US Highway 42","41042",38.97519037586634,-84.66044579128608
"41042","Florence","KY","Carter Lumber","10060 Dixie Hwy","41042",38.955802,-84.618894
"41042","Florence","KY","Fastenal","8983 Empire Connector Dr","41042",38.96691131591797,-84.63097381591797
"41042","Florence","KY","Ferguson Plumbing Supply","10110 Toebben Dr","41051",38.954429626464844,-84.61576843261719
"41042","Florence","KY","Kentucky Fluidair Inc","9003 Empire Connector Dr","41042",38.96735763549805,-84.63104248046875
"41045","Ghent","KY","Husqvarna US","10482 E State Road 156","47043",38.765106201171875,-85.01640319824219
"41048","Hebron","KY","The Home Depot","6300 Glenway Ave","45211",39.1470028,-84.6232652
"41048","Hebron","KY","Ace Hardware","not_available","45233",39.12002,-84.66046
"41051","Independence","KY","Ace Hdw of Independence","2136 Declaration Dr","41051",38.927613,-84.546022
"41051","Independence","KY","Independence Lumber","not_available","41051",38.90666217499681,-84.54464283310541
"41056","Maysville","KY","Lowe's","314 East Maple Leaf Road","41056",38.6170994,-83.7825218
"41056","Maysville","KY","Rural King","not_available","41056",38.630764,-83.795386
"41056","Maysville","KY","Tractor Supply Co.","501 Market Square Dr","41056",38.627818,-83.794947
"41056","Maysville","KY","minuteKEY","240 Wal Mart Way","41056",38.621116638183594,-83.78744506835938
"41056","Maysville","KY","Sherwin-Williams Paint Store","1205 US Highway 68","41056",38.63715824310475,-83.78910094499588
"41059","Melbourne","KY","The Home Depot","415 Crossroads Blvd","41076",39.005887,-84.4174979
"41059","Melbourne","KY","Truck Rental Center at the Home Depot","415 Cross Roads Blvd","41076",39.006501,-84.417231
"41071","Newport","KY","Sherwin-Williams Paint Store","2292 Alexandria Pike","41071",39.075775146484375,-84.47787475585938
"41071","Newport","KY","Klingenberg's Hardware","11th Street","41071",39.08177185058594,-84.4948501586914
"41071","Newport","KY","Pilot Hardware DO It Center","Grandview & Lafayette","41073",39.101293081719234,-84.47285377392627
"41071","Newport","KY","Builders Surplus","20 W 6th St","41071",39.08943,-84.494761
"41071","Newport","KY","Ace Hardware Newport","1717 Monmouth St","41071",39.083604,-84.483058
"41071","Newport","KY","Art's Rental","215 E 6th St","41071",39.092898,-84.491719
"41071","Newport","KY","Reflective Crete","2311 MacArthur Ln","41071",39.076982,-84.471687
"41071","Newport","KY","Moore's","424 Alexandria Pike","41075",39.064739785781526,-84.46125984191895
"41074","Dayton","KY","Allied Building Products Corp","1735 Riverside Dr","45202",39.117513,-84.48263299999999
"41080","Petersburg","KY","Sears","not_available","47025",39.078330993652344,-84.89127349853516
"41080","Petersburg","KY","orscheln","1100-1150 W Eads Pkwy","47025",39.082817,-84.880769
"41080","Petersburg","KY","Aurora Lumber","1055 Green Blvd","47001",39.077453999999996,-84.888646
"41092","Verona","KY","Mills Fence Co.","13200 Walton Verona Rd","41094",38.8536491394043,-84.62421417236328
"41095","Warsaw","KY","maine's hardware","not_available","41095",38.78237533569336,-84.90264129638672
"41101","Ashland","KY","Lowe's","350 Diedrich Blvd","41101",38.5009165,-82.6796448
"41101","Ashland","KY","Ferguson","258 W Central Ave","41101",38.484737396240234,-82.66349792480469
"41101","Ashland","KY","Atkins Hardware","2100-2132 29th St","41101",38.460333638599984,-82.64302947032752
"41101","Ashland","KY","minuteKEY","350 Diederich Blvd","41101",38.500701904296875,-82.67964935302734
"41101","Ashland","KY","Lute Supply","3412 Winchester Ave","41101",38.466129302978516,-82.61886596679688
"41101","Ashland","KY","minuteKEY","351 River Hill Dr","41101",38.4855476,-82.6582512
"41101","Ashland","KY","Tractor Supply Co.","445 Diederich Blvd","41101",38.503285,-82.680642
"41101","Ashland","KY","Sherwin-Williams Paint Store","845 Winchester Ave","41101",38.483028411865234,-82.64752960205078
"41101","Ashland","KY","Gibbs True Value Hardware","1000 13th St","41101",38.47387969,-82.64814556
"41102","Ashland","KY","KY Home Supply","1690-1698 Wolohan Dr","41102",38.39132995,-82.711398
"41102","Ashland","KY","AA Mobile Home Supply","900-998 Windy Heights Ln","41102",38.43266487121582,-82.69455850124359
"41129","Catlettsburg","KY","Southern States","Louisa Street","41129",38.40523184601255,-82.60062341560287
"41129","Catlettsburg","KY","Perfection Rubber & Supply Co","8365 State Route 168","41129",38.42071,-82.60569
"41129","Catlettsburg","KY","Husqvarna US","232 Connoly Rd","25530",38.36870193481445,-82.5875473022461
"41143","Grayson","KY","Tractor Supply Co.","370 State Hwy 1947","41143",38.345364,-82.94625
"41143","Grayson","KY","Jackson's Grayson Wholesale","113 Robert and Mary St","41143",38.3317848422145,-82.94356942176819
"41143","Grayson","KY","Gibbs True Value Hardware - Grayson","670 S State Hwy 7","41143",38.38350369,-82.98123436
"41143","Grayson","KY","Farmer's Hardware","125 E Main St","41143",38.332433,-82.948065
"41143","Grayson","KY","potters plumbing","not_available","41143",38.32730484008789,-82.94758605957031
"41143","Grayson","KY","Gibbs True Value Hardware","670 South St Rt Hwy 7","41143",38.321416,-82.948244
"41149","Isonville","KY","Husqvarna US","1256 Highway 706","41472",37.998191833496094,-83.07820892333984
"41169","Russell","KY","The Iron City Hardware Company","116 S Third St","45638",38.53527612,-82.68570735
"41169","Russell","KY","Sherwin-Williams Paint Store","420 S 2nd St","45638",38.53195245983299,-82.6841354370117
"41169","Russell","KY","Iron City Hardware Co","116 S 3rd St","45638",38.535316,-82.685901
"41174","South Portsmouth","KY","Bentley's  Hardware","381 Main St","41175",38.7200478,-82.96380169
"41174","South Portsmouth","KY","Riley Equipment Sales","16640 US-52","45663",38.72997283935547,-83.03870391845703
"41174","South Portsmouth","KY","Portsmouth Cement & Lime","not_available","45662",38.71008266660856,-83.06637832908474
"41175","South Shore","KY","Vandervort Ace Hardware","1532 Gallia St","45662",38.735866,-82.984886
"41175","South Shore","KY","Sherwin-Williams Paint Store","1720 11th St","45662",38.738050736429834,-82.98012256622314
"41175","South Shore","KY","minuteKEY","4490 Gallia St","45662",38.75341033935547,-82.92304992675781
"41175","South Shore","KY","Staker Sales and Service","1424 9th St","45662",38.736809,-82.985753
"41175","South Shore","KY","Tractor Supply Co.","4000 Rhodes Ave","45662",38.751195,-82.933471
"41175","South Shore","KY","Market Street Hardware","217 Market St","not_available",38.732186999999996,-83.003336
"41179","Vanceburg","KY","Howard's Hardware","3521 W KY 10","41189",38.55937576293945,-83.57642364501953
"41179","Vanceburg","KY","Ginn's Hardware","289 Clarksburg Rd","41179",38.59809112548828,-83.33092498779297
"41203","Beauty","KY","T & D Hardware","17 Hode Rd","41267",37.84487319999999,-82.417658
"41203","Beauty","KY","Husqvarna US","7849 Beauty Rd","41203",37.83883285522461,-82.4398422241211
"41203","Beauty","KY","R&J","not_available","41231",37.82955551147461,-82.40167236328125
"41222","Hagerhill","KY","Husqvarna US","1004 Broadway St","41240",37.80928039550781,-82.79560089111328
"41222","Hagerhill","KY","Sandy Valley Fasteners","not_available","41240",37.810611724853516,-82.80256652832031
"41230","Louisa","KY","Wellman Hardware","309 Main Cross St.","41230",38.1158447265625,-82.60270690917969
"41230","Louisa","KY","Tractor Supply Co.","16230 Us Hwy 23","41230",38.09572,-82.62583
"41240","Paintsville","KY","Lowe's","527 North Mayo Trail","41240",37.826216,-82.821467
"41240","Paintsville","KY","Tractor Supply Co.","980 Third St","41240",37.824064,-82.830684
"41301","Campton","KY","Campton Hardware","60 Main St","41301",37.7328139,-83.55126
"41339","Jackson","KY","Jackson Ace Hardware","726 Highway 15 N","41339",37.560272216796875,-83.39462280273438
"41339","Jackson","KY","Tractor Supply Co.","1466 Hwy 15 North","41339",37.569034,-83.39984
"41465","Salyersville","KY","Hometown True Value Hardware","258 Parkway Dr","41465",37.75035801,-83.06316376
"41465","Salyersville","KY","Husqvarna US","PO Box 586","41465",37.778419494628906,-83.1360092163086
"41472","West Liberty","KY","West Liberty True Value Hardware","1778 W Main St","41472",37.89675521850586,-83.28494262695312
"41472","West Liberty","KY","Frederick & May Lumber Co.","919 Prestonburg St","41472",37.920226,-83.245896
"41501","Pikeville","KY","Sherwin-Williams Paint Store","4223 N Mayo Trl","41501",37.52369902061407,-82.5736927986145
"41501","Pikeville","KY","Pikeville Ace Hardware","4285 N Mayo Trl","41501",37.5239309,-82.572371
"41501","Pikeville","KY","Justice Supply","not_available","41562",37.43350010686958,-82.48425197856464
"41501","Pikeville","KY","Tractor Supply Co.","164 Lee Ave","41501",37.500675,-82.534645
"41501","Pikeville","KY","Sears","170 Town Mountain Road, Suite # 1","41501",37.484493,-82.510801
"41501","Pikeville","KY","Lowe's","183 Cassady Blvd","41501",37.5033907,-82.5361355
"41503","South Williamson","KY","Westcott True Value Hardware","29276 Us Hwy 119","41503",37.66868514,-82.27777554
"41503","South Williamson","KY","Tractor Supply Co.","169 Southside Mall Rd","41503",37.6527773,-82.27268205
"41503","South Williamson","KY","Sears","275 Southside Mall Road, Suite 10B","41503",37.6547069,-82.2747099
"41503","South Williamson","KY","minuteKEY","28402 US Highway 119","41503",37.664845,-82.2731629
"41512","Ashcamp","KY","Ratliff Septic Service","45 Jc Ratliff St","41522",37.26482379999999,-82.42689530000001
"41514","Belfry","KY","Tri County Hardware","not_available","41539",37.59631109344401,-82.30598019833637
"41514","Belfry","KY","Elkhorn City True Value Hardware","185 Main St","41522",37.62041977,-82.2676658
"41522","Elkhorn City","KY","Modern True Value Hardware","263 Main St","24228",37.28805797,-82.29268666
"41522","Elkhorn City","KY","ELKHORN CITY TRUE VALUE HARDWARE","185 MAIN STREET","41522",37.30573272705078,-82.35243225097656
"41522","Elkhorn City","KY","S S Hydraulic & machine Shop Inc.","302 Water Branch Rd","41522",37.2758128,-82.38943549999999
"41630","Garrett","KY","MOORES TRUE VALUE HARDWARE","13320 KENTUCKY RTE 80","41630",37.454349517822266,-82.896728515625
"41630","Garrett","KY","Moores True Value Hardware","13529 Kentucky Rte 80","41630",37.48127747,-82.83197784
"41653","Prestonsburg","KY","Husqvarna US","514 N Lake Dr","41653",37.67319107055664,-82.77654266357422
"41701","Hazard","KY","Manufacturer's Supply Company","not_available","41701",37.28944778442383,-83.22343444824219
"41701","Hazard","KY","Tractor Supply Co.","330 Village Ln","41701",37.281463,-83.23169
"41701","Hazard","KY","Home Lumber Company Concrete","4852 Ky Hwy 451","41701",37.258235,-83.25806067
"41701","Hazard","KY","Home Lumber Company (Lumber Yard)","60 KY Highway 451","41701",37.2460934,-83.1906016
"41701","Hazard","KY","Napier Building & Supply","220 Allais Rd","41701",37.26536178588867,-83.18814849853516
"41701","Hazard","KY","Sherwin-Williams Paint Store","2001 N Main St","41701",37.26514277278321,-83.19169630055755
"41701","Hazard","KY","Lowe's","81 Commerce Drive","41701",37.2965081,-83.2176455
"41824","Isom","KY","Husqvarna US","PO Box 86","41824",37.195945739746094,-82.87545013427734
"41858","Whitesburg","KY","Fraziers Farmers Supply","2415 Hwy 15","41858",37.1184,-82.8268
"42001","Paducah","KY","The Home Depot","2801 James Sanders Rd","42001",37.07203850040133,-88.68496388196945
"42001","Paducah","KY","Menards","5500 Old US Highway 60","42002",37.06942367553711,-88.62703704833984
"42001","Paducah","KY","Harbor Freight Tools","509 Lone Oak Rd","42003",37.06237221365906,-88.64002589347315
"42001","Paducah","KY","Southfork Lighting","not_available","42003",37.037834680657895,-88.66161842527708
"42001","Paducah","KY","Three States Supply","not_available","42001",37.06482056176628,-88.60598317827622
"42001","Paducah","KY","Husqvarna US","7402 Unionville Rd","62910",37.126121520996094,-88.5945816040039
"42001","Paducah","KY","Sherwin-Williams Commercial Paint Store","1240 Broadway St","42001",37.081381899047265,-88.61095610704325
"42001","Paducah","KY","Southfork Electric","100-202 Bleich Rd","42003",37.04324603333333,-88.657617
"42001","Paducah","KY","Phelps Farm Supply","424 S 3rd St","42003",37.083515,-88.594023
"42001","Paducah","KY","Hank Bros.True Value Hardware","3101 Lone Oak Rd","42003",37.03581044143874,-88.66707026508519
"42001","Paducah","KY","Sherwin-Williams Paint Store","4794 Village Square Dr","42001",37.06959449407803,-88.68994474411011
"42001","Paducah","KY","Wolseley Industrial Group","5119 Heartland Dr","42001",37.08671,-88.67789
"42001","Paducah","KY","Warden Electric Co","604 N 7th St","42001",37.090586890398484,-88.6050168069544
"42001","Paducah","KY","Primax Compozit Home Systems","444 N 8th St","42001",37.08863519,-88.60537889
"42001","Paducah","KY","Fastenal","847 N HC Mathis Dr","42001",37.09652144895565,-88.6312800793211
"42001","Paducah","KY","minuteKEY","5176 Hinkleville Rd","42001",37.072484,-88.69197700000001
"42001","Paducah","KY","Tractor Supply Co.","5525 Us Hwy 60 West","42001",37.071931,-88.707547
"42001","Paducah","KY","Sanders Nursery","4123 Schneidman Rd","42003",37.04858601093292,-88.61958503723145
"42001","Paducah","KY","Douglas' Hardware","George & 3rd Street","62960",37.1239128112793,-88.62641143798828
"42001","Paducah","KY","Lowe's","5176 Hinkleville Road","42001",37.0724716,-88.6921395
"42003","Paducah","KY","Lowe's","3131 Irvin Cobb Drive","42003",37.0524483,-88.5712667
"42003","Paducah","KY","Roofers Mart Inc.","3465 Wayne Sullivan Dr","42003",37.0515594877765,-88.56508120894432
"42003","Paducah","KY","Hank Brothers True Value Hardware","3525 Wayne Sullivan Dr","42003",37.050854,-88.565209
"42003","Paducah","KY","Equipment Depot","6320 Kentucky Dam Rd","42003",37.0135884251737,-88.50637627116396
"42003","Paducah","KY","Brake Supply","Main st","not_available",37.060623,-88.570428
"42003","Paducah","KY","Ace Hardware","6135 Benton Rd","42003",37.003635,-88.530604
"42021","Arlington","KY","Flegle Lumber Company LLC","1017 US-51","42023",36.877028,-89.013736
"42024","Barlow","KY","Cooper Lumber","not_available","42024",37.052854,-89.048664
"42025","Benton","KY","Shop-O-Rama","112 US-68","42025",36.9240596565353,-88.34263329874865
"42025","Benton","KY","Cole Lumber","1313 Poplar St","42025",36.85581881,-88.3495875
"42025","Benton","KY","Benton Hardware","411 E 12th St","42025",36.85762183230481,-88.34584414958954
"42025","Benton","KY","Tractor Supply Co.","1738 Mayfield Highway","42025",36.84437942504883,-88.3764419555664
"42025","Benton","KY","Kashway Building Materials & Lumber","1642 US-641","42025",36.90292674632498,-88.34179401397705
"42029","Calvert City","KY","Fastenal","21 Tiffany Dr","42029",37.037365,-88.348985
"42029","Calvert City","KY","Calvert Lumber","not_available","42029",37.040758,-88.348902
"42029","Calvert City","KY","Ferguson Plumbing Supply","5480 Gilbertsville Hwy","42029",37.03752899169922,-88.34957885742188
"42029","Calvert City","KY","Shop-O-Rama","878 E 5th Ave","42029",37.02244753918775,-88.33905787401079
"42038","Eddyville","KY","Akridge Farm Supply","724 W Fairview Ave","42038",37.08934783935547,-88.08875274658203
"42038","Eddyville","KY","Tractor Supply Co.","500 Us Hwy 62 West Ste D","42445",37.112403869628906,-87.90414428710938
"42038","Eddyville","KY","Falders","not_available","42445",37.111065,-87.902374
"42041","Fulton","KY","Fulton Decorating Center","not_available","42041",36.503326416015625,-88.87698364257812
"42041","Fulton","KY","Rhodes Supply Co.","9793 State Route 303","42066",36.58763720408755,-88.6347662317057
"42051","Hickory","KY","Horizon Lawn and Tractor","40 Commerce St","42051",36.8246833,-88.65410659999999
"42064","Marion","KY","Joiners Hardware","Main St","42445",37.17721263744909,-87.88453399653437
"42064","Marion","KY","Husqvarna US","21 Pleasant Hill Rd","42445",37.20412826538086,-87.91184997558594
"42064","Marion","KY","Marion True Value","223 Sturgis Rd","42064",37.34172821044922,-88.07595825195312
"42064","Marion","KY","Tolberts","not_available","62982",37.420501708984375,-88.3458480834961
"42064","Marion","KY","Husqvarna US","2720 State Route 654 N","42064",37.4345703125,-88.04470825195312
"42066","Mayfield","KY","Lowe's","1208C Paris Road","42066",36.7214866,-88.6239306
"42066","Mayfield","KY","Youngbloods True Value","not_available","42066",36.718251,-88.624331
"42066","Mayfield","KY","Mayfield Plumbing & Electrical","326 W Broadway","42066",36.74124777317047,-88.64000201225281
"42066","Mayfield","KY","Mayfield True Value","1776 State Route 121S","42066",36.7888174345234,-88.6782054811676
"42066","Mayfield","KY","Falderâ€™s Farm, Home and Industry Supply","1428 Cuba Road","42066",36.72278741904595,-88.6311936378479
"42066","Mayfield","KY","Myers Lumber","602 W Broadway","42066",36.74153137207031,-88.6424331665039
"42066","Mayfield","KY","Tractor Supply Co.","1111 Paris Rd","42066",36.723480224609375,-88.62892150878906
"42066","Mayfield","KY","DC Rental & Sales","84 Keystone Dr","42066",36.7598412,-88.6399728
"42066","Mayfield","KY","Youngblood's True Value","1776 S R 121 S","42066",36.71368,-88.64761
"42071","Murray","KY","Lowe's","1400 Lowe's Drive","42071",36.6269553,-88.3205902
"42071","Murray","KY","Tractor Supply Co.","610 North 12th St","42071",36.61954232625981,-88.31352473952299
"42071","Murray","KY","Airgas","not_available","42071",36.64116293726756,-88.30379060471837
"42071","Murray","KY","Murray Home & Auto, Inc.","976 Chestnut St","42071",36.61783549574011,-88.31153869628906
"42071","Murray","KY","minuteKEY","809 N 12th St","42071",36.627017974853516,-88.31761169433594
"42071","Murray","KY","Sherwin-Williams Paint Store","658A N 12th St","42071",36.62133160646573,-88.31362009048462
"42071","Murray","KY","Myers Lumber","500 S. 5th St.","42071",36.605079650878906,-88.30359649658203
"42071","Murray","KY","Murray True Value Home & Auto Hardware","972 Chestnut St","42071",36.617794036865234,-88.31140899658203
"42071","Murray","KY","Fastenal","1900 N 12th St","42071",36.636348724365234,-88.30914306640625
"42071","Murray","KY","Murray Supply Company, Inc.","206 E Main St.","42071",36.61077390194823,-88.30019563436508
"42086","West Paducah","KY","Scott-Gross Metro Illinois","315 W 10th St","62960",37.157814,-88.731469
"42101","Bowling Green","KY","Lowe's","150 American Ave","42104",36.94847,-86.436944
"42101","Bowling Green","KY","The Home Depot","2233 Gary Farms Blvd","42104",36.9572171,-86.4344745
"42101","Bowling Green","KY","Harbor Freight Tools","660 US 31W Byp Ste B","42101",36.98776626586914,-86.42923736572266
"42101","Bowling Green","KY","Tractor Supply Co.","5387 Scottsville Rd","42104",36.922382,-86.410794
"42101","Bowling Green","KY","Ace Hardware","600 Us 31w Byp","42101",36.990214,-86.427999
"42101","Bowling Green","KY","Dale's Distributors","not_available","42101",36.983632377639815,-86.46781488789786
"42101","Bowling Green","KY","Diamond Screw Products","2564 Russellville Rd","42101",36.96278,-86.486947
"42101","Bowling Green","KY","United Furniture & Appliances","1008 State Street","42101",36.9916561,-86.44181859999999
"42101","Bowling Green","KY","Faxon's Outdoor Power Equipment","839 US 31W-Bypass","42101",36.98543930053711,-86.43274688720703
"42101","Bowling Green","KY","Croslin Lawn & Garden Equipment Service & Repair","2371 Plano Road","not_available",36.891833,-86.418483
"42101","Bowling Green","KY","Sherwin-Williams Paint Store","827 US 31W Byp","42101",36.985765829640776,-86.43228650093079
"42101","Bowling Green","KY","Hill-Motley Lumber Company Inc.","121 W Main Ave","42101",36.99821,-86.44694399999999
"42101","Bowling Green","KY","Equipment Depot","6198 Nashville Rd","42101",36.921811,-86.500382
"42101","Bowling Green","KY","Sherwin-Williams Paint Store","1689 Campbell Ln","42104",36.951126443315374,-86.43577337265015
"42101","Bowling Green","KY","Carter Lumber","3975 Louisville Rd","42101",37.011539459228516,-86.38168334960938
"42101","Bowling Green","KY","Winfastner","Shive Lane","42103",36.94973671633221,-86.43361499067613
"42101","Bowling Green","KY","Ace Hardware","3170 Louisville Rd","42101",37.0114999,-86.450699
"42101","Bowling Green","KY","Husqvarna US","1526 Elrod Rd","42104",36.91944122314453,-86.47370910644531
"42103","Bowling Green","KY","Legacy Outdoor Power Equipment","839 US 31W Byp","42101",36.985533,-86.432841
"42104","Bowling Green","KY","Valley Interior Products","2730 Griffin Drive","42101",36.956835999999996,-86.48768000000001
"42104","Bowling Green","KY","Ace  Hardware","2706 Russellville Rd","42101",36.9602142711331,-86.49057626724243
"42127","Cave City","KY","Ace Hardware","9586 Happy Valley Rd","42127",37.123474,-85.961121
"42127","Cave City","KY","Square Deal","24225 Louisville Rd","42160",37.093505859375,-86.04803466796875
"42127","Cave City","KY","Square Deal Lumber","105 Altshelter Ave","42749",37.1567357797176,-85.9163965377957
"42129","Edmonton","KY","Edmonton Ace Hardware","805 W Stockton St","42129",36.9828869,-85.627502
"42129","Edmonton","KY","L-S Supply","1202 W Stockton St","42129",36.98828125,-85.63529205322266
"42134","Franklin","KY","Lowe's","1555 Nashville Road","42134",36.6958056,-86.5686206
"42134","Franklin","KY","Tractor Supply Co.","1075 South Main St","42134",36.702644,-86.57261
"42134","Franklin","KY","minuteKEY","1550 Nashville Rd","42134",36.6951986,-86.573053
"42134","Franklin","KY","Tractor Supply Company","1075 S Main St","42134",36.702720642089844,-86.57269287109375
"42141","Glasgow","KY","Lowe's","208 Sl Rogers Wells Boulevard","42141",36.9997813,-85.9302434
"42141","Glasgow","KY","Fastenal","not_available","42141",36.977474212646484,-85.9310531616211
"42141","Glasgow","KY","Sherwin-Williams Paint Store","403 S L Rogers Wells Blvd","42141",36.991550382151594,-85.93178629875183
"42141","Glasgow","KY","Glasgow Glass","309A W Main St","42141",36.99736022949219,-85.91476440429688
"42141","Glasgow","KY","Joseph A. Wade, Inc","311 Industrial Dr","42141",36.996702,-85.953448
"42141","Glasgow","KY","Tractor Supply Co.","3300 Veterans Outer Loop","42141",37.020789,-85.942373
"42159","Oakland","KY","Superior Supply","Main Street","42171",37.051361,-86.20895300000001
"42164","Scottsville","KY","Scottsville Ace Hardware","1435 New Gallatin Rd","42164",36.74018859863281,-86.21842956542969
"42164","Scottsville","KY","Johnson Lumber Co","715 E Main St","42164",36.75256758,-86.18470925
"42164","Scottsville","KY","Tractor Supply Co.","1138 Old Gallatin Rd","42164",36.743231,-86.203625
"42164","Scottsville","KY","Chainsaw World","not_available","42164",36.744346618652344,-86.20401000976562
"42167","Tompkinsville","KY","Brutonâ€™s","not_available","42167",36.7044,-85.695559
"42206","Auburn","KY","Auburn Lumber","not_available","42206",36.856261,-86.75119
"42206","Auburn","KY","Safeway Services","1302 26th NE","42276",36.9697,-86.775121
"42211","Cadiz","KY","Southern Septic","117 Lafayette St","42211",36.866827,-87.8336
"42211","Cadiz","KY","Cadiz Hardware  LLC","1654 Main St","42211",36.8671879,-87.799684
"42217","Crofton","KY","Pennyrile Power Equipment","12000 S Madisonville Rd","42217",37.033272,-87.483368
"42234","Guthrie","KY","Peacham Tack Store","not_available","42234",36.70284456751121,-87.19758232843519
"42240","Hopkinsville","KY","Tractor Supply Co.","10710 Eagle Way","42240",36.81850783142636,-87.4756562190432
"42240","Hopkinsville","KY","Lowe's","4580 Fort Campbell Boulevard","42240",36.8200616,-87.4701047
"42240","Hopkinsville","KY","Petty-Thompson Engineering, Incorporated","105 Mooreland Dr","42240",36.85361862182617,-87.49795532226562
"42240","Hopkinsville","KY","Sherwin-Williams Paint Store","535 W 9th St","42240",36.86676788330078,-87.49380493164062
"42240","Hopkinsville","KY","Carter Lumber","1806 E 9th St","42240",36.850190999999995,-87.46663000000001
"42240","Hopkinsville","KY","Lawn Cutters Equipment LLC","1121 Skyline Dr","42240",36.843658447265625,-87.47523498535156
"42240","Hopkinsville","KY","Petter Supply","702 W 15th St","42240",36.86677932739258,-87.4990234375
"42240","Hopkinsville","KY","minuteKEY","300 Clinic Dr","42240",36.83070373535156,-87.46959686279297
"42240","Hopkinsville","KY","Kirkman's Hardware","4525 Pembroke Rd","42240",36.8169157,-87.4166626
"42240","Hopkinsville","KY","Equipment Depot","340 North Dr","42240",36.865272,-87.502762
"42256","Lewisburg","KY","Logan Septic Service","147 Knight Subdivision Rd","42276",36.915127,-86.951276
"42256","Lewisburg","KY","Sherwin-Williams Paint Store","403 Bethel Shopping Ctr","42276",36.842994679895625,-86.89307659864426
"42261","Morgantown","KY","Ace Hardware","507 W Gl Smith St","42261",37.22953414916992,-86.69071197509766
"42261","Morgantown","KY","True Value Hardware","123 W G L Smith St","42261",37.22552117,-86.68398155
"42261","Morgantown","KY","Cooper Carpets","not_available","42261",37.252202,-86.681937
"42274","Rockfield","KY","Home Depot","not_available","42103",36.901614,-86.539338
"42276","Russellville","KY","Tractor Supply Co.","1150 West 9th St","42276",36.83102035522461,-86.9058609008789
"42301","Owensboro","KY","Lowe's","415 Fulton Drive","42303",37.7220802,-87.1171569
"42301","Owensboro","KY","The Home Depot","5150 US 431-Frederica St","42301",37.717313000000004,-87.12848789814757
"42301","Owensboro","KY","Gordons True Value Hardware","321 Washington Ave","42301",37.751708,-87.112435
"42301","Owensboro","KY","Primax Compozit Home Systems","2812 Kentronics Dr","42301",37.78407079,-87.14859804
"42301","Owensboro","KY","Sherwin-Williams Paint Store","2740 Frederica St","42301",37.750127,-87.115214
"42301","Owensboro","KY","Tractor Supply Co.","1671 Starlite Dr","42301",37.756006,-87.149815
"42301","Owensboro","KY","Kentucky Tile","not_available","42301",37.72388976393112,-87.12928624532705
"42301","Owensboro","KY","Harbor Freight","5079 Frederica St","42301",37.719162,-87.123535
"42301","Owensboro","KY","Ace Hardware","667 Us 431 N","42352",37.73782063752295,-87.12736187816677
"42303","Owensboro","KY","Menard's","3001 Heartland Crossing Blvd","42303",37.75493231873243,-87.07289679765358
"42303","Owensboro","KY","Roofers Warehouse","not_available","42303",37.76262,-87.106583
"42303","Owensboro","KY","Integrity Nursery & Outdoor Living","1100 Burlew Blvd","42303",37.741868,-87.091117
"42303","Owensboro","KY","Allshop","501 e 18 th street","not_available",37.759161,-87.103977
"42303","Owensboro","KY","Tractor Supply Co.","3130 Villa Pt","42303",37.754226,-87.063137
"42303","Owensboro","KY","Imperial Lawns","301 E 16th St","42303",37.762261,-87.10729
"42303","Owensboro","KY","Sherwin-Williams Paint Store","3500 Villa Pt","42303",37.749933,-87.054326
"42303","Owensboro","KY","GORDONS FARM&TRUE VALUE HDWE","6180 KENTUCKY 54","42366",37.73255157470703,-86.9839096069336
"42303","Owensboro","KY","Gordon's","not_available","42366",37.73290020758412,-86.98425397558164
"42320","Beaver Dam","KY","Young Hardware","not_available","42320",37.40038,-86.909842
"42320","Beaver Dam","KY","Tractor Supply Co.","1521 North Main St","42320",37.424152,-86.879665
"42320","Beaver Dam","KY","minuteKEY","1701 N Main St","42320",37.4296625,-86.8801502
"42327","Calhoun","KY","Smiths Super Saver","100 Main St","42322",37.536258697509766,-87.25801086425781
"42327","Calhoun","KY","Ace Hardware & Building Supply","667 US Highway 431 N","42352",37.5202469,-87.113696
"42327","Calhoun","KY","Southern Outdoors","403 Henton St.","42352",37.489867857887724,-87.13256567716599
"42330","Central City","KY","Malone Home Center","204 W Depot St","42345",37.21279153122,-87.18189684342
"42330","Central City","KY","Rural King","145 Copper Creek Dr","42367",37.231741,-87.159268
"42330","Central City","KY","Malone Home Center","204 West Depot St.","42345",37.211151123046875,-87.1820297241211
"42330","Central City","KY","Tractor Supply Co.","1504 West Everly Brothers Blvd Ste A","42330",37.275408,-87.139133
"42330","Central City","KY","Smith Brothers Suply","not_available","42330",37.291673,-87.122532
"42347","Hartford","KY","Gordons Farm & True Value Hardware","6180 Kentucky 54","42366",37.61513,-86.94266
"42348","Hawesville","KY","Tractor Supply Co.","375 Old Hwy Rd","47586",37.93193054199219,-86.75688934326172
"42348","Hawesville","KY","minuteKEY","730 US Highway 66 E","47586",37.928319,-86.7527123
"42348","Hawesville","KY","Hancock County Farm Supply","740 Madison St.","42348",37.898963928222656,-86.75662994384766
"42366","Philpot","KY","Husqvarna US","5600 OLD KENTUCKY 54","42366",37.73076629638672,-86.9520034790039
"42366","Philpot","KY","Whitesville Lumber","not_available","42378",37.687934,-86.871542
"42406","Corydon","KY","Fastenal","Ohio Drive","42420",37.807008,-87.635665
"42413","Hanson","KY","Fastenal","2560 Tucker Schoolhouse Rd.","42431",37.399021,-87.464721
"42420","Henderson","KY","The Home Depot","5230 Pearl Drive","47712",37.9728907,-87.6388045
"42420","Henderson","KY","Lowe's","2190 US Highway 60 East","42420",37.8585574,-87.5639204
"42420","Henderson","KY","Paint 'N Stuff","7955 Bell Oaks Dr #C","47630",37.9747543,-87.3951644
"42420","Henderson","KY","Benjamin Moore","7955 Bell Oaks Dr Ste C","47630",37.97468566894531,-87.39492797851562
"42420","Henderson","KY","Homefolks Hardware","not_available","42420",37.839514,-87.590546
"42420","Henderson","KY","Sherwin-Williams Paint Store","811 S Green River Rd","47715",37.96556091308594,-87.49337768554688
"42420","Henderson","KY","Royster's Machine Shop RMS","215 HWY 2084 S","42420",37.8230715,-87.5696792
"42420","Henderson","KY","Tony's Shop Auto Repair&Painting","not_available","47714",37.951082,-87.546814
"42420","Henderson","KY","Integrity Plumbing","1004 S Green St","42420",37.820534,-87.607811
"42420","Henderson","KY","Glidden Paint Center","2407 Washington Ave","47714",37.9622688293457,-87.51963806152344
"42420","Henderson","KY","P.E.S.","825 Canal St","47713",37.97456359863281,-87.55174255371094
"42420","Henderson","KY","Rural King","1700 S Green St","42420",37.814433068472745,-87.6142287254334
"42420","Henderson","KY","Sherwin-Williams Paint Store","1350 N Green St","42420",37.853678237458254,-87.57873773574829
"42420","Henderson","KY","Custom Lock & Key","936 2nd St","42420",37.836088,-87.579958
"42431","Madisonville","KY","Rural King","1650 S Main St","42431",37.3052996,-87.5069676
"42431","Madisonville","KY","Lowe's","550 Island Ford Road","42431",37.3502139,-87.4884496
"42431","Madisonville","KY","Husqvarna US","350 Dulin St","42431",37.31026840209961,-87.49762725830078
"42431","Madisonville","KY","Southern States","not_available","42431",37.3441,-87.505
"42431","Madisonville","KY","Clark True Value (Butler's True Value)","624 S Main St","42431",37.319475394813324,-87.4996018409729
"42431","Madisonville","KY","Sherwin-Williams Paint Store","1470B Chelsa Dr","42431",37.349236540682995,-87.49488651752472
"42431","Madisonville","KY","Cumen's Lumber Co","Grapevine Rd","42431",37.3034782409668,-87.486083984375
"42431","Madisonville","KY","THV","270 Madison Square Dr","42431",37.32033920288086,-87.47554016113281
"42437","Morganfield","KY","Tractor Supply Co.","1005 Us Hwy 60 East","42437",37.6893860296114,-87.89701123333845
"42437","Morganfield","KY","STURGIS TRUE VALUE","420 N Main St","42459",37.54527282714844,-87.98388671875
"42441","Nebo","KY","Stanley & Son, Inc.","9580 Nebo Rd","42441",37.383347,-87.655966
"42445","Princeton","KY","Falderâ€™s Farm, Home and Industry Supply","315 US Highway 62 W","42445",37.109207,-87.88381
"42501","Somerset","KY","Lowe's","2001 South Hwy 27","42501",37.0664277,-84.6231532
"42501","Somerset","KY","Dal-rs","not_available","42501",37.072687,-84.616603
"42501","Somerset","KY","Harbor Freight","N. Hwy 27","42501",37.09716188775921,-84.62264185409572
"42501","Somerset","KY","Tractor Supply Co.","3639 South Hwy 27","42501",37.043478,-84.627082
"42501","Somerset","KY","Lumber King","30 Lumber King Drive","42501",37.03376007080078,-84.60877227783203
"42501","Somerset","KY","Eagle Hardwoods","70 W Racetrack Rd","42503",37.13290023803711,-84.62960052490234
"42501","Somerset","KY","Sears","370 So. Hwy 27, #9","42501",37.0903307,-84.6161604
"42501","Somerset","KY","Sherwin-Williams Paint Store","370 S Highway 27","42501",37.089080810546875,-84.61565399169922
"42528","Dunnville","KY","Husqvarna US","930 Riffe Creek Rd # 70","42528",37.21516036987305,-85.02640533447266
"42539","Liberty","KY","Green River True Value Home Center","932 Campbellsville St","42539",37.31948037,-84.94292916
"42539","Liberty","KY","Tractor Supply Co.","671 Wolford Ave","42539",37.323033,-84.927583
"42539","Liberty","KY","Ace Hardware of Liberty","140 Liberty Sq","42539",37.31882095336914,-84.92826843261719
"42539","Liberty","KY","True's","224 N Wallace Wilkinson Blvd","42539",37.317487,-84.929561
"42602","Albany","KY","Potters Ace Home Center","1345 S Highway 127","42602",36.68178176879883,-85.15122985839844
"42602","Albany","KY","Grand Rental Station","210 Burkesville Rd","42602",36.69696044921875,-85.13829803466797
"42602","Albany","KY","Albany Building Center","302 N Washington St","42602",36.69234848022461,-85.13445281982422
"42629","Jamestown","KY","Wilson & Sons Hardware","not_available","42629",36.998057,-85.071587
"42633","Monticello","KY","Ace Hardware","308 E Hwy 90","42633",36.8443609,-84.862936
"42633","Monticello","KY","Tractor Supply Co.","1125 North Main St Ste 1","42633",36.84307897949628,-84.83934662600443
"42633","Monticello","KY","Sears","1500 N. Main St.","42633",36.8470589,-84.8341532
"42633","Monticello","KY","Co-op","not_available","42633",36.84725372895642,-84.86015010159407
"42642","Russell Springs","KY","Ace Hardware","250 W Steve Wariner Drive","42642",37.0676,-85.0668
"42642","Russell Springs","KY","Lawless-Smith True Value Supply","979 Steve Wariner Dr","42642",37.05937812,-85.08579014
"42642","Russell Springs","KY","Husqvarna US","PO Box 556","42642",37.05796813964844,-85.05784606933594
"42647","Stearns","KY","Lumber King","Southfork Plaza St","42647",36.73358738422394,-84.47204768657684
"42647","Stearns","KY","Big M Discount","425 N Hwy 27","37892",36.72901916503906,-84.46977233886719
"42701","Elizabethtown","KY","Lowe's","100 Lowe's Drive","42701",37.73123,-85.8815349
"42701","Elizabethtown","KY","The Home Depot","1510 Ring Rd","42701",37.7287001,-85.8869826
"42701","Elizabethtown","KY","Tractor Supply Co.","1451 Ring Rd","42701",37.72686703753625,-85.88282610426994
"42701","Elizabethtown","KY","Harbor Freight","not_available","42701",37.725315,-85.88375
"42701","Elizabethtown","KY","Ace Hardware","99 Shawnee Dr","42748",37.579188,-85.736819
"42701","Elizabethtown","KY","Husqvarna US","74 McCamish Dr","42701",37.67445755004883,-85.86192321777344
"42701","Elizabethtown","KY","Corken Steel Products","803 S Park Rd","42701",37.6755059401573,-85.83950803513963
"42701","Elizabethtown","KY","minuteKEY","100 Lowes Dr","42701",37.73085021972656,-85.88124084472656
"42701","Elizabethtown","KY","Carter Lumber","3950 Hodgenville Rd","42701",37.62794494628906,-85.80363464355469
"42701","Elizabethtown","KY","Sherwin-Williams Paint Store","200 Sycamore St","42701",37.704171,-85.866158
"42701","Elizabethtown","KY","Don's Lumber & Hardware","2688 Leitchfield Rd","42701",37.67677688598633,-85.9008560180664
"42701","Elizabethtown","KY","L.K. Tapp & Son's","2011 N Dixie Ave","42701",37.74102020263672,-85.88956451416016
"42701","Elizabethtown","KY","Tool Time","100 W A Jenkins Rd","42701",37.75944137573242,-85.90206909179688
"42701","Elizabethtown","KY","Carter Lumber","Hodgenville Rd.","not_available",37.628198486810895,-85.80434083188834
"42701","Elizabethtown","KY","Menards","100 Menards Way","42701",37.68785858154297,-85.83023834228516
"42712","Big Clifty","KY","Tractor Supply Co.","1351 Elizabethtown Rd","42754",37.485591888427734,-86.26991271972656
"42717","Burkesville","KY","Potters Ace Home Center","228 Keen St","42717",36.783844,-85.369693
"42718","Campbellsville","KY","Lowe's","205 Jefra Avenue","42718",37.3400839,-85.3635187
"42718","Campbellsville","KY","Tractor Supply Co.","399 Campbellsville Byp Ste 170","42718",37.343461,-85.369049
"42718","Campbellsville","KY","Husqvarna US","2416 Greensburg Rd","42718",37.330238342285156,-85.38655853271484
"42718","Campbellsville","KY","Lynn Wholesale Electric","not_available","42718",37.34335813463432,-85.3422327815281
"42718","Campbellsville","KY","Sherwin-Williams Paint Store","1302 E Broadway St","42718",37.35128099469006,-85.33172900994295
"42722","Canmer","KY","Husqvarna US","1406 Hedgepeth Rd","42722",37.272369384765625,-85.73432159423828
"42728","Columbia","KY","Burton Ace Hardware & Rental","314 Campbellsville St","42728",37.105044,-85.303042
"42728","Columbia","KY","Tractor Supply Co.","817 Jamestown St","42728",37.09341,-85.30197
"42728","Columbia","KY","Tractor Supply","Jamestown St","42728",37.115566,-85.289382
"42743","Greensburg","KY","Husqvarna US","5380 Highway 218","42743",37.18133544921875,-85.615478515625
"42749","Horse Cave","KY","Dutchcraft Vinyl Products","340 Logsdon Valley Rd","42765",37.2681759,-85.95355049999999
"42754","Leitchfield","KY","Anderson's Lawn & Garden","not_available","42754",37.47886152649908,-86.29461476133625
"42754","Leitchfield","KY","Ace Hardware","496B S Main St","42754",37.47471618652344,-86.29573059082031
"42754","Leitchfield","KY","Husqvarna US","120 W Market St","42754",37.47896957397461,-86.29473114013672
"42765","Munfordville","KY","Ace Hardware","1063 Main St","42765",37.277292,-85.897544
"42765","Munfordville","KY","Tractor Supply Co.","140 Home Run Dr","42765",37.28912485048137,-85.89882517133333
"42765","Munfordville","KY","Weiss True Value","not_available","42765",37.279404,-85.897809
"42776","Sonora","KY","Jones Do It Best","not_available","42784",37.465231539458436,-85.90910270405129
