"zip","city","state","name","address","postalCode","lat","lon"
"83201","Pocatello","ID","Lowe's","650 Bullock Street","83202",42.9113809,-112.4606943
"83201","Pocatello","ID","Air Gas","not_available","not_available",42.866420654421,-112.44421378279688
"83201","Pocatello","ID","Harbor Freight Tools","4150 Yellowstone Ave Ste A","83202",42.90837097167969,-112.46510314941406
"83201","Pocatello","ID","Sears","2215 Garrett Way","83201",42.8812498,-112.4653915
"83201","Pocatello","ID","Tractor Supply Co.","1800 Garrett Way Ste 35","83201",42.878867,-112.458463
"83201","Pocatello","ID","Ace Hardware & Element Outfitters","222 S 5th Ave","83201",42.866401,-112.44227
"83201","Pocatello","ID","The Home Depot","4340 Hawthorne Rd","83202",42.912034088388715,-112.47483015060419
"83201","Pocatello","ID","Scott's Lock & Key Co.","2732 Pole Line Rd","83201",42.88713997921403,-112.46548484054739
"83201","Pocatello","ID","Platt","not_available","83201",42.883756,-112.466166
"83201","Pocatello","ID","Dell's Home Appliance & Mattress Center","355 E. Center St.","83201",42.8649719,-112.4456111
"83201","Pocatello","ID","RSD","2953 Garrett Way","83201",42.888648986816406,-112.47440338134766
"83201","Pocatello","ID","Platt Electric Supply","2815 Garrett Way Ste A","83201",42.887,-112.47
"83201","Pocatello","ID","Franklin Building Supply","1951 Flandro Dr","83202",42.910980224609375,-112.45218658447266
"83201","Pocatello","ID","Sherwin-Williams Paint Store","110 Knudsen Blvd","83202",42.91661071777344,-112.46711730957031
"83201","Pocatello","ID","Sherwin-Williams Paint Store","1117 Yellowstone Ave","83201",42.895422428676476,-112.45187312364578
"83201","Pocatello","ID","Columbia Paint & Coatings","1110 Yellowstone Ave","83201",42.895538330078125,-112.45076751708984
"83201","Pocatello","ID","hampton builders","669 W Quinn Rd, Pocatello, ID 83202","83202",42.905494689941406,-112.4613265991211
"83201","Pocatello","ID","Franklin Bldg Materials","1651 Flandro Dr.","not_available",42.90797424316406,-112.45160675048828
"83204","Pocatello","ID","Harbor Freight Tools","not_available","83204",42.845118,-112.419752
"83210","Aberdeen","ID","Ace Hardware Aberdeen","123 S Main","83210",42.94265,-112.94265
"83211","American Falls","ID","Ace Hardware","150 Fort Hall Ave","83211",42.7917199,-112.85061
"83213","Arco","ID","Diers Home Improvement Center","318 Sunset Dr","83213",43.638429,-113.307128
"83217","Bancroft","ID","Lava Ace Hardware","105 East Main Street","83246",42.6192179,-112.01358
"83221","Blackfoot","ID","Ace Hardware Blackfoot","51 S Spruce St","83221",43.1913199,-112.35036
"83221","Blackfoot","ID","CAL Ranch","250 N Meridian St","83221",43.19511074492136,-112.3546751838447
"83221","Blackfoot","ID","Blackers Complete Home Furnishings","1365 Parkway Drive","83221",43.19635,-112.362376
"83221","Blackfoot","ID","Ferguson Waterworks","6715 W Overland Dr","83402",43.4362907409668,-112.11608123779297
"83221","Blackfoot","ID","Rockford Ranch Hardware & Lumber Supply","55 S 1200 W","83221",43.1900328,-112.5342228
"83221","Blackfoot","ID","Lockwood Manufacturing","1601 W Bridge St","83221",43.1932822,-112.362659
"83221","Blackfoot","ID","Standard Plumbing Supply","462 W H26","83221",43.209075927734375,-112.38809204101562
"83221","Blackfoot","ID","Standard True Value - Blackfoot","462 W Highway 26","83221",43.209075927734375,-112.38809204101562
"83221","Blackfoot","ID","Ace Hardware","572 S State St","83274",43.37316131591797,-112.1303482055664
"83221","Blackfoot","ID","Haddon's Fencing","Camas Street","83221",43.18638148404437,-112.35659240142145
"83226","Challis","ID","Village Square","Hwy 93 S","83226",44.69174,-114.04871
"83226","Challis","ID","THE VILLAGE SQUARE","HWY 93 S","83226",44.5220947265625,-114.21527099609375
"83226","Challis","ID","Stranger's Field Service","188 Wilson Rd.","83226",44.5112862,-114.2181559
"83236","Firth","ID","Ace Hardware","999 North Meridian Road","83634",43.36216,-111.92594
"83251","Mackay","ID","Chateau Drug","4th And Leadville - Giacobbi Square","83340",43.68213422041141,-114.3641495186567
"83251","Mackay","ID","Rocky Mountain Hardware","180 Main Street","83340",43.680039,-114.36319
"83251","Mackay","ID","Sherwin-Williams Paint Store","251 Northwood Way","83340",43.690437,-114.369735
"83252","Malad City","ID","Evans Coop/True Value","25 N Main St","83252",42.1861686706543,-112.24602508544922
"83254","Montpelier","ID","GUNDERSEN TRUE VALUE","410 Washington St","83254",42.317623138427734,-111.29812622070312
"83263","Preston","ID","Bobs True Value","44 S State St","83263",42.095298767089844,-111.87699127197266
"83263","Preston","ID","Stokes Market","217 So State St","83263",42.0911865234375,-111.87545776367188
"83263","Preston","ID","Hansen Glass & Paint","not_available","83263",42.09671401977539,-111.87693786621094
"83276","Soda Springs","ID","Soda Springs Trading Co.","50 E 2nd S","83276",42.65410232543945,-111.60218811035156
"83276","Soda Springs","ID","Broulim's Ace Hardware","89 W 2nd S","83276",42.654361724853516,-111.60530090332031
"83301","Twin Falls","ID","The Home Depot","1650 Pole Line Rd E","83301",42.5904827,-114.4534938
"83301","Twin Falls","ID","Lowe's","1350 Blue Lakes Boulevard North","83301",42.5856784,-114.4579357
"83301","Twin Falls","ID","Logan's Market","130 Hwy 30","83328",42.56427731414821,-114.60488746579361
"83301","Twin Falls","ID","Tacoma Screw","780 Blue Lakes Blvd N","83301",42.575713558889426,-114.46000473054718
"83301","Twin Falls","ID","Harbor Freight Tools","1414 Pole Line Rd E","83301",42.5914,-114.45608200000001
"83301","Twin Falls","ID","Wolseley Industrial Group","2150 Eldridge Ave","83301",42.5411995278487,-114.444714544368
"83301","Twin Falls","ID","Sherwin-Williams Paint Store","1615 Locust St N","83301",42.59037780761719,-114.45584106445312
"83301","Twin Falls","ID","Grover's Pay And Pack","130 Eastland Dr S","83301",42.5478401184082,-114.44109344482422
"83301","Twin Falls","ID","Twin Falls Sewing Center Inc.","not_available","83301",42.55666833362108,-114.46981430053711
"83301","Twin Falls","ID","J & J Enterprises","1704 Addison Ave E","83301",42.5627928,-114.4525995
"83301","Twin Falls","ID","Sherwin-Williams Paint Store","1936 Kimberly Rd","83301",42.5478638208519,-114.44700479507446
"83301","Twin Falls","ID","Krengel's Hardware","628 Main Ave. So","83301",42.55092236294923,-114.46369132226772
"83301","Twin Falls","ID","Ferguson Waterworks","1753 Eldridge Ave","83301",42.541345,-114.451924
"83301","Twin Falls","ID","Sherwin-Williams Paint Store","506 2nd Ave E","83301",42.55240059205707,-114.4645357131958
"83301","Twin Falls","ID","Clearwater Power Equipment Twin Falls","252 Washington St","83301",42.560375,-114.480442
"83301","Twin Falls","ID","Platt Electric Supply","294 Washington St","83301",42.56,-114.48
"83301","Twin Falls","ID","Goodman Electric Motors, Inc.","133 Carney St","83301",42.564491271972656,-114.48883056640625
"83313","Bellevue","ID","Valley Country Store, C-Store, Deli","869 S Main St","83313",43.456843,-114.2570786
"83313","Bellevue","ID","Wolseley Industrial Group","121 Jetstar Lane","83333",43.5036391836735,-114.301338367347
"83313","Bellevue","ID","Clearwater Power Equipment","110 Honeysuckle St","83313",43.451427,-114.253428
"83313","Bellevue","ID","Standard Plumbing Supply","4319 Glenbrook Dr","83333",43.48759078979492,-114.27330780029297
"83313","Bellevue","ID","Idaho Lumber and Ace Hardware","921 Airport Way","83333",43.511888,-114.307353
"83313","Bellevue","ID","L. L. Green's","101 N Main St","83333",43.519975,-114.31618600000002
"83313","Bellevue","ID","G & Sons, LLC","620 CD Olena Lane","83333",43.52912737,-114.30830816
"83313","Bellevue","ID","Platt Electric Supply","3990 Woodside Blvd","83333",43.48692321777344,-114.27497863769531
"83316","Buhl","ID","Valley Wide Country Store","175 W Main St","83355",42.7751203,-114.70499359999997
"83316","Buhl","ID","TLC Rentals","1963 Frontage Rd S","83355",42.76426696777344,-114.70133972167969
"83316","Buhl","ID","Ace Hardware Buhl","707 Highway 30","83316",42.592641,-114.74893
"83316","Buhl","ID","Jones Hardware","1019 Main St","83316",42.59850788636333,-114.76050245657665
"83316","Buhl","ID","Valley Wide Country Store","708 Hwy 30 E","83316",42.61874,-114.83077
"83316","Buhl","ID","Hatfield Manufacturing","not_available","83355",42.771027,-114.7026
"83318","Burley","ID","Snake River Hydraulics","not_available","83336",42.556535,-113.750879
"83318","Burley","ID","Sears","2338 Overland Ave.","83318",42.5237913,-113.7936325
"83318","Burley","ID","C-A-L Ranch Stores","226 N Overland Ave","83318",42.55799005901111,-113.7941622545492
"83318","Burley","ID","Stokes Freshfood Market","1310 Pomerelle Ave","83318",42.53697622090431,-113.7777450751795
"83318","Burley","ID","Ace Hardware Burley","2556 Overland Ave","83318",42.5207109,-113.79334
"83318","Burley","ID","A.M.I. Supply","719 Overland Ave","83318",42.544246673583984,-113.79293060302734
"83320","Carey","ID","Rancher's Supply Ace Hdwe","18915 Hwy 20","83348",43.2969999,-114.0357
"83324","Dietrich","ID","Valley Wide Country Store","11 Us Hwy 26","83352",42.9379389775587,-114.39420300493
"83324","Dietrich","ID","G & H Ace Hardware","106 S Rail St","83352",42.935205,-114.40617
"83330","Gooding","ID","G & H Ace Hardware Inc","116 5th Ave E","83330",42.940603,-114.71258
"83336","Heyburn","ID","The Sprinkler Shop","not_available","83350",42.60503908172816,-113.73812697249916
"83338","Jerome","ID","Valley Wide Country Store","1466 S Lincoln Ave","83338",42.7101845,-114.5171635
"83338","Jerome","ID","Platt Electric Supply","2735 Tucker Ct","83338",42.692684173583984,-114.5190658569336
"83338","Jerome","ID","Builders FirstSource","1000 Centennial Spur","83338",42.65083516580772,-114.44252550601959
"83338","Jerome","ID","B&R bearing","1302 S Lincoln Ave","83338",42.71255606485038,-114.51785585949614
"83338","Jerome","ID","A & G Irrigation","8 Butte Dr","83338",42.72492980957031,-114.44100189208984
"83338","Jerome","ID","Ace Hardware Jerome","423 S Lincoln Ave","83338",42.72053146362305,-114.51899719238281
"83341","Kimberly","ID","Select Source","Kimberly rd","83341",42.54953731,-114.36530869
"83344","Murtaugh","ID","Community True Value Hardware & Building Supply","309 Boyd St","83344",42.49200915,-114.1635504
"83350","Rupert","ID","Ace Hardware","201 5th St","83350",42.616439,-113.66963
"83401","Idaho Falls","ID","The Home Depot","2075 S Holmes Ave","83404",43.47895409888319,-112.02206254005432
"83401","Idaho Falls","ID","Harbor Freight Tools","999 E 17th St","83404",43.48287005,-112.01393314
"83401","Idaho Falls","ID","Ace","3387-3499 E 17th St","83406",43.48244314,-111.965717
"83401","Idaho Falls","ID","Lowe's","925 E 17th Street","83404",43.4836121,-112.0156407
"83401","Idaho Falls","ID","Dan's Ace Hardware-Idaho Falls","1747 W Broadway St","83402",43.4967529,-112.06586
"83401","Idaho Falls","ID","Standard Plumbing Supply","not_available","83401",43.514423,-112.009194
"83401","Idaho Falls","ID","Rain for Rent","3615 E Ririe Hwy","83401",43.54393768310547,-111.9605941772461
"83401","Idaho Falls","ID","Silver creek","1540 W Sunnyside Rd","83402",43.46887969970703,-112.05889892578125
"83401","Idaho Falls","ID","Cherry Glass","2695 N 25th E","83401",43.52056121826172,-111.98453521728516
"83401","Idaho Falls","ID","Pro Equipment Sales","1615 N Woodruff Ave","83401",43.51038,-112.00151
"83401","Idaho Falls","ID","Sherwin-Williams Paint Store","1876 N Yellowstone Hwy","83401",43.512424795741914,-112.01239585876465
"83401","Idaho Falls","ID","Ferguson Plumbing Supply","190 E Stanley St","83401",43.520946682227,-112.031379206082
"83401","Idaho Falls","ID","Tacoma Screw Products, Inc.","1835 North Yellowstone Hwy","83401",43.512827,-112.014425
"83401","Idaho Falls","ID","Challenger Pallet and Supply Inc","24 N 3210 E","83401",43.629903999999996,-112.061039
"83401","Idaho Falls","ID","Pipeco","not_available","83402",43.487335,-112.05183
"83401","Idaho Falls","ID","BC Hardware Supply","2154 High Desert Dr","83406",43.47759246826172,-111.94969177246094
"83401","Idaho Falls","ID","Blackers Complete Home Furnishings","1530 E. Lincoln Road","83401",43.5106117,-112.0031021
"83401","Idaho Falls","ID","Stan's Paint Clinic Inc","1521 Northgate Mile","83401",43.5106433,-112.0190491
"83401","Idaho Falls","ID","GTS Interior Supply","4362 North Yellowstone Highway","83401",43.53550279,-111.97217981
"83401","Idaho Falls","ID","Steve's Idaho Falls Lock & Key","3737 E Lincoln Rd","83401",43.511512756347656,-111.96022033691406
"83402","Idaho Falls","ID","Ben's Quality Cycle LLC","152 Park Ave","83402",43.4902,-112.042683
"83402","Idaho Falls","ID","Rocknak's Hardware Plus","2250 W Broadway St","83402",43.497299,-112.076277
"83402","Idaho Falls","ID","Platt Electric Supply","3020 S Yellowstone Hwy","83402",43.47092819213867,-112.05499267578125
"83402","Idaho Falls","ID","Robertson Supply","1310 S Utah Ave","83402",43.486504,-112.052284
"83404","Idaho Falls","ID","Sherwin-Williams Paint Store","1025 E 17th St","83404",43.48281929474004,-112.01314687728882
"83404","Idaho Falls","ID","Ace Hardware","3415 E 17th","83406",43.4823,-112.023
"83420","Ashton","ID","Hg Lumber","not_available","83420",44.07119,-111.449169
"83422","Driggs","ID","Ace Hardware","120 S Main St","83422",43.721769,-111.113031
"83422","Driggs","ID","Ace Hardware","not_available","83452",43.806725,-111.053778
"83422","Driggs","ID","Standard True Value - Driggs","535 Valley Centre Dr","83422",43.7422307291667,-111.112390625
"83424","Felt","ID","Old West Iron","5503 W 10500 N","83424",43.87492,-111.21018799999999
"83429","Island Park","ID","Island Park Builders Supply","not_available","83433",44.49846267700195,-111.33495330810547
"83434","Menan","ID","Valley Wide Co-Op","649 N 3500 E","83434",43.7203369140625,-112.00363159179688
"83440","Rexburg","ID","Ace Hardware","127 N 1st W","83440",43.828602000000004,-111.787224
"83440","Rexburg","ID","Sherwin-Williams Paint Store","896 University Blvd","83440",43.80446027224131,-111.80893421173096
"83440","Rexburg","ID","Sears","664 North 2nd East","83440",43.8398228,-111.7774014
"83440","Rexburg","ID","Ace Hardware","832-998 Idaho 33","83440",43.81807658333334,-111.804488
"83440","Rexburg","ID","Yellowstone lumber","not_available","83442",43.673614501953125,-111.90058898925781
"83440","Rexburg","ID","Valley Wide Country Store","1175 W Main St","83440",43.82607,-111.816219042316
"83440","Rexburg","ID","Desk Top Kandy","1230 S 12th W","83440",43.800472259521484,-111.81871032714844
"83440","Rexburg","ID","Mickelsen's Home Center","not_available","83440",43.82654428482056,-111.78950428962708
"83440","Rexburg","ID","Sherwin-Williams Paint Store","48 N 1st E","83440",43.82726699842418,-111.7805027961731
"83440","Rexburg","ID","Scotty's True Value And Carquest","201 S State St","83442",43.66953659057617,-111.91435241699219
"83440","Rexburg","ID","Dan's Ace Hardware.","101 E Main St","83440",43.837549,-111.7779
"83440","Rexburg","ID","BMC - Building Materials & Construction Services","202 W Main St","83440",43.82653,-111.790121
"83440","Rexburg","ID","Platt Electric Supply","191 Airport Rd","83440",43.833,-111.8
"83445","Saint Anthony","ID","Dan's Ace Hardware","120 N Bridge St","83445",43.967773,-111.68248
"83445","Saint Anthony","ID","C & C Supply Inc","125 E 3rd S","83445",43.969202,-111.68059
"83450","Terreton","ID","Agri - Service","1280 E 1500 N","83450",43.84137654,-112.4394738
"83455","Victor","ID","Valley Lumber","not_available","83455",43.61393356323242,-111.11021423339844
"83467","Salmon","ID","Salmon Ace Hardware","1216 Shoup St","83467",45.173802,-113.88661
"83467","Salmon","ID","Valley Wide Country Store","500 S Challis St","83467",45.16987,-113.88973
"83501","Lewiston","ID","The Home Depot","2425 Thain Grade","83501",46.398168,-116.9956223
"83501","Lewiston","ID","Schurmans True Value Hardware Inc.","801 6th St","99403",46.41432296,-117.0454851
"83501","Lewiston","ID","Erb's Ace Hardware","141 Thain Rd","83501",46.38996505737305,-116.98760986328125
"83501","Lewiston","ID","Fasteners Of Lewiston Inc","2828 Hatwai Rd","83501",46.43093490600586,-116.98982238769531
"83501","Lewiston","ID","John's Saw Service","106 16th St","83501",46.41694113605124,-117.0096619234099
"83501","Lewiston","ID","Sherwin-Williams Paint Store","1606 21st St","83501",46.403732532625966,-117.00243874598696
"83501","Lewiston","ID","SBC Slings & Binders Com","1304 Commercial Way","99403",46.42317199707031,-117.05924987792969
"83501","Lewiston","ID","Hahn Supply","2101 Main St","83501",46.416683,-117.002475
"83501","Lewiston","ID","bitterroot nut and bolt","not_available","83501",46.42415237426758,-116.9942855834961
"83501","Lewiston","ID","Sherwin-Williams Paint Store","1613 G St","83501",46.41638141833215,-117.00915813446045
"83501","Lewiston","ID","Sears","1019 21st St","83501",46.4104554363374,-117.00107379826477
"83501","Lewiston","ID","Pre-Mix Inc","3950 Industrial Way","83501",46.415354,-116.9754521
"83501","Lewiston","ID","Ferguson Waterworks","2014 1st Ave N","83501",46.421207427978516,-117.00406646728516
"83501","Lewiston","ID","Ferguson Plumbing Supply","2016 First Ave","83501",46.4216918367347,-117.004101428571
"83501","Lewiston","ID","Windows, Doors and More Store","405 Thain Rd","83501",46.37993285,-116.97443089
"83501","Lewiston","ID","Blue Mountain Ag Support Inc.","620 Thain Rd","83501",46.371707916259766,-116.96383666992188
"83520","Ahsahka","ID","Ace Hardware","10840 Highway 12","83544",46.4988919,-116.31747
"83530","Grangeville","ID","Ace Home Center","139 E Main St","83530",45.9255849,-116.11917
"83536","Kamiah","ID","JACOBS LUMBER TRUE VALUE","315 3RD STREET HWY 12","83536",46.22939682006836,-116.02496337890625
"83536","Kamiah","ID","Ace Hardware","108 Main Street","83552",46.1338188,-115.97803501
"83536","Kamiah","ID","Ace Marketplace","403 Main St","83536",46.22779846191406,-116.02764129638672
"83539","Kooskia","ID","Clearwater Saw Shop","10 S Main Street Pierce, ID 83546","83546",46.49039077758789,-115.79936218261719
"83541","Lenore","ID","Orofino Builders Supply","165 Riverside Ave","83544",46.480368383333335,-116.25733494758606
"83605","Caldwell","ID","The Home Depot","2003 N Cassia St","83651",43.60256814226823,-116.60485482490913
"83605","Caldwell","ID","Roots Rents","not_available","83687",43.59051017765439,-116.57246937046246
"83605","Caldwell","ID","Lowe's","1400 Nampa-Caldwell Boulevard","83651",43.603947,-116.5971061
"83605","Caldwell","ID","Harbor Freight Tools","1611 Caldwell Blvd","83651",43.60402278244587,-116.60251250588527
"83605","Caldwell","ID","Franklin Building Supply","4523 Cleveland Blvd","83605",43.637374,-116.648223
"83605","Caldwell","ID","smiths lawnmower sales & service","21 St","83605",43.657338,-116.673676
"83605","Caldwell","ID","Sherwin-Williams Paint Store","4419 E Ustick Rd","83605",43.634174487645254,-116.64338835345313
"83605","Caldwell","ID","Grover's Pay & Pack Electric & Plumbing Supply Co","824 Caldwell Blvd","83651",43.597984999999994,-116.59105100000001
"83605","Caldwell","ID","Sherwin Williams","1526 Caldwell Blvd","83651",43.604378000000004,-116.59936100000002
"83605","Caldwell","ID","Able Pump and Drilling Inc","16882 Lower Pleasant Ridge","83607",43.653945,-116.7307006
"83605","Caldwell","ID","Joy's Automotive Clinic","500 E Homedale Rd","83607",43.619001000000004,-116.691177
"83605","Caldwell","ID","Caldwell True Value","2321 Cleveland Blvd","83605",43.653364,-116.673138
"83605","Caldwell","ID","Idaho Tool & Equipment","452 Caldwell Blvd.","83651",43.5937,-116.58456
"83605","Caldwell","ID","Tile Outlet","3805 Caldwell Blvd","83605",43.642596999999995,-116.65728899999999
"83605","Caldwell","ID","D&B Supply","3816 Cleveland Blvd","83605",43.641625,-116.657545
"83607","Caldwell","ID","Ridley's Family Market Ace Hdw","430 E Main St","83644",43.703654,-116.61793
"83607","Caldwell","ID","Tractor Supply Co.","1500 West Main St","83644",43.70650100708008,-116.64292907714844
"83607","Caldwell","ID","New Age Plumbing","28270 Wagner Rd","83607",43.78302764892578,-116.73139190673828
"83607","Caldwell","ID","Middleton Auto Parts","901 W Main St","83644",43.705973,-116.63552299999999
"83607","Caldwell","ID","TC Generator Sales Inc.","24809 Graphic Ln","83676",43.61003,-116.88767
"83607","Caldwell","ID","Marsing True Value Hardware","222 Main St","83639",43.54582864,-116.8061927
"83607","Caldwell","ID","MARSING HARDWARE","222 MAIN ST PO 367","83639",43.5460205078125,-116.80652618408203
"83611","Cascade","ID","May Hardware","Park St","83638",44.909198937694846,-116.0966645819282
"83611","Cascade","ID","Builders FirstSource","400 Deinhard LN","83638",44.89729690551758,-116.09487915039062
"83611","Cascade","ID","Franklin Lumber","Highway 55","83638",44.86056831740909,-116.10129897256527
"83611","Cascade","ID","May Hardware","809 N 3rd St","83638",44.88651,-116.09163
"83611","Cascade","ID","True Value","not_available","83638",44.909143212461274,-116.09704130220159
"83611","Cascade","ID","Cascade Hardware","113 S Main","83611",44.51566480813476,-116.04201793670653
"83611","Cascade","ID","Sherwin-Williams Paint Store","210 Commerce St","83638",44.89522898,-116.0931529
"83611","Cascade","ID","Long Valley Farm Service","191 W Roseberry Rd","83615",44.730161,-116.079532
"83611","Cascade","ID","True Value","not_available","83611",44.51552,-116.041695
"83612","Council","ID","C & M Lumber","Farrell Rd.","83654",44.967257,-116.269754
"83612","Council","ID","Economy Roofing","Exeter","83612",44.72922151497991,-116.43769073623348
"83616","Eagle","ID","The Home Depot","2808 E State Street","83616",43.6867466,-116.3183751
"83616","Eagle","ID","Sherwin-Williams Paint Store","753 E State St","83616",43.694084000000004,-116.344531
"83616","Eagle","ID","Evan's Building Center","931 State Street","83616",43.69355073333333,-116.34245352203382
"83616","Eagle","ID","Boise Shade Co.","8344 W Sloan St","83714",43.68301,-116.29048
"83616","Eagle","ID","Tractor Supply Co.","1019 South Washington Ave","83617",43.865974,-116.500919
"83616","Eagle","ID","HD Maintenance","553 W South Slope Rd","83617",43.8358039855957,-116.50443267822266
"83616","Eagle","ID","Sherwin-Williams Paint Store","6780 N Linder Rd","83646",43.66609709999999,-116.4132156
"83617","Emmett","ID","Ace Hardware","402 N Washington Ave","83617",43.8782,-116.5
"83617","Emmett","ID","Rocky Mountain True Value","132 S Washington","83617",43.8748618,-116.4995144
"83619","Fruitland","ID","Rodda Paint","94 W Idaho Ave","97914",44.026427000000005,-116.963877
"83619","Fruitland","ID","The Home Depot","311 E Lane N","97914",44.027511096956985,-116.94190174341202
"83619","Fruitland","ID","Kinney Bros & Keele True Value Hardware","460 Sw 4th Ave","97914",44.023418,-116.969952
"83619","Fruitland","ID","Old School","281 S Oregon St","97914",44.024158,-116.96488
"83619","Fruitland","ID","Don's Lumber & True Value Hardware","603 1st St","97901",44.03416673,-116.9805802
"83619","Fruitland","ID","Franklin Building Supply","not_available","83619",44.02244567871094,-116.92292785644531
"83619","Fruitland","ID","Harbor Freight","not_available","97914",44.02303,-116.9409
"83619","Fruitland","ID","Sherwin-Williams Paint Store","1289 SE 1st Ave","97914",44.02391815185547,-116.94551849365234
"83628","Homedale","ID","Snake River Ranch & Lumber","328 Highway 95","83628",43.61565714,-116.9267429
"83628","Homedale","ID","Tolmie's Ace Hardware","1 East Owyhee Avenue","83628",43.6185809,-116.93418
"83628","Homedale","ID","wilder building center","A Ave, Wilder, ID 83676","83676",43.67689026049269,-116.9060284182983
"83629","Horseshoe Bend","ID","Horseshoe's Hardware","not_available","83629",43.91520309448242,-116.19921875
"83634","Kuna","ID","Tractor Supply Co.","979 North Meridian Rd","83634",43.49822959904503,-116.39518200485793
"83634","Kuna","ID","Kuna Lumber","175 S School Ave","83634",43.487812,-116.424298
"83634","Kuna","ID","Kuna Machine Shop","251 W Main St","83634",43.490444,-116.415802
"83634","Kuna","ID","Big Sky Rentals LLC","611 E Stagecoach Way","83634",43.48389,-116.40677
"83642","Meridian","ID","The Home Depot","1100 S Progress Ave","83642",43.5949707,-116.3897705
"83642","Meridian","ID","Lowe's","305 West Overland Road","83642",43.5890256,-116.3983892
"83642","Meridian","ID","Ferguson Bath, Kitchen & Lighting Gallery","586 N Locust Grove Rd","83642",43.609685,-116.373474
"83642","Meridian","ID","MICRO 100","1410 E Pine Ave","83642",43.612673,-116.37348
"83642","Meridian","ID","Minuteman Lock And Security","not_available","83642",43.60565149,-116.3913735
"83642","Meridian","ID","Ferguson Waterworks","452 N Locust Grove Rd","83642",43.609685,-116.373474
"83642","Meridian","ID","Bonneville Industrial Supply Company","not_available","83713",43.609770000000005,-116.335672
"83642","Meridian","ID","HD Supply","3338 E Commercial Ct","83642",43.61013,-116.352492
"83642","Meridian","ID","Alpine Gas Fireplaces","111 South Stratford Drive","83642",43.60364991,-116.38557805
"83642","Meridian","ID","Alside","1942 E Commercial St","83642",43.610149,-116.36990800000001
"83642","Meridian","ID","The Cover Shop","205 E 5th St","83642",43.605691,-116.386454
"83642","Meridian","ID","Ferguson Fire & Fabrication","534 N Locust Grove Rd","83642",43.609685,-116.373474
"83642","Meridian","ID","Western States CAT","500 E Overland Rd","83642",43.591306,-116.385893
"83642","Meridian","ID","Sherwin-Williams Paint Store","2680 E Fairview Ave","83642",43.619864,-116.361592
"83642","Meridian","ID","Sherwin-Williams Commercial Paint Store","3500 E Commercial Ct","83642",43.61015413121987,-116.35113578287671
"83642","Meridian","ID","ProSource of Boise","582 E Sonata Ln","83642",43.59419,-116.386913
"83642","Meridian","ID","Platt Electric Supply","1300 E Kalispell St Ste 110","83642",43.6024169921875,-116.378173828125
"83642","Meridian","ID","Intermountain Machining Supply Inc","345 S Adkins Way Ste 102","83642",43.60156569999999,-116.3779191
"83642","Meridian","ID","Builders FirstSource","415 E Broadway","83642",43.610014581914015,-116.38701951789147
"83644","Middleton","ID","Custom Mirror & Glass Inc","22758 Lansing Lane","83644",43.703719,-116.572806
"83646","Meridian","ID","Lowe's","3400 N Eagle Rd","83646",43.6350388,-116.3512143
"83647","Mountain Home","ID","P & C Plumbing Supply","not_available","83647",43.138008,-115.69941
"83647","Mountain Home","ID","Carr's Home Lumber Co & True Value Hardware","120 S 3rd E","83647",43.13142013549805,-115.69111633300781
"83647","Mountain Home","ID","Sears","1535 American Legion Rd.","83647",43.1332156,-115.68075
"83647","Mountain Home","ID","D&B Supply","555 W 6th S","83647",43.12617874145508,-115.69585418701172
"83647","Mountain Home","ID","Standard Plumbing Supply","airbase road","83647",43.129700850000006,-115.69648535
"83647","Mountain Home","ID","Bob's Carpet","130 E 10th N","83647",43.14129889011383,-115.70166170597076
"83647","Mountain Home","ID","Sharp All","3435 West Air Base Rd.","83647",43.12689971923828,-115.67205810546875
"83651","Nampa","ID","Nampa True Value","421 12th Avenue Rd","83686",43.564796,-116.573999
"83651","Nampa","ID","Robertson Supply Nampa","318 6th St N","83687",43.591095,-116.56094499999999
"83651","Nampa","ID","Sears","1404 1st St S","83651",43.577540537908234,-116.55696744650243
"83651","Nampa","ID","Platt Electric Supply","401 6th St N Ste 105","83687",43.589709,-116.561154
"83651","Nampa","ID","Owyhee True Value Hardware & Gift","1020 1st St S","83651",43.580059999999996,-116.560689
"83651","Nampa","ID","Stone Lumber","not_available","83651",43.583558000000004,-116.56819399999999
"83651","Nampa","ID","Jag Tool & Equiptment Rental","418 E Karcher Rd","83687",43.605511,-116.56766299999998
"83651","Nampa","ID","Sherwin-Williams Paint Store","1613 Industrial Rd","83687",43.596224,-116.55135700000001
"83660","Parma","ID","Stunz Lumber Co Inc","707 Adrian Blvd","97913",43.875252,-117.00194499999999
"83660","Parma","ID","Oregon Idaho Electric Inc","not_available","97913",43.91007099999999,-117.025455
"83660","Parma","ID","Southfork Hardware","107 Grove St","83660",43.78664449,-116.9460933
"83660","Parma","ID","Nyssa Mercantile","119 Main St","97913",43.876548,-116.994421
"83661","Payette","ID","Burke Electric","not_available","83661",44.0695911,-116.9170475
"83661","Payette","ID","Darts True Value Hardware","121 S Main St","83661",44.07058752,-116.9283624
"83672","Weiser","ID","K Hardware","1101 State St","83672",44.25322723388672,-116.96892547607422
"83672","Weiser","ID","Clausen's Inc","529 State St","83672",44.256686,-116.96828
"83686","Nampa","ID","D&B Supply","3200 12th Ave Rd","83686",43.538493970804524,-116.57148691950822
"83686","Nampa","ID","Dr. House Home Repair","2634 Wagon Wheel Rd","83686",43.543045,-116.546423
"83686","Nampa","ID","Upstage Rentals","646 Aberdeen Dr","83686",43.5531228,-116.5850246
"83687","Nampa","ID","Shilo Plumbing & Supply","3508 Airport Rd","83687",43.587666,-116.52766499999998
"83687","Nampa","ID","Ferguson Bath&Supply","2907 Brandt Ave","83687",43.59047,-116.53331
"83687","Nampa","ID","Pacific Steel","1508 11th Ave N","83687",43.594413,-116.54058500000001
"83702","Boise","ID","BMCSelect","720 E Park Blvd Ste 200","83712",43.60454177856445,-116.1906967163086
"83702","Boise","ID","Design Center of Boise","1185 W Grove St","83702",43.61688,-116.20886
"83702","Boise","ID","Second Chance Building Materials Center","1423 W Grove St","83702",43.618739912224754,-116.21229503793953
"83702","Boise","ID","Renew Appliance","1417 Grove","83702",43.61865793860123,-116.21270527080905
"83702","Boise","ID","Capital Lumber True Value Hardware","3105 W State St","83703",43.633235,-116.225968
"83703","Boise","ID","Thriftway Home Center","4705 W State St","83703",43.6475879,-116.24625
"83703","Boise","ID","View Point, Inc.","6715 W State St","83714",43.663894,-116.272897
"83703","Boise","ID","Valley Tool","4141 W Chinden Blvd","83714",43.63013458251953,-116.25050354003906
"83703","Boise","ID","Kelly-Moore Paints","3816 W State St","83703",43.641380310058594,-116.23662567138672
"83703","Boise","ID","A & B Lock and Key","4106 W State St","83703",43.643876,-116.240195
"83704","Boise","ID","The Home Depot","1200 Milwaukee Street","83704",43.6155277,-116.2829152
"83704","Boise","ID","B's Ace Hardware","10499 W Fairview Ave","83704",43.618086,-116.312698
"83704","Boise","ID","Harbor Freight Tools","10296 W Fairview Ave","83704",43.620479136251475,-116.31052441575109
"83704","Boise","ID","Consolidated Supply","777 N Five Mile Rd","83713",43.61177,-116.31455
"83704","Boise","ID","K&T Contracting","10424 W Barnsdale Dr","83704",43.6526207,-116.3122621
"83704","Boise","ID","Sherwin-Williams Paint Store","8515 W Westpark St","83704",43.606678,-116.28868100000001
"83704","Boise","ID","Standard Plumbing Supply - Boise","145 N Curtis Rd","83706",43.60569946,-116.25461643
"83704","Boise","ID","Sherwin-Williams Paint Store","7160 W Fairview Ave","83704",43.619704,-116.271199
"83704","Boise","ID","Overhead Door","621 N Allumbaugh St","83704",43.610859999999995,-116.26754199999999
"83704","Boise","ID","Reimann's Paint & Window Covering","not_available","83714",43.654762268066406,-116.2963638305664
"83704","Boise","ID","AmeriGlide Boise","9472 W Fairview Ave","83704",43.620408000000005,-116.300407
"83704","Boise","ID","TechniChem","not_available","83709",43.60544,-116.29611
"83704","Boise","ID","American Freight (Sears Outlet) - Appliance, Furniture, Mattress","8033 W Franklin Road","83709",43.6037746,-116.2823326
"83705","Boise","ID","The Home Depot","3639 E Federal Way","83705",43.56741401508142,-116.18503332138062
"83705","Boise","ID","A-1 Lock and Safe Co","5591 W Overland Rd, Boise, ID 83705","83705",43.589222,-116.250648
"83705","Boise","ID","Mcguire Bearings","1033 W Amity Rd","83705",43.559952,-116.194021
"83705","Boise","ID","GTS Interior Supply","4545 South Enterprise Street","83705",43.56104373,-116.19999193
"83705","Boise","ID","Thriftway Home Center","2050 S Broadway Ave","83706",43.586937,-116.193041
"83705","Boise","ID","Cripe Distributing","4631 Aeronca St.","not_available",43.562281,-116.238906
"83705","Boise","ID","Ace Hardware","6969 W Overland Rd","83709",43.589351654052734,-116.26837158203125
"83705","Boise","ID","plumbing parts & supply co","6127 W Franklin Rd","83709",43.60334845,-116.258418
"83705","Boise","ID","Grover's Pay & Pack Electric & Plumbing Supply Co","5370 W. Franklin","83705",43.603862,-116.252546
"83705","Boise","ID","Thriftway Home Center","2050 Broadway Ave","83706",43.5863889,-116.19364
"83705","Boise","ID","Sherwin-Williams Paint Store","2550 S Orchard St","83705",43.579671,-116.243057
"83706","Boise","ID","Grainger Industrial Supply","5576 Irving St, Boise, ID 83706","83706",43.615723,-116.250533
"83706","Boise","ID","Robertson Supply - Boise","5400 Emerald St","83706",43.61232556,-116.24893542
"83706","Boise","ID","Dave's Palouse Resharp","115 E 35th St","83714",43.62392,-116.23873999999999
"83706","Boise","ID","Platt Electric Supply","5603 W Bethel St","83706",43.605742,-116.25116299999999
"83706","Boise","ID","K C Tool Supply","5103 W Irving St","83706",43.61521,-116.2447
"83706","Boise","ID","boise electric motor","109 E 38th St","83714",43.626388,-116.243094
"83709","Boise","ID","Lowe's","7990 West Overland Road","83709",43.5923493,-116.2819672
"83709","Boise","ID","D & J Small Engines","7479 W Lemhi St","83709",43.583146,-116.275203
"83709","Boise","ID","Tile Outlet & Granite","2230 S Cole Rd #150","83709",43.580658,-116.272818
"83709","Boise","ID","BMC - Building Materials & Construction Services","11670 W Franklin Rd","83709",43.60601,-116.325252
"83709","Boise","ID","Franklin Building Supply","11700 W Franklin Rd","83709",43.605914,-116.329348
"83709","Boise","ID","Sherwin-Williams Floorcovering Store","2740 S Cole Rd","83709",43.578249,-116.272041
"83709","Boise","ID","Idaho Transmission Warehouse","2175 S Centurion Pl","83709",43.583187,-116.271131
"83713","Boise","ID","Hotsy Cleaning Systems","11711 W Fairview Ave","83713",43.618948,-116.328346
"83713","Boise","ID","Lawn Equipment Company","11000 W Fairview Ave","83713",43.620197,-116.319788
"83713","Boise","ID","Cloverdale Plumbing Company","11627 W Fairview Ave","83713",43.61931431666667,-116.32758811666666
"83713","Boise","ID","mattson distribution company","11711 W Fairview Ave, Boise, ID 83713","83713",43.618934631347656,-116.32835388183594
"83716","Boise","ID","Sherwin-Williams Paint Store","2221 E Hospitality Ln","83716",43.539005,-116.155708
"83716","Boise","ID","H&E Equipment Services","7489 Federal Way","83716",43.533488,-116.1529618
"83801","Athol","ID","Ace Hardware Super 1 Foods","30585 N Roberts Road","83801",47.94989776611328,-116.69300079345703
"83811","Clark Fork","ID","Ace Hardware","54304 Highway 200","83811",48.155029296875,-116.1900634765625
"83814","Coeur D Alene","ID","The Home Depot","220 W Kathleen Ave","83815",47.71452584836059,-116.78758350660519
"83814","Coeur D Alene","ID","Ziggy's Hardware And Lumber","Hayden, ID","83835",47.772768436998014,-116.78964220960763
"83814","Coeur D Alene","ID","Keller Supply","not_available","83815",47.722699,-116.797001
"83814","Coeur D Alene","ID","Hayden Ace Hardware","196 W Hayden Ave","83835",47.757573,-116.789666
"83814","Coeur D Alene","ID","Ace Hardware","1604 E Seltice Way","83854",47.71023760981991,-116.92267043569237
"83814","Coeur D Alene","ID","Badger Building Center","Seltice","83854",47.71109606359449,-116.91009110899378
"83814","Coeur D Alene","ID","Lowe's","901 W Appleway Ave","83814",47.7021523,-116.8012335
"83814","Coeur D Alene","ID","Harbor Freight Tools","410 W Neider Ave Ste C","83815",47.705971000000005,-116.79373100000001
"83814","Coeur D Alene","ID","Cooperative Supply Inc.","not_available","83854",47.71610031167051,-116.95225315620561
"83814","Coeur D Alene","ID","Sherwin-Williams Paint Store","2011 N 4th St","83814",47.69540810590921,-116.7813684977805
"83814","Coeur D Alene","ID","Ziggy’s Home Improvement- Post Falls","2121 Idaho 41","83854",47.72673238808242,-116.89510028087682
"83814","Coeur D Alene","ID","Big R Coeur d' Alene","170 E Kathleen Ave","83815",47.71472930908203,-116.78437042236328
"83814","Coeur D Alene","ID","Oxarc","3530 N Ramsey Rd","83815",47.70943069458008,-116.8075180053711
"83814","Coeur D Alene","ID","Precision Material Placement Inc","2838 E Bluegrass Ln","83854",47.737119,-116.910609
"83814","Coeur D Alene","ID","Platt Electric Supply","660 W Dalton Ave","83815",47.72210434386057,-116.7956430569781
"83814","Coeur D Alene","ID","Seright's Ace Hardware","1217 N 4th St","83814",47.6865,-116.7809
"83814","Coeur D Alene","ID","Benjamin Moore Nielsen's Paints","8943 N Commerce Dr","83835",47.753147,-116.79058
"83814","Coeur D Alene","ID","The Cutting Edge Sharpening Service and Tool Sales","3640 N Cederblom St","83815",47.7123908996582,-116.78865814208984
"83814","Coeur D Alene","ID","River City Paint","444 N Bay St","83854",47.7098834,-116.924858
"83815","Coeur D Alene","ID","Sherwin-Williams Paint Store","355 W Prairie Shopping Ctr","83835",47.747187,-116.79018700000002
"83815","Coeur D Alene","ID","Tractor Supply Co.","131 West Neider Avenue","83815",47.708685,-116.788846
"83815","Coeur D Alene","ID","Ferguson Plumbing Supply","600 W Dalton","83814",47.72227096557617,-116.79464721679688
"83821","Coolin","ID","Tamrak True Value Hardware","27916 Highway 57","83856",48.51606750488281,-116.92780303955078
"83822","Oldtown","ID","Selkirk Ace","495 E Highway 2","83822",48.185904,-117.0217
"83822","Oldtown","ID","Ace Hardware","495 Highway 2","83822",48.18699645996094,-117.03009033203125
"83822","Oldtown","ID","Albeni Falls Building Supply","Diamond Lumber Rd","83822",48.18581008911133,-117.02400970458984
"83837","Kellogg","ID","Kellogg Ace Hardware","313 W Cameron Ave","83837",47.541845,-116.125026
"83839","Kingston","ID","Barneys True Value","117 N Division St","83850",47.54307333,-116.22918
"83843","Moscow","ID","Moscow & Pullman Building Supply","760 N Main St","83843",46.742217,-116.9998
"83843","Moscow","ID","Spence True Value Hardware","915 E White Ave","83843",46.722529,-116.986877
"83843","Moscow","ID","Vac-U-Mart","not_available","83843",46.740579,-117.00113
"83843","Moscow","ID","Sears","1410 South Blaine","83843",46.721833,-116.982919
"83843","Moscow","ID","St John Hardware","200 West A Stret","83843",46.73459850464664,-117.00323480193738
"83843","Moscow","ID","Norm’s Glass","621 N Main St","83843",46.740415,-117.001812
"83843","Moscow","ID","Tri-State Distributors","1104 W Pullman Road","83843",46.7316,-116.9902
"83843","Moscow","ID","Ace Hardware","1104 W Pullman Rd","83843",46.733433000000005,-117.017306
"83843","Moscow","ID","JJ Building Supplies Inc","2750 Highway 95 S","83843",46.704628,-117.005994
"83843","Moscow","ID","Sherwin-Williams Paint Store","610 W Pullman Rd","83843",46.73301489570313,-117.00846076011658
"83851","Plummer","ID","Benewah Ace Hardware","1111 B Street","83851",47.33592224121094,-116.88864135742188
"83852","Ponderay","ID","The Home Depot","500 Kootenai Cut-Off Rd","83852",48.31121487000522,-116.54179394245148
"83852","Ponderay","ID","Sherwin-Williams Paint Store","30736 Highway 200","83852",48.30062457156565,-116.53953552246094
"83854","Post Falls","ID","Seright's Ace Hardware","14236 North Highway 41","83858",47.80140686035156,-116.89266204833984
"83854","Post Falls","ID","Rathdrum Trading Post Hardware","16484 N Highway 41","83858",47.820618314566225,-116.88202142715453
"83854","Post Falls","ID","Lakeland True Value Hardware Store","not_available","83858",47.820394850917424,-116.8815537495706
"83854","Post Falls","ID","GTS Interior Supply","14678 N Highway 41","83858",47.80526783,-116.89315268
"83854","Post Falls","ID","Builders FirstSource","N 2000 Hwy 41","83854",47.726009628393975,-116.89309358596802
"83854","Post Falls","ID","H&E Equipment Services","3940 E 16th Ave","83854",47.72268295288086,-116.89508819580078
"83854","Post Falls","ID","Thomas Brothers Plumbing","16478 W Prairie Ave","83854",47.744144439697266,-117.00856018066406
"83854","Post Falls","ID","Auto Paint Plus","205 E Seltice Way #F","83854",47.71547899999999,-116.945918
"83854","Post Falls","ID","Petal Pushers Nursery","201 E 6th Ave","83854",47.71346664428711,-116.94627380371094
"83854","Post Falls","ID","Fastenal","6027 N Pittsburg","not_available",47.715279640350126,-116.94430032301854
"83856","Priest River","ID","Priest River Ace Hardware","5499 Highway 2","83856",48.180737,-116.9212
"83856","Priest River","ID","Tamrak True Value Hardware","27916 Hwy 57","83856",48.19142,-116.91417
"83860","Sagle","ID","Merwins True Value Hardware","201 N Third Ave","83864",48.2741,-116.5502
"83860","Sagle","ID","Sandpoint Drug & Ace Hardware","604 N 5th Ave","83864",48.278502,-116.552927
"83861","Saint Maries","ID","Hughes Ace Hardware","904 Center Ave","83861",47.3176429,-116.56929
"83864","Sandpoint","ID","Idaho Electric Supply","1111 Baldy Mountain Rd","83864",48.28752210069406,-116.56350105871832
"83869","Spirit Lake","ID","Old Westhardware","not_available","83869",47.96515031317254,-116.87016996499155
"83869","Spirit Lake","ID","Miller's Ace Hardware","31964 N 5th Ave","83869",47.962608337402344,-116.86808776855469
"83873","Wallace","ID","Wallace True Value","716 Bank St","83873",47.471371999999995,-115.921276
