"zip","city","state","name","address","postalCode","lat","lon"
"07001","Avenel","NJ","The Home Depot","1555 St Georges Ave Rt 35","07067",40.5912285,-74.2921631
"07001","Avenel","NJ","Astro Tool","810 Martin St","07065",40.595684000000006,-74.276543
"07001","Avenel","NJ","Sherwin-Williams Paint Store","366 Saint Georges Ave","07065",40.597119,-74.290789
"07001","Avenel","NJ","Van Houten Plumbing","not_available","not_available",40.58341498331724,-74.2817900135387
"07001","Avenel","NJ","DoorDesignLab Interior Doors seller","970 New Brunswick Ave Ste 4","07065",40.60111999511719,-74.28092193603516
"07001","Avenel","NJ","Maximum Welding","21 Randolph Ave","07001",40.59651184082031,-74.25349426269531
"07001","Avenel","NJ","stone quest","not_available","07008",40.58433845734161,-74.24979100243002
"07002","Bayonne","NJ","Lowe's","400 Bayonne Crossing Way","07002",40.661342,-74.105671
"07002","Bayonne","NJ","General Plumbing Supply - Bayonne","1309 Kennedy Blvd","07002",40.6922789,-74.10398039
"07002","Bayonne","NJ","Central Paint & Building Supply","896 Broadway","07002",40.67803,-74.10600699999999
"07002","Bayonne","NJ","Ace Hardward","916 Broadway","07002",40.678744,-74.105418
"07002","Bayonne","NJ","minuteKEY","500 Bayonne Crossing Way","07002",40.65985870361328,-74.10668182373047
"07002","Bayonne","NJ","GPS Bayonne","not_available","07002",40.690784077714156,-74.10469425129156
"07002","Bayonne","NJ","ACR Handyman & Hardware","917 Broadway","07002",40.678987,-74.105879
"07002","Bayonne","NJ","TSC Safety Supplied Unlimited","200 Broadway","07002",40.652915954589844,-74.12722778320312
"07002","Bayonne","NJ","AC Hardware","1030 Broadway","07002",40.68307,-74.1019
"07002","Bayonne","NJ","BAyonne Plumbing And Heating Supplies","224 Avenue E","07002",40.661121,-74.116955
"07002","Bayonne","NJ","A C Hardware II Inc","915 Broadway","07002",40.6789967,-74.1058977
"07002","Bayonne","NJ","Bayonne Plumbing","250 Avenue E","07002",40.661050612723415,-74.11692187677832
"07002","Bayonne","NJ","Capitol Building Supply","240 East 5th Street","07002",40.6534601,-74.1163657
"07002","Bayonne","NJ","Bayonne Appliance Repair","1086 Avenue C Unit 12","07002",40.685367584228516,-74.10304260253906
"07002","Bayonne","NJ","Wholesale Home","77 Linnett St","07002",40.653427,-74.122331
"07003","Bloomfield","NJ","The Home Depot","60 Orange St","07003",40.78603306684421,-74.19817328453064
"07003","Bloomfield","NJ","Ricciardi Bros Inc","287 Bloomfield Ave","07003",40.78437423706055,-74.19244384765625
"07003","Bloomfield","NJ","American Royal Hardware","251 Park St","07043",40.83105544389459,-74.20590747655717
"07003","Bloomfield","NJ","Fasteners Depot","51 La France Ave","07003",40.77875518798828,-74.19164276123047
"07003","Bloomfield","NJ","Saunders Hardware","627 Valley Rd","07043",40.84212291083916,-74.20787869694368
"07003","Bloomfield","NJ","Bell's Security","426 Bloomfield Ave","07003",40.788843,-74.195463
"07003","Bloomfield","NJ","Bloomfield Mason Supply","5-29 Race St","07003",40.791174,-74.192336
"07003","Bloomfield","NJ","Bob Fraser Locksmith","127 Watchung Ave","07043",40.8303337097168,-74.20491027832031
"07003","Bloomfield","NJ","Grand True Value Rental Of Bloomfield","668 Bloomfield Ave","07003",40.7961540222168,-74.19991302490234
"07003","Bloomfield","NJ","Bloomfield Electrical Supply Co.","660 Bloomfield Ave","07003",40.795959,-74.19996400000001
"07003","Bloomfield","NJ","Hose Heaven, Inc","311 Broad Street","07003",40.81,-74.18
"07003","Bloomfield","NJ","Zp Home Improvement L.L.C.","65 Baldwin St","07003",40.807668,-74.19564
"07003","Bloomfield","NJ","Glen Hardware Store","100 - 300 Bloomfield Ave","07003",40.787208,-74.194465
"07003","Bloomfield","NJ","Sherwin-Williams Paint Store","324 Bloomfield Ave","07003",40.785425,-74.193637
"07003","Bloomfield","NJ","Bloomfield Plumbing And Heating","Montgomery St","07003",40.792258000000004,-74.190955
"07003","Bloomfield","NJ","Designer Appliances","208 Bellevue Ave","07043",40.84046,-74.20677
"07003","Bloomfield","NJ","Luxury Landscaping","57 Carrie Ct","07110",40.811924,-74.177542
"07003","Bloomfield","NJ","Da Shoppe","Tremont Place","07110",40.80876954474415,-74.16685069651442
"07004","Fairfield","NJ","The Home Depot","79 US Highway 46","07058",40.8601888,-74.321587
"07004","Fairfield","NJ","Fastenal Company","68A Clinton Rd","07004",40.861863471267405,-74.31344538896263
"07004","Fairfield","NJ","Aaron And Company","not_available","07004",40.87446296909075,-74.29379965301001
"07004","Fairfield","NJ","Boards and beams","1275 Bloomfield Ave Ste 10","07004",40.86178933325205,-74.31784519171576
"07004","Fairfield","NJ","Hardware Bath & Spa","567 US Highway 46","07004",40.88917922973633,-74.27714538574219
"07004","Fairfield","NJ","HD Supply A.H. Harris","160 Fairfield Rd","07004",40.8755915,-74.29570327
"07004","Fairfield","NJ","Grainger","277 U.S. 46","07004",40.87803831579929,-74.2986124536056
"07004","Fairfield","NJ","Melfast","18 Passaic Ave","07004",40.865390999999995,-74.281796
"07004","Fairfield","NJ","Speedcut Tool & Supply Corp.","145 Fairfield Rd","07004",40.87571,-74.297271
"07004","Fairfield","NJ","Cooper Electrical Supply","Route 46 East","07004",40.88357652927111,-74.2859785800024
"07004","Fairfield","NJ","Sears","50 US Highway 46","07470",40.890357303658426,-74.26153914209864
"07004","Fairfield","NJ","Garage Door Repair Fairfield","Holly Dr","07004",40.88692996081083,-74.30783271789551
"07004","Fairfield","NJ","Sherwin-Williams Paint Store","20 Passaic Ave","07004",40.866161,-74.28152800000001
"07004","Fairfield","NJ","Day To Day Essentials","472 US Highway 46","07004",40.88481521606445,-74.28441619873047
"07004","Fairfield","NJ","Atlas Copco Rental","1 Oak Rd","07004",40.85843383478366,-74.31573450565338
"07004","Fairfield","NJ","Windowrama","430 US Highway 46","07004",40.883741016051815,-74.28714401821495
"07004","Fairfield","NJ","Wallington Plumbing Supply","21 Passaic Ave","07004",40.86638,-74.28303199999999
"07004","Fairfield","NJ","Garage Door Repair Caldwell","Bloomfield Ave","07006",40.85241664350037,-74.30002212524414
"07004","Fairfield","NJ","Sears","50 Route 46","07470-6834",40.8899712,-74.2614123
"07004","Fairfield","NJ","Metal Supermarkets Fairfield","1 Just Rd","07004",40.87854262416644,-74.29182529449463
"07005","Boonton","NJ","Denville Hardware","20 1st Ave","07834",40.892729994298264,-74.476252699533
"07005","Boonton","NJ","Boonton Power","not_available","07005",40.90406069935559,-74.4007682277835
"07005","Boonton","NJ","Forest Lumber & Building Supply","86 US Highway 46","07046",40.883060455322266,-74.4576187133789
"07005","Boonton","NJ","Blackman","3460 US Highway 46","07054",40.87501907348633,-74.43572998046875
"07005","Boonton","NJ","M&L Locksmith","not_available","07034",40.878902,-74.382525
"07005","Boonton","NJ","TRUE VALUE HARDWARE","320 US Highway 46","07834",40.88810348510742,-74.46569061279297
"07005","Boonton","NJ","M.L. Lock and Safe Company","21 N Beverwyck Rd","07034",40.87831115722656,-74.3827896118164
"07006","Caldwell","NJ","Costello's Ace Hardware","490 Bloomfield Ave","07006",40.843122,-74.28225
"07006","Caldwell","NJ","JKI Electronics","396 Bloomfield Ave","07006",40.840546,-74.278019
"07006","Caldwell","NJ","West Essex Building Supply","40 Depot St","07044",40.836356,-74.253458
"07006","Caldwell","NJ","Garage Door Repair Verona","Bloomfield Ave","07044",40.83183315044927,-74.24599170684814
"07006","Caldwell","NJ","Singac Plumbing Supply","1432 Pompton Ave","07009",40.880146999999994,-74.242646
"07008","Carteret","NJ","Plaza paint and hardware","735 Roosevelt Ave","07008",40.58579,-74.22558199999999
"07008","Carteret","NJ","Baumgartners'","31-33 Randolph St","07008",40.581175,-74.21719
"07008","Carteret","NJ","Locksmith Port Reading","800 Port Reading Ave #201","07064",40.56953048706055,-74.23603820800781
"07009","Cedar Grove","NJ","Major Hardware","589 Pompton Ave","07009",40.85337,-74.229427
"07009","Cedar Grove","NJ","Garage Door Repair Cedar Grove","Pompton Ave","07009",40.858356746780416,-74.23086404800415
"07009","Cedar Grove","NJ","Garage Door Repair Little Falls","Center Ave","07424",40.879078017836825,-74.23122882843018
"07010","Cliffside Park","NJ","Sherwin-Williams Paint Store","425 Anderson Ave","07022",40.82130432128906,-73.9919662475586
"07010","Cliffside Park","NJ","Issa's Hardware","not_available","07010",40.81571849,-73.99092958
"07010","Cliffside Park","NJ","Boulevard Hardware & Supply Co.","526 Bergen Blvd","07657",40.825559,-73.99632729999999
"07010","Cliffside Park","NJ","Fairview Hardware","anderson ave","07022",40.815321155488455,-73.99591844797996
"07010","Cliffside Park","NJ","Gyro Tech of New York","558 Anderson Ave","07010",40.8232421875,-73.98908233642578
"07011","Clifton","NJ","The Home Depot","955 Bloomfield Ave","07012",40.8434257,-74.1579055
"07011","Clifton","NJ","The Home Depot","103-179 Dayton Ave","07055",40.8716252,-74.1204479
"07011","Clifton","NJ","Harbor Freight Tools","1016 Main Ave","07011",40.87211489419476,-74.13551575368122
"07011","Clifton","NJ","Corrado's Garden Center","600 Getty Ave","07011",40.88864802,-74.14974096
"07011","Clifton","NJ","Grainger Industrial Supply","308 Allwood Rd","07012",40.83860319200907,-74.1522473423545
"07011","Clifton","NJ","J.Racenstein Window Cleaning  Supplie","1 Madison St","07094",40.846805572509766,-74.11929321289062
"07011","Clifton","NJ","Sherwin-Williams Paint Store","1067 Bloomfield Ave","07012",40.840179443359375,-74.15965270996094
"07011","Clifton","NJ","Cutter’s Edge","345 Lakeview Ave","07011",40.8868955,-74.1383439
"07011","Clifton","NJ","AGL Welding Supply","600 US Highway 46","07013",40.87821814104651,-74.16149139404297
"07011","Clifton","NJ","The Tool Box","119 Lakeview Ave","07011",40.879051,-74.136769
"07011","Clifton","NJ","Furia Roofing","2 Monhegan St, Clifton, NJ 07013","07013",40.863312714852796,-74.15392679700017
"07011","Clifton","NJ","Window Gallery","1372 Main Ave","07011",40.8822021484375,-74.14619445800781
"07011","Clifton","NJ","North Jersey Forklift Inc","80 Michigan Avenue","07503",40.89415930000001,-74.15427629999999
"07011","Clifton","NJ","Passaic Metal","5 Central Ave","07011",40.87212371826172,-74.13345336914062
"07011","Clifton","NJ","Able Hardware","Van Houten Ave","not_available",40.86055201,-74.1527094
"07011","Clifton","NJ","Ferguson Fire & Fabrication","151 Randolph St","07055",40.85301971435547,-74.13433074951172
"07011","Clifton","NJ","Bradco Roofing Supply","45 Samworth Rd","07012",40.843040466308594,-74.15644836425781
"07011","Clifton","NJ","The Screw Specialists","242 South Pkwy","07014",40.83917999267578,-74.13223266601562
"07011","Clifton","NJ","Pashman Supply","Main Ave.","07055",40.86520709044962,-74.1303874006364
"07011","Clifton","NJ","KeyMe","24 Barbour Ave","07055",40.875744,-74.120294
"07011","Clifton","NJ","Ferguson HVAC Supply","835 Bloomfield Ave","07012",40.8470594340495,-74.1546978724543
"07011","Clifton","NJ","benjamin moore Belmont Paint Centee","not_available","07026",40.87927756390305,-74.12002453861267
"07012","Clifton","NJ","Locksmith Clifton","1135 Broad St","07013",40.857627868652344,-74.17552185058594
"07013","Clifton","NJ","Locksmith Clifton","855 Valley Rd","07013",40.87165832519531,-74.18851470947266
"07013","Clifton","NJ","Feldman Brothers","26 Maryland Ave","07503",40.897832816666664,-74.153653
"07014","Clifton","NJ","Nutley Pool And Spa","682 Passaic Ave","07110",40.82787921475386,-74.1455448858401
"07014","Clifton","NJ","Legend Stone Products","185 River Rd","07014",40.827189617902526,-74.13105368614197
"07014","Clifton","NJ","Birch Lumber","not_available","07014",40.828557,-74.131656
"07014","Clifton","NJ","Consolidated Lumber Co.","90 Oak St","07014",40.83138250643137,-74.13205045177018
"07014","Clifton","NJ","Jersey Power Equipment Inc.","10 Main Ave","07014",40.828721225445875,-74.14514216139847
"07016","Cranford","NJ","The Home Depot","200 South Ave","07027",40.652468402162896,-74.32064294815069
"07016","Cranford","NJ","Builders general","not_available","07016",40.64942,-74.2944
"07016","Cranford","NJ","Flesher Home Improvement LLC","41 Wadswoth Ter","07016",40.665501,-74.293114
"07016","Cranford","NJ","Premier Electric","236 North Ave","07027",40.654163,-74.32162
"07016","Cranford","NJ","Barnett Tool Supply","745 Boulevard","07033",40.677678,-74.284243
"07016","Cranford","NJ","Construction Specialties Inc.","49 Meeker Ave","07016",40.653053697635926,-74.28972124963055
"07017","East Orange","NJ","reliable lock","Prospect St","07018",40.767539,-74.21746
"07017","East Orange","NJ","Prad's Hardware","520 Main St","07018",40.76633071899414,-74.21691131591797
"07017","East Orange","NJ","General Plumbing Supply","540 Thomas Blvd","07050",40.785481535012266,-74.21976391877753
"07020","Edgewater","NJ","University Hardware & Housewares","2905 Broadway","10025",40.80627220077577,-73.96514391797922
"07020","Edgewater","NJ","NHS HARDWARE","433 ST,W 125TH","10027-4201",40.8124037,-73.9550591
"07020","Edgewater","NJ","Janovic Paint & Decorating","2680 Broadway","10025",40.7985,-73.96848
"07020","Edgewater","NJ","The Upper Westside Hardware","2672 Broadway","10025",40.79821014404297,-73.9688720703125
"07020","Edgewater","NJ","Garcia Hardware","995 Columbus Ave","10025",40.800944,-73.961217
"07020","Edgewater","NJ","United Hardware","2160 Frederick Douglass Blvd","10026",40.80479507561142,-73.95518830600895
"07020","Edgewater","NJ","Hardware And Houseware","not_available","10025",40.800759523432276,-73.96723398452752
"07020","Edgewater","NJ","Iglarsh Supply Co","976 Amsterdam Ave","10025",40.80205154418945,-73.96491241455078
"07020","Edgewater","NJ","NY Plumbing Supply","933 Columbus Ave","10025",40.79892,-73.962762
"07020","Edgewater","NJ","Clinton Supply Co.","1256 Amsterdam Ave","10027",40.810562,-73.95870699999999
"07020","Edgewater","NJ","Casa Hardware","2748 Broadway","10025",40.80066,-73.967597
"07020","Edgewater","NJ","Philip Glick Supply Co","421-423 W 125th St","10027",40.811547409013194,-73.95522633336623
"07020","Edgewater","NJ","Franklin & Lennon Paint Co.","537 W 125th St","10027",40.814693450927734,-73.95700073242188
"07020","Edgewater","NJ","Up Town Emergency Door & Lock Services","440 w 120 st","10027",40.809099471544386,-73.95875930786133
"07020","Edgewater","NJ","Riverside Drive Plumbing and Heating","600 W 115th St","10025",40.80728044063971,-73.96489620208739
"07022","Fairview","NJ","The Key Connection Inc.","323 9th St.","07022",40.819764,-73.998694
"07022","Fairview","NJ","Edge Grinding Shop","388 Fairview Ave","07022",40.81119,-74.001796
"07022","Fairview","NJ","Ipex","8825 Tonnelle Ave","07047",40.81210681422234,-74.01196047863134
"07022","Fairview","NJ","Jeferson Glass and Mirrors LLC","495 Cliff St","07022",40.820607,-73.999239
"07022","Fairview","NJ","minuteKEY","2100 88th St","07047",40.8136591,-74.0114331
"07023","Fanwood","NJ","Turtle And Hughes Electric Supply","1260 North Ave","07062",40.632399,-74.39928499999999
"07023","Fanwood","NJ","Anderson Lawnmower","1716 E 2nd St","07076",40.645732450065886,-74.39962871152444
"07023","Fanwood","NJ","South Ave Plumbing Contractors","1235 South Ave","07062",40.63176186294673,-74.39792275428772
"07024","Fort Lee","NJ","Benjamin moore paints","2134 Hudson St","07024",40.855274,-73.965796
"07024","Fort Lee","NJ","Ace Hardware","335 Broad Ave","07605",40.86195755004883,-73.9874267578125
"07024","Fort Lee","NJ","Fort Lee Hardware","Main st.","not_available",40.85180485147764,-73.9706834630504
"07024","Fort Lee","NJ","Pete's Lock and Key","187 Washington Ave","07024",40.86405,-73.961495
"07026","Garfield","NJ","Elmwood Supply","485 River Dr","07026",40.874576,-74.114309
"07026","Garfield","NJ","Modern Home Luxury","75 River Drive","07026",40.86371994018555,-74.10529327392578
"07026","Garfield","NJ","minuteKEY","174 Passaic St","07026",40.86709976196289,-74.0994644165039
"07026","Garfield","NJ","minuteKEY","189 US Highway 46","07663",40.892295837402344,-74.0939712524414
"07026","Garfield","NJ","Garage Door Repair Saddle Brook","Midland Ave","07663",40.888535925295606,-74.10349130630493
"07026","Garfield","NJ","Industrial Parts Company LLC","163 Belmont Ave # 1","07026",40.876639,-74.1048634
"07026","Garfield","NJ","DeWalt","not_available","07407",40.893392445152244,-74.11674982378709
"07026","Garfield","NJ","Allstate Engine and Parts Supply","253 US-46","07663",40.888987,-74.0938155
"07026","Garfield","NJ","VAN HOUTEN Plumbing And Heating Supply","810 Main Ave","07055",40.865440368652344,-74.12999725341797
"07027","Garwood","NJ","Westfield Lumber & Home Center","700 N Ave E","07090",40.65205335189625,-74.33257565252455
"07028","Glen Ridge","NJ","Montclair Supply Corp","97-99 Maple Ave","07042",40.803476,-74.213645
"07028","Glen Ridge","NJ","Red Star Paint & Decorating Center","420 Bloomfield Ave","07042",40.81303,-74.2169
"07028","Glen Ridge","NJ","south end hardware","321 Orange Rd","07042",40.797552,-74.21865600000001
"07029","Harrison","NJ","Sherwin-Williams Paint Store","536 Raymond Blvd","07105",40.7335732583318,-74.14283125179665
"07029","Harrison","NJ","Economy Hardware Co Inc","204 Harrison Ave","07029",40.7461936,-74.160072
"07030","Hoboken","NJ","General Lumber True Value","200 Clinton St","07030",40.739748999999996,-74.035291
"07030","Hoboken","NJ","City Paint & Ace Hardware","130 Washington St","07030",40.738604,-74.030928
"07030","Hoboken","NJ","Unlocking Brick LLC","1351 County Road 675","07030",40.75295697302276,-74.02958035469055
"07030","Hoboken","NJ","Jovin Plumbing","712 New York Ave","07087",40.7567253112793,-74.03793334960938
"07030","Hoboken","NJ","Garage Doors Impact","794 Clinton Street","07030",40.74721876050276,-74.03318524360657
"07030","Hoboken","NJ","River West Plumbing & Heating Supply","not_available","07030",40.754517,-74.03147866666666
"07030","Hoboken","NJ","The DIY Joint","51 Harrison St #A207","07030",40.7374387,-74.0424396
"07030","Hoboken","NJ","Hoboken Lock","624 Washington St","07030",40.744166,-74.029306
"07031","North Arlington","NJ","Midland Hardware","not_available","07032",40.770240319702495,-74.14230369521874
"07031","North Arlington","NJ","Hays Keys","724 Kearny Ave","07032",40.776451,-74.14184499999999
"07031","North Arlington","NJ","Enterprise HVAC Supply","701 main st belleville, nj","not_available",40.802794,-74.14111
"07031","North Arlington","NJ","Corrado's True Value Hardware","65 River Rd","07031",40.78792676,-74.14449175
"07031","North Arlington","NJ","Sherwin-Williams Paint Store","614 Ridge Rd","07031",40.798464,-74.125649
"07032","Kearny","NJ","Lowe's","727 Route 440","07304",40.7232774,-74.0945252
"07032","Kearny","NJ","Fastenal","9 Basin Dr","07032",40.726585388183594,-74.104736328125
"07032","Kearny","NJ","Weber Hardware","850 Mt Prospect Ave, Newark, NJ 07104","07104",40.77848876901747,-74.16009643693299
"07032","Kearny","NJ","Sherwin-Williams Paint Store","748 Communipaw Ave","07304",40.720229184220614,-74.07896772523358
"07032","Kearny","NJ","Eastern Concrete","Pulaski Skyway","07306",40.737944,-74.08023118972778
"07032","Kearny","NJ","minuteKEY","727 State Rt 440","07304",40.721953000000006,-74.092597
"07032","Kearny","NJ","Tile Emporium","not_available","07105",40.732592853612246,-74.13979778110523
"07032","Kearny","NJ","Grand Plumbing Supply","371 Sip Ave","07306",40.73376561044754,-74.07818303775838
"07032","Kearny","NJ","Lopes e Filhos Hardware","98 Ferry St","07105",40.730683,-74.16136999999999
"07032","Kearny","NJ","Cooper Electric","969 Newark-Jersey City, Turnpike","07032",40.74719193776603,-74.10291194915771
"07032","Kearny","NJ","Down-Neck Equipment True Value","192-222 Clifford St","07105",40.719208,-74.159538
"07032","Kearny","NJ","Electrodomestix Inc.","8 Wilson Ave","07105",40.727920000000005,-74.155992
"07032","Kearny","NJ","Newark Caplan Carpet Inc","not_available","07104",40.78181465650408,-74.15997029392739
"07032","Kearny","NJ","Verona Ind & Building Supply Co Inc","186 Verona Ave","07104",40.781244,-74.161187
"07032","Kearny","NJ","Extech Building Materials","61-89 Avenue K","07105",40.71834945678711,-74.14937591552734
"07032","Kearny","NJ","AGB Auto Repair","457 Davis Ave","07032",40.764052143142344,-74.14876042635083
"07032","Kearny","NJ","Atlantic American Fire & Equipment","1 Jacobus Ave Ste 100","07032",40.73319707068506,-74.11293268203735
"07032","Kearny","NJ","Imperial Dade","255 Route 1 & 9","07306",40.7363796,-74.0896732
"07033","Kenilworth","NJ","The Home Depot","930 Springfield Rd South","07083",40.6866913,-74.3030217
"07033","Kenilworth","NJ","Harbor Freight Tools","2438 US HIGHWAY 22 E","07033",40.68934194110723,-74.29690974729364
"07033","Kenilworth","NJ","minuteKEY","900 Springfield Rd","07083",40.687252044677734,-74.30172729492188
"07033","Kenilworth","NJ","Mr Fix-it's Repair Shop","not_available","07033",40.679352,-74.291748
"07033","Kenilworth","NJ","H&H Building Supply","not_available","07204",40.665597,-74.269648
"07033","Kenilworth","NJ","Express Union Tile","not_available","07083",40.689628,-74.29587
"07033","Kenilworth","NJ","Johnstone Supply","Market st","not_available",40.671428679010255,-74.27941778675176
"07033","Kenilworth","NJ","United Refrigeration","141 Market St","07033",40.67210388183594,-74.2803955078125
"07034","Lake Hiawatha","NJ","The Home Depot","780 Route 46 West","07054",40.865441508855255,-74.37231030340621
"07034","Lake Hiawatha","NJ","Hammer Time","not_available","07054",40.866448549337406,-74.39568902129447
"07035","Lincoln Park","NJ","Costello's Ace Hardware","261 Comly Rd","07035",40.9224869,-74.301755
"07035","Lincoln Park","NJ","Lincoln Park True Value Hardware","206 Main St","07035",40.923029,-74.305044
"07035","Lincoln Park","NJ","Wayne Tile Co.","100 Alexander Ave","07444",40.95775604248047,-74.28895568847656
"07035","Lincoln Park","NJ","Garage Door Repair Wayne","Wayne St","07470",40.92210625483737,-74.28195476531982
"07035","Lincoln Park","NJ","Maresca's Hardware Store","not_available","07440",40.94480310903467,-74.28400750191672
"07035","Lincoln Park","NJ","Dan Como and Sons Landscape Supply","3 Como Ct","07082",40.931828,-74.33905399999999
"07035","Lincoln Park","NJ","Outwater Hardware","not_available","07035",40.929468899818175,-74.3124428147719
"07035","Lincoln Park","NJ","Perfection Painting & Papering","21 Madison St","07440",40.951492,-74.280817
"07036","Linden","NJ","The Home Depot","701 West Edgar Road","07036",40.61786570927163,-74.24907624721527
"07036","Linden","NJ","Town Hardware Inc","26 Westfield Ave","07066",40.6181029,-74.296791
"07036","Linden","NJ","Cooper electric supply","Lower road","07036",40.608323,-74.251465
"07036","Linden","NJ","Garden State Building Supply","2420 Urbanowitz Ave","07036",40.648496,-74.225009
"07036","Linden","NJ","Mishra's Workshop","West Blancke","07036",40.6196477,-74.26650814999999
"07036","Linden","NJ","JW Goodliffe & Son","1900 E Elizabeth Ave, Linden, NJ 07036","07036",40.648857,-74.232884
"07036","Linden","NJ","EG Smith Handyman","15 Maple Avenue","07036",40.6339626701669,-74.24870610237122
"07036","Linden","NJ","W.A. Birdsall & CO. Plumbing Supply","Elizabeth ave","07036",40.61556505952497,-74.26573963503853
"07036","Linden","NJ","Baway Lumber","400 Ashton Ave","07036",40.64883,-74.22492199999999
"07036","Linden","NJ","Rons Snap-on Truck","not_available","07001",40.60374063898624,-74.26357922986831
"07036","Linden","NJ","Rahway Glasse Shop","not_available","07065",40.615633,-74.284313
"07036","Linden","NJ","Central Paint and Hardware of Linden","224 N Wood Ave","07036",40.631744,-74.253928
"07036","Linden","NJ","minuteKEY","1001 E Edgar Rd","07036",40.637335,-74.235276
"07036","Linden","NJ","Fastenal","1026 W Elizabeth Ave","07036",40.624514000000005,-74.25934000000001
"07036","Linden","NJ","Harbor Freight Tools","300 S Park Ave","07036",40.645749542145495,-74.2289803887965
"07039","Livingston","NJ","The Home Depot","902 Murray Rd","07936",40.81042514011039,-74.37311500310898
"07039","Livingston","NJ","Sears","112 Eisenhower Pkwy","07039",40.77797175256907,-74.35329177241078
"07039","Livingston","NJ","Garage Door Repair Livingston","Charles St","07039",40.793961016878285,-74.32017087936401
"07039","Livingston","NJ","Karig's Hardware Inc.","27 N Livingston Ave","07039",40.7963,-74.3157
"07039","Livingston","NJ","hanover supply co","not_available","07936",40.806060791015625,-74.3708267211914
"07039","Livingston","NJ","Sherwin-Williams Paint Store","310 State Route 10","07936",40.805217904441704,-74.36718666789196
"07039","Livingston","NJ","The Bath Gallery","269 Route 10","07936",40.8058514,-74.3710819
"07039","Livingston","NJ","Sears","S Orange Ave & Walnut St","07039",40.77176034983462,-74.35310275776257
"07040","Maplewood","NJ","The Home Depot","2445 Springfield Ave","07088",40.7158613,-74.2910448
"07040","Maplewood","NJ","Ricciardi Brothers - Maplewood","1915 Springfield Ave","07040",40.72005844116211,-74.27198791503906
"07040","Maplewood","NJ","P & P Lawnmower","1970 Springfield Ave","07040",40.72046126415031,-74.27448749542236
"07040","Maplewood","NJ","Palmer Plumbing","not_available","07088",40.719763,-74.288121
"07040","Maplewood","NJ","Garage Door Repair Maplewood","Springfield Ave","07040",40.72207126188067,-74.26283597946167
"07040","Maplewood","NJ","Frank Shober Inc","105 Midland Blvd","07040",40.7294312,-74.2539029
"07040","Maplewood","NJ","Harder Locksmith","52 S Orange Ave","07079",40.745540618896484,-74.2584228515625
"07040","Maplewood","NJ","Sherwin-Williams Paint Store","1802 Springfield Ave","07040",40.721309000000005,-74.26696899999999
"07040","Maplewood","NJ","New Jersey Mirror And Glass","1050 Valley St","07088",40.716516404024155,-74.29151925770361
"07041","Millburn","NJ","Bunchers True Value Hardware","320 Millburn Ave","07041",40.723957,-74.306042
"07041","Millburn","NJ","Garage Door Repair Millburn","Millburn Ave","07041",40.72481955186487,-74.30090188980103
"07042","Montclair","NJ","Zaentz hardware","599 Bloomfield Ave","07042",40.816065,-74.219902
"07044","Verona","NJ","Verona Aluminum","320 Bloomfield Ave","07044",40.827980041503906,-74.23826599121094
"07047","North Bergen","NJ","Lowe's","7801 Tonnelle Avenue","07047",40.8062603,-74.0190392
"07047","North Bergen","NJ","The Home Depot","7605 Tonnelle Avenue","07047",40.8043991,-74.0198861
"07047","North Bergen","NJ","Reuther Material Co.","5303 Tonnelle Ave","07047",40.7890924,-74.030089
"07047","North Bergen","NJ","The Home Depot","1055 Paterson Plank Rd","07094",40.78334011027277,-74.05016362667084
"07047","North Bergen","NJ","Dyke's Lumber","1899 Park Ave","07086",40.759777392994195,-74.02694540539626
"07047","North Bergen","NJ","New Jersey Marble & Granite","1435 51st St","07047",40.786299,-74.02899
"07047","North Bergen","NJ","Metropolitan Lumber and Hardware","617 11th Ave","10036",40.763382334903255,-73.99684130030232
"07047","North Bergen","NJ","Prince Lumber","not_available","10036",40.764376,-73.997421
"07047","North Bergen","NJ","Technical Operations, Inc.","454 West","10036",40.75874913950493,-73.9953875541687
"07047","North Bergen","NJ","American Home & Hardware","590 9th Ave","10036",40.7587277777778,-73.9924122222222
"07047","North Bergen","NJ","Israel Paint & Hardware","7000 Bergenline Ave","07093",40.7961531,-74.01063979999999
"07047","North Bergen","NJ","Garden Hardware","701 10th Ave","10036",40.76342331522303,-73.9928240837618
"07047","North Bergen","NJ","Rojo True Value Hardware","4413-4415 Park Ave","07087",40.77655493,-74.01894671
"07047","North Bergen","NJ","S. W. Lock Co.","3701 Kennedy Blvd","07087",40.776132000000004,-74.02999799999999
"07047","North Bergen","NJ","Union City Home Center","not_available","07087",40.775518,-74.026971
"07047","North Bergen","NJ","E.W. Berger","4814 Park Ave","07086",40.77906421922937,-74.0158997663973
"07047","North Bergen","NJ","Lima Hardware","2306 Bergenline Ave","07087",40.767165999999996,-74.03243499999999
"07047","North Bergen","NJ","Pino & Son Hardware","2901 New York Ave","07087",40.770294,-74.029427
"07047","North Bergen","NJ","Lewisohn Sales","4001-15 Dell Ave","07047",40.781209,-74.036452
"07047","North Bergen","NJ","Port Authority Plumbing and Heating","630 9th Ave","10036",40.75917172765403,-73.99242639541626
"07047","North Bergen","NJ","Corrie Locksmith 24 /7 NYC","662 10th Ave","10036",40.762419,-73.993116
"07047","North Bergen","NJ","Drape Kings","3200 Liberty Ave","07047",40.776687,-74.037474
"07047","North Bergen","NJ","Bell Hardware","6512 Park Ave","07093",40.78974,-74.00525
"07050","Orange","NJ","Main Street Hardware Inc","56 Main St","07052",40.77728271484375,-74.23946380615234
"07050","Orange","NJ","Essex Lock","not_available","07052",40.78063492895552,-74.24156685580029
"07050","Orange","NJ","Orange Valley Glass","27 Freeman St","07052",40.767626,-74.24668
"07050","Orange","NJ","Locksmith Orange","29 N Day St","07050",40.772904,-74.22887
"07050","Orange","NJ","Orange Valley Hardware","606 Freeman St","07050",40.767255,-74.247019
"07050","Orange","NJ","Garage Door Repair City of Orange","Lincoln Ave","07050",40.765721500427844,-74.240562915802
"07050","Orange","NJ","Plumbing & Heating Supplies Orange Nj","not_available","07050",40.770277,-74.238182
"07050","Orange","NJ","Rossi Paint","403 Main St","07050",40.77368030009162,-74.23330267808474
"07052","West Orange","NJ","Garage Door Repair West Orange","Northfield Ave","07052",40.772400628709896,-74.26998138427734
"07052","West Orange","NJ","Sears","495 Prospect Avenue, Suite 11","07052",40.7928047,-74.2570037
"07052","West Orange","NJ","Smartbyte Systems, Inc.","36 Cerone Ct","07052",40.791199,-74.253259
"07054","Parsippany","NJ","Harbor Freight Tools","745 US Highway 46","07054",40.861818369880275,-74.37377585777882
"07054","Parsippany","NJ","Sherwin-Williams Paint Store","440 US Highway 46","07054",40.86037699007934,-74.36287398160664
"07054","Parsippany","NJ","HD Supply Kenseal","799 Edwards Rd","07054",40.855123,-74.353427
"07054","Parsippany","NJ","S.Cerbo & Sons","1855 US Highway 46","07054",40.86709213256836,-74.4123764038086
"07054","Parsippany","NJ","Locksmith Parsippany-Troy Hills","41 Berlin Rd","07054",40.856942,-74.435579
"07054","Parsippany","NJ","Parsippany Windows and Roofing Co.","21 Alan Dr","07054",40.854872,-74.384905
"07055","Passaic","NJ","Wallington Plumbing Supply","116 Wallington Ave","07057",40.855441,-74.115195
"07057","Wallington","NJ","Arcy","not_available","07072",40.84665303333333,-74.0989462
"07057","Wallington","NJ","Sherwin-Williams Product Finishes","6 Currie Ave","07057",40.842329819207066,-74.10331773325875
"07059","Warren","NJ","Warrenville Hardware & Benjamin Moore Paints","61A Mountain Blvd","07059",40.618316341558206,-74.49465243470316
"07059","Warren","NJ","Sherwin-Williams Commercial Paint Store","68 Route 22 West","08812",40.607404025197226,-74.4693660736084
"07059","Warren","NJ","Sherwin-Williams Paint Store","977 Valley Rd","07933",40.66926326680018,-74.4791733935418
"07059","Warren","NJ","Harbor Freight Tools","270 US HIGHWAY 22","08812",40.59525606559993,-74.4925705070774
"07059","Warren","NJ","Jaeger Lumber","1238 Valley Rd","07980",40.668581,-74.49153299999999
"07059","Warren","NJ","Blue Rhino","149 Washington Valley Rd","07059",40.610321044921875,-74.50067901611328
"07059","Warren","NJ","Energy Saving Outlet","205A U.S. 22","08812",40.59969115021061,-74.48225063104532
"07059","Warren","NJ","Dunado Range","7 Brook Street","08812",40.592403411865234,-74.48041534423828
"07059","Warren","NJ","Elgee De-Manufacturing","666","06660",40.670179516211846,-74.46549677556023
"07059","Warren","NJ","Middlesex Power Equipment","635 Bound Brook Rd","08812",40.587833,-74.470687
"07059","Warren","NJ","General Plumbing Supply","25 US-22","08812",40.60852916,-74.4655662
"07060","Plainfield","NJ","Somerset Plumbing Suppy Co.","169 Somerset St, North Plainfield, NJ 07060","07060",40.620155334472656,-74.42674255371094
"07060","Plainfield","NJ","Central Paint & Hardware Plainfield","623 Park Ave","07060",40.615285,-74.417475
"07060","Plainfield","NJ","Sears Parts and Repair Center","not_available","07060",40.63196745002544,-74.43117744489498
"07060","Plainfield","NJ","Modern Limb & Brace Co.","916 Somerset St","07069",40.635466,-74.447873
"07062","Plainfield","NJ","The Home Depot","1515 Route 22","07069",40.642551,-74.4203448
"07062","Plainfield","NJ","minuteKEY","1601 US 22","not_available",40.642868,-74.413281
"07066","Clark","NJ","E-Z Tool Rental","Raritan Rd, Clark, NJ","07066",40.62946855694559,-74.31131419603763
"07066","Clark","NJ","Karnak Corp","330 Central Ave, Clark, NJ 07066","07066",40.63288116455078,-74.31282043457031
"07067","Colonia","NJ","Ace hardware","Inman ave","07067",40.59867925173563,-74.32870101767733
"07067","Colonia","NJ","Iselin Lumber","425 State Route 27","08830",40.574310302734375,-74.32050323486328
"07068","Roseland","NJ","Garage Door Repair Roseland","Fernwood Ave","07068",40.82235090589249,-74.30665254592896
"07069","Watchung","NJ","Sears","1701 US Highway 22","07069",40.650243,-74.409786
"07070","Rutherford","NJ","Lowe's","150 Route 17 North","07073",40.8280504,-74.0923249
"07070","Rutherford","NJ","Brothers Hardware Plumbing & Heating","10 Orient Way","07070",40.827562,-74.101371
"07070","Rutherford","NJ","Stone Plus Design","21 State Rt 17","07073",40.832841,-74.089033
"07070","Rutherford","NJ","HEC","217 Sylvan St","07070",40.820689,-74.108163
"07070","Rutherford","NJ","Lyndhurst Hardware","340 Ridge Rd","07071",40.807227000000005,-74.119232
"07070","Rutherford","NJ","Pac Tool & Supply Co.","420 Paterson Ave","07073",40.839425,-74.100989
"07070","Rutherford","NJ","bergen county glass","next to napa","07071",40.811016,-74.116656
"07070","Rutherford","NJ","Woodworking","Elliott Place","07070",40.82927778732519,-74.10880653882931
"07070","Rutherford","NJ","Ridge Carbide Tool","595 New York Ave","07071",40.81217956542969,-74.11656951904297
"07070","Rutherford","NJ","dollar store 2","60 park ave","not_available",40.82792663574219,-74.103515625
"07070","Rutherford","NJ","Meadowlands","179-189 Hackensack St","07073",40.827747032186274,-74.10123549157889
"07070","Rutherford","NJ","minuteKEY","150 State Rt 17","07073",40.82795715332031,-74.09226989746094
"07070","Rutherford","NJ","Fastenal","not_available","07073",40.83254362613037,-74.09086694938789
"07070","Rutherford","NJ","minuteKEY","300 State Rt 17","07073",40.823726654052734,-74.09687042236328
"07070","Rutherford","NJ","Sew & Vac","not_available","07070",40.826712,-74.105669
"07070","Rutherford","NJ","Sherwin-Williams Paint Store","48 Park Ave","07070",40.828023134929126,-74.10298507322116
"07072","Carlstadt","NJ","Network Devices Inc","70 Commercial Ave Unit C","07074",40.8334846496582,-74.06095886230469
"07072","Carlstadt","NJ","Airport Ace Hardware","111Moonachie Ave","07072",40.838815000000004,-74.063923
"07072","Carlstadt","NJ","Agm Electrical Suply","Murray Hill Pkwy","not_available",40.828764520055046,-74.08128060261218
"07072","Carlstadt","NJ","Ace Hardware","111 Moonachie Ave","07074",40.83881759643555,-74.06396484375
"07072","Carlstadt","NJ","Sherwin-Williams Commercial Paint Store","185 Moonachie Rd","07074",40.838155,-74.049377
"07072","Carlstadt","NJ","Nation Tile","175 Moonachie Rd","07074",40.839026,-74.048659
"07073","East Rutherford","NJ","Harbor Freight Tools","65 State Rt 17","07604",40.851575,-74.073238
"07073","East Rutherford","NJ","Siegel's","270 Valley Blvd","07075",40.851070404052734,-74.0846176147461
"07074","Moonachie","NJ","Little Ferry Hardware Sply Comp","204 Main St","07643",40.85196667,-74.041335
"07076","Scotch Plains","NJ","Sherwin-Williams Paint Store","319 South Ave W","07090",40.648527,-74.346976
"07076","Scotch Plains","NJ","Eardly T Petersen Co","224 Elmer St","07090",40.651006,-74.344243
"07076","Scotch Plains","NJ","Atlantic Plumbing Supply","not_available","07027",40.651363372802734,-74.336669921875
"07077","Sewaren","NJ","T & J Hardware","3120 Arthur Kill Rd","10309",40.543467,-74.23290300000001
"07078","Short Hills","NJ","Pioneer Rentals","not_available","07928",40.752824,-74.36317700000001
"07078","Short Hills","NJ","Kryston's Hardware","480 Springfield Ave","07901",40.717760529160465,-74.36104692918511
"07078","Short Hills","NJ","Garage Door Repair Short Hills","Claremont Ave","07078",40.71790388972352,-74.32524561882019
"07079","South Orange","NJ","Garage Door Repair South Orange","Vose Ave","07079",40.7521661695701,-74.2554759979248
"07080","South Plainfield","NJ","The Home Depot","3100 Hamilton Blvd","07080",40.5582815,-74.4329094
"07080","South Plainfield","NJ","Lowe's","1345 Centennial Avenue","08854",40.553051,-74.436626
"07080","South Plainfield","NJ","Sherwin-Williams Paint Store","2109 Park Ave","07080",40.594952,-74.39970100000001
"07080","South Plainfield","NJ","Barclay Brand Ferdon","2401 S Clinton Ave","07080-1426",40.5767536,-74.4325847
"07080","South Plainfield","NJ","Sherwin-Williams Automotive Finishes","4486 Stelton Rd","07080",40.555688,-74.434673
"07080","South Plainfield","NJ","minuteKEY","1303 Centennial Ave","08854",40.553748,-74.439089
"07080","South Plainfield","NJ","America Fence Systems So Clinton Ave","New Era Rd","07080",40.57719039518486,-74.43030721017982
"07080","South Plainfield","NJ","Progressive Hydraulics","2201 S Clinton Ave","07080",40.57969796763611,-74.43102858925975
"07080","South Plainfield","NJ","minuteKEY","1345 Centennial Ave","08854",40.553748,-74.439089
"07080","South Plainfield","NJ","Vails Industrial Supply","not_available","07080",40.565954,-74.42522199999999
"07080","South Plainfield","NJ","Vail Hardware","100-172 S Plainfield Ave","07080",40.57947,-74.40993
"07081","Springfield","NJ","Metropolitan Staple","11 Brown Ave","07081",40.688803103408226,-74.31498647788618
"07081","Springfield","NJ","Sherwin-Williams Paint Store","901 Mountain Ave","07081",40.6854382474062,-74.33392524719238
"07081","Springfield","NJ","General Plumbing Supply","1110 Springfield Rd","07083",40.69377899169922,-74.30238342285156
"07081","Springfield","NJ","Summit True Value Hardware","107 Park Ave","07901",40.71371841430664,-74.3495864868164
"07081","Springfield","NJ","Boychuk Stone","not_available","07081",40.685291,-74.332503
"07081","Springfield","NJ","Kay's Hardware","Morris Ave","not_available",40.71087886767803,-74.31290686408781
"07081","Springfield","NJ","Foam People","1086 Globe Ave","07092",40.680465000000005,-74.338301
"07081","Springfield","NJ","Ferguson Plumbing Supply","695 Rahway Ave","07083",40.69501876831055,-74.2963638305664
"07083","Union","NJ","Lowe's","1721 Morris Avenue","07083",40.6945297,-74.2550476
"07083","Union","NJ","Fastenal","697 Rahway Ave","07083",40.694759000000005,-74.296086
"07083","Union","NJ","Jaeger Lumber","2322 Morris Ave","07083",40.698739,-74.285101
"07083","Union","NJ","Ac Hardware Inc","226 Long Ave","07205",40.697271,-74.229557
"07083","Union","NJ","A C Hardware","Long Ave","07205",40.69731,-74.229247
"07083","Union","NJ","Computer Doctor","958 Stuyvesant Ave","07083",40.69530366,-74.27126386
"07083","Union","NJ","minuteKEY","1721 Morris Ave","07083",40.694802,-74.255691
"07083","Union","NJ","Plumbing Service Group","2150 Stanley Ter","07083",40.71277,-74.26534
"07086","Weehawken","NJ","Sherwin-Williams Paint Store","140 48th St","07087",40.779640197753906,-74.01709747314453
"07086","Weehawken","NJ","Ricardo Locking Service","411 Golden Lane","07087",40.78055199303341,-74.02112603187561
"07087","Union City","NJ","Lee Electric, Inc.","309-11 51st St","07093",40.7807582,-74.016904
"07087","Union City","NJ","Architectural Windows","603 Kennedy Blvd","07047",40.758492,-74.045472
"07087","Union City","NJ","American Electrical Supply","2027 Bergenline Ave","07087",40.765451,-74.034122
"07087","Union City","NJ","Central Paint and Building Supply of Union City","711 23rd St","07087",40.76808,-74.03579
"07093","West New York","NJ","tool","54 park","07093",40.78824,-74.013159
"07093","West New York","NJ","El Candado Hardware","6317 Hudson Ave","07093",40.790602313445184,-74.00994658470154
"07094","Secaucus","NJ","Plumber’s Plumbing Supplies & Hardware","457 Central Ave","07307",40.750375,-74.04666
"07094","Secaucus","NJ","C.R. Laurence-New York","211 County Ave","07094",40.771703,-74.066704
"07094","Secaucus","NJ","minuteKEY","400 Park Pl","07094",40.79298782348633,-74.04246520996094
"07094","Secaucus","NJ","Accredited Lock Supply","1161 Paterson Plank Rd","07094",40.786161,-74.054045
"07094","Secaucus","NJ","River West Plumbing & Heating Supply","1410 Grand Avr","not_available",40.76380231370074,-74.04787011420123
"07094","Secaucus","NJ","HD Supply White Cap","1511 Tonnelle Ave","07047",40.767082,-74.04718199999999
"07094","Secaucus","NJ","Swan tile and cabinents","1101 Tonnelle Ave","07047",40.7635612487793,-74.04906463623047
"07094","Secaucus","NJ","G&S Hardware South Hackensack NJ","not_available","07094",40.79189682006836,-74.04812622070312
"07095","Woodbridge","NJ","Lowe's","51 Woodbridge Center Drive","07095",40.5500377,-74.293709
"07095","Woodbridge","NJ","The Home Depot","373 US Highway 9 S","07095",40.5390587,-74.2958678
"07095","Woodbridge","NJ","Harbor Freight Tools","675 US Highway 1 S Ste 15","08830",40.56011390763295,-74.30973228885306
"07095","Woodbridge","NJ","Sears","150 Woodbridge Center Dr","07095",40.55741754,-74.30127918
"07095","Woodbridge","NJ","minuteKEY","306 US Highway 9 N","07095",40.53614807128906,-74.29373931884766
"07095","Woodbridge","NJ","Ambient Conditioning","601 King George Rd","08863",40.53351889517609,-74.30403470993042
"07095","Woodbridge","NJ","minuteKEY","51 Woodbridge Center Dr","07095",40.550582,-74.297459
"07095","Woodbridge","NJ","Acetylene Supply Co","475 US Highway 9 S","07095",40.554733,-74.292763
"07102","Newark","NJ","Locksmith Newark","828 Broad St","07102",40.734078000000004,-74.172412
"07102","Newark","NJ","Hudson Supply of Newark LLC","135 Lafayette St","07105",40.731234,-74.166641
"07102","Newark","NJ","AG Lion Hydraulic","25 Bond St","07103",40.745577000000004,-74.184726
"07103","Newark","NJ","The Home Depot","399-443 Springfield Ave","07103",40.7313148,-74.1983251
"07103","Newark","NJ","Springfield Ave 24/7 Plumbing and Heating","410 Springfield Ave","07103",40.73288488374377,-74.19749736785889
"07103","Newark","NJ","Newark Lumber And Hardware","not_available","07103",40.730213,-74.208062
"07104","Newark","NJ","Newark Hardware & Supply","1425 McCarter Hwy","07104",40.757296000000004,-74.167148
"07104","Newark","NJ","Ace Hardware","not_available","07018",40.76468649624392,-74.18332249100533
"07104","Newark","NJ","National Building Supply","94 Stephens St","07109",40.787651000000004,-74.149121
"07104","Newark","NJ","B.V Locksmith","29 Bloomfield Ave","07052",40.75472640991211,-74.17164611816406
"07104","Newark","NJ","Newark Locksmith","318 Broad St","07104",40.748996358976775,-74.17028903961182
"07104","Newark","NJ","LAH-DOOR Door Stop","137 1/2 Washington Ave","07109",40.7858097,-74.1535971
"07105","Newark","NJ","VAG Equipment and Materials","244 South St","07114",40.7208961,-74.16777909999999
"07105","Newark","NJ","AV Hydraulics LLC","2 Avenue C","07114",40.720101,-74.17169200000001
"07105","Newark","NJ","PC Hardwood Floors","135 Christie St","07105",40.7290153503418,-74.14193725585938
"07105","Newark","NJ","Tile Wholesalers Of Newark","659 Market St","07105",40.730731,-74.14880699999999
"07108","Newark","NJ","American Hardware & Salvage Co.","927 S 18th St","07108",40.723942,-74.215005
"07108","Newark","NJ","Belmont Glass and Mirror","134 Ellis Ave","07111",40.728235,-74.217099
"07109","Belleville","NJ","Joseph Riccardi Paints","91 Washington Avenue","07109",40.805761587663675,-74.15898981583067
"07109","Belleville","NJ","Advanced Roofing Solutions","19 E Centre St","07110",40.807516,-74.14139399999999
"07109","Belleville","NJ","Joseph Ricciardi Paints","91 Washington Ave","07110",40.80939,-74.147
"07109","Belleville","NJ","Bell-Ridge Plumbing Supply","103 Valley St","07109",40.7882682,-74.1517367
"07110","Nutley","NJ","Viola True Value Home Center","180 Washington Ave","07110",40.81268022,-74.14462608
"07110","Nutley","NJ","nutley key and glass","188 Chestnut St","07110",40.81840896606445,-74.15669250488281
"07110","Nutley","NJ","Nutley Key And Glass","358 Passaic Ave","07110",40.817736,-74.154494
"07111","Irvington","NJ","Locksmith Irvington","120 Coit St","07111",40.720529,-74.224089
"07112","Newark","NJ","U.S. Wire & Cable Corporation","1 Flexon Plz","07114",40.7072295,-74.19006949999999
"07114","Newark","NJ","poinier st lumber","Poinier St","07114",40.71759250222489,-74.18385566421404
"07114","Newark","NJ","prince lumber","not_available","07114",40.71928405761719,-74.1786880493164
"07201","Elizabeth","NJ","Electric Outlet","425 N Broad St","07208",40.67184066772461,-74.21378326416016
"07201","Elizabeth","NJ","Garden State Window Factory","107 Trumbull St #J1","07206",40.65507888793945,-74.17736053466797
"07201","Elizabeth","NJ","NYP Corp.","805 E Grand St","07201",40.66380310058594,-74.1994400024414
"07201","Elizabeth","NJ","Key World","9 Center St","07202",40.65895080566406,-74.20406341552734
"07201","Elizabeth","NJ","Cantinho Hardware","not_available","07201",40.670524,-74.197991
"07201","Elizabeth","NJ","Plywood Specialties Inc","901 E Grand St","07201",40.664971,-74.201977
"07201","Elizabeth","NJ","Hudson Interior Supply LLC","795 Trumbull St","07201",40.6631543,-74.1977589
"07201","Elizabeth","NJ","Allied Building Products","850 Flora St","07201",40.667190999999995,-74.198846
"07201","Elizabeth","NJ","Locksmith Elizabeth","860 Anna St","07201",40.666603088378906,-74.19822692871094
"07201","Elizabeth","NJ","Standard True Value","1024 Elizabeth Ave","07201",40.660854,-74.208418
"07201","Elizabeth","NJ","East Coast Hardware","633 Dowd Avenue","07201",40.668322,-74.1877111
"07202","Elizabeth","NJ","The Home Depot","977 W Grand Street","07202",40.6631227,-74.2434792
"07202","Elizabeth","NJ","Thunderstone & Tile","856 Pearl St","07202",40.660209,-74.220567
"07202","Elizabeth","NJ","Pro Desk At The Home Depot","977 W Grand St","07202",40.66321157440849,-74.2435423157657
"07202","Elizabeth","NJ","American Plumbing","Elizabeth Ave","not_available",40.65421386569407,-74.19800425855473
"07202","Elizabeth","NJ","Sherwin-Williams Paint Store","315 Elmora Ave","07208",40.665976894476906,-74.23401865565558
"07202","Elizabeth","NJ","Carl's Plumbing and Heating","300 Western Ave","10303",40.63734817504883,-74.18797302246094
"07202","Elizabeth","NJ","Coastal Supply Group","416 W Grand St","07202",40.664295,-74.230309
"07202","Elizabeth","NJ","Clayton Concrete","FRONT ST","not_available",40.64259873565644,-74.19258114085325
"07203","Roselle","NJ","Chestnut Hardware","212 Chestnut St","07204",40.663013,-74.264581
"07203","Roselle","NJ","Sid Harvey's","not_available","07203",40.660511,-74.26084
"07302","Jersey City","NJ","The Home Depot","180 Twelfth Street","07310",40.7307449,-74.0403953
"07302","Jersey City","NJ","Sears","50 Mall Dr W","07310",40.728333,-74.03791485
"07302","Jersey City","NJ","Downtown","152 Newark Ave","07302",40.720829010009766,-74.04400634765625
"07302","Jersey City","NJ","Central Paint of Jersey City","270 Marin Blvd","07302",40.7178532,-74.0402526
"07302","Jersey City","NJ","Midtown Lumber","37 Fairmount Ave","07304",40.717764,-74.062428
"07302","Jersey City","NJ","City Electric Supply LLC","374 6th St","07302",40.7262496948242,-74.0514755249023
"07302","Jersey City","NJ","The land of the Misfits","not_available","07310",40.73003348719389,-74.04013621531497
"07302","Jersey City","NJ","Tsigonia Paint & Hardware","464 Communipaw Ave","07304",40.712902,-74.064285
"07302","Jersey City","NJ","Truck Rental Center at the Home Depot","180 12th St","07310",40.73082733154297,-74.04039001464844
"07302","Jersey City","NJ","Henderson Lumber Mills, Inc.","195 1st St","07302",40.721391,-74.041943
"07304","Jersey City","NJ","The Home Depot","440 State Rt 440","07305",40.710555,-74.096928
"07304","Jersey City","NJ","City Fire","2260 John F Kennedy Blvd","07304",40.715706,-74.081664
"07304","Jersey City","NJ","Boulevard Paint And Hardware Co","1790 John F Kennedy Blvd","07305",40.701358795166016,-74.09247589111328
"07304","Jersey City","NJ","Bee's Locking Keys","19 Marcy Avenue","07304",40.72295379638672,-74.09001922607422
"07305","Jersey City","NJ","KeyMe","321 Stadium Plaza","07305",40.70890808105469,-74.10202026367188
"07305","Jersey City","NJ","Home #epot","100 kellogg street","07305",40.71332550048828,-74.1034164428711
"07306","Jersey City","NJ","Novick Paint","302 Central Ave","07307-2911",40.745034000000004,-74.04959000000001
"07306","Jersey City","NJ","Sip Ave Hardware","209 Sip Ave","07306",40.73152160644531,-74.06957244873047
"07306","Jersey City","NJ","Central Paint of Heights","302 Central Ave","07307",40.745034000000004,-74.04959000000001
"07401","Allendale","NJ","Garage Door Repair Allendale","Mallinson St","07401",41.029465329648325,-74.13031339645386
"07403","Bloomingdale","NJ","Futcher Basement","not_available","07405",41.000099,-74.353672
"07403","Bloomingdale","NJ","Sherwin-Williams Paint Store","1516 State Rt 23","07405",41.00419235229492,-74.35694885253906
"07403","Bloomingdale","NJ","Meier Garage","DriveWay","07405",40.99972296971246,-74.34551239013672
"07403","Bloomingdale","NJ","Garage Door Repair Bloomingdale","Glenwild Ave","07403",41.02679440909555,-74.34132814407349
"07403","Bloomingdale","NJ","Copperas Mountain Chainsaw Co.","1610 State Rt 23","07405",41.00969314575195,-74.3625717163086
"07403","Bloomingdale","NJ","Fastenal","6 Riverside Sq","07403",41.001971999999995,-74.32814499999999
"07405","Butler","NJ","Lowe's","1210 Route 23 North","07405",40.991385,-74.3346777
"07405","Butler","NJ","Pj Monahan  Paints Since 1949","rt 23 s","not_available",40.990665,-74.34391395
"07405","Butler","NJ","minuteKEY","1210 State Rt 23","07405",40.99176025390625,-74.33450317382812
"07407","Elmwood Park","NJ","Wallington Plumbing Supply","545 N Midland Ave","07663",40.915579,-74.110486
"07407","Elmwood Park","NJ","Riverdale Tool Supply","16 Midland Ave","07407",40.898757,-74.104336
"07407","Elmwood Park","NJ","General Floors","not_available","07663",40.90834946864012,-74.10670165534249
"07410","Fair Lawn","NJ","The Home Depot","75 McLean Blvd","07514",40.9333343,-74.1418075
"07410","Fair Lawn","NJ","Glen Rock Lumber Last Yard","21-05 Morlot Ave","07410",40.93045425415039,-74.11725616455078
"07410","Fair Lawn","NJ","Garage Door Repair Fair Lawn","Promenade Blvd","07410",40.94353693903852,-74.09591674804688
"07410","Fair Lawn","NJ","RICCIARDI BROTHERS","17-12 River Rd","07410",40.93744659423828,-74.13813018798828
"07410","Fair Lawn","NJ","Kuiken Brothers","6-02 Fair Lawn Ave","07410",40.93391494668236,-74.13409243385942
"07410","Fair Lawn","NJ","Joel Tanis & Sons, Inc.","17-68 River Rd","07410",40.938109999999995,-74.139557
"07410","Fair Lawn","NJ","Sherwin-Williams Paint Store","17 River Rd","07410",40.93901673,-74.13890585
"07410","Fair Lawn","NJ","Locksmith Fair Lawn","22-08 State Rt 208","07410",40.946205139160156,-74.13418579101562
"07416","Franklin","NJ","Franklin Precast Tanks","20 Park Dr","07416",41.127671,-74.598651
"07416","Franklin","NJ","Frey Heating & Plumbing Services","418 State Rt 23","07416",41.123242,-74.5787409
"07417","Franklin Lakes","NJ","Oakland Hardware","not_available","07436",41.024656699510004,-74.24324684127996
"07417","Franklin Lakes","NJ","Rossi Paint of Wyckoff","396 Franklin Ave","07481",41.00982422004372,-74.17281350595688
"07417","Franklin Lakes","NJ","84 Lumber","18 Raritan Rd","07436",41.02579076246019,-74.23414707183838
"07417","Franklin Lakes","NJ","Garage Door Repair Wyckoff","Wyckoff Ave","07481",41.00061365452742,-74.17481660842896
"07417","Franklin Lakes","NJ","Pete & John's Paint Market","400 Ramapo Valley Rd","07436",41.025902,-74.239636
"07417","Franklin Lakes","NJ","Garage Door Repair Franklin Lakes","Old Mill Rd","07417",41.02193791234353,-74.18657541275024
"07417","Franklin Lakes","NJ","Garage Door Repair Pompton Lakes","Pompton Lakes Towne Square","07442",40.99695367276701,-74.22558546066284
"07417","Franklin Lakes","NJ","The Hardware Station","637 Wyckoff Ave","07481",41.01086557349941,-74.17295110699052
"07417","Franklin Lakes","NJ","Sherwin-Williams Paint Store","340 Ramapo Valley Rd","07436",41.023460388183594,-74.2421875
"07418","Glenwood","NJ","Masters Wholesale Plumbing","6 Black Creek Rd, Glenwood, NJ 07418","07418",41.23011016845703,-74.48160552978516
"07419","Hamburg","NJ","McAfee Hardware","Rudetown Road","not_available",41.174371862670945,-74.54061458142453
"07419","Hamburg","NJ","Kuiken Brothers Company, Inc.","175 NJ-23","07461",41.182768,-74.589665
"07419","Hamburg","NJ","rt 23 Patio & Mason","not_available","07461",41.17768282606706,-74.58997460915747
"07419","Hamburg","NJ","Husqvarna US","103 RT. 23","07419",41.17691421508789,-74.58757781982422
"07419","Hamburg","NJ","Floor Superstore","not_available","07419",41.166496528611795,-74.58669700842364
"07420","Haskell","NJ","Stihl Power Equip. @ UniRents Inc.","1438 Ringwood Ave","07420",41.01476287841797,-74.29657745361328
"07420","Haskell","NJ","King LockSmith Co.","1084 Ringwood Ave","07420",41.02872085571289,-74.29671478271484
"07420","Haskell","NJ","Braen Supply","1434 Ringwood Ave","07420",41.01553258036957,-74.29680766833846
"07420","Haskell","NJ","Garage Door Repair Haskell","Haskell Ave","07420",41.02447952364779,-74.29449677467346
"07421","Hewitt","NJ","Tractor Supply Co.","1926 Union Valley Rd","07421",41.153297424316406,-74.35460662841797
"07421","Hewitt","NJ","Eddie's Shop","46 Bowen Rd","10990",41.212051472615336,-74.37606944365483
"07421","Hewitt","NJ","Garage Door Repair West Milford","Richmond Rd","07480",41.12108504605217,-74.36250686645508
"07421","Hewitt","NJ","Ace Hardware","not_available","07480",41.131097381860556,-74.3667456675487
"07421","Hewitt","NJ","Stegle West Milford Hardware","10 Marshall Hill Rd","07480",41.131011962890625,-74.36681365966797
"07422","Highland Lakes","NJ","Benjamin Moore","not_available","O7462",41.198243,-74.488911
"07422","Highland Lakes","NJ","Valley Paint & Hardware","287 State Rt 94 Unit 1","07462",41.1984437,-74.4887487
"07422","Highland Lakes","NJ","Master Wholesale Supple Co. Inc.","Black Creek Dr","07462",41.19938140748305,-74.48975385035797
"07422","Highland Lakes","NJ","Paint And Hardware","530 County Route 515","07462",41.19667053222656,-74.48097229003906
"07423","Ho Ho Kus","NJ","Garage Door Repair Ho-Ho-Kus","Hollywood Ave","07423",41.00245976290568,-74.1077184677124
"07424","Little Falls","NJ","The Home Depot","545 Route 46","07512",40.89642729549866,-74.23877120018005
"07424","Little Falls","NJ","Walker's Hardware","294 Union Blvd","07512",40.90492325670597,-74.21040345247486
"07424","Little Falls","NJ","Truck Rental Center at the Home Depot","545 US Highway 46","07512",40.897403717041016,-74.23907470703125
"07424","Little Falls","NJ","Boro Supply Plumbing and Heating Supplies","269 Union Blvd","07512",40.9056605,-74.20998756
"07424","Little Falls","NJ","Locksmith Totowa","36 Lackawanna Ave","07512",40.89351578955047,-74.22071456909178
"07424","Little Falls","NJ","PSI Plumbing a Kohler Reseller","not_available","07424",40.887356,-74.24579
"07424","Little Falls","NJ","Garage Door Repair Totowa","Totowa Rd","07512",40.90404202132025,-74.21957731246948
"07424","Little Falls","NJ","Rossi Decorating Center Of Little Falls","419 Main St","07424",40.88601583,-74.2419895
"07424","Little Falls","NJ","Window World","494 Riverview Dr","07512",40.891414642333984,-74.21971130371094
"07424","Little Falls","NJ","FM Home Improvement","not_available","07017",40.88607638952047,-74.24570476528567
"07424","Little Falls","NJ","Millpond Construction","Mill Pond Rd","07424",40.88426220976136,-74.20423548790271
"07430","Mahwah","NJ","The Home Depot","465 State Rt 17","07430",41.079253,-74.146564
"07430","Mahwah","NJ","Rainbow Ace Hardware","140 Orange Ave","10901",41.1136979,-74.152561
"07430","Mahwah","NJ","Ramsey Hardware & Paint","14 E Main St","07446",41.057106,-74.141707
"07430","Mahwah","NJ","Accurate Locksmith Security Center","48 E Main St","07446",41.05768952578972,-74.1403341293335
"07430","Mahwah","NJ","Benfield Electric","not_available","10901",41.1138309754899,-74.11438694673285
"07430","Mahwah","NJ","Indian Rock Plumbing and Heating","27 Indian Rock","10901",41.1136589050293,-74.12824249267578
"07430","Mahwah","NJ","Ramapo Wholesalers","not_available","10952",41.10655091366859,-74.14807806479992
"07430","Mahwah","NJ","LAFAYETTE PLUMBING AND HEATING","75 Lafayette Ave","10901",41.114891052246094,-74.15083312988281
"07430","Mahwah","NJ","United Refrigeration Inc.","not_available","07430",41.08491290069491,-74.14284272040135
"07430","Mahwah","NJ","ORANGE PLUMBING AND HEATING","32 Orange Ave","10901",41.12006378173828,-74.15860748291016
"07430","Mahwah","NJ","Scrap-a-Doodle-Doo","37 Swan St","07446",41.076397,-74.1474
"07430","Mahwah","NJ","Suffern Plumbing and Heating","400 Rella Blvd","10901",41.115799033806006,-74.10610914230347
"07430","Mahwah","NJ","Merco","201 Route 59","10931",41.12335968017578,-74.16107940673828
"07430","Mahwah","NJ","Dyke's Lumber","not_available","07446",41.05707123335427,-74.12213254965783
"07430","Mahwah","NJ","Garage Door Repair Ramsey","Fuhrman Ave","07446",41.051848240145816,-74.15820837020874
"07430","Mahwah","NJ","Garage Door Repair Mahwah","2501 Rio Vista Dr","07430",41.07020950317383,-74.18961334228516
"07430","Mahwah","NJ","Hillburn Plumbing and Heating","296 Route 17","10931",41.12836456298828,-74.17020416259766
"07430","Mahwah","NJ","SUFFERN 911 PLUMBING AND HEATING","191 Route 59","10901",41.11096527387755,-74.11557197570801
"07432","Midland Park","NJ","Kuiken Brothers","not_available","07432",40.98232067112876,-74.14096709550994
"07432","Midland Park","NJ","Godwin Tool","189 Greenwood Ave","07432",40.996657,-74.152715
"07432","Midland Park","NJ","The Sharp Shop","Godwin Ave","07432",40.990075,-74.141499
"07432","Midland Park","NJ","Fremgen's Power Equipment, Inc.","17 Greenwood Ave","07432",40.9928079,-74.1470896
"07432","Midland Park","NJ","Garage Door Repair Midland Park","Paterson Ave","07432",40.98809438015218,-74.14251208305359
"07435","Newfoundland","NJ","Garage Door Repair Oak Ridge","Oak Ridge Rd","07438",41.050391883173305,-74.4797945022583
"07435","Newfoundland","NJ","Tri County Sewer Drain Service","68 Valley Rd","07866",40.988731,-74.488357
"07436","Oakland","NJ","Garage Door Repair Oakland NJ","W Oakland Ave","07436",41.02533749767529,-74.25455331802368
"07436","Oakland","NJ","Airgas","6 Iron Horse Rd.","not_available",41.023479,-74.261643
"07438","Oak Ridge","NJ","Headley Hardware","not_available","07460",41.08863991216618,-74.52019350712358
"07439","Ogdensburg","NJ","Kuiken Brothers","not_available","07439",41.06563186645508,-74.60311126708984
"07442","Pompton Lakes","NJ","Wallington Plumbing Supply","Hamburg Turnpike","07470",40.989337,-74.278683
"07442","Pompton Lakes","NJ","R & M Hardware","284 Wanaque Ave","07442",41.003248,-74.29174300000001
"07442","Pompton Lakes","NJ","Tac Home Remodeling","2222 Hamburg Turnpike","07470",40.9839524,-74.27575501
"07444","Pompton Plains","NJ","Jones' Hardware","600 Newark Pompton Tpke","07444",40.968352,-74.295406
"07444","Pompton Plains","NJ","Penn Elcom","232 W Parkway","07444",40.97938919067383,-74.3118667602539
"07444","Pompton Plains","NJ","CCV Key Cage","1 Cedar Crest Dr","07444",40.98453903198242,-74.32611846923828
"07444","Pompton Plains","NJ","All Service","770 New Jersey 23, Pompton Plains, NJ 07444","07444",40.97836860117072,-74.29498567643437
"07444","Pompton Plains","NJ","HIService's Shop","not_available","07444",40.97664668003128,-74.29794783635728
"07444","Pompton Plains","NJ","Jones Hardware Pompton Plains","Jackson","not_available",40.970208311845866,-74.29341003975978
"07444","Pompton Plains","NJ","Schmitz Safe & Lock","30 Evans Pl","07444",40.968746,-74.294514
"07450","Ridgewood","NJ","Ridgewood Paint","not_available","07450",40.980439,-74.119283
"07450","Ridgewood","NJ","Sherwin-Williams Paint Store","195 E Ridgewood Ave","07450",40.979405,-74.115523
"07450","Ridgewood","NJ","Glen Rock Paint And Hardware","200 Rock Rd","07452",40.962358,-74.13215799999999
"07450","Ridgewood","NJ","Rossi's of Ridgewood","30 Chestnut St","07450",40.9802,-74.119731
"07450","Ridgewood","NJ","RIDGEWOOD AWNING COMPANY, INC","536 S Broad St","07452",40.9685802515,-74.1265901472
"07450","Ridgewood","NJ","Garage Door Repair Glen Rock","Ackerman Ave","07452",40.96661334810203,-74.1211724281311
"07450","Ridgewood","NJ","Garage Door Repair Ridgewood","S Maple Ave","07450",40.97422808887882,-74.11593675613403
"07456","Ringwood","NJ","Bob The Builder's Bench","not_available","07465",41.0645101,-74.2800913
"07456","Ringwood","NJ","Garage Door Repair Ringwood","Erskine Rd","07456",41.094480931858904,-74.25974607467651
"07456","Ringwood","NJ","Benjamin Moore","not_available","07456",41.085646,-74.260839
"07456","Ringwood","NJ","Ringwood Paint","130 Skyline Dr","07456",41.08669632197238,-74.27365899169126
"07457","Riverdale","NJ","The Home Depot","106 Route 23","07457",40.990366,-74.3271043
"07457","Riverdale","NJ","minuteKEY","48 State Rt 23","07457",40.99272537231445,-74.31208038330078
"07458","Saddle River","NJ","Home Hardware","27 Franklin Tpke","07463",41.009731,-74.1190905
"07458","Saddle River","NJ","Garage Door Repair Saddle River","W Saddle River Rd","07458",41.03390043716627,-74.10228967666626
"07458","Saddle River","NJ","Mobile Mower Repair LLC","34 Harrison Ave","07463",41.011156,-74.12220400000001
"07458","Saddle River","NJ","Remodel It For Less","156 Summit Ave","07463",41.015277000000005,-74.110772
"07461","Sussex","NJ","Tractor Supply Co.","775 Rte 23","07461",41.225597,-74.613919
"07461","Sussex","NJ","Wingle Supply Co.","755 County Road 565","07822",41.169961,-74.670126
"07463","Waldwick","NJ","Garage Door Repair Waldwick","Cleveland Ave","07463",41.01075041901429,-74.12501335144043
"07470","Wayne","NJ","Sherwin-Williams Paint Store","832 Mountainview Blvd","07470",40.912836999999996,-74.263736
"07470","Wayne","NJ","Corrado's True Value","201 Berdan Ave","07470",40.965754609430206,-74.24136757850647
"07470","Wayne","NJ","Habitat Restore","415 Hamburg Tpke","07470",40.9505500793457,-74.21307373046875
"07470","Wayne","NJ","Appliance Repair Wayne","593 Valley Road","07470",40.93257930336351,-74.22931909561157
"07470","Wayne","NJ","Seelas","1164 Hamburg Tpke","07470",40.961181640625,-74.24198150634766
"07501","Paterson","NJ","Sandy Hill Building Supply","100 Dale Ave","07501",40.91093063354492,-74.16907501220703
"07501","Paterson","NJ","Union 5 & 10 Inc.","392 Union Ave","07502",40.92090606689453,-74.18621826171875
"07501","Paterson","NJ","Grand Hardware","Grand St","07501",40.91328167209639,-74.17412071165606
"07501","Paterson","NJ","Tungol Paint","not_available","07501",40.908894003711396,-74.19352704493276
"07501","Paterson","NJ","Ricciardi Paint","425 McBride Ave","07501",40.908891,-74.193116
"07501","Paterson","NJ","Ace Hardware - Paterson","301 Main St","07505",40.9159999,-74.171999
"07501","Paterson","NJ","White & Shauger, Inc.","435 Straight St","07501",40.90929378285249,-74.16639392207978
"07501","Paterson","NJ","Locksmith Paterson","77 Hamilton St","07505",40.9138069152832,-74.17147827148438
"07501","Paterson","NJ","Garage Door Repair Paterson","Paterson Ave","07502",40.919787693088786,-74.18938636779785
"07502","Paterson","NJ","All Ply Roofing","not_available","07508",40.930118560791016,-74.18523406982422
"07503","Paterson","NJ","Lowe's","265 Mclean Boulevard","07504",40.9055875,-74.1340201
"07503","Paterson","NJ","minuteKEY","265 McLean Blvd","07504",40.90713882446289,-74.13446807861328
"07504","Paterson","NJ","Kamco Supply Of Nj","845 E 25th St","07513",40.91020135354146,-74.15071575107409
"07504","Paterson","NJ","Appliance Repair Paterson","451 E 30th St","07504",40.91142654418945,-74.14600372314453
"07506","Hawthorne","NJ","Henrys Plumbing Supply","1100 Goffle Rd","07506",40.969608306884766,-74.153076171875
"07506","Hawthorne","NJ","Magic Rain work truck","not_available","07506",40.95326235498103,-74.15467794439506
"07506","Hawthorne","NJ","Garage Door Repair Hawthorne","Hawthorne Ave","07506",40.94987403168907,-74.15014028549194
"07506","Hawthorne","NJ","Tirozzi Hardware","not_available","07524",40.934433,-74.156104
"07506","Hawthorne","NJ","Ace Hardware","111 Wagaraw Rd","07506",40.940181732177734,-74.16189575195312
"07506","Hawthorne","NJ","Universal Engineering","275 County Road 504","07506",40.9416567638885,-74.15279030799866
"07508","Haledon","NJ","tanis hardware","Belmont Avenue","not_available",40.93917383079133,-74.18510546206261
"07508","Haledon","NJ","Tanis Hardware","479 Belmont Ave","07508",40.938087448352604,-74.18862548955164
"07508","Haledon","NJ","Garage Door Repair Haledon","Haledon Ave","07508",40.93405447558017,-74.17616844177246
"07508","Haledon","NJ","AllState Fence Co.","244 Temple St","07522",40.92961502075195,-74.18028259277344
"07514","Paterson","NJ","Perlmutter's Paint","417 11th Ave","07514",40.922041401068995,-74.1502046585083
"07514","Paterson","NJ","Fastenal","443 Madison Ave","07524",40.92557144165039,-74.1513900756836
"07524","Paterson","NJ","jb aluminum supplies inc","46 Bleeker St","07524",40.93257141113281,-74.16496276855469
"07601","Hackensack","NJ","Lowe's","2000 Bergen Town Center","07652",40.9124676,-74.0520731
"07601","Hackensack","NJ","The Home Depot","450 Hackensack Ave","07601",40.9098248,-74.0303209
"07601","Hackensack","NJ","The Home Depot","99 State Route 17 North","07644",40.885607849687,-74.0655192732811
"07601","Hackensack","NJ","Sears","436 Main St","07601",40.89247348,-74.039011
"07601","Hackensack","NJ","Swift Electric Supply","100 Hollister Rd","07608",40.86269,-74.05614200000001
"07601","Hackensack","NJ","Alba Kitchen and Bath LLC","361 Rt 17 South","07604",40.8621,-74.0659
"07601","Hackensack","NJ","McManus Rentals","41-43 Linden St","07601",40.8944775981248,-74.04483650625991
"07601","Hackensack","NJ","Snap On Truck","not_available","07666",40.91127578678441,-74.02506338848411
"07601","Hackensack","NJ","G&S Hardware & Supply","251 Hudson St","07601",40.870665,-74.041461
"07601","Hackensack","NJ","Pac Pump & Systems Inc","106 Hobart St","07601",40.87501,-74.050229
"07601","Hackensack","NJ","Grand Tool Supply","not_available","07606",40.861142,-74.048862
"07601","Hackensack","NJ","Mile Square Roofing","not_available","07601",40.874537,-74.059017
"07601","Hackensack","NJ","Outwater Industries","24 River Road","07603",40.869743,-74.0326768
"07601","Hackensack","NJ","minuteKEY","2000 Bergen Town Ctr","07652",40.91304016113281,-74.05271911621094
"07601","Hackensack","NJ","Keehn","Repair Center","not_available",40.905277,-74.040627
"07601","Hackensack","NJ","Keehn Power Products","132 Johnson Ave","07601",40.9052081,-74.0404313
"07601","Hackensack","NJ","Ville Doors","102 John St","07601",40.879339,-74.04955
"07601","Hackensack","NJ","minuteKEY","1 Teterboro Landing Dr","07608",40.862606048583984,-74.06255340576172
"07601","Hackensack","NJ","Automotive Brake Co.","314 Railroad Ave","07601",40.889373,-74.046284
"07601","Hackensack","NJ","Grainger","506 US 46","07604",40.860970121958715,-74.05652662967304
"07601","Hackensack","NJ","Sherwin-Williams Paint Store","500 S River St","07601",40.863517387697065,-74.03514862060547
"07601","Hackensack","NJ","Outwater Plastics","not_available","07603",40.87010600298088,-74.03283102613864
"07604","Hasbrouck Heights","NJ","Modern Propane","Route 46W","not_available",40.87512495324811,-74.06980294596843
"07604","Hasbrouck Heights","NJ","J&B Lock and Alarm","427 Boulevard","07604",40.86922073364258,-74.07115173339844
"07604","Hasbrouck Heights","NJ","HD Supply A.H. Harris","224 NJ-17","07604",40.85730711,-74.0689802
"07604","Hasbrouck Heights","NJ","Things With Dings Appliances","193 US Highway 46 W","07644",40.875282287597656,-74.07010650634766
"07604","Hasbrouck Heights","NJ","Acaden Contractor, LLC","53 S Main St","07644",40.8712494,-74.0875415
"07605","Leonia","NJ","Arim Terrazzo Supply","154 W Edsall Blvd","07650",40.85527038574219,-74.00009155273438
"07620","Alpine","NJ","JACKSON PLUMBING COMPANy","79   JACKSON ST","10701",40.92717361450195,-73.89962005615234
"07620","Alpine","NJ","Yonkers True Value Hardware","476 S Broadway","10705",40.916609,-73.896464
"07620","Alpine","NJ","SOUTH BROADWAY PLUMBING AND HEATING","375 S Broadway","10705",40.92084159487531,-73.89603853225708
"07620","Alpine","NJ","Broadway Hardware","465 S Broadway","10705",40.917266,-73.896979
"07620","Alpine","NJ","Market Sewer And Drain","2 Market Pl","10701",40.93471908569336,-73.90115356445312
"07620","Alpine","NJ","Highland Plumbing and Heating","131 Highland Ave","10705",40.926805,-73.89994200000001
"07620","Alpine","NJ","PIER POINTE PLUMBING COMPANY","1 Pier Pointe St","10701",40.934146881103516,-73.90374755859375
"07620","Alpine","NJ","Herriot Plumbing and Heating","120 Herriot St","10701",40.928072,-73.901754
"07620","Alpine","NJ","CEDAR PLUMBING AND HEATING","26   CEDAR PL","10705",40.92505703397695,-73.8971757888794
"07620","Alpine","NJ","PIER PLUMBING COMPANY","27 Pier St","10705",40.92316011965417,-73.90239000320435
"07620","Alpine","NJ","Hardware Store","not_available","10701",40.94665887975865,-73.89676736803028
"07620","Alpine","NJ","Craftmaster Hardware","190 Veterans Dr","07647",41.003789,-73.944736
"07620","Alpine","NJ","Radford Plumbing and Heating","77 Radford St","10705",40.9175910949707,-73.89634704589844
"07620","Alpine","NJ","Rubin Bros. Paint & Hardware","65 Main St","10701",40.93476,-73.900748
"07620","Alpine","NJ","Garage Door Repair Alpine NJ","Closter Dock Rd","07620",40.95277495301265,-73.93290281295776
"07620","Alpine","NJ","New York Replacement Parts","19 School St","10701",40.931346000000005,-73.894992
"07621","Bergenfield","NJ","Shaw's Lock Service","74 S Washington Ave","07621",40.925169,-73.997062
"07621","Bergenfield","NJ","GPS plumbing supply","not_available","07657",40.93016855202634,-73.99559133839811
"07621","Bergenfield","NJ","Bergen Metals","14 Hill Pl","07621",40.917254,-73.998225
"07621","Bergenfield","NJ","Bergenfield Power","95 W Main St, Bergenfield, NJ 07621","07621",40.92799758911133,-74.00045013427734
"07621","Bergenfield","NJ","Cooper Electric","72 N Washington Ave","07621",40.929994,-73.996165
"07621","Bergenfield","NJ","Gerry's Hardware","not_available","07621",40.925384608144796,-73.99753677138177
"07621","Bergenfield","NJ","Butler's Hardware","78 S Washington Ave","07621",40.925169,-73.997062
"07621","Bergenfield","NJ","Sherwin-Williams Paint Store","92 S Front St","07621",40.924794,-73.999315
"07621","Bergenfield","NJ","Onrion LLC","93 S Railroad Ave Ste C","07621",40.924747083207826,-73.99836113743436
"07621","Bergenfield","NJ","Haworth Dpw Mechanics shop","Park Ave","07641",40.936493504173114,-73.9950863260177
"07621","Bergenfield","NJ","allied building products corp.","Columbia","07646",40.926265716552734,-74.01708984375
"07621","Bergenfield","NJ","Allied Building Products","30 Columbia Ave","07621",40.935958,-73.99620300000001
"07624","Closter","NJ","Haworth Hardware","300 Saint Nicholas Ave","07641",40.959162,-73.989011
"07624","Closter","NJ","Garage Door Repair Haworth","Whitman St","07641",40.96262741001617,-73.97804975509642
"07624","Closter","NJ","Dykes Lumber","23 Naugle St","07624",40.974922,-73.961135
"07624","Closter","NJ","Garage Organization","570 Piermont Rd Ste 136","07624",40.9691623,-73.95352439999999
"07624","Closter","NJ","Closter Hardware","100-198 Oakland Ave","07624",40.97244081666667,-73.96023393333333
"07624","Closter","NJ","Wards True Value","206-212 Main St-Closter Dock Rd","07624",40.97052,-73.96065
"07624","Closter","NJ","No Rust Caster - Highbraw International.Inc","258 Ruckman Rd","07624",40.976221,-73.946395
"07624","Closter","NJ","Hometown Hardware","259 Closter Dock Rd","07624",40.97249,-73.96032199999999
"07624","Closter","NJ","Garage Door Repair Closter","227 Closter Dock Rd #50","07624",40.97343826293945,-73.9616928100586
"07626","Cresskill","NJ","Benjamin Brothers True Value Hardware","121 N Summit St","07670",40.93632725112917,-73.96101126656993
"07626","Cresskill","NJ","Garage Door Repair Demarest","Highland Ave","07627",40.944266302919914,-73.9514422416687
"07628","Dumont","NJ","Ever Bright Hardware Company LTD","38 Grant Ave","07628",40.948299407958984,-73.98641967773438
"07628","Dumont","NJ","Bill's Hardware","Madison Avenue","07628",40.94259822314294,-73.99120686837627
"07628","Dumont","NJ","Dumont Hardware Company","33 E Madison Ave","07628",40.940394,-73.992732
"07630","Emerson","NJ","PanaLuna Design Group, LLC","28 Sycamore Ave","07630",40.97608184814453,-74.03987121582031
"07630","Emerson","NJ","Hoffman Floor","160 Tillman St","07675",40.98354431004121,-74.0090884486332
"07630","Emerson","NJ","Atlas Lock & Key Co","not_available","07630",40.97621797675133,-74.02578636059364
"07630","Emerson","NJ","SVF Railings LLC","not_available","07676",40.98082142033515,-74.05385971069336
"07630","Emerson","NJ","Blue Rhino","188 Kinderkamack Rd","07630",40.97595977783203,-74.02684020996094
"07630","Emerson","NJ","Garage Door Repair Emerson","Hartland Ave","07630",40.97947688780816,-74.01914119720458
"07631","Englewood","NJ","Mitchell Simon Co.","15 S Dean St","07631",40.892925983333335,-73.974479
"07631","Englewood","NJ","Advanced Locksmith","18 N Van Brunt St","07631",40.894901275634766,-73.97508239746094
"07631","Englewood","NJ","Grant Supplies","411 Alfred Ave","07666",40.886559,-73.990532
"07631","Englewood","NJ","Accurate Precision Fasteners","20 Honeck St","07631",40.88262939453125,-73.98155212402344
"07632","Englewood Cliffs","NJ","Apex Supply Company, Inc.","4580 Broadway","10040",40.860081,-73.93055799999999
"07632","Englewood Cliffs","NJ","Imperial Kitchen & Bath LLC","560 Sylvan Ave Ste 3160","07632",40.88699484902034,-73.94680738449095
"07632","Englewood Cliffs","NJ","Gerry's Hardware","not_available","10034",40.866373,-73.927785
"07640","Harrington Park","NJ","Garage Door Repair Harrington Park","Herring St","07640",40.98827254950266,-73.97646188735962
"07642","Hillsdale","NJ","Garage Door Repair Hillsdale","Winthrop Rd","07642",41.01037800957325,-74.064781665802
"07642","Hillsdale","NJ","Garage Door Repair Woodcliff Lake","Pascack Rd","07677",41.01923430731165,-74.05130624771118
"07642","Hillsdale","NJ","Marsala Hardware","not_available","07642",41.003069,-74.040753
"07642","Hillsdale","NJ","Urtoolshop","144 Broadway","07642",41.004264,-74.040539
"07642","Hillsdale","NJ","Husqvarna US","107 Prospect Pl","07642",41.00639343261719,-74.04658508300781
"07642","Hillsdale","NJ","Marsala Hardware","110 Broadway","07642",41.003111,-74.040338
"07642","Hillsdale","NJ","Taylor Rental","448 Broadway","07642",41.014857,-74.041319
"07642","Hillsdale","NJ","Sherwin-Williams Paint Store","385 Washington Ave","07642",41.001136779785156,-74.0416030883789
"07644","Lodi","NJ","Sun Joe And Snow Joe Factory Outlet","119 US Highway 46 W","07644",40.879520416259766,-74.07733154296875
"07644","Lodi","NJ","G & S Supply","172 Garibaldi Ave","07644",40.881551,-74.076911
"07644","Lodi","NJ","Ricciardi Brothers - Benjamin Moore Paints","126 Essex St","07644",40.89239246780851,-74.07392192389703
"07644","Lodi","NJ","Cod Industries","not_available","07644",40.877128,-74.084195
"07644","Lodi","NJ","American Jewel Window Systems","80 Industrial Rd","07644",40.884977,-74.07670300000001
"07644","Lodi","NJ","Best Carpets & Kitchen Floors","36 U.S. 46, Lodi, NJ 07644","07644",40.88496398925781,-74.08897399902344
"07645","Montvale","NJ","Montvale Hardware & Paint Supply","8 Railroad Ave","07645",41.04033,-74.02958
"07645","Montvale","NJ","Kuhn's Plumbing Supply","8 Railroad Avenue","not_available",41.059478759765625,-74.02208709716797
"07645","Montvale","NJ","Garage Door Repair Montvale","11 Franklin Ave","07645",41.039324,-74.027699
"07645","Montvale","NJ","Hadeler hardware","not_available","10965",41.05939,-74.02154
"07645","Montvale","NJ","Krell Lighting Dist. Center","208 Hawthorne Ave","07656",41.037489,-74.03238499999999
"07645","Montvale","NJ","Classic Tile","34 W Washington Ave","10965",41.060432,-74.022578
"07645","Montvale","NJ","Ridge Supply","280 Red Schoolhouse Rd","10977",41.0653207621446,-74.0521962058894
"07645","Montvale","NJ","DPR PLUMBING AND HEATING","4 E Dexter Plz","10965",41.05403271515935,-74.02562141418457
"07646","New Milford","NJ","Palmer Ace Hardware","940 Kinderkamack Rd","07661",40.94042,-74.030201
"07646","New Milford","NJ","Billy's Hardware","33 Madison Ave","07628",40.9292106628418,-74.03318786621094
"07646","New Milford","NJ","Bergen Garden Center","563 River Rd","07646",40.93462,-74.022591
"07647","Northvale","NJ","Ferguson HVAC Supply","444 Livingston St","07648",40.9971687839801,-73.9554511568363
"07647","Northvale","NJ","Garage Door Repair Northvale","Paris Ave","07647",41.00592512495194,-73.94792318344116
"07647","Northvale","NJ","Telescript International","55 Walnut St #101A","07648",40.996704,-73.95195
"07649","Oradell","NJ","Locksmith Oradell","466 Kinderkamack Rd","07649",40.956726,-74.030618
"07649","Oradell","NJ","Garage Door Repair Paramus","Forest Ave","07652",40.95975933002867,-74.05107021331787
"07649","Oradell","NJ","Garage Door Repair Oradell","354 Maple Ave #14","07649",40.952545166015625,-74.0303955078125
"07650","Palisades Park","NJ","Kraut Benson","333 Broad Ave","07650",40.849441999999996,-73.997137
"07652","Paramus","NJ","The Home Depot","520 Route 17 North","07652",40.9565573,-74.0723121
"07652","Paramus","NJ","Porcelanosa","65 S State Rt 17","07652",40.92526949117391,-74.07153162840136
"07652","Paramus","NJ","KOHLER Signature Store by General Plumbing Supply","160 Route 17 North","07652",40.93142632,-74.06995631
"07652","Paramus","NJ","MutualScrew and Supply","Mutual Screw & Supply 68 West Passaic Street Rochelle Park, NJ 07662 USA","07662",40.91106033325195,-74.07481384277344
"07652","Paramus","NJ","Decors U.S.","148E route 4","07652",40.917225830985274,-74.05977129936217
"07652","Paramus","NJ","Tool Town","160 N State Rt 17","07652",40.931252,-74.069807
"07652","Paramus","NJ","Hakky","1 Garden State Plz","07652",40.9185832752407,-74.07527472227068
"07652","Paramus","NJ","Winters Supply","592 Winters Ave","07652",40.9607858,-74.0713956
"07652","Paramus","NJ","Sherwin-Williams Paint Store","176 N State Rt 17","07652",40.933144,-74.069909
"07652","Paramus","NJ","Larkin Lumber","129 route 4","not_available",40.918438,-74.060294
"07652","Paramus","NJ","My House Kitchen","492 New Jersey 17","07652",40.95447621,-74.07282047
"07652","Paramus","NJ","Locksmith Paramus","2 Sears Dr","07652",40.953731094681544,-74.0708327293396
"07652","Paramus","NJ","Davidson Plumbing Supply","201 N State Rt 17","07652",40.942,-74.07
"07652","Paramus","NJ","Cleopatra Tiles & Bath","not_available","07652",40.917293,-74.060221
"07656","Park Ridge","NJ","Garage Door Repair Park Ridge","Park Ave","07656",41.03158580153892,-74.0312647819519
"07656","Park Ridge","NJ","Small Metal Specialty Parts","176 Kinderkamack Rd","07656",41.03600311279297,-74.0323715209961
"07660","Ridgefield Park","NJ","Electric Distributors Inc","Rt 46","not_available",40.850246,-74.026618
"07660","Ridgefield Park","NJ","This N That Hardware & Plumbing","21 Mt Vernon St","07660",40.856701,-74.026673
"07660","Ridgefield Park","NJ","Little Ferry Hardware","Main Street","07643",40.855493,-74.025557
"07662","Rochelle Park","NJ","Carbide Mulcher Teeth","2716 West Side Avenue","07662",40.905404307928045,-74.07755970954895
"07663","Saddle Brook","NJ","Harbor Freight Tools","441 Market St","07663",40.89758742540259,-74.09867524585135
"07666","Teaneck","NJ","Ricciardi Brothers","215 W Englewood Ave","07666",40.90122238457303,-74.00677572642927
"07670","Tenafly","NJ","certified elevator & escalator products inc","not_available","11101",40.9099830966355,-73.94921074740375
"07675","Westwood","NJ","L & N Grand 5 & 10 Cent Store","not_available","07675",40.992633000000005,-74.030025
"07675","Westwood","NJ","BLAISDELL PLUMBING AND HEATING","331 Blaisdell Rd","10962",41.03219985961914,-73.97643280029297
"07675","Westwood","NJ","Garage Door Repair Westwood","Madison Ave","07675",40.993018155914754,-74.03459072113036
"07701","Red Bank","NJ","Cooper Electric","666 State Route 35","07748",40.385487685132404,-74.09613772296743
"07701","Red Bank","NJ","Thompson's Hardware","not_available","07702",40.33692905421513,-74.06286081724647
"07701","Red Bank","NJ","Creative Space","New Jersey 35, NJ","07748",40.38003151368826,-74.09067396217934
"07701","Red Bank","NJ","Prown's","135 Monmouth St","07701",40.3489919,-74.072042
"07701","Red Bank","NJ","Leslie's Pool Supplies","500 State Route 35","07748",40.37387,-74.088
"07701","Red Bank","NJ","Creative Space","Newman Springs Rd(Rte.520)","07702",40.337966507228494,-74.06867074922711
"07701","Red Bank","NJ","New Age Glass","not_available","07701",40.351837158203125,-74.06535339355469
"07701","Red Bank","NJ","Community True Value Hardware","44 Church St","07739",40.340059000000004,-74.040858
"07701","Red Bank","NJ","Yardworks","660 Broad St","07702",40.329676,-74.06283
"07701","Red Bank","NJ","Allied Glass and Mirror, llc","159 Statesir Place","07701",40.369022369384766,-74.08281707763672
"07701","Red Bank","NJ","Ryser's Landscape Supply","145 White Rd","07739",40.337340000000005,-74.06023499999999
"07701","Red Bank","NJ","Fair Haven Hardware Inc.","752 River Rd","07704",40.364206,-74.03549100000001
"07701","Red Bank","NJ","Sherwin-Williams Paint Store","471 Shrewsbury Ave","07702",40.33449600864856,-74.07399607701932
"07701","Red Bank","NJ","Ferguson HVAC Supply (Ferguson Plumbing Supply)","207 Cooper Rd","07701",40.3733178378378,-74.0796383783784
"07702","Shrewsbury","NJ","Monmouth Building Center","777 Shrewsbury Ave","07702",40.320953,-74.071045
"07702","Shrewsbury","NJ","Lawes Coal Company","499 Sycamore Ave","07702",40.322726,-74.070341
"07712","Asbury Park","NJ","The Home Depot","3540 Route 66","07753",40.2228652,-74.0819132
"07712","Asbury Park","NJ","Towne Hardware","75 Monmouth Rd","07755",40.269709000000006,-74.015266
"07712","Asbury Park","NJ","The Hardware Store of Asbury Park","702-704 Summerfield Ave","07712",40.21757,-74.011785
"07712","Asbury Park","NJ","Tractor Supply Co.","1535 West Park Ave","07712",40.25839292,-74.0898549
"07712","Asbury Park","NJ","Sherwin-Williams Paint Store","1604 State Route 35","07755",40.25325393676758,-74.04012298583984
"07712","Asbury Park","NJ","Cooper Electric","42 Cindy Ln","07712",40.26591260593761,-74.04464364051817
"07712","Asbury Park","NJ","minuteKEY","3575 State Route 66","not_available",40.2242209,-74.0815149
"07712","Asbury Park","NJ","Fastenal Company","22 Meridian Roaf","07724",40.27732849121094,-74.04955291748047
"07712","Asbury Park","NJ","Grainger","400-468 Industrial Way W","07724",40.27622968320515,-74.05421534788404
"07712","Asbury Park","NJ","Asbury Electric","Asbury Ave","07712",40.22149887917451,-74.0168752511657
"07712","Asbury Park","NJ","Bear Glass","359 Essex Rd","07753",40.226656,-74.09193
"07712","Asbury Park","NJ","Campbell Supply Co","1610 Sewall Ave","07712",40.2219560717322,-74.02567160329903
"07712","Asbury Park","NJ","Ideal Lumber & Supply CO","348 Elberon Blvd","07755",40.257633209228516,-74.00359344482422
"07712","Asbury Park","NJ","Windowrama","302 New Jersey 35, Eatontown, NJ 07724","07724",40.27913570809551,-74.04750006461687
"07712","Asbury Park","NJ","tool Place","not_available","07712",40.26643824764948,-74.0830129222661
"07712","Asbury Park","NJ","Standard supply","41 Shark River Rd","07753",40.219329833984375,-74.1024169921875
"07712","Asbury Park","NJ","The Hardware Store of Asbury Park","428 Main St","07712",40.217933654785156,-74.01234436035156
"07712","Asbury Park","NJ","Windowrama","314 Main St, Asbury Park, NJ 07712","07712",40.21727675354746,-74.01307657063748
"07712","Asbury Park","NJ","Uptite Fasteners","910 Asbury Ave","07712",40.220517,-74.013866
"07716","Atlantic Highlands","NJ","West Marine","not_available","07732",40.405982971191406,-74.00587463378906
"07716","Atlantic Highlands","NJ","Jaspan Brothers Hardware","117 First Ave","07716",40.4123941,-74.0388079
"07716","Atlantic Highlands","NJ","Ted Hall Locksmith","not_available","07716",40.40597,-74.04172
"07717","Avon By The Sea","NJ","Ferguson HVAC Supply","401 Main St","07717",40.19218063354492,-74.02249908447266
"07718","Belford","NJ","Township Hardware","New Jersey 36, Port Monmouth, NJ 07758","07758",40.42409567218287,-74.09964696921314
"07719","Belmar","NJ","Taylor Hardware Inc.","914 Main St","07719",40.179813,-74.02510600000001
"07719","Belmar","NJ","Billows Electric Supply","1710 State Route 34","07727",40.188720703125,-74.11384582519531
"07719","Belmar","NJ","Rible's Locksmith & Hardware","613 15th Ave","07719",40.175039,-74.026229
"07719","Belmar","NJ","Sherwin-Williams Paint Store","2204 Highway 35","08750",40.134602224860814,-74.06325817108154
"07719","Belmar","NJ","Wall Hardware And Home","2538 Belmar Blvd","07719",40.17679977416992,-74.06238555908203
"07719","Belmar","NJ","Bain’s hardware","not_available","07762",40.1536,-74.028284
"07719","Belmar","NJ","Rible Lock","15th Ave","07719",40.17861040881225,-74.04595388076623
"07719","Belmar","NJ","Taylor hardware","not_available","07719",40.179355613797775,-74.02547920899616
"07719","Belmar","NJ","The Pool & Spa Doctor","1714 State Route 35","07719",40.17158,-74.04432
"07719","Belmar","NJ","NJ Gravel And Sand","1661 HIGHWAY 34 SOUTH","07719",40.19320397343259,-74.11814918353419
"07719","Belmar","NJ","Belmar Discount Paint Stores","511 Main St","07719",40.183698,-74.02435200000001
"07719","Belmar","NJ","minuteKEY","1933 State Route 35 Ste 125","07719",40.155784606933594,-74.05591583251953
"07719","Belmar","NJ","Man Zone","not_available","07753",40.19607439456458,-74.03029626754606
"07719","Belmar","NJ","A & J Remodeling & Management Services Inc.","1901 State Route 71 Ste D","07719",40.167301177978516,-74.03401184082031
"07719","Belmar","NJ","Garden State Tile","5001 Industrial Way","07727",40.19083,-74.11735
"07719","Belmar","NJ","New Jersey Gravel & Sand Co","1661 State Route 34","07727",40.1939811706543,-74.1197509765625
"07719","Belmar","NJ","Blue Rhino","3240 Belmar Blvd","07719",40.18553161621094,-74.07611846923828
"07719","Belmar","NJ","Jaeger Hardwoods","800 12th Ave","07719",40.178319,-74.02877099999999
"07720","Bradley Beach","NJ","Atlantic Lock and Safe","Main St","07720",40.199328,-74.018905
"07721","Cliffwood","NJ","Home Surplus","180 State Route 35","07735",40.4408656,-74.2263388
"07722","Colts Neck","NJ","Becker True Value Hardware","430 Highway 34","07722",40.29325401,-74.17507244
"07722","Colts Neck","NJ","GTS WELCO","1240 state  highway 33","07731",40.2326585,-74.2233306
"07722","Colts Neck","NJ","Blue Rhino","699 Newman Springs Rd","07738",40.330539,-74.121122
"07724","Eatontown","NJ","Lowe's","118 Highway 35","07724",40.2967185,-74.0566177
"07724","Eatontown","NJ","The Home Depot","310 State Hwy 36","07764",40.291118,-74.0374682
"07724","Eatontown","NJ","Harbor Freight Tools","94 State Route 36","07724",40.29124295100011,-74.04406282226407
"07724","Eatontown","NJ","A Big Top Tent Rentals","not_available","07724",40.30242348330617,-74.06872987747192
"07724","Eatontown","NJ","D & D Glass","20 Broad St","07724",40.304809000000006,-74.058863
"07726","Englishtown","NJ","The Home Depot","300 Trotters Way","07728",40.2544847,-74.292925
"07726","Englishtown","NJ","Lowe's","57 Highway 9 S","07751",40.35537,-74.3087721
"07726","Englishtown","NJ","The Home Depot","170 Union Hill Road","07751",40.3414948,-74.3039589
"07726","Englishtown","NJ","Major Tool","221 Throckmorton St","07728",40.265677000000004,-74.287261
"07726","Englishtown","NJ","Millhurst Mills & Ace Hardware","17 Sweetmans Ln","07726",40.249073,-74.342044
"07726","Englishtown","NJ","minuteKEY","57 US Highway 9","07751",40.355125427246094,-74.30891418457031
"07726","Englishtown","NJ","Sears Hardware","3710 US Highway 9 Unit 1100","07728",40.251233813973705,-74.29965521024346
"07726","Englishtown","NJ","Sears","3710 Highway 9","07728",40.25155111938238,-74.30013075111559
"07726","Englishtown","NJ","Clayton Masonry Center","225 Throckmorton St","07728",40.265723,-74.287848
"07726","Englishtown","NJ","ShowerMan- The Frameless Shower Door Store","100 US Highway 9","07726",40.29615020751953,-74.29962158203125
"07726","Englishtown","NJ","Appliance Repair Manalapan NJ","137 Millhurst Rd unit 9","07726",40.28556430874235,-74.35657382011414
"07726","Englishtown","NJ","Manalapan Hardware","Yorktowne Center","07726",40.30993214704648,-74.32176551726253
"07726","Englishtown","NJ","Accent Contracting Inc","6 Kimberly Cy","07727",40.323992,-74.348411
"07726","Englishtown","NJ","Pantano Power Equipment","137 County Road 522","07726",40.28369140625,-74.33444213867188
"07726","Englishtown","NJ","Millhurst Mills","Sweetmans Lane","07726",40.24893115483687,-74.34179588371423
"07727","Farmingdale","NJ","Joe Fazzio - Wall, LLC","5001 New Jersey 33, Farmingdale, NJ 07727","07727",40.2202259397286,-74.12977952308212
"07727","Farmingdale","NJ","Harbor Freight Tools","4004 Route 9 South","07731",40.1537,-74.22962
"07727","Farmingdale","NJ","Everlast Fence","392 Adelphia Rd","07727",40.205746000000005,-74.211162
"07727","Farmingdale","NJ","Blue Rhino","11 W Main St","07727",40.19963073730469,-74.17174530029297
"07727","Farmingdale","NJ","Joseph Fazzio - Howell","680 Squankum Yellowbrook Rd","07727",40.19866180419922,-74.19373321533203
"07727","Farmingdale","NJ","Sears","4010 Route 9 South","07731",40.1536772,-74.2297894
"07727","Farmingdale","NJ","Barg's Lawn & Garden","876 State Route 33","07728",40.243212,-74.2370907
"07727","Farmingdale","NJ","Qqfgnm","not_available","07727",40.185195,-74.165952
"07728","Freehold","NJ","The Home Depot","1990 Route 9","07731",40.187301,-74.2522515
"07728","Freehold","NJ","Sherwin-Williams Paint Store","3440 US Highway 9","07728",40.2295213984605,-74.27294271091927
"07728","Freehold","NJ","Colors To Go","620 Park Ave (Hwy 33)","07728",40.24924850463867,-74.26952362060547
"07728","Freehold","NJ","Cooper Electric","3477 Route 9 North","07728",40.23280434604094,-74.27317765132274
"07728","Freehold","NJ","B And E Locksmith","south street","07728",40.259589,-74.274395
"07728","Freehold","NJ","Arron Plumbing","not_available","07728",40.24952507385622,-74.26840429053601
"07728","Freehold","NJ","Aaron Kitchen Bath & Design Gallery","638 Park Ave Ste B","07728",40.249368,-74.26831800000001
"07728","Freehold","NJ","American Granite Design","56 Jerseyville Ave","07728",40.251205,-74.26969799999999
"07730","Hazlet","NJ","The Home Depot","3700 Highway 35","07730",40.422585,-74.197517
"07730","Hazlet","NJ","Lowe's","2194 State Route 35","07733",40.4142532,-74.1667404
"07730","Hazlet","NJ","Cerlione's Lawn & Garden","12 Northfield Ct","07730",40.421214,-74.186575
"07730","Hazlet","NJ","Poor John's Portable Toilets","110 W Front St","07735",40.4359306,-74.2053525
"07730","Hazlet","NJ","J & B Garden Center","not_available","07730",40.43873094084476,-74.14889804518441
"07730","Hazlet","NJ","Gales Industrial Hardware","28 W Front Street","07735",40.437012,-74.20291999999999
"07730","Hazlet","NJ","Apollo sewer And Plumbing","not_available","07735",40.436140694866225,-74.20555393632654
"07730","Hazlet","NJ","J B Sales & Service","421 State Hwy 36 West","07730",40.43857,-74.14894
"07731","Howell","NJ","Lowe's","4975 US Highway 9","07731",40.130248,-74.219615
"07731","Howell","NJ","Quality Bath","1144 E County Line Rd","08701",40.10437,-74.18116
"07731","Howell","NJ","minuteKEY","4900 U.S. Highway #9","not_available",40.131345,-74.2263698
"07731","Howell","NJ","Qqrdth","not_available","08724",40.10414351097228,-74.12010482862513
"07731","Howell","NJ","Sherwin-Williams Paint Store","540 New Friendship Rd","07731",40.1396598815918,-74.2261734008789
"07731","Howell","NJ","House Of Paints","6045-6699 U.S. 9","07731",40.118640516666666,-74.21901396666667
"07731","Howell","NJ","Ricciardi Brothers BenjiMoore","6521 U.S. 9 North","07731",40.117694,-74.219014
"07733","Holmdel","NJ","Middletown Appliance Repair","2011 New Jersey 35 unit 9","07748",40.411666217764925,-74.13347840309143
"07734","Keansburg","NJ","The Garage At The Burg","Beacon Blvd","07734",40.44693073015994,-74.12052869796753
"07740","Long Branch","NJ","Jersey Mason Materials","PO Box 7381","07702",40.2991486,-74.0059031
"07740","Long Branch","NJ","Sipersteins","700","07740",40.303955078125,-74.01026916503906
"07740","Long Branch","NJ","clayton concrete Long Branch","Overton Abe","07740",40.293719419321526,-74.00078485440551
"07740","Long Branch","NJ","John Guire Supply","187 Brighton Ave","07740",40.28542,-73.99005
"07740","Long Branch","NJ","Sip's Ace Paint & Hardware","700 Joline Ave","07740",40.3038749,-74.01029
"07740","Long Branch","NJ","Coast Hardware Co.","Broadway","07740",40.298414674456936,-74.00550544558988
"07740","Long Branch","NJ","Polymite Koatings Inc","not_available","07740",40.299199599903325,-73.9909029006958
"07746","Marlboro","NJ","Appliance Repair Marlboro NJ","70 Gordons Corner Rd unit 6","07751",40.33793983433267,-74.2687475681305
"07747","Matawan","NJ","The Home Depot","1090 Route 9 South","08857",40.4504925,-74.3001316
"07747","Matawan","NJ","ATAK Trucking","1341 State Route 34","07747",40.38613992,-74.2143598
"07747","Matawan","NJ","Harris Hardware","12 Jackson St","07747",40.41394,-74.23135295
"07747","Matawan","NJ","GPS","2 Johnson Ave","07747",40.419309999999996,-74.224096
"07747","Matawan","NJ","Dykes Lumber","Rt 34","07747",40.391319274902344,-74.22225189208984
"07747","Matawan","NJ","Old Bridge Appliance Repair","100 Ticetown Rd Apt 9","08857",40.39348602294922,-74.30337524414062
"07748","Middletown","NJ","Tractor Supply Co","1515 State Route 35","07748",40.405214,-74.125495
"07748","Middletown","NJ","Sherwin-Williams Paint Store","1320 State Route 35","07748",40.40052277344446,-74.12106870502754
"07748","Middletown","NJ","True Value","1175 State Route 35","07748",40.39889907836914,-74.11119842529297
"07748","Middletown","NJ","Appliance Repair Ocean NJ","1558 New Jersey 35 unit 9","07712",40.42034522438482,-74.11429524421692
"07748","Middletown","NJ","True Value","Hwy 36","07758",40.424059,-74.106198
"07748","Middletown","NJ","Painters Express II","1843 NJ-35","07748",40.409278,-74.13108199999999
"07751","Morganville","NJ","minuteKEY","2825 HIGHWAY ROUTE 18","not_available",40.3737242,-74.31923
"07751","Morganville","NJ","Jersey Rents","322 Spring Valley Rd","08857",40.373546000000005,-74.305338
"07756","Ocean Grove","NJ","Ocean Grove Hardware","51 Main Ave","07756",40.21213186711462,-74.00702836453618
"07757","Oceanport","NJ","Martins brothers hardwood floor","72 Oceanport Ave","07764",40.302932,-74.01341
"07760","Rumson","NJ","Bain's Hardware","Ocean Avenue","not_available",40.362111,-73.97444399999999
"07760","Rumson","NJ","Blue Rhino","27 W River Rd","07760",40.374827,-74.012477
"07764","West Long Branch","NJ","Specialty Products Plus","215 Locust Ave","07764",40.284178999999995,-74.018462
"07801","Dover","NJ","The Home Depot","530 Mount Pleasant Ave","07801",40.903205,-74.5636787
"07801","Dover","NJ","Sheaffer Supply","292 U.S. 46","07801",40.887041,-74.541816
"07801","Dover","NJ","Sears","400 Enterprise Dr #230","07866",40.9088235,-74.5627831
"07801","Dover","NJ","True Value Rental Of Rockaway","319 Route 46","07866",40.8900806713417,-74.5225382995169
"07801","Dover","NJ","National Building Supply","7 Lee Ave","07801",40.886732,-74.53747
"07801","Dover","NJ","Power Place inc","319 US Highway 46","07866",40.8902635,-74.52263083
"07801","Dover","NJ","Fania Roofing","not_available","07801",40.888530024640694,-74.54942637568233
"07801","Dover","NJ","General Plumbing Supply","15 Lee Ave","07801",40.886198,-74.538274
"07801","Dover","NJ","Sherwin-Williams Paint Store","377 US Highway 46","07866",40.888035,-74.527048
"07801","Dover","NJ","Park Union","243 South Salem st.","07869",40.87492134446503,-74.53575751649366
"07801","Dover","NJ","Ace Hardware of Rockaway","295 US Highway 46","07866",40.891547,-74.522182
"07801","Dover","NJ","County Welding Supply Co.","69 E Dewey Ave","07885",40.90705,-74.576948
"07801","Dover","NJ","Sack's Paint & Wallpaper","52 N Sussex St","07801",40.886038,-74.55841
"07801","Dover","NJ","AGS Appliance Service","350 US Highway 46","07866",40.888243934651946,-74.5272159576416
"07801","Dover","NJ","Sears (Temporarily Closed)","301 Mount Hope Ave","07866",40.9006834,-74.546199
"07803","Mine Hill","NJ","jk xtreme","not_available","07803",40.87155536450607,-74.59785661207191
"07821","Andover","NJ","The Hardware Store","182 Woodport Rd","07871",41.02437924159513,-74.63064622375491
"07821","Andover","NJ","Hopatcong Paints & Hardware","53 Hopatchung Rd","07843",40.935208,-74.66289599999999
"07821","Andover","NJ","Lock and Key World","471","07860",41.02059490070977,-74.76904876356812
"07821","Andover","NJ","Northwest Building Supply","not_available","07821",40.997537,-74.74534399999999
"07821","Andover","NJ","Excelsior Lumber","not_available","07860",41.023463,-74.768425
"07821","Andover","NJ","construction time for me","not_available","07850",40.915836334228516,-74.641357421875
"07821","Andover","NJ","Jefferson Lumber","298 Espanong Rd","07849",40.94446563720703,-74.61913299560547
"07821","Andover","NJ","Husqvarna US","188 MAIN ST., RT. 206","07821",40.994537353515625,-74.74210357666016
"07822","Augusta","NJ","universal supply group","not_available","07822",41.11897659301758,-74.71902465820312
"07822","Augusta","NJ","Cooper Electric Supply","17 Route 206 South","07822",41.114106,-74.720894
"07822","Augusta","NJ","Montague Tool & Supply","42 Broad St","07826",41.1447868347168,-74.74556732177734
"07823","Belvidere","NJ","Lin Plumbing Supply","not_available","07882",40.774119,-74.977584
"07823","Belvidere","NJ","L E Ritter Lumber Co.","74 Second St","07823",40.82641518333333,-75.08099275
"07823","Belvidere","NJ","Rigo's Belvidere Hardware & Feed","not_available","07823",40.828782,-75.078679
"07823","Belvidere","NJ","Taylor Rental Center","255 Rt 31 S","07882",40.77561,-74.978217
"07825","Blairstown","NJ","Lewis True Value","274 Keystone Rd","18302",41.0631426314107,-75.06836205342393
"07825","Blairstown","NJ","Tractor Supply Co.","128 State Rte 94 Ste 9","07825",40.98687951183666,-74.98268279474578
"07825","Blairstown","NJ","Blairstown Ace Hardware","2 Bridge St","07825",40.98205,-74.95799
"07825","Blairstown","NJ","AANCO Hydraulics Corp.","41 Vail Rd","07832",40.963439,-75.01989499999999
"07825","Blairstown","NJ","Mountainhome Hardware","Rt 390","18301",41.08941883585108,-75.06533254921027
"07827","Montague","NJ","The Home Depot","125 Reuben Bell Dr","18336",41.35462506480384,-74.71180773089145
"07827","Montague","NJ","Tractor Supply Co.","475 Rte 6 And 209","18337",41.336581,-74.776334
"07827","Montague","NJ","Lowe's","115 Wenlock Road","18336",41.3517609,-74.7247372
"07827","Montague","NJ","Lurh's True Value","not_available","18337",41.33666912835772,-74.77603682895575
"07827","Montague","NJ","Dp Luhrs True Value Hardware","300 W Harford St","18337",41.32436,-74.807004
"07827","Montague","NJ","Sherwin-Williams Paint Store","102 Milford Landing Dr","18337",41.352411,-74.73019000000001
"07827","Montague","NJ","Ace Hardware","475 Route 6 and 209","18337",41.33680725097656,-74.77621459960938
"07828","Budd Lake","NJ","Netcong True Value Hardware","127 State Route 183","07874",40.910007725193644,-74.71248970297566
"07828","Budd Lake","NJ","Plott","330 Waterloo Valley Rd","07828",40.908120000000004,-74.730514
"07828","Budd Lake","NJ","Mt Olive Hardware","259 US Highway 46","07828",40.86867904663086,-74.73795318603516
"07830","Califon","NJ","Califon Lumber","44-64 Main St","07830",40.719041,-74.83475200000001
"07830","Califon","NJ","M J's Lawn Mower & Small Engine Repair","456 County Road 513","07830",40.729008,-74.841737
"07832","Columbia","NJ","Leeward Construction Site","Route 209","18301",41.03624736222626,-75.135498046875
"07832","Columbia","NJ","Mount Bethel True Value Hardware","2165 Mount Bethel Hwy","18343",40.89662551879883,-75.12042999267578
"07834","Denville","NJ","Benjamin Moore Paintin' Place","Main St","not_available",40.887786223121346,-74.47906809980938
"07834","Denville","NJ","Essex Fence","118-154 U.S. 46","07866",40.897829918221234,-74.50714041296922
"07834","Denville","NJ","Ferguson HVAC Supply","100 Rte 46","07866",40.8947902,-74.5041139
"07834","Denville","NJ","Rockaway Hardware","not_available","07866",40.90080544975139,-74.51321214008308
"07834","Denville","NJ","PAINTEN' PLACE, INC.","150 STATE,ROUTE 53","07834-2604",40.8878176,-74.4787806
"07834","Denville","NJ","True Value Hardware","320 Us Highway 46","07834",40.8879999,-74.4855
"07834","Denville","NJ","Windowrama","3000 State Route 10","07950",40.86227035522461,-74.4960708618164
"07834","Denville","NJ","J & R Custom Woodworking","not_available","07834",40.87712097167969,-74.48078155517578
"07836","Flanders","NJ","Lowe's","20 International Drive South","07836",40.881598,-74.7028838
"07836","Flanders","NJ","Tractor Supply Co.","293 Us Hwy 206 Unit 15a","07836",40.831303589482154,-74.707354873138
"07836","Flanders","NJ","Sherwin-Williams Paint Store","509 New Jersey Route 10","07852",40.876695,-74.651154
"07836","Flanders","NJ","Homecraft Rentals","1280 Rte 46 Ledge","07852",40.88218152523041,-74.65628385543823
"07836","Flanders","NJ","Parkhurst distributing Co.","not_available","07852",40.88051488477915,-74.65246587075315
"07836","Flanders","NJ","West Chester","278 Old Ledgewood Rd","07836",40.887997,-74.699028
"07836","Flanders","NJ","minuteKEY","20 International Dr S","07836",40.88161087036133,-74.70267486572266
"07836","Flanders","NJ","minuteKEY","40 International Dr S","07836",40.881959,-74.70732
"07836","Flanders","NJ","B M B Fasteners Inc","230 US Highway 206 Ste 404","07836",40.8419857,-74.70786199999999
"07836","Flanders","NJ","North Jersey Landscape Supply Co.","not_available","07836",40.83533,-74.687395
"07840","Hackettstown","NJ","Lowe's","217 Mountain Avenue","07840",40.8390571,-74.8210457
"07840","Hackettstown","NJ","The Home Depot","2045 State Route 57","07840",40.82986449036329,-74.83428275876577
"07840","Hackettstown","NJ","Home Towne Hardware","234 Main St.","07840",40.85176967581844,-74.82716707415348
"07840","Hackettstown","NJ","Grand Rental Station","105 Maple Ave","07840",40.854093,-74.825611
"07840","Hackettstown","NJ","AQUATECH-USA","200B Valentine St","07840",40.852731,-74.832809
"07840","Hackettstown","NJ","Paintpourri","324 Mountain Ave","07840",40.8355,-74.82365
"07840","Hackettstown","NJ","Sherwin-Williams Paint Store","35 US Highway 46","07840",40.84644354365858,-74.81616497039795
"07847","Kenvil","NJ","Able Security Locksmiths","760 Rt 46 E, Unit 13","07847",40.879180522002265,-74.63200016004984
"07847","Kenvil","NJ","Blue Ridge Lumber","724 Rt. 46","07847",40.87926350275082,-74.63073062207951
"07847","Kenvil","NJ","Walt's Paint & Hardware","652 US Hwy. 46","07847",40.87950097854763,-74.62625857105519
"07848","Lafayette","NJ","Fastenal","7 Park Lake Rd","07871",41.08273794354941,-74.6546958503751
"07848","Lafayette","NJ","Tractor Supply Co.","135 Hampton House Rd","07860",41.10699,-74.72678
"07848","Lafayette","NJ","ALTAFLO","23 Wilson Dr","07871",41.07659114800052,-74.67003686823756
"07849","Lake Hopatcong","NJ","AMERICAN TRUE VALUE HDW OF LAKESIDE","20 Bowling Green Pkwy","07849",40.96323013305664,-74.59581756591797
"07850","Landing","NJ","Station Hardware & Garden Center","101 Kings Hwy","07850",40.904763,-74.666924
"07850","Landing","NJ","Tree King Inc","12 Lenel Rd","07850",40.9087,-74.6554
"07852","Ledgewood","NJ","The Home Depot","281 State Route 10 E","07876",40.86802951382522,-74.64899800559874
"07853","Long Valley","NJ","Hoffman's Supply","35 E Mill Rd","07853",40.782631,-74.774941
"07860","Newton","NJ","Lowe's","39 Hampton House Road","07860",41.0763664,-74.7407073
"07860","Newton","NJ","The Home Depot","7 North Park Drive","07860",41.0658905,-74.7509717
"07860","Newton","NJ","Sears","13 Hampton House Road","07860",41.0698915,-74.7443293
"07860","Newton","NJ","Sharpening Service","22 Ashford St","07860",41.05253,-74.75943
"07860","Newton","NJ","Sherwin-Williams Paint Store","15 Hampton House Rd","07860",41.07223129272461,-74.74658203125
"07860","Newton","NJ","Superior Shower Doors","262 Spring St","07860",41.05451583862305,-74.74919128417969
"07869","Randolph","NJ","Granville Concrete Products","1004 New Jersey 10","07869",40.85986943,-74.62544843
"07869","Randolph","NJ","SSI North America","961 State Route 10","07869",40.847806,-74.574725
"07869","Randolph","NJ","Synergy Electric, Inc.","11 Middlebury Boulevard Suite #8","07869",40.84,-74.58
"07869","Randolph","NJ","Hammer Enterprise Electric, LLC","52 Main St","07876",40.86571502685547,-74.63465118408203
"07869","Randolph","NJ","Hanover Supply","not_available","07869",40.856368875030014,-74.62525777639551
"07869","Randolph","NJ","Accudraft Paint Booths","961 Route 10 East, Suite 2K","07869",40.8538478,-74.60884589999999
"07869","Randolph","NJ","Handyman's Outdoor Equipment","508 State Route 10","07869",40.863216,-74.568519
"07869","Randolph","NJ","Randolph Locksmith","169","07801",40.828156568483706,-74.59181644471721
"07882","Washington","NJ","Washington locksmith","380-418 State Route 57 E","07882",40.76309072781352,-74.96065374082868
"07882","Washington","NJ","Sherwin-Williams Paint Store","26 W Washington Ave","07882",40.7585697281012,-74.98078802520202
"07882","Washington","NJ","Ace Hardware","288 Route 31 South","07882",40.7415257982554,-74.97948119893694
"07882","Washington","NJ","Plain and Fancy Stone Wholesale Supply","427 Montana Rd","07882",40.748961,-75.076405
"07882","Washington","NJ","Tractor Supply Co.","398 Rte 57 West 4","07882",40.752215,-75.005983
"07901","Summit","NJ","Dreyer's Lumber True Value","20 Watchung Ave","07928",40.7302454,-74.3802577
"07901","Summit","NJ","Village Hardware","Main St","07928",40.7375240650183,-74.38670986729412
"07901","Summit","NJ","Myles Kelly","100 Summit Ave","07928",40.735352,-74.37883000000001
"07920","Basking Ridge","NJ","Bernardsville Hardware","139 Morristown Rd","07924",40.720189000000005,-74.557621
"07920","Basking Ridge","NJ","Blue Rhino","551 Broad St","07003",40.720116,-74.558079
"07920","Basking Ridge","NJ","Blue Rhino","135 Morristown Rd","07924",40.720115661621094,-74.55810546875
"07920","Basking Ridge","NJ","Ricardo Brothers","1284 Mount Kimble Ave","not_available",40.73715012766376,-74.53899030726575
"07921","Bedminster","NJ","McGrath's Paint and Hardware","436 US 202","07921",40.650081634521484,-74.64320373535156
"07921","Bedminster","NJ","Locksmith Bedminster","2472 Lamington Rd #F","07921",40.68004608154297,-74.64613342285156
"07921","Bedminster","NJ","Garden State Mulch Supply","1225 US - 206","07921",40.6722933,-74.645427
"07922","Berkeley Heights","NJ","Berkeley Hardware & Paint","503 Springfield Ave","07922",40.683860778808594,-74.44258880615234
"07922","Berkeley Heights","NJ","Taylor Rental","284 Springfield Ave","07922",40.68868633,-74.43459225
"07922","Berkeley Heights","NJ","Mobile Lawnmower Service","638 Springfield Ave","07922",40.681389,-74.447283
"07922","Berkeley Heights","NJ","Berkeley Hardware","not_available","07922",40.683860778808594,-74.44258880615234
"07927","Cedar Knolls","NJ","Arzee building supply","17 E Frederick Pl","07927",40.81235885620117,-74.45137023925781
"07927","Cedar Knolls","NJ","Standard Group","19 E Frederick Pl","07927",40.812435,-74.451018
"07927","Cedar Knolls","NJ","Aquarius Irrigation Supply","64 S Jefferson Rd","07981",40.821740000000005,-74.439891
"07928","Chatham","NJ","Smith's Ace Hardware Chatham","650 Shunpike Rd","07928",40.747047,-74.431444
"07928","Chatham","NJ","Riccardi Brothers","26-28 South Street","07974",40.704994,-74.40581
"07928","Chatham","NJ","Sherwin-Williams Paint Store","246 Main St","07928",40.740897,-74.382308
"07928","Chatham","NJ","Village Hardware and Paint‎ / Benjamin Moore","223 Main St","07928",40.740139,-74.381479
"07928","Chatham","NJ","Madison Plumbing","not_available","07940",40.753272,-74.41015
"07928","Chatham","NJ","Mcgraths Paint & Hardware","28 South St","07974",40.705008,-74.405755
"07928","Chatham","NJ","McGrath's Paint And Hardware","Southern Blvd","not_available",40.74527,-74.430639
"07928","Chatham","NJ","Colonial Appliance","25 Passaic St","07974",40.706922999999996,-74.406254
"07930","Chester","NJ","Smith's Ace Hardware","91 W Main St","07930",40.782117,-74.700014
"07930","Chester","NJ","Kurt's Locks","not_available","07930",40.79301837,-74.70242543
"07930","Chester","NJ","Mendham Garden Center","162 Rte 206","07930",40.80014212,-74.711649
"07931","Far Hills","NJ","Black River General Store","not_available","07979",40.715335461996354,-74.72145018154472
"07932","Florham Park","NJ","Jaeger Lumber & Supply Co.","133 Main St","07940",40.75545116954946,-74.41211718273578
"07932","Florham Park","NJ","Florham Park Hardware","not_available","07932",40.789010404831956,-74.39299761310605
"07936","East Hanover","NJ","Burns Factory Supply","110 rt. 10","not_available",40.8111,-74.383701
"07936","East Hanover","NJ","Sears Home Improvement","50 Williams Pkwy","07936",40.80132361199248,-74.38117784231964
"07936","East Hanover","NJ","NJ Doors & Closets","11 Melanie Ln","07936",40.81955,-74.38651800000001
"07936","East Hanover","NJ","Do-It-Yourself","38 State Route 10 #1","07936",40.8124693441575,-74.3897506900513
"07950","Morris Plains","NJ","Lowe's","230 E Hanover Ave","07950",40.817002,-74.47086999999999
"07950","Morris Plains","NJ","Locksmith Morristown","48 Lake Valley Rd","07960",40.812945,-74.495005
"07960","Morristown","NJ","Cy Drake Locksmith","106 Ridgedale Ave","07960",40.80169708126136,-74.4663990349013
"07960","Morristown","NJ","Sherwin-Williams Paint Store","147 Speedwell Ave","07960",40.802809,-74.481672
"07960","Morristown","NJ","Morristown Lumber","103 Ridgedale Ave","07960",40.801194,-74.46552
"07960","Morristown","NJ","cooper electric supply","168 Ridgedale Ave","07960",40.805309,-74.465094
"07960","Morristown","NJ","Moore's Hardware","123 Morris St","07960",40.79662322998047,-74.47553253173828
"07960","Morristown","NJ","Ricciardi Brothers Paint","not_available","07960",40.7925036031899,-74.47683585775464
"08001","Alloway","NJ","Chicks Block Co III","65 N Greenwich St","08001",39.565147399902344,-75.36512756347656
"08002","Cherry Hill","NJ","The Home Depot","2160 Route 70 West","08002",39.924514966431055,-75.03860271284793
"08002","Cherry Hill","NJ","Westmont Ace Hardware","127 Haddon Ave","08108",39.9109389,-75.05
"08002","Cherry Hill","NJ","Sherwin-Williams Paint Store","926 Haddonfield Rd","08002",39.924081,-75.032749
"08002","Cherry Hill","NJ","Unique Interiors","1604 Marlton Pike W","08002",39.91787663,-75.02922725
"08002","Cherry Hill","NJ","MAB Paints","917 Church Rd","08002",39.946380615234375,-75.02665710449219
"08002","Cherry Hill","NJ","D & S Window Tinting","6561 Maple Ave","08109",39.951656341552734,-75.03992462158203
"08002","Cherry Hill","NJ","Tool Rental","Rt 70","08002",39.92419787726022,-75.03921433766244
"08002","Cherry Hill","NJ","Johnny's House of Skillz","514 King Ave","08108",39.923565,-75.064621
"08002","Cherry Hill","NJ","Conroy's Corner","126 Haddon Ave","08108",39.9105265,-75.05009083
"08002","Cherry Hill","NJ","Thos. Baker - Cherry Hill Mall","2000 Kaighns Ave","08002",39.94086,-75.0257016
"08002","Cherry Hill","NJ","Harbor Freight Tools","5247 Marlton Pike","08109",39.93471728144155,-75.06543996767722
"08003","Cherry Hill","NJ","Capanna Landscaping LLC","108 Brook View Cir","08053",39.89727020263672,-74.93921661376953
"08003","Cherry Hill","NJ","Ace Hardware","2101-2199 Marlton Pike","08003",39.89598105245531,-74.94862219871534
"08003","Cherry Hill","NJ","All Brand Appliance Parts","2010 Springdale Rd","08003",39.907835999999996,-74.966566
"08003","Cherry Hill","NJ","ProBuild","1350 Brace Rd","08034",39.895041,-75.017668
"08003","Cherry Hill","NJ","Fishman Flooring Solutions","621 Chapel Ave E","08034",39.919461,-74.97455
"08003","Cherry Hill","NJ","Ideal Tile","1316 Route 73","08054",39.915108000000004,-74.944271
"08003","Cherry Hill","NJ","Lawn Cuttery","315 Whitemarsh Way","08034",39.902496337890625,-74.98812103271484
"08003","Cherry Hill","NJ","MAB Paints","780 W Route 70","08053",39.89542063340351,-74.93999181541997
"08003","Cherry Hill","NJ","Matco Tools Truck","not_available","08053",39.89733466634855,-74.93251977143665
"08003","Cherry Hill","NJ","Sherwin-Williams Paint Store","740 Route 70 W","08053",39.89480813584914,-74.93868827819824
"08003","Cherry Hill","NJ","City Electric Supply Cherry Hill","2 Keystone Ave Ste 300","08003",39.9094004652735,-74.96751934289932
"08003","Cherry Hill","NJ","The Hardware Store","2095 Rte 70 E Liberty Bell Plaza","08003",39.8963149,-74.9485386
"08003","Cherry Hill","NJ","Marlton True Value","230 N Maple Ave","08053",39.91507559477529,-74.92777036447879
"08004","Atco","NJ","Wharton Landscape Supply","2324 Columbia Ave","08004",39.766708,-74.827416
"08004","Atco","NJ","The Fireplace People","not_available","08091",39.7888375779318,-74.9124366000605
"08004","Atco","NJ","atco hardware","not_available","08004",39.769563,-74.888974
"08005","Barnegat","NJ","Tractor Supply Co.","599 Rte 9","08758",39.80789,-74.20024
"08005","Barnegat","NJ","Hometown True Value Hardware","455 Hwy 9 North","08005",39.761024,-74.220087
"08005","Barnegat","NJ","Ferguson","937 N Main St","08050",39.73294016753034,-74.23812234742374
"08005","Barnegat","NJ","Home Depot","Rt 72east","08050",39.76821184158325,-74.21882092952728
"08005","Barnegat","NJ","Ferguson Plumbing Supply","737 S Main St","08731",39.822365999999995,-74.20195600000001
"08005","Barnegat","NJ","barnegat technologies","not_available","08758",39.78073970444384,-74.20369664105199
"08005","Barnegat","NJ","minuteKEY","525 Route 72 W","08050",39.70075225830078,-74.27513885498047
"08007","Barrington","NJ","The Home Depot","310 White Horse Pike N Ste 1","08045",39.8691742,-75.0449777
"08007","Barrington","NJ","Billows","White Horse Pike","not_available",39.87480066122099,-75.04366295399821
"08007","Barrington","NJ","Mr Roberts Lumber Yard","not_available","08007",39.874497,-75.050218
"08008","Beach Haven","NJ","The Home Depot","197 Route 72 West","08050",39.6953763,-74.2686015
"08008","Beach Haven","NJ","Lowe's","297 Route 72 West, Suite 30","08050",39.6976317,-74.2712969
"08008","Beach Haven","NJ","Anchor Appliance","not_available","08092",39.655644,-74.291151
"08008","Beach Haven","NJ","minuteKEY","297 Route 72 W Ste 30","08050",39.69792938232422,-74.26961517333984
"08008","Beach Haven","NJ","Cooper Electric","317 E Bay Ave","08050",39.690313618506636,-74.24875974655151
"08008","Beach Haven","NJ","New Wave Pools","Rt 9","08087",39.617671966552734,-74.32073211669922
"08008","Beach Haven","NJ","Boat Shop","not_available","08050",39.68392,-74.233385
"08008","Beach Haven","NJ","Tuckerton Lumber Co","138 Railroad Ave","08087",39.6080675584617,-74.33906641212805
"08008","Beach Haven","NJ","Ferguson Plumbing Supply","1301 Long Beach Blvd","08008",39.57187271118164,-74.23380279541016
"08008","Beach Haven","NJ","Taylor Rental Center","176 E Bay Ave","08050",39.693082000000004,-74.25328499999999
"08008","Beach Haven","NJ","Tuckerton Lumber Company","200 N Long Beach Blvd","08008",39.65614926242513,-74.17022967776009
"08008","Beach Haven","NJ","Coastal Roofing","356 Main St","08092",39.6469894770229,-74.29744720458984
"08008","Beach Haven","NJ","Trish Hardware","not_available","08087",39.60460611,-74.33581427
"08008","Beach Haven","NJ","Sherwin-Williams Paint Store","601 Route 72 E","08050",39.681556,-74.242631
"08009","Berlin","NJ","The Home Depot","116 Walker Avenue","08091",39.806533263445544,-74.93735522031784
"08009","Berlin","NJ","Winslow Rental","200 williamstown rd","not_available",39.750995,-74.93333100000001
"08009","Berlin","NJ","Cedar Brook Hardware","105 N Route 73","08009",39.724971771240234,-74.90601348876953
"08009","Berlin","NJ","The Tool Shed","Wildcat Branch Dr, Sicklerville, NJ 08081","08081",39.74966052171502,-74.97520112635318
"08009","Berlin","NJ","Sunshine Home Repair","Lamont Ct.","08081",39.715922556027834,-74.95573949276096
"08009","Berlin","NJ","MAB Paints","225 S White Horse Pike","08009",39.7904052734375,-74.9272689819336
"08009","Berlin","NJ","JR Flood Locksmith Berlin Farmers Market","41 Clementon Rd","08009",39.799999,-74.940363
"08010","Beverly","NJ","Express Hardware","Route 130","08016",40.04885276831166,-74.90092676869351
"08010","Beverly","NJ","Edgewater Building Supply","704 Woodlane Rd","08010",40.065225,-74.899571
"08010","Beverly","NJ","APS Supply Co.","2-98 Blyler Ln","08010",40.060223,-74.91585
"08010","Beverly","NJ","aspen appliance","703 Van Rossum Ave","08010",40.059549,-74.917594
"08012","Blackwood","NJ","Lowe's","100 Watson Drive","08012",39.7354698,-75.0420761
"08012","Blackwood","NJ","Tractor Supply Co.","643 Cross Keys Rd","08081",39.73096,-75.01207
"08012","Blackwood","NJ","Harbor Freight Tools","5200 Route 42","08012",39.7527076927132,-75.04453579382918
"08012","Blackwood","NJ","Ace Hardware","344 Greentree Rd","08012",39.74640433094426,-75.08216938179449
"08012","Blackwood","NJ","minuteKEY","2000 Clements Bridge Rd","08096",39.84255,-75.090963
"08012","Blackwood","NJ","Blue Rhino","344 Greentree Rd","08080",39.74614334106445,-75.08210754394531
"08012","Blackwood","NJ","Ace Hardware","Chews Landing Road","08021",39.81977921995384,-75.03876849323275
"08012","Blackwood","NJ","Sherwin-Williams Paint Store","5501 Route 42","08012",39.75630626638202,-75.04767881006913
"08012","Blackwood","NJ","minuteKEY","100 Watson Dr","08012",39.73543930053711,-75.04158020019531
"08012","Blackwood","NJ","Call me ms fix-it","not_available","08012",39.771514035235455,-75.05166604472242
"08012","Blackwood","NJ","Kendall Mansfield, LLC Windows and Doors","not_available","08021",39.822514,-75.044987
"08012","Blackwood","NJ","Ferguson Plumbing Supply","65 NJ 168","08012",39.774791,-75.05113100000001
"08012","Blackwood","NJ","minuteKEY","3501 Route 42","08012",39.7286112,-75.0349032
"08012","Blackwood","NJ","Sherwin-Williams Paint Store","1245 Hurffville Rd","08096",39.82764434814453,-75.08873748779297
"08012","Blackwood","NJ","Sherwin-Williams Paint Store","415 Egg Harbor Rd","08080",39.748133,-75.07592199999999
"08012","Blackwood","NJ","Amechi Fence Co.","5950 Route 42","08012",39.764091,-75.04783
"08012","Blackwood","NJ","Ferguson Plumbing Supply","650 Rte 168 Blackhorse Pike","08012",39.791153,-75.059942
"08012","Blackwood","NJ","Cooks Machine And Tool","not_available","08081",39.73486576,-75.010576
"08012","Blackwood","NJ","Fastenal","316 Black Horse Pike","08029",39.837288,-75.067115
"08012","Blackwood","NJ","Conroy's Corner","800 S White Horse Pike","08083",39.837787,-75.009616
"08012","Blackwood","NJ","MAB Paints","415 Egg Harbor Rd Ste 2A","08080",39.74992,-75.07541
"08014","Bridgeport","NJ","Joes True Value Home Center","535 Engle St","19013",39.83779,-75.38695
"08014","Bridgeport","NJ","Power Home Remodeling Group","2501 Seaport Dr","19013",39.82884,-75.38358199999999
"08015","Browns Mills","NJ","Country Spas & Pools LLC","603 Evergreen Blvd","08015",39.981911,-74.579189
"08015","Browns Mills","NJ","O'brien & Sons Hardware","not_available","08015",39.97104133472042,-74.58701733514961
"08016","Burlington","NJ","The Home Depot","2703 Route 541","08060",40.034367,-74.82054
"08016","Burlington","NJ","Ferguson Plumbing Supply","23 W Route 130 S","08016",40.07218551635742,-74.85662841796875
"08016","Burlington","NJ","Stanley And Stephens","not_available","19056",40.0813493969063,-74.89220821821107
"08016","Burlington","NJ","minuteKEY","100 Commerce Cir","19007",40.100276947021484,-74.87249755859375
"08016","Burlington","NJ","US Supply","240 US Highway 13","19007",40.1013436583246,-74.86359418924019
"08016","Burlington","NJ","Sherwin-Williams Paint Store","2005 Mount Holly Rd","08016",40.05135930029948,-74.84037546329245
"08016","Burlington","NJ","Ace Hardware","529 Bath St","19007",40.098182678222656,-74.85980987548828
"08016","Burlington","NJ","Capitol Plywood","160 Commerce Circle","not_available",40.1010856628418,-74.87350463867188
"08016","Burlington","NJ","Construction Building Materials","4258 Bristol Road","19007",40.100949,-74.844621
"08016","Burlington","NJ","Roslyn","2524 Ford Rd","19007",40.11879772647568,-74.89406387519111
"08016","Burlington","NJ","Benjamin Moore - Burlington Design Center","The Shoppes At Mallard Creek, Suite 12","not_available",40.097059573764085,-74.77380273676961
"08016","Burlington","NJ","Towne Center","Rt 541","08016",40.03546339527522,-74.82277448932899
"08016","Burlington","NJ","Tom Antonelli Inc","not_available","19007",40.114223227098186,-74.83980153255895
"08020","Clarksboro","NJ","Excel Hydraulics","152 Berkley Road","08020",39.81846089673122,-75.23243813624572
"08021","Clementon","NJ","Pine Hill Hardware","900 Erial Rd","08021",39.785056,-74.991919
"08021","Clementon","NJ","JB Water Well Services, LLC","40 West Rd","08026",39.832039,-74.980643
"08021","Clementon","NJ","Ed's Rental and Tools Inc.","1387 Jarvis Rd","08081",39.774898529052734,-74.99348449707031
"08022","Columbus","NJ","Clarksville Sod Farms","24622 E Main St","08022",40.072486,-74.718455
"08022","Columbus","NJ","Central Jersey Equipment, LLC","2885 Route 206 Bldg 4","08022",40.04924392700195,-74.72740173339844
"08022","Columbus","NJ","Reed's Lawn Equipment","13 Petticoat Bridge Rd","08022",40.049225,-74.746648
"08022","Columbus","NJ","Stevenson Supply Company","2686 Route 206","08060",40.019474,-74.73168000000001
"08027","Gibbstown","NJ","Weiss True Value Hardware","39 W Broad St","08066",39.82992954,-75.24177879
"08027","Gibbstown","NJ","Borrie's Outdoor Power Equipment","659 Swedesboro Rd","08027",39.80581249999999,-75.2837864
"08028","Glassboro","NJ","R. E. Ledden Supply Company","601 Aura Rd","08028",39.691475,-75.147705
"08028","Glassboro","NJ","Abbott's Locksmith","132 Delsea Dr S","08028",39.692762,-75.101967
"08028","Glassboro","NJ","Peach Country Tractor, Inc.","749 Mullica Hill Rd","08062",39.71583620389312,-75.14152765274048
"08028","Glassboro","NJ","Collegetown Appliance","not_available","08028",39.72709,-75.116106
"08028","Glassboro","NJ","Joseph Fazzio,inc.","2766 Glassboro Cross Keys Rd","08028",39.70957093650091,-75.07372052825774
"08028","Glassboro","NJ","Sherwin-Williams Paint Store","34 E Holly Ave","08071",39.733727,-75.130587
"08030","Gloucester City","NJ","Tile Buyers Outlet","302 Crescent Blvd","08030",39.875536,-75.121184
"08030","Gloucester City","NJ","Weinstein Supply","340 8th St","08030",39.89003372192383,-75.12214660644531
"08030","Gloucester City","NJ","EHI Mobile Solutions","405 U.S. 130","08059",39.89544,-75.10141
"08030","Gloucester City","NJ","Carrs True Value Hardware","22 N Broadway","08030",39.897259000000005,-75.119984
"08030","Gloucester City","NJ","industrial services supply","not_available","08030",39.88697814941406,-75.12033081054688
"08031","Bellmawr","NJ","Universal Supply Group Inc.","not_available","08093",39.858465,-75.122502
"08031","Bellmawr","NJ","Bellmawr Plumbing Supply","18 N Black Horse Pike","08031",39.867705,-75.080505
"08033","Haddonfield","NJ","Billows Electric Supply","506 White Horse Pike","08035",39.8778190612793,-75.05168151855469
"08035","Haddon Heights","NJ","Audubon Hardware & Supply Co.","106 Chestnut St","08106",39.889269,-75.066514
"08035","Haddon Heights","NJ","Sherwin-Williams Paint Store","1420 Kings Hwy","08035",39.881492257118225,-75.07778227329254
"08036","Hainesport","NJ","Lowe's","1520 Route 38, Building 10","08048",39.9799892,-74.80648099
"08036","Hainesport","NJ","Fencemax","Route 38","08060",39.97563249823346,-74.82594470202257
"08036","Hainesport","NJ","Hainesport Supply","Route 38","not_available",39.97498784194082,-74.81996980021306
"08036","Hainesport","NJ","SemiFab Consulting Co.","not_available","18940",39.960231013013335,-74.80721712112427
"08036","Hainesport","NJ","City Electric Supply Mt. Holly Nj","701 Park Ave E # 702A # 702A","08036",39.98018284576439,-74.84201033818925
"08036","Hainesport","NJ","Sherwin-Williams Commercial Paint Store","1451 Route 38","08036",39.98021,-74.82150899999999
"08036","Hainesport","NJ","minuteKEY","1520 Route 38 Bldg 10","08048",39.97991943359375,-74.80630493164062
"08036","Hainesport","NJ","U.S. Supply","1103 Park Ave E","08036",39.981327056884766,-74.84408569335938
"08036","Hainesport","NJ","fastenal","not_available","08048",39.978693,-74.804243
"08037","Hammonton","NJ","Rodio Tractor Sales","717 White Horse Pike","08037",39.669024,-74.822519
"08037","Hammonton","NJ","JCPenney","127 Bellevue Ave","08037",39.636131286621094,-74.80413818359375
"08037","Hammonton","NJ","DCS Heating and Cooling LLC","431 N 2nd St","08037",39.63973617553711,-74.8084487915039
"08037","Hammonton","NJ","Tri Cell Supply Co.","Black Horse Pike","08094",39.60699519349681,-74.89260789994977
"08037","Hammonton","NJ","Sears","240 White Horse Pike","08037",39.641111455380795,-74.7820633649826
"08037","Hammonton","NJ","Ace of Hammonton","103 N Egg Harbor Rd","08037",39.63673782348633,-74.80579376220703
"08037","Hammonton","NJ","Tractor Supply","70 Rte 206","08037",39.652959502246425,-74.78501856327057
"08037","Hammonton","NJ","Butterhof's","5715","08215",39.5403119520974,-74.6643557172124
"08037","Hammonton","NJ","Colonial Electric Supply","469 S White Horse Pike","08037",39.63447002376619,-74.77321155487985
"08043","Voorhees","NJ","Lowe's","144 Route 73 North","08043",39.8336763,-74.9243986
"08043","Voorhees","NJ","Voorhees True Value Hardware Inc.","508 Haddonfield Berlin Rd","08043",39.855220794677734,-74.9856185913086
"08043","Voorhees","NJ","Delaware Valley Plumbing Supply","Centennial Blvd.","08043",39.85558955348853,-74.95036306046988
"08043","Voorhees","NJ","ProSource Of South Jersey","411 Bloomfield Dr","08091",39.813106536865234,-74.92762756347656
"08043","Voorhees","NJ","Beretta Tile & Stone","not_available","08043",39.855373,-74.950502
"08043","Voorhees","NJ","Sherwin-Williams Paint Store","700 Haddonfield Berlin Rd","08043",39.851913,-74.982552
"08043","Voorhees","NJ","Cooper Electric","402 Bloomfield Dr","08091",39.81491470336914,-74.92977905273438
"08043","Voorhees","NJ","Sears","332 S Burnt Mill Road","08043",39.851966715371404,-75.00799387693411
"08043","Voorhees","NJ","Sherwin-Williams Paint Store","408 N Route 73","08091",39.81280442468526,-74.9308871783994
"08045","Lawnside","NJ","Lowe's","122 West Oak Avenue","08045",39.8639907,-75.0388526
"08045","Lawnside","NJ","minuteKEY","122 W Oak Ave","08045",39.863853454589844,-75.0385513305664
"08048","Lumberton","NJ","Harbor Freight","Rte 38","08060",39.979368,-74.772817
"08048","Lumberton","NJ","Griffith Electrical Supply (Lum.)","1491 Route 38 W","not_available",39.982557,-74.79490899999999
"08048","Lumberton","NJ","minuteKEY","1740 Route 38","08048",39.978023529052734,-74.76876068115234
"08048","Lumberton","NJ","Sherwin-Williams Paint Store","1623 Route 38","08048",39.982733,-74.78893199999999
"08048","Lumberton","NJ","MAB Paints","1630 Route 38","08048",39.981885,-74.787571
"08049","Magnolia","NJ","minuteKEY","1 Coopertowne Blvd","08083",39.85472,-75.02426
"08051","Mantua","NJ","The Home Depot","320 Bridgeton Pike","08051",39.7861903,-75.1805559
"08051","Mantua","NJ","Sherwin-Williams Paint Store","1056 Mantua Pike","08090",39.80634,-75.166863
"08051","Mantua","NJ","Halfway to Heaven","not_available","08051",39.78654034580326,-75.18088040027327
"08052","Maple Shade","NJ","Lowe's","2834 Route 73 North","08052",39.9409748,-74.9721885
"08052","Maple Shade","NJ","Garden State Diesel","not_available","08057",39.97059967297121,-74.98257990081818
"08052","Maple Shade","NJ","Morton's Paints","101-105 W Main St","08052",39.95511748,-74.99964017
"08052","Maple Shade","NJ","Van Air & Hydraulics","612 E Woodlawn Ave","08052",39.963965,-74.999641
"08052","Maple Shade","NJ","Total Plastics Inc.","1313 E Kings Hwy","08052",39.94145202636719,-74.98059844970703
"08052","Maple Shade","NJ","minuteKEY","2834 Route 73 N","08052",39.94148635864258,-74.97295379638672
"08054","Mount Laurel","NJ","The Home Depot","1200 Nixon Dr","08054",39.9383398,-74.9616596
"08054","Mount Laurel","NJ","Grainger","819 E Gate Dr","08054",39.940061630936285,-74.94783452399227
"08054","Mount Laurel","NJ","Sears","400 W Route 38","08057",39.94327,-74.96335
"08054","Mount Laurel","NJ","Moorestown True Value Hardware","300 Mill St","08057",39.96573833254908,-74.94966769248414
"08054","Mount Laurel","NJ","Cunningham Brothers","10 Hartford Rd","08054",39.978411,-74.898092
"08054","Mount Laurel","NJ","Billows Electric Supply","9126 State Road","19114",39.92358000952233,-74.94897603572761
"08054","Mount Laurel","NJ","Taylor Rental","Rt 38","not_available",39.96667928351564,-74.91819121204406
"08054","Mount Laurel","NJ","Equipment Depot","823 E. Gate Drive # 5","08054",39.94386199106924,-74.94613258184472
"08054","Mount Laurel","NJ","J&J Hardware","100 Ark Rd","08054",39.97809427326918,-74.8707519231573
"08054","Mount Laurel","NJ","Kienzle Mechanical","824 E Gate Dr","08054",39.9461669921875,-74.9474868774414
"08054","Mount Laurel","NJ","Sears","400 NJ-38","08057",39.94440865321442,-74.96428499246315
"08054","Mount Laurel","NJ","Burlington Design Center","3019 Marne Hwy","08054",39.97882,-74.87026
"08054","Mount Laurel","NJ","Sears Appliance Repair","400 Nj-38","08057",39.9443947,-74.9591866
"08055","Medford","NJ","Spotts Hardware","646 Stokes Rd","08055",39.8493149,-74.795305
"08055","Medford","NJ","E&E Online Sales","101 Taunton Rd","08055",39.87015914916992,-74.84393310546875
"08055","Medford","NJ","Campeau Associates","15 Twin Oaks Dr","08088",39.8314,-74.7559
"08055","Medford","NJ","Sherwin-Williams Paint Store","712 Stokes Rd","08055",39.866620000000005,-74.809362
"08055","Medford","NJ","Medford True Value Hardware","200 Tuckerton Rd","08055",39.870244257157225,-74.84406885056482
"08055","Medford","NJ","Red Lion Metals","Old Red Lion Rd","08088",39.8896484375,-74.76187133789062
"08055","Medford","NJ","Allenco Fence","167B Route 70","08055",39.90164487616163,-74.83727129100284
"08055","Medford","NJ","Peter lumber","not_available","08055",39.89786766234065,-74.84310849422651
"08057","Moorestown","NJ","Sherwin-Williams Paint Store","1204 Route 130 N","08077",39.99784851074219,-74.9889144897461
"08059","Mount Ephraim","NJ","Sherwin-Williams Paint Store","508 Black Horse Pike","08059",39.89351373397542,-75.09147763252258
"08060","Mount Holly","NJ","Byer Lock Shop","96 Washington St","08060",39.992027,-74.792525
"08060","Mount Holly","NJ","FMP","Mt Holly Bypass, Lumberton, NJ 08048","08048",39.99065345716174,-74.7995529787047
"08060","Mount Holly","NJ","Hammernought Armory","20 White St","08060",39.9920654296875,-74.78832244873047
"08060","Mount Holly","NJ","Builders Firstsource","301 Rancocas Rd","08060",40.003886,-74.802543
"08060","Mount Holly","NJ","diamond m lumber","not_available","08060",39.99279694836988,-74.7765458715793
"08062","Mullica Hill","NJ","Warren's Do it Best","110 Bridgeton Pike","08062",39.72702754777411,-75.22301935236302
"08062","Mullica Hill","NJ","Sherwin-Williams Paint Store","157 Bridgeton Pike","08062",39.72174836286095,-75.21621313982524
"08063","National Park","NJ","M.P.G Remodeling Contractors","803A Hessian Ave","08063",39.864812480886926,-75.17552196979523
"08065","Palmyra","NJ","Schwerings Hardware","309 E Broad St","08065",40.00613309242941,-75.01846851566029
"08065","Palmyra","NJ","JM Refinishing LLC","525 Cinnaminson St","08077",40.01066970825195,-75.01146697998047
"08067","Pedricktown","NJ","Penns Grove Plumbing","E. Griffith Ave.","not_available",39.730576,-75.464402
"08067","Pedricktown","NJ","Vallen","403 Heron Dr","08085",39.76018142700195,-75.36591339111328
"08067","Pedricktown","NJ","Pennsgrove Plumbing and Heating Supply","35 E Griffith St","08069",39.73069,-75.464775
"08067","Pedricktown","NJ","Wolseley Industrial Group","3 Hawk Ct","08085",39.777903,-75.36326
"08068","Pemberton","NJ","Dazell Hardware","W Hampton St, Pemberton Township, NJ 08068","08068",39.9676341453299,-74.68689007187514
"08070","Pennsville","NJ","Pennsville Community Hardware","104 N Broadway","08070",39.66004180908203,-75.51360321044922
"08070","Pennsville","NJ","Shimp's True Value Hardware Store","S. Broadway","08070",39.61317679767565,-75.50167322158813
"08072","Quinton","NJ","I S Smick Lumber","Rte 49 & Cottage Ave","08072",39.54767586308254,-75.41443950449951
"08075","Riverside","NJ","Lowe's","1331 Fairview Boulevard","08075",40.0190411,-74.9417996
"08075","Riverside","NJ","The Home Depot","9000 Rt 130 South","08075",40.0253985,-74.9385115
"08075","Riverside","NJ","What Will Break Next At The Condo?","not_available","19114",40.048759,-74.984909
"08075","Riverside","NJ","E.K.L. Machine Shop","448 Mill Rd","19020",40.061284,-74.978862
"08075","Riverside","NJ","ABC Supply Co. Inc.","5004 Route 130","08075",40.015027221583274,-74.95336532592773
"08075","Riverside","NJ","A&C Supply","Pulaski Ave","08075",40.036541,-74.967742
"08075","Riverside","NJ","Dial Machine Company","not_available","19020",40.062381,-74.978972
"08075","Riverside","NJ","minuteKEY","1331 Fairview Blvd","08075",40.019248962402344,-74.94212341308594
"08077","Riverton","NJ","Grove Supply, Inc.","1800-1898 Rowland St","08077",40.01536503747932,-75.00087415584709
"08077","Riverton","NJ","Cooper Electric","20 Twinbridge Dr","08110",39.98318862915039,-75.02472686767578
"08077","Riverton","NJ","Surface Styles","Twinbridge Dr","not_available",39.98335136,-75.02431984
"08077","Riverton","NJ","Discount Door Distributors - BUY FACTORY DIRECT - LOWEST PRICES.","7600 State Rd","19136",40.0294382408963,-75.02514123916626
"08079","Salem","NJ","Sherwin-Williams Paint Store","318 E Broadway","08079",39.5677945950221,-75.46227693557739
"08079","Salem","NJ","Saul's Lawnmower Center","1081 Kings Hwy","08098",39.655711,-75.36568
"08080","Sewell","NJ","Lowe's","611 Woodbury Glassboro Rd","08080",39.7600729,-75.129363
"08080","Sewell","NJ","The Home Depot","2735 Route 42","08081",39.7190337,-75.0266036
"08080","Sewell","NJ","minuteKEY","611 WOODBURY GLASSBORO ROAD","not_available",39.76002502441406,-75.12934875488281
"08080","Sewell","NJ","Roto-Rooter Plumbing & Drain Services","211 Holly Dell Dr","08080",39.747539,-75.11223100000001
"08080","Sewell","NJ","Millercrete","255 Tylers Mill Rd","08080",39.751145,-75.125956
"08080","Sewell","NJ","84 Lumber","1655-1767 New Jersey 41","08080",39.79572172507933,-75.09775443866073
"08081","Sicklerville","NJ","Lowe's","485 Cross Keys Road","08081",39.7484684,-74.99297
"08081","Sicklerville","NJ","minuteKEY","485 Cross Keys Rd","08081",39.748573303222656,-74.992919921875
"08081","Sicklerville","NJ","Deck Teck","not_available","08094",39.69259221487043,-74.99585151672363
"08081","Sicklerville","NJ","Ormsby's Lawn Equipment","231 N Black Horse Pike","08094",39.691438,-74.99556899999999
"08081","Sicklerville","NJ","FAstenal","1401 N Black Horse Pike","08094",39.706828,-75.012258
"08081","Sicklerville","NJ","Soltz Paint and Decorating Center","542 Cross Keys Rd","08081",39.74172140474145,-74.99673730206607
"08085","Swedesboro","NJ","Swedesboro True Value","721 Auburn Ave","08085",39.74427014243205,-75.31627307291615
"08085","Swedesboro","NJ","Alexson Supply Inc.","3 Pastuszek Blvd","19061",39.823133475167246,-75.41787930950524
"08085","Swedesboro","NJ","Cabinets To Go","203 Naamans Rd","19703",39.813221999999996,-75.444016
"08085","Swedesboro","NJ","Woodstown Ice & Coal Co.","not_available","08085",39.71763248183522,-75.34562746934674
"08085","Swedesboro","NJ","Kamco Building Supply & True Value Hardware","1100 Township Line Rd","19013",39.837751000000004,-75.406385
"08085","Swedesboro","NJ","marcus hook hardware","not_available","19061",39.81975555419922,-75.41609191894531
"08085","Swedesboro","NJ","Weinstine Plumbing","not_available","19014",39.83757781982422,-75.41716003417969
"08085","Swedesboro","NJ","Delaware County Supply Company","1000 Randall Ave","19061",39.83433318,-75.43818547
"08085","Swedesboro","NJ","Door & Gate USA","130 Hickman Rd","19703",39.8175163269043,-75.44715881347656
"08085","Swedesboro","NJ","84 Lumber","312 W Ridge Rd","19703",39.8134232342023,-75.44231057167053
"08085","Swedesboro","NJ","Ferro Fuel Oil","2400 Chichester Avenue","19061",39.81,-75.41
"08086","Thorofare","NJ","Sherwin-Williams Paint Store","875 Mantua Pike","08096",39.819751000000004,-75.16378399999999
"08088","Vincentown","NJ","Tractor Supply Co.","1869 Rte 38","08088",39.975198,-74.750097
"08088","Vincentown","NJ","Ahern Rentals","not_available","08088",39.88615639300617,-74.73066920823295
"08088","Vincentown","NJ","Artistic Inc","1950 Route 206","08088",39.914033,-74.737374
"08088","Vincentown","NJ","Tabernacle Hardware","1576 Route 206","08088",39.860331,-74.732741
"08093","Westville","NJ","Woodbury Hardware","617 N Broad St","08096",39.844947814941406,-75.14820861816406
"08094","Williamstown","NJ","Saber and Son Supply Co.","130 Jefferson Ave","08094",39.683469,-74.98530600000001
"08096","Woodbury","NJ","The Home Depot","1370 Hurffville Rd","08096",39.8189673,-75.0939266
"08096","Woodbury","NJ","Lowe's","1480 Clements Bridge Road","08096",39.8327393,-75.1051141
"08096","Woodbury","NJ","C&C Supply","not_available","08096",39.82957,-75.159021
"08096","Woodbury","NJ","Sears","1561 Almonesson Rd","08096",39.82469177246094,-75.09815216064453
"08096","Woodbury","NJ","minuteKEY","1480 Clements Bridge Rd","08096",39.833007,-75.106047
"08098","Woodstown","NJ","Tractor Supply Co.","862 Rte 45","08098",39.644316,-75.339372
"08098","Woodstown","NJ","Woodstown Ice & Coal Co.","50 E Grant St","08098",39.65388587,-75.32557731
"08098","Woodstown","NJ","Coleman Country Warehouse","89 Aldine Shirley Rd","08318",39.5680046081543,-75.26270294189453
"08102","Camden","NJ","Capitol Building Supply Inc","201 Erie St","08102",39.955698999999996,-75.121729
"08102","Camden","NJ","Capital Interior","201 Erie St, Camden, NJ 08102","08102",39.95573043823242,-75.1218490600586
"08105","Camden","NJ","Carpenter & Paterson","not_available","08110",39.9628746233779,-75.07993319718409
"08105","Camden","NJ","J. Lorber co: Plumbing And Heating Supply","6415 S Crescent Blvd","08110",39.940131,-75.074118
"08105","Camden","NJ","Cartun Hardware","not_available","08105",39.947565999999995,-75.07295400000001
"08107","Oaklyn","NJ","Collingswood Hardware","not_available","08108",39.915796,-75.06857600000001
"08109","Merchantville","NJ","Arnolds's Safe And Lock Co","Haddonfield Rd","08109",39.959984999999996,-75.02563
"08109","Merchantville","NJ","Wharton Hardware","7724 N Crescent Blvd","08110",39.971278000000005,-75.040624
"08109","Merchantville","NJ","Taylor Made Custom Cabinetry & Design","7035 Central Highway","08109",39.92935,-75.07610709
"08109","Merchantville","NJ","Morton's Paint Center","3555 Haddonfield Rd, Pennsauken Township, NJ 08109","not_available",39.960604,-75.025429
"08109","Merchantville","NJ","The Shed","not_available","08109",39.960373,-75.043047
"08109","Merchantville","NJ","Superior Welding","6834 Camden Ave","08110",39.965346000000004,-75.05118
"08109","Merchantville","NJ","Wharton's Hardware & Supply","Rt 130 North","not_available",39.97238119615683,-75.040371474125
"08109","Merchantville","NJ","Fastenal","5043 South Crescent Blvd. US 130 South","08110",39.95472086666667,-75.06030285
"08109","Merchantville","NJ","Discount Fence","6959 S Crescent Blvd","08110",39.936369,-75.078223
"08110","Pennsauken","NJ","The Home Depot","2539 Castor Avenue","19134",39.9924803,-75.0914716
"08110","Pennsauken","NJ","Ferguson HVAC Supply","1165 Thomas Busch Memorial Hwy","08110",39.984192,-75.030773
"08110","Pennsauken","NJ","The Ducky Depot","not_available","19134",39.992371,-75.090599
"08110","Pennsauken","NJ","Steven Kempf Building Material Company","2035 Richmond Street","19125",39.971379,-75.120243
"08110","Pennsauken","NJ","Sherwin-Williams Commercial Paint Store","2301 E Venango St","19134",39.994578000000004,-75.097233
"08110","Pennsauken","NJ","Sherwin-Williams Paint Store","2431 Castor Ave","19134",39.993746,-75.093172
"08201","Absecon","NJ","The Home Depot","421 Absecon Blvd","08201",39.4159345,-74.4935955
"08201","Absecon","NJ","Fastenal","1115 N New Rd","08201",39.41278839111328,-74.51717376708984
"08201","Absecon","NJ","abc supply co","not_available","08232",39.41029061497335,-74.52767813801799
"08201","Absecon","NJ","Allied Building Products","516 W Leeds Ave","08232",39.412139892578125,-74.5180435180664
"08201","Absecon","NJ","Turtle & Hughes Inc. (Electrical & Industrial Sales)","1001 North New Road / Rt. 9","08232",39.40925979614258,-74.52010345458984
"08201","Absecon","NJ","P-ville Shed","not_available","08234",39.419178,-74.528329
"08201","Absecon","NJ","Sherwin-Williams Paint Store","674 White Horse Pike","08201",39.435548,-74.51435699999999
"08201","Absecon","NJ","Absecon DoIt Best Hardware","1-99 S New Rd","08201",39.42775492190507,-74.50590512941515
"08202","Avalon","NJ","Avalon Hardware","Dune Drive","not_available",39.101089,-74.717771
"08203","Brigantine","NJ","Brigantine Ace Hardware","3116 Atlantic Brigantine Blvd","08203",39.3947,-74.386099
"08203","Brigantine","NJ","Grainger Industrial Supply","11 N New Jersey Ave","08401",39.366588,-74.419034
"08203","Brigantine","NJ","Home Depot","not_available","08203",39.388940170389375,-74.39024889901215
"08204","Cape May","NJ","Lowe's","3171 Route 9 South","08242",39.019058,-74.874614
"08204","Cape May","NJ","Anco Home Center","2410 Bayshore Rd","08251",39.011913,-74.939908
"08204","Cape May","NJ","Swain's Hardware Inc","305 Jackson St","08204",38.9328629,-74.923749
"08204","Cape May","NJ","Cape May Lumber","not_available","08204",38.93457917683439,-74.9268798352754
"08204","Cape May","NJ","minuteKEY","3171 Route 9 S","08242",39.018966999999996,-74.874829
"08204","Cape May","NJ","minuteKEY","3159 Route 9 S","08242",39.021175384521484,-74.87216186523438
"08205","Absecon","NJ","Harbor Freight Tools","6701 Black Horse Pike Ste A10","08234",39.40600766922416,-74.56524064205546
"08205","Absecon","NJ","Galloway Ace Hardware","322 S Pitney Rd","08205",39.46391606335809,-74.49329577190132
"08205","Absecon","NJ","Cooper Electric","2727 Fire Rd","08234",39.40633546611113,-74.54498559236526
"08210","Cape May Court House","NJ","The Home Depot","21 Indian Trail Rd","08210",39.0462205,-74.8539967
"08210","Cape May Court House","NJ","Seashore Ace","260 96th St","08247",39.054195,-74.7599
"08210","Cape May Court House","NJ","Gardner True Value Hardware","2489 N Route 9","08230",39.176821999999994,-74.734563
"08210","Cape May Court House","NJ","Audubon Plumbing Supply Co","12 Clermont Dr","08210",39.1486,-74.761747
"08210","Cape May Court House","NJ","Discount Hydraulics Corp","210 Route 47 S","08210",39.076300712762176,-74.89360139033862
"08210","Cape May Court House","NJ","A Shore Thing Weed Control","4 Carriage Ln","08210",39.082226,-74.8386884
"08210","Cape May Court House","NJ","Rental Country Inc.","706 S Route 9","08210",39.069753000000006,-74.82991899999999
"08210","Cape May Court House","NJ","Sherwin-Williams Paint Store","110 N Main St","08210",39.085374,-74.82050100000001
"08210","Cape May Court House","NJ","Anco Ace Hardware","Bayshore rd","08210",39.071531,-74.82536
"08210","Cape May Court House","NJ","Tru value Hardware Oceanview","not_available","08230",39.17661532126682,-74.73420852765884
"08215","Egg Harbor City","NJ","Lynkris Hometown Hardware","not_available","08215",39.530346,-74.645711
"08215","Egg Harbor City","NJ","Four Seasons Heating & Air","745 Philadelphia Ave, Egg Harbor City, NJ 08215","08215",39.538204193115234,-74.63723754882812
"08215","Egg Harbor City","NJ","Kims Mechanical","2453 Lahn Ln","08330",39.46367,-74.6265
"08221","Linwood","NJ","Tim Taylor","not_available","08221",39.35496436780503,-74.57655492823356
"08221","Linwood","NJ","ForeverPure Water Conditioning Co.","2110 Cornwall Ave","08225",39.360885,-74.551165
"08221","Linwood","NJ","A & C Windows and Roofing","208 West Wilmont Avenue","08244",39.328346,-74.59251300000001
"08223","Marmora","NJ","Wallace True Value Hardware","750 Asbury Ave & 751 West Ave","08226",39.26018,-74.60014
"08223","Marmora","NJ","Ulmer's Appliance","3130 Asbury Ave","08226",39.254243,-74.607993
"08223","Marmora","NJ","Gardner True Value Hardware","2489 Route 9","08230",39.23571,-74.68123
"08225","Northfield","NJ","Tractor Supply Co.","6501 Black Horse Pike","08234",39.421013,-74.58809
"08225","Northfield","NJ","Northfield Ace","Tilton Shop Ctr-Unit 1-B 331 Tilton Rd","08225",39.3877999,-74.557599
"08225","Northfield","NJ","Bob's Garden Center","6610 Black Horse Pike","08234",39.41757071953056,-74.58055178947785
"08225","Northfield","NJ","Weinstein Supply - Egg Harbor Showroom","3187 Fire Rd","08234",39.38515090942383,-74.57190704345703
"08225","Northfield","NJ","MAB Paints","410 Tilton Rd","08225",39.38455581665039,-74.55670928955078
"08225","Northfield","NJ","Frank Vincent Windows & Siding LLC","201 Tilton Road","08225",39.3898847,-74.5572719
"08225","Northfield","NJ","Miller's Equipment","320 Tilton Rd","not_available",39.38559341430664,-74.55753326416016
"08226","Ocean City","NJ","Wallace Hardware","not_available","08226",39.2803,-74.574835
"08226","Ocean City","NJ","Sherwin-Williams Paint Store","14 W 9th St","08226",39.28144073486328,-74.58002471923828
"08226","Ocean City","NJ","Sherwin-Williams Paint Store","1230 West Ave","08226",39.275862,-74.582277
"08230","Ocean View","NJ","Advantage Rental & Sales","100 Route 50","08230",39.222923585090896,-74.70525070675487
"08234","Egg Harbor Township","NJ","The Home Depot","6 Tower Avenue","08234",39.43536437154238,-74.6165120601654
"08234","Egg Harbor Township","NJ","Lowe's","6048 Black Horse Pike","08234",39.4360806,-74.6095953
"08234","Egg Harbor Township","NJ","Egg Harbor Township Ace","2254 Ocean Heights Ave","08234",39.3639,-74.6191
"08234","Egg Harbor Township","NJ","Shore True Value Hardware","515 New Rd","08244",39.32381279281462,-74.60117848672847
"08234","Egg Harbor Township","NJ","Sears","4409 E Black Horse Pike","08330",39.44995880126953,-74.63957214355469
"08234","Egg Harbor Township","NJ","Sherwin-Williams Paint Store","600 New Rd","08244",39.3203125,-74.60273742675781
"08234","Egg Harbor Township","NJ","Stone Crafters","6084 Reega Ave","08234",39.421939849853516,-74.62059020996094
"08243","Sea Isle City","NJ","The Best Little Floor Store","not_available","08243",39.15425798187387,-74.69310522079468
"08244","Somers Point","NJ","Soltz Paint and Decorating Center","Unknown","08401",39.320547011689136,-74.60295283854894
"08260","Wildwood","NJ","The Hardware Store","105 W Aster Rd","08260",38.979176,-74.832003
"08260","Wildwood","NJ","Ace Hardware","not_available","08260",38.98961443093556,-74.82184340634467
"08260","Wildwood","NJ","Home Depot","not_available","08210",38.99795149092464,-74.83126823816377
"08260","Wildwood","NJ","Sherwin-Williams Paint Store","4901 Park Blvd","08260",38.985495,-74.826851
"08260","Wildwood","NJ","Seashore Supply","Park Blvd & Wildwood Avenues","08260",38.99362,-74.817292
"08270","Woodbine","NJ","Cody's Power Equipment","not_available","08270",39.284632,-74.751641
"08302","Bridgeton","NJ","Tractor Supply Co.","48 Cornwell Dr","08302",39.462319,-75.211412
"08302","Bridgeton","NJ","Schaper Bros. Farm And Garden Supply","Stillman Ave","08318",39.485469460487366,-75.11769890785217
"08302","Bridgeton","NJ","WF Woodruff & Son","26 W Commerce St","08302",39.42928150927948,-75.23655432814348
"08302","Bridgeton","NJ","Bridgeton Plumbing","not_available","08302",39.45001983642578,-75.21736907958984
"08302","Bridgeton","NJ","R & G Landscape Supply","496 Landis Ave","08302",39.47564,-75.15958
"08302","Bridgeton","NJ","H & R Hardware & Garden Ctr","8 - 16 Centerton Road","08302",39.463138580322266,-75.20609283447266
"08302","Bridgeton","NJ","Smith & Richards True Value Hardware","110 S Laurel St","08302",39.42618638,-75.2351735
"08302","Bridgeton","NJ","Fastenal","32 Cornwell Dr","08302",39.46117401123047,-75.21134185791016
"08318","Elmer","NJ","Schalick Mills Inc.","100 Front St","08318",39.594295501708984,-75.1713638305664
"08318","Elmer","NJ","Bostwick True Value Hardware","Elmer & Center St","08318",39.58946,-75.17182
"08318","Elmer","NJ","Pittsgrove Power Equipment","255 Almond Rd","08318",39.498584,-75.0978559
"08330","Mays Landing","NJ","Main Street Hardware","6016 Main St","08330",39.45252912899237,-74.72849166588401
"08330","Mays Landing","NJ","The Shop","7003","08234",39.382978091628345,-74.6086322936211
"08332","Millville","NJ","The Home Depot","3849 S Delsea Dr","08360",39.4289515,-75.0354789
"08332","Millville","NJ","Lowe's","113 Bluebird Lane","08332",39.425345,-75.043379
"08332","Millville","NJ","Tractor Supply Co.","3095 South Delsea Dr","08360",39.441924,-75.040663
"08332","Millville","NJ","BC Electrical Contractors LLC","1459 Cherokee Ln","08361",39.454925537109375,-75.00120544433594
"08332","Millville","NJ","Vineland Ace Hardware","2330 Dante Ave","08361",39.457878,-74.984797
"08332","Millville","NJ","minuteKEY","113 Bluebird Ln","08332",39.426139,-75.042986
"08332","Millville","NJ","Howell's Hardware","not_available","08332",39.39565295312738,-75.0389738582285
"08332","Millville","NJ","Work","113 Bluebird Ln, Millville, NJ 08332","08332",39.4261474609375,-75.0429916381836
"08332","Millville","NJ","Husqvarna US","1007 High St N","08332",39.407230377197266,-75.03865051269531
"08332","Millville","NJ","Reuben Hardware","2323 S Main Rd","08360",39.45170593261719,-75.0119857788086
"08344","Newfield","NJ","Urie Restaurant Equipment","3905 N Delsea Dr, Vineland, NJ 08360","08360",39.544105529785156,-75.04802703857422
"08350","Richland","NJ","Richland General Store","1275 Harding Hwy","08350",39.492023290865845,-74.8715262157692
"08360","Vineland","NJ","Ace Plumbing, Heating & Electrical Supplies","667 S Delsea Dr","08360",39.47732,-75.04314
"08360","Vineland","NJ","Vineland Ace Hardware East","535 N East Ave","08360",39.494421,-75.015866
"08360","Vineland","NJ","Sherwin-Williams Paint Store","76 W Landis Ave","08360",39.48720090399502,-75.0360631942749
"08360","Vineland","NJ","Larry's Den Of Goodies","908 n. main rd.","08360",39.490609,-74.995866
"08360","Vineland","NJ","MAB Paints","433 S Delsea Dr","08360",39.48051071166992,-75.04302215576172
"08360","Vineland","NJ","Harbor Freight Tools","20 W Park Ave","08360",39.49290335682819,-75.04036451012126
"08360","Vineland","NJ","Fastenal","Delsea Drive","08360",39.49308395385742,-75.04238891601562
"08360","Vineland","NJ","minuteKEY","1070 W Landis Ave","08360",39.489004,-75.046933
"08360","Vineland","NJ","Swanson Hardware Supply","533 N East Ave","08360",39.49463653564453,-75.014404296875
"08401","Atlantic City","NJ","Woodshop","not_available","08401",39.367997429796056,-74.4449975730824
"08401","Atlantic City","NJ","Sherwin-Williams Paint Store","2616 Atlantic Ave","08401",39.35559601176692,-74.44358468055725
"08401","Atlantic City","NJ","Dorset Hardware","Dorset Ave.","not_available",39.340183599999996,-74.4741348
"08401","Atlantic City","NJ","Smith Bros Ace Hardware","2706 Arctic Ave","08401",39.356808,-74.445621
"08402","Margate City","NJ","Colmar True Value Home Center","7 S Essex Ave","08402",39.33022517,-74.49702273
"08501","Allentown","NJ","Tractor Supply Co.","701 Rte 524","08501",40.180797,-74.512618
"08501","Allentown","NJ","Allentown Village Hardware","15 S Main St","08501",40.17716979980469,-74.58434295654297
"08501","Allentown","NJ","Riephoff Sawmill","763 Route 524","08501",40.181973,-74.530345
"08502","Belle Mead","NJ","Cammps Hardware & Lawn Products","2168 US Highway 206","08502",40.44997625245873,-74.66236772520355
"08502","Belle Mead","NJ","Opdyke Lumber","28 Reading Blvd","08502",40.46497,-74.666708
"08505","Bordentown","NJ","Powerline Electric LLC","9300 Lacey Ave","19067",40.163690410401074,-74.8000717163086
"08512","Cranbury","NJ","Paints and Paper","not_available","08520",40.27102994308812,-74.54007170528682
"08512","Cranbury","NJ","World And Main (Cranbury) LLC","324A Half Acre Rd","08512",40.31357192993164,-74.48470306396484
"08512","Cranbury","NJ","Dans Heating & AC","not_available","08512",40.330740300263194,-74.49248384941926
"08512","Cranbury","NJ","Anxier","7 Santa Fe Way","08512",40.31322479248047,-74.5025863647461
"08512","Cranbury","NJ","All Tech Supply","1095 Cranberry-South River Rd","08831",40.356163024902344,-74.4764633178711
"08512","Cranbury","NJ","Chamberlin & Barclay","2 Hightstown-Cranbury Station Road","08512",40.3022096,-74.49239200000001
"08512","Cranbury","NJ","Direct Cabinet Sales","180 Herrod Blvd","08810",40.3533699,-74.48645119999999
"08515","Chesterfield","NJ","D'Angelo  Electric","not_available","08515",40.154265,-74.660296
"08518","Florence","NJ","Florence Hardware Store","322 W Front St","08518",40.122809000000004,-74.80889499999999
"08520","Hightstown","NJ","The Home Depot","739 Route 33 West","08520",40.2573494,-74.5450396
"08520","Hightstown","NJ","Sherwin-Williams Paints","540 US Highway 130","08520",40.26631422169095,-74.545681019517
"08525","Hopewell","NJ","Jc Vandoren Lumber","model ave","08525",40.39011568346445,-74.76535177040994
"08525","Hopewell","NJ","The World of Paint LLC","75 Princeton Ave #B","08525",40.38605969061783,-74.75607946515083
"08527","Jackson","NJ","Clayton Block","530 N County Line Rd, Jackson, NJ 08527","08527",40.14680480957031,-74.31295776367188
"08527","Jackson","NJ","cheetahtechsupport","101 Hudson Street, 21st Floor, Jersey City, New Jersey","07302",40.12489792574858,-74.34276580810547
"08527","Jackson","NJ","Appliance Repair Jackson NJ","2398 W County Line Rd unit 17","08527",40.128983251803774,-74.27509903907776
"08527","Jackson","NJ","County Line Hardware","707 Bennetts Mills Rd","08527",40.122935999999996,-74.28691500000001
"08530","Lambertville","NJ","Finkle's","7 Coryell St","08530",40.36720293104413,-74.94617364803764
"08530","Lambertville","NJ","Niece Lumber","2 Elm street","08530",40.37357349765318,-74.94808354320145
"08530","Lambertville","NJ","Montgomery True Value","1325 US Highway 206","08558",40.34095,-74.93887
"08530","Lambertville","NJ","Benjamin Moore Contractors Supply","1 Route 165","08530",40.36528778076172,-74.94207763671875
"08530","Lambertville","NJ","Spectra Energy","1325 Route 179","08530",40.401668548583984,-74.90924835205078
"08533","New Egypt","NJ","Brite Lumber & Home Center","45 Evergreen Rd","08533",40.0738339,-74.5312
"08534","Pennington","NJ","Bish Sales And Servive","not_available","08534",40.34671401977539,-74.79618835449219
"08534","Pennington","NJ","Stony Brook Gardens","Route 31 & Yard Road","08534",40.339761,-74.797071
"08535","Millstone Township","NJ","Tractor Supply Co.","3 Gateway Blvd","08831",40.26845668755127,-74.47318458557135
"08535","Millstone Township","NJ","Harter Equipment","615 State Route 33","08535",40.26165008544922,-74.42508697509766
"08535","Millstone Township","NJ","Burroughs Hardwoods Inc.","943 State Highway 33 West","08831",40.26742712302051,-74.46811079978943
"08540","Princeton","NJ","Lowe's","3504 US Highway 1","08540",40.3089025,-74.6615929
"08540","Princeton","NJ","The Home Depot","701 Nassau Park Blvd","08540",40.3004575,-74.6779162
"08540","Princeton","NJ","Flooring","Nassau Park Blvd","08540",40.30087690693886,-74.67768009376009
"08540","Princeton","NJ","Smith's Ace Hardware","301 N Harrison St #12","08540",40.3643,-74.653099
"08540","Princeton","NJ","Benjamin Moore","not_available","08824",40.42105121001917,-74.57757888777115
"08540","Princeton","NJ","Ferguson Bath, Kitchen & Lighting Gallery","3345 Brunswick Pike","08648",40.305153,-74.66978
"08540","Princeton","NJ","Indoor Garden","Nassau Park Blvd","08648",40.29839909525491,-74.68378011650107
"08540","Princeton","NJ","Sherwin-Williams Paint Store","301 N Harrison St","08540",40.363598985389416,-74.65059757232666
"08540","Princeton","NJ","Montgomery True Value","1325 Rt. 206","08558",40.4053586,-74.64772479999999
"08540","Princeton","NJ","minuteKEY","3504 BRUNSWICK PIKE","not_available",40.308855,-74.6614864
"08540","Princeton","NJ","Ace Hardware","Princeton Shopping Ctr","08540",40.30218590560323,-74.68244807774728
"08551","Ringoes","NJ","Tractor Supply Co.","144 Hwy 202/31 North","08551",40.472473,-74.86075
"08551","Ringoes","NJ","China supply","not_available","08551",40.47269821166992,-74.86121368408203
"08551","Ringoes","NJ","Marvic Supply","171 New Jersey 31","08822",40.47725500132645,-74.86373124693662
"08559","Stockton","NJ","Tinsman Bros,. Inc.","not_available","18933",40.40671248333334,-75.03921033333333
"08559","Stockton","NJ","Sergeantsville Grain & Feed","735 Route 523","08557",40.44726005372182,-74.94298282019936
"08560","Titusville","NJ","Penngear","1080 Highland Rd","18940",40.292081,-74.91597
"08560","Titusville","NJ","Mid-State Equipment Company, Inc.","1462 River Rd","08560",40.309497347231826,-74.88217795092623
"08562","Wrightstown","NJ","Atlantic Plumbing Supply","not_available","08562",40.040279,-74.617565
"08609","Trenton","NJ","Central Aluminum","not_available","08638",40.23080563381661,-74.74882326970666
"08609","Trenton","NJ","Blake Hardware","701-799 Pennsylvania Ave","08638",40.237265,-74.747302
"08609","Trenton","NJ","Beebe Plumbing Supply","not_available","08609",40.231267,-74.729368
"08609","Trenton","NJ","Lincoln Supply","92 Lincoln Ave","08609",40.224922,-74.749826
"08610","Trenton","NJ","Swerwin-Williams","1710 Kuser Rd","08690",40.20669748736628,-74.69276727087855
"08610","Trenton","NJ","Keep It Clean Hardware Store","not_available","08610",40.20265197753906,-74.74029541015625
"08610","Trenton","NJ","Ace Hardware","47 Yardville Groveville Rd","08620",40.178768157958984,-74.67395782470703
"08610","Trenton","NJ","Yardville Supply Co.","25 Church St","08620",40.17881903940762,-74.67279965969772
"08611","Trenton","NJ","universal supply","not_available","08611",40.20404907822997,-74.75492318167989
"08611","Trenton","NJ","Oldcastle Precast","1381 S Pennsylvania Ave","19067",40.193694,-74.77042
"08611","Trenton","NJ","Lowe's","168-234 Commerce Blvd","19030",40.19118542102871,-74.75487746589059
"08618","Trenton","NJ","The Home Depot","1621 N Olden Avenue","08638",40.2435923,-74.7609083
"08618","Trenton","NJ","West Trenton True Value Hardware","16 W Upper Ferry Rd","08628",40.267894,-74.816126
"08618","Trenton","NJ","Ewing Glass","1354 Parkside Ave, Ewing Township, NJ 08638","08638",40.24814028785139,-74.77203715431577
"08618","Trenton","NJ","Standard","9 Chelten Way","08638",40.232061,-74.768238
"08618","Trenton","NJ","Aaron & Company","58 Dover Ave","08638",40.2389877,-74.7666689
"08618","Trenton","NJ","R E Michel Company Inc.","20 Arctic Pkwy","08638",40.24574661254883,-74.75965118408203
"08618","Trenton","NJ","Grainger","1557-1599 N Olden Ave","08638",40.24287598442986,-74.75706609532455
"08618","Trenton","NJ","Sherwin-Williams Commercial Paint Store","1460 Prospect St","08638",40.2444519394619,-74.76619005203247
"08618","Trenton","NJ","Auxiliary Service","not_available","08628",40.2597579,-74.79701213333334
"08618","Trenton","NJ","MAB Paints","1877 N Olden Avenue Ext","08638",40.24977111816406,-74.77886199951172
"08618","Trenton","NJ","Village Hardware","525 Ewingville Rd","08638",40.276716,-74.78000300000001
"08619","Trenton","NJ","Smith's Ace Hardware","318 Highway 33","08619",40.23339,-74.68729
"08619","Trenton","NJ","Sherwin Williams","1060 New Jersey 33","08690",40.226341215646016,-74.67060790957441
"08619","Trenton","NJ","Creston Hydraulics Inc.","109 Flock Rd","08619",40.24856,-74.68212199999999
"08619","Trenton","NJ","Hamilton Supply","1851-1899 E State St","08609",40.235735202951275,-74.70051260510812
"08619","Trenton","NJ","Benjamin Moore","not_available","08619",40.233546,-74.703684
"08619","Trenton","NJ","Sherwin-Williams Paint Store","541 Highway 33","08619",40.231398223711054,-74.68215651419493
"08619","Trenton","NJ","Willard Brothers Lumber","300 Basin Rd","08619",40.265079498291016,-74.70372772216797
"08619","Trenton","NJ","City Electric Supply Lawrenceville Nj","2495 US Highway 1 Ste 36 Unit 36","08648",40.2577522,-74.7302382
"08620","Trenton","NJ","Building Materials","Nassau Park Blvd","08691",40.194915771484375,-74.62432098388672
"08620","Trenton","NJ","Nestorbars, LLC","848 Yardsville","08620",40.174564361572266,-74.6490478515625
"08628","Trenton","NJ","Crowley Plumbing & Heating Inc.","57 S Main St","19067",40.241078,-74.837365
"08638","Trenton","NJ","Harbor Freight Tools","1550 N Olden Avenue Ext","08638",40.242421510523776,-74.75272482683806
"08648","Lawrence Township","NJ","Sherwin-Williams Paint Store","2958 US Highway 1","08648",40.274499878109054,-74.70499277114868
"08690","Trenton","NJ","The Home Depot","750 Highway Rt 130","08691",40.1956819,-74.6455302
"08690","Trenton","NJ","Lowe's","1000 Marketplace Boulevard","08691",40.1986556,-74.6345937
"08690","Trenton","NJ","GO DROPS ROAD INC","100 Horizon Center Blvd 2nd Floor","08691",40.20000076293945,-74.64131927490234
"08690","Trenton","NJ","Thd","not_available","08691",40.20646226736098,-74.62792845542243
"08690","Trenton","NJ","Lumber Liquidators, Inc.","8 Commerce Way","08691",40.202459182706605,-74.657811412819
"08690","Trenton","NJ","minuteKEY","1000 Marketplace Blvd","08691",40.1986198425293,-74.63451385498047
"08701","Lakewood","NJ","The Home Depot","1900 Shorrock St","08701",40.0544452,-74.1622174
"08701","Lakewood","NJ","Lowe's","520 Route 70","08723",40.0570943,-74.1581781
"08701","Lakewood","NJ","Unbeatablesale.com","195 Lehigh Ave","08701",40.07322692871094,-74.17131805419922
"08701","Lakewood","NJ","All County Exteriors","560 Cross St","08701",40.06627,-74.23964699999999
"08701","Lakewood","NJ","APPLIANCE REPAIR LAKEWOOD NJ","399 Cedarbridge Ave Unit 12","08701",40.08478927612305,-74.20601654052734
"08701","Lakewood","NJ","Central Jersey Screw & Nut","not_available","08701",40.077512,-74.17771
"08701","Lakewood","NJ","Tool Box","not_available","08723",40.02558558575776,-74.15460913712622
"08701","Lakewood","NJ","Lennox Parts Plus","1970 Rutgers Blvd","08701",40.072506,-74.16166700000001
"08701","Lakewood","NJ","Modular Closets","1985 Rutgers University Blvd","08701",40.070873,-74.16123
"08701","Lakewood","NJ","Van Sant Equipment","185 Oberlin Ave N","08701",40.07473808,-74.1772859
"08701","Lakewood","NJ","Ferguson Waterworks","190 N Oberlin Ave","08701",40.07577,-74.17714
"08701","Lakewood","NJ","General Plumbing Supply - Lakewood","585 Prospect St","08701",40.07380455,-74.22871802
"08701","Lakewood","NJ","rainbow appliance","2 Park Ave S","08701",40.09081268310547,-74.20781707763672
"08701","Lakewood","NJ","minuteKEY","520 ROUTE 70","not_available",40.05727005004883,-74.15863037109375
"08701","Lakewood","NJ","pro build/lakewood Lumber","301 Prospect St","08701",40.074489,-74.225685
"08701","Lakewood","NJ","ProStock (P&N)","125 Kenyon Dr","08701",40.078575134277344,-74.17958068847656
"08701","Lakewood","NJ","Fastenal","1195 Airport Rd","08701",40.056895000000004,-74.178205
"08701","Lakewood","NJ","Warshauer Electric Supply","700 Vassar Ave","08701",40.071984,-74.17779499999999
"08721","Bayville","NJ","Ace Outdoor Power Equipment","395 Atlantic City Blvd","08721",39.916869,-74.154733
"08721","Bayville","NJ","Steve's 7C Lumberyard","not_available","08721",39.899602,-74.159736
"08721","Bayville","NJ","Mountain Millwork","1000-1020 Atlantic City Blvd","08721",39.91159176110425,-74.1669768348505
"08721","Bayville","NJ","Richards sales and rentals","12 Moorage Ave","not_available",39.910344,-74.153025
"08723","Brick","NJ","The Home Depot","1722 Route 88","08724",40.0724739,-74.1303147
"08723","Brick","NJ","Harbor Freight Tools","2770 HOOPER AVE, STE 1","08723",40.05572033825247,-74.13498587713353
"08723","Brick","NJ","Sherwin-Williams Paint Store","990 Cedar Bridge Ave","08723",40.05465,-74.13855
"08723","Brick","NJ","APPLIANCE REPAIR BRICK NJ","37 Chambers Bridge Rd Unit 12","08723",40.05923655014907,-74.13839221000671
"08723","Brick","NJ","Ed's Hardware","599 Mantoloking Rd","08723",40.0459025652861,-74.10984463343958
"08723","Brick","NJ","Beaver Dam Hardware LLC","1307 Beaver Dam Rd","08742",40.0716159,-74.072282
"08723","Brick","NJ","minuteKEY","1872 Route 88","not_available",40.07271957397461,-74.12422180175781
"08723","Brick","NJ","CDE Fasteners","1889 Route 88","08724",40.071372309429556,-74.11988689851125
"08723","Brick","NJ","Cooper Electric","933 Cedarbridge Ave.","08723",40.05282140646417,-74.13571484669905
"08723","Brick","NJ","Screws Unlimited","not_available","08742",40.071515703456605,-74.06411715984603
"08723","Brick","NJ","Blue Rhino","181 Drum Point Rd","08723",40.043983459472656,-74.12731170654297
"08724","Brick","NJ","A's Home Center Inc","2435 Highway 35","08736",40.124915,-74.068772
"08724","Brick","NJ","Benjamin Moore Ricciardi Brothers","Rt. 88 East","08742",40.079510742365976,-74.08773943534449
"08724","Brick","NJ","Coastal Imports, Inc.","not_available","08730",40.1077,-74.0635
"08724","Brick","NJ","washer repair","640 Hillside Ave, Brick, NJ 08724","08724",40.09953689575195,-74.1102294921875
"08724","Brick","NJ","Home Repair Hardware","361 Herbertsville Rd","08724",40.09809771009264,-74.09989933653577
"08724","Brick","NJ","Aaron & Company","1 Union Ave","08730",40.1166271,-74.0538409
"08724","Brick","NJ","House of paints","RT 88","08742",40.07978820800781,-74.0844497680664
"08730","Brielle","NJ","Brian's Point Hardware","528 Arnold Ave","08742",40.09139966221123,-74.04950520827522
"08731","Forked River","NJ","The Home Depot","244 N Main Street","08731",39.847752,-74.1875862
"08731","Forked River","NJ","Ace Hardware","514 US Highway 9","08734",39.85678317849372,-74.17963610091937
"08731","Forked River","NJ","Fleck's Paint Spot","901 Lacey Rd","08731",39.8604326488343,-74.20992767816553
"08731","Forked River","NJ","Square Deal Marine Supplies","not_available","08731",39.82919736222997,-74.19954058854445
"08731","Forked River","NJ","Sherwin-Williams Paint Store","706 US Highway 9","08734",39.862928358189976,-74.17333464972013
"08735","Lavallette","NJ","Lavallette Hardware","1601 Route 35 North","08735",39.96649623902931,-74.06938786110089
"08735","Lavallette","NJ","Copper Electric Supply","903 Grand Central Ave","08735",39.973793390686225,-74.06840243007485
"08736","Manasquan","NJ","Jaspan True Value Hardware","91 Main St","08736",40.123832,-74.05196600000001
"08738","Mantoloking","NJ","Statewide Marine Service","not_available","08738",40.00526512644916,-74.06150120421755
"08742","Point Pleasant Beach","NJ","Sherwin-Williams","904 Richmond Ave","08742",40.087726,-74.048808
"08742","Point Pleasant Beach","NJ","Jim Claire's Workshop","500 Boardwalk, Point Pleasant Beach, NJ 08742","08742",40.09237843482685,-74.03752566652737
"08742","Point Pleasant Beach","NJ","Open Sez Me","330 Route 211 W","10940",40.093503276313804,-74.03815269470215
"08751","Seaside Heights","NJ","Home Depot","201 Sumner Ave","08751",39.9412956237793,-74.07588958740234
"08753","Toms River","NJ","The Home Depot","1334 Lakewood Road","08755",39.9906356,-74.2123811
"08753","Toms River","NJ","Lowe's","1375 Hooper Avenue","08753",39.9898706,-74.1741838
"08753","Toms River","NJ","Ken's Hardware","1001 Fischer Blvd","08753",39.98133891862133,-74.14026529759252
"08753","Toms River","NJ","Good Friend Electric","265 Route 37 E","08753",39.96075459079546,-74.1788776616173
"08753","Toms River","NJ","House Of Paints","New Jersey 37","08753",39.96364212036133,-74.18274688720703
"08753","Toms River","NJ","Ferguson","55 Hwy 37 E","08753",39.963438801374835,-74.19360157050303
"08753","Toms River","NJ","Blossom Lawns","Clifton rd","not_available",39.964433163905255,-74.17820280348033
"08753","Toms River","NJ","Blue Rhino","826 Fischer Blvd","08753",39.969565,-74.134098
"08753","Toms River","NJ","Appliance Repair Toms River NJ","45 E Water St unit 15","08753",39.9521961326279,-74.19749200344086
"08753","Toms River","NJ","Allied Building Products","320 W Water St","08753",39.953474055094745,-74.20371383829742
"08753","Toms River","NJ","Sherwin-Williams Paint Store","1727 Route 37 E","08753",39.95128526,-74.14883003
"08753","Toms River","NJ","Abbot Appliance Parts","811 Main St","08753",39.961578369140625,-74.19998931884766
"08753","Toms River","NJ","minuteKEY","1375 Hooper Ave","08753",39.99009323120117,-74.17406463623047
"08753","Toms River","NJ","Sherwin-Williams Paint Store","452 Route 37 E","08753",39.955339,-74.163962
"08753","Toms River","NJ","Regg-Ular Home Improvements","860 Peppertree Dr","08753",39.974366,-74.144784
"08753","Toms River","NJ","Flecks Paint","Rt 37","08753",39.95266023971941,-74.15454606377409
"08755","Toms River","NJ","Building Specialties","not_available","08755",39.983849783165695,-74.25649613072953
"08755","Toms River","NJ","Standard Bldg Supply","1221 Route 37 W","08755",39.979278,-74.251913
"08755","Toms River","NJ","Ideal Tile","214 Little League World Champions Blvd","08753",39.96736145019531,-74.22576141357422
"08755","Toms River","NJ","Benjamin moore","Rt 37 West","08755",39.99564743041992,-74.22256469726562
"08755","Toms River","NJ","Nicholas Pools","1820 Lakewood Road (Route 9)","08755",40.017115000000004,-74.220331
"08755","Toms River","NJ","Central Jersey Equipment","1000 Industrial Way","08755",39.987121,-74.261188
"08757","Toms River","NJ","Lowe's","1053 Highway 70","08759",40.0146805,-74.2960851
"08757","Toms River","NJ","minuteKEY","1053 Route 70","08759",40.01491928100586,-74.2955093383789
"08757","Toms River","NJ","Blue Rhino","1 Commonwealth Blvd(.Rt. 37)","08739",39.996978759765625,-74.27940368652344
"08759","Manchester Township","NJ","bob hardware","not_available","08759",39.946855909134236,-74.33387377527465
"08759","Manchester Township","NJ","Bobs True Value Hardware","550 Route 530","08759",39.94589957,-74.35259872
"08801","Annandale","NJ","HCESTC","9 Petticoat Ln","08801",40.645530700683594,-74.8608627319336
"08801","Annandale","NJ","Fox Lumber","not_available","08809",40.63373565673828,-74.9118881225586
"08801","Annandale","NJ","Ferguson Plumbing Supply","1820 Route 31 N","08809",40.659181,-74.9104184
"08804","Bloomsbury","NJ","Lowe's","1325 US Route 22","08865",40.6775754,-75.1381715
"08804","Bloomsbury","NJ","The Home Depot","1209 US Highway 22","08865",40.6806418,-75.1419242
"08804","Bloomsbury","NJ","Cooper Electric","1201 New Brunswick Ave","08865",40.67499923706055,-75.13683319091797
"08804","Bloomsbury","NJ","Moninghoff Appliance & Supplies","14 Water St","08848",40.619755204953655,-75.11606973874811
"08804","Bloomsbury","NJ","Ferguson HVAC Supply","996 New Brunswick Ave","08865",40.6731350956765,-75.1395205504408
"08805","Bound Brook","NJ","The Home Depot","400 Promenade Blvd","08807",40.5644466,-74.5540301
"08805","Bound Brook","NJ","The Lawn Mower Shop Inc","237 W Union Ave","08805",40.567682,-74.54045699999999
"08805","Bound Brook","NJ","Bamco Inc","30 Baekeland Ave","08846",40.55976034,-74.51992417
"08805","Bound Brook","NJ","Riccardi Brothers","not_available","08812",40.584226139801935,-74.513315145887
"08805","Bound Brook","NJ","Stone Center","831 E. Main Street","not_available",40.56124496459961,-74.55984497070312
"08805","Bound Brook","NJ","Bound Brook Paint","4 W Main St","08805",40.561248779296875,-74.53388977050781
"08805","Bound Brook","NJ","Gene Coyle & Sons Ornamental Iron Works, LLC","110 W Main St","08805",40.560062408447266,-74.53785705566406
"08807","Bridgewater","NJ","The Home Depot","736 Route 202 South","08807",40.5760983,-74.6704865
"08807","Bridgewater","NJ","Post Ace Hardware","890 US Highway 22","08876",40.5809029,-74.614301
"08807","Bridgewater","NJ","Ferguson Plumbing Supply","830 Rte 22","08807",40.5812291306794,-74.62028966351026
"08807","Bridgewater","NJ","Aaron & Company","75 S Bridge St","08876",40.56483,-74.61161
"08807","Bridgewater","NJ","Somerset Lawn & Garden","201 Rt.28 East","08869",40.57443480600586,-74.62677326317667
"08807","Bridgewater","NJ","Somerville Lumber Company","1480 US Highway 22","08807",40.5745909,-74.5632244
"08807","Bridgewater","NJ","Sherwin-Williams Paint Store","936 US Highway 22","08876",40.58026123046875,-74.61113739013672
"08807","Bridgewater","NJ","Lyons Hardware. Where We Screw, Nut, And Bolt!","Preston Dr.","08876",40.58626224830733,-74.66517064651188
"08807","Bridgewater","NJ","minuteKEY","100 N Main St","08835",40.54701614379883,-74.5841064453125
"08807","Bridgewater","NJ","Overhead Hoists & Cranes Inc.","236 Dukes Pkwy E","08844",40.55095672607422,-74.60315704345703
"08810","Dayton","NJ","United Supply Co","not_available","08810",40.36928176879883,-74.49671936035156
"08812","Dunellen","NJ","Jaeger Lumber & Supply Co.","500 Bound Brook Rd","08846",40.583162,-74.484422
"08816","East Brunswick","NJ","The Home Depot","401 South Main Street","08850",40.4402318,-74.4274376
"08816","East Brunswick","NJ","Lowe's","339 State Highway Route 18","08816",40.4509438,-74.4009892
"08816","East Brunswick","NJ","Harbor Freight Tools","275 State Route 18 Ste 1","08816",40.45894542549886,-74.40397486759282
"08816","East Brunswick","NJ","United Rerfigeration","not_available","08816",40.450981,-74.416326
"08816","East Brunswick","NJ","Appliance Repair New Brunswick","11 Elizabeth St","08901",40.47855341718077,-74.45947408676146
"08816","East Brunswick","NJ","AA&Y Granite & Marble","377 Old Bridge Tpke","08816",40.45009994506836,-74.3955078125
"08816","East Brunswick","NJ","Sherwin-Williams Paint Store","510 Milltown Rd","08902",40.465118408203125,-74.44914245605469
"08816","East Brunswick","NJ","Fastenal Company","987C Jersey Ave","08901",40.46775464884346,-74.47197061665113
"08816","East Brunswick","NJ","Brook Furniture Rental, New Jersey","17 Edgeboro Rd","08816",40.4640427,-74.39695739999999
"08816","East Brunswick","NJ","Milano Doors","594 Jersey Ave","08901",40.476227,-74.470901
"08816","East Brunswick","NJ","C & C Home Remodeling","300 Franklin Road","08902",40.4526626,-74.4563866
"08816","East Brunswick","NJ","Albany County Fasteners","201 Hartle St, Suite E","08872",40.4508857,-74.3598251
"08816","East Brunswick","NJ","Arzee Supply Corp","15 Edgeboro Rd","08816",40.464226000000004,-74.398866
"08816","East Brunswick","NJ","Sherwin-Williams Paint Store","1088 State Route 18","08816",40.421145752711546,-74.37594917690643
"08816","East Brunswick","NJ","Lumber Liquidators, Inc.","2 Claire Rd","08816",40.4419368,-74.3964167
"08816","East Brunswick","NJ","Ace Hardware","not_available","08902",40.458118,-74.474659
"08816","East Brunswick","NJ","Chip Chop Shop","32 Old Matawan Rd","08857",40.41147445,-74.36369093333333
"08816","East Brunswick","NJ","Sears","51 US-1","08901",40.48036697,-74.42345419
"08816","East Brunswick","NJ","Wood Acres Plumbing Heating and Cooling","27 Wood Acres Dr","08902",40.443032,-74.47723
"08816","East Brunswick","NJ","Costello's Ace","1345 US Highway 1","08902",40.45853805541992,-74.47312927246094
"08816","East Brunswick","NJ","Frank's Building Supply","619 Somerset St","08873",40.486484000000004,-74.470926
"08816","East Brunswick","NJ","Trygars Hardware Locksmith","not_available","08882",40.45152914443614,-74.37935097659489
"08816","East Brunswick","NJ","Sears","45 US Hwy","08901",40.48134462146921,-74.42113002105492
"08817","Edison","NJ","The Home Depot","1035 Route 1 South","08837",40.5237057,-74.3652484
"08817","Edison","NJ","General Plumbing Supply","980 New Durham Rd","08817",40.543419741448815,-74.40449863569071
"08817","Edison","NJ","Edison Millwork & True Value Hardware","9 Old Post Rd","08817",40.502013,-74.39223100000001
"08817","Edison","NJ","Sherwin-Williams Paint Store","67 Pearl St","08840",40.542021000000005,-74.363715
"08817","Edison","NJ","Lawn mower place","not_available","08840",40.53573989868164,-74.37377166748047
"08817","Edison","NJ","Ember Fireplaces","197 Vineyard Rd","08817",40.5289905,-74.3766695
"08817","Edison","NJ","All County Appliance","1601 Lincoln Hwy Route 27","08817",40.508010430441615,-74.41261532916101
"08817","Edison","NJ","HD Supply White Cap","203 Mill Rd","08837",40.49648959,-74.36796304
"08817","Edison","NJ","SOS Plumbing Heating and Cooling","1555 State Route 27","08817",40.507224619145774,-74.41199898719788
"08817","Edison","NJ","ProBuild Edison","not_available","08817",40.518375396728516,-74.42325592041016
"08817","Edison","NJ","Liberty Marble Inc","712 US Highway 1","08817",40.509833725297185,-74.38731689066243
"08817","Edison","NJ","Brothers Locksmith","2161 Woodbridge Ave","08817",40.50123977661133,-74.39501953125
"08817","Edison","NJ","minuteKEY","2220 State Route 27","08817",40.53151321411133,-74.37753295898438
"08817","Edison","NJ","Sherwin-Williams Commercial Paint Store","226 Talmadge Rd","08817",40.53947119185395,-74.39838409423828
"08817","Edison","NJ","General Floor","777 New Durham Rd, Edison, NJ 08817","08817",40.54037857055664,-74.38658905029297
"08817","Edison","NJ","Stelton Lumber","1354 Stelton Rd","08854",40.539518,-74.42313299999999
"08817","Edison","NJ","A&T Builders Hardware","1610 State Route 27","08817",40.508239,-74.412034
"08817","Edison","NJ","Ace Hardware","655 Middlesex Ave","08840",40.54058815442816,-74.36676679924052
"08817","Edison","NJ","Sherwin-Williams Paint Store","1623 Stelton Rd","08854",40.535919189453125,-74.42060089111328
"08817","Edison","NJ","GB Designs","Benner Street","not_available",40.49838594116359,-74.42403795889382
"08820","Edison","NJ","Perfect Gutter Cleaning","27 Parker Rd","08820",40.58137,-74.347196
"08822","Flemington","NJ","The Home Depot","244 Highway 202","08822",40.4934754,-74.8574647
"08822","Flemington","NJ","Lowe's","150 Route 31","08822",40.5275264,-74.8526924
"08822","Flemington","NJ","Billows Electric sipply","47 E Main St","08822",40.51633071899414,-74.8565444946289
"08822","Flemington","NJ","Sherwin-Williams Paint Store","15 Reaville Ave","08822",40.500887451162875,-74.85808323330167
"08822","Flemington","NJ","minuteKEY","150 State Route 31","08822",40.52655029296875,-74.85224914550781
"08822","Flemington","NJ","Harbor Freight Tools","not_available","08822",40.496742,-74.858515
"08822","Flemington","NJ","Fusco's Rental World","799 US Highway 202","08822",40.53288269042969,-74.7809066772461
"08822","Flemington","NJ","Samuel Stothoff Company, Inc.","59 State Route 31","08822",40.5107489,-74.851595
"08822","Flemington","NJ","Aaron & Company","311 South Main Street at Rt. 202 - 31","08822",40.4916506,-74.8632066
"08822","Flemington","NJ","Leon's Sod Farm","514 Pittstown Rd","08867",40.55352020263672,-74.97332763671875
"08822","Flemington","NJ","Aaron Kitchen & Bath Design Gallery","311 S Main St, Suite B","08822",40.4916506,-74.8632066
"08822","Flemington","NJ","Richard E Yard Plumbing & Heating Inc","477 Barbertown Point Breeze Rd","08825",40.5052942,-74.9657799
"08825","Frenchtown","NJ","Frenchtown Home And Hardware","not_available","08825",40.526785,-75.058763
"08825","Frenchtown","NJ","E&J HVAC Mechanical and Solar Services","348 County Road 513","08825",40.563987731933594,-75.0365219116211
"08826","Glen Gardner","NJ","Tatariw's Plumbing Supply","200 Main St","08826",40.704310783333334,-74.94684393333333
"08831","Monroe Township","NJ","Better Living","77 E Railroad Ave","08831",40.3524728,-74.43969919999999
"08831","Monroe Township","NJ","911 restoration","not_available","08857",40.4062188,-74.3530283
"08831","Monroe Township","NJ","Jamesburg Hardware","231 Gatzmer Ave","08831",40.351225836385005,-74.4446781010166
"08831","Monroe Township","NJ","Strong Granite & Cabinets","5 Engelhard Dr","08831",40.32497,-74.4631
"08832","Keasbey","NJ","Siperstein","372 New Brunswick Ave","08863",40.526909,-74.306387
"08833","Lebanon","NJ","Huston Lumber","7 Felmley Rd","08889",40.65360995523866,-74.7513173105536
"08833","Lebanon","NJ","Cutshaw Construction","28 Cokesbury Rd","08833",40.646867,-74.835868
"08833","Lebanon","NJ","Power Place","297 Us Highway 22","08889",40.6355515,-74.7890167
"08837","Edison","NJ","F&S AWNING AND BLIND CO., INC.","13 Coral St","08837",40.5313843,-74.3305857
"08837","Edison","NJ","Stillwell-hansen","3 Fernwood Ave","08837",40.49814987182617,-74.3514404296875
"08837","Edison","NJ","See-more Appliances","middlesex ave","not_available",40.54309024688536,-74.35606396440404
"08837","Edison","NJ","A&E Custom Cabinets","not_available","08837",40.52983474731445,-74.3288345336914
"08844","Hillsborough","NJ","Lowe's","315 Route 206, Suite 600","08844",40.51539347195711,-74.62606755214574
"08844","Hillsborough","NJ","United rental","230 US Highway 206","08844",40.526123046875,-74.6279525756836
"08844","Hillsborough","NJ","Tractor Supply Co.","256 Us Hwy 206 Ste 13","08844",40.523813,-74.62999444
"08844","Hillsborough","NJ","Sherwin-Williams Paint Store","706 US Highway 206","08844",40.49562948387421,-74.64859462682027
"08844","Hillsborough","NJ","minuteKEY","315 US Highway 206 Ste 600","08844",40.51533508300781,-74.62611389160156
"08846","Middlesex","NJ","Middlesex Power Equipment","635 Route 28","08846",40.57636309999999,-74.5078418
"08846","Middlesex","NJ","Bearing Depot & Supply Inc.","819 Lincoln Blvd","08846",40.57486419862838,-74.48990106582642
"08846","Middlesex","NJ","Bearing Depo","not_available","08846",40.574914,-74.490018
"08848","Milford","NJ","WE Rent","163 Water St","08848",40.57538986206055,-75.09918975830078
"08852","Monmouth Junction","NJ","The Home Depot","4095 US Highway 1","08852",40.3944292,-74.5666325
"08854","Piscataway","NJ","Benjamin Moore","not_available","08873",40.516053,-74.488376
"08854","Piscataway","NJ","Blue Rhino","1101 Easton Ave","08873",40.517024993896484,-74.4895248413086
"08854","Piscataway","NJ","Home Energy Conservation","349 U.S. 22","08812",40.58,-74.46
"08854","Piscataway","NJ","FNC Pint and Hardware","1075 Easton Ave","08873",40.51667,-74.488139
"08857","Old Bridge","NJ","Pride Landscape Supply","350 Ernston Rd","08859",40.45516,-74.3001795
"08857","Old Bridge","NJ","HD Supply A.H. Harris","287 Cheesequake Rd","08859",40.45335443,-74.32507781
"08857","Old Bridge","NJ","Benjamin Moore Painter's Express","2689 Highway 516","08857",40.403350830078125,-74.3206787109375
"08857","Old Bridge","NJ","Fastenal","500 Hartle St","08872",40.450528000000006,-74.355998
"08861","Perth Amboy","NJ","San Sebastian Hardware","199 Smith St","08861",40.511895,-74.2799162864685
"08861","Perth Amboy","NJ","Essex Drum Handling","215 Herbert St","08861",40.5110601,-74.2855636
"08861","Perth Amboy","NJ","American Industrial Supply","Market St","08861",40.51119047611296,-74.27870725870213
"08861","Perth Amboy","NJ","Madsen & Howell","500 Market Street","08862",40.5113748,-74.2852781
"08861","Perth Amboy","NJ","Ellis Sewer and Drain Cleaning","225 Ellis St","10307",40.515288,-74.248902
"08861","Perth Amboy","NJ","Croat & Nap, Inc.","257 New Brunswick Ave","08861",40.513118743896484,-74.2725830078125
"08861","Perth Amboy","NJ","Rent-A-Center","1485 Blvd Miguel Pou Ste 101 Centro Del Sur Shopping Center","00716",40.5169879,-74.28652
"08863","Fords","NJ","Fords Mill","not_available","08863",40.527633,-74.312702
"08865","Phillipsburg","NJ","Sunshine Home Supplies","870 State Route 57 Ste B","08886",40.70903015136719,-75.1028060913086
"08865","Phillipsburg","NJ","bruces mower service","not_available","08865",40.695987701416016,-75.1936264038086
"08865","Phillipsburg","NJ","Ferguson Brothers Paint & Supply","1593 Springtown Rd","08865",40.657909,-75.157878
"08865","Phillipsburg","NJ","Sherman Williams","not_available","18042",40.67680688577447,-75.17368750069267
"08865","Phillipsburg","NJ","Parkway Appliance","752-754 U.S. 22","08865",40.697324,-75.175374
"08865","Phillipsburg","NJ","Sherwin-Williams Paint Store","768 Memorial Pkwy","08865",40.69755172729492,-75.17355346679688
"08872","Sayreville","NJ","Eddie's Performance LLC","510 Raritan St","08872",40.4794807434082,-74.29840087890625
"08872","Sayreville","NJ","Holt Rentals","Gowin Street","08872",40.48060977997116,-74.29846348788232
"08872","Sayreville","NJ","Ace Hardware","347 Washington Rd","08872",40.459944,-74.345828
"08872","Sayreville","NJ","Total Hardware And Garden Supply","5 Fisher St","08872",40.4560766,-74.36832629999999
"08873","Somerset","NJ","Aaron Kitchen Bath & Design Gallery","10 Industrial Dr Ste A","08901",40.4768883,-74.4836098
"08873","Somerset","NJ","Sherwin-Williams Floorcovering Store","68 Veronica Ave","08873",40.47714973140112,-74.49498653411864
"08873","Somerset","NJ","Aaron And Co Plumbing Supply","1 Industrial Dr","08901",40.477001667022705,-74.48305606842041
"08873","Somerset","NJ","Tailored Living featuring Premier Garage","18 Castleton Ave","08873",40.508573,-74.48030200000001
"08876","Somerville","NJ","Benjamin Moore Paint Store","3549 US Highway 22","08876",40.610904693603516,-74.72477722167969
"08876","Somerville","NJ","Lin-Gate Equipment Sales & Service","3545 US Route 22 East","not_available",40.61196697450185,-74.72498239145033
"08876","Somerville","NJ","The Hose Shop","not_available","08876",40.605086,-74.69523
"08882","South River","NJ","minuteKEY","339 STATE HIGHWAY ROUTE 18","not_available",40.4509235,-74.4009547
"08882","South River","NJ","minuteKEY","290 State Route 18","08816",40.4567428,-74.4008829
"08882","South River","NJ","EIGHTEEN LUMBER, INC.","652 State Route 18","08816",40.43259,-74.3862
"08902","North Brunswick","NJ","ACE Hardware","Rt. 130 s","not_available",40.432614,-74.491417
