"zip","city","state","name","address","postalCode","lat","lon"
"30002","Avondale Estates","GA","Sherwin-Williams Paint Store","1072 Columbia Dr","30030",33.757046,-84.270772
"30004","Alpharetta","GA","Lowe's","4925 Windward Parkway","30004",34.0945109,-84.2817051
"30004","Alpharetta","GA","The Home Depot","5300 Windward Pkwy","30004",34.0911906,-84.2736977
"30004","Alpharetta","GA","Ace Hardware Midway","4947 Atlanta Hwy","30004",34.157629,-84.238231
"30004","Alpharetta","GA","Ace Hardware Crabapple","12350 Arnold Mill Rd Ste B-1","30004",34.0819155,-84.3586346
"30004","Alpharetta","GA","Sherwin Williams Paint Store","1005 Nine North Dr","30004",34.15208,-84.252297
"30004","Alpharetta","GA","Simple Floors","not_available","30004",34.087782131351545,-84.2698199292216
"30004","Alpharetta","GA","Alpharetta Key Service 24/7","76 S Main St","30009",34.073964,-84.294765
"30004","Alpharetta","GA","URBAN HARDWARE","11770 Haynes Bridge Rd #501","30009",34.09364318847656,-84.24674987792969
"30004","Alpharetta","GA","Armistead And Son, Inc","not_available","not_available",34.07303237915039,-84.29646301269531
"30004","Alpharetta","GA","minuteKEY","4925 Windward Pkwy","30004",34.094403,-84.282173
"30004","Alpharetta","GA","Benjamin Moore - Armistead & Son INC","670 N Main St Ste 108","30009",34.093197,-84.28728
"30004","Alpharetta","GA","W.C. Pucket Builders Supply","7051 Campground Rd","30040",34.186765,-84.253783
"30004","Alpharetta","GA","GrassLand Power","not_available","30022",34.14294145578158,-84.24707750539429
"30004","Alpharetta","GA","Dixie construction products","1011 Union Center Dr","30004",34.125527000000005,-84.236724
"30004","Alpharetta","GA","Midway Building Supply","4865 Atlanta Hwy","30004",34.157533,-84.237213
"30004","Alpharetta","GA","Sherwin-Williams Paint Store","12370 Arnold Mill Rd","30004",34.08301689397121,-84.35835689306259
"30004","Alpharetta","GA","City Electric Supply Alpharetta","1005 Union Center Dr Ste A","30004",34.126875,-84.234369
"30004","Alpharetta","GA","Alpha Rental","515 N Main St","30009",34.0900461,-84.2930624
"30004","Alpharetta","GA","Virtual Management Technologies","13560 Morris Rd Ste 1000A","30004",34.095114,-84.25837800000001
"30004","Alpharetta","GA","EZ Garage Repair","12600 Deerfield Pkwy Ste 100","30004",34.0890968569296,-84.26910460006184
"30004","Alpharetta","GA","Sherwin-Williams Paint Store","13786 Highway 9 N","30004",34.11525344848633,-84.2702407836914
"30004","Alpharetta","GA","Gant's Feed & Seed","Sugar pike rd.","30188",34.17073255333372,-84.3782638680011
"30005","Alpharetta","GA","The Home Depot","2635 Peachtree Pkwy","30024",34.09512085432501,-84.17080342769617
"30005","Alpharetta","GA","Lowe's","3580 Peachtree Parkway","30024",34.0732465,-84.1678904
"30005","Alpharetta","GA","Sherwin-Williams Paint Store","5158 McGinnis Ferry Rd","30005",34.093098,-84.206456
"30005","Alpharetta","GA","Joe Powell & Associates","not_available","30005",34.11136555533093,-84.19782302487859
"30005","Alpharetta","GA","minuteKEY","2395 Peachtree Pkwy","30041",34.100121,-84.173789
"30005","Alpharetta","GA","Four Seasons Painting and Home Improvement","5174 McGinnis Ferry Rd # 153","30005",34.0935197,-84.2069246
"30005","Alpharetta","GA","minuteKEY","3580 Peachtree Pkwy","30024",34.073387145996094,-84.16828155517578
"30005","Alpharetta","GA","EcoWater of Atlanta","5490 McGinnis Village Pl Ste 228","30005",34.091679,-84.198577
"30005","Alpharetta","GA","Sherwin-Williams Paint Store","11266 State Bridge Rd","30022",34.05562832559263,-84.23222064971924
"30005","Alpharetta","GA","NoOdor.com","5950 Shiloh Rd E Ste K","30005",34.11965199999999,-84.20104540000001
"30008","Marietta","GA","The Home Depot","1200 E West Connector","30106",33.858198,-84.5906536
"30008","Marietta","GA","Optical Engineering","not_available","30008",33.935592,-84.555057
"30008","Marietta","GA","The Gaston Group LLC","1205 Brandl Drive Southwest","30008",33.9232502,-84.5654873
"30009","Alpharetta","GA","Lowe's","10580 Duke Dr","30009",34.0376553,-84.3184945
"30009","Alpharetta","GA","Urban Hardware Llc","11770 Haynes Bridge Rd","30009",34.0694799943543,-84.2937274508697
"30009","Alpharetta","GA","Ferguson Plumbing Supply","11600 Wills Rd","30009",34.0627292462312,-84.3119697487437
"30009","Alpharetta","GA","Dr. Roof","88 Mansell Ct","30076",34.03943,-84.33209
"30009","Alpharetta","GA","Lumis Supply Co","not_available","30076",34.065186,-84.321348
"30009","Alpharetta","GA","Lee Lighting","11580 Alpharetta Hwy","30076",34.06264,-84.324287
"30009","Alpharetta","GA","PDI Kitchen, Bath & Lighting Showroom - Roswell","1021 Mansell Rd","30076",34.0422873,-84.33153101
"30009","Alpharetta","GA","United Refrigeration","1175 Northmeadow Pkwy","30076",34.062992095947266,-84.31316375732422
"30009","Alpharetta","GA","Fastenal","995 Mansell Rd Ste B","30076",34.04167556762695,-84.33393096923828
"30009","Alpharetta","GA","Johnstone Supply","1250 Northmeadow Pkwy Ste 110","30076",34.061469,-84.316351
"30009","Alpharetta","GA","Global Value Supply- Renovate for Less Outlet","5120 Old Ellis Point","30076",34.053022,-84.326882
"30009","Alpharetta","GA","Sears","6000 North Point Cir","30022",34.04947581,-84.2926966
"30009","Alpharetta","GA","Metro Electrical Supply","11460 Maxwell Rd","not_available",34.05924401514051,-84.30305388223987
"30009","Alpharetta","GA","Garage Door Repair Alpharetta","4555 Mansell Rd #275","30022",34.03945541381836,-84.28791809082031
"30011","Auburn","GA","Handy Ace Hardware","2684 Winder Hwy","30019",33.988557,-83.889682
"30011","Auburn","GA","Job Site","not_available","30011",34.07172927524431,-83.86452911569356
"30012","Conyers","GA","The Home Depot","1330 Dogwood Dr","30013",33.65484312538274,-83.999844789505
"30012","Conyers","GA","Dealers Supply Company Inc","1591 Lester Rd NW","30012",33.687841999999996,-84.04555
"30012","Conyers","GA","Ace Hardware","1264 Green Street","30012",33.65722723510717,-84.01132790967058
"30012","Conyers","GA","Sunbelt Rentals","1540 Iris Dr SW","30094",33.6672,-84.038348
"30012","Conyers","GA","P&S Electrical Supply","505 Smyrna Rd SW","30012",33.677881,-84.058324
"30012","Conyers","GA","Bishop Machine Works Inc","1780 Iris Dr SW","30094",33.669115999999995,-84.046605
"30012","Conyers","GA","minuteKEY","8424 Mall Pkwy","30038",33.6945915222168,-84.08511352539062
"30012","Conyers","GA","still lumber","not_available","30013",33.658816462008495,-83.9992063050156
"30012","Conyers","GA","Husqvarna US","2586 ALMAND ROAD, HIGHWAY 20 N","30012",33.695316314697266,-84.01067352294922
"30012","Conyers","GA","East Coast Metals","not_available","30012",33.672343,-84.02583800000001
"30012","Conyers","GA","Andersson Supply Ltd Co","1000 Green St SE","30012",33.662957,-84.014123
"30012","Conyers","GA","Water Savers","4500 Cotton Trl","30039",33.778164000000004,-84.02046800000001
"30013","Conyers","GA","Lowe's","1901 Georgia Highway 138 SE","30013",33.6401562,-84.0188666
"30013","Conyers","GA","Tractor Supply Co.","4461 Hwy 20 Southeast","30013",33.569848749581986,-84.01723114413511
"30013","Conyers","GA","Sherwin-Williams Paint Store","1561 Highway 138 SE","30013",33.648769,-84.01191
"30013","Conyers","GA","Gutierrez Computer Inc","1439 Old Salem Rd SE","30013",33.6506462097168,-84.00695037841797
"30013","Conyers","GA","Metro Mechanical Inc.","1395 Old McDonough Hwy SE","30094",33.653411,-84.01209899999999
"30013","Conyers","GA","Flooring & Tile","1381 Iris Dr SE","30013",33.650630950927734,-84.00183868408203
"30013","Conyers","GA","Accent Landscape","not_available","30016",33.579632743222284,-83.92774981364167
"30013","Conyers","GA","minuteKEY","4200 Salem Rd","30016",33.57663345336914,-83.9596939086914
"30013","Conyers","GA","Cowan Hardware Company","1056 Honey Creek Rd SE","30013",33.596412,-84.013211
"30013","Conyers","GA","minuteKEY","1901 Highway 138 SE","30013",33.63948059082031,-84.01881408691406
"30013","Conyers","GA","Do-It-Yourself Pest Control Store","1823 Highway 138 SE Ste 100","30013",33.640755,-84.015839
"30014","Covington","GA","The Home Depot","13171 Hwy 142 NW","30014",33.61509730068078,-83.82569432258606
"30014","Covington","GA","Mayfield Ace Hardware","2171 Elm St NE","30014",33.603037,-83.85741
"30014","Covington","GA","Southern Pipe And Supply","8159 Highway 278 NE","30014",33.60075759887695,-83.83622741699219
"30014","Covington","GA","City Electric Supply Covington Ga","8322 Hazelbrand Rd NE","30014",33.6025009,-83.8352291
"30014","Covington","GA","Mobile Hydraulics","8279 Hazelbrand Rd NE","30014",33.6013881,-83.83637019999999
"30014","Covington","GA","Newton Electric Supply","8155 Highway 278 NE","30014",33.60086356666667,-83.83659435
"30014","Covington","GA","Tractor Supply Co.","10161 Lochridge Blvd","30014",33.604817,-83.82948
"30014","Covington","GA","Ronnie's Septic Tank Service","1019 McDonald Rd","30014",33.455013,-83.820258
"30014","Covington","GA","Doug Clack Trucking Co Inc","5790 Kent Rock Rd","30052",33.7438225,-83.9008947
"30014","Covington","GA","Eastern Wallboard Supply","not_available","30014",33.62305057852228,-83.84923026025076
"30014","Covington","GA","Ready Rent-All","1335 Access Rd","30014",33.61244727606217,-83.89486704544953
"30014","Covington","GA","Sherwin-Williams Paint Store","8258 Hazelbrand Rd NE","30014",33.60052490234375,-83.83533477783203
"30014","Covington","GA","Ewing Irrigation","12135 Liberty Dr","30014",33.61442719477467,-83.82801443338394
"30014","Covington","GA","Ace Hardware","1115 Washington St SW","30014",33.59566116333008,-83.85997009277344
"30014","Covington","GA","Atlas Copco Rental","12169 Liberty Dr","30014",33.61440039043007,-83.8274484872818
"30017","Grayson","GA","Tractor Supply Co.","1484 Athens Hwy","30017",33.85959080197713,-83.9765080478522
"30017","Grayson","GA","Top Tier Awnings","3240 Wrenwood Ct","30052",33.8591800344697,-83.943796634123
"30017","Grayson","GA","Sherwin-Williams Paint Store","1437 Grayson Hwy","30045",33.91108510344137,-83.96951960321088
"30019","Dacula","GA","The Home Depot","2120 Hamilton Creek Pkwy","30019",34.0731753,-83.9138335
"30019","Dacula","GA","Sherwin-Williams Paint Store","748 Dacula Rd","30019",34.00473316,-83.91321837
"30019","Dacula","GA","Custom Wood Garden & Patio","Hamilton Mill Parkway","not_available",34.0589201,-83.9133327
"30021","Clarkston","GA","RE Michel","not_available","30021",33.799209000000005,-84.251588
"30021","Clarkston","GA","shop","not_available","30084",33.824856599570396,-84.2287774863534
"30022","Alpharetta","GA","The Home Depot","5950 State Bridge Rd","30097",34.0137217,-84.1877336
"30022","Alpharetta","GA","The Home Depot","1580 Holcomb Bridge Rd","30076",34.0168793,-84.3097421
"30022","Alpharetta","GA","John's Creek Ace Hardware","10875 Jones Bridge Rd","30022",34.0478,-84.2219
"30022","Alpharetta","GA","Sherwin-Williams Paint Store","2830 Holcomb Bridge Rd","30022",33.991475,-84.279139
"30022","Alpharetta","GA","Sherwin-Williams Paint Store","5805 State Bridge Rd","30097",34.017389,-84.18598100000001
"30024","Suwanee","GA","Lowe's","3260 Lawrenceville Suwanee Road","30024",34.0362225,-84.0550512
"30024","Suwanee","GA","The Home Depot","1480 Satellite Blvd","30024",34.00388874304251,-84.07851934432989
"30024","Suwanee","GA","Sherwin-Williams Paint Store","3010 The Commons Dr","30041",34.114833000000004,-84.155855
"30024","Suwanee","GA","Lowe's - Mill Creek","Hwy 20","30518",34.10296185986724,-84.02093257578034
"30024","Suwanee","GA","Toro","not_available","30097",34.023738,-84.163122
"30024","Suwanee","GA","Sherwin-Williams Paint Store","3520 Peachtree Pkwy","30024",34.076252000000004,-84.164624
"30024","Suwanee","GA","Sherwin-Williams Paint Store","780 Peachtree Industrial Blvd","30024",34.05692607741035,-84.08104062080383
"30024","Suwanee","GA","VIRTUAL PROPERTIES REALTY","2750 Premiere Pkwy","30097",34.0002718,-84.0911301
"30024","Suwanee","GA","Division 7","4103 trench road","30024",34.065442,-84.065516
"30024","Suwanee","GA","Northern Tool","not_available","30096",34.00695758208571,-84.17060795618696
"30024","Suwanee","GA","Keystone Equipment Rental","4478 Abbotts Bridge Rd","30097",34.02398,-84.16304699999999
"30024","Suwanee","GA","Sherwin-Williams Paint Store","4735 Nelson Brogdon Blvd","30518",34.103256568472055,-84.0222680568695
"30024","Suwanee","GA","Sherwin-Williams Paint Store","2017 Lawrenceville Suwanee Rd","30024",34.00072247,-84.03848637
"30024","Suwanee","GA","Sherwin-Williams Paint Store","3036 Buford Hwy","30096",34.002853,-84.14143299999999
"30024","Suwanee","GA","Aml Flooring","not_available","30024",34.048109305754494,-84.05889225789599
"30024","Suwanee","GA","Petty Plumbing","not_available","30518",34.11213471474896,-84.08044754394095
"30024","Suwanee","GA","porter paints","300 Peachtree Industrial Blvd","30024",34.06449886295542,-84.07423853874207
"30024","Suwanee","GA","minuteKEY","3245 Lawrenceville Suwanee Rd","30024",34.0366521,-84.0509716
"30024","Suwanee","GA","H&E Equipment Services","745 Brogdon Rd","30024",34.0753427,-84.0558393
"30024","Suwanee","GA","Garage Door Repair Suwanee","1000 Peachtree Industrial Blvd # 7-143","30024",34.04943706485541,-84.08385694026947
"30024","Suwanee","GA","Marquise Commercial Plumbing","4402 Mendi Ct","30024",34.074111,-84.057509
"30024","Suwanee","GA","North Ga Mower","350 Buford Hwy Ste 110","30518",34.076393,-84.0485
"30025","Social Circle","GA","Ace Hardware","181 S Cherokee Rd","30025",33.65597915649414,-83.72103881835938
"30028","Cumming","GA","Ace Hardware Hwy 20","2000 Canton Hwy","30040",34.240651,-84.185972
"30028","Cumming","GA","Capitol Materials Inc","5580 Matt Highway","30028",34.300059999999995,-84.157549
"30028","Cumming","GA","Ace Hardware Hammonds","4715 Hammond Industrial Dr","30041",34.253629,-84.06603100000001
"30028","Cumming","GA","The Liquidators","not_available","30040",34.269672596577955,-84.09510053819746
"30028","Cumming","GA","City Plumbing & Electric Supply","6030 GA-400","30028",34.31451615,-84.06280029
"30028","Cumming","GA","Thomas Lumber Company","3500 Browns Bridge Rd","30028",34.269034000000005,-84.095023
"30028","Cumming","GA","Lee Lighting","4180 Georgia Highway 400","30028",34.27007293701172,-84.0789794921875
"30030","Decatur","GA","Intown Ace Hardware","1404 Scott Blvd","30030",33.791592,-84.293576
"30030","Decatur","GA","Ace Locksmith Decatur","2107 N Decatur Rd","30033",33.79011154174805,-84.30590057373047
"30030","Decatur","GA","Decatur Lock and Key Shop","380 W Ponce de Leon Ave","30030",33.77541,-84.302351
"30030","Decatur","GA","Sherwin-Williams Paint Store","345 W Ponce de Leon Ave","30030",33.775970458984375,-84.30183410644531
"30032","Decatur","GA","Lemons Residential Glass Repair","3416 Columbia Court","30032",33.7217321,-84.2502281
"30032","Decatur","GA","Builders Equipment","3261 Glenwood Rd","30032",33.738423,-84.284898
"30032","Decatur","GA","minuteKEY","2427 Gresham Rd SE","30316",33.719066999999995,-84.312867
"30032","Decatur","GA","A Action Locksmith","4185 Glenwood Rd","30032",33.73740768432617,-84.24728393554688
"30033","Decatur","GA","The Home Depot","2295 Lawrenceville Hwy","30033",33.8127816,-84.2691018
"30033","Decatur","GA","Sherwin-Williams Paint Store","3908 N Druid Hills Rd","30033",33.81157459564514,-84.2738116546704
"30033","Decatur","GA","Ace Hardware of Toco Hills","2983 N Druid Hills Rd NE","30329",33.814483,-84.309432
"30033","Decatur","GA","Ace of Briarlake","3900 Lavista Rd","30084",33.8444989,-84.258457
"30033","Decatur","GA","Sherwin-Williams Commercial Paint Store","791 Dekalb Industrial Way","30033",33.800119,-84.279861
"30033","Decatur","GA","palmer tactical public safety supply","640 Valley Brook Rd","30033",33.796390533447266,-84.26390838623047
"30033","Decatur","GA","All Repairs","Toco Hills Shopping Center","not_available",33.816265,-84.312913
"30034","Decatur","GA","The Home Depot","4325 New Snapfinger Woods Dr","30035",33.7137491,-84.2129771
"30034","Decatur","GA","DIY Home Improvement Space","not_available","30034",33.674997,-84.265164
"30035","Decatur","GA","H&E Equipment Services","5355 Morse Dr","30035",33.717815,-84.170735
"30035","Decatur","GA","Asher Appliances","not_available","30035",33.741042,-84.21889
"30038","Lithonia","GA","Lowe's","5375 Fairington Road","30038",33.6988708,-84.1699474
"30038","Lithonia","GA","Sherwin-Williams Paint Store","5384 Fairington Rd","30038",33.70172882080078,-84.1701889038086
"30038","Lithonia","GA","minuteKEY","5401 Fairington Rd","30038",33.7003974,-84.1676229
"30038","Lithonia","GA","minuteKEY","5375 Fairington Rd","30038",33.698837,-84.16999100000001
"30038","Lithonia","GA","o reilys","not_available","30058",33.702575121709934,-84.11341564127777
"30039","Snellville","GA","The Home Depot","4121 Highway 78","30047",33.837525,-84.0738469
"30039","Snellville","GA","TCR Inc","not_available","30039",33.817003377833274,-84.0235447883606
"30039","Snellville","GA","minuteKEY","3435 Centerville Hwy","30039",33.8071174621582,-84.04612731933594
"30039","Snellville","GA","Garage Door Repair Snellville","4002 Highway 78 W #C350","30039",33.83696779004235,-84.06731843948364
"30039","Snellville","GA","Truck Rental Center at the Home Depot","4121 Stone Mountain Hwy","30047",33.83726119995117,-84.073974609375
"30040","Cumming","GA","The Home Depot","1000 Market Pl Blvd","30041",34.1798797,-84.1305151
"30040","Cumming","GA","Lowe's","935 Marketplace Blvd","30041",34.1832547,-84.1331876
"30040","Cumming","GA","Sherwin-Williams Paint Store","123 Canton Rd","30040",34.208864,-84.142661
"30040","Cumming","GA","Gregory's Paint and Flooring","1050 Buford Rd","30041",34.1755976000966,-84.12929247221489
"30040","Cumming","GA","Sherwin-Williams Paint Store","2370 Atlanta Hwy","30040",34.161093,-84.17707800000001
"30040","Cumming","GA","TRUE VALUE HDW OF CUMMING GA","1862 Buford Hwy","30041",34.1590461730957,-84.11247253417969
"30040","Cumming","GA","Garage Door Repair Cumming","1400 Market Place Blvd","30041",34.183719635009766,-84.13157653808594
"30040","Cumming","GA","Glaze Hardware Place","698 Peachtree Pkwy","30041",34.144814000000004,-84.173303
"30040","Cumming","GA","minuteKEY","935 Market Place Blvd","30041",34.183349609375,-84.1332015991211
"30040","Cumming","GA","PPG Porter Paints","107 Merchants Sq","30040",34.187523999999996,-84.14637900000001
"30040","Cumming","GA","Ace Hardware","3835 Windermere Pkwy","30041",34.132816,-84.125815
"30040","Cumming","GA","Gregory's Paint & Flooring","1050 Buford Hwy, Suite 101","30041",34.175453005709116,-84.12965357937622
"30040","Cumming","GA","A&S Lock and Safe","433 Canton Rd","30040",34.21721649169922,-84.14874267578125
"30041","Cumming","GA","S&S Ace Hdw Mower-Buford","4160 Buford Dr","30518",34.093591,-84.010017
"30043","Lawrenceville","GA","The Home Depot","875 Lawrenceville Suwanee Rd","30043",33.9687618,-84.0168912
"30043","Lawrenceville","GA","Artistic Builders Supply Ace Hardware","963 Buford Dr # C","30043",33.989341514394,-83.98361113624571
"30043","Lawrenceville","GA","Sherwin-Williams Paint Store","409 W Pike St","30046",33.960429,-84.003855
"30043","Lawrenceville","GA","ITR America","1400-1460 Lakes Pkwy","30043",33.960253,-84.046359
"30043","Lawrenceville","GA","Triad Mechanical","393 Swanson Dr #8533","30043",33.9872411,-83.9863719
"30043","Lawrenceville","GA","Katlanta Inc","283 Swanson Dr","30043",33.98737,-83.99056999999999
"30043","Lawrenceville","GA","minuteKEY","630 Collins Hill Rd","30046",33.971348,-83.996059
"30043","Lawrenceville","GA","Sears","5900 Sugarloaf Pkwy Ste 171","30043",33.9811233,-84.079501
"30043","Lawrenceville","GA","City Electric Supply Lawrenceville","249 Hurricane Shoals Rd NE","30046",33.975807,-83.982965
"30043","Lawrenceville","GA","Sherwin-Williams Paint Store","524 Lyle Cir","30046",33.971478000000005,-83.987756
"30043","Lawrenceville","GA","HADCO","325 Horizon Dr","30024",34.031421,-84.03420899999999
"30043","Lawrenceville","GA","minuteKEY","3260 Lawrenceville Suwanee Rd","30024",34.036213000000004,-84.055081
"30043","Lawrenceville","GA","Live Oak Construction Supply, Inc.","4225 Steve Reynolds Blvd","30093",33.961928731749694,-84.00192870712229
"30043","Lawrenceville","GA","C.C. Liquidations Home Furnishings & More","105 Satellite Blvd NW","30024",34.0387652,-84.05852879999999
"30043","Lawrenceville","GA","Lanier Outdoor Equipment - Lawrenceville","219 Hurricane Shoals Rd NE","30046",33.975681,-83.984624
"30043","Lawrenceville","GA","Atlanta Glass","478 Northdale Road","30046",33.96859098,-83.99248169
"30043","Lawrenceville","GA","Frontier Purchasing, LLC","1000 Peachtree Industrial Blvd","30024",34.049758,-84.08890919999999
"30044","Lawrenceville","GA","The Home Depot","1670 Scenic Hwy N","30078",33.8812199,-84.0088749
"30044","Lawrenceville","GA","Lowe's","1615 Scenic Hwy N","30078",33.88474308,-84.01191866
"30044","Lawrenceville","GA","The Home Depot","3755 Shackleford Rd","30096",33.9488493,-84.1329432
"30044","Lawrenceville","GA","The Home Depot","4028 Lawrenceville Hwy","30047",33.9020094,-84.1145074
"30044","Lawrenceville","GA","Ace Hdwe of Lawrenceville","880 Dogwood Rd","30044",33.8885999,-84.0592
"30044","Lawrenceville","GA","CPO Outlets","900 Raco Dr","30046",33.95825040362786,-84.02134048224701
"30044","Lawrenceville","GA","Allen Precision Equipment","1550 Boggs Rd","30096",33.956296,-84.09488499999999
"30044","Lawrenceville","GA","Neff Rental","3678 E. Lidel rd.","30096",33.94974899291992,-84.1313705444336
"30044","Lawrenceville","GA","Ser","not_available","30047",33.888333333333335,-84.11194444444443
"30044","Lawrenceville","GA","Leslie's Pool Supply","1630 Scenic Hwy N","30078",33.883140563964844,-84.00914001464844
"30044","Lawrenceville","GA","J. A. Carpets, LLC",".","30044",33.942950520998785,-84.07079458236694
"30044","Lawrenceville","GA","Sherwin-Williams Paint Store","4264 US Hwy 29","30047",33.90151715694701,-84.12330150604248
"30044","Lawrenceville","GA","Alpha Maintenance & Fabrication","not_available","30044",33.94161542390573,-84.07010793685913
"30044","Lawrenceville","GA","Sterling Paint & Construction","4241 Wayside Ct SW","30047",33.8914680480957,-84.1146240234375
"30044","Lawrenceville","GA","GLOBAL POWER PRODUCTS","225 Arnold Rd","30044",33.91507825201067,-84.047931432724
"30044","Lawrenceville","GA","Sherwin-Williams Paint Store","3375 Sugarloaf Pkwy","30044",33.92271423339844,-84.01648712158203
"30044","Lawrenceville","GA","Ferguson Fire & Fabrication","25 Arcado Rd Sw","30047",33.892144,-84.113899
"30044","Lawrenceville","GA","JSG DOORS & MOORE  LLC","4155 Lawrenceville Hwy NW","30047",33.90385818481445,-84.12069702148438
"30045","Lawrenceville","GA","Garage Door Repair Lawrenceville","455 Grayson Hwy #311","30046",33.940244702440204,-83.98298978805542
"30045","Lawrenceville","GA","NEW HOPE PAINT AND HARDWARE INC","930 New Hope Rd Ste 9","30045",33.9347009,-83.9563998
"30045","Lawrenceville","GA","Deer Ironworks","140 Supreme Ct","30046",33.9470734,-83.97069210000001
"30045","Lawrenceville","GA","Lawrenceville Locksmiths","220 W Crogan St","30046",33.955902,-83.99029200000001
"30047","Lilburn","GA","Lowe's","4855 Stone Mountain Highway","30047",33.8281533,-84.0983431
"30047","Lilburn","GA","Harbor Freight Tools","4805 Lawrenceville Hwy NW Ste 280","30047",33.89601030181914,-84.14272418760542
"30047","Lilburn","GA","minuteKEY","1825 Rockbridge Rd","30087",33.824041,-84.123467
"30047","Lilburn","GA","Stone Mountain Power Tool Corp.","535 Indian Trail Lilburn Rd NW Ste P","30047",33.899379,-84.142104
"30047","Lilburn","GA","Sherwin-Williams Paint Store","4905 Stone Mountain Hwy","30047",33.82623304,-84.09866005
"30047","Lilburn","GA","On My Way To Lowes Or HD","not_available","30078",33.86718270583693,-84.04749240020593
"30047","Lilburn","GA","Turf Machine Co","1390 indian trail rd","not_available",33.91834779,-84.16484941
"30047","Lilburn","GA","Garage Door Repair Stone Mountain","1227 Rockbridge Rd #465","30087",33.84267105151912,-84.13089752197266
"30047","Lilburn","GA","Total Power Products","5345 Five Forks Trickum Rd SW","30047",33.84300423208566,-84.12943163370049
"30047","Lilburn","GA","minuteKEY","4855 Stone Mountain Hwy","30047",33.828478999999994,-84.098752
"30047","Lilburn","GA","Garage Door Repair Lilburn","5330 Lilburn Stone Mountain Rd SW #265","30047",33.858524322509766,-84.14007568359375
"30047","Lilburn","GA","Indian Trail Hardware","1155 Indian Trail Lilburn Rd","30093",33.91158,-84.161201
"30052","Loganville","GA","Lowe's","4022 Atlanta Highway","30052",33.8488398,-83.9111528
"30052","Loganville","GA","The Home Depot","4141 Atlanta Highway","30052",33.8432182,-83.9112515
"30052","Loganville","GA","Hill's Ace Hardware & Lumber Center","275 U S Hwy 78","30052",33.851308,-83.923096
"30052","Loganville","GA","Stephens Repair Shop","765 hwy 20","30052",33.83133491845286,-83.91315687568316
"30052","Loganville","GA","Garage Door Repair Loganville","4221 Atlanta Hwy","30052",33.84154825200687,-83.9075231552124
"30052","Loganville","GA","Sherwin-Williams Paint Store","4591 Atlanta Hwy","30052",33.834301,-83.89481582
"30052","Loganville","GA","City Electric Supply Loganville","4620 Lawrenceville Rd","30052",33.835283472841695,-83.88901054859167
"30052","Loganville","GA","Husqvarna US","PO Box 218","30052",33.830081939697266,-83.9068603515625
"30052","Loganville","GA","home depot","Georgia 10, Monroe, GA 30656","30656",33.76596267344861,-83.80925409240157
"30055","Mansfield","GA","Lowe's","Hwy 138","30013",33.513753249786355,-83.70056428302968
"30055","Mansfield","GA","Hays Tractor Supply","not_available","30055",33.51930286637507,-83.7349409903041
"30058","Lithonia","GA","OSPCGA","7199 Maddox Rd Ste 1A","30058",33.73755645751953,-84.09571075439453
"30058","Lithonia","GA","JLewis Construction","2460 Rock Chapel Rd","30058",33.720608,-84.09889799999999
"30060","Marietta","GA","Vickery Hardware","not_available","30080",33.87528449287664,-84.52828560755893
"30060","Marietta","GA","Sears","1140 Roswell Road SE","30062",33.9495973,-84.5178285
"30060","Marietta","GA","Northern Tool and Equipment","131 Cobb Pkwy","30062",33.95429615148171,-84.52318656594825
"30060","Marietta","GA","Fox Appliance Parts","814 Pickens Industrial Dr","30062",33.970675,-84.523457
"30060","Marietta","GA","Benjamin Moore","547 Roswell St NE","30060",33.95083236694336,-84.53651428222656
"30060","Marietta","GA","Southern Finishing Supply","2361 S Cobb Dr SE","30080",33.89564416834086,-84.5385155081749
"30060","Marietta","GA","Leslie's Pool Supply","1320 Roswell Rd","30062",33.95012247484361,-84.51355260493857
"30060","Marietta","GA","Ace Hardware","1496 Roswell Rd","30062",33.9505884404069,-84.5080731071019
"30060","Marietta","GA","Cross Tie Distributors, Inc.","not_available","30066",33.986216999999996,-84.533098
"30060","Marietta","GA","ProSource of Atlanta-Marietta","2260 Northwest Pkwy SE Ste Bc","30067",33.919286,-84.48876
"30060","Marietta","GA","Ferguson HVAC Supply","1190 Kennestone Circle Ste 100","30066",33.980074,-84.553117
"30060","Marietta","GA","Trailer plus","100 Chert Rd","30062",33.95386629815594,-84.51655842840177
"30060","Marietta","GA","Threads for the South","987 King Industrial drive","not_available",33.97786,-84.539523
"30060","Marietta","GA","Sherwin-Williams Paint Store","1200 Cobb Pkwy N","30062",33.98113432995133,-84.55631732940674
"30060","Marietta","GA","CC Dickson Co","1990 Delk Industrial Blvd SE","30067",33.9251823425293,-84.4957046508789
"30060","Marietta","GA","HD Supply White Cap","1420 White Circle Northwest","30060",33.986828,-84.575503
"30060","Marietta","GA","Fastening Solutions","1666 Roswell Rd, Marietta, GA 30068","30068",33.955684661865234,-84.50174713134766
"30060","Marietta","GA","John Dear Landscaping","929 Mountain Industrial Dr NW","30060",33.98594665527344,-84.5788345336914
"30060","Marietta","GA","Sherwin-Williams Paint Store","855 Concord Rd SE","30080",33.87507689067303,-84.52898833093475
"30060","Marietta","GA","Lillie Glass Blowers Inc","3431 LAKE DR SE","30082",33.869147999999996,-84.52975699999999
"30060","Marietta","GA","Capitol Materials Inc","580 Webb Industrial Drive","30062",33.97456622,-84.53366519
"30062","Marietta","GA","The Home Depot","4101 Roswell Rd","30062",33.98052936014365,-84.43512439727789
"30062","Marietta","GA","The Home Depot","3605 Sandy Plains Rd","30066",34.0383909,-84.4649449
"30062","Marietta","GA","The Home Depot","449 Roberts Ct NW","30144",34.0072684721693,-84.56318378448486
"30062","Marietta","GA","Harbor Freight Tools","4290 Bells Ferry Rd NW Ste 126","30144",34.05546791138941,-84.55479777655212
"30062","Marietta","GA","Rockler Woodworking and Hardware","425 Ernest W Barrett Pkwy NW","30144",34.0118293762207,-84.56197357177734
"30062","Marietta","GA","East Cobb Lawn Mower Service","2995 Johnson Ferry Rd","30062",34.02221,-84.427481
"30062","Marietta","GA","PMC Building Material","2009 Dorsey Rd","30066",33.99970626831055,-84.52120208740234
"30062","Marietta","GA","East Cobb Ace Hardware","3162 Johnson Ferry Rd","30062",34.026228,-84.424062
"30062","Marietta","GA","Sherwin-Williams Paint Store","2220 Roswell Rd","30062",33.971144721117106,-84.48726681203227
"30062","Marietta","GA","Sherwin-Williams Paint Store","3041 Shallowford Rd","30062",34.03725814819336,-84.46044158935547
"30062","Marietta","GA","True Value Hardware","2510 Shallowford Rd","30066",34.041377276377034,-84.47900780236733
"30062","Marietta","GA","kennesaw drywall","not_available","30144",34.0196418762207,-84.57051086425781
"30062","Marietta","GA","Sears","400 Ernest W Barrett Pkwy Nw","30144",34.01731074,-84.56632143
"30062","Marietta","GA","ABC Supply","1938 Dorsey Rd","30066",33.998253000000005,-84.522351
"30064","Marietta","GA","The Home Depot","2350 Dallas Hwy","30064",33.9475992,-84.6207766
"30064","Marietta","GA","Lowe's","2650 Dallas Hwy SW","30064",33.94844,-84.6279403
"30064","Marietta","GA","The Home Depot","1062 Richard D Sailors Pkwy","30127",33.86551741027203,-84.67803508048746
"30064","Marietta","GA","Lowe's","1717 East West Connector","30106",33.8531973,-84.5992883
"30064","Marietta","GA","Garage Door Repair Powder Springs","3705 New Macland Rd","30127",33.86391067504883,-84.67556762695312
"30064","Marietta","GA","CAPCO","1466 White Road Court","30060",33.98453354,-84.57314665
"30064","Marietta","GA","minuteKEY","1717 E West Connector","30106",33.853231,-84.599769
"30064","Marietta","GA","Smoke Booth","not_available","30060",33.96769,-84.552149
"30066","Marietta","GA","Hi-Line","2688 Raven Trl NE","30066",34.07372283935547,-84.47379302978516
"30066","Marietta","GA","Woodstock Gutter Supply & Woodstock Metal Roofing","4708 Ecton Dr","30066",34.065934999999996,-84.523187
"30066","Marietta","GA","Walls Ace Hardware","2932 Canton Rd-Ste 280","30066",34.0309999,-84.5112
"30066","Marietta","GA","minuteKEY","3101 Roswell Rd","30062",33.9807874,-84.4640279
"30066","Marietta","GA","Ford Hardware","1951 Canton Rd Ste 160","30066",33.997688000000004,-84.52520200000001
"30066","Marietta","GA","Country Estate Fence of Georgia","1545 Canton Rd","30066",33.989049,-84.531438
"30066","Marietta","GA","Explosive Design And Creation Disaster Center","Canton Rd","30066",34.02681186158037,-84.52847778211064
"30066","Marietta","GA","Apex Supply - Marietta","1295 Field Pkwy","30066",33.985069274902344,-84.56124877929688
"30066","Marietta","GA","Bulks Landscape Supply","4586 Canton Rd","30066",34.0622452,-84.5213053
"30067","Marietta","GA","Smith Ace Hardware","2400 Delk Rd SE","30067",33.92359692937553,-84.46603285746622
"30067","Marietta","GA","Northside Tool Rental","615 N Greenbriar Pkwy","30062",33.963528000000004,-84.495341
"30067","Marietta","GA","United Refrigeration","not_available","30067",33.925648,-84.489488
"30067","Marietta","GA","Smith Hardware Delk Road","2900 Delk Rd SE Ste 2400","30067",33.923068,-84.466746
"30067","Marietta","GA","AM 2 PM Locksmiths","1675 Roswell Rd Apt 1621","30062",33.95610046386719,-84.50519561767578
"30067","Marietta","GA","Benjamin Moore - East Cobb Paint Center In.Side.Out (Benjamin Moore - East Cobb Paint Center (In.Side.Out))","4880 Lower Roswell Rd Ste 135","30068",33.9647778,-84.4100074
"30067","Marietta","GA","Pirtek Usa Dobbins","1400 South Marietta Pkwy SE Suite 110","30067",33.9390829,-84.5106983
"30068","Marietta","GA","Sandy Spring Locksmith Company","not_available","30328",33.94585,-84.38565
"30068","Marietta","GA","Sherwin-Williams Paint Store","1270 Johnson Ferry Rd","30068",33.980323999999996,-84.422726
"30071","Norcross","GA","Lowe's","2035 Beaver Ruin Road","30071",33.9319905,-84.1755682
"30071","Norcross","GA","Holcomb Bridge Ace Hardware","3960 Holcomb Bridge Rd","30092",33.9664909,-84.254497
"30071","Norcross","GA","peachtree woodworking suppy","6684 Jimmy Carter Blvd","30071",33.93581,-84.234802
"30071","Norcross","GA","Grainger Industrial Supply","6655 Crescent Dr","30071",33.91059721634322,-84.22738727286642
"30071","Norcross","GA","City Electric Supply Duluth","4075 Buford Hwy Ste C","30096",33.9754503,-84.1657055
"30071","Norcross","GA","Spectrum Paints, Inc.","6889 Peachtree Industrial Boulevard","not_available",33.9356045681986,-84.25603253648673
"30071","Norcross","GA","Improve USA","6945 Button Gwinnett Dr","30340",33.90692901611328,-84.2392349243164
"30071","Norcross","GA","HILTI Power Tools","5822-5848 Jimmy Carter Blvd","30071",33.9196906595775,-84.21100715284673
"30071","Norcross","GA","Marco Supply","not_available","30071",33.939019032966925,-84.23133993015459
"30071","Norcross","GA","HD Supply White Cap","6250 Brook Hollow Pkwy","30071",33.920398,-84.216268
"30071","Norcross","GA","Garage Door Repair Norcross","7742 Spalding Dr #276","30092",33.96810531616211,-84.25952911376953
"30071","Norcross","GA","Churon Co","300 Lively Ave","30071",33.9359031,-84.2128583
"30071","Norcross","GA","Stone City Inc.","not_available","30093",33.91580857258119,-84.19770553445969
"30071","Norcross","GA","C C Dickson","Pleasntdale","30340",33.90628699660898,-84.24556515009945
"30071","Norcross","GA","HOWARDS TRUE VALUE HDWE","6884 Buford Hwy NE","30340",33.924560546875,-84.24867248535156
"30071","Norcross","GA","Surface Flooring","6725 Best Friend Rd","30071",33.914803000000006,-84.236685
"30071","Norcross","GA","Crossville Studios","1256 Oakbrook Drive","30093",33.91684226,-84.18164557
"30075","Roswell","GA","The Home Depot","870 Woodstock Rd","30075",34.0587121,-84.3865673
"30075","Roswell","GA","Daniel Ace Hardware","115 Colony Center Dr","30188",34.0777262,-84.4322369
"30075","Roswell","GA","Sherwin-Williams Paint Store","825 Atlanta St","30075",34.02110290527344,-84.36138916015625
"30075","Roswell","GA","Do It Best Hardware Roswell","not_available","30075",34.017775,-84.355456
"30075","Roswell","GA","Garage Door Repair Roswell","880 Marietta Hwy #215","30075",34.003822326660156,-84.39131927490234
"30075","Roswell","GA","M J Dove Mechanical Contractors","590 Upper Hembree Rd","30076",34.062574,-84.342528
"30075","Roswell","GA","The tech cave","not_available","30350",33.99333508448398,-84.34827146946161
"30075","Roswell","GA","Roswell Hardware","Atlanta St","30075",34.017395,-84.36192700000001
"30075","Roswell","GA","Benjamin Moore Paints","1255a Alpharetta Highway","30075",34.032554,-84.35011999999999
"30075","Roswell","GA","Benjamin Moore","4672 Sandy Plains Rd","30075",34.06306457519531,-84.42543029785156
"30075","Roswell","GA","Snapper","not_available","30062",34.02185821533203,-84.42742156982422
"30075","Roswell","GA","Sherwin-Williams Paint Store","4765 Alabama Rd NE","30075",34.0647743858215,-84.42538261413574
"30075","Roswell","GA","Secure Locksmith Atlanta GA","1010 Huntcliff","30350",33.993492126464844,-84.35228729248047
"30076","Roswell","GA","Cotton & Welsh","500 Dunwoody Place","30350",33.986845,-84.341427
"30078","Snellville","GA","Sherwin-Williams Paint Store","2879 Main St W","30078",33.85436154755661,-84.03214931488037
"30078","Snellville","GA","Duron Paints & Wallcoverings","2160 Scenic Hwy N","30078",33.86208724975586,-84.01744842529297
"30078","Snellville","GA","Palmers Welding Suppy","not_available","30052",33.85628246150786,-84.01942484706242
"30078","Snellville","GA","Northern Tool","2240 Walton Ct","30078",33.851988,-84.037717
"30080","Smyrna","GA","The Home Depot","2450 Cumberland Pkwy","30339",33.8623728,-84.4765178
"30080","Smyrna","GA","Oakdale Ace Hardware","4359 W Atlanta Rd SE","30080",33.8477749,-84.494311
"30080","Smyrna","GA","Builders Surplus","2960 Olympic Industrial Dr SE","30339",33.834345188206115,-84.46930722906151
"30080","Smyrna","GA","Sherwin-Williams Paint Store","2451 Cumberland Pkwy SE Ste 100","30339",33.86255819722985,-84.47800755500793
"30080","Smyrna","GA","Benjamin Moore","South cobb drive","not_available",33.843169133226276,-84.50415520646966
"30080","Smyrna","GA","Hardwoods Incorporated","5400 Riverview Rd SE","30126",33.81849452077923,-84.48976682789095
"30080","Smyrna","GA","Mark C. Pope Associates, Inc.","4910 Martin Ct SE","30082",33.834903999999995,-84.500725
"30080","Smyrna","GA","Sherwin-Williams Floorcovering Store","5500 S Cobb Dr SE","30339",33.818660736083984,-84.48278045654297
"30080","Smyrna","GA","Carolina Lumber","2290 Marietta Rd NW","30318",33.817358,-84.461391
"30080","Smyrna","GA","Vickery Hardware Company","881 Concord Rd SE","30080",33.875553131103516,-84.52828216552734
"30080","Smyrna","GA","A1 Mini Storeage","1925 S Cobb Dr SE","30060",33.90566,-84.542336
"30080","Smyrna","GA","Sears","SE, 1500 Cumberland Mall","30339",33.87982940673828,-84.46721649169922
"30080","Smyrna","GA","Ross Tool","2148 South Cobb Dr","not_available",33.90067997960005,-84.54281566022375
"30080","Smyrna","GA","City Electric Supply Smyrna","2310 Old Concord Rd SE","30082",33.896214,-84.540786
"30080","Smyrna","GA","Fastenal","2961 Olympic Industrial Dr SE","30339",33.834441,-84.470332
"30080","Smyrna","GA","Pro Locksmith Service Atlanta GA","2980 Cobb Pkwy SE","30339",33.88005065917969,-84.46161651611328
"30080","Smyrna","GA","Flash Electric","2970 Ask Kay Dr SE","30082",33.87999,-84.535516
"30080","Smyrna","GA","ROSS TOOL","2272 atlanta rd","30080",33.8897893,-84.5166581
"30080","Smyrna","GA","Space Flooring","not_available","30082",33.827735900878906,-84.49861907958984
"30082","Smyrna","GA","Garage Door Repair Mableton","4875 Floyd Rd SW #208","30126",33.83604097410245,-84.57462072372435
"30082","Smyrna","GA","Locksmith Vinings GA","2151 Cumberland Pkwy SE","30339",33.852046966552734,-84.48292541503906
"30083","Stone Mountain","GA","The Equipment Hub","4601 Lewis Rd","30083",33.8284049,-84.200492
"30083","Stone Mountain","GA","ISN","not_available","30083",33.820108,-84.188559
"30083","Stone Mountain","GA","Southern GF Company","4920 Lewis Rd","30083",33.82937523706339,-84.18722125592467
"30083","Stone Mountain","GA","minuteKEY","5935 Memorial Dr","30083",33.80033874511719,-84.1951675415039
"30084","Tucker","GA","The Home Depot","4136 Jimmy Carter Blvd","30093",33.8685932,-84.1894818
"30084","Tucker","GA","Handy Ace Hardware","3969 Lawrenceville Hwy","30084",33.84912014095042,-84.21959191891389
"30084","Tucker","GA","Mower Menders","3823 Lawrenceville Hwy","30084",33.848277,-84.224651
"30084","Tucker","GA","Sherwin-Williams Paint Store","4184 Bancroft Cir","30084",33.853638000000004,-84.219033
"30084","Tucker","GA","Sherwin-Williams Paint Store","3364 Chamblee Tucker Rd","30341",33.88676834106445,-84.25460052490234
"30084","Tucker","GA","Atlanta Casters","not_available","30087",33.83563995361328,-84.19735717773438
"30084","Tucker","GA","Granite City Tool Atlanta","5060 N Royal Atlanta Dr #9","30084",33.85841542371268,-84.17979955673218
"30084","Tucker","GA","Sears","2301-A Mt Industrial Boulevard","30084",33.8523406,-84.2001037
"30084","Tucker","GA","Fastenal","2725 Mountain Industrial Blvd","30084",33.85864346890812,-84.18825326546917
"30084","Tucker","GA","Sevada Casters & Material","3725 W Rusell Read, Las Vegas,","89101",33.84253203912797,-84.18928599362516
"30084","Tucker","GA","Stock Building Supply","3386 Lawrenceville Hwy","30084",33.840315000000004,-84.23744599999999
"30084","Tucker","GA","minuteKEY","4975 Jimmy Carter Blvd","30093",33.8944222,-84.1964839
"30084","Tucker","GA","City Electric Supply Tucker","2725 Mountain Industrial Blvd Ste F","30084",33.8586977,-84.1877886
"30084","Tucker","GA","Sherwin-Williams Paint Store","6334 Lawrenceville Hwy","30084",33.86682326212049,-84.18683499097824
"30084","Tucker","GA","Tucker Acoustical Products","2014 Steel Drive","30084",33.84326293,-84.23723556
"30084","Tucker","GA","Garage Door Repair Tucker","4404 Hugh Howell Rd #155","30084",33.85236358642578,-84.2078857421875
"30087","Stone Mountain","GA","Sherwin-Williams Paint Store","375 N Deshong Rd","30087",33.785678000000004,-84.102538
"30087","Stone Mountain","GA","Ronson Technical Products, a Ferguson Subsidiary","2146 Flintstone Dr Ste A","30084",33.846835999999996,-84.19526
"30087","Stone Mountain","GA","Express Hardware Solutions Inc","5060 N Royal Atlanta Dr","30084",33.858643,-84.180243
"30087","Stone Mountain","GA","Preferred Roofing Supply","4874 North Royal Atlanta Drive","30084",33.860125,-84.188958
"30092","Peachtree Corners","GA","Hardware","2223 mt clocks","not_available",33.933507,-84.197588
"30092","Peachtree Corners","GA","ProSource of Atlanta","3000 Miller Ct W","30071",33.954046999999996,-84.216966
"30092","Peachtree Corners","GA","Brook Furniture Rental, Atlanta","6580 Jimmy Carter Boulevard","30071",33.93452988,-84.22882937
"30092","Peachtree Corners","GA","HGH Hadware Supply","not_available","30092",33.95122636112471,-84.22595249602713
"30092","Peachtree Corners","GA","Sherwin-Williams Paint Store","3925 Holcomb Bridge Rd","30092",33.96472836213896,-84.25429345755099
"30092","Peachtree Corners","GA","Atlantic Services","3070 Business Park Dr","30071",33.9560534,-84.2113288
"30093","Norcross","GA","Atlanta Bin & Shelving","4295 International Blvd Ste A","30093",33.93404947822134,-84.14623975753784
"30093","Norcross","GA","Power Home Remodeling","1740 Corporate Dr","30093",33.93740383,-84.14065563
"30093","Norcross","GA","Glass Doctor","1550 Beaver Ruin Rd","30093",33.931596,-84.147267
"30093","Norcross","GA","Northside Tool Rental","1547 Beaver Ruin Rd","30093",33.930928,-84.148472
"30094","Conyers","GA","Best Sewer & Drain Cleaning LLC","1625 Sugar Plum Dr SW","30094",33.631256,-84.045326
"30096","Duluth","GA","Howards True Value Hardware","3616 Buford Hwy","30096",33.985812188891295,-84.15369432877576
"30096","Duluth","GA","Capitol Materials Inc","3898 May Road","30096",33.977354,-84.1587
"30096","Duluth","GA","Sherwin-Williams Paint Store","3931 Peachtree Industrial Blvd","30096",33.98648,-84.171522
"30096","Duluth","GA","Corley Small Engine & Mower Repair","3436 Buford Hwy","30096",33.992798,-84.151363
"30096","Duluth","GA","Lumber Liquidators, Inc.","3855 Venture Dr","30096",33.95131237130444,-84.14014856684742
"30096","Duluth","GA","Georgia Lock And Key","2714 Ridge Brook Trl","30096",33.94873809814453,-84.15482330322266
"30096","Duluth","GA","Bosch Service Center","1850B Beaver Ruin Road","not_available",33.969598,-84.097611
"30101","Acworth","GA","Lowe's","3250 Cobb Pkwy NW","30152",34.0353876,-84.6728618
"30101","Acworth","GA","The Home Depot","3355 Cobb Pkwy","30101",34.0346679,-84.6863619
"30101","Acworth","GA","Sunbelt Tool Rental","Cobb Parkway","30101",34.009603045636155,-84.60757096648129
"30101","Acworth","GA","Brookstone Ace Hardware","1715 Dennis Kemp Ln NW","30152",33.997985,-84.702155
"30101","Acworth","GA","Sherwin-Williams Paint Store","2770 Cobb Pkwy NW","30152",34.021566,-84.622489
"30101","Acworth","GA","Lumber Liquidators, Inc.","2500 Cobb Pkwy NW","30152",34.01489897923826,-84.61291634869679
"30101","Acworth","GA","paulding building supply","8122 Dallas Acworth Hwy","30132",34.00279711042358,-84.75936540854832
"30101","Acworth","GA","Kop & Associates LLC","320 Northpoint Pkwy SE Ste G","30102",34.08137893676758,-84.66228485107422
"30101","Acworth","GA","Certified Tool Solutions","320 Northpoint Pkwy SE Ste Q","30102",34.0811427,-84.661807
"30101","Acworth","GA","Irby","1025 Cobb International Pl NW","30152",34.006813049316406,-84.61058807373047
"30101","Acworth","GA","Metro Home Products","not_available","30152",34.010995,-84.610035
"30101","Acworth","GA","Bourdon USA","3295 Cobb International Blvd NW","30152",34.002635,-84.611582
"30101","Acworth","GA","Sherwin-Williams Paint Store","4405 Calibre Xing NW","30101",34.063133,-84.721453
"30101","Acworth","GA","Senox","Heritage Drive","30144",34.043159,-84.614457
"30101","Acworth","GA","Stovall Landscape supply","2496 S Main St NW","30144",34.01567,-84.60887
"30101","Acworth","GA","STOCK Building Supplies","not_available","30101",34.082061976294355,-84.65770793563598
"30101","Acworth","GA","Garage Door Repair Acworth","3335 Cobb Pkwy NW","30101",34.0339469909668,-84.6832046508789
"30101","Acworth","GA","Probuild","2601-2661 Summers St NW","30144",34.018031,-84.61174399999999
"30101","Acworth","GA","The Nail Man Llc","1521 Highway 92","30102",34.08740997314453,-84.65520477294922
"30102","Acworth","GA","minuteKEY","6435 Bells Ferry Rd","30189",34.1129363,-84.5844589
"30102","Acworth","GA","Bells Ferry Ace Hardware","6437 Highway 92","30102",34.089339,-84.581425
"30102","Acworth","GA","Mancilla Roofing and Construction","6985 McCurley Rd","30102",34.125646,-84.604628
"30102","Acworth","GA","the glass company","not_available","30102",34.0957978210092,-84.5821767228934
"30103","Adairsville","GA","A-Plus Hardware Inc","6350 Joe Frank Harris Pkwy NW","30103",34.3748999,-84.9312
"30103","Adairsville","GA","Tractor Supply","Hwy 53 E.","30701",34.34434037284512,-84.98248284175057
"30106","Austell","GA","AirGas","not_available","30126",33.809780008389296,-84.57191052571558
"30106","Austell","GA","Sherwin-Williams Paint Store","875 Veterans Memorial Hwy SW","30126",33.818296000000004,-84.57952399999999
"30106","Austell","GA","Sweetwater Lumber & Land Co.","not_available","30106",33.81187907546208,-84.63741003547518
"30107","Ball Ground","GA","The Home Depot","2200 Riverstone Blvd","30114",34.25419641543472,-84.47384013780612
"30107","Ball Ground","GA","hardware","not_available","30143",34.393470764160156,-84.3901138305664
"30107","Ball Ground","GA","Marble Hill Ace Hardware","26 McCain Pass","30148",34.415778,-84.280055
"30107","Ball Ground","GA","kellys hardware","not_available","30115",34.254688453619536,-84.35175818852295
"30107","Ball Ground","GA","J. P, Haynes Lumber Company","not_available","30114",34.273043,-84.452463
"30107","Ball Ground","GA","cherokee feed & seed","not_available","30107",34.27997578996797,-84.29683003687349
"30107","Ball Ground","GA","Ace Hardware Woodmont","8026 Cumming Hwy","30115",34.2539919,-84.357468
"30108","Bowdon","GA","Burwell Maintenance","not_available","30117",33.580581141955975,-85.20614402984857
"30108","Bowdon","GA","Messer Hardware","110 Saxon St","30108",33.53894074066971,-85.25331472144131
"30110","Bremen","GA","Ace Hardware","103 Fern St","30110",33.72467803955078,-85.14067077636719
"30113","Buchanan","GA","Ace Hardware","837-39 S Main St","30125",33.90640856528231,-85.2363854200475
"30114","Canton","GA","Lowe's","2044 Cumming Hwy","30115",34.23438844,-84.45411883
"30114","Canton","GA","The Home Depot","4520 Holly Springs Pkwy","30115",34.1481884,-84.5129925
"30114","Canton","GA","Tractor Supply Co.","2860 East Cherokee Dr","30115",34.17394315310858,-84.41924716716933
"30114","Canton","GA","Sherwin-Williams Paint Store","6132 Hickory Flat Hwy","30115",34.17516,-84.417885
"30114","Canton","GA","Ewing Irrigation","2262 Holly Springs Pkwy","30115",34.179056,-84.504281
"30114","Canton","GA","Porter Paints","Riverside","30114",34.229904,-84.471148
"30114","Canton","GA","tps electrical contractors","not_available","30184",34.21540462859058,-84.6244908643918
"30114","Canton","GA","Ace Hardware","100 Ridge Rd","30114",34.173176,-84.551112
"30114","Canton","GA","Complete Roofing Systems, Inc.","3025 Holly Springs Pkwy","30115",34.16998074613099,-84.503413438797
"30114","Canton","GA","Sherwin-Williams Paint Store","652 Riverstone Pkwy","30114",34.244934,-84.482745
"30114","Canton","GA","Cloud Supply","450 Marietta Rd","30114",34.228059,-84.492196
"30114","Canton","GA","Sherwin-Williams Paint Store","4805 Holly Springs Pkwy","30115",34.1449194,-84.51197119999999
"30114","Canton","GA","Ed's Supply Company","40 Hickory Springs Industrial Drive","30115",34.171311570784766,-84.4945360284762
"30114","Canton","GA","Harbor Freight Canton","Marietta Highway","30114",34.22135,-84.502266
"30114","Canton","GA","Southgate Process Equipment, Inc.","87 Hickory Springs Industrial Drive","30115",34.167506,-84.49029399999999
"30114","Canton","GA","Husqvarna US","520 Waleska Rd","30114",34.24939727783203,-84.49376678466797
"30114","Canton","GA","Agile Investments - Construction & Remodeling","6175 Hickory Flat Hwy","30115",34.17717361450195,-84.417236328125
"30114","Canton","GA","Canton Termite and Pest Control (Canton Termite And Pest Control Inc.)","150 North St Ste C","30114",34.23760717,-84.49154067
"30115","Canton","GA","Tractor Supply Co.","12110 Cumming Hwy","30115",34.24157994593348,-84.295794566496
"30115","Canton","GA","Odd Job Barn","11643 Cumming Hwy","30115",34.247021000000004,-84.302018
"30116","Carrollton","GA","The Home Depot","1332 South Park St","30117",33.5526514,-85.0718561
"30116","Carrollton","GA","Lowe's","1665 S Highway 27","30117",33.5451231,-85.0764281
"30116","Carrollton","GA","Tractor Supply Co.","912 South Park St","30117",33.564145011666,-85.07450353463362
"30116","Carrollton","GA","Smith Brothers Supply","14 City Hall Ave","30117",33.581334727702796,-85.07420492406014
"30116","Carrollton","GA","Sherwin-Williams Paint Store","905 S Park St","30117",33.56323,-85.075541
"30116","Carrollton","GA","Superior Structures","3982 Carrollton Villa Rica Hwy","30116",33.64534378051758,-84.97102355957031
"30116","Carrollton","GA","Block Usa","369 central ave","30116",33.550895,-85.059973
"30116","Carrollton","GA","O2 Plus Inc","163 N Highway 113","30117",33.6059961,-85.0787404
"30116","Carrollton","GA","CC Dickson","302 N Aycock St","30117",33.57755237547412,-85.08276351274218
"30116","Carrollton","GA","Burson's Feed And Seed","118 Rome St","30117",33.58106158,-85.07522171
"30116","Carrollton","GA","Sears","1202 S Park St","30117",33.55581283569336,-85.07258605957031
"30116","Carrollton","GA","Lawn Mower & Equipment Parts, Sales, & Service Inc.","950 Alabama St","30117",33.5842854,-85.0922156
"30116","Carrollton","GA","Holston Gases","719 Bankhead Hwy","30117",33.587855,-85.05409
"30116","Carrollton","GA","Sears","1202 South Park Street","30117",33.5560835310981,-85.0716292711639
"30117","Carrollton","GA","Southern Home & Ranch Center","1110 N Park St","30117",33.5833,-85.107399
"30120","Cartersville","GA","Lowe's","301 Market Place Blvd","30121",34.2001744,-84.7893168
"30120","Cartersville","GA","The Home Depot","100 Gentilly Blvd","30120",34.1862483,-84.7875906
"30120","Cartersville","GA","Tractor Supply Co.","10 Ryan Blvd Northeast","30121",34.210357,-84.799021
"30120","Cartersville","GA","Harbor Freight Tools","21 Apex Dr SE","30121",34.20479,-84.800211
"30120","Cartersville","GA","North Georgia Mercantile Country Store","3351 US-411","30184",34.280261,-84.744009
"30120","Cartersville","GA","Cartersville Tool Rental","not_available","30121",34.19220116427279,-84.78920216290797
"30120","Cartersville","GA","Sherwin-Williams Paint Store","200 E Felton Rd","30121",34.19715783733969,-84.7893907276502
"30120","Cartersville","GA","Cartersville Ace Hardware","924 West Ave","30120",34.1591999,-84.813
"30120","Cartersville","GA","nexAir","6 West Ave","30120",34.161694,-84.79477
"30120","Cartersville","GA","84 Lumber","100-198 Ampacet Dr","30120",34.14794921875,-84.83938598632812
"30120","Cartersville","GA","City Electric Supply Cartersville","820 Joe Frank Harris Pkwy SE","30120",34.192236312294845,-84.78814333677292
"30120","Cartersville","GA","Taylor Farm Supply","not_available","30120",34.16366455622939,-84.79495565481136
"30120","Cartersville","GA","Taylor Outdoor Power Equipment & Supplies","912 N Tennessee St","30120",34.18489,-84.79559
"30120","Cartersville","GA","Classic Mouldings","3458 U.S. 411","30184",34.28453536,-84.74104121
"30120","Cartersville","GA","Garage Door Repair Cartersville","659 Henderson Dr #C265","30120",34.15346908569336,-84.81871032714844
"30120","Cartersville","GA","White Cap Construction Supply","1274 Joe Frank Harris Pkwy SE","30120",34.20536422729492,-84.81233978271484
"30120","Cartersville","GA","Fastenal","Hwy 411","not_available",34.213135,-84.795473
"30120","Cartersville","GA","Gilstrap Plumbing","330 center road","30121",34.1933145,-84.75452419999999
"30120","Cartersville","GA","CAMaster","149 Wansley Dr SE","30121",34.18813183,-84.77994733
"30122","Lithia Springs","GA","Great American Inc","not_available","30122",33.79092400561217,-84.6331552106442
"30122","Lithia Springs","GA","The Home Depot","1000 Thornton Road","30122",33.7787672,-84.6104168
"30122","Lithia Springs","GA","Tractor Supply Co.","2661 Hwy 92 Fairburn Rd","30135",33.732978,-84.671143
"30122","Lithia Springs","GA","Lithia Springs Ace Hardware","7295 Lee Rd","30122",33.776583,-84.653225
"30122","Lithia Springs","GA","City Electric Supply Lithia Springs","420 Thornton Rd Ste 109","30122",33.7922236,-84.62853659999999
"30122","Lithia Springs","GA","Sherwin-Williams Product Finishes","1406 Trae Ln","30122",33.766374,-84.604518
"30122","Lithia Springs","GA","CC Dickson co","240 Thornton Rd","30122",33.793970523068,-84.63198821961846
"30122","Lithia Springs","GA","Sims & Company","not_available","30134",33.777378,-84.702337
"30122","Lithia Springs","GA","Jones Safe & Lock Co.","3561 Veterans Memorial Highway","30134",33.792798,-84.678283
"30122","Lithia Springs","GA","Sherwin-Williams Paint Store","2548 Fairburn Rd","30135",33.736263275146484,-84.6706771850586
"30122","Lithia Springs","GA","Johnstone Supply","240-a thorton road","not_available",33.793733,-84.632152
"30122","Lithia Springs","GA","Husqvarna US","2089 Midway Rd","30135",33.750701904296875,-84.70074462890625
"30125","Cedartown","GA","The Home Depot","1500 Rome Highway","30125",34.04506335333287,-85.23224472999573
"30125","Cedartown","GA","Fastenal","East ave","30125",34.004764556884766,-85.25537872314453
"30125","Cedartown","GA","Tractor Supply Co.","1600 Rome Hwy","30125",34.04682618911689,-85.23539177645017
"30125","Cedartown","GA","Cedartown hardware","not_available","30125",34.011837005615234,-85.27950286865234
"30125","Cedartown","GA","Sherwin-Williams Paint Store","840 N Main St","30125",34.02826424866274,-85.24761915206909
"30126","Mableton","GA","EIFS DEPOT","5841 Jacaranda Dr SE","30126",33.811888,-84.494905
"30126","Mableton","GA","Southern Pipe Of Mableton","1850 Freeman Pkwy","30126",33.811759,-84.500579
"30126","Mableton","GA","Home Depot Supply Warehouse","3710 Atlanta Industrial Pkwy NW","30331",33.79925,-84.49954
"30126","Mableton","GA","Atlanta Plumbing","6590 Starling Pl SW","30126",33.793460845947266,-84.57178497314453
"30127","Powder Springs","GA","The Home Depot","145 Depot Drive","30141",33.88756647861818,-84.75121200084686
"30127","Powder Springs","GA","Nature Right Landscapes","5200 Dallas Hwy Ste 200","30127",33.94183349609375,-84.70063781738281
"30127","Powder Springs","GA","Lost Mtn Outdoor Power","not_available","30157",33.9169412134042,-84.75643339799379
"30127","Powder Springs","GA","minuteKEY","4166 Jimmy Lee Smith Pkwy","30141",33.891225,-84.759125
"30127","Powder Springs","GA","Sherwin-Williams Paint Store","30 Enterprise Path","30141",33.89467791387847,-84.76507902145386
"30127","Powder Springs","GA","Sherwin-Williams Paint Store","5155 Dallas Hwy","30127",33.939749,-84.703311
"30127","Powder Springs","GA","Pure Power equipment","not_available","30141",33.903784979563405,-84.7261662660102
"30132","Dallas","GA","Tractor Supply Co.","115 Greystone Power Blvd","30157",33.90169,-84.800463
"30132","Dallas","GA","Fastenal","not_available","30132",33.90214645987611,-84.80201295368819
"30132","Dallas","GA","City Electric Supply Dallas Ga","65 Ratcliff Dr","30141",33.90965648757798,-84.77715713912403
"30132","Dallas","GA","Garage Door Repair Dallas","457 Nathan Dean Blvd","30132",33.91040802001953,-84.82174682617188
"30132","Dallas","GA","Tractor Supply","Jimmy Campbell Pkwy","30132",33.90834512424843,-84.8335129918271
"30132","Dallas","GA","T & R Fixtures","210 Commerce Dr","30132",33.90668715,-84.80382225
"30132","Dallas","GA","General Purpose","3080 Atlanta Hwy","30132",33.909767150878906,-84.7910385131836
"30132","Dallas","GA","swordsswords","457 Nathan Dean Blvd Ste 105","30132",33.9101448059082,-84.82161712646484
"30132","Dallas","GA","L & N Supply Co.","344 Academy Dr","30132",33.909245,-84.83104499999999
"30132","Dallas","GA","Dallas Mower LLC","261 Merchants Dr","30132",33.922899,-84.831816
"30134","Douglasville","GA","Lowe's","7001 Douglas Blvd","30135",33.7266317,-84.7595808
"30134","Douglasville","GA","The Home Depot","7399 Douglas Blvd","30135",33.72269774600545,-84.76630747318268
"30134","Douglasville","GA","Harbor Freight Tools","7424 Douglas Blvd","30135",33.725317598715684,-84.76775740252128
"30134","Douglasville","GA","Douglasville Ace Hardware","6530 Church St","30134",33.75180491413026,-84.74388152212936
"30134","Douglasville","GA","Lowes","not_available","30135",33.72673240974158,-84.74468855071453
"30134","Douglasville","GA","Leslie's Swimming Pool Supplies","2985 Chapel Hill Rd","30135",33.72343459405256,-84.73432374728638
"30134","Douglasville","GA","Douglasville Locksmiths","6488 Spring St","30134",33.75101089477539,-84.74250793457031
"30134","Douglasville","GA","84 Lumber","not_available","30187",33.73402788481653,-84.80083085340306
"30134","Douglasville","GA","Sherwin-Williams Paint Store","9580 Highway 5","30135",33.72254418452723,-84.76235335494653
"30134","Douglasville","GA","Tile and Stone Express","9516 Highway 5","30135",33.72403568388714,-84.76107865289998
"30134","Douglasville","GA","Garage Door Repair Douglasville","7421 Douglas Blvd","30135",33.724178314208984,-84.76715850830078
"30134","Douglasville","GA","Sears","6580 Douglas Blvd","30135",33.72819654,-84.74348505
"30135","Douglasville","GA","Wages Feed","8451 Highway 166","30135",33.62016677856445,-84.8532943725586
"30135","Douglasville","GA","Safe Systems Electrical Contractors, LLC","6055 Dorsett Shoals Rd","30135",33.679283142089844,-84.7731704711914
"30139","Fairmount","GA","Fairmount Poultry And Building Supply","not_available","30139",34.429168,-84.698546
"30143","Jasper","GA","Tractor Supply Co.","294 East Church St","30143",34.466656,-84.42531
"30143","Jasper","GA","The Home Depot","205 Bill Wigington Pkwy","30143",34.46822997041493,-84.46274042129517
"30143","Jasper","GA","Garner Ace Hardware","693 E Church St","30143",34.464291,-84.418225
"30143","Jasper","GA","Ga Roof Leak Solutions","224 Gennett Dr","30143",34.48176193237305,-84.44281768798828
"30143","Jasper","GA","Sherwin-Williams Paint Store","35 Interstate Dr N","30143",34.474887,-84.465998
"30144","Kennesaw","GA","The Home Depot","1655 Shiloh Rd NW","30144",34.05220607655166,-84.59900736808771
"30144","Kennesaw","GA","Ace Mountainview","2206 Cobb Pkwy NW","30152",34.0073489,-84.605712
"30144","Kennesaw","GA","Fastenal","3939 Royal Dr SE","not_available",34.04835671256408,-84.60642581462442
"30145","Kingston","GA","Dykes Creek Farm Supply","not_available","30161",34.26452061455401,-85.07413719464147
"30145","Kingston","GA","Home Depot","not_available","30145",34.18354415893555,-84.99850463867188
"30145","Kingston","GA","Black Horse Trading Company","824 Taylorsville Macedonia Rd","30178",34.16257273259229,-84.98623099437947
"30147","Lindale","GA","Three Rivers Drywall Supply","3097 Cave Spring Rd SW","30161",34.17502212524414,-85.20853424072266
"30147","Lindale","GA","Lindale Ace Hardware","3116 Maple Rd","30147",34.1992949,-85.172139
"30149","Mount Berry","GA","J Supply Co.","88 Addington Dr NW","30165",34.288182581926655,-85.22186321718186
"30149","Mount Berry","GA","Plz Stay Calm Supply Outpost","not_available","30165",34.288079,-85.186311
"30152","Kennesaw","GA","Lee Lighting","1100 Cobb Place Dr NW","30144",34.00226593017578,-84.58495330810547
"30152","Kennesaw","GA","Yancey Rents Cat Rental Store","2697 McCollum Pkwy NW","30144",34.018979,-84.598103
"30152","Kennesaw","GA","DeVore & Johnson","2750 McCollum Pkwy NW","30144",34.02059040987855,-84.59482580423355
"30152","Kennesaw","GA","Fastenal","2255 McCollum Pkwy NW Ste 400","30144",34.01820755004883,-84.60116577148438
"30152","Kennesaw","GA","Garage Door Repair Kennesaw","2774 Cobb Pkwy NW","30152",34.022884368896484,-84.62379455566406
"30153","Rockmart","GA","Ace Morgan's Hardware","not_available","30153",33.99692111666667,-85.05053193333333
"30153","Rockmart","GA","Buy Low True Value Hardware","308 Nathan Dean Parkway","30153",34.01084907,-85.05858008
"30157","Dallas","GA","cosmeticwiringelectrical","73 Devynwood Ct","30157",33.80300521850586,-84.8772201538086
"30161","Rome","GA","Tractor Supply Co.","420 Hwy 411 Southeast","30161",34.218166,-85.14112
"30161","Rome","GA","The Home Depot","103 Hicks Drive","30161",34.254316692923,-85.16245365142822
"30161","Rome","GA","Lowe's","2338 Shorter Avenue NW","30165",34.273219,-85.2344915
"30161","Rome","GA","Harbor Freight Tools","2112 Shorter Ave NW Ste 100","30165",34.271854400634766,-85.22431945800781
"30161","Rome","GA","Mathis Builders Hardware & Supply Co. Inc.","Shorter Avenue","not_available",34.26244551946856,-85.18508551087437
"30161","Rome","GA","Peace of Mind Restoration","3 Central Plaza","30161",34.2462221,-85.1687193
"30161","Rome","GA","Mathis True Value","44 Carter Ave","30165",34.2640012087163,-85.1860090368323
"30161","Rome","GA","Sherwin-Williams Paint Store","420 Shorter Ave NW","30165",34.264913155221976,-85.19485473632812
"30161","Rome","GA","City Electric Supply Rome","90 Three Rivers Dr NE Ste 300","30161",34.28955030996224,-85.14901041984558
"30161","Rome","GA","BDS Landscape Co","499 Wilshire Rd NE","30161",34.275101,-85.127758
"30161","Rome","GA","Elder's Ace Hardware-East Rome","1804 Turner Mccall Blvd SW","30161",34.2425939,-85.16114
"30168","Austell","GA","Senox","555 Wharton Cir SW Ste C","30336",33.758095000000004,-84.55201
"30179","Temple","GA","The Home Depot","210 Cooley Way","30180",33.7190701,-84.941335
"30179","Temple","GA","Atlanta Plumber Service","279 Taylors Gin Rd","30179",33.74589920043945,-85.00524139404297
"30179","Temple","GA","JOHN DEER","not_available","30180",33.740217,-84.953487
"30179","Temple","GA","Townsend Glass and Mirror","131 W Bankhead Hwy","30180",33.733101963544826,-84.92156982421874
"30179","Temple","GA","minuteKEY","600 Carrollton Villa Rica Hwy","30180",33.720263,-84.9347635
"30179","Temple","GA","Sherwin-Williams Paint Store","610 W Bankhead Hwy","30180",33.730506,-84.93367099999999
"30188","Woodstock","GA","Morgan Ace Hardware","109 E Main St","30188",34.1001449,-84.518574
"30188","Woodstock","GA","minuteKEY","12182 Highway 92","30188",34.084582,-84.481245
"30188","Woodstock","GA","Garage Door Repair Woodstock","1426 Towne Lake Pkwy #304","30189",34.10245036144359,-84.53777253627777
"30188","Woodstock","GA","Ewing Irrigation","934 Jamerson Rd","30066",34.068593,-84.52314
"30188","Woodstock","GA","B & P Locksmith","9405 Main St","30188",34.089168548583984,-84.5190658569336
"30188","Woodstock","GA","Fastenal","233 Arnold Mill Rd, Woodstock, GA 30188","30188",34.102546999999994,-84.507587
"30188","Woodstock","GA","Taylor lock and key","313 Arnold Mill Rd","30188",34.107797999999995,-84.496491
"30188","Woodstock","GA","Sherwin-Williams Paint Store","9665 Main St","30188",34.0854,-84.518816
"30188","Woodstock","GA","North Metro Wholesale","825 Jamerson Rd","30066",34.069399,-84.525858
"30189","Woodstock","GA","The Home Depot","9037 Highway 92","30189",34.0866826,-84.5389398
"30189","Woodstock","GA","Lowe's","575 Molly Lane","30189",34.0818454,-84.5397769
"30189","Woodstock","GA","Highway 92 Rental","8477 Highway 92 Ste 200","30189",34.08796310424805,-84.54803466796875
"30189","Woodstock","GA","minuteKEY","575 Molly Ln","30189",34.08138656616211,-84.5396957397461
"30189","Woodstock","GA","minuteKEY","105 Long Dr","30189",34.08060836791992,-84.54371643066406
"30204","Barnesville","GA","Wood Yard","not_available","30257",33.15793302288254,-84.20783906148668
"30204","Barnesville","GA","BARNESVILLE ACE HARDWARE","916 Highway 341 S","30204",33.039985,-84.166088
"30204","Barnesville","GA","Farm Supply True Value","304 Rogers St","30204",33.055548030303,-84.1489766161616
"30213","Fairburn","GA","Lowe's","3625 North Commerce Drive","30344",33.6564975,-84.5052715
"30213","Fairburn","GA","Olympic Locksmith Experts","3645 Marketplace Blvd","30344",33.65831705409437,-84.50222253799438
"30213","Fairburn","GA","Sherwin-Williams Paint Store","4776 Jonesboro Rd","30291",33.569743,-84.54406999999999
"30213","Fairburn","GA","minuteKEY","3625 N Commerce Dr","30344",33.656455,-84.50564
"30213","Fairburn","GA","Sherwin-Williams Paint Store","3521 Camp Creek Pkwy","30344",33.655768,-84.50008299999999
"30213","Fairburn","GA","Preservation Management Pros","3284 Victoria Park SW","30331",33.661066,-84.516447
"30213","Fairburn","GA","minuteKEY","3585 N Commerce Dr","30344",33.65827941894531,-84.50618743896484
"30213","Fairburn","GA","Sherwin-Williams Paint Store","8022 Senoia Rd","30213",33.53746032714844,-84.57611846923828
"30213","Fairburn","GA","Paper Service & Hardware","not_available","30268",33.522467,-84.665307
"30213","Fairburn","GA","Berry Good Heating-Air-Plumbing","529 Westbridge Dr","30214",33.53422927856445,-84.48108673095703
"30213","Fairburn","GA","Coleman Lumber","not_available","30214",33.52455520629883,-84.50228881835938
"30213","Fairburn","GA","Ferguson HVAC Supply","6730 Oakley Industrial Blvd","30291",33.5697723451869,-84.5220007614194
"30213","Fairburn","GA","nexAir","7390 Graham Rd","30213",33.55807182051846,-84.54155689663594
"30213","Fairburn","GA","Ferguson Waterworks","6145 Buffington Rd","30349",33.590670175163396,-84.50182994883271
"30214","Fayetteville","GA","The Home Depot","103 Pavillion Parkway","30214",33.4820863,-84.4373295
"30214","Fayetteville","GA","Lowe's","1030 N Glynn St","30214",33.472596,-84.4467677
"30214","Fayetteville","GA","Tractor Supply Co.","939 Glynn St North Ste B","30214",33.465104,-84.446891
"30214","Fayetteville","GA","Harbor Freight Tools","1415 Highway 85 N Ste 200","30214",33.48061548488823,-84.43496047867832
"30214","Fayetteville","GA","Garage Door Repair Riverdale","373 Highway 138 SW #F","30274",33.545108795166016,-84.40264892578125
"30214","Fayetteville","GA","Lowes","not_available","30213",33.550309059301505,-84.4008071571612
"30214","Fayetteville","GA","Fastenal","326 Highway 138 SW","30274",33.543731689453125,-84.40234375
"30214","Fayetteville","GA","Sherwin-Williams Paint Store","7544 Highway 85","30274",33.548608518402034,-84.41445311852833
"30214","Fayetteville","GA","Elite Installation and Design","115 Commerce Dr","37075",33.46437,-84.452011
"30214","Fayetteville","GA","Sherwin-Williams","190 Glynn St N","30214",33.451874,-84.45559899999999
"30214","Fayetteville","GA","Husqvarna US","395 Glynn St S","30214",33.44237518310547,-84.45555877685547
"30214","Fayetteville","GA","Duron Paints & Wallcoverings","770 Glynn St N","30214",33.46530532836914,-84.44937133789062
"30214","Fayetteville","GA","minuteKEY","1030 Highway 85 N","30214",33.472869873046875,-84.44670867919922
"30214","Fayetteville","GA","minuteKEY","125 Pavilion Pkwy","30214",33.4818065,-84.4433569
"30214","Fayetteville","GA","Miles Hardware","2006 Highway 54 W","30269",33.42603702103285,-84.55736280798621
"30214","Fayetteville","GA","Able 2 Rent All","1344 Highway 85 N","30214",33.47668,-84.43976
"30214","Fayetteville","GA","Garage Door Repair Fayetteville","1415 Georgia 85","30214",33.48180024953138,-84.43386375904083
"30214","Fayetteville","GA","Ferguson Bath, Kitchen & Lighting Gallery","805 W Lanier Ave","30214",33.448057238504646,-84.47511357154323
"30215","Fayetteville","GA","time to go","not_available","30228",33.41407012939453,-84.38546752929688
"30220","Grantville","GA","Van's Hardware & Farm Supply","61 Industrial Dr","30230",33.164161,-84.913634
"30222","Greenville","GA","Sentry Hardware","Hwy. 18","30222",33.0202132632007,-84.7103530561456
"30223","Griffin","GA","Lowe's","1520 Highway 16 West","30223",33.2450635,-84.2915693
"30223","Griffin","GA","Tractor Supply Co.","1515 Lucky St","30223",33.280688121099864,-84.28986085373745
"30223","Griffin","GA","The Home Depot","1435 Highway 16 W","30223",33.249421463770794,-84.28931951522827
"30223","Griffin","GA","City Electric Supply Griffin","1719 Georgia Highway 16 W","30223",33.244171486500235,-84.31063927116395
"30223","Griffin","GA","Expert Computers","118 W College St","30224",33.244300842285156,-84.2646713256836
"30223","Griffin","GA","Napa","not_available","30223",33.26051406655901,-84.28917653574086
"30223","Griffin","GA","Truck Rental Center at the Home Depot","1435 Georgia Highway 16 W","30223",33.249019622802734,-84.28936767578125
"30223","Griffin","GA","Tom Davidson & Son's Utility Contractor's","79 School Road","30284",33.339326010725436,-84.29362791978373
"30223","Griffin","GA","Sherwin-Williams Paint Store","1449 N Expressway","30223",33.272789292287584,-84.292334318161
"30223","Griffin","GA","Georgia Lawn Equipment","2958 N Expressway","30223",33.31466167,-84.28913
"30223","Griffin","GA","Ace Hardware of Griffin","126 W College St","30224",33.244297,-84.264307
"30223","Griffin","GA","Barn","not_available","30224",33.248902232378086,-84.26439483528686
"30223","Griffin","GA","Lowes","1520 Georgia Highway 16 W","30223",33.245540618896484,-84.29141235351562
"30223","Griffin","GA","Tracplus Usa, Inc.","1145 Uniform Rd","30224",33.229705,-84.28027999999999
"30224","Griffin","GA","Husqvarna US","2205 S McDonough Rd","30224",33.18807601928711,-84.21163940429688
"30224","Griffin","GA","S&J Industrial Supplies","19/41","30224",33.211404347942434,-84.28815359546148
"30228","Hampton","GA","The Home Depot","1750 Jonesboro Rd","30253",33.4659743,-84.2133113
"30228","Hampton","GA","The Home Depot","11075 Tara Boulevard","30250",33.4524171,-84.3276364
"30228","Hampton","GA","Atlas Roofing Supply","75 Pine View Dr","30228",33.407717,-84.29162099999999
"30228","Hampton","GA","Berry Good Heating-Air-Plumbing","394 Tara Beach Ln","30238",33.469308000000005,-84.379362
"30228","Hampton","GA","minuteKEY","11465 Tara Blvd.","30250",33.442527770996094,-84.32561492919922
"30228","Hampton","GA","Tool spot","Bear Creek Blvd","30228",33.36369335596368,-84.29639830083059
"30233","Jackson","GA","Tractor Supply Co.","1565 Hwy 81 East","30252",33.429656,-84.1017
"30233","Jackson","GA","Ace Hdwe of McDonough","1750 Hwy 81 E","30252",33.4286,-84.095399
"30233","Jackson","GA","Jones Hometown Hardware","1083 E 3rd St","30233",33.294479,-83.94914
"30233","Jackson","GA","Husqvarna US","110 Stark Rd","30233",33.30315399169922,-83.95964050292969
"30233","Jackson","GA","minuteKEY","10050 GLENWOOD AVE","30248",33.2781279,-84.0592572
"30233","Jackson","GA","Georgia Garage Door Store","6965 Georgia 42 #105","not_available",33.332518256585395,-84.08193111419678
"30233","Jackson","GA","Moore's Electric","not_available","30233",33.30317920021234,-83.95486207712032
"30233","Jackson","GA","Jackson True Value Hardware","124 N Mulberry St","30233",33.29547882080078,-83.96634674072266
"30236","Jonesboro","GA","Lowe's","3505 Mt Zion Road","30281",33.5499313,-84.2790328
"30236","Jonesboro","GA","The Home Depot","2034 Mt Zion Rd","30260",33.5643198,-84.3228264
"30236","Jonesboro","GA","Campbells Equipment - Morrow","not_available","30297",33.59104383871467,-84.36391131205302
"30236","Jonesboro","GA","Crane Hardware","949-961 Dixie Dr","30236",33.536522,-84.360109
"30236","Jonesboro","GA","Campbell's Lawn Equipment","810 Morrow Rd","30297",33.591157,-84.36416700000001
"30236","Jonesboro","GA","Sears","1915 Mount Zion Road","30260",33.5663441,-84.3286512
"30236","Jonesboro","GA","Tal-Kno Buikding Products","not_available","30260",33.570061671202076,-84.35645646073523
"30236","Jonesboro","GA","Garage Door Repair Jonesboro","801 Flint River Rd #178","30238",33.51799833234084,-84.36579465866089
"30236","Jonesboro","GA","TrueValue Company","7600 Jonesboro Rd","30236",33.546448999999996,-84.346334
"30236","Jonesboro","GA","minuteKEY","3505 Mount Zion Rd","30281",33.549678802490234,-84.27965545654297
"30236","Jonesboro","GA","minuteKEY","5600 N Henry Blvd","30281",33.553132,-84.256203
"30240","Lagrange","GA","Shorewood Industries","1712 Shorewood Drive","30240",33.003876,-85.061522
"30240","Lagrange","GA","Triad Outdoor","2479 West Point Rd","30240",33.018576,-85.08553583
"30240","Lagrange","GA","Lagrange farm supply","not_available","30241",33.03858800057335,-85.03408678043192
"30240","Lagrange","GA","DH&A Shop","not_available","30217",33.047355500415755,-85.0436154845811
"30240","Lagrange","GA","Builder's Station","1902 Roanoke Rd","30240",33.032981872558594,-85.07000732421875
"30240","Lagrange","GA","Jake's Shop","not_available","30240",33.042572021484375,-85.09955596923828
"30240","Lagrange","GA","minuteKEY","955 Lafayette Pkwy","30241",33.04031753540039,-85.01211547851562
"30240","Lagrange","GA","Sherwin-Williams Paint Store","408 New Franklin Rd","30240",33.049716585786754,-85.02825736999512
"30241","Lagrange","GA","The Home Depot","1500 Layfayette Pkwy","30241",33.040092,-84.981225
"30241","Lagrange","GA","West Georgia Supply","3468 Hogansville Rd","30241",33.05755615234375,-84.97411346435547
"30241","Lagrange","GA","RE MICHEL CO.","101 corporate park s. court","30241",33.04192043011808,-84.9839150922269
"30241","Lagrange","GA","Tractor Supply Co.","100 Plantation Way","30241",33.03982485384577,-84.98270311791336
"30241","Lagrange","GA","City Electric Supply La Grange","110 Corporate Park East Ct","30241",33.0360759,-84.9853544
"30248","Locust Grove","GA","Central Feed And Seed","not_available","30248",33.386985778808594,-84.14510345458984
"30248","Locust Grove","GA","City Electric Supply Mcdonough","116 Industrial Blvd","30253",33.414875924281475,-84.1590929730001
"30248","Locust Grove","GA","World Electric","317 Westridge Pkwy","30253",33.408301882108326,-84.18894052505493
"30248","Locust Grove","GA","Hagemeyer","not_available","30253",33.408311,-84.189304
"30248","Locust Grove","GA","Mason Tractor Co","McDonough Pkwy","30253",33.418654,-84.168287
"30251","Luthersville","GA","Smith Hardware","25 S Main St","30251",33.21063174724771,-84.74436163902283
"30252","Mcdonough","GA","Newton Electric Supply","1769 S Zack Hinton Pkwy","30253",33.4271777,-84.14322623333334
"30252","Mcdonough","GA","PDI-Plumbing Distributors Inc.","290 Racetrack Rd","30252",33.43092132750575,-84.13857950619854
"30252","Mcdonough","GA","Ace Hardware","hwy 81","30252",33.46008913908212,-84.09128934853527
"30253","Mcdonough","GA","Lowe's","101 Willow Lane","30253",33.431909,-84.180762
"30253","Mcdonough","GA","Sears","1563 Highway 20 W","30253",33.420225,-84.188462
"30253","Mcdonough","GA","Campbell's Lawn Equipment","2012 Highway 42 N","30253",33.49737394347676,-84.18052427029613
"30253","Mcdonough","GA","H D Supply","338-354 McDonough Pkwy","30253",33.43934805,-84.16628918333333
"30253","Mcdonough","GA","Flippen True Value Hardware","3690 Jodeco Rd","30253",33.48316957725504,-84.19407590246514
"30253","Mcdonough","GA","minuteKEY","135 Willow Ln","30253",33.432142,-84.184915
"30253","Mcdonough","GA","U Can Install, Inc.","205 McDonough Pkwy","30253",33.438997932367556,-84.16683912277222
"30253","Mcdonough","GA","Fastenal","378 McDonough Pkwy","30253",33.44025211820015,-84.16710161370104
"30253","Mcdonough","GA","Garage Door Repair McDonough","3107 Jodeco Rd","30253",33.48215818898422,-84.2123293876648
"30253","Mcdonough","GA","Sherwin-Williams Paint Store","466 Industrial Blvd","30253",33.42050133149014,-84.16947612707196
"30253","Mcdonough","GA","Shelby Plumbing And Construction","not_available","30281",33.51214825910938,-84.23447370529175
"30253","Mcdonough","GA","minuteKEY","101 Willow Ln","30253",33.4325084,-84.1803173
"30253","Mcdonough","GA","Sherwin-Williams Paint Store","1490 Jonesboro Rd","30253",33.462273,-84.205231
"30253","Mcdonough","GA","Foundation Building Materials","900 Dailey Mill Road","30253",33.47928207,-84.18265977
"30256","Meansville","GA","Pike Depot Ace Hardware","6325 Highway 19 S","30295",33.060878,-84.344849
"30260","Morrow","GA","A & A Safe and Lock","5025 Courtney Dr","30297",33.616161,-84.35027600000001
"30260","Morrow","GA","Utility Trailer","not_available","30294",33.62090153697567,-84.30433351844117
"30260","Morrow","GA","Ornamental Security","1716 Forest Pkwy","30260",33.610988,-84.333861
"30260","Morrow","GA","Fox Appliance Parts","5375 N Parkway","30260",33.60877572904339,-84.33245276352868
"30263","Newnan","GA","The Home Depot","1100 Bullsboro Dr","30265",33.4015528,-84.741275
"30263","Newnan","GA","Lowe's","955 Bullsboro Dr","30265",33.3936606,-84.7464741
"30263","Newnan","GA","Sherwin-Williams Paint Store","16 W Washington St","30263",33.374976000000004,-84.801701
"30263","Newnan","GA","Arnall Grocery Company","not_available","30263",33.37507696666667,-84.79683206666667
"30263","Newnan","GA","Coweta Equipment Rental","453 Millard Farmer Industrial Blvd","30263",33.398303000000006,-84.79423100000001
"30263","Newnan","GA","minuteKEY","955 Highway 34 E","30265",33.393959045410156,-84.74745178222656
"30263","Newnan","GA","Sherwin-Williams Paint Store","5 Baynard Dr","30265",33.402271999999996,-84.722038
"30263","Newnan","GA","Barnett & Cheeves","1189 Highway 16 E","30263",33.335533142089844,-84.74333190917969
"30263","Newnan","GA","Truck Rental Center at the Home Depot","1100 Highway 34 E","30265",33.3997,-84.744337
"30263","Newnan","GA","Ace Hardware","77 Turkey Creek Rd","30263",33.3624211466241,-84.7763120297713
"30263","Newnan","GA","MPS @ YAMAHA","not_available","30265",33.40294647216797,-84.73326873779297
"30265","Newnan","GA","Tractor Supply Co.","90 Marketplace Dr","30265",33.410343,-84.688989
"30265","Newnan","GA","Capitol Materials Inc","30 Weldon Road","30268",33.49720516,-84.67229364
"30268","Palmetto","GA","Jack Peek Sales","576 Main St","30268",33.51827,-84.669451
"30268","Palmetto","GA","Dillard Brothers Saw & Mower Sales & Service","254 Fayetteville Rd","30268",33.51620343333333,-84.65934611666667
"30269","Peachtree City","GA","The Home Depot","2715 Hwy 54 W","30269",33.3990873,-84.5987059
"30269","Peachtree City","GA","Georgia Mason Supply","not_available","30290",33.44442677766646,-84.61012204757746
"30269","Peachtree City","GA","Gil-Roy's Got It","467 Highway 74 S","30269",33.37670027843026,-84.57404253118428
"30269","Peachtree City","GA","City Electric Supply Peachtree City","321 Senoia Rd Ste A","30269",33.43902803066203,-84.60638773595508
"30269","Peachtree City","GA","Peachtree City Computer Repair - R K Technology Inc","1029 N Peachtree Pkwy Ste 113","30269",33.44061279296875,-84.5897216796875
"30269","Peachtree City","GA","Bulldog Supply","400-402 Huddleston Rd","30269",33.39102625,-84.58946695
"30269","Peachtree City","GA","Fastenal","not_available","30269",33.381361,-84.580462
"30269","Peachtree City","GA","Garage Door Repair Peachtree City","1227 N Peachtree Pkwy","30269",33.440818786621094,-84.59062194824219
"30269","Peachtree City","GA","Sherwin-Williams Paint Store","423 Highway 74 N","30269",33.41573416064315,-84.6025502738862
"30269","Peachtree City","GA","MetalForming, Inc.","100 International Dr","30269",33.369273,-84.578079
"30274","Riverdale","GA","The Home Depot","680 Lamar Hutcheson Pkwy","30274",33.5590782,-84.4111328
"30276","Senoia","GA","Hometown Hardware","not_available","30276",33.292252,-84.574864
"30276","Senoia","GA","Mow Better Small Engine Repair","44 Chestlehurst Rd","30276",33.291994,-84.541136
"30277","Sharpsburg","GA","Complete Hardware","870 Senoia Rd","30290",33.47447967529297,-84.59718322753906
"30277","Sharpsburg","GA","Complete Hardware","870 Castlewood Rd","30290",33.474284,-84.597632
"30281","Stockbridge","GA","The Home Depot","65 Fairview Road","30294",33.6201269,-84.2329045
"30281","Stockbridge","GA","Garage Door Repair Stockbridge","6105 Highway 155 N","30281",33.611228942871094,-84.16581726074219
"30281","Stockbridge","GA","Butler Fastners & Supply","694 Red Oak Rd","30281",33.52735,-84.229119
"30281","Stockbridge","GA","minuteKEY","2940 Anvil Block Rd","30294",33.63634490966797,-84.29299926757812
"30281","Stockbridge","GA","Sherwin-Williams Paint Store","4518 N Henry Blvd","30281",33.544751,-84.227475
"30286","Thomaston","GA","The Home Depot","1025 Hwy 19 North","30286",32.92195210379697,-84.33704137802124
"30286","Thomaston","GA","Tractor Supply Co.","1075 Hwy 19 North","30286",32.9245491027832,-84.33404541015625
"30286","Thomaston","GA","minuteKEY","855 N Church St","30286",32.9125666,-84.3338502
"30286","Thomaston","GA","Sherwin-Williams Paint Store","113 E County Rd","30286",32.92613975305951,-84.3327283859253
"30288","Conley","GA","Southern True Value Hardware","3686 Moreland Ave","30288",33.648726,-84.329487
"30288","Conley","GA","Air Compressor Sales of Atlanta, Inc","not_available","30288",33.6539236461495,-84.32759341162044
"30288","Conley","GA","Sunstate Equipment","4460 Moreland Avenue","30288",33.63285,-84.31504
"30297","Forest Park","GA","Lee's Tire Co","Hwy 85","30297",33.61084254883012,-84.402705469264
"30297","Forest Park","GA","Fastenal","Clark Howell","not_available",33.62518150263181,-84.40929264998611
"30297","Forest Park","GA","Dealers Supply Company INC","82 Kennedy Dr","30297",33.608401,-84.392224
"30297","Forest Park","GA","O2 Plus","4262 Old Dixie Rd","30354",33.638564,-84.38985
"30297","Forest Park","GA","R E Michael","5000-5072 Old Kennedy Rd","30297",33.61808231301907,-84.39094148850764
"30297","Forest Park","GA","HD Supply White Cap","475 Plaza Drive","30349",33.62097031,-84.40513038
"30297","Forest Park","GA","DBS Manufacturing, Incorporated","45 Southwoods Pkwy","30354",33.643464,-84.387816
"30297","Forest Park","GA","City Electric Supply Atlanta Airport","4820 Clark Howell Hwy Ste A3","30349",33.6239042,-84.4083326
"30303","Atlanta","GA","We Local Locksmith","103 Peachtree St SW","30303",33.751926,-84.392725
"30303","Atlanta","GA","Concrete Countertops Atlanta Pros","191 Peachtree St NE","30303",33.75886615459021,-84.38738107681274
"30305","Atlanta","GA","The Home Depot","2525 Piedmont Rd NE","30324",33.82417416859578,-84.36520993709564
"30305","Atlanta","GA","Ace Hardware","2365 Peachtree Rd NE","30305",33.820999,-84.386683
"30305","Atlanta","GA","Gentry Ironworks LLC","3098 Roswell Rd NW","30305",33.84018325805664,-84.37998962402344
"30305","Atlanta","GA","Carolina Lumber and Supply Com","504 Plasters Ave NE","30324",33.812652587890625,-84.37100219726562
"30305","Atlanta","GA","KOHLER Signature Store - Atlanta","3167 Peachtree Rd NE","30305",33.84031295776367,-84.37588500976562
"30305","Atlanta","GA","Porter Paints","3872 Roswell Rd NE","30342",33.86104791,-84.3814174
"30305","Atlanta","GA","Northside Tool Rental","35 Irby Ave NW","30305",33.841515,-84.380126
"30305","Atlanta","GA","Atlanta Emergency Locksmith Pros","3475 Lenox Rd NE","30326",33.84932327270508,-84.3603744506836
"30305","Atlanta","GA","Elite Overhead Garage Doors","2050 Liddell Dr NE","30324",33.810371,-84.361508
"30305","Atlanta","GA","Phill locksmith Atlanta","3535 Peachtree Rd NE","30326",33.85238354253209,-84.36051607131958
"30305","Atlanta","GA","Sherwin-Williams Paint Store","3193 Roswell Rd NE","30305",33.84029,-84.380728
"30305","Atlanta","GA","The Restoration Store","250 Pharr Rd NE","30305",33.83732986450195,-84.37860870361328
"30305","Atlanta","GA","Quality Data Products","3333 Piedmont Rd NE Ste 2050","30305",33.84493442791068,-84.37184572219849
"30305","Atlanta","GA","Ferguson Bath, Kitchen & Lighting Gallery","3069 Bolling Way Ne","30305",33.83939743041992,-84.37835693359375
"30306","Atlanta","GA","The Home Depot","650 Ponce De Leon","30308",33.7768752,-84.3664093
"30306","Atlanta","GA","Intown Ace Hardware","854 N Highland Ave NE","30306",33.7774,-84.3523
"30306","Atlanta","GA","Highland Woodworking","1045 N Highland Ave NE","30306",33.78318457978363,-84.35426092007522
"30306","Atlanta","GA","911 Emergency Atlanta Locksmith","1579 Monroe Dr NE","30324",33.797908782958984,-84.36917877197266
"30306","Atlanta","GA","City Electric Supply","2725 Mountain Ind Blvd","30084",33.773968098692336,-84.34811227707993
"30306","Atlanta","GA","Northside Tool Rental","1885 Piedmont Ave NE","30324",33.80711364746094,-84.36572265625
"30306","Atlanta","GA","Custom Steel","828 Ralph McGill Blvd NE Apt 204","30306",33.76818084716797,-84.36052703857422
"30306","Atlanta","GA","Sherwin-Williams Paint Store","1786 Briarcliff Rd NE","30306",33.805146,-84.337776
"30307","Atlanta","GA","Lowe's","1280 Caroline Street NE","30307",33.7593503,-84.3466075
"30307","Atlanta","GA","Sherwin-Williams Paint Store","299 Moreland Ave NE","30307",33.762204316761085,-84.34878677129745
"30307","Atlanta","GA","minuteKEY","1280 Caroline St NE","30307",33.7595100402832,-84.34647369384766
"30307","Atlanta","GA","K&R Supplies LLC","245 N Highland Ave NE Ste 230-295","30307",33.76352215260586,-84.35688972473145
"30308","Atlanta","GA","Shep's Midtown Ace","860 Juniper St NE","30308",33.7780959,-84.382785
"30308","Atlanta","GA","Sherwin-Williams Paint Store","455 North Ave NE","30308",33.77056810533602,-84.37231242656708
"30309","Atlanta","GA","Simply Cool Misting Systems","433 Bishop St NW Ste B1","30318",33.7935226,-84.4021673
"30309","Atlanta","GA","White Cap","171 Armour Dr NE, Atlanta, GA 30324","30324",33.808801,-84.383107
"30309","Atlanta","GA","ACK Electronics","554 Deering Rd NW","30309",33.795840000000005,-84.406447
"30309","Atlanta","GA","HD Supply White Cap","170 Ottley Drive Northeast","30324",33.808196,-84.38274799999999
"30309","Atlanta","GA","Cowan Supply","485 Bishop St NW","30318",33.793172,-84.4039
"30309","Atlanta","GA","Garage Door Repair Atlanta","541 10th St NW","30318",33.781898,-84.405062
"30309","Atlanta","GA","Capitol Materials Inc.","464 Bishop St NW","30318",33.79338,-84.402969
"30310","Atlanta","GA","West End Ace Hardware","964 Ralph David Abernathy Blvd SW","30310",33.73776,-84.41925
"30310","Atlanta","GA","Locksmith","not_available","30310",33.73944854736328,-84.41436004638672
"30310","Atlanta","GA","P & E Mirror and Glass LLC","2790 Lakewood AVE SW Suite C","30315",33.6968624,-84.4097879
"30311","Atlanta","GA","minuteKEY","3030 Headland Dr SW","30311",33.688359,-84.4877589
"30311","Atlanta","GA","KS & B Cabinet Mart","2625 Martin Luther King Jr Dr SW","30311",33.754061,-84.47352099999999
"30312","Atlanta","GA","Shep's Grant Park Ace Hardware","519 Memorial Dr SE, Ste A1","30312",33.746152,-84.370818
"30312","Atlanta","GA","Advanced Direct Security, an Authorized ADT Company","563 Memorial Dr SE Unit Cu-A","30312",33.74637985229492,-84.36927032470703
"30312","Atlanta","GA","Confederate Ave State Complex (FMS Shop)","932 Sloan Cir SE","30316",33.718503000000005,-84.358246
"30312","Atlanta","GA","McCullough Electric Motor Service","521 Edgewood Ave SE","30312",33.7541,-84.370406
"30312","Atlanta","GA","In The Garage","not_available","30312",33.724768,-84.368271
"30314","Atlanta","GA","minuteKEY","825 Martin Luther King Jr Dr NW","30314",33.755313873291016,-84.41295623779297
"30315","Atlanta","GA","minuteKEY","2685 Metropolitan Pkwy SW","30315",33.6819826,-84.4090706
"30315","Atlanta","GA","minuteKEY","844 Cleveland Ave","30344",33.67831802368164,-84.4163589477539
"30315","Atlanta","GA","Defoor Drywall Supply","940 S River Industrial Blvd SE","30315",33.683849,-84.359441
"30316","Atlanta","GA","Sherwin-Williams Paint Store","1966 Hosea L Williams Dr NE","30317",33.75221,-84.323391
"30316","Atlanta","GA","Ferguson's Plumbing Supply","not_available","30316",33.746919195530644,-84.35156819588016
"30316","Atlanta","GA","Ferguson Plumbing Supply","1105 Memorial Dr Se","30316",33.746438,-84.351176
"30318","Atlanta","GA","Bates Ace Hardware","1709 Howell Mill Rd NW","30318",33.8009429,-84.415004
"30318","Atlanta","GA","Benjamin Moore Paints","1108 Chattahoochee Ave NW","30318",33.799926,-84.42388299999999
"30318","Atlanta","GA","Lee Lighting","650 14th St NW","30318",33.78565979003906,-84.40853118896484
"30318","Atlanta","GA","Atlanta Supply Co.","1333 Logan Cir NW","30318",33.805642,-84.43150200000001
"30318","Atlanta","GA","City Electric Supply Midtown Atlanta","1450 Northside Dr NW","30318",33.793406,-84.40854499999999
"30318","Atlanta","GA","Hilti","1050 Marietta St NW","30318",33.779519,-84.412307
"30318","Atlanta","GA","Fastenal","not_available","30318",33.77929406989745,-84.4120268314163
"30318","Atlanta","GA","Capitol Materials Inc","1350 Marietta Boulevard Northwest","30318",33.7898546,-84.42991599999999
"30318","Atlanta","GA","Mingledorff's Distributors","1290 Tacoma Dr NW","30318",33.793924,-84.429952
"30318","Atlanta","GA","Light bulb depot","1611 Ellsworth ind blvd ste A3","not_available",33.79833221435547,-84.42583465576172
"30318","Atlanta","GA","Sherwin-Williams Paint Store","671 10th St NW","30318",33.781895,-84.409531
"30318","Atlanta","GA","La piedra","1531 Howell Mill Rd NW","30318",33.797340393066406,-84.41584014892578
"30318","Atlanta","GA","Ewing Irrigation","1465 Howell Mill Rd NW","30318",33.79505720197479,-84.41454783082008
"30318","Atlanta","GA","Vintage Bricks","2041 Bolton Rd NW","30318",33.811215999999995,-84.474786
"30318","Atlanta","GA","Heely-Brown Company","1280 Chattahoochee Ave NW","30318",33.800026913027715,-84.42972788080168
"30318","Atlanta","GA","Sherwin-Williams Paint Store","1806 Plymouth Rd NW","30318",33.804884,-84.438144
"30318","Atlanta","GA","Sherwin-Williams Paint Store","1943 Howell Mill Rd NW","30318",33.80753464573716,-84.41236538912102
"30318","Atlanta","GA","Grainger 052","1721 Marietta Blvd NW","30318",33.801583,-84.43503199999999
"30318","Atlanta","GA","Anchor Products","1075 Chattahoochee Ave NW","30318",33.801719,-84.423129
"30319","Atlanta","GA","Lowe's","4950 Peachtree Industrial Blvd","30341",33.8854931,-84.3177828
"30319","Atlanta","GA","General Hardware","4218 Peachtree Rd NE","30319",33.8657929,-84.336725
"30319","Atlanta","GA","A-1 Affordable Plumbing Repair Service","1425 Brawley Cir NE","30319",33.9195442199707,-84.32451629638672
"30319","Atlanta","GA","Compass Equipment","1073 Pine Grove Ave NE","30319",33.8524793,-84.3451877
"30319","Atlanta","GA","E H Sheldon Inc","3065 Dickson St NE","30319",33.87896695070692,-84.34027075767517
"30319","Atlanta","GA","Speedy Locksmith Atlanta GA","3003 Summit Blvd","30319",33.91402816772461,-84.34276580810547
"30319","Atlanta","GA","Mr. Locksmith Solutions","3006 Clairmont Rd NE","30329",33.84519958496094,-84.31568908691406
"30319","Atlanta","GA","minuteKEY","4950 PEACHTREE INDUSTRIAL BLVD.","30341",33.8842852,-84.3165263
"30324","Atlanta","GA","Ace Hardware - La Vista","2301 Cheshire Bridge Rd NE","30324",33.817911,-84.35172379016876
"30324","Atlanta","GA","Buckhead-Midtown Vacuum, Inc.","2000 Cheshire Bridge Rd NE Ste A","30324",33.811566,-84.357463
"30324","Atlanta","GA","Shoe Repair","2181 - A Briarcliff Rd NE","30329",33.81696650925073,-84.33457774245032
"30324","Atlanta","GA","On The Way Locksmith Atlanta","2484 Briarcliff Rd NE","30329",33.8259391784668,-84.33364868164062
"30324","Atlanta","GA","Distinctive Appliances","2000 Cheshire Bridge Rd NE Ste B","30324",33.811566,-84.357463
"30327","Atlanta","GA","West Paces Smith Ace Hardware","3519 Northside Parkway NW","30327",33.8492999,-84.4287
"30327","Atlanta","GA","minuteKEY","3300 Cobb Pkwy SE","30339",33.87226867675781,-84.45773315429688
"30328","Atlanta","GA","The Home Depot","6400 Peachtree Dunwoody Rd","30328",33.9294714,-84.3552444
"30328","Atlanta","GA","Lowe's","5925 Roswell Rd","30328",33.9171928,-84.3775724
"30328","Atlanta","GA","C & C Lawnmower","6315 Roswell Rd","30328",33.927135,-84.378247
"30328","Atlanta","GA","Hammer Time Ace Hardware","6348 Roswell Rd","30328",33.927490234375,-84.38001251220703
"30328","Atlanta","GA","Best Locksmith Atlanta GA","5825 Glenridge Dr","30328",33.91357354880535,-84.36212539672852
"30328","Atlanta","GA","Garage Door Repair Sandy Springs","860 Johnson Ferry Rd #430","30342",33.9074120017632,-84.3595290184021
"30328","Atlanta","GA","The Real Sandy Springs Locksmith","155 Hammond Dr Ste A","30328",33.918914794921875,-84.3796615600586
"30328","Atlanta","GA","Sherwin-Williams Paint Store","6430 Roswell Rd","30328",33.93078256210672,-84.38013911247252
"30328","Atlanta","GA","Rockler","6229-6269 Roswell Road","30328",33.925311,-84.37853
"30328","Atlanta","GA","Northside Tool Rental","6170 Roswell Rd","30328",33.923582,-84.379473
"30328","Atlanta","GA","Dr. Locksmith Atlanta GA","1200 Abernathy Rd","30328",33.93330174826292,-84.35489416122437
"30329","Atlanta","GA","Sherwin-Williams Paint Store","2460 N Druid Hills Rd NE","30329",33.82677226196727,-84.32429552078247
"30331","Atlanta","GA","The Home Depot","1032 Research Center Atlanta Dr SW","30331",33.7273074,-84.5043777
"30331","Atlanta","GA","Ferguson Fire & Fabrication","600 Great Sw Parkway","30336",33.74299,-84.56944399999999
"30331","Atlanta","GA","minuteKEY","1105 Research Center Atlanta Dr SW","30331",33.72868347167969,-84.50751495361328
"30336","Atlanta","GA","Colliflower","not_available","30336",33.76968560851258,-84.52533946038305
"30336","Atlanta","GA","Gulf Atlantic Packaging","1100 Westlake Pkwy SW Ste 140","30336",33.7129558,-84.57781179999999
"30337","Atlanta","GA","300 Tool Room","1775 C W Grant Pkwy","30337",33.64177655361064,-84.41728964427372
"30337","Atlanta","GA","Grainger Airport Branch","not_available","30337",33.64416864437079,-84.44720074634643
"30338","Atlanta","GA","Workbench Ace Hardware","1316 Dunwoody Village Pky","30338",33.950301,-84.334614
"30338","Atlanta","GA","Harbor Freight Tools","4776 Ashford Dunwoody Rd Ste A","30338",33.93479618304543,-84.33846957855337
"30338","Atlanta","GA","Humphries concrete products","not_available","30360",33.92732620239258,-84.28309631347656
"30338","Atlanta","GA","Sherwin-Williams Paint Store","1300 Dunwoody Village Pkwy","30338",33.95069885253906,-84.3353500366211
"30338","Atlanta","GA","Belgard","400 Perimeter Center Terrace, Suite 1000","30346",33.92908,-84.3385
"30338","Atlanta","GA","Sherwin-Williams Paint Store","4490 Chamblee Dunwoody Rd","30338",33.92196037235628,-84.3162488937378
"30338","Atlanta","GA","Hero Garage Door","4306 N Shallowford Rd","30341",33.9181641351816,-84.3042094234544
"30338","Atlanta","GA","Hero Garage Door","4306 N Shallowford Rd, 2109","30341",33.9181641351816,-84.3042094234544
"30340","Atlanta","GA","The Home Depot","4343 Tilly Mill Rd","30360",33.92114799057961,-84.27892059087753
"30340","Atlanta","GA","Home Center Outlet","4363 Northeast Expy","30340",33.897890698892525,-84.24734131848598
"30340","Atlanta","GA","J's Kitchen Culinary Incubator","3996 Pleasantdale Rd Ste 203","30340",33.89943338318056,-84.24322843551636
"30340","Atlanta","GA","fox appliances","2910","30360",33.906702,-84.27647200000001
"30340","Atlanta","GA","Howard Brothers","6884 Buford Highway","30340",33.9246548,-84.2492755
"30340","Atlanta","GA","MSC Industrial","4025 Pleasantdale Rd","30340",33.90034,-84.242882
"30340","Atlanta","GA","World Electric","2375 Button Gwinnett Dr","30340",33.91680908203125,-84.23872375488281
"30340","Atlanta","GA","City Electric Supply Doraville","4311 Northeast Expy","30340",33.8974847,-84.2487848
"30340","Atlanta","GA","Ferguson HVAC Supply","2375 Button Gwinnett Dr Ste 400","30340",33.91680908203125,-84.23872375488281
"30340","Atlanta","GA","Locksmith Around The Clock Doraville GA","5725 Buford Hwy NE","30340",33.906681060791016,-84.26812744140625
"30340","Atlanta","GA","Champion Windows and Home Exteriors of Atlanta","3700 Dekalb Technology Pkwy","30340",33.8850494,-84.2698534
"30340","Atlanta","GA","Hagermayer","6555 Best Friend Rd","30071",33.91529331653562,-84.2292971876712
"30340","Atlanta","GA","Apex Supply","6515 McDonough Dr","30093",33.905458,-84.219291
"30340","Atlanta","GA","Vallen","6550 Best Friend Rd","30071",33.915409088134766,-84.22868347167969
"30340","Atlanta","GA","Hertz Equipment Rental","6664 Dawson Blvd","30093",33.907615,-84.228859
"30340","Atlanta","GA","DeVore & Johnson","7585 Ponce de Leon Cir","30340",33.908523,-84.23996819999999
"30341","Atlanta","GA","Sherwin-Williams Paint Store","5517 Peachtree Industrial Blvd","30341",33.89787438384756,-84.30187259855114
"30341","Atlanta","GA","Chamblee Ace Hardware","5446 Peachtree Blvd","30341",33.899391174316406,-84.30278015136719
"30341","Atlanta","GA","Sunrise Locksmith Pros Atlanta GA","4166 Buford Hwy NE","30345",33.86277201234401,-84.30646419525146
"30341","Atlanta","GA","Morrison Supply Company","not_available","30341",33.896345,-84.293344
"30341","Atlanta","GA","Georgia Chain Saw Co.","5485 Peachtree Rd","30341",33.89437512220884,-84.29807424545288
"30341","Atlanta","GA","Southern Roof Center","not_available","30340",33.911233,-84.241179
"30341","Atlanta","GA","Zurn Plumbing Service","3724 N Peachtree Rd","30341",33.90093108,-84.29454026
"30342","Atlanta","GA","Ace Hardware","4365 Roswell Rd NE","30342",33.8736749,-84.38002
"30342","Atlanta","GA","Pcrows Phallus Palace","not_available","30342",33.88824217877013,-84.38014106440657
"30342","Atlanta","GA","Bonacori Custom Homes of Georgia","26 Jefferson Hill Pl NE","30342",33.870489,-84.38274399999999
"30344","Atlanta","GA","East Point Ace Hardware","2891 Church St","30344",33.676499,-84.444883
"30344","Atlanta","GA","Sherwin-Williams Paint Store","1792 Washington Ave","30344",33.675408000000004,-84.447261
"30354","Atlanta","GA","The Home Depot","3885 Jonesboro Rd SE","30354",33.648495,-84.3678754
"30354","Atlanta","GA","Northside Material Brokers","not_available","30354",33.662738,-84.38700899999999
"30360","Atlanta","GA","Pirtek Usa Norcross","2600 Pleasantdale Road, Suite 1","30340",33.9212942,-84.2478825
"30360","Atlanta","GA","HGH Hardware Supply","2679 Peachtree Square","30360-2632",33.92363,-84.277765
"30401","Swainsboro","GA","T&T Supply","not_available","30401",32.58698654174805,-82.31732940673828
"30401","Swainsboro","GA","Swainsboro Supply","360 E Main St","30401",32.5986213684082,-82.32640075683594
"30411","Alamo","GA","Ace Hardware","1100 E Oak St","31055",32.06094930173044,-82.88154592157213
"30411","Alamo","GA","Lumber City Hardware","208 S Third Ave","31055",32.05722733,-82.90566717
"30411","Alamo","GA","City Electric Supply","315 West Osiglan Blvd","31088",32.1574351,-82.907123
"30412","Alston","GA","Husqvarna US","PO Box 127","30412",32.08051681518555,-82.47962188720703
"30415","Brooklet","GA","Lowe's","24065 US Highway 80 E","30461",32.430724,-81.755078
"30415","Brooklet","GA","Truflame Gas Co","not_available","30461",32.425678,-81.735747
"30415","Brooklet","GA","McKeithen True Value Hardware","58 Independence Way","30458",32.3919787871823,-81.7122634124863
"30415","Brooklet","GA","minuteKEY","802 US HWY 80 EAST","30458",32.4338855,-81.7557618
"30415","Brooklet","GA","Harbor Freight Statesboro","not_available","30458",32.433581,-81.754814
"30415","Brooklet","GA","D & H Truck & Tractor, Inc.","9258 Burkhalter Rd","30461",32.4175597,-81.71183529999999
"30421","Collins","GA","Ace Hardware","223 W Brazell St","30453",32.0846999,-82.1157
"30425","Garfield","GA","Hardware Headquarters","521 S Railroad Ave","30471",32.579082,-82.162338
"30434","Louisville","GA","Ace Hardware","500 US 1 Bypass","30434",33.016342,-82.383616
"30436","Lyons","GA","Tractor Supply Co.","2305 East 1st St Ste 1","30474",32.20636384611538,-82.38256781349182
"30436","Lyons","GA","Sherwin-Williams Paint Store","3105 E 1st St","30474",32.20450395491862,-82.36193776130676
"30436","Lyons","GA","minuteKEY","3109 E 1st St","30474",32.202201,-82.362163
"30436","Lyons","GA","Andy'S Home Center","110 SE Broad St","30436",32.20436783793977,-82.3215153714612
"30436","Lyons","GA","Handy Andy Home Warehouse","1200 E 1st St","30474",32.211843,-82.399674
"30436","Lyons","GA","Lowe's","3209 East First Street","30474",32.2032765,-82.3580757
"30439","Metter","GA","Trading Post Pawn","not_available","30439",32.379552712104086,-82.06036421603238
"30439","Metter","GA","Trapnell Tomlinson","212 E Broad Street","30439",32.39822006225586,-82.06178283691406
"30442","Millen","GA","Rocker Supply","517 US Highway 25 N","30442",32.8260999,-81.947599
"30456","Sardis","GA","Natural Stone Supply","122 Ski Pond Rd","30467",32.9310084667684,-81.7086712787557
"30457","Soperton","GA","Dennard True Value Hardware","794 Second St","30457",32.38414589,-82.58580679
"30458","Statesboro","GA","Peacock Paint","375 Northside Drive","not_available",32.423527,-81.774143
"30458","Statesboro","GA","City Electric Supply Statesboro Ga","413 Page Place Rd","30458",32.424861,-81.810196
"30458","Statesboro","GA","Claxton Hardware","not_available","31321",32.416400669786654,-81.79965148726204
"30458","Statesboro","GA","W A Bragg & Co","401 S Main St","30458",32.439178466796875,-81.7843017578125
"30458","Statesboro","GA","Tractor Supply Co.","438 Northside Dr East","30458",32.439514,-81.761697
"30458","Statesboro","GA","Howard Lumber and Hardware Statesboro","600 Gentilly Rd","30458",32.43285369873047,-81.7720947265625
"30458","Statesboro","GA","Sears","325 Northside Drive East, Suite #36","30458",32.435897,-81.762411
"30458","Statesboro","GA","Nevils Hardware","8409 Nevils Groveland Rd","30458",32.26897048950195,-81.76049041748047
"30458","Statesboro","GA","MCKEITHEN TRUE VALUE HARDWARE","814 SOUTH MAIN STREET","30458",32.42212677001953,-81.7928695678711
"30458","Statesboro","GA","Eagle Wholesale","504 Northside Dr W","30458",32.459228515625,-81.79027557373047
"30458","Statesboro","GA","Sherwin-Williams Paint Store","1817 Northside Dr E","30458",32.45466613769531,-81.77629852294922
"30467","Sylvania","GA","Possum Eddy Ace Hardware","136 Industrial Rd","30467",32.755966,-81.645032
"30467","Sylvania","GA","Wommacks","not_available","30467",32.75508680345742,-81.65139090688479
"30467","Sylvania","GA","Curtis Lumber & Manufacturing Inc.","Frontage Rd","30467",32.759851,-81.649561
"30474","Vidalia","GA","Vidalia Farm Center","not_available","30410",32.22327082181704,-82.41972382043103
"30501","Gainesville","GA","The Home Depot","924 Dawsonville Hwy","30501",34.3003735,-83.8553847
"30501","Gainesville","GA","Lowe's","1514 Skelton Road","30504",34.290501,-83.8489393
"30501","Gainesville","GA","Fox Appliance Parts","801 Industrial Blvd SW","30501",34.28477096557617,-83.8263168334961
"30501","Gainesville","GA","Chase's Hardware","3540 Thompson Bridge Rd","30506",34.36827,-83.867162
"30501","Gainesville","GA","North Point Tools","3395 White Sulphur Rd","30501",34.35358506587423,-83.76110404729843
"30501","Gainesville","GA","Thompson Bridge Hardware","not_available","30501",34.328267,-83.836663
"30501","Gainesville","GA","minuteKEY","400 Shallowford Rd NW","30504",34.291725158691406,-83.85057067871094
"30501","Gainesville","GA","City Electric Supply Gainesville Ga","2451 Hilton Ct Ste A","30501",34.2752105,-83.8449313
"30501","Gainesville","GA","The Rock Yard Inc.","2348 Monroe Dr","30507",34.268447267862385,-83.8116477978955
"30501","Gainesville","GA","Gainesville Paint","662 Main St SW","30501",34.29404,-83.82408
"30501","Gainesville","GA","Maskinell Systems, Inc.","1254 Industrial Blvd.","30501",34.2754,-83.8363
"30501","Gainesville","GA","Sherwin-Williams Paint Store","1920 Jesse Jewell Pkwy SE","30501",34.31291580200195,-83.79541778564453
"30501","Gainesville","GA","minuteKEY","1435 Thompson Bridge Rd","30501",34.32209396362305,-83.833984375
"30501","Gainesville","GA","Husqvarna US","1859 Thompson Bridge Rd","30501",34.33129119873047,-83.84098052978516
"30501","Gainesville","GA","Capitol Materials Inc","1700 Athens Highway","30507",34.28075016,-83.79120825
"30501","Gainesville","GA","Murrayville Hardware Thrift Section","Thompson Bridge Rd","30501",34.33103,-83.84017
"30501","Gainesville","GA","minuteKEY","2888 Browns Bridge Rd","30504",34.279956,-83.874931
"30501","Gainesville","GA","Lanier Hydraulic Hose & Supply","1259 W Ridge Rd","30501",34.276351,-83.820382
"30501","Gainesville","GA","Overhead Door","2171 Hilton Dr","30501",34.277427673339844,-83.84806823730469
"30504","Gainesville","GA","Tractor Supply Co.","3640 Mundy Mill Rd Ste 170","30504",34.22971882273519,-83.86527032055686
"30504","Gainesville","GA","Ace Lock & Safe Security","4250 Covey Trl","30566",34.228668,-83.890001
"30504","Gainesville","GA","Georgia Outdoor Equipment","4228 McEver Rd","30566",34.253493,-83.892331
"30504","Gainesville","GA","minuteKEY","3875 Mundy Mill Rd","30566",34.231815338134766,-83.8742446899414
"30504","Gainesville","GA","Tri-state Distributors","2482","30501",34.277078692886,-83.83408297608501
"30504","Gainesville","GA","minuteKEY","1514 Skelton Rd","30504",34.290706634521484,-83.84889221191406
"30504","Gainesville","GA","Howard's True Value Hardware","4272 Mundy Mill Rd","30566",34.251307000000004,-83.888042
"30504","Gainesville","GA","Sherwin-Williams Paint Store","938 McEver Rd","30504",34.29737,-83.861998
"30504","Gainesville","GA","Premier Overhead Doors","4228 Main St","30566",34.2273788573896,-83.8819386724286
"30504","Gainesville","GA","Premier Overhead Doors","4228 Main Street","30566",34.2273788573896,-83.8819386724286
"30506","Gainesville","GA","Tractor Supply Co.","6921 Hwy 53 East","30534",34.358034,-84.031089
"30506","Gainesville","GA","Oakwood Ace Hardware","3446 Winder Hwy","30542",34.218048,-83.863337
"30506","Gainesville","GA","Murrayville Hardware","not_available","30506",34.41580611602688,-83.90668349431908
"30506","Gainesville","GA","home depot","not_available","30564",34.41977310180664,-83.88631439208984
"30506","Gainesville","GA","Husqvarna US","5137 Cleveland Hwy","30506",34.44356918334961,-83.80714416503906
"30506","Gainesville","GA","C & W Hardware","16 Moonshiners Way","30534",34.37240982055664,-84.04158020019531
"30506","Gainesville","GA","Garage Door Repair Flowery Branch","3446 Winder Hwy #218","30542",34.2183497119922,-83.86078834533691
"30506","Gainesville","GA","Dixieland Equipment Sales","not_available","30575",34.21184871448489,-83.71973974820952
"30510","Alto","GA","Lindsay Windows South","2525 Tommy Irvin Pkwy","30510",34.475830078125,-83.59320068359375
"30512","Blairsville","GA","The Home Depot","17 Highway 515","30512",34.8813142,-83.9545634
"30512","Blairsville","GA","Alexanders True Value","4966 Town Creek School Rd","30512",34.82414437218762,-83.87173277121353
"30512","Blairsville","GA","Nelson Tractor Company","2934 Georgia 515","30512",34.8620235,-84.0045134
"30512","Blairsville","GA","Nelson's Feed & Hardware","1839 Blue Ridge Hwy","30512",34.8537869,-83.987173
"30512","Blairsville","GA","Sherwin-Williams Paint Store","1555 Lakeview Dr","30582",34.97087504097834,-83.82303476155151
"30512","Blairsville","GA","City Plumbing","2552 Highway 515 E","30512",34.89984646886544,-83.92674140243344
"30512","Blairsville","GA","Timbuckto","not_available","30512",34.87713,-83.97723
"30512","Blairsville","GA","mountain building supply, Blairsville","1291 Young Harris Highway","30514",34.8945426940918,-83.93534851074219
"30512","Blairsville","GA","Sherwin-Williams Paint Store","168 Murphy Hwy","30512",34.873450484234155,-83.96565198898315
"30512","Blairsville","GA","Painter's Palette","Blue Ridge Parkway","30512",34.85548400878906,-83.98181915283203
"30512","Blairsville","GA","Rick's Rental Equipment","1363 Murphy Hwy","30512",34.881219,-83.9827524
"30512","Blairsville","GA","City Electric Supply Young Harris","42 Commerce Drive","30582",34.9787916,-83.8276521
"30512","Blairsville","GA","Sears","45 Home Town Way Ste A","30512",34.8823525,-83.9463214
"30513","Blue Ridge","GA","The Home Depot","10012 Blueridge Drive","30513",34.87517568135702,-84.324751496315
"30513","Blue Ridge","GA","Tractor Supply Co.","97 High Park Dr","30513",34.883548736572266,-84.2957992553711
"30513","Blue Ridge","GA","Lowe's","380 Highland Crossing","30540",34.6600646,-84.4872817
"30513","Blue Ridge","GA","Ace Hardware Blue Ridge","Old Hwy 76 East","30513",34.871186,-84.305769
"30513","Blue Ridge","GA","Ellijay Ace Hardware","305 S Main St","30540",34.691307,-84.485907
"30513","Blue Ridge","GA","Southern Pipe & Supply","340 River St","30540",34.6916463744278,-84.4784134365456
"30513","Blue Ridge","GA","Toccoa Lumber Mill","7011 Appalachian Highway","30559",34.89311206510446,-84.27894473075867
"30513","Blue Ridge","GA","Sears","67 Fowler Street","30539",34.6830617,-84.4755612
"30513","Blue Ridge","GA","Tractor Supply Co.","709 1st Ave","30540",34.677347,-84.475757
"30513","Blue Ridge","GA","Sherwin-Williams Paint Store","720 Industrial Blvd","30540",34.685435999999996,-84.482174
"30517","Braselton","GA","S&S Ace Hdw Mower-Brasltn","3740 Village Way","30517",34.11399,-83.8177
"30517","Braselton","GA","The Home Depot","1111 Broadway Ave","30517",34.10172653198242,-83.78189086914062
"30517","Braselton","GA","Sherwin-Williams Paint Store","2625 Old Winder Hwy","30517",34.120551,-83.825733
"30518","Buford","GA","The Home Depot","4120 Highway 20","30518",34.0905775,-84.0019208
"30518","Buford","GA","Lowe's","1955 Buford Mill Drive","30519",34.0869978,-83.9876222
"30518","Buford","GA","Austin Hardware & Supply, Inc.","1810 Satellite Blvd","30518",34.0826281346869,-84.00468349456787
"30518","Buford","GA","Garage Door Repair Buford","4850 Golden Pkwy","30518",34.143150329589844,-83.95182800292969
"30518","Buford","GA","minuteKEY","1955 Buford Mill Dr","30519",34.08722686767578,-83.98739624023438
"30518","Buford","GA","DeVore & Johnson","4488 Brogdon Park Ct","30024",34.08053991141956,-84.05060559511179
"30518","Buford","GA","Sherwin-Williams Paint Store","5875 Cumming Hwy","30518",34.11772918701172,-84.07561492919922
"30518","Buford","GA","Tapp Lumber Company","2941 Buford Hwy","30518",34.130753000000006,-83.977932
"30518","Buford","GA","Sherwin-Williams Paint Store","934 Gainesville Hwy","30518",34.146971,-83.963977
"30519","Buford","GA","Sherwin-Williams Paint Store","2786 Hamilton Mill Rd","30519",34.08141500444709,-83.92455904020733
"30520","Canon","GA","Saxon Feed","not_available","30520",34.30082797785049,-83.0045870182519
"30520","Canon","GA","Royston Ace Hardware","994 Franklin Springs St","30662",34.2846049,-83.125309
"30521","Carnesville","GA","John Short Tractors","9595 Lavonia Rd","30521",34.372920989990234,-83.23269653320312
"30521","Carnesville","GA","Carnesville Lawnmower & Small Engine Repair","not_available","30521",34.369586,-83.235867
"30523","Clarkesville","GA","Ace Hardware","Highway 115 West","30523",34.61560618271837,-83.54670914117511
"30523","Clarkesville","GA","Watkins Building Supply","Hwy 17","30523",34.65445327758789,-83.63473510742188
"30523","Clarkesville","GA","The Home Depot","1551 Hwy 441 South","30525",34.855866372595194,-83.40578377246862
"30525","Clayton","GA","City Plumbing & Electric","4679-4797 U.S. 441","30568",34.93993871666667,-83.38847803333333
"30525","Clayton","GA","Ace Hardware","118 Railroad St","30525",34.87641984484183,-83.39948753594969
"30525","Clayton","GA","Reeves Ace Hardware","7314 Highway 441 N","30537",34.9703909,-83.387078
"30525","Clayton","GA","Husqvarna US","366 Old 441 S","30525",34.87406539916992,-83.40331268310547
"30525","Clayton","GA","Reeves Building Supply","118 Chechero St","30525",34.875092,-83.399581
"30525","Clayton","GA","Reeves Ace Hardware","46 S Main St","30525",34.879624,-83.400899
"30525","Clayton","GA","Reeves Feed & Farm","95 Bo James St","30525",34.8819999,-83.4094
"30527","Clermont","GA","ACE Hardware","not_available","30554",34.469941,-83.716377
"30528","Cleveland","GA","Rogers Ace Hardware Inc","42 E Underwood St","30528",34.5950959,-83.763402
"30528","Cleveland","GA","City Electric Supply Cleveland Ga","5530 Highway 129 S","30528",34.51886313223835,-83.75562737884593
"30528","Cleveland","GA","Winsupply","not_available","30528",34.60163,-83.763303
"30528","Cleveland","GA","Nix Hardware","15 Courthouse Sq","30528",34.5972785949707,-83.76358032226562
"30528","Cleveland","GA","Tractor Supply Co.","868 South Main St Unit 100","30528",34.584171,-83.762321
"30528","Cleveland","GA","Anderson Feed & Hardware","88 Millies Pl","30533",34.5527916183399,-83.9687157173218
"30528","Cleveland","GA","Cleveland True Value Home Ctr","847 S Main St","30528",34.58536148071289,-83.76079559326172
"30528","Cleveland","GA","Helen Ace Hardware","8160 South Main St Suite A1","30545-0130",34.7000492,-83.7219932
"30528","Cleveland","GA","Ace Hardware","8016 S Main St","30545",34.6984903924326,-83.7203416428006
"30529","Commerce","GA","The Home Depot","230 Steven B Tanger Blvd","30529",34.2552148,-83.4681091
"30529","Commerce","GA","Direct Tools Factory Outlet","800 Steven B Tanger Blvd Ste 805","30529",34.249642323004046,-83.47530278523915
"30529","Commerce","GA","minuteKEY","30983 Highway 441 S","30529",34.2484169,-83.4598379
"30529","Commerce","GA","Lanier Outdoor Equipment - Commerce","2034 N Broad St","30529",34.206102,-83.461715
"30529","Commerce","GA","commerce Hardware stockpile","not_available","30529",34.210750579833984,-83.53620147705078
"30529","Commerce","GA","Ace Hardware","135 Central Ave","30529",34.202026000000004,-83.458107
"30529","Commerce","GA","Sherwin-Williams Paint Store","2300 Homer Rd","30529",34.2369384765625,-83.45394134521484
"30529","Commerce","GA","Sears","40099 Highway 441","30529",34.2436042,-83.45709959999999
"30529","Commerce","GA","Tractor Supply Co.","2250 Homer Rd","30529",34.236111,-83.452693
"30531","Cornelia","GA","Lowe's","281 Carpenters Cove Lane","30531",34.5438071,-83.5403521
"30531","Cornelia","GA","Tractor Supply Co.","310 Habersham Hills Cir","30531",34.544908,-83.542773
"30531","Cornelia","GA","Ace Hardware","232 Larkin St","30531",34.511741638183594,-83.52539825439453
"30531","Cornelia","GA","Davis Brothers, True Value","293 Habersham Shopping Center","30531",34.511924743652344,-83.5432357788086
"30531","Cornelia","GA","Poultry Country Supply","not_available","30531",34.508446,-83.559901
"30531","Cornelia","GA","The Paint Store","2428 B Old Athens Highway","30531",34.544156,-83.549423
"30531","Cornelia","GA","Habersham Hardware","241 Larkin St","30531",34.511624,-83.525357
"30531","Cornelia","GA","Cornelia Ace Hardware","283 GA-105","30531",34.527440000000006,-83.529365
"30533","Dahlonega","GA","The Home Depot","140 Maxwell Lane","30533",34.4723002,-83.967961
"30533","Dahlonega","GA","Dawsonville Hardware","18 Raymond Parks Street S","30534",34.4207649230957,-84.11959838867188
"30533","Dahlonega","GA","C & W Hardware Dahlonega","1976 Highway 19 N","30533",34.556880950927734,-83.99657440185547
"30533","Dahlonega","GA","Shoal Creek Supply Inc","2450 Shoal Creek Rd","30534",34.45186940000001,-84.13304509999999
"30533","Dahlonega","GA","Truck Rental Center at the Home Depot","140 Maxwell Ln","30533",34.47245788574219,-83.96778869628906
"30534","Dawsonville","GA","The Home Depot","226 Power Center Dr","30534",34.3571749,-84.0422719
"30534","Dawsonville","GA","Southwind","6473 Highway 52 E","30536",34.59191902457089,-84.32036876678467
"30534","Dawsonville","GA","Sherwin-Williams Paint Store","425 Quill Dr","30534",34.34800249426724,-84.04801189899445
"30534","Dawsonville","GA","Direct tools","not_available","30534",34.35633303379581,-84.04871463775635
"30538","Eastanollee","GA","The Home Depot","302 Memorial Drive","30577",34.54514844478547,-83.28702092170715
"30538","Eastanollee","GA","minuteKEY","3886 Highway 17 S.","30538",34.5349932,-83.2599521
"30538","Eastanollee","GA","Tractor Supply","Big A Road","30577",34.54744884319787,-83.28304626609537
"30538","Eastanollee","GA","City Electric Supply Toccoa","2151 Clary Connector Ste 1","30538",34.54046,-83.26980158895492
"30538","Eastanollee","GA","Husqvarna US","80 Isaac Walker Rd","30538",34.53596878051758,-83.30064392089844
"30540","Ellijay","GA","Csuros","6565 Tails Creek Rd","30540",34.69523620605469,-84.57734680175781
"30542","Flowery Branch","GA","The Home Depot","5851 Spout Springs Rd","30542",34.1821077,-83.9089009
"30542","Flowery Branch","GA","Davis Brothers","Habersham Cnty S/C 441 By Pass","30531",34.16977,-83.90658
"30542","Flowery Branch","GA","Atlanta Metro Reload","not_available","30566",34.21068572998047,-83.90434265136719
"30542","Flowery Branch","GA","Drill For Dead","not_available","30542",34.169186,-83.891148
"30546","Hiawassee","GA","Hiawassee Hardware & Bldg Supply","51 N Main St","30546",34.949698304757,-83.7582855499605
"30546","Hiawassee","GA","Hiawassee Hardware & Building Supply","139 N Main St","30546",34.94978332519531,-83.75875854492188
"30549","Jefferson","GA","Tractor Supply Company - Pendergrass Distribution Center","1385 Valentine Industrial Park","30567",34.178609,-83.637483
"30549","Jefferson","GA","Atlanta Glass Company","995 Hancock Bridge Rd","30680",34.040898,-83.638206
"30553","Lavonia","GA","PCS Lavonia","not_available","30553",34.430306,-83.103124
"30554","Lula","GA","Country Living Ace Hdwe","4336 Cornelia Hwy","30554",34.3904,-83.698899
"30577","Toccoa","GA","Harbor Freight","not_available","30577",34.565086,-83.2973
"30577","Toccoa","GA","TOCCOA RENTALS TRUE VALUE HDW.","2552 Highway 17 Alt","30577",34.56420135498047,-83.2957763671875
"30577","Toccoa","GA","Tractor Supply Co.","998 Big A Rd","30577",34.5698083920371,-83.30930560701626
"30577","Toccoa","GA","Sherwin-Williams Paint Store","33 N Sage St","30577",34.57785262828984,-83.33011865615845
"30577","Toccoa","GA","TKG Supply","Midget Dr, Toccoa, GA 30577","30577",34.556721111170674,-83.3566772486702
"30577","Toccoa","GA","Toccoa Rentals & Sales Inc","2552 Hwy 17","30577",34.56419,-83.29574
"30601","Athens","GA","Ferguson Plumbing Supply","160 Paradise Blvd","30607",33.979584,-83.39984100000001
"30601","Athens","GA","City Electric Supply Athens, GA (City Electric Supply Athens, Ga)","545 Olympic Dr","30601",33.96569950416485,-83.34818883803791
"30601","Athens","GA","Wilson's Clarke Paint","1238 Prince Ave","30606",33.96260058725388,-83.39860616043072
"30601","Athens","GA","Fox Appliance Parts","1949 Commerce Rd","30607",33.998924255371094,-83.38372802734375
"30601","Athens","GA","Devore And Johnson","904 N Chase St","30601",33.967599,-83.39219
"30601","Athens","GA","Athens Janitor Supply","900 Old Hull Rd","30601",33.994590433779244,-83.33260933716485
"30601","Athens","GA","Little Enterprise","106 Nowhere Rd","30601",33.991677,-83.355871
"30601","Athens","GA","Quality Glass Company","234 Old Epps Bridge Rd","30606",33.950428,-83.411898
"30601","Athens","GA","Vallen","490 Old Hull Rd","30601",33.980084000000005,-83.34487
"30601","Athens","GA","Sherwin-Williams Paint Store","2181 W Broad St","30606",33.94945,-83.408757
"30601","Athens","GA","Clarke Industrial Supply","171 Paradise Blvd","30607",33.980987,-83.402206
"30601","Athens","GA","Athens Hardwear","not_available","30601",33.96240699555528,-83.3738131477251
"30601","Athens","GA","Athens Steel","200 Dairy Pak Rd","30607",33.977829,-83.390213
"30601","Athens","GA","Normal Hardware Co","1328 Prince Ave","30606",33.963739000000004,-83.40078299999999
"30605","Athens","GA","Lowe's","3341 Lexington Road","30605",33.9407725,-83.3225698
"30605","Athens","GA","minuteKEY","3341 Lexington Rd","30605",33.940714,-83.322766
"30605","Athens","GA","minuteKEY","2301 College Station Rd","30605",33.922096252441406,-83.34322357177734
"30605","Athens","GA","Tractor Supply Co.","4420 Lexington Rd","30605",33.930656,-83.308704
"30606","Athens","GA","The Home Depot","1740 Epps Bridge Rd","30606",33.912620853158586,-83.44486892223358
"30606","Athens","GA","Lowe's","1851 Epps Bridge Road","30606",33.9173762,-83.4459927
"30606","Athens","GA","Sears","3700 Atlanta Hwy","30606",33.94389,-83.46753
"30606","Athens","GA","Cofer's","1145 Mitchell Bridge Rd","30606",33.943272,-83.449899
"30606","Athens","GA","Harbor Freight Tools","1850 Epps Bridge Pkwy Ste 315","30606",33.9152646115541,-83.4437096755353
"30606","Athens","GA","Sherwin-Williams Paint Store","4390 Atlanta Hwy","30622",33.94043203239171,-83.48734484582607
"30606","Athens","GA","minuteKEY","1851 Epps Bridge Pkwy","30606",33.917475,-83.446525
"30606","Athens","GA","Ace Hardware Athens","4250 Atlanta Hwy","30606",33.940167,-83.482515
"30606","Athens","GA","Grand Rental Station","3765 Atlanta Hwy","30606",33.940607,-83.469003
"30606","Athens","GA","Porter Paints","W Broad St.","30606",33.947975395755115,-83.41574125714442
"30606","Athens","GA","ReTool","1720 Epps Bridge Pkwy #105","30606",33.91370198,-83.44707715
"30606","Athens","GA","Sunbelt Rentals","not_available","30606",33.91753772333676,-83.44562540165667
"30606","Athens","GA","Ppg Paints","3816 Atlanta Hwy","30622",33.94113,-83.471235
"30620","Bethlehem","GA","The Home Depot","649 Carl Bethlehem Rd","30680",33.9480071,-83.7633795
"30620","Bethlehem","GA","Classic Home Repair","not_available","30620",33.948457996206976,-83.76292125976434
"30621","Bishop","GA","Athens Feed & Seed","54 Greensboro Hwy","30677",33.85874119497155,-83.40494762090957
"30621","Bishop","GA","Sherwin-Williams Paint Store","2201 Hog Mountain Rd","30677",33.870882399991636,-83.44298315127729
"30621","Bishop","GA","Luke True Value Hardware","2041 Hog Mountain Rd","30677",33.874369,-83.43967
"30622","Bogart","GA","Capitol Materials Inc","180 Fowler Mill Road","30622",33.949562,-83.519613
"30622","Bogart","GA","Power Brick","not_available","30622",33.93033981323242,-83.5106430053711
"30622","Bogart","GA","Power Building Products","U.S. 78","30622",33.93033981323242,-83.5106430053711
"30622","Bogart","GA","Georgia Sod & Turf Grass","534 Peters St","30666",33.957719,-83.588922
"30627","Carlton","GA","Elberton Ace Hardware","886 Elbert Street","30635",34.0990309,-82.848009
"30627","Carlton","GA","Tractor Supply Co.","709 East Elbert St","30635",34.10165314,-82.84892598
"30628","Colbert","GA","Colbert Ace Hardware","6145 Highway 72 W","30628",34.0358,-83.2253
"30628","Colbert","GA","Danielsville Hardware","not_available","30633",34.09021349493707,-83.2425109864956
"30628","Colbert","GA","Southland Fence, Feed, & Equipment","752 E 5th Ave","30628",34.03742,-83.21005
"30629","Comer","GA","KCR Metals","103 Frank Ln","30742",34.011319522866415,-83.11304748058319
"30629","Comer","GA","Southern Hardware","not_available","30629",34.063138,-83.120734
"30629","Comer","GA","Bell Welding & Fabrication Inc","2341 Spring Cir","30629",34.0650143566201,-83.11431884765625
"30630","Crawford","GA","Oglethorpe Builder's Supply","1186 Athens Rd","30630",33.881853,-83.15798
"30631","Crawfordville","GA","Smith Farm Supply","303 Norman St","30673",33.73277613718378,-82.74902913479197
"30633","Danielsville","GA","Sears","535 General Daniels Ave N","30633",34.132006262379946,-83.21683555841446
"30633","Danielsville","GA","Ila Hardware","367 N Main St","30633",34.1772106,-83.2894723
"30633","Danielsville","GA","Georgia Poultry","5570 Highway 29","30662",34.2502555847168,-83.17393493652344
"30633","Danielsville","GA","Ace Hardware","535 General Daniel Ave N","30633",34.131988525390625,-83.21783447265625
"30634","Dewy Rose","GA","Husqvarna US","1069 Hartwell Hwy","30635",34.12879943847656,-82.860107421875
"30642","Greensboro","GA","The Home Depot","2490 Meadow Crest","30642",33.540058108470475,-83.20593068708149
"30642","Greensboro","GA","Lake Oconee Ace Hardware","1022 Lake Oconee Parkway","31024",33.4183999,-83.272499
"30642","Greensboro","GA","Sherwin-Williams Paint Store","1093 Greensboro Rd","31024",33.43555994148022,-83.26686143875122
"30642","Greensboro","GA","Bonacori Custom Homes of Georgia","1070 Salem Walk Dr Ste A3","30642",33.463321685791016,-83.24247741699219
"30642","Greensboro","GA","Askew Appliance","1500 W Broad St","30642",33.576319,-83.197927
"30642","Greensboro","GA","PDI Kitchen, Bath & Lighting Showroom - Eatonton","869 Harmony Rd","31024",33.43141331,-83.27594218
"30642","Greensboro","GA","Husqvarna US","103 W Greene St","30642",33.5772705078125,-83.18344116210938
"30642","Greensboro","GA","Hallman Wood Products","966 Greensboro Rd","31024",33.418912606685,-83.2705685415889
"30642","Greensboro","GA","Southern Glasslined Equipment Inc.","not_available","30642",33.561955,-83.205643
"30643","Hartwell","GA","Tractor Supply Co.","1541 Anderson Hwy Ste A","30643",34.353968,-82.90443
"30643","Hartwell","GA","The Home Depot","1700 Anderson Hwy","30643",34.34792277218682,-82.90148019790655
"30643","Hartwell","GA","Ace Hardware","200 N Carolina St","30643",34.355033303619244,-82.93215964757634
"30643","Hartwell","GA","Hart Motor Company","Fleming Cir","30643",34.36163621666667,-82.90545648333334
"30650","Madison","GA","Lowe's","1821 Eatonton Highway","30650",33.562123,-83.480467
"30650","Madison","GA","Tractor Supply Co.","2220 Eatonton Rd","30650",33.546665,-83.47012
"30650","Madison","GA","Harbor Freight","1700 Eatonton Rd","30650",33.566339,-83.47679699999999
"30650","Madison","GA","Farmer's Hardware","not_available","30650",33.584440046384316,-83.48026155758944
"30655","Monroe","GA","The Home Depot","2150 West Spring Street","30655",33.8009165,-83.7450815
"30655","Monroe","GA","Tractor Supply Co.","156 Martin Luther King Jr Blvd","30655",33.794074,-83.745047
"30655","Monroe","GA","minuteKEY","2050 W Spring St","30655",33.79819107055664,-83.74227142333984
"30655","Monroe","GA","Buckles Hardware","100-140 Georgia 11","30655",33.795208046249904,-83.71385540292226
"30655","Monroe","GA","The BREAK ROOM","Monroe, GA","30655",33.80101,-83.74560604
"30655","Monroe","GA","Sherwin-Williams Paint Store","115 E Spring St","30655",33.795173,-83.712191
"30666","Statham","GA","Castos","not_available","30666",33.96591349445315,-83.5983497884729
"30673","Washington","GA","Poss Ace Hardware Inc","22 E Robert Toombs Ave","30673",33.7369279,-82.739053
"30673","Washington","GA","Palmer Equipment Co.","708 N Bypass W","30673",33.763687,-82.792335
"30673","Washington","GA","Colonial Builders","not_available","30673",33.745724,-82.761323
"30677","Watkinsville","GA","The Ru-Wood Company","1421 Greensboro Hwy","30677",33.85282837981046,-83.397662
"30680","Winder","GA","Hill's Ace Hardware & Lumber Center","186 W Athens St","30680",33.9930799,-83.723194
"30680","Winder","GA","Tractor Supply Co.","10 Plaza Dr","30680",33.991932,-83.754324
"30680","Winder","GA","Husqvarna US","PO Box 547","30680",33.99943923950195,-83.72102355957031
"30680","Winder","GA","Fastenal","not_available","30680",33.992248,-83.763719
"30680","Winder","GA","84 Lumber","775 Bankhead Hwy","30680",33.99324417114258,-83.776123046875
"30680","Winder","GA","Mobile Hydraulics","30 Business Center Dr","30680",33.98997,-83.76328
"30680","Winder","GA","Sherwin-Williams Paint Store","45 E May St","30680",33.98839,-83.720826
"30701","Calhoun","GA","The Home Depot","1280 Curtis Pkwy","30701",34.4747492,-84.920451
"30701","Calhoun","GA","Erwin's Home Supplies Inc","170 West Belmont Drive SW","30701",34.47922134399414,-84.93865966796875
"30701","Calhoun","GA","Calhoun Paint","354 S Wall St","30701",34.49711227416992,-84.95246124267578
"30701","Calhoun","GA","Wholesale Supply","not_available","30701",34.498953,-84.951671
"30701","Calhoun","GA","Tractor Supply Co.","490 Hwy 53 South East","30701",34.473957728442066,-84.928344065902
"30701","Calhoun","GA","Jimmy Payne Coast Home & Auto","113 Court St","30701",34.502830505371094,-84.95193481445312
"30701","Calhoun","GA","Sherwin-Williams Paint Store","921 S Wall St","30701",34.48397308902231,-84.94272708892822
"30701","Calhoun","GA","minuteKEY","450 W Belmont Dr","30701",34.479199,-84.945622
"30701","Calhoun","GA","Direct Tools Factory Outlet","455 Belwood Rd SE Ste 33","30701",34.462458488873985,-84.91795309816327
"30701","Calhoun","GA","City Electric Supply Calhoun","112 Executive Dr SE","30701",34.47275863243784,-84.9330872297287
"30701","Calhoun","GA","Husqvarna US","210 King St N","30701",34.50481414794922,-84.95294952392578
"30705","Chatsworth","GA","Eton General Store","not_available","30705",34.824418,-84.762722
"30705","Chatsworth","GA","Tractor Supply Co.","20 Commerce Dr","30705",34.78230077929055,-84.81987145767214
"30705","Chatsworth","GA","Sherwin-Williams Paint Store","1904 E Walnut Ave","30721",34.7605828050541,-84.93716955184937
"30705","Chatsworth","GA","Access Concrete Products","410 Cherokee Estate Rd","30721",34.8387623,-84.9223362
"30705","Chatsworth","GA","Caylor Industrial Sales","2101 E Morris St","30721",34.76615,-84.93655
"30705","Chatsworth","GA","Husqvarna US","PO Box 1009","30724",34.82295608520508,-84.76285552978516
"30705","Chatsworth","GA","Dalton Hardware","2105 E Walnut Ave","30721",34.761459,-84.935086
"30705","Chatsworth","GA","Tractor Supply Co.","2518 Cleveland Hwy Ste 8","30721",34.82157361693862,-84.94438295418836
"30705","Chatsworth","GA","Bradley Ace Hardware","112 S 2nd Ave","30705",34.7656,-84.76798199999999
"30707","Chickamauga","GA","Ace Hardware","not_available","30707",34.885644962347996,-85.26881392832736
"30707","Chickamauga","GA","Elder's Ace Hardware-Lafayette Inc","512 S Main St","30728",34.70008,-85.282754
"30707","Chickamauga","GA","co op","not_available","30728",34.74697986638783,-85.26937984196843
"30707","Chickamauga","GA","B & M Salvage","6742 Lafayette Rd","30707",34.89319,-85.264806
"30707","Chickamauga","GA","Elder's Ace Hardware-Chickamauga","36 General Bushrod Johnson Ave.","30707",34.88593094075317,-85.26974201202393
"30707","Chickamauga","GA","Ace Hardware of Mission Ridge","819 Mission Ridge Rd","30741",34.9166299,-85.313265
"30707","Chickamauga","GA","Nuts,Screws and You","not_available","30739",34.854026794433594,-85.24951171875
"30707","Chickamauga","GA","Hammond-Jones Hardware","110 N Main St","30728",34.7064735,-85.28139759999999
"30711","Crandall","GA","Cline And Sons Lumber","not_available","30721",34.9024727,-84.7495883
"30720","Dalton","GA","Lowe's","1212 Cleveland Highway","30721",34.7924827,-84.9606162
"30720","Dalton","GA","Ppg Paints","155 Gillum Dr","30721",34.799213,-84.96107
"30720","Dalton","GA","Survive-a-Storm Shelters","875 Shugart Rd Ste B","30720",34.790234,-84.998975
"30720","Dalton","GA","Langford Appliance","308-324 N Glenwood Ave","30721",34.77554572,-84.96550027
"30720","Dalton","GA","Wolsley Industrial Group","525 Benjamin Way","30721",34.75904083251953,-84.96190643310547
"30720","Dalton","GA","Airgas","not_available","30720",34.79869079589844,-84.97696685791016
"30720","Dalton","GA","Dalton Vacuum & More","1121 S Thorton Ave","30720",34.75478066351762,-84.96878877282143
"30720","Dalton","GA","ACE HARDWARE OF TUNNEL HILL","3633 Chattanooga Rd","30755",34.845804,-85.048028
"30720","Dalton","GA","Southern Fluidpower","3016 N. Dug Gap Rd SW","30720",34.69255667,-85.00441167
"30720","Dalton","GA","Hoyts Appliances","1018 N Glenwood Ave","30721",34.787620544433594,-84.96239471435547
"30720","Dalton","GA","J&M Hardwood Lumber","Carbondale Rd","30720",34.66227087221662,-84.98853664410989
"30720","Dalton","GA","W.W. Grainger Inc","708 Rustwood St","30721",34.76200866699219,-84.96495819091797
"30720","Dalton","GA","City Electric Supply Dalton","706 Rustwood St","30721",34.76236376151604,-84.96485577546309
"30720","Dalton","GA","Rockholt Equipment Rental","Dug gap road","30720",34.70156179410095,-85.00543000006884
"30720","Dalton","GA","The Home Depot","875 Shugart Rd","30720",34.7902731,-84.998966
"30721","Dalton","GA","Do It Best Hardware","1209 E Morris St","30721",34.767128,-84.949965
"30721","Dalton","GA","Jevin's Ace Hardware","4158 Highway 2","30721",34.894134,-84.948385
"30721","Dalton","GA","Bailey Outdoors, Inc","921 E Morris St","30721",34.769100189208984,-84.95492553710938
"30725","Flintstone","GA","Ace Hardware of Flintstone","2846 Chattanooga Valley Rd","30725",34.942147,-85.34393299999999
"30736","Ringgold","GA","Lowe's","2215 Battlefield Parkway","30742",34.9468901,-85.2271302
"30736","Ringgold","GA","The Home Depot","2055 Battlefield Pkwy","30742",34.9481883,-85.229607
"30736","Ringgold","GA","Tractor Supply Co.","1785 Battlefield Pkwy","30742",34.950786,-85.234893
"30736","Ringgold","GA","City Electric Supply","8292 Highway 41","30736",34.91159,-85.105122
"30736","Ringgold","GA","Skyline Lawn And Garden","1408 Cloud Springs Road","30741",34.957212,-85.243777
"30736","Ringgold","GA","Junior's Building Materials","7574 Battlefield Parkway","30736",34.92395,-85.1395
"30736","Ringgold","GA","American Siding & Windows","not_available","30741",34.974712,-85.215706
"30736","Ringgold","GA","J B Millworks","383 Bandy Ln","30736",34.89077456104201,-85.07002148615571
"30736","Ringgold","GA","Juniors Building Supply","not_available","30736",34.924189265916276,-85.13917261635838
"30736","Ringgold","GA","minuteKEY","2215 Battlefield Pkwy","30742",34.947277,-85.227336
"30736","Ringgold","GA","Wurth Wood Group","Empire Ave","30741",34.983058,-85.207033
"30736","Ringgold","GA","Home Depot","Battlefield Pkwy","30736",34.91103044637637,-85.13155475543711
"30736","Ringgold","GA","minuteKEY","1155 Battlefield Parkway","30742",34.953121185302734,-85.24453735351562
"30736","Ringgold","GA","EcoWater of Chattanooga","6743 Highway 41","30736",34.9159099,-85.1091173
"30736","Ringgold","GA","Ace hardware","Cleveland hwy","30736",34.93716375037297,-85.00357690486825
"30736","Ringgold","GA","Central Heat and Air Company in Ringgold, GA","1655 E Teems Rd","30736",34.8061637878418,-85.20043182373047
"30736","Ringgold","GA","Holcomb Garden Center","2645 Battlefield Pkwy","30742",34.942742,-85.220645
"30736","Ringgold","GA","Ace Hardware","7574 Battlefield Pkwy","30736",34.924131,-85.1396
"30736","Ringgold","GA","Sherwin-Williams Paint Store","1164 Battlefield Pkwy","30742",34.95196305171146,-85.24482965469359
"30738","Rising Fawn","GA","Bottom Dollar Tools","GA Highway 136","not_available",34.869264610731335,-85.51894012454028
"30738","Rising Fawn","GA","Husqvarna US","PO Box 157","30752",34.889766693115234,-85.5271987915039
"30738","Rising Fawn","GA","Case Ace Hardware","11665 S Main St","30752",34.8721,-85.510099
"30738","Rising Fawn","GA","Handyman Salvage","not_available","30752",34.868045806884766,-85.530029296875
"30747","Summerville","GA","Tractor Supply Co.","11788 Hwy 27","30747",34.50034719683038,-85.32985901832579
"30747","Summerville","GA","Marvin's Building Suppy","11170 Highway 27","30747",34.49303711113323,-85.3357078494176
"30747","Summerville","GA","Parts City Auto Parts","not_available","30747",34.486336,-85.34469
"30747","Summerville","GA","Triangle Hardware","not_available","30753",34.533736262769324,-85.30621734234768
"30802","Appling","GA","croomers shop","not_available","30813",33.49950408935547,-82.1983642578125
"30802","Appling","GA","Drain Surgeon of the CSRA","Serving Your Area","30803",33.50357817169497,-82.2052001953125
"30802","Appling","GA","minuteKEY","5010 Steiner Way","30813",33.4818139,-82.1959936
"30808","Dearing","GA","Robert's Precison Tool","840 N Hicks St, Harlem, GA 30814","30814",33.41977468231783,-82.33110237730752
"30809","Evans","GA","The Home Depot","520 N Belair Road","30809",33.5364343,-82.1317383
"30809","Evans","GA","Lowe's","4305 Washington Road","30809",33.5370315,-82.1262297
"30809","Evans","GA","Lowe's","224 Bobby Jones Exp","30907",33.5080396,-82.0907276
"30809","Evans","GA","Gerald Robinson's Paints","not_available","30907",33.51095279739563,-82.09247098740508
"30809","Evans","GA","Culpepper Lumber","4532 Washington Rd","30809",33.54686,-82.147864
"30809","Evans","GA","Sherwin-Williams Paint Store","201 Casa Linda Dr","30907",33.50970062727203,-82.09737855751177
"30809","Evans","GA","Grayco","3833 Martinez Blvd","30907",33.512783,-82.092539
"30809","Evans","GA","HD Supply White Cap","3761 Martinez Blvd","30907",33.51670181,-82.07905886
"30809","Evans","GA","Glidden Professional","3830E Washington Rd","30907",33.51118632,-82.09035503
"30809","Evans","GA","Harry's Saw Shop & Equipment Rental","237 Bobby Jones Expy","30907",33.505564,-82.091312
"30809","Evans","GA","minuteKEY","4305 Washington Rd","30809",33.5372429,-82.12598
"30809","Evans","GA","Howard Lumber Company","475 Columbia Industrial Blvd","30809",33.539729,-82.11494
"30809","Evans","GA","minuteKEY","224 Bobby Jones Expy","30907",33.507808685302734,-82.09068298339844
"30809","Evans","GA","Ppg Paints","3830 Washington Rd","30907",33.51092,-82.090256
"30809","Evans","GA","Sherwin-Williams Floorcovering Store","4807 Technology Dr","30907",33.51755109300121,-82.09277272224426
"30809","Evans","GA","Kelley Appliance Center, Inc.","191 Baston Rd","30907",33.517225676304626,-82.07757075341499
"30809","Evans","GA","Tucker Materials","709 North Belair Road","30809",33.54253595,-82.12241131
"30809","Evans","GA","City Electric Supply Augusta West","3903A Roberts Rd Ste A","30907",33.51182398889262,-82.09625422954565
"30809","Evans","GA","minuteKEY","4469 Washington Rd","30809",33.54584884643555,-82.14183807373047
"30809","Evans","GA","W.A. Bragg & Co.","420 Columbia Industrial Blvd","30809",33.53471374511719,-82.11625671386719
"30813","Grovetown","GA","minuteKEY","300 South Belair Rd.","30907",33.493568420410156,-82.13617706298828
"30813","Grovetown","GA","Gfg","5234 Wrightsboro Rd","30813",33.454322814941406,-82.20585632324219
"30813","Grovetown","GA","Grovetown Ace Hardware","5127 Wrightsboro Rd","30813",33.457801,-82.195806
"30813","Grovetown","GA","Ewing Irrigation","642 S Old Belair Rd","30813",33.481978000000005,-82.138786
"30815","Hephzibah","GA","Lowe's","3214 Peach Orchard Road","30906",33.4073486,-82.0237946
"30815","Hephzibah","GA","E  T Industrial Supply Co","3208 Mike Padgett Hwy","30906",33.407579,-82.005103
"30815","Hephzibah","GA","Outdoor Equipment Co.","3357 Peach Orchard Rd","not_available",33.400715000000005,-82.02552800000001
"30815","Hephzibah","GA","minuteKEY","3214 Peach Orchard Rd","30906",33.407623291015625,-82.02592468261719
"30815","Hephzibah","GA","Jenkins Tractor Co.","not_available","30906",33.37779517888919,-82.00105860291836
"30815","Hephzibah","GA","Mcbean Hardware","5095 Old Mike Padgett Hwy","30815",33.252936,-81.95616899999999
"30815","Hephzibah","GA","Stones Hardware","2795 Cairo Dr, Augusta, GA 30906","30906",33.41835403442383,-82.09294891357422
"30815","Hephzibah","GA","Moon Glass Co Inc","2931 Peach Orchard Rd","30906",33.416897999999996,-82.024101
"30815","Hephzibah","GA","Accurate Pools","3240 Peach Orchard Road","30906",33.4044811,-82.0257098
"30815","Hephzibah","GA","Grand Rental Station","3357 Peach Orchard Rd, Augusta, GA 30906","30906",33.40092227429815,-82.02533698042946
"30816","Keysville","GA","Salter Building Supply","287 Old Millen Hwy","30830",33.0754,-82.005099
"30816","Keysville","GA","McKinneys Hardware","not_available","30830",33.09546938,-82.00577987
"30816","Keysville","GA","Tractor Supply Co.","300 Hopkins Corner Dr","30830",33.106369,-82.022793
"30817","Lincolnton","GA","Spratlin Hardware and Building Supplies","141 North Peachtree Street","30817",33.7931786371194,-82.47760515202948
"30817","Lincolnton","GA","Whites Hardware","not_available","29835",33.911761,-82.292656
"30817","Lincolnton","GA","Kelly's Saw Shop","US Hwy 378 W","29835",33.88893465395472,-82.3250132702634
"30817","Lincolnton","GA","Husqvarna US","PO Box 658","30817",33.773136138916016,-82.44001007080078
"30818","Matthews","GA","Avera Industrial Supply","not_available","30833",33.200950622558594,-82.3924331665039
"30818","Matthews","GA","Husqvarna US","512 S Main St","30833",33.20160675048828,-82.39331817626953
"30818","Matthews","GA","Jay's Ace Hardware","101 Walden St","30833",33.194656,-82.399613
"30818","Matthews","GA","Sears","101 Walden Street","30833",33.1947893478433,-82.40049050019485
"30821","Norwood","GA","James F. Blackledge Inc","416 Atlanta Hwy","30828",33.408912658691406,-82.67317199707031
"30821","Norwood","GA","WHEELER TRUE VALUE","153 Legion Dr","30828",33.4052734375,-82.65318298339844
"30824","Thomson","GA","Tractor Supply Co.","676 Washington Rd","30824",33.484547,-82.50327
"30824","Thomson","GA","Culpepper Lumber Co Inc","816 Augusta Rd","30824",33.46152877807617,-82.48424530029297
"30824","Thomson","GA","Husqvarna US","PO Box 1016","30824",33.476768493652344,-82.49114990234375
"30824","Thomson","GA","Fastenal","not_available","30824",33.47227,-82.505114
"30824","Thomson","GA","Dixie Lock and Safe","521 E Hill St","30824",33.462967,-82.492
"30901","Augusta","GA","Ferguson","1251 New Savannah Rd","30901",33.453615,-81.975015
"30901","Augusta","GA","The Window Gallery","1129 Broad St","30901",33.477841,-81.971585
"30901","Augusta","GA","Ppg Paints","1725 Walton Way","30904",33.475974,-81.996225
"30901","Augusta","GA","McCall's Supply","not_available","29841",33.482872009277344,-81.94596099853516
"30901","Augusta","GA","Isle 8 @ Yancey","not_available","30901",33.443442,-81.979772
"30901","Augusta","GA","Frischkorn","New Savannah Rd","30901",33.45331299465169,-81.97504648784538
"30901","Augusta","GA","American Hose & Hardware","1269 Gordon Hwy","30901",33.453337,-81.972643
"30901","Augusta","GA","Gexpro","1547 15th St","30901",33.462223,-81.996465
"30901","Augusta","GA","Pratt-Dudley Builders Supply Center","1002 Ra Dent Blvd","30901",33.469008,-81.980583
"30901","Augusta","GA","Stafford Nut And Bolt","1370 Reynolds St","30901",33.48046,-81.977527
"30901","Augusta","GA","Grainger","1516 Gordon Hwy","30906",33.437179,-82.003026
"30904","Augusta","GA","Ace Hardware","2803 Wrightsboro Rd","30909",33.47030258178711,-82.03569793701172
"30906","Augusta","GA","Sherwin-Williams Commercial Paint Store","2709 Peach Orchard Rd","30906",33.421933,-82.021106
"30906","Augusta","GA","DILLON Augusta Mill Supply","2107 Noland Connector, Augusta, GA 30909","30909",33.444563134242756,-82.0761933088838
"30907","Augusta","GA","The Home Depot","499 Bobby Jones Expy, Ste B","30907",33.5006988,-82.0903039
"30907","Augusta","GA","Stovall Inc","3475 Old Petersburg Rd Ste 200","30907",33.5175666809082,-82.07017517089844
"30907","Augusta","GA","Ferguson Waterworks","4188 Belair Frontage Rd","30909",33.493558,-82.092306
"30909","Augusta","GA","Harbor Freight Tools","3435 Wrightsboro Rd #1020","30909",33.469031715866215,-82.08300168908261
"30909","Augusta","GA","Sears","3450 Wrightsboro Rd","30909",33.46178805,-82.07869229
"30909","Augusta","GA","Sears","3450B Wrightsboro Rd","30909",33.461623,-82.078115
"30909","Augusta","GA","minuteKEY","3338 Wrightsboro Rd","30909",33.46719741821289,-82.07028198242188
"30909","Augusta","GA","Sherwin-Williams Paint Store","3238 Wrightsboro Rd","30909",33.46818161010742,-82.0650863647461
"30909","Augusta","GA","84 Lumber","1725 Wylds Rd","30909",33.45832,-82.074512
"30909","Augusta","GA","Surplus WareHouse Augusta","3246 Wrightsboro Road","30909",33.4670647,-82.0649733
"30909","Augusta","GA","CED Electrical Supplies","Frontage Road","30813",33.481686272605394,-82.12809239053009
"30909","Augusta","GA","Ferguson HVAC Supply","1824 Barton Chapel Rd","30909",33.452414000000005,-82.08482099999999
"31001","Abbeville","GA","Mashburn & Fitzgerald True Value Hardware","1103 First Ave","31079",31.95085367,-83.45527245
"31001","Abbeville","GA","Ace Hardware","315 Depot St S","31001",31.98992919921875,-83.30766296386719
"31005","Bonaire","GA","Houston Hardware & Garden Center","not_available","31005",32.545258285266286,-83.59667053493914
"31005","Bonaire","GA","Houston Hardware & Garden Center LLC","602 Ga-247","31005",32.5455167,-83.5968611
"31006","Butler","GA","Husqvarna US","PO Box 326","31006",32.571285247802734,-84.23929595947266
"31006","Butler","GA","Western Auto","East Main Street","31006",32.55686950683594,-84.23754119873047
"31008","Byron","GA","Tractor Supply Co.","6010 Watson Blvd","31008",32.615338,-83.711867
"31008","Byron","GA","Sears","2930 Watson Blvd","31028",32.6195182800293,-83.6884994506836
"31008","Byron","GA","City Electric Supply Warner Robins","315 Osigian Blvd","31088",32.61318821248992,-83.69440864028996
"31008","Byron","GA","Fastenal","6110 Watson Blvd","31008",32.615285496781155,-83.72461795806885
"31008","Byron","GA","Houston Hardware","602 S. Highway 247","31005",32.563759,-83.716787
"31008","Byron","GA","Lumber Liquidators Flooring","150 Tower Centre Dr","31008",32.646739038405286,-83.7430029073576
"31008","Byron","GA","Ace Hardware of Byron","237 Ga Highway 49 S","31008",32.6471999,-83.761099
"31014","Cochran","GA","Ace Hardware","36 Surrey Plz","31036",32.28899383544922,-83.47999572753906
"31014","Cochran","GA","Bleckley Ace Hardware","116 Highway 87 Byp N","31014",32.402579,-83.336534
"31014","Cochran","GA","minuteKEY","366 GA Highway 26 E","31014",32.401302337646484,-83.33643341064453
"31015","Cordele","GA","The Home Depot","2011 Central Ave","31015",31.957478418818518,-83.75271677970886
"31015","Cordele","GA","Tractor Supply Co.","1407a East 16th Ave","31015",31.963248599530438,-83.76011991170883
"31015","Cordele","GA","Sherwin-Williams Paint Store","1207 E 16th Ave","31015",31.962905,-83.76334
"31015","Cordele","GA","Ace Hardware","1305 E 16th Ave","31015",31.96232795715332,-83.76168823242188
"31016","Culloden","GA","Georgia Poultry Equipment Company","not_available","31066",32.72608184814453,-84.00383758544922
"31016","Culloden","GA","Western Auto","51 N Dugger Ave","31078",32.72037124633789,-84.01273345947266
"31019","Dexter","GA","Cordell True Value Home Center","1010 Academy Ave","31021",32.49456846,-82.96187434
"31021","Dublin","GA","Husqvarna US","301 N Jefferson St","31021",32.5427360534668,-82.90531158447266
"31021","Dublin","GA","Sherwin-Williams Paint Store","512 N Jefferson St","31021",32.54418136131888,-82.908775806427
"31021","Dublin","GA","Tractor Supply Co.","2435 Hwy 80 West","31021",32.55135,-82.974945
"31021","Dublin","GA","Dublin Plumbing And Electrical Supply","not_available","31021",32.524055,-82.917075
"31021","Dublin","GA","Sears","104 Hillcrest Parkway","31021",32.54698059570838,-82.93050545082502
"31021","Dublin","GA","Yoder's Vinyl Products","119 Soperton Ave","31027",32.6448174,-82.8474825
"31021","Dublin","GA","Ace Hardware","2069 US Highway 441 S","31021",32.49872970581055,-82.9288330078125
"31021","Dublin","GA","minuteKEY","2423 US Highway 80 W","31021",32.5362144,-83.0627324
"31021","Dublin","GA","Cullen Equipment Ace Hardware","2069 Us Highway 441 S","31021",32.51209,-82.9235
"31021","Dublin","GA","The Home Depot","1833 Veterans Blvd","31021",32.54127361656272,-82.94165968894958
"31021","Dublin","GA","Mr Battery","1325 N Jefferson St","31021",32.5647887,-82.9183652
"31021","Dublin","GA","Dublin Winnelson Company","507 Airport Rd","31021",32.5482689,-82.92926279999999
"31023","Eastman","GA","Jones Sanders True Value Bldg","3091 Milan Chauncey Rd","31060",32.02212905883789,-83.06439208984375
"31023","Eastman","GA","Chas Mar","not_available","31023",32.20738170460182,-83.1904935836792
"31023","Eastman","GA","Quality Saw Works","867 Sweet Home Church Rd","31060",32.05147933959961,-83.09764862060547
"31023","Eastman","GA","Tractor Supply Co.","993 Indian Dr","31023",32.18094253540039,-83.17951965332031
"31023","Eastman","GA","Handy Andy Home Warehouse","706 Cochran Hwy","31023",32.2122831,-83.20192111
"31024","Eatonton","GA","Ace Hardware","3011 N Columbia St","31061",33.17885971069336,-83.2863540649414
"31024","Eatonton","GA","Ace Hardware","302 S Jefferson Ave","31024",33.3236229,-83.386885
"31024","Eatonton","GA","Horton Components","not_available","31024",33.30252009683641,-83.38503978839438
"31025","Elko","GA","Bryants Machine Shop Inc","120 N COUNTY LINE RD","31091",32.2903,-83.7376
"31028","Centerville","GA","The Home Depot","2620 Watson Blvd","31093",32.61982646971697,-83.66639256477362
"31028","Centerville","GA","Lowe's","2704 Watson Blvd","31093",32.620098,-83.6707021
"31028","Centerville","GA","Warner Robins Supply","2756 Watson Blvd","31093",32.62056350708008,-83.67654418945312
"31029","Forsyth","GA","Lowe's","6011 Zebulon Road","31210",32.8826468,-83.7625102
"31029","Forsyth","GA","Georgia Ace Hardware","10 W Main St","31029",33.0340229,-83.938695
"31029","Forsyth","GA","minuteKEY","5955 Zebulon Rd","31210",32.8827824,-83.7599609
"31029","Forsyth","GA","the store","not_available","31029",32.99517822265625,-83.89600372314453
"31029","Forsyth","GA","minuteKEY","6011 Zebulon Rd","31210",32.88211441040039,-83.7626724243164
"31029","Forsyth","GA","Tractor Supply Co.","130 East Main St Ste A","31029",33.034357,-83.933549
"31030","Fort Valley","GA","Ace Hardware and Garden Center","1345 Sam Nunn Blvd","31069",32.4623509,-83.735095
"31030","Fort Valley","GA","AWT Vinyl","2468-2698 Fox Den Ct","31030",32.544526647812944,-83.72037942728434
"31030","Fort Valley","GA","Tractor Supply Co.","1235 Saint Patricks Dr","31069",32.47569152004032,-83.74142045767212
"31030","Fort Valley","GA","minuteKEY","1009 Saint Patricks Dr","31069",32.47214126586914,-83.73970031738281
"31030","Fort Valley","GA","Sherwin-Williams Paint Store","1339 Ball St","31069",32.46558983667462,-83.73823496718339
"31030","Fort Valley","GA","Warner Robins Supply of Perry","612 Ball St","31069",32.45219802856445,-83.7293930053711
"31031","Gordon","GA","Ace Hardware","Main Street","31031",32.858488,-83.375353
"31031","Gordon","GA","Jimmy's Appliance Repair","186 Pine St","31031",32.88171355936641,-83.32327365875244
"31031","Gordon","GA","Ace Hardware","113 Main St","31031",32.88180160522461,-83.33296966552734
"31032","Gray","GA","Ace of Gray","243 West Clinton Street","31032",33.0047594,-83.5441532
"31032","Gray","GA","McDuffie Lawncare & Firewood","369 Oliver Greene Rd","31032",33.030067443847656,-83.55827331542969
"31032","Gray","GA","Macon Color Wheel","3955 Arkwright Rd","31210",32.9074821472168,-83.68695831298828
"31032","Gray","GA","Ace Hardware","243 W Clinton St","31032",33.00466850760156,-83.54452158649508
"31047","Kathleen","GA","Lowe's","1109 Highway 96","31047",32.5505844,-83.6939982
"31047","Kathleen","GA","minuteKEY","1109 GA Highway 96","31047",32.5501594543457,-83.6937255859375
"31047","Kathleen","GA","Easy Living Garden Center","400 Perry Pkwy","31069",32.48353576660156,-83.71165466308594
"31047","Kathleen","GA","Crocker Septic Tank Service","1100 GA Highway 247 S","31047",32.495185,-83.607819
"31052","Lizella","GA","Lizella Ace Hardware","3321 Holley Rd","31052",32.8025,-83.801199
"31061","Milledgeville","GA","Tractor Supply Co.","1850 North Columbia St","31061",33.103753,-83.252468
"31061","Milledgeville","GA","Lowe's","1731 North Columbia Street","31061",33.1018142,-83.246788
"31061","Milledgeville","GA","Chandler Bros Hardware","115 N Wayne St","31061",33.081934000000004,-83.227001
"31061","Milledgeville","GA","Southside Equipment","140 E Andrews St","31061",33.070831298828125,-83.22325134277344
"31061","Milledgeville","GA","minuteKEY","2592 N Columbia St","31061",33.11724090576172,-83.26470184326172
"31061","Milledgeville","GA","Baldwin Builders","Martin Luther King","not_available",33.091834000000006,-83.23869499999999
"31061","Milledgeville","GA","Hallman's Supply Co.","not_available","31087",33.16485630872317,-83.07806715128427
"31061","Milledgeville","GA","Brookins Mobile Home Parts","not_available","31061",33.11015319824219,-83.25581359863281
"31061","Milledgeville","GA","Sherwin-Williams Paint Store","116 Roberson Mill Rd NE","31061",33.10658719683694,-83.25714111328125
"31061","Milledgeville","GA","Ace Hardware","1895 N Columbia St","31061",33.106224,-83.251235
"31063","Montezuma","GA","Ace Hardware","213 Spaulding Rd","31063",32.2966839,-83.985157
"31063","Montezuma","GA","Husqvarna US","PO Box 28","31063",32.296119689941406,-83.9981689453125
"31064","Monticello","GA","jasper county lumber company","not_available","31064",33.30281448364258,-83.6833724975586
"31064","Monticello","GA","Husqvarna US","1008 Hillsboro St","31064",33.29475784301758,-83.68196868896484
"31082","Sandersville","GA","B & D True Value Hardware","114 Kaolin Rd","31082",32.968610999999996,-82.809587
"31082","Sandersville","GA","Sears","306 Riddleville Rd.","31082",32.97100429031064,-82.80664466697999
"31082","Sandersville","GA","Ace Hardware Garden and Material Supply","156 E Haynes St","31082",32.98259353637695,-82.8094482421875
"31082","Sandersville","GA","B & D Hardware","not_available","31082",32.95840072631836,-82.8071060180664
"31082","Sandersville","GA","Tractor Supply Co.","1246 South Harris St","31082",32.954246,-82.811048
"31087","Sparta","GA","Ace Hardware of Sparta","701 Hamilton St","31087",33.274645,-82.97467
"31088","Warner Robins","GA","Powerhouse True Value Rental","703 S Houston Lake Rd","31088",32.5985853061,-83.67133
"31088","Warner Robins","GA","PPG Paints","120 S Houston Lake Rd","31088",32.616294,-83.680761
"31088","Warner Robins","GA","Sherwin-Williams Paint Store","351 S Houston Lake Rd","31088",32.61116,-83.67925
"31088","Warner Robins","GA","W.A. Bragg","203 Independence Dr","31088",32.612841,-83.682387
"31088","Warner Robins","GA","Americas Propane","331 S Houston Lake Rd, Warner Robins, GA 31088","31088",32.61195373535156,-83.67977142333984
"31088","Warner Robins","GA","Circle Ace Hardware Inc","215 S Commercial Cir","31088",32.617434,-83.613595
"31088","Warner Robins","GA","minuteKEY","502 Booth Rd","31088",32.5900611,-83.6122434
"31089","Tennille","GA","Ace Hardware","8489 S Marcus St","31096",32.724029541015625,-82.71995544433594
"31092","Vienna","GA","Harris True Value","505 W Union St","31092",32.09232489,-83.80320424
"31201","Macon","GA","Macon Discount","not_available","31201",32.822072,-83.63581500000001
"31201","Macon","GA","Ferguson Waterworks","187 Poplar St","31201",32.831884,-83.623052
"31201","Macon","GA","Vallen","1600 Waterville Rd","31206",32.819450608112724,-83.63516092300415
"31201","Macon","GA","mayer electric","Seventh St","31217",32.83624459700461,-83.63183709505502
"31201","Macon","GA","Locksmith Associates","524 2nd St","31201",32.83510901153609,-83.62989372964164
"31204","Macon","GA","Lowe's","3190 Macon Tech Drive","31206",32.8131179,-83.6888454
"31204","Macon","GA","The Home Depot","4635 Presidential Pkwy","31206",32.8226986,-83.713387
"31204","Macon","GA","Surplus Warehouse","1540C Eisenhower Parkway","31206",32.813388,-83.667946
"31204","Macon","GA","Husqvarna US","3737 Napier Ave","31204",32.851409912109375,-83.68742370605469
"31204","Macon","GA","Sherwin-Williams Paint Store","2129 Riverside Dr","31204",32.85940198367639,-83.64694118499756
"31204","Macon","GA","Sherwin-Williams Paint Store","4798 Mercer University Dr","31210",32.826965,-83.72013
"31204","Macon","GA","Harbor Freight Tools","1433 Eisenhower Pkwy Ste M","31206",32.81534807154867,-83.66539191263983
"31204","Macon","GA","World Electric","787 Hillcrest Industrial Blvd","31204",32.842511380344035,-83.67410659790039
"31204","Macon","GA","City Electric Supply Macon","130 Steven Dr #2","31210",32.8263627019067,-83.72025191860973
"31204","Macon","GA","ProBuild Macon","1641 Eisenhower Pkwy","31206",32.815449,-83.670204
"31204","Macon","GA","Riverside Ace Hardware","3600 Riverside Dr","31210",32.898808,-83.683946
"31204","Macon","GA","Construction Specialties","1741 Bethlea Ave","31204",32.82069070000001,-83.68682129999999
"31204","Macon","GA","Ppg Paints","2429 Pio Nono Ave","31206",32.81700897216797,-83.66471862792969
"31204","Macon","GA","Sears","4551 BILLY WILLIAMSON DRIVE","31206",32.8220481,-83.7157853
"31204","Macon","GA","Karsten-Denson Co","2323 Ingleside Ave","31204",32.854053,-83.65535200000001
"31204","Macon","GA","minuteKEY","3190 Macon Tech Dr.","31206",32.813245,-83.688698
"31206","Macon","GA","Tractor Supply Co.","5301 Eisenhower Pkwy","31206",32.804370716639454,-83.73689092640944
"31206","Macon","GA","Mike Brooks Flooring","1392 Dewey St","31206",32.784598966666664,-83.66601128333333
"31206","Macon","GA","Yancey Rents Cat Rental Store","4660 Broadway","31206",32.7743225,-83.65601749999999
"31206","Macon","GA","Barefoot","1235 Guy Paine Rd","31206",32.780491535254356,-83.66153240203857
"31206","Macon","GA","Sherwin-Williams Floorcovering Store","4032 Cavalier Dr","31220",32.8325684,-83.73701513
"31206","Macon","GA","Traditions Stone And Tile","not_available","31210",32.830825,-83.721561
"31206","Macon","GA","Ferguson Plumbing Supply","5103 Mercer University Dr","31210",32.8318448026713,-83.7284945569289
"31206","Macon","GA","Macon Winnelson Co","3454 Williamson Rd","31206",32.8039304,-83.6957085
"31206","Macon","GA","Husqvarna US","5867 Columbus Rd","31206",32.810768127441406,-83.7486343383789
"31206","Macon","GA","Fastenal","not_available","31206",32.7910110182164,-83.66742015099571
"31206","Macon","GA","Machine mart","Ellis Way","31216",32.734824,-83.6844052
"31210","Macon","GA","Wesleyan Ace Hardware","5020 Forsyth Rd","31210",32.880938,-83.725694
"31210","Macon","GA","Evergreen Outdoor Power Equipment","149 Macon West Dr","31210",32.83362333,-83.72524833
"31216","Macon","GA","Capitol Materials Inc","7531 Industrial Highway","31216",32.70534775,-83.66473394
"31216","Macon","GA","HD Supply White Cap","2020 Industrial Park Dr","31216",32.70513709,-83.6433915
"31216","Macon","GA","Rutland Ace Hardware","6173 Houston Rd","31216",32.732433,-83.680269
"31216","Macon","GA","Northern Tool","4755 Ivey Dr","31206",32.802063000000004,-83.73719399999999
"31301","Allenhurst","GA","Harris Ace Hardware","1012 W Oglethorpe Hwy","31313",31.794691,-81.607425
"31302","Bloomingdale","GA","Lowe's","1565 Pooler Parkway","31322",32.091281,-81.2731887
"31302","Bloomingdale","GA","minuteKEY","1565 Pooler Pkwy","31322",32.09104,-81.272318
"31305","Darien","GA","Woodshed Hardware","Mile Marker 5","31305",31.385254,-81.413037
"31308","Ellabell","GA","Jackson Small Engine Service","5424 US Highway 80 E","31308",32.191795349121094,-81.42481994628906
"31308","Ellabell","GA","Savannah Global Solutions LLC","107 E Industrial Blvd","31321",32.132339842947545,-81.61439538002014
"31308","Ellabell","GA","Owens Supply","E Bacon St","31321",32.13576029,-81.60956891
"31309","Fleming","GA","Choo Choo Supply","456 Pate Rogers Rd","31309",31.871532440185547,-81.44081115722656
"31312","Guyton","GA","Springfield Building Supply","Laurel St","31329",32.36348,-81.307203
"31313","Hinesville","GA","Sherwin-Williams Paint Store","1030 W Oglethorpe Hwy","31313",31.813492358727792,-81.6014586802498
"31313","Hinesville","GA","Tractor Supply Co.","766 West Oglethorpe Hwy","31313",31.824142456054688,-81.5982437133789
"31313","Hinesville","GA","Self Help","not_available","31314",31.879655505497492,-81.60901139636456
"31313","Hinesville","GA","Lowe's","735 West Oglethorpe Highway","31313",31.8288417,-81.5995706
"31313","Hinesville","GA","City Electric Supply Hinesville","25 Joyner Rd","31313",31.82345169506474,-81.62811806089701
"31313","Hinesville","GA","minuteKEY","751 W Oglethorpe Hwy","31313",31.825990676879883,-81.60140228271484
"31313","Hinesville","GA","minuteKEY","735 W Oglethorpe Hwy","31313",31.828659057617188,-81.59941864013672
"31313","Hinesville","GA","Winlectric","not_available","31313",31.852521154421378,-81.55454624884018
"31316","Ludowici","GA","Sears","977 South 1st Street","31545",31.60294,-81.906842
"31316","Ludowici","GA","Tractor Supply Co.","1137 North First St","31545",31.619211,-81.87307
"31316","Ludowici","GA","Kitchen Tune-Up","977 S 1st St","31545",31.6028848,-81.9068834
"31316","Ludowici","GA","Harris Ace Hardware","386 W Cherry St","31545",31.6080499,-81.886296
"31316","Ludowici","GA","Murphys Builders Supply","Broad Street","31545",31.60513295798856,-81.88084399321124
"31316","Ludowici","GA","Southern Hardware And Pawn","not_available","31316",31.712373373427493,-81.74785318058919
"31320","Midway","GA","Midway Feed & Supply","Ocean Hwy","31320",31.79845815,-81.43269831666667
"31320","Midway","GA","Midway Feed and Supply Center","102 S Coastal Hwy","31320",31.79783058166504,-81.43257904052734
"31322","Pooler","GA","The Home Depot","190 Pooler Pkwy","31322",32.14374124586774,-81.24572253535007
"31322","Pooler","GA","ABC Supply","not_available","31322",32.106414,-81.220814
"31322","Pooler","GA","HD Supply White Cap","118 Westside Blvd","31322",32.105566,-81.220437
"31322","Pooler","GA","Lowe's Coastal Holding Facility","not_available","31407",32.15133339572533,-81.21336651817971
"31322","Pooler","GA","ProSource of Savannah","167 Knowlton Way Ste 115","31407",32.1510118721524,-81.2320573199603
"31322","Pooler","GA","City Electric Supply Savannah West","101 Airport Park Dr","31408",32.0754778,-81.1960186
"31322","Pooler","GA","Sherwin-Williams Floorcovering Store","165 Knowlton Way","31407",32.151574,-81.232754
"31322","Pooler","GA","ProBuild","6 Aj Garcia Rd","31322",32.099813,-81.233414
"31322","Pooler","GA","Ferguson Waterworks","70 Columbia Dr","31322",32.104589,-81.221692
"31322","Pooler","GA","Sherwin-Williams Paint Store","117 Godley Station Blvd","31322",32.131640263483085,-81.25741481781006
"31322","Pooler","GA","minuteKEY","160 Pooler Pkwy","31322",32.143524169921875,-81.24349975585938
"31324","Richmond Hill","GA","Lowe's","11114 Abercorn Street","31419",31.9817998,-81.1416859
"31324","Richmond Hill","GA","Harbor Freight Tools","12313 Largo Dr","31419",31.980680200101965,-81.14990099505494
"31324","Richmond Hill","GA","Plantation Lumber Hardware","10829 Ford Ave","31324",31.93820837387573,-81.30282385183303
"31324","Richmond Hill","GA","Harbour Frieght","not_available","31419",31.980104963863425,-81.1439551996389
"31324","Richmond Hill","GA","minuteKEY","14030 Abercorn St","31419",31.980871999999998,-81.173514
"31324","Richmond Hill","GA","Royal Ace","2415 Coastal Hwy 17 S","31324",31.9142,-81.3562
"31324","Richmond Hill","GA","minuteKEY","11114 Abercorn St","31419",31.982246999999997,-81.141962
"31326","Rincon","GA","Lowe's","5150 Highway 21 South","31326",32.2730557,-81.2309876
"31326","Rincon","GA","Tractor Supply Co.","101 West Fort Howard Rd","31326",32.27694956207199,-81.2314659926642
"31326","Rincon","GA","farva's food truck","6188 Georgia 21","31326",32.256571657378046,-81.21768147980183
"31326","Rincon","GA","Lovett Hardware & Supplies","5519 McCall Rd","31326",32.25524257861867,-81.21842213684535
"31326","Rincon","GA","minuteKEY","434 S Columbia Ave","31326",32.274330139160156,-81.22596740722656
"31331","Townsend","GA","Ace Hardware","Hwy 17 N","31331",31.567339,-81.418204
"31401","Savannah","GA","Guerry Lumber","not_available","31405",32.05183139151309,-81.1040782819912
"31401","Savannah","GA","City Electric Supply Savannah Downtown","116 Randolph St","31401",32.07581093556735,-81.08244849444566
"31401","Savannah","GA","Coleman, H E Plumbing Co","1300 Bull St","31401",32.063229,-81.097862
"31401","Savannah","GA","Precision Cutting Service","105 Estus Dr","31404",32.06260681152344,-81.04761505126953
"31401","Savannah","GA","B and B Paint Store","not_available","31401",32.073467185574934,-81.09973546226492
"31401","Savannah","GA","Sherwin-Williams Paint Store","508 W Jones St","31401",32.07445,-81.100205
"31401","Savannah","GA","Johnstone Supply","101-149 Alton St","31401",32.07954648333333,-81.09793465
"31401","Savannah","GA","B & B Paint Company","102 W Victory Dr","31405",32.0528771,-81.10315299999999
"31404","Savannah","GA","The Home Depot","1901 E Victory Dr","31404",32.0419444,-81.0684806
"31404","Savannah","GA","Islands Ace Hardware","318 Johnny Mercer Blvd Ste 5","31410",32.014127,-80.982051
"31404","Savannah","GA","Sherwin-Williams Paint Store","2135 E Victory Dr","31404",32.039722,-81.063439
"31405","Savannah","GA","Ppg Paints","305 Mall Blvd","31406",32.003473,-81.11358100000001
"31405","Savannah","GA","Sherwin-Williams Commercial Paint Store","4323 Ogeechee Rd","31405",32.047497201405385,-81.16647720336914
"31405","Savannah","GA","Ferguson Plumbing Supply","1275 Chatham Parkway","31405",32.06096,-81.16049
"31405","Savannah","GA","Hughes Supply","4116 Ogeechee Rd","31405",32.049999,-81.161653
"31405","Savannah","GA","Sherwin-Williams Paint Store","8800 Abercorn St","31406",31.997425,-81.127443
"31405","Savannah","GA","CED Electrical Supply","2900 Tremont Rd","31405",32.057919,-81.132763
"31405","Savannah","GA","Andys Lawn Machinery","5025 Ogeechee Rd","31405",32.04158405536302,-81.19159435486705
"31405","Savannah","GA","Southside Ace Hardware of Savannah","706 Mall Blvd","31406",32.001409,-81.106063
"31405","Savannah","GA","Richmond Supply","117 Park of Commerce Dr","31405",32.063457,-81.1626
"31405","Savannah","GA","Coastal Paint And Decorating","Waters ave","not_available",32.009298971519655,-81.11439016537568
"31405","Savannah","GA","Northern Tool + Equipment","7505 Abercorn Street","31406",32.00779,-81.116958
"31406","Savannah","GA","The Home Depot","11180 Abercorn St","31419",31.9832087,-81.1443456
"31406","Savannah","GA","Clearwater Pools","E Montgomery Cross Rd","31406",31.992849349975586,-81.10201263427734
"31406","Savannah","GA","Maycrest Hardware","1609 E Montgomery Xrd","31406",31.991096,-81.095654
"31407","Port Wentworth","GA","A-Jax Bolt and Screw","6015 Commerce Blvd","31408",32.129057,-81.175134
"31407","Port Wentworth","GA","H&E Equipment Services","510 Bourne Ave","31408",32.1273411,-81.1727814
"31407","Port Wentworth","GA","jenkins brick company","not_available","31408",32.12729102656976,-81.17087122249883
"31408","Savannah","GA","Fergursons Plumbing Showroom","11 Hudson St, Savannah, GA 31415","31415",32.09084701538086,-81.1234359741211
"31408","Savannah","GA","Creative Stone Accessories","Louisville Rd","31415",32.082964016666665,-81.13848728333333
"31408","Savannah","GA","Moore Industrial Supply","not_available","31415",32.078965000000004,-81.13454
"31408","Savannah","GA","Samson Industrial","3201-3229 W Bay St","31408",32.095383,-81.138306
"31408","Savannah","GA","Multistone","1022 Lynes Ave","31415",32.077518,-81.13369399999999
"31408","Savannah","GA","Capital Electric","150 Chatham Pkwy","31408",32.084346771240234,-81.15882873535156
"31408","Savannah","GA","Wolseley Industrial Group","1331 Lynah Ave","31408",32.079248,-81.155811
"31415","Savannah","GA","Capitol Materials Coastal","305 Telfair Rd","31415",32.081096,-81.14462900000001
"31419","Savannah","GA","Georgetown True Value Hardware","782A King George Blvd","31419",31.988653473106567,-81.21371200124068
"31419","Savannah","GA","Sherwin-Williams Paint Store","6023A Ogeechee Rd","31419",31.99667574778446,-81.26212477684021
"31501","Waycross","GA","Lowe's","2308 Memorial Drive","31501",31.1957883,-82.324937
"31501","Waycross","GA","Tractor Supply Co.","2103 Memorial Dr Ste A","31501",31.202775,-82.328763
"31501","Waycross","GA","Southeast Mower & Saw Shop","not_available","31503",31.202628708711718,-82.32135107192002
"31501","Waycross","GA","Waycross Winlectric","2010 Ware St","31516",31.246689467559836,-82.31485545695801
"31501","Waycross","GA","Ware Paint & Drywall Supply","403 Albany Ave","31501",31.214474,-82.357927
"31501","Waycross","GA","Sherwin-Williams Paint Store","1320 Memorial Dr","31501",31.208819068206108,-82.34246492385863
"31501","Waycross","GA","Lee's Hardware","721 Albany Ave","31501",31.215551376342773,-82.36224365234375
"31501","Waycross","GA","Strate Welding Supply Co Inc","1722 Old Reynolds St","31501",31.20490992309385,-82.33736872673033
"31501","Waycross","GA","Coley Electric & Plumbing Supply Inc","1760 Memorial Dr","31501",31.2049477,-82.3365647
"31501","Waycross","GA","Sears","2476 MEMORIAL DRIVE","31503",31.194695,-82.322103
"31501","Waycross","GA","LJA Builders","1118 Porter St","31501",31.222518153374995,-82.36616492271423
"31501","Waycross","GA","J & M Mobile Home Supply","1013 Albany Ave, Waycross, GA 31501","31501",31.21601357369628,-82.36683141393809
"31501","Waycross","GA","City Electric Supply Waycross","806 Clough St","31501",31.225795821671802,-82.36774206161493
"31501","Waycross","GA","Husqvarna","2294 Brunswick Hwy","31503",31.20181655883789,-82.32176971435547
"31503","Waycross","GA","BLACKSHEAR TRUE VALUE","3425 US Highway 84","31516",31.301956176757812,-82.24553680419922
"31503","Waycross","GA","Farmers & Builders Ace Hardware","3271 US Highway 84","31516",31.2999,-82.2475
"31503","Waycross","GA","Husqvarna","504 Lee St","31516",31.300350189208984,-82.2476806640625
"31510","Alma","GA","Morris Ace Hardware","630 W 12th St","31510",31.5427019,-82.473545
"31510","Alma","GA","Coley Electric & Plumbing Supply","1103 S Pierce St","31510",31.526663408490002,-82.46348447357451
"31513","Baxley","GA","Ace Hardware","1050 E Parker St","31513",31.77210235595703,-82.33222961425781
"31513","Baxley","GA","Hunter Johnson Ace and Lumber","870 E Parker St","31513",31.773496627807617,-82.33512878417969
"31513","Baxley","GA","Thompsons True Value Home Center","382 E Parker St","31513",31.77702773,-82.34382565
"31513","Baxley","GA","Husqvarna US","PO Box 238","31515",31.7750301361084,-82.35223388671875
"31513","Baxley","GA","Tractor Supply Co.","375 East Parker St","31513",31.777336,-82.34222
"31520","Brunswick","GA","The Home Depot","200 Altama Connector","31520",31.211241555916622,-81.49281620979309
"31520","Brunswick","GA","Harbor Freight","not_available","31525",31.20375,-81.483173
"31520","Brunswick","GA","Lowe's","300 Glynn Isles","31525",31.2027216,-81.4800777
"31520","Brunswick","GA","Central Hardware","not_available","31520",31.154073820398636,-81.4925046472783
"31520","Brunswick","GA","Ace Hardware","205 Monck St","31520",31.147448,-81.496065
"31520","Brunswick","GA","World Electric","1612 T St","31520",31.170894622802734,-81.4936752319336
"31520","Brunswick","GA","Tait's Lawn Products","1320 Newcastle St","31520",31.147491654712994,-81.49447202957747
"31520","Brunswick","GA","Coastal Hardware & Building","6033 Habersham St","31520",31.207744598388672,-81.50167083740234
"31520","Brunswick","GA","Brock Hogarths Lawn Mower Service","2800 Norwich St","31520",31.167465076618406,-81.4976186624511
"31520","Brunswick","GA","Lang Building Supply","1500 Prince St","31520",31.147473,-81.490245
"31520","Brunswick","GA","minuteKEY","11 Glynn Plz","31520",31.19343376159668,-81.48709869384766
"31520","Brunswick","GA","Sherwin-Williams Paint Store","3422 Cypress Mill Rd","31520",31.19425,-81.482237
"31520","Brunswick","GA","City Electric Supply Brunswick","274 Rose Dr","31520",31.197915,-81.4920277
"31520","Brunswick","GA","Husqvarna","6203 Altama Ave","31525",31.223670959472656,-81.47834014892578
"31522","Saint Simons Island","GA","Ace Hardware","Longview Shopping Center","31522",31.21868023506551,-81.39051135832219
"31522","Saint Simons Island","GA","J. C. Strother Co.","221 Mallery St","31522",31.142617115595822,-81.38633251190186
"31522","Saint Simons Island","GA","Adelaide's Paints","not_available","31522",31.186751549037925,-81.37733714165881
"31522","Saint Simons Island","GA","Island Ace Hardware","329 Longview Plz","31522",31.1664309,-81.385519
"31522","Saint Simons Island","GA","Sherwin-Williams Paint Store","375 Sylvan Blvd","31522",31.186197012533544,-81.37837171554565
"31523","Brunswick","GA","Tractor Supply Co.","5940 New Jesup Hwy","31523",31.237844814931506,-81.53844427777868
"31523","Brunswick","GA","Wingfoot Truck Care Center, Brunswick, GA","not_available","31523",31.13826494705482,-81.5704261923648
"31523","Brunswick","GA","Husqvarna","3305 US Highway 82","31523",31.143352508544922,-81.58793640136719
"31525","Brunswick","GA","Capitol Materials Coastal","103 Spaulding Ct","31525",31.246303,-81.45754977
"31527","Jekyll Island","GA","Maxwell True Value Hardware","16 North Beachview Drive","not_available",31.0623655981231,-81.40522363094131
"31527","Jekyll Island","GA","Maxwell's Hardware","Beachview Dr","not_available",31.055126731146334,-81.4143630226149
"31533","Douglas","GA","Lowe's","1340 Bowens Mill Rd SE","31533",31.48529264,-82.8453323
"31533","Douglas","GA","Tractor Supply Co.","1314 South Madison Ave","31533",31.490758895874023,-82.85005187988281
"31533","Douglas","GA","Strate Welding Supply Co Inc","1101 Wheeler Ave S","31533",31.49556087901425,-82.85902619361877
"31533","Douglas","GA","Sherwin-Williams Paint Store","1212 Peterson Ave N","31533",31.52175785570297,-82.85026609897614
"31533","Douglas","GA","Lott  Hardware","306 S Peterson Ave","31533",31.50602322,-82.85019813
"31533","Douglas","GA","Ace Hardware","1201 Peterson Ave N","31533",31.521509170532227,-82.85171508789062
"31533","Douglas","GA","Brinson Rentals","not_available","31535",31.48046108856411,-82.85106562927743
"31533","Douglas","GA","Sears","516 South Peterson","31533",31.502636,-82.849961
"31533","Douglas","GA","Coley Electric and Plumbing","not_available","31533",31.500688,-82.862838
"31537","Folkston","GA","T & W Sales Auction","not_available","31537",30.83113,-82.007235
"31537","Folkston","GA","Hagan Ace Hardware Inc.","551525 US Highway 1","32046",30.7065349,-81.929135
"31537","Folkston","GA","Johnson Brothers Hardware And Auto Supply","551513 Us Hwy 1","32046",30.68479,-81.91424
"31537","Folkston","GA","Farmers And Builders Supply Ace","5909 Second St","31537-9356",30.85632,-82.011567
"31537","Folkston","GA","Franklin Equipment Sales","551797 U.S. 1","32046",30.692158,-81.919154
"31537","Folkston","GA","Husqvarna","15928 CR 108","32046",30.694332122802734,-81.91438293457031
"31539","Hazlehurst","GA","Handy Andy Building Supply","11 N Tallahassee St","31539",31.86730194091797,-82.59750366210938
"31539","Hazlehurst","GA","Handy Andy Building Materials","not_available","31539",31.86747,-82.597231
"31542","Hoboken","GA","Handy Andy Hardware","4614 Main St E","31542",31.181236267089844,-82.13155364990234
"31548","Kingsland","GA","Lowe's","1410 Boone Avenue Ext E","31548",30.7845325,-81.6449432
"31548","Kingsland","GA","Ace Hardware","1060 E King Ave","31548",30.79536472,-81.671204
"31548","Kingsland","GA","Lowes Build and Grow Workshop","not_available","31548",30.78485864893886,-81.64465567472575
"31548","Kingsland","GA","Sherwin-Williams Paint Store","103 Victoriana","31548",30.788235039622336,-81.64860380375494
"31548","Kingsland","GA","Tractor Supply Co.","1584 Boone St","31548",30.78285549471532,-81.6404054164886
"31548","Kingsland","GA","Sears","28 Hawthorn Ln","31558",30.773297999999997,-81.61879300000001
"31548","Kingsland","GA","City Electric Supply St. Mary'S","1965 Commerce Dr","31548",30.780474525064374,-81.62900845708918
"31550","Manor","GA","Lowes Waycross, Ga","not_available","31550",31.19088077586984,-82.58601055465431
"31553","Nahunta","GA","Farmers & Builders Ace Hardware","14133 Cleveland St E","31553",31.2050079,-81.972391
"31558","Saint Marys","GA","City Electric Supply","139 Industrial Dr","31558",30.758935928344727,-81.55126953125
"31558","Saint Marys","GA","Farmers & Bldg Ace Hdw","687 Charlie Smith Sr Hwy","31558",30.7588,-81.576499
"31601","Valdosta","GA","The Home Depot","1825 Norman Dr","31601",30.844516731326294,-83.31504732370377
"31601","Valdosta","GA","Miller Hardware Company","211 E Hill Ave","31601",30.831093,-83.27734
"31601","Valdosta","GA","Piggly Wiggly True Value","2113 Bemiss Rd","31602",30.859113337416108,-83.2808518409729
"31601","Valdosta","GA","Lowe's","1106 North St Augustine Road","31601",30.8395442,-83.3233947
"31601","Valdosta","GA","Sherwin-Williams Paint Store","1616 Norman Dr","31601",30.83891375,-83.32131699
"31601","Valdosta","GA","Ace Lock And Key","618 N Ashley St","31601",30.838260216666665,-83.28008766666666
"31601","Valdosta","GA","Affordable Garage Door","1011 Cherokee St Apt H","31602",30.84805679321289,-83.30108642578125
"31601","Valdosta","GA","City Electric Supply Valdosta","209 N Saint Augustine Rd","31601",30.825104303308017,-83.30589058895492
"31601","Valdosta","GA","Lowes","1550-1598 Commerce Dr","31601",30.800272945104915,-83.29867136851426
"31601","Valdosta","GA","White Head","not_available","31601",30.83109,-83.276442
"31601","Valdosta","GA","True Value Hardware","204 E Central Ave","31601",30.832928000000003,-83.27811
"31601","Valdosta","GA","Husqvarna US","2111 Madison Hwy","31601",30.79038429260254,-83.27096557617188
"31601","Valdosta","GA","Tractor Supply Co.","1000a North St Augustine Rd","31601",30.837657,-83.318622
"31601","Valdosta","GA","Whitehead Industrial Hardware","104 S Lee St","31601",30.831499099731445,-83.27660369873047
"31601","Valdosta","GA","Habitat for Humanity Restore","2010 Cypress St","31601",30.843036953324834,-83.2563060788991
"31602","Valdosta","GA","Battery Source","not_available","31602",30.878512815223395,-83.29804978015486
"31602","Valdosta","GA","Bemiss Hardware","not_available","31605",30.940499,-83.237647
"31602","Valdosta","GA","Roddeys","Northside Dr.","31602",30.864568412532353,-83.30934190375187
"31602","Valdosta","GA","Harbor Freight Tools","3111 N Oak Street Ext Ste B","31602",30.87800046634137,-83.29109698407916
"31602","Valdosta","GA","Paramount Granite & Marble","369 Connell Rd","31602",30.8728496,-83.2831759
"31602","Valdosta","GA","Miller Hardware Company","3137 N Oak Street Ext","31602",30.880774,-83.290807
"31602","Valdosta","GA","Sherwin-Williams Paint Store","205 Northside Dr","31602",30.869645498454187,-83.28783711294986
"31620","Adel","GA","Ace Hardware","714 W 4th St","31620",31.135786056518555,-83.43257904052734
"31620","Adel","GA","Adel Trading Company","not_available","31620",31.134511947631836,-83.42674255371094
"31620","Adel","GA","Fausett's","301 S Hutchinson Ave","31620",31.134109022273726,-83.42191940101699
"31632","Hahira","GA","Tractor Supply Co","19 Coochiedouchiewe River","not_available",30.965586,-83.372277
"31632","Hahira","GA","North Lowndes Hardware","790 S Church St","31632",30.983249,-83.368618
"31634","Homerville","GA","Homerville Hardware","not_available","31634",31.0378,-82.74431
"31634","Homerville","GA","King's Auto And Hardware","255 S Church St","31634",31.03532429,-82.74640857
"31636","Lake Park","GA","Irby","6553 Lake Industrial Pkwy","31636",30.669200544872698,-83.18755388259888
"31639","Nashville","GA","Morrison Do It Best","not_available","31639",31.201064644563758,-83.24928605654844
"31639","Nashville","GA","MILLERS SUPPLIES INC","701 E Marion Ave","31639",31.2069034576416,-83.24549865722656
"31643","Quitman","GA","Stone's","not_available","31643",30.78438,-83.569916
"31701","Albany","GA","The Home Depot","1219 Westover Blvd","31707",31.6166829,-84.206452
"31701","Albany","GA","Lowe's","1200 North Westover Blvd","31707",31.6147347,-84.2103037
"31701","Albany","GA","Transmission Crafters","not_available","31701",31.578507,-84.155741
"31701","Albany","GA","City Electric Supply Albany","410 Sands Dr","31705",31.5710906,-84.1318435
"31701","Albany","GA","Tractor Supply Co.","2761 Ledo Rd","31707",31.622912939963246,-84.2104468774325
"31701","Albany","GA","ProBuild","3324 Palmyra Rd","31707",31.62541389465332,-84.19090270996094
"31701","Albany","GA","Fred's Sharpen Shop","not_available","31707",31.622390747070312,-84.18621826171875
"31701","Albany","GA","Carpet World","911 W Oglethorpe Blvd","31701",31.575892,-84.171355
"31701","Albany","GA","Hughes Ace Hardware","104 Branchview St","31763",31.6474,-84.1743
"31701","Albany","GA","Bill's Hardware","On The Lake","not_available",31.600330352783203,-84.20369720458984
"31701","Albany","GA","Winnelson","2150 Gillionville Rd","31707",31.581972122192383,-84.20256805419922
"31701","Albany","GA","World Electric","518 W Roosevelt Ave","31701",31.581002,-84.160604
"31701","Albany","GA","minuteKEY","1200 N Westover Blvd","31707",31.614383,-84.210162
"31701","Albany","GA","albany rubber & gasket","not_available","31705",31.559877,-84.102914
"31701","Albany","GA","Coats And Clark Warehouse","Clark Ave","not_available",31.580036173374552,-84.134059858129
"31701","Albany","GA","Capitol Materials Inc","1701 Krug Street","31705",31.593965999999998,-84.103944
"31701","Albany","GA","the window screen shop","1412 Blaylock St","31705",31.597745895385742,-84.12451934814453
"31701","Albany","GA","Lowe Electric Supply Co.","1150 Gillionville Rd","31707",31.579320000000003,-84.182112
"31705","Albany","GA","Ferguson","2219 Toledo Dr","31705",31.560897827148438,-84.10044860839844
"31707","Albany","GA","Sherwin-Williams Paint Store","2532 Dawson Rd","31707",31.61191749572754,-84.21456909179688
"31707","Albany","GA","minuteKEY","2825 Ledo Rd","31707",31.624412536621094,-84.21353149414062
"31709","Americus","GA","Lowe's","1700 East Lamar Street","31709",32.0635795,-84.1998825
"31709","Americus","GA","Shiver Lumber Co.","720 W Church St","31709",32.069555,-84.240964
"31709","Americus","GA","Tractor Supply Co.","201 Hwy 19 South","31719",32.0651927,-84.25401092
"31709","Americus","GA","Husqvarna US","PO Box 1308","31709",32.06346893310547,-84.20462799072266
"31709","Americus","GA","Sherwin-Williams Paint Store","1552 E Forsyth St","31709",32.072138223950155,-84.2112135887146
"31719","Americus","GA","Husqvarna","124 GA FOREST ROAD","31709",31.978918075561523,-84.29814910888672
"31730","Camilla","GA","Ricks Hardware","not_available","31779",31.123974555602484,-84.15353000164032
"31730","Camilla","GA","Dixon Hardware","33 W Broad St","31730",31.231386184692383,-84.20994567871094
"31730","Camilla","GA","Husqvarna US","PO Box 705","31730",31.222110748291016,-84.22679138183594
"31744","Doerun","GA","Mitchell Pine Straw","530 Cane Mill Rd","31791",31.419662475585938,-83.82191467285156
"31750","Fitzgerald","GA","Tractor Supply Co.","262 Ocilla Hwy Ste 2","31750",31.70065261,-83.24871886
"31750","Fitzgerald","GA","Northside Hardware (Merritt Well Pump & Supply)","146 Bowens Mill Hwy (129N)","31750",31.727294921875,-83.25017547607422
"31750","Fitzgerald","GA","Sherwin-Williams Paint Store","401 S Grant St","31750",31.710772424771434,-83.25357913970947
"31750","Fitzgerald","GA","Sears","215 South Grant Street","31750",31.7129016,-83.2533607
"31750","Fitzgerald","GA","Dill's Builders Supply","352 Fitzgerald Hwy","31774",31.624778747558594,-83.2508316040039
"31757","Thomasville","GA","Lowe's","13911 US Highway 19 South","31792",30.83998,-83.9463881
"31757","Thomasville","GA","Lowes","US 319","31757",30.854358764357332,-83.94535037314252
"31757","Thomasville","GA","Thomas County Hardware","1401 E Jackson St","31792",30.852982889465956,-83.95845442730908
"31757","Thomasville","GA","Golden Brothers Feed Store","not_available","31792",30.834936751611803,-83.95247912092483
"31757","Thomasville","GA","Plantation Landscape Supply Inc","12790 US Highway 19 S","31757",30.826763,-83.94070599999999
"31757","Thomasville","GA","Sherwin-Williams Paint Store","2945 E Pinetree Blvd","31792",30.854213509732492,-83.95255476236343
"31757","Thomasville","GA","GreenSouth Equipment","not_available","31757",30.836892713241795,-83.94362880307331
"31757","Thomasville","GA","minuteKEY","15328 US Highway 19 S","31757",30.8594401,-83.9477465
"31757","Thomasville","GA","Stones","not_available","31629",30.833901042862983,-83.96226880635317
"31757","Thomasville","GA","Tractor Supply Co.","15086 Us Hwy 19 South","31757",30.855105612089393,-83.94476496559703
"31763","Leesburg","GA","Griffin Lumber & Hardware","153 Robert B Lee Dr","31763",31.721237182617188,-84.1675796508789
"31768","Moultrie","GA","The Home Depot","450 Veterans Pkwy North","31788",31.18987521992249,-83.76009446782047
"31768","Moultrie","GA","Baell Mercantile Co.","550 1st St NE","31768",31.1856,-83.78697
"31768","Moultrie","GA","Lowe's","602 Veteran's Parkway North","31788",31.1936266,-83.7634009
"31768","Moultrie","GA","South Georiga Electric","not_available","31768",31.19051,-83.789387
"31768","Moultrie","GA","Ruis Fence Co Inc","182 N Manning St","31753",31.196613925042076,-83.87246131896973
"31768","Moultrie","GA","Husqvarna US","1659 Sylvester Hwy","31768",31.204681396484375,-83.7906265258789
"31768","Moultrie","GA","Sears","2417 S Main Street","31768",31.140453,-83.782823
"31768","Moultrie","GA","City Electric Supply Moultrie","523 4th Ave NE","31768",31.184106608493742,-83.78209501504898
"31768","Moultrie","GA","Newsome Electrical Contractors","272 Cheyenne Way","31788",31.1410445,-83.7562643
"31768","Moultrie","GA","H&S Supply","North Main Street","31768",31.185640335083008,-83.7884521484375
"31768","Moultrie","GA","minuteKEY","641 Veterans Pkwy.","31788",31.1702398,-83.7579
"31768","Moultrie","GA","Tractor Supply Co.","103 Talmadge Dr Ste B","31768",31.17778968811035,-83.77207946777344
"31768","Moultrie","GA","Sherwin-Williams Paint Store","118 N Main St","31768",31.181543448555118,-83.78843307495117
"31778","Pavo","GA","Pavo Hardware","not_available","31778",30.959208,-83.74129
"31781","Poulan","GA","minuteKEY","1102 E Franklin St","31791",31.52696418762207,-83.81465148925781
"31791","Sylvester","GA","superior machine works","not_available","31791",31.539051055908203,-83.86998748779297
"31791","Sylvester","GA","short and paulk","E Franklin St, Sylvester, GA 31791","31791",31.532319080099885,-83.8530721581208
"31792","Thomasville","GA","Stones","2795 Old US 84","39828",30.877975463867188,-84.17497253417969
"31792","Thomasville","GA","Parts store in Cairo, GA","not_available","39828",30.87732696533203,-84.20047760009766
"31792","Thomasville","GA","Cairo Glass and Paint","585 5th St NE","39828",30.881678310405693,-84.20134009409173
"31793","Tifton","GA","Stone's True Value","354 S Main St","31794",31.45822188,-83.52684569
"31793","Tifton","GA","Lowe's","2000 US Highway 82 West","31793",31.442551,-83.54578
"31793","Tifton","GA","City Electric Supply Tifton","610 7th St W","31794",31.4506342,-83.5224085
"31793","Tifton","GA","Tractor Supply Co.","149 South Virginia Ave","31794",31.453163146972656,-83.52655792236328
"31793","Tifton","GA","Sherwin-Williams Paint Store","319 12th St W","31794",31.465211142194683,-83.51114630699158
"31793","Tifton","GA","Harbor Freight Tools","not_available","31794",31.455216,-83.528192
"31794","Tifton","GA","STONE'S TRUE VALUE","354 Main St S","31794",31.451810836791992,-83.50947570800781
"31794","Tifton","GA","MSI","3321 US Highway 41 S","31794",31.413719177246094,-83.5002670288086
"31794","Tifton","GA","HBT","904 Ermine Ave","31794",31.449321746826172,-83.50507354736328
"31803","Buena Vista","GA","Dent True Value Hardware","122 Geneva Rd N","31803",32.32452534,-84.52021802
"31803","Buena Vista","GA","Husqvarna","119 N. BROAD ST","31803",32.31886672973633,-84.51847076416016
"31804","Cataula","GA","Yancey Rents Cat Rental Store","2946 Smith Rd.","31808",32.5985991,-84.95046219999999
"31804","Cataula","GA","Ellerslie Hardware","not_available","31807",32.6215140299956,-84.81644075112622
"31805","Cusseta","GA","Coleman's Hardware","Hwy 27","31805",32.302664,-84.785017
"31806","Ellaville","GA","Planters True Value Hdwe","32 E Church St","31806",32.23677062988281,-84.30741119384766
"31806","Ellaville","GA","Husqvarna","74 E Church St","31806",32.23678970336914,-84.3075180053711
"31808","Fortson","GA","Dealers Supply Inc.","3020 Sandy Pkwy","31909",32.56650924682617,-84.94760131835938
"31808","Fortson","GA","City Electric Supply Columbus Ga","8212 N Crossing Ct","31808",32.569130732815985,-84.94893640279776
"31811","Hamilton","GA","Pauls Go-Kart Shop","not_available","31833",32.802459716796875,-85.1015396118164
"31811","Hamilton","GA","Backwater Outdoors & Supply","11785 US Highway 27 E","31811",32.751519,-84.871029
"31815","Lumpkin","GA","CornHouse","not_available","31825",32.088089,-84.669669
"31815","Lumpkin","GA","Husqvarna","1324 Wall St","31825",32.09159851074219,-84.66740417480469
"31816","Manchester","GA","Taylor-Foster Hardware","15 E Main St","31816",32.85157125393347,-84.6123049474615
"31820","Midland","GA","Tractor Supply Co.","6713 Flat Rock Ct Ste 100","31820",32.542826,-84.872362
"31820","Midland","GA","Ace Hardware","7390 Blackmon Rd","31909",32.55195999145508,-84.89743041992188
"31820","Midland","GA","Ferguson Waterworks","5751 Miller Ct","31909",32.525701,-84.90556
"31820","Midland","GA","Brand Vaughn","not_available","31820",32.53001,-84.852094
"31820","Midland","GA","Papa's Shop","not_available","31909",32.53132629394531,-84.89432525634766
"31822","Pine Mountain","GA","Pine Mountain Bldgs Supply","102 Georgia St","31822",32.8646999,-84.8546
"31822","Pine Mountain","GA","Husqvarna","102 Georgia St E","31822",32.86301803588867,-84.85260009765625
"31822","Pine Mountain","GA","Husqvarna","217 N Main Ave","31822",32.86485290527344,-84.85409545898438
"31831","Waverly Hall","GA","Cooper's General Store","9170 Georgia 85","31831",32.68587432051235,-84.73510253290391
"31833","West Point","GA","minuteKEY","3501 20th Ave","36854",32.8377089,-85.175416
"31833","West Point","GA","Ace Hardware of Valley","3741 20th Ave","36854",32.8332405090332,-85.17642974853516
"31833","West Point","GA","Ace Hardware","4105 20th Ave","36854",32.833763,-85.176674
"31833","West Point","GA","marvin building materials","not_available","36854",32.853363584389676,-85.18836462923917
"31833","West Point","GA","Industrial Service & Supply","6401 25th Ave","36854",32.8067275,-85.1737718
"31833","West Point","GA","Tractor Supply Co.","811 South Gilmer Avenue","36863",32.861797566165066,-85.18984110185244
"31901","Columbus","GA","The Grill Outlet","3101 2nd Ave","31904",32.493303000000004,-84.990533
"31901","Columbus","GA","Hobart","PO Box 4380","31914",32.492409,-84.986456
"31901","Columbus","GA","World Electric","1118 Virginia St","31901",32.473209999999995,-84.976851
"31901","Columbus","GA","W.T. Harvey Lumber","800 15th St","31901",32.472842,-84.98151
"31901","Columbus","GA","Airgas South, Inc.","3129 5th Ave","31904",32.493292,-84.986809
"31901","Columbus","GA","Sherwin-Williams Paint Store","2306 Wynnton Rd","31906",32.470667,-84.958194
"31901","Columbus","GA","Renovation Station","MLK","31906",32.462988570645905,-84.97699728914938
"31901","Columbus","GA","RSC Equipment Rental","1801-1817 Warm Springs Rd","31904",32.494018,-84.965908
"31901","Columbus","GA","carpenter shop","not_available","31901",32.4556577491734,-84.99428512015638
"31901","Columbus","GA","Wynnton Hardware","not_available","31906",32.47051944644588,-84.95775298564311
"31901","Columbus","GA","Vallen","950 16th St","31901",32.47562026977539,-84.98029327392578
"31901","Columbus","GA","Capitol Materials Inc","1401 Blanchard Boulevard","31901",32.44950864,-84.97216927
"31901","Columbus","GA","Mayer Electric","1125 14th St","31901",32.473083,-84.976299
"31901","Columbus","GA","Husqvarna","305 17th St","31901",32.47896194458008,-84.98841857910156
"31903","Columbus","GA","Acehardware","St. Mary's Rd","31906",32.44704935199934,-84.93006377935056
"31903","Columbus","GA","c and p general store and hardware","not_available","31903",32.41141128540039,-84.95453643798828
"31903","Columbus","GA","Fox Appliance Parts","2508 Cusseta Rd","31903",32.445811,-84.95668
"31903","Columbus","GA","Home Hardware Inc","3863 Saint Marys Rd","31906",32.447307,-84.930055
"31904","Columbus","GA","Lowe's","6750 Veterans Parkway","31909",32.5413984,-84.9520736
"31904","Columbus","GA","The Home Depot","2891 Sowega Dr","31909",32.5248582,-84.9490639
"31904","Columbus","GA","The Home Depot","3784 US Highway 431 N","36867",32.5074634,-85.0508059
"31904","Columbus","GA","Columbus technical college HVAC","not_available","31904",32.505788683333336,-84.98114481666667
"31904","Columbus","GA","Tractor Supply Co.","2012 Hwy 280-431 North","36867",32.480064,-85.02936
"31904","Columbus","GA","Hamilton Equipment","5250 Veterans Pkwy","31904",32.515945,-84.96822900000001
"31904","Columbus","GA","Engineering & Equipment Company","4747 Hamilton Rd","31904",32.50965118408203,-84.97047424316406
"31904","Columbus","GA","Ferguson Bath, Kitchen & Lighting Gallery","148 B Challenger Ct","31904-4400",32.5206184387207,-84.96971130371094
"31904","Columbus","GA","minuteKEY","6750 Veterans Pkwy","31909",32.541940000000004,-84.951882
"31904","Columbus","GA","Sherwin-Williams Paint Store","141 Challenger Ct","31904",32.520733,-84.970451
"31904","Columbus","GA","Jone's Welding And Industrial Supply","4919-4999 Hamilton Rd","31904",32.529424,-84.95834
"31904","Columbus","GA","Phenix Saw Works","5101 14th Ave","31904",32.514226,-84.97021
"31904","Columbus","GA","Ace Plumbing Company","3523 River Rd","31904",32.497038,-84.980239
"31904","Columbus","GA","HD Supply White Cap","2400 Whittlesey Rd","31909",32.53905105,-84.95672828
"31905","Fort Benning","GA","Maintenance office 5550","not_available","31905",32.35054016113281,-84.98665618896484
"31905","Fort Benning","GA","B.W. Capps & Son Inc.","1210 Broad St","36867",32.470040559418955,-85.0002759081252
"31906","Columbus","GA","Comer Custom Construction LLC","not_available","31907",32.49475,-84.932595
"31907","Columbus","GA","Lumber Liquidators Flooring","4211 Milgen Rd Ste 3","31907",32.51374245134025,-84.92239279810667
"31907","Columbus","GA","Sherwin-Williams Paint Store","5672 Milgen Rd","31907",32.52260208129883,-84.88787841796875
"31907","Columbus","GA","Fox Appliance Parts","4883 Milgen Rd","31907",32.519758,-84.908392
"31909","Columbus","GA","Harbor Freight Tools","6301 Veterans Pkwy Ste 400","31909",32.535567,-84.956528
"39817","Bainbridge","GA","The Home Depot","1414 Tallahassee Hwy","39819",30.884962229573468,-84.56768453121185
"39817","Bainbridge","GA","BAINBRIDGE NAPA TRUE VALUE","1602 E Shotwell St Ste B","39819",30.90233612060547,-84.55023193359375
"39817","Bainbridge","GA","Sherwin-Williams Paint Store","924 E Shotwell St","39819",30.9035587310791,-84.56390380859375
"39817","Bainbridge","GA","minuteKEY","500 E Alice St","39819",30.890025,-84.5710715
"39817","Bainbridge","GA","Fastenal","not_available","39817",30.909345113527493,-84.57162916438166
"39817","Bainbridge","GA","Mitchell Johnson Building Supply","619 Faceville Hwy","39819",30.891590118408203,-84.58281707763672
"39817","Bainbridge","GA","Tractor Supply Co.","1520 Tallahassee Hwy","39819",30.881906509399414,-84.56629943847656
"39823","Blakely","GA","Smith's","not_available","36319",31.292948401862866,-85.11134006809024
"39823","Blakely","GA","True Value Hardware","101 E Church St","36319",31.29302393,-85.11144141
"39823","Blakely","GA","Sears","11554 Columbia St., Suite B","39823",31.37206064815543,-84.94810559236151
"39823","Blakely","GA","Steve's Ace Hardware","709 S Church St","39823",31.37768,-84.93624
"39823","Blakely","GA","Blakely Ace Hardware","877 N Church St","39823",31.3493999,-84.9401
"39837","Colquitt","GA","Moore's Ace Hardware & Gifts","504 E Crawford St","39837",31.1697969,-84.729653
"39837","Colquitt","GA","Ace Hardware of Donalsonville","1405 S Tennille Ave","39845",31.026443,-84.879093
"39837","Colquitt","GA","Stone's Hardware","not_available","39845",31.040790729700262,-84.88719696787956
"39842","Dawson","GA","O' Reilly","483 Rountree Dr SW","39842",31.76804707876528,-84.44815428673829
"39842","Dawson","GA","Phillips True Value And Rental Center","138 W Lee St","39842",31.77358481,-84.44642442
"39846","Edison","GA","Husqvarna US","PO Box 189","39846",31.56003761291504,-84.73995208740234
