"zip","city","state","name","address","postalCode","lat","lon"
"46001","Alexandria","IN","MacAllister Rentals","3500 N Lee Pit Rd","47396",40.22051952,-85.56112309
"46001","Alexandria","IN","Pro-Floors","not_available","46001",40.25436,-85.671657
"46011","Anderson","IN","Fastenal","not_available","46013",40.0619383425023,-85.69226647930873
"46011","Anderson","IN","Carter Lumber","5625 Dr Martin Luther King Jr Blvd","46013",40.05745315551758,-85.718994140625
"46012","Anderson","IN","Northgate True Value Hardware","2400 Broadway St","46012",40.141134,-85.67684799999999
"46012","Anderson","IN","Bendle Lawn Equipment","3841 N State Road 9","46012",40.161949,-85.672883
"46012","Anderson","IN","Woodshop","not_available","not_available",40.112115,-85.663592
"46012","Anderson","IN","May Supply Co Inc","1525 Main St","46016",40.100726,-85.678596
"46013","Anderson","IN","Lowe's","3335 South Scatterfield Road","46013",40.08218,-85.6541976
"46013","Anderson","IN","Menards","2245 E 67th St","46013",40.04468266028078,-85.65172453060889
"46013","Anderson","IN","Tractor Supply Co.","6818 South Scatterfield Rd","46013",40.045275,-85.649211
"46013","Anderson","IN","Sherwin-Williams Paint Store","3328 S Scatterfield Rd","46013",40.081865,-85.65225500000001
"46013","Anderson","IN","minuteKEY","2321 Charles St","46013",40.0644038,-85.6497691
"46013","Anderson","IN","minuteKEY","3335 S Scatterfield Rd","46013",40.082127,-85.654424
"46017","Anderson","IN","Bobcat","A","47362",40.077814731961546,-85.63319175859165
"46032","Carmel","IN","Lowe's","14598 Lowes Way","46033",39.9989846,-86.1241771
"46032","Carmel","IN","The Home Depot","9855 North Michigan Rd","46032",39.9318704,-86.2296176
"46032","Carmel","IN","Menards","2150 E Greyhound Pass","46033",40.00308567198555,-86.12171962978232
"46032","Carmel","IN","White's Ace Hardware at Carmel","731 S Range Line Rd","46032",39.969838,-86.127178
"46032","Carmel","IN","McCool's Flooring Outlet","598 W Carmel Dr","46032",39.964508,-86.137304
"46032","Carmel","IN","Lee Supply Carmel: Plumbing, HVAC, & Appliances","415 W Carmel Dr","46032",39.961399,-86.133077
"46032","Carmel","IN","Carmel Welding, Supply & U-haul","not_available","46032",39.973295,-86.12729
"46032","Carmel","IN","PPG Porter Paints","148 W Carmel Dr","46032",39.96196365356445,-86.12932586669922
"46032","Carmel","IN","Kobalt Garage Door","10401 N Meridian St #205","46290",39.93889236450195,-86.1563949584961
"46032","Carmel","IN","Jack Lourie Floors","not_available","46077",39.930725,-86.237987
"46032","Carmel","IN","PPG Porter Paints","10111 N Michigan Rd","46032",39.93353038284929,-86.23253861855481
"46032","Carmel","IN","Runyon Equipment Rental","410 W Carmel Dr","46032",39.962726437184934,-86.1326240151593
"46032","Carmel","IN","Benjamin Moore & ICC Floors","4014 W 96th St","46268",39.926897,-86.229265
"46032","Carmel","IN","Winner Hardware Specialties","4340 W 96th St Ste 101","46268",39.926541,-86.234325
"46032","Carmel","IN","Carmel Glass & Mirror","not_available","46280",39.942266,-86.147539
"46032","Carmel","IN","Sherwin-Williams Paint Store","831 S Rangeline Rd","46032",39.968507515157604,-86.12635374069214
"46032","Carmel","IN","Sherwin-Williams Paint Store","11036 N Michigan Rd","46077",39.94677,-86.24001
"46033","Carmel","IN","Fishers Do-It Center","11881 Lakeside Dr","46038",39.95996669692646,-86.03660531785857
"46033","Carmel","IN","Carmel Garage Doors","13190 Hazel Dell Pkwy #110B","46033",39.97991180419922,-86.07222747802734
"46033","Carmel","IN","Sherwin-Williams Paint Store","7226 Fishers Crossing Dr","46038",39.957731,-86.043899
"46033","Carmel","IN","Economy Plumbing Supply","9755 Hague Rd","46256",39.92861562,-86.03264414
"46033","Carmel","IN","Best Way Lock and Key","street","46033",39.97425895010578,-86.08406066894531
"46033","Carmel","IN","Carmel Welding","not_available","46033",39.97358662844322,-86.05858869561204
"46033","Carmel","IN","Sherwin-Williams Paint Store","14795 Sunny Dell Ln","46062",40.0029192,-86.0698858
"46034","Cicero","IN","Sharkey Nails It Construction","5674 Doe Way","46062",40.1010319,-86.072919
"46035","Colfax","IN","Wright Hardware & LP","101 N Oakland St.","46035",40.194427490234375,-86.66793060302734
"46036","Elwood","IN","Tops Home Center #55","2927 S A St","46036",40.276328,-85.822467
"46036","Elwood","IN","Madison County Vinyl Products","10483 N State Road 37","46036",40.25577286666667,-85.83190798333334
"46037","Fishers","IN","Fishers Ace Hardware","11581 Geist Pavilion Dr","46037",39.9572999,-85.916899
"46037","Fishers","IN","Fishers Garage Doors","12692 E 116th St","46037",39.958229064941406,-85.93817138671875
"46037","Fishers","IN","Johnson's Lawnmower Repair","not_available","46038",39.95823382885298,-86.01504476533559
"46037","Fishers","IN","Best Aire Compressor Services, Inc.","6191 W 400 N","46140",39.929767,-86.015644
"46037","Fishers","IN","MacAllister Rentals","13450 Britton Park Rd","46038",39.985655,-86.007621
"46037","Fishers","IN","Sherwin-Williams Paint Store","12680 E 116th St","46037",39.958290000000005,-85.938255
"46037","Fishers","IN","Best Fishers Garage Door Repair","11501 Geist Pavilion Dr #118","46037",39.95683288574219,-85.9159164428711
"46037","Fishers","IN","Day & Night Key Services locksmith","8990 E 116th St","46038",39.957564,-86.010621
"46038","Fishers","IN","Sherwin-Williams Paint Store","14155 Mundy Dr","46060",39.99440346673026,-86.00334944076411
"46039","Forest","IN","Martin Hardware And Automotive","175 E Main St, Russiaville, IN 46979","46979",40.41704559326172,-86.27083587646484
"46041","Frankfort","IN","minuteKEY","2460 E Wabash St","46041",40.2813324,-86.4785999
"46041","Frankfort","IN","fastenal","2101 Indiana 28, Frankfort, IN 46041","46041",40.27803039550781,-86.54524993896484
"46041","Frankfort","IN","Sherwin-Williams Paint Store","404 S Hoke Ave","46041",40.277469,-86.497074
"46041","Frankfort","IN","Circle Supply","1725 W State Rd 28","46041",40.278978974359,-86.5351
"46041","Frankfort","IN","Mcf Farm And Hardware","not_available","46041",40.28028962840393,-86.49020035108235
"46041","Frankfort","IN","Rural King","2401 E Wabash St","46041",40.276822741407486,-86.48151135581969
"46041","Frankfort","IN","Phoenix Lawn & Garden","6292 W Co Rd 0 Ns","46041",40.28783,-86.62332
"46041","Frankfort","IN","Custom building products","3800 West Highway 28","46041",40.279544830322266,-86.57868194580078
"46041","Frankfort","IN","Kramer Lumber","608 west wahington st","46041",40.28090073863882,-86.51806354522705
"46052","Lebanon","IN","Lowe's","6711 E. State Rd 334","46077",39.94716088167826,-86.34178738130015
"46052","Lebanon","IN","Menards","402 Sam Ralston Rd","46052",40.05098336134953,-86.49018466472626
"46052","Lebanon","IN","Tractor Supply Co.","2423 North Lebanon St","46052",40.07038,-86.472754
"46052","Lebanon","IN","General Cable","311 S Enterprise Blvd","46052",40.033878326416016,-86.4869613647461
"46052","Lebanon","IN","Howard's Lawn & Garden","1115 W South St","46052",40.0464694804061,-86.4785225103119
"46052","Lebanon","IN","Kramer Lumber","Lebanon","46052",40.08261043039785,-86.51269911759083
"46055","Mccordsville","IN","Mccordsville Garage Doors","6425 W Broadway","46055",39.89266586303711,-85.92575073242188
"46055","Mccordsville","IN","Proportion-Air","8250 N 600 W","46055",39.901752,-85.919867
"46060","Noblesville","IN","Lowe's","16800 Mercantile Blvd","46060",40.0327761,-85.9921988
"46060","Noblesville","IN","Noblesville Ace Hdwe","603 Westfield Rd","46060",40.045173999999996,-86.02696
"46060","Noblesville","IN","The Home Depot","3300 Conner Street","46060",40.0472156,-85.9895209
"46060","Noblesville","IN","Tractor Supply Co.","2375 East Pleasant St Rte 37 South","46060",40.038741338859836,-85.99641285892835
"46060","Noblesville","IN","Kirk Hardware","848 Logan St","46060",40.04666106342987,-86.01404824928517
"46060","Noblesville","IN","Sherwin-Williams Commercial Paint Store","14669 Herriman Blvd","46060",40.002077,-86.006497
"46060","Noblesville","IN","Sherwin-Williams Paint Store","345 Sheridan Rd","46060",40.04881267903405,-86.02584576749612
"46060","Noblesville","IN","Fastenal","14775 Herriman Blvd","46060",40.0035400390625,-86.00626373291016
"46060","Noblesville","IN","minuteKEY","16865 Clover Rd","46060",40.03390884399414,-85.99829864501953
"46060","Noblesville","IN","Noblesville Garage Doors Repair","1446 Conner Street","46060",40.045538173211014,-86.00724220275879
"46062","Noblesville","IN","Carter Lumber","2107 Westfield Rd","46062",40.04228591918945,-86.05555725097656
"46062","Noblesville","IN","Benjamin Moore & ICC Floors","3245 E SR 32","46074",40.04152997402461,-86.11116170883179
"46062","Noblesville","IN","Chapman Electric Supply","US IN 32","46060",40.04362622548966,-86.04460764036241
"46062","Noblesville","IN","Sherwin-Williams Paint Store","3663 E State Road 32","46074",40.04262,-86.103659
"46069","Sheridan","IN","I'm A Tool Room","North Union Street","46074",40.05514742712431,-86.12918281434033
"46069","Sheridan","IN","Keever's Hardware","300 S Main St","46069",40.13465172818977,-86.22066567756993
"46069","Sheridan","IN","MacAllister Rentals","1107 E 181st St","46074",40.04859161376953,-86.1391830444336
"46072","Tipton","IN","Tipton Building Supplies LLC","520 N West St","46072",40.28972625732422,-86.04368591308594
"46072","Tipton","IN","Ace Hardware of Tipton","844 E Jefferson Street","46072",40.2822,-86.0322
"46072","Tipton","IN","Tractor Supply Co.","840 East Jefferson St","46072",40.284026054831656,-86.03042286946825
"46074","Westfield","IN","Tractor Supply Co.","17500 Austrian Pine Way","46074",40.04103,-86.156781
"46074","Westfield","IN","Automatic Tool Company","17937 Oak Ridge Rd","not_available",40.04062,-86.146136
"46074","Westfield","IN","Manufacturers Marketing","17225 Westfield Park Rd, Westfield, IN 46074","46074",40.0376091003418,-86.13778686523438
"46075","Whitestown","IN","Akard True Value Hardware","25 Boone Village","46077",39.951412324974534,-86.27722691099416
"46075","Whitestown","IN","Sherwin-Williams Paint Store","1562 W Oak St","46077",39.95068280489522,-86.28215789794922
"46075","Whitestown","IN","Zionsville Garage Doors","1494 W Oak St","46077",39.95046615600586,-86.28136444091797
"46077","Zionsville","IN","Utility Supply","8787 Americana Blvd","46268",39.914424,-86.251711
"46077","Zionsville","IN","Northern Tool + Equipment","9345 Waldemar Road","46268",39.922176361083984,-86.2293701171875
"46105","Bainbridge","IN","Equipment Service LLC","6688 E County Road 600 N","46105",39.7463,-86.7262
"46107","Beech Grove","IN","Lowe's","4444 South Emerson Avenue","46203",39.7021849,-86.0852509
"46107","Beech Grove","IN","Sherwin-Williams Paint Store","4594 S Emerson Ave","46203",39.700797840901224,-86.08317017555237
"46107","Beech Grove","IN","Northern Tool + Equipment","5236 Victory Dr","46203",39.702533,-86.078997
"46107","Beech Grove","IN","Beech Grove Garage Doors Repair","703 Main St","46107",39.721370697021484,-86.09002685546875
"46107","Beech Grove","IN","minuteKEY","4444 S Emerson Ave","46203",39.702083587646484,-86.08573150634766
"46112","Brownsburg","IN","Lowe's","630 West Northfield Drive","46112",39.8590557,-86.4100023
"46112","Brownsburg","IN","Sherwin-Williams Paint Store","80 E Garner Rd","46112",39.86599813598902,-86.39062885757608
"46112","Brownsburg","IN","minuteKEY","400 W Northfield Dr","46112",39.85912322998047,-86.3960952758789
"46112","Brownsburg","IN","Brownsburg Garage Doors Repair","1044 E Main St","46112",39.836563,-86.379577
"46112","Brownsburg","IN","Thrifty Supply","not_available","46112",39.837986,-86.380626
"46112","Brownsburg","IN","Brownsburg Ace Hardware","800 E Main St","46112",39.83942,-86.38328
"46113","Camby","IN","Menards","8301 Windfall Ln","46113",39.64118377414444,-86.33233412991102
"46113","Camby","IN","Camby Garage Doors & More","8411 Windfall Ln #150","46113",39.64035415649414,-86.33346557617188
"46113","Camby","IN","minuteKEY","8191 Upland Way","46113",39.642218,-86.328211
"46113","Camby","IN","Tractor Supply Co.","435 North Town Center Rd","46158",39.618081571537026,-86.3521003214264
"46113","Camby","IN","Indy Garage Door Repair Garage Doors","6329 S Mooresville Rd #A","46221",39.67081832885742,-86.26947021484375
"46113","Camby","IN","Shortys HVAC Supply","not_available","46113",39.65201187133789,-86.2831802368164
"46113","Camby","IN","honey do crew","not_available","46158",39.60394222063631,-86.34608000190035
"46120","Cloverdale","IN","Dd comp","Jl. RE. Marthadinata","46125",39.522015,-86.6413422
"46120","Cloverdale","IN","Cloverdale Building Supplies Incorporated","not_available","46120",39.511101110317064,-86.79357133073609
"46121","Coatesville","IN","Coopers OK Hardware","Hwy 40","46180",39.63864892516462,-86.63659673344327
"46122","Danville","IN","Do It Best Ferguson Hardware","1503 E Main St","46122",39.76094275782433,-86.49680634421102
"46122","Danville","IN","R&R Products","1285 E Main St","46122",39.7609216310783,-86.49962748019269
"46122","Danville","IN","Tractor Supply Co","16 Ridge Ave","46122",39.760595,-86.489351
"46122","Danville","IN","Danville Garage Doors Repair","244 W Broadway St","46122",39.75923538208008,-86.52670288085938
"46122","Danville","IN","minuteKEY","900 W Main St","46168",39.699668884277344,-86.41655731201172
"46123","Avon","IN","Lowe's","7893 East US Highway 36","46123",39.7607751,-86.3832237
"46123","Avon","IN","Menards","10555 U.S. 36","46123",39.76168397171551,-86.33515216092363
"46123","Avon","IN","Sherwin-Williams Paint Store","7345 E US Highway 36","46123",39.76242628434951,-86.39272475471422
"46123","Avon","IN","minuteKEY","7893 E US Highway 36","46123",39.76106262207031,-86.38282775878906
"46123","Avon","IN","Tractor Supply Co.","129 North Perry Rd","46168",39.719212,-86.357796
"46123","Avon","IN","minuteKEY","10555 E US Highway 36","46123",39.761600494384766,-86.334716796875
"46123","Avon","IN","Avon Garage Doors","180 N Avon Ave #240","46123",39.765098571777344,-86.4004898071289
"46123","Avon","IN","rent it","not_available","46123",39.768978118896484,-86.38529205322266
"46123","Avon","IN","minuteKEY","9500 EUS Highway","46123",39.761092,-86.3671279
"46124","Edinburgh","IN","The Garage/Speedshop","not_available","46124",39.334559,-85.97651
"46124","Edinburgh","IN","Gillman Do It Best Center","US 31","46124",39.34395790896127,-85.97479019546003
"46124","Edinburgh","IN","Gillman Home Center","15901 N US Highway 31","46124",39.34386309607326,-85.9746356166975
"46127","Falmouth","IN","Miller Custom Wood Products","4715 W 800 N","not_available",39.70066077,-85.30360535
"46130","Fountaintown","IN","New Palestine Hardware","4083 South Arbor Ln","46163",39.726495,-85.919348
"46131","Franklin","IN","Lowe's","2219 North Morton Street","46131",39.505173,-86.0667405
"46131","Franklin","IN","Summerfield Ace Hdw LLC","2101 Independence Dr","46143",39.5854,-86.1037
"46131","Franklin","IN","Tractor Supply Co.","1540 North Morton St","46131",39.49247750589324,-86.0661043875008
"46131","Franklin","IN","Dannemiller True Value Hardware & Service Center","2991 S Grove Blvd","46106",39.5817332,-86.1557883
"46131","Franklin","IN","minuteKEY","2219 N Morton St","46131",39.505435,-86.066295
"46131","Franklin","IN","Drainage Solutions, Inc.","771 International Dr.","46131",39.51956118743691,-86.06659483909614
"46131","Franklin","IN","plumbers supply showroom","not_available","46131",39.51310729980469,-86.07197570800781
"46131","Franklin","IN","PureSoft Water Treatment Inc","3428 N Centerline Rd","46131",39.52693083316107,-86.1018022883606
"46131","Franklin","IN","Whiteland Garage Doors Repair","225 N US Highway 31","46184",39.55472183227539,-86.08798217773438
"46131","Franklin","IN","Sherwin-Williams Paint Store","986 N Morton St","46131",39.48985050404815,-86.06492042541504
"46131","Franklin","IN","Greenwood Garage Door Repair","2200 Independence Dr","46143",39.58424758911133,-86.10262298583984
"46131","Franklin","IN","Lumber Liquidators, Inc.","2117 Independence Dr","46143",39.585879553796346,-86.102950771123
"46131","Franklin","IN","minuteKEY","2125 N Morton St","46131",39.5024541,-86.066621
"46131","Franklin","IN","Robotics Lab","not_available","46181",39.40745038340327,-86.16062290003723
"46131","Franklin","IN","Franklin Garage Doors Repair","39 E Court St","46131",39.48017883300781,-86.05448150634766
"46131","Franklin","IN","Premier Outdoor Power Equipment","675 US-31","46184",39.493712,-86.066857
"46131","Franklin","IN","Crescent Electric Supply","2765 N Morton St, Franklin, IN 46131","46131",39.512855529785156,-86.07170867919922
"46135","Greencastle","IN","Sears","27A Putnam Plaza","46135",39.647906,-86.829931
"46135","Greencastle","IN","Husqvarna US","950 N Jackson St","46135",39.652645111083984,-86.86608123779297
"46135","Greencastle","IN","Tractor Supply Co.","25 Putnam Plz","46135",39.647627,-86.830313
"46135","Greencastle","IN","Headley Hardware","841 Indianapolis Rd","46135",39.6458854675293,-86.8447036743164
"46135","Greencastle","IN","Culligan Water Conditioning of Putnam County, IN","17 Cedar Dr","46135",39.63402557373047,-86.84964752197266
"46140","Greenfield","IN","The Home Depot","2055 Barrett Drive","46140",39.8152713,-85.7666452
"46140","Greenfield","IN","Tractor Supply Co.","1645 North State St","46140",39.80790142263286,-85.76794624328613
"46140","Greenfield","IN","Greenfield Garage Door Repair","143 W Green Meadows Dr #1","46140",39.80355453491211,-85.77210235595703
"46140","Greenfield","IN","Sherwin-Williams Paint Store","1557 N State St","46140",39.805581,-85.768877
"46140","Greenfield","IN","Sears","1244 W. Main Street","46140",39.785295313564795,-85.78735605635302
"46140","Greenfield","IN","Custom Metal Industries","2042 E Main St","46140",39.78728103637695,-85.73622131347656
"46140","Greenfield","IN","Superior Mowers And More","1791 E Main St","46140",39.785900430454475,-85.74041604995728
"46142","Greenwood","IN","Menards","300 S Marlin Dr.","46142",39.60959512628968,-86.16128187192741
"46142","Greenwood","IN","The Home Depot","850 S State Road 135","46143",39.6044307,-86.1617208
"46142","Greenwood","IN","minuteKEY","300 S. Marlin Dr.","46142",39.60987,-86.161588
"46142","Greenwood","IN","Vacuum Center","255 S State Road 135","46142",39.61208643228115,-86.15777092848147
"46142","Greenwood","IN","Dannemiller True Value Hardware & Service Center","300 S State Road 135","46142",39.61104202270508,-86.15913391113281
"46142","Greenwood","IN","Lock & Key Wizard locksmith","3003 Meridian Meadows Rd","46142",39.63098907470703,-86.15870666503906
"46142","Greenwood","IN","Sherwin-Williams Paint Store","1282 Greenwood Park West Dr","46142",39.634575,-86.125065
"46142","Greenwood","IN","Sherwin-Williams Paint Store","331 S State Road 135","46142",39.6101170648424,-86.15798955213629
"46142","Greenwood","IN","minuteKEY","882 S State Road 135","46143",39.60276412963867,-86.16216278076172
"46142","Greenwood","IN","3 Sons Lock Service","1214 Burr Oak Ct","46143",39.60574431127308,-86.14098877647633
"46143","Greenwood","IN","Harbor Freight Tools","707 S Madison Ave #1","46143",39.605709999999995,-86.105754
"46143","Greenwood","IN","Lowe's","8850 South Madison Ave","46227",39.63698034,-86.11924731
"46143","Greenwood","IN","Ace Hardware","8904 S Meridian St","46217",39.6364860534668,-86.1593017578125
"46143","Greenwood","IN","Tractor Supply Co.","1460 South Us 31","46143",39.595694,-86.104868
"46143","Greenwood","IN","minuteKEY","8850 Madison Ave","46227",39.6371,-86.119718
"46143","Greenwood","IN","Mark's Vacuum & Janitorial Supply","959 Sayre Dr","46143",39.626042,-86.08439200000001
"46148","Knightstown","IN","Dalton Distributing","not_available","47385",39.83829841275694,-85.43250233470731
"46151","Martinsville","IN","Rural King","1800 S Ohio St","46151",39.4101698,-86.4272203
"46151","Martinsville","IN","Martinsville Ace Hardware","2064 Burton Ln","46151",39.4062369,-86.436795
"46151","Martinsville","IN","Gosport Harrdware Store","not_available","47433",39.349272,-86.66392
"46151","Martinsville","IN","Forest Commodities","not_available","46166",39.40313432337264,-86.52958008640339
"46151","Martinsville","IN","Husqvarna US","1510 S Ohio St","46151",39.41292953491211,-86.42389678955078
"46151","Martinsville","IN","Fastenal","195 Morton Ave","46151",39.41645050048828,-86.43046569824219
"46151","Martinsville","IN","Sherwin-Williams Paint Store","660 Birk Rd","46151",39.41932848368558,-86.4082646369934
"46158","Mooresville","IN","Lowe's","851 Bridge Street","46158",39.6154785,-86.3589859
"46158","Mooresville","IN","SAMARITAN MISSION","7613 Willsey Lane","46168",39.65126974,-86.37160003
"46158","Mooresville","IN","Sherwin-Williams Paint Store","120 Fields St","46158",39.61610259443573,-86.35731339454651
"46158","Mooresville","IN","Ace Hardware Mooresville","480 S Indiana St","46158",39.6068029,-86.374938
"46158","Mooresville","IN","Mooresville Garage Door Repair Co.","496 Saint Clair Street","46158",39.61861504436823,-86.3656497001648
"46161","Morristown","IN","J. R. Wortman","not_available","46161",39.673219,-85.697072
"46164","Nineveh","IN","Cline's Windows & Doors","6989 S 300 W","46181",39.371639251708984,-86.15931701660156
"46168","Plainfield","IN","Plainfield Equipment, Inc.","716 W Main St","46168",39.699806213378906,-86.41364288330078
"46168","Plainfield","IN","Harbor Freight Tools","2600 E Main St","46168",39.71692848317992,-86.36088262358926
"46168","Plainfield","IN","Ace Hardware","1800 E Main St","46168",39.71126174926758,-86.37722778320312
"46168","Plainfield","IN","Do It Best The Hardware","not_available","46168",39.706427000000005,-86.38980699999999
"46168","Plainfield","IN","minuteKEY","2373 E Main St","46168",39.7136773,-86.3678361
"46168","Plainfield","IN","Plainfield Llc. Garage Door Repair","126 W Main St","46168",39.70301818847656,-86.40299224853516
"46168","Plainfield","IN","Sherwin-Williams Paint Store","2377 E Main St","46168",39.713373,-86.36671199999999
"46173","Rushville","IN","Hoeing Supply","not_available","46173",39.6082696379357,-85.44760821576428
"46173","Rushville","IN","Carter Lumber","2023 N St Rd 3","46173",39.64070369316985,-85.44562388910478
"46173","Rushville","IN","Tops Home Center - Rushville","212 S Main St","46173",39.60523986816406,-85.44409942626953
"46173","Rushville","IN","MDP Outdoor Solutions","2023 N State Road 3","46173",39.64138,-85.44622
"46173","Rushville","IN","Tractor Supply Co.","1526 North Main St","46173",39.624252153368964,-85.44336588082854
"46173","Rushville","IN","Tweedy Lumber Do-it Center","100 S Perkins St","46173",39.60715439305172,-85.4432365570272
"46176","Shelbyville","IN","Rural King","1800 IN-44","46176",39.522841984610594,-85.74941217899328
"46176","Shelbyville","IN","minuteKEY","2500 Progressive Parkway","46176",39.52677,-85.743135
"46176","Shelbyville","IN","Sears","510 Saraina Rd","46176",39.518009185791016,-85.75240325927734
"46176","Shelbyville","IN","Builders","not_available","46176",39.503948652402826,-85.83668832607766
"46176","Shelbyville","IN","Shelby County Ace Hardware","2350 E State Road 44","46176",39.5222479,-85.745178
"46176","Shelbyville","IN","Carter Lumber","3246 E State Road 44","46176",39.534396098581695,-85.71898576830345
"46201","Indianapolis","IN","Hayden's Appliances","1690 Wales Ave Ste A","46218",39.78550608248999,-86.11677243964785
"46201","Indianapolis","IN","Master Security Solution locksmith","3925 E New York St","46201",39.771949,-86.09894
"46201","Indianapolis","IN","Ace Hardware Twin Aire","3000 Southeastern Ave","46203",39.759137,-86.112271
"46201","Indianapolis","IN","Quality Hardware And Millworks","2626 E Michigan St","46201",39.77471160888672,-86.11817932128906
"46201","Indianapolis","IN","Mullins tool rental","2528 E Michigan St","46201",39.77460479736328,-86.1195297241211
"46202","Indianapolis","IN","Fusek's True Value","350 E New York St -","46204",39.77152526607932,-86.1513691001713
"46202","Indianapolis","IN","plus locksmith locksmith","1 Indiana Sq #2420","46204",39.770572662353516,-86.15531921386719
"46202","Indianapolis","IN","Grainger Industrial Supply","1819 W 16th St","46202",39.78896962101998,-86.19259151099325
"46202","Indianapolis","IN","Allover Garage Doors & Gates Garage Doors Repair","55 Monument Cir #2000","46204",39.76823425292969,-86.15728759765625
"46202","Indianapolis","IN","Sherwin-Williams Commercial Paint Store","1301 N Meridian St","46202",39.784447,-86.157105
"46202","Indianapolis","IN","North Meridian Hardware","not_available","46202",39.786791,-86.156903
"46202","Indianapolis","IN","TRAK KIT Booth 3772 at CEDIA","200 S Capitol Ave","46225",39.76357650756836,-86.16348266601562
"46202","Indianapolis","IN","Sutton Garten Co.","901 N. Senate Ave.","46202",39.780069707466176,-86.16236410610479
"46202","Indianapolis","IN","Welworth Lock","845 Illinois Street","not_available",39.779149,-86.159238
"46202","Indianapolis","IN","Pro-Build Carter Lee","1717 W Washington St","46222",39.765046999999996,-86.191469
"46202","Indianapolis","IN","Fastenal","16th Street","not_available",39.78899383544922,-86.17616271972656
"46202","Indianapolis","IN","Economy Plumbing Supply Company","625 N Capitol Ave","46204",39.776167,-86.160928
"46202","Indianapolis","IN","Fusek's Shipping Dept","350  N College","46202",39.76922907177533,-86.14503273464719
"46202","Indianapolis","IN","A Magic Touch Maid Service","137 E Ohio St","46204",39.76961898803711,-86.1552734375
"46202","Indianapolis","IN","Capitol Garage Doors","201 S Capitol Ave #201","46225",39.76352310180664,-86.16144561767578
"46202","Indianapolis","IN","Kirby Risk","1440 W 16th St","46202",39.78979101743638,-86.18708343220982
"46203","Indianapolis","IN","Lee Supply Co.","3205 Madison Ave","46227",39.722015,-86.14850899999999
"46203","Indianapolis","IN","Suding Hardware","2218 Shelby St","46203",39.73668,-86.14000899999999
"46203","Indianapolis","IN","Plumbers Supply","not_available","46203",39.73895987769534,-86.07430787583982
"46203","Indianapolis","IN","Interior Supply, Inc.","6312 Southeastern Ave","46203",39.731083,-86.055222
"46203","Indianapolis","IN","Avenue Garage Door Repair Garage Doors Repair","630 Virginia Ave","46203",39.757930755615234,-86.14567565917969
"46203","Indianapolis","IN","Eastman Products","not_available","46227",39.71208064192975,-86.1356801581758
"46203","Indianapolis","IN","Sherwin-Williams Commercial Paint Store","3434 S East St","46227",39.71589279174805,-86.14939880371094
"46203","Indianapolis","IN","All-Phase Electric Supply","2210 National Ave","46227",39.712808,-86.12261
"46203","Indianapolis","IN","Wholesale Tool","601 E Hanna Ave","46227",39.705940999999996,-86.14801700000001
"46203","Indianapolis","IN","Julie's Chainsaw & Lawnmower Sharpening","Arlington Ave.","46237",39.70529007900922,-86.06013195592598
"46203","Indianapolis","IN","Indy Urban Hardwood","3643 E Raymond","46203",39.73598,-86.10346
"46205","Indianapolis","IN","Sullivan Hardware","4838 North Pennsylvania Street","46205",39.84241,-86.1549
"46205","Indianapolis","IN","Omni Source","1212 E 25th St","46205",39.803652,-86.13761
"46205","Indianapolis","IN","Hoosier Tools","5120 Brouse Ave","46205",39.8457568,-86.1235273
"46205","Indianapolis","IN","Chisholm Lumber and millwork","Roosevelt Ave","not_available",39.799087159367296,-86.1077312631438
"46205","Indianapolis","IN","Steel House","not_available","46205",39.8028564453125,-86.13871765136719
"46205","Indianapolis","IN","Winthrop Supply Co.","4899 winthrop","46205",39.842701,-86.14086999999999
"46205","Indianapolis","IN","At Your Service Glass and More","3329 Station St","46218",39.8166252,-86.1040183
"46205","Indianapolis","IN","R&R Hayden Appliances","3802 E 30th St","46218",39.81098175048828,-86.10249328613281
"46208","Indianapolis","IN","Ace Hardware Store","3833 N Illinois St","46208",39.82567596435547,-86.15874481201172
"46208","Indianapolis","IN","minuteKEY","5555 Michigan Rd","46228",39.8531494140625,-86.19307708740234
"46208","Indianapolis","IN","Overhead Garage Doors Indy Garage Doors","1950 Kessler Boulevard West Dr","46228",39.856051,-86.195227
"46214","Indianapolis","IN","stone center","not_available","46214",39.812660217285156,-86.28004455566406
"46214","Indianapolis","IN","Sears","not_available","46222",39.79201321784444,-86.26894925891843
"46214","Indianapolis","IN","Indianapolis Winsupply Co","340 Transfer Dr Ste B","46214",39.770692,-86.29916800000001
"46214","Indianapolis","IN","National Applianc Centre","3032 Aragon Woods Ct","46214",39.810245513916016,-86.30561065673828
"46214","Indianapolis","IN","Leslie Pool Supplies","835 Beachway Dr","46224",39.77811451802891,-86.26777422327042
"46214","Indianapolis","IN","Enterprise Machinery Sales Inc","1725 Expo Ln","46214",39.787989,-86.304158
"46214","Indianapolis","IN","Accurate Cutting Technologies, Inc.","1111 Country Club Rd","46234",39.780507,-86.30690799999999
"46216","Indianapolis","IN","Lawrence Garage Doors Repair","9150 Harrison Park Ct Ste D","46216",39.85244369506836,-86.00782012939453
"46216","Indianapolis","IN","Garage Door & More Garage Doors","5745 Lee Rd","46216",39.85859680175781,-85.99988555908203
"46217","Indianapolis","IN","The Appliance Outlet","7747 S Meridian St","46217",39.65402757497548,-86.15806818008423
"46217","Indianapolis","IN","Door Services of Indiana","4010 S Meridian St","46217",39.707231,-86.158956
"46217","Indianapolis","IN","Mainstyle Flooring","5505 S Meridian St","46217",39.6858856,-86.1581157
"46217","Indianapolis","IN","PIRTEK Indianapolis South","3015 S Harding St","46217",39.720842,-86.186554
"46217","Indianapolis","IN","Indy Rental Sales Inc","3016 W Southport Rd","46217",39.664441,-86.210115
"46217","Indianapolis","IN","Sunbelt rentals","4949 S Harding St","46217",39.693661,-86.185112
"46218","Indianapolis","IN","Precision Propeller","2427 N Ritter Ave","46218",39.80350468334357,-86.07204835215825
"46218","Indianapolis","IN","Midwest Mole Maintance Shop","2460 N Graham Ave","46218",39.80241340866755,-86.0704443001956
"46218","Indianapolis","IN","Real Manns Tires","2554 Emerson","not_available",39.80537336457795,-86.08379281199088
"46219","Indianapolis","IN","Lowe's","8801 East 25th Street","46219",39.802778,-86.0132436
"46219","Indianapolis","IN","Central Ace Hardware","1025 N Arlington Ave","46219",39.781976,-86.064019
"46219","Indianapolis","IN","Southland Flooring Supply","not_available","46219",39.810326,-86.06352
"46219","Indianapolis","IN","Cisco Seeds","602 N Shortridge Rd","46219",39.778182,-86.04155899999999
"46219","Indianapolis","IN","Fastenal","510 s. post road","46219",39.761783599853516,-86.0096664428711
"46219","Indianapolis","IN","Iwdc","6331 E 30th St","46219",39.81007,-86.057006
"46219","Indianapolis","IN","Giant Garage Door","6433 E Washington St #136","46219",39.770572662353516,-86.05656433105469
"46219","Indianapolis","IN","City Electric Supply Indianapolis East","8801 Boehning Ln","46219",39.79922244201605,-86.01167746389234
"46219","Indianapolis","IN","minuteKEY","8801 E 25th St","46219",39.802783,-86.01308
"46219","Indianapolis","IN","A-1 Glass Block","6111 E Washington St, Indianapolis, IN 46219","46219",39.770999908447266,-86.06098937988281
"46219","Indianapolis","IN","Sherwin-Williams Commercial Paint Store","221 S Franklin Rd","46219",39.767625,-86.020356
"46220","Indianapolis","IN","Lowe's","6002 North Rural Street","46220",39.8640179,-86.1187682
"46220","Indianapolis","IN","Sullivan Hardware & Garden","6955 N Keystone Ave","46220",39.8820747,-86.1218411
"46220","Indianapolis","IN","Sherwin-Williams Paint Store","2221A E 62nd St","46220",39.86852804162899,-86.12422707016371
"46220","Indianapolis","IN","Ace Hardware","2369 E 62nd St","46220",39.86854015454559,-86.12233659664703
"46220","Indianapolis","IN","Sullivan Hardware Warehouse","5330 N Tacoma Ave","46220",39.849574,-86.120879
"46220","Indianapolis","IN","Ace Garage Door","1111 E 54th St #100B","46220",39.85055160522461,-86.13897705078125
"46220","Indianapolis","IN","Marketing War Corporation","1111 E 54th St Ste 110","46220",39.8505516052246,-86.1389770507813
"46220","Indianapolis","IN","Reese's Wholesale Building Supplies","1200 E 52nd St","46205",39.848365,-86.138927
"46220","Indianapolis","IN","Garage Door Repair Indianapolis Garage Doors","1037 Broad Ripple Ave","46220",39.86885070800781,-86.14048767089844
"46220","Indianapolis","IN","minuteKEY","6002 N Rural St","46220",39.864118,-86.118303
"46220","Indianapolis","IN","Aasen's Locksmith","5312 N Keystone Ave","46220",39.849775,-86.123124
"46220","Indianapolis","IN","minuteKEY","5550 E Fall Creek Parkway North Dr","46226",39.853824615478516,-86.0857162475586
"46220","Indianapolis","IN","Reese Wholesale","1155 East 54 th Street","46220",39.8509184717384,-86.13848365434298
"46221","Indianapolis","IN","Ace Hardware West Washington","5331 W Washington Street","46241",39.7522,-86.251199
"46221","Indianapolis","IN","Utterback Supply","not_available","46221",39.751409,-86.190197
"46221","Indianapolis","IN","White Cap Construction Supply","7130 W McCarty St","46241",39.75507736206055,-86.2854995727539
"46221","Indianapolis","IN","Sherwin-Williams Commercial Paint Store","6692 W Washington St","46241",39.745269,-86.276574
"46221","Indianapolis","IN","MacAllister Rentals","6870 W Washington St","46241",39.74481845,-86.28079988
"46221","Indianapolis","IN","The Tway Company","1609 Oliver Ave","46221",39.75817108154297,-86.18932342529297
"46221","Indianapolis","IN","HD Supply White Cap","7130 W McCarty Street","46241",39.755266,-86.285466
"46221","Indianapolis","IN","Brents Lawnmower Sales & Service","4102 Rockville Rd","46222",39.763184,-86.231709
"46221","Indianapolis","IN","Sherwin-Williams Floorcovering Store","5350 W Raymond St","46241",39.736228999999994,-86.252299
"46221","Indianapolis","IN","American Welding","2629 Rand Rd","46241",39.726802825927734,-86.25128936767578
"46221","Indianapolis","IN","General Supply","not_available","46241",39.677611248337605,-86.30096221614764
"46222","Indianapolis","IN","Indianapolis Garage Doors Garage Doors","3690 W 30th St","46222",39.809851,-86.222597
"46222","Indianapolis","IN","Henthorn Mower and Engine Service","2220 Lafayette Rd","46222",39.79746,-86.20868399999999
"46222","Indianapolis","IN","Modern Builders Supply, Inc. Indianapolis Branch","3224 Lafayette Rd","46222",39.812252,-86.22455500000001
"46224","Indianapolis","IN","Lowe's","975 Beachway Drive","46224",39.777601,-86.2664936
"46224","Indianapolis","IN","Garage Door Guru Garage Doors","5841 Crawfordsville Rd #107","46224",39.79663848876953,-86.26262664794922
"46224","Indianapolis","IN","Sears","6022 Crawfordsville Road","46224",39.8007684,-86.2656697
"46224","Indianapolis","IN","Bob Shaw Lock and Key","5604 Rockville Rd","46224",39.76504,-86.257667
"46224","Indianapolis","IN","minuteKEY","975 Beachway Dr","46224",39.77716064453125,-86.26624298095703
"46224","Indianapolis","IN","Sherwin-Williams Paint Store","5841 Crawfordsville Rd","46224",39.79681885261795,-86.26272175572161
"46225","Indianapolis","IN","Cit E Scapes Garden Center","1230 S Meridian St","46225",39.750944,-86.159459
"46226","Indianapolis","IN","Menards","7701 E 42nd St","46226",39.83199531213438,-86.03182499605113
"46226","Indianapolis","IN","Fastenal","not_available","46226",39.814088,-86.046405
"46226","Indianapolis","IN","Ferguson Plumbing Supply","4110 N Franklin Rd","46226",39.8313654825473,-86.0270354489706
"46226","Indianapolis","IN","E&E Garage Doors Garage Doors","4711 N Shadeland Ave","46226",39.842655181884766,-86.045654296875
"46226","Indianapolis","IN","Elegant Bath","8740 E 30th St","46219",39.815038,-86.0156
"46226","Indianapolis","IN","minuteKEY","6800 Pendleton Pike","46226",39.82694625854492,-86.0499267578125
"46226","Indianapolis","IN","MAB Paints","7324 Pendleton Pike","46226",39.83076858520508,-86.03972625732422
"46226","Indianapolis","IN","Sherwin-Williams Paint Store","8304 Pendleton Pike","46226",39.83931289044727,-86.02167609073098
"46227","Indianapolis","IN","Harbor Freight Tools","4200 S East St Ste 12A","46227",39.70331535889223,-86.1514343740685
"46227","Indianapolis","IN","Imperial Water Conditioning Co","1620 E Southport Rd","46227",39.66517,-86.12946
"46227","Indianapolis","IN","Indianapolis Garage Door Co. Garage Doors","5905 Madison Ave #G","46227",39.68083953857422,-86.13032531738281
"46227","Indianapolis","IN","Tools & Gadgets","5641 Madison Ave","46227",39.68362045288086,-86.13285827636719
"46228","Indianapolis","IN","Ace Lock & Key Security Center","2245 W 62nd St","46260",39.867743,-86.20272
"46228","Indianapolis","IN","Start Right","Athlone ind Estate","46228",39.8679,-86.207473
"46229","Indianapolis","IN","The Home Depot","2225 N Post Road","46219",39.79869459976892,-86.00702441046451
"46229","Indianapolis","IN","Harbor Freight Tools","10101 E Washington St Ste B","46229",39.773887208187844,-85.9871757762567
"46229","Indianapolis","IN","Amazing Garage Doors","2202 N Mitthoeffer Rd","46229",39.799248,-85.99173499999999
"46229","Indianapolis","IN","Schreiber Lumber","230 S Munsie St","46229",39.7735710144043,-85.96049499511719
"46229","Indianapolis","IN","Sherwin-Williams Paint Store","10120 E Washington St","46229",39.77630318912296,-85.98803758621216
"46231","Indianapolis","IN","Winnelson","not_available","46231",39.7572811,-86.3129409
"46234","Indianapolis","IN","A*1 Discount Floorcovering, Inc.","8801 Crawfordsville Rd","46234",39.813675,-86.317828
"46235","Indianapolis","IN","Brothers Garage Doors Repair","10635 Pendleton Pike #C3","46236",39.858238220214844,-85.97909545898438
"46235","Indianapolis","IN","harrington plastics","not_available","46235",39.8193,-85.994316
"46236","Indianapolis","IN","White's Ace Hardware at Geist","10941 E 79th St","46236",39.897863,-85.97677
"46237","Indianapolis","IN","The Home Depot","4850 E Southport Rd","46237",39.66789515659624,-86.08882963657379
"46237","Indianapolis","IN","Menards","7140 S Emerson Ave","46237",39.66407013734646,-86.08381866568263
"46237","Indianapolis","IN","Stanley Garage Door","6745 Gray Rd #D","46237",39.66880416870117,-86.0962905883789
"46239","Indianapolis","IN","Tractor Supply Co.","8135 Brookville Rd","46239",39.74841,-86.023019
"46239","Indianapolis","IN","Wanamaker Feed And Seed","not_available","46239",39.704121,-86.010221
"46239","Indianapolis","IN","Brookville Garage Doors Repair","8220 Brookville Rd","46239",39.74947738647461,-86.02132415771484
"46239","Indianapolis","IN","Foundation Building Materials","1477 S Franklin Rd","46239",39.75113,-86.02626
"46240","Indianapolis","IN","Best Garage Door","8888 Keystone Xing #1300","46240",39.916763969111024,-86.10787868499756
"46240","Indianapolis","IN","Secure Data Recovery Services","9465 Counselors Row Ste 200","46240",39.925255538605306,-86.09987497329712
"46240","Indianapolis","IN","Elite Garage Door","8520 Allison Pointe Blvd #220","46250",39.90931701660156,-86.08531188964844
"46240","Indianapolis","IN","A-1 Garage Doors Garage Doors Repair","1560 E 86th St #A","46240",39.9128532409668,-86.13427734375
"46240","Indianapolis","IN","Plus Garage Door Repair","8425 Woodfield Crossing Blvd #100","46240",39.90947723388672,-86.11871337890625
"46250","Indianapolis","IN","Lowe's","8002 North Shadeland Ave","46250",39.9003174,-86.0476055
"46250","Indianapolis","IN","Menards","7145 E 96th St","46250",39.92468970698872,-86.04305885534778
"46250","Indianapolis","IN","Woodcraft","7330 E 86th St","46256",39.913627000000005,-86.038046
"46250","Indianapolis","IN","The Home Depot","9320 Corporation Dr","46256",39.92319445500254,-86.03660434484482
"46250","Indianapolis","IN","Harbor Freight Tools","5703 E 86th St","46250",39.91114512849959,-86.07018939650418
"46250","Indianapolis","IN","ProSource of Indianapolis","8001 Castleway Dr","46250",39.90270973651261,-86.05378403331088
"46250","Indianapolis","IN","City Electric Supply Fishers","7290 E 86th St","46250",39.913382,-86.040669
"46250","Indianapolis","IN","Benjamin Moore ICC Paint And Decor","not_available","46256",39.91472710083941,-86.04059385995049
"46250","Indianapolis","IN","Nexus Valve","8701-8811 Bash St","46256",39.916351,-86.042798
"46250","Indianapolis","IN","Sherwin-Williams Paint Store","6070 E 82nd St","46250",39.90588466430555,-86.06287121772766
"46250","Indianapolis","IN","minuteKEY","8002 N Shadeland Ave","46250",39.900045,-86.047647
"46250","Indianapolis","IN","Appliance Parts","not_available","46250",39.906946999999995,-86.058298
"46250","Indianapolis","IN","City Garage Doors Repair","6020 E 82nd St","46250",39.90509457185165,-86.06663703918457
"46250","Indianapolis","IN","Overhead Door Co.","8811 Bash Street","46256",39.91584760512114,-86.04481769683667
"46254","Indianapolis","IN","The Home Depot","3902 N High School Rd","46254",39.82533482583997,-86.27245098352432
"46254","Indianapolis","IN","123 Garage Door Garage Doors Repair","5510 Lafayette Rd #145","46254",39.85149002075195,-86.26287078857422
"46254","Indianapolis","IN","Bell Appliance Parts","3822 Georgetown Rd","46254",39.824804,-86.240474
"46254","Indianapolis","IN","Sherwin-Williams Paint Store","4150 Lafayette Rd","46254",39.830337,-86.24218499999999
"46254","Indianapolis","IN","Northwest Lumber Co","5035 Lafayette Rd","46254",39.844329833984375,-86.25350189208984
"46254","Indianapolis","IN","POWERHOME SOLAR","4496 Saguaro Trl","46268",39.872526,-86.235686
"46256","Indianapolis","IN","Raven Garage Doors & Co. Garage Doors Repair","8148 Raven Rock Dr","46256",39.905034,-86.016719
"46256","Indianapolis","IN","Grainger Industrial Supply","9210 Corporation Dr","46256",39.921585,-86.034788
"46260","Indianapolis","IN","Handy Repair Guys, LLC","1389 W 86th St #330","46260",39.910064697265625,-86.18072509765625
"46268","Indianapolis","IN","Lowe's","8440 Michigan Road","46268",39.9085036,-86.2226635
"46268","Indianapolis","IN","Lifetime Garage Doors Repair","3905 Vincennes Rd #530","46268",39.91435241699219,-86.2274169921875
"46268","Indianapolis","IN","Smart Garage Doors & Gates Garage Doors Repair","7543 Winton Dr","46268",39.888194,-86.246364
"46268","Indianapolis","IN","Safe Step Tubs of Indiana","5621 W 74th St","46278",39.886759999999995,-86.261193
"46268","Indianapolis","IN","The Counter Fei #290","not_available","46268",39.90708626487736,-86.25474784951298
"46268","Indianapolis","IN","minuteKEY","8440 Michigan Rd","46268",39.90843200683594,-86.22332000732422
"46268","Indianapolis","IN","Carpet Direct","5303 W 79th St","46268",39.895602000000004,-86.253236
"46268","Indianapolis","IN","ABC Supply Co","1930 W Edgewood Ave","46217",39.905912,-86.255941
"46268","Indianapolis","IN","Bailey Tools & Supply Inc","8501 Zionsville Rd","46268",39.908657,-86.25818100000001
"46268","Indianapolis","IN","Empire Hardware","5801 W 82nd St","46278",39.901084899902344,-86.26319885253906
"46268","Indianapolis","IN","Brandeis Machinery & Supply Company","not_available","46278",39.90670080966951,-86.25990524535158
"46268","Indianapolis","IN","Sherwin-Williams Paint Store","8417 Michigan Rd","46268",39.908718,-86.220525
"46278","Indianapolis","IN","Garage Door Repair Indianapolis Garage Doors Repair","6010 W 86th St Ste 142","46278",39.912784576416016,-86.26615905761719
"46278","Indianapolis","IN","City Electric Supply Indianapolis North","5933 W 71st St","46278",39.8812365,-86.2662947
"46303","Cedar Lake","IN","Cedar Lake True Value Hardware","9708 W Lincoln Plaza","46303",41.37628333,-87.45154603
"46303","Cedar Lake","IN","Lake Shore True Value Hardware","7120 W 133rd Ave","46303",41.377553999999996,-87.420803
"46304","Chesterton","IN","Hopkins' Ace Hardware","325 S Calumet Rd","46304",41.607994,-87.051236
"46304","Chesterton","IN","Porter County True Value","387 W US Highway 6","46385",41.55067852345236,-87.14118635763352
"46304","Chesterton","IN","City Electric Supply Chesterton","1541 S Calumet Rd","46304",41.596963113627666,-87.04633533954615
"46307","Crown Point","IN","Tractor Supply Co.Â®","4471 E. 81st St. (US30)","46410",41.470271,-87.281182
"46307","Crown Point","IN","Lowe's","1520 East 79th Avenue","46410",41.4756272,-87.3180556
"46307","Crown Point","IN","The Home Depot","2851 E 81st Ave","46410",41.46790548783088,-87.30037781349188
"46307","Crown Point","IN","Sherwin-Williams Paint Store","263 W 81st Ave","46410",41.46985618499295,-87.34066486358643
"46307","Crown Point","IN","Winfield Ace Hardware","11702 Randolph Street","46307",41.404963,-87.239743
"46307","Crown Point","IN","Sherwin-Williams Paint Store","840 N Superior Dr","46307",41.4242186,-87.3361671
"46307","Crown Point","IN","Schererville Storage","5048 W Lincoln Hwy","46375",41.474728000000006,-87.396174
"46307","Crown Point","IN","Crown Point True Value","200 Franciscan Dr","46307",41.399271999999996,-87.367626
"46307","Crown Point","IN","City Electric Supply Crown Point","1003 E Summit St Unit 1","46307",41.4270494,-87.3527659
"46307","Crown Point","IN","Gruel Bros","1601 N Main St","46307",41.438306,-87.365753
"46307","Crown Point","IN","Tractor Supply Co.","4471 East Us Hwy 30","46410",41.4726956110222,-87.3898915266162
"46307","Crown Point","IN","Garage Door Repair Arrowhead","Crown Point Rd","32257",41.43001794320103,-87.3442268371582
"46307","Crown Point","IN","Osby","not_available","46341",41.328058,-87.201021
"46307","Crown Point","IN","Hebron True Value","826 Country Square Plaza","46341",41.330989837646484,-87.2010498046875
"46307","Crown Point","IN","Ron's Home Improvement Inc.","390 Rose Ellen Dr","46307",41.407908992131176,-87.37375259399413
"46307","Crown Point","IN","Lee Supply","1107 W Lincoln Hwy","46410",41.470362,-87.349877
"46307","Crown Point","IN","Hinge Outlet, Inc.","10769 Broadway #176","46307",41.421241760253906,-87.33489227294922
"46307","Crown Point","IN","minuteKEY","2936 E 79th Ave","46410",41.47399139404297,-87.29988098144531
"46307","Crown Point","IN","Lowes","not_available","46375",41.476286,-87.317589
"46307","Crown Point","IN","Phil & Son Inc","not_available","46307",41.42703104900605,-87.3405766126178
"46310","Demotte","IN","Hillside Ace Hardware","539 N Halleck St","46310",41.207008,-87.19856
"46310","Demotte","IN","Tractor Supply Co.","334 North Halleck Street","46310",41.205291,-87.199788
"46310","Demotte","IN","True Value Hardware","5653 State Road 10","46310",41.14402845554377,-87.28296789705766
"46310","Demotte","IN","Kal-Bro Farms","1308 N Halleck St","46310",41.215206146240234,-87.19927215576172
"46310","Demotte","IN","Roselawn True Value Hardware","5653 E State Rd 10","46372",41.1425,-87.3131
"46310","Demotte","IN","Anderson Outdoor Power","325 Almond St SW","46310",41.199981,-87.199735
"46310","Demotte","IN","Anderson Plumbing","Serving","46310",41.189908,-87.264886
"46311","Dyer","IN","Gus Bock's Ace Hardware","1150 Sheffield Ave","46311",41.5087029,-87.518991
"46311","Dyer","IN","Sherwin-Williams Paint Store","907 Joliet St","46311",41.49444181666462,-87.50641426487238
"46319","Griffith","IN","Menards","6050 W Ridge Rd","46408",41.5507354285007,-87.41090694761904
"46319","Griffith","IN","White Cap Construction Supply","217 Colfax St","46319",41.51894749118928,-87.41290052617069
"46319","Griffith","IN","Terpstra's Sales, Service & Rental","1235 E Glen Park Ave","46319",41.5369484333286,-87.41278409957886
"46319","Griffith","IN","HD Supply White Cap Griffith - 601","217 S Colfax St","46319",41.519596099853516,-87.41243743896484
"46320","Hammond","IN","Menard's","1233 165th St","46320",41.597329348894945,-87.49913565947723
"46320","Hammond","IN","The Home Depot","1624 E 165th St","46320",41.59333644368035,-87.48979568481445
"46320","Hammond","IN","Columbia Lock And Key, LLC","6560 Columbia Ave","46320",41.5937218,-87.5003519
"46320","Hammond","IN","G.W. Murphy, inc.","920 150th St","46327",41.62187194824219,-87.5054931640625
"46320","Hammond","IN","Airgas","601-799 131st Pl","46327",41.65593,-87.512423
"46320","Hammond","IN","Hyman's Ace Hardware","2031 Indianapolis Blvd","46394",41.677238,-87.49651899999999
"46320","Hammond","IN","black industrial supply","not_available","46320",41.648267,-87.509429
"46320","Hammond","IN","Columbia Pipe & Supply","850 165th St","46324",41.595061,-87.50641
"46320","Hammond","IN","Lindys Ace Hardware","6220 Kennedy Ave","46323",41.600485,-87.46191
"46320","Hammond","IN","PolyJohn","2499 S Gaspar Ave","46394",41.66802978515625,-87.49488830566406
"46321","Munster","IN","Gus Bock's Ace Hardware","1820 45th St","46321",41.5375629,-87.484667
"46321","Munster","IN","Tri-State Hose & Fitting Inc.","616 Progress Ave","46321",41.53458699999999,-87.512777
"46321","Munster","IN","minuteKEY","7850 Cabela Dr","46324",41.569644927978516,-87.48236083984375
"46321","Munster","IN","Milne Supply","538 Ridge Rd","46321",41.561931947702995,-87.51529955863955
"46321","Munster","IN","munster rentals","5 Ridge Rd, Munster, IN 46321","46321",41.56372,-87.525003
"46322","Highland","IN","Lock And Key, L.L.C.","2950 45th Street","46322",41.53722484327744,-87.45664053800087
"46322","Highland","IN","Bell Appliance Parts","not_available","46322",41.53803253173828,-87.466064453125
"46322","Highland","IN","Highland Lawn Mower","8929 Indianapolis Blvd","46322",41.55122,-87.47094
"46322","Highland","IN","Leeps Supply","2543 Highway Ave","46322",41.555942,-87.467451
"46323","Hammond","IN","Sherwin-Williams Commercial Paint Store","7930 Nevada Ave","46323",41.570495,-87.441449
"46323","Hammond","IN","PPG Paints","7101 Indianapolis Blvd","46324",41.584444,-87.480579
"46323","Hammond","IN","abbot supply","not_available","46323",41.592872619628906,-87.45755004882812
"46323","Hammond","IN","Sherwin-Williams Paint Store","7027 Indianapolis Blvd","46324",41.58571,-87.480533
"46323","Hammond","IN","Ferguson HVAC Supply","3500 W 179th St","46323",41.571482,-87.444186
"46323","Hammond","IN","Wesco Distribution","7020 Grand Ave","46323",41.585705,-87.44295799999999
"46323","Hammond","IN","Glass Block Specialist BLOCK-IT","6539 Kennedy Ave","46323",41.594134000000004,-87.461225
"46324","Hammond","IN","Meier's Landscaping &Lawn Service, Inc.","6809 Columbia Ave Ste A","46324",41.589754,-87.499256
"46324","Hammond","IN","Adzia True Value Hardware","737 169th St","46324",41.58826633,-87.51050571
"46342","Hobart","IN","Menards","6220 US Rt. 6","46368",41.55271240686339,-87.1740427847832
"46342","Hobart","IN","Art Van PureSleep","6245 U.S. 6","46368",41.54990606,-87.17323363
"46342","Hobart","IN","Sears","6169 US Route 6","46368",41.5479876,-87.1763418
"46342","Hobart","IN","Hobart Ace Hardware","661 Main St","46342",41.527504,-87.251621
"46342","Hobart","IN","minuteKEY","6220 Us Route 6","46368",41.5505985,-87.1740589
"46342","Hobart","IN","Sherwin-Williams Paint Store","5783 US Highway 6","46368",41.549720764160156,-87.19046783447266
"46342","Hobart","IN","Menards Lumber Yard","not_available","46368",41.55702738487318,-87.17116938225509
"46342","Hobart","IN","Faatenal","not_available","46342",41.550753,-87.279887
"46342","Hobart","IN","Burke's Lawn and Garden Equipment, Inc.","745 W US Highway 30","46385",41.47150017282062,-87.20953434705734
"46342","Hobart","IN","Fastenal Industrial & Construction Supplies","5349 US 6 (37th, Ridge Road)","46368",41.550141752563114,-87.20917224884033
"46342","Hobart","IN","minuteKEY","6087 US Highway 6","46368",41.54814529418945,-87.17911529541016
"46342","Hobart","IN","Art Van PureSleep","1600 E 80th Ave","46410",41.47397047,-87.31557293
"46342","Hobart","IN","Century Pipe","703 US Highway 30","46383",41.4708845,-87.2023816
"46342","Hobart","IN","minuteKEY","611 US 30","46410",41.4709676,-87.3017829
"46347","Kouts","IN","KOUTS TRUE VALUE","204 S Main St","46347",41.31714630126953,-87.02584075927734
"46347","Kouts","IN","SOS Ferragens","408 Sul","46383",41.373208,-87.031038
"46350","La Porte","IN","Lowe's","5200 Franklin Street","46360",41.6726913,-86.8904953
"46350","La Porte","IN","Menards","5260 Franklin St","46360",41.67130901323855,-86.89112663269043
"46350","La Porte","IN","Tractor Supply Co.","71 Pine Lake Ave Ste B","46350",41.61553131,-86.72774912
"46350","La Porte","IN","Fastenal","701 N Fail Rd","46350",41.627231,-86.678853
"46350","La Porte","IN","K & L Supply","not_available","46360",41.699867,-86.88963199999999
"46350","La Porte","IN","Sherwin-Williams","1430 E Lincolnway","46350",41.623655390686395,-86.69039011001585
"46350","La Porte","IN","Kableins","not_available","46350",41.611666075,-86.734941825
"46350","La Porte","IN","Lighthouse Electrical Supply","204 North St","46350",41.616392,-86.708291
"46350","La Porte","IN","Sherwin-Williams Paint Store","4102 Franklin St","46360",41.678680419921875,-86.89278411865234
"46350","La Porte","IN","Duneland Home and Hardware","1018 N Karwick Rd","46360",41.734192,-86.857264
"46350","La Porte","IN","Kabelin Ace Hardware","605 E Lincolnway","46350",41.6175,-86.7072
"46350","La Porte","IN","Village Supply Inc.","710 Boyd Blvd","46350",41.614385999999996,-86.689515
"46350","La Porte","IN","MAB Paints","2026 E US Highway 20","46360",41.687957763671875,-86.85812377929688
"46350","La Porte","IN","Kabelin Ace Hardware","512 Andrew Ave","46350",41.6026,-86.733599
"46356","Lowell","IN","Lowell True Value Hardware","2052 E Commercial Ave","46356",41.2898477887105,-87.3923584282734
"46356","Lowell","IN","Mitsch Water & Salt Distributing","403 W Commercial Ave","46356",41.289642333984375,-87.43162536621094
"46356","Lowell","IN","Matt's Repair Inc","9412 W 181st Ave","46356",41.290733,-87.447804
"46356","Lowell","IN","Ruim Equipment","17974 Wicker Blvd","46356",41.292068199467735,-87.46898980059433
"46356","Lowell","IN","Hopper Building Supply, Inc","1300 W 180th Ln","46356",41.290223,-87.350022
"46356","Lowell","IN","Hardware Store","not_available","46356",41.290396240906624,-87.39656429154692
"46360","Michigan City","IN","Kabelin Ace Hardware","432 St John's Rd","46360",41.6835,-86.901799
"46360","Michigan City","IN","Husqvarna US","432 St John Rd","46360",41.682186126708984,-86.90117645263672
"46366","North Judson","IN","Norwayne Lumber Co","625 Lane St","46366",41.219969644795974,-86.77772283554077
"46366","North Judson","IN","Norwayne Lumber","not_available","46366",41.2147787,-86.7655977
"46368","Portage","IN","Ace Hardware","5979 Central Ave","46368",41.575355,-87.183652
"46368","Portage","IN","portage home center","6455 Melton Rd","46368",41.59834,-87.165675
"46368","Portage","IN","City Electric Supply","1845 Willowcreek Rd","46368",41.59896,-87.18294300000001
"46368","Portage","IN","Portage Electric","6439-6499 Melton Rd","46368",41.598271000000004,-87.164388
"46371","Rolling Prairie","IN","Wheatbrook Home Center","209 S Prairie St","46371",41.67310333251953,-86.61473846435547
"46373","Saint John","IN","Alsip Home & Nursery","10255 Wicker Ave","46373",41.4332601,-87.4680532
"46373","Saint John","IN","Schillings","8900 Wicker Ave","46373",41.45763,-87.471391
"46373","Saint John","IN","Tractor Supply Co.","9957 Earl Dr","46373",41.438023892966356,-87.46804205527677
"46373","Saint John","IN","Faber  Paint & Wallpaper","10033 Wicker Ave","46373",41.436553,-87.469138
"46375","Schererville","IN","Menards","1300 US Highway 41","46375",41.49828336829785,-87.47245384639976
"46375","Schererville","IN","The Home Depot","960 US Highway 41","46375",41.504885335780614,-87.473232510456
"46375","Schererville","IN","Lowe's","637 US Highway 41","46375",41.514122,-87.46879
"46375","Schererville","IN","Harbor Freight Tools","1650 US Highway 41 #B","46375",41.49282724918592,-87.47264035137914
"46375","Schererville","IN","AAA Supply Corporation","608 US Highway 41","46375",41.51200485229492,-87.47335815429688
"46375","Schererville","IN","White Cap Construction Supply","524","46375",41.512402,-87.462251
"46375","Schererville","IN","Beautyguard","2400 US Highway 41","46375",41.47933618443001,-87.47059070938975
"46375","Schererville","IN","Car Tunes, Inc.","645 65th St","46375",41.5003412,-87.4680711
"46383","Valparaiso","IN","Menards","351 Silhavy Rd","46383",41.46539281391178,-87.02610981145595
"46383","Valparaiso","IN","The Home Depot","2430 Laporte Ave","46383",41.46440540388645,-87.03038692474365
"46383","Valparaiso","IN","Brandy's Lock & Key","445-449 Harrison Blvd","46383",41.4796044,-87.0547961
"46383","Valparaiso","IN","Philips Ace Hardware","3100 Calumet Ave","46383",41.49653,-87.04403
"46383","Valparaiso","IN","Tractor Supply Co.","2500 Morthland Dr","46383",41.455403,-87.030692
"46383","Valparaiso","IN","Forney's Supply  Pipe, Landscape Materials","5540 US 6  (37th, Ridge Road)","46368",41.46797846603916,-87.05845722942351
"46383","Valparaiso","IN","Sherwin-Williams Paint Store","2320 Laporte Ave","46383",41.467642,-87.03172099999999
"46383","Valparaiso","IN","Fastenal","4700 Airport Dt","46383",41.447246,-87.004021
"46383","Valparaiso","IN","Gary-Hobart Roofing","not_available","46383",41.45697632,-87.05502602
"46383","Valparaiso","IN","City Electric Supply Valparaiso","1150 Southpoint Cir Ste D","46385",41.4576385,-87.0771858
"46383","Valparaiso","IN","Husqvarna US","1656 Morthland Dr","46385",41.460514068603516,-87.08148193359375
"46383","Valparaiso","IN","The Bath Gallery","711 Morthland Dr","46383",41.458059,-87.0523097
"46383","Valparaiso","IN","HD Supply White Cap","4500 Airport Dr","46383",41.447212,-87.00497800000001
"46383","Valparaiso","IN","MAB Paints","2105 Calumet Ave","46383",41.488033294677734,-87.0498275756836
"46383","Valparaiso","IN","Foundation Building Materials","1457 South State Road 2","46385",41.45464846,-87.06798814
"46391","Westville","IN","Carter Lumber","10475 W US Highway 6","46391",41.53948211669922,-86.90572357177734
"46402","Gary","IN","Ace Hardware","1310 Broadway","46407",41.589321999999996,-87.337924
"46405","Lake Station","IN","Eddy's Appliance","1237 Central Ave","46405",41.57073069330301,-87.2630497097433
"46405","Lake Station","IN","Lake Station Ace Hardware","3461 Central Ave","46405",41.574402,-87.241457
"46406","Gary","IN","Bradys This Is It True Value","5306 W 25th Ave","46406",41.57376,-87.402574
"46410","Merrillville","IN","Menards","6300 Mississippi St","46410",41.50183016251047,-87.31758860848731
"46410","Merrillville","IN","Sears","2300 Southlake Mall","46410",41.4688748,-87.3085394
"46410","Merrillville","IN","minuteKEY","1520 E 79th Ave","46410",41.475675,-87.317897
"46410","Merrillville","IN","GQ Tops","1862 W 81st Ave","46410",41.471682,-87.359922
"46410","Merrillville","IN","Sears","101 W Lincoln Hwy","46410",41.46834249,-87.33902525
"46410","Merrillville","IN","Eric Shive is a tool.","not_available","46410",41.51019349809669,-87.33350491123726
"46410","Merrillville","IN","Merrillville Ace Hardware","9325 Broadway","46307",41.4481779,-87.334986
"46410","Merrillville","IN","Northern Tool + Equipment","8205 Broadway","46410",41.469723,-87.331676
"46504","Bourbon","IN","Husqvarna US","7174 N 1100 W","46504",41.33420944213867,-86.0555191040039
"46506","Bremen","IN","Stickley Ace Hardware","1245 W Plymouth St","46506",41.4506999,-86.162199
"46506","Bremen","IN","Beeman's Lift Truck, Inc.","121 S Michigan St.","46536",41.52364,-86.27493
"46506","Bremen","IN","Borkholders Hardware","not_available","46550",41.446951,-86.075371
"46507","Bristol","IN","Ace Hardware","21826 State Road 120","46516",41.7022330776214,-85.8879043759699
"46507","Bristol","IN","Motion Industties","not_available","46516",41.691376,-85.898152
"46507","Bristol","IN","RecPro RV Supply","806 S Division St","46507",41.71444797522534,-85.81637263303492
"46507","Bristol","IN","Sherwin-Williams Product Finishes","4751 Green Ct","46516",41.683136,-85.89662299999999
"46510","Claypool","IN","Ace Hardware of Mentone","206 E Main St","46539",41.173437,-86.036653
"46510","Claypool","IN","Silver Lake Hardware","not_available","46982",41.0720359193321,-85.88252477439323
"46511","Culver","IN","Teghtmeyer Ace Hardware","18619 State Road 10","46511",41.2254638671875,-86.41817474365234
"46514","Elkhart","IN","Menards","601 E Windsor Ave","46514",41.72703951290533,-85.9703371084027
"46514","Elkhart","IN","Lowe's","110 County Road 6 W","46514",41.7252077,-85.978222
"46514","Elkhart","IN","minuteKEY","30830 Old US 20","46514",41.68705749511719,-86.05865478515625
"46514","Elkhart","IN","minuteKEY","175 Country Road #6 West","46514",41.7098083,-85.9746357
"46514","Elkhart","IN","Ace hardware","1635 Cassopolis St","46514",41.705232,-85.973274
"46514","Elkhart","IN","Niblock Machinery","130 E Windsor Ave","46514",41.727465,-85.976709
"46514","Elkhart","IN","Central Supply","not_available","46514",41.68113327026367,-86.0035171508789
"46514","Elkhart","IN","Sherwin-Williams Paint Store","3245 Interchange Dr","46514",41.733705,-85.97549000000001
"46514","Elkhart","IN","Gano Plywood","3905 Lexington Park Dr","46514",41.692153999999995,-86.02640600000001
"46516","Elkhart","IN","Central Hardware","28459 Old US 33","46516",41.669296,-86.01230100000001
"46516","Elkhart","IN","Sears","154  W Hively Ave #28B","46517",41.66197077456487,-85.96780300140381
"46516","Elkhart","IN","MSC Supply","28551 Laura Ct","46517",41.649826235076524,-86.01339695934986
"46516","Elkhart","IN","NS Elkhart Diesel Facility","not_available","46517",41.66499300905589,-86.01772047161661
"46516","Elkhart","IN","Spencer Products Company","2421 S Nappanee St Ste D","46517",41.662468,-86.00466
"46526","Goshen","IN","Menards","1925 Lincolnway E","46526",41.56033803053467,-85.79853415489197
"46526","Goshen","IN","Lowe's","2219 Rieth Boulevard","46526",41.6176635,-85.8953871
"46526","Goshen","IN","Tractor Supply Co.","2323 Lincolnway East","46526",41.55446,-85.789167
"46526","Goshen","IN","Stickley Hardware","710 W Lincoln Ave","46526",41.5848851,-85.8452906
"46526","Goshen","IN","Casey's Erosion & Seed Solutions","18029 County Rd 22","46528",41.60405138115551,-85.80957412719727
"46526","Goshen","IN","Lowe's Home Improvement","2219 Right Blvd","not_available",41.61818383859655,-85.89433719277167
"46526","Goshen","IN","Morsches Builders Mart","2413 Peddlers Village Rd","46528",41.610285,-85.879049
"46526","Goshen","IN","Industrial Motor & Tool, LLC","60282 County Road 21","46528",41.6193308,-85.8498
"46526","Goshen","IN","John Hall True Value Hardware","205-207 S Main St","46526",41.584669,-85.834944
"46526","Goshen","IN","Star Ag Lumber","12737 County Road 30","46540",41.59619140625,-85.70905303955078
"46526","Goshen","IN","Cardinal Supply Inc.","not_available","46528",41.54652044837416,-85.7829349364534
"46526","Goshen","IN","Ideal Lawnmower Shop Inc.","528 E Lincoln Ave","46528",41.586524,-85.827718
"46526","Goshen","IN","Sherwin-Williams Paint Store","512 W Lincoln Ave","46526",41.584995,-85.844374
"46526","Goshen","IN","Harbor Freight #00884","4430 Elkhart Rd","46526",41.62554168701172,-85.90583801269531
"46526","Goshen","IN","Hover Lumber","not_available","46526",41.51467053405108,-85.92752252420875
"46526","Goshen","IN","Sears","2014 Lincolnway East, Suite 2","46528",41.561209999999996,-85.793482
"46528","Goshen","IN","Ace Hardware","420 N Main St","46540",41.684531,-85.699421
"46528","Goshen","IN","Ace Hardware & Floral","103 Crystal Heights Blvd","46540",41.6645889,-85.705263
"46528","Goshen","IN","Millersburg Lumber","not_available","46543",41.521733,-85.695797
"46528","Goshen","IN","Grand Rental Station","131 Orpha Dr","46540",41.65654754638672,-85.70964813232422
"46528","Goshen","IN","Husqvarna US","13781 County Road 20 Ste 1","46540",41.63958740234375,-85.73067474365234
"46530","Granger","IN","Menards","365 W University Dr","46545",41.717948590026374,-86.17980133892915
"46530","Granger","IN","The Home Depot","317 Indian Ridge Blvd","46545",41.7113684,-86.181788
"46530","Granger","IN","Sherwin-Williams Paint Store","13080 State Road 23","46530",41.75239948894285,-86.12125752884452
"46530","Granger","IN","Kabelin Ace Hardware","12820 Adams Rd","46530",41.753363,-86.11364
"46530","Granger","IN","Granger Lawnmower Place","51105 Birch Rd","46530",41.751205,-86.08646
"46530","Granger","IN","Sears","6501 Grape Rd","46545",41.71930416327044,-86.19019883068847
"46530","Granger","IN","minuteKEY","316 Indian Ridge Blvd","46545",41.7149827,-86.1812388
"46530","Granger","IN","Big C Lumber","not_available","46530",41.75505927155284,-86.1165088855243
"46530","Granger","IN","Ferguson Plumbing Supply","51100 Bittersweet Rd","46530",41.7519184848485,-86.1109897979798
"46530","Granger","IN","Sears","6501 Grape Rd US 23","46545",41.717920705509805,-86.1922869787581
"46530","Granger","IN","Art Van PureSleep","5946 Grape Road","46545",41.7153682,-86.1868571
"46534","Knox","IN","Smith Farm Stores Inc.","1002 S Heaton St","46534",41.288032,-86.620714
"46534","Knox","IN","Tractor Supply CoÂ®","1401 South Heaton St","46534",41.28426772,-86.62243634
"46534","Knox","IN","Sears","1704 S. Heaton","46534",41.2800119,-86.61995309999999
"46534","Knox","IN","Mike's Mower Mart","not_available","46534",41.27006912231445,-86.62020111083984
"46538","Leesburg","IN","North Webster Ace Hdw","733 S Main St","46555",41.319763,-85.695432
"46538","Leesburg","IN","MacAllister Rentals","4760 IN-15","46582",41.30248087,-85.8526739
"46538","Leesburg","IN","Mike's Garage Door","400 S Main St","46538",41.32813,-85.85384
"46538","Leesburg","IN","Clayton Garden Center","7185 N State Road 13","46555",41.337116,-85.700163
"46538","Leesburg","IN","Worthington Ag Parts","not_available","46582",41.32216680603733,-85.85372925653533
"46540","Middlebury","IN","Varns & Hoover Hardware","101 S Main St","46540",41.675125,-85.7064
"46542","Milford","IN","RIPCO LTD.","601 N. Old SR 15","46542",41.41643850348248,-85.84184767865598
"46542","Milford","IN","Home Depot","not_available","46542",41.39418303966522,-85.88680028915405
"46542","Milford","IN","Ancient Runes","17776 Shadybanks","46542",41.392145,-85.831313
"46544","Mishawaka","IN","Mishawaka Hardware & Paint","510 N Cedar St","46545",41.6647,-86.173299
"46544","Mishawaka","IN","Hardware Plus","611 Lincolnway W","46561",41.66305925592761,-86.07782930457002
"46544","Mishawaka","IN","Rigg's Mowers & More","not_available","46544",41.62524,-86.170008
"46544","Mishawaka","IN","84 Lumber","5321 Lincolnway E","46544",41.663380644960505,-86.09788262657231
"46544","Mishawaka","IN","Tractor Supply Co.","330 East Ireland Rd","46544",41.630071259098585,-86.17845570836236
"46544","Mishawaka","IN","True Value Hardware","Cedar Street","46544",41.664966086838696,-86.17296304849674
"46544","Mishawaka","IN","Fishers Hardware","not_available","46615",41.665403,-86.212949
"46544","Mishawaka","IN","American Professional Services","13700 Haynes Ave","46545",41.67436981201172,-86.13310241699219
"46545","Mishawaka","IN","Lowe's","4660 North Grape Rd","46545",41.70276998,-86.18508313
"46545","Mishawaka","IN","Harbor Freight Tools","2556 Miracle Ln","46545",41.68169158271617,-86.19302219725715
"46545","Mishawaka","IN","ReStore","900-1098 E McKinley Ave","46545",41.68089693333334,-86.17003568333334
"46545","Mishawaka","IN","ProSource of South Bend","1020 E McKinley Ave Ste 109","46545",41.6818737,-86.16923899999999
"46545","Mishawaka","IN","minuteKEY","4660 Grape Rd","46545",41.70263671875,-86.1845474243164
"46545","Mishawaka","IN","R & R Applications","838 E Colfax Ave","46545",41.6783112,-86.1714434
"46550","Nappanee","IN","Tractor Supply Co.","1538 East Market St","46550",41.44446166,-85.98464942
"46550","Nappanee","IN","Miller Machine Shop","10780 W 1100 N","46550",41.3904389,-86.0544268
"46550","Nappanee","IN","Martins Do It Best Hardware","E Market St","not_available",41.442156,-86.000487
"46550","Nappanee","IN","Stickley Hardware","1524 E Market St","46550",41.442551,-85.983508
"46552","New Carlisle","IN","Charles Mares Hardware","123 East Michigan","46552",41.7066535949707,-86.50852966308594
"46556","Notre Dame","IN","Big C Lumber","125 N Dixie Way","46637",41.707787852024325,-86.25582400324011
"46556","Notre Dame","IN","South Bend Awards And Engraving","not_available","46637",41.719466,-86.250274
"46562","Pierceton","IN","Tractor Supply Co.","3294 E Us Highway 30","46580",41.221326,-85.778799
"46563","Plymouth","IN","Lowe's","1100 Pilgrim Lane","46563",41.3632484,-86.3217459
"46563","Plymouth","IN","Tractor Supply Co.","1310 Pilgrim Ln","46563",41.363308,-86.323916
"46563","Plymouth","IN","Grand Central Station","not_available","46563",41.365162,-86.322834
"46563","Plymouth","IN","Smith's Ace Hardware","1917 N Michigan St","46563",41.3573999,-86.311499
"46563","Plymouth","IN","Carter Lumber","1400 Markley Dr","46563",41.36037063598633,-86.32506561279297
"46563","Plymouth","IN","Indiana Tool & Mfg. Co. Inc.","6100 Michigan Rd","46563",41.390374,-86.312282
"46563","Plymouth","IN","Sherwin-Williams Paint Store","2164 N Oak Dr","46563",41.3609504699707,-86.3272705078125
"46563","Plymouth","IN","Kabelin Ace Hardware","1920 N Oak Dr","46563",41.35796,-86.3287051
"46563","Plymouth","IN","Falcon Supply ICF","14680 Lincoln Hwy","46563",41.3464123,-86.3415379
"46563","Plymouth","IN","Hose Doctor","809 1st St","46563",41.3463048,-86.3143965
"46563","Plymouth","IN","Sears","7627 Michigan Rd","46563",41.367300006015455,-86.31192505359644
"46565","Shipshewana","IN","Stoney Acres Woodworking LLC","2695 S 1000 W","46565",41.6010394,-85.617758
"46565","Shipshewana","IN","Bontrager Engine Service LLC","3650 N SR 5","46565",41.69262203849292,-85.58138961990619
"46565","Shipshewana","IN","Do It Best Hardware","not_available","46565",41.652473,-85.579678
"46567","Syracuse","IN","Teghtmeyer Ace Hardware","1309 S Huntington St","46567",41.4152059,-85.746262
"46567","Syracuse","IN","Syracuse Hardware","not_available","46567",41.42759,-85.752945
"46571","Topeka","IN","Ace Hardware of Topeka","118 North Main St","46571",41.5392999,-85.539299
"46571","Topeka","IN","Topeka Do-It Best","not_available","46571",41.53921890258789,-85.5396957397461
"46573","Wakarusa","IN","Wakarusa Hardware","108 S Elkhart St","46573",41.53558282521857,-86.02093876523065
"46574","Walkerton","IN","Kabelin Ace Hardware","410 Indiana St","46574",41.465,-86.4816
"46580","Warsaw","IN","Lowe's","2495 Jalynn Street","46582",41.2688227,-85.8566043
"46580","Warsaw","IN","Menards","1000 Husky Trl","46582",41.24866415513022,-85.82030381498909
"46580","Warsaw","IN","Harbor Freight","Highway 30","46580",41.226128,-85.79359
"46580","Warsaw","IN","minuteKEY","1100 Husky Trl","46582",41.24842834472656,-85.81954956054688
"46580","Warsaw","IN","Morsches Builders Mart","2240 N Detroit St","46580",41.26023483276367,-85.85184478759766
"46580","Warsaw","IN","Sears","2816 Frontage Road","46580",41.236096,-85.818192
"46580","Warsaw","IN","Carter Lumber","4015 Corridor Dr","46582",41.226921,-85.791473
"46580","Warsaw","IN","Ace Hardware of Warsaw","1701 E Center St","46580",41.238038,-85.834294
"46580","Warsaw","IN","Reed Electric","not_available","46580",41.23217,-85.850696
"46580","Warsaw","IN","Sherwin-Williams Paint Store","1503 N Detroit St","46580",41.2522601173896,-85.85288912057877
"46580","Warsaw","IN","MIDWEST CONSTRUCTION EQUIPMENT","3925 Corridor Dr","46582",41.22697,-85.793349
"46601","South Bend","IN","Sherwin-Williams Commercial Paint Store","1220 S Main St","46601",41.66104209206121,-86.25102281570435
"46601","South Bend","IN","G.W. Berkimers Co, Inc","H","46601",41.670972,-86.260582
"46601","South Bend","IN","Home Plumbing And Heating","721 E Sample St","46601",41.6655387878418,-86.2402114868164
"46601","South Bend","IN","Bell Parts Supply","not_available","46601",41.670756694543094,-86.25203504744884
"46601","South Bend","IN","GW Berkheimer","612 Chapin St","46601",41.668880462646484,-86.2607192993164
"46601","South Bend","IN","Werntz Supply","1002 Kerr St","46601",41.6633186340332,-86.26349639892578
"46601","South Bend","IN","Builders Store Inc.","1319 W Mishawaka Ave, South Bend, IN 46615","46615",41.666089230467485,-86.2303224544166
"46614","South Bend","IN","Lowe's","250 West Ireland Road","46614",41.6268903,-86.2536272
"46614","South Bend","IN","Menards","not_available","46614",41.626377,-86.24777
"46614","South Bend","IN","Kabelin Ace Hardware","1910 E Ireland Rd","46614",41.629362,-86.222335
"46614","South Bend","IN","Menards","902 Erskine Plz","46614",41.6274604493374,-86.23877379152835
"46614","South Bend","IN","Howard Custom Enterprises","21240 Johnson Rd","46614",41.615227,-86.277733
"46614","South Bend","IN","minuteKEY","250 W Ireland Rd","46614",41.626548767089844,-86.25395965576172
"46614","South Bend","IN","Sherwin-Williams Paint Store","1290 E Ireland Rd","46614",41.628890000000006,-86.230242
"46614","South Bend","IN","Sears","4035 S Michigan Street","46614",41.6336784362793,-86.25096893310547
"46615","South Bend","IN","Redâs Paint & Supplies","2123 Edison Rd","46637",41.69468599576682,-86.21656984090805
"46617","South Bend","IN","C.E. Lee Benjamin Moore Paints","1700-1798 N Ironwood Dr","46637",41.698781233333335,-86.2163469
"46617","South Bend","IN","Sherwin-Williams Paint Store","1427 N Ironwood Dr","46635",41.695308,-86.216949
"46619","South Bend","IN","Ardmore Hardware","22823 Ardmore Trl","46628",41.686538,-86.30969900000002
"46619","South Bend","IN","Kwoods Products","Western Ave","46619",41.67184136775139,-86.36604078464195
"46628","South Bend","IN","Grainger Industrial Supply","not_available","46628",41.698056,-86.306675
"46628","South Bend","IN","Harry Alter Co.","Bendix Pkwy.","46637",41.721149564121056,-86.29397551217015
"46628","South Bend","IN","Sherwin-Williams Paint Store","3210 Nimtz Pkwy","46628",41.7225444316864,-86.29478573799133
"46628","South Bend","IN","Foundation Building Materials","4320 Ameritech Drive","46628",41.73306429,-86.33482088
"46637","South Bend","IN","HILLS TRUE VALUE HARDWARE","52295 Indiana State Route 933","46637",41.733463287353516,-86.25116729736328
"46637","South Bend","IN","C & C Distributors Inc","52129 IN-933","46637",41.73606,-86.25125
"46637","South Bend","IN","Shaul Truck Accessories","US 933","46637",41.74973314883396,-86.25138534208507
"46703","Angola","IN","Tractor Supply Co.","1807 North Wayne St","46703",41.656727000000004,-85.001451
"46703","Angola","IN","Menards","3200 N Wayne St","46703",41.67449038814087,-84.99773290743299
"46703","Angola","IN","S & H True Value Hardware","900 N Wayne St","46703",41.64416,-84.99946
"46703","Angola","IN","Hal-Mark Rental Center","208 W Harcourt Rd","46703",41.65763473510742,-85.00364685058594
"46703","Angola","IN","Fastenal","312 Wendell Jacob Ave.","46703",41.671913146972656,-85.00143432617188
"46703","Angola","IN","Dudley True Value Lumber & Hardware","9450 W State Road 120","46776",41.73111343383789,-85.17019653320312
"46703","Angola","IN","Sherwin-Williams Paint Store","1902 N Wayne St","46703",41.65758514404297,-84.99895477294922
"46703","Angola","IN","Lori Masters","102 Toledo Street","46737",41.7310288,-84.9330148
"46703","Angola","IN","Sears","1221 North Wayne","46703",41.6499012,-85.000198
"46703","Angola","IN","The Fremont Hardware","102 E Toledo St","46737",41.730511,-84.932557
"46703","Angola","IN","minuteKEY","2016 N Wayne St","46703",41.6616024,-84.9957734
"46703","Angola","IN","Baril Coatings USA","401 Growth Pkwy","46703",41.66529846191406,-85.00413513183594
"46703","Angola","IN","Menards Breakroom","not_available","46703",41.635459132112224,-85.01506510695482
"46703","Angola","IN","Ax Building Supply","9450 W State Road120","46776",41.7308605405405,-85.1702386486486
"46706","Auburn","IN","The Home Depot","403 Smaltz Way","46706",41.3643971,-85.0869721
"46706","Auburn","IN","Taylor Rental","2224 State Road 8","46706",41.36622468708764,-85.085850974544
"46706","Auburn","IN","B & C Industrial Products","1120 Fuller Dr","46738",41.363216400146484,-85.10680389404297
"46706","Auburn","IN","Family Farm & Home","not_available","46706",41.369721999999996,-85.069197
"46706","Auburn","IN","Big C Lumber","403 Harris St","46755",41.35805876834195,-85.0582301081936
"46706","Auburn","IN","Teghtmeyer Ace Hardware","1014 W 7TH ST","46706",41.367699,-85.071007
"46706","Auburn","IN","Harmony Outdoor Equipment","Peckhart Street","46706",41.366826270754665,-85.09149820375828
"46706","Auburn","IN","garrett hardware","not_available","46738",41.349119490713555,-85.13565252479918
"46710","Avilla","IN","Vangorder Sales, Inc.","2897 North State Road 3","46710",41.392557,-85.243889
"46710","Avilla","IN","Avilla True Value Hardware","538 E Albion St","46710",41.36550743449445,-85.22958397865295
"46711","Berne","IN","Linn Grove Hardware","not_available","46740",40.64476007153744,-85.03265581233946
"46711","Berne","IN","DL Schwartz","not_available","46711",40.71389372581387,-84.9561828718924
"46711","Berne","IN","Habegger's Ace Hardware","1196 US Highway 27 N","46711",40.6659459,-84.956967
"46714","Bluffton","IN","Lowe's","2105 North Main Street","46714",40.7724965,-85.1636526
"46714","Bluffton","IN","Reed's Do It Best Hardware","1879 N Main St","46714",40.76892716263419,-85.16582182152099
"46714","Bluffton","IN","Habeggers Ace of Bluffton","728 W Market St","46714",40.739834,-85.179513
"46714","Bluffton","IN","Habeggers Lumber","101-199 S Indiana St","46714",40.7396305,-85.17974931666667
"46721","Butler","IN","Donaldson's Ace Hardware","103 Basket Factory Rd","46721",41.4269,-84.873
"46723","Churubusco","IN","Eagle Do-it Best Lumber and Hardware","3640 N US Highway 33","46723",41.21772766113281,-85.3144302368164
"46723","Churubusco","IN","Shroyers True Value","115 N Main St","46723",41.23107609179853,-85.31983728433013
"46725","Columbia City","IN","Teghtmeyer Ace Hardware","200 Diplomat Dr","46725",41.166035,-85.488009
"46725","Columbia City","IN","Tractor Supply Co.","528 North Main St Sr9","46725",41.16604425412462,-85.48573280977102
"46725","Columbia City","IN","Morsches Builders Mart","516 E Van Buren St","46725",41.156490325927734,-85.48152923583984
"46725","Columbia City","IN","Sears","486 W Plaza Dr","46725",41.170533,-85.49871759999999
"46725","Columbia City","IN","Husqvarna US","415 S Main St","46725",41.15304183959961,-85.48777770996094
"46730","Corunna","IN","Carter Lumber","830A US Highway 6","46730",41.43791198730469,-85.1541519165039
"46733","Decatur","IN","Rural King","629 N 13th St","46733",40.83488942404078,-84.94080662727356
"46733","Decatur","IN","Decatur Ace Hardware","1220 S 13th St","46733",40.815756,-84.9382
"46733","Decatur","IN","Sherwin-Williams Paint Store","137 N 2nd St","46733",40.830718,-84.924214
"46733","Decatur","IN","Baker and Son Heating","not_available","46733",40.83510868425109,-84.93741433446083
"46733","Decatur","IN","Hoosier Pattern Inc.","906 N 10th St","46733",40.83975003693289,-84.93447117750581
"46733","Decatur","IN","Tractor Supply Co.","829 South 13th St","46733",40.820643,-84.936304
"46733","Decatur","IN","Arnold Lumber","334 N 12th St","46733",40.832000732421875,-84.93630981445312
"46741","Grabill","IN","DL Grabill Hardware","not_available","46741",41.16607,-84.975358
"46741","Grabill","IN","Brueggemann Lumber Do It Center","7147 Ricker Rd","46774",41.1499137878418,-84.98517608642578
"46741","Grabill","IN","Do It Best Hardware","Main St","not_available",41.21073668333333,-84.9668
"46741","Grabill","IN","Grabill Hardware","13534 Main St","46741",41.210615999999995,-84.966543
"46741","Grabill","IN","Leo Builders Supply","not_available","46765",41.218671,-85.013389
"46742","Hamilton","IN","Hamilton Lumber Co. Inc.","7900 S Wayne St","46742",41.53023910522461,-84.91387176513672
"46747","Hudson","IN","Stroh Fixit Shop","4250 S 1175 ES","46761",41.581318,-85.199563
"46750","Huntington","IN","Juergens Hardware","2850 N Jefferson St","46750",40.89996591495351,-85.51300862509459
"46750","Huntington","IN","Ace Hardware","1209 S Jefferson St","46750",40.8718459,-85.484775
"46750","Huntington","IN","Rabb water systems","1480 S Jefferson At","46750",40.880904936701405,-85.48005723103128
"46750","Huntington","IN","Miami Tool And Die","not_available","46750",40.861087799072266,-85.52921295166016
"46750","Huntington","IN","McCunnes Sales & Service","1505 Etna Ave","46750",40.866562,-85.502693
"46750","Huntington","IN","Sherwin-Williams Paint Store","2088 N Jefferson St","46750",40.89445454118912,-85.5081957578659
"46750","Huntington","IN","Carter Lumber","1717 W Park Dr","46750",40.875648498535156,-85.5149917602539
"46750","Huntington","IN","Morsches Builders Mart","5905 US-24","46750",40.916683197021484,-85.39707946777344
"46750","Huntington","IN","Beckler Power Equipment","1100 S Jefferson","46750",40.87283375929303,-85.48536704380943
"46750","Huntington","IN","Automatic Door Controls Inc.","579 Geiger Drive","46783",40.95741653442383,-85.3728256225586
"46755","Kendallville","IN","Tractor Supply Co.","995 East North St","46755",41.452992,-85.25164000000001
"46755","Kendallville","IN","Kendallville Do It Center","232 W North St","46755",41.453762,-85.268478
"46755","Kendallville","IN","Weibles Paint and Wallpaper","106 S Main St","46755",41.443678942099666,-85.2655547584849
"46761","Lagrange","IN","Case Agriculture","not_available","46761",41.641717,-85.416647
"46761","Lagrange","IN","Stickley Hardware","110 S Detroit St","46761",41.6383,-85.382999
"46761","Lagrange","IN","Kuntry Lumber","2821-2949 S 00Ew","46761",41.59947953137678,-85.42362018465046
"46767","Ligonier","IN","Stickley Hardware","1352 Lincolnway S","46767",41.452723,-85.58718499999999
"46767","Ligonier","IN","Tractor Supply Co.","905 Lincolnway South","46767",41.457743613736554,-85.58479781349183
"46770","Markle","IN","G & R Sales & Service","11044 N Marzane Rd-90","46770",40.9036743,-85.2952329
"46774","New Haven","IN","Menards","5511 Meijer Dr","46835",41.13220418124316,-85.01622849767156
"46774","New Haven","IN","Umbers Do It Best","2813 Maplecrest Road","46815",41.10320263419946,-85.05957560040731
"46774","New Haven","IN","Tractor supply Co.","5808 Meijer Dr","46835",41.134955,-85.014804
"46774","New Haven","IN","Paterson's Do It Best","not_available","46774",41.050395783342466,-85.00065244366155
"46774","New Haven","IN","Husqvarna US","1634 State Road 930 E","46774",41.0661506652832,-85.00566101074219
"46774","New Haven","IN","Carter Lumber","6630 US Highway 30 E","46803",41.06959807609757,-85.05409112386575
"46774","New Haven","IN","A-1  Sanitary Sewer & Drain Service","8628 Stellhorn Rd","46815",41.12081017,-85.02972167
"46774","New Haven","IN","minuteKEY","10420 Maysville Rd","46835",41.1284493,-85.0070069
"46774","New Haven","IN","Sherwin-Williams Paint Store","5421 Meijer Dr","46835",41.131106,-85.014614
"46774","New Haven","IN","Paterson Do It Best","880 SR 930 E","46774",41.066795,-85.017324
"46777","Ossian","IN","Ossian Do-it Best Hardware","101-423 Heyerly Dr","46777",40.883567283333335,-85.165895
"46777","Ossian","IN","Ace Hardware","?","46777",40.88347766554121,-85.16577119867617
"46779","Pleasant Lake","IN","Compound (Equipment Shed)","not_available","46779",41.57456346280183,-85.03295520231109
"46792","Warren","IN","Hemmick Hardware","504 W Main St","46991",40.61784362792969,-85.51004791259766
"46795","Wolcottville","IN","Wible U-Pick Hardwoods","not_available","46795",41.53949648070822,-85.27121396837973
"46797","Woodburn","IN","Woodburn Do-It-Best","Bull Rapids","46797",41.12526,-84.85427
"46802","Fort Wayne","IN","Lowe's","4430 Illinois Road","46804",41.0763092,-85.1996002
"46802","Fort Wayne","IN","Sherwin-Williams Paint Store","3404 Illinois Rd","46802",41.075324,-85.184303
"46802","Fort Wayne","IN","Stellhorn Hardware Co","2018 Fairfield Ave","46802",41.067378999999995,-85.145651
"46802","Fort Wayne","IN","Great Lakes Rubber & Hydraulics Co.","not_available","46803",41.069037,-85.135669
"46803","Fort Wayne","IN","Brown Industrial Packaging, Inc.","5431 State Road 930 E","46803",41.0709181,-85.0679318
"46803","Fort Wayne","IN","True Value Hardware","1119 S Anthony Blvd","46803",41.07573857,-85.11447816
"46803","Fort Wayne","IN","Precision Fabrication Inc","710 Hanover St","46803",41.081893,-85.119186
"46803","Fort Wayne","IN","PHC","3115 Pittsburg St","46803",41.074289,-85.097527
"46803","Fort Wayne","IN","Old Fort Supply Co Inc","2000 Wayne Trce","46803",41.068994,-85.111346
"46804","Fort Wayne","IN","Menards","6310 Illinois Rd","46804",41.076811977041906,-85.22219089038582
"46804","Fort Wayne","IN","Connolly's Do it Best Hardware & Rental","10301 Illinois Rd","46814",41.07307545856829,-85.27592784660715
"46804","Fort Wayne","IN","Cut Above The Rest","not_available","46804",41.074204,-85.21135
"46805","Fort Wayne","IN","Lowe's","1929 North Coliseum Blvd","46805",41.0955743,-85.0901717
"46805","Fort Wayne","IN","Harbor Freight Tools","3927 E State Blvd","46805",41.0981014351859,-85.08942341389972
"46805","Fort Wayne","IN","Cresent Avenue Gardens","not_available","46805",41.101227,-85.119854
"46805","Fort Wayne","IN","Javets Inc.","444 Merkler St","46825",41.12001405,-85.14920965
"46805","Fort Wayne","IN","Sherwin-Williams Product Finishes","3433 N Clinton St","46805",41.108463,-85.138171
"46805","Fort Wayne","IN","Art Van PureSleep","311 Coliseum Boulevard","46805",41.11992224,-85.13731318
"46805","Fort Wayne","IN","HD Supply White Cap","4510 Industrial Road","46825",41.11924548,-85.14714082
"46805","Fort Wayne","IN","White Cap Construction Supply","4510 Industrial Rd","46825",41.119252,-85.147181
"46805","Fort Wayne","IN","minuteKEY","1929 N Coliseum Blvd","46805",41.095333000000004,-85.090692
"46806","Fort Wayne","IN","Lapsley","1002 E Rudisill Blvd","46806",41.0498392,-85.1234003
"46806","Fort Wayne","IN","Connolly's Do It Best Hardware & Rental","5221 S Calhoun Sreet","46807",41.03587329557393,-85.13621760421243
"46808","Fort Wayne","IN","Tractor Supply Co.","2112 West Coliseum Blvd","46808",41.118238,-85.170011
"46808","Fort Wayne","IN","Mill Supply, Inc. (MSI)","5105 Industrial Rd","46825",41.125678,-85.14891300000001
"46808","Fort Wayne","IN","Modern Builders Supply, Inc. Fort Wayne Branch","1727 W Coliseum Blvd","46808",41.11642,-85.16503900000001
"46808","Fort Wayne","IN","Koch Air","5331 Keystone Dr, Fort Wayne, IN 46825","46825",41.12599563598633,-85.14396667480469
"46808","Fort Wayne","IN","MacAllister Rentals","2808 W Coliseum Blvd","46808",41.119186,-85.179437
"46808","Fort Wayne","IN","Ferguson Waterworks","617 Ley Rd","46825",41.12478661768833,-85.15141367912292
"46808","Fort Wayne","IN","Interior Products Supply","4901 Investment Drive","46808",41.1236629,-85.17283595
"46808","Fort Wayne","IN","Fort Wayne Fasteners","not_available","46808",41.110365,-85.175872
"46808","Fort Wayne","IN","Sherwin-Williams Floorcovering Store","3927 Kraft Pkwy","46808",41.111767,-85.191539
"46808","Fort Wayne","IN","Fastenal","3012 Independence Dr","46808",41.10855,-85.181809
"46808","Fort Wayne","IN","Fort Wayne Tool & Knife","3037 Goshen Rd","46808",41.118669,-85.183587
"46808","Fort Wayne","IN","Connolly's Do It Best Hardware & Rental","1642 N Wells St","46808",41.095612897346705,-85.15809774398804
"46808","Fort Wayne","IN","Metal Supermarkets","5400 Distribution Dr","46825",41.12782,-85.153752
"46808","Fort Wayne","IN","Kronmiller Machine & Tool","2230 Lakeview Dr","46808",41.094935,-85.173244
"46808","Fort Wayne","IN","Lumber Liquidators","2639 Goshen Rd","46808",41.113673999999996,-85.17727
"46809","Fort Wayne","IN","Waynedale Plumbing Supply","Lower Huntington Road","not_available",41.01921751752086,-85.17786874067399
"46809","Fort Wayne","IN","Umbers Do It Best Hardware","Lower Huntington Rd","46809",41.01956,-85.170163
"46816","Fort Wayne","IN","Menards","7702 Southtown Xing","46816",41.013815610982874,-85.1170151094377
"46818","Fort Wayne","IN","The Home Depot","6235 Lima Road","46818",41.13536080901297,-85.16487032175064
"46818","Fort Wayne","IN","Lowe's","6931 North Lima Rd","46818",41.14075543,-85.16546751
"46818","Fort Wayne","IN","Minnich Manufacturing Inc","2421 W Wallen Rd","46818",41.160498,-85.175528
"46818","Fort Wayne","IN","Fort Wayne Materials Handling","7433 S.R. East","46803",41.130117,-85.1749884
"46818","Fort Wayne","IN","Love Shack","not_available","46818",41.1402587890625,-85.1653823852539
"46818","Fort Wayne","IN","Sherwin-Williams Paint Store","9809 Lima Rd","46818",41.17246752175309,-85.16656090977926
"46818","Fort Wayne","IN","Wayne Pipe and Supply","6040 Innovation Blvd","46818",41.133168,-85.176423
"46818","Fort Wayne","IN","Ferguson Plumbing Supply","3850 Concept Ct","46808",41.130399,-85.17009
"46818","Fort Wayne","IN","Foundation Building Materials","2704 Goshen Road","46808",41.11452655,-85.17462157
"46825","Fort Wayne","IN","Northern Tool","1033 W Washington Center Rd","46825",41.13209,-85.152954
"46825","Fort Wayne","IN","Hahn Systems","8131 N Clinton St","46825",41.15681457519531,-85.10822296142578
"46825","Fort Wayne","IN","Service All Vacuum","not_available","46845",41.17857447033351,-85.127709972185
"46825","Fort Wayne","IN","Hahn Systems","not_available","46825",41.16540949271555,-85.10977933006785
"46825","Fort Wayne","IN","Fastenal","Independence Dr, Fort Wayne, IN 46808","46808",41.149990865550684,-85.13450274863067
"46825","Fort Wayne","IN","Connolly's Do It Best Hardware &  Rental","515 E DuPont Rd","46825",41.17911629519788,-85.13512274829115
"46825","Fort Wayne","IN","Sundberg","Coldwater","46845",41.130451,-85.13681700000001
"46825","Fort Wayne","IN","Re Bath","5525 Coldwater Rd","46825",41.129861,-85.136853
"46825","Fort Wayne","IN","Glided Professional Paint","5945 N Clinton St","46825",41.134021000000004,-85.121921
"46825","Fort Wayne","IN","Grainger","5002 Speedway Dr","46825",41.123678999999996,-85.14203499999999
"46901","Kokomo","IN","Menards","1715 E Havens St","46901",40.49480268233068,-86.1102634840147
"46901","Kokomo","IN","Rural King","2947 S Washington St","46902",40.45173549687337,-86.12870872020721
"46901","Kokomo","IN","Harbor Freight","2943 S Washington St","46902",40.45198383355438,-86.12983904854218
"46901","Kokomo","IN","NISCO","not_available","46901",40.483986,-86.131238
"46901","Kokomo","IN","Sherwin-Williams Paint Store","409 S Washington St","46901",40.48307439164691,-86.13409996032715
"46901","Kokomo","IN","Dowden's Home Improvement","11118 W 150 N","46901",40.496749991682925,-86.33966879075524
"46901","Kokomo","IN","McGavic Outdoor Power","1822-1898 E Havens Ct","46901",40.49588394165039,-86.10604095458984
"46901","Kokomo","IN","minuteKEY","1920 E Markland Ave","46901",40.4788703918457,-86.10370635986328
"46901","Kokomo","IN","Country Lawn and Garden, LLC","10222 E County Road 1250 S","46932",40.58395829702335,-86.18034597610949
"46901","Kokomo","IN","Harbor Freight Tools","2943 S Washington St #3","46902",40.45225143432617,-86.12890625
"46901","Kokomo","IN","Foundation Building Materials","2101 N Webster St","46901",40.5062370300293,-86.13695526123047
"46902","Kokomo","IN","Lowe's","4005 South Lafountain","46902",40.4395457,-86.1292183
"46902","Kokomo","IN","minuteKEY","4005 S Lafountain St","46902",40.439433,-86.12952299999999
"46911","Amboy","IN","Graber Supply LLC","10674 S 400 E","46911",40.6125699552933,-85.9963506236029
"46913","Bringhurst","IN","Barnard Lumber","not_available","46920",40.47934,-86.395095
"46914","Bunker Hill","IN","MacAllister Rentals","8497 US-31","46914",40.64369777,-86.12673286
"46917","Camden","IN","Oyler Repair Shop","2602 W State Road 218","46923",40.6053615,-86.5747607
"46923","Delphi","IN","Carroll County True Value","1273 Alco Ways","46923",40.56548472,-86.6565161
"46923","Delphi","IN","Ayres True Value Hardware","22 W Columbia St","46929",40.546714782714844,-86.52429962158203
"46928","Fairmount","IN","Fairmount Hardware","Fairmount","46928",40.414817431567286,-85.65049911330208
"46933","Gas City","IN","Do It Best Hardware","not_available","46933",40.48773,-85.61114
"46938","Jonesboro","IN","Upland True Value Hardware","800 E 500 S","46989",40.48043,-85.6571917
"46939","Kewanna","IN","Pro Hardware","Main Street","46939",41.017343,-86.412639
"46947","Logansport","IN","The Home Depot","4120 E Market Street","46947",40.7584143,-86.3105346
"46947","Logansport","IN","Mccord's Do It Best","2865 E Market St","46947",40.75724411010742,-86.33041381835938
"46947","Logansport","IN","Wilkinson Heating Co","2101 Erie Ave","46947",40.745416,-86.3386529
"46947","Logansport","IN","Sherwin-Williams Paint Store","411 Mall Rd","46947",40.75892792712664,-86.31824970245361
"46947","Logansport","IN","American Tool-Time 2","3325 E Market St","46947",40.756634999999996,-86.322733
"46947","Logansport","IN","minuteKEY","240 Mall Rd","46947",40.7554116,-86.3132328
"46952","Marion","IN","Macs Ace Hardware Inc","1138 S Branson St","46953",40.550299,-85.657296
"46952","Marion","IN","Kirby Risk","1301-1327 S Branson St","46953",40.549259185791016,-85.65823364257812
"46952","Marion","IN","Indiana Oxygen","not_available","46953",40.540967,-85.673246
"46952","Marion","IN","Sherwin-Williams Paint Store","2040 S Western Ave","46953",40.54201126098633,-85.67426300048828
"46952","Marion","IN","Mac's Ace Hardware","1138 S Branson St, Marion, IN 46953","46953",40.549949645996094,-85.65763854980469
"46952","Marion","IN","Jar Lumber & Fireplace","758 S McClure St, Marion, IN 46953","46953",40.56241086112718,-85.67438094540779
"46953","Marion","IN","Lowe's","2842 South Western Avenue","46953",40.5351181,-85.6764831
"46953","Marion","IN","Helvie & Sons","5418 S Lincoln Blvd","46953",40.50334,-85.633161
"46953","Marion","IN","Big R - Marion","1401 W 26th St","46953",40.537430170032,-85.67568243879779
"46953","Marion","IN","Harbor Freight","3711 S Western Ave","46953",40.524581,-85.673184
"46953","Marion","IN","Carter Lumber","3520 S Western Ave","46953",40.52724869766073,-85.67381424609391
"46953","Marion","IN","Tractor Supply Co.","3416 South Western Ave","46953",40.528463,-85.6745
"46953","Marion","IN","South Central Company","3015 S Valley Ave","46953",40.533302307128906,-85.67552185058594
"46962","North Manchester","IN","Manchester Party & Tool Rental","1105 State Road 114 W","46962",40.999901,-85.786223
"46970","Peru","IN","Arnie's Ace Hardware","56 S Broadway","46970",40.752842,-86.068492
"46970","Peru","IN","Fastenal","not_available","46970",40.764759,-86.077291
"46970","Peru","IN","Home Depot","not_available","46994",40.680115,-86.166755
"46970","Peru","IN","Sherwin-Williams Paint Store","64 N Broadway","46970",40.75495812061418,-86.07010229527118
"46975","Rochester","IN","Smith Farm Stores  Inc.","151 Rochester Plz","46975",41.0546999,-86.2166
"46975","Rochester","IN","Fansler lumber","not_available","46975",41.0621452331543,-86.19099426269531
"46975","Rochester","IN","Carter Lumber","2196 Sweetgum Rd","46975",41.049869537353516,-86.23164367675781
"46975","Rochester","IN","Bailey's Hardware Inc.","712 Main Street","46975",41.06669998168945,-86.21624755859375
"46975","Rochester","IN","Enyarts True Value Home Center","1619 Main St","46975",41.05567645,-86.21653707
"46992","Wabash","IN","Big City Paints","480 S Wabash St","46992",40.79364200120846,-85.8203870385643
"46992","Wabash","IN","Fastenal","1420 S Wabash St","46992",40.785072326660156,-85.82077026367188
"46992","Wabash","IN","Big R - Wabash","1550 N Cass St","46992",40.81629648935985,-85.8407840535678
"46992","Wabash","IN","Tractor Supply Co.","1495 North Cass St","46992",40.816798999999996,-85.838169
"46992","Wabash","IN","Morsches Builders Mart","2061 S Old State Rd 15","46992",40.77445623502525,-85.81897258758544
"46996","Winamac","IN","Ace Hardware","854 N Plymouth Rd","46996",41.0587,-86.6037
"46996","Winamac","IN","Rife Farm Supply","not_available","46996",41.068893,-86.603647
"47001","Aurora","IN","Lowe's","970 West Eads Parkway","47025",39.0837473,-84.8787217
"47001","Aurora","IN","Valley Supply","1323 State Road 262","47040",38.9530182737052,-84.867545382292
"47001","Aurora","IN","Sears","not_available","47025",39.078330993652344,-84.89127349853516
"47001","Aurora","IN","Tri-State Battery Supply","48 Doughty Rd","47025",39.095814,-84.866787
"47001","Aurora","IN","orscheln","1100-1150 W Eads Pkwy","47025",39.082817,-84.880769
"47001","Aurora","IN","Aurora Lumber","1055 Green Blvd","47001",39.077453999999996,-84.888646
"47001","Aurora","IN","Orscheln","Reese Dr","47025",39.08526695127219,-84.87528572588062
"47006","Batesville","IN","Tractor Supply Co.","100 Cross County Plz","47006",39.308833,-85.21351700000001
"47006","Batesville","IN","Laker Electric & Plumbing, Inc.","283 State Road 129 S","47006",39.282084,-85.204272
"47006","Batesville","IN","Hirt & Ellco, Inc.","108 W. Pearl St","47006",39.29961,-85.224281
"47012","Brookville","IN","Gillman Do it Best","9201 SR 101","47012",39.43607711791992,-84.99478149414062
"47012","Brookville","IN","Sperry & Rice LLC","9146 US Route 52","47012",39.3807718,-84.9735377
"47012","Brookville","IN","Guardian Building Products","not_available","47060",39.27824020385742,-84.82618713378906
"47020","Florence","IN","maine's hardware","not_available","41095",38.78237533569336,-84.90264129638672
"47025","Lawrenceburg","IN","Tractor Supply Co.","401 West Eads Pkwy Ste 120","47025",39.10537830654779,-84.8514924198389
"47042","Versailles","IN","Southeastern Water Systems","22 N Us Highway 421","47042",39.073911,-85.27023
"47042","Versailles","IN","Halcomb home center","not_available","47042",39.04939651489258,-85.2586669921875
"47043","Vevay","IN","Husqvarna US","10482 E State Road 156","47043",38.765106201171875,-85.01640319824219
"47102","Austin","IN","256 Supply True Value Hardware","330 W Main St","47102",38.74149633,-85.80964843
"47111","Charlestown","IN","Big G Supply","600 Pike St","47111",38.449663,-85.665544
"47111","Charlestown","IN","Jays Saddlery","not_available","47126",38.50857837907634,-85.72565471770308
"47111","Charlestown","IN","Davis Heating & Cooling","322 Main Cross St","47111",38.44390909175746,-85.66147327423094
"47112","Corydon","IN","Eckart Supply","426 Quarry Rd NW","47112",38.2454299,-86.1329116
"47112","Corydon","IN","minuteKEY","2363 Highway 135 NW","47112",38.235240000000005,-86.131156
"47112","Corydon","IN","Sears","1480 Old Highway 135 NE","47112",38.22297428383475,-86.12782895565033
"47112","Corydon","IN","Tractor Supply Co.","1935 Old Hwy 135 Northwest","47112",38.22898864746094,-86.13349151611328
"47112","Corydon","IN","Deer Country","1129 Highway 62 NW","47112",38.220176696777344,-86.14799499511719
"47112","Corydon","IN","Alstott's","200 S Capitol Ave","47112",38.209122,-86.12616
"47112","Corydon","IN","Walls Equipment Sales","1927 Highway 337","47112",38.2294202,-86.1365079
"47112","Corydon","IN","Limeberry Lumber","1991 Highway 337 NW","47112",38.229936,-86.137684
"47118","English","IN","Larimore Electric Inc","4081 East Miller Road","47140",38.369813,-86.383157
"47118","English","IN","English Hardware","not_available","47118",38.34634502455364,-86.45768530362726
"47118","English","IN","Marengo Farm and Supply","not_available","47140",38.36805725097656,-86.34332275390625
"47119","Floyds Knobs","IN","The Home Depot","2239 State Street","47150",38.3051406,-85.8438189
"47119","Floyds Knobs","IN","Ace Hardware","1905 Charlestown Rd","47150",38.303859,-85.813665
"47119","Floyds Knobs","IN","PPG Paints","733 Mount Tabor Rd","47150",38.33173288851316,-85.81948682003465
"47119","Floyds Knobs","IN","Sherwin-Williams Paint Store","731 Rolling Creek Dr","47150",38.324925,-85.820476
"47119","Floyds Knobs","IN","Fastenal Company","111 Hausfeldt Ln","47150",38.3394377,-85.83542023333334
"47119","Floyds Knobs","IN","the rental mart","not_available","47150",38.32516860961914,-85.81361389160156
"47122","Georgetown","IN","Mister Hardware","1035 N Luther Rd","47122",38.2895119,-85.9137793
"47129","Clarksville","IN","Lowe's","1350 Veterans Parkway","47129",38.327449,-85.7578502
"47129","Clarksville","IN","Menards","4400 Town Center Blvd","47130",38.33160080278709,-85.74647286508494
"47129","Clarksville","IN","The Home Depot","1000 East Hwy 131","47129",38.31460565475962,-85.75741052627563
"47129","Clarksville","IN","Walnut Ridge","2108 Hamburg Pike","47130",38.29607727125231,-85.74660307793458
"47129","Clarksville","IN","Ace Hardware","2527 Portland Ave","40212",38.27144241333008,-85.78988647460938
"47129","Clarksville","IN","Sherwin-Williams Paint Store","1475 Veterans Pkwy","47130",38.329865999999996,-85.746638
"47129","Clarksville","IN","Harbor Freight Tools","746 E Lewis and Clark Pkwy","47129",38.311709939242924,-85.76305303028805
"47129","Clarksville","IN","minuteKEY","1350 Veterans Pkwy","47129",38.327247619628906,-85.75749206542969
"47129","Clarksville","IN","Eckart Supply","1632 Broadway St","47129",38.3257783,-85.7593863
"47130","Jeffersonville","IN","Brownsboro Hardware & Paint","4858 Brownsboro Ctr","40207",38.27830807363117,-85.63612530505583
"47130","Jeffersonville","IN","Southern Indiana Paint Supply","1994 Charlestown New Albany Rd","47130",38.32695007324219,-85.73784637451172
"47130","Jeffersonville","IN","Sherwin-Williams Product Finishes","4730 New Middle Rd","47130",38.3315114,-85.6766492
"47130","Jeffersonville","IN","Sherwin-Williams Paint Store","1901 Rudy Ln","40207",38.27966236702448,-85.63894271850586
"47130","Jeffersonville","IN","Sherwin-Williams Paint Store","1439 Youngstown Shopping Ctr","47130",38.29035186767578,-85.73007202148438
"47130","Jeffersonville","IN","Handy Man Appliance Parts Center","1066 Kehoe Ln","47130",38.300581,-85.724343
"47130","Jeffersonville","IN","Wolf Glass & Paint Co","not_available","47130",38.27635955810547,-85.74349212646484
"47135","Laconia","IN","Cox's Home Center","570 River Ridge Plaza","40108",38.0048689,-86.165659
"47135","Laconia","IN","Cox's Home Center","570 Bypass Rd","40108",37.98027038574219,-86.16348266601562
"47141","Marysville","IN","Marysville True Value Hardware","10206 Highway 3","47141",38.5866584777832,-85.64694213867188
"47150","New Albany","IN","Metro electric","not_available","40203",38.245208740234375,-85.76360321044922
"47150","New Albany","IN","Porter Paints","4432 Dixie Hwy.","40216",38.1806521723793,-85.8167839050293
"47150","New Albany","IN","Cane Run Hardware","4118 Cane Run Rd","40216",38.203943,-85.83193
"47150","New Albany","IN","Porter Paints","801 S 3rd St","40203",38.243719,-85.756834
"47150","New Albany","IN","Jellico Wood Coatings","829 S 26th St","40211",38.246373,-85.794712
"47150","New Albany","IN","Ace Hardware","3348 Taylor Blvd","40215",38.200056,-85.783159
"47150","New Albany","IN","Porter Paints Factory","400 S 13th St","40203",38.25442886352539,-85.77229309082031
"47150","New Albany","IN","E & H Electrical Supply","804 S 5th St","40203",38.243877219378795,-85.76064915594259
"47150","New Albany","IN","Ace Hardware","2616 W Market St","40212",38.259161999999996,-85.794229
"47167","Salem","IN","Walls Equipment Sales","221 Tarr Ave","47167",38.60873350864722,-86.1188500859833
"47167","Salem","IN","Ace Hardware of Salem","1312 W Mulberry St","47167",38.607852,-86.122579
"47167","Salem","IN","Tractor Supply Co.","601 South Main St Ste 112","47167",38.599247,-86.10271
"47170","Scottsburg","IN","Vail True Value Lumber Co.","43 S Railroad St","47170",38.68416213989258,-85.7711410522461
"47170","Scottsburg","IN","Scotts Hardware Inc.","785 W Mcclain Ave","47170",38.6855479,-85.779967
"47172","Sellersburg","IN","Tractor Supply Co.","7409 Hwy 311","47172",38.37883709782941,-85.77048919869733
"47172","Sellersburg","IN","PC Lumber and Hardware","150 Hunter Station Rd, Sellersburg, IN 47172","47172",38.38367234954672,-85.77190335080269
"47201","Columbus","IN","Menards","2315 Merchant Mile","47201",39.196379019621006,-85.95017591629446
"47201","Columbus","IN","Rural King","2985 N National Rd","47201",39.229826453055026,-85.89776515960688
"47201","Columbus","IN","Lowe's","3500 10th Street","47201",39.2104252,-85.8809644
"47201","Columbus","IN","minuteKEY","2315 Merchants Mile","47201",39.1978532,-85.9512462
"47201","Columbus","IN","South Central Supply","not_available","47201",39.19025278611772,-85.88833891571362
"47201","Columbus","IN","Fastenal","3655 N National Rd","47201",39.239689,-85.93354000000001
"47201","Columbus","IN","Sherwin-Williams Paint Store","2920 N National Rd","47201",39.226791999999996,-85.896714
"47201","Columbus","IN","Alarm System Store","2450 W 300 S B-2","47201",39.15659713745117,-85.94989776611328
"47201","Columbus","IN","minuteKEY","3500 10th St","47201",39.210553000000004,-85.881483
"47201","Columbus","IN","Breakroom!","Menards","47201",39.19664385652804,-85.94966760189791
"47201","Columbus","IN","minuteKEY","735 Whitfield Dr","47201",39.208362,-85.879922
"47201","Columbus","IN","MacAllister Rentals","3465 State St","47201",39.186018,-85.881737
"47201","Columbus","IN","Rose Walker Supply","not_available","47203",39.25153125182427,-85.94475837514943
"47203","Columbus","IN","Majors True Value Hardware","8501 N State Road 9","47246",39.28761672973633,-85.77081298828125
"47203","Columbus","IN","Deckard Tool","West Dr","47246",39.303346000000005,-85.772421
"47203","Columbus","IN","Hope Hardwoods","425-507 Depot St","47246",39.300010681152344,-85.76226806640625
"47203","Columbus","IN","Hope Warehouse","8464 N County Road 600 E","47246",39.28456997,-85.80008988
"47220","Brownstown","IN","Hills Workshop","7495 W County Road 350 S","47260",38.8245722,-86.1815596
"47220","Brownstown","IN","Lucas Ackerman True Value Hardware Supply","300 N Main St","47220",38.881263,-86.041013
"47220","Brownstown","IN","Brownstown Hardware","not_available","47220",38.8789736570883,-86.04221235733866
"47240","Greensburg","IN","Rural King","1807 N Broadway St","47240",39.3552703,-85.4861373
"47240","Greensburg","IN","Fastenal","603 W Main St","47240",39.336253,-85.492392
"47240","Greensburg","IN","B & C Rental","1131 W Westridge Pkwy","47240",39.35070939956538,-85.50051349389321
"47240","Greensburg","IN","Tops Home Center #44","916 W 4th St","47240",39.347772,-85.495428
"47240","Greensburg","IN","Lett's Hardware & Equipment, Inc.","4987 W County Road 700 S","47240",39.23429,-85.574756
"47240","Greensburg","IN","County Supply Company, Inc.","126 N Franklin St","47240",39.33734893798828,-85.48243713378906
"47240","Greensburg","IN","Pleak's Do It Center","834 N Lincoln St","47240",39.34503465131109,-85.47884702682495
"47240","Greensburg","IN","MacAllister Rentals","2436 N Cleo Ln","47240",39.35984315,-85.5126633
"47240","Greensburg","IN","Schreiber Lumber, Inc.","N. Michigan Ave","47240",39.3424072265625,-85.49089050292969
"47240","Greensburg","IN","Airgas - Greensburg","727 W Main St","47240",39.336347,-85.494623
"47240","Greensburg","IN","Hoeing Supply","419 W Mill St","47240",39.33558654785156,-85.48978424072266
"47240","Greensburg","IN","HPMA Tool Room","1024 Barachel Ln","47240",39.35330280039178,-85.46726623842261
"47240","Greensburg","IN","Sherwin-Williams Paint Store","219 E Main St","47240",39.33672050178021,-85.48196911811829
"47243","Hanover","IN","Blue Flame","not_available","47250",38.73270881840419,-85.45690940600785
"47243","Hanover","IN","Hanover Implement","not_available","47243",38.715327,-85.475563
"47243","Hanover","IN","Mr. Hardware","215 W Lagrange Rd","47243",38.7147216796875,-85.476806640625
"47243","Hanover","IN","Steinhardt Heating & Cooling","W. LaGrange Road","47243",38.71582013520538,-85.47547817230225
"47250","Madison","IN","Lowe's","511 Ivy Tech Drive","47250",38.7836071,-85.380443
"47250","Madison","IN","Sears","419 Clifty Dr","47250",38.77435302734375,-85.39517211914062
"47250","Madison","IN","Tractor Supply Co.","405 East Clifty Dr","47250",38.780407000000004,-85.380062
"47250","Madison","IN","Madison Truss Co","5426 N Olive Branch Rd","47250",38.820002,-85.337169
"47250","Madison","IN","TNT Tool & Equipment Rental Inc.","3136 N Michigan Rd","47250",38.78647,-85.38604199999999
"47250","Madison","IN","Boonie's Water Conditioning","412 E 2nd St","47250",38.7349276,-85.3750771
"47250","Madison","IN","Sherwin-Williams Paint Store","742 Clifty Dr","47250",38.775220000000004,-85.402371
"47265","North Vernon","IN","Clancy's Tool Rental","not_available","47265",39.022054,-85.620075
"47265","North Vernon","IN","Stearns Supply Center","2550 State Highway 7","47265",39.02328,-85.647634
"47265","North Vernon","IN","minuteKEY","2410 N State Highway 3","47265",39.01621627807617,-85.63772583007812
"47265","North Vernon","IN","Goecker Building Supplys True Value","2885 N State Hwy 3","47265",39.02729429,-85.64013272
"47274","Seymour","IN","The Home Depot","1714 Tipton Street","47274",38.956202,-85.8614598
"47274","Seymour","IN","Winsupply of Seymour","4329 N. U.S. 31","47274",38.9452,-85.833658
"47274","Seymour","IN","Union Hardware","not_available","47274",38.95746638476528,-85.889852284543
"47274","Seymour","IN","Tractor Supply Co.","2003 East Tipton","47274",38.95905549306929,-85.85578273967624
"47274","Seymour","IN","Sherwin-Williams Paint Store","545 S Jackson Park Dr","47274",38.95700454711914,-85.87079620361328
"47274","Seymour","IN","Fastenal","722 E Tipton St","47274",38.958073,-85.878649
"47274","Seymour","IN","Seymour Ace Hardware","229 S Chestnut St","47274",38.95622983,-85.888855
"47274","Seymour","IN","Goecker Building Supply & True Value","1800 S Walnut St","47274",38.93439019,-85.89001211
"47302","Muncie","IN","Husqvarna US","PO Box 7015","47308",40.13312911987305,-85.38091278076172
"47302","Muncie","IN","MAB Paints","801 W Jackson St Ste 1","47305",40.19269943237305,-85.39462280273438
"47302","Muncie","IN","Dague Supply","not_available","47302",40.18848419189453,-85.38289642333984
"47302","Muncie","IN","Praxair","810 S Liberty St","47302",40.18659993,-85.38927569
"47302","Muncie","IN","Knapp Supply","420 S Ohio Ave","47302",40.190438571041156,-85.37059307098389
"47302","Muncie","IN","L T Ollesheimer & Son Of Indiana","not_available","47303",40.204840020867756,-85.3806600330352
"47302","Muncie","IN","Motorcraft","1219 S Walnut St","47302",40.1915831,-85.3945084
"47303","Muncie","IN","Lowe's","4401 West Clara Lane","47304",40.216972,-85.437998
"47303","Muncie","IN","Menards","3401 N Nebo Rd","47304",40.22136164171362,-85.46487139572368
"47303","Muncie","IN","Carter Lumber","4900 N Old State Rd 3","47303",40.23396,-85.36758
"47303","Muncie","IN","Sherwin-Williams Paint Store","500 E McGalliard Rd","47303",40.21922806220301,-85.3816987761147
"47303","Muncie","IN","Art Van PureSleep","4701 Wheeling Avenue","47304",40.2319482,-85.4107424
"47303","Muncie","IN","Hi-Way 3 Hardware","4818 SR 3","not_available",40.23326945736466,-85.36771568102533
"47303","Muncie","IN","Harbor Freight Tools","1413 W McGalliard Rd #4","47304",40.21781556960496,-85.40303726570207
"47303","Muncie","IN","Tractor Supply Co.","3601 East Mcgalliard","47303",40.21834614357694,-85.34408813637751
"47303","Muncie","IN","minuteKEY","4401 W Clara Ln","47304",40.21723175048828,-85.43792724609375
"47303","Muncie","IN","minuteKEY","4801 W Clara Ln","47304",40.2169517,-85.4413363
"47303","Muncie","IN","ReStore","2620 North Martin Luther King Jr. Blvd","47303",40.216108,-85.373928
"47303","Muncie","IN","Hi-Way 3 Hardware","Old State Road 3","47304",40.23473747,-85.42270182
"47320","Albany","IN","Albany Hardware LLC","209 W State St","47320",40.299503326416016,-85.2388687133789
"47330","Centerville","IN","Richmond's Complete Home Improvement & Richmond Overhead Door Co","3920 National Rd W","47374",39.82162,-84.95496
"47330","Centerville","IN","Carter Lumber","9834 Us 40","47330",39.81626892089844,-85.06272888183594
"47331","Connersville","IN","Gillmans","not_available","47331",39.63919490863598,-85.13237534660122
"47331","Connersville","IN","Sherwin-Williams Paint Store","114 W 30th St","47331",39.672084000000005,-85.129961
"47331","Connersville","IN","Gillman Home Center","505 E 5th St","47331",39.638872,-85.132408
"47331","Connersville","IN","Sears","105 West 24th Street","47331",39.6639934,-85.1296628
"47331","Connersville","IN","Tractor Supply Co.","2202 North Park Rd","47331",39.660574,-85.127244
"47331","Connersville","IN","Benny's Drain Cleaning & Plumbing Supplies","1023 N Eastern Ave","47331",39.646355,-85.134096
"47331","Connersville","IN","Powell's Plumbing & Electrical Inc","250 E 11th St","47331",39.64666,-85.13261
"47346","Hagerstown","IN","Nettlecreek Hardware","not_available","47346",39.90988235514685,-85.1538078905604
"47348","Hartford City","IN","Four Seasons Sales And Service","1610 N Walnut St","47348",40.4643139,-85.3697186
"47348","Hartford City","IN","Goodyear Hartford City","201-299 N Walnut St","47348",40.45264080731461,-85.37013029418311
"47353","Liberty","IN","Marker's Wally World Power Equipment","1076 S State Road 101","47353",39.6158425,-84.9388903
"47353","Liberty","IN","Bertch's Hardware","51 W Union St","47353",39.6337890625,-84.93087768554688
"47356","Middletown","IN","Hayes Hardware Store","locust street","47356",40.05617152940905,-85.53734536124803
"47362","New Castle","IN","Rural King","127 S Memorial Dr","47362",39.92900729199513,-85.38364470005035
"47362","New Castle","IN","Tractor Supply Co.","3000 South Memorial Dr","47362",39.903035,-85.384636
"47362","New Castle","IN","Carter Lumber","289 W Sr 38","47362",39.9319589152555,-85.3909356570791
"47362","New Castle","IN","Gillman Lumber, Hardware & More","not_available","47362",39.88154251300536,-85.38623169932481
"47362","New Castle","IN","Sherwin-Williams Paint Store","2925 S 14th St","47362",39.90345001220703,-85.3604736328125
"47362","New Castle","IN","Ace Hardware","441 S Memorial Dr","47362",39.9213749,-85.382279
"47362","New Castle","IN","Henry County Glass & Mirror","1018 Woodward Ave","47362",39.936052905712664,-85.37265196895306
"47362","New Castle","IN","Dudley's Hardware","533 N Memorial Dr","47362",39.93415832519531,-85.38312530517578
"47362","New Castle","IN","Fastenal","721 S Memorial Dr, New Castle, IN 47362","47362",39.92483139038086,-85.38273620605469
"47362","New Castle","IN","Hudson Rental & Sales","206 Spring St","47362",39.933252,-85.381633
"47362","New Castle","IN","Debruhl Lumber","5142 W SR 38","47362",39.95123385745668,-85.48348188400269
"47371","Portland","IN","Portland True Value","1100 N Meridian St","47371",40.435022,-84.975465
"47374","Richmond","IN","Lowe's","510 West Eaton Pike","47374",39.8307344,-84.8187602
"47374","Richmond","IN","Menards","3800 National Rd E","47374",39.83225824101965,-84.846909677233
"47374","Richmond","IN","Harbor Freight","not_available","47374",39.829621,-84.838455
"47374","Richmond","IN","orscheln","40","47374",39.846315,-84.94561
"47374","Richmond","IN","Airgas Great Lakes","825 Liberty Ave","47374",39.8168830871582,-84.8981704711914
"47374","Richmond","IN","JNB Commercial and Industrial Sales","2117 Peacock Rd","47374",39.83213,-84.931899
"47374","Richmond","IN","Tractor Supply Co.","4675 National Rd East","47374",39.829615,-84.837636
"47374","Richmond","IN","Sherwin-Williams Paint Store","3516 E Main St","47374",39.831424,-84.853708
"47374","Richmond","IN","Lee Supply","635 NW 2nd St","47374",39.835988823943076,-84.90172009848902
"47374","Richmond","IN","MENDENHALL TRUE VALUE HDWE","125 SW 5th St","47374",39.82725143432617,-84.90778350830078
"47374","Richmond","IN","MacAllister Rentals","4791 National Rd E","47374",39.83044,-84.83384
"47374","Richmond","IN","Carter Lumber","3783 Chester Blvd","47374",39.88154983520508,-84.88725280761719
"47384","Shirley","IN","Shirley Hardware","311 Main St","47384",39.891212463378906,-85.57685852050781
"47390","Union City","IN","Didier Hardware","1355 Lansdowne Dr","47390",40.21337573718535,-84.81329262430529
"47394","Winchester","IN","Tractor Supply Co.","936 East Washington St","47394",40.170618,-84.96376
"47394","Winchester","IN","orschelin","970 E Washington St","47394",40.171024322509766,-84.96188354492188
"47394","Winchester","IN","Gillman Home Center","920 E Greenville Pike","47394",40.16189956665039,-84.95919799804688
"47401","Bloomington","IN","Bloomington Hardware","2700 E Covenanter Dr","47407",39.15493374265968,-86.49719214974618
"47401","Bloomington","IN","Winslow Hardware","333 E Winslow Rd","47401",39.137442,-86.52604000000001
"47401","Bloomington","IN","Rose And Walker Drywall & Insulation","300 W Country Club Dr","47403",39.136348999999996,-86.535965
"47401","Bloomington","IN","Art Van PureSleep","2634 East 3rd Street","47401",39.16264598,-86.49962199
"47401","Bloomington","IN","Black Lumber Co.","4762 Henderson st","47401",39.148293,-86.528654
"47401","Bloomington","IN","BLOOMINGTON TRUE VALUE HDWE","2700 E Covenanter Dr","47401",39.15462875366211,-86.4970932006836
"47401","Bloomington","IN","Sherwin-Williams Paint Store","2654 E 10th St","47408",39.17095184326172,-86.50119018554688
"47401","Bloomington","IN","Foundation Building Materials","300 West Country Club Drive","47403",39.1363382,-86.5359403
"47403","Bloomington","IN","Menards","1285 S Liberty Dr","47403",39.15855269604323,-86.5747227568354
"47403","Bloomington","IN","Fastenall","not_available","47403",39.164580585219966,-86.57820782178916
"47403","Bloomington","IN","True Value","State rd 46","not_available",39.089019335839524,-86.6676429665382
"47403","Bloomington","IN","Indy Tractor","1305 W. Bloomfield Rd.","47403",39.1596565246582,-86.55188751220703
"47404","Bloomington","IN","Lowe's","350 North Gates Drive","47404",39.1698694,-86.5748351
"47404","Bloomington","IN","Tractor Supply Co.","5790 West State Rd 46","47404",39.22521318771362,-86.61111174164047
"47404","Bloomington","IN","Ellettsville True Value","4610 W Richland Plaza Dr","47404",39.216418,-86.593835
"47404","Bloomington","IN","Kleindorfer's Hardware","1401 W Kirkwood Ave","47404",39.166385999999996,-86.550951
"47404","Bloomington","IN","Husqvarna US","8273 W ST.RD 46","47429",39.249595642089844,-86.62013244628906
"47404","Bloomington","IN","MacAllister Rentals","2305 W Industrial Park Dr","47404",39.174240000000005,-86.56874599999999
"47404","Bloomington","IN","True value","Richland ave","47404",39.183204,-86.537827
"47404","Bloomington","IN","J & S Locksmith Shop","508 W 17th St","47404",39.179389,-86.538827
"47404","Bloomington","IN","minuteKEY","350 N Gates Dr","47404",39.170001,-86.575351
"47404","Bloomington","IN","J & S","805 w 17th","47404",39.193336333333335,-86.536894
"47404","Bloomington","IN","Bender Lumber","6002 W State Road 46","47404",39.231903,-86.62245
"47421","Bedford","IN","Lowe's","3300 16th Street","47421",38.8592811,-86.5190415
"47421","Bedford","IN","Tractor Supply Co.","2653 16th St","47421",38.862081,-86.510294
"47421","Bedford","IN","Georges Gateway True Value","M Street","47421",38.8679951,-86.48795601666667
"47421","Bedford","IN","Harbor Freight","not_available","47421",38.861713,-86.517372
"47421","Bedford","IN","Ace Hardware/Ben Franklin","1206 W Main St","47446",38.731543,-86.482291
"47421","Bedford","IN","Geo-Flo","3201-3299 John a Williams Blvd","47421",38.87024853694493,-86.51404802969503
"47421","Bedford","IN","Sherwin-Williams Paint Store","1411 James Ave","47421",38.86301906547691,-86.51982307434082
"47424","Bloomfield","IN","C&C","Lar Center","47459",39.0670202,-86.7848606
"47424","Bloomfield","IN","Ace Hardware","South Plaza Shopping Center","47424",39.0242,-86.938533
"47424","Bloomfield","IN","Branstetters Heating and Air","34 S Franklin St","47424",39.02622985839844,-86.93879699707031
"47432","French Lick","IN","Twin City True Value","8248 W Michigan St","47432",38.54814,-86.6121974358974
"47432","French Lick","IN","Springs Valley Hardware & Supply","799 S State Road 145","47432",38.545079,-86.611292
"47441","Linton","IN","Diana's Paint and Wallpaper","not_available","47441",39.03832244873047,-87.18118286132812
"47446","Mitchell","IN","Indian Creek Stone Products - Stone Yard","12998 US Highway 50 West","47446",38.72107295464853,-86.68393176190193
"47448","Nashville","IN","Bear Hardware","747-777 Indiana 135","47448",39.20103254429065,-86.24004143719759
"47448","Nashville","IN","Knights Corner","not_available","47448",39.16175859232994,-86.31330798935969
"47452","Orleans","IN","Bender Lumber","not_available","47464",38.559352,-86.489401
"47452","Orleans","IN","Tractor Supply Co.","889 North Gospel St Ste 1","47454",38.56731,-86.46686
"47460","Spencer","IN","spencer trailer sales","303 W State Highway 46","47460",39.28826141357422,-86.77301788330078
"47460","Spencer","IN","Spencer Hardware","not_available","47460",39.28887582062294,-86.77498444319748
"47501","Washington","IN","A&R Home Center","not_available","47501",38.63086366072762,-87.17725812546064
"47501","Washington","IN","Ace Hardware","900 W National Hwy","47501",38.6530709,-87.186588
"47501","Washington","IN","Tractor Supply Co.","2214 East National Hwy Ste C","47501",38.654083251953125,-87.14789581298828
"47501","Washington","IN","Sherwin-Williams Paint Store","101 E Main St","47501",38.656751180371664,-87.17419892549515
"47513","Birdseye","IN","Schnellville Mill True Value","8451 E Schnellville Rd","47513",38.33948041,-86.74655764
"47520","Cannelton","IN","Ettensohn & Company","not_available","47520",37.97026062011719,-86.72864532470703
"47520","Cannelton","IN","minuteKEY","730 US Highway 66 E","47586",37.928319,-86.7527123
"47521","Celestine","IN","Schwartz Building Materials","6385 e state rd 164","47521",38.38598914205247,-86.78470194339751
"47523","Dale","IN","Brown Bros. Lumber Co.","not_available","47523",38.16933822631836,-86.98857116699219
"47527","Dubois","IN","Meny's True Value","5410 E Main St","47527",38.44517517089844,-86.80526733398438
"47527","Dubois","IN","DUBOIS HARDWARE","5410 E. MAIN ST.","47527",38.4451789855957,-86.80517578125
"47529","Elnora","IN","Stoll brothers hardware","not_available","47529",38.87057876586914,-87.08626556396484
"47532","Ferdinand","IN","Meny's True Value","1855 Main St","47532",38.2322180032602,-86.8612046172655
"47542","Huntingburg","IN","Rural King","1920 S Lube Way","47546",38.36411207999976,-86.93833887577057
"47542","Huntingburg","IN","Ace Hardware","1801 N Main St","47542",38.313524,-86.953574
"47542","Huntingburg","IN","mehringers","not_available","47546",38.37326431274414,-86.94268035888672
"47542","Huntingburg","IN","SÃ§hnellville Mill Inc.","not_available","47575",38.37239456176758,-86.83651733398438
"47546","Jasper","IN","The Home Depot","4250 Newton Street","47546",38.429832679345104,-86.93579077720636
"47546","Jasper","IN","Sherwin-Williams Paint Store","2815 Newton St","47546",38.4141731234091,-86.93837642669678
"47546","Jasper","IN","Fastenal","281 Newton St","47546",38.3891,-86.9321
"47546","Jasper","IN","Felts Lock and Alarm","4000 E Indiana St","47715",38.4242576,-86.9396483
"47546","Jasper","IN","Otwell Mercantile","not_available","47564",38.4379727,-87.0649407
"47546","Jasper","IN","Stac Industrial","1313 Dewey St","47546",38.39728927612305,-86.92774963378906
"47546","Jasper","IN","Meny's True Value","2805 Newton St","47546",38.41412238,-86.93794637
"47546","Jasper","IN","Grand True Value Rental","635 MacArthur St","47546",38.3918758339,-86.9391353125
"47546","Jasper","IN","Sherwin-Williams","2854 Terry Ln","47546",38.413997650146484,-86.9259033203125
"47546","Jasper","IN","Sears","220 Baden Strasse","47546",38.427117,-86.938692
"47546","Jasper","IN","Dubois County Block & Brick","2208 Newton St","47546",38.408487041728364,-86.93684093809419
"47553","Loogootee","IN","Stoll Bros. True Value Lumber","509 S East St","47562",38.838212,-86.987538
"47562","Odon","IN","Blesch Bros Equipment Co.","8250 E State Road 58","47562",38.84412,-87.011139
"47567","Petersburg","IN","Petersburg Hardware","not_available","47567",38.49029977393026,-87.28190444736573
"47586","Tell City","IN","Dauby's True Value","1522 10th St","47586",37.96308806,-86.76685659
"47586","Tell City","IN","Tractor Supply Co.","375 Old Hwy Rd","47586",37.93193054199219,-86.75688934326172
"47591","Vincennes","IN","Rural King","2655 N 6th St","47591",38.689211328572135,-87.49997735023499
"47591","Vincennes","IN","Lowe's","2700 North 6th Street","47591",38.6918629,-87.5014422
"47591","Vincennes","IN","Fastenal","2803 N 6th ST","47591",38.691252476068506,-87.49894727378424
"47591","Vincennes","IN","Sherwin-Williams Paint Store","2704 Hart St","47591",38.65866223333333,-87.50583741666667
"47591","Vincennes","IN","O'Donnell Supply Corporation","2294 S Old Decker Rd","47591",38.64329528808594,-87.52533721923828
"47591","Vincennes","IN","Harbor Freight","2333 N 6th St","47591",38.68783950805664,-87.50628662109375
"47591","Vincennes","IN","Neihaus Lumber","not_available","47591",38.67237273243817,-87.52664880661742
"47591","Vincennes","IN","MacAllister Rentals","3413 Keller Rd","47591",38.63063628,-87.52970146
"47591","Vincennes","IN","Sears","1815 North 6th Street","47591",38.686226,-87.510926
"47591","Vincennes","IN","Tractor Supply Co.","1901 Hart St","47591",38.666121000000004,-87.514003
"47601","Boonville","IN","Tractor Supply Co.","820b West Main Street","47601",38.046917,-87.28475
"47601","Boonville","IN","Aigner's Hardware & Supply","802 W Main St","47601",38.048392138634355,-87.28447805132234
"47601","Boonville","IN","Husqvarna US","917 W Main St","47601",38.04862976074219,-87.28707122802734
"47610","Chandler","IN","Lowe's","6716 Oak Grove Road","47715",37.9926872,-87.4709777
"47610","Chandler","IN","Lowes Build and Grow Clinic","not_available","47715",37.99299725270214,-87.4706922728852
"47610","Chandler","IN","Habitat Re-store","not_available","47610",38.005959,-87.443227
"47610","Chandler","IN","Ace Hardware","not_available","47630",37.998336,-87.389664
"47610","Chandler","IN","Ferguson Plumbing Supply","6620 Interchange Rd S","47715",37.997012,-87.471047
"47610","Chandler","IN","Foundation Building Materials","6717 Toney Lane","47715",38.00884524,-87.46945419
"47620","Mount Vernon","IN","Buds Hardware","420 Main St.","47620",37.93283066452966,-87.89636049135338
"47620","Mount Vernon","IN","Ace Hardware","438 Southwind Plz","47620",37.940595,-87.870001
"47630","Newburgh","IN","Ryan's Ace Hardware & Rental","7844 State Rd 66 Unit R","47630",37.9780341,-87.3944916
"47630","Newburgh","IN","Paint 'N Stuff","7955 Bell Oaks Dr #C","47630",37.9747543,-87.3951644
"47630","Newburgh","IN","Benjamin Moore","7955 Bell Oaks Dr Ste C","47630",37.97468566894531,-87.39492797851562
"47630","Newburgh","IN","Sherwin-Williams Paint Store","8090 Park Place Dr","47630",37.977090000000004,-87.397447
"47630","Newburgh","IN","A-1 Power Equipment","8366 IN-66","47630",37.97728,-87.40234
"47634","Richland","IN","Kight Home Center","2845 W State Road 66","47635",37.901424407958984,-87.10723114013672
"47635","Rockport","IN","Primax Compozit Home Systems","2812 Kentronics Dr","42301",37.78407079,-87.14859804
"47635","Rockport","IN","Obermeier Hardware","not_available","47635",37.891992,-87.056429
"47639","Haubstadt","IN","Tenbarge Seed","216 N Main St.","47639",38.20363998413086,-87.57374572753906
"47639","Haubstadt","IN","M&M TRUE VALUE","756 E STATE ROAD 68","47639",38.20132827758789,-87.59111785888672
"47660","Oakland City","IN","Miller Hardware","231 E Morton St","47660",38.334327697753906,-87.3449478149414
"47670","Princeton","IN","Menard's","201 S Richland Creek Dr","47670",38.3524432917577,-87.59523868560791
"47670","Princeton","IN","Rural King","2007 W Broadway St","47670",38.35410917473041,-87.59303390979767
"47670","Princeton","IN","Memmers  Farm Store","990 N Us Hwy 41","47670",38.36995255,-87.59772766
"47670","Princeton","IN","Riral King","not_available","47670",38.3512961,-87.5895906
"47670","Princeton","IN","Husqvarna US","RR 3, BOX 228","47670",38.352996826171875,-87.56832885742188
"47670","Princeton","IN","Sears","1607 W. Broadway","47670",38.35351602382319,-87.58643567562103
"47710","Evansville","IN","Ppg Porter Paint","306 N 7th Ave","47710",37.980735778808594,-87.5860366821289
"47710","Evansville","IN","Ferguson Plumbing Supply","621 W Morgan Ave","47710",37.9921369127517,-87.5725225503356
"47710","Evansville","IN","Martin Sales And Service","712 N Main St","47710",37.984324,-87.564052
"47710","Evansville","IN","Evansville Sheet Metal Works","1901 W Maryland St","47712",37.9858775,-87.592336
"47710","Evansville","IN","A-1 Tire And Detailing","not_available","47711",37.980424,-87.56102299999999
"47710","Evansville","IN","Ryan's Ace Hdw & Rental","4530 N 1st Ave","47710",38.0200999,-87.5742
"47711","Evansville","IN","Menards","2808 Menards Dr","47715",38.00334940182854,-87.49485165612286
"47711","Evansville","IN","American Wholesalers","2715 Lynch Rd, Evansville, IN 47711","47711",38.01187515258789,-87.51551818847656
"47711","Evansville","IN","Harbor Freight Tools","1200 N Willow Rd Ste 201","47711",37.98930044015129,-87.54005088504445
"47711","Evansville","IN","Rural King","2300 E Morgan Ave","47711",37.99360293055987,-87.52155840396881
"47711","Evansville","IN","R & D Equipment","2601 Stringtown Rd","47711",38.003724,-87.55374
"47711","Evansville","IN","Equipment Depot","922 East Division St","47711",37.97756381253057,-87.54912346601486
"47711","Evansville","IN","Rotary Corp.","4916 Ohara Dr","47711",38.022703,-87.522382
"47711","Evansville","IN","New USA Body Shop","not_available","47714",37.98042872540966,-87.55627433680056
"47711","Evansville","IN","Sherwin-Williams Floorcovering Store","2200 Lynch Rd","47711",38.01655960083008,-87.52447509765625
"47711","Evansville","IN","Imperial Fastener & Industrial Supply Co","2145 Bergdolt Rd","47711",38.019894,-87.524617
"47711","Evansville","IN","Sherwin-Williams Paint Store","632 E Diamond Ave","47711",37.99966049194336,-87.55497741699219
"47711","Evansville","IN","Fastenal","8401B Baumgart Rd","47725",38.055036776769406,-87.54110419916321
"47711","Evansville","IN","Indiana Wholesalers","1000 N Congress Ave","47715",37.98628,-87.501046
"47712","Evansville","IN","Lowe's","103 South Red Bank Road","47712",37.9778718,-87.6397233
"47712","Evansville","IN","The Home Depot","5230 Pearl Drive","47712",37.9728907,-87.6388045
"47712","Evansville","IN","Rural King","2800 N Saint Joseph Ave","47720",38.0048064,-87.6023829
"47712","Evansville","IN","Homefolks Hardware","not_available","42420",37.839514,-87.590546
"47712","Evansville","IN","Sherwin-Williams Paint Store","4650 W Lloyd Expy","47712",37.97618865966797,-87.6314468383789
"47713","Evansville","IN","P.E.S.","825 Canal St","47713",37.97456359863281,-87.55174255371094
"47714","Evansville","IN","Sherwin-Williams Paint Store","811 S Green River Rd","47715",37.96556091308594,-87.49337768554688
"47714","Evansville","IN","Glidden Paint Center","2407 Washington Ave","47714",37.9622688293457,-87.51963806152344
"47715","Evansville","IN","The Home Depot","333 N Burkhardt Rd","47715",37.98021081333645,-87.47009217739105
"47715","Evansville","IN","Tractor Supply Co.","5210 Morgan Ave","47715",37.993123,-87.487165
"47715","Evansville","IN","Woodcraft","721 N Green River Rd","47715",37.983131408691406,-87.49169158935547
"47715","Evansville","IN","Art Van PureSleep","5476 East Indiana Street","47715",37.97842439,-87.48464809
"47715","Evansville","IN","Sherwin-Williams Commercial Paint Store","6149 Wedeking Ave","47715",37.995866,-87.4755
"47725","Evansville","IN","Ace Hardware","12500 N Hwy 41","47725",38.092275,-87.557606
"47802","Terre Haute","IN","Menards -South","not_available","47802",39.375066,-87.388799
"47802","Terre Haute","IN","Lowe's","4701 South US Highway 41","47802",39.4080645,-87.4124472
"47802","Terre Haute","IN","Tractor Supply Co.","4931 South Us Hwy 41","47802",39.407336,-87.41042
"47802","Terre Haute","IN","Sherwin-Williams Paint Store","4812 S US Highway 41","47802",39.40766143798828,-87.40923309326172
"47802","Terre Haute","IN","MacAllister Rentals","20 W Margaret Ave","47802",39.43206149,-87.4178349
"47803","Terre Haute","IN","Rural King","3235 Wabash Ave","47803",39.47061791096942,-87.37049639225
"47803","Terre Haute","IN","Kostyo Wood Working","not_available","47804",39.5163802690051,-87.38058090464078
"47803","Terre Haute","IN","Sherwin-Williams Paint Store","1911 Wabash Ave","47807",39.46910640542463,-87.38778591156006
"47803","Terre Haute","IN","Harbor Freight Tools","1800 Fort Harrison Rd #21","47804",39.507268604531795,-87.38994077183176
"47804","Terre Haute","IN","Menards","1380 Fort Harrison Rd","47804",39.50784638453892,-87.39586169498527
"47807","Terre Haute","IN","Sherwin-Williams Paint Store","10 S 3rd St","47807",39.46628622,-87.41350159
"47807","Terre Haute","IN","Fastenal","not_available","47807",39.462665,-87.401098
"47807","Terre Haute","IN","coldwell bearing","not_available","47803",39.46850621788279,-87.39874892338536
"47807","Terre Haute","IN","Kirby Risk","1001 Walnut St","47807",39.46400425515181,-87.40143234400378
"47834","Brazil","IN","Crowder Lawn & Garden","7950 Indiana 59","47834",39.503330669328754,-87.12447555456163
"47834","Brazil","IN","Brazil Hardware","105 S Forest Ave","47834",39.522365,-87.125934
"47834","Brazil","IN","Sam's Hardware","not_available","47834",39.522548,-87.125612
"47834","Brazil","IN","Lawson Welding","10516 N County Rd 200 E","47853",39.539576,-87.070036
"47834","Brazil","IN","Sherwin-Williams Paint Store","1945 E National Ave","47834",39.528630744012105,-87.10289239883423
"47838","Carlisle","IN","Medley's Carlisle Hardware","101 S. Ledgerwood St.","47838",38.962391583333336,-87.40330308333333
"47840","Centerpoint","IN","Poland Grocery & Hardware","not_available","47868",39.44426844836386,-86.95115612791962
"47842","Clinton","IN","Tractor Supply Co.","1959 East State Rd 163","47842",39.655672,-87.428201
"47842","Clinton","IN","Horney's","not_available","47842",39.65827,-87.398299
"47842","Clinton","IN","Ste-Mar Ace Hardware","125 S Main St","47842",39.660237,-87.398017
"47848","Dugger","IN","Smith's Hardware","not_available","47848",39.06957509990009,-87.2569768926309
"47850","Farmersburg","IN","True Value Hardware","not_available","47850",39.252066,-87.389495
"47861","Merom","IN","Mc Nairs True Value Hardware","204 S Main St","62451",39.001590728759766,-87.61268615722656
"47872","Rockville","IN","G & M Ace Hardware Inc","1221 N Lincoln Rd","47872",39.7630399,-87.236003
"47872","Rockville","IN","Rockville Feed Center & Supply Co.","302 S Jefferson St","47872",39.759727478027344,-87.2284927368164
"47882","Sullivan","IN","Riggs Hardware","not_available","47882",39.0955211221866,-87.40833393288787
"47901","Lafayette","IN","Bell Appliance Parts","805 N 9th St","47904",40.42506205013246,-86.88666343688965
"47901","Lafayette","IN","McCully Art Glass and Restorations","409 N 3rd St","47901",40.421261,-86.893999
"47904","Lafayette","IN","The Home Depot","311 Sagamore Parkway","47904",40.4191532,-86.8558891
"47904","Lafayette","IN","Lafayette Masonry Supply","not_available","47904",40.4354,-86.88603
"47904","Lafayette","IN","Kirby Risk Electrical Supply","1815 Sagamore Pkwy N","47904",40.436397414468416,-86.85748066753149
"47905","Lafayette","IN","Lowe's","100 North Creasy Lane","47905",40.4189308,-86.8414971
"47905","Lafayette","IN","Menards","2850 S Creasy Ln","47905",40.38691775683304,-86.84324350208044
"47905","Lafayette","IN","Rural King","2500 Teal Rd","47905",40.3974883,-86.8682701
"47905","Lafayette","IN","Tractor Supply Co.","4841 State Rd 38 East","47905",40.377466,-86.818287
"47905","Lafayette","IN","Henry Poor Lumber","3315 Brady Ln","47909",40.38177490234375,-86.85615539550781
"47905","Lafayette","IN","Ace Hardware","119 Beck Ln","47909",40.3877999,-86.904499
"47905","Lafayette","IN","Central Machine Shop","530 Harrison St","47906",40.420553000000005,-86.913111
"47905","Lafayette","IN","Sherwin-Williams Paint Store","931 Sagamore Pkwy W","47906",40.45246887207031,-86.91957092285156
"47905","Lafayette","IN","Benjamin Franklin Plumbing","2821 Schuyler Ave","47905",40.4516331,-86.8537379
"47905","Lafayette","IN","Central Supply","3980 State Road 38 E","47905",40.38696650987195,-86.8343708594271
"47905","Lafayette","IN","Ferguson","2625 S 30th St","47909",40.388571621483734,-86.8609407766812
"47905","Lafayette","IN","MacAllister Rentals","500 Hine Dr","47905",40.376731872558594,-86.7770767211914
"47905","Lafayette","IN","minuteKEY","2636 US 52 Sagamore Pkwy.","47906",40.4523613,-86.8992907
"47906","West Lafayette","IN","Menards","2868 US Highway 52 W","47906",40.46940897604861,-86.95969544719121
"47906","West Lafayette","IN","minuteKEY","2868 Us 52 West","47906",40.46975,-86.96015
"47906","West Lafayette","IN","Ace Hardware","1194 Sagamore Pkwy W","47906",40.453291,-86.924244
"47909","Lafayette","IN","Lh Industrial Supplies","not_available","47905",40.397652055145414,-86.8386302779237
"47909","Lafayette","IN","Sherwin-Williams Paint Store","2416 Teal Rd","47905",40.397094,-86.869132
"47909","Lafayette","IN","Sherwin-Williams Commercial Paint Store","2308 Concord Rd","47909",40.39369201004292,-86.85804963111877
"47909","Lafayette","IN","West Side Tractor Sales - Lafayette","3201 S 460 E #7725","47905",40.372149321214074,-86.81759119033813
"47909","Lafayette","IN","Harbor Freight Tools","2121 Sagamore Pkwy S","47905",40.396444,-86.853413
"47909","Lafayette","IN","Foundation Building Materials","3428 Rascal Drive","47909",40.3854657,-86.8526974
"47918","Attica","IN","Newtown Farm Service","not_available","47969",40.200352,-87.149318
"47922","Brook","IN","Hershman'S True Value Hardware & Appliance","205 Main St","47922",40.86507108194353,-87.36416545618711
"47923","Brookston","IN","Brookston Hardware And Supply","101 E. 3rd Street","47923",40.602203369140625,-86.86675262451172
"47932","Covington","IN","Sherwin Williams","428 N Vermilion St","61832",40.13948951,-87.37087526
"47932","Covington","IN","Powell Ace Home Center","2492 W US Highway 136","47932",40.135452,-87.381991
"47933","Crawfordsville","IN","Stevenson's Ace Hardware Inc","1812 S US Highway 231","47933",40.0009999,-86.903499
"47933","Crawfordsville","IN","The Home Depot","1710 US 231 South","47933",40.01549147803069,-86.90072894096375
"47933","Crawfordsville","IN","Ladoga hardware","not_available","47954",39.914013969028275,-86.8556250177712
"47933","Crawfordsville","IN","Sherwin-Williams Paint Store","1851 S US Highway 231","47933",40.012290954589844,-86.90493774414062
"47943","Fair Oaks","IN","dillmans hardware","not_available","47978",41.01219177246094,-87.27516174316406
"47944","Fowler","IN","Dorsey Hardware & Gifts","203 E 5th St","47944",40.61800415576602,-87.32202753424644
"47960","Monticello","IN","Ace Hardware","918 N Main St","47960",40.7562289,-86.764712
"47960","Monticello","IN","Phoenix Lawn & Garden","531 S 300 E","47960",40.7446282,-86.81432389999999
"47960","Monticello","IN","Dye Home Improvement","1091 West Broadway Street","47960",40.743989375960325,-86.78112924098969
"47977","Remington","IN","Remington True Value","508 Harrington St","47977",40.7666254,-87.14434567
"47977","Remington","IN","Godlove Enterprises Inc","10 E South St","47977",40.759624,-87.15085979999999
"47978","Rensselaer","IN","Smith Farm Stores Inc","1880 N McKinley Ave","47978",40.9510999,-87.142799
"47978","Rensselaer","IN","4 County Supply / Circle Supply Inc.","8314 Indiana 114","47978",40.944524,-87.206942
"47978","Rensselaer","IN","Tractor Supply Co.","1232 West Clark St","47978",40.941752,-87.170411
"47989","Waveland","IN","Waveland Outdoor Power","206 W Howard","47989",39.87728739289794,-87.04652309417723
"47991","West Lebanon","IN","Powell Ace Home Center","3391 W State Road 28","47991",40.2795369,-87.385679
