"zip","city","state","name","address","postalCode","lat","lon"
"03901","Berwick","ME","Tri City Tool Crib","not_available","not_available",43.251641,-70.899248
"03903","Eliot","ME","Woodcraft","not_available","03801",43.10074206207941,-70.80880441743655
"03903","Eliot","ME","TrueValue/ Jacksons Hardware","Rt 1 Bypass","03904",43.09461018727293,-70.75167363152251
"03903","Eliot","ME","Rockingham Electical Supply Co.","437 Shattuck Way","03801",43.115055,-70.820545
"03904","Kittery","ME","Millworkcity.com","PO Box 35","03905",43.086332169051765,-70.74311256408691
"03904","Kittery","ME","Ferguson Plumbing Supply","126 Bridge St","03801",43.0768924121881,-70.7622870528016
"03904","Kittery","ME","Seacoast Lock & Safe","948 U.S. 1","03801",43.07916065,-70.771439125
"03904","Kittery","ME","Black & Decker Factory Store Outlet","8 Dexter Ln","03904",43.11659240722656,-70.72913360595703
"03904","Kittery","ME","Kittery Ace Hardware","6 Shapleigh Rd","03904",43.089541,-70.736317
"03906","North Berwick","ME","Tractor Supply Co.","1770 Main St","04073",43.4031843207272,-70.71547446687505
"03906","North Berwick","ME","Taylor Rental","1306 Main St","04073",43.41655864398864,-70.75165998551437
"03906","North Berwick","ME","NorthEast Electrical","20 Renaissance Way","04073",43.412837982177734,-70.7474136352539
"03909","York","ME","Ace Hardware","627 US Route 1","03909",43.157265819893425,-70.65425097822545
"04002","Alfred","ME","Sherwin-Williams Paint Store","544 Main St","04083",43.46217091028971,-70.79413890838623
"04002","Alfred","ME","Aubuchon Hardware","761 Main St Ste D","04073",43.446109771728516,-70.78620910644531
"04002","Alfred","ME","Plummer's Hardware","1009A Main St","04087",43.533889,-70.716443
"04002","Alfred","ME","Wilbur G. Shaw Hardware","901 Main St","04073",43.43926239013672,-70.7759017944336
"04002","Alfred","ME","Husqvarna US","154 Main St","04030",43.56999969482422,-70.67388153076172
"04002","Alfred","ME","CN Brown Energy","994 Main St","04073",43.4337513,-70.7711879
"04002","Alfred","ME","NEXGEN Tooling","42 Railroad Ave","04083",43.46401596069336,-70.78269958496094
"04002","Alfred","ME","Springvale Hardware","489 Main St","04083",43.46380564180018,-70.79659164726166
"04005","Biddeford","ME","The Home Depot","550 Alfred Street","04005",43.47852980753968,-70.50757706165314
"04005","Biddeford","ME","Kennebunk Ace Hardware","45 Portland Rd","04043",43.393804,-70.532527
"04005","Biddeford","ME","Oak Hill Ace Hardware","29 Gorham Rd","04074",43.591816,-70.333893
"04005","Biddeford","ME","Tractor Supply Co.","442 Us Rte 1 Ste 2","04074",43.581116,-70.366388
"04005","Biddeford","ME","Ace Hardware","636 US Hwy 1","04074",43.56828222925235,-70.389678175408
"04005","Biddeford","ME","Dupuis Hardware","Spruce St","04005",43.496034,-70.45774499999999
"04005","Biddeford","ME","Biddeford Taylor True Value Rental","6 Commercial St","04005",43.46369875,-70.4903154167
"04005","Biddeford","ME","Dock and Door","not_available","04072",43.541168,-70.426744
"04005","Biddeford","ME","Alpha Carbide","885 Portland Rd","04072",43.54108428955078,-70.41669464111328
"04005","Biddeford","ME","Coast Country Hardware","10-20 Maine 98","04064",43.52270535227995,-70.37897661985467
"04005","Biddeford","ME","NorthEast Electrical","68 Elm St","04005",43.497184000000004,-70.456069
"04005","Biddeford","ME","Huttig Building Products","65 Spring Hill Rd","04072",43.536537170410156,-70.43708801269531
"04005","Biddeford","ME","Sherwin-Williams Paint Store","420 Alfred St","04005",43.483008,-70.47910300000001
"04005","Biddeford","ME","Dunstan Ace Hardware","636 US Route 1","04074",43.5877199,-70.346671
"04008","Bowdoinham","ME","K & G Auto & True Value Hardware","65 Main St","04357",44.08811547,-69.80198775
"04009","Bridgton","ME","Hayes True Value Hardware","204 Portland Rd","04009",44.0460090637207,-70.70092010498047
"04009","Bridgton","ME","Paris Farm Supply","Sandy Creek Rd","04009",44.03227784340065,-70.6973157731023
"04009","Bridgton","ME","Hancock Lumber","not_available","04009",44.04512948288568,-70.7009295781364
"04011","Brunswick","ME","The Home Depot","154 Topsham Fair Mall Rd","04086",43.9332583,-69.9802243
"04011","Brunswick","ME","Lowe's","250 Bath Road","04011",43.9082999,-69.9042632
"04011","Brunswick","ME","Tractor Supply Co.","24 Farley Rd","04011",43.90990166455499,-69.91006209742574
"04011","Brunswick","ME","Bath Industrial Sales","56 New Meadows Rd,","04530",43.9126828,-69.8663433
"04011","Brunswick","ME","Maine Biomass LLC","11 Pleasant St","04011",43.91388,-69.96616
"04011","Brunswick","ME","Hammond Lumber Company","20 Spring St","04011",43.9111674,-69.9726476
"04011","Brunswick","ME","F.W. Webb Company","6 Bull Rock Bridge Rd","04530",43.905979,-69.862585
"04011","Brunswick","ME","Rogers Ace Hardware","not_available","04530",43.93325871335938,-69.88974581994833
"04011","Brunswick","ME","Sears","8 Gurnet Rd","04011",43.903937,-69.91527
"04011","Brunswick","ME","Sherwin-Williams Paint Store","179 Pleasant St","04011",43.911731,-69.99087800000001
"04011","Brunswick","ME","Sherwin-Williams Paint Store","86 Topsham Fair Mall Rd","04086",43.93596286448095,-69.98119354248047
"04020","Cornish","ME","Ace Hardware","13 Maple St","04020",43.80556869506836,-70.80516815185547
"04020","Cornish","ME","CN Brown Energy","118 Maple St","04020",43.8048098,-70.81531129999999
"04021","Cumberland Center","ME","Skillin's Greenhouses","201 Gray Rd","04021",43.818347,-70.313947
"04027","Lebanon","ME","Welches Hardware And Lumber","Rt 202","not_available",43.40900374696708,-70.87292798726118
"04032","Freeport","ME","Freeport Hardware","262 Us Rt 1","04032",43.82606116531885,-70.13752939502841
"04032","Freeport","ME","Culligan Water Conditioning of Yarmouth, ME","915 Route 1","04096",43.805548773415886,-70.17130587160611
"04037","Fryeburg","ME","Trumbull's Hardware","17 Portland St","04037",44.01609802246094,-70.97967529296875
"04037","Fryeburg","ME","HD Supply White Cap","103 Corn Shop Rd","04037",44.0704555,-70.9557672
"04037","Fryeburg","ME","Husqvarna US","330 Bridgton Rd","04037",44.02347183227539,-70.94436645507812
"04038","Gorham","ME","Maine Locksmith Service","459 Roosevelt Trl","04062",43.807584,-70.412605
"04038","Gorham","ME","Tractor Supply Co.","496 Roosevelt Trl","04062",43.8098554994145,-70.41829514314627
"04038","Gorham","ME","Phinney Lumber","519 Fort Hill Rd","04038",43.724181,-70.482507
"04038","Gorham","ME","Gorham Ace Hardware","57 Main St","04038",43.679779,-70.440928
"04038","Gorham","ME","Cooks Hardware","Main Street","04038",43.68022300137987,-70.44107200053375
"04038","Gorham","ME","Steep Falls Building Supply","190 Ossipee Trl E","04084",43.72856140136719,-70.53670501708984
"04038","Gorham","ME","Hancock Lumber","401 Roosevelt Trail","not_available",43.80154842710005,-70.40313199039274
"04039","Gray","ME","Cook's Ace Hardware","21 Portland Rd","04039",43.8815719,-70.3282846
"04039","Gray","ME","Gray True Value Hardware","97 Shaker Rd","04039",43.89653778076172,-70.34359741210938
"04042","Hollis Center","ME","Plummer's Hardware","241 Parker Farm Rd","04093",43.6786829,-70.586684
"04043","Kennebunk","ME","Port Hardware","153 Port Rd","04043",43.36140060424805,-70.4859619140625
"04043","Kennebunk","ME","Hancock Lumber","not_available","04043",43.37168473333333,-70.55289370295858
"04043","Kennebunk","ME","Deering lumber","3 Brown St","04043",43.38424898136158,-70.54295770698245
"04048","Limerick","ME","Wicked Haaaaaa^d Ware","not_available","04061",43.650432102932534,-70.72607479653979
"04048","Limerick","ME","Plummer's Hardware","42 Central Ave","04048",43.6988089,-70.783625
"04049","Limington","ME","Sleeper's ACE Limington","183 Ossipee Trl","04049",43.745128,-70.676777
"04055","Naples","ME","Aubuchon Hardware","499 Roosevelt Trl","04055",43.967096000000005,-70.581911
"04062","Windham","ME","Lowe's","64 Manchester Drive","04062",43.83842332754738,-70.44907003641129
"04062","Windham","ME","The Home Depot","20 Franklin Drive","04062",43.842548,-70.4421112
"04062","Windham","ME","Aubuchon Hardware","777 Roosevelt Trl","04062",43.83772277832031,-70.44031524658203
"04062","Windham","ME","Aubuchon Hardware","1243 Roosevelt Trl","04071",43.88185501098633,-70.46476745605469
"04062","Windham","ME","Sherwin-Williams Paint Store","859 Roosevelt Trl","04062",43.84402847290039,-70.44642639160156
"04062","Windham","ME","Windham Rental Center","730 Roosevelt Trl,","04062",43.8325225,-70.4374435
"04062","Windham","ME","Xtreme Performance","875 Roosevelt Trail","04062",43.8457494,-70.4472803
"04073","Sanford","ME","Lowe's","1900 Main Street","04073",43.4017829,-70.702568
"04073","Sanford","ME","Lowe's","1900 Main St","04073",43.402042,-70.702336
"04073","Sanford","ME","Tractor Supply","not_available","04073",43.390978,-70.695642
"04074","Scarborough","ME","Lowe's","1000 Gallery Boulevard","04074",43.6239381,-70.3380181
"04074","Scarborough","ME","The Home Depot","300 Clarks Pond Pkwy","04106",43.63226630470216,-70.32076335261081
"04074","Scarborough","ME","Harbor Freight Tools","161 Western Ave","04106",43.63614273071289,-70.32044219970703
"04074","Scarborough","ME","Ace Hardware","274 Saint John St","04102",43.6525681037586,-70.27971397940466
"04074","Scarborough","ME","Sears","400 Maine Mall Rd","04106",43.6324843,-70.33660504
"04074","Scarborough","ME","Sherwin-Williams Paint Store","180 Waterman Dr","04106",43.63760757446289,-70.25509643554688
"04074","Scarborough","ME","Ferguson Waterworks","94 Pleasant Ave","04106",43.625534,-70.284045
"04074","Scarborough","ME","Pond Cove Paint","not_available","04101",43.653552,-70.256259
"04074","Scarborough","ME","Fastenal","395 Main St","04106",43.62649917602539,-70.29749298095703
"04074","Scarborough","ME","Chad Little Outdoor Power Equipment","7 Glasgow Rd","04074",43.6087,-70.30844
"04074","Scarborough","ME","Ferguson HVAC Supply","172 Saint John St","04102",43.6491488406871,-70.2786426501227
"04074","Scarborough","ME","Handyman Rental","222-224 Main St","04106",43.63211381662922,-70.29099497465312
"04074","Scarborough","ME","Portland Glass of Portland","832 Congress Street","04102",43.65451101876091,-70.27415286356637
"04074","Scarborough","ME","New England Gypsum","53 Wallace Ave","04106",43.6148164,-70.3053453
"04074","Scarborough","ME","minuteKEY","500 Gallery Blvd","04074",43.622482,-70.343575
"04074","Scarborough","ME","Glidden Professional Paint","973 Congress St","04102",43.653715,-70.28047
"04084","Standish","ME","Steep Falls Lumber","not_available","04084",43.732733,-70.571606
"04084","Standish","ME","Standish Hardware","5 Oak Hill Rd","04084",43.73696517944336,-70.55122375488281
"04084","Standish","ME","Steep Falls Building Supply","190 Ossipee Trail W","04084",43.73345542,-70.56777907
"04090","Wells","ME","Sherwin-Williams Paint Store","1521 Post Rd","04090",43.32090377807617,-70.58106231689453
"04090","Wells","ME","Stone House","not_available","04090",43.32346113254861,-70.69232787640418
"04090","Wells","ME","Aubuchon Hardware","Thompson's Plaza","4090",43.32659804043729,-70.54917322505898
"04092","Westbrook","ME","Lowe's","1058 Brighton Avenue","04102",43.6727844,-70.3232848
"04092","Westbrook","ME","The Home Depot","245 Riverside St","04103",43.6858224,-70.3244556
"04092","Westbrook","ME","Sportsmans  Hardware","30 Central St","04092",43.675544,-70.367644
"04092","Westbrook","ME","Yerxas Oil and Power Equipment","517 Warren Ave","04103",43.687243,-70.320215
"04092","Westbrook","ME","Jim's Plumbing & Heating Inc","89 Lamb St","04092",43.677673,-70.347483
"04092","Westbrook","ME","Grainger","425 Warren Ave","04103",43.688325,-70.316655
"04092","Westbrook","ME","Handyman Equipment Rental","357 Riverside St","04103",43.688097,-70.326963
"04092","Westbrook","ME","HD Supply A.H. Harris","14 Rainmaker Dr","04103",43.69546903,-70.32354694
"04092","Westbrook","ME","Sherwin-Williams Paint Store","100 Larrabee Rd","04092",43.67781440169466,-70.33501579407644
"04092","Westbrook","ME","ToolsYouWishFor","23 Roy Ave","04092",43.6854362487793,-70.36276245117188
"04092","Westbrook","ME","Hammond Lumber","not_available","04103",43.68622371212645,-70.32846656821847
"04092","Westbrook","ME","Kamco Supply Corp.","344 Riverside St","04103",43.688263,-70.329681
"04093","Buxton","ME","Aubuchon Hardware","400 Narragansett Trl","04093",43.61368942260742,-70.52658081054688
"04096","Yarmouth","ME","Hancock Lumber","258 Main St","04096",43.800782,-70.189735
"04096","Yarmouth","ME","Coastal Hardware Inc.","914 Route 1","04096",43.806412,-70.172848
"04096","Yarmouth","ME","Freeport Hardware","262 Route 1","04032",43.792080893417,-70.188705292106
"04096","Yarmouth","ME","Sherwin-Williams Paint Store","438 Route 1","04096",43.796968,-70.189225
"04096","Yarmouth","ME","Goff's Hardware","90 Main St","04096",43.798419,-70.182076
"04101","Portland","ME","PGB","27 Turner St","04101",43.668826,-70.246788
"04101","Portland","ME","Lock Stock & Barrel","not_available","04102",43.656303,-70.280377
"04101","Portland","ME","Rufus Deering Lumber","383 Commercial St","04101",43.65176,-70.257398
"04101","Portland","ME","Sid Harvey's","160 Saint John St","04102",43.648393,-70.278744
"04101","Portland","ME","Handle It!","449 Forest Ave Ste 1","04101",43.66661071777344,-70.276611328125
"04101","Portland","ME","Twin City Supply Co.","105 Saint James St","04102",43.65967,-70.284393
"04102","Portland","ME","The Paint Pot","1236 Congress St","04102",43.65716,-70.290613
"04102","Portland","ME","Fastenal Company","Bakers Way, Biddeford, ME 04005","04005",43.6422611887613,-70.33298930297933
"04103","Portland","ME","Aubuchon Hardware","823 Stevens Avenue","04103",43.68706681,-70.29371968
"04105","Falmouth","ME","Falmouth Ace Hardware","215 US Rte 1","04105",43.719095,-70.232094
"04106","South Portland","ME","True Value Hardware","not_available","04106",43.635521497661145,-70.25466881066248
"04106","South Portland","ME","Maine Paint Service","153 Ocean St","04106",43.63700866699219,-70.25285339355469
"04106","South Portland","ME","Drillen True Value Hardware","460 Cottage Rd","04106",43.635281,-70.231784
"04210","Auburn","ME","Lowe's","650 Turner Street","04210",44.1162418,-70.236385
"04210","Auburn","ME","The Home Depot","149 Mount Auburn Ave","04210",44.122653883465304,-70.239992834222
"04210","Auburn","ME","Harbor Freight Tools","730 Center St Ste 5B","04210",44.12652201540181,-70.22775211598052
"04210","Auburn","ME","Aubuchon Hardware","691 Main St","04240",44.121091,-70.202269
"04210","Auburn","ME","Paris Farmers Union","main st","04240",44.11935594099405,-70.20302142944185
"04210","Auburn","ME","Fastenal","1219 Lisbon St","04240",44.076953,-70.187936
"04210","Auburn","ME","McCann Fabrication","1027 Lewiston Rd","04260",43.99211,-70.29237
"04210","Auburn","ME","sherwin Williams","not_available","04210",44.102269888068804,-70.19393793366942
"04210","Auburn","ME","Black Bear Ladder","Pleasant St","04240",44.076462610994135,-70.17974478785227
"04210","Auburn","ME","Sherwin-Williams Paint Store","1168 Lisbon St","04240",44.078481,-70.189831
"04210","Auburn","ME","Strainrite","65 First Flight Dr","04210",44.04296875,-70.27538299560547
"04210","Auburn","ME","Aubuchon hardware","Main st","04240",44.118845,-70.225493
"04210","Auburn","ME","Sherwin-Williams Paint Store","445 Center St","04210",44.1177205,-70.22450049999999
"04210","Auburn","ME","Beacon Sales Company Inc.","17 Dumais Ave","04240",44.129449,-70.198385
"04210","Auburn","ME","Minot Avenue Ace Hardware","965 Minot Ave","04210",44.0810999,-70.269599
"04210","Auburn","ME","Tractor Supply Co.","1619 Lisbon St","04240",44.069573,-70.171243
"04217","Bethel","ME","Western Maine Supply Co","33 Cross St","04217",44.41191482543945,-70.79103088378906
"04217","Bethel","ME","Brooks Bros.","73 Main St","04217",44.40670643402652,-70.78935347423376
"04217","Bethel","ME","CN Brown Energy","312 Mayville Road","04217",44.4094828,-70.8033899
"04217","Bethel","ME","Husqvarna US","241 Walkers Mills Rd","04217",44.41587829589844,-70.76700592041016
"04217","Bethel","ME","CN Brown Energy","38 West Bethel Road","04217",44.409446716308594,-70.80402374267578
"04220","Buckfield","ME","Northland True Value Hardware","1355 Auburn Rd","04282",44.26924133300781,-70.26719665527344
"04220","Buckfield","ME","NORTHLAND TRUE VALUE HARDWARE","284 Ricker Hill Rd","04282",44.27315139770508,-70.28887176513672
"04220","Buckfield","ME","Lowell Lumber Co. & Home Center","North Hill Road","not_available",44.27755100136992,-70.35666726459282
"04221","Canton","ME","Guilds Country Hardware","1739 Federal Rd","04253",44.37623977661133,-70.25032806396484
"04222","Durham","ME","Aubuchon Hardware","572 Lisbon St","04252",44.00505065917969,-70.07415771484375
"04224","Dixfield","ME","Aubuchon Hardware","65 Falmouth St","04276",44.553909999999995,-70.548506
"04224","Dixfield","ME","CN Brown Energy","96 Main St","04257",44.5569741,-70.5424263
"04224","Dixfield","ME","Towles Hardware & Lumber Company","5 Weld St","04224",44.53157524052548,-70.45641660690308
"04239","Jay","ME","Wilton Hardware","343 Main Street","not_available",44.5875244140625,-70.23077392578125
"04240","Lewiston","ME","Drillen True Value","1086 Sabattus St","04240",44.100484,-70.151063
"04240","Lewiston","ME","Lapointes","not_available","04240",44.101432,-70.162813
"04253","Livermore","ME","Bonnevie Machine Shop","255 Federal Rd","04253",44.4562915,-70.1969883
"04256","Mechanic Falls","ME","Handy True Value Hardware","9 Depot Sq","04256",44.111803214859634,-70.39389246503609
"04268","Norway","ME","Aubuchon Hardware","138 Main St","04268",44.20714757870863,-70.53166427537225
"04268","Norway","ME","LM Longley","Main St","04268",44.213971363218455,-70.54284811019897
"04270","Oxford","ME","Tractor Supply Co.","1272 Main St","04270",44.17530666591593,-70.51359963384618
"04270","Oxford","ME","Record Lumber","Rte 26","04270",44.141479056688844,-70.47355308352111
"04276","Rumford","ME","Tractor Supply Co.","142 Valley Cir","04276",44.519808000000005,-70.55723
"04276","Rumford","ME","Sherwin-Williams Paint Store","1023 Route 2","04276",44.517822150228,-70.55744469165802
"04280","Sabattus","ME","Steven's Hardware & Rental","186 Sabattus Rd","04280",44.112728118896484,-70.10912322998047
"04281","South Paris","ME","CN Brown Energy","100 Main St","04281",44.2201195,-70.5163091
"04294","Wilton","ME","Aubuchon Hardware","361 Wilton Rd","04938",44.64566421508789,-70.15203094482422
"04294","Wilton","ME","CN Brown Energy","115 Farmers Lane","04938",44.6634017,-70.1565351
"04294","Wilton","ME","Tractor Supply Co.","979 Us Rte 2 East","04294",44.61798858642578,-70.17069244384766
"04294","Wilton","ME","Sears","632 Wilton Rd.","04938",44.62692647206559,-70.15589102181372
"04330","Augusta","ME","The Home Depot","26 Stephen King Dr","04330",44.3461057,-69.7865628
"04330","Augusta","ME","Lowe's","53 Crossing Way","04330",44.310358,-69.806185
"04330","Augusta","ME","Hammond Lumber Company","2 Hammond Dr","04917",44.44618699999999,-69.833958
"04330","Augusta","ME","Sherwin-Williams Paint Store","68 Western Ave","04330",44.311525,-69.788016
"04330","Augusta","ME","HD Supply A.H. Harris","23 Leighton Rd","04330",44.32184465,-69.81547537
"04330","Augusta","ME","Tractor Supply Co.","420 Civic Center Dr","04330",44.358662,-69.798668
"04330","Augusta","ME","J & M Camper","653 Civic Center Dr","04330",44.374158,-69.79486999999999
"04330","Augusta","ME","irby","977 W River Rd","04901",44.50349426269531,-69.68195343017578
"04330","Augusta","ME","Randolph Hardware","244 Water Street","04346",44.229975,-69.766255
"04330","Augusta","ME","Harbor Freight Tools","820 Civic Center Drive","04330",44.387203216552734,-69.80253601074219
"04330","Augusta","ME","Harveys","not_available","04345",44.229966,-69.771483
"04330","Augusta","ME","Power Equipment Plus","2309 Belgrade Rd","04330",44.407202,-69.815732
"04330","Augusta","ME","ABC Fuel","195 Mount Vernon Ave","04330",44.330248,-69.786511
"04330","Augusta","ME","Campbell's Agway True Value","535 Maine Ave","04344",44.257747,-69.773733
"04330","Augusta","ME","Aubuchon Hardware","10 Bangor St","04330",44.31722640991211,-69.76779174804688
"04345","Gardiner","ME","Lapointe Lumber","22 Pushard Ln","04345",44.202439,-69.799944
"04348","Jefferson","ME","N.C. Hunt Lumber","200 S Clary Rd","04348",44.1917632,-69.5434844
"04364","Winthrop","ME","Audette's Hardware","22 Peck Farm Rd","04364",44.308419,-69.95693
"04401","Bangor","ME","Lowe's","70 Springer Drive","04401",44.84029,-68.7393569
"04401","Bangor","ME","Tractor Supply Co.","1161 Broadway","04401",44.83729135,-68.79155816
"04401","Bangor","ME","Harbor Freight Tools","50 Springer Dr","04401",44.8371561487135,-68.73991610980673
"04401","Bangor","ME","Lowe's","15 Arista Drive","04412",44.7744123,-68.7248275
"04401","Bangor","ME","Fairmount Hardware","Hammond Street","04401",44.799783221854995,-68.79109155313066
"04401","Bangor","ME","The Home Depot","650 Stillwater Ave","04401",44.8332402,-68.7546645
"04401","Bangor","ME","N H Bragg","395-435 Odlin Rd","04401",44.78413908490591,-68.79239164220085
"04401","Bangor","ME","All That Contractors","255 Grove St","04401",44.813159000000006,-68.76674
"04401","Bangor","ME","Matheson","not_available","04401",44.77666568288455,-68.81639275288711
"04401","Bangor","ME","Bangor Pipe & Supply","69 Farm Rd","04401",44.786121,-68.783101
"04401","Bangor","ME","CN Brown Energy","341 Wilson St","04412",44.7865579,-68.7552206
"04401","Bangor","ME","Sherwin-Williams Paint Store","625 Broadway","04401",44.824121000000005,-68.77669
"04401","Bangor","ME","Owen Gray & Son, Inc.","300 Chamberlain St","04412",44.78440856933594,-68.75065612792969
"04401","Bangor","ME","Mallside Discount","846-866 Stillwater Ave","04401",44.83775678333333,-68.74757786
"04401","Bangor","ME","HD Supply A.H. Harris","284 Perry Rd","04401",44.78423767,-68.80150612
"04401","Bangor","ME","Maine Equipment & Party Rental","1179 Hammond St","04401",44.790293,-68.821961
"04401","Bangor","ME","Standard Electric Company","80 Farm Rd","04401",44.78551128591516,-68.78459955951017
"04401","Bangor","ME","Landscape Supply Center","1196 Odlin Rd","04401",44.7798053,-68.851913
"04411","Bradley","ME","General Rental Center - From Alton Bangor Brewer Old Town Orono","278 Center St","04468",44.932773,-68.65299300000001
"04411","Bradley","ME","Park's Hardware","33 Mill St","04473",44.883127,-68.670964
"04411","Bradley","ME","Aubuchon Hardware","Old Town Plaza","4468",44.924239623152914,-68.64257617231836
"04411","Bradley","ME","Aubuchon Hardware","not_available","04468",44.926979978833316,-68.66537009600333
"04412","Brewer","ME","Lane Steel","Industroal Plaza Dr.","04412",44.78065,-68.763468
"04412","Brewer","ME","Aubuchon Hardware","484 Wilson St","04412",44.78249251637222,-68.74677552052046
"04412","Brewer","ME","Hill View Mini Barns","247 Main Rd","04429",44.758731842041016,-68.6920394897461
"04412","Brewer","ME","R D Faulkner Corporation","146 Parkway S","04412",44.77991,-68.76042
"04412","Brewer","ME","Maine Oxy","131 Robertson Blvd","04412",44.78628921508789,-68.76349639892578
"04416","Bucksport","ME","Bucksport True Value","3 Acadia Hwy","04416",44.56986999511719,-68.76525115966797
"04416","Bucksport","ME","Bucksport True Value","1 US Route 1","04416",44.57105716277291,-68.78703117370605
"04416","Bucksport","ME","Hammond Lumber Company","4 Gross Point Rd","04472",44.5695987,-68.7652811
"04426","Dover Foxcroft","ME","Tractor Supply Co.","1073 West Main St Ste 1","04426",45.183262,-69.256187
"04426","Dover Foxcroft","ME","Dover True Value Hardware","69 E Main St","04426",45.18311215,-69.22888432
"04426","Dover Foxcroft","ME","Webber Ace Hardware","404 Essex St","04426",45.184215,-69.226016
"04426","Dover Foxcroft","ME","Snow's Saw Shop","101 N Stagecoach Rd","04426",45.1881328225136,-69.0840201079845
"04426","Dover Foxcroft","ME","Three Rivers Hardware","not_available","04463",45.249776000000004,-68.991398
"04428","Eddington","ME","Viking Lumber","622 Main Rd","04429",44.75490188598633,-68.66149139404297
"04428","Eddington","ME","Viking Lumber","166 Searsport Ave. Rt. 1","04915",44.752840255162184,-68.6566335046385
"04441","Greenville","ME","Ace Hardware","38 Lily Bay Rd","04441",45.46156311035156,-69.59109497070312
"04441","Greenville","ME","Husqvarna US","PO Box 107","04442",45.484107971191406,-69.64561462402344
"04441","Greenville","ME","Hammond Lumber Company","17 Minden St","04441",45.45809,-69.59028
"04441","Greenville","ME","Indian Hill Trading Post","148 Moosehead Lake Rd","04441",45.41153147,-69.59554222
"04444","Hampden","ME","Erickson's Hardware","Main Rd N","04444",44.741123,-68.8369
"04444","Hampden","ME","Hampden Hardware","6 Western Ave","04444",44.74507141113281,-68.8386001586914
"04457","Lincoln","ME","Aubuchon Hardware","245 W Broadway","04457",45.35758862060457,-68.5262131690979
"04457","Lincoln","ME","CN Brown Energy","105 Main St","04459",45.50229263305664,-68.3559341430664
"04462","Millinocket","ME","Katahdin True Value","225 Aroostook Ave","04462",45.656199,-68.707786
"04462","Millinocket","ME","Tractor Supply Co.","800 Central St","04462",45.656161,-68.68988
"04476","Penobscot","ME","Granville Lumber","not_available","04614",44.401861092296755,-68.60405183009277
"04530","Bath","ME","Rocky's Ace Hardware","55 Congress Ave","04530",43.9109339,-69.833504
"04537","Boothbay","ME","Hammond Lumber Company","276 Townsend Ave","04538",43.8662645,-69.6293355
"04543","Damariscotta","ME","Damariscotta Hardware - Do It Best","not_available","04543",44.03284495139414,-69.51521222150494
"04543","Damariscotta","ME","Hammond Lumber","Main St, Damariscotta, ME 04543","04543",44.03831841298662,-69.51079415869302
"04543","Damariscotta","ME","Hammond Lumber Company","511 Main St","04543",44.03838,-69.51103
"04543","Damariscotta","ME","Sherwin-Williams Paint Store","505 Main St","04543",44.037532806396484,-69.51127624511719
"04543","Damariscotta","ME","Louis Doe Home Center","not_available","04553",44.040958,-69.534294
"04555","Nobleboro","ME","Husqvarna US","183 Center St","04555",44.08237075805664,-69.48005676269531
"04572","Waldoboro","ME","Lie-Nielsen Toolworks","264 Stirling Road","04864",44.119834899902344,-69.2828140258789
"04572","Waldoboro","ME","CN Brown Energy","1519 Atlantic Way","04572",44.101513,-69.382019
"04572","Waldoboro","ME","RZR Ace Hardware","3533 Atlantic Hwy","04572",44.101379,-69.385681
"04572","Waldoboro","ME","Bear Hill True Value Hardware","163 Jefferson St","04572",44.09783936,-69.37767029
"04574","Washington","ME","Linscott's Inc.","151 Rockland Rd","04574",44.23978042602539,-69.36639404296875
"04578","Wiscasset","ME","Ames True Value Hardware & Supply","447 Bath Rd","04578",43.986105699266346,-69.69648165310367
"04578","Wiscasset","ME","Shelter","873 Route One","04579",43.967429,-69.719325
"04605","Ellsworth","ME","The Home Depot","56 Myrick St","04605",44.527949257536285,-68.39899155446608
"04605","Ellsworth","ME","Tractor Supply Co.","33 Mardens Way Ste B","04605",44.51622943931762,-68.39641152231687
"04605","Ellsworth","ME","EBS Building Supplies","112 Main St","04614",44.414833,-68.58569
"04605","Ellsworth","ME","Greenway Equipment Sales","58 Bangor Rd","04605",44.5633430480957,-68.44330596923828
"04605","Ellsworth","ME","EBS Town Hill","1513 ME-102","04609",44.407318115234375,-68.34748077392578
"04605","Ellsworth","ME","Ellsworth Tractor","not_available","04605",44.52111053466797,-68.39444732666016
"04605","Ellsworth","ME","EBS Building Supplies","261 State St","04605",44.55247116088867,-68.42859649658203
"04605","Ellsworth","ME","Surry General Store","345 Blue Hill Rd","04684",44.47380065917969,-68.52472686767578
"04605","Ellsworth","ME","Husqvarna US","2 Eastbrook Rd","04634",44.58940124511719,-68.24837493896484
"04605","Ellsworth","ME","Sherwin-Williams Paint Store","43 Downeast Hwy","04605",44.53021676011805,-68.40263609265031
"04605","Ellsworth","ME","Hammond Lumber Company","261 State Street","04605",44.552517,-68.428706
"04605","Ellsworth","ME","Ellsworth Building Supply","1513 State Highway 102","04609",44.40803909301758,-68.34766387939453
"04605","Ellsworth","ME","Wesco Ellsworth","Bar Harbor Rd","04605",44.50167985,-68.38221838
"04605","Ellsworth","ME","Husqvarna US","282 Bar Harbor Rd","04605",44.49388122558594,-68.3758773803711
"04605","Ellsworth","ME","Viking Lumber","751 Rt. 1","04640",44.537620544433594,-68.3171157836914
"04605","Ellsworth","ME","Fastenal","Boggy Road","not_available",44.571044921875,-68.45408630371094
"04605","Ellsworth","ME","Kitchen Appliances Direct","87-89 Wood Street","E17 3JX",44.54812359752491,-68.42905282974243
"04606","Addison","ME","Ace Hardware","10 Station Rd Ste A","04623",44.64118576049805,-67.76341247558594
"04607","Gouldsboro","ME","Paradis True Value Hardware","31 Holland Ave","04609",44.388252,-68.212039
"04609","Bar Harbor","ME","F T Brown","106 Main Street","04662",44.29408,-68.28915
"04619","Calais","ME","Sherwin-Williams Paint Store","305 North St","04619",45.180053,-67.287024
"04619","Calais","ME","Calais Ace Home Center","295 North St","04619",45.180533000000004,-67.286647
"04619","Calais","ME","Johnson's True Value Hardware","188 North St","04619",45.1840705871582,-67.2827377319336
"04619","Calais","ME","Tractor Supply Co.","289 South St","04619",45.177698,-67.274518
"04619","Calais","ME","EBS Building Supplies","372 South St","04619",45.17464828491211,-67.27603149414062
"04622","Cherryfield","ME","Hammond Lumber Company","82 Milbridge Rd","04622",44.59482955932617,-67.92839813232422
"04627","Deer Isle","ME","M. D. Joyce & Co. Hardware Center","137 Sunset Rd","04627",44.214683532714844,-68.69325256347656
"04627","Deer Isle","ME","V & S Variety Store","3 Burnt Cove Rd","04681",44.16683578491211,-68.69185638427734
"04630","East Machias","ME","Pineo's True Value","292 Main St","04654",44.71396317,-67.46093098
"04630","East Machias","ME","Hammond Lumber Company","9 Quoddy Lane","04654",44.718925,-67.45403
"04630","East Machias","ME","PINEO'S TRUE VALUE","292 MAIN STREET","04654",44.72357177734375,-67.43569946289062
"04630","East Machias","ME","Ellsworth Builders Supply - Machias","9 Quoddy Ln","04654",44.71906280517578,-67.45401763916016
"04630","East Machias","ME","Whitney's Tool Shed","29 Dublin St","04654",44.71194839477539,-67.45840454101562
"04630","East Machias","ME","Machias Hardware","not_available","04654",44.7154105181518,-67.45763477584565
"04630","East Machias","ME","Husqvarna US","PO Box 226","04630",44.75168991088867,-67.39933776855469
"04649","Jonesport","ME","Hamilton Marine","174 Main St","04649",44.531558990478516,-67.60350799560547
"04652","Lubec","ME","Lubec Hardware","Water St.","04652",44.82235270580989,-66.99131410366665
"04654","Machias","ME","Viking Lumber","353 Dublin Street","04654",44.694858,-67.477542
"04660","Mount Desert","ME","McEachern & Hutchins","345 Main Street","04679",44.279968,-68.32570600000001
"04668","Princeton","ME","Princeton Variety","123 Main St","04668",45.2227719,-67.571633
"04694","Baileyville","ME","Kent Building Supplies","188 King Street","not_available",45.201577,-67.274024
"04694","Baileyville","ME","STIHL","9055 ROUTE 3, OLD RIDGE","E3L 4W6",45.2353630065918,-67.28247833251953
"04694","Baileyville","ME","Canadian Tire","250 King Street","E3L 2E5",45.2057969,-67.2739417
"04730","Houlton","ME","Sherwin-Williams Paint Store","2 Smyrna St","04730",46.12792261567341,-67.84298479557037
"04730","Houlton","ME","Tractor Supply Co.","337 North St","04730",46.148319244384766,-67.84024810791016
"04730","Houlton","ME","Grand True Value Rental","428 North St","04730",46.1530191897,-67.8404687769
"04730","Houlton","ME","S.W. Collins","not_available","04730",46.1247426,-67.8440066
"04736","Caribou","ME","Sears","57 Sweden St","04736",46.8605743,-68.0147683
"04736","Caribou","ME","Sherwin-Williams Paint Store","118 Bennett Dr","04736",46.869155071184736,-68.00530672073364
"04736","Caribou","ME","Husqvarna US","570 Sweden St","04736",46.88066864013672,-68.0391616821289
"04741","Estcourt Station","ME","Husqvarna","472, Principale","G0L 1J0",47.45515441894531,-69.15440368652344
"04741","Estcourt Station","ME","BMR Express Avantis - Pohénégamook","539 Rue Principale","G0L 1J0",47.45797507783277,-69.16012144510648
"04741","Estcourt Station","ME","BMR Ggroupe Dynaco - Pohénégamook","539, rue Principale","G0L 1J0",47.45789698143335,-69.16028926991203
"04743","Fort Kent","ME","BMR D.E Landry","1976 Rue Commerciale","E7A 1A9",47.243563990508086,-68.69933366775513
"04743","Fort Kent","ME","S.W. Collins","not_available","04743",47.25097,-68.594892
"04743","Fort Kent","ME","Sears","204 W. Main Street","04743",47.2493862,-68.5988495
"04743","Fort Kent","ME","Caron Screening Company","686 S Perley Brook Rd","04743",47.235067,-68.5547069
"04745","Frenchville","ME","Tractor Supply Co.","81 Fox St Ste 105","04756",47.352038,-68.345984
"04765","Patten","ME","Richardsons Hardware","10 Main St","04765",45.996052,-68.447787
"04769","Presque Isle","ME","Lowe's","65-81 Maysville St","04769",46.69619323601074,-67.99979986639097
"04769","Presque Isle","ME","Grand True Value Rental","191 Parsons Rd","04769",46.7050424221,-68.020571211
"04769","Presque Isle","ME","Harbor Freight","not_available","04769",46.700973,-68.008792
"04769","Presque Isle","ME","Tractor Supply Co.","23 Houlton Rd","04769",46.660866,-68.00971
"04769","Presque Isle","ME","S. W. Collins","Rice St, Presque Isle, ME 04769","04769",46.695045471191406,-68.00850677490234
"04769","Presque Isle","ME","Lowe's","135 Maysville Street","04769",46.695809,-67.999031
"04774","Saint Francis","ME","Home Hardware","652 route Elgin Nord","G0R 3X0",46.9706926,-69.79344
"04774","Saint Francis","ME","BMR La Coop St-Pamphile","12 Rue Principale","G0R 3X0",46.960878377919805,-69.77831784257114
"04774","Saint Francis","ME","STIHL","ST-PAMPHILE QC G0R 3X0","G0R 3X0",46.966251373291016,-69.79261779785156
"04780","Smyrna Mills","ME","Husqvarna US","PO Box 7","04780",46.14075469970703,-68.17253875732422
"04785","Van Buren","ME","STIHL","10109 ROUTE 144  ST-ANDRE NB E3Y 3H6","E3Y 3H6",47.074554443359375,-67.79429626464844
"04841","Rockland","ME","Lowe's","164 New County Road","04861",44.0946602,-69.1420384
"04841","Rockland","ME","Hamilton Marine","Tillson Ave.","04841",44.103912016966014,-69.10696072012408
"04841","Rockland","ME","The Home Depot","270 Camden St","04841",44.1256178,-69.0997254
"04841","Rockland","ME","EBS Building Supply","Maverick St.","04841",44.118204999999996,-69.10855500000001
"04841","Rockland","ME","Sherwin-Williams Paint Store","96 Park St","04841",44.10145470028863,-69.11505460739136
"04841","Rockland","ME","E.L. Spear  Inc. Lumber and Hdwe","10 Payne Ave","04841",44.099876,-69.12725400000001
"04841","Rockland","ME","Hardware","191 W Meadow Rd","04841",44.125617999999996,-69.13154499999999
"04841","Rockland","ME","Tractor Supply Co.","38 Thomaston Commons Way","04861",44.092812,-69.13571999999999
"04841","Rockland","ME","Hammond Lumber Company","103 Maverick St","04841",44.118111,-69.108788
"04841","Rockland","ME","Harbor Freight","not_available","04841",44.124702,-69.09642
"04843","Camden","ME","EBS Camden","not_available","04843",44.2010410110507,-69.06947309043868
"04843","Camden","ME","Pro-Rental Of Rockport","440 West St","04856",44.183468,-69.119869
"04843","Camden","ME","Hammond Lumber Company","50 Union St","04843",44.2009313,-69.0691068
"04847","Hope","ME","Shanie's Gifts & Union True Value","not_available","04862",44.214368,-69.241479
"04848","Islesboro","ME","Aubuchon Hardware","31 Northport Ave","04915",44.40235576071416,-68.98952877588818
"04862","Union","ME","Union True Value Hardware","749 Heald Hwy - Rte 17","04862",44.2173,-69.28282
"04863","Vinalhaven","ME","viking lumber","not_available","04863",44.04817636423535,-68.84043709901039
"04864","Warren","ME","Viking Lumber","2100 Camden Rd","04864",44.146739625584985,-69.19764518737793
"04864","Warren","ME","Warren True Value Hardware","420 Camden Rd","04864",44.122039794921875,-69.24932861328125
"04864","Warren","ME","Husqvarna US","420 CAMDEN RD. RT 90","04864",44.122039794921875,-69.24932861328125
"04901","Waterville","ME","The Home Depot","60 Waterville Drive","04901",44.5699374,-69.6462413
"04901","Waterville","ME","Aubuchon Hardware","485 Kennedy Memorial Dr","04901",44.545227000000004,-69.682333
"04901","Waterville","ME","Agway","56 Garland Rd","04901",44.536558914263765,-69.62294665936273
"04901","Waterville","ME","Allsco Building Products Inc.","20 Lithgow St","04901",44.535735713688666,-69.63465213775635
"04901","Waterville","ME","Lyman's Farm Store","not_available","04937",44.63350296020508,-69.59640502929688
"04901","Waterville","ME","Tractor Supply Co.","10 Jfk Plz","04901",44.539699,-69.652963
"04901","Waterville","ME","Sherwin-Williams Paint Store","343 Main St","04901",44.56816482543945,-69.63702392578125
"04901","Waterville","ME","Portland Glass","not_available","04901",44.55167691789846,-69.63053221519637
"04901","Waterville","ME","Fastenal","16 Industrial Dr","04963",44.54534149169922,-69.69390106201172
"04901","Waterville","ME","CN Brown Energy","33 Elm St","04901",44.5479867,-69.6341846
"04901","Waterville","ME","Hammond Lumber Company","5 Summit St","04937",44.586205,-69.597031
"04901","Waterville","ME","McCormack Building Supply","8 Lithgow St","04901",44.537296295166016,-69.63146209716797
"04901","Waterville","ME","Harbor Freight Tools","369 Main St","04901",44.56984,-69.63843
"04901","Waterville","ME","Campbell's Agway True Value","30 Garland Rd","04901",44.5368537902832,-69.62285614013672
"04910","Albion","ME","AAA Portable Toilets","24 Quaker Hill Rd","04910",44.534554,-69.412564
"04911","Anson","ME","CN Brown Energy","17 Old Point Rd","04950",44.7969804,-69.8802692
"04911","Anson","ME","Nature's Palate LLC","1321 Mercer Rd","04957",44.67896270751953,-69.91287231445312
"04911","Anson","ME","Campbell's True Value","66 Main St","04950",44.798388,-69.882808
"04915","Belfast","ME","EBS Building Supplies","Belfast, ME","04915",44.42270245974007,-69.02735237143284
"04915","Belfast","ME","Rob's","96 Searsport Ave","04915",44.4312858581543,-68.98883819580078
"04915","Belfast","ME","Trustworthy","Main St","04915",44.42648254128174,-69.00645240954623
"04915","Belfast","ME","Hammond Lumber Company","30 Belmont Ave","04915",44.4222976,-69.02752509999999
"04915","Belfast","ME","Sherwin-Williams Paint Store","15A Starrett Dr","04915",44.422425091870075,-69.02006149291992
"04921","Brooks","ME","Buxton Services Inc.","852 West Main Street","04951",44.58877816509398,-69.08066918558143
"04930","Dexter","ME","Dexter Ace Hardware","11 Main St","04930",45.0243019,-69.290474
"04932","Dixmont","ME","Orcutt's Variety & Hardware","not_available","04932",44.68394333145381,-69.11925262121524
"04938","Farmington","ME","Strong Hardware & Building","163 North Main Street","04983",44.81867599487305,-70.21688842773438
"04941","Freedom","ME","Liberty Tool","not_available","04949",44.39251456018212,-69.30736524367889
"04942","Harmony","ME","St Albans Hardware","not_available","04971",44.91013142677395,-69.40933950130774
"04942","Harmony","ME","Husqvarna US","1 Cambridge Rd","04942",44.979915618896484,-69.54722595214844
"04945","Jackman","ME","Ladécoupe Inc","2890 40E rue RR 2","G0M 1Y0",46.2109808,-70.4732029
"04945","Jackman","ME","Centre de rénovation J.R. Roy","1526, Route 277","G0R 1S0",46.40399,-70.52051
"04945","Jackman","ME","S.B. SERVICE MECANIQUE INC","1484, RTE 275  ST COME LINIERE QC G0M 1J0","G0M 1J0",46.048561096191406,-70.52169799804688
"04945","Jackman","ME","BMR","1312, 13ieme rue","G0M 1J0",46.05929946899414,-70.52566528320312
"04945","Jackman","ME","GARAGE ELOI MORIN & FILS INC.","3110, 25 IEME AVENUE  ST-PROSPER QC G0M 1Y0","G0M 1Y0",46.211097717285156,-70.47969055175781
"04945","Jackman","ME","Husqvarna","1090, Route Kennedy","G0M 1G0",46.06201934814453,-70.54190826416016
"04945","Jackman","ME","Entreprises Danco Construction inc.","2835 26e Rue","G0M 1Y0",46.20929718,-70.480545044
"04945","Jackman","ME","STIHL","106, CH. DES BOIS-FRANCS  STE-AURELIE QC G0M 1M0","G0M 1M0",46.1730842590332,-70.3699951171875
"04945","Jackman","ME","STIHL","163, ROUTE 204,  STE-JUSTINE QC G0R 1Y0","G0R 1Y0",46.408504486083984,-70.35331726074219
"04945","Jackman","ME","Home Hardware","1560, 25 ieme Avenue","G0M 1Y0",46.2172731,-70.4928583
"04945","Jackman","ME","BMR La Coop St-Côme","1300 13E Rue","G0M 1J0",46.06325051341864,-70.52180081605911
"04945","Jackman","ME","Quincaillerie Gilbert Enr","166 des Bois Francs","G0M 1M0",46.168101,-70.367116
"04945","Jackman","ME","Centre de Rénovation J R Roy Inc","1526 route 277","G0R 1S0",46.400035,-70.51921
"04945","Jackman","ME","Husqvarna","1407 Route 277","G0R 1S0",46.39822769165039,-70.49826049804688
"04945","Jackman","ME","BMR La Coop Ste-Justine","188 QC-204","G0R 1Y0",46.40589282269472,-70.35317208422305
"04945","Jackman","ME","JACKMAN TRUE VALUE HARDWARE","MAIN ST RTE 201","04945",45.77371597290039,-70.33086395263672
"04945","Jackman","ME","Champagne True Value Lumber & Hardware","5 Champagne Dr","04945",45.60043,-70.19786
"04947","Kingfield","ME","Jordan Lumber","354 Main St","04947",44.9636842,-70.1620447
"04947","Kingfield","ME","The Inn on Winter's Hill","33 winter hill st.","04947",44.959352,-70.158927
"04950","Madison","ME","Tractor Supply Co.","381 Madison Ave Ste 11","04976",44.787161,-69.731098
"04950","Madison","ME","Campbell's Agway True Value","398 Madison Ave","04976",44.786446000000005,-69.73415899999999
"04950","Madison","ME","Sherwin-Williams Paint Store","257 Madison Ave","04976",44.779257,-69.725196
"04950","Madison","ME","Campbells True Value Building Supply","339 Main Street - Rte 148","04950",44.800048828125,-69.86155700683594
"04953","Newport","ME","Tractor Supply Co.","1560 Main St","04965",44.83850860595703,-69.29293060302734
"04953","Newport","ME","Paris Farmers Union","12 Progress Park S","04953",44.835880279541016,-69.28382110595703
"04953","Newport","ME","Aubuchon Hardware","Crossroads Plaza","4953",44.83938887,-69.28312663
"04974","Searsport","ME","Hamilton Marine","155 E Main St","04974",44.46011057256872,-68.91059084137531
"04976","Skowhegan","ME","Hammond Lumber Company","34 Pennell St","04976",44.761303999999996,-69.725511
"04976","Skowhegan","ME","Aubuchon Hardware","9 Commercial St","04976",44.76615524291992,-69.71794891357422
"04976","Skowhegan","ME","Quinn Hardware","125 Waterville Rd, RT. 201","04976",44.761483,-69.70553
"04988","Unity","ME","Mac's Hardware","289 School St","04988",44.6131613232716,-69.3527338188887
"04988","Unity","ME","Maine Form","368 Thorndike Rd","04988",44.60989761352539,-69.29959869384766
"04988","Unity","ME","Husqvarna US","417THORNDIKE RD","04988",44.5984992980957,-69.33358764648438
