"zip","city","state","name","address","postalCode","lat","lon"
"53002","Allenton","WI","A to Z Quality Fencing & Structures","6510 Aurora Rd","53090",43.428306579589844,-88.30033111572266
"53004","Belgium","WI","Belgium Hardware & Beverage","756 Main St","53004",43.499761,-87.855188
"53004","Belgium","WI","Neuens","441 Fredonia Ave","53021",43.469952274627595,-87.95232642718736
"53005","Brookfield","WI","Elliott Ace Hardware","15360 Watertown Plank Rd","53122",43.0376809,-88.104746
"53005","Brookfield","WI","Stein's Garden & Home","14845 W Capitol Dr","53005",43.088814,-88.097129
"53005","Brookfield","WI","Hein Electric Supply","12745 W Townsend St","53005",43.079653037281204,-88.07037316204114
"53005","Brookfield","WI","First Building Supply","3595 N 127th St","53005",43.083408,-88.070976
"53005","Brookfield","WI","Midwest Trade Tool, Inc","not_available","53005",43.094123820848324,-88.06982793465139
"53005","Brookfield","WI","Atena Hardware","13745 W Capitol Dr","53005",43.089,-88.082986
"53005","Brookfield","WI","T&A Industrial Distributors","12550 Robin Ln","53005",43.078686,-88.068252
"53006","Brownsville","WI","Builders FirstSource","W964 Hwy 49","53048",43.61710007119854,-88.44347447175096
"53006","Brownsville","WI","Luedtke Lumber True Value (Luedtke Lumber Inc)","900 Railroad Ave","53048",43.592684,-88.441423
"53007","Butler","WI","Vermeer Wisconsin","5445 N 131st St","53007",43.116131,-88.075807
"53010","Campbellsport","WI","Tennies Ace Hardware","900 Fond Du Lac Ave","53040",43.5099,-88.220399
"53010","Campbellsport","WI","Campbellsport True Value","131 E Main St","53010",43.59785889,-88.28428925
"53010","Campbellsport","WI","Ace Hardware","900 Fond du Lac Ave","53040",43.51055715,-88.22054485
"53011","Cascade","WI","Mowtown Waldo Implement Inc.","1200 W 1st St","53093",43.675489,-87.95785
"53012","Cedarburg","WI","Beyers True Value","W61n278 Washington Ave","53012",43.285318,-87.985748
"53012","Cedarburg","WI","Zuern Building Products","N144W5800 Pioneer Rd","53012",43.2806282043457,-87.98181915283203
"53012","Cedarburg","WI","Strong Drywall World Headquarters","Spring Ct, Cedarburg, WI 53012","53012",43.2924528,-87.9793986
"53012","Cedarburg","WI","Sherwin-Williams Paint Store","2225 Wisconsin Ave","53024",43.30221939086914,-87.96373748779297
"53012","Cedarburg","WI","Ozaukee Ace Hardware","1818 Wisconsin Ave","53024",43.31107,-87.956971
"53013","Cedar Grove","WI","Daane Ace Hardware","936 Center Ave","53070",43.623363,-87.798406
"53013","Cedar Grove","WI","Hardware Hank","502 S Main St","53013",43.56681986861519,-87.82040162936066
"53014","Chilton","WI","Farm & Home","519 N Madison St","53014",44.036163330078125,-88.16333770751953
"53014","Chilton","WI","Vandervart Concrete Products","2216 Calumet Dr","53061",43.953835,-88.104045
"53014","Chilton","WI","New Holstein True Value","2204 Wisconsin Ave","53061",43.950015,-88.096227
"53014","Chilton","WI","Tractor Supply","2245 Calumet Dr","53061",43.955074310302734,-88.10770416259766
"53014","Chilton","WI","Husqvarna US","1515 Wisconsin Ave","53061",43.949249267578125,-88.08438110351562
"53018","Delafield","WI","The Home Depot","3400 Hillside Dr","53018",43.04887461206874,-88.36182153499976
"53018","Delafield","WI","Hahn Ace Hardware","2835 Heritage Dr","53018",43.0502499,-88.37145
"53018","Delafield","WI","Area Rental","not_available","53018",43.0493868124133,-88.35962035705855
"53018","Delafield","WI","Oliva Di Vita","623 Genesee St","53018",43.0604236,-88.4046623
"53018","Delafield","WI","Gerhard's Kitchen & Bath Store","2566 Sun Valley Dr","53018",43.04904436,-88.37679201
"53022","Germantown","WI","Menards","W186 N9754 Appleton Ave","53022",43.19543104941791,-88.1398788151739
"53022","Germantown","WI","Neu's Supply Line","not_available","not_available",43.226825519999764,-88.11252753084788
"53022","Germantown","WI","Fastenal","not_available","53022",43.22730870593076,-88.13981146625717
"53022","Germantown","WI","Germantown Ace Hardware","16250 Mequon Rd","53022",43.22147750854492,-88.1114273071289
"53022","Germantown","WI","minuteKEY","W190N9855 Appleton Ave","53022",43.1962177,-88.1463525
"53022","Germantown","WI","minuteKEY","W186N9754 Appleton Ave","53022",43.19580841064453,-88.13963317871094
"53022","Germantown","WI","Stein's Garden & Home","W184N9676 Appleton Ave","53022",43.194533,-88.137798
"53024","Grafton","WI","The Home Depot","1350 Port Washington Rd","53024",43.3179901,-87.9218495
"53024","Grafton","WI","Fastenal","not_available","53074",43.37335019186563,-87.8955603328058
"53027","Hartford","WI","Hahn Ace Hardware & Rental","2945 State Road 83","53027",43.3156,-88.3704
"53027","Hartford","WI","Kettle Moraine Hardwods","5261 Aurora Rd","53027",43.3821870034037,-88.30897945261525
"53027","Hartford","WI","Paint Shop","not_available","53027",43.306779,-88.374455
"53027","Hartford","WI","East Side Lumber","200 1st St","53027",43.32060382441147,-88.37617993354797
"53027","Hartford","WI","Ace Hardware","429-441 Misty Meadows Blvd","53027",43.3124859,-88.3684217
"53027","Hartford","WI","C & R Ace Hardware","429 E Washington St","53086",43.329482,-88.278147
"53027","Hartford","WI","Sherwin-Williams Paint Store","1171 E Sumner St","53027",43.31722394539119,-88.36102545261383
"53029","Hartland","WI","Badgerland Supply","650 East Industrial Drive","53029",43.09899,-88.3581577
"53029","Hartland","WI","bj electric supply inc","Paul Rd, Pewaukee, WI 53072","53072",43.08266108089265,-88.26287848992239
"53029","Hartland","WI","Biebel's True Value","580 Hartbrook Dr","53029",43.110526959705,-88.3376767328781
"53032","Horicon","WI","mikes hardware","not_available","53032",43.44571304321289,-88.59135437011719
"53036","Ixonia","WI","In Phase Electric, LLC","W124 Rockvale Rd","53066",43.12238693237305,-88.54039764404297
"53037","Jackson","WI","Tennies Ace Hardware","W194N16714 Eagle Dr","53037",43.3217,-88.15
"53037","Jackson","WI","Orion Engineered Systems","not_available","53037",43.32234095902116,-88.18778893971299
"53038","Johnson Creek","WI","Menards","440 Wright Rd","53038",43.08195260061948,-88.760358377426
"53038","Johnson Creek","WI","Direct Tools Factory Outlet","575 Linmar Ln Ste B010","53038",43.08935186633702,-88.76354074112423
"53039","Juneau","WI","Hometown Glass & Improvement Inc","N7171 Raceway Rd","53916",43.453356,-88.80686
"53042","Kiel","WI","koeppens true value hardware store","not_available","54232",44.0059307,-87.9257656
"53044","Kohler","WI","Vandervart Concrete Products","180 Forest Ave","53085",43.7418098449707,-87.80293273925781
"53045","Brookfield","WI","Menards","2315 W Bluemound Rd","53186",43.035212343340994,-88.18086504795502
"53045","Brookfield","WI","The Home Depot","2320 W Bluemound Rd","53186",43.0382971,-88.1802531
"53045","Brookfield","WI","Sherwin-Williams Paint Store","18525 W Bluemound Rd","53045",43.035756405284424,-88.14223766326903
"53045","Brookfield","WI","Metro Paint And Decor","17800 W Bluemound Rd","53045",43.03702762725708,-88.13565133043805
"53045","Brookfield","WI","Neu's Hardware Gallery","161 Bluemound","53045",43.037619,-88.148643
"53045","Brookfield","WI","The Cabinetree","19700 W Bluemound Rd","53045",43.036826,-88.15771600000001
"53045","Brookfield","WI","swagelok","3225 Gateway Rd, Brookfield, WI 53045","53045",43.07807540893555,-88.1822738647461
"53045","Brookfield","WI","auer steel","not_available","53186",43.04169338382951,-88.18211001013478
"53045","Brookfield","WI","Donovan Mirror & Glass","not_available","53045",43.03666730260877,-88.16263993063599
"53045","Brookfield","WI","S & K Pump & Plumbing, Inc.","20880 Enterprise Ave","53045",43.053020000000004,-88.172241
"53046","Lannon","WI","L & R Lawn Equipment","19915 W Main St","53046",43.15416717529297,-88.15731811523438
"53050","Mayville","WI","Mayville Ace Hardware","1448 Horicon St","53050",43.4942899,-88.560462
"53050","Mayville","WI","Mayville True Value","1020 Horicon St","53050",43.4946453,-88.5566466
"53051","Menomonee Falls","WI","The Home Depot","N94 W 18375 Thunder Rdg","53051",43.1876023,-88.1374299
"53051","Menomonee Falls","WI","City Electric Supply","N56 W13565 Silver Spring Drive","53051",43.1182445,-88.0799966
"53051","Menomonee Falls","WI","Neu's Hardware","N95W16915 Richfield Way","53051",43.189781519468575,-88.11979850424743
"53051","Menomonee Falls","WI","Town And Country","N94W17937 Appleton Ave","53051",43.18877948476569,-88.13222952627916
"53051","Menomonee Falls","WI","E. J. Welch","W126 N8652 Westbrook Crossing","53051",43.17433618022989,-88.06715351816709
"53051","Menomonee Falls","WI","Sherwin-Williams Paint Store","N85W16063 Appleton Ave","53051",43.17243314378012,-88.10949493846412
"53051","Menomonee Falls","WI","universal metrics inc","n60 w16590 kohler lane","not_available",43.126981,-88.117346
"53058","Nashotah","WI","Bil-Bar Equipment Sales & Service","345 Nashotah Rd","53058",43.09335241046108,-88.42062950134277
"53066","Oconomowoc","WI","Lorleberg True Value","900 E Wisconsin Ave","53066",43.10726680873851,-88.48274858557323
"53066","Oconomowoc","WI","Sherwin-Williams Paint Store","1400 Summit Ave","53066",43.086321999999996,-88.47145
"53066","Oconomowoc","WI","Ace Hardware of Oconomowoc","1081 Summit Ave","53066",43.094515,-88.480699
"53066","Oconomowoc","WI","Fastenal","not_available","53066",43.062841,-88.480107
"53066","Oconomowoc","WI","Ace Hardware","119 N Main St","53118",43.01445770263672,-88.47323608398438
"53072","Pewaukee","WI","Menards","1357 Capitol Dr","53072",43.08556066483261,-88.23160727203826
"53072","Pewaukee","WI","Elliott Ace Hardware","1268 Capitol Dr","53072",43.083019,-88.238372
"53072","Pewaukee","WI","CED","not_available","53072",43.06675243519232,-88.21567307415613
"53072","Pewaukee","WI","Tundraland Home Improvements","W237 N2878 Woodgate Road","53072",43.0716368,-88.2195458
"53072","Pewaukee","WI","Sherwin-Williams Paint Store","1350 Capitol Dr","53072",43.08278256665116,-88.23123335838318
"53072","Pewaukee","WI","Sherwin-Williams Floorcovering Store","N16W23390 Stone Ridge Dr","53188",43.053218,-88.213478
"53072","Pewaukee","WI","Werner Electric Supply","W238 N1777 Rockwood Dr.","53188",43.05446202746772,-88.22220236285094
"53072","Pewaukee","WI","Grainger","N21 W23020 Watertown Rd.","53188",43.05959677698012,-88.20590137468224
"53072","Pewaukee","WI","Capital Electric","w231 n2840 Roundy Circle East","53072",43.07175054824202,-88.208827404677
"53072","Pewaukee","WI","Grainger Branch 490","not_available","53188",43.059485,-88.206286
"53072","Pewaukee","WI","Ferguson Waterworks","N49 W22990 Commerce Centre Dr","53072",43.061388,-88.249444
"53072","Pewaukee","WI","minuteKEY","411 Pewaukee Rd","53072",43.08731460571289,-88.22792053222656
"53072","Pewaukee","WI","Halquist Stone","County Road K","53072",43.111818309689205,-88.21037835907654
"53073","Plymouth","WI","Kutting Edge Tools Inc","219 E Mill St","53073",43.747259,-87.977777
"53073","Plymouth","WI","Fastenal","117 Clover Ln","53073",43.746201,-87.942526
"53074","Port Washington","WI","Drews True Value Hardware","1629 N Wisconsin St","53074",43.407991907755545,-87.87133696691352
"53074","Port Washington","WI","Stevlins Hardware","2440 State Road 33","53074",43.387848,-87.909702
"53074","Port Washington","WI","Sherwin-Williams Paint Store","620 E Green Bay Ave","53080",43.38426612094538,-87.93273986978981
"53075","Random Lake","WI","Doegnitz Ace Hardware","115 Allen St","53075",43.55063247680664,-87.96401977539062
"53080","Saukville","WI","Do it Best","Wisconsin 33 Trunk, Saukville, WI 53080","53080",43.40185210395153,-87.98773818084346
"53081","Sheboygan","WI","Walmart Hardware Department","not_available","53081",43.71492208930881,-87.75457580387085
"53081","Sheboygan","WI","Caan Floral & Greenhouses","4422 S 12th St","53081",43.70439,-87.720968
"53081","Sheboygan","WI","Martens Trilling True Value","901 Michigan Ave","53081",43.75813059182705,-87.71530815210168
"53081","Sheboygan","WI","The Home Depot","4025 Highway 28","53044",43.71462743277821,-87.76334881782532
"53081","Sheboygan","WI","ReStore","1911 N 8th St","53081",43.765383,-87.71247
"53081","Sheboygan","WI","Tractor Supply Co","3650 County Hwy A","53081",43.713524,-87.763502
"53081","Sheboygan","WI","Sherwin-Williams Paint Store","1704 Erie Ave","53081",43.75672842707869,-87.72853374481201
"53081","Sheboygan","WI","Van Der Vaart concrete products","1427 S 15th St","53081",43.736674,-87.72495
"53081","Sheboygan","WI","Gerhard's Kitchen & Bath Store","732 N Wildwood Ave","53081",43.753053,-87.733419
"53081","Sheboygan","WI","On Point Solutions","3120 S Business Dr Ste 180","53081",43.722805,-87.73867333
"53081","Sheboygan","WI","Ferguson","4241 S Taylor Dr","53081",43.708271,-87.757184
"53081","Sheboygan","WI","Honold & La Page","1135 S 11th St","53081",43.7420784125316,-87.71695616871594
"53081","Sheboygan","WI","Parker Store","4253 S. Business Dr.","53081",43.708778087589664,-87.75826374434499
"53081","Sheboygan","WI","The Car Paint Store","2135 S Business Dr","53081",43.73109692,-87.72824481
"53081","Sheboygan","WI","Vandervart Concrete Products","1436 S 15th St","53081",43.73765182495117,-87.72571563720703
"53081","Sheboygan","WI","Fastenal","S Taylor Dr","53081",43.70852842241454,-87.75652206144697
"53083","Sheboygan","WI","Menards","4825 Vanguard Dr","53083",43.79881290479566,-87.7674290962632
"53083","Sheboygan","WI","Viking Electric","4228 High Tech Ln","53083",43.78384017944336,-87.7628173828125
"53083","Sheboygan","WI","Grand Rental Station Sheboygan","3849 Enterprise Dr","53083",43.785605110828214,-87.75714872775364
"53085","Sheboygan Falls","WI","Kettle Lakes Co-op","424 Monroe St","53085",43.72978591918945,-87.80712890625
"53085","Sheboygan Falls","WI","Richardson Lumber","not_available","53085",43.72475041492005,-87.82147189096965
"53085","Sheboygan Falls","WI","Falls Ace Hardware","1246 Fond Du Lac Ave","53085",43.733563000000004,-87.82786800000001
"53086","Slinger","WI","Source Mountain Supply LLC.","3460 Cumberland Trl","53086",43.3160285949707,-88.23458099365234
"53089","Sussex","WI","Ace Hardware","N64W24330 Main St","53089",43.133808,-88.222292
"53090","West Bend","WI","Main Street Tool Rental LLC","1975 N Main St","53090",43.44568,-88.18938
"53090","West Bend","WI","Hemauer's","not_available","53095",43.422673,-88.182013
"53090","West Bend","WI","Husqvarna US","1628 N Main St","53090",43.441856384277344,-88.18782806396484
"53090","West Bend","WI","Stein's Garden & Home","601 Wildwood Rd","53090",43.42966,-88.215267
"53090","West Bend","WI","Tennies Ace Hardware","112 S 5th Ave","53095",43.4228999,-88.1824
"53090","West Bend","WI","Restore - Habitat For Humanity","Chestnut St.","53095",43.42883922497914,-88.18596109971656
"53090","West Bend","WI","Sears","230 N 18th Ave","53095",43.42559814453125,-88.2027587890625
"53092","Mequon","WI","Mequon Ace Hardware","11001 N Port Washington Rd","53092",43.217807,-87.9243
"53092","Mequon","WI","Johnson Level And Tool","6333 W Donges Bay Rd","53092",43.206336,-87.987863
"53092","Mequon","WI","Sherwin-Williams Paint Store","6027 W Mequon Rd","53092",43.220417,-87.98344200000001
"53092","Mequon","WI","Thiensville Hardware-Rental","not_available","53092",43.23999798780045,-87.98544777146779
"53092","Mequon","WI","John Deere Landscapes","6100 W Executive Dr Ste G","53092",43.21051788330078,-87.9864730834961
"53094","Watertown","WI","Tractor Supply Co.","1911 Market Way","53094",43.159438,-88.72997
"53094","Watertown","WI","Watertown Ace Hardware","401 Bernard St Ste 1","53094",43.1863999,-88.73
"53094","Watertown","WI","Sherwin-Williams Paint Store","705 S Church St","53094",43.18561935424805,-88.72959899902344
"53094","Watertown","WI","Waupun Equipment (Froehlig's)","W4681 Hwy 19","53094",43.19758482609655,-88.76145065339041
"53094","Watertown","WI","Zuern","2325","53094",43.16937953031678,-88.73378276824951
"53095","West Bend","WI","Menards","575 W Paradise Dr","53095",43.39673008267923,-88.18392804027577
"53095","West Bend","WI","The Home Depot","700 W Paradise Dr","53095",43.3996033,-88.1853295
"53095","West Bend","WI","minuteKEY","1515 W Paradise Dr","53095",43.3960233,-88.197182
"53095","West Bend","WI","Sherwin-Williams Paint Store","851 S Main St","53095",43.410272,-88.18066
"53095","West Bend","WI","Fastenal","2220A Stonebridge Rd","53095",43.392433166503906,-88.17140197753906
"53095","West Bend","WI","AAR Plumbing","2195 Stonebridge Cir","53095",43.39308,-88.166569
"53097","Mequon","WI","boehlke hardware","not_available","53097",43.236351013183594,-88.0447006225586
"53098","Watertown","WI","St. John Maintenance & Repair Serviceq","not_available","53094",43.20491774608496,-88.71844053268433
"53103","Big Bend","WI","Stein's Garden & Home","S71W23445 National Ave","53103",42.913418,-88.21685
"53103","Big Bend","WI","Fickau Inc","hwy 164","not_available",42.90330710634264,-88.20950773807249
"53105","Burlington","WI","Menards","2100 Milwaukee Ave","53105",42.70613767807995,-88.24111790231831
"53105","Burlington","WI","The Home Depot","550 N Edwards Blvd","53147",42.595842,-88.4147294
"53105","Burlington","WI","Twin Lakes Hardware & Rental","470 N Lake Ave","53181",42.5360299,-88.246538
"53105","Burlington","WI","Reinemans True Value","417 Milwaukee Ave","53105",42.67969131,-88.27897436
"53105","Burlington","WI","Sherwin-Williams Paint Store","240 N Edwards Blvd","53147",42.592349534865015,-88.41516976940318
"53105","Burlington","WI","Tractor Supply Co.","1801 Milwaukee Ave","53105",42.701589,-88.255973
"53105","Burlington","WI","centaur forge","not_available","53105",42.67845,-88.270587
"53105","Burlington","WI","Husqvarna US","4144 Northwest Hwy","53185",42.77167510986328,-88.23792266845703
"53105","Burlington","WI","Sears","1757 Milwaukee Ave, Suite A","53105",42.70117547591095,-88.25677873794831
"53105","Burlington","WI","The Reesman's Company","28815 Bushnell Rd","53105",42.6472906,-88.2048865
"53105","Burlington","WI","Martinâ€™s Hardware & Rental","not_available","53120",42.78438594,-88.42468691666667
"53105","Burlington","WI","City Electric Supply Lake Geneva","N1922 State Road 120","53147",42.56060317,-88.416327
"53105","Burlington","WI","Stan's Lumber","202 E Main St","53181",42.531399,-88.253438
"53105","Burlington","WI","Burlington Lumber","140 Front St","53105",42.667648,-88.278198
"53108","Caledonia","WI","Husqvarna US","2524 76th St","53126",42.80039978027344,-88.01158142089844
"53108","Caledonia","WI","Blue Ribbon Organics","1137 27th St","53108",42.8253565,-87.9535687
"53110","Cudahy","WI","Harbor Freight","4698 S Whitnall Ave","53235",42.960883227236344,-87.878485744539
"53110","Cudahy","WI","Greg's True Value","3050 E Layton Ave","53235",42.95976115737885,-87.87219833801839
"53110","Cudahy","WI","City Electric Supply","5801 S Pennsylvania Ave","53110",42.938656,-87.88067
"53110","Cudahy","WI","Sears","6045 S Packard Avenue","53110",42.93464166968828,-87.86256833949665
"53110","Cudahy","WI","Sherwin-Williams Paint Store","5871 S Packard Ave","53110",42.938234275057134,-87.86144256591797
"53110","Cudahy","WI","Key Magician","4716 S. Packard","53235",42.95843408,-87.8600443
"53110","Cudahy","WI","Harbor Freight Tools","4698 S Whitnall Ave Ste 13","53235",42.96055603027344,-87.87715911865234
"53115","Delavan","WI","Lowe's","2015 East Geneva Street","53115",42.6306001,-88.6077193
"53115","Delavan","WI","Fleet Farm","not_available","53115",42.623875,-88.619125
"53115","Delavan","WI","Tractor Supply Co.","433 South Wright St","53115",42.629425,-88.62356
"53115","Delavan","WI","Jackson's Do It Best Hardware","635 N Wisconsin St","53121",42.683678,-88.542524
"53115","Delavan","WI","Ace Hardware","840 E Geneva St","53115",42.627515,-88.635401
"53115","Delavan","WI","First Supply","1932 Hobbs Dr","53115",42.6398,-88.608696
"53115","Delavan","WI","Southern Lakes Plumbing And Heating","not_available","53121",42.706716332464225,-88.54216966239166
"53115","Delavan","WI","Laser Electric Supply","not_available","53184",42.56621606249903,-88.58048718331105
"53115","Delavan","WI","Bay Lock Service","W5476","53191",42.5751391,-88.5693155
"53115","Delavan","WI","Stan's Lumber","99 E Centralia St","53121",42.666127,-88.54267
"53115","Delavan","WI","Comfort Zone Window Tinting, LLC","6175 Willow Bend Road","53184",42.5591551,-88.6041605
"53115","Delavan","WI","Ace Hardware","710 N Washington St","53121",42.683763737376076,-88.54205635753773
"53121","Elkhorn","WI","Woller True Value","455 E Geneva St","53121",42.669426,-88.533712
"53121","Elkhorn","WI","Foundation Building Materials","976 Proctor Drive","53121",42.66182052,-88.53079163
"53125","Fontana","WI","Heyer True Value Hardware","200 Hwy 67 N","53184",42.53250367113844,-88.58841352204313
"53126","Franksville","WI","Drewco Corp.","3745 Nicholson Rd","53126",42.76845169067383,-87.89411926269531
"53126","Franksville","WI","Jasperson Sod Farm","21521 Olson Rd","53126",42.794647216796875,-88.08324432373047
"53130","Hales Corners","WI","Express Electric","Span Classlocalityhales Cornersspan","53130",42.94091796875,-88.04914855957031
"53130","Hales Corners","WI","Hale Park Lumber","6321 S 108th St","53132",42.928954,-88.050009
"53130","Hales Corners","WI","SafetyMart","10940 W Forest Home Ave","53130",42.934622,-88.050838
"53132","Franklin","WI","Menards","10925 W Speedway Dr","53132",42.92462021535312,-88.05061558122895
"53132","Franklin","WI","The Home Depot","6489 S 27th Street","53132",42.92686389850727,-87.95291125774384
"53132","Franklin","WI","Lowe's","7027 South 27th Street","53132",42.9181032,-87.9525099
"53132","Franklin","WI","Harry's Ace Hardware & Rental","7240 S 76th St","53132",42.9124169,-88.009139
"53132","Franklin","WI","minuteKEY","6701 S 27th St","53132",42.923585,-87.952005
"53132","Franklin","WI","Worzella Lumber Co., Inc","not_available","53132",42.87158421742459,-88.01572997273485
"53132","Franklin","WI","ProSource of Milwaukee South (Franklin)","9622 S Franklin Dr","53132",42.869714,-87.979338
"53140","Kenosha","WI","Parkside True Value","1735 22nd Ave","53140",42.62594165625686,-87.83529167687142
"53140","Kenosha","WI","Southport Tile","2402 52nd St","53140",42.58817,-87.838351
"53140","Kenosha","WI","Quality Building Products","not_available","53142",42.5787986468276,-87.845222269385
"53142","Kenosha","WI","Menards","7330 74th Pl","53142",42.56885034322953,-87.89583540054247
"53142","Kenosha","WI","Lowe's","6500 Green Bay Road","53142",42.5756706,-87.8888266
"53142","Kenosha","WI","Stein's Garden & Home","6300 Green Bay Rd","53142",42.5786605,-87.88593333
"53142","Kenosha","WI","Lumber Liquidators, Inc.","7650 75th St","53142",42.568541380905955,-87.90058146452907
"53142","Kenosha","WI","Prairie Side True Value Hardware","3755 80th St","53142",42.558465156725475,-87.85391390825507
"53142","Kenosha","WI","Gerhard's Kitchen & Bath Store","7114 118th Ave","53142",42.57106522,-87.9508151
"53142","Kenosha","WI","The RoomPlace","7014B Green Bay Road","53142",42.571198,-87.889567
"53142","Kenosha","WI","City Electric Supply","4624 75th Street","53142",42.565452,-87.863304
"53142","Kenosha","WI","Pofahl Paint","2800 Roosevelt Rd","53143",42.57325744628906,-87.84314727783203
"53142","Kenosha","WI","DG Ace Hardware","4523 75th St","53142",42.5653345,-87.8632941
"53142","Kenosha","WI","City Electric Supply Kenosha","4623 75th St #14","53142",42.56531105371784,-87.86390976018097
"53143","Kenosha","WI","Consolidated Electrical Distributors","6500 27th Ave","53143",42.574703,-87.842063
"53143","Kenosha","WI","First Supply","not_available","53143",42.57704972260275,-87.83360774151843
"53143","Kenosha","WI","Blue Rhino","8211 Sheridan Rd","53143",42.55546,-87.824766
"53144","Kenosha","WI","Sherwin-Williams Paint Store","3810 52nd St","53144",42.589240999999994,-87.855195
"53144","Kenosha","WI","Greenville","not_available","53144",42.639190673828125,-87.90972900390625
"53144","Kenosha","WI","Boiler Repair Racine","7395 Burlington Road","53144",42.61897570299774,-87.96619892120361
"53144","Kenosha","WI","Sherwin-Williams Commercial Paint Store","9114 58th Pl Ste 800","53144",42.58393859863281,-87.9188232421875
"53144","Kenosha","WI","City Electric Supply","9009 58th Pl","53144",42.58256530761719,-87.91735076904297
"53144","Kenosha","WI","T & R Heating & Air Conditioning","3305 102nd Ave","53144",42.609076,-87.931885
"53144","Kenosha","WI","Hillside True Value","4614 52nd St","53144",42.58880745485728,-87.86527375332807
"53144","Kenosha","WI","Southway Supply","not_available","53177",42.64013364557684,-87.89906271753418
"53146","New Berlin","WI","Vallen","2865 S Calhoun Rd","53151",42.99243927001953,-88.1290512084961
"53146","New Berlin","WI","Prospect Hill Garden Center","19305 w National","not_available",42.94647197015875,-88.15493985395273
"53146","New Berlin","WI","Tool Time Rental","17505 W Liberty Ln","53146",42.998244,-88.132386
"53147","Lake Geneva","WI","Husqvarna US","PO Box 1030","53147",42.589256286621094,-88.4397964477539
"53147","Lake Geneva","WI","Benjamin Moore","not_available","53147",42.582392,-88.42499
"53147","Lake Geneva","WI","DUNN LUMBER&TRUE VALUE HDW.","826 North St","53147",42.59621047973633,-88.43643188476562
"53149","Mukwonago","WI","The Home Depot","232 E Wolf Run","53149",42.8527842,-88.3175161
"53149","Mukwonago","WI","Sherwin-Williams Paint Store","360 Bay View Rd","53149",42.851667,-88.330026
"53149","Mukwonago","WI","Hahn Ace Hardware","1080 N Rochester St","53149",42.8781859,-88.339031
"53149","Mukwonago","WI","Midwest Industries, Inc","not_available","53189",42.961764928399035,-88.33095539451793
"53149","Mukwonago","WI","Fastenal","not_available","53149",42.867528,-88.31920500000001
"53149","Mukwonago","WI","Tractor Supply Co.","857 South Rochester St Ste 500","53149",42.85346853622495,-88.32643141565718
"53150","Muskego","WI","Elliott Ace Hardware","S64W15732 Commerce Center Parkway","53150",42.9281009,-88.110995
"53150","Muskego","WI","Rozman True Value","S83w20483 Janesville Rd","53150",42.8932034228188,-88.1696032214765
"53150","Muskego","WI","Bill Schneider Inc.","S84W18753 Saturn Dr","53150",42.89360655075288,-88.14847054704614
"53150","Muskego","WI","Ace Hardware - Wind Lake","26404 Oakridge Dr","53185",42.829508914637174,-88.15761243841932
"53150","Muskego","WI","Sherwin-Williams Paint Store","S74W16870 Janesville Rd","53150",42.91059112548828,-88.12556457519531
"53150","Muskego","WI","Elliot's Ace Hardware","12805 Janesville Rd","53150",42.92138671875,-88.10063171386719
"53150","Muskego","WI","Olson's Outdoor Power Equipment","S63W14323 College Ave.","53150",42.92949244532503,-88.09371650218964
"53151","New Berlin","WI","Blair's Hardware - New Berlin","15300 W National Ave","53151",42.97978202283092,-88.10459180586483
"53151","New Berlin","WI","Area Rental","16205 W Rogers Dr","53151",43.006802,-88.114049
"53151","New Berlin","WI","Fastenal","not_available","53151",42.97398376464844,-88.11041259765625
"53151","New Berlin","WI","Flat Rate","12900 W National Ave","53151",42.988683,-88.074679
"53151","New Berlin","WI","Columbia Pipe & Supply Co.","16150 W Lincoln Ave, New Berlin, WI 53151","53151",43.00324630737305,-88.11260986328125
"53151","New Berlin","WI","Door Hardware Distributors","16540 W Rogers Dr","53151",43.00811004638672,-88.11859893798828
"53151","New Berlin","WI","Fellers Sign Supplies","16908 W Victor Rd","53151",42.987345,-88.12535600000001
"53154","Oak Creek","WI","Menards","6800 S 27th St","53154",42.922205292406936,-87.94739361815147
"53154","Oak Creek","WI","Ace Hardware","1009 Marquette Ave","53172",42.907893,-87.861056
"53154","Oak Creek","WI","K&K Remodeling Inc.","not_available","53154",42.861454779954265,-87.93230016070865
"53154","Oak Creek","WI","Tri City True Value","6312 S 27th St","53154",42.929001,-87.948511
"53154","Oak Creek","WI","Sherwin-Williams Paint Store","8999 S Howell Ave","53154",42.880417,-87.915712
"53154","Oak Creek","WI","Hein Electric Supply","S. 13th","53154",42.918444,-87.929948
"53154","Oak Creek","WI","Grainger","7025 S 10th St","53154",42.917543,-87.927502
"53154","Oak Creek","WI","Innovative Systems Inc.","9880 S Ridgeview Dr","53154",42.865603,-87.938425
"53156","Palmyra","WI","Palmyra True Value","229 W Main St","53156",42.877133,-88.585812
"53156","Palmyra","WI","Husqvarna US","PO Box S","53156",42.87713623046875,-88.58763885498047
"53168","Salem","WI","Reinemans True Value","24708 75th St","53168",42.568887,-88.108462
"53168","Salem","WI","Reinenan's TrueValue","not_available","53168",42.56844736986236,-88.1079881011065
"53177","Sturtevant","WI","Consolidated Electrical Distributors","7900 Durand Ave","53177",42.6999397277832,-87.8790512084961
"53177","Sturtevant","WI","Crescent Electric Supply","10002 Durand Ave","53177",42.698529,-87.907768
"53182","Union Grove","WI","Union Grove True Value Lumber & Hardware","1024 10th Ave","53182",42.688164,-88.05275300000001
"53184","Walworth","WI","Slim's Tractor Service & Outdoor Power","N363 US Highway 14","53184",42.504329681396484,-88.60013580322266
"53186","Waukesha","WI","Tomchek Ace Hardware","212 E Sunset Dr","53189",42.9893392,-88.2228189
"53186","Waukesha","WI","Bliffert Lumber","548 W Sunset Dr","53189",42.988542,-88.2396861
"53186","Waukesha","WI","Sherwin-Williams Paint Store","155 E Sunset Dr","53189",42.987817,-88.225002
"53186","Waukesha","WI","Wellington Home Improvements","1501 Paramount Dr","53186",43.022981,-88.197106
"53186","Waukesha","WI","Ace Hardware","155 W Main St","53186",43.012164,-88.228202
"53186","Waukesha","WI","Thorvie International LLC","1315 Pearl St","53186",43.007044,-88.209742
"53186","Waukesha","WI","FORCE America, Inc.","1601 Airport Rd","53188",43.027201,-88.232363
"53186","Waukesha","WI","L.W. Meyer, Inc.","W223 N609 Saratoga Dr","53186",43.0388485,-88.1951649
"53188","Waukesha","WI","Paradise Builders","S30 W 24698 Sunset Dr","53189",42.988419497467994,-88.30797672271729
"53188","Waukesha","WI","Jenkins True Value","2350 W Saint Paul Ave","53188",42.98860168457031,-88.26863098144531
"53188","Waukesha","WI","Sherwin-Williams Paint Store","2450 N Grandview Blvd","53188",43.03811620899273,-88.2565344756034
"53189","Waukesha","WI","T.J. Grinding","W241S3970 Rockwood Cir","53189",42.972837,-88.228617
"53189","Waukesha","WI","Hein Electric Supply","West Ave","not_available",42.97818845,-88.23549431666666
"53190","Whitewater","WI","Winchester True Value Hardware","1415 W Main St","53190",42.8340537055958,-88.76009244724527
"53190","Whitewater","WI","Home Lumber","499 W Whitewater St","53190",42.830225476107195,-88.73668279816546
"53190","Whitewater","WI","Donnelly Drywall LLC","N1560 Hwy K","53538",42.8974634022426,-88.8148773128344
"53190","Whitewater","WI","Builders FirstSource","1400 Janesville Ave","53538",42.909568786621094,-88.85222625732422
"53202","Milwaukee","WI","Grainger","202 N Jackson St","53202",43.03306817457335,-87.90307557165242
"53202","Milwaukee","WI","Village Ace Hardware Prospect","2170 N Prospect Ave","53202",43.0582,-87.88499200000001
"53202","Milwaukee","WI","Fastenal","mckinley","53202",43.046785159314844,-87.9117906918203
"53202","Milwaukee","WI","HP Printer Support","1693 n Cass St,Unit 1 Milwaukee, WI 53202","53202",43.052818298339844,-87.90237426757812
"53202","Milwaukee","WI","Sherwin-Williams Paint Store","807 E Brady St","53202",43.052824,-87.901736
"53202","Milwaukee","WI","Hallman Lindsay Quality Paints","106 W Florida St","not_available",43.027663000000004,-87.911751
"53202","Milwaukee","WI","Feguson","123 E Knapp St","53202",43.04668154318735,-87.9121115988341
"53203","Milwaukee","WI","Key Machine @ NAH","not_available","53212",43.0471627438141,-87.91601019565286
"53203","Milwaukee","WI","Hein Electric Supply","515 W Cherry St","53212",43.049601,-87.917705
"53204","Milwaukee","WI","National Ace Hardware","1310 W Burnham St","53204",43.0111,-87.928838
"53204","Milwaukee","WI","Metro Paint And Decor","117 W National Ave","53204",43.022943,-87.91171800000001
"53204","Milwaukee","WI","The Community Warehouse","521 S 9th St","53204",43.025803,-87.92346500000001
"53205","Milwaukee","WI","AAA Acme Lock Co. Inc.","1319 N 12th St","53205",43.04758770082155,-87.92734963548625
"53207","Milwaukee","WI","The Home Depot","150 W Holt Ave","53207",42.9840492,-87.9111877
"53207","Milwaukee","WI","100000 PARTS COMPANY","2373 S Kinnickinnic Ave","53207",43.002008850620456,-87.90327127816427
"53207","Milwaukee","WI","Snap On tool truck","not_available","53207",42.93843804060447,-87.90730254204193
"53207","Milwaukee","WI","Bird Ladder and Equipment","1800 E Bolivar Ave","53235",42.997088,-87.916351
"53207","Milwaukee","WI","FURGUSON ENTERPRISRS","429 W Boden St, Milwaukee, WI 53207","53207",42.934303283691406,-87.91787719726562
"53207","Milwaukee","WI","Tippecanoe True Value Hardware","3955 S Howell Ave","53207",42.972559265973366,-87.9097654467571
"53208","Milwaukee","WI","Aro Lock Co. INC","5801 W North Ave","53208",43.060527,-87.985702
"53208","Milwaukee","WI","ACME Supply","5101 W State St","53208",43.043568,-87.977498
"53209","Milwaukee","WI","The Home Depot","4155 N Port Washington","53212",43.0934765,-87.9197615
"53209","Milwaukee","WI","A. Fillinger, Inc.","6750 N 43rd St","53209",43.1399253531741,-87.96541072189747
"53209","Milwaukee","WI","Sterling True Value","7649 N Teutonia Ave","53209",43.156296000000005,-87.959919
"53209","Milwaukee","WI","Wagner's Garden Center","6075 N Green Bay Ave","53209",43.12763924,-87.9342888
"53209","Milwaukee","WI","Meinecke Ace Hardware","5020 W Fond Du Lac Ave","53216",43.089964,-87.9765
"53209","Milwaukee","WI","Crack Eliminator LLC","5045 N 35th ST","53209",43.110455,-87.95756300000001
"53209","Milwaukee","WI","Jeffers Hardware & Service Inc","2110 W Hampton Ave","53209",43.10472,-87.938559
"53209","Milwaukee","WI","Fastenal","4100 W Mill Rd","53209",43.13324187221681,-87.96536458367646
"53210","Milwaukee","WI","Sherwin-Williams Paint Store","6634 W North Ave","53213",43.06086666114177,-87.99597733785669
"53210","Milwaukee","WI","Lisbon Storm Screen and Door","5006 W Lisbon Ave","53210",43.062816148908084,-87.97675160362917
"53210","Milwaukee","WI","Hallman Lindsey Paint Store","7326 W North Ave","53213",43.061009999999996,-88.00480999999999
"53211","Milwaukee","WI","Bliffert Lumber & Hardware","1014 E Chambers St","53212",43.073123,-87.899022
"53211","Milwaukee","WI","Downer True Value Hardware","2629 N Downer Ave","53211",43.06666530487325,-87.87819372018454
"53211","Milwaukee","WI","Sherwin-Williams Paint Store","4334 N Oakland Ave","53211",43.095147,-87.887158
"53211","Milwaukee","WI","UWM Mechanical Services","not_available","53211",43.075011850101774,-87.88153846904682
"53211","Milwaukee","WI","Riverwest Window and Glass","833 E Center St","53212",43.067232000000004,-87.90055799999999
"53211","Milwaukee","WI","Sherwin-Williams Paint Store","3510 N Oakland Ave","53211",43.082304569158524,-87.88727760314941
"53212","Milwaukee","WI","ABC Lock & Key","2841 N Dr Martin Luther King Dr","53212",43.066352800000004,-87.91714746666668
"53212","Milwaukee","WI","adams auto body shop","5th street","53212",43.067981,-87.91743100000001
"53212","Milwaukee","WI","Crown Hardware","2016 N Doctor MLK Drive (3Rd Street)","53212",43.0783027,-87.9147099
"53212","Milwaukee","WI","FEBCO Food Service Equipment","1751 N Dr Martin Luther King Dr","53212",43.05385973658712,-87.91429376258343
"53213","Milwaukee","WI","Wauwatosa Ace Hardware","1525 N 68th St","53213",43.051063537597656,-87.99716186523438
"53213","Milwaukee","WI","Wisconsin Garden & Pet Supply","8520 W North Ave","53226",43.06068202667284,-88.0193194333794
"53213","Milwaukee","WI","Puhl's","not_available","53213",43.054803329895236,-88.0143489610075
"53213","Milwaukee","WI","Tool Time Rental","1936 S 92nd Street","53222",43.0670057,-88.0274874
"53214","Milwaukee","WI","Harbor Freight Tools","6808 W Greenfield Ave","53214",43.018756162167236,-87.99858210170909
"53214","Milwaukee","WI","AMES Tools","1025 S 108th St","53214",43.020452,-88.047649
"53214","Milwaukee","WI","Advanced Welding Supply","9130 W Schlinger Ave","53214",43.023838,-88.02666
"53214","Milwaukee","WI","Abc Building Supplies","10801-11199 W Lapham St","53214",43.01297,-88.050934
"53214","Milwaukee","WI","Dewalt Tools","not_available","53214",43.01285005228295,-87.96753643449243
"53214","Milwaukee","WI","All Safe And Security","9707 W Greenfield Ave","53214",43.016166999999996,-88.033521
"53214","Milwaukee","WI","Cresent Electric Supply","11201-11599 W Theodore Trecker Way","53214",43.023224,-88.05374
"53214","Milwaukee","WI","Able KBS Kitchen & Bath Showplace","1650 S 108th St","53214",43.012447357177734,-88.04541015625
"53214","Milwaukee","WI","United Refrigeration","4440 W Mitchell St","53214",43.012619,-87.969672
"53214","Milwaukee","WI","minuteKEY","4140 W Greenfield Ave","53215",43.018333435058594,-87.96539306640625
"53214","Milwaukee","WI","Sunberg Company","not_available","53219",43.01002079195303,-87.98464521546312
"53214","Milwaukee","WI","Pittsburgh Paints","1620 Miller Park Way","53214",43.013151,-87.966915
"53214","Milwaukee","WI","Fastenal","1600 Miller Park Way","53214",43.01314926147461,-87.96697235107422
"53214","Milwaukee","WI","Hilti","1132 Miller Park Way","53214",43.01938989486129,-87.96882801361551
"53214","Milwaukee","WI","Illco Refrigeration","not_available","53215",43.01021584767292,-87.9677469166078
"53214","Milwaukee","WI","Lumber Liquidators, Inc.","6740 W Greenfield Ave","53214",43.018708975782495,-87.99617888277544
"53214","Milwaukee","WI","Sears Appliance Repair","6900 W Greenfield Ave","53214",43.017372131347656,-87.99896240234375
"53214","Milwaukee","WI","DESIGN AIR LLC","11225 W Mitchell St","53214",43.01136582,-88.05255274
"53214","Milwaukee","WI","Milwaukee Cutting Tools","11817 W Dixon St","53214",43.028817,-88.059466
"53214","Milwaukee","WI","Sherwin-Williams Commercial Paint Store","4516 W Burnham St","53219",43.010663,-87.97006999999999
"53215","Milwaukee","WI","Menards","2101 Miller Park Way","53219",43.007052147550596,-87.96958896052186
"53215","Milwaukee","WI","Bliffert lumber","2128 W Morgan Ave","53221",42.9813719,-87.9408658
"53215","Milwaukee","WI","Quality Safe And Locksmith","2313 S 13th St","53215",43.002634,-87.92881899999999
"53215","Milwaukee","WI","Milwaukee Glass Block","3700 W Lincoln Ave","53215",43.003221999999994,-87.960764
"53216","Milwaukee","WI","Sherwin-Williams Paint Store","6330 W Capitol Dr","53216",43.090268,-87.99185899999999
"53217","Milwaukee","WI","Village Ace Hardware Inc","6240 N Port Washington Rd","53217",43.1303259,-87.912811
"53217","Milwaukee","WI","Gerhard's Kitchen & Bath Store","402 E Silver Spring Dr","53217",43.11874824,-87.90510518
"53217","Milwaukee","WI","Sherwin-Williams Paint Store","316 W Brown Deer Rd","53217",43.177055283512836,-87.91141748428345
"53217","Milwaukee","WI","Village Paint & Design","6246 N Port Washington Rd","53217",43.130334000000005,-87.912441
"53218","Milwaukee","WI","Home Plumbing Supply Co.","7828 W Appleton Ave","53218",43.097915,-88.009877
"53218","Milwaukee","WI","Sherwin-Williams Product Finishes","6125 W Douglas Ave","53218",43.128915,-87.988
"53218","Milwaukee","WI","Sherwin-Williams Commercial Paint Store","6121 W Douglas Ave","53218",43.128915,-87.988
"53219","Milwaukee","WI","New Life Tile And Stone","7743 W Cleveland Ave","53219",42.994336,-88.009335
"53219","Milwaukee","WI","asc1","6843 W Beloit Rd","53219",43.001799,-87.99852
"53219","Milwaukee","WI","Werner Electric Supply","5300 W Lincoln Ave","53219",43.003257751464844,-87.97927856445312
"53219","Milwaukee","WI","Plumbing Parts Plus","7637 W Beloit Rd","53219",42.995994,-88.008383
"53219","Milwaukee","WI","Sherwin-Williams Paint Store","5800 W Oklahoma Ave","53219",42.98878050683262,-87.98632621765137
"53220","Milwaukee","WI","The Vac Hut","5031 W Howard Ave","53220",42.973919,-87.977838
"53220","Milwaukee","WI","Hometown True Value","3937 S 76th St","53220",42.9720458984375,-88.00846099853516
"53220","Milwaukee","WI","Reliable Pressure Washing","4142 W Layton Ave","53221",42.959759000000005,-87.966491
"53221","Milwaukee","WI","Stein's Garden & Home","5400 S 27th St, Milwaukee","53221",42.946361,-87.947757
"53221","Milwaukee","WI","Bills Service Center","4421 S 13th St","53221",42.962270000000004,-87.929461
"53221","Milwaukee","WI","Sherwin-Williams Paint Store","4278 S 27th St","53221",42.967223,-87.947861
"53222","Milwaukee","WI","The Home Depot","4100 North 124th St","53222",43.091399,-88.065186
"53222","Milwaukee","WI","Lowe's","12000 West Burleigh Street","53222",43.0757566,-88.0631314
"53222","Milwaukee","WI","Lisbon Ave. Ace Hardware","8325 W Lisbon Ave","53222",43.08082962953348,-88.01695803356765
"53222","Milwaukee","WI","Gexpro","12221 W Feerick St","53222",43.08597748124157,-88.06458722212354
"53222","Milwaukee","WI","Kleenmark","3636 N 124th St","53222",43.08475875854492,-88.0655746459961
"53222","Milwaukee","WI","Lumbar Jack Shack","not_available","53222",43.07793045043945,-88.01360321044922
"53222","Milwaukee","WI","Sears","3203 N Mayfair Road","53222",43.07739690707445,-88.04979650336469
"53222","Milwaukee","WI","general vacuum","7448 West Capitol","53216",43.094319895514765,-88.02156415345706
"53222","Milwaukee","WI","Sherwin-Williams Paint Store","12132 W Capitol Dr","53222",43.08971702875457,-88.06398153305052
"53222","Milwaukee","WI","Integrity Small Engine Repair","4218 N 95th St","53222",43.09386444091797,-88.03107452392578
"53223","Milwaukee","WI","Menards","8110 W Brown Deer Rd","53223",43.180826622588356,-88.01089690530472
"53223","Milwaukee","WI","Minor's Garden Center","7777 N 76th St","53223",43.15838304982552,-88.00537790917859
"53223","Milwaukee","WI","Carlin Horticultural Supplies","8170 N Granville Woods Rd","53223",43.166176,-87.995388
"53223","Milwaukee","WI","John M. Ellsworth","8700 W Bradley Rd","53224",43.163623691170606,-88.01871974273966
"53223","Milwaukee","WI","minuteKEY","6300 W Brown Deer Rd","53223",43.17880630493164,-87.98822784423828
"53223","Milwaukee","WI","Martens Reliable True Value","8010 N 76th St","53223",43.163832,-88.003721
"53224","Milwaukee","WI","ProSource of Milwaukee","11725 W Bradley Rd","53224",43.161908000000004,-88.055832
"53225","Milwaukee","WI","Complete Lawn & Landscape Supply","9306 W Flagg Ave","53225",43.125064,-88.02833000000001
"53225","Milwaukee","WI","United P & H Supply Co","not_available","53225",43.121926,-88.036548
"53225","Milwaukee","WI","A F Seideman","4909 N 119th St","53225",43.107463,-88.061461
"53225","Milwaukee","WI","Foundation Building Materials","8840 West Flagg Avenue","53225",43.12528018,-88.0238503
"53226","Milwaukee","WI","Village Paint & Design","845 N Mayfair Rd","53226",43.04058837890625,-88.04740905761719
"53226","Milwaukee","WI","Kohler Signature Store By First Supply","2525 N Mayfair Rd","53226",43.06470489,-88.04853246
"53226","Milwaukee","WI","Stein's Garden & Home","12217 W Watertown Plank Rd","53226",43.04466,-88.064436
"53227","Milwaukee","WI","The Home Depot","11071 W National Ave","53227",42.9910955,-88.0496476
"53227","Milwaukee","WI","Menards","2535 W 108th St","53227",42.99826896052027,-88.04877255923287
"53227","Milwaukee","WI","Elliott Ace Hardware","11003 W Oklahoma Ave","53227",42.988314,-88.049577
"53227","Milwaukee","WI","Lincoln Contractors Supply, Inc.","11111 W Hayes Ave","53227",42.999883000000004,-88.051015
"53227","Milwaukee","WI","Ferguson Plumbing Supply","11406 W Rogers St","53227",43.00725988732181,-88.05671736495484
"53227","Milwaukee","WI","Hallman Lindsay Paint","2267 S 108th St","53227",43.003415000000004,-88.04782
"53227","Milwaukee","WI","Lincoln Contractor Supply Inc.","not_available","53227",43.000364265479995,-88.0379397176054
"53227","Milwaukee","WI","minuteKEY","2535 S 108th St","53227",42.99848175048828,-88.05011749267578
"53227","Milwaukee","WI","Sherwin-Williams Paint Store","11010 W National Ave","53227",42.992810999999996,-88.04924399999999
"53228","Milwaukee","WI","Stein's Garden & Home","3725 S 108th St","53228",42.976246,-88.048264
"53402","Racine","WI","Kortendick Ace Hardware","3806 Douglas Ave","53402",42.7675089,-87.802775
"53402","Racine","WI","Douglas Hardware & Rental","2030 Douglas Ave","53402",42.74645335618306,-87.79811692461335
"53402","Racine","WI","K D Innovations","not_available","53402",42.74387966063057,-87.78955469765512
"53402","Racine","WI","Apex Key And Lock","1600 Your St.","53404",42.746036529541016,-87.80059814453125
"53402","Racine","WI","CtreeTopUSA","2800 Anthony Ln","53404",42.75392532348633,-87.81194305419922
"53402","Racine","WI","Nelson Electric","926 State St","not_available",42.731895446777344,-87.79142761230469
"53403","Racine","WI","Menards","3101 S Oakes Rd","53177",42.69492940009017,-87.86959245751625
"53403","Racine","WI","The Home Depot","2429 S Green Bay Road","53406",42.701992413621596,-87.84964451898304
"53403","Racine","WI","Lee's True Value","1950 Taylor Ave","53403",42.706326695109105,-87.80999658276443
"53403","Racine","WI","sanders mautz paint","not_available","53403",42.72632509536105,-87.78649404451276
"53403","Racine","WI","Central Saw & Mower","2625 Lathrop Ave","53405",42.69937840808066,-87.82516721758401
"53403","Racine","WI","Stein's Garden & Home","6626 Washington Ave","53406",42.720086,-87.861671
"53403","Racine","WI","Hallman Lindsay","1344 Lathrop Ave","53405",42.71890393267264,-87.8399598830354
"53403","Racine","WI","C.H. Peters Co.","1214 16th St, Racine, WI 53403","53403",42.712737,-87.794543
"53403","Racine","WI","minuteKEY","3101 South Oakes Road","53177",42.694895,-87.866867
"53403","Racine","WI","Sherwin-Williams Paint Store","6229 Washington Ave","53406",42.718752,-87.857037
"53403","Racine","WI","Brannum Lumber","1720 Taylor Ave","53403",42.709913,-87.807683
"53403","Racine","WI","Harbor Freight Tools","2380 S Green Bay Rd","53406",42.70317077636719,-87.85299682617188
"53403","Racine","WI","Screwheads Decking","2711 Lathrop Ave Ste B","53405",42.698891,-87.825228
"53403","Racine","WI","Husqvarna US","1955 Norwood Ct","53403",42.68437576293945,-87.80406188964844
"53508","Belleville","WI","New Glarus Hardware","1420 State Highway 69","53574",42.80651098684137,-89.63233866867121
"53508","Belleville","WI","RJ plumming","not_available","53574",42.816733563705306,-89.63523919943957
"53511","Beloit","WI","Menards","2851 Milwaukee Rd","53511",42.52672885701349,-88.98295024184941
"53511","Beloit","WI","fastenal","2635 Prairie Ave","53511",42.54246139526367,-89.01119232177734
"53511","Beloit","WI","Sherwin-Williams Paint Store","2130 Sutler Ave","53511",42.52487455415844,-88.98902177810668
"53511","Beloit","WI","Harris Ace Hardware","430 Broad St","53511",42.498157,-89.03439499999999
"53511","Beloit","WI","SnapNStrut","1238 E Inman Pkwy Ste A","53511",42.5534498,-89.020099
"53511","Beloit","WI","Harris Ace Hardware","1878 Elmwood Ave","53511",42.541581,-89.012828
"53515","Black Earth","WI","Saeman Lumber","1923 Market St","53528",43.114087,-89.661142
"53517","Blue Mounds","WI","T&J Landscaping","10288 County Highway Id","53517",43.00739110556011,-89.7802899225932
"53518","Blue River","WI","Walsh's Ace Hardware","115 W Nebraska Street","53573",43.185287,-90.443123
"53520","Brodhead","WI","Gasser True Value","105 23rd St","53520",42.608762,-89.36749
"53520","Brodhead","WI","Celebrating 64 Years Of Proven Performance","202 17th St","53520",42.61363841410741,-89.37015295028685
"53520","Brodhead","WI","Orfordville Lumber Inc","602 West Brodhead Street","53576",42.630083,-89.263986
"53521","Brooklyn","WI","Dave's Evansville Ace Hardware","755 Brown School Rd","53536",42.779415,-89.27088
"53523","Cambridge","WI","Ace Hardware","200 Commerce Ave","53523",43.009588,-89.01956899999999
"53525","Clinton","WI","Hahns Ace Hardware","252 Allen St","53525",42.55501937866211,-88.86309051513672
"53527","Cottage Grove","WI","Ace Hardware","not_available","53558",43.00998103089944,-89.2267436939248
"53527","Cottage Grove","WI","Northern Battery","235 Bonnie Rd","53527",43.07863,-89.206038
"53527","Cottage Grove","WI","Ace Hdw of Cottage Grove","203 W Cottage Grove Rd","53527",43.070247,-89.202612
"53528","Cross Plains","WI","Husqvarna US","1113 Main St","53528",43.11465835571289,-89.65937805175781
"53528","Cross Plains","WI","Tailored Living featuring Premier Garage","7324 W Old Sauk Rd","53562",43.075052,-89.55588399999999
"53529","Dane","WI","Ace Hardware","205 S Century Ave","53597",43.190283,-89.461819
"53529","Dane","WI","Waunakee Rental","306 Moravian Valley Rd","53597",43.185742,-89.434432
"53529","Dane","WI","Husqvarna US","801 S Division St","53597",43.186439514160156,-89.44815063476562
"53530","Darlington","WI","Mathys Hardware","121 Pelco Dr","53530",42.668788,-90.130685
"53530","Darlington","WI","GCR Firestone","not_available","53530",42.66148718513556,-90.1258157834115
"53532","Deforest","WI","Menards","355 S Grand Ave","53590",43.17329351138239,-89.26281188850226
"53532","Deforest","WI","Fleet Farm","4630 Dalmore Road","53532",43.197024715103275,-89.35090429899252
"53532","Deforest","WI","Lumber Liquidators, Inc.","2255 McCoy Rd","53590",43.17333861917767,-89.2514486507165
"53532","Deforest","WI","Ace Deforest","811 S Main St","53532",43.238247,-89.34361
"53532","Deforest","WI","Sherwin-Williams Paint Store","120 N Thompson Rd","53590",43.17732869,-89.25496063
"53532","Deforest","WI","Tri-Good Plywood","not_available","53532",43.26583480834961,-89.32059478759766
"53532","Deforest","WI","Chase Lumber","2175 McCoy Rd","53590",43.173572,-89.250509
"53532","Deforest","WI","Brooks Tractor","1900 W Main St","53590",43.177673,-89.245242
"53532","Deforest","WI","Reynolds Rigging & Crane Service","4981 Cake Parkway","53532",43.243873596191406,-89.37985229492188
"53532","Deforest","WI","minuteKEY","1099 S Grand Ave","53590",43.16475296020508,-89.26689147949219
"53532","Deforest","WI","Prairie Power Center","666 South Thompson Road","53590",43.1693402,-89.25967630000002
"53533","Dodgeville","WI","Wacker Neuson","not_available","53533",42.981895,-90.102413
"53533","Dodgeville","WI","True Value","167 N Iowa St","53533",42.960931,-90.129981
"53534","Edgerton","WI","Deegan's Hardware","1025 N Main St","53534",42.845315,-89.05833100000001
"53538","Fort Atkinson","WI","Watsons ACE hardware","Main Street","not_available",42.991896789715206,-88.81727026925344
"53538","Fort Atkinson","WI","Sherwin Williams","not_available","53538",42.942975,-88.863199
"53538","Fort Atkinson","WI","Sherwin-Williams Paint Store","1608 Madison Ave","53538",42.94295883178711,-88.86309051513672
"53538","Fort Atkinson","WI","Goyer Ace","10 Madison Ave","53538",42.93079,-88.839299
"53545","Janesville","WI","Menards","2001 Morse St","53545",42.72505714450899,-88.99703281263182
"53545","Janesville","WI","City Electric Supply Janesville","3032 McCormick Dr","53546",42.7408366,-88.9822741
"53545","Janesville","WI","The Home Depot","3200 Deerfield Drive","53546",42.7201120363085,-88.98207485675812
"53545","Janesville","WI","Dave's Milton Ace Hardware Inc","430 S John Paul Rd","53563",42.7804199,-88.95804
"53545","Janesville","WI","K&W Greenery","1328 E US Highway 14","53545",42.72255689936715,-89.00811677928871
"53545","Janesville","WI","Harbor Freight","2604 Humes Rd","53545",42.717029,-88.990837
"53545","Janesville","WI","Sherwin-Williams Paint Store","1504 Refset Dr","53545",42.71156317581614,-89.00449275970459
"53545","Janesville","WI","Janesville Rental","2834 N Pontiac Dr","53545",42.71705627441406,-88.98900604248047
"53545","Janesville","WI","Werner Electric Supply","1000 N Parker Dr","53545",42.69641761432684,-89.02946314020242
"53545","Janesville","WI","Harris Ace Hardware","2720 E Milwaukee St","53545",42.695582,-88.986013
"53545","Janesville","WI","Harris Ace Hardware","200 S River St","53548",42.6791229,-89.022711
"53545","Janesville","WI","G & G Rooter","not_available","53545",42.73522435946294,-89.04157161712646
"53545","Janesville","WI","Quigley-Smart","600 E Memorial Dr","53545",42.693486,-89.019777
"53545","Janesville","WI","Marling lumber","634 S River St, Janesville, WI 53548","53548",42.673439,-89.01660799999999
"53545","Janesville","WI","Marling Lumber and HomeWorks","1138 Humes Rd","53545",42.722527890851445,-89.01055455207825
"53545","Janesville","WI","Fastenal","626 N Main St","53545",42.689956,-89.028437
"53545","Janesville","WI","minuteKEY","3252 Morse Street","53545",42.7225366,-88.9952441
"53546","Janesville","WI","SOUTHSIDE TRUE VALUE HARDWARE","1516 Center Ave","53546",42.65827560424805,-89.03169250488281
"53546","Janesville","WI","marling lumber co.","534 S River St","53548",42.65154549860255,-89.04760207678328
"53551","Lake Mills","WI","Watson Ace Hardware","142 E Tyranena Park Rd","53551",43.089321999999996,-88.907787
"53555","Lodi","WI","Koltes Lumber of Lodi","902 N Main St","53555",43.325531005859375,-89.53781127929688
"53558","Mcfarland","WI","Menards","6401 Copps Ave","53716",43.04949508304037,-89.31180757388513
"53558","Mcfarland","WI","McFarland True Value","5210 Farwell St","53558",43.01337824002682,-89.2956057122955
"53558","Mcfarland","WI","viking electric supply","5265 Femrite Dr","53718",43.050782,-89.289722
"53558","Mcfarland","WI","Hallman Lindsay Paints","4516 E Broadway","53716",43.048687,-89.305402
"53558","Mcfarland","WI","Sherwin-Williams Floorcovering Store","5241 Femrite Dr","53718",43.050782,-89.289722
"53558","Mcfarland","WI","Woodcraft","6594 Monona Dr","53716",43.04626933282754,-89.321808614192
"53558","Mcfarland","WI","Ferguson Plumbing Supply","4505 Triangle St","53558",43.0329594209334,-89.2989578799017
"53558","Mcfarland","WI","Tundraland Home Improvements","4705 Triangle St","53558",43.030548095703125,-89.29834747314453
"53558","Mcfarland","WI","Foundation Building Materials","4412 Terminal Drive","53558",43.0329844,-89.30393227
"53558","Mcfarland","WI","Chase Lumber","not_available","53527",43.01334171529684,-89.2878527956496
"53559","Marshall","WI","Do It Best Neitzel Hardware","main st","53594",43.1782373126851,-89.00389054758767
"53559","Marshall","WI","Hellenbrands Ace Hardware","104 E Main St","53559",43.167168,-89.064021
"53560","Mazomanie","WI","McFarlanes' Retail & Service Center","780 Carolina St","53583",43.268947923093336,-89.73378158608125
"53560","Mazomanie","WI","Hardware Hank","not_available","53560",43.171415,-89.79522800000001
"53562","Middleton","WI","Ace Hilldale","414 N Midvale Blvd","53705",43.0707519,-89.451386
"53562","Middleton","WI","Sherwin-Williams Paint Store","8301 Murphy Dr","53562",43.098164,-89.523794
"53562","Middleton","WI","Hallman Lindsay Paints","1970 Cayuga St","53562",43.096308,-89.514912
"53562","Middleton","WI","Wolff Kubly Middleton Ace","6305 University Ave","53562",43.0921889,-89.490362
"53562","Middleton","WI","MDW Industrial Supply co.","825 N Gammon Rd Apt B","53717",43.07969284057617,-89.50108337402344
"53562","Middleton","WI","Crescent Electric","8379 Murphy Dr","53562",43.098884000000005,-89.52707099999999
"53562","Middleton","WI","Middleton Co-op.","1755 Pleasant View Rd","53562",43.0938,-89.534182
"53562","Middleton","WI","City Electric Supply Madison West","8810 N Greenview Dr","53562",43.099339742779385,-89.54080380499363
"53562","Middleton","WI","Builders FirstSource","1987 Pleasant View Rd","53562",43.095631,-89.53294
"53562","Middleton","WI","Ace Hardware","2540 Allen Blvd","53562",43.10224914550781,-89.48725891113281
"53565","Mineral Point","WI","Ridge Lumber","not_available","53565",42.87195,-90.17313
"53565","Mineral Point","WI","MITCHELL TRUE VALUE HDW.","250 High St","53565",42.860267639160156,-90.18075561523438
"53566","Monroe","WI","Harris Ace Hardware","105 7 1/2 St","53566",42.60466,-89.66083
"53566","Monroe","WI","Builders FirstSource","W5395 County Dr","53566",42.617908281719124,-89.62812781333922
"53572","Mount Horeb","WI","Viking True Value Hardware","1240 Springdale St","53572",43.01065388448031,-89.72488057592338
"53572","Mount Horeb","WI","Mt Horeb Lumber-Do It Center","Main St","53572",43.00597379726146,-89.74830136888043
"53572","Mount Horeb","WI","Premier Cooperative/ Do it Best","501 W Main St","53572",43.00567626953125,-89.74872589111328
"53573","Muscoda","WI","Sears","1515 Bohmann Dr.","53581",43.3208843,-90.3777479
"53573","Muscoda","WI","Walsh's Ace Hardware","1525 Bohmann Dr","53581",43.320923,-90.377719
"53573","Muscoda","WI","Tractor Supply Co.","195 Richland Sq","53581",43.31709018850801,-90.36056626983645
"53575","Oregon","WI","Dorn True Value Hardware","131 W Richards Rd","53575",42.93921151717213,-89.38416059678796
"53577","Plain","WI","Ederer Do It Best","E5663 County Road B #A","not_available",43.27214857265338,-90.04827663758371
"53577","Plain","WI","Ederer's Do It Center","not_available","53577",43.280000085328005,-90.0443240083825
"53578","Prairie Du Sac","WI","Ace Sauk Prairie","500 Water St","53583",43.275266,-89.720623
"53581","Richland Center","WI","Yuba Mill","not_available","53581",43.48098656573935,-90.36873242141404
"53588","Spring Green","WI","Hardware Hank","116 E Jefferson Street","53588",43.17677919888101,-90.06856591743069
"53589","Stoughton","WI","Ace Hardware","3188 Deer Point Dr","53589",42.928171,-89.25219
"53589","Stoughton","WI","Tractor Supply Co","1800 Us Hwy 51 And 138","53589",42.91941604797308,-89.24287676811218
"53589","Stoughton","WI","Aslesons True Value Hardware","1415 U S Hwy 51","53589",42.917967539415756,-89.23698907139132
"53589","Stoughton","WI","Price and Quality Gutters LLC","872 Norman Dr","53589",42.9576416015625,-89.28556060791016
"53590","Sun Prairie","WI","Dorn True Value Hardware","926 Windsor St","53590",43.1882006678685,-89.22905577455928
"53590","Sun Prairie","WI","City Electric Supply Sun Prairie","715 Progress Way","53590",43.20386988780573,-89.19665329155079
"53590","Sun Prairie","WI","All Clear Plumbing, LLC","112 E Kohler St","53590",43.193000793457,-89.2105331420898
"53593","Verona","WI","Menards","430 Commerce Dr","53719",43.05878689406014,-89.52497189480523
"53593","Verona","WI","Verona Ace Hardware","119 W Verona Ave","53593",42.9897947,-89.5347719
"53593","Verona","WI","Ace Hardware","5726 Raymond Rd","53711",43.032472999999996,-89.478239
"53593","Verona","WI","minuteKEY","725 S Gammon Rd","53719",43.048885345458984,-89.50181579589844
"53593","Verona","WI","Sherwin-Williams Paint Store","422 E Verona Ave","53593",42.992385,-89.528784
"53593","Verona","WI","Mautz Paint","6701 Odana Rd","53719",43.056244,-89.49718399999999
"53593","Verona","WI","Sherwin-Williams Paint Store","6807 Odana Rd","53719",43.056169,-89.499126
"53597","Waunakee","WI","North Side True Value Hardware","2935 N Sherman Ave","53704",43.12893355074391,-89.36112321643743
"53703","Madison","WI","Messner","not_available","53703",43.088181,-89.365854
"53703","Madison","WI","Ace Hardware Center","1398 Williamson St","53703",43.0857389,-89.360772
"53703","Madison","WI","The Pumping Co.","208 W Gorham St","53703",43.074935252468954,-89.39165704949136
"53703","Madison","WI","Sherwin-Williams Paint Store","1884 E Washington Ave","53704",43.092375,-89.36100400000001
"53703","Madison","WI","Bill's Key Shop","536 University Ave","53703",43.073361,-89.39525400000001
"53703","Madison","WI","Old Mautz Paint","411 S Paterson St","53703",43.079294,-89.369128
"53704","Madison","WI","The Home Depot","2425 E Springs Dr","53704",43.132186,-89.2957762
"53704","Madison","WI","Sears","43 E Towne Mall","53704",43.12381435,-89.30630023
"53704","Madison","WI","ADC Lock & Key","not_available","53704",43.106875367374215,-89.3529249240251
"53704","Madison","WI","Home acres building supply","925 walsh rd","not_available",43.11167,-89.30795
"53704","Madison","WI","Grainger Industrial Supply","501 Atlas Ave","53714",43.089948,-89.31097
"53704","Madison","WI","minuteKEY","3817 Milwaukee St","53714",43.096969,-89.319062
"53704","Madison","WI","Irby","26 Transport Ct","53704",43.162596,-89.31260400000001
"53704","Madison","WI","Gutter Guard","not_available","53714",43.11103862451594,-89.30987651977718
"53704","Madison","WI","minuteKEY","2102 East Springs Dr","53704",43.127507,-89.295378
"53704","Madison","WI","Dorn True Value Hardware","1151 N Sherman Ave","53704",43.11246464448679,-89.36232640488483
"53704","Madison","WI","Crescent Electric Supply Company","not_available","53562",43.115107872015734,-89.33012344496468
"53704","Madison","WI","Martin Glass","2323 Atwood Ave","53704",43.093393,-89.347426
"53706","Madison","WI","Capital Lock","1302 Regent St","53715",43.06816101074219,-89.40778350830078
"53711","Madison","WI","The Home Depot","4550 Verona Rd","53711",43.03635239485459,-89.45731401443481
"53711","Madison","WI","Madison Woodworkers Supply","not_available","53713",43.034735541304926,-89.40240081030852
"53711","Madison","WI","Quality True Value Hardware","1201 S Park St","53715",43.05384,-89.395992
"53711","Madison","WI","City Electric Supply Madison East","4521 Helgesen Dr","53718",43.0657805,-89.305271
"53711","Madison","WI","The Tool Kit","not_available","53705",43.045718865223705,-89.39767777919769
"53711","Madison","WI","Sherwin-Williams Commercial Paint Store","1009 Applegate Rd","53713",43.034013,-89.39960500000001
"53711","Madison","WI","A To Z Rent All And Sales","2209 S Stoughton Rd","53718",43.066175,-89.308088
"53711","Madison","WI","Werner Electric Supply","4428 Pflaum Rd.","53716",43.062901000000004,-89.306882
"53711","Madison","WI","Industrial Controls","1018 Stewart St","53713",43.03036289387956,-89.4008379861799
"53711","Madison","WI","Sherwin-Williams Paint Store","2030 S Stoughton Rd","53716",43.07003207803554,-89.31056499481201
"53711","Madison","WI","Capital Builders","6400 Gisholt Dr Ste 105","53713",43.04503631591797,-89.347412109375
"53711","Madison","WI","Brunsell Lumber","not_available","53711",43.0385908008734,-89.45801228939777
"53711","Madison","WI","Wingra Direct","2830 Progress Rd","53716",43.056339,-89.30481
"53711","Madison","WI","Harbor Freight Tools","4617 Verona Rd","53711",43.0337967204402,-89.4544447338208
"53711","Madison","WI","ProSource of Madison","2911 Marketplace Dr Ste A","53719",43.01055,-89.45882900000001
"53711","Madison","WI","Dorn True Value Hardware","1348 S Midvale Blvd","53711",43.03787137180228,-89.45291903110072
"53713","Madison","WI","United Refrigeration","1011 Stewart St","53713",43.029792,-89.400986
"53713","Madison","WI","Badgerland Supply","809 Watson Avenue","53713",43.0279302,-89.3952584
"53713","Madison","WI","Graybar Electrical","1301 W Badger Rd","53713",43.038107000000004,-89.40593
"53713","Madison","WI","Alside","2922 Syene Rd, Madison, WI 53713","53713",43.03147888183594,-89.39476776123047
"53716","Madison","WI","Ace Lakeside","209 Cottage Grove Rd","53716",43.0835999,-89.3229
"53716","Madison","WI","Advanced Fastening Supply","2201 Advance Rd, Madison, WI 53718","53718",43.065852,-89.302534
"53716","Madison","WI","Bachman Construction","1201 S Stoughton Rd","53716",43.07774998825328,-89.3097977360899
"53716","Madison","WI","Equipment Depot","4519 Helgesen Dr","53718",43.06566153920133,-89.30536352474519
"53804","Bloomington","WI","Hermsens Ace Hardware","447 Canal Street","53804",42.88304138183594,-90.92498779296875
"53805","Boscobel","WI","Boscobel Lumber","not_available","53805",43.13144279985439,-90.7101302185766
"53805","Boscobel","WI","Gasser True Value Hardware","1704 Elm St","53805",43.12495422363281,-90.7077407836914
"53806","Cassville","WI","Husqvarna US","4887 Lynn Hollow Ln","53820",42.68206024169922,-90.81864929199219
"53806","Cassville","WI","Great River Hardware Hank","202 E Amelia","53806",42.7135884,-90.9896002
"53807","Cuba City","WI","GASSER TRUE VALUE","3920 N Percival St","53811",42.543975830078125,-90.43768310546875
"53809","Fennimore","WI","World of Variety","280 Lincoln Ave","53809",42.98947525024414,-90.65631866455078
"53811","Hazel Green","WI","Fastenal","2040 Kerper Blvd","52001",42.515585,-90.654507
"53813","Lancaster","WI","Gasser True Value","1509 Hwy 61 N","53813",42.86137,-90.7095831
"53813","Lancaster","WI","Gasser True Value","1509 US Highway 61","53813",42.861419677734375,-90.69233703613281
"53818","Platteville","WI","Menards","1700 Progressive Pkwy","53818",42.735421607061,-90.44146462887345
"53818","Platteville","WI","Sherwin-Williams Paint Store","1741 Progressive Pkwy","53818",42.73369556,-90.44079959
"53818","Platteville","WI","Builders FirstSource","100 E Side Rd","53818",42.73219129883433,-90.45744866150926
"53818","Platteville","WI","Heiser Ace Hardware","180 E Main St","53818",42.734482,-90.480112
"53818","Platteville","WI","Platteville Auto Supply","not_available","53818",42.72798156738281,-90.4712905883789
"53821","Prairie Du Chien","WI","Tractor Supply Co.","20 Riverside Sq Ste 1","53821",43.02706527709961,-91.12796783447266
"53821","Prairie Du Chien","WI","Nelson True Value","125 N Marquette Rd","53821",43.0527675000996,-91.1410374776795
"53901","Portage","WI","Tractor Supply Co.","3033 Cth Cx","53901",43.574623,-89.468362
"53901","Portage","WI","Stock + Field","not_available","53901",43.570296,-89.467495
"53901","Portage","WI","Portage Lumber","1009 S Wisconsin","not_available",43.53497937,-89.447079
"53901","Portage","WI","Husqvarna US","1110 Thompson St","53901",43.53460693359375,-89.4438705444336
"53901","Portage","WI","Portage Lumber Do It Best","1009 E Wisconsin St","53901",43.53512191772461,-89.44633483886719
"53901","Portage","WI","Walsh's Ace Hardware","2727 New Pinery Rd","53901",43.5636,-89.4697
"53901","Portage","WI","minuteKEY","2950 New Pinery Rd","53901",43.570831,-89.4725349
"53910","Adams","WI","Ace of Adams","225 W North St","53910",43.965919494628906,-89.82003784179688
"53913","Baraboo","WI","Menards","1040 US Highway 12","53913",43.45559908596644,-89.77135427323306
"53913","Baraboo","WI","The Home Depot","136 Commerce Street","53940",43.5850813,-89.8100635
"53913","Baraboo","WI","Carpenter Glass","not_available","53913",43.4877768706776,-89.74083117403775
"53913","Baraboo","WI","Sherwin-Williams Paint Store","614 State Road 136","53913",43.47500991821289,-89.77144622802734
"53913","Baraboo","WI","Direct Tools Factory Outlet","210 Gasser Rd Ste 1150","53913",43.573109,-89.786105
"53913","Baraboo","WI","CR Roof Systems","E12693 County Road U","53913",43.53826714781189,-89.69038724899292
"53916","Beaver Dam","WI","Menards","121 Frances Ln","53916",43.48857823763061,-88.80754939663593
"53916","Beaver Dam","WI","neuman pools",".","not_available",43.44453709657633,-88.85961205653238
"53916","Beaver Dam","WI","Sears","1645 N. Spring St.","53916",43.47484889462327,-88.82166309325407
"53916","Beaver Dam","WI","Taylor Rental Center","1321 N Spring St","53916",43.46885299682617,-88.82853698730469
"53916","Beaver Dam","WI","Sherwin-Williams Paint Store","1633 N Spring St","53916",43.475211913772874,-88.82377898277726
"53916","Beaver Dam","WI","Fastenal","not_available","53916",43.476907,-88.810595
"53916","Beaver Dam","WI","a-1 tri-county vacuum","312 S Spring St","53916",43.453729870453394,-88.83706824975756
"53919","Brandon","WI","Stellmacher Lumber","not_available","53931",43.743531,-88.865899
"53919","Brandon","WI","BLUEMKES TRUE VALUE HDWE","101 W Division St","54974",43.80738067626953,-88.6754379272461
"53919","Brandon","WI","Derksen Implement","not_available","53963",43.68447,-88.679265
"53925","Columbus","WI","Columbus True Value","815 Park Ave","53925",43.33285619,-89.02107211
"53925","Columbus","WI","Columbus Sentry & Ace","150 Commerce Dr","53925",43.3487434387207,-89.0384292602539
"53941","La Valle","WI","Hartje Farm Home & Sports","S 1428 A Hwy 33","53941",43.5930052726866,-90.12587041013586
"53941","La Valle","WI","Hartje Lumber","not_available","53941",43.58187190864334,-90.12872597116721
"53944","Lyndon Station","WI","City of Wisconsin Dells Light and Water Base","not_available","53965",43.64434476725207,-89.81322093188356
"53946","Markesan","WI","Markesan Lumber","1195 N Margaret St","53946",43.722512,-88.991323
"53946","Markesan","WI","PROPLOWING","not_available","53946",43.70690433361975,-88.99046440352897
"53948","Mauston","WI","Mauston True Value Hardware","601 N Union St","53948",43.803932189941406,-90.07102966308594
"53948","Mauston","WI","Husqvarna US","PO Box 118","53948",43.79497146606445,-90.06329345703125
"53948","Mauston","WI","Lampert Lumber - Mauston","804 N Union St.","53948",43.80812,-90.0705478
"53948","Mauston","WI","lampert's","not_available","53948",43.80794367669447,-90.07072818585374
"53949","Montello","WI","TRUE VALUE HOLLIDAY SHPG CTR","326 Main St","53949",43.783935546875,-89.32527160644531
"53952","Oxford","WI","The Eco Hub","132 West Ormsby Street Hwy 82","53952",43.781803131103516,-89.5738296508789
"53952","Oxford","WI","Virchs True Value","220 S Main St","53964",43.884952545166016,-89.49295806884766
"53952","Oxford","WI","BORUD'S TRUE VALUE HARDWARE","548 W ORMSBY ST","53952",43.782386779785156,-89.58257293701172
"53955","Poynette","WI","POYNETTE TRUE VALUE","W7960 COUNTY CS & Q #51","53955",43.395851135253906,-89.39567565917969
"53956","Randolph","WI","Randolph Do It Best","not_available","53925",43.55537347612192,-89.00707702090399
"53959","Reedsburg","WI","Ace Hardware","S. Park St.","53959",43.53244386639627,-89.99477454792213
"53959","Reedsburg","WI","Meister Log & Lumber","1440 Laukant St","53959",43.521774,-89.987414
"53959","Reedsburg","WI","Martens Reedsburg True Value","100 Viking Dr","53959",43.53367663475549,-89.98207598263166
"53959","Reedsburg","WI","Slama's Lawn & Sport","not_available","53959",43.531856233923314,-89.98699538375045
"53959","Reedsburg","WI","Sears","55 Viking Drive","53959",43.53362,-89.985562
"53963","Waupun","WI","waupun feed and seed","W1797 Hwy 49","53963",43.63280572874596,-88.76010270355266
"53963","Waupun","WI","Tractor Supply Co.","1120 West Main St","53963",43.634084,-88.762202
"53963","Waupun","WI","Vanderkin Plumbing","20 W Main St","53963",43.633437,-88.736079
"53963","Waupun","WI","Martens Ace Hardware","1100 W Main St","53963",43.633907318115234,-88.76042938232422
"53965","Wisconsin Dells","WI","Ace Hardware","931 Michigan Ave","53965",43.630462646484375,-89.7634048461914
"53965","Wisconsin Dells","WI","Steffes True Value Hardware","727 Superior St","53965",43.62705546,-89.77575594
"54001","Amery","WI","Clear Lake True Value","530 3rd Ave Nw","54005",45.254906,-92.271132
"54001","Amery","WI","Tractor Supply","not_available","54024",45.39582061767578,-92.4663314819336
"54001","Amery","WI","Amerytruevalue","1080 Riverplace Mall","54001",45.29269027709961,-92.36408996582031
"54001","Amery","WI","Lampert Lumber - Amery","201 Keller Ave S","54001",45.310434,-92.361453
"54002","Baldwin","WI","Gregerson Ace Hardware","880 Cedar St","54002",44.95653,-92.37359
"54009","Dresser","WI","Menards","1251-1299 208th St","54024",45.395904029698876,-92.58668045194908
"54009","Dresser","WI","Tractor Supply Co.","2179 Us Hwy 8 Ste 1","54024",45.399619,-92.607282
"54009","Dresser","WI","minuteKEY","1285 208th St","54024",45.39560317993164,-92.58758544921875
"54009","Dresser","WI","Tractor Supply","not_available","54009",45.39083480834961,-92.65595245361328
"54009","Dresser","WI","C-Aire Compressors","380 W 1st St","54009",45.35691011215147,-92.63834953308105
"54011","Ellsworth","WI","True Value Hardware","137 E Main St","54011",44.73117224,-92.47682445
"54013","Glenwood City","WI","Glenwood Hardware","147 East Oak Street","54013",45.05855963333333,-92.17071493333333
"54016","Hudson","WI","Menards","1400 Gateway Blvd","54016",44.95633495958927,-92.7224843586327
"54016","Hudson","WI","The Home Depot","2330 Crest View Drive","54016",44.95791998840074,-92.72435188293463
"54016","Hudson","WI","Sherwin-Williams Paint Store","2208 Webster St","54016",44.959739685058594,-92.72846984863281
"54016","Hudson","WI","Sears","1660 Commerce Court","54022",44.8775904,-92.6256584
"54016","Hudson","WI","J.H. Parson","901 Okeefe Rd","54016",44.960851,-92.73227
"54016","Hudson","WI","Austin Hardware & Supply, Inc.","581 County Road a #C","54016",44.991868966311905,-92.68580317497253
"54016","Hudson","WI","Ferguson Plumbing Supply","639 Brakke Dr","54016",44.967987060546875,-92.6739273071289
"54017","New Richmond","WI","B&J Do It Best Hardware","414 Main St","54025",45.12289556,-92.67964635
"54017","New Richmond","WI","Doyle's Farm & Home Ace","560 Deere Dr","54017",45.135355,-92.530812
"54017","New Richmond","WI","Builders FirstSource","606 N Knowles Ave","54017",45.12848161787561,-92.5356987118721
"54017","New Richmond","WI","Larson's Hardware","not_available","54017",45.122326,-92.538001
"54017","New Richmond","WI","Tamarack Materials","901 North Knowles Avenue","54017",45.1312159,-92.53796194
"54020","Osceola","WI","Bill's Ace Hardware","202 Chieftain Street","54020",45.3206539,-92.704498
"54021","Prescott","WI","Tractor Supply Co.","1445 North Acres Rd","54021",44.762512694881714,-92.7930435550323
"54022","River Falls","WI","River Falls Ace Hdwe","1163 N Main St","54022",44.8730529,-92.621956
"54023","Roberts","WI","Hackman Town And  Country","not_available","54023",44.970189000000005,-92.557292
"54024","Saint Croix Falls","WI","Hardware Hank","606-700 W Main St","54810",45.45277485896239,-92.46493914808521
"54024","Saint Croix Falls","WI","Luck Do It Best Hardware","Main street","54853",45.57535,-92.48222
"54024","Saint Croix Falls","WI","Husqvarna US","PO Box 281","54858",45.52212905883789,-92.48492431640625
"54024","Saint Croix Falls","WI","Miltown Hardware","not_available","54858",45.526511,-92.505433
"54101","Abrams","WI","Waste Oil Doctor","1819 Gary Alberts Ln","54171",44.738328,-88.1427
"54102","Amberg","WI","Mathis Hardware & Lumber Inc","W7960 Amberg St","54102",45.5049468,-87.990786
"54107","Bonduel","WI","Rosin Woodwork","408 Mueller Dr","54107",44.731597,-88.437063
"54110","Brillion","WI","Gravely","1555 W Ryan St","54110",44.189668,-88.095688
"54110","Brillion","WI","Hardware Plus","not_available","54110",44.175810999999996,-88.065603
"54110","Brillion","WI","Ariens","655 W Ryan St","54110",44.181301,-88.074211
"54112","Coleman","WI","Rouse Heating & Cooling","not_available","54114",45.075188,-88.03396
"54114","Crivitz","WI","Witt's Ace Hardware","214 N US Highway 141","54114",45.228524,-87.995705
"54114","Crivitz","WI","Jc Powersports, LLC","404 N US Highway 141","54114",45.2292648,-87.9966256
"54114","Crivitz","WI","Tarmann Installations","N4171 Alpine Ln","54161",45.218074,-87.873569
"54115","De Pere","WI","Menards","2501-2599 Steffens Ct","54311",44.46699766680815,-87.95588934113673
"54115","De Pere","WI","Menards","1313 Lawrence Dr","54115",44.43492590132268,-88.10103592699515
"54115","De Pere","WI","The Home Depot","2595 Eaton Rd","54311",44.4632451,-87.9527778
"54115","De Pere","WI","Grainger","not_available","54304",44.49364425190861,-88.05579403039401
"54115","De Pere","WI","Martin Hardware","1949 E Mason St","54302",44.490864,-87.976563
"54115","De Pere","WI","Harbor Freight Tools","1301 Brosig St","54311",44.47708417035539,-87.96685571275935
"54115","De Pere","WI","The Power Tool Store","975 Parkview Rd","54304",44.466216,-88.086371
"54115","De Pere","WI","Lumber Liquidators, Inc.","1452 Mid Valley Dr","54115",44.43910050391832,-88.10061903798777
"54115","De Pere","WI","Carpet Cushions","2863 Allied St","54304",44.473208,-88.081098
"54115","De Pere","WI","Molding & Millwork","not_available","54115",44.4597022910628,-88.12763493046909
"54115","De Pere","WI","minuteKEY","2560 Steffens Ct","54311",44.4662971496582,-87.9563217163086
"54115","De Pere","WI","Badgerland Supply","1414 Builders Court","54115",44.41021774,-88.10848528
"54115","De Pere","WI","Motion Industries","not_available","54313",44.48832702636719,-88.10057067871094
"54115","De Pere","WI","Airgas","not_available","54311",44.477004675603155,-87.9281875289068
"54115","De Pere","WI","Wash World Parts & Services","1755 E Matthew Dr","54115",44.444856,-88.08844233333333
"54115","De Pere","WI","Ace Hardware Ridge Rd","2110 S Ridge Rd","54304",44.49721,-88.06802
"54115","De Pere","WI","Comfort Control Systems Inc","1550 Mid Valley Drive","54115",44.43579,-88.10506
"54115","De Pere","WI","Depere True Value Hardware","1045 N Broadway","54115",44.43953633,-88.05921705
"54115","De Pere","WI","Jonas Service & Supply","700 Coronis Cir","54304",44.45930862426758,-88.07791137695312
"54115","De Pere","WI","Mid-State Supply","1782 Mid Valley Dr","54115",44.42799266322384,-88.12088038495769
"54121","Florence","WI","Pat's Foods","1000 Central Ave","54121",45.923442,-88.256773
"54121","Florence","WI","Rocconi's","Stephenson","49802",45.79253405,-88.07668325
"54121","Florence","WI","Control Supply","not_available","49802",45.79445266723633,-88.07369232177734
"54121","Florence","WI","Husqvarna US","W889 County Rd N","54151",45.78553771972656,-88.10453033447266
"54121","Florence","WI","Dickinson True Value Home Center","1500 W Breitung Ave","49802",45.79689,-88.08728
"54121","Florence","WI","Werner Electric Supply","1400 W Breitung Ave","49802",45.796938,-88.08705
"54121","Florence","WI","Kingsford True Value Hardware","555 S Carpenter Ave","49802",45.802799224853516,-88.0698471069336
"54124","Gillett","WI","Wolfe Endeavors","not_available","54124",44.876773953437805,-88.260377
"54124","Gillett","WI","Meuniers True Value","131 Main St","54124",44.890668,-88.305638
"54130","Kaukauna","WI","Hardware Hank","2001 E Main St","54140",44.284779,-88.289739
"54130","Kaukauna","WI","Total Tool","215 Allegiant Ct","54913",44.299128,-88.315019
"54130","Kaukauna","WI","Tractor Supply Co.","W3098 County Rd Kk","54915",44.24449,-88.345088
"54130","Kaukauna","WI","Husqvarna US","400 E Ann St","54130",44.25994873046875,-88.27001953125
"54130","Kaukauna","WI","Husqvarna US","534 S Washington St","54136",44.263057708740234,-88.32469177246094
"54130","Kaukauna","WI","Salm Plumbing Inc","N1836 River Forest Dr","54130",44.304155,-88.226155
"54130","Kaukauna","WI","Carstens Ace Hardware Inc","400 East Ann St","54130",44.259716999999995,-88.270066
"54130","Kaukauna","WI","Tundraland Home Improvements","2277 W 41 Frontage Road","54130",44.32119487,-88.22004937
"54130","Kaukauna","WI","Ace Hardware","390 E County Trunk Ce","54130",44.258758544921875,-88.27059936523438
"54130","Kaukauna","WI","Sherwin-Williams Paint Store","3165 W Springfield Dr","54915",44.246421000000005,-88.347229
"54138","Lakewood","WI","Ace Hardware","17173 Saint Marys Rd","54138",45.30038833618164,-88.51979064941406
"54139","Lena","WI","United True Value","415 E Highland Dr","54154",44.883619,-88.137215
"54139","Lena","WI","Green Hinge of America","4429 Hwy 22 East","54139",44.89306285882498,-87.99092888832092
"54139","Lena","WI","Oconto County Lumber","8494 State Highway 22","54154",44.895243,-88.185086
"54139","Lena","WI","Northwoods Power Equipment","5290 US Highway 141","54139",44.875913396684076,-88.04604291915894
"54141","Little Suamico","WI","Foundation Building Materials","338 E Frontage Rd","54141",44.68525,-88.05076
"54143","Marinette","WI","Menards","2080 Old Peshtigo Rd","54143",45.083407740212856,-87.6549639186851
"54143","Marinette","WI","Walter Brothers True Value Hardware","2113 10th St","49858",45.11784017,-87.61408389
"54143","Marinette","WI","Tractor Supply Co.","2881 Roosevelt Rd","54143",45.074327000000004,-87.6614
"54143","Marinette","WI","Ace Hardware","1307 8th Ave","49858",45.106,-87.616399
"54143","Marinette","WI","minuteKEY","2900 Roosevelt Rd","54143",45.073944091796875,-87.65621948242188
"54143","Marinette","WI","Christensen Machinery & Supply Co. Inc.","1101 56th Ave","49858",45.1514567,-87.6133837
"54143","Marinette","WI","Sherwin-Williams Commercial Paint Store","720 Pierce Ave","54143",45.09799944,-87.62926921
"54143","Marinette","WI","Buy Rite","not_available","54143",45.08063939605972,-87.65559386914069
"54143","Marinette","WI","Phc Plumbing & Heating","not_available","54157",45.053127,-87.733536
"54143","Marinette","WI","Sherwin-Williams Paint Store","2025 Marinette Ave","54143",45.085020867445095,-87.65743374824524
"54143","Marinette","WI","HEIDER DECORATING LLC","1703 MARINETTE AVE STE B","54143-3708",45.08833869420274,-87.6508355140686
"54143","Marinette","WI","Husqvarna US","N1917 COUNTY BB","54143",45.085201263427734,-87.64472961425781
"54149","Mountain","WI","Mountain Hardware and Lumber","13876 State Highway 32 64","54149",45.17975997924805,-88.46926879882812
"54151","Niagara","WI","The Home Depot","W8141 Highway US 2","49801",45.8078093,-88.0331718
"54151","Niagara","WI","Ace Hardware","104 Stephenson Ave","49801",45.82218933105469,-88.06472778320312
"54151","Niagara","WI","Tool Time","1440 S Stephenson Ave","49801",45.809349060058594,-88.05448913574219
"54151","Niagara","WI","Cushing Co-op","240 th st.","54006",45.82027777777778,-88.0425
"54151","Niagara","WI","Hall's True Value","544 Main St","49870",45.78544235229492,-87.90736389160156
"54151","Niagara","WI","Sherwin-Williams Paint Store","1429 S Stephenson Ave","49801",45.80961990356445,-88.05445861816406
"54151","Niagara","WI","minuteKEY","1920 S Stephenson Ave","49801",45.8074374,-88.0379337
"54151","Niagara","WI","Campioni True Value","104 N Stephenson Ave","49801",45.82218933105469,-88.06472778320312
"54151","Niagara","WI","Home Depot","not_available","49870",45.78657,-87.899466
"54153","Oconto","WI","Roberts Hometown Hardware","919 Main St","54153",44.888496,-87.870132
"54153","Oconto","WI","Matravers Hardware Store","not_available","54153",44.88734008941309,-87.86626775195435
"54153","Oconto","WI","Boehmer's Ace Hardware","225 Superior Ave","54153",44.887291999999995,-87.87005
"54155","Oneida","WI","Badger Trailer","4637 Milltown Rd","54313",44.573748,-88.161711
"54155","Oneida","WI","McAllister Landscape Supplies","4589 Milltown Rd","54313",44.57316589355469,-88.15882873535156
"54161","Pound","WI","Ace Hardware","508 Alma St","54161",45.091835021972656,-88.03544616699219
"54162","Pulaski","WI","Straightline Machine, L.L.C.","W1603 County Rd C","54162",44.67793,-88.31864
"54162","Pulaski","WI","Wichlacz Lumber","130","54162",44.67165047005214,-88.23163420854966
"54162","Pulaski","WI","Ace Hardware","428 Third Ave","54162",44.6685999,-88.228099
"54165","Seymour","WI","Diedrick's Hardware","119 N Main St","54165",44.51276563734532,-88.33010615934081
"54166","Shawano","WI","Qualheim's True Value","1345 E Green Bay St","54166",44.78237760669953,-88.57270743154099
"54166","Shawano","WI","Retail Lumber","Anderson Av","54166",44.7928261756897,-88.60977351665497
"54166","Shawano","WI","Sherwin-Williams Paint Store","1221 E Green Bay St","54166",44.782672716418,-88.58287096023558
"54166","Shawano","WI","Torborgs Lumber","not_available","54166",44.782007508599904,-88.57121297692483
"54166","Shawano","WI","Tractor Supply Co.","1313 East Green Bay St","54166",44.782616,-88.57526
"54175","Townsend","WI","Pintsch's True Value Hardware","17891 Hwy 32","54175",45.32763604,-88.58986616
"54201","Algoma","WI","Door County Coop - Rio Creek","E4351 County Rd. K","54201",44.6181083333333,-87.5436783333333
"54201","Algoma","WI","algoma hardware","not_available","54201",44.6111946105957,-87.44258117675781
"54201","Algoma","WI","Door County Coop - Algoma","521 4th St","54201",44.6085136734694,-87.43858
"54202","Baileys Harbor","WI","Nelson Shopping Center True Value","3449 State Rd 42","54212",45.13889891157071,-87.19734739579742
"54204","Brussels","WI","DeKeyser Hardware","Cty DK","54204",44.7338,-87.625
"54208","Denmark","WI","hardware hank","not_available","54208",44.3531608581543,-87.84284973144531
"54208","Denmark","WI","Hardware Hank","585 County Road R","54208",44.34798049926758,-87.83843231201172
"54209","Egg Harbor","WI","Harbor Hardware","7960 State Highway 42","54209",45.057872419012476,-87.27842645177613
"54216","Kewaunee","WI","Batten True Value Farm & Home","606 Center Dr","54217",44.545841217041016,-87.69769287109375
"54216","Kewaunee","WI","Lemens Hardware","737 Main St","54217",44.538499096664445,-87.70395997630199
"54217","Luxemburg","WI","Home depot","Diamond center","44061",44.69322,-87.75772
"54217","Luxemburg","WI","Van's Lumber & Custom Builders INC.","not_available","54217",44.64243945235485,-87.76027262731031
"54217","Luxemburg","WI","Battens True Value","not_available","54229",44.516239166259766,-87.80387115478516
"54220","Manitowoc","WI","Menards","5210 Calumet Ave","54220",44.074451159975304,-87.7169176852681
"54220","Manitowoc","WI","Lowe's","4401 Dewey Street","54220",44.076024,-87.704966
"54220","Manitowoc","WI","American Home & Garden Ace","2950 Menasha Ave","54220",44.1186349,-87.686109
"54220","Manitowoc","WI","Vandervart Concrete Products","1610 N 8th St","54220",44.12001037597656,-87.65899658203125
"54220","Manitowoc","WI","Vandervart Concrete Products","1800 Johnston Dr","54220",44.124183654785156,-87.64321899414062
"54220","Manitowoc","WI","B & M Waste Service Inc","9402 English Lake Rd","54220",44.052215000000004,-87.788113
"54220","Manitowoc","WI","luiser plumbing","4623 Goodwill Road","54220",44.137062,-87.708035
"54220","Manitowoc","WI","Sherwin-Williams Paint Store","3813 Dewey St","54220",44.07318095455099,-87.69474098648811
"54220","Manitowoc","WI","minuteKEY","5120 Calumet Ave","54220",44.07512664794922,-87.7169189453125
"54220","Manitowoc","WI","Fastenal","3915 Dewey St","54220",44.073128999999994,-87.69745999999999
"54229","New Franken","WI","Bay Ridge Building Supply","2446 Bay Settlement Rd","54311",44.53311538696289,-87.90286254882812
"54230","Reedsville","WI","Country Visions Cooperative","305 N 6th St","54230",44.156407,-87.96011999999999
"54234","Sister Bay","WI","Jungwirth Ace Hardware","10636 N Bay Shore Dr","54234",45.187031,-87.12246800000001
"54234","Sister Bay","WI","Lamperts","not_available","54234",45.18384302949616,-87.1398408508782
"54234","Sister Bay","WI","Lampert Lumber - Sister Bay","2603 S Bay Shore Dr","54234",45.1834149,-87.1387869
"54235","Sturgeon Bay","WI","Sherwin-Williams Paint Store","601 S Duluth Ave","54235",44.822102013617425,-87.39781889310592
"54235","Sturgeon Bay","WI","Viking Electric","1416 S Neenah Ave","54235",44.809410942600984,-87.38160610198975
"54235","Sturgeon Bay","WI","Tractor Supply Co.","1833 Egg Harbor Road Unit A","54235",44.852155,-87.349991
"54235","Sturgeon Bay","WI","Habitat Restore","410 N 14th Ave","54235",44.84054946899414,-87.36019134521484
"54235","Sturgeon Bay","WI","Door County Hardware Co","321 Jefferson St","54235",44.8363269,-87.378097
"54235","Sturgeon Bay","WI","Door County Co-Op","317 Green Bay Rd, Sturgeon Bay, WI 54235","54235",44.8220100402832,-87.39014434814453
"54235","Sturgeon Bay","WI","Door County Cooperative True Value","317 Green Bay Rd","54235",44.82201,-87.39014
"54235","Sturgeon Bay","WI","Fastenal","not_available","54235",44.819571,-87.383816
"54235","Sturgeon Bay","WI","Lampert Lumber - Sturgeon Bay","621 S Duluth Ave","54235",44.8214011,-87.3983598
"54241","Two Rivers","WI","Klein Hardware","2206 Forest Ave","54241",44.15403837144076,-87.57266750926209
"54241","Two Rivers","WI","Suettinger's Do It Best","1407 16th St","54241",44.14747130622139,-87.56736893062039
"54246","Washington Island","WI","Manns True Value Hardware","1176 Main Rd","54246",45.37183154,-86.93016121
"54301","Green Bay","WI","Beemster Electric Supply, Inc.","not_available","54303",44.51022923993391,-88.03292928445623
"54301","Green Bay","WI","Skippers Choice Marine Supply","1212 Marine St","54301",44.49794604794009,-88.02188772911016
"54302","Green Bay","WI","Mathu's Appliance & Power","2297 Manitowoc Rd","54311",44.482084,-87.967998
"54302","Green Bay","WI","DeBaker Hardware","1729 University Ave","54302",44.51255136882696,-87.97902860504733
"54302","Green Bay","WI","Sherwin-Williams Paint Store","2222 Main St","54302",44.485283324982596,-87.97187447547913
"54302","Green Bay","WI","Viking Electric","1936 Donbea St","54311",44.4731330871582,-87.98712921142578
"54302","Green Bay","WI","Lincoln Contractor Supply INC","1658 Morrow St","54302",44.508064,-87.981348
"54302","Green Bay","WI","Fastenal Co","2226 Main St","54302",44.484902,-87.971811
"54303","Green Bay","WI","Menards","2300 Woodman Dr","54303",44.546136733071386,-88.07387930486573
"54303","Green Bay","WI","The Home Depot","810 S Taylor St","54303",44.528369,-88.0799838
"54303","Green Bay","WI","Garden Supply Guys","752 N Memorial Dr","54303",44.55787911201449,-88.05621385574341
"54303","Green Bay","WI","US Lamp","3600 Velp Ave, Green Bay, WI 54303","54303",44.573604583740234,-88.07714080810547
"54303","Green Bay","WI","ABC Supply Co.","1838 Velp Ave","54303",44.556209,-88.055745
"54303","Green Bay","WI","Ferguson Selection Center","2455 Hutson Rd","54303",44.528297,-88.092549
"54303","Green Bay","WI","Fastenal","1712 Velp Ave","54303",44.551557,-88.05189399999999
"54303","Green Bay","WI","Inspiration Hardware, LLC","1125 N Military Ave","54303",44.544742584228516,-88.05146026611328
"54304","Green Bay","WI","McMonagle Lumber","Ashland Ave","not_available",44.45944756238254,-88.07484850804883
"54304","Green Bay","WI","Sherwin-Williams Paint Store","2464 S Oneida St","54304",44.4841522,-88.06926548480988
"54304","Green Bay","WI","Builders FirstSource","3400 S Ridge Rd","54115",44.46009047442569,-88.1020399929912
"54304","Green Bay","WI","Paulson Hardware","2248 S Ridge Rd","54304",44.493115324857435,-88.07108790402249
"54304","Green Bay","WI","Fastenal","1117 Ashwaubenon St","54304",44.466129302978516,-88.09555053710938
"54304","Green Bay","WI","Sherwin-Williams Commercial Paint Store","1053 Waube Ln","54304",44.469366,-88.08872491
"54304","Green Bay","WI","Re-Store","2965 Ramada Way","54304",44.467772127577305,-88.07724911856201
"54304","Green Bay","WI","Stein's Garden & Home","980 Waube Ln","54304",44.469232,-88.084599
"54311","Green Bay","WI","Stein's Garden & Home","2727 Eaton Rd","54311",44.467064,-87.946816
"54313","Green Bay","WI","Ferguson Waterworks","1281 Cornell Rd","54313",44.57567413688386,-88.06947952769005
"54313","Green Bay","WI","Top Shop Countertops","2170 Speaker Ct","54313",44.589499,-88.068018
"54313","Green Bay","WI","Sherwin-Williams Paint Store","1809 Condor Ln","54313",44.58981883074779,-88.08207092365453
"54313","Green Bay","WI","Bay West True Value","1846 Parkfield Ct","54173",44.593719,-88.04420400000001
"54401","Wausau","WI","Menards","2801 Stewart Ave","54401",44.955780749676634,-89.67222951158148
"54401","Wausau","WI","The Home Depot","2705 Sherman Street","54401",44.9506192,-89.6689131
"54401","Wausau","WI","Etco Electric Supply","not_available","54403",44.9752082824707,-89.62763214111328
"54401","Wausau","WI","ABC Supply Co. Inc.","102 Fulton St","54403",44.96521,-89.628649
"54401","Wausau","WI","Sherwin-Williams Product Finishes","8202 Enterprise Dr","54401",44.954685704220786,-89.73920345306396
"54401","Wausau","WI","Ferguson HVAC Supply","2425 N 14th Ave","54401",44.9936718634164,-89.6551069424764
"54401","Wausau","WI","Sherwin-Williams Paint Store","2111 Stewart Ave","54401",44.95834,-89.662345
"54401","Wausau","WI","Hallman lindsay paint","not_available","54401",44.9546012878418,-89.66539764404297
"54401","Wausau","WI","Werner Electric Supply","7900 Highland Dr","54401",44.958882420679814,-89.73660893656464
"54401","Wausau","WI","Tundraland Home Improvements","305 3rd Street","54403",44.959293,-89.627628
"54401","Wausau","WI","Able Distributing","401 S 4th St","54403",44.953896,-89.62651600000001
"54401","Wausau","WI","minuteKEY","4300 Rib Mountain Dr","54401",44.9184472,-89.6536291
"54401","Wausau","WI","Viking Electric","100 E Bridge St","54403",44.970217714217874,-89.6293830871582
"54401","Wausau","WI","Builders FirstSource","801 S 24Th Ave","54401",44.95315808681092,-89.66578602790833
"54401","Wausau","WI","Foundation Building Materials","835 66th Ave S","54401",44.95165236,-89.71762563
"54403","Wausau","WI","Sherwin-Williams Paint Store","244 Grand Ave","54476",44.92901319013405,-89.61452627801064
"54405","Abbotsford","WI","Meyer Buildings","not_available","54425",45.001407623291016,-90.33665466308594
"54405","Abbotsford","WI","Combat Parts INC","750 Old Hwy 29","54405",44.945852,-90.339299
"54409","Antigo","WI","Mills Fleet Farm","2511 Neva Rd","54409",45.16753594420693,-89.14600895795665
"54409","Antigo","WI","Menards","2001 Jerome St","54409",45.16070869831969,-89.13647986221193
"54409","Antigo","WI","Antigo Rental Center","not_available","54409",45.15983227858321,-89.14799610817748
"54409","Antigo","WI","Sears","445 WI-64","54409",45.1607713560011,-89.1467955594999
"54411","Athens","WI","wenger equipmemt","not_available","54411",45.001706113197294,-90.06315545658882
"54411","Athens","WI","Morgan Sand & Gravel Inc","430 Morgan Ln","54448",44.94663,-89.87865
"54412","Auburndale","WI","Scmitt Acoustics","Mayflower","54454",44.65628861353848,-89.90604484572721
"54421","Colby","WI","A to Z Town & Country LLC","102 Hodd Dr","54421",44.92982864379883,-90.31394958496094
"54423","Custer","WI","Lowe's","230 Crossroads Drive","54467",44.4948038,-89.510514
"54423","Custer","WI","Sherwin-Williams Paint Store","5600 Carrie Frost Dr","54482",44.500411957577846,-89.5080828666687
"54427","Eland","WI","Wittenberg True Value","301 S Cherry St","54499",44.824877,-89.16747231
"54433","Gilman","WI","Romig's Hardware Hank Store","not_available","54433",45.166462,-90.812415
"54436","Granton","WI","Tractor Central","not_available","54436",44.57811737060547,-90.455810546875
"54437","Greenwood","WI","Builders FirstSource","517 S Main St","54437",44.760622999999995,-90.598937
"54437","Greenwood","WI","Wolf's True Value","315 S Main St","54437",44.764198303222656,-90.59873962402344
"54449","Marshfield","WI","Menards","2116 N Central Ave","54449",44.69037667622982,-90.15851872088706
"54449","Marshfield","WI","G & D Wood Products, Inc.","2401 East 21st Street","54449",44.64907717,-90.14582029
"54449","Marshfield","WI","Probuild","E Veterans Pkwy","54449",44.64283055,-90.14191627
"54449","Marshfield","WI","Sherwin-Williams Paint Store","337 S Central Ave","54449",44.664288245731186,-90.17490148544312
"54449","Marshfield","WI","Hillers True Value Hardware","751 S Central Ave","54449",44.66025261404065,-90.17803390560944
"54449","Marshfield","WI","Husqvarna US","8887 HWY A","54449",44.66207504272461,-90.17918395996094
"54451","Medford","WI","Stetson Hardwoods","not_available","54480",45.078630974605126,-90.31647359312538
"54451","Medford","WI","Do It Best","not_available","54451",45.16101576304953,-90.35327728862048
"54451","Medford","WI","Rib Lake True Value","700 Mill Lane","54470",45.31870881511993,-90.20329253374561
"54451","Medford","WI","stewart lumber co","not_available","54470",45.31955070161085,-90.20697780190125
"54451","Medford","WI","Stetsonville Lumber, Inc.","Wisconsin 13","54480",45.07564926147461,-90.31507110595703
"54451","Medford","WI","Medford Co-op Hardware","K-Mart plaza","not_available",45.13978083303408,-90.33174462496318
"54451","Medford","WI","Ackeret Appliance and TV","143 West State Street","54451",45.13678047,-90.34621498
"54451","Medford","WI","Medford Farm Home Center","550 North 8th Street","54451",45.14682081,-90.3332212
"54451","Medford","WI","Zenner Plumbing & Heating","761 S Gibson St","54451",45.12795591710233,-90.35263538360596
"54451","Medford","WI","Medford Ace Hardware","150 Medford Plz","54451",45.1401389,-90.331667
"54451","Medford","WI","Stetsonville Plumbing & Heating","111 S Lincoln St","54480",45.0765495300293,-90.31382751464844
"54451","Medford","WI","Husqvarna US","PO Box 210","54451",45.154502868652344,-90.34872436523438
"54451","Medford","WI","Ace Hardware","1175 W Broadway Ave","54451",45.140959,-90.373333
"54452","Merrill","WI","Wisconsin Building Supply","101 S Pine Ridge Ave","54452",45.181133,-89.650766
"54452","Merrill","WI","Merrill Ace Hardware","920 E Main St","54452",45.180308000000004,-89.6865
"54455","Mosinee","WI","Charlie's Hardware","not_available","54455",44.78905815720403,-89.72800464221557
"54456","Neillsville","WI","Ace Hardware","N3599 Fairground Ave","54456",44.54799270629883,-90.57916259765625
"54456","Neillsville","WI","Save-rite","not_available","54456",44.548866,-90.578636
"54456","Neillsville","WI","Russellâ€™s Of Neillsville","211 W 8th St","54456",44.562391999999996,-90.597307
"54457","Nekoosa","WI","Tractor Supply Co.","4841 8th St South","54494",44.34983391,-89.81578688
"54457","Nekoosa","WI","Reynolds Hardware & Lumber","325 HWY 13 S","54457",44.21028137207031,-89.80867767333984
"54466","Pittsville","WI","Central Hardware and Supply","not_available","54466",44.44176483154297,-90.1273193359375
"54467","Plover","WI","Menards","1901 Plover Rd","54467",44.45300809714469,-89.52746109572331
"54467","Plover","WI","Wisconsin building supply","2200 Plover Rd","54467",44.45510482788086,-89.5328369140625
"54467","Plover","WI","Janky Table","not_available","54467",44.45711,-89.54236
"54474","Rothschild","WI","Harbor Freight Tools","1029 E Grand Ave #1031","54474",44.898639722572696,-89.60994953489272
"54476","Schofield","WI","Ace Hdw Center/Weston","2606 Schofield Ave","54476",44.9087999,-89.592399
"54476","Schofield","WI","Fastenal","not_available","54476",44.9051,-89.5581
"54476","Schofield","WI","Lincoln Contractors Supply","5207 Westfair Ave","54476",44.90428924560547,-89.55767822265625
"54481","Stevens Point","WI","Ellis Stone","not_available","54481",44.533451080322266,-89.55433654785156
"54481","Stevens Point","WI","Harbor Freight Tools","5423 US 10 E","54482",44.522762,-89.51892
"54481","Stevens Point","WI","Werner Electric Supply","2728 Church St","54481",44.510191,-89.571884
"54482","Stevens Point","WI","Frank's Hardware Co","5444 US Highway 10 E","54482",44.52410602896874,-89.5176500226987
"54487","Tomahawk","WI","Tomahawk Ace Hardware","986 N 4th St","54487",45.483931,-89.727879
"54487","Tomahawk","WI","Ohjay Services LLC","201 N Tomahawk Ave","54487",45.47319,-89.733983
"54487","Tomahawk","WI","Husqvarna US","129 N 4th St","54487",45.47278594970703,-89.7294692993164
"54494","Wisconsin Rapids","WI","The Home Depot","1500 24th Street South","54494",44.3775505,-89.798461
"54494","Wisconsin Rapids","WI","Ace Hardware","2350 8th St S","54494",44.3735909,-89.81759
"54494","Wisconsin Rapids","WI","Sherwin-Williams Paint Store","1365 8th St S","54494",44.379661560058594,-89.81607818603516
"54494","Wisconsin Rapids","WI","Powell Plumbing","STH 13","54494",44.364593386617045,-89.81692243365231
"54494","Wisconsin Rapids","WI","Wisconsin Valley Concrete","not_available","54495",44.396217346191406,-89.83018493652344
"54494","Wisconsin Rapids","WI","Tool Shed","801-999 Huntington Ave","54494",44.372473,-89.815283
"54494","Wisconsin Rapids","WI","Crescent Electric","2311","54495",44.401527,-89.852434
"54494","Wisconsin Rapids","WI","Sears","910 Huntington Avenue","54494",44.371636,-89.815894
"54494","Wisconsin Rapids","WI","Ferguson","1121 21st Ave N","54495",44.405024,-89.849791
"54501","Rhinelander","WI","Menards","4819-4835 Navajo Ln","54501",45.663378749159165,-89.37738136739439
"54501","Rhinelander","WI","The Home Depot","1400 E Lincoln Street","54501",45.63117170018131,-89.38864088333503
"54501","Rhinelander","WI","Lakeland True Value Lumber & Hardware","7220 Hwy 47","54539",45.8147200064096,-89.59363747521411
"54501","Rhinelander","WI","Husqvarna US","1208 Lincoln St","54501",45.63259506225586,-89.39403533935547
"54501","Rhinelander","WI","Fastenal Company","2005 N Stevens St","54501",45.657399,-89.380871
"54501","Rhinelander","WI","Ace Hardware and Rental","232 S Courtney St","54501",45.6340472,-89.41573989999999
"54501","Rhinelander","WI","Sherwin-Williams Paint Store","1110 Lincoln St","54501",45.63249592238152,-89.39598798751831
"54501","Rhinelander","WI","AT&T Store","not_available","54501",45.63282565632167,-89.39602463112733
"54501","Rhinelander","WI","minuteKEY","2221 N Stevens St","54501",45.663328,-89.378598
"54511","Argonne","WI","Argonne Lumber & Supply","7595 State Highway 32","54511",45.64809799194336,-88.88336944580078
"54512","Boulder Junction","WI","Hardware Hank","10359 Blaisdel St","54512",46.1109926,-89.644398
"54514","Butternut","WI","Husqvarna US","1204 SOUTH 4TH AVE","54552",45.936798095703125,-90.4107666015625
"54514","Butternut","WI","Park Falls Building & Hardware","645 4th Avenue North","54552",45.9405856,-90.4557616
"54519","Conover","WI","Jensen Akins Hardware and Appliance","156 US Highway 45","54519",46.047103,-89.256837
"54520","Crandon","WI","Conway True Value Hardware","Pioneer Plaza","54520",45.56427423,-88.89626026
"54521","Eagle River","WI","Nelsons Ace Hardware","606 E Wall St","54521",45.915263,-89.242508
"54521","Eagle River","WI","Tractor Supply Co.","709 North Railroad Street","54521",45.925418,-89.254159
"54521","Eagle River","WI","Knitt's Hawdware Hank","not_available","54558",45.9073415388727,-89.48719192131941
"54521","Eagle River","WI","Boundary Waters Well Done Water Systems","690 State Highway 17 S","54521",45.914275,-89.261036
"54521","Eagle River","WI","Pluck With Easy Pluck -Pluck Machines","3972 Myszka Lane","54554",46.03996658325195,-89.05110168457031
"54521","Eagle River","WI","Lampert Lumber - Eagle River","613 N Railroad St","54521",45.922588,-89.254263
"54527","Glidden","WI","The Lumber Yard True Value Hardware","Hwy 13 North","54527",46.17672,-90.62453
"54534","Hurley","WI","Attoe Online Solutions L.L.C.","4845 N Thompson Trl","54547",46.1550629,-90.03866310000001
"54534","Hurley","WI","Steiger's Home Center","1001 E Lead St","49911",46.480758,-90.039085
"54534","Hurley","WI","Pat's Foods","1009 Holiday Ln","54534",46.459468841552734,-90.19547271728516
"54534","Hurley","WI","Giovanoni True Value Hardware","303 Silver St","54534",46.449601,-90.183883
"54534","Hurley","WI","Tractor Supply Co.","1420 East Cloverland Dr","49938",46.463498,-90.146191
"54541","Laona","WI","Connors Builder Supply  & True Value","5258 US Highway 8","54541",45.56196594238281,-88.68558502197266
"54541","Laona","WI","Laona Machine Supply","4902 Us-8","54541",45.560150146484375,-88.67720794677734
"54542","Long Lake","WI","Caulk-EZ","8211 Huff Ln","54542",46.02180480957031,-88.84379577636719
"54545","Manitowish Waters","WI","Lakeland True Value Hardware","5967 County Hwy W","54545",46.15915581,-89.87410576
"54547","Mercer","WI","The Warehouse","not_available","54547",46.150518162712196,-90.03556874438523
"54548","Minocqua","WI","Woodruff Hardware Inc","1302 Highway 47","54568",45.896439,-89.693013
"54548","Minocqua","WI","Sherwin-Williams Paint Store","8520 US Highway 51 N # 69","54548",45.876617431640625,-89.70405578613281
"54548","Minocqua","WI","Pukall Lumber & Hardware","US Hwy 51","54548",45.824174,-89.723731
"54548","Minocqua","WI","Woodruff Appliance","not_available","54548",45.890746618202336,-89.68500578567549
"54548","Minocqua","WI","Builders FirstSource","7450 Hwy 51 South","54548",45.824046088050494,-89.71882790330709
"54552","Park Falls","WI","Stueber's Ace Hardware","1114 4th Ave S","54552",45.922741,-90.452106
"54555","Phillips","WI","Ace Hardware","111 Fairway Dr","54555",45.7067985534668,-90.41822052001953
"54555","Phillips","WI","Fastenal","not_available","54555",45.681403,-90.391398
"54555","Phillips","WI","Hardware Hank","N Lake Ave","54555",45.690533,-90.397309
"54560","Sayner","WI","Eliason's Lumber & Hardware","not_available","54560",45.98822657063568,-89.5318519658328
"54563","Tony","WI","Tony Lumber","not_available","54848",45.48298746805225,-90.99172394996984
"54566","Wabeno","WI","Jakubiec & Family Skidsteer Works LLC","5845 State Highway 52","54566",45.402466,-88.726389
"54601","La Crosse","WI","Menard's","223 Lang Dr","54603",43.83120912930346,-91.24055954551135
"54601","La Crosse","WI","Sherwin-Williams Paint Store","818 Palace St","54603",43.85496,-91.244723
"54601","La Crosse","WI","Ace of La Crosse","4242 Mormon Coulee Rd","54601",43.7721999,-91.2168
"54601","La Crosse","WI","Harbor Freight Tools","2334 Rose St","54603",43.85615921020508,-91.24430847167969
"54601","La Crosse","WI","Kroner True Value Hardware","319 Pearl St","54601",43.812048,-91.251964
"54601","La Crosse","WI","Gerhard's Kitchen & Bath Store","106 Cameron Ave","54601",43.80720223,-91.25559813
"54601","La Crosse","WI","Bearing Distributors Inc.","not_available","54603",43.826808,-91.255371
"54601","La Crosse","WI","Ferguson Plumbing Supply","2135 Enterprise Ave","54603",43.86408996582031,-91.22610473632812
"54601","La Crosse","WI","Lackore Electric Motor Repair Inc.","4102 Mormon Coulee Ct","54601",43.773045,-91.220012
"54601","La Crosse","WI","Sears","4200 US Hwy 16","54601",43.869516,-91.195398
"54603","La Crosse","WI","Viking Electric","646 Breezy Point Rd","54603",43.876422,-91.268433
"54603","La Crosse","WI","Hallman Lindsay Paint","820 2nd Ave S","54650",43.87404,-91.23064
"54610","Alma","WI","Interstate. Building Supply","not_available","55981",44.365807000000004,-92.018222
"54610","Alma","WI","Hill's Hardware Hanks","180 main st.","55981",44.383969,-92.032001
"54612","Arcadia","WI","Arcadia Farm & Home and Auto Pro","1475 E Wilson Ave","54612",44.24534,-91.4758
"54612","Arcadia","WI","Tractor Central","not_available","54612",44.24939537677792,-91.4304194171645
"54615","Black River Falls","WI","Theisen's","State Highway 54 East","54615",44.29552932067976,-90.83409034611401
"54615","Black River Falls","WI","Moe's Hardware","33 Main St","54615",44.295231,-90.848055
"54615","Black River Falls","WI","Scholze Ace Home Center","133 County Road A","54615",44.3054449,-90.84713
"54615","Black River Falls","WI","Melrose True Value Lumber","101 Tanner St","54642",44.133662,-90.99623199999999
"54615","Black River Falls","WI","Fastenal","not_available","54615",44.29163002395122,-90.83310303364948
"54615","Black River Falls","WI","Husqvarna US","11 E Washington St","54615",44.30337142944336,-90.84342956542969
"54615","Black River Falls","WI","Ace Hardware","133 County Road a","54615",44.3060417175293,-90.84709167480469
"54616","Blair","WI","Husqvarna US","N 37133 U.S. HWY 53/121","54773",44.377281188964844,-91.30423736572266
"54618","Camp Douglas","WI","Husqvarna US","566 N Oakwood St","54660",43.96788024902344,-90.37309265136719
"54619","Cashton","WI","Lind's Home Center","801 Main St","54619",43.74324417114258,-90.77971649169922
"54626","Eastman","WI","Johnson's One Stop","Seneca, WI","54631",43.26320245,-90.96100046666666
"54629","Fountain City","WI","Menards","1075 Frontenac Dr","55987",44.03352895078208,-91.61490839112274
"54629","Fountain City","WI","Rollingstone Tv Lumber","111 Elm St","55969",44.096561431884766,-91.81187438964844
"54629","Fountain City","WI","Kendell True Value Lumber","115 Franklin St","55987",44.051701,-91.63128
"54629","Fountain City","WI","Tri-Mac","1 Washington St","55987",44.054999,-91.640276
"54629","Fountain City","WI","Burggraf's Ace Hardware","320 W 2nd St","55987",44.055842,-91.64301400000001
"54629","Fountain City","WI","Janet Tapp","156 Galewski Dr","55987",44.07143020629883,-91.70555114746094
"54629","Fountain City","WI","Brezzes campers","not_available","55987",44.04332733154297,-91.65265655517578
"54629","Fountain City","WI","Sherwin-Williams Paint Store","1457 W Service Dr","55987",44.04675850582815,-91.67768955230713
"54636","Holmen","WI","Ace Hardware","205 S Holmen Dr","54636",43.95940062607387,-91.26190771309562
"54636","Holmen","WI","Sherwin-Williams Commercial Paint Store","3902 Circle Dr","54636",43.926605,-91.24445
"54636","Holmen","WI","Midwest Dies","302 North Star Road","54636",43.963386,-91.265519
"54639","La Farge","WI","La Farge Hardware","not_available","54639",43.573564165201525,-90.63633638256654
"54646","Necedah","WI","Necedah True Value","205 S Main St","54646",44.025059000000006,-90.07208299999999
"54650","Onalaska","WI","Menard's","1301 Sand Lake Rd","54650",43.90371855570886,-91.22392958938437
"54650","Onalaska","WI","The Home Depot","2927 Market Pl","54650",43.8794719,-91.1859399
"54650","Onalaska","WI","Sherwin-Williams Paint Store","9394 US Highway 16","54650",43.87195714456567,-91.19612574577332
"54656","Sparta","WI","Country Farm Supply","4584 hwy 16","54656",44.0669104,-90.8606599
"54656","Sparta","WI","Sears","520 S. Black River","54656",43.9400022968589,-90.82148150370813
"54656","Sparta","WI","The Do It Center","not_available","54656",43.938341,-90.77253
"54656","Sparta","WI","The Hardware Store","904 S Black River St","54656",43.935493938545285,-90.82138621022851
"54660","Tomah","WI","Ace Hardware","1110 N Superior Ave","54660",43.9969419,-90.504988
"54660","Tomah","WI","All American Do-It Center","108 E Veterans St","54660",44.001922607421875,-90.50421142578125
"54660","Tomah","WI","Tractor Supply Co.","1310 North Superior Ave","54660",44.0068889532464,-90.50735361474989
"54660","Tomah","WI","Betcher & Walker","719-799 E Clifton St","54660",43.97167305,-90.49237072
"54660","Tomah","WI","Sears","1114 N. Superior Ave","54660",44.00232692902089,-90.50737738609314
"54665","Viroqua","WI","Nelson Agri Center True Value","217 N Center Ave","54665",43.55728213449877,-90.88763130565314
"54665","Viroqua","WI","Husqvarna US","E5990 Parker Ln","54665",43.59231948852539,-90.95506286621094
"54665","Viroqua","WI","Tractor Supply Co.","1202 North Main St","54665",43.572109999999995,-90.890957
"54667","Westby","WI","Westby Ace Hardware","405 S Main St","54667",43.649815000000004,-90.85922
"54669","West Salem","WI","Allied Cooperative Ace Hardware","570 Commerce St","54669",43.902609000000005,-91.088024
"54701","Eau Claire","WI","Menards","3619 S Hastings Way","54701",44.7812,-91.4359
"54701","Eau Claire","WI","Sherwin-Williams Paint Store","2930 E Hamilton Ave","54701",44.7861,-91.458968
"54701","Eau Claire","WI","Harbor Freight Tools","2615 London Rd Ste A","54701",44.79272,-91.462425
"54701","Eau Claire","WI","Dauge","not_available","54701",44.7979621887207,-91.50101470947266
"54701","Eau Claire","WI","Hallman/Lindsay Paints","3160 London Rd","54701",44.787061,-91.463986
"54701","Eau Claire","WI","BackYardStone","5340B Friedeck Rd","54701",44.755603,-91.457261
"54701","Eau Claire","WI","Security Lock And Key Shop","225 N Barstow St","54703",44.81532287597656,-91.50121307373047
"54701","Eau Claire","WI","minuteKEY","3915 Gateway Dr","54701",44.7762155,-91.4284245
"54701","Eau Claire","WI","Sherwin-Williams Paint Store","1427 S Hastings Way","54701",44.803202,-91.468963
"54701","Eau Claire","WI","THOMPSONS TRUE VALUE HDW&VRTY.","319 E Clairemont Ave","54701",44.79252624511719,-91.4935302734375
"54701","Eau Claire","WI","Eau Claire Lawn Equipment","2612 S Hastings Way","54701",44.791834,-91.457424
"54701","Eau Claire","WI","Auto Value Parts Store","3211 London Rd","54701",44.786118,-91.462556
"54701","Eau Claire","WI","Hershfields Paints","3640 Mall Drive","54701",44.779869079589844,-91.4613037109375
"54703","Eau Claire","WI","Menards","3210 N Clairemont Ave","54703",44.83151732634039,-91.54680039566594
"54703","Eau Claire","WI","Jacobson's Ace Hardware","2618 Birch St","54703",44.8288,-91.506299
"54703","Eau Claire","WI","john deere landscapes","not_available","54703",44.86703109741211,-91.46468353271484
"54703","Eau Claire","WI","Ferguson HVAC Supply","2626 Truax Blvd","54703",44.8333849626118,-91.5475176060273
"54703","Eau Claire","WI","Builders FirstSource","3701 N Hastings Way","54703",44.861002,-91.456755
"54721","Arkansaw","WI","HOMETOWN BUILDING CENTER","N 6344 STATE HWY 25","54736",44.63773727416992,-91.99283599853516
"54722","Augusta","WI","AUGUSTA TRUE VALUE HDW &VRTY","128 W LINCOLN ST","54722",44.679718017578125,-91.12107849121094
"54722","Augusta","WI","Augusta True Value Hardware & Variety","128 W Lincoln St","54722",44.679539,-91.12094
"54722","Augusta","WI","Lampert Lumber - Augusta","112 Railway St","54722",44.6744739,-91.12075899999999
"54724","Bloomer","WI","Woodlund Home Center","not_available","54724",45.109474182128906,-91.4894790649414
"54726","Boyd","WI","Boyd Trustworthy Hardware - Gun Shop","719 E Murray Street","54726",44.951238637322206,-91.03654503822325
"54726","Boyd","WI","Lube Suppliers","308 Development Dr","54768",44.9526443481445,-90.9506454467773
"54727","Cadott","WI","CSR Hardware","264-298 N Main St","54727",44.94757565,-91.15066845
"54727","Cadott","WI","Cadott Color Center","311 N Main St","54727",44.947967529296875,-91.15083312988281
"54728","Chetek","WI","Lamperts","617","54728",45.3188958,-91.6663192
"54728","Chetek","WI","Lampert Lumber - Chetek","617 Knapp St","54728",45.31446620000001,-91.6565296
"54728","Chetek","WI","Husqvarna US","PO Box 278","54822",45.4039192199707,-91.73020935058594
"54728","Chetek","WI","Horton's True Value Hardware","303 Dallas St","54728",45.32144989,-91.65252257
"54729","Chippewa Falls","WI","Jacobson's Ace Hardware","111 W Columbia St","54729",44.93634,-91.395775
"54729","Chippewa Falls","WI","Husqvarna US","8524 County Highway X","54729",44.9015007019043,-91.49951171875
"54729","Chippewa Falls","WI","Arrow Building Center","not_available","54729",44.93562807603028,-91.361272210172
"54729","Chippewa Falls","WI","Chippewa Hardware","17168 County Highway J","54729",44.92197799682617,-91.32141876220703
"54729","Chippewa Falls","WI","Viking Electric","2215 Truax Blvd","54703",44.832983,-91.53925600000001
"54729","Chippewa Falls","WI","Menards Corporate Offices","4777 Menard Dr","54703",44.84565845608845,-91.5832702752425
"54732","Cornell","WI","Cornell Hardware Store","not_available","54732",45.167544,-91.147032
"54736","Durand","WI","Hometown Building Center","N 6344 State Hwy 25","54736",44.62799,-91.96331
"54736","Durand","WI","Husqvarna US","301 5th Ave W","54736",44.62632369995117,-91.96969604492188
"54736","Durand","WI","Durand Ace Hardware","420 2nd Ave E","54736",44.6314649,-91.962469
"54738","Eleva","WI","Strum Hardware","not_available","54770",44.552396,-91.392772
"54738","Eleva","WI","Eleva True Value Hdw","50455 S 3rd St","54738",44.57504,-91.47292
"54751","Menomonie","WI","Ace Hardware of Menomonie","1512 9th St E","54751",44.8690879,-91.91951
"54751","Menomonie","WI","TRUE VALUE BUILDING SUPPLY","2520 Wilson St","54751",44.91363525390625,-91.92469024658203
"54751","Menomonie","WI","Mill's Fleet Farm","not_available","54751",44.87092074258938,-91.91984042272125
"54751","Menomonie","WI","Sears","2521 A Hils Court","54751",44.9137839,-91.9322936
"54751","Menomonie","WI","Builders FirstSource","421 Oak Ave","54751",44.90309524536133,-91.92733001708984
"54755","Mondovi","WI","Ace Hardware","735 E Main St","54755",44.56877899169922,-91.6582260131836
"54758","Osseo","WI","Stihl Hardware","not_available","54758",44.426072882790336,-91.21067482120716
"54758","Osseo","WI","Ace Hardware","12912 12th St","54758",44.58053970336914,-91.20944213867188
"54762","Prairie Farm","WI","Lampert Lumber - Ridgeland","119 Main St. W","54763",45.204225,-91.89851999999999
"54768","Stanley","WI","Hazuga's True Value Hardware","207 N Broadway St","54768",44.95862,-90.93729
"54769","Stockholm","WI","Wise Ace Hardware","210 S Washington St","55041",44.448878,-92.265013
"54801","Spooner","WI","Sears","316 Service Road","54801",45.8224631,-91.884096
"54801","Spooner","WI","Spooner Ace Hardware","113 Ash St","54801",45.824414000000004,-91.889277
"54801","Spooner","WI","Husqvarna US","29750 Long Lake Rd","54830",45.990291595458984,-92.142822265625
"54801","Spooner","WI","Lampert Lumber - Spooner","1000 Roundhouse Rd","54801",45.8299431,-91.8815542
"54806","Ashland","WI","Ashland Ace Hardware","420 Lake Shore Dr W","54806",46.590117,-90.888228
"54806","Ashland","WI","Sears","811 3rd Street West","54806",46.5868015,-90.8917291
"54806","Ashland","WI","McRae True Value Hardware","118 Prentice Ave","54806",46.593514,-90.879297
"54806","Ashland","WI","Superior Sauna and Steam","68670 State Farm Rd","54806",46.570103,-90.973476
"54806","Ashland","WI","Chicago Iron & Supplies Inc","not_available","54806",46.598205,-90.852922
"54806","Ashland","WI","Tractor Supply Co.","1700 Lake Shore Dr East","54806",46.600865,-90.862965
"54806","Ashland","WI","Sherwin-Williams Paint Store","314 Lake Shore Dr E","54806",46.5935554508582,-90.88027954101562
"54812","Barron","WI","Greener's Budget Lumber","not_available","54812",45.397911071777344,-91.82708740234375
"54812","Barron","WI","WIEHE'S HARDWARE","524 E La Salle Ave","54812",45.39963912963867,-91.8504409790039
"54814","Bayfield","WI","Bayfield Ace Hardware","125 S Broad St","54814",46.809044,-90.817697
"54820","Brule","WI","Blueberry Plumbing and Heating","Blueberry Plumbing and Heating","11301",46.62620221587302,-91.65777683258057
"54821","Cable","WI","RONDEAUS TRUE VALUE SHPG CTR","13340 COUNTY HIGHWAY M","54821",46.20823669433594,-91.29393768310547
"54822","Cameron","WI","Smithco West, Inc.","200 W Poplar Ave","54822",45.410301000000004,-91.737486
"54829","Cumberland","WI","Nelson True Value & Just Ask Rental","1252 2nd Ave","54829",45.5331,-92.02113
"54829","Cumberland","WI","George's Hardware","2421 Superior Ave","54829",45.553348541259766,-92.0183334350586
"54829","Cumberland","WI","Lampert Lumber - Cumberland","1300 1st Ave","54829",45.534012,-92.019577
"54829","Cumberland","WI","lamperts","not_available","54829",45.53375669466107,-92.02065715676554
"54832","Drummond","WI","Rondeaus True Value Shopping Center","13340 County Highway M","54821",46.33591703,-91.29099258
"54837","Frederic","WI","BURNETT CO-OP TRUE VALUE","11679 State Road 70","54840",45.77228546142578,-92.58362579345703
"54837","Frederic","WI","D M B Drilling Co","3294 15th St","54837",45.68219757080078,-92.18309020996094
"54837","Frederic","WI","Ace Hardware","406 S Wisconsin Ave","54837",45.656419,-92.466217
"54840","Grantsburg","WI","Husqvarna US","PO Box 249","54840",45.76235580444336,-92.67057037353516
"54840","Grantsburg","WI","Darrell's Hardware Hank","not_available","54840",45.778715476293755,-92.68130092800756
"54843","Hayward","WI","L&M Fleet Supply","10680 State Hwy 27/77","54843",46.020713303477976,-91.47667242327884
"54843","Hayward","WI","Hayward Ace Hardware","10637 Beal Ave","54843",46.017153,-91.479587
"54843","Hayward","WI","Fleet","not_available","54843",46.02020161409172,-91.47680157683801
"54843","Hayward","WI","L&M Fleet Supply","10680 State Highway 77","54843",46.0634347,-91.21957396
"54848","Ladysmith","WI","Ladysmith Ace Hardware","503 Lake Ave W","54848",45.465,-91.1062
"54848","Ladysmith","WI","Lampert Lumber - Ladysmith","305 Fritz Ave W","54848",45.4624371,-91.10349079999999
"54854","Maple","WI","Poplar Hardware","9693 E Main St","54864",46.584244,-91.799423
"54859","Minong","WI","Walker's Ace Hardware","W 5th Ave","54859",46.10033625045915,-91.8253143834077
"54868","Rice Lake","WI","Menards","2920 Decker Dr","54868",45.47113260270855,-91.75446684183063
"54868","Rice Lake","WI","Sherwin-Williams Paint Store","2851 College Dr","54868",45.47332763671875,-91.74364471435547
"54868","Rice Lake","WI","Lampert Lumber - Rice Lake","2420 S Main St","54868",45.4749847,-91.7369687
"54868","Rice Lake","WI","Sears","2800 College Drive","54868",45.4743105,-91.7450374
"54868","Rice Lake","WI","Rainbow Ace Home Center","1124 Hammond Ave","54868",45.5088,-91.7393
"54872","Siren","WI","Yourchuck True Value Hardware","24537 State Road 35 70","54872",45.80559492280434,-92.37641348867243
"54872","Siren","WI","Komplete Flooring","not_available","54872",45.82326126098633,-92.31033325195312
"54872","Siren","WI","Hardware Hank","24059-24073 2nd Ave","54872",45.787315166666666,-92.38164955
"54874","South Range","WI","East End Hardware Hank","2201 E 5th St","54880",46.704776763916016,-92.04981994628906
"54880","Superior","WI","Menards","4425 Tower Ave","54880",46.68686023985439,-92.1080586066155
"54880","Superior","WI","Ace Hardware","not_available","54880",46.719448,-92.107506
"54880","Superior","WI","Proctor True Value Bldg Sply","132 3rd Ave","55810",46.74363708496094,-92.22380828857422
"54880","Superior","WI","Menards","503 N 50th Ave W","55807",46.74116907964859,-92.16036635203179
"54880","Superior","WI","Andren's Paint Co","5600 Grand Ave","55807",46.73974,-92.16751
"54880","Superior","WI","Lofgren Small Engine","86 Arbutus Dr","55810",46.74187088012695,-92.20983123779297
"54880","Superior","WI","Tower True Value Hardware","2803 Banks Ave","54880",46.70618388,-92.10558959
"54880","Superior","WI","Duluth Glass & Mirror Co","not_available","55807",46.745102,-92.15978
"54880","Superior","WI","Sherwin-Williams Paint Store","2001 Tower Ave","54880",46.714577,-92.104271
"54880","Superior","WI","Gary Bldrs Supply T V Hardware Home Center","10 E House St","55808",46.6673583984375,-92.22561645507812
"54880","Superior","WI","Habitat For Humanity","1621 Broadway St","54880",46.7269089,-92.1019055
"54889","Turtle Lake","WI","Cornwall & Stary Hardware","219 Maple St.","54889",45.399009,-92.142003
"54893","Webster","WI","Webster Ace Hardware","7435 Main St W","54893",45.8774999,-92.3657
"54893","Webster","WI","Granary","not_available","54893",45.883563371871695,-92.36433073704426
"54901","Oshkosh","WI","Stein's Garden & Home","300 S Koeller St","54902",44.016064,-88.578863
"54901","Oshkosh","WI","Kitz & Pfeil True Value","451 N Main St","54901",44.018843,-88.53786
"54901","Oshkosh","WI","419 Bowen St","not_available","54901",44.018275,-88.527748
"54901","Oshkosh","WI","Tower paint","922 Oregon St","54902",44.009869,-88.542183
"54901","Oshkosh","WI","Husqvarna US","5744 COUNTY ROAD A","54901",44.09939193725586,-88.49935913085938
"54901","Oshkosh","WI","Kitz & Pfeil Ace Hardware","427 N Main St","54901",44.018843,-88.53786
"54901","Oshkosh","WI","Noffke Lumber, Inc.","1601 Bowen St","54901",44.037261,-88.528509
"54901","Oshkosh","WI","Sherwin-Williams Paint Store","130 N Koeller St","54902",44.020277,-88.581154
"54902","Oshkosh","WI","Habitat for Humanity ReStore","1640 S Koeller St","54902",44.00202928219246,-88.58008079666911
"54902","Oshkosh","WI","Harbor Freight Tools","1620 S Koeller St","54902",44.00263825785457,-88.58061402777378
"54902","Oshkosh","WI","Hallman Lindsay Paints","473 N Washburn St","54904",44.024812,-88.58284599999999
"54902","Oshkosh","WI","Fastenal","1601 S Washburn St","54904",44.001859,-88.583798
"54902","Oshkosh","WI","Freeman's Just Plane Hardware at EAA Airventure","not_available","54902",43.977304,-88.566317
"54904","Oshkosh","WI","Menards","2351 Westowne Ave","54904",44.02831425136832,-88.59049018488719
"54904","Oshkosh","WI","Lowe's","1075 North Washburn Street","54904",44.029393,-88.586139
"54904","Oshkosh","WI","Viking Electric Supply","not_available","54904",43.984979804611434,-88.60270504239082
"54904","Oshkosh","WI","T P Sales","2546 Omro Rd","54904",44.033162,-88.596398
"54904","Oshkosh","WI","TP Sales","2546 Old Omro Rd","54904",44.03304386010316,-88.59616759383024
"54911","Appleton","WI","Menards","3300 Express Ct","54915",44.260427630461464,-88.35843575904264
"54911","Appleton","WI","Lowe's","3255 Van Roy Road W","54915",44.2561156,-88.352551
"54911","Appleton","WI","ReStore Habitat of Appleton.","3000 E College Ave","54915",44.259809598517634,-88.3637414431364
"54911","Appleton","WI","Northside True Value Hardware","1415 N Richmond St","54911",44.2741252,-88.4162381
"54911","Appleton","WI","Ace Hardware Of Appleton Inc","500 E Northland Ave","54911",44.287337,-88.398306
"54911","Appleton","WI","Northside Hardware","not_available","54911",44.27394,-88.41628
"54911","Appleton","WI","Ferguson Plumbing Supply","2300 N Sandra St","54911",44.2829552519332,-88.3579376171297
"54911","Appleton","WI","A to Z Machine Company, Inc.","2701 E. Winslow Ave.","54911",44.2884243,-88.3661982
"54911","Appleton","WI","Eagle Supply & Plastics","500 E Winnebago St","54911",44.270050048828125,-88.39946746826172
"54911","Appleton","WI","AIRGAS","3400 N Executive Dr","54911",44.29446,-88.35866
"54911","Appleton","WI","Nexgen Building Supply","3210 N Zuehlke Dr","54911",44.292429,-88.35777399999999
"54913","Appleton","WI","Menards","5105 Integrity Way","54913",44.270456530506664,-88.48308205604553
"54913","Appleton","WI","The Home Depot","653 N Westhill Blvd","54914",44.2688241,-88.463688
"54913","Appleton","WI","Stein's Garden & Home","4860 W Wisconsin Ave","54913",44.27405,-88.480239
"54913","Appleton","WI","Grand True Value Rental","1350 W Wisconsin Ave","54914",44.2730850505,-88.4267892929
"54913","Appleton","WI","Insulation  & Supply Company Inc","not_available","54942",44.278341,-88.507632
"54913","Appleton","WI","Sherwin-Williams Paint Store","1140 N Westhill Blvd","54914",44.271484,-88.46038399999999
"54913","Appleton","WI","minuteKEY","5105 Intergrity Way","54913",44.2717662,-88.4862433
"54913","Appleton","WI","Christensen Heating & Cooling","not_available","54914",44.272972,-88.43119
"54913","Appleton","WI","Woodcraft","4731 W Michaels Dr","54913",44.2671876,-88.47754611
"54913","Appleton","WI","Trico","not_available","54913",44.320139406144826,-88.41127265275131
"54913","Appleton","WI","Hanson's Quality Plumbing","550 N Bluemound Dr","54914",44.267020945362894,-88.45557857763288
"54913","Appleton","WI","Fastenal","1050 N Perkins St","54914",44.269777000000005,-88.440791
"54913","Appleton","WI","wiscolift","W6396 Specialty Dr","54942",44.27799249417628,-88.51272583007812
"54913","Appleton","WI","Ferguson Waterworks","5350 N Richmond St","54913",44.318667,-88.413261
"54914","Appleton","WI","Harbor Freight Tools","3325 W College Ave","54914",44.260584177375414,-88.45764361409691
"54914","Appleton","WI","Sherwin-Williams Paint Store","1023 W College Ave","54914",44.261491,-88.42174200000001
"54914","Appleton","WI","Grow Big Gardening Supplies","958 S Westland Dr","54914",44.254197,-88.46501500000001
"54914","Appleton","WI","Tesch Chemical Co.","1281 Midway Rd","54912",44.229251861572266,-88.42141723632812
"54914","Appleton","WI","minuteKEY","955 N Mutual Way","54913",44.269256,-88.479407
"54914","Appleton","WI","Northern Tool + Equipment","4675 Associated Ct","54913",44.273869,-88.475413
"54915","Appleton","WI","The Home Depot","2201 S Kensington Ave","54915",44.2419839,-88.3620479
"54915","Appleton","WI","KITZ & PFEIL TRUE VALUE HDWE","1919 E Calumet St","54915",44.24293899536133,-88.37781524658203
"54915","Appleton","WI","darboy stone & brick","not_available","54915",44.2518492872105,-88.35349436619578
"54915","Appleton","WI","Sherwin-Williams Commercial Paint Store","1267 Appleton Rd","54952",44.224344,-88.42504
"54915","Appleton","WI","Gerhard's Kitchen & Bath Store","2100 W College Ave","54914",44.263053,-88.439266
"54915","Appleton","WI","KITZ & PFEIL TRUE VALUE HDWE","1212 Appleton Rd","54952",44.22337341308594,-88.42756652832031
"54915","Appleton","WI","Speedy Metals","1850 W Spring St","54914",44.271843,-88.435808
"54915","Appleton","WI","Foundation Building Materials","882-B Valley Road","54952",44.2378627,-88.43361225
"54921","Bancroft","WI","Plainfield True Value","406 W Poplar St","54966",44.2145406122449,-89.4966881632653
"54921","Bancroft","WI","Husqvarna US","8213 COUNTY JJ","54921",44.30733108520508,-89.52851104736328
"54923","Berlin","WI","True Value Hardware-Kitz & Pfeil","780 Greentree Mall","54923",43.9682377,-88.9706173
"54923","Berlin","WI","Tractor Supply Co.","824 Broadway St","54923",43.967129,-88.977216
"54930","Coloma","WI","Hardware Hank","159 Front St","54930",44.029265775169996,-89.52219499009426
"54932","Eldorado","WI","Mill Road Off-Road","not_available","54935",43.766003213291235,-88.55644366492602
"54935","Fond Du Lac","WI","Mills Fleet Farm","629 Rogersville Rd","54935",43.76298695067518,-88.47008469138554
"54935","Fond Du Lac","WI","Kitz & Pfeil True Value Hardware","40 E 1st St","54935",43.7749,-88.442899
"54935","Fond Du Lac","WI","Husqvarna US","PO Box 1558","54936",43.77299880981445,-88.4468994140625
"54935","Fond Du Lac","WI","ABC Supply","815 S Pioneer Rd, Fond du Lac, WI 54935","54935",43.763214111328125,-88.4754409790039
"54935","Fond Du Lac","WI","Badgerland Supply","55 East Larsen Drive","54937",43.74323072,-88.46292947
"54937","Fond Du Lac","WI","Menards","1200 Rickmeyer Dr","54937",43.78616554045009,-88.49050421280496
"54937","Fond Du Lac","WI","Sherwin-Williams Paint Store","N6663 Rolling Meadows Dr","54937",43.783498,-88.484491
"54937","Fond Du Lac","WI","minuteKEY","377 N Rolling Meadows Dr","54937",43.787353515625,-88.48458862304688
"54937","Fond Du Lac","WI","Mid-state supply","1222 Industrial Pkwy","54937",43.789389451101485,-88.49073613003218
"54942","Greenville","WI","Builders FirstSource","N1824 Greenville Dr","54942",44.30781037147086,-88.54936480522156
"54943","Hancock","WI","Husqvarna US","W10420 Beechnut Dr","54943",44.135353088378906,-89.40270233154297
"54943","Hancock","WI","Clarks True Value Hardware","110 S Main St","54966",44.213565826416016,-89.49201965332031
"54944","Hortonville","WI","Hardware Hanks","not_available","54961",44.37732982735421,-88.73000914089356
"54944","Hortonville","WI","L&M Cargo Straps","N3165 Highway 15","54944",44.3575860229759,-88.69898153398168
"54944","Hortonville","WI","Brick's Hortonville Hardware","326 S Nash St","54944",44.332575,-88.638448
"54952","Menasha","WI","Brazee Ace Hardware","516 N Commercial St","54956",44.193554999999996,-88.455689
"54952","Menasha","WI","Valley Fastener","267 Kaukauna St","54952",44.199061,-88.45384200000001
"54956","Neenah","WI","Krueger True Value","999 Winneconne Ave","54956",44.17840102908645,-88.4816598735243
"54956","Neenah","WI","Werner Electric Supply","2341 Industrial Dr","54956",44.1541894046258,-88.47590585483452
"54956","Neenah","WI","Husqvarna US","8808 Clayton Ave","54956",44.2110481262207,-88.5228500366211
"54961","New London","WI","Tractor Supply Co.","1651 N Shawano St","54961",44.4104,-88.743
"54963","Omro","WI","grp","not_available","54963",44.087318420410156,-88.73331451416016
"54963","Omro","WI","Omro Building Supply","Huron St","54963",44.03837503627273,-88.74401789861489
"54971","Ripon","WI","Ripon Ace Hardware","1085 W Fond Du Lac St","54971",43.852128,-88.859095
"54971","Ripon","WI","Husqvarna US","456 N Douglas St","54971",43.85062026977539,-88.82258605957031
"54971","Ripon","WI","Schmitt Lumber","427 E. Fond Du Lac St.","54971",43.83928680419922,-88.83047485351562
"54971","Ripon","WI","Shop At RHS","not_available","54971",43.83662828030001,-88.83120767573004
"54981","Waupaca","WI","Ace Hardware","N3155 County Hwy Qq","54981",44.348101,-89.110143
"54981","Waupaca","WI","Fastenal","not_available","54981",44.351253509521484,-89.04541015625
"54981","Waupaca","WI","Ace Hardware","N3155 County Road Qq","54981",44.3844769,-89.180803
"54981","Waupaca","WI","JCPenney","101 S Washington St","54981",44.35770034790039,-89.08592987060547
"54981","Waupaca","WI","Sears","820 W Fulton Ave","54981",44.35879,-89.1007786
"54981","Waupaca","WI","Torborg's","Fulton","54981",44.356505196788724,-89.10188695003171
"54981","Waupaca","WI","Jay-Mar, Inc","905 Ware St","54981",44.359413146972656,-89.07442474365234
"54982","Wautoma","WI","wautoma hardware","not_available","54982",44.07405090332031,-89.28392791748047
"54982","Wautoma","WI","Ace Hardware of Wautoma","983 E Plaza Rd","54982",44.094174,-89.219306
"54982","Wautoma","WI","Mid-State Supply","W7810 State Hwy 21","54982",44.07144202893578,-89.27282094955444
