"zip","city","state","name","address","postalCode","lat","lon"
"89001","Alamo","NV","Logans","not_available","89001",37.3923705397152,-115.17816736981364
"89002","Henderson","NV","Lowe's","1401 South Boulder Highway","89015",36.013977,-114.9572296
"89002","Henderson","NV","minuteKEY","1401 S Boulder Hwy","89015",36.013794,-114.95759199999999
"89003","Beatty","NV","Beatty Mercantile","not_available","89003",36.90819388597115,-116.75851040390668
"89005","Boulder City","NV","Ace Shopper Stopper","541 Nevada Hwy","89005",35.97728,-114.83801
"89005","Boulder City","NV","www.affordablespasandparts.com","818 Schooner Dr","89015",36.042784999999995,-114.95666100000001
"89005","Boulder City","NV","Home Hardware & Variety","706 Canyon Rd","89005",35.975145511977,-114.846793779942
"89005","Boulder City","NV","Boulder City Lock And Key","1625 Carse Dr","89005",35.971884,-114.85729
"89005","Boulder City","NV","Rent-A-Center","526 S Boulder Hwy","89015",36.0327902,-114.972683
"89007","Bunkerville","NV","Do It Best","not_available","not_available",36.79736532108491,-114.12141063169797
"89007","Bunkerville","NV","Sherwin-Williams Paint Store","140 Riverside Rd","89027",36.801231384277344,-114.09294128417969
"89008","Caliente","NV","Lincoln True Value","169 Clover St","89008",37.61402893066406,-114.51013946533203
"89011","Henderson","NV","Lowe's","440 Marks Street","89014",36.057999,-115.035399
"89011","Henderson","NV","The Home Depot","1030 Sunset Road","89014",36.064906,-115.0343326
"89011","Henderson","NV","Sears","1437 W Sunset","89014",36.0621156,-115.0483141
"89011","Henderson","NV","Ahern Rentals Inc","777 W Sunset Rd","89011",36.063036,-115.02629099999999
"89011","Henderson","NV","Nevada Compressed Gas & Equipment","not_available","89015",36.06319622575959,-115.02868059063817
"89011","Henderson","NV","Kempner Supply","180 Cassia Way","89014",36.041146000000005,-115.02566100000001
"89011","Henderson","NV","RIDGESTONE HOSEPOWER","2030 Haren Dr","89011",36.068337,-114.997781
"89011","Henderson","NV","minuteKEY","440 Marks St","89014",36.057922,-115.035399
"89011","Henderson","NV","overhead garage door Henderson","1445 American Pacific Dr","89074",36.041351,-115.049117
"89011","Henderson","NV","Ferguson Waterworks","740 Cape Horn Dr","89011",36.0601692199707,-115.02557373046875
"89011","Henderson","NV","Ferguson Plumbing Supply","501 Parkson Rd","89011",36.060581,-115.024065
"89011","Henderson","NV","City Electric Supply Henderson","1175 American Pacific Dr Ste D","89074",36.040704,-115.035452
"89011","Henderson","NV","Leslie's Commercial #3028","6658 Boulder Highway","not_available",36.07883984242025,-115.02636938789311
"89011","Henderson","NV","Sherwin-Williams Paint Store","1224 N Boulder Hwy","89011",36.055818,-114.99951100000001
"89012","Henderson","NV","Ace Hardware","1450 W Horizon Ridge Pkwy Ste 420","89012",36.022497,-115.05049
"89012","Henderson","NV","Lumber Liquidators Flooring","27 S Stephanie St","89012",36.02820670682798,-115.04921912268446
"89014","Henderson","NV","Sherwin-Williams Paint Store","191 N Pecos Rd","89074",36.04198578930717,-115.09822340945574
"89014","Henderson","NV","Harbor Freight Tools","3550 E Sunset Rd Ste B","89120",36.072486330777835,-115.09690886844264
"89014","Henderson","NV","Green Valley Turf Equipment Inc","6145 Annie Oakley Dr","89120",36.077601,-115.087048
"89014","Henderson","NV","The Project","Beechnut","89074",36.03867803813379,-115.06396062900416
"89014","Henderson","NV","The Honest Plumber Heating and Air","112 Cassia Way","89014",36.03732,-115.02411299999999
"89014","Henderson","NV","City Electric Supply Arrowhead","6350 Annie Oakley Dr","89120",36.07388866780603,-115.086470246315
"89014","Henderson","NV","Sherwin-Williams Paint Store","2567 Windmill Pkwy","89074",36.04200081,-115.098166
"89014","Henderson","NV","Flamingo Tile Inc","2574 Wigwam Pkwy","89074",36.03428168379109,-115.09968280792236
"89014","Henderson","NV","Sunset Village","not_available","89014",36.068168151037256,-115.06905162422045
"89022","Manhattan","NV","C&K  Hardware","70 Manley Ranch Rd","89045",38.532,-117.19873
"89027","Mesquite","NV","Animal Farm","1085 W Pioneer Blvd","89027",36.808734,-114.106974
"89027","Mesquite","NV","Sears","62 W Mesquite Blvd","89027",36.80369552823538,-114.0690158383677
"89027","Mesquite","NV","Mesquite Lumber & Supply","102 W Mesquite Blvd","89027",36.803494908064344,-114.06995058059692
"89027","Mesquite","NV","Valley Lumber & Hardware","355 W Mesquite Blvd Ste D50","89027",36.804250870407095,-114.07488584518433
"89027","Mesquite","NV","Mequite Lumber","not_available","89027",36.80368636386539,-114.07032446658253
"89029","Laughlin","NV","Harbor Freight","1379-1399 Ramar Road","86442",35.115936279296875,-114.59864044189453
"89029","Laughlin","NV","Lowe's","1680 Highway 95","86442",35.1226592,-114.5796818
"89029","Laughlin","NV","Ace Hardware","4515 S Highway 95","86426",35.026391220803866,-114.59820632937293
"89029","Laughlin","NV","Tractor Supply Co.","967 Hancock Rd Ste 5","86442",35.108306884765625,-114.61530303955078
"89029","Laughlin","NV","Sherwin-Williams Paint Store","2112 Highway 95","86442",35.11179946678453,-114.5971441268921
"89029","Laughlin","NV","Desert Industrial Supply","not_available","86426",35.010325,-114.596477
"89029","Laughlin","NV","Tri-State Ace Home Center","2350 Miracle Mile #160","86442",35.10844,-114.61467
"89029","Laughlin","NV","Tri-State Bldg Mtls Inc","4515 Highway 95","86426",35.0255689,-114.59863
"89029","Laughlin","NV","Demer's Glass","not_available","86442",35.07278829844873,-114.59333470007947
"89029","Laughlin","NV","Sears","2580 Highway 95 Ste 114","86442",35.0930493563837,-114.59735526945997
"89030","North Las Vegas","NV","The Home Depot","1275 W Craig Rd","89032",36.2376075,-115.1586255
"89030","North Las Vegas","NV","Lowe's","2570 East Craig Road","89030",36.2421006,-115.1164424
"89030","North Las Vegas","NV","minuteKEY","2570 EAST CRAIG ROAD","89030",36.2425708,-115.1157074
"89030","North Las Vegas","NV","Sherwin-Williams Paint Store","2032 N Bruce St","89030",36.197469,-115.125331
"89030","North Las Vegas","NV","City Electric Supply North Las Vegas","4310 Losee Rd Ste A6","89030",36.2382614,-115.1161415
"89030","North Las Vegas","NV","L & T Glass And Mirror Services","3115 E Custis Cir","89030",36.2153115,-115.1068551
"89030","North Las Vegas","NV","Nevada Bolt & Hose","2625 E Craig Rd Ste A","89030",36.23933410644531,-115.11456298828125
"89030","North Las Vegas","NV","H&E Equipment Services","4129 Losee Rd","89030",36.2351387,-115.1176204
"89030","North Las Vegas","NV","HD Waterworks","not_available","89030",36.21074,-115.133048
"89030","North Las Vegas","NV","J.T. Fasteners, INC.","3452 Neeham Rd","89030",36.232005,-115.100595
"89030","North Las Vegas","NV","HD Supply White Cap","4171 Distribution Cir","89030",36.236489,-115.121122
"89030","North Las Vegas","NV","Sherwin-Williams Paint Store","2590 E Craig Rd","89030",36.24022674560547,-115.11505126953125
"89030","North Las Vegas","NV","White Cap Construction Supply","4171 Distribution Cir #107","89030",36.236545,-115.121061
"89031","North Las Vegas","NV","Tony's General Maintenance","126 Breezy Shore Ave","89031",36.259574,-115.14223500000001
"89032","North Las Vegas","NV","Nsi supply","2835 Coleman","89032",36.210837490753356,-115.17566616639161
"89032","North Las Vegas","NV","Ace Hardware","4858 W Lone Mountain Rd","89130",36.24772222371499,-115.20925980376973
"89032","North Las Vegas","NV","City Electric Supply Northwest Las Vegas","2480 N Decatur Blvd Ste 105","89108",36.204654,-115.204495
"89032","North Las Vegas","NV","Sears","4854 West Lone Mountain Road","89130",36.24813648379465,-115.20870620151976
"89040","Overton","NV","Overton Ace Hardware","183 S Moapa Valley Blvd","89040",36.5407999,-114.4436
"89040","Overton","NV","Home Hardware & Variety","387 S Moapa Valley Blvd","89040",36.53749291757035,-114.44367311488539
"89045","Round Mountain","NV","C & K HARDWARE","HWY 376 HC60","89045",38.920753479003906,-116.89103698730469
"89048","Pahrump","NV","The Home Depot","301 N Hwy 160","89060",36.222287538521314,-115.99232196807867
"89048","Pahrump","NV","Tractor Supply Co.","900 East Nevada Hwy 372","89048",36.20531,-115.99786
"89048","Pahrump","NV","Sears","1360 E Highway 372, # 4","89048",36.2074605,-115.9895415
"89048","Pahrump","NV","Ace Hardware","1201 S Loop Rd","89048",36.20239,-115.97223
"89048","Pahrump","NV","minuteKEY","300 S Highway 160","89048",36.2149675,-115.9944693
"89048","Pahrump","NV","H&M pipe&supply","401 Emery St","89048",36.21424865722656,-115.9896469116211
"89049","Tonopah","NV","Central Nevada Hardware","Main Street","not_available",38.069027,-117.231473
"89052","Henderson","NV","Lowe's","9955 S Eastern Ave","89183",36.0073907,-115.1178036
"89052","Henderson","NV","The Home Depot","2200 E Serene Ave","89123",36.02223842533656,-115.12186467647552
"89052","Henderson","NV","Sherwin-Williams Paint Store","10740 S Eastern Ave","89052",35.99698257446289,-115.10122680664062
"89052","Henderson","NV","elements","not_available","89052",36.005780016299575,-115.11746713154311
"89052","Henderson","NV","minuteKEY","2310 E Serene Ave","89123",36.0205834,-115.1189218
"89074","Henderson","NV","Houdini Locksmith","30 Tuckaway Ct","89074",36.03011707644347,-115.09880304336548
"89081","North Las Vegas","NV","84 Lumber","not_available","89081",36.251614,-115.1116
"89081","North Las Vegas","NV","Fastenal","4220 E Craig Rd","89030",36.240864783333336,-115.08167318333334
"89081","North Las Vegas","NV","Foundation Building Materials","4711 Mitchell Street","89081",36.24621747,-115.09235909
"89084","North Las Vegas","NV","The Home Depot","855 East Dorrell Lane","89086",36.285941,-115.1312252
"89084","North Las Vegas","NV","minuteKEY","6464 N Decatur Blvd","89131",36.2777207,-115.2031001
"89101","Las Vegas","NV","Ewing Irrigation","72 Spectrum Blvd","89101",36.16221676337686,-115.1016802490085
"89101","Las Vegas","NV","Now Plumbing and Heating","3191 Builders Ave","89101",36.159919,-115.10301499999998
"89101","Las Vegas","NV","Woodie Carlson Electric Motor Service","709 N Main St","89101",36.178569,-115.141982
"89102","Las Vegas","NV","Lowe's","4625 West Charleston Boulevard","89102",36.1562555,-115.203812
"89102","Las Vegas","NV","One Stop Trim Shop","1600 S Decatur Blvd","89102",36.153117,-115.208409
"89102","Las Vegas","NV","Pacific West Flooring","3870 Spring Mountain Rd","89102",36.126716841856194,-115.1915009989625
"89102","Las Vegas","NV","Ferguson Plumbing Supply","3033 S Valley View Blvd","89102",36.135288,-115.190976
"89102","Las Vegas","NV","Grainger","2401 Western Ave","89102",36.145239000000004,-115.165947
"89102","Las Vegas","NV","Kiesub Electronics","3185 S Highland Dr Ste 10","89109",36.13213853664883,-115.17710745334625
"89102","Las Vegas","NV","Farnsworth Wholesale","3209 Meade Ave","89102",36.13577,-115.183668
"89102","Las Vegas","NV","Ideal Supply Co, Inc.","2935 S Highland Dr","89109",36.13648986816406,-115.17410278320312
"89102","Las Vegas","NV","A Pro Plumbing Supply","not_available","89109",36.139137268066406,-115.16841125488281
"89102","Las Vegas","NV","Sherwin-Williams Paint Store","4237 W Sahara Ave","89102",36.14405822753906,-115.198486328125
"89102","Las Vegas","NV","RSD","not_available","89102",36.14866993838886,-115.162951411702
"89102","Las Vegas","NV","Tool Service","2912 S Highland Dr","89109",36.136651,-115.172205
"89102","Las Vegas","NV","minuteKEY","4505 W Charleston Blvd","89102",36.156346,-115.20161
"89102","Las Vegas","NV","PPG Paints","1545 W Oakey Blvd","89102",36.15171813964844,-115.16228485107422
"89102","Las Vegas","NV","Tool Room","not_available","89107",36.16091305086519,-115.19046466664875
"89102","Las Vegas","NV","George D Lewis Company","2603 S Highland Dr","89109",36.142546,-115.170126
"89102","Las Vegas","NV","Aria Remodeling","3111 S Valley View Blvd","89102",36.132057,-115.192379
"89102","Las Vegas","NV","Concrete Accessories Inc","3500 Meade Ave","89102",36.136742,-115.18746999999999
"89102","Las Vegas","NV","Blue Rhino","2650 Las Vegas Blvd S","89109",36.140269,-115.16130600000001
"89103","Las Vegas","NV","The Home Depot","4750 S Decatur Blvd","89103",36.1026587,-115.2066579
"89103","Las Vegas","NV","McFadden-Dale Industrial Hardware","5580 S Decatur Blvd","89118",36.0893511077407,-115.20743380428392
"89103","Las Vegas","NV","Intermountain Lock","not_available","89118",36.10065100157994,-115.19257785464374
"89103","Las Vegas","NV","Harbor Freight Tools","4740 S Decatur Blvd","89103",36.103643626232085,-115.2070532950032
"89103","Las Vegas","NV","Sherwin-Williams Commercial Paint Store","5280 S Valley View Blvd","89118",36.09407043,-115.1892242
"89103","Las Vegas","NV","Mac Tools Tool Fair","not_available","89103",36.11500479331981,-115.21575830921839
"89103","Las Vegas","NV","Fastners Inc","4170 W Harmon Ave","89103",36.109153747558594,-115.19548797607422
"89103","Las Vegas","NV","All American Abrasives","5665 S Valley View Blvd #3","89118",36.08696746826172,-115.19058227539062
"89103","Las Vegas","NV","Sherwin-Williams Paint Store","3630 Highland Dr","89103",36.12301254272461,-115.18285369873047
"89103","Las Vegas","NV","Silver State Roofing Supply","4730 Wynn Rd","89103",36.104197678068665,-115.19424301853893
"89103","Las Vegas","NV","Woodworker's Emporium","5461 Arville St","89118",36.09049966673974,-115.19937515258789
"89103","Las Vegas","NV","Ewing Irrigation","4705 S Valley View Blvd","89103",36.104112,-115.19051499999999
"89104","Las Vegas","NV","The Home Depot","1401 S Lamb Blvd","89104",36.1560136,-115.0826669
"89104","Las Vegas","NV","Lowe's","2875 E Charleston Boulevard","89104",36.1569158,-115.1115762
"89104","Las Vegas","NV","Sotelo Air Conditioning","1918 E Charleston Blvd","89104",36.158474,-115.12249399999999
"89104","Las Vegas","NV","Ace Lock & Key Service","1201 S Casino Center Blvd","89104",36.157162,-115.15211799999999
"89104","Las Vegas","NV","Las Vegas garage door repair","2232 S Nellis Blvd","89104",36.14582443237305,-115.06407165527344
"89104","Las Vegas","NV","Faciliteq Las Vegas","1310 S 3rd St","89104",36.15555018,-115.15159098
"89104","Las Vegas","NV","minuteKEY","2875 E Charleston Blvd","89104",36.15690612792969,-115.11196899414062
"89104","Las Vegas","NV","Sherwin-Williams Paint Store","4990 E Sahara Ave","89104",36.144575,-115.066423
"89104","Las Vegas","NV","Harbor Freight Tools","2240 S Nellis Blvd Ste F-1","89104",36.14568159176161,-115.06351346487246
"89104","Las Vegas","NV","Resco Restaurant Supply","1300 E Charleston Blvd","89104",36.158471332468814,-115.13523791585888
"89106","Las Vegas","NV","Keenan Supply","not_available","89106",36.176612449270536,-115.15533157990423
"89106","Las Vegas","NV","Standard True Value - Lv Rancho","1767 N Rancho Dr","89106",36.192295,-115.189575
"89107","Las Vegas","NV","Sears","4000 Meadows Lane","89107",36.17269941,-115.19465171
"89108","Las Vegas","NV","Lowe's","6050 West Craig Road","89130",36.2411566,-115.2268935
"89108","Las Vegas","NV","Ferguson Plumbing Supply","4454 N Rancho Dr","89130",36.241521369863,-115.234233972603
"89108","Las Vegas","NV","Ewing Irrigation","3521 N Rancho Dr","89130",36.22270965576172,-115.21824645996094
"89108","Las Vegas","NV","Sherwin-Williams Paint Store","3611 N Rancho Dr","89130",36.225119,-115.220044
"89108","Las Vegas","NV","Lowe's Build and Grow","not_available","89130",36.240808,-115.226474
"89108","Las Vegas","NV","Sherwin-Williams Paint Store","1936 Rock Springs Dr","89128",36.194889068603516,-115.24664306640625
"89108","Las Vegas","NV","minuteKEY","6050 W Craig Rd","89130",36.240753173828125,-115.22721099853516
"89108","Las Vegas","NV","Ahern Hardware","3535 N Rancho Dr","89130",36.223966,-115.21903700000001
"89109","Las Vegas","NV","Standard True Value - Las Vegas","1640 E Tropicana Ave","89119",36.10168537,-115.12892186
"89109","Las Vegas","NV","Secure Data Recovery Services","3960 Howard Hughes Pkwy","89169",36.12283151299992,-115.14184713363646
"89109","Las Vegas","NV","City Electric Supply Central Las Vegas","2609 S Highland Dr","89109",36.142546,-115.170126
"89109","Las Vegas","NV","Sherwin-Williams Paint Store","1298 E Tropicana Ave","89119",36.10142290478162,-115.13494849205017
"89110","Las Vegas","NV","sunrise glass and hardware","not_available","89110",36.18659050728681,-115.06195085146389
"89110","Las Vegas","NV","minuteKEY","201 N Nellis Blvd","89110",36.16452407836914,-115.06324005126953
"89113","Las Vegas","NV","The Home Depot","7015 Arroyo Crossing Pky","89113",36.0622888,-115.2446779
"89113","Las Vegas","NV","Interior Gardens","6275 S Rainbow Blvd Ste 100","89118",36.074618,-115.24344099999999
"89113","Las Vegas","NV","Sherwin-Williams Paint Store","8020 S Rainbow Blvd","89139",36.043243408203125,-115.2428207397461
"89113","Las Vegas","NV","Commercial Hardware Supply","7455 Arroyo Crossing Pkwy","89113",36.062736,-115.253635
"89113","Las Vegas","NV","Closets Las Vegas","7060 W Warm Springs Rd","89113",36.056189,-115.2463
"89113","Las Vegas","NV","Dunn-Edwards Paints","6181 S Rainbow Blvd #101","89118",36.076507568359375,-115.24313354492188
"89115","Las Vegas","NV","Lowe's","2465 N Nellis Boulevard","89115",36.2045245,-115.0650165
"89115","Las Vegas","NV","minuteKEY","2465 N Nellis Blvd","89115",36.20453643798828,-115.06517028808594
"89115","Las Vegas","NV","Sherwin-Williams Product Finishes","4168 N Pecos Rd","89115",36.23567581176758,-115.09638977050781
"89117","Las Vegas","NV","The Home Depot","9705 W Charleston Blvd","89117",36.1583129,-115.3082091
"89117","Las Vegas","NV","The Home Depot","861 S Rainbow Blvd","89145",36.1622562,-115.2454387
"89117","Las Vegas","NV","Ferguson Plumbing Supply","8689 W Charleston Blvd Ste 108","89117",36.157875,-115.283437
"89118","Las Vegas","NV","Universal Solar Direct","4775 W Teco Ave Suite 115","89118",36.073202064602576,-115.20659088389209
"89118","Las Vegas","NV","Chief Septic & Sewer","6911 S Valley View Blvd","89118",36.06426239013672,-115.19082641601562
"89118","Las Vegas","NV","Allied Refrigeration","3460 W Post Rd","89118",36.075569,-115.186213
"89118","Las Vegas","NV","ProSource of Las Vegas","7350 Dean Martin Dr Ste 303","89139",36.056137,-115.1828947
"89118","Las Vegas","NV","HD Supply White Cap","3450 W Teco Ave","89118",36.07381820678711,-115.186279296875
"89118","Las Vegas","NV","Bath And Kitchen Gallery","6820 W Patrick Ln","89118",36.07839584350586,-115.24104309082031
"89118","Las Vegas","NV","Ferguson Fire & Fabrication","3950 W Oquendo Rd","89118",36.082804,-115.192591
"89118","Las Vegas","NV","Cabinet Cures","3775 W Teco Ave #7","89118",36.07307052612305,-115.18982696533203
"89119","Las Vegas","NV","Lowe's","5825 South Eastern Avenue","89119",36.084396,-115.122153
"89119","Las Vegas","NV","Fan Co.","7231 S Eastern Ave","89119",36.05949401855469,-115.1187744140625
"89119","Las Vegas","NV","Graybar","not_available","89119",36.05828,-115.17127
"89119","Las Vegas","NV","minuteKEY","6005 S Eastern Ave","89119",36.0802233,-115.1214514
"89119","Las Vegas","NV","minuteKEY","5825 S Eastern Ave","89119",36.08414077758789,-115.1214828491211
"89119","Las Vegas","NV","Leslie's Commercial Service Center","365 E Arby Ave","89119",36.0601692199707,-115.15592956542969
"89119","Las Vegas","NV","Arcadia Inc.","1850 E Maule Ave","89119",36.06433059830458,-115.1268424574321
"89120","Las Vegas","NV","The Home Depot","6025 South Pecos Road","89120",36.080785,-115.1020897
"89120","Las Vegas","NV","Slice Shared Commissary","6235 South Pecos Road Suite #106","89120",36.0768235,-115.1015041
"89120","Las Vegas","NV","Ferguson Plumbing Supply","6280 S Pecos Rd Ste 300","89120",36.076817374641976,-115.10048777668868
"89120","Las Vegas","NV","Dunn-Edwards Paints","4300 E Tropicana Ave","89121",36.10011785698265,-115.07944766558727
"89120","Las Vegas","NV","Ewing Irrigation","6330 Annie Oakley Dr","89120",36.074242,-115.086538
"89120","Las Vegas","NV","Ace Hardware","2718 N Green Valley Pkwy","89014",36.069653,-115.080891
"89120","Las Vegas","NV","Reliable Appliances","3421 Pecos Rd","not_available",36.10019304952556,-115.08295734084435
"89121","Las Vegas","NV","Leslie's Pool Supplies","3410 E Desert Inn Rd","89121",36.12987150628778,-115.10056885348361
"89121","Las Vegas","NV","Ace Hardware Store","3320 E Flamingo Rd Ste 41","89121",36.115437,-115.10254
"89121","Las Vegas","NV","Sherwin-Williams Paint Store","4598 E Tropicana Ave","89121",36.10059356689453,-115.07363891601562
"89123","Las Vegas","NV","Shed Light","not_available","89123",36.04443,-115.158385
"89123","Las Vegas","NV","Southwest Blinds & Shutters","8565 S Eastern Ave","89123",36.03401329999999,-115.12008170000001
"89124","Las Vegas","NV","The Home Depot","7881 W Tropical Parkway","89149",36.2696695,-115.2661005
"89124","Las Vegas","NV","Lowe's","5050 South Fort Apache Road","89148",36.0971992,-115.2939428
"89124","Las Vegas","NV","Lowe's","7550 West Washington","89128",36.1825392,-115.2572722
"89124","Las Vegas","NV","Lowe's","7751 N El Capitan Way","89143",36.3020887,-115.2862256
"89124","Las Vegas","NV","The Home Depot","4195 S Fort Apache Rd","89147",36.113644727950415,-115.2990460395813
"89124","Las Vegas","NV","Lowe's","851 South Pavilion Center Drive","89144",36.1627433,-115.3355176
"89124","Las Vegas","NV","Van Marckeâ€™s Ace Hardware","S Durango","89147",36.100839,-115.280763
"89124","Las Vegas","NV","Ace Hardware","10630 Southern Highlands Pkwy","89141",35.9959029,-115.20733
"89128","Las Vegas","NV","Dunn Edwards","7270 W Lake Mead Blvd","89128",36.197218,-115.25
"89128","Las Vegas","NV","minuteKEY","7550 W Washington Ave","89128",36.182403564453125,-115.25801086425781
"89128","Las Vegas","NV","Dunn-Edwards Paints","7450 W Lake Mead Blvd #4","89128",36.19697570800781,-115.25615692138672
"89129","Las Vegas","NV","Ace Hardware","8400 W Cheyenne Avenue","89129",36.2198849,-115.27675
"89129","Las Vegas","NV","Vista Paint","7340 W Cheyenne Ave","89128",36.219181060791016,-115.25433349609375
"89130","Las Vegas","NV","minuteKEY","6101 N Decatur Blvd","89130",36.273348,-115.209354
"89131","Las Vegas","NV","Total Custom Cleaning-Hunter Douglas Specialist","2708 East Oakland Park Boulevard","33306",36.301412979093776,-115.28151512145995
"89131","Las Vegas","NV","Leslies Pool Supply","6515 N Buffalo Dr","89131",36.281517,-115.266281
"89131","Las Vegas","NV","Sun Equipment & Supply Co Inc.","8414 Farm Rd","89131",36.300659,-115.279394
"89131","Las Vegas","NV","Mario's Handyman Specialist","8126 Denevin St","89131",36.308274,-115.218944
"89135","Las Vegas","NV","minuteKEY","851 S Pavilion Center Dr","89144",36.162928,-115.336028
"89139","Las Vegas","NV","garage door repair las vegas","7835 S Rainbow Blvd","89139",36.04557707248651,-115.24246215820312
"89139","Las Vegas","NV","Monark Premium Appliance","7370 Dean Martin Dr","89139",36.05607075,-115.18195655
"89139","Las Vegas","NV","Sherwin-Williams Floorcovering Store","7470 Dean Martin Dr","89139",36.05433812438475,-115.18300294876099
"89139","Las Vegas","NV","Horizon (Irrigation*Landscape)","8298 Arville St Ste 101","89139",36.041175842285156,-115.19791412353516
"89145","Las Vegas","NV","Harbor Freight Tools","160 S Rainbow Blvd #160","89145",36.1721668065673,-115.24598969644562
"89145","Las Vegas","NV","Strictly Iron","613 Greenhurst Rd","89145",36.1651725769043,-115.2531967163086
"89146","Las Vegas","NV","Stanley Security","5400 Sahara","not_available",36.144829,-115.21637
"89146","Las Vegas","NV","Tile For Less","5251 W Charleston Blvd","89146",36.158608,-115.21355600000001
"89146","Las Vegas","NV","Liberty Lock & Key","5470 W Sahara Ave","89146",36.14484,-115.21629
"89146","Las Vegas","NV","Kirby Service","5589 W Charleston Blvd","89146",36.15841293334961,-115.21841430664062
"89146","Las Vegas","NV","Kindred Sahara Mantinece Shop","not_available","89104",36.14563540971602,-115.21201273185932
"89147","Las Vegas","NV","minuteKEY","3615 S Rainbow Blvd","89103",36.122201,-115.246952
"89147","Las Vegas","NV","minuteKEY","5050 S Fort Apache Rd","89148",36.09717559814453,-115.29451751708984
"89147","Las Vegas","NV","Ferguson Plumbing Supply","4175 S Grand Canyon Dr Ste 109","89147",36.1136048958755,-115.306777447938
"89147","Las Vegas","NV","Sherwin-Williams Paint Store","8475 W Flamingo Rd","89147",36.11437895,-115.27608856666667
"89148","Las Vegas","NV","Frazee","5435 S Fort Apache Rd","89148",36.09019470214844,-115.29783630371094
"89149","Las Vegas","NV","NPS Pool & Spa Supply","6275 Centennial Center Blvd","89149",36.27299118041992,-115.2686767578125
"89149","Las Vegas","NV","Loews","not_available","89131",36.262542,-115.267863
"89301","Ely","NV","Bath Ace Hardware","1800 Avenue G","89301",39.25783157348633,-114.85450744628906
"89301","Ely","NV","True Value Hardware & Variety","701 Great Basin Blvd","89301",39.25269717,-114.8746352
"89310","Austin","NV","SAI Property Maintenance LLC","N.702 Hancock rd.","53098",39.34140044413402,-117.12792634963989
"89316","Eureka","NV","Southfork Hardware - Eureka","201 N Main St","89316",39.51472854614258,-115.96147918701172
"89316","Eureka","NV","Raine's Market- Ace Hardware","901 N Main Street","89316",39.53216552734375,-115.96805572509766
"89403","Dayton","NV","Mound House True Value Hardware & Storage","10189 Hwy 50 E","89706",39.26832,-119.57456
"89406","Fallon","NV","Kent Lumber","not_available","89406",39.478023,-118.776923
"89406","Fallon","NV","Sears","1430 W. Williams Ave.","89406",39.475481423112605,-118.79279762506485
"89406","Fallon","NV","Louie's Home Center","1855 W Williams Ave","89406",39.4758,-118.7972
"89408","Fernley","NV","Lowe's","375 Stanley Dr E","89408",39.61341856,-119.2114181
"89410","Gardnerville","NV","Ace Hardware","1406 Industrial Way","89410",38.930820000000004,-119.730346
"89410","Gardnerville","NV","Meeks","not_available","89410",38.930051,-119.73119
"89415","Hawthorne","NV","Wagner's Hardware  Inc.","440 E Street","89415",38.5244429,-118.61448
"89415","Hawthorne","NV","B & B True Value Hardware","E 5th & M St","89415",38.52449,-118.61704
"89419","Lovelock","NV","Ace Hardware","1210 Cornell","89419",40.181871,-118.473352
"89419","Lovelock","NV","Pitt Mill Ace Hardware","1201-1299 Cornell Ave","89419",40.18232585,-118.47282379
"89423","Minden","NV","The Home Depot","921 Jacks Valley Road","89705",39.0976104,-119.7771485
"89423","Minden","NV","Tractor Supply Co.","1645 Hwy 88","89423",38.957435607910156,-119.77757263183594
"89423","Minden","NV","Northern Nevada Fence Products Inc.","2597 Nowlin Rd","89423",39.02641863000091,-119.75337982177736
"89431","Sparks","NV","Lowe's","1355 Scheels Drive","89434",39.5303589,-119.7183032
"89431","Sparks","NV","Harbor Freight","495 E. Prater Way","89431",39.540203000000005,-119.737816
"89431","Sparks","NV","Tractor Supply Co.","451 East Prater Way","89431",39.540203000000005,-119.737816
"89431","Sparks","NV","Rail City Garden Center","1720 Brierley Way","89434",39.528474945803666,-119.7095911051486
"89431","Sparks","NV","Western Nevada Supply","950 S Rock Blvd","89431",39.52495422168358,-119.76629270570105
"89431","Sparks","NV","Codale Electric Supply","966 East Greg Street","89431",39.522518157958984,-119.7280502319336
"89431","Sparks","NV","m & ms","1460 Linda Way","89502",39.5234375,-119.74706268310547
"89431","Sparks","NV","Granger","not_available","89431",39.52766,-119.77498
"89431","Sparks","NV","Zed Hardware","not_available","89434",39.54857512071477,-119.7265899315544
"89431","Sparks","NV","Shelly's True Value Hardware","440 Greenbrae Dr","89431",39.547746000000004,-119.749454
"89431","Sparks","NV","Impact Equipment Company","655 E Nugget Ave","89431",39.5302119,-119.733623
"89431","Sparks","NV","Italia Granite","475 E Greg St","89431",39.521032,-119.735343
"89431","Sparks","NV","minuteKEY","1355 Scheels Dr","89434",39.530156,-119.71765
"89431","Sparks","NV","Grapplers Inc.","95 Glen Carran Circle","89431",39.52861,-119.74044
"89431","Sparks","NV","Sparks tile and stone","935 S Rock Blvd","89461",39.525325,-119.767323
"89431","Sparks","NV","Ewing Irrigation","1643 Greg St","89431",39.522499084472656,-119.7649917602539
"89431","Sparks","NV","Arthur Products","1492 Linda Way","89431",39.522798,-119.747095
"89431","Sparks","NV","CWallA","1260 Glendale Ave","89431",39.529794,-119.759648
"89431","Sparks","NV","ProSource of Reno","605 Glendale Ave Ste 106","89431",39.52681,-119.75099
"89431","Sparks","NV","Sears","350 Glendale Avenue, Suite 100","89431",39.5277301,-119.7471836
"89431","Sparks","NV","White Cap Construction Supply","1830 E Lincoln Way","89434",39.534157,-119.713047
"89431","Sparks","NV","HD Supply White Cap","1830 East Lincoln Way","89434",39.53406213,-119.71306539
"89431","Sparks","NV","Fastenal Company","1117 Gator Way","89431",39.522259999999996,-119.741851
"89431","Sparks","NV","Mc Killican American","1802-A Brierley Way Ste 101","89434",39.52867126464844,-119.70718383789062
"89431","Sparks","NV","Grainger","900 Packer Way","89431",39.525242,-119.730201
"89433","Sun Valley","NV","The Home Depot","4655 Galleria Pkwy","89436",39.578491,-119.7420751
"89434","Sparks","NV","Sherwin-Williams Paint Store","1286 Disc Dr","89436",39.577536,-119.722319
"89444","Wellington","NV","RENNER TRUE VALUE HARDWARE","2289 State Route 208","89430",38.756858825683594,-119.3777084350586
"89445","Winnemucca","NV","Ace Hardware","930 W Winnemucca Blvd","89445",40.967187,-117.74255
"89445","Winnemucca","NV","Big R Stores","not_available","89445",40.96109082905409,-117.74743067004957
"89445","Winnemucca","NV","Ridley's Family Market Ace Hardware","1125 W Winnemucca Blvd","89445",40.96426010131836,-117.74071502685547
"89445","Winnemucca","NV","Ferguson Plumbing Supply","821 E Winnemucca Blvd","89445",40.976676,-117.725964
"89445","Winnemucca","NV","Platt Electric Supply","3085 Potato Rd","89445",40.954,-117.74
"89445","Winnemucca","NV","Platt Electrical Supply","3115 Potato Rd","89445",40.95512008666992,-117.74545288085938
"89445","Winnemucca","NV","Brown True Value","221 S Bridge St","89445",40.97411102,-117.7356939
"89447","Yerington","NV","True Value Hardware","401 W Goldfield Ave","89447",38.9939,-119.16786
"89447","Yerington","NV","Silverado Mercantile","not_available","89447",38.997099,-119.180889
"89447","Yerington","NV","Ace Hardware","119 W Bridge St","89447",38.9827999,-119.165
"89449","Stateline","NV","Menegon's Ace Hardware","4000 Lake Tahoe Blvd, Ste 20","96150",38.95503,-119.94485
"89449","Stateline","NV","Kingsbury Hardware","264 Kingsbury Grade","89449",38.96870422363281,-119.92985534667969
"89449","Stateline","NV","Tahoe Trading Post","4000 Lake Tahoe Blvd Ste 20","96150",38.95435538,-119.94471581
"89451","Incline Village","NV","Village Ace Hardware","910 Tahoe Blvd Unit 103","89451",39.250894,-119.951551
"89451","Incline Village","NV","Spitsen True Value Hardware Lumber","1054 Tahoe Blvd","89451",39.241644,-119.930796
"89451","Incline Village","NV","Czyz's Appliance","774 Mays Blvd. #11","89450",39.247239,-119.96271499999999
"89501","Reno","NV","Riverside Park Apartments","14 Park Street","89502",39.5291824,-119.80375857
"89501","Reno","NV","Grove Madsen Indurdties","390 E 6th St","89512",39.533232,-119.809848
"89501","Reno","NV","Sandbag Station","not_available","89503",39.51700386969898,-119.81807388967408
"89501","Reno","NV","Fuller Color Center","75 S Wells Ave","89502",39.52608,-119.803436
"89502","Reno","NV","The Home Depot","6590 S Virginia St","89511",39.4664471,-119.7819571
"89502","Reno","NV","Lowe's","5075 Kietzke Lane","89511",39.4747451,-119.7947727
"89502","Reno","NV","Moana Nursery Landscape And Design Center","1190 West Moana Lane","89509",39.49095216,-119.80980276
"89502","Reno","NV","Harbor Freight","3800 Kietzke Lane Suite 150","89502",39.487337079034965,-119.78755634155925
"89502","Reno","NV","Ferguson Bath, Kitchen & Lighting Gallery","1095 S Rock Blvd","89502",39.498849,-119.75361299999999
"89502","Reno","NV","Monark Premium Appliance","7525 Colbert Dr","89511",39.460977,-119.777464
"89502","Reno","NV","Appliance Parts Company","Rock blvd","89431",39.5113124785155,-119.74706312294599
"89502","Reno","NV","""D"" Lamp Doctor","209 E Moana Ln","89502",39.493014,-119.792753
"89502","Reno","NV","TMWA","not_available","89502",39.50669150771,-119.75102733664522
"89502","Reno","NV","Woodworking Source","9736 S Virginia St Ste D","89511",39.44362536396212,-119.77010562090152
"89502","Reno","NV","Sierra Repair","1600 S Wells Ave","89502",39.509029,-119.80273700000001
"89502","Reno","NV","Southwest Blinds & Shutters","9190 Double Diamond Pkwy","89521",39.446307,-119.7482184
"89502","Reno","NV","Sherwin-Williams Paint Store","9748 S Virginia St","89511",39.44294,-119.769346
"89502","Reno","NV","Travelers RV Sales","235-299 Kietzke Ln","89502",39.526534000000005,-119.789676
"89502","Reno","NV","R&E fasteners","280 S Rock Blvd #180","89502",39.511988,-119.761693
"89503","Reno","NV","The Home Depot","5125 Summit Ridge Ct","89523",39.5213095,-119.8649179
"89506","Reno","NV","North Valleys Hardware","160 Lemmon Dr","89506",39.612255470270135,-119.84873410853363
"89506","Reno","NV","H&E Equipment Services","845 N Hills Blvd","89506",39.59657680000001,-119.8280453
"89508","Reno","NV","Squire Enterprises Inc","17205 W Opal Ct","89508",39.681165,-119.959282
"89508","Reno","NV","Reno Truss, Inc.","3500 White Lake Pkwy","89508",39.672682,-119.97101
"89509","Reno","NV","Carter Bros Ace Hardware","1215 S Virginia St","89502",39.512278,-119.80674199999999
"89509","Reno","NV","Dunseath Key Co.","75 W Arroyo St","89509",39.511947,-119.807354
"89511","Reno","NV","The Home Depot","1001 Steamboat Pkwy","89521",39.425076137016525,-119.74073052406311
"89511","Reno","NV","Moana Nursery","11301","89511",39.42909622192383,-119.76394653320312
"89511","Reno","NV","Krause's","not_available","89704",39.29076036106139,-119.76913913807493
"89511","Reno","NV","Outdoor Power","4995 Longley Ln","89502",39.478488,-119.764177
"89511","Reno","NV","Czyz's Appliance","9738 S Virginia St","89511",39.444082,-119.769188
"89511","Reno","NV","24 Hour Lockouts  Reno","3983 S McCarran Blvd","89502",39.47759246826172,-119.7641372680664
"89511","Reno","NV","Harbor Freight Tools","3800 KIETZKE LN, STE 150","89502",39.48731823337891,-119.7877178292741
"89512","Reno","NV","The Home Depot","2955 Northtowne Ln","89512",39.5572517,-119.7841488
"89512","Reno","NV","Winsupply","not_available","89512",39.54953,-119.804955
"89512","Reno","NV","minuteKEY","2855 Northtowne Ln","89512",39.55345916748047,-119.78407287597656
"89512","Reno","NV","Wedco, Inc.","450 Toano St","89512",39.53400298317201,-119.79626568170136
"89521","Reno","NV","Timber Arm","not_available","89521",39.38100144736828,-119.68716144561768
"89523","Reno","NV","Handy Manny's","not_available","89523",39.521738,-119.899711
"89701","Carson City","NV","Lowe's","430 Fairview Drive","89701",39.151106,-119.763649
"89701","Carson City","NV","The Home Depot","3185 Market Street","89706",39.18693003005856,-119.75250005722046
"89701","Carson City","NV","Harbor Freight Tools","2749 N Carson St Ste 150","89706",39.184256302215495,-119.76855464685437
"89701","Carson City","NV","Tractor Supply Co.","2035 East William St","89701",39.17022,-119.765599
"89701","Carson City","NV","GDS Carson City","4232 Mulligan Dr","89701",39.17156075354001,-119.72031354904175
"89701","Carson City","NV","Wedco","3888 Wedco Way","89706",39.193971000000005,-119.749443
"89701","Carson City","NV","Meek's Carson City","2869 N Carson St","89706",39.185315,-119.768346
"89701","Carson City","NV","Greenhouse Garden Center","not_available","89703",39.145444,-119.77115
"89701","Carson City","NV","Interstate Batteries of the Sierras","2301 Arrowhead Dr","89706",39.198486328125,-119.74247741699219
"89701","Carson City","NV","Ewing Irrigation","2310 S Curry St","89703",39.146440000000005,-119.771024
"89701","Carson City","NV","minuteKEY","430 Fairview Dr","89701",39.150978,-119.764124
"89701","Carson City","NV","Sherwin-Williams Paint Store","3731 N Carson St","89706",39.191720000000004,-119.77273899999999
"89701","Carson City","NV","Meeks Lumber & Hardware","not_available","89706",39.185122,-119.770035
"89701","Carson City","NV","The San Franciscan Roaster Company","4048 Technology Way, Ste F","89706",39.1955022,-119.7265655
"89706","Carson City","NV","MOUND HOUSE TV HARDWARE & STORAGE","10189 US Highway 50 E","89706",39.21855926513672,-119.65169525146484
"89801","Elko","NV","The Home Depot","2955 Mountain City Hwy","89801",40.8386946,-115.79821
"89801","Elko","NV","Ferguson Plumbing Supply","2175 Wildwood Way","89801",40.837398,-115.735364
"89801","Elko","NV","Codale Electric Supply","2050 Meadow Ridge Dr","89801",40.83941472311509,-115.78067421913146
"89801","Elko","NV","Penrod's","225 11th St","89801",40.836102965046784,-115.75600862503052
"89801","Elko","NV","Redstone Supply, Inc.","2755 Mountain City Hwy","89801",40.838279724121094,-115.7945785522461
"89801","Elko","NV","Spring Creek Ace Hardware","263 Spring Valley Pkwy","89815",40.7920919,-115.67443
"89801","Elko","NV","Elko Tool And Fastener","3716 E Idaho St","89801",40.85785675048828,-115.73808288574219
"89801","Elko","NV","Owens Market & Ace Hardware","924 Bush Street","89822",40.717218,-116.10641
"89801","Elko","NV","Ace Hardware of Owyhee","Highway 225","89832",41.9542379,-116.10246
"89801","Elko","NV","Franklin Building Supply","not_available","89801",40.827799866846156,-115.77701811477831
"89801","Elko","NV","Sears","2120 Idaho St","89801",40.84973656051859,-115.74387993254089
"89820","Battle Mountain","NV","Lander Hardware","404 E Front St","89820",40.63827896118164,-116.93126678466797
"89835","Wells","NV","Wells Auto & Hardware","not_available","89835",41.1064183,-114.97490995
"89883","West Wendover","NV","A & I Hardware","910 Pubelo Blvd","89883",40.73986808602098,-114.07652735710144
