"zip","city","state","name","address","postalCode","lat","lon"
"20109","Manassas","VA","Lowe's","7500 Broken Branch Lane","20109",38.7925731,-77.5144076
"20109","Manassas","VA","Tractor Supply Co.","10870 Balls Ford Rd","20109",38.79862165,-77.52514964
"20109","Manassas","VA","The Home Depot","7486 Stream Walk Ln","20109",38.795409443675894,-77.52323269844055
"20109","Manassas","VA","Barrons Lumber","11801 Balls Ford Rd","20109",38.791340999999996,-77.544519
"20109","Manassas","VA","Scott's Turf Equipment","not_available","not_available",38.74693601644902,-77.50705457367576
"20109","Manassas","VA","Southern States - 77685","9751 Center St","20110",38.75247573852539,-77.490478515625
"20109","Manassas","VA","Artisan Floors","7004 Tech Cir","20109",38.804906,-77.499719
"20109","Manassas","VA","TAC Ceramic Tiling Co.","11901 Tac Ct","20109",38.7689252320734,-77.55710628827165
"20109","Manassas","VA","Bull Run Kitchen Aand Bath","not_available","20109",38.784725,-77.518438
"20109","Manassas","VA","City Electric Supply Manassas","8042 Flannery Ct","20109",38.783337,-77.558105
"20109","Manassas","VA","Ferguson Plumbing Supply","13022 Balls Ford Rd","20109",38.786355,-77.564502
"20109","Manassas","VA","Carter Paint & Decorating Center","7767 Sudley Rd","20109",38.78857929999999,-77.5131893
"20109","Manassas","VA","Harbor Freight Tools","10800 Pomona de  Ln","20109",38.7966862335423,-77.51850860699435
"20109","Manassas","VA","Capital Lighting Supply","7239 Gateway Ct","20109",38.803027,-77.497045
"20109","Manassas","VA","Sears","8200 Sudley Rd","20109",38.77428212,-77.50636353
"20109","Manassas","VA","Beltsville Construction Supply","10337 Balls Ford Rd","20109",38.801705,-77.506445
"20109","Manassas","VA","Capital Electric","7203 Gateway Ct","20109",38.80312728881836,-77.49730682373047
"20109","Manassas","VA","ABC Supply Company","12151 Tac Ct","20109",38.780440495548916,-77.55215444300967
"20109","Manassas","VA","Sherwin-Williams Paint Store","7361 Miramar Dr","20109",38.795812,-77.51933000000001
"20109","Manassas","VA","minuteKEY","7500 Broken Branch Ln","20109",38.792722999999995,-77.513873
"20109","Manassas","VA","Ferguson HVAC Supply","7780 Doane Dr Ste G","20109",38.7880114,-77.5491046
"20110","Manassas","VA","The Home Depot","8805 Liberia Avenue","20110",38.7618598,-77.45654
"20110","Manassas","VA","Parts Unlimited Inc","8515 Phoenix Dr","20110",38.763675,-77.454043
"20110","Manassas","VA","Finishmaster","8490 Kao Cir","20110",38.761410999999995,-77.45054300000001
"20110","Manassas","VA","JDM Shop of Virginia","9026 Euclid Ave","20110",38.763155,-77.452067
"20110","Manassas","VA","J E Rice Co.","9124 Mathis Ave","20110",38.758747,-77.466492
"20111","Manassas","VA","Arcet Equipment Company","not_available","20111",38.77217,-77.441652
"20111","Manassas","VA","Capitol Building Supply Inc","8429 Euclid Avenue","20111",38.77160075,-77.44217815
"20111","Manassas","VA","Sherwin-Williams Paint Store","9104 Manassas Dr","20111",38.7692985534668,-77.44271850585938
"20111","Manassas","VA","Duron Paints & Wallcoverings","9104 Manassas Dr Ste A","20111",38.7692985534668,-77.44271850585938
"20111","Manassas","VA","ABC Glass and Mirror","8395 Euclid Ave Suite B","20111",38.77352168,-77.43985781
"20112","Manassas","VA","Woodbine Hardware Inc","13418 Dumfries Rd","20112",38.6621999,-77.4398
"20112","Manassas","VA","Atlas remodeling group","13155 Quade Ln","22193",38.668027,-77.360015
"20115","Marshall","VA","The Home Depot","267 Alwington Blvd","20186",38.6965408,-77.7919998
"20115","Marshall","VA","Tractor Supply Co.","41 West Lee Hwy Ste 65","20186",38.730299,-77.793468
"20115","Marshall","VA","Tractor Supply Co.","4203 Old Stockyard Rd","20115",38.864719,-77.848422
"20115","Marshall","VA","Gilliams","not_available","20186",38.71078,-77.802404
"20115","Marshall","VA","Rankins True Value Hardware","251 W Lee Hwy","20186",38.73093,-77.800415
"20115","Marshall","VA","Capitol Building Supply Inc","7595 Capitol Way","20115",38.864575,-77.833486
"20115","Marshall","VA","Sherwin-Williams Paint Store","150 Broadview Ave","20186",38.721378,-77.806761
"20115","Marshall","VA","CFC Farm & Home Center","143 Washington St","20186",38.708275,-77.79383299999999
"20115","Marshall","VA","Husqvarna US","763 James Madison Hwy","20186",38.69547653198242,-77.78706359863281
"20117","Middleburg","VA","Southern States","201 W Washington St","not_available",38.967839,-77.737895
"20117","Middleburg","VA","Middleburg Millwork","not_available","20117",38.967803,-77.735
"20119","Catlett","VA","C.K Hardware & Timber","Lot 1261, Jalan Tampin","73400",38.72368621826172,-77.68932342529297
"20119","Catlett","VA","Southern States","4165 Catlett Rd","22728",38.63459777832031,-77.67469024658203
"20119","Catlett","VA","Trenis Hardware","3388 Catlett Rd","20119",38.662171,-77.636377
"20120","Centreville","VA","Lowe's","13856 Metrotech Drive","20151",38.8928835,-77.4234656
"20120","Centreville","VA","Lumber Liquidators, Inc.","14310 Sullyfield Cir","20151",38.89203609556586,-77.44194116625306
"20120","Centreville","VA","RamTool and Supply","14703 Willard Rd","20151",38.88703155517578,-77.45636749267578
"20120","Centreville","VA","Aireco Supply, Inc.","14907 Bogle Dr","20151",38.894282000000004,-77.463245
"20120","Centreville","VA","Lowe's Of Chantilly's Break-Room","13856 Metrotech Dr","20151",38.893062591552734,-77.42382049560547
"20120","Centreville","VA","levanair","5309 Sammie Kay Ln","20120",38.844142,-77.408449
"20120","Centreville","VA","Hose, Valve, and Fitting Store","14301 Sullyfield Cir Ste A","20151",38.892486572265625,-77.43926239013672
"20120","Centreville","VA","Grabber Construction Products","14801 Willard Rd #700","20151",38.887411,-77.458931
"20120","Centreville","VA","Sherwin-Williams Paint Store","5041 Westfields Blvd","20120",38.8692,-77.446843
"20120","Centreville","VA","Ferguson HVAC Supply","14552 Lee Rd","20151",38.891134,-77.45276700000001
"20120","Centreville","VA","HammerTime","Astrid Cove","20120",38.835479,-77.463524
"20120","Centreville","VA","Mid Atlantic Fasteners","14921 Bogle Dr","20151",38.894282000000004,-77.463245
"20120","Centreville","VA","D and S Doors and Much More","6300 Meadow Glade Ln","20121",38.830942,-77.447345
"20132","Purcellville","VA","GSC Excavating","157 Cogles Fields Ln","25425",39.2487678527832,-77.78307342529297
"20132","Purcellville","VA","Nichols Hardware","131 N 21st St","20132",39.137232,-77.71555500000001
"20132","Purcellville","VA","Total Pools & Service","251 N 21st St","20132",39.139255,-77.717977
"20132","Purcellville","VA","Loudoun Lumber Co","not_available","20132",39.14287567138672,-77.71591186523438
"20135","Bluemont","VA","berryville hardware","600 E Main St","22611",39.147551,-77.97240500000001
"20137","Broad Run","VA","H&E Equipment Services","6571 Merchant Pl","20187",38.767482,-77.701683
"20147","Ashburn","VA","The Home Depot","43675 Greenway Corporate Dr","20147",39.0083739,-77.4894338
"20147","Ashburn","VA","Sterling Carpet","not_available","20166",39.001262,-77.43391700000001
"20147","Ashburn","VA","Sherwin-Williams Paint Store","44305 Ice Rink Plz","20147",39.018781,-77.468524
"20147","Ashburn","VA","Weller Tile & Mosaics","20719 Ashburn Rd","20147",39.043129,-77.48716
"20147","Ashburn","VA","R E Michel","21750 Red Rum Dr","20147",39.015560150146484,-77.474853515625
"20147","Ashburn","VA","Tart Lumber","22183 Shaw Rd","20166",39.002186,-77.434154
"20148","Ashburn","VA","Dunham & Morrow Inc","43676 Trade Center Pl Ste 145","20166",38.97036361694336,-77.48985290527344
"20151","Chantilly","VA","Sherwin-Williams Commercial Paint Store","14510 Lee Rd","20151",38.898381060135236,-77.44839906692505
"20151","Chantilly","VA","Posner Industries","not_available","20151",38.900292,-77.455872
"20151","Chantilly","VA","McCormick Paints","14508H Lee Rd","20151",38.899925231933594,-77.4472427368164
"20151","Chantilly","VA","Floor America","not_available","20171",38.949359,-77.411298
"20151","Chantilly","VA","Ferguson Bath, Kitchen & Lighting Gallery","13890 Lowe St","20151",38.903496999999994,-77.42525
"20151","Chantilly","VA","Aquarius Supply","4218 Westfax","20151",38.90353745,-77.45415078333333
"20151","Chantilly","VA","MR. TV MOUNT","14511-F Lee Jackson Memorial Highway","20151",38.9004483,-77.449787
"20151","Chantilly","VA","Go Vacuum","14500 Lee Rd Unit G","20151",38.89955139160156,-77.44671630859375
"20151","Chantilly","VA","ProBuild","25279 Pleasant Valley Rd","20152",38.91811752319336,-77.47123718261719
"20151","Chantilly","VA","HD Supply Kenseal","3933 Avion Park Ct","20151",38.91040165,-77.46297195
"20152","Chantilly","VA","The Home Depot","25000 Riding Plaza","20152",38.9264263,-77.5208384
"20152","Chantilly","VA","City Electric Supply Dulles Airport","42671 Dulles Trade Ct Ste 110","20166",38.951434025821925,-77.52746018336393
"20152","Chantilly","VA","Sherwin-Williams Commercial Paint Store","1800 Patton St","70665",38.92376001700717,-77.51828670501709
"20155","Gainesville","VA","Lowe's","13000 Gateway Center Drive","20155",38.7965308,-77.6034724
"20155","Gainesville","VA","HD Supply White Cap","14235 John Marshall Hwy","20155",38.798823,-77.61744499999999
"20155","Gainesville","VA","minuteKEY","13000 Gateway Center Dr","20155",38.796501,-77.60293100000001
"20155","Gainesville","VA","Sherwin-Williams Paint Store","14686 Lee Hwy","20155",38.793377,-77.627505
"20155","Gainesville","VA","ARMTEK Security Systems, Inc.","not_available","20169",38.86786421454434,-77.64402866363525
"20164","Sterling","VA","The Home Depot","46261 Cranston Way","20165",39.033194463054,-77.39920735359192
"20164","Sterling","VA","Lowe's","45430 Dulles Crossing Plaza","20166",39.0253618,-77.4270471
"20164","Sterling","VA","Harbor Freight Tools","22330 S Sterling Blvd Ste 101","20164",38.99832256469975,-77.40744637447403
"20164","Sterling","VA","Sears","21000 Dulles Town Cir","20166",39.03312223538208,-77.42591053252909
"20164","Sterling","VA","Potomac Floor Covering","22780 Indian Creek Dr Ste 100","20166",38.98678970336914,-77.43202209472656
"20164","Sterling","VA","Dulles Electric","1323 Shepard Dr","20164",38.993796,-77.422463
"20164","Sterling","VA","Infinity Diamond Product, Inc.","22821 Silverbrook Center Dr","20166",38.9841746,-77.4220783
"20164","Sterling","VA","ProSource of Dulles","21586 Atlantic Blvd Ste 100","20166",39.0176975,-77.42436409999999
"20164","Sterling","VA","Atlantic Floor Covering","21580 Atlantic Blvd","20166",39.019467,-77.424253
"20164","Sterling","VA","Kitchen Renovation","not_available","20164",38.996626,-77.421105
"20164","Sterling","VA","Sterling Glass","21563 Cascades Pkwy","20166",39.019214073636,-77.41088850963452
"20164","Sterling","VA","minuteKEY","45430 Dulles Crossing Plz","20166",39.02518844604492,-77.42770385742188
"20164","Sterling","VA","Matrix Industries","45668 Terminal Dr #140","20166",38.986495,-77.42080899999999
"20164","Sterling","VA","Sterling Mower","22005 Shaw Rd","20164",39.00434798333333,-77.43022973333333
"20164","Sterling","VA","Capital Electric","45969 Nokes Blvd","20166",39.02253723144531,-77.41015625
"20164","Sterling","VA","Sherwin-Williams Paint Store","21430 Cedar Dr","20164",39.019041984770936,-77.37820029258728
"20166","Sterling","VA","D & B Rentals","Douglas Ct & Old Ox Rd","20166",38.97816893455503,-77.41376638412476
"20166","Sterling","VA","Strictly Hardware","101 Executive Dr Ste J","20166",38.9845689,-77.4445484
"20170","Herndon","VA","The Home Depot","1651 Reston Parkway","20194",38.96878312707134,-77.35389127397872
"20170","Herndon","VA","Sherwin-Williams Paint Store","696B Elden St","20170",38.97023391723633,-77.38264465332031
"20170","Herndon","VA","Sherwin-Williams Paint Store","495A Elden St","20170",38.96804083,-77.37827204
"20170","Herndon","VA","Duron Paints & Wallcoverings","495 Elden St Ste A","20170",38.96809387207031,-77.3783950805664
"20170","Herndon","VA","Carpet & Floors","not_available","20194",38.966875,-77.357309
"20170","Herndon","VA","Quality Carpet One Floor & Home","11790 Baron Cameron Ave","20190",38.967254,-77.35479699999999
"20175","Leesburg","VA","The Home Depot","280 Fort Evans Rd","20176",39.109966804875214,-77.53371477127075
"20175","Leesburg","VA","Lowe's","1390 Russell Branch Pkwy SE","20175",39.0941816,-77.5296807
"20175","Leesburg","VA","Tractor Supply Co.","935 Edwards Ferry Rd Northeast","20176",39.112054,-77.538796
"20175","Leesburg","VA","Swim Gem","not_available","20175",39.10764631342044,-77.56428999797888
"20175","Leesburg","VA","TW Perry","41 Catoctin Cir SE","20175",39.105257,-77.56518100000001
"20175","Leesburg","VA","Sherwin-Williams Paint Store","940C Edwards Ferry Rd NE","20176",39.11532783495225,-77.5408387184143
"20175","Leesburg","VA","Leesburg Lock & Key","20 Fairfax St SE","20175",39.108674,-77.56614300000001
"20175","Leesburg","VA","Woodcraft","521 E Market St","20176",39.10863,-77.55292299999999
"20175","Leesburg","VA","Ferguson Plumbing Supply","741 Miller Dr","20175",39.080988,-77.555888
"20175","Leesburg","VA","McCormick Paints","1021 Edwards Ferry Rd NE","20176",39.112111999999996,-77.534406
"20180","Lovettsville","VA","84 Lumber Sign","not_available","21716",39.31256070129329,-77.63083327072438
"20180","Lovettsville","VA","BRUNSWICK TRUE VALUE HDWE","302 W Potomac St","21716",39.31346893310547,-77.6308822631836
"20180","Lovettsville","VA","Ace Hardware","40B Souder Ed","21716",39.29687574063338,-77.63959869868226
"20186","Warrenton","VA","Dixie Aluminum - True Value","88509 O/S Hwy","33070",38.627519578091146,-77.79472851302089
"20187","Warrenton","VA","Universal Stones","5415 Lee Hwy","20187",38.76032257080078,-77.73355865478516
"20187","Warrenton","VA","Blackwood Construction Group Inc.","6649 Garland Dr #11","20187",38.75832748413086,-77.73078918457031
"22003","Annandale","VA","The Home Depot","6555 Little River Trnpke","22312",38.8211574,-77.1625785
"22003","Annandale","VA","J.T. Mowers","not_available","22003",38.829544553843114,-77.19606048145559
"22003","Annandale","VA","Sherwin-Williams Paint Store","7334 Little River Tpke","22003",38.83141442852278,-77.19854031852151
"22003","Annandale","VA","Annandale Hardware","Backlick Rd","not_available",38.821757,-77.19086800000001
"22015","Burke","VA","Sherwin-Williams Paint Store","5765 Burke Centre Pkwy","22015",38.79941060168536,-77.31833321771136
"22025","Dumfries","VA","Being Productive Torrow","not_available","22026",38.625619,-77.347499
"22026","Dumfries","VA","Capital Rentals","18309 Jefferson Davis Hwy","not_available",38.55429458618164,-77.33208465576172
"22026","Dumfries","VA","Home Appliances","17792 MAIN ST","22026",38.566319,-77.32934
"22030","Fairfax","VA","The Home Depot","12275 Price Club Plaza","22030",38.846923,-77.3702755
"22030","Fairfax","VA","Lowe's","4080 Jermantown Rd","22030",38.8527306,-77.3341383
"22030","Fairfax","VA","The Home Depot","3201 Old Lee Highway","22030",38.8620027,-77.2746198
"22030","Fairfax","VA","Twins Ace Hardware","10310B Main St","22030",38.84588021605024,-77.30228180185242
"22030","Fairfax","VA","Sherwin-Williams Paint Store","11025 Lee Hwy","22030",38.851984,-77.32579
"22030","Fairfax","VA","AAACM Green Warrior, Inc.","not_available","22032",38.81767586864897,-77.29235887527466
"22030","Fairfax","VA","VECTARE","10340 Democracy Ln Ste 101","22030",38.849647999999995,-77.301365
"22030","Fairfax","VA","Duron Paints & Wallcoverings","11025 Lee Hwy Spc F","22030",38.85219218366646,-77.32584939016212
"22030","Fairfax","VA","Vienna Paint & Decorating of Fairfax","11000 Lee Hwy","22030",38.8533609,-77.3241639
"22030","Fairfax","VA","Thomas Somerville","not_available","22031",38.86318588256836,-77.28306579589844
"22030","Fairfax","VA","Sherwin-Williams Paint Store","10880 Main St","22030",38.851607,-77.320363
"22030","Fairfax","VA","Fastenal","3835 Pickett Rd","22031",38.847947999999995,-77.272211
"22031","Fairfax","VA","The Home Depot","2815 Merrilee Drive","22031",38.8751573,-77.2297551
"22031","Fairfax","VA","Grainger","2947 Gallows Rd","22042",38.87001730510835,-77.22667565391302
"22031","Fairfax","VA","Acme Stove","8433 Lee Hwy","22031",38.873247,-77.237933
"22031","Fairfax","VA","Virginia Outdoor Pwr Eqpt Co. Inc.","8524 Lee Hwy","22031",38.87389,-77.24025
"22031","Fairfax","VA","Bars by Bud Mepham","2812 Merrilee Dr. Ste D","22031",38.876513,-77.231934
"22031","Fairfax","VA","RE Michel Company","2830 Dorr Ave","22031",38.875665999999995,-77.234701
"22031","Fairfax","VA","Color Wheel Paint Center","2802 Merrilee Dr, Ste D","22031",38.8774706,-77.23148929999999
"22031","Fairfax","VA","Capital Electric","2808 Merrilee Dr","22031",38.877067,-77.231858
"22031","Fairfax","VA","Benjamin Moore","2802 Merrilee Dr # D Fairfax‎ VA‎ 22031-4433 United States","22031",38.87751770019531,-77.23139953613281
"22031","Fairfax","VA","Trible's","2809 Merrilee Dr.","22031",38.876895904541016,-77.23038482666016
"22031","Fairfax","VA","Mosaic Tile Company","8400 Hilltop Rd Ste E","22031",38.87507629394531,-77.2347640991211
"22033","Fairfax","VA","Sherman-Williams Paint Store","11025 Main Street","22030",38.89770129958222,-77.34087467354577
"22041","Falls Church","VA","Duron Paints & Wallcoverings","5874 Leesburg Pike","22041",38.85325388205596,-77.13366035566736
"22041","Falls Church","VA","Virginia Glass Doors and Window Repair","C, 5723 Center Ln","22041",38.84738540649414,-77.12972259521484
"22041","Falls Church","VA","Harbor Freight","5723 Columbia Pike","22041",38.85036,-77.12771
"22042","Falls Church","VA","The Somerville Bath & Kitchen Store","6535 Arlington Blvd","22042",38.870046,-77.168529
"22042","Falls Church","VA","Virginia Home Design","8131 Prescott Dr","22180",38.878421,-77.225787
"22042","Falls Church","VA","Ferguson Plumbing Supply","8100 Gatehouse Rd","22042",38.869651794433594,-77.22379302978516
"22042","Falls Church","VA","Sherwin-Williams Paint Store","2810 Graham Rd","22042",38.876407,-77.19229
"22042","Falls Church","VA","Ace Tool Rental","7131 Lee Hwy","22046",38.87859344482422,-77.17758178710938
"22042","Falls Church","VA","Metro Windows and Glass Repair LLC","6533 Arlington Boulevard Suite A 2035 A 2035","22042",38.8700579,-77.1683327
"22043","Falls Church","VA","Brown's Hardware","100 W Broad St","22046",38.881003452895534,-77.16948389733962
"22043","Falls Church","VA","Falls Church Supply","not_available","22046",38.891180360725734,-77.18319559300821
"22044","Falls Church","VA","The Home Depot","6210 Seven Corners Ctr","22044",38.868532485053976,-77.14993894100189
"22044","Falls Church","VA","Sears","6211 Leesburg Pike","22044",38.86642482,-77.15225676
"22044","Falls Church","VA","Locksmith","not_available","22044",38.86556140357374,-77.15145137554217
"22060","Fort Belvoir","VA","White Cap Construction Supply","8090 Alban Rd","22150",38.737449645996094,-77.19477081298828
"22060","Fort Belvoir","VA","Ft. Belvoir Home and Garden Center","not_available","22060",38.69563959924403,-77.14339041169788
"22060","Fort Belvoir","VA","HD Supply White Cap","8090 Alban Road","22150",38.73746357,-77.19475073
"22060","Fort Belvoir","VA","Bradco Supply","7109 Rainwater Pl","22079",38.71756355,-77.18958661666667
"22066","Great Falls","VA","Falls Hardware","not_available","22066",38.996243,-77.2897
"22079","Lorton","VA","The Home Depot","14025 Foulger Square","22192",38.6540488,-77.3036623
"22079","Lorton","VA","Colonial Hardwoods Inc.","7953 Cameron Brown Ct","22153",38.741909,-77.205214
"22079","Lorton","VA","VAMAC Inc.","not_available","22192",38.653328,-77.291158
"22079","Lorton","VA","Affordable Locksmiths LLC Alexandria","6039 Curtier Dr #C","22310",38.764259338378906,-77.15008544921875
"22079","Lorton","VA","Turf Builders","7646G Fullerton Rd","22153",38.74297,-77.204595
"22079","Lorton","VA","Battali Glass & Mirror, LLC","13932 Jefferson Davis Hwy","22191",38.652332,-77.257188
"22079","Lorton","VA","Ferguson HVAC Supply","14498 Telegraph Rd","22192",38.64166259765625,-77.29020690917969
"22079","Lorton","VA","Capitol Building Supply Inc","7622 Backlick Rd","22150",38.750647,-77.18684
"22079","Lorton","VA","minuteKEY","13720 Smoketown Rd","22192",38.654626,-77.306841
"22079","Lorton","VA","Sherwin-Williams Paint Store","14079 Jefferson Davis Hwy","22191",38.651006,-77.25725600000001
"22079","Lorton","VA","Duron Paints & Wallcoverings","2088 Daniel Stuart Sq","22191",38.632975,-77.27378900000001
"22079","Lorton","VA","Sherwin-Williams Floorcovering Store","7721 Fullerton Rd","22153",38.74065334012492,-77.21100211143494
"22079","Lorton","VA","Harbor Freight Tools","14250 Smoketown Rd","22192",38.6394054481403,-77.30135773518727
"22101","Mc Lean","VA","COLOR WHEEL","1374 Chain Bridge Rd","22101",38.936428,-77.17660500000001
"22101","Mc Lean","VA","McLean Hardware","1445 Chain Bridge Rd","22101",38.93176238641459,-77.17880238477684
"22101","Mc Lean","VA","Sherwin-Williams Paint Store","6224B Old Dominion Dr","22101",38.91981184779956,-77.14974045753479
"22101","Mc Lean","VA","Sherwin-Williams Paint Store","1341 Chain Bridge Rd","22101",38.939192,-77.174494
"22101","Mc Lean","VA","Window and Door Showplace - McLean","6832 Old Dominion Dr","22101",38.93515396118164,-77.18022155761719
"22150","Springfield","VA","The Home Depot","6691 Frontier Dr","22150",38.7735283,-77.1704488
"22150","Springfield","VA","Snap On Tool Truck","6570 Amherst Ave","22150",38.776431,-77.185564
"22150","Springfield","VA","Inside-Out Garden Supply","6517 Backlick Rd","22150",38.778459000000005,-77.183992
"22150","Springfield","VA","Glidden Professional Paint","6592 Fleet Dr","22310",38.774161,-77.156408
"22150","Springfield","VA","Jerry's Paint & Wallpaper Center","6715 Backlick Rd Ste A","22150",38.7716767,-77.1834247
"22150","Springfield","VA","Capital Electric","5701 General Washington Dr","22312",38.79637314934652,-77.16582298278807
"22150","Springfield","VA","TW Perry","7740 Southern Dr","22150",38.791109999999996,-77.213167
"22150","Springfield","VA","Sam & Sons Services, LLC","5649 General Washington Dr.","22312",38.7971305847168,-77.16309356689453
"22150","Springfield","VA","Trible's Inc.","6200 Gravel Rd.","22310",38.77195864517894,-77.15377125924478
"22150","Springfield","VA","Ferguson HVAC Supply","6664 Fleet Dr","22310",38.772526,-77.155082
"22150","Springfield","VA","Duron Paints & Wallcoverings","6420A Springfield Plz","22150",38.78041076660156,-77.18934631347656
"22150","Springfield","VA","Sherwin-Williams Commercial Paint Store","6437 General Green Way","22312",38.795134000000004,-77.161978
"22150","Springfield","VA","Ferguson Fire & Fabrication","6714 Electronic Dr","22151",38.79498328184391,-77.17753295287031
"22150","Springfield","VA","City Electric Supply Alexandria","6668 Fleet Drive, Fleet Industrial Park - Bldg 2","22310",38.7731484,-77.1552916
"22150","Springfield","VA","Best Quality Restaurant Equipment Supplies","6437 General Green Way, Alexandria, VA 22312","22312",38.79506869430101,-77.16243267059326
"22151","Springfield","VA","Ferguson Bath, Kitchen & Lighting Gallery","5650 General Washington Dr Ste D","22312",38.799015742321615,-77.16508297454494
"22151","Springfield","VA","Rexel","Forbes Pl","not_available",38.80955,-77.219659
"22151","Springfield","VA","American Rental","7101 Wimsatt Rd","22151",38.798895,-77.189908
"22151","Springfield","VA","Leon's Masonry Services","8104 Carrick Ln","22151",38.809015,-77.22491
"22151","Springfield","VA","ProSource of Metro D.C.","5701 General Washington Drive, Suite D and E","22312",38.7963419,-77.1656817
"22180","Vienna","VA","Stalcup Hardware","229 Maple Ave E","22180",38.90422439575195,-77.2607421875
"22180","Vienna","VA","Benjamin Moore","203 Maple Ave W","22180",38.900001525878906,-77.26798248291016
"22180","Vienna","VA","Sherwin-Williams Paint Store","128 Branch Rd SE","22180",38.906419,-77.257295
"22180","Vienna","VA","RED Vacuums","171 Maple Ave E","22180",38.903145,-77.262807
"22180","Vienna","VA","Capitol Building Supply Inc","431 Mill Street Northeast","22180",38.9074321,-77.2690542
"22180","Vienna","VA","Vienna Lawnmower","not_available","22180",38.903558,-77.262795
"22191","Woodbridge","VA","Lowe's","13720 Smoketown Road","22192",38.652806,-77.308881
"22191","Woodbridge","VA","Capital Electric","3320 Noble Pond Way","22193",38.649868,-77.308607
"22191","Woodbridge","VA","Rexel","Noble pond","not_available",38.649404,-77.308001
"22191","Woodbridge","VA","Sears","2700 Potomac Mills Circle, Suite 707","22192",38.644455,-77.297859
"22191","Woodbridge","VA","Foundation Building Materials","14962 Farm Creek Drive","22191",38.62785842,-77.25556675
"22192","Woodbridge","VA","Dale City Hardware Inc","4340 Dale Blvd","22193",38.6481179,-77.339905
"22192","Woodbridge","VA","Sherwin-Williams Paint Store","4119 Cheshire Station Plz","22193",38.64626693725586,-77.33356475830078
"22192","Woodbridge","VA","Capital Roofing Exterior Unlimited LLC","4510 Kentmore Dr","22193",38.670031444603815,-77.34177589416502
"22192","Woodbridge","VA","Baker's Appliances","1330 Old Bridge Rd","22192",38.675281,-77.25730899999999
"22201","Arlington","VA","Twins Ace Hardware Arlington","2001 Clarendon Blvd Retail Space F","22201",38.891838,-77.082526
"22201","Arlington","VA","Standard Graphics Mid Atlantic Inc.","3514 Lee Hwy","22207",38.895747,-77.103771
"22201","Arlington","VA","r e Michel company","not_available","22201",38.88251495361328,-77.10135650634766
"22201","Arlington","VA","Bob Vila On the RUN","1200 Potomac St NW","20007",38.88540655792313,-77.1045553453175
"22201","Arlington","VA","Duron Paint Supply","2151 Arlington Blvd","22201",38.88132095336914,-77.08505249023438
"22201","Arlington","VA","r e michel company","not_available","20785",38.882311,-77.101136
"22201","Arlington","VA","Restoration Doctor LLC","2001 15th St N Apt 909","22201",38.89116668701172,-77.0819320678711
"22202","Arlington","VA","Liberty Time","Pentagon City Metro","not_available",38.86164378955921,-77.05808506807786
"22203","Arlington","VA","Mc Lean Hardware","not_available","22204",38.86652,-77.098157
"22203","Arlington","VA","Brooke Rental Center","4831 1st St N","22203",38.86788,-77.117216
"22204","Arlington","VA","Sherwin-Williams Paint Store","3411 5th St S","22204",38.86730523958775,-77.09536346645527
"22205","Arlington","VA","Ayers Variety Store","5853 Washington Blvd","22205",38.88536695117717,-77.14092009640395
"22205","Arlington","VA","Sherwin-Williams Paint Store","2124 N Glebe Rd","22207",38.89628358040868,-77.12282265699592
"22205","Arlington","VA","Potomac Paint","not_available","22207",38.89526454411246,-77.14266574086938
"22205","Arlington","VA","Rental Works","5044 Lee Hwy","22207",38.896087,-77.130759
"22205","Arlington","VA","Blue Rhino","5630 Lee Hwy","22207",38.89505386352539,-77.1416015625
"22206","Arlington","VA","Potomac Paint","3610E King St","22302",38.82865916131299,-77.09042072296143
"22206","Arlington","VA","duron paints and wallcoverings.1410 lee rd Chantilly Va","not_available","22206",38.84220504760742,-77.09397888183594
"22207","Arlington","VA","Bills True Value","2213 N Buchanan St","22207",38.89761952636535,-77.12472420119077
"22301","Alexandria","VA","Del Ray Hardware","not_available","22301",38.82412,-77.058264
"22301","Alexandria","VA","Ferguson Plumbing Supply","420 Calvert Ave","22301",38.830298,-77.052761
"22301","Alexandria","VA","R & B Inc","1710 Mount Vernon Ave","22301",38.822234,-77.058832
"22302","Alexandria","VA","Sherwin-Williams Paint Store","4349 Duke St","22304",38.812715000000004,-77.106434
"22303","Alexandria","VA","A&A Rentals","not_available","22303",38.788995,-77.078091
"22304","Alexandria","VA","The Home Depot","400 S Pickett St","22304",38.807625,-77.1262431
"22304","Alexandria","VA","Sears","5901 Duke St","22304",38.81609586,-77.13214306
"22304","Alexandria","VA","Kamco Building Supply & True Value","5860 Farington Ave","22304",38.79924,-77.13513
"22304","Alexandria","VA","Keytek Locksmith","5801 Quantrell Ave Apt L3","22312",38.81844711303711,-77.13406372070312
"22304","Alexandria","VA","Smoot Lumber","6295 Edsall Rd","22312",38.803835504158734,-77.1412894159375
"22304","Alexandria","VA","Granite Outlet","600 S Pickett St","22304",38.805687,-77.129808
"22304","Alexandria","VA","Dominion Electric Supply","5308 B Eisenhower Ave","22304",38.800291358838976,-77.12659264704696
"22305","Alexandria","VA","Sherwin-Williams Paint Store","263 W Glebe Rd","22305",38.838028,-77.063039
"22305","Alexandria","VA","Area Safe And Lock","not_available","22305",38.83633663341916,-77.06107009184551
"22306","Alexandria","VA","Lowe's","6750 Richmond Hwy","22306",38.771976,-77.084181
"22306","Alexandria","VA","The Home Depot","7710 Richmond Hwy","22306",38.7485641,-77.0869145
"22306","Alexandria","VA","Citron Safe & Lock","7325 Richmond Hwy","22306",38.757569000000004,-77.083278
"22306","Alexandria","VA","minuteKEY","5800 Kingstowne Ctr","22315",38.77253341674805,-77.13484954833984
"22306","Alexandria","VA","A&A Rental","not_available","22306",38.777755,-77.080445
"22306","Alexandria","VA","Duron Paints & Wallcoverings","7644 Richmond Hwy","22306",38.77416781870797,-77.08079974442755
"22306","Alexandria","VA","Duron Paint","7644 Fordson Rd","not_available",38.750765,-77.08684000000001
"22306","Alexandria","VA","Sherwin-Williams Paint Store","7508A Richmond Hwy","22306",38.753696999999995,-77.08385899999999
"22306","Alexandria","VA","minuteKEY","6303 Richmond Hwy","22306",38.780121,-77.076521
"22308","Alexandria","VA","Village Hardware","7934 Fort Hunt Rd","22308",38.74155178294124,-77.05613101663167
"22308","Alexandria","VA","Hollin Hall Variety Store","7902 Fort Hunt Rd","22308",38.74318181219021,-77.05705060579444
"22309","Alexandria","VA","Holly, Woods & Vines","8453 Richmond Hwy","22309",38.72747620656783,-77.11072129948484
"22309","Alexandria","VA","Alexandria Appliance Repair","8425 Highland Ln","22309",38.728406,-77.119794
"22310","Alexandria","VA","MAC Plumbing, LLC.","6204 Franconia Forest Ct","22310",38.784964,-77.15268
"22310","Alexandria","VA","Capital Painting Company","5520 Oakwood Rd","22310",38.796462,-77.131191
"22314","Alexandria","VA","Old Town Ace Hardware","809 S Washington St","22314",38.796753,-77.048762
"22314","Alexandria","VA","Caffi Contracting Services","1313 Powhatan St","22314",38.819071,-77.047368
"22401","Fredericksburg","VA","Lowe's","1361 Carl D Silver Pkwy","22401",38.2998173,-77.5076501
"22401","Fredericksburg","VA","The Home Depot","1201 Gateway Blvd","22401",38.292573,-77.5032508
"22401","Fredericksburg","VA","Harbor Freight Tools","2011 Plank Rd","22401",38.29687653218725,-77.49368218071135
"22401","Fredericksburg","VA","Earls True Value Hardware","300 Chatham Heights Rd","22405",38.31077916291118,-77.44809600022775
"22401","Fredericksburg","VA","Allied Building Products","2378 Plank Rd","22401",38.293302000000004,-77.49969300000001
"22401","Fredericksburg","VA","SSG Tactical","610 Westwood Office Park","not_available",38.29753494262695,-77.49484252929688
"22401","Fredericksburg","VA","Northern Tool + Equipment","3609 Plank Rd","22407",38.2938,-77.5232055
"22401","Fredericksburg","VA","Ferguson Waterworks","311 Central Rd","22401",38.286513,-77.471552
"22401","Fredericksburg","VA","Sears","100 Spotsylvania Mall","22407",38.29214859008789,-77.51118469238281
"22401","Fredericksburg","VA","Sears","100 Spotsylvania Mall Dr","22407",38.29287332914443,-77.51073628664015
"22401","Fredericksburg","VA","Tgm Granite&marble","not_available","22408",38.28333,-77.45214200000001
"22401","Fredericksburg","VA","Sherwin-Williams Paint Store","4141 Plank Rd","22407",38.29125866802502,-77.53238439559937
"22401","Fredericksburg","VA","Olde Towne Paint & Glass","1623 Princess Anne St","22401",38.309903999999996,-77.46436
"22401","Fredericksburg","VA","G & R Construction","470 Central Rd","22401",38.283759,-77.47214
"22401","Fredericksburg","VA","The Tool Box Co.","1529 Olde William St","22401",38.295681,-77.481453
"22405","Fredericksburg","VA","Capitol Building Supply Inc","16 Baron Park Road","22405",38.30982112,-77.44255164
"22405","Fredericksburg","VA","City Electric Supply Fredericksburg","4128 Lafayette Blvd","22408",38.261345,-77.493438
"22405","Fredericksburg","VA","Husqvarna US","57 Cool Spring Rd","22405",38.30832290649414,-77.44361877441406
"22405","Fredericksburg","VA","Sherwin-Williams Paint Store","4806A Jefferson Davis Hwy","22408",38.259090423583984,-77.49634552001953
"22405","Fredericksburg","VA","Sherwin-Williams Floorcovering Store","51 Baron Park Rd","22405",38.306689,-77.44018
"22405","Fredericksburg","VA","White Oak Equipment","358 Kings Hwy","22405",38.289113,-77.442365
"22405","Fredericksburg","VA","Triple K Fence","32 Joseph Mills Dr","22408",38.276447,-77.445045
"22405","Fredericksburg","VA","Ferguson HVAC Supply","10702 Spotsylvania Ave","22408",38.2478104081633,-77.4950918367347
"22405","Fredericksburg","VA","Aquia Glass & Mirror","68 Cool Springs Road","22405",38.306681,-77.444637
"22405","Fredericksburg","VA","Island Landscape Supply","1417 Jefferson Davis Hwy","22405",38.3916666,-77.43492340000002
"22406","Fredericksburg","VA","Lowe's","299 Banks Ford Parkway","22406",38.3565449,-77.5185252
"22406","Fredericksburg","VA","Fastenal","10 Commerce Pkwy","22406",38.351852,-77.50930100000001
"22406","Fredericksburg","VA","B&f Ceramics Design Showroom","2005 International Pkwy","22406",38.363407,-77.508381
"22407","Fredericksburg","VA","The Home Depot","5771 Plank Road","22407",38.2938301,-77.5700941
"22407","Fredericksburg","VA","Lowe's","10101 Southpoint Parkway","22407",38.2401133,-77.5081904
"22407","Fredericksburg","VA","Tractor Supply Co.","4179 Plank Road","22407",38.29058,-77.535079
"22407","Fredericksburg","VA","Irby","8501 Jamison Ln","22407",38.190975,-77.513902
"22407","Fredericksburg","VA","Courtland Ace Hardware","9795 Courthouse Rd","22553",38.232888,-77.55704300000001
"22407","Fredericksburg","VA","Pendelton's Hardware","8914 Courthouse Rd","22553",38.199169,-77.58794300000001
"22407","Fredericksburg","VA","minuteKEY","10101 Southpoint Pkwy","22407",38.240199,-77.508725
"22407","Fredericksburg","VA","Capital Electric","11001 Houser Dr","22408",38.258438,-77.507995
"22408","Fredericksburg","VA","Foundation Building Materials","4005 Leonard Dr","22408",38.216251373291016,-77.48729705810547
"22427","Bowling Green","VA","A&M HOMECENTER","106 NORTH MAIN ST","22427",38.050123,-77.34729499999999
"22427","Bowling Green","VA","G & G Ace Hardware","17434 Gravatt Rd","22514",38.017989,-77.33874399999999
"22427","Bowling Green","VA","bowling green hardware","not_available","22427",38.04759144130803,-77.34515924427576
"22432","Burgess","VA","LILIAN LBR TRUE VALUE HOME CTR","15115 NORTHUMBERLAND HIGHWAY","22432",37.88343811035156,-76.34527587890625
"22432","Burgess","VA","lillian lumber","1500 Brickyard Road","not_available",37.874775346844785,-76.33284169743692
"22435","Callao","VA","Ace Hardware","3010 Northumberland Hwy","22511",37.9549674987793,-76.51836395263672
"22435","Callao","VA","Callao Supply","U.S. 360, Callao, VA 22435","23435",37.967081084143594,-76.5539286051626
"22443","Colonial Beach","VA","Rankin's True Value Hardware","535 Euclid Ave","22443",38.256427,-76.97195
"22454","Dunnsville","VA","NNW Auto Supply","1717 Tappahannock Blvd","22560",37.90073013305664,-76.86962890625
"22454","Dunnsville","VA","Lowe's","2000 Tappahannock Boulevard","22560",37.8981848,-76.8679522
"22454","Dunnsville","VA","John Deere Sales Place","not_available","22560",37.894653,-76.880698
"22454","Dunnsville","VA","Tappahannock tractor","Lagrange Industrial Dr","22560",37.89437380046635,-76.88361203769962
"22454","Dunnsville","VA","Lowe's","2000 Tappahannock Blvd","22560",37.898232,-76.867956
"22454","Dunnsville","VA","Sherwin-Williams Paint Store","1630 Tappahannock Blvd","22560",37.905474,-76.86255799999999
"22454","Dunnsville","VA","Rappahannock Tractor","646 Richmond Hwy","22560",37.895172119140625,-76.88085174560547
"22469","Hague","VA","Murphy Seed Service","5005 Cople Hwy","22520",38.086828999999994,-76.710124
"22473","Heathsville","VA","Jett's Hardware","18425 Northumberland Hwy","22539",37.862417,-76.29754100000001
"22482","Kilmarnock","VA","Horn's Northern Neck Ace","96 School St","22482",37.711471,-76.38233
"22482","Kilmarnock","VA","Sears","412 North Main Street","22482",37.720802756202836,-76.38319251653292
"22485","King George","VA","Rankin's True Value Hardware","11475 Ridge Rd","22485",38.265875,-77.144834
"22485","King George","VA","Tractor Supply Co.","11481 Kings Hwy","22485",38.238889,-77.147693
"22508","Locust Grove","VA","Lake Of The Woods True Value","4408 Germanna Hwy","22508",38.342069,-77.743444
"22508","Locust Grove","VA","Alexander & Sons","12501 Sickles Ln","22551",38.297794,-77.726302
"22508","Locust Grove","VA","Roy's Lawn Mowers & Small Engine Repair Shop","8077 Gold Dale Road","22508",38.29523809809196,-77.79637950398251
"22520","Montross","VA","Northern Neck True Value Hardware","17144 Kings Hwy","22520",38.0934,-76.804126
"22520","Montross","VA","Northern Neck Building Supply","not_available","22520",38.093206928260756,-76.80067662191827
"22551","Spotsylvania","VA","Homestead Hardware","13146 Jefferson Davis Hwy","22580",38.08372,-77.525058
"22554","Stafford","VA","Lowe's","1330 Stafford Market Place","22556",38.4733014,-77.4108359
"22554","Stafford","VA","The Home Depot","305 Worth Ave","22556",38.47756789460105,-77.41885989904404
"22554","Stafford","VA","minuteKEY","217 Garrisonville Rd","22554",38.471012115478516,-77.41731262207031
"22554","Stafford","VA","Sherwin-Williams Paint Store","399 Garrisonville Rd","22554",38.474989,-77.426869
"22554","Stafford","VA","minuteKEY","1330 Stafford Market Pl","22556",38.472928,-77.411515
"22572","Warsaw","VA","Tractor Supply Co.","4238 Richmond Rd","22572",37.963117,-76.78540799999999
"22601","Winchester","VA","Lowe's","2200 S Pleasant Valley Road","22601",39.1577171,-78.1680984
"22601","Winchester","VA","The Home Depot","2350 Legge Blvd","22601",39.1547587,-78.1696707
"22601","Winchester","VA","Solenberger Hardware","832 Berryville Ave","22601",39.18831253051758,-78.14559173583984
"22601","Winchester","VA","Robert's Oxygen","221 Brick Kiln Rd","22601",39.197303000000005,-78.153803
"22601","Winchester","VA","Electrolux","2436 Valley Ave","22601",39.158353999999996,-78.185203
"22601","Winchester","VA","Wolseley Industrial Group","321 Front Royal Pike","22602",39.1560022945425,-78.1605504328063
"22601","Winchester","VA","Harbor Freight","1131 Berryville Ave","22601",39.18363952636719,-78.14138793945312
"22601","Winchester","VA","Sherwin-Williams Paint Store","814 S Loudoun St","22601",39.177023999999996,-78.16768499999999
"22601","Winchester","VA","Ferguson HVAC Supply","503 Fort Collier Rd","22603",39.191790999999995,-78.141591
"22601","Winchester","VA","Southern States","447 Amherst St","22601",39.186337,-78.173001
"22601","Winchester","VA","Capital Electric","2740 S Pleasant Valley Rd","22601",39.1491584777832,-78.1774673461914
"22601","Winchester","VA","Norvac Technology, Inc","2001 S Loudoun St","22601",39.163292999999996,-78.174065
"22601","Winchester","VA","minuteKEY","2350 S Pleasant Valley Rd","22601",39.1562385559082,-78.17208099365234
"22601","Winchester","VA","Jno S. Solenbergers","822 Berryville Ave","22601",39.187269,-78.146766
"22601","Winchester","VA","minuteKEY","2200 S Pleasant Valley Rd","22601",39.1577,-78.167621
"22601","Winchester","VA","Sears","1850 Apple Blossom Dr","22601",39.16090962510872,-78.16265861623508
"22601","Winchester","VA","Earth Art Kitchen & Bath","2625 Valley Ave","22601",39.1554575,-78.1874782
"22601","Winchester","VA","Winchester Glass And Mirror","290 Airport Rd","22602",39.144162,-78.153461
"22601","Winchester","VA","Fastenal","156 Fort Collier Rd","22603",39.197466,-78.14652199999999
"22601","Winchester","VA","Midsouth Building Supply","3100 Shawnee Dr","22601",39.13631057739258,-78.18108367919922
"22602","Winchester","VA","Lowe's","261 Market St","22603",39.2231041,-78.1339534
"22602","Winchester","VA","Tractor Supply Co.","150 Getty Ln","22603",39.1875046198003,-78.13045000120128
"22602","Winchester","VA","Capitol Building Supply Inc","195 Lenoir Drive","22603",39.218377000000004,-78.147082
"22602","Winchester","VA","WINCHESTER EQUIPMENT","not_available","22603",39.21313600296171,-78.19202466077327
"22602","Winchester","VA","Shenandoah Appliance Plumbing and Electric","114 Mccanns Rd","22603",39.1884309053421,-78.10035824775696
"22602","Winchester","VA","Hardware & Tools Corp","490 McGhee Rd","22603",39.225792,-78.15200300000001
"22602","Winchester","VA","Construction Material","240 Lenoir Dr","22603",39.21826171875,-78.14947509765625
"22602","Winchester","VA","minuteKEY","501 Wal Mart Dr","22603",39.19389724731445,-78.2054672241211
"22602","Winchester","VA","Sherwin Paint","not_available","22655",39.080713391304016,-78.21182548999786
"22602","Winchester","VA","Southern States","5784 Valley Pike (Rt. 11)","not_available",39.072343,-78.230275
"22603","Winchester","VA","84 Lumber","not_available","22656",39.241358,-78.112809
"22603","Winchester","VA","Ferguson Waterworks","625 McGhee Rd","22603",39.222348,-78.156299
"22603","Winchester","VA","Grand True Value Rental","1625 Berryville Pike","22603",39.1866830982,-78.1281476071
"22611","Berryville","VA","Berryville Farm Supply","400 E Main St","22611",39.148024,-77.974727
"22624","Clear Brook","VA","Vernon E Stup co.","not_available","25413",39.29616928100586,-78.082275390625
"22630","Front Royal","VA","Lowe's","80 Riverton Commons Drive","22630",38.9620858,-78.1867095
"22630","Front Royal","VA","Southern States","50 Water St","22630",38.918240000000004,-78.188806
"22630","Front Royal","VA","Sherwin Williams","126 E 2nd St","22630",38.921673,-78.191565
"22630","Front Royal","VA","Ramsey True Value Hardware","703 N Royal Ave","22630",38.927836,-78.19364200000001
"22630","Front Royal","VA","Ace Hardware","515 N Commerce Ave","22630",38.9259033203125,-78.19041442871094
"22630","Front Royal","VA","Husqvarna US","518 N Royal Ave","22630",38.92576599121094,-78.19437408447266
"22630","Front Royal","VA","D & P Rentals & Sales","711 Belair Ave","22630",38.92922,-78.18614
"22630","Front Royal","VA","Warren paint & supply","Main Street","22630",38.91747,-78.189784
"22630","Front Royal","VA","Air Pac","Shenandoah Shores Rd","22630",38.934605887899,-78.15273821681583
"22630","Front Royal","VA","Sherwin-Williams Paint Store","200 N Commerce Ave","22630",38.921812,-78.191388
"22644","Maurertown","VA","Tractor Supply Co.","541 West Reservior Rd","22664",38.871853,-78.53246
"22644","Maurertown","VA","Woodstock Do it best Hardwarestore","not_available","22664",38.88615624235167,-78.50111802036444
"22644","Maurertown","VA","Rockingham Cooperative - Woodstock Ag Supply","335 W Spring St","22664",38.88043212890625,-78.51111602783203
"22645","Middletown","VA","Sherwin-Williams Paint Store","211 Fairfax Pike","22655",39.081249,-78.209106
"22645","Middletown","VA","Miller Hardware","208 Centre Dr","22655",39.079737,-78.190995
"22652","Fort Valley","VA","Lowe's","1220 Henry Ford Drive","22664",38.8666081,-78.5361856
"22652","Fort Valley","VA","Ace Hardware","201 Stoney Creek Blvd","22824",38.823103,-78.568096
"22652","Fort Valley","VA","Sherwin-Williams Paint Store","1011B S Main St","22664",38.864814,-78.516327
"22654","Star Tannery","VA","KERR'S TRUE VALUE HARDWARE","29126 SR 55 EAST","26851",39.086692810058594,-78.58627319335938
"22654","Star Tannery","VA","Kerr's True Value Hardware","29126 Sr 55 E","26851",39.07649,-78.59485
"22657","Strasburg","VA","Rockingham Coop","455 E King St","22657",38.987881,-78.355329
"22701","Culpeper","VA","Lowe's","15150 Montanus Drive","22701",38.4856361,-77.9718082
"22701","Culpeper","VA","Sherwin-Williams Paint Store","199 Southgate Shopping Ctr","22701",38.4638802801873,-77.99901366233826
"22701","Culpeper","VA","Builders FirstSource","13234 Airpark Dr","22718",38.519484000000006,-77.858917
"22701","Culpeper","VA","Tractor Supply Co.","588 Culpeper Town Sq","22701",38.480085,-77.98983
"22701","Culpeper","VA","Gary's Ace Hardware","509 Meadowbrook Center","22701",38.4588299,-78.010821
"22701","Culpeper","VA","Mayans  Tree Services","609 Meadowbrook Dr","22701",38.45832443237305,-78.01231384277344
"22701","Culpeper","VA","minuteKEY","15150 Montanus Dr","22701",38.485836029052734,-77.9720458984375
"22701","Culpeper","VA","A & B Kearns Trucking","not_available","22701",38.487518310546875,-77.94660186767578
"22701","Culpeper","VA","84 lumber Culpeper","Industrial Rd, Culpeper, VA 22701","22701",38.449071624854305,-77.98690507226748
"22701","Culpeper","VA","Fip LLC","116 Dodson Ln","22715",38.4252066,-78.17096080000002
"22701","Culpeper","VA","The Paint Bucket","402 N Main St","22701",38.4754854,-77.9955566
"22701","Culpeper","VA","Cherry Street Building Supply","1418 Orange Rd","22701",38.46114011841571,-77.99815110752104
"22712","Bealeton","VA","Arbortech Supply","11494 James Madison St","22734",38.556743,-77.801789
"22712","Bealeton","VA","Grove's Hardware","not_available","22734",38.532827000000005,-77.807335
"22726","Lignum","VA","T&K Small Engines","21201 Yellow Bottom Rd","22726",38.409996,-77.798378
"22727","Madison","VA","Southern States","1213-1365 N Main St","22727",38.388141,-78.246462
"22727","Madison","VA","Duct-Rite Mechanical LLC Heating & Cooling","2445 S Seminole Trl","22727",38.351422,-78.280307
"22727","Madison","VA","Greystone Tv And Appliance","not_available","22727",38.394233,-78.23830699999999
"22733","Rapidan","VA","Faulconer Hardware Inc.","197 Madison Rd","22960",38.248911,-78.111531
"22733","Rapidan","VA","Sedwick Building Supply","not_available","22960",38.241963,-78.10424300000001
"22801","Harrisonburg","VA","Lowe's","201 Linda Lane","22802",38.4370755,-78.84589
"22801","Harrisonburg","VA","The Home Depot","121 Burgess Road","22801",38.4349758,-78.8508811
"22801","Harrisonburg","VA","Harbor Freight Tools","1854 E Market St","22801",38.430267,-78.841027
"22801","Harrisonburg","VA","Rocking R Ace Hardware","1030 S High St","22801",38.437889,-78.887963
"22801","Harrisonburg","VA","Whitesel Brothers Inc","1332 Garbers Church Rd","22801",38.43644683405303,-78.91294956207275
"22801","Harrisonburg","VA","Tractor Supply Co.","2385 East Market St","22801",38.420297999999995,-78.838955
"22801","Harrisonburg","VA","Sherwin-Williams Paint Store","1820 Evelyn Byrd Ave","22801",38.431992,-78.854163
"22801","Harrisonburg","VA","Pleasants Hardware Harrisonburg","1375","22801",38.387053,-78.903379
"22801","Harrisonburg","VA","Abc Supply Co.","not_available","22801",38.422389,-78.891278
"22801","Harrisonburg","VA","Creative Lighting","1903 S Main St","22801",38.424040999999995,-78.890831
"22801","Harrisonburg","VA","Ferguson Plumbing Supply","44 Reedy Circle","22801",38.39982,-78.91008199999999
"22801","Harrisonburg","VA","Commonwealth Building Materials Inc","30 Covenant Drive","22801",38.40645612,-78.90956367
"22801","Harrisonburg","VA","Don Largest Roofing","1748-1778 State Route 726","22801",38.434544,-78.90806500000001
"22801","Harrisonburg","VA","Bridgewater Ace Hardware","601 N Main Street","22812",38.38966,-78.96776
"22801","Harrisonburg","VA","acme stove","not_available","22802",38.433364000000005,-78.843917
"22801","Harrisonburg","VA","Appalachian Equipment & Supply","600 N Main St","22802",38.456026,-78.86398299999999
"22801","Harrisonburg","VA","Sherwin-Williams Floorcovering Store","4810 Early Rd","22841",38.381248,-78.912277
"22801","Harrisonburg","VA","Lil' Red Barn","2200 Ridgedale Rd","22801",38.398091197013855,-78.87428820133209
"22801","Harrisonburg","VA","Rockingham Cooperative","Grace Street","22801",38.44343011865538,-78.87797355651855
"22801","Harrisonburg","VA","minuteKEY","2160 John Wayland Hwy","22801",38.433440999999995,-78.910294
"22802","Harrisonburg","VA","Harness Shop","not_available","22821",38.433735,-78.972161
"22802","Harrisonburg","VA","Rider Machine Shop","1886 Mount Clinton Pike","22802",38.474266,-78.890716
"22802","Harrisonburg","VA","Brunk Improvations","9853 Singers Glen Rd","22850",38.5530267,-78.9140556
"22802","Harrisonburg","VA","Shade Equipment Co Inc","4072 N Valley Pike","22802",38.4850054,-78.813266
"22812","Bridgewater","VA","Randy's Do It Best Hardware","120 N Main St","22812",38.382853000000004,-78.975367
"22815","Broadway","VA","Randy's Do It Best Hardware","129 W Old Cross Rd","22844",38.647967,-78.672809
"22815","Broadway","VA","Randy's Do It Best Hardware","14064 Timberway","22853",38.62803552943583,-78.7765645980835
"22815","Broadway","VA","Route 11 Equipment Sales","9800 S Congress St","22844",38.637687,-78.67871099999999
"22815","Broadway","VA","Hartman Farm Machinery","not_available","22834",38.57208515436072,-78.82600657107028
"22824","Edinburg","VA","Zerkel Hardware","6191 Main St","22842",38.738331,-78.643398
"22827","Elkton","VA","Ace Hardware","300 S Stuart Ave","22827",38.406123,-78.61979699999999
"22827","Elkton","VA","RentEquip","790 South East Side Hwy","22827",38.393734,-78.620558
"22827","Elkton","VA","Rockingham Co-Op","135 W Spotswood St","22827",38.408536,-78.619977
"22827","Elkton","VA","Stanardsville Hardware","81 Main St","22973",38.2978,-78.440551
"22835","Luray","VA","Tractor Supply Co.","1462 Us Hwy 211 West","22835",38.660916,-78.498054
"22835","Luray","VA","Husqvarna US","127 Big Oak Rd","22835",38.659027099609375,-78.4943618774414
"22835","Luray","VA","Skyline Paint & Hardware","21 E Luray Shopping Ctr","22835",38.66500967,-78.44760017
"22835","Luray","VA","Page co-op","HWY 211/340","not_available",38.65961,-78.49458932876587
"22835","Luray","VA","Lancaster Enterprises","1 Mechanic St","22835",38.66771,-78.46094
"22835","Luray","VA","Ace Hardware","15 Cave St","22835",38.664225,-78.457628
"22835","Luray","VA","Page Coop Do It Best Hardware","not_available","22835",38.660679580304134,-78.49090808975832
"22841","Mount Crawford","VA","Augusta True Value","18 Depot Lane","24486",38.289279764464645,-78.91510605812071
"22901","Charlottesville","VA","Lowe's","400 Woodbrook Dr","22901",38.0907013,-78.4716481
"22901","Charlottesville","VA","Tractor Supply Co.","921 River Rd","22901",38.036199,-78.459511
"22901","Charlottesville","VA","Martin Hardware","939 Preston Ave","22903",38.0389,-78.4902
"22901","Charlottesville","VA","Ferguson Bath, Kitchen & Lighting Gallery","399 Hillsdale Dr","22901",38.065757751464844,-78.48382568359375
"22901","Charlottesville","VA","Ferguson HVAC Supply","1180 Seminole Trail Ste 405","22901",38.06996536254883,-78.48780822753906
"22901","Charlottesville","VA","ECK Supply Co.","1150 Rose Hill Dr","22903",38.041896,-78.481892
"22901","Charlottesville","VA","Capital Electric","2100 Berkmar Dr","22901",38.079292,-78.477406
"22901","Charlottesville","VA","Vamac","1180 Seminole Trl","22901",38.069722,-78.487336
"22901","Charlottesville","VA","Allied Concrete Co","1000 Harris St","22903",38.039054,-78.48065799999999
"22901","Charlottesville","VA","Rooter Man","3675 Dobleann Dr","22911",38.137468,-78.443403
"22901","Charlottesville","VA","Sherwin-Williams Paint Store","2115 Berkmar Dr","22901",38.079237,-78.478553
"22901","Charlottesville","VA","Sherwin-Williams Floorcovering Store","1615 Quail Run","22911",38.147525787353516,-78.44246673583984
"22901","Charlottesville","VA","Better Living, Inc.","136 Better Living Dr","22974",38.09364834606849,-78.46806521440043
"22901","Charlottesville","VA","Kraft Appliance Service","1128 Rose Hill Dr","22903",38.042203,-78.483474
"22901","Charlottesville","VA","Aireco","2335 Seminole Ln","22901",38.100181579589844,-78.46085357666016
"22901","Charlottesville","VA","Flameless specialties inc","not_available","22901",38.05045963287618,-78.46856474888217
"22901","Charlottesville","VA","Meadowbrook Hardware","914 Preston Ave","22903",38.03737708976437,-78.48963260650635
"22901","Charlottesville","VA","Albemarle County Firearms","722 Rio Road West","22901",38.083407,-78.474557
"22901","Charlottesville","VA","Sherwin-Williams Paint Store","975 Seminole Trl","22901",38.063127,-78.489755
"22901","Charlottesville","VA","minuteKEY","975 Hilton Heights Rd","22901",38.097301,-78.467131
"22902","Charlottesville","VA","Charlottesville Glass & Mirror","1428 E High St","22902",38.03248977661133,-78.46250915527344
"22902","Charlottesville","VA","Alkoh Supply","1517 County Road 742","22902",38.00903677940369,-78.49047482013702
"22902","Charlottesville","VA","HD Supply A.H. Harris","1215 East Market St","22902",38.027169,-78.468352
"22902","Charlottesville","VA","Ferguson Plumbing Supply","505 Garrett St","22902",38.028082,-78.479135
"22902","Charlottesville","VA","Mid Atlantic Fasteners","450 Pantops Ctr","22911",38.030955,-78.45877
"22902","Charlottesville","VA","Capital Electric","2390 Hunters Way","22911",38.019521,-78.416556
"22902","Charlottesville","VA","DILLIGAF","not_available","22903",38.03388833986221,-78.49927032078446
"22903","Charlottesville","VA","Crozet Hardware","The Square","22932",38.069296,-78.700728
"22903","Charlottesville","VA","Blue Ridge Builders Supply Inc.","5221 Rockfish Gap Tpk","22903",38.04990005493164,-78.68155670166016
"22903","Charlottesville","VA","All Engines Possible.","6037 Rockfish Gap Tpke","22932",38.049538,-78.711276
"22911","Charlottesville","VA","City Electric Supply Charlottesville","4257 Seminole Trl Ste D","22911",38.1532028,-78.4204753
"22911","Charlottesville","VA","RooterGuyÂ® Plumbing","2898 Stony Point Rd","22911",38.0827658,-78.404564
"22920","Afton","VA","Wayne Oxygen","not_available","22980",38.04757541,-78.88919
"22920","Afton","VA","Augusta Paint & Decorating","425 W. Broad St","22980",38.070067,-78.888729
"22920","Afton","VA","Rocking R Ace Hardware","1000 W Broad St","22980",38.07097,-78.893394
"22923","Barboursville","VA","Lowe's","385 Stoneridge Dr N","22968",38.239105,-78.369906
"22923","Barboursville","VA","Tractor Supply Co.","42 Carmen Pl","22968",38.23432159423828,-78.38465881347656
"22938","Faber","VA","Wintergreen True Value Hardware","2230 Rockfish Valley Hwy","22958",37.886344,-78.88346
"22939","Fishersville","VA","Lowe's","801 Lew Dewitt Blvd","22980",38.0668659,-78.9402816
"22939","Fishersville","VA","The Home Depot","31 Windigrove Road","22980",38.0601735,-78.9334425
"22939","Fishersville","VA","Ferguson Plumbing Supply","14 Angela Ct","22939",38.076558,-78.997299
"22939","Fishersville","VA","Capital Electric","1688 Jefferson Hwy","22939",38.100999,-78.971625
"22939","Fishersville","VA","minuteKEY","116 Lucy Ln","22980",38.0678846,-78.9332165
"22942","Gordonsville","VA","Lowe's","165 Camp Creek Parkway","22942",37.9802671,-78.2073676
"22942","Gordonsville","VA","Better Living Mill Shop","371 Better Living Dr","22974",37.970782,-78.22969300000001
"22942","Gordonsville","VA","Hardware Plus","18079 James Madison Hwy","22942",38.158753000000004,-78.165315
"22952","Lyndhurst","VA","Ace Hardware","2589 Stuarts Draft Hwy","24477",38.0332404428886,-79.0378685781656
"22960","Orange","VA","Paint And Paper","270 Berry Hill Rd","22960",38.241008,-78.10184
"22960","Orange","VA","Haynes Outdoors","12555 James Madison Hwy","22960",38.228770000000004,-78.115742
"22960","Orange","VA","Tractor Supply Co.","13226 James Madison Hwy","22960",38.225516,-78.123712
"22963","Palmyra","VA","Blue Ridge Builders Supply","101 Turkey Sag Tr.","not_available",37.90394659901128,-78.34118843078613
"22963","Palmyra","VA","Blue Ridge Paint and Decorating","265 Turkeysag Trl Ste 101C","22963",37.904502868652344,-78.34101867675781
"22963","Palmyra","VA","Fluvanna Hardware","114 Crofton Pl","22963",37.925187,-78.31813100000001
"22974","Troy","VA","Virginia Tile","166 Industrial Way","22974",37.96849822998047,-78.23541259765625
"22974","Troy","VA","Commonwealth Building Materials Inc","169 Starlite Park","22974",37.969688,-78.225806
"22974","Troy","VA","Better Living, Inc.","Better Living Dr","22974",37.96878218650818,-78.23315441608429
"22980","Waynesboro","VA","Gerdau - Waynesboro","71 Stump Ln","22980",38.052712,-78.984703
"22980","Waynesboro","VA","Sherwin-Williams Paint Store","2319 W Main St","22980",38.078387,-78.918182
"23002","Amelia Court House","VA","Independent Home Walk In Bathtubs - Virginia","81 Carter Rd","23040",37.46916580200195,-78.17471313476562
"23005","Ashland","VA","The Home Depot","10233 Lakeridge Parkway","23005",37.68657444518251,-77.45756516565052
"23005","Ashland","VA","Tractor Supply Co.","201 Junction Dr","23005",37.75535186,-77.46597129
"23005","Ashland","VA","Ashland Ace Hardware","105A N Washington Hwy","23005",37.759061,-77.468536
"23005","Ashland","VA","Hanover Tools","not_available","23005",37.739526,-77.466002
"23005","Ashland","VA","Central Hardware Supply","Air Park Drive","not_available",37.698505,-77.447938
"23005","Ashland","VA","J. S. Archer Company, Inc.","10466 Dow Gil Rd","23005",37.741621,-77.468911
"23005","Ashland","VA","Atlantic American Fire & Equipment","11114 Air Park Rd","23005",37.705049,-77.43669
"23005","Ashland","VA","RVA Paint & Decorating","10351 Cedar Ln","23059",37.68916383,-77.46329783
"23005","Ashland","VA","M & M Controls","11237B Leadbetter Rd","23005",37.71257781982422,-77.44422149658203
"23005","Ashland","VA","Caliber Equipment Inc","11482 Fox Cross Rd","23005",37.720535,-77.461541
"23005","Ashland","VA","H&E Equipment Services","10409 Success St","23005",37.7306793,-77.46633779999999
"23005","Ashland","VA","Duron","kings charter drive","not_available",37.68520035,-77.41831706
"23005","Ashland","VA","Commonwealth Building Materials Inc","11066 Washington Highway","23059",37.70339,-77.46404
"23005","Ashland","VA","APV","10223 Sycamore Dr","23005",37.700679,-77.454072
"23005","Ashland","VA","Factory Direct Hardware","P.O. 1342","23005",37.75875583866032,-77.48095035552979
"23005","Ashland","VA","Sherwin-Williams Paint Store","9555 Kings Charter Dr","23005",37.69271811,-77.43675962
"23005","Ashland","VA","Carter Lumber","12144 Washington Hwy","23005",37.735146,-77.46970400000001
"23005","Ashland","VA","Ashland Feed Store","120 Thompson St","23005",37.759434000000006,-77.48269599999999
"23005","Ashland","VA","Duron Paints & Wallcoverings","9555 Kings Charter Dr Ste A","23005",37.692085,-77.43639300000001
"23005","Ashland","VA","Sherwin-Williams Paint Store","169 Junction Dr","23005",37.754822999999995,-77.468747
"23009","Aylett","VA","360 Hardware","not_available","23106",37.73091491565982,-77.27183439186054
"23024","Bumpass","VA","Station 8's Equipment Shed","not_available","23192",37.81409,-77.67863
"23030","Charles City","VA","Custom Metal Fabricator's","not_available","23141",37.45354661860438,-77.1486764432297
"23030","Charles City","VA","Husqvarna US","13908 James River Dr","23860",37.249881744384766,-77.15850067138672
"23030","Charles City","VA","Turnage Welding & Repair","3158 Roxbury Rd","23030",37.4458895,-77.1633169
"23043","Deltaville","VA","Hurds Inc.","17342 General Puller Hwy","23043",37.554501,-76.337593
"23059","Glen Allen","VA","Lowe's","4401 Pouncey Tract Road","23060",37.655563,-77.6096082
"23059","Glen Allen","VA","Fulfilling Snacks","4860 Cox rd. Suite 200","23060",37.669464111328125,-77.56986999511719
"23059","Glen Allen","VA","minuteKEY","4401 Pouncey Tract Rd","23060",37.65528869628906,-77.60969543457031
"23060","Glen Allen","VA","The Home Depot","11260 W Broad St","23060",37.6519796712433,-77.60324921882102
"23060","Glen Allen","VA","Lowe's","9490 West Broad St","23294",37.6417225,-77.5569649
"23060","Glen Allen","VA","Sherwin-Williams Paint Store","3171 Lauderdale Dr","23233",37.639819778598685,-77.63106262375298
"23060","Glen Allen","VA","Spectrum construction","Telegraph rd","23060",37.647758,-77.473547
"23060","Glen Allen","VA","Duron Paints & Wallcoverings","3429 Cox Rd","23233",37.64014434814453,-77.58656311035156
"23060","Glen Allen","VA","minuteKEY","9490 W Broad St","23294",37.641449,-77.556997
"23060","Glen Allen","VA","minuteKEY","11400 W Broad St","23060",37.652259826660156,-77.60859680175781
"23060","Glen Allen","VA","City Electric Supply Richmond North","1570 Fauver Ave","23060",37.6422389,-77.4621009
"23060","Glen Allen","VA","N H S","8650 Brook Rd","23060",37.640682220458984,-77.46055603027344
"23060","Glen Allen","VA","Ferguson HVAC Supply","2703 Ackley Ave","23228",37.6381554091547,-77.4982348300349
"23060","Glen Allen","VA","RATS","not_available","23233",37.64612,-77.607701
"23060","Glen Allen","VA","Arthur's Electric Service, Inc.","8910 Brook Rd","23060",37.64529,-77.460545
"23060","Glen Allen","VA","Sherwin-Williams Paint Store","1079 Virginia Center Pkwy","23059",37.665212,-77.459716
"23060","Glen Allen","VA","Northern Tool + Equipment","9855 W Broad St","23060",37.642051696777344,-77.56695556640625
"23061","Gloucester","VA","Lowe's","6659 George Washington Memorial Highway","23061",37.3834735,-76.5330524
"23061","Gloucester","VA","The Home Depot","6921 Walton Lane","23061",37.40283228149287,-76.52828335762024
"23061","Gloucester","VA","Tractor Supply Co.","6499 Market Dr","23061",37.391103,-76.527436
"23061","Gloucester","VA","Dannys Glass","7203 George Washington Memorial Hwy","23061",37.395958,-76.52544300000001
"23061","Gloucester","VA","WT Fary Brothers","not_available","23061",37.478092215353634,-76.5479284761883
"23061","Gloucester","VA","Hodges & Bryant","Main St","23061",37.411642,-76.51845
"23061","Gloucester","VA","Commonwealth Water Treatment, Inc.","5222 George Washington Memorial Hwy","23061",37.347021,-76.524802
"23061","Gloucester","VA","minuteKEY","6819 Waltons Ln","23061",37.400272369384766,-76.52816009521484
"23061","Gloucester","VA","Sherwin-Williams Paint Store","7032 George Washington Memorial Hwy","23061",37.39291105988633,-76.52960300445557
"23061","Gloucester","VA","Pro Desk At The Home Depot","6921 Waltons Ln","23061",37.402845,-76.528275
"23061","Gloucester","VA","Ferguson Plumbing Supply","7067 Main St","23061",37.405685999999996,-76.518399
"23061","Gloucester","VA","M&M Building Supply","10859 General Puller Hwy","23071",37.55370442310448,-76.4488685131073
"23063","Goochland","VA","Waypoint Marine Services LLC","2808 Timber Trail Dr","23153",37.768215999999995,-77.918093
"23072","Hayes","VA","Gloucester Supply & Ace Hardware","2384 Hayes Rd","23072",37.275249,-76.50317700000001
"23093","Louisa","VA","Tractor Supply Co.","8986 Courthouse Rd","23093",38.019675,-78.002351
"23093","Louisa","VA","J. S. Purcell Lumber Corp.","138 West St","23093",38.028556,-78.013166
"23093","Louisa","VA","Louisa True Value Hardware","401 E Main St","23093",38.021347999999996,-77.995453
"23093","Louisa","VA","Orange Madison Cooperative","3772 Davis Hwy","23093-4127",38.016709999999996,-77.969266
"23103","Manakin Sabot","VA","Virginia Custom Buildings","280 Broad Street Rd","23103",37.674115,-77.700716
"23103","Manakin Sabot","VA","Capital Electric","12925 Plaza Dr","23233",37.67290496826172,-77.67604064941406
"23103","Manakin Sabot","VA","Merchants Metals","2355 Lanier Rd","not_available",37.70051956176758,-77.66416931152344
"23103","Manakin Sabot","VA","Tractor Supply Co.","2300 Commerce Center Dr","23146",37.69625,-77.6619
"23106","Manquin","VA","True Value 360 Hardware & Rental","625 Richmond Tappahanock Hwy","23106",37.69044573,-77.17859855
"23109","Mathews","VA","Moughon's Ace Hardware","40 Main Street","23109",37.436936,-76.320954
"23109","Mathews","VA","Husqvarna US","PO Box 314","23109",37.4359016418457,-76.32682800292969
"23109","Mathews","VA","M & M Building Supply","10748 Buckley Hall Rd.","23109",37.43845,-76.32327
"23110","Mattaponi","VA","Ace Hardware","611 14th Street","23181",37.538414,-76.79646899999999
"23111","Mechanicsville","VA","The Home Depot","7251 Bell Creek Rd","23111",37.6011427,-77.3525653
"23111","Mechanicsville","VA","Lowe's","6425 Mechanicsville Turnpike","23111",37.6127429,-77.3260346
"23111","Mechanicsville","VA","Tractor Supply Co.","7047 Mechanicsville Tpke","23111",37.61055562841079,-77.33843922615051
"23111","Mechanicsville","VA","Virginia Paint Company","7031 Mechanicsville Tpke","23111",37.610701,-77.337698
"23111","Mechanicsville","VA","Duron Paints & Wallcoverings","3310B Mechanicsville Pike","23223",37.570924,-77.400334
"23111","Mechanicsville","VA","Sherwin-Williams Paint Store","3310B Mechanicsville Tpke","23223",37.572208404541016,-77.40010833740234
"23111","Mechanicsville","VA","Harbor Freight","7019 Mechanicsville Tpke","23111",37.61081485171533,-77.33736097812653
"23111","Mechanicsville","VA","minuteKEY","7430 Bell Creek Rd","23111",37.613957,-77.355149
"23111","Mechanicsville","VA","minuteKEY","6425 Mechanicsville Tpke","23111",37.61288070678711,-77.32615661621094
"23111","Mechanicsville","VA","Pleasants Hardware","not_available","23116",37.659504,-77.384737
"23111","Mechanicsville","VA","Carpet America","not_available","23111",37.61831267295271,-77.31555098935134
"23111","Mechanicsville","VA","Sherwin-Williams Floorcovering Store","2539 Mechanicsville Tpke","23223",37.5598877612243,-77.4060845375061
"23111","Mechanicsville","VA","More Than Glass","8195 Walnut Grove Road","23111",37.626111,-77.298202
"23111","Mechanicsville","VA","Sherwin-Williams Paint Store","7348 Bell Creek Rd","23111",37.605832,-77.35349000000001
"23112","Midlothian","VA","Lowe's","7001 Winterpock Road","23832",37.4023733,-77.6695507
"23112","Midlothian","VA","The Home Depot","12300 Chattanooga Plaza","23112",37.43065838803446,-77.62472212314606
"23112","Midlothian","VA","Tractor Supply Co.","6801 Lake Harbour Dr","23112",37.40572743431557,-77.67223850247741
"23112","Midlothian","VA","Pleasants Hardware","Midlothian Store 13591 Midlothian Tpke","23113",37.501898,-77.651579
"23112","Midlothian","VA","Capital Electric","2931 Oak Lake Blvd","23112",37.450402000000004,-77.62614
"23112","Midlothian","VA","Nick's Garage","not_available","23832",37.394545,-77.700157
"23112","Midlothian","VA","minuteKEY","12200 Chattanooga Plz","23112",37.431465,-77.621143
"23112","Midlothian","VA","Glue And Screw","not_available","23112",37.43120590539796,-77.62106575397344
"23112","Midlothian","VA","City Electric Supply Richmond South","1725 Oak Lake Blvd E","23112",37.456194,-77.6254612
"23112","Midlothian","VA","Sherwin-Williams Paint Store","13220 Hull Street Rd","23112",37.41874696,-77.64043987
"23112","Midlothian","VA","minuteKEY","14501 Hancock Village St","23832",37.401153564453125,-77.67696380615234
"23112","Midlothian","VA","fastenal","not_available","23236",37.499449732136036,-77.5993235539893
"23112","Midlothian","VA","AirRight Inc","12224 Wilfong Ct","23112",37.459837,-77.624344
"23112","Midlothian","VA","Capital Electric","801 Johnston Willis Dr","23236",37.50366973876953,-77.59161376953125
"23112","Midlothian","VA","Ferguson Plumbing Supply","6601 Lake Harbour Dr","23112",37.4056193670886,-77.6724183544304
"23112","Midlothian","VA","Rental Works","11811 Hull Street Rd","23112",37.432544,-77.612342
"23112","Midlothian","VA","minuteKEY","900 Walmart Way","23113",37.5041637,-77.62982
"23112","Midlothian","VA","minuteKEY","7001 Winterpock Rd","23832",37.402153999999996,-77.66924399999999
"23112","Midlothian","VA","Ferguson Plumbing Supply","711 Research Rd","23236",37.503294,-77.601392
"23112","Midlothian","VA","Duron Paints & Wallcoverings","11390 Midlothian Tpke","23235",37.505958557128906,-77.60648345947266
"23112","Midlothian","VA","Dixie Electric Supply","not_available","23120",37.391636972310465,-77.72943412612202
"23112","Midlothian","VA","Sherwin-Williams Paint Store","10220 Hull Street Rd","23112",37.442636,-77.586056
"23113","Midlothian","VA","Lowe's","1512 Koger Center Blvd","23235",37.51451057,-77.60898754
"23113","Midlothian","VA","The Home Depot","1386 Car Mia Way","23235",37.5106093,-77.6037
"23113","Midlothian","VA","Southern States - 78535","1200 Alverser Dr","23113",37.507605,-77.618226
"23113","Midlothian","VA","Sears","11500 Midlothian Tpke","23235",37.5102033,-77.61019
"23113","Midlothian","VA","Michael and Son Services, Inc.","11016 Midlothian Tpke","23235",37.506916522979736,-77.6010274887085
"23113","Midlothian","VA","duron","not_available","23235",37.50672734505941,-77.60648003190653
"23113","Midlothian","VA","Truck Rental Center at the Home Depot","1386 Carmia Way","23235",37.51044845581055,-77.6037826538086
"23116","Mechanicsville","VA","Water works Inc","8338 Old Richfood Rd","23116",37.635533,-77.415397
"23116","Mechanicsville","VA","minuteKEY","9714 Sliding Hill Rd","23005",37.693382263183594,-77.43920135498047
"23116","Mechanicsville","VA","Harper Hardware Co","11173 Leadbetter Rd","23005",37.709205627441406,-77.44373321533203
"23139","Powhatan","VA","Morris Industries","not_available","23139",37.51516660957188,-77.77294751363384
"23139","Powhatan","VA","Tractor Supply Co.","2470 Anderson Hwy Ste G","23139",37.52197518020822,-77.81787617109906
"23139","Powhatan","VA","Ferguson Waterworks","1510 Bellwood Rd","23237",37.518204,-77.763701
"23141","Quinton","VA","Quinton Hardware","2550 New Kent Hwy","23141",37.521155,-77.186357
"23149","Saluda","VA","Horn's Middlesex Ace","2707 General Puller Hwy","23149",37.602611,-76.565378
"23185","Williamsburg","VA","Peninsula Ace Hardware","210 Monticello Ave","23185",37.28211002259944,-76.72214269638062
"23185","Williamsburg","VA","Ace Peninsula Hardware","4511 John Tyler Hwy Ste L","23185",37.2523369,-76.764981
"23185","Williamsburg","VA","Sherwin-Williams Paint Store","457 Merrimac Trl","23185",37.272743225097656,-76.67840576171875
"23185","Williamsburg","VA","Commonwealth Building Materials Inc","1701 Endeavor Drive","23185",37.20803771,-76.61408458
"23185","Williamsburg","VA","Riverside Brick And Supply","5361 Mooretown Rd","23188",37.310787200927734,-76.7293930053711
"23185","Williamsburg","VA","Sherwin-Williams Paint Store","5540 Olde Towne Rd","23188",37.31530686651799,-76.73656331838009
"23185","Williamsburg","VA","fastenal","not_available","23185",37.26031789139652,-76.67203945642986
"23185","Williamsburg","VA","Capital Electric","1637 Merrimac Trl","23185",37.246734619140625,-76.65476989746094
"23185","Williamsburg","VA","City Electric Supply Williamsburg","3317 Venture Ln Ste A","23188",37.2554625,-76.7621678
"23188","Williamsburg","VA","Lowe's","801 East Rochambeau Drive","23188",37.3435668,-76.7378253
"23188","Williamsburg","VA","The Home Depot","6700 Mooretown Road","23188",37.3404845,-76.7360964
"23188","Williamsburg","VA","Jamestown Feed & Seed","7348 Richmond Rd","23188",37.366246053211775,-76.76813947892975
"23188","Williamsburg","VA","Virginia Paint","6380 Richmond Rd Ste B","23188",37.338836669921875,-76.75215911865234
"23188","Williamsburg","VA","Wolseley Industrial Group","6540 Mooretown Rd","23188",37.333618615082,-76.7360051690492
"23188","Williamsburg","VA","minuteKEY","801 E Rochambeau Dr","23188",37.343746185302734,-76.7374038696289
"23188","Williamsburg","VA","minuteKEY","731 E Rochambeau Dr","23188",37.345898,-76.738021
"23188","Williamsburg","VA","Tractor Supply Co.","119 Norge Ln","23188",37.37322,-76.77404
"23219","Richmond","VA","GSA","not_available","23219",37.536923897375004,-77.43497539859739
"23219","Richmond","VA","Giant Garage Door","700 E Main St, #1612","23219",37.539371490478516,-77.4375991821289
"23220","Richmond","VA","Lowe's","1640 West Broad Street","23220",37.5557479,-77.4565849
"23220","Richmond","VA","Siewers Lumber & Millwork","1901 Ellen Rd","23230",37.574183000000005,-77.467282
"23220","Richmond","VA","Staley Co.","1000 W Roberts St","23220",37.56253845,-77.4441453
"23220","Richmond","VA","Plus Garage Door","413 Stuart Cir #100F","23220",37.55182647705078,-77.45774841308594
"23220","Richmond","VA","Duron Paints & Wallcoverings","2313 W Cary St","23220",37.54969,-77.47089
"23220","Richmond","VA","Charlie's Lock Shop","1181 W Broad St","23220",37.55572,-77.4593
"23220","Richmond","VA","Southern Refrigeration Corp","3400-3490 W Moore St","23230",37.57123019,-77.47361853
"23220","Richmond","VA","samson coatings","1900 Ellen Rd","23230",37.574766,-77.468137
"23220","Richmond","VA","Wolseley Industrial Group, a Ferguson Enterprise","1801 Roseneath Rd","23230",37.57223589108365,-77.47159481048584
"23220","Richmond","VA","Eco Supply Center","Roseneath","not_available",37.56956,-77.476335
"23220","Richmond","VA","HD Supply A.H. Harris","2405 Hermitage Road","23220",37.5648723,-77.4599339
"23220","Richmond","VA","HD Supply White Cap","2405 Hermitage Rd","23220",37.564814,-77.459958
"23220","Richmond","VA","Johnstone Supply","1904 N Hamilton St","23230",37.574044,-77.475936
"23220","Richmond","VA","minuteKEY","1640 W Broad St","23220",37.55575180053711,-77.45655822753906
"23220","Richmond","VA","C.E. Clarke & Son, Inc.","1700 Roseneath Rd","23230",37.571391999999996,-77.47215899999999
"23220","Richmond","VA","American Welding & Construction Supply","1806 Roseneath Rd","23230",37.572455,-77.470996
"23220","Richmond","VA","Tidewater Air Filter Fabrication Company","1812 Mactavish Ave Ste B","23230",37.571874393865315,-77.46918085698661
"23221","Richmond","VA","Ace Garage Door","6767 Forest Hill Ave","23225",37.53703308105469,-77.51869201660156
"23221","Richmond","VA","Capital Electric","1901 N Hamilton St","23230",37.5724983215332,-77.47590637207031
"23222","Richmond","VA","Grainger","2424 Magnolia Ct","23223",37.561169977771776,-77.4157851274292
"23222","Richmond","VA","White Cap Construction Supply","2500 Glen Center St","23223",37.56117980313784,-77.40916782504952
"23222","Richmond","VA","Sherwin-Williams Product Finishes","3911 Carolina Ave","23222",37.584052,-77.412954
"23222","Richmond","VA","Baker Distributing Company","4301 Carolina Ave","23222",37.594879999999996,-77.41072199999999
"23222","Richmond","VA","Ace Drywall & Plastering","605 Milton St","23222",37.578369,-77.42313100000001
"23222","Richmond","VA","Northside Hardware Store","2925 North Ave","23222",37.5714,-77.432854
"23222","Richmond","VA","City Electric Supply Richmond East","2201 Magnolia St","23223",37.55910572912621,-77.41445906460285
"23222","Richmond","VA","R.E. Michel Company","2500 Mechanicsville Tpke","23223",37.560288,-77.40792900000001
"23222","Richmond","VA","Global Stainless Supply","4111 Carolina Ave Bldg A","23222",37.588119,-77.410697
"23223","Richmond","VA","Lowe's","4551 S Laburnum Avenue","23231",37.53009,-77.351294
"23223","Richmond","VA","Pleasants Hardware","Laburnum Store 4756 Finlay St","23231",37.5204,-77.352999
"23223","Richmond","VA","Sherwin-Williams Paint Store","3720 Williamsburg Rd","23231",37.5188102722168,-77.3617935180664
"23223","Richmond","VA","plastex","not_available","23231",37.51983673687229,-77.41069794648085
"23223","Richmond","VA","minuteKEY","4551 S. LABURNUM AVENUE","23231",37.529823303222656,-77.3514404296875
"23224","Richmond","VA","Harbor Freight Tools","6500 Hull Street Rd #2","23224",37.48014241008098,-77.51229670615912
"23224","Richmond","VA","Duron Paints & Wallcoverings","6516 Hull Street Rd","23224",37.480449349879535,-77.51330971312404
"23224","Richmond","VA","Air Filters Inc.","not_available","23234",37.471378,-77.452923
"23224","Richmond","VA","Central Wholesale","2720 Cofer Rd","23224",37.494406,-77.449871
"23225","Richmond","VA","Lowe's","2501 Sheila Lane","23225",37.5350048,-77.5312018
"23225","Richmond","VA","minuteKEY","2410 Sheila Ln","23225",37.532596588134766,-77.53169250488281
"23225","Richmond","VA","Disk Doctors","7400 Beaufont Springs Dr","23225",37.507240692023956,-77.52862930297852
"23225","Richmond","VA","Sherwin-Williams Paint Store","8204 Midlothian Tpke","23235",37.497609999999995,-77.547533
"23225","Richmond","VA","minuteKEY","2501 Sheila Ln","23225",37.53490447998047,-77.53115844726562
"23225","Richmond","VA","minuteKEY","7000 Tim Price Way","23225",37.49876022338867,-77.52559661865234
"23225","Richmond","VA","Best Garage Door","7400 Beaufont Springs Dr #300","23225",37.508347105045765,-77.52920866012573
"23226","Richmond","VA","The Home Depot","6501 W Broad St","23230",37.5977038,-77.5153003
"23226","Richmond","VA","Pleasants Hardware","Libbie Ave Store 5815 Patterson Ave","23226",37.57956,-77.514899
"23226","Richmond","VA","minuteKEY","6920 Forest Ave","23230",37.603057861328125,-77.52271270751953
"23226","Richmond","VA","Toolz N More","not_available","23229",37.58746,-77.564975
"23226","Richmond","VA","Ace Hardware","423 N Ridge Rd","23229",37.58209991455078,-77.5544662475586
"23226","Richmond","VA","Sherwin-Williams Commercial Paint Store","6564 W Broad St","23230",37.599441999999996,-77.513613
"23226","Richmond","VA","Elite Garage Door","1518 Willow Lawn Dr #300","23230",37.580840952882774,-77.49994039535522
"23226","Richmond","VA","Sherwin-Williams Paint Store","4918 W Broad St","23230",37.5833931582106,-77.49507533265947
"23226","Richmond","VA","Glidden Proffessional Paint Center","6504 W Broad St","23230",37.598165,-77.512789
"23226","Richmond","VA","Sherwin-Williams Paint Store","1517 N Parham Rd","23229",37.603271484375,-77.5634765625
"23226","Richmond","VA","Pleasants Hardware","Ridge Store 423 N Ridge Rd","23229",37.5807,-77.5549
"23226","Richmond","VA","West End Machine & Welding","School Ave","23228",37.610455892255466,-77.49499132232496
"23227","Richmond","VA","Lowe's","8001 Brook Road","23227",37.6328031,-77.4540626
"23227","Richmond","VA","Sears","4100 Tomlynn St Ste A","23230",37.5761171,-77.479259
"23227","Richmond","VA","Atlantic Electrical Supply","not_available","23230",37.576407,-77.476315
"23227","Richmond","VA","Appliances On Lakeside","5418 Lakeside Ave","23228",37.603587,-77.467577
"23227","Richmond","VA","Richmond Electric Supply","1732 Kelly Rd","23230",37.576811,-77.466047
"23228","Henrico","VA","Fastenal","4811 Bethlehem Rd","23230",37.59168,-77.488866
"23228","Henrico","VA","Blue Linx","4700 Bethlehem Rd","23230",37.593650817871094,-77.48576354980469
"23228","Henrico","VA","Harbor Freight Tools","8093 W Broad St","23294",37.6269853180905,-77.53333080112874
"23228","Henrico","VA","ProSource of Richmond","2836 E Parham Rd","23228",37.636065668436174,-77.4995219707489
"23228","Henrico","VA","Ferguson Plumbing Supply","2511 Brittons Hill Rd","23230",37.593936920166016,-77.48704528808594
"23228","Henrico","VA","Cather's Furniture Service LLC","7617 Staples Mill Rd","23228",37.620349,-77.499938
"23228","Henrico","VA","Fire Protection","7206 Impala Dr","23228",37.61659,-77.49221800000001
"23228","Henrico","VA","Superior Distribution","2800 Ackley Ave","23228",37.632876,-77.5008
"23228","Henrico","VA","Foundation Building Materials","3008 Impala Place","23228",37.6166302,-77.4948429
"23229","Henrico","VA","Duron Paints & Wallcoverings","1106 Westbriar Dr","23238",37.59859848022461,-77.62332153320312
"23229","Henrico","VA","Pleasants Hardware","Patterson & Lauderdale 11240 Patterson Ave","23233",37.5972999,-77.6192
"23230","Richmond","VA","Spectrum Paint  (58)","4307 W Broad St","23230",37.57565689086914,-77.4869613647461
"23230","Richmond","VA","Shade & Wise","2010 Dabney Rd","23230",37.57715,-77.48236
"23230","Richmond","VA","Power Products Center","4400 W Broad St","23230",37.57683,-77.486193
"23231","Henrico","VA","The Home Depot","12300 Jefferson Davis Hwy","23831",37.35771593489399,-77.41634130477905
"23231","Henrico","VA","Chesterfield Trade","9521 Jefferson Davis Hwy","23237",37.39483642578125,-77.42878723144531
"23231","Henrico","VA","Sherwin-Williams Paint Store","12020 Jefferson Davis Hwy","23831",37.361675,-77.416308
"23231","Henrico","VA","Duron Paints & Wallcoverings","12615 Jefferson Davis Hwy","23831",37.352869,-77.410726
"23231","Henrico","VA","Fastenal","5653 S Laburnum Ave","23231",37.507511138916016,-77.34905242919922
"23231","Henrico","VA","Ferguson Plumbing Supply","5390 S Laburnum Ave","23231",37.512508000000004,-77.350275
"23231","Henrico","VA","Sherwin-Williams Floorcovering Store","1800 Coyote Dr","23836",37.364422999999995,-77.395115
"23234","Richmond","VA","1st Choice Garage Door","7631 Hull Street Rd Ste 101","23235",37.46654510498047,-77.5343246459961
"23234","Richmond","VA","minuteKEY","5700 Hopkins Rd","23234",37.443288,-77.474954
"23234","Richmond","VA","Pleasants Hardware","5140 Jefferson Davis Hwy","23234",37.452478305928054,-77.44227826595306
"23235","Richmond","VA","Northern Tool And Equipment","Midlothian Tpke","23235",37.49648528304987,-77.55296249410634
"23236","Richmond","VA","Pleasant's Hardware - Oxbridge","9923 Hull Street Rd","23236",37.44316864013672,-77.57865905761719
"23237","Richmond","VA","Motion Industries","8849 Whitepine Rd","23237",37.40903733514207,-77.54965890392702
"23237","Richmond","VA","Ace Hardware","6437 Centralia Rd","23832",37.371786,-77.498832
"23237","Richmond","VA","Pleasants Hardware","6439 Centralia Rd","23832",37.37321472167969,-77.49932861328125
"23237","Richmond","VA","Eastern Aluminum","Reycan Rd","not_available",37.402126,-77.53149
"23237","Richmond","VA","Imperial Machine Company","not_available","23237",37.401137,-77.525446
"23237","Richmond","VA","Norandex","8951 Whitepine Rd","23832",37.409446716308594,-77.55304718017578
"23301","Accomac","VA","Eastern Shore Tractor","22529 Lankford Hwy","23301",37.731532,-75.65567
"23303","Atlantic","VA","Wallops Island Supply","33413 Chincoteague Rd","23337",37.927686,-75.49038
"23303","Atlantic","VA","wibsco","not_available","23337",37.927547454833984,-75.49039459228516
"23303","Atlantic","VA","Davis Home Center","not_available","23415",37.927541,-75.54832
"23308","Bloxom","VA","Jaxon's Hardware","24270 Bennett St.","not_available",37.781864166259766,-75.65367126464844
"23308","Bloxom","VA","Young's Olde Shop","Turkey Run Road","not_available",37.854915,-75.602756
"23310","Cape Charles","VA","Eastville Hardware","17221 Courthouse","not_available",37.34606578201376,-75.94872524105621
"23310","Cape Charles","VA","OBS Eastville","not_available","23310",37.297070658664005,-75.97126142580217
"23310","Cape Charles","VA","Onancock True Value Building Supply","5254 Newman Lane","23347",37.3535,-75.9444
"23310","Cape Charles","VA","Watsons Hardware Co.","225 Mason Ave","23310",37.26719537979377,-76.01891273192035
"23320","Chesapeake","VA","Lowe's","1308 Battlefield Blvd North","23320",36.7626602,-76.2534228
"23320","Chesapeake","VA","The Home Depot","1400 Tintern Lane","23320",36.7646145,-76.2551963
"23320","Chesapeake","VA","The Home Depot","2020 Lynnhaven Pkwy","23456",36.7917197,-76.118566
"23320","Chesapeake","VA","Ace Hardware","1204 S Military Hwy","23320",36.80531,-76.22288
"23320","Chesapeake","VA","Ferguson Plumbing Supply","826 Professional Pl","23320",36.763053,-76.234174
"23320","Chesapeake","VA","Seaport Marine","812 Professional Pl W","23320",36.762170000000005,-76.236334
"23320","Chesapeake","VA","Mayer Electric Supply","1438 Tintern St","23320",36.767545,-76.25610400000001
"23320","Chesapeake","VA","Master Tool Repair","1244 B Executive Blvd","23320",36.765076,-76.235417
"23320","Chesapeake","VA","Southern States","Military hwy","not_available",36.788613,-76.247298
"23320","Chesapeake","VA","Service Star Industrial","Bainbridge Blvd","23324",36.7840858517608,-76.28209905773056
"23320","Chesapeake","VA","Elite Garage Door","1736 S Park Ct #101","23320",36.78773880004883,-76.23875427246094
"23320","Chesapeake","VA","Allied Building Products","not_available","23320",36.786709,-76.24840999999999
"23320","Chesapeake","VA","minuteKEY","1832 Kempsville Rd Ste 100","23464",36.78055191040039,-76.18958282470703
"23320","Chesapeake","VA","OESSCO","4331 Bainbridge Blvd","23324",36.778054,-76.282859
"23320","Chesapeake","VA","Sears","1401 Greenbrier Pkwy","23320",36.78063132,-76.22857163
"23320","Chesapeake","VA","Locksmith Expert VA","1509 Ring Rd Apt 216","23320",36.781742095947266,-76.22553253173828
"23320","Chesapeake","VA","Plus Garage Door","652 Independence Pkwy #120","23320",36.76652145385742,-76.26042938232422
"23320","Chesapeake","VA","Chesapeake Fence & Awning Co Inc","1944 S Military Hwy","23320",36.785276,-76.253783
"23320","Chesapeake","VA","Sherwin-Williams Paint Store","100 Medical Pkwy E","23320",36.745663163537714,-76.24349176883698
"23320","Chesapeake","VA","HD Supply White Cap Chesapeake VA - 210","550 Woodlake Drive","23220",36.78527069091797,-76.2447509765625
"23320","Chesapeake","VA","Sherwin-Williams Paint Store","1020 Battlefield Blvd N","23320",36.756595000000004,-76.249453
"23320","Chesapeake","VA","minuteKEY","1308 Battlefield Blvd N","23320",36.762943267822266,-76.25308990478516
"23321","Chesapeake","VA","The Home Depot","2421 Old Taylor Rd","23321",36.82749306918903,-76.40665590763092
"23321","Chesapeake","VA","Lowe's","4708 Portsmouth Blvd","23321",36.8196727,-76.4382463
"23321","Chesapeake","VA","Ferguson Waterworks","4156 S Military Hwy","23321",36.778903060081305,-76.39420274600647
"23321","Chesapeake","VA","Churchland Glass","not_available","23703",36.85874938964844,-76.39614868164062
"23321","Chesapeake","VA","Marva Marble & Granite, Inc.","4025 Seaboard Ct","23701",36.797477,-76.38449200000001
"23321","Chesapeake","VA","Sherwin-Williams Paint Store","3924 Portsmouth Blvd","23321",36.825314,-76.404016
"23321","Chesapeake","VA","minuteKEY","2448 Chesapeake Square Ring Rd","23321",36.8298765,-76.4178108
"23321","Chesapeake","VA","City Electric Supply Chesapeake","4001 Holland Blvd Ste B","23323",36.77792180552807,-76.37710949783468
"23321","Chesapeake","VA","Sherwin Willams","not_available","23321",36.82906915234339,-76.40939104412297
"23321","Chesapeake","VA","Churchland Hardware","3935 Poplar Hill Rd","23321",36.862971,-76.400203
"23321","Chesapeake","VA","East Coast Leisure Pools & Spas Billiards And Supplies","3263 U.S. 17","23321",36.86487749405503,-76.40975833749566
"23322","Chesapeake","VA","The Home Depot","157 Hillcrest Pkwy","23322",36.6558167,-76.2268972
"23322","Chesapeake","VA","Tractor Supply Co.","433 Centerville Tpke South","23322",36.711791496001645,-76.18494132126223
"23322","Chesapeake","VA","Taylor's Do-It-Center","330 Battlefield Blvd S","23322",36.712819035901056,-76.23879437830165
"23322","Chesapeake","VA","Sherwin-Williams Paint Store","1144 Cedar Rd","23322",36.715423583984375,-76.28132629394531
"23322","Chesapeake","VA","Ayers Plumbing Maintenance & Repairs","2256 Cedar Rd","23323",36.720981,-76.326555
"23322","Chesapeake","VA","minuteKEY","673 Cedar Rd","23322",36.709495544433594,-76.2636947631836
"23323","Chesapeake","VA","Mid-Atlantic Fasteners","920A Cavalier Blvd","23323",36.78171476666667,-76.36590923333333
"23323","Chesapeake","VA","Gregory Poole Truck Lifts","1201 Cavalier Blvd","23323",36.78188705444336,-76.36370849609375
"23323","Chesapeake","VA","Sherwin-Williams Floorcovering Store","3419 Business Center Dr","23323",36.78665,-76.35730799999999
"23323","Chesapeake","VA","Trane HVAC Parts and Supplies","1104 Cavalier Blvd","23323",36.777949,-76.367449
"23323","Chesapeake","VA","Cybertron","Kent Dr","23702",36.79776920652205,-76.34038951424525
"23323","Chesapeake","VA","VBS Inc Material Handling Equipment","3608 Koppens Way","23323",36.781665999999994,-76.36271500000001
"23323","Chesapeake","VA","Ferguson HVAC Supply","1416 Kelland Dr Ste I","23320",36.774322999999995,-76.27403100000001
"23324","Chesapeake","VA","Creekmore Hardware","1303 Bainbridge Blvd","23324",36.813339,-76.277922
"23324","Chesapeake","VA","HD Supply Kenseal","550 Woodlake Drive","23320",36.786383,-76.244734
"23324","Chesapeake","VA","Sears","2005 South Military Highway","23320",36.785548275831346,-76.25822648406034
"23325","Chesapeake","VA","Hardware Basic Inc","4406 Indian River Rd","23325",36.820369,-76.223766
"23325","Chesapeake","VA","Southland Appliance","3905 Indian River Rd","23325",36.821787,-76.231755
"23325","Chesapeake","VA","American Maintenance Suppliers","not_available","23325",36.822696,-76.230777
"23325","Chesapeake","VA","Eastern Lock And Key","820 Live Oak Dr","23320",36.797847747802734,-76.2310562133789
"23325","Chesapeake","VA","Tudors Hardware","1642 A Sparrow Rd","23325",36.8121999,-76.226299
"23325","Chesapeake","VA","Sure Set Saw Inc","1721 S Park Ct","23320",36.7870668,-76.23764729999999
"23325","Chesapeake","VA","Ditch Witch of Virginia","968 Providence Rd","23325",36.811097,-76.220056
"23336","Chincoteague Island","VA","Rommel's Ace Home Center","6735 Maddox Blvd","23336",37.927502,-75.353986
"23336","Chincoteague Island","VA","Church Supply Company","not_available","23336",37.93056070804596,-75.36972999572754
"23350","Exmore","VA","Western Auto","3364 Main St","23350",37.529466,-75.823324
"23350","Exmore","VA","The Herbert Senn Company","3180 Main Street","23350",37.534101,-75.823553
"23350","Exmore","VA","Northampton Lumber Company","7409 Railroad Ave","23413",37.473338,-75.858305
"23350","Exmore","VA","Rommel's Ace Home Center","4102 Lankford Hwy","23350",37.51684,-75.831999
"23401","Keller","VA","84 Lumber","Lankford Hwy, Melfa, VA 23410, USA","23410",37.619423,-75.7623
"23417","Onancock","VA","Tractor Supply Co","25044 Lankford Hwy","23418",37.701532,-75.713227
"23417","Onancock","VA","Onancock True Value Building Supply","135 Market St","23417",37.711058,-75.738436
"23430","Smithfield","VA","Smithfield True Value Hardware","1409 S Church St","23430",36.96972204930619,-76.60820154579281
"23430","Smithfield","VA","Tractor Supply Co.","13500 Benns Church Blvd","23430",36.952353,-76.600422
"23430","Smithfield","VA","J@R Drywall Co.","not_available","23608",37.128571,-76.558773
"23430","Smithfield","VA","Sherwin-Williams Paint Store","14041 Benns Church Blvd","23430",36.94945526123047,-76.59566497802734
"23434","Suffolk","VA","Lowe's","1216 N Main Street","23434",36.7478428,-76.5799884
"23434","Suffolk","VA","Tractor Supply Co.","3000 Pruden Blvd","23434",36.772262,-76.609847
"23434","Suffolk","VA","KCW Contracting","Suffolk","23437",36.64598932164133,-76.71336650848389
"23434","Suffolk","VA","Windsor True Value","5 Joyner Ave","23487",36.80779944,-76.74341122
"23434","Suffolk","VA","Ace - Import Redistribution Center","1006 Centerpoint Drive","23434",36.71672439575195,-76.670654296875
"23434","Suffolk","VA","General Rental Center","not_available","23434",36.73989,-76.568814
"23434","Suffolk","VA","84 Lumber","4884 Nansemond Pkwy","23435",36.819589,-76.477739
"23434","Suffolk","VA","minuteKEY","1216 N Main St","23434",36.747716,-76.579541
"23434","Suffolk","VA","Taylor's Do-It Center","3235 Bridge Rd","23435",36.86258316040039,-76.48197937011719
"23434","Suffolk","VA","minuteKEY","1200 N Main St","23434",36.745931,-76.5806031
"23434","Suffolk","VA","Sherwin-Williams Paint Store","2432 Pruden Blvd","23434",36.76229,-76.590419
"23451","Virginia Beach","VA","The Home Depot","3352 Virginia Beach Blvd","23452",36.8435599,-76.0900057
"23451","Virginia Beach","VA","Lowe's","2403 Virginia Beach Boulevard","23454",36.8405551,-76.0538499
"23451","Virginia Beach","VA","Taylor's Do It Center","not_available","23451",36.8509871546927,-76.01735616575496
"23451","Virginia Beach","VA","McDonald Garden Center","1276 N Great Neck Rd","23454",36.873262,-76.038196
"23451","Virginia Beach","VA","Beach Hardware and Paint","401 30th St","23451",36.858092,-75.98141899999999
"23451","Virginia Beach","VA","Best Value Hardware","600 Virginia Beach Blvd","23451",36.844389,-75.981388
"23451","Virginia Beach","VA","Sherwin-Williams Paint Store","1727 Laskin Rd","23454",36.849819000000004,-76.024156
"23451","Virginia Beach","VA","Best Coat Custom Painting","3345 Woodburne Dr","23452",36.811335,-76.08953100000001
"23451","Virginia Beach","VA","City Electric Supply Virginia Beach","2700 Avenger Dr Ste 104","23452",36.821405,-76.06581899999999
"23451","Virginia Beach","VA","West Marine","2865 Lynnhaven Dr","23451",36.906806,-76.068426
"23451","Virginia Beach","VA","Mitchell's Woodworking","596 Central Dr","23454",36.817195892333984,-76.05857849121094
"23451","Virginia Beach","VA","minuteKEY","2864 Virginia Beach Blvd.","23452",36.84547805786133,-76.07115936279297
"23451","Virginia Beach","VA","Cape Henry General Merchandise","1440 N Great Neck Rd","23454",36.880360045531276,-76.04316569788715
"23451","Virginia Beach","VA","Harbor Freight Tools","3320 Holland Rd","23452",36.801612854003906,-76.08590698242188
"23451","Virginia Beach","VA","Binswanger Glass","1005 Battlefield Blvd N","23320",36.849792231250106,-76.02223359969737
"23451","Virginia Beach","VA","minuteKEY","2403 Virginia Beach Blvd","23454",36.840253999999995,-76.053736
"23451","Virginia Beach","VA","Regent Stone Products","2656 Quality Ct","23454",36.820834,-76.058668
"23451","Virginia Beach","VA","Woodcrafters of Virginia","106 South First Colonial Road","23454",36.83744746,-76.02191335
"23451","Virginia Beach","VA","Fastenal","545 Central Dr","23454",36.824670000000005,-76.059034
"23451","Virginia Beach","VA","Classic Woodcraft","2593 Quality Ct Ste 226","23454",36.82004928588867,-76.05461883544922
"23451","Virginia Beach","VA","Advanced Home Coatings","310 Cedarwood Ct","23454",36.851706,-76.058488
"23452","Virginia Beach","VA","Lowe's","3565 Holland Road","23452",36.8110199,-76.0965345
"23452","Virginia Beach","VA","McDonald Garden Center","1144 Independence Blvd","23455",36.877762565799905,-76.13285787103207
"23452","Virginia Beach","VA","Taylor's Do-It Center","1123 Independence Blvd","23455",36.87673217295057,-76.13426853846089
"23452","Virginia Beach","VA","Maytag Parts and Service","not_available","23452",36.8365478515625,-76.09603118896484
"23452","Virginia Beach","VA","Sherwin-Williams Paint Store","3800 Holland Rd","23452",36.81599739431654,-76.10566914081573
"23452","Virginia Beach","VA","Coastal Floors Renvations","101 Montford Ct Apt 202","23452",36.837890625,-76.11801147460938
"23452","Virginia Beach","VA","Giant Garage Door","4445 Corporation Ln Ste 291","23462",36.84700393676758,-76.12646484375
"23452","Virginia Beach","VA","Sherwin-Williams Paint Store","3645 Virginia Beach Blvd","23452",36.84028129580337,-76.09635993752366
"23452","Virginia Beach","VA","minuteKEY","3901 Holland Rd","23452",36.81385803222656,-76.11113739013672
"23452","Virginia Beach","VA","minuteKEY","3565 Holland Rd","23452",36.810495,-76.096991
"23452","Virginia Beach","VA","Ace Garage Door","1 Columbus Ctr #600","23462",36.84320718534037,-76.12973928451538
"23453","Virginia Beach","VA","Sherwin-Williams Paint Store","1933 Landstown Centre Way","23456",36.772661,-76.08933
"23453","Virginia Beach","VA","Window world","not_available","23453",36.77698,-76.09048
"23453","Virginia Beach","VA","Taylor Do It Yourself Center","Nimmo Pkwy.","23456",36.75415913873631,-76.06528431201077
"23453","Virginia Beach","VA","Capital Electric","2561 Horse Pasture Rd","23453",36.78658676147461,-76.05685424804688
"23454","Virginia Beach","VA","The Home Depot","2324 Elson Green Avenue","23456",36.7579691,-76.0111924
"23454","Virginia Beach","VA","Tractor Supply Co.","2000 Fisher Arch","23456",36.749655,-76.00997
"23454","Virginia Beach","VA","Anderson's","1925 Fisher Arch","not_available",36.747534,-76.005825
"23454","Virginia Beach","VA","Sherwin-Williams Paint Store","1700 General Booth Blvd","23454",36.78137619442633,-76.00132667320202
"23454","Virginia Beach","VA","minuteKEY","1149 Nimmo Pkwy","23456",36.759216,-76.009502
"23454","Virginia Beach","VA","BOS Gutters LLC","Farmers Court","23456",36.75092005304415,-76.03605508804321
"23455","Virginia Beach","VA","Chicks Beach Hardware Store","4801 Shore Dr","23455",36.90378189086914,-76.13716125488281
"23455","Virginia Beach","VA","Dewalt","101 North Hampton","23455",36.88333511352539,-76.185566
"23455","Virginia Beach","VA","ECK Supply Co.","Thurston Ave","not_available",36.894773,-76.18599499999999
"23455","Virginia Beach","VA","J. Henry Holland Corp","5931 Thurston Ave","23455",36.893076,-76.189323
"23455","Virginia Beach","VA","best value hardware","4807 Shore Dr #H","23455",36.90356,-76.13717199999999
"23455","Virginia Beach","VA","Coastal Hardware Inc","5840 Burton Station Rd #109","23455",36.883272,-76.190081
"23455","Virginia Beach","VA","Sherwin-Williams Paint Store","7937 Shore Dr","23518",36.91939092,-76.19317152
"23455","Virginia Beach","VA","Capital Electric","5894 Thurston Ave","23455",36.89471435546875,-76.1862564086914
"23455","Virginia Beach","VA","Foundation Building Materials","5721 Bayside Road","23455",36.89625389,-76.18203531
"23457","Virginia Beach","VA","Creeds Hardware","not_available","23457",36.605194,-76.026177
"23462","Virginia Beach","VA","Kempsville's Ace Hardware","5168 Singleton Way","23462",36.82764,-76.160385
"23462","Virginia Beach","VA","Ferguson Bath, Kitchen & Lighting Gallery","4712 Baxter Rd","23462",36.830669032896694,-76.13961964240647
"23462","Virginia Beach","VA","Hanks Mower Repair","not_available","23462",36.841541,-76.149475
"23462","Virginia Beach","VA","Workshop","not_available","23464",36.8118782043457,-76.16880798339844
"23462","Virginia Beach","VA","Hampton Roads Fastener & Construction Supply","416 Davis St","23462",36.8538,-76.17003299999999
"23462","Virginia Beach","VA","Sherwin-Williams Paint Store","4804 Virginia Beach Blvd","23462",36.844246000000005,-76.14274
"23462","Virginia Beach","VA","Taylor's Do It Center","Providence Rd.","23464",36.815170435636816,-76.16893375119352
"23462","Virginia Beach","VA","Restaurant Equipment Parts/Service, LTD","207 Pennsylvania Ave","23462",36.842403,-76.155243
"23462","Virginia Beach","VA","Grand Furniture","5133 Virginia Beach Boulevard","23462",36.84599058,-76.15886542
"23462","Virginia Beach","VA","Mechanical Equipment Sales Inc.","5025 Euclid Rd","23462",36.842352000000005,-76.152755
"23462","Virginia Beach","VA","Pressure Works","235 Expressway Ct","23462",36.841268,-76.161456
"23462","Virginia Beach","VA","minuteKEY","4821 Virginia Beach Blvd","23462",36.842712,-76.14305
"23462","Virginia Beach","VA","Kitchen & Bath","not_available","23502",36.847289058790686,-76.15884100948071
"23464","Virginia Beach","VA","Sherwin-Williams Paint Store","620 S Military Hwy","23464",36.825421,-76.20975200000001
"23464","Virginia Beach","VA","1st Choice Garage Door","900 Commonwealth Pl","23464",36.80964660644531,-76.20423889160156
"23502","Norfolk","VA","Lowe's","1081 North Military Highway","23502",36.8579175,-76.2118707
"23502","Norfolk","VA","The Home Depot","1261 N Military Hwy","23502",36.867453,-76.2134385
"23502","Norfolk","VA","Grainger","1401 Sewells Point Rd","23502",36.866316999999995,-76.229792
"23502","Norfolk","VA","Northern Tools","1120 N Military Hwy","23502",36.859531179558644,-76.2083202015953
"23502","Norfolk","VA","Harbor Freight Tools","415 N Military Hwy Ste 4","23502",36.84681264045317,-76.21235462799125
"23502","Norfolk","VA","Sherwin-Williams Commercial Paint Store","1373 Ingleside Rd","23502",36.86136015706619,-76.24402799219625
"23502","Norfolk","VA","The Paneling Factory","6112 E Virginia Beach Blvd","23502",36.85075,-76.200626
"23502","Norfolk","VA","HD Supply White Cap","1301 Ingleside Rd","23502",36.85891463,-76.24286475
"23502","Norfolk","VA","minuteKEY","1170 N Military Hwy","23502",36.862552642822266,-76.20791625976562
"23502","Norfolk","VA","minuteKEY","3350 E Princess Anne Rd","23502",36.863285064697266,-76.24603271484375
"23502","Norfolk","VA","Long Floor Supply","3745 Progress Rd","23502",36.861665,-76.23896500000001
"23502","Norfolk","VA","L. Fishman & Sons","Adderly st.","23502",36.84127625772678,-76.1979152991462
"23502","Norfolk","VA","Capital Electric","2400 Alabama Ave","23513",36.8658561706543,-76.246337890625
"23502","Norfolk","VA","Sears","6101 N Military Highway","23518",36.895077,-76.227292
"23502","Norfolk","VA","daubers","not_available","23513",36.87619663268362,-76.22217042897333
"23502","Norfolk","VA","Norfolk Sash & Door","1301 Production Rd","23502",36.858843,-76.244778
"23502","Norfolk","VA","Door & Hardware Specialties","6001 Miller Store Rd","23502",36.881816,-76.206042
"23502","Norfolk","VA","minuteKEY","5820 E Virginia Beach Blvd","23502",36.857059478759766,-76.20610809326172
"23503","Norfolk","VA","Bayview Hardware","1013 E Bayview Blvd","23503",36.933528900146484,-76.24359893798828
"23503","Norfolk","VA","Ocean View Hardware at Duffy's Lane","9641 Duffys Ln","23503",36.954195,-76.25194499999999
"23503","Norfolk","VA","Complete and Professional Painting Services","8483 Capeview Cres","23503",36.9308509,-76.225583
"23504","Norfolk","VA","Lakewood Ace Hardware","3531-33 Tidewater Dr","23509",36.885838,-76.260661
"23504","Norfolk","VA","Talbot","Ballentine Blvd, Norfolk, VA","23504",36.858726501464844,-76.24939727783203
"23504","Norfolk","VA","Powell McClellan Hardware & Lumber","3211 Lafayette Blvd","23513",36.87410398862081,-76.25002504469585
"23504","Norfolk","VA","Ace Rental Center","3533 Tidewater Dr","23509",36.885919,-76.261089
"23504","Norfolk","VA","Aireco","1170 Ingleside Riad","23502",36.85808,-76.241073
"23505","Norfolk","VA","Meadowbrook Hardware","1215 Littkw Creek","not_available",36.91237006162105,-76.29351826268167
"23505","Norfolk","VA","minuteKEY","7530 Tidewater Dr","23505",36.9127311706543,-76.25276947021484
"23505","Norfolk","VA","Commonwealth Building Materials Inc","401 Naval Base Road","23505",36.910514,-76.262373
"23507","Norfolk","VA","Sherwin-Williams Paint Store","2001 Colonial Ave","23517",36.86844605443182,-76.2923213839531
"23507","Norfolk","VA","Eastern Burlap","834 W 25th St","23517",36.87398,-76.29663
"23507","Norfolk","VA","Benjamin Moore","not_available","23517",36.868456,-76.291347
"23508","Norfolk","VA","Taylor's Do-It Center","3400 Colley Ave","23508",36.87744466022524,-76.29460506073663
"23508","Norfolk","VA","Grand Rental Station","805 W 35th St","23508",36.877604,-76.294974
"23510","Norfolk","VA","Elite Garage Door","440 Monticello Ave #1800","23510",36.85179901123047,-76.28781127929688
"23513","Norfolk","VA","Grand Furniture","836 E Little Creek Rd","23518",36.915857,-76.249781
"23513","Norfolk","VA","DIY supplies","916 E Little Creek Rd","23518",36.915136,-76.244781
"23513","Norfolk","VA","Ferguson Plumbing Supply","2555 Ellsmere Ave","23513",36.877967,-76.21996800000001
"23513","Norfolk","VA","City Electric Supply Norfolk Central","4565 Progress Rd Ste 2C","23502",36.864845303786524,-76.2312018871308
"23518","Norfolk","VA","Taylors Do It Center","2600 E. Little Creek Rd","23518",36.91599192397454,-76.21604114006644
"23601","Newport News","VA","Ace Peninsula Hardware","12490 Warwick Blvd","23606",37.075547,-76.494512
"23601","Newport News","VA","Harbor Freight Tools","11969 Jefferson Ave #B","23606",37.09461618862834,-76.48882272764111
"23601","Newport News","VA","Cashwell Appliance Parts Store","9958 Jefferson Ave, Newport News, VA 23605","23605",37.036532,-76.454724
"23601","Newport News","VA","Stoneware Marble & Granite","724 Middle Ground Blvd","23606",37.090783,-76.477204
"23601","Newport News","VA","Sherwin-Williams Paint Store","11006 Warwick Blvd","23601",37.043415,-76.471764
"23601","Newport News","VA","Capital Electric","813 Diligence Dr","23606",37.084853,-76.464318
"23601","Newport News","VA","Auto Value Parts","5983 Jefferson Ave","23605",37.01180405324475,-76.44124002824447
"23601","Newport News","VA","Mayo's Lawn & Garden","10602 Warwick Blvd","23601",37.03616531,-76.46522622
"23601","Newport News","VA","City Electric Supply Newport News","700 Thimble Shoals Blvd Ste 102","23606",37.084686,-76.4766787
"23601","Newport News","VA","Papa's Workshop","not_available","23606",37.056688,-76.493458
"23601","Newport News","VA","E&E Auto Parts","12601-12699 Warwick Blvd","23606",37.081855,-76.498266
"23601","Newport News","VA","Electric Equipment Co.","802 Bluecrab Rd","23606",37.091046,-76.471036
"23601","Newport News","VA","Rexel","330 Ed Wright Ln","23606",37.0943245796069,-76.49223758436749
"23601","Newport News","VA","Mr. Ed's Lawnmowers","613 Harpersville Rd, Newport News, VA 23601","23601",37.0720329284668,-76.45844268798828
"23601","Newport News","VA","Glidden Professional Paint Center","686 J Clyde Morris Blvd","23601",37.07576736666667,-76.46907751666667
"23601","Newport News","VA","PPG Paints","not_available","23601",37.075888,-76.468989
"23601","Newport News","VA","Mid Atlantic Fasteners","709 Suite A-105","23606",37.091521,-76.480132
"23602","Newport News","VA","Lowe's","300 Chatham Drive","23602",37.1238884,-76.5117845
"23602","Newport News","VA","The Home Depot","325 Chatham Dr","23602",37.12105164674884,-76.51239824845106
"23602","Newport News","VA","Grafton Ace Hardware","not_available","23692",37.153415,-76.460901
"23602","Newport News","VA","ProSource Wholesale Floor Coverings","301 Village Ave","23693",37.113059997558594,-76.4642105102539
"23602","Newport News","VA","Land & Coats","12911 Jefferson Ave, Newport News, VA 23608","23608",37.148839,-76.52869399999999
"23602","Newport News","VA","Lansing Building Products","12661 McManus Blvd","23602",37.138740015269015,-76.51053850461848
"23602","Newport News","VA","minuteKEY","2601 GEO. WASHINGTON MEM. HWY","23693",37.119484,-76.4593683
"23602","Newport News","VA","Sherwin-Williams Paint Store","300 Oyster Point Rd","23602",37.103759000000004,-76.510008
"23602","Newport News","VA","Warwick Forest Maintenance Building","not_available","23602",37.146354,-76.50569
"23602","Newport News","VA","Sherwin-Williams Paint Store","4508 George Washington Mem Hwy","23692",37.14827672411748,-76.45857810974121
"23602","Newport News","VA","Ferguson Plumbing Supply","618 Bland Blvd","23602",37.12878,-76.507749
"23602","Newport News","VA","Sherwin-Williams Paint Store","452 Denbigh Blvd","23608",37.131418,-76.531806
"23603","Newport News","VA","Safety Nailer","Boundary Rd.","23690",37.2240906,-76.5402249
"23603","Newport News","VA","Ferguson HVAC Supply","701 Flag Stone Way","23608",37.17010498046875,-76.5306396484375
"23605","Newport News","VA","Harbor Freight Tools","4023 W Mercury Blvd","23666",37.02810287475586,-76.42412567138672
"23605","Newport News","VA","Fastener and Safety Supply","4903 Jefferson Avenue b","23607",36.99680444288259,-76.43094119014359
"23605","Newport News","VA","Ferguson Waterworks","295 Interstate Circle","21704",37.00041060653807,-76.42719626426697
"23605","Newport News","VA","Ferguson Waterworks","13900 Lowe St Ste A","20151",36.99775436135377,-76.42544746398926
"23605","Newport News","VA","Ferguson Waterworks","574 Kennedy Ave","46375",36.99657187397222,-76.42507195472717
"23605","Newport News","VA","Capital Electric","1030 48th St","23607",36.999835,-76.41951999999999
"23605","Newport News","VA","Ferguson Fire & Fabrication","7891 Nw 62nd St","33166",36.9971457387456,-76.4288923345157
"23605","Newport News","VA","Ferguson Waterworks","1328 W English Ave","82601",36.99618948960727,-76.42116372473538
"23607","Newport News","VA","Wolseley Industrial Group","2301 Aluminum Ave","23661",37.005571926037724,-76.40533704582762
"23607","Newport News","VA","Ferguson Waterworks","6439 E 30th St","46219",36.98984333109844,-76.4044925574126
"23607","Newport News","VA","Kamco","not_available","23666",37.010133810927016,-76.41048727052802
"23607","Newport News","VA","Wesco","Aberdeen Rd","not_available",37.010681,-76.402057
"23607","Newport News","VA","Ferguson Bath, Kitchen & Lighting Gallery","1880 W Oxford Ave","80110",36.99111528394755,-76.41017691465095
"23607","Newport News","VA","Ferguson Waterworks","3881 Us Hwy 421 N Ste D","28401",36.991439271962776,-76.42645780288147
"23607","Newport News","VA","Atlantic American Fire & Equipment","11341 Old Baltimore Pike","20705",36.98750552650194,-76.41698241233826
"23607","Newport News","VA","Airgas","not_available","23661",37.009010314941406,-76.39998626708984
"23607","Newport News","VA","Ferguson Plumbing Supply","9 Redlon Rd","04530",36.9901002431844,-76.3931632071035
"23607","Newport News","VA","Service indra motor","Simpang peut","23661",37.0044373,-76.3810922
"23607","Newport News","VA","Ferguson Waterworks","112 E Reserve Rd","59901",36.99432681110192,-76.42991065979004
"23607","Newport News","VA","Ferguson Waterworks","2435 S Fm 359 Rd S","77423",36.99486485926739,-76.42048092704499
"23607","Newport News","VA","Ferguson Waterworks","68 Transit Way","95973",36.99322996239362,-76.41325950622559
"23607","Newport News","VA","Bresco - Restaurant Supply","25th St. & 5th Ave. South","not_available",36.986885,-76.407224
"23607","Newport News","VA","Ferguson Waterworks","2812 S Orange Ave","93725",36.987368408981844,-76.43381595611571
"23607","Newport News","VA","Ferguson HVAC Supply","301 Hobbs Rd","77573",36.989614212859784,-76.42144652229035
"23607","Newport News","VA","Ferguson Waterworks","27750 Industrial Blvd","94545",36.98878063688424,-76.41517847812793
"23607","Newport News","VA","Ferguson Waterworks","200 Atlantic Ave","11040",36.983381900280584,-76.40002966218162
"23607","Newport News","VA","Ferguson HVAC Supply","8220 Ferguson Ave","95828",36.99112685129191,-76.41848295963428
"23607","Newport News","VA","Ferguson Plumbing Supply","553-A Rotary St","23661",37.00888947115079,-76.40074522631329
"23607","Newport News","VA","Wolseley Industrial Group","410 W Armory Dr","60473",36.98756872902564,-76.43697802908717
"23607","Newport News","VA","Wolseley Industrial Group, a Ferguson Enterprise","1130 N Padre Island Dr","78406",36.986374299569576,-76.42115592956543
"23608","Newport News","VA","minuteKEY","300 Chatham Dr","23602",37.12417,-76.511688
"23661","Hampton","VA","Patrick's Hardware & Paint","395 W Queen St","23669",37.025788,-76.356177
"23661","Hampton","VA","McDonald Garden Center","1139 W Pembroke Ave","23661",37.024462810472386,-76.36637106531298
"23661","Hampton","VA","Ferguson Waterworks","3501 Sw 13th St #200","34474",36.99659577920718,-76.40760632377349
"23661","Hampton","VA","Sherwin-Williams Paint Store","608 Aberdeen Rd","23661",37.0135705039975,-76.40263527631758
"23661","Hampton","VA","Aqua-Right","703 Howmet Dr Ste E","23661",37.015455,-76.3966059
"23662","Poquoson","VA","Taylor's Do It Center","475 Wythe Creek Rd","23662",37.12533,-76.39294
"23662","Poquoson","VA","Darnell Landscaping Inc","50 Voyager Dr","23666",37.1005857,-76.3946931
"23663","Hampton","VA","Ace Peninsula Hardware","2098 Nickerson Blvd","23663",37.049736,-76.310631
"23663","Hampton","VA","Beach Hardware","15 Skyland Dr","23663",37.041144,-76.30771899999999
"23663","Hampton","VA","Blau Plumbing & Heating","1905 Hurst Dr","23663",37.047306,-76.31509
"23666","Hampton","VA","Lowe's","2002 Power Plant Parkway","23666",37.037951,-76.3972888
"23666","Hampton","VA","The Home Depot","1413 N Armistead Ave","23666",37.0348551,-76.3675086
"23666","Hampton","VA","Ace Hardware","7 Town Center Way","23666",37.062927,-76.425032
"23666","Hampton","VA","Northern Tools","2330 W Mercury Blvd","23666",37.038808340664865,-76.40736908397159
"23666","Hampton","VA","minuteKEY","1900 Cunningham Dr","23666",37.0408935546875,-76.37945556640625
"23666","Hampton","VA","minuteKEY","2000 Power Plant Pkwy","23666",37.037240999999995,-76.394816
"23666","Hampton","VA","minuteKEY","117 Marketplace Dr","23666",37.0379113,-76.4027995
"23666","Hampton","VA","Ferguson","521 Butler Farm Rd","23666",37.060974,-76.411402
"23666","Hampton","VA","minuteKEY","2002 Power Plant Pkwy","23666",37.03825759887695,-76.39704132080078
"23666","Hampton","VA","Sherwin-Williams Paint Store","810 W Mercury Blvd","23666",37.044374,-76.373041
"23692","Yorktown","VA","Tractor Supply","7437 George Washington Mem Hwy","23692",37.182831,-76.484172
"23692","Yorktown","VA","STI Turf Care Equipment","6831 George Washington Mem Hwy","23692",37.176235999999996,-76.478949
"23693","Yorktown","VA","York Bolt","not_available","23693",37.119762166966545,-76.45185463254846
"23701","Portsmouth","VA","Lowe's","4040 Victory Blvd","23701",36.8129931,-76.3561889
"23701","Portsmouth","VA","SEM Coatings Corp","3425 High St","23707",36.834041,-76.344313
"23701","Portsmouth","VA","minuteKEY","1301 Frederick Blvd","23707",36.82771301269531,-76.33694458007812
"23701","Portsmouth","VA","Dails Home Center","4387 Portsmouth Blvd","23701",36.815933,-76.362461
"23702","Portsmouth","VA","Sherwin-Williams Commercial Paint Store","3560 Elm Ave","23704",36.809559577535104,-76.30954384803772
"23702","Portsmouth","VA","Superior Marble And Stone","not_available","23702",36.81370062066821,-76.32026104780152
"23703","Portsmouth","VA","J J Fasteners Inc","805 Broad St","23707",36.840932,-76.334305
"23703","Portsmouth","VA","southern plumbing and heating supply","829 Mt Vernon Ave","23707",36.840084999999995,-76.335585
"23703","Portsmouth","VA","Cashwell Appliances Parts Plus","1220 Fleetwood Dr","not_available",36.86776926978523,-76.39513361641662
"23704","Portsmouth","VA","Portsmouth Lumber","High Street","23707",36.834053999999995,-76.331124
"23704","Portsmouth","VA","sew-vac","701A Airline Blvd","23707",36.83680404700881,-76.33383679002634
"23704","Portsmouth","VA","Plus Garage Door","355 Crawford St #100","23704",36.838050842285156,-76.29745483398438
"23801","Fort Lee","VA","Lowe's","2085 Waterside Drive","23875",37.2479758,-77.3648567
"23801","Fort Lee","VA","minuteKEY","2085 Waterside Rd","23875",37.247929,-77.365087
"23801","Fort Lee","VA","Arcet Welding Supply","not_available","23875",37.243057678815646,-77.36493127806295
"23803","Petersburg","VA","The Home Depot","2600 Conduit Rd","23834",37.2605655,-77.3979017
"23803","Petersburg","VA","Tractor Supply Co.","8175 Wagner Way","23875",37.201097,-77.331447
"23803","Petersburg","VA","Harbor Freight Tools","820 Southpark Blvd Ste A","23834",37.24979059690766,-77.39270567893982
"23803","Petersburg","VA","Thacker Ace Hardware","3671 S Crater Rd","23805",37.177656,-77.362296
"23803","Petersburg","VA","The appliance Place","not_available","23834",37.26404414337437,-77.41369047854162
"23803","Petersburg","VA","Capital Electric","1104 W Roslyn Rd","23834",37.25004196166992,-77.39592742919922
"23803","Petersburg","VA","Ferguson Plumbing Supply","548 Southpark Blvd","23834",37.24397659301758,-77.39149475097656
"23803","Petersburg","VA","Conner Small Engine","1000-1064 Temple Ave","23834",37.25714055,-77.39248037338257
"23803","Petersburg","VA","Earle M. Jorgenson Company","not_available","23803",37.19584274291992,-77.45812225341797
"23803","Petersburg","VA","Edgehill Hardware","26012 Cox Rd","23803",37.215094,-77.45669000000001
"23803","Petersburg","VA","Agri Supply","3001 N Normandy Dr","23805",37.18542165421736,-77.34253347044904
"23803","Petersburg","VA","Sherwin-Williams Paint Store","1504 Boulevard","23834",37.25389862060547,-77.41190338134766
"23803","Petersburg","VA","minuteKEY","671 Southpark Blvd","23834",37.2464458,-77.38954
"23803","Petersburg","VA","Tayor Rentals","336 S Crater Rd","23803",37.224733,-77.387472
"23803","Petersburg","VA","Sherwin-Williams Paint Store","1951 S Sycamore St","23805",37.203517,-77.383188
"23824","Blackstone","VA","Ace Hardware","311 Broad Street","23944",36.960401,-78.126183
"23824","Blackstone","VA","Bevell's Ace Hardware","109 South High Street","23824",37.079345703125,-77.99594116210938
"23824","Blackstone","VA","Booker's Supply","107 E Carolina Ave","23930",37.17616560823722,-78.12371209142503
"23831","Chester","VA","Lowe's","2601 Weir Place","23831",37.348054,-77.413046
"23831","Chester","VA","minuteKEY","2601 Weir Pl","23831",37.34798812866211,-77.41301727294922
"23831","Chester","VA","Tristate Electrical Supply","16425 Jefferson Davis Hwy","23834",37.296065000000006,-77.409334
"23831","Chester","VA","minuteKEY","12000 Iron Bridge Rd","23831",37.3502781,-77.4828418
"23834","Colonial Heights","VA","POWERHOME SOLAR","13536 Charlotte Ct","23836",37.339709,-77.38981799999999
"23836","Chester","VA","McKay True Value Hardware","416 S 15th Ave","23860",37.29384,-77.298221
"23836","Chester","VA","Virginia Paint Company","13209 Rivers Bend Blvd","23836",37.350246000000006,-77.354555
"23836","Chester","VA","TruValue","not_available","23860",37.272816033860934,-77.31497882933373
"23836","Chester","VA","Heretick Feed And Seed","401-417 S 15th Ave","23860",37.29429626464844,-77.29762268066406
"23837","Courtland","VA","Tractor Supply Co.","1465 Armory Dr","23851",36.665582,-76.9525
"23837","Courtland","VA","Edwards True Value Hardware","22217 Main St","23837",36.71713,-77.068156
"23841","Dinwiddie","VA","Tractor Supply Co.","13118 Boydton Plank Rd","23841",37.09196361041485,-77.5740268041992
"23842","Disputanta","VA","Husqvarna US","PO Box 595","23890",37.02494430541992,-77.10345458984375
"23847","Emporia","VA","Jarratt Hardware","108 Jarratt Ave","23867",36.814002990722656,-77.46759033203125
"23847","Emporia","VA","trustworthy","not_available","23847",36.69271486157981,-77.53635612623202
"23851","Franklin","VA","Husqvarna US","1221 Armory Dr","23851",36.6709098815918,-76.94355773925781
"23851","Franklin","VA","Sherwin-Williams Paint Store","109 S College Dr","23851",36.671492,-76.937405
"23851","Franklin","VA","Dale's hardwood","not_available","23851",36.67024427001121,-76.94571936201811
"23851","Franklin","VA","Lowe's","1240 Armory Drive","23851",36.6722221,-76.9452667
"23851","Franklin","VA","Farmers Produce Co","1100 Armory Dr Ste 101","23851",36.67306,-76.94182099999999
"23860","Hopewell","VA","Sherwin-Williams Paint Store","403 Cavalier Sq","23860",37.291651,-77.296939
"23866","Ivor","VA","Ivor Supply Hardware","not_available","23866",36.90896038214612,-76.89503966518623
"23866","Ivor","VA","Husqvarna US","34487 GEN. MAHONE BLVD","23866",36.90473937988281,-76.88159942626953
"23868","Lawrenceville","VA","E.E. Vaughan & Son","not_available","23868",36.757032021439166,-77.84838334116398
"23868","Lawrenceville","VA","Ace Hardware","200 Meredith St","23868",36.756948,-77.848385
"23881","Spring Grove","VA","Surry Hardware","28 Oakwood Dr.","23883",37.138697,-76.835336
"23901","Farmville","VA","Lowe's","2644 Farmville Road","23901",37.2654991,-78.4100418
"23901","Farmville","VA","Tractor Supply Co.","1507 South Main Street","23901",37.282711,-78.397419
"23901","Farmville","VA","Ferguson Plumbing Supply","2799 W 3rd St","23901",37.3152961730957,-78.43830871582031
"23901","Farmville","VA","Sherwin-Williams Paint Store","518 E 3rd St","23901",37.299865999999994,-78.384362
"23901","Farmville","VA","Price Supply Company","105 Plank Road","23901",37.309075790392086,-78.38804163984487
"23901","Farmville","VA","Husqvarna US","PO Box 243","23901",37.299903869628906,-78.41184997558594
"23901","Farmville","VA","Ayers Building & Supply Co Inc","710 N Main St","23901",37.309528,-78.38705300000001
"23917","Boydton","VA","The Home Depot","250 Frank D Harris Dr","23970",36.71536563272481,-78.12160134315496
"23917","Boydton","VA","Tractor Supply Co.","1275 East Atlantic St","23950",36.706726,-78.103938
"23917","Boydton","VA","Harbor Freight","not_available","23970",36.717667,-78.11832
"23917","Boydton","VA","Rent E Quip","710 W Danville St","23970",36.724537,-78.139637
"23917","Boydton","VA","Home Depot Training Room","not_available","23950",36.690657,-78.109716
"23917","Boydton","VA","Hensley's Well Drilling","15497 Highway Fifteen","23927",36.549475,-78.539766
"23921","Buckingham","VA","Coastal Hardware Inc","5840 Burton Station Rd","23455",37.675036115438196,-78.60657155513762
"23923","Charlotte Court House","VA","Drake's Farm and Home","4224 Drakes Main St","23937",37.00160217285156,-78.60626220703125
"23923","Charlotte Court House","VA","Dodd's Farm Supply","1409 Vincent Store Rd","23923",37.13435363769531,-78.7220458984375
"23927","Clarksville","VA","Clarksville Ace Hardware","7545 Highway Fifty Eight","23927",36.615244,-78.583715
"23927","Clarksville","VA","Berry Hill Irrigation","3744 Highway 58","24529",36.636058,-78.641235
"23927","Clarksville","VA","Talbert Building Supply","11799 Highway Fifteen","23927",36.600927,-78.552848
"23936","Dillwyn","VA","Husqvarna US","36 CARTER STREET","23936",37.541385650634766,-78.45740509033203
"23937","Drakes Branch","VA","Jackson Hardware & General Store","not_available","23976",36.85455322265625,-78.59439849853516
"23944","Kenbridge","VA","Kenbridge Auto Parts","not_available","23944",36.961826,-78.139403
"23944","Kenbridge","VA","Tri-County OPE","Main St, Kenbridge, VA 23944","23944",36.96726608276367,-78.14299774169922
"23947","Keysville","VA","Ace Hardware","255 Railroad Ave","23947",37.042633056640625,-78.48321533203125
"24012","Roanoke","VA","Lowe's","4520 Challenger Ave","24012",37.3239173,-79.8743667
"24012","Roanoke","VA","Lowe's","5040 Rutgers Street NW","24012",37.3161825,-79.9644956
"24012","Roanoke","VA","Sears","4812 Valley View Blvd NW","24012",37.303098203509556,-79.96276919850715
"24012","Roanoke","VA","The Home Depot","3217 Hershberger Rd NW","24017",37.30464124894878,-79.98386934410519
"24012","Roanoke","VA","Northwest Hardware Company","2303 Williamson Rd NE","24012",37.2937126159668,-79.93538665771484
"24012","Roanoke","VA","minuteKEY","5040 Rutgers St NW","24012",37.316503999999995,-79.964984
"24012","Roanoke","VA","State Electric Supply","not_available","24017",37.28283384225277,-79.98446552696254
"24012","Roanoke","VA","minuteKEY","4950 Plantation Rd","24019",37.3221321105957,-79.93598937988281
"24012","Roanoke","VA","Sherwin-Williams Product Finishes","610 Connecticut Ave NE","24012",37.286156,-79.929541
"24012","Roanoke","VA","Grand True Value Rental Of Vinton","1000 Vinyard Rd","24179",37.2736354740977,-79.8888137917898
"24012","Roanoke","VA","H&E Equipment Services","1301 Rockland Ave, NW","24012",37.293368,-79.95758199999999
"24012","Roanoke","VA","Melrose Hardware","2302 Melrose Ave NW","24017",37.285829,-79.974142
"24012","Roanoke","VA","Dominion Air & Machinery Co","1401 Coulter Dr NW","24012",37.326155,-79.96921999999999
"24012","Roanoke","VA","minuteKEY","2141 Dale Ave SE","24013",37.2733039855957,-79.90968322753906
"24012","Roanoke","VA","NORTHWEST TRUE VALUE - VINTON","2113 E Washington Ave","24179",37.2790412902832,-79.86551666259766
"24012","Roanoke","VA","ProSource of Roanoke","1250B Trapper Cir NW","24012",37.3312,-79.96595
"24012","Roanoke","VA","minuteKEY","4524 Challenger Ave","24012",37.3253727,-79.872715
"24012","Roanoke","VA","RainSoft","1930 Orange Ave","24012",37.289567,-79.9115412
"24012","Roanoke","VA","Northwest Hardware Company","7650 Williamson Rd","24019",37.349876,-79.94717800000001
"24012","Roanoke","VA","Sherwin-Williams Commercial Paint Store","6707 Williamson Rd","24019",37.337709000000004,-79.95524300000001
"24012","Roanoke","VA","minuteKEY","3419 Orange Ave NE","24012",37.30076217651367,-79.89198303222656
"24012","Roanoke","VA","Commonwealth Building Materials Inc","1735 Plantation Road Northeast","24012",37.289215999999996,-79.927785
"24012","Roanoke","VA","roanoke granite tops","752 Orange Ave","24016",37.283526,-79.92616
"24013","Roanoke","VA","Tool Garage","not_available","24013",37.262451171875,-79.93608856201172
"24013","Roanoke","VA","Stultz Machinery","1546 Brownlee Ave SE","24014",37.262977,-79.910513
"24014","Roanoke","VA","Lowe's","4224 Valley Ave","24018",37.2241557,-79.9717735
"24014","Roanoke","VA","The Home Depot","4176 Franklin Rd SW","24014",37.225108798033936,-79.96732592582703
"24014","Roanoke","VA","Benjamin Moore Paint & Decorating","1418 Grandin Rd SW","24015",37.263782,-79.977187
"24014","Roanoke","VA","Custom Shutter  Blind Stores","4319 Fox Croft Cir","24018",37.201144,-79.979028
"24016","Roanoke","VA","City Electric Supply Roanoke","3118 Salem Tpke NW","24017",37.2854919,-79.9882165
"24016","Roanoke","VA","Tribles Inc","3320 Shenandoah Ave NW","24017",37.281356,-79.99056
"24016","Roanoke","VA","Fastenal","1402 Williamson Rd NE","24012",37.284259999999996,-79.933263
"24016","Roanoke","VA","Valley Fasteners Co.","Shenandoah Ave NW, 901","24016",37.27619,-79.955541
"24017","Roanoke","VA","Advanced Door Service","1807 Murry Rd Sw","24018",37.2666044897959,-80.0070926530612
"24017","Roanoke","VA","Harbor Freight Tools","4142 Melrose Ave NW Ste 7","24017",37.294501000000004,-80.005636
"24017","Roanoke","VA","Motion Industries","3719 Tom Andrews Rd NW Ste 1","24019",37.313134999999996,-79.9731104748688
"24017","Roanoke","VA","Ferguson Plumbing Supply","3825 Blue Ridge Dr","24018",37.26956248283386,-80.0157505273819
"24018","Roanoke","VA","V.I.C.E.","2011 Apperson Dr","24153",37.267021,-80.024549
"24018","Roanoke","VA","Sherwin-Williams Paint Store","3574 Electric Rd","24018",37.226178000000004,-79.997068
"24018","Roanoke","VA","Skyline Door & Hardware","1875 Dillard Dr","24153",37.270452,-80.029899
"24018","Roanoke","VA","Ferguson Bath, Kitchen & Lighting Gallery","3440 Brandon Ave Sw","24018",37.263444,-80.004593
"24018","Roanoke","VA","Luxury Bath Systems","not_available","24018",37.226016998291016,-79.99713134765625
"24018","Roanoke","VA","Northwest Hardware Company","3647 Brambleton Ave","24018",37.236554,-80.003936
"24018","Roanoke","VA","HD Supply A.H. Harris","3535 Brandon Ave SW","24018",37.265917,-80.006449
"24018","Roanoke","VA","James Buck Plumbing & Heating Inc","1837 Westland Rd SW","24018",37.263845,-80.00287900000001
"24018","Roanoke","VA","Foundation Building Materials","6545 Commonwealth Drive","24018",37.210622,-79.995953
"24019","Roanoke","VA","Rockingham Cooperative","8649 Cloverdale Rd","24175",37.377196000000005,-79.890124
"24019","Roanoke","VA","Custom Tool & Machine, Inc.","7533 Milk a Way Dr","24019",37.3518718,-79.95113710000001
"24019","Roanoke","VA","84 Lumber","2699 Lee Hwy","24175",37.38578469863126,-79.90381121635437
"24019","Roanoke","VA","Southern States 4401","1796 Lee Hwy","24077",37.3733033479761,-79.9051384347408
"24019","Roanoke","VA","Tractor Supply Co.","8110 Gander Way","24019",37.356431,-79.959662
"24019","Roanoke","VA","POWERHOME SOLAR","1910 Loudon Ave NW","24017",37.282367,-79.969559
"24055","Bassett","VA","Lowe's","1059 Commonwealth Blvd","24112",36.6918122,-79.9040624
"24055","Bassett","VA","Ace Hardware","1558 Fairystone Park Hwy","24168",36.74530792236328,-79.961181640625
"24055","Bassett","VA","Martinsville Glass Company","408 Memorial Blvd S","24112",36.683692,-79.880847
"24055","Bassett","VA","Light Electric Co Inc","175 Holloway Dr","24055",36.747627,-80.071454
"24055","Bassett","VA","Tractor Supply Co.","4920 Greensboro Rd","24148",36.626469,-79.861366
"24055","Bassett","VA","Husqvarna US","2339 Old Henry Rd","24102",36.83367156982422,-79.99874877929688
"24055","Bassett","VA","Ferguson Plumbing Supply","1202 Memorial Blvd S","24112",36.673992999999996,-79.87850999999999
"24055","Bassett","VA","Sherwin-Williams Paint Store","207 E Main St","24112",36.69088,-79.868827
"24055","Bassett","VA","Fastenal","225 V C Drive","24112",36.7000732421875,-79.89530944824219
"24055","Bassett","VA","PRICE Wholesale Lighting","3201 Virginia Ave","24078",36.723279999999995,-79.915451
"24060","Blacksburg","VA","Aztec Rental Center","1531 N Main St","24060",37.251816999999996,-80.411705
"24060","Blacksburg","VA","Heavener Rental","not_available","24060",37.237648010253906,-80.42140197753906
"24060","Blacksburg","VA","Benjamin Moore","104 Marlington St","24060",37.211477,-80.398537
"24060","Blacksburg","VA","Heavener True Value","801 Kabrich St","24060",37.2362076084335,-80.42163205507259
"24060","Blacksburg","VA","Ferguson Bath, Kitchen & Lighting Gallery","325 Ferguson Dr","24060",37.178046,-80.418544
"24060","Blacksburg","VA","Capital Electric","2901 Prosperity Rd","24060",37.195190999999994,-80.397094
"24060","Blacksburg","VA","Heavener True Value Rental","901 Progress St NW","24060",37.23749,-80.42083
"24060","Blacksburg","VA","Valley Paint & Decorating","100 Marlington St","24060",37.211225152789225,-80.39923667907715
"24065","Boones Mill","VA","Tractor Supply Co.","58 Virginia Market Place Dr","24151",37.071115999999996,-79.898771
"24065","Boones Mill","VA","Husqvarna US","21289 Virgil H Goode Hwy","24151",37.07527542114258,-79.91333770751953
"24066","Buchanan","VA","Cash Building","Route 11","24066",37.54628,-79.668
"24067","Callaway","VA","Husqvarna US","PO Box 33","24067",37.02106857299805,-80.04952239990234
"24073","Christiansburg","VA","The Home Depot","200 Conston Ave","24073",37.1565211,-80.4252295
"24073","Christiansburg","VA","Lowe's","350 Peppers Ferry Road NE","24073",37.1634186,-80.4167408
"24073","Christiansburg","VA","Halls Garage Door","407 Radford St","24073",37.128133,-80.419285
"24073","Christiansburg","VA","Tractor Supply Co.","1542 Roanoke St","24073",37.135045,-80.37782800000001
"24073","Christiansburg","VA","84 Lumber","2245 Roanoke St","24073",37.134652,-80.366022
"24073","Christiansburg","VA","State Electric","Arbor Street","24073",37.164238366773255,-80.41769648466438
"24073","Christiansburg","VA","Northwest Hardware Company","520 Roanoke St","24073",37.13101577758789,-80.39578247070312
"24073","Christiansburg","VA","Ferguson HVAC Supply","1700 Pkwy Dr","24073",37.123812,-80.37250999999999
"24073","Christiansburg","VA","minuteKEY","350 Peppers Fry Rd NE","24073",37.1633186340332,-80.41658782958984
"24073","Christiansburg","VA","Southern States - 75715","885 Roanoke St","24073",37.131238,-80.390677
"24073","Christiansburg","VA","Airgas","not_available","24073",37.138582,-80.363392
"24073","Christiansburg","VA","Sherwin-Williams Paint Store","1725 N Franklin St","24073",37.151677,-80.41427900000001
"24073","Christiansburg","VA","RSC Equipment Rental","1570 Radford Road","24073",37.1230489,-80.4480005
"24073","Christiansburg","VA","New River Valley Glass Inc","10 College St","24073",37.13189143942138,-80.41255037349289
"24083","Daleville","VA","Paramount Building Products LLC","1731 Roanoke Rd","24083",37.40969283917535,-79.91326332092285
"24084","Dublin","VA","Tractor Supply Co.","1050 East Main St","24301",37.047298,-80.75899
"24084","Dublin","VA","Ace","4697 Cleburne Blvd","24084",37.086084,-80.690321
"24084","Dublin","VA","Lowe's","6115 Lowes Drive","24141",37.151016,-80.586801
"24084","Dublin","VA","Sherwin-Williams","235 Jefferson Ave N","24301",37.048256,-80.78264300000001
"24084","Dublin","VA","Fasteneverything","not_available","24084",37.096319,-80.689354
"24084","Dublin","VA","Sam Boardwine","4481 Brookmont Rd","24301",37.064862,-80.797283
"24084","Dublin","VA","Sherwin-Williams Paint Store","717 W Main St","24141",37.130760832708155,-80.58252811431885
"24084","Dublin","VA","Ferguson Plumbing Supply","1717 W Main St","24141",37.118161,-80.591032
"24084","Dublin","VA","minuteKEY","7373 Peppers Ferry Blvd","24141",37.152071,-80.584211
"24084","Dublin","VA","84 Lumber","4348 Count Pulaski Dr","24301",37.030943,-80.730624
"24085","Eagle Rock","VA","Tractor Supply Co.","105 Mall Rd","24426",37.7729377746582,-79.96885681152344
"24085","Eagle Rock","VA","Sherwin-Williams Paint Store","479 W Main St","24426",37.790651,-79.997991
"24085","Eagle Rock","VA","Neathawk Lumber","not_available","24426",37.793007269536844,-79.99745233458627
"24085","Eagle Rock","VA","Covington Farm & Fuel","121 N Alleghany Ave","24426",37.793438,-79.988647
"24091","Floyd","VA","Farmers Supply General Harware","101 E Main St","24091",36.910986,-80.319992
"24091","Floyd","VA","Wills Ridge Supply","202 Lumber Ln NE","24091",36.94710922241211,-80.3586654663086
"24095","Goodview","VA","Shells Pump Sales & Service, Inc.","147 Shell Dr","24101",37.209238,-79.799727
"24101","Hardy","VA","Capps Home Building Center","13700 Booker T Washington Highway","24121",37.12322877,-79.70782938
"24101","Hardy","VA","Sherwin-Williams Paint Store","12787 Booker T Washington Hwy","24101",37.12053850499532,-79.7219467163086
"24101","Hardy","VA","Aztec Rental","not_available","24121",37.126603,-79.702821
"24104","Huddleston","VA","Moneta Farm and Home Center","11739 Moneta Rd","24121",37.19686508178711,-79.600830078125
"24121","Moneta","VA","City Electric Supply West Lake Va","70 Firstwatch Dr","24121",37.1336517,-79.6949844
"24124","Narrows","VA","Lowe's","1155 Oakvale Road","24740",37.3654951,-81.0502759
"24124","Narrows","VA","Tractor Supply Co.","322 North Main St","24134",37.331673,-80.73709
"24124","Narrows","VA","Jennings RV & Mobile Home Accessories LLC","506 Mount Horeb Rd","24740",37.35589599609375,-81.0964584350586
"24124","Narrows","VA","84 Lumber","Route 460","24124",37.35038431485803,-80.76913243648707
"24124","Narrows","VA","Reece's Building Supply","not_available","24124",37.33510971069336,-80.80259704589844
"24124","Narrows","VA","virginia hardware","not_available","24740",37.36929702758789,-81.10131072998047
"24124","Narrows","VA","Ferguson Plumbing Supply","561 Turnpike Industrial Park Rd","24739",37.369397,-81.041887
"24137","Penhook","VA","Union Hall General Store","12126 Old Franklin Tpke","24176",36.99307,-79.684263
"24148","Ridgeway","VA","Northwest Hardware - Ridgeway","not_available","24148",36.58703424268608,-79.86319864382826
"24148","Ridgeway","VA","R&J Tire Service","not_available","24112",36.59378934003937,-79.8632041130308
"24151","Rocky Mount","VA","Lowe's","800 Old Franklin Turnpike","24151",37.0153018,-79.8607567
"24151","Rocky Mount","VA","Sherwin-Williams Paint Store","884 Tanyard Rd","24151",37.006343,-79.875227
"24151","Rocky Mount","VA","Rocky Top Building Products","200-204 State St","24151",37.0029393,-79.89119536666666
"24151","Rocky Mount","VA","Angle Hardware","330 Franklin St","24151",36.998113000000004,-79.89250200000001
"24151","Rocky Mount","VA","minuteKEY","550 Old Franklin Tpke","24151",37.0136037,-79.8638113
"24153","Salem","VA","Northwest True Value Hardware","2913 W Main St","24153",37.28200324606592,-80.11063368539538
"24153","Salem","VA","Lowe's","840 West Main Street","24153",37.2884395,-80.0724155
"24153","Salem","VA","Hammerhead Hardware","1505 S Colorado St","24153",37.275188,-80.05443199999999
"24153","Salem","VA","Sherwin-Williams Paint Store","1412 W Main St","24153",37.289266999999995,-80.080446
"24171","Stuart","VA","Husqvarna US","3720 Woolwine Hwy","24171",36.717472076416016,-80.24301147460938
"24171","Stuart","VA","Tractor Supply Co.","20442 Jeb Stuart Hwy","24171",36.641510009765625,-80.22621154785156
"24171","Stuart","VA","patrick building supply","not_available","24171",36.63908049764698,-80.2446969103287
"24171","Stuart","VA","Stuart True Value","118 Slusher St","24171",36.64163692,-80.27077923
"24179","Vinton","VA","Grand Rental Station","not_available","24179",37.27225657484732,-79.88876892365107
"24201","Bristol","VA","Lowe's","401 Cabela Dr","24202",36.6266699,-82.145288
"24201","Bristol","VA","Harbor Freight Tools","2014 Lee Hwy","24201",36.625451,-82.161691
"24201","Bristol","VA","The Home Depot","3481 Lee Hwy","24202",36.63406595065093,-82.11511445661017
"24201","Bristol","VA","Farrell-Calhoun Paint","301 Gate City Hwy","24201",36.597771,-82.213695
"24201","Bristol","VA","Tractor Supply Co.","21486 Market Center","24202",36.634395,-82.128018
"24201","Bristol","VA","Building Accents","141 Commerce Ct","24202",36.627258000000005,-82.134361
"24201","Bristol","VA","Builders First Source","941 W State St","24201",36.595463,-82.19054399999999
"24201","Bristol","VA","Sherwin-Williams Paint Store","1410 W State St","37620",36.595077,-82.198472
"24201","Bristol","VA","Lowes","not_available","24201",36.601572552084846,-82.11521417697365
"24201","Bristol","VA","City Electric Supply Bristol","718 Martin Luther King Jr Blvd","24201",36.60195418217579,-82.17564708127463
"24201","Bristol","VA","The Door Store","1015 Sycamore St","24201",36.600444,-82.188742
"24201","Bristol","VA","ProBuild","196 Beacon Rd","24201",36.614463,-82.133477
"24201","Bristol","VA","Planters & Designers","296 Blevins Blvd","24202",36.632339,-82.152061
"24201","Bristol","VA","Ferguson Plumbing Supply","288 Blevins Blvd","24202",36.630871,-82.150828
"24201","Bristol","VA","HD Supply A.H. Harris","1049 Island Rd","24201",36.609373,-82.211182
"24201","Bristol","VA","I-81 Lawn & Garden Center","Island Rd","24202",36.627265,-82.155937
"24201","Bristol","VA","Husqvarna US","45 Wallace Pike","24202",36.62726593017578,-82.15596008300781
"24201","Bristol","VA","minuteKEY","13245 Lee Hwy","24202",36.63443374633789,-82.1248779296875
"24202","Bristol","VA","Reynolds Lighting","not_available","24202",36.64235,-82.099801
"24202","Bristol","VA","Farm Bureau Of Abingdon","17375 Lee Hwy","24210",36.673052,-82.053273
"24210","Abingdon","VA","Lowe's","24500 Falcon Place Boulevard","24211",36.7111575,-81.9320745
"24210","Abingdon","VA","Turf Pros","827 Cummings St","24211",36.69510269165039,-81.97400665283203
"24210","Abingdon","VA","Doors & More","790B W Main St","24210",36.705162,-81.996279
"24210","Abingdon","VA","Unity Hydraulics","1010 W Main St","24210",36.699546999999995,-82.007136
"24210","Abingdon","VA","Ace Builder's Supermarket","15853 Porterfield Hwy","24210",36.721534000000005,-82.013366
"24210","Abingdon","VA","Classic Interiors & Upholstery","77 Chrysler Dr","24266",36.818375,-82.129479
"24210","Abingdon","VA","Abc Supply","588 Cummings St","24210",36.700308,-81.972861
"24210","Abingdon","VA","Sherwin-Williams Paint Store","810 Village Blvd","24210",36.706269,-81.998579
"24216","Appalachia","VA","Gap Lumber","1521 3rd Ave E","24219",36.879093,-82.763017
"24221","Blackwater","VA","Builders Hardware LLC","not_available","24263",36.688457,-83.110227
"24228","Clintwood","VA","Clintwood Lumber","not_available","24228",37.14881,-82.469504
"24228","Clintwood","VA","MODERN TRUE VALUE HDWE","263 MAIN ST","24228",37.14968490600586,-82.45677947998047
"24230","Coeburn","VA","Lowe's","201 Woodland Drive SW","24293",36.9735726,-82.592168
"24230","Coeburn","VA","Red Oak","State Route 1133","24230",36.943621830825,-82.46462163867847
"24230","Coeburn","VA","hce systems inc","not_available","24273",36.97767709918925,-82.59219289366933
"24230","Coeburn","VA","Wise Lumber","201 Norton Rd","24293",36.977209,-82.581334
"24230","Coeburn","VA","Culby Supply, LLC.","5901 Airport Rd","24293",36.974576,-82.529256
"24230","Coeburn","VA","Tractor Supply Co.","181 Plaza Rd Southwest","24293",36.972497,-82.596657
"24230","Coeburn","VA","Sherwin-Williams Paint Store","864 Park Ave NW","24273",36.933554,-82.63099100000001
"24243","Dryden","VA","myers lumber and supply","not_available","24277",36.77485368681636,-82.97243076640228
"24243","Dryden","VA","Myers Lumber & Supply","43550 Veterans Memorial Hwy","24277",36.76508,-82.99823424
"24244","Duffield","VA","Virginia Electric and Mine Supply","1234 Industrial Park Rd","24244",36.725369,-82.80141400000001
"24251","Gate City","VA","Mark's Hardware","US 23 North","24290",36.614398535355775,-82.5671946035865
"24251","Gate City","VA","Scott County Lumber & Hardware","328 U.S. Hwy 23 N","24290",36.61439093946397,-82.56719797251509
"24251","Gate City","VA","Randy's Saw Shop","not_available","24251",36.61198043823242,-82.53776550292969
"24251","Gate City","VA","Husqvarna US","1405 East Carters Valley Rd","24251",36.600101470947266,-82.54326629638672
"24256","Haysi","VA","Modern True Value Hardware","263 Main St","24228",37.28805797,-82.29268666
"24263","Jonesville","VA","Myers Home Center","Trail of the Lonesome Pine Rd","24263",36.72120223333334,-83.10617956666667
"24263","Jonesville","VA","B & M Emergency Services Construction & Remodeling","644 Diamond Trl","24281",36.641317,-83.272303
"24266","Lebanon","VA","Lebanon Block & Supply","811 W Main St","24266",36.896832,-82.092519
"24311","Atkins","VA","Tractor Supply Co.","1591 North Main St","24354",36.847346,-81.493347
"24311","Atkins","VA","Harpo's Hardware","238 E Lee St","24354",36.835781,-81.517275
"24311","Atkins","VA","Sherwin-Williams Paint Store","922 N Main St","24354",36.84043,-81.506361
"24314","Bastian","VA","Lowe's","515 Commerce Drive","24605",37.237954,-81.251537
"24315","Bland","VA","Sherwin-Williams Paint Store","3104 E Cumberland Rd","24701",37.25397843871108,-81.20393410011351
"24315","Bland","VA","Ferguson Plumbing Supply","not_available","24382",37.00019518589488,-81.08921686529114
"24319","Chilhowie","VA","Berry Home Center","170 East Main Street","24319",36.798371,-81.68095100000001
"24333","Galax","VA","Lowe's","8417 Carrollton/Pike Road","24333",36.6926553,-80.8745822
"24333","Galax","VA","Tractor Supply Co.","1043 East Stuart Dr","24333",36.6837,-80.888019
"24333","Galax","VA","minuteKEY","1140 E Stuart Dr","24333",36.692283630371094,-80.88118743896484
"24333","Galax","VA","Southern States Galax","348-370 N Meadow St","24333",36.6672250071968,-80.92076022718312
"24333","Galax","VA","Twin County Saw & Mower","1869 Meadow St","24333",36.646633,-80.917449
"24366","Rocky Gap","VA","84 lumber","Route 52","24701",37.27970852388772,-81.24513126392148
"24366","Rocky Gap","VA","Citizens Building Supply & Home Ctr","600 Bluefield Ave","24701",37.266704,-81.232036
"24366","Rocky Gap","VA","Tractor Supply Co.","3955 East Cumberland Rd","24701",37.263261,-81.188385
"24366","Rocky Gap","VA","State Electric Supply Co.","820 Bluefield Ave","24701",37.265893,-81.234386
"24368","Rural Retreat","VA","Harpo's Hardware","not_available","24368",36.90440118312836,-81.26591742038727
"24382","Wytheville","VA","Lowe's","185 Dominion Street","24382",36.9574957,-81.1016906
"24382","Wytheville","VA","Fastenal","500 Peppers Ferry Rd","24382",36.961441,-81.07591
"24382","Wytheville","VA","Tractor Supply Co.","1380 East Main St Ste 400","24382",36.951602,-81.06581899999999
"24382","Wytheville","VA","Builders Supermarket","2390 N 4th St","24382",36.961875915527344,-81.1142807006836
"24382","Wytheville","VA","State Electric Supply","225 N 11th St","24382",36.954322,-81.07973100000001
"24401","Staunton","VA","Lowe's","1028 Richmond Ave Ste D","24401",38.1334609,-79.0461654
"24401","Staunton","VA","Tractor Supply Co.","29 Payne Ln","24401",38.124735,-79.066779
"24401","Staunton","VA","Ace Hardware - Verona","241 Lee Highway","24482",38.20159,-79.008267
"24401","Staunton","VA","Augusta co-op Farm Bureau","1205 Richmond Ave","24401",38.134227,-79.041449
"24401","Staunton","VA","Jenkins Security Services Inc.","not_available","24401",38.154284,-79.074467
"24401","Staunton","VA","ProBuild- Verona, Va","51 Laurel Hill Rd","24482",38.200608,-79.007414
"24401","Staunton","VA","minuteKEY","1028 Richmond Ave","24401",38.1353154,-79.0464662
"24401","Staunton","VA","Husqvarna US","1205 Richmond Ave Ste B","24401",38.1350212097168,-79.04109191894531
"24401","Staunton","VA","Augusta True Value","1205B Richmond Rd","24401",38.12979,-79.03779
"24401","Staunton","VA","Augusta Paint & Decorating","902 Richmond Ave","24401",38.140172,-79.050494
"24401","Staunton","VA","YOUNG TRUE VALUE HDWE","340 N Central Ave","24401",38.15562057495117,-79.07393646240234
"24401","Staunton","VA","Sherwin-Williams Paint Store","105 Lee Jackson Hwy","24401",38.12441635131836,-79.06578063964844
"24416","Buena Vista","VA","Lowe's","1255 N Lee Hwy","24450",37.8074374,-79.4078243
"24416","Buena Vista","VA","Buddies True Value Hardware","517 E Nelson St","24450",37.778934,-79.437306
"24416","Buena Vista","VA","Tractor Supply Co.","800 North Lee Hwy","24450",37.796763,-79.420474
"24416","Buena Vista","VA","Sherwin-Williams Paint Store","758 N Lee Hwy","24450",37.79570388793945,-79.42135620117188
"24416","Buena Vista","VA","Fastenal","230 W 22nd St","24416",37.735673,-79.355416
"24416","Buena Vista","VA","Buena Vista Hardware","1954 Sycamore Ave","24416",37.733222999999995,-79.355627
"24422","Clifton Forge","VA","Jack's Gun Shop","920 Rose Ave","24422",37.82351,-79.829014
"24422","Clifton Forge","VA","Northwest Hardware Company","432 E Ridgeway St","24422",37.8203999,-79.803799
"24435","Fairfield","VA","Augusta True Value","5788 N Lee Hwy","24435",37.882321000000005,-79.281879
"24441","Grottoes","VA","Al's Power Supply","not_available","24441",38.264077,-78.82111
"24441","Grottoes","VA","Dean Home Center Inc","203 3rd St","24441",38.261860999999996,-78.825597
"24450","Lexington","VA","Rockbridge Farmers Co-op","645 Waddell St","24450",37.772302,-79.447785
"24458","Mc Dowell","VA","Rockingham Cooperative","110 Wilson Ave","24465",38.412275,-79.575406
"24501","Lynchburg","VA","Lowe's","8216 Timberlake Road","24502",37.3455713,-79.2323861
"24501","Lynchburg","VA","The Home Depot","7902 Graves Mill Road","24502",37.377966,-79.2242584
"24501","Lynchburg","VA","C.s. Door & Hardware","1524 Lakeside Dr","24501",37.40200844639845,-79.1879930558678
"24501","Lynchburg","VA","Hooper Plumbing Supply","8000 Timberlake Rd","24502",37.350223038938545,-79.22916121007395
"24501","Lynchburg","VA","James T. Davis Paint Center","3416 Candlers Mountain Rd","24502",37.36757945730445,-79.17337925874959
"24501","Lynchburg","VA","Commonwealth Building Materials Inc","227 Industrial Circle","24501",37.30601237,-79.17592151
"24501","Lynchburg","VA","Carpet World","not_available","24502",37.36589050292969,-79.18389892578125
"24501","Lynchburg","VA","City Electric Supply Lynchburg","141 Bradley Dr Ste B","24501",37.37605433765975,-79.15611002715991
"24501","Lynchburg","VA","Overstreet Hardware and Rental","2650 Lakeside Dr","24501",37.395344,-79.232603
"24501","Lynchburg","VA","Farmer's Seed and Supply","1304 Main St.","24504",37.411543,-79.138988
"24501","Lynchburg","VA","minuteKEY","3900 Wards Rd","24502",37.35369873046875,-79.18529510498047
"24501","Lynchburg","VA","Bailey spencer Hardware","not_available","24504",37.412211,-79.13926500000001
"24501","Lynchburg","VA","Consumers Dornin-Adams","not_available","24501",37.400186,-79.170872
"24501","Lynchburg","VA","Nelligan Insulation Inc","2539 Fairview Ave","24501",37.386493,-79.149638
"24501","Lynchburg","VA","Harbor Freight Tools","7621 Timberlake Rd","24502",37.354808834277,-79.22405980672293
"24501","Lynchburg","VA","Bowman's Lock","Church St","not_available",37.41256230717504,-79.14147250936561
"24501","Lynchburg","VA","Commonwealth Building Materials","502 George St","24502",37.32829313,-79.18672429
"24501","Lynchburg","VA","Hajoca  Corp","1901 Memorial Ave","24501",37.40896,-79.16257
"24501","Lynchburg","VA","Sherwin-Williams Floorcovering Store","4004 Murray Pl","24501",37.382624,-79.16650600000001
"24501","Lynchburg","VA","Sherwin-Williams Commercial Paint Store","2100 Fort Ave","24501",37.402365,-79.159133
"24502","Lynchburg","VA","Ferguson HVAC Supply","2104 Graves Mill Rd","24551",37.378578999999995,-79.252084
"24502","Lynchburg","VA","minuteKEY","22088 Timberlake Rd","24502",37.3226318359375,-79.25341796875
"24502","Lynchburg","VA","Wolseley Industrial Group","2010 Graves Mill Rd","24551",37.3788193039139,-79.2489776486302
"24502","Lynchburg","VA","Fastenal","not_available","24551",37.37952,-79.251813
"24502","Lynchburg","VA","minuteKEY","3227 Old Forest Rd","24501",37.4107092,-79.2094707
"24503","Lynchburg","VA","Boonsboro Hardware","4904 Boonsboro Rd","24503",37.447438,-79.21732
"24503","Lynchburg","VA","Ace Hardware","2200 Lakeside Dr","24501",37.399792,-79.207761
"24504","Lynchburg","VA","Lowe's","150 River James Shopping Center","24572",37.4350585,-79.1255578
"24504","Lynchburg","VA","Valley Fasteners","3401 Campbell Ave","24501",37.385447,-79.14199
"24504","Lynchburg","VA","Husqvarna US","1616 Main St","24504",37.40816879272461,-79.13566589355469
"24504","Lynchburg","VA","Ace Hardware","not_available","24572",37.43714904785156,-79.10454559326172
"24517","Altavista","VA","Rountreys True Value","508 Main St","24517",37.109217,-79.290099
"24517","Altavista","VA","English hardware","1522 Main St","24517",37.134812,-79.263702
"24517","Altavista","VA","Tractor Supply Co.","1301 Main St Ste O","24517",37.121053,-79.27199399999999
"24521","Amherst","VA","Scene shop","Murchinson Lane","24595",37.555393594817126,-79.08467635410553
"24522","Appomattox","VA","Tractor Supply Co.","7645 Richmond Hwy","24522",37.36533,-78.847242
"24522","Appomattox","VA","Hardware Store","131 Jones St","24522",37.36297607421875,-78.83201599121094
"24522","Appomattox","VA","J.E. Jamerson & Sons","not_available","24522",37.36142236196645,-78.82564155163256
"24522","Appomattox","VA","Appomattox True Value","7194 Richmond Hwy","24522",37.36184749,-78.85487752
"24523","Bedford","VA","Lowe's","1820 East Lynchburg Salem Tpke","24523",37.3210521,-79.4839226
"24523","Bedford","VA","Tractor Supply Co.","1128 East Lynchburg Salem Tpke","24523",37.325303000000005,-79.49515699999999
"24523","Bedford","VA","Bedford Hardware Store","126 S Bridge St","24523",37.333594,-79.523953
"24523","Bedford","VA","minuteKEY","1126 E Lynchburg Salem Tpke","24523",37.3259608,-79.4970931
"24527","Blairs","VA","Tightsqueeze Hardware","220 Tightsqueeze Rd","24531",36.788954942076565,-79.3961488616776
"24527","Blairs","VA","DoIt Best","not_available","24527",36.754482,-79.384138
"24528","Brookneal","VA","Guthrie's TrueValue Hardware","Main Street","24528",37.10900910534837,-78.94200264417475
"24528","Brookneal","VA","Guthries True Value","102 Main St","24528",37.04804452,-78.94215091
"24540","Danville","VA","The Home Depot","175 Holt Garrison Pkwy","24540",36.6021399,-79.4177235
"24540","Danville","VA","Lowe's","280 Lowes Dr","24540",36.5996352,-79.4254178
"24540","Danville","VA","Plyler Supply Co.","not_available","24540",36.6064567565918,-79.35932159423828
"24540","Danville","VA","Riverside True Value Hardware","124 Trade St","24541",36.58695,-79.420884
"24540","Danville","VA","Dominion Hardware","100 Kentuck Rd","24540",36.582139,-79.339492
"24540","Danville","VA","Sherwin-Williams Paint Store","232 Mount Cross Rd","24540",36.591345000000004,-79.422904
"24540","Danville","VA","Sherwood rentals","168 Arnett Blvd","24540",36.59962463378906,-79.39827728271484
"24540","Danville","VA","Harbor Freight Tools","126 Sandy Ct Ste D","24541",36.589967682936305,-79.42840954153878
"24540","Danville","VA","danville paint & supply","not_available","24541",36.5902516846388,-79.3968580465109
"24540","Danville","VA","Husqvarna US","3720 Franklin Tpke","24540",36.67110824584961,-79.41556549072266
"24540","Danville","VA","City Electric Supply Danville","498 Mount Cross Rd","24540",36.595924,-79.427745
"24540","Danville","VA","Ferguson Plumbing Supply","221 Industrial Ave","24541",36.578996000000004,-79.381506
"24540","Danville","VA","Tractor Supply Co.","119 Piney Forest Rd","24540",36.595007,-79.416175
"24551","Forest","VA","Ace Overstreet Hardware","15075 Forest Road","24551",37.364723205566406,-79.29376983642578
"24551","Forest","VA","Budget Blinds of Lynchburg","1130 Lake Manor Drive","24551",37.361995697021484,-79.34817504882812
"24551","Forest","VA","minuteKEY","1073 Regis Ln","24551",37.365366,-79.262499
"24551","Forest","VA","Sherwin-Williams Paint Store","2010 Enterprise Dr","24551",37.366577,-79.250265
"24558","Halifax","VA","Lowe's","3603 Old Halifax Road","24592",36.736766,-78.913495
"24558","Halifax","VA","Tractor Supply Co.","3130 Halifax Rd Suite N, Suite N","24592",36.731693,-78.920096
"24558","Halifax","VA","Sherwin-Williams Paint Store","2225 Wilborn Ave","24592",36.713882,-78.91155
"24558","Halifax","VA","Fastenal","2210-2404 James D Hagood Hwy","24558",36.71782684326172,-78.86058044433594
"24558","Halifax","VA","Husqvarna US","PO Box 237","24558",36.77001953125,-78.94689178466797
"24558","Halifax","VA","Ace Hardware","1099 Philpott Rd","24592",36.68442360197111,-78.90596279676713
"24558","Halifax","VA","Husqvarna US","307 Broad St","24592",36.69767761230469,-78.8993911743164
"24558","Halifax","VA","Lewis Metal Works Inc.","not_available","24592",36.7189051694473,-78.89145579328866
"24572","Madison Heights","VA","Tractor Supply Co.","248 Amelon Square Plz","24572",37.468919,-79.117344
"24572","Madison Heights","VA","minuteKEY","197 Madison Heights SQ","24572",37.461203000000005,-79.115212
"24572","Madison Heights","VA","84 Lumber","4401 S Amherst Hwy","24572",37.45491409301758,-79.12110137939453
"24590","Scottsville","VA","Ace Hardware","127 Irish Rd","24590",37.807286,-78.503973
"24590","Scottsville","VA","ACE Hardware","Irish Road","24590",37.81366636546488,-78.5238369860111
"24602","Bandy","VA","Husqvarna US","PO Box 370","24630",37.16197967529297,-81.49617004394531
"24609","Cedar Bluff","VA","Lowes Build and Grow!","not_available","24609",37.060291982223866,-81.74985657648764
"24609","Cedar Bluff","VA","Farm Bureau","168 Suffolk Ave","24641",37.093945,-81.798345
"24609","Cedar Bluff","VA","Lowe's","4375 Indian Paint Road","24637",37.0598313,-81.7494745
"24609","Cedar Bluff","VA","Raven True Value","Rte 67 & 460","24639",37.09155,-81.83766
"24609","Cedar Bluff","VA","Tractor Supply Co.","12966 Governor Gc Perry Hwy","24637",37.06519317626953,-81.73471069335938
"24609","Cedar Bluff","VA","True Value Hardware","not_available","24641",37.092376708984375,-81.810302734375
"24609","Cedar Bluff","VA","RAVEN TRUE VALUE","RTE 67 & 460","24639",37.14959716796875,-81.87478637695312
"24614","Grundy","VA","FLETCHER'S TRUE VALUE","HWY 460","24656",37.21978759765625,-82.1114501953125
"24614","Grundy","VA","Tractor Supply Co.","1106 Lovers Gap Rd","24656",37.230737,-82.100333
"24656","Vansant","VA","Husqvarna US","PO Box 51","24656",37.18595504760742,-82.1246566772461
