"zip","city","state","name","address","postalCode","lat","lon"
"35004","Moody","AL","Lowe's","8900 Weaver Avenue","35094",33.5652506,-86.5180457
"35004","Moody","AL","Ace Hardware","3070 Moody Pkwy","35004",33.59282,-86.49277
"35004","Moody","AL","Green Bros Hardware","3070 Moody Prkwy","35004",33.593605041503906,-86.49018096923828
"35004","Moody","AL","Bel-Air Turf Products LLC","3350 U.S. 78","35094",33.576507568359375,-86.47045135498047
"35004","Moody","AL","Tractor Supply Co.","3400 Moody Pkwy","35004",33.60010120567579,-86.48046040304482
"35004","Moody","AL","lowes - Aisle 10","not_available","35004",33.573265075683594,-86.5129165649414
"35005","Adamsville","AL","Ed's Lock & Key","2608 32d Ave N","35073",33.6380169,-86.9808778
"35005","Adamsville","AL","White Electrics tool trailer","Miller Steam Plant","not_available",33.632267,-87.06031
"35005","Adamsville","AL","minuteKEY","2473 Hackworth Rd","35214",33.57945251464844,-86.9242172241211
"35006","Adger","AL","Hardware","not_available","35023",33.494032,-87.112633
"35007","Alabaster","AL","Lowe's","235 Colonial Promenade Parkway","35007",33.2308957,-86.8049703
"35007","Alabaster","AL","Ferguson Waterworks","190 Commerce Dr","35124",33.27144515633851,-86.75426743200856
"35007","Alabaster","AL","Sherwin-Williams Paint Store","60 Colonial Promenade Pkwy","35007",33.22959518432617,-86.80271911621094
"35007","Alabaster","AL","Alabama Forest Products","not_available","not_available",33.268385937931036,-86.78881242792981
"35007","Alabaster","AL","City Electric Supply Alabaster","285 Scotland Dr","35007",33.18667310553981,-86.75735454263753
"35007","Alabaster","AL","Thompson Cat Rental Store - Alabaster","2070 Corporate Woods Dr","35007",33.194618225097656,-86.78815460205078
"35007","Alabaster","AL","Sealing Equipment Products Inc.","123 Airpark Industrial Rd","35007",33.194655,-86.784856
"35007","Alabaster","AL","minuteKEY","235 COLONIAL PROMENADE PARKWAY","35007",33.23126983642578,-86.80475616455078
"35010","Alexander City","AL","The Home Depot","1460 Hwy 280","35010",32.9498315,-85.9921814
"35010","Alexander City","AL","minuteKEY","2643 Highway 280","35010",32.939849853515625,-85.97647857666016
"35010","Alexander City","AL","Tractor Supply Co.","1556 Mill Sq","35010",32.935524,-85.970703
"35010","Alexander City","AL","Harbor Freight","not_available","35010",32.920353,-85.959193
"35010","Alexander City","AL","Husqvarna US","PO Box 1747","35011",32.9270133972168,-85.93400573730469
"35010","Alexander City","AL","Russell Do it Center - Alex City","1750 Highway 22 W","35010",32.93107986450195,-85.97528839111328
"35010","Alexander City","AL","Husqvarna","1584 Highway 280","35010",32.94905090332031,-85.99040985107422
"35010","Alexander City","AL","Husqvarna","2600 AL HWY 9","35072",33.02695846557617,-86.05921173095703
"35010","Alexander City","AL","Sherwin-Williams Paint Store","905 Cherokee Rd","35010",32.93627934720363,-85.95175266265869
"35016","Arab","AL","Tractor Supply Co.","1067 North Brindlee Mountain Pkwy","35016",34.334642,-86.504839
"35016","Arab","AL","Arab Lumber","841 N Brindlee Mountain Pkwy","35016",34.33929956693355,-86.50226774382021
"35016","Arab","AL","marvins","brindlee Mtn Pkwy","35016",34.328643798828125,-86.50126647949219
"35016","Arab","AL","Husqvarna","1214 CO. RD. 1809","35087",34.277610778808594,-86.54515075683594
"35016","Arab","AL","Husqvarna","220 Ruth Rd NW","35016",34.35708999633789,-86.50715637207031
"35020","Bessemer","AL","Lowe's","1201 19th Street North","35020",33.4102546,-86.9656145
"35020","Bessemer","AL","Fountain Building Supply","731 20th St N","35020",33.40705322024049,-86.95785468157999
"35020","Bessemer","AL","Advanced Mower","2212 Morgan Rd","35022",33.356298,-86.937788
"35020","Bessemer","AL","MoMic Construction","1409 Hueytown Rd","35023",33.449989318847656,-86.99913787841797
"35020","Bessemer","AL","Airgas Bessemer","not_available","35020",33.420303,-86.964714
"35020","Bessemer","AL","Myers Electric Company","225 Nail St","35228",33.45089,-86.92647
"35020","Bessemer","AL","Lovelady Electrical Contractors, LLC","2044 Morgan Road","35022",33.3610322,-86.9393956
"35020","Bessemer","AL","Tractor Supply Co.","690 Academy Dr","35022",33.359085,-86.99753
"35020","Bessemer","AL","Ppg Paints","1727 9th Ave N","35020",33.40498733520508,-86.96170806884766
"35020","Bessemer","AL","Fastenal Industrial & Construction Supplies","1031 19th St N","35020",33.40827788416387,-86.96300749008068
"35020","Bessemer","AL","Sherwin-Williams Paint Store","1800 9th Ave N","35020",33.4060359617829,-86.96194231510161
"35020","Bessemer","AL","H&E Equipment Services","806 Labarge Dr","35022",33.353518,-86.984487
"35022","Bessemer","AL","Kens' True Value Hardware","3000 Morgan Rd","35022",33.33342361450195,-86.91676330566406
"35022","Bessemer","AL","Sherwin-Williams Paint Store","4760 Bell Hill Rd","35022",33.329391,-86.996433
"35031","Blountsville","AL","Marvins","not_available","35121",34.007225,-86.463898
"35034","Brent","AL","western auto","not_available","35042",32.94477844238281,-87.13665771484375
"35034","Brent","AL","Husqvarna","780 Walnut St","35042",32.94417953491211,-87.14201354980469
"35035","Brierfield","AL","Montevallo Building Supply","not_available","35035",33.060333251953125,-86.90411376953125
"35040","Calera","AL","Brown Lumber & Building Supply","21891 Alabama 25","35051",33.186816,-86.606983
"35040","Calera","AL","Marvin's","6380 US-31","35040",33.130977,-86.752768
"35040","Calera","AL","Buxahatchee Hardware","not_available","35040",33.10008023996292,-86.72836834296443
"35040","Calera","AL","Columbiana Tractor, LLC","208 W College St","35051",33.1798827,-86.6109864
"35040","Calera","AL","Brown Lumber and Building Supply, Inc.","21891 AL-25","35051",33.187218121454684,-86.6043770313263
"35040","Calera","AL","minuteKEY","5100 Highway 31","35040",33.14632797241211,-86.75189971923828
"35040","Calera","AL","Capitol Materials Inc","307 Commercial Park Circle","35040",33.1384641,-86.754758
"35040","Calera","AL","Husqvarna","6210 Highway 31","35040",33.1322135925293,-86.75236511230469
"35043","Chelsea","AL","Tractor Supply Co.","119 Atchison Dr","35043",33.349136,-86.635674
"35043","Chelsea","AL","Sherwin-Williams Paint Store","4528 Valleydale Rd","35242",33.384986,-86.736075
"35043","Chelsea","AL","builders first source","315 county road 433","not_available",33.344477515194775,-86.60773878951275
"35043","Chelsea","AL","minuteKEY","2653 Valleydale Rd","35244",33.382442474365234,-86.74095916748047
"35044","Childersburg","AL","The Home Depot","41310 US Highway 280","35150",33.17197525293831,-86.28857910633087
"35044","Childersburg","AL","Vansandt Hardware And Supply Co","40631 US Highway 280","35150",33.179189,-86.297253
"35044","Childersburg","AL","Sherwin-Williams Paint Store","227 N Broadway Ave","35150",33.171234368495824,-86.25104427337646
"35044","Childersburg","AL","Coosa Valley Milling & Hardware","30620 Alabama 25","35186",33.234261,-86.483287
"35044","Childersburg","AL","Survive-a-Storm Shelters","41310 US Highway 280 Ste B","35150",33.17238998413086,-86.2881851196289
"35045","Clanton","AL","Tractor Supply Co.","1001 Woodfin Ln","35045",32.8159,-86.60643
"35045","Clanton","AL","Latham Construction","not_available","35739",32.750918146061515,-86.7497205734253
"35045","Clanton","AL","minuteKEY","1415 7th St S","35045",32.8167178,-86.6095384
"35045","Clanton","AL","Southern Supply","not_available","35045",32.85871952581809,-86.6380887712261
"35045","Clanton","AL","www.equiptrader.net","6833 Abbey Trce Dr","35453",32.75041,-86.75026
"35045","Clanton","AL","A.L. Thompson Builders Supply","10817 AL-101","35648",32.751928747316676,-86.74936652183533
"35045","Clanton","AL","Copper Orange, Beige, Brown","611 1st Street W","35582",32.751531726762465,-86.75027847290039
"35045","Clanton","AL","Russell Do it Center - Clanton","2207 7th St N","35045",32.857791900634766,-86.6399917602539
"35045","Clanton","AL","Littleton's Mower & Hardware Inc","21550 US Highway 31","35171",32.921051025390625,-86.72052764892578
"35045","Clanton","AL","Husqvarna","1940 Big M Blvd","35046",32.80226516723633,-86.57648468017578
"35049","Cleveland","AL","Husqvarna","737 TUSCALOOSA PIKE","35049",33.988468170166016,-86.58509063720703
"35054","Cropwell","AL","The Shop","not_available","35054",33.518848194121404,-86.31287207438378
"35055","Cullman","AL","Lowe's","1717 Cherokee Ave SW","35055",34.1568449,-86.8403094
"35055","Cullman","AL","Buettner Brothers Lumber Company","700 7th Ave SW","35055",34.16663360595703,-86.84618377685547
"35055","Cullman","AL","Walkers Building Supply","Highway 31 South","not_available",34.09819746765548,-86.80384308846631
"35055","Cullman","AL","Greencraft Mowers Corporation","1414 Sportsman Lake Rd NW","35055",34.194304,-86.855105
"35055","Cullman","AL","Fastenal","not_available","35055",34.12060546875,-86.85781860351562
"35055","Cullman","AL","Walker's Corner USA","3609 US Highway 278 E","35055",34.17898941040039,-86.74299621582031
"35055","Cullman","AL","O.F. RICHTER AND SONS, INC.","308 1st St SE","35055",34.1786418,-86.8401874
"35055","Cullman","AL","Tractor Supply Co.","1731 2nd Ave Southwest","35055",34.155446,-86.835458
"35055","Cullman","AL","Harbor Freight","1636 2nd Ave SW","35055",34.16135025024414,-86.83380126953125
"35055","Cullman","AL","West Cullman Electric","1413 4th St SW","35055",34.172550201416016,-86.85504913330078
"35055","Cullman","AL","Sherwin-Williams Paint Store","1625 Town Sq SW","35055",34.161312103271484,-86.83830261230469
"35055","Cullman","AL","minuteKEY","626 Olive St SW","35055",34.14950180053711,-86.84210968017578
"35055","Cullman","AL","Ace Hardware of Cullman","4933 Alabama Highway 157","35058",34.206204,-86.857187
"35055","Cullman","AL","Marvins Hardware","Woodland Haus","35055",34.155532735027016,-86.85181789029727
"35055","Cullman","AL","Husqvarna","3330 AL Highway 157","35058",34.20428466796875,-86.82909393310547
"35057","Cullman","AL","Tool Shed","305 County Road 1170","35057",34.17321014404297,-86.87886047363281
"35057","Cullman","AL","Rozar's Auto Paint Supply Inc","445 AL Highway 69 S","35077",34.05046,-86.871518
"35062","Dora","AL","minuteKEY","690 Highway 78","35148",33.7453973,-87.0418359
"35062","Dora","AL","Ace Hardware & Building Supply","765 Highway 78 W","35148",33.7443049,-87.044999
"35064","Fairfield","AL","The Home Depot","6405 Flint Ridge Dr","35064",33.4782928,-86.9207958
"35064","Fairfield","AL","Ace Hardware Store","498 B Y Williams Sr Dr","35228",33.46126385935351,-86.90853122409077
"35064","Fairfield","AL","minuteKEY","7201 Aaron Aronov Dr","35064",33.4675502,-86.9134581
"35068","Fultondale","AL","Lowe's","1335 Walker Chapel Road","35068",33.6098877,-86.8035889
"35068","Fultondale","AL","Allen Iron Works","1000 Pinson Valley Pkwy","35217",33.57759094238281,-86.78095245361328
"35068","Fultondale","AL","minuteKEY","1335 Walker Chapel Rd","35068",33.61016082763672,-86.80357360839844
"35071","Gardendale","AL","Tractor Supply Co.","2626 Decatur Hwy","35071",33.690395,-86.82022
"35071","Gardendale","AL","minuteKEY","890 Odum Rd","35071",33.646766662597656,-86.82339477539062
"35071","Gardendale","AL","Washer And Refrigeration Supply","not_available","35071",33.642189,-86.795365
"35071","Gardendale","AL","A country fd and farm supply","8743 Highway 31 N","35091",33.761505126953125,-86.81348419189453
"35071","Gardendale","AL","Sherwin-Williams Paint Store","317 Fieldstown Rd","35071",33.65152387951903,-86.81482862507409
"35078","Harpersville","AL","russell building supply","not_available","35078",33.342637906890545,-86.43600940704346
"35079","Hayden","AL","Husqvarna","1128 State Highway 160 Ste C","35180",33.85557556152344,-86.80744171142578
"35080","Helena","AL","Helena Hardware","101 Ace Pl","35080",33.281624,-86.85476
"35080","Helena","AL","Buck Creek Stained Glass","4114 Helena Road","35080",33.29614441953939,-86.84363698407496
"35080","Helena","AL","Cahaba River Trading","121 Clark St","35124",33.28288,-86.81882
"35085","Jemison","AL","Utilities Services Co Inc","1644 County Road 153","35085",32.99964904785156,-86.73916625976562
"35085","Jemison","AL","Active Tractor & Equipment","26885 US Highway 31","35085",32.9885496,-86.7548047
"35091","Kimberly","AL","Warrior Ace Hardware","427 Caldwell Dr.","35180",33.807395,-86.81129
"35094","Leeds","AL","Food Giant","7580 Parkway Dr","35094",33.546872,-86.551906
"35094","Leeds","AL","Ferguson Counter","2389 Alton Rd","35210",33.571954,-86.641149
"35094","Leeds","AL","Pro Tools Clearance Outlet","6200 Grand River Blvd E","35094",33.54701027838508,-86.5968132019043
"35094","Leeds","AL","Black & Decker Clearance Outlet","6200 Grand River Blvd E #730","35094",33.54989841945392,-86.5968132019043
"35094","Leeds","AL","Alabama Industrial LLC- Alabama Hydraulic Cylinder","900 Alton Pkwy","35210",33.580518,-86.64747799999999
"35094","Leeds","AL","Palmer & Lawrence, Inc.","5520 Eastcliff Industrial Loop","35210",33.580073,-86.631872
"35096","Lincoln","AL","Lincoln Hardware and Outdoors","77 Magnolia St S","35096",33.6031357,-86.1182663
"35111","Mc Calla","AL","k4 lumber","Grey Hill Rd, McCalla, AL 35111","35111",33.226680755615234,-87.12931060791016
"35111","Mc Calla","AL","Clabo, inc","22588 Alabama 216, McCalla, AL 35111","35111",33.278664468567634,-87.08707809448242
"35115","Montevallo","AL","Tractor Supply Co.","4633 Hwy 25","35115",33.095634000000004,-86.854
"35120","Odenville","AL","Oakridge Outdoor Power Equipment","14303 US Hwy 411","35120",33.6818,-86.40055
"35120","Odenville","AL","Husqvarna US","PO Box 729","35120",33.6731071472168,-86.44415283203125
"35120","Odenville","AL","Husqvarna","14303 HWY 411 N.","35120",33.681785583496094,-86.40097045898438
"35121","Oneonta","AL","Tractor Supply Co.","1608 2nd Ave East","35121",33.96348480693429,-86.46111422721674
"35121","Oneonta","AL","minuteKEY","2453 2nd Ave E","35121",33.9712598,-86.4464779
"35121","Oneonta","AL","Weather's Appliance","109 2nd Ave E","35121",33.94485092163086,-86.47711944580078
"35121","Oneonta","AL","Sears","1908 2nd Ave. E.","35121",33.9675332,-86.45568039999999
"35124","Pelham","AL","The Home Depot","3670 Galleria Circle","35244",33.3759475,-86.8115925
"35124","Pelham","AL","The Home Depot","3191 Pelham Pkwy","35124",33.2840652,-86.8087448
"35124","Pelham","AL","Lowe's","2100 Valleydale Road","35244",33.3592675,-86.7755092
"35124","Pelham","AL","Harbor Freight Tools","3010 Pelham Pkwy","35124",33.295194,-86.81260999999999
"35124","Pelham","AL","Washer & Refrigeration","not_available","35124",33.335182189941406,-86.79345703125
"35124","Pelham","AL","Ppg Paints","2213 Hwy 31 S","35124",33.336163,-86.790764
"35124","Pelham","AL","Ewing Irrigation","1373 McCain Pkwy","35124",33.27489,-86.797498
"35124","Pelham","AL","ifix","not_available","35216",33.38012510163367,-86.80964513405206
"35124","Pelham","AL","WallZone","2520 Pelham Pkwy","35124",33.321492,-86.797064
"35124","Pelham","AL","Kentec Megatool","not_available","35244",33.34306716918945,-86.79613494873047
"35124","Pelham","AL","Sears","4391 Creekside Ave","35244",33.374971607505614,-86.81805421095959
"35124","Pelham","AL","Sherwin-Williams Paint Store","2866 Pelham Pkwy","35124",33.303822,-86.807875
"35124","Pelham","AL","Hoover Paint And Decorating","3990 Lorna Rd","35244",33.3603866,-86.8128636
"35125","Pell City","AL","The Home Depot","289 Vaughan Lane","35125",33.609434703685885,-86.27421426918772
"35125","Pell City","AL","Sherwin-Williams Paint Store","2401 Cogswell Ave","35125",33.58861521890696,-86.28015160560608
"35125","Pell City","AL","Fastenal","not_available","35125",33.602675,-86.265641
"35125","Pell City","AL","Pell City Home Center","3rd Ave S, Pell City, AL 35128","35128",33.58839772068225,-86.28062872368903
"35125","Pell City","AL","City Electric Supply Pell City","505 Miles Pkwy #3","35125",33.6025314,-86.2636642
"35125","Pell City","AL","minuteKEY","165 Vaughan Ln","35125",33.608149,-86.2769484
"35125","Pell City","AL","Webb Building Material","Industrial Park Dr","35125",33.6016731262207,-86.2697982788086
"35125","Pell City","AL","nexAir","5030 Cogswell Ave","35125",33.590619853544425,-86.24399001844631
"35126","Pinson","AL","Ace Hardware of Clay","6730 Deerfoot Pkwy","35126",33.697456,-86.607642
"35126","Pinson","AL","Keys","6030 Hobby Ln","35126",33.684226989746094,-86.61482238769531
"35128","Pell City","AL","Tractor Supply Co.","803 Martin St South","35128",33.579750061035156,-86.27737426757812
"35128","Pell City","AL","Southern Pipe & Supply","not_available","35128",33.5442422233666,-86.25832832799613
"35146","Springville","AL","Harrison Supply & Hardware","not_available","35146",33.773435076349934,-86.47404176010929
"35147","Sterrett","AL","JohnstonKreis","not_available","35242",33.4154722553405,-86.66120917056799
"35150","Sylacauga","AL","Scott's Quality Plumbing","1004 Buena Vista Dr","35151",33.13511,-86.255123
"35160","Talladega","AL","Carters Hardware","not_available","36268",33.52667792494511,-85.9632753111331
"35160","Talladega","AL","Sherwin-Williams Paint Store","105 Stephen J White Memorial Blvd","35160",33.43618666872148,-86.09503626823424
"35160","Talladega","AL","Ace Hardware","1104 Ashland Hwy","35160",33.43031311035156,-86.08063507080078
"35160","Talladega","AL","Tractor Supply Co.","232 Haynes St","35160",33.436121,-86.080187
"35160","Talladega","AL","minuteKEY","214 Haynes St.","35160",33.4384880065918,-86.08086395263672
"35160","Talladega","AL","Marvin's","65362 AL Highway 77","35160",33.44947052001953,-86.11228942871094
"35160","Talladega","AL","Husqvarna","35288 AL Highway 21","35160",33.45072937011719,-86.05809783935547
"35173","Trussville","AL","The Home Depot","1600 Gadsden Hwy","35173",33.6023687,-86.6422581
"35173","Trussville","AL","Chalkville Ace Hardware Inc","5715 Chalkville Rd","35235",33.6497269,-86.63448
"35173","Trussville","AL","John's Plumbing","5851 Service Rd","35235",33.6337,-86.62537
"35173","Trussville","AL","Sherwin-Williams Paint Store","234 Main St","35173",33.619328,-86.61036800000001
"35173","Trussville","AL","Ewing Irrigation","5480 Vann Pl","35235",33.60817708947006,-86.63457199931145
"35173","Trussville","AL","Argo Power Equipment, Inc.","750 US-11 #1","35173",33.68121111121435,-86.53001546859741
"35173","Trussville","AL","Inline","not_available","35173",33.60795939995198,-86.63177416533793
"35173","Trussville","AL","Marvin's Building Materials and Home Centers","6345 S Chalkville Rd","35173",33.615955,-86.60933
"35173","Trussville","AL","minuteKEY","5919 Trussville Crossing Parkway","35235",33.6390618,-86.6291251
"35179","Vinemont","AL","Haney Equipment","9805 Alabama Hwy 157","35179",34.3153415,-86.9990781
"35179","Vinemont","AL","Nine Yards Landscaping","281 County Road 1231","35179",34.269646,-86.934584
"35184","West Blocton","AL","Husqvarna","2035 Griffintown Rd","35184",33.17149353027344,-87.09138488769531
"35203","Birmingham","AL","Sherwin-Williams Product Finishes","2301 5th Ave S","35233",33.510011999999996,-86.796638
"35203","Birmingham","AL","wittichen","2912 3rd Ave N","35203",33.523119,-86.794241
"35203","Birmingham","AL","Rexel","604 28th St N","35203",33.52461593502626,-86.79838863305064
"35203","Birmingham","AL","Econo Steel","not_available","35233",33.515681,-86.796887
"35203","Birmingham","AL","Ferguson Plumbing Supply","2800 2nd Ave S","35233",33.51609,-86.79226
"35203","Birmingham","AL","Inline Electric","2600 2nd Avene South","35233",33.515098571777344,-86.79515075683594
"35203","Birmingham","AL","Ferguson Fire & Fabrication","3225 Richard Arrington Jr Blvd N","35234",33.532329,-86.794618
"35203","Birmingham","AL","Ppg Paints","2805 3rd Ave S","35233",33.515118,-86.79129
"35203","Birmingham","AL","Sherwin-Williams Commercial Paint Store","1501 3rd Ave S","35233",33.50658,-86.80895100000001
"35203","Birmingham","AL","Wittichens","201 16th St S","35233",33.50813674926758,-86.80818939208984
"35204","Birmingham","AL","Gulf Eagle Supply","225 N Finley Ave","35204",33.53457749045919,-86.8397477619759
"35204","Birmingham","AL","bullgang","not_available","35207",33.54421491134097,-86.83771372574964
"35204","Birmingham","AL","GPM of Alabama","1025 11th Ct W","35204",33.521417,-86.85419300000001
"35204","Birmingham","AL","Alabama Cabinet Co.","not_available","35204",33.50659860457156,-86.83442968017843
"35205","Birmingham","AL","Sherwin-Williams Paint Store","2714 19th St S","35209",33.48221,-86.790014
"35205","Birmingham","AL","Huffstutlers Hardware","2767 Central Avenue","not_available",33.480547078036835,-86.79475362521781
"35205","Birmingham","AL","Weathertech","2735 6th Ave S","35233",33.51190118079592,-86.78969555841944
"35205","Birmingham","AL","Pierce Taber - Benjamin Moore","1913 28th Ave S","35209",33.4810038,-86.78841141666666
"35205","Birmingham","AL","Harbor Freight","not_available","35223",33.48538589477539,-86.78450775146484
"35205","Birmingham","AL","Little Hardware","Mountain Brook Village","35223",33.48529663361363,-86.77379255449608
"35205","Birmingham","AL","Sherwin-Williams Paint Store","2003 Cahaba Rd","35223",33.495071,-86.7808
"35205","Birmingham","AL","Indica Granite & Stones","601 University Blvd","35233",33.495426,-86.81787
"35206","Birmingham","AL","Harbor Freight Tools","9120 Parkway E Ste A","35206",33.58664343906813,-86.70272873117995
"35207","Birmingham","AL","Unistrut Alabama Inc.","2120 Northpark Cir","35207",33.56491,-86.828003
"35207","Birmingham","AL","Eds Lock & Key","2608 32nd Ave N","35207",33.554127,-86.818559
"35207","Birmingham","AL","Ace Hardware","2520 31st Ave N","35207",33.55283737182617,-86.81924438476562
"35208","Birmingham","AL","computer4u","2254","35208",33.48239517211914,-86.89046478271484
"35209","Birmingham","AL","Lowe's","375 State Farm Pkwy","35209",33.4455524,-86.8307068
"35209","Birmingham","AL","Harbor Freight Tools","136 Green Springs Hwy","35209",33.468379974365234,-86.82403564453125
"35209","Birmingham","AL","Harbor Freight","not_available","35209",33.468049543177194,-86.82514894771882
"35209","Birmingham","AL","Grainger","185 Oxmoor Rd","35209",33.444061279296875,-86.84001922607422
"35209","Birmingham","AL","minuteKEY","312 Palisades Blvd","35209",33.469271,-86.820124
"35209","Birmingham","AL","C M H Space Flooring Products","160 Distribution Dr","35209",33.44472122192383,-86.84359741210938
"35210","Birmingham","AL","Lowe's","1885 Edwards Lake Rd","35235",33.5972852,-86.6498884
"35210","Birmingham","AL","The Home Depot","7001 Crestwood Blvd Ste 1300","35210",33.528999380290564,-86.73281704324108
"35210","Birmingham","AL","Motion Industries","1605 Alton Rd","35210",33.551968343522596,-86.66200160980225
"35210","Birmingham","AL","Receiving","not_available","35235",33.59797846007356,-86.64984149624604
"35210","Birmingham","AL","Royal Paints, Inc","7960 Crestwood Blvd","35210",33.53162,-86.70968
"35210","Birmingham","AL","Overhead Door","not_available","35210",33.532528,-86.704273
"35210","Birmingham","AL","TSSI Foodservice Equipment Solutions","5871 Old Leeds Rd","35210",33.536987,-86.67067399999999
"35210","Birmingham","AL","Sherwin-Williams Paint Store","1905 Crestwood Blvd","35210",33.533547999999996,-86.701222
"35211","Birmingham","AL","Bluff Park Hardware","Shades Crest Road","35226",33.416624,-86.844448
"35211","Birmingham","AL","Bluff Park Hardware","597 Shades Crest Rd","35226",33.41213608333333,-86.856112
"35212","Birmingham","AL","Sherwin-Williams Commercial Paint Store","419 37th St N","35222",33.529346999999994,-86.782958
"35213","Birmingham","AL","A & D Hardware Supply","2 41st St S","35222",33.525395,-86.776749
"35213","Birmingham","AL","Westport Apparatus Breaker Supply","3501 7th Ave S","not_available",33.515913,-86.779095
"35213","Birmingham","AL","Light Bulb Depot","3524 4th Ave S","35222",33.519466400146484,-86.78089904785156
"35213","Birmingham","AL","Mayer Electric Supply","not_available","35222",33.51819531071727,-86.7818058455779
"35213","Birmingham","AL","Red Mountain Ironworks","3607 1st Ave S","35222",33.521862,-86.78123000000001
"35213","Birmingham","AL","Grainger","3735 1st Ave N","35222",33.52538299560547,-86.78083038330078
"35213","Birmingham","AL","HGH Hardware Supply","3912 2nd Ave S","35222",33.523994,-86.77680699999999
"35213","Birmingham","AL","Avondale Specialty Hardware","150 40th Street South","35222",33.524368,-86.776163
"35214","Birmingham","AL","Ace Hardware & Building Supply","1215 A Forestdale Blvd","35214",33.5598049,-86.891693
"35214","Birmingham","AL","Sherwin-Williams Paint Store","1524 Forestdale Blvd","35214",33.56642960408059,-86.89799308776855
"35214","Birmingham","AL","Womack Machine Supply","1417 Forestdale Blvd","35214",33.563822507858276,-86.89322412014008
"35214","Birmingham","AL","Husqvarna","612 6th Pl","35214",33.526554107666016,-86.88447570800781
"35215","Birmingham","AL","Sue's Dungeon Supples","not_available","35215",33.631698,-86.707275
"35215","Birmingham","AL","Sherwin-Williams Paint Store","1610 Center Point Pkwy","35215",33.628658294677734,-86.6861572265625
"35215","Birmingham","AL","Masthead","3950 Pinson Valley Pkwy","35217",33.63731002807617,-86.7279052734375
"35216","Birmingham","AL","Sherwin-Williams Paint Store","1645 Montgomery Hwy","35216",33.39573850982455,-86.80567745322467
"35216","Birmingham","AL","Rocky Ridge Hardware","3348 Morgan Dr","35216",33.42585372924805,-86.77412414550781
"35216","Birmingham","AL","Hoover Lock And Key","3229 Lorna Rd","35216",33.39636465,-86.80000911666667
"35216","Birmingham","AL","City Electric Supply","3429 Lorna Ln","35216",33.39387893676758,-86.7940673828125
"35216","Birmingham","AL","Otto`s Bark & Stuff","3410 Old Columbiana Rd","35226",33.39181137084961,-86.80885314941406
"35216","Birmingham","AL","Ppg Paints","3064 Loma Rd","35216",33.40366,-86.80482
"35216","Birmingham","AL","Preserve Paints","1457 Montgomery Hwy","35216",33.41858286494029,-86.8009614944458
"35216","Birmingham","AL","The Maintenance Shop","Little Valley Rd","35216",33.40895472857143,-86.80348997142858
"35216","Birmingham","AL","Northern Tool + Equipment","495 Southland Drive","35226",33.410555,-86.807519
"35216","Birmingham","AL","Benjamin Moore","1450 Montgomery Hwy","35216",33.419515,-86.80118143558502
"35217","Birmingham","AL","Richardson Hardware Co.","1840 Pinson St","35217",33.58583521,-86.76864086
"35217","Birmingham","AL","Capitol Materials Inc","3400 Ball Street","35234",33.55518,-86.78563
"35222","Birmingham","AL","Gexpro","316 33rd St N","35222",33.524696999999996,-86.789671
"35222","Birmingham","AL","Thompson Cat Rental Store - Birmingham","3317 Messer Airport Hwy","35222",33.5267325,-86.7884077
"35222","Birmingham","AL","Wholesale Controls International","3104 4th Ave S","35233",33.516652,-86.786803
"35222","Birmingham","AL","WESCO","125 32nd St S","35233",33.519655,-86.786469
"35222","Birmingham","AL","Mayer Lighting Showroom","3200 3rd Ave S","35222",33.518282,-86.785913
"35222","Birmingham","AL","Sherwin-Williams Floorcovering Store","2825 3rd Ave S","35233",33.515315,-86.790616
"35226","Birmingham","AL","Bo s Plumbing","1279 Atkins Trimm Blvd","35226",33.368432,-86.8407
"35242","Birmingham","AL","The Home Depot","4995 Highway 280","35242",33.4221502,-86.6953613
"35242","Birmingham","AL","Lowe's","5291 Highway 280","35242",33.42074100032048,-86.67976319789886
"35242","Birmingham","AL","Blue Rhino","236 Summit Blvd","35243",33.44802474975586,-86.73121643066406
"35242","Birmingham","AL","Benjamin Moore Preserve Paints","2815 Greystone Commercial Blvd #500","35242",33.412567138671875,-86.66604614257812
"35242","Birmingham","AL","Mayer","not_available","35243",33.449122,-86.722609
"35242","Birmingham","AL","Secure Data Recovery Services","1 Perimeter Park S","35243",33.43779823227105,-86.72492623329163
"35401","Tuscaloosa","AL","Lowe's","4900 Oscar Baxter Drive","35405",33.1672599,-87.554338
"35401","Tuscaloosa","AL","Riverside Feed And Seed","1309 30th Ave","35476",33.225555,-87.585476
"35401","Tuscaloosa","AL","Wolseley Industrial Group","1605 Queen City Ave","35401",33.1984658333333,-87.56041875
"35401","Tuscaloosa","AL","Weathertech/Totaline HVAC Parts","1600 Queen City Ave","35401",33.198384999999995,-87.560608
"35401","Tuscaloosa","AL","minuteKEY","4900 Oscar Baxter Dr","35405",33.1672477722168,-87.55419921875
"35401","Tuscaloosa","AL","Husqvarna US","3601 Greensboro Ave","35401",33.17710876464844,-87.54783630371094
"35401","Tuscaloosa","AL","Mayer Lighting","not_available","35401",33.183775557972375,-87.55164947195075
"35401","Tuscaloosa","AL","Ppg Paints","210 15th St","35401",33.19888687133789,-87.53772735595703
"35401","Tuscaloosa","AL","Anders Hardware","505 15th St","35401",33.198308000000004,-87.541789
"35401","Tuscaloosa","AL","Thompson Cat Rental Store - Tuscaloosa","3550 Joe Mallisham Pkwy","35401",33.183408,-87.61561999999999
"35401","Tuscaloosa","AL","kendall Electric","not_available","35405",33.160139655087406,-87.55598469295516
"35401","Tuscaloosa","AL","Sherwin-Williams Paint Store","230 15th St E","35401",33.198437,-87.533313
"35401","Tuscaloosa","AL","HD Cabinets","3302 McFarland Blvd E","35405",33.178952,-87.525547
"35401","Tuscaloosa","AL","Capitol Materials Inc","5801 21st Street","35401",33.193727,-87.612994
"35401","Tuscaloosa","AL","Acker Appliance Inc. Of Tuscaloosa","1600-1682 Forest Lake Dr","35401",33.201006,-87.53702
"35401","Tuscaloosa","AL","Fabulous Floors Alabama","1831 Hackberry Lane","35487",33.21471445,-87.54053655
"35401","Tuscaloosa","AL","TPG Glass","2008 8th St","35401",33.20854949951172,-87.56218719482422
"35401","Tuscaloosa","AL","Tractor Supply Co.","601 Patriot Pkwy","35405",33.126874,-87.547115
"35401","Tuscaloosa","AL","City Electric Supply Tuscaloosa","1120 35th St Ste L","35401",33.179248,-87.55475899999999
"35401","Tuscaloosa","AL","Anders Hardware","1500-1510 5th Ave","35401",33.218653308902354,-87.5779489951048
"35404","Tuscaloosa","AL","The Home Depot","1601 13th Ave East","35404",33.1953892,-87.5184425
"35404","Tuscaloosa","AL","Sumners Hardware Store","not_available","35404",33.223411560058594,-87.47296905517578
"35404","Tuscaloosa","AL","Sears","1701 McFarland Blvd E","35404",33.19369599,-87.52361856
"35404","Tuscaloosa","AL","Five Points Hardware","not_available","35453",33.18661,-87.45738
"35405","Tuscaloosa","AL","minuteKEY","1501 Skyland Blvd E","35405",33.16528,-87.518545
"35406","Tuscaloosa","AL","Home Outlet","400 McFarland Boulevard","35476",33.2386812,-87.5616783
"35406","Tuscaloosa","AL","McFarland Ace","400 McFarland Blvd Ste A2","35476",33.23828125,-87.56184387207031
"35442","Aliceville","AL","Central Hardware","119 Broad St","35442",33.128380081726704,-88.14238931392671
"35442","Aliceville","AL","Husqvarna US","119 2nd St NW","35442",33.12822341918945,-88.15487670898438
"35443","Boligee","AL","Husqvarna US","212 Main St","35462",32.84115982055664,-87.88912963867188
"35446","Buhl","AL","84 Lumber","7107 McFarland Blvd","35476",33.232953613902104,-87.63377037655154
"35446","Buhl","AL","Ferguson Waterworks","9015 Energy Lane","35476",33.232331,-87.632972
"35447","Carrollton","AL","Husqvarna","25661 Highway 17","35447",33.27971267700195,-88.08807373046875
"35463","Fosters","AL","Sears","39609 AL-69","35474",32.9883201,-87.62498625
"35463","Fosters","AL","Sears","39609 Hwy 69 S","35474",32.988284,-87.624884
"35466","Gordo","AL","Husqvarna","26415 Highway 82","35466",33.31204605102539,-87.89153289794922
"35470","Livingston","AL","Tractor Supply Co.","1404 Hwy 80 West","36732",32.494277,-87.855019
"35470","Livingston","AL","Husqvarna US","PO Box 156","36925",32.48447799682617,-88.27898406982422
"35473","Northport","AL","Lowe's","5703 Mcfarland Boulevard","35476",33.2327719,-87.6132641
"35473","Northport","AL","Northport Power Equipment","3395 McFarland Blvd","35476",33.240026,-87.589752
"35473","Northport","AL","minuteKEY","5703 McFarland Blvd","35476",33.23279571533203,-87.61309051513672
"35473","Northport","AL","Tractor Supply Co.","5510 Mcfarland Blvd Ste 100","35476",33.237725,-87.609734
"35473","Northport","AL","Northport Electrical Supply","not_available","35476",33.240525126457214,-87.58641421794891
"35473","Northport","AL","Sherwin-Williams Paint Store","2490 McFarland Blvd","35476",33.24076934910332,-87.5815387319968
"35473","Northport","AL","Husqvarna","3395 McFarland Blvd Ste B","35476",33.24003601074219,-87.58968353271484
"35473","Northport","AL","Winfileld Tool","2150 Park West Dr.","35476",33.23689297302395,-87.60449867845068
"35475","Northport","AL","Bynum Outdoor Power Equipment","622 East Columbus At","35555",33.400701373247124,-87.72002030852754
"35476","Northport","AL","Tuskaloosa Lawn Equipment","1911 24th St","35476",33.2324435,-87.5771262
"35476","Northport","AL","Husqvarna US","PO Box 776","35476",33.23084259033203,-87.58208465576172
"35501","Jasper","AL","The Home Depot","1808 Highway 78 E","35501",33.8471241,-87.2531341
"35501","Jasper","AL","Harbor Freight Tools","not_available","35504",33.84626,-87.25671
"35501","Jasper","AL","Marvin's Hardware","not_available","35503",33.849107,-87.289982
"35501","Jasper","AL","Jasper Industrial Maintenance Supply","not_available","35501",33.838057,-87.286647
"35501","Jasper","AL","Tractor Supply","1501 Highway 78 W","35501",33.84834671020508,-87.29276275634766
"35501","Jasper","AL","Posey's Store","760 20th St W","35501",33.83137893676758,-87.2829818725586
"35501","Jasper","AL","Sherwin-Williams Paint Store","2501 Highway 78 E","35501",33.842063903808594,-87.24544525146484
"35501","Jasper","AL","Sears","724 Parkland S/C North","35501",33.84962278014674,-87.28329809571127
"35501","Jasper","AL","Tractor Supply Co.","1501 Hwy 78 West","35501",33.849466,-87.289169
"35501","Jasper","AL","Jasper Decorating Center","407 9th Ave","35501",33.847569,-87.2852901
"35501","Jasper","AL","Husqvarna","1005 Old Birmingham Hwy","35501",33.82685852050781,-87.26333618164062
"35503","Jasper","AL","Ace Hardware of Curry","5100 Curry Hwy, Ste 100","35503",33.9400369,-87.220078
"35503","Jasper","AL","Curry True Value Hardware","5100 Curry Hwy -","35503",33.94023132,-87.22107697
"35503","Jasper","AL","Husqvarna","6000 Curry Hwy","35503",33.95100784301758,-87.21415710449219
"35540","Addison","AL","Powell Building Supply","29865 Highway 278","35540",34.19878005981445,-87.19296264648438
"35541","Arley","AL","Williams Hardware","not_available","35541",34.058098,-87.22617
"35544","Beaverton","AL","B & P Hardware","515 Front Street","35586",33.90202918757806,-88.13382625579834
"35553","Double Springs","AL","Ken's Outdoor Power","not_available","35553",34.14857,-87.402368
"35555","Fayette","AL","Husqvarna US","622 Columbus St E","35555",33.683868408203125,-87.82319641113281
"35555","Fayette","AL","Lawrence Farm & Lumber","Hwy 129","not_available",33.7319,-87.811148
"35555","Fayette","AL","Madden Construction Supply","820 9 th Street N.","not_available",33.69401931762695,-87.83551025390625
"35555","Fayette","AL","Tractor Supply Co.","1616 Temple Ave North","35555",33.70709228515625,-87.82365417480469
"35563","Guin","AL","TRUE VALUE OF WINFIELD","2250 US Highway 43 Ste 100","35594",33.938568115234375,-87.8344955444336
"35563","Guin","AL","Of Winfield","2250 Highway 43 -","35594",33.92852,-87.81829
"35563","Guin","AL","Spanns True Value","976 Us Hwy 43","35594",33.928646087646484,-87.81607055664062
"35563","Guin","AL","McCluskey Lumber","4595 US Highway 43","35563",33.953551681350746,-87.86994291832566
"35565","Haleyville","AL","Elliott True Value","1297 11th Ave","35565",34.2169189453125,-87.62091827392578
"35565","Haleyville","AL","Husqvarna","39650 Highway 195","35565",34.25946807861328,-87.55860900878906
"35570","Hamilton","AL","Tractor Supply Co.","1500 Military St South Ste 1","35570",34.12334,-87.99137
"35570","Hamilton","AL","B & B Farm And Garden Supply","not_available","35570",34.145499,-87.988137
"35582","Red Bay","AL","Tiffin Supply","not_available","35582",34.441589,-88.142537
"35582","Red Bay","AL","Underwood True Value Hardware","1104 4th St Nw","35582",34.460289001464844,-88.1535415649414
"35582","Red Bay","AL","Husqvarna","1104 4th St NW","35582",34.43132019042969,-88.14019012451172
"35586","Sulligent","AL","Lamar Lumber","not_available","35592",33.750407,-88.110288
"35586","Sulligent","AL","Husqvarna","44820 HWY#17","35592",33.75939178466797,-88.10850524902344
"35593","Vina","AL","Silver Dollar Sales","not_available","38847",34.489594447877224,-88.17902032523256
"35601","Decatur","AL","The Home Depot","1225 Wimberly Dr SW","35603",34.55737370707619,-87.0055308938027
"35601","Decatur","AL","Lowe's","1641 Beltline Road SW","35601",34.5679779,-87.0143661
"35601","Decatur","AL","Harbor Freight","not_available","35601",34.565429,-87.012623
"35601","Decatur","AL","Craig Batteries Inc","1042 Beltline Rd SE","35601",34.561628,-86.97861
"35601","Decatur","AL","Sherwin-Williams Paint Store","1820 6th Ave SE","35601",34.575604999999996,-86.973279
"35601","Decatur","AL","Decatur Plumbing Supply Inc","1705 Creighton Ave SE","35601",34.579806,-86.980953
"35601","Decatur","AL","Stewart Irby","not_available","35603",34.591413,-87.036295
"35601","Decatur","AL","Habitat For Humanity Of Morgan County ReStore","1123 Central Pkwy SW","35601",34.589982,-86.986479
"35601","Decatur","AL","Dobbs Equipment Co","1629 Creighton Ave SE","35601",34.580490000000005,-86.98094499999999
"35601","Decatur","AL","Shumake Furniture Co. Inc.","2119 6th Ave SE","35601",34.568782,-86.974339
"35601","Decatur","AL","Vallen","3158 Highway 20","35601",34.61597442626953,-87.05696868896484
"35601","Decatur","AL","Cabinet Supply","600 McEntire Ln","35601",34.604610443115234,-87.03511810302734
"35601","Decatur","AL","Wolseley Industrial Group","685 McEntire Lane","35601",34.607296000000005,-87.034035
"35601","Decatur","AL","Valley Overhead Door","1948 Central Pkwy SW","35601",34.5737258325118,-86.99038130497908
"35601","Decatur","AL","Ppg Paints","2117 Beltline Rd SW","35601",34.580921000000004,-87.022262
"35601","Decatur","AL","Habitat For Humanity ReStore","620 Wilson St NE","35601",34.609341,-86.97596999999999
"35601","Decatur","AL","B & B Landscaping Supplies, LLC","2408 Beltline Rd SW","35601",34.59225082397461,-87.0291519165039
"35601","Decatur","AL","Irby","144 Woodall Rd","35601",34.61542689225738,-87.05154418945312
"35603","Decatur","AL","Morgan Farmers Cooperative","1935 U.S. 31","35640",34.54874916160158,-86.97414754846174
"35603","Decatur","AL","Decatur Decorating","1118 6th Ave SE","35601",34.59022,-86.979962
"35611","Athens","AL","Lowe's","1109 US Highway 72 East","35611",34.7872925,-86.9513799
"35611","Athens","AL","Tractor Supply Co.","601 Us Hwy 72 West","35611",34.788615,-86.974441
"35611","Athens","AL","Bates Septic Tank Pumping Service","15511 Quinn Rd","35611",34.8067791,-87.0445366
"35611","Athens","AL","Sherwin-Williams Paint Store","697 E Hobbs St","35611",34.80365530045781,-86.95478081703186
"35611","Athens","AL","DISCOUNT DAN'S","16800 US Highway 72","35611",34.79005432128906,-87.02169799804688
"35611","Athens","AL","Habitat for Humanity Restore","not_available","35611",34.79105895640417,-87.00863649723425
"35611","Athens","AL","Collins Supply","17616 US Highway 72","35611",34.790313720703125,-87.00713348388672
"35611","Athens","AL","Husqvarna US","PO Box 368","35612",34.79719924926758,-87.0091323852539
"35611","Athens","AL","Husqvarna","525 US Highway 72 W","35611",34.789615631103516,-86.97380828857422
"35613","Athens","AL","Isbell Ready-Mix Concrete","12999 Burgreen Rd","35758",34.74361038208008,-86.79806518554688
"35613","Athens","AL","Madison Lawn Center","30515 US Highway 72","35756",34.74871399069393,-86.78989671368187
"35613","Athens","AL","Take 5 Plumbing and Electrical","26295 US Highway 72","35613",34.76554870605469,-86.86151885986328
"35616","Cherokee","AL","Cherokee Ace Hardware","8075 Hwy 72","35616",34.7623,-88.025499
"35616","Cherokee","AL","Thorn's Plumbing","555 Water St","35616",34.735495,-87.908973
"35619","Danville","AL","Tractor Supply Co.","11655 Al Hwy 157","35650",34.4842643737793,-87.2763671875
"35619","Danville","AL","minuteKEY","15445 AL Highway 24","35650",34.4955417,-87.2769416
"35619","Danville","AL","Eletrical Outlet Home & Hardware Store","not_available","35650",34.484464,-87.2759
"35619","Danville","AL","Husqvarna","12955 ALABAMA HWY 157","35650",34.50142288208008,-87.28522491455078
"35621","Eva","AL","Hopper Building Supply","5564 Highway 55 E","35621",34.31239018538773,-86.73346638679504
"35622","Falkville","AL","Ryan Equipment Center, Inc.","1617 Thompson Rd","35640",34.4127319342309,-86.9016730688113
"35630","Florence","AL","Lowe's","130 Cox Creek Pkwy South","35630",34.8279047,-87.6304899
"35630","Florence","AL","The Home Depot","351 Seville St","35630",34.83912386200829,-87.62927055358881
"35630","Florence","AL","Benjamin Moore","not_available","35630",34.802841,-87.669286
"35630","Florence","AL","United True Value","2402 Florence Blvd","35630",34.825606,-87.638758
"35630","Florence","AL","Block USA","1506 Veterans Dr","35630",34.80197525024414,-87.65400695800781
"35630","Florence","AL","minuteKEY","130 Cox Creek Pkwy S","35630",34.827484130859375,-87.62923431396484
"35630","Florence","AL","Peck Ace Hardware","1118-20 N Wood Ave","35630",34.816206,-87.680001
"35630","Florence","AL","Sweetwater Paint & Supply Company","2801 Mall Rd Ste 13","35630",34.83945,-87.639739
"35630","Florence","AL","Jaynes Tractor Supply","625 Thompson St","35630",34.815451,-87.657893
"35630","Florence","AL","Discount Dan'S","1010 E 2nd St","35660",34.77564069610366,-87.6770120576363
"35630","Florence","AL","True Value","1129-1143 N Wood Ave","35630",34.81591522693634,-87.68014132976532
"35630","Florence","AL","Weathertech/Totaline","621 Poplar St","35630",34.797429,-87.666892
"35630","Florence","AL","Tallman Company","625 Veterans Dr","35630",34.799399,-87.666035
"35630","Florence","AL","Shoals Appliance Parts","511 S Cherry St","35630",34.798839,-87.666431
"35630","Florence","AL","Sherwin-Williams Paint Store","2079 Florence Blvd","35630",34.824542,-87.647728
"35633","Florence","AL","Tractor Supply Co.","535 Avalon St","35661",34.745905,-87.669762
"35633","Florence","AL","Young Welding Supply Inc.","101 E 1st St","35660",34.759199342771595,-87.69838411621801
"35633","Florence","AL","Discount Dans","E 2nd Street","35660",34.75956030745425,-87.68061809304443
"35633","Florence","AL","Kilgore","not_available","35661",34.759397,-87.671713
"35633","Florence","AL","Sheffield Hardware","309 N Montgomery Ave","35660",34.76128793689093,-87.69914478063583
"35633","Florence","AL","Fox A-1 Plumbing","not_available","35660",34.76063537597656,-87.69857025146484
"35634","Florence","AL","Killen True Value","1929 Hwy 72","35645",34.858877,-87.535891
"35634","Florence","AL","Husqvarna","3516 Florence Blvd","35634",34.83741760253906,-87.60236358642578
"35640","Hartselle","AL","Lowe's","1807 Highway 31 NW","35640",34.462467,-86.9514354
"35640","Hartselle","AL","Corum's Building Center","not_available","35640",34.443065881769556,-86.94306723604845
"35640","Hartselle","AL","minuteKEY","1201 Highway 31 NW","35640",34.4525531,-86.9486178
"35640","Hartselle","AL","Ace Hardware","408 Highway 31 NW","35640",34.44525146484375,-86.94286346435547
"35640","Hartselle","AL","George Plumbing","2090 Hwy 31 NW","35640",34.46884437349274,-86.95528009835172
"35640","Hartselle","AL","Tractor Supply Co.","800 Hwy 31 Southwest Ste N","35640",34.437369,-86.938204
"35640","Hartselle","AL","Aaa Stewart's Roofing & Siding, Inc.","726 Frost St SW","35640",34.436466217041016,-86.94508361816406
"35643","Hillsboro","AL","Sears","Alabama 157","35650",34.54151731410991,-87.30709361612065
"35646","Leighton","AL","Pool Farm Equipment","not_available","35672",34.591121673583984,-87.4295883178711
"35646","Leighton","AL","Valley Air","2020","35661",34.767163,-87.60407
"35652","Rogersville","AL","Lauderdale County Cooperative","not_available","35652",34.8535,-87.3881
"35653","Russellville","AL","minuteKEY","13675 Highway 43","35653",34.4953424,-87.7288703
"35653","Russellville","AL","Tractor Supply Co.","14001 Hwy 43 Ste 14, Ste 14","35653",34.49703,-87.724525
"35653","Russellville","AL","Green's Dependable  Hardware","15220A Highway 43","35653",34.5119587,-87.7174003
"35653","Russellville","AL","Green's Dependable Hardware","15220 Highway 43 Ste A","35653",34.5122068816065,-87.71651841757169
"35653","Russellville","AL","Ace Hardware","not_available","35654",34.512264,-87.71727
"35654","Russellville","AL","A & L Discount","Hwy 43","35654",34.58490181,-87.67785638
"35660","Sheffield","AL","Sherwin-Williams Paint Store","1126 Woodward Ave","35661",34.75018816054115,-87.66788255268537
"35660","Sheffield","AL","Mini Motors","602 Tyler Ave","35661",34.74616622924805,-87.66690826416016
"35661","Muscle Shoals","AL","Lowe's","3415 Woodward Avenue","35661",34.7264624,-87.6655046
"35661","Muscle Shoals","AL","Ford City Ace Hardware","14497 County Line Rd","35661",34.784568786621094,-87.52922058105469
"35661","Muscle Shoals","AL","yarbrough cable service","2822 2nd St","35661",34.75860595703125,-87.6279296875
"35661","Muscle Shoals","AL","Motion Industries, INC.","2nd Street","not_available",34.75910949707031,-87.66197204589844
"35661","Muscle Shoals","AL","minuteKEY","3415 Woodward Ave","35661",34.726406,-87.665539
"35674","Tuscumbia","AL","Palm Beach Classic Hardware","6758 N Military Trl Ste 107","33407",34.645512899673804,-87.76350975036621
"35674","Tuscumbia","AL","Husqvarna","1030 Highway 20","35674",34.703678131103516,-87.65185546875
"35674","Tuscumbia","AL","Firestone Building Products","not_available","35674",34.69146630292772,-87.65776380711101
"35739","Ardmore","AL","53 Farm & Hardware","9210 Highway 53","35739",34.93637912678884,-86.77552074193954
"35740","Bridgeport","AL","Ace Hardware of Stevenson LLC","43146 Us Highway 72","35772",34.887782,-85.815264
"35741","Brownsboro","AL","Ace Hardware","5549 Highway 431 S","35741",34.691821000000004,-86.506833
"35747","Grant","AL","Carnes Ace Hardware","140 Peck Sutton Rd","35747",34.513339,-86.256901
"35747","Grant","AL","Piggly Wiggly #82 Ace","10199 Highway 431 S","35760",34.549296999999996,-86.43009599999999
"35748","Gurley","AL","Maysville General Store","Maysville Road","35748",34.768268417117426,-86.42858505249023
"35749","Harvest","AL","The Home Depot","4045 Lawson Ridge Dr","35757",34.7571234,-86.739393
"35749","Harvest","AL","Lowe's","7920 Highway 72 West","35758",34.7547567,-86.7457251
"35749","Harvest","AL","Capitol Materials Inc","119 Castle Drive","35758",34.74962237,-86.708903
"35749","Harvest","AL","Ferguson Plumbing Supply","334 Dan Tibbs Rd Nw","35806",34.777476,-86.666746
"35749","Harvest","AL","Gulfeagle Supply","not_available","35806",34.77977,-86.652893
"35749","Harvest","AL","Klassics Flooring","7186 Highway 72 W","35758",34.756474,-86.71600699999999
"35749","Harvest","AL","Sherwin-Williams Paint Store","7529 Highway 72 W","35758",34.755446,-86.729886
"35749","Harvest","AL","Splinters N Spirits","6945 University Drive NW, Suite F","35806",34.7524519,-86.7072314
"35749","Harvest","AL","minuteKEY","7920 Highway 72 W","35758",34.754993,-86.746075
"35749","Harvest","AL","Woodford Lumber","not_available","35758",34.750703,-86.711099
"35749","Harvest","AL","minuteKEY","7140 Wall Triana Hwy","35757",34.793582916259766,-86.75017547607422
"35749","Harvest","AL","GLS Supply","180 Harding Way","35806",34.760456,-86.681415
"35749","Harvest","AL","Johnson Products","325 Blake Bottom Rd NW","35806",34.780446000000005,-86.651151
"35749","Harvest","AL","TriGreen Equipment Huntsville","4550 Research Park Blvd NW","35806",34.764994,-86.671572
"35749","Harvest","AL","Nuts & Bolts","3043-3069 Jeff Rd NW","35749",34.846004316666665,-86.71123123333334
"35749","Harvest","AL","Sherwin-Williams Floorcovering Store","131 Import Cir NW","35806",34.777858,-86.662304
"35750","Hazel Green","AL","Hazel Green Bldg Sply Inc","15409 Hwy 231-431 N","35750",34.9324999,-86.571799
"35750","Hazel Green","AL","minuteKEY","14595 Hwy. 231-431 N.","35750",34.935299,-86.569896
"35750","Hazel Green","AL","Fixer Upper","275 Narrow Ln","35761",34.9087803,-86.5326976776123
"35750","Hazel Green","AL","Husqvarna","15151 Highway 231 431 N","35750",34.96200942993164,-86.56852722167969
"35752","Hollywood","AL","The Home Depot","24635 John T Reid Pkwy","35768",34.6645601,-86.0097836
"35752","Hollywood","AL","minuteKEY","24833 John T Reid Pkwy","35768",34.668643951416016,-86.00643920898438
"35752","Hollywood","AL","Sherwin-Williams Paint Store","23650 John T Reid Pkwy","35768",34.656333424805126,-86.02290630340576
"35752","Hollywood","AL","Tri Green Equipment","not_available","35769",34.690643,-85.989723
"35756","Madison","AL","84 Lumber","not_available","35756",34.671583,-86.80782
"35756","Madison","AL","Airgas","191 Cochran Rd SW","35824",34.668534,-86.748347
"35756","Madison","AL","Weathers Ace Hardware of Madison","141 Hughes Rd","35758",34.7137999,-86.741699
"35756","Madison","AL","H&E Equipment Services","190 Production Ave","35758",34.67268,-86.769535
"35756","Madison","AL","Norandex","250 Production Ave","35758",34.673726,-86.772044
"35756","Madison","AL","Sherwin-Williams Product Finishes","400 Production Ave","35758",34.673482,-86.776561
"35756","Madison","AL","Newman Industrial Supply","9059 Huntsville-Decatur Hwy","35758",34.673968,-86.756815
"35756","Madison","AL","Southern Fastening Systems","9059 Madison Blvd","35758",34.673968,-86.756815
"35756","Madison","AL","Fastening Solutions","108 Jetplex Lane, SuiteA","35758",34.670618,-86.77544499999999
"35756","Madison","AL","Lumber Logistics","8697 Madison Blvd","35758",34.678507,-86.743538
"35761","New Market","AL","Budget Roofing","1499 Winchester Rd NE","35811",34.806802000000005,-86.51868
"35763","Owens Cross Roads","AL","Lowe's","6584 US Highway 431 South","35763",34.6631394,-86.4871115
"35763","Owens Cross Roads","AL","Benjamin Moore","not_available","35763",34.65523273985906,-86.48131451414298
"35763","Owens Cross Roads","AL","Sherwin-Williams Paint Store","6466 Highway 431 S","35763",34.664835,-86.48748499999999
"35768","Scottsboro","AL","Tractor Supply Co.","1501 South Broad Ste A","35768",34.65458609474418,-86.03405139930842
"35768","Scottsboro","AL","John deere","Hwy 72","Al",34.65491894076858,-85.99888887463437
"35768","Scottsboro","AL","Lethcer Grocery","not_available","35776",34.749057,-86.175438
"35768","Scottsboro","AL","Husqvarna","2506 S Broad St","35769",34.6376953125,-86.04167938232422
"35772","Stevenson","AL","Ace Hardware of Stevenson LLC","43146 US Highway 72","35772",34.8736867861741,-85.8126596608492
"35772","Stevenson","AL","Husqvarna","101 KY. AVE","35772",34.86777114868164,-85.83853149414062
"35801","Huntsville","AL","All Phase Supply","meridan street","35801",34.741812,-86.585864
"35801","Huntsville","AL","Ppg Paints","2310 Bob Wallace Ave SW","35805",34.71161651611328,-86.59525299072266
"35801","Huntsville","AL","Lewter Hardware Co.","222 Washington St NE","35801",34.733461,-86.586545
"35801","Huntsville","AL","Sherwin-Williams Commercial Paint Store","621 Meridian St N","35801",34.73813002231873,-86.58559083938599
"35801","Huntsville","AL","Ferguson Waterworks","29639 Old Highway 20","35756",34.74956,-86.57673
"35801","Huntsville","AL","ABC SUPPLY","917 Meridian St N","35801",34.742601,-86.58585500000001
"35801","Huntsville","AL","Harrison Brothers Hardware","124 Southside Sq","35801",34.73018006670259,-86.58450694135493
"35801","Huntsville","AL","The Battery Store Inc","1313 Washington St NW","35801",34.747733000000004,-86.588987
"35801","Huntsville","AL","Radiology","not_available","35801",34.720561,-86.580299
"35801","Huntsville","AL","Sherwin-Williams Paint Store","1107 Monroe St SW","35801",34.72078,-86.589936
"35801","Huntsville","AL","minuteKEY","3031 Memorial Pkwy SW","35801",34.70360565185547,-86.58563232421875
"35801","Huntsville","AL","Husqvarna","2115 Metro Cir SW","35801",34.70042037963867,-86.59244537353516
"35801","Huntsville","AL","nexAir","3095 Leeman Ferry Rd","35801",34.698221000000004,-86.591286
"35802","Huntsville","AL","The Home Depot","10012 S Memorial Pkwy","35803",34.6454311,-86.5688505
"35802","Huntsville","AL","Lowe's","10050 S Memorial Parkway","35803",34.6423265,-86.5690164
"35802","Huntsville","AL","Customers Service Desk at Lowes","not_available","35802",34.64261001794699,-86.56882023002909
"35802","Huntsville","AL","Lumber Liquidators Flooring","8402 Whitesburg Dr SW","35802",34.65506238692707,-86.56713325791833
"35802","Huntsville","AL","Sherwin Williams","Memorial Parkway South","35802",34.64939693026634,-86.56473447068869
"35802","Huntsville","AL","Sherwin-Williams Paint Store","8410 Memorial Pkwy SW","35802",34.656454,-86.569999
"35802","Huntsville","AL","HBA Landscaping","3501 Alpine St SW","35805",34.701564000000005,-86.61008100000001
"35805","Huntsville","AL","Harbor Freight Tools","4321 University Dr NW #C","35816",34.73379816502762,-86.63507868464737
"35805","Huntsville","AL","Ewing Irrigation","2703 University Dr NW","35816",34.736379912250975,-86.60750716924667
"35805","Huntsville","AL","wittichen refrigeration supplies","2609 10th Ave SW, Huntsville, AL 35805","35805",34.720801,-86.60566
"35805","Huntsville","AL","Byte Size","not_available","35816",34.73569461480176,-86.64730575782454
"35805","Huntsville","AL","Fastenal","Triana Blvd.","not_available",34.710136999999996,-86.610754
"35805","Huntsville","AL","Surplus Warehouse","4710 University Drive Suite P","35816",34.737279,-86.64732
"35805","Huntsville","AL","Thompson Cat Rental Store - Huntsville","3600 Governors Dr","35805",34.7219436,-86.6143837
"35805","Huntsville","AL","Surplus WareHouse Huntsville","4710 University Drive","35816",34.7370136,-86.6471889
"35805","Huntsville","AL","Buddy's Small Engine","2500 Triana Blvd SW","35805",34.714329,-86.609627
"35805","Huntsville","AL","Huntsville Hardware","2511 Triana Blvd SW","35805",34.71422853551726,-86.60898594165361
"35805","Huntsville","AL","Sears","5901 University Drive NW","35806",34.738428,-86.668897
"35805","Huntsville","AL","Tile & Stone Market (New location)","3805 Governors Dr SW","35805",34.719871,-86.618788
"35805","Huntsville","AL","Fox Appliance Parts","3221 Long Ave SW","35805",34.712458000000005,-86.611135
"35805","Huntsville","AL","City Lumber","not_available","35805",34.713056,-86.611385
"35805","Huntsville","AL","Husqvarna","2811 University Dr NW","35816",34.73527908325195,-86.6100082397461
"35806","Huntsville","AL","Northern Tool + Equipment Store","7252 Governors W","35758",34.701742,-86.690104
"35806","Huntsville","AL","Alabama Drywall Supply","4730 University Square","35816",34.743733,-86.660404
"35806","Huntsville","AL","360 Feedback Warrior","475 Quality Cir NW","35806",34.70454788208008,-86.69224548339844
"35806","Huntsville","AL","Sears","Madison Square Mall","35806",34.743055151420016,-86.67910169590213
"35810","Huntsville","AL","Lowe's","3505 Memorial Pkwy NW","35810",34.77300568,-86.58786025
"35810","Huntsville","AL","Tractor Supply Co.","3240c Memorial Pkwy Northwest","35810",34.767276,-86.585813
"35810","Huntsville","AL","W. W. Supplies","1830 Keats Dr NW","35810",34.757325,-86.595019
"35810","Huntsville","AL","Professional Sales Group Of North Alabama, Inc.","3410 Blue Spring Rd NW","35810",34.768683,-86.5984469
"35810","Huntsville","AL","minuteKEY","4226 Oakwood Ave NW","35810",34.750257,-86.633821
"35810","Huntsville","AL","Madison Lumber","206 Wholesale Ave NE","35811",34.772552490234375,-86.5654067993164
"35810","Huntsville","AL","Old Builders Square Building","not_available","35810",34.75876235961914,-86.59351348876953
"35816","Huntsville","AL","The Home Depot","1035 Memorial Pkwy","35801",34.7414916,-86.6032099
"35816","Huntsville","AL","Park Supply Company","4736 Commercial Dr NW","35816",34.741206,-86.634008
"35816","Huntsville","AL","City Electric Supply Huntsville Al","4800A Commercial Dr NW Unit A","35816",34.741053,-86.635249
"35816","Huntsville","AL","East Coast Metal Distributors","1205 Putman Dr NW","35816",34.739709000000005,-86.634724
"35901","Gadsden","AL","Lowe's","615 George Wallace Drive","35903",33.9976685,-85.9964064
"35901","Gadsden","AL","Marvin's","not_available","35901",34.022377773828524,-86.0189151763916
"35901","Gadsden","AL","Lowes of Gadsden","not_available","35903",33.99788856404374,-85.9963120373818
"35901","Gadsden","AL","Northeast Landscape Supply","5895 Main St","35903",33.99921,-85.86041
"35901","Gadsden","AL","Dons Paint & More","not_available","35907",33.929014,-86.023629
"35901","Gadsden","AL","A.C.E. Rents","301 N 3rd St","35901",34.01552200317383,-85.99951171875
"35901","Gadsden","AL","A. C. E. Rentals Alabama Contractors Equipment","Reservoir St","35901",34.01823578730194,-85.99738864261438
"35901","Gadsden","AL","Sherwin-Williams Paint Store","2018 Rainbow Dr","35901",33.974087944070355,-86.01526737213135
"35901","Gadsden","AL","Hudak Hardware & Paint Supply Co","2104 Rainbow Dr","35901",33.973614276763875,-86.01646974994064
"35901","Gadsden","AL","minuteKEY","615 George Wallace Dr","35903",33.99763107299805,-85.99671936035156
"35901","Gadsden","AL","minuteKEY","340 E Meighan Blvd","35903",34.012372,-85.9874602
"35901","Gadsden","AL","Tractor Supply Co.","2900 East Meighan Blvd","35903",33.975116,-85.950334
"35901","Gadsden","AL","Plumbers Wholesale Supply Inc","2100 Forrest Ave","35904",34.01893099999999,-86.033169
"35901","Gadsden","AL","Husqvarna","671 W Meighan Blvd","35901",34.0177001953125,-86.00765228271484
"35904","Gadsden","AL","Building Systems and Supply","not_available","35906",33.973941802978516,-86.0563735961914
"35904","Gadsden","AL","The Door Store","not_available","35904",34.022948,-86.063361
"35904","Gadsden","AL","Etowah Builders Supply","205 W Grand Ave, Rainbow City, AL 35906","35906",33.95861959691977,-86.04368639081324
"35906","Rainbow City","AL","Colvin's Welding & Plumbing","3600-3698 Alabama 25","35906",33.95185953,-86.04368568
"35906","Rainbow City","AL","J&R Lumber","not_available","35953",33.870399,-86.148576
"35950","Albertville","AL","Lowe's","11190 US Highway 431","35976",34.2998596,-86.2680239
"35950","Albertville","AL","Weathers True Value Hardware & Appliance","201 N Broad St","35950",34.26915657,-86.20779645
"35950","Albertville","AL","Whitchens","not_available","35951",34.277919,-86.209387
"35950","Albertville","AL","Ross Graden Lumber Co","6737 US Highway 431","35950",34.27184225359406,-86.19935274124146
"35950","Albertville","AL","Inline Electric Supply","8975 US Highway 431","35950",34.285898,-86.233491
"35950","Albertville","AL","Husqvarna US","PO Box 457","35950",34.2587890625,-86.23045349121094
"35950","Albertville","AL","Southern Pipe & Supply","9471 US Hwy 431","35950",34.28831982497869,-86.24039860791689
"35950","Albertville","AL","Sherwin-Williams Paint Store","6245 US Highway 431","35950",34.266385026818014,-86.19383811950682
"35950","Albertville","AL","Ross Graden Lumber","not_available","35950",34.27156448364258,-86.19906616210938
"35950","Albertville","AL","Weather's Appliance","3876 US Hwy. 431","35950",34.2395303,-86.1679932
"35950","Albertville","AL","Thacker Paint Co.","100 E McKinney Ave","35950",34.27284,-86.20544
"35950","Albertville","AL","Cook & Sons Ace Hardware Inc","7008 US Highway 431","35950",34.275883,-86.204477
"35950","Albertville","AL","Weather's Appliance","26 Floyd Dr.","35951",34.23341369628906,-86.1629867553711
"35950","Albertville","AL","Lowes  Guntersville Al","not_available","35976",34.30441350533832,-86.30775474598366
"35950","Albertville","AL","Johnson Lumber Co.","110 Andrew St","35950",34.26719944590265,-86.2036117418815
"35950","Albertville","AL","Husqvarna","220A N Carlisle St","35950",34.27008819580078,-86.20665740966797
"35952","Altoona","AL","Snead Ag Supply","st hwy 278","35952",34.118995666503906,-86.39241027832031
"35952","Altoona","AL","dixon tires","not_available","35954",34.04601206940861,-86.1584715146212
"35952","Altoona","AL","Husqvarna","11174 US Highway 278 W","35952",34.051483154296875,-86.18441009521484
"35953","Ashville","AL","Husqvarna US","PO Box 541","35953",33.81663131713867,-86.24298095703125
"35953","Ashville","AL","Ashville Mobile Home Parts","36235 US 231","35953",33.85159945579106,-86.2774908542633
"35953","Ashville","AL","Elders Hardware Supply","US Het 231","35953",33.84700012207031,-86.27043914794922
"35953","Ashville","AL","Alabama Mailbox Co","139 Turkey Hollow Ln","35953",33.817335,-86.22162
"35953","Ashville","AL","Teagues","6th Ave, Ashville, AL 35953","35953",33.83637961955339,-86.25426292419434
"35953","Ashville","AL","Husqvarna","399 5TH STREET","35953",33.838584899902344,-86.25508117675781
"35954","Attalla","AL","Tractor Supply Co.","2085 Us Hwy 431","35957",34.215786,-86.159347
"35954","Attalla","AL","Weathers Hardware & Appliance","10055 Al Highway 168","35957",34.198298,-86.166793
"35954","Attalla","AL","Farm Town of Sardis City","4110 Sardis Rd","35956",34.17495346069336,-86.07696533203125
"35954","Attalla","AL","Etowah Ace Hardware","1429 3rd St SW","35954",34.0063699,-86.113229
"35954","Attalla","AL","Husqvarna US","PO Box 748","35957",34.148101806640625,-86.14806365966797
"35954","Attalla","AL","Fastenal","not_available","35957",34.2274169921875,-86.16177368164062
"35956","Boaz","AL","Husqvarna","202 WEST MILL AVE.","35957",34.1984748840332,-86.16654205322266
"35957","Boaz","AL","Husqvarna US","PO Box 47","35964",34.171470642089844,-86.32124328613281
"35959","Cedar Bluff","AL","Tractor Supply Co.","880 Chesnut Bypass","35960",34.162172785342314,-85.69011208465577
"35960","Centre","AL","webb concrete and bbuilding materials","1414 Main St","35960",34.14244842529297,-85.65650939941406
"35960","Centre","AL","Husqvarna","721 W Main St","35960",34.153621673583984,-85.6863021850586
"35961","Collinsville","AL","Lowe's","1600 Glenn Boulevard SW","35968",34.4357324,-85.7550105
"35961","Collinsville","AL","Graves Hardware","not_available","35961",34.26449989939368,-85.86178040575672
"35961","Collinsville","AL","Machine Specialists Inc","139 Union Grove Rd S","35962",34.28463363647461,-85.97496795654297
"35961","Collinsville","AL","Husqvarna","36 SOUTH VALLEY AVE","35961",34.264503479003906,-85.86357879638672
"35962","Crossville","AL","Geraldine Hardware","41474 Al Hwy 75","35974",34.33297223333334,-86.02038268333334
"35966","Flat Rock","AL","Smith's Ace Hardware","11725 HWY 75","35981",34.6957,-85.6688
"35967","Fort Payne","AL","Builders Supply","not_available","35967",34.435578,-85.725127
"35967","Fort Payne","AL","Johnson Lumber","58 Lofton Ave","35986",34.494127,-85.845297
"35967","Fort Payne","AL","Husqvarna US","PO Box 2030","35986",34.499237060546875,-85.84597778320312
"35967","Fort Payne","AL","My Supply","218 Godfrey Ave NE","35967",34.44274139404297,-85.71820831298828
"35967","Fort Payne","AL","Lowes","2728 Gault Ave","35967",34.467657400728434,-85.71168954677765
"35967","Fort Payne","AL","Sherwin-Williams Paint Store","500 Dekalb Plaza Blvd SW","35967",34.43208032036076,-85.73545932769774
"35967","Fort Payne","AL","Tractor Supply","Daklab Plaza","35967",34.44233769219549,-85.72162639193928
"35967","Fort Payne","AL","s+s wholesale","not_available","35986",34.490577697753906,-85.83143615722656
"35967","Fort Payne","AL","B. & R. Sales","not_available","35968",34.467196184673135,-85.7853821939607
"35967","Fort Payne","AL","Tractor Supply Co.","100 Dekalb Plaza Blvd Southwest","35967",34.430986,-85.733277
"35967","Fort Payne","AL","Husqvarna","4012 MAIN ST. EAST","35986",34.46942138671875,-85.7866439819336
"35967","Fort Payne","AL","Lydia's Ace Hardware","698 Main St E","35986",34.48891067504883,-85.83660888671875
"35976","Guntersville","AL","Weather's Appliance","1326 Gunter Ave.","35976",34.347129,-86.3030062
"35976","Guntersville","AL","Valley Auto","1315-1399 Starnes St","35976",34.34867573333333,-86.30676281666666
"35976","Guntersville","AL","Ferguson Fire & Fabrication","8305 Alabama Hwy 79 S","35976",34.358363,-86.304847
"35976","Guntersville","AL","Braggs Ace Hardware Inc","1536 Blount Ave","35976",34.347082,-86.302481
"35978","Henagar","AL","Wootten Ag & Lawn","19576","35981",34.69330350035864,-85.6669732572905
"36005","Banks","AL","Husqvarna","11 County Road 6605 # 223-SACO","36081",31.985998153686523,-85.79339599609375
"36006","Billingsley","AL","Feed And Seed","3358 Highway 82 W","36006",32.628509521484375,-86.73835754394531
"36010","Brundidge","AL","Lowe's","not_available","36079",31.777791870759494,-85.94161606164438
"36010","Brundidge","AL","Harbor Freight","not_available","36081",31.780807,-85.949428
"36010","Brundidge","AL","Lowe's","1421 US Highway 231 South","36081",31.7775802,-85.941719
"36022","Deatsville","AL","Tractor Supply Co.","3791 Hwy 14","36054",32.519034,-86.372662
"36022","Deatsville","AL","minuteKEY","145 Kelley Blvd","36054",32.49380874633789,-86.39872741699219
"36022","Deatsville","AL","SCS Chicken Coop","not_available","36054",32.501896,-86.386737
"36022","Deatsville","AL","Marvins","162 Millridge Dr","36054",32.520042419433594,-86.37250518798828
"36022","Deatsville","AL","Husqvarna","2307 Pelham Pkwy","35124",32.61155319213867,-86.4794921875
"36024","Eclectic","AL","Russell Do It Center eclectic","37 Central Rd","36024",32.65610885620117,-86.04869079589844
"36024","Eclectic","AL","Russell Do It Center","Hwy 63","36024",32.661779366666664,-86.06682816666667
"36024","Eclectic","AL","Tallassee Power & Equipment","not_available","36078",32.57623291015625,-85.9880599975586
"36027","Eufaula","AL","Marvin's","Hwy 431","36027",31.874168395996094,-85.15386962890625
"36027","Eufaula","AL","Tractor Supply Co.","1021 South Eufaula Ave","36027",31.880598068237305,-85.1465072631836
"36027","Eufaula","AL","Sears","1234 North Eufaula Avenue","36027",31.919272,-85.148464
"36033","Georgiana","AL","Husqvarna US","PO Box 739","36033",31.653322219848633,-86.74303436279297
"36033","Georgiana","AL","Husqvarna","200 INDUSTRIAL DR","36033",31.643949508666992,-86.7245101928711
"36033","Georgiana","AL","Corley’s Hardware & More","14 Main Street","36456",31.541852,-86.71475760000001
"36035","Goshen","AL","Dunns True Value","804 Hwy 231 S","36081",31.93301,-86.01988
"36036","Grady","AL","Husqvarna US","103 DUBLIN LANE  HIGHWAY 94","36069",32.032371520996094,-86.1616439819336
"36037","Greenville","AL","Husqvarna US","611 E Commerce St","36037",31.82990837097168,-86.61846160888672
"36037","Greenville","AL","Greenville Cash and Carry, Inc.","1608 E Commerce St","36037",31.83255386352539,-86.59905242919922
"36037","Greenville","AL","Tractor Supply Co.","151 Interstate Dr","36037",31.854349,-86.63822
"36037","Greenville","AL","Marvin's Building Materials and Home Centers","not_available","36037",31.85376249539218,-86.63959470744614
"36037","Greenville","AL","Husqvarna","305 Greenville Byp","36037",31.849998474121094,-86.63189697265625
"36040","Hayneville","AL","Ace","not_available","36040",32.184441,-86.576407
"36043","Hope Hull","AL","Hampton Hardware","4690 Route 8","not_available",32.306922912597656,-86.39637756347656
"36043","Hope Hull","AL","Screw","not_available","36108",32.305194,-86.345116
"36049","Luverne","AL","Husqvarna","228 S Forest Ave","36049",31.713138580322266,-86.26399993896484
"36054","Millbrook","AL","Lowe's","2307 Cobbs Ford Rd","36066",32.4622779,-86.4017554
"36054","Millbrook","AL","The Home Depot","2710 Legends Parkway","36066",32.457102713709226,-86.39951795339584
"36054","Millbrook","AL","Overhead Door and Fireplace Company, Inc.","3741 Grandview Road","36054",32.47621225571096,-86.36011722184298
"36064","Pike Road","AL","The Home Depot","10655 Chantilly Pkwy","36117",32.35778729491869,-86.13102078437805
"36064","Pike Road","AL","Ace Hardware","not_available","36116",32.335255,-86.17833
"36064","Pike Road","AL","Ace Hardware","2050 Meriwether Rd","36064",32.281407,-86.10619
"36064","Pike Road","AL","Sherwin-Williams Paint Store","3705 Malcolm Dr","36116",32.327843,-86.179838
"36064","Pike Road","AL","minuteKEY","10710 Chantilly Pkwy","36117",32.3547799,-86.1349254
"36064","Pike Road","AL","Capital City Ace Hardware","3215 Taylor Road","36116",32.339669,-86.179159
"36066","Prattville","AL","Harbor Freight Tools","not_available","36066",32.46145,-86.42005
"36066","Prattville","AL","Husqvarna US","916 S Memorial Dr","36067",32.456451416015625,-86.44841766357422
"36066","Prattville","AL","SACO Wood Inc.","867 N Memorial Dr #F","36067",32.4840087890625,-86.45407104492188
"36066","Prattville","AL","minuteKEY","1903 Cobbs Ford Rd","36066",32.4629382,-86.4162528
"36066","Prattville","AL","Sherwin-Williams Paint Store","1996 Fairview Ave","36066",32.48278671687994,-86.41606450080872
"36066","Prattville","AL","Russell Do It Center","2006 Cobbs Ford Rd","36066",32.45963145666109,-86.4142841622268
"36066","Prattville","AL","Georgia Fence Wholesale","not_available","36067",32.423011779785156,-86.414794921875
"36067","Prattville","AL","Red Arrow Hardware","172 Main St","36067",32.45994360244537,-86.475221864858
"36067","Prattville","AL","A & B Appliance","139 S Court St","36067",32.461769104003906,-86.47496795654297
"36078","Tallassee","AL","Tallassee True Value Hardware","1400 Gilmer Ave","36078",32.55188751,-85.91965485
"36078","Tallassee","AL","Tractor Supply Co.","1306 Gilmer Ave","36078",32.55146789550781,-85.91756439208984
"36078","Tallassee","AL","Alabama Power","303 Gilmer Ave, Tallassee, AL 36078","36078",32.54169080744694,-85.90246198652471
"36079","Troy","AL","Tractor Supply Co.","111 Southland Village","36079",31.783313751220703,-85.96533966064453
"36079","Troy","AL","Husqvarna US","11 COUNTY ROAD6605   HWY 223--SACO","36081",31.81999969482422,-85.94760131835938
"36079","Troy","AL","DUNNS TRUE VALUE","804 Highway 231 S","36081",31.78968620300293,-85.97132110595703
"36079","Troy","AL","Sherwin-Williams Paint Store","1111 Highway 231 S","36081",31.78342,-85.958462
"36083","Tuskegee","AL","H. A. Vaughan Seed Co.","106 W Lee St","36083",32.4236946105957,-85.6953353881836
"36083","Tuskegee","AL","Tuskegee Hardware","105 S Elm St","36083",32.42277526855469,-85.69091033935547
"36089","Union Springs","AL","Husqvarna US","102 Baskin St S","36089",32.14325714111328,-85.7198715209961
"36092","Wetumpka","AL","Lowe's","4501 US Highway 231","36092",32.5078722,-86.2168476
"36092","Wetumpka","AL","Russell Do It Center","7986 U.S. 231","36092",32.550907135009766,-86.18944549560547
"36092","Wetumpka","AL","M.H. Harden Hardware","708 Company St","36092",32.54431126275366,-86.19459582586029
"36092","Wetumpka","AL","minuteKEY","4538 US Highway 231","36092",32.50719451904297,-86.21244049072266
"36092","Wetumpka","AL","Husqvarna","5536 US Highway 231","36092",32.52112579345703,-86.20858001708984
"36092","Wetumpka","AL","Husqvarna","7986 US Highway 231","36092",32.550872802734375,-86.1897201538086
"36093","Wetumpka","AL","Jpk","not_available","36110",32.42245232110041,-86.26180442355529
"36093","Wetumpka","AL","Area Sand & Gravel","134 Redland Rd","36093",32.460636,-86.194211
"36104","Montgomery","AL","Mayer Electric","1001 Adams Ave","36104",32.37576231196115,-86.29452891632157
"36104","Montgomery","AL","SRS Roofing Supply","1580 Parallel St","36104",32.40609359741211,-86.32022094726562
"36104","Montgomery","AL","Kocher Building Materials, Inc.","915 N Court St","36104",32.391571044921875,-86.3091812133789
"36104","Montgomery","AL","Standard Glass Co., Inc.","not_available","36104",32.369113,-86.301783
"36104","Montgomery","AL","Alabama Machinery And Supply Company","323 Bibb St","36104",32.37792828315144,-86.31237198736285
"36104","Montgomery","AL","Thompson Cat Rental Store - Montgomery","2011 Northern Blvd","36110",32.413151,-86.301851
"36104","Montgomery","AL","BLP Mobile Paints","1065 Adams Ave, Montgomery, AL 36104","36104",32.375886,-86.293111
"36104","Montgomery","AL","Husqvarna","1498 Furnace St","36104",32.4030647277832,-86.31410217285156
"36105","Montgomery","AL","The Home Depot","2312 Eastern Blvd","36117",32.35114840786233,-86.22324800766364
"36105","Montgomery","AL","Harbor Freight Tools","2268 Eastern Blvd Ste A","36117",32.35174112788042,-86.22119225295206
"36105","Montgomery","AL","Surplus WareHouse Montgomery","4055 Eastern Boulevard","36116",32.3254683,-86.2384763
"36105","Montgomery","AL","Harwell's Green Thumb Nursery","4211 Troy Hwy","36116",32.317399,-86.230036
"36105","Montgomery","AL","Tractor Supply Co.","5310 Troy Hwy","36116",32.30123,-86.20732
"36105","Montgomery","AL","Packaging Machinery","2303 W Fairview Ave","36108",32.350481,-86.335006
"36105","Montgomery","AL","Cloverland True Value Hardware","3831 S Court St","36105",32.335934,-86.307294
"36105","Montgomery","AL","Wolseley Industrial Group","5301 Perimeter Parkway","36116",32.300678999999995,-86.20903100000001
"36105","Montgomery","AL","Surplus Warehouse","Eastern Blvd","36106",32.32875891910934,-86.26083748791834
"36105","Montgomery","AL","D.W. Moody True Value Hardware","3030 McGehee Rd","36111",32.337044,-86.259874
"36105","Montgomery","AL","Husqvarna","16 E Fleming Rd","36105",32.32227325439453,-86.30718231201172
"36106","Montgomery","AL","Lowe's","1950 Eastern Blvd","36117",32.3549082,-86.2204591
"36106","Montgomery","AL","A-1 Appliance Parts","2300 Spruce St","36107",32.364733,-86.277723
"36106","Montgomery","AL","Unbelievable Flooring","5730 Woodmere Blvd","36117",32.355678000000005,-86.215203
"36106","Montgomery","AL","B","not_available","36106",32.352447,-86.280699
"36106","Montgomery","AL","Calhoun support services","4155 Lomac St","36106",32.35781478881836,-86.23535919189453
"36108","Montgomery","AL","Allgas","4911 Hwy 31 South","36108",32.400937,-86.40157099999999
"36109","Montgomery","AL","The Lock Doctor","not_available","36109",32.38255349975314,-86.22990071072766
"36109","Montgomery","AL","Ppg Paints","38 Hunter Ln","36109",32.38299,-86.24034
"36109","Montgomery","AL","Store Room Fasteners","600 N Eastern Blvd","36117",32.400658,-86.211314
"36109","Montgomery","AL","Norandex","2514 Midpark Rd","36109",32.404975,-86.235575
"36109","Montgomery","AL","Ewing Irrigation","5890 Monticello Dr","36117",32.364841999999996,-86.209613
"36109","Montgomery","AL","John Lee Paint Co.","34 Coliseum Blvd","36109",32.38663,-86.25694
"36109","Montgomery","AL","L & W Supply","not_available","36117",32.398861,-86.209675
"36109","Montgomery","AL","Sears","311 N Eastern Blvd","36117",32.38825157,-86.21220824
"36109","Montgomery","AL","Ferguson Plumbing Supply","2530 Midpark Dr","36109",32.405097999999995,-86.232947
"36109","Montgomery","AL","Sherwin-Williams Paint Store","136 Coliseum Blvd","36109",32.387811,-86.256962
"36109","Montgomery","AL","pittsburg paint Co","4453 Atlanta Hwy","36109",32.382474,-86.230464
"36109","Montgomery","AL","City Electric Supply Montgomery Al","1053 Lagoon Business Loop","36117",32.40725311863687,-86.21831561656762
"36110","Montgomery","AL","Sherwin-Williams Floorcovering Store","860 Lagoon Commercial Blvd","36117",32.40275522358826,-86.20868682861328
"36117","Montgomery","AL","NEW LOOK DECORATING CENTER","6237 Atlanta Hwy","36117",32.382926,-86.191238
"36117","Montgomery","AL","Sherwin-Williams Paint Store","3800 Eastdale Mall Cir","36117",32.383183,-86.20311099999999
"36201","Anniston","AL","Lowe's","4901 Mcclellan Boulevard","36206",33.7086779,-85.8191958
"36201","Anniston","AL","Harbor Freight Tools","3226 MCCLELLAN BLVD","36201",33.68695068359375,-85.82305145263672
"36201","Anniston","AL","Tractor Supply Co.","5500 Mcclellan Blvd","36206",33.718128,-85.820284
"36201","Anniston","AL","Remodelers Outlet","803 A Noble","36201",33.636112213134766,-85.8275375366211
"36201","Anniston","AL","Sherwin-Williams Paint Store","930 S Quintard Ave","36201",33.63581583521514,-85.82579802707734
"36201","Anniston","AL","minuteKEY","5560 McClellan Blvd","36206",33.7202037,-85.8200138
"36201","Anniston","AL","Oxford Ace Hardware","1400 Barry St","36203",33.6118039,-85.836135
"36201","Anniston","AL","Mayer Electrical Supply","E Street","36207",33.64115860971122,-85.82453284587437
"36201","Anniston","AL","minuteKEY","92 Plaza Ln","36203",33.59914779663086,-85.8323974609375
"36203","Oxford","AL","The Home Depot","350 Crystal Water Drive","36203",33.60529983364102,-85.78391075134277
"36203","Oxford","AL","Lowe's","1836 US Highway 78 East","36203",33.613059,-85.794613
"36203","Oxford","AL","Thompson Cat Rental Store - Oxford/Anniston","2300 AL-21","36203",33.5947766,-85.844469
"36203","Oxford","AL","Kubota Dealer","not_available","36203",33.5954019441848,-85.8431524345131
"36206","Anniston","AL","Husqvarna US","4230 Choctaw St","36206",33.73505783081055,-85.87826538085938
"36206","Anniston","AL","Husqvarna","125 Anniston St","36277",33.74286651611328,-85.81560516357422
"36207","Anniston","AL","Warren Hardware","1420 Pelham Rd S","36265",33.79637908935547,-85.76055908203125
"36207","Anniston","AL","Home Depot","not_available","36264",33.61844837665558,-85.66137671470642
"36207","Anniston","AL","Calhoun County Farmers' Co-op","AL Hwy 21","36265",33.79020254181914,-85.76205606159074
"36207","Anniston","AL","minuteKEY","1625 Pelham Rd S","36265",33.7882987,-85.7641398
"36250","Alexandria","AL","Parris Hardware","not_available","36250",33.76447007808438,-85.89231953115035
"36250","Alexandria","AL","Marjam Supply Of Alabama","183 Post Oak Rd","36250",33.78279115509179,-85.91126449964484
"36251","Ashland","AL","Clay County Exchange","25 Nichols Street","36266",33.31168071001661,-85.75447535083589
"36251","Ashland","AL","Planter's Hardware","40583 Highway 77","36251",33.273704528808594,-85.83546447753906
"36251","Ashland","AL","Harris Plumbing & Electric","2nd St NW","36251",33.27492141723633,-85.83828735351562
"36251","Ashland","AL","Young's Farm Supply","2265 Taylor Rd","36251",33.29372024536133,-85.80980682373047
"36264","Heflin","AL","webb concrete and building materials","64 Hunnicutt St","36264",33.65005874633789,-85.58898162841797
"36264","Heflin","AL","Millwork Sales & Surplus","3825 Highway 9","36264",33.594669342041016,-85.60616302490234
"36265","Jacksonville","AL","Jacksonville Home Center","200 Coffee St SW","36265",33.8239999,-85.7766
"36265","Jacksonville","AL","Jacksonville Home Center","not_available","36265",33.812065,-85.762473
"36272","Piedmont","AL","Reid Hardware","824 US Highway 278 W","36272",33.934485,-85.62597
"36274","Roanoke","AL","Ace Hardware","1370 Highway 431","36274",33.125118255615234,-85.35707092285156
"36274","Roanoke","AL","Tractor Supply Co.","3159 Hwy 431","36274",33.149757,-85.359734
"36301","Dothan","AL","Lowe's","2671 Ross Clark Circle","36301",31.2057438,-85.4245693
"36301","Dothan","AL","master insulation","not_available","36301",31.203055769831906,-85.40217712163737
"36301","Dothan","AL","dixieland metals","378 Eastland Rd","36303",31.227115631103516,-85.34990692138672
"36301","Dothan","AL","ADK Building Supply","2394 Ross Clark Cir","36301",31.197490692138672,-85.4111099243164
"36301","Dothan","AL","Davis & Dyar","410 Columbia Hwy","36301",31.221537,-85.385034
"36301","Dothan","AL","Bryant's Outdoor Equipment","2240 S Brannon Stand Rd","36305",31.2088051,-85.4840827
"36301","Dothan","AL","Electric Tool Repair/ Dixie Industrial Service/ Chattanooga Bearings","2108 E Main St","36301",31.214475631713867,-85.36000061035156
"36301","Dothan","AL","Sears","2701 W Main St., Suite 1","36301",31.2278789,-85.4294231
"36301","Dothan","AL","Dothan Ace Hardware","2541 Ross Clark Cir","36301",31.200797,-85.417769
"36301","Dothan","AL","Sequel Electrical Supply","971 Tate Dr","36301",31.203274,-85.40495200000001
"36301","Dothan","AL","Sherwin-Williams Paint Store","2406 Ross Clark Cir","36301",31.19771957397461,-85.41248321533203
"36301","Dothan","AL","Husqvarna","2240 S. BRANNON STAND ROAD","36305",31.208805084228516,-85.48408508300781
"36301","Dothan","AL","J&H Tree Service","102 Castle Dr","36303",31.230302810668945,-85.4397964477539
"36301","Dothan","AL","Rehobeth True Value","6270 S State Highway 605","36301",31.1695989,-85.46691
"36303","Dothan","AL","Lowe's","4801 Montgomery Highway","36303",31.2665092,-85.4490007
"36303","Dothan","AL","The Home Depot","3489 Ross Clark Cir","36303",31.247103404546415,-85.42942432690324
"36303","Dothan","AL","Tractor Supply Co.","3775 West Main St","36305",31.231473,-85.44899
"36303","Dothan","AL","Harbor Freight Tools","2821 Reeves St","36303",31.262238305452893,-85.38402327004628
"36303","Dothan","AL","Sherwin-Williams Paint Store","5630 W Main St","36305",31.240872,-85.478841
"36303","Dothan","AL","HD Supply","519 Bic Rd","36303",31.247818,-85.384006
"36303","Dothan","AL","Capitol Materials Inc","482 Bic Road","36303",31.246618,-85.385055
"36303","Dothan","AL","Bobcat of the Wiregrass Inc.","784 Murray Rd","36303",31.257451,-85.400575
"36303","Dothan","AL","Harbor Freight","2821 Reeves St (Hwy 431)","36303",31.26237678527832,-85.38424682617188
"36303","Dothan","AL","Dothan Hardware & Supply Co Inc.","2321 N Range St","36303",31.247546,-85.382942
"36303","Dothan","AL","Thompson Cat Rental Store - Dothan","118 Vulcan Way","36303",31.2433632,-85.3751359
"36303","Dothan","AL","ReStore","not_available","36303",31.239716286412193,-85.41269561273249
"36310","Abbeville","AL","Trawick Ace Hardware","112 S Doswell St","36310",31.56926,-85.249795
"36312","Ashford","AL","Smith's True Value Of Ashford","20 Ashford Industrial Dr","36312",31.172941207885742,-85.22667694091797
"36319","Columbia","AL","Smith's","not_available","36319",31.292948401862866,-85.11134006809024
"36319","Columbia","AL","True Value Hardware","101 E Church St","36319",31.29302393,-85.11144141
"36322","Daleville","AL","Builder's Cash & Carry","not_available","36322",31.29553051084907,-85.72227775892235
"36322","Daleville","AL","Husqvarna","2450 Joe Bruer Rd","36330",31.299152374267578,-85.78589630126953
"36330","Enterprise","AL","Lowe's","1301 Boll Weevil Circle","36330",31.3324584,-85.8610458
"36330","Enterprise","AL","Harbor Freight Tools","not_available","36330",31.323823,-85.833695
"36330","Enterprise","AL","Tractor Supply Co.","1305 Boll Weevil Cir","36330",31.332676,-85.862785
"36330","Enterprise","AL","minuteKEY","1301 Boll Weevil Cir","36330",31.332116,-85.861039
"36330","Enterprise","AL","Sherwin-Williams Paint Store","407 N Main St","36330",31.317459106445312,-85.85704040527344
"36330","Enterprise","AL","Builders Cash & Carry","708 Boll Weevil Cir","36330",31.325277,-85.831337
"36330","Enterprise","AL","Townsend Building Supplies","533 Boll Weevil Cir","36330",31.312776,-85.831115
"36330","Enterprise","AL","Husqvarna","717 N Main St","36330",31.324657440185547,-85.86241912841797
"36330","Enterprise","AL","Boyd's Locksmith","1612 Rucker Blvd, Enterprise, AL 36330","36330",31.331600189208984,-85.80441284179688
"36340","Geneva","AL","Geneva Hardware","not_available","36340",31.033715492523356,-85.87313786730272
"36344","Hartford","AL","Husqvarna","6314 E State Highway 52","36344",31.087501525878906,-85.76990509033203
"36345","Headland","AL","Smith's True Value","16648 Hwy 431 S","36345",31.365546951965822,-85.32775282859802
"36345","Headland","AL","Ace Hardware","17902 Us 431","36345",31.30984421123491,-85.26793978239161
"36345","Headland","AL","Husqvarna US","17782 US Highway 431 S","36345",31.339969635009766,-85.33271026611328
"36345","Headland","AL","H&E Equipment Services","3425 Napier Field Rd","36303",31.275189,-85.447905
"36345","Headland","AL","Husqvarna","16648 US 431 SOUTH","36345",31.365140914916992,-85.3278579711914
"36350","Midland City","AL","Husqvarna","ROUTE 1 DALE COUNTY ROAD 14","36350",31.318084716796875,-85.49849700927734
"36360","Ozark","AL","Tractor Supply Co.","1177 Andrews Ave Ste H","36360",31.44397735595703,-85.66248321533203
"36360","Ozark","AL","Sherwin-Williams Paint Store","185 S Union Ave","36360",31.457981384605404,-85.63960790634155
"36360","Ozark","AL","Ace Hardware of Ozark","918 US 231 South","36360",31.449173,-85.660482
"36360","Ozark","AL","Townsend Building Supply","not_available","36360",31.467544415265227,-85.67612112587847
"36360","Ozark","AL","Husqvarna","845 N US Highway 231","36360",31.46759033203125,-85.67573547363281
"36420","Andalusia","AL","Tractor Supply Co.","540 West Byp","36420",31.30471,-86.500772
"36420","Andalusia","AL","Stewart Brothers","not_available","36420",31.308128356933594,-86.47820281982422
"36420","Andalusia","AL","Breedlove Building Supply","541 W Bypass","36420",31.3044709,-86.499257
"36420","Andalusia","AL","Sears","204 West Bypass","36420",31.3127997,-86.4998078
"36420","Andalusia","AL","Sherwin-Williams Paint Store","103 Oak St","36420",31.309030532836914,-86.47891998291016
"36420","Andalusia","AL","Husqvarna","25465 AL Highway 55","36420",31.311431884765625,-86.50009155273438
"36420","Andalusia","AL","Husqvarna","1525 River Falls St","36421",31.323129653930664,-86.50688171386719
"36426","Brewton","AL","Sherwin-Williams Paint Store","1638 Douglas Ave","36426",31.13481156346232,-87.0677661895752
"36426","Brewton","AL","Bondurant Lbr & Hardware Inc","601 Hwy 31 South","36427",31.1385,-87.0685
"36426","Brewton","AL","Down To Earth True Value Hardware","118 Saint Joseph Ave","36426",31.1036375881439,-87.0724295204604
"36426","Brewton","AL","minuteKEY","2578 Douglas Ave","36426",31.148550033569336,-87.06370544433594
"36426","Brewton","AL","Husqvarna US","711 Ashley St","36426",31.08837127685547,-87.09236145019531
"36426","Brewton","AL","MARVINS","County Road 3","36426",31.13754680627326,-87.06793125003674
"36426","Brewton","AL","Tractor Supply Co.","1730 Douglas Ave","36426",31.136714,-87.067583
"36442","Florala","AL","Florala Farmers & Builders CoOp","not_available","36442",31.008691,-86.33636
"36445","Frisco City","AL","Ray's Hardware","not_available","36445",31.432991,-87.402807
"36451","Grove Hill","AL","Husqvarna US","PO Box 236","36545",31.530122756958008,-87.87425994873047
"36451","Grove Hill","AL","JACKSON TRUE VALUE","2125 College Ave","36545",31.534589767456055,-87.8902816772461
"36451","Grove Hill","AL","Grove Hill Ace Hardware","170 S Jackson St","36451",31.7132,-87.776799
"36451","Grove Hill","AL","Slayton Bros.","Hwy 43","36545",31.532274,-87.896716
"36451","Grove Hill","AL","Sears","4435 College Ave","36545",31.5604077,-87.8780659
"36453","Kinston","AL","CountrySide Small Engine Repair","1772 State Highway 153","36477",31.088918685913086,-86.10954284667969
"36453","Kinston","AL","Bradley True Value","115 E Main St","36477",31.1129676510067,-86.045453557047
"36453","Kinston","AL","Breedlove's Ace Lbr & Bldg Supply","704 Old Perry Store Rd","36467",31.28031,-86.251935
"36460","Monroeville","AL","Wolseley Industrial Group","715 W Claiborne St","36460",31.526241302490234,-87.33695220947266
"36460","Monroeville","AL","Irby","675 Hornady Dr","36460",31.515236738961082,-87.3021912574768
"36460","Monroeville","AL","Womacks Hardware","not_available","36460",31.528339,-87.325073
"36460","Monroeville","AL","Monroe Scrap Material Inc","1 Hornady Dr","36460",31.5131719,-87.3106219
"36460","Monroeville","AL","Husqvarna US","10 Cherry St","36460",31.526819229125977,-87.32048034667969
"36460","Monroeville","AL","Husqvarna","2951 S Alabama Ave","36460",31.48586654663086,-87.32618713378906
"36460","Monroeville","AL","McNiders Ace Hardware","1788 S Highway 21 Byp","36460",31.5022,-87.3187
"36460","Monroeville","AL","Tractor Supply Co.","465 Pike St Ste A","36460",31.513613,-87.317985
"36467","Opp","AL","Husqvarna","1006 W Cumming Ave","36467",31.279146194458008,-86.26854705810547
"36502","Atmore","AL","Central Farm Supply","not_available","36502",31.024768,-87.495009
"36502","Atmore","AL","Frost Lawn and Garden Service","507 N. Trammell St.","36502",31.03093,-87.49536
"36502","Atmore","AL","Bondurant Ace Hdwe","209 W Nashville Ave","36502",31.0237,-87.495
"36502","Atmore","AL","Husqvarna","8682 Highway 31","36502",31.02426528930664,-87.4693374633789
"36505","Axis","AL","Rustin Industrial Supplies","not_available","36525",30.9048052675753,-88.03837434239219
"36507","Bay Minette","AL","Bay Minette Building Supply","505 S Hoyle Ave","36507",30.876483917236328,-87.7697982788086
"36507","Bay Minette","AL","minuteKEY","701 McMeans Ave","36507",30.885622024536133,-87.78987884521484
"36507","Bay Minette","AL","Marine Equipment Supply","32128 Broken Branch Cir","36527",30.692893981933594,-87.8084487915039
"36507","Bay Minette","AL","Gulf Coast Building Supply & Hardware","21090 Highway 59 S","36567",30.97222,-87.8398
"36507","Bay Minette","AL","Greer's Cash Saver","710 McMeans Ave","36507",30.8858299,-87.786659
"36507","Bay Minette","AL","Husqvarna","107 E. 1ST ST.","36507",30.88416862487793,-87.76780700683594
"36507","Bay Minette","AL","Tractor Supply Co.","108b Mcmeans Ave","36507",30.879135131835938,-87.7838363647461
"36509","Bayou La Batre","AL","Bayou Lumber & Hardware","not_available","36544",30.426222,-88.240981
"36509","Bayou La Batre","AL","Tide Marine","13225 N Wintzell Ave","36509",30.41590767750689,-88.24427962303162
"36509","Bayou La Batre","AL","Husqvarna","12970 N Wintzell Ave","36509",30.42109489440918,-88.24478912353516
"36513","Calvert","AL","USA Block Construction Products & Supplies","not_available","36513",31.152423671617164,-88.00967996302947
"36518","Chatom","AL","ANDREWS TRUE VALUE HDWE","2009 GRANADE AVE","36518",31.466533660888672,-88.25579071044922
"36518","Chatom","AL","Andrews Ace Hardware & Seed Store","92 Granade Ave","36518",31.4662809,-88.255574
"36521","Chunchula","AL","Creola Ace Hardware & Lumber","10041 Highway 43","36525",30.8941,-88.0309
"36521","Chunchula","AL","Andrews Ace Hardware","11865 Celeste Rd","36571",30.938440322875977,-88.12513732910156
"36522","Citronelle","AL","Atlas Copco Rental","8170 Williams Street","36522",31.1001512,-88.2369054
"36522","Citronelle","AL","Andrews Ace Hardware","19750 N 3rd St","36522",31.0934999,-88.227999
"36522","Citronelle","AL","Husqvarna US","PO Box 157","36522",31.084300994873047,-88.2476806640625
"36526","Daphne","AL","The Home Depot","7100 Hwy 90","36526",30.65333604052519,-87.90168106555939
"36526","Daphne","AL","Ferguson Bath, Kitchen & Lighting Gallery","25271 Friendship Rd","36526",30.595401763916016,-87.87808227539062
"36526","Daphne","AL","Lowe's","29645 Frederick Boulevard","36526",30.656914,-87.8547818
"36526","Daphne","AL","Fairhope Winnelson Company","25451A AL-181","36526",30.595379,-87.85239
"36526","Daphne","AL","City Electric Supply Fairhope","22886-A Us Hwy 98, Suite A","36532",30.5592598,-87.89296089999999
"36526","Daphne","AL","Eastern Shore Ace Hardware","6530 Spanish Fort Blvd","36527",30.6674079,-87.90997
"36526","Daphne","AL","Sherwin-Williams Paint Store","1003 US Highway 98","36526",30.59237331400041,-87.89916515350342
"36526","Daphne","AL","minuteKEY","27520 US Highway 98","36526",30.6252256,-87.9080899
"36526","Daphne","AL","Sears","6845 Hwy 90, Ste 101","36526",30.655790929195152,-87.9048522077511
"36526","Daphne","AL","minuteKEY","29645 Frederick Blvd","36526",30.656944274902344,-87.85482025146484
"36526","Daphne","AL","Husqvarna","1204 US Highway 98","36526",30.595245361328125,-87.89693450927734
"36526","Daphne","AL","Tractor Supply Co.","851 Us Highway 98","36526",30.589597702026367,-87.89850616455078
"36527","Daphne","AL","Sherwin-Williams Paint Store","10085 US Highway 31","36527",30.677169799804688,-87.8509750366211
"36530","Elberta","AL","Sherwin-Williams Paint Store","22219 US Highway 98","36535",30.407376720952815,-87.64675855636597
"36530","Elberta","AL","Husqvarna US","22482 US Highway 98","36535",30.40652084350586,-87.64137268066406
"36530","Elberta","AL","Elberta Farmers Co-Op","13320 CR-83","36530",30.418520797159967,-87.59797362864829
"36530","Elberta","AL","Elberta Hardware Inc.","25320 State Street","36530",30.41400523,-87.59299751
"36530","Elberta","AL","Service construction suply","not_available","36530",30.413955,-87.580208
"36530","Elberta","AL","Elberta Hardware Inc.","25320 US Highway 98","36530",30.414001,-87.592939
"36530","Elberta","AL","Paris Ace Elberta","24753 State St","36530",30.414626231078508,-87.60232508182526
"36532","Fairhope","AL","Coastal Stone & Cabinetry","16020 Greeno Rd","36532",30.4587732302218,-87.88586139678955
"36532","Fairhope","AL","Custom Millworks","not_available","36532",30.442950626772948,-87.88794613303389
"36532","Fairhope","AL","Jubilee Ace Home Cntr Inc","560 Fairhope Ave","36532",30.522969,-87.898509
"36532","Fairhope","AL","Sherwin-Williams Paint Store","367 Greeno Rd S","36532",30.514819645094153,-87.88564682006836
"36532","Fairhope","AL","minuteKEY","10040 County Road 48","36532",30.5223188,-87.8489449
"36535","Foley","AL","Lowe's","3101 South Mckenzie Hwy 59","36535",30.3688774,-87.6808163
"36535","Foley","AL","The Home Depot","2899 S McKenzie St","36535",30.37219484498322,-87.68018960952764
"36535","Foley","AL","NFL Home Center","not_available","36542",30.297658254739147,-87.68358840431168
"36535","Foley","AL","Sears","3798 S. McKenzie Street","36535",30.358890177003296,-87.68399834632874
"36535","Foley","AL","Sherwin-Williams Paint Store","24010A Canal Rd","36561",30.289439,-87.614641
"36535","Foley","AL","Tools & More","2601 S McKenzie St #216","36535",30.375684999999997,-87.678451
"36535","Foley","AL","Direct Tools Factory Outlets","2601 S McKenzie St Ste 262","36535",30.37694315020451,-87.67924600375575
"36535","Foley","AL","minuteKEY","3101 SOUTH MCKENZIE HWY. 59","36535",30.4065868,-87.6835974
"36535","Foley","AL","Hood's Discount Home Center","1918 W. McKenzie St.","36535",30.431827,-87.681981
"36535","Foley","AL","Sherwin-Williams Paint Store","8801 State Highway 59","36535",30.352527642717853,-87.68471717834473
"36535","Foley","AL","Harbor Freight Tools","803 S McKenzie St","36535",30.396077,-87.683057
"36541","Grand Bay","AL","Grand Bay Feed & Seed","not_available","36541",30.47843686096018,-88.33907210419875
"36541","Grand Bay","AL","Grand Bay Lumber","12250 US-90","not_available",30.480478405952454,-88.33286225795746
"36541","Grand Bay","AL","Home Hardware Grandbay","Grand Bay","36541",30.476308,-88.34223
"36542","Gulf Shores","AL","Paris Ace Orange Beach","25907 Canal Rd","36561",30.292289,-87.582911
"36542","Gulf Shores","AL","Paris Ace Hardware","1524 Gulf Shores Pkwy","36542",30.265836,-87.688492
"36542","Gulf Shores","AL","G N G Plumbing","not_available","36561",30.290447,-87.601012
"36542","Gulf Shores","AL","minuteKEY","170 E Fort Morgan Rd","36542",30.267118453979492,-87.68631744384766
"36542","Gulf Shores","AL","Als 5 & 10","25405 Perdido Beach Blvd Ste 3","36561",30.270014,-87.591726
"36542","Gulf Shores","AL","GNG Plumbing and The Hardware Store","24829 Canal Rd","36561",30.288938,-87.600884
"36542","Gulf Shores","AL","Als 5 & 10","25405 Perdido Beach Blvd","36561",30.268351162587845,-87.59308767239116
"36545","Jackson","AL","Ace Hardware","1126 College Ave","36545",31.5217999,-87.896199
"36549","Lillian","AL","Ace Hdwe of West Pensacola","10800 W Highway 98","32506",30.403236,-87.372254
"36551","Loxley","AL","Ace Hardware Rsc Loxley","29891 Alabama 59","36551",30.659067496998563,-87.76408910751343
"36551","Loxley","AL","Husqvarna US","PO Box 999","36567",30.572431564331055,-87.66214752197266
"36551","Loxley","AL","Robertsdale Power Equipment","22965 Highway 59 S","36567",30.559959411621094,-87.71440124511719
"36551","Loxley","AL","Ferguson Waterworks","30065 State Highway 59","36551",30.662844,-87.76286099999999
"36551","Loxley","AL","Husqvarna","22965 HWY 59 N","36567",30.559831619262695,-87.7142562866211
"36561","Orange Beach","AL","Webb's Hardware & Marine Services","27525 Canal Road","36561",30.2944594736842,-87.5561705263158
"36561","Orange Beach","AL","Orange Beach Hardware Inc","27525 Canal Rd E Hwy 180","36561",30.294887,-87.55565
"36561","Orange Beach","AL","The Hardware Store","Canal Rd","36561",30.29648,-87.54482
"36567","Robertsdale","AL","minuteKEY","21141 State Highway 59","36567",30.532075881958008,-87.71087646484375
"36567","Robertsdale","AL","Shelton Fireworks","23983 CR-64","36567",30.627609522770076,-87.61673927307129
"36567","Robertsdale","AL","Habitat for Humanity ReStore","19289 State Highway 59","36580",30.50611686706543,-87.70909118652344
"36567","Robertsdale","AL","Ace Home Center","21090 Alabama 59","36567",30.53195441416234,-87.707998752594
"36567","Robertsdale","AL","Gulf Coast Building Supply","21090 AL-59","36567",30.532087,-87.707848
"36567","Robertsdale","AL","Tractor Supply Co.","20438 State Hwy 59","36580",30.523224,-87.707085
"36571","Saraland","AL","Tractor Supply Co.","1010 Industrial Pkwy","36571",30.802866,-88.09474
"36571","Saraland","AL","Bayou Fastener And Supply","not_available","36571",30.800033,-88.08952
"36571","Saraland","AL","Sherwin-Williams Paint Store","21 Saraland Blvd S","36571",30.820561880390635,-88.07171702384947
"36571","Saraland","AL","minuteKEY","1095 Industrial Pkwy","36571",30.799348831176758,-88.09686279296875
"36571","Saraland","AL","Husqvarna","104 Industrial Pkwy","36571",30.795635223388672,-88.07434844970703
"36571","Saraland","AL","Husqvarna","30715 Highway 43","36784",30.81084442138672,-88.0714111328125
"36571","Saraland","AL","Husqvarna","27 Harris Ave","36571",30.822826385498047,-88.07231140136719
"36575","Semmes","AL","Outdoorstogo.com","8520 Palmer Rd","36575",30.782068252563477,-88.2433090209961
"36575","Semmes","AL","Threaded Fasteners","2650B Schillinger Rd N","36575",30.74697494506836,-88.22227478027344
"36575","Semmes","AL","minuteKEY","7855 Moffett Rd","36575",30.761945724487305,-88.22908782958984
"36575","Semmes","AL","Moffett Road Ace Hdwe","7380 Moffett Rd","36618",30.7557,-88.215299
"36575","Semmes","AL","Turner-Wilson Fence Company","1530 Schillinger Rd North","36575",30.721934287301806,-88.22540760040283
"36582","Theodore","AL","Lowe's","4401 Rangeline Road","36619",30.5991633,-88.1647107
"36582","Theodore","AL","Ferguson Fire & Fabrication","5580 E Rite Rd","36582",30.558872262690127,-88.17226767539978
"36582","Theodore","AL","Composite One LLC","not_available","36582",30.57880210876465,-88.16158294677734
"36582","Theodore","AL","Hoods Home Center of Mobile","5597 Highway 90","36582",30.5736541,-88.1705703
"36582","Theodore","AL","Alexander Hardware","7401 Old Pascagoula Rd","36582",30.562755584716797,-88.21576690673828
"36582","Theodore","AL","Mill & Marine Supply Inc","6130 Rangeline Rd","36582",30.563177,-88.129701
"36582","Theodore","AL","Sherwin-Williams Floorcovering Store","4980 Rangeline Rd","36619",30.58731711394504,-88.14546728518926
"36582","Theodore","AL","Sherwin-Williams Commercial Paint Store","5560 Rangeline Rd","36619",30.57530887,-88.1374324
"36582","Theodore","AL","minuteKEY","4401 Rangeline Rd","36619",30.59957,-88.164331
"36582","Theodore","AL","Sherwin-Williams Paint Store","5181 Rangeline Service Rd N","36619",30.59726905822754,-88.1646728515625
"36582","Theodore","AL","Tractor Supply Co.","5618 Hwy 90 West","36582",30.571483612060547,-88.17241668701172
"36602","Mobile","AL","Handyman's","70 Adams St","36602",30.699225,-88.043142
"36602","Mobile","AL","Wesco","not_available","36603",30.697658,-88.05318
"36603","Mobile","AL","Blankenship's Universal Glass & Supply Inc.","1305 Spring Hill Ave","36604",30.691972732543945,-88.06555938720703
"36603","Mobile","AL","journeygens","not_available","36604",30.68515396118164,-88.06560516357422
"36605","Mobile","AL","Wilson Dismukes Parts & Equipment","2646 Government Blvd","36606",30.667789,-88.105274
"36605","Mobile","AL","Ace Hardware","1623 Dauphin Island Pkwy","36605",30.63783836364746,-88.08785247802734
"36605","Mobile","AL","Smith Electric & Associates, Inc.","2570 Halls Mill Road","36606",30.655279600188695,-88.10318738222122
"36605","Mobile","AL","Grainger","not_available","36693",30.65268552675441,-88.1209566594298
"36606","Mobile","AL","Lowe's","151 East I-65 Service Road South","36606",30.6823756,-88.1253271
"36606","Mobile","AL","Northern Tool + Equipment Store","1790 W Interstate 65 Service Road South","36693",30.651905,-88.1250491
"36606","Mobile","AL","Bay Shore Fluid Power","3701 Government Blvd","36693",30.64860110278664,-88.12702417373657
"36606","Mobile","AL","Sherwin-Williams Paint Store","1904 Government St","36606",30.677205999999998,-88.084372
"36606","Mobile","AL","Wholesale Flooring Direct","1050 W I65 Service Rd S","36609",30.677457,-88.131288
"36606","Mobile","AL","Interstate Batteries of Mobile Bay","1551 E I65 Service Rd S","36606",30.657351656810455,-88.12365531921387
"36606","Mobile","AL","minuteKEY","151 E I65 Service Rd S","36606",30.681726,-88.1255989
"36606","Mobile","AL","minuteKEY","101 E I65 Service Rd S","36606",30.6843801,-88.1249921
"36606","Mobile","AL","OHC Headquarters","24 Tacon St","36607",30.68965916,-88.10312599
"36606","Mobile","AL","American Carpet","I65 Service Rd","36609",30.67494877453852,-88.13136688460982
"36606","Mobile","AL","Dewalt Factory Service Center","732 Lakeside Dr","36693",30.657272338867188,-88.12855529785156
"36606","Mobile","AL","Home Outlet","952 East I65 Service Road North","36607",30.6721828,-88.1276039
"36607","Mobile","AL","M&A Supply","981 Corporate Drive SuiteB","36607",30.709414,-88.11908
"36607","Mobile","AL","Nudraulix","311 Ari Ct","36607",30.703813463270293,-88.12083051334844
"36607","Mobile","AL","Walker Electric Supply","150 Noel Ave","36607",30.69637107849121,-88.12352752685547
"36607","Mobile","AL","Bay Area Screw & Supply","not_available","36607",30.706631536560163,-88.12119501630339
"36607","Mobile","AL","AAA Locksmith Service","2909 Cotton St","36607",30.709133,-88.111837
"36607","Mobile","AL","L&W Supply","661 Western Dr","36607",30.71031951904297,-88.11541748046875
"36607","Mobile","AL","City Electric Supply Mobile Central","148B E I65 Service Rd N Ste B","36607",30.695421100970737,-88.12373310327524
"36607","Mobile","AL","Irby","3232 Moffett Rd","36607",30.70472526550293,-88.11678314208984
"36607","Mobile","AL","Geo. Givens & Son","3009 Old Shell Rd","36607",30.696382522583008,-88.1155014038086
"36608","Mobile","AL","Lowe's","7760 Airport Blvd","36608",30.6862264,-88.2239745
"36608","Mobile","AL","The Home Depot","851 Montlimar Dr","36609",30.67341438612276,-88.13355663558195
"36608","Mobile","AL","The Home Depot","755 Schillinger Rd S","36695",30.6750862,-88.2238137
"36608","Mobile","AL","Harbor Freight Tools","4693 Airport Blvd Ste 170","36608",30.674852137744665,-88.17386581450903
"36608","Mobile","AL","Spring Hill Ace","4364 Old Shell Rd","36608",30.699246000000002,-88.142942
"36608","Mobile","AL","Dawes Hardware","4021 Dawes Rd","36695",30.607257452157143,-88.25490477494895
"36608","Mobile","AL","Tractor Supply Co.","635 Schillinger Rd North","36608",30.70374268351694,-88.22597973012546
"36608","Mobile","AL","Bay City Tool & Repair Co Inc","4405 Halls Mill Rd","36693",30.617729,-88.141172
"36608","Mobile","AL","Hagemeyer","not_available","36608",30.691831588745117,-88.2273178100586
"36608","Mobile","AL","Ace Hardware","5412 Cottage Hill Rd","36609",30.649288184611326,-88.1581580653299
"36608","Mobile","AL","Alston Brothers","4121 Government Blvd","36693",30.63381792920964,-88.14365789294237
"36608","Mobile","AL","Wolseley Industrial Group","5371 Hamilton Blvd","36582",30.623684322023,-88.1380167472263
"36608","Mobile","AL","minuteKEY","1300 North University Blvd.","36618",30.71715545654297,-88.1636962890625
"36608","Mobile","AL","Greer's Cash Saver","4055 Cottage Hill Rd","36609",30.651588,-88.147542
"36608","Mobile","AL","Acme Plumbing of Mobile Inc","7168 Burning Tree Ct","36695",30.6726,-88.21021
"36608","Mobile","AL","Al's 5 & 10","4358 Old Shell Rd","36608",30.698697999999997,-88.142157
"36608","Mobile","AL","DACCO Transmission Parts","3935 Government Blvd Ste A","36693",30.637651443481445,-88.13823699951172
"36608","Mobile","AL","Ferguson Plumbing Supply","4172 Halls Mill Rd","36693",30.62525069625462,-88.13788632060346
"36608","Mobile","AL","cottage hill lawn","not_available","36609",30.6478328704834,-88.1626205444336
"36609","Mobile","AL","Sherwin-Williams Paint Store","3853A Airport Blvd","36608",30.675244798743485,-88.14312815666199
"36610","Mobile","AL","Ladd Architectural Door & Specialty Co","1802 S. Craft Hwy","36611",30.74529137919059,-88.06712342043572
"36610","Mobile","AL","LADSCO, Inc.","1802 S Craft Hwy","36611",30.7545371,-88.0753009
"36611","Mobile","AL","Husqvarna","302 N Craft Hwy","36611",30.767854690551758,-88.0748519897461
"36613","Eight Mile","AL","Sherwin-Williams Paint Store","6901 Moffett Rd","36618",30.75312182023347,-88.20397138595581
"36613","Eight Mile","AL","Dixie Supply","4906 Hwy 45","36613",30.769039154052734,-88.13233184814453
"36617","Mobile","AL","Thompson Cat Rental Store - Mobile","1950 E I-65 Service Road North","36617",30.728994,-88.119101
"36619","Mobile","AL","Vallen","1502 Azalea Rd","36693",30.626737594604492,-88.13513946533203
"36619","Mobile","AL","Daniels Metal Roofing","3726 Halls Mill Rd","36693",30.63429550592255,-88.12702005707733
"36619","Mobile","AL","Mobile Lumber & Millwork","5229 Hwy 90 West","36619",30.604534149169922,-88.16279602050781
"36619","Mobile","AL","City Electric Supply Mobile West","5237 Halls Mill Rd Bldg C #A","36619",30.60452477611428,-88.15956027116397
"36695","Mobile","AL","Sherwin-Williams Paint Store","1300 Schillinger Rd S","36695",30.6630859375,-88.2258529663086
"36701","Selma","AL","Tri-County Rental","2525 US Highway 80 W","36701",32.369096,-87.003689
"36701","Selma","AL","Blue Ox Equipment & Supply","417 N Race St","36703",32.4171686745691,-86.99736396560667
"36701","Selma","AL","Sears","2908 Citizens Parkway","36701",32.44252,-87.018248
"36701","Selma","AL","Marvin's","1500 AL Highway 14 E","36703",32.430259704589844,-87.01079559326172
"36701","Selma","AL","irby","211 N Race St","36703",32.413805770022265,-86.99728846549988
"36701","Selma","AL","Tractor Supply Co.","2680 Us Hwy 80 West","36701",32.43500518798828,-87.0652084350586
"36701","Selma","AL","Miller Lumber Co","500 Hooper Dr","36701",32.413029,-87.044857
"36701","Selma","AL","Summerlin Hardware And Supply","1514 Water Ave","36703",32.408234,-87.014381
"36701","Selma","AL","HOLLEY TRUE VALUE","1601 Water Ave","36703",32.409000396728516,-87.01425170898438
"36701","Selma","AL","minuteKEY","1501 AL Highway 14 E","36703",32.43408966064453,-87.01295471191406
"36701","Selma","AL","Sherwin-Williams Paint Store","2416 N Broad St","36701",32.433095693532586,-87.02354192733765
"36701","Selma","AL","Husqvarna","2925 Citizens Pkwy","36701",32.44473648071289,-87.01815032958984
"36722","Arlington","AL","Ace Hardware","9894 US Highway 70 E","37101",32.1058,-87.627099
"36726","Camden","AL","Pugh True Value","201 Claiborne St","36726",31.99082,-87.28928
"36726","Camden","AL","Handiman","not_available","36726",32.002546942385244,-87.28638145626103
"36732","Demopolis","AL","Marvin's","Demopolis, AL","36732",32.50177069829134,-87.8141523296609
"36732","Demopolis","AL","Gardner Hardware Inc","1137 S Shiloh St","36748",32.2933235168457,-87.79474639892578
"36732","Demopolis","AL","marvins","not_available","36732",32.50635528564453,-87.83058166503906
"36732","Demopolis","AL","Sears","1502 US Highway 80 E","36732",32.50261306762695,-87.81597137451172
"36732","Demopolis","AL","Husqvarna","202 S Cedar Ave","36732",32.514801025390625,-87.83551788330078
"36744","Greensboro","AL","Ace Hardware","2201 State St","36744",32.70069122314453,-87.60578918457031
"36744","Greensboro","AL","Husqvarna US","10248 AL Highway 14","36744",32.72197723388672,-87.62307739257812
"36744","Greensboro","AL","Greensboro Farmer's Co-op","not_available","36744",32.71625900268555,-87.61907958984375
"36750","Maplesville","AL","Skippers General Store","1866 County Road 10","36750",32.7901689,-86.902456
"36750","Maplesville","AL","Husqvarna US","8199 ALABAMA HWY 22","36750",32.78345489501953,-86.84703826904297
"36756","Marion","AL","Husqvarna US","PO Box 669","36756",32.65091323852539,-87.3130874633789
"36756","Marion","AL","Husqvarna","1306 Highway 5 S","36756",32.61730194091797,-87.31260681152344
"36759","Marion Junction","AL","Husqvarna","22445 HWY 22 WEST","36773",32.28784942626953,-87.36986541748047
"36782","Sweet Water","AL","Vallen","145 Old Locke Rd","36916",32.20246887207031,-88.0182876586914
"36784","Thomasville","AL","Jackson Home Supply","14 Wilson Ave W","36784",31.913453,-87.734702
"36784","Thomasville","AL","Husqvarna US","33860 Highway 43","36784",31.93376922607422,-87.73745727539062
"36784","Thomasville","AL","Tractor Supply Co.","33891 Hwy 43","36784",31.934417724609375,-87.7391357421875
"36801","Opelika","AL","Lowe's","1701 Frederick Road","36801",32.6204748,-85.4016925
"36801","Opelika","AL","The Home Depot","2190 Tiger Town Pkwy","36801",32.6209958,-85.4076293
"36801","Opelika","AL","University Ace Hardware","2101 E University Dr","36830",32.626902,-85.450208
"36801","Opelika","AL","Tractor Supply Co.","2600 Pepperell Pkwy","36801",32.637827614401786,-85.4157155612005
"36801","Opelika","AL","Dowdle Gas","2217 Marvyn Pkwy","36804",32.62411117553711,-85.36949157714844
"36801","Opelika","AL","City Electric Supply Auburn","3762 Pepperell Pkwy","36801",32.6343848,-85.4353763
"36801","Opelika","AL","Thompson Supply","not_available","36801",32.648014135936776,-85.3797775900738
"36801","Opelika","AL","Sherwin-Williams Paint Store","1911 Opelika Rd","36830",32.6277482440693,-85.44111103772651
"36801","Opelika","AL","Reeder’s Hardware And Appliances","not_available","36830",32.624634,-85.472925
"36801","Opelika","AL","Sonic Tools","480 N Dean Rd Ste H7","36830",32.615768977317984,-85.4628047749382
"36801","Opelika","AL","minuteKEY","1701 Frederick Rd","36801",32.620053999999996,-85.401519
"36801","Opelika","AL","Sherwin-Williams Paint Store","2104 Frederick Rd","36801",32.622678,-85.4076829
"36801","Opelika","AL","CTE Small Engines","2419 Frederick Rd","36801",32.61988067626953,-85.41365814208984
"36801","Opelika","AL","H&E Equipment Services","1870 Columbus Pkwy","36804",32.6433866,-85.3390209
"36801","Opelika","AL","Husqvarna US","PO Box 343","36831",32.6078987121582,-85.4809799194336
"36801","Opelika","AL","Ppg Paints","3722 Pepperell Pkwy","36801",32.633392333984375,-85.43355560302734
"36801","Opelika","AL","Ferguson Plumbing Supply","1935 Mall Blvd","36830",32.6298496065335,-85.4439457924123
"36801","Opelika","AL","Surplus WareHouse Opelika","2590 Pepperell Parkway","36801",32.6384083,-85.4157923
"36804","Opelika","AL","Best Rental","not_available","36832",32.565805,-85.502626
"36804","Opelika","AL","Lee County Feed and Seed","not_available","36804",32.54451121171785,-85.37185008904723
"36830","Auburn","AL","American Lock And Key","1974 Mall Blvd","36830",32.63020169713773,-85.44219395491106
"36830","Auburn","AL","Builders First Source Home Center","1865 E Glenn Ave","36830",32.607903,-85.439526
"36830","Auburn","AL","Jeff's Appliance & Furniture","3720 Pepperell Pkwy","36801",32.6343798,-85.4334469
"36830","Auburn","AL","Sherwin-Williams Paint Store","2071 S College St","36832",32.564205169677734,-85.5020523071289
"36830","Auburn","AL","Inline Electric Supply Co.","Shug Jordan Pkwy, Auburn, AL 36830","36830",32.62907,-85.500282
"36830","Auburn","AL","Aair Inc","1948 Mall Blvd","36830",32.62970733642578,-85.44293975830078
"36830","Auburn","AL","Russell Building Supply","141 Bragg Ave","36830",32.61079851821707,-85.4840236902237
"36832","Auburn","AL","Citizens Hardware and Building Supply","177 Lyon St","36866",32.56112289428711,-85.67267608642578
"36832","Auburn","AL","Husqvarna","170 LYON ST","36866",32.561458587646484,-85.67255401611328
"36832","Auburn","AL","Husqvarna","2787 Lee Road 12","36832",32.575340270996094,-85.51832580566406
"36850","Camp Hill","AL","Russell Building Supply Dadeville","not_available","36853",32.83608627319336,-85.75022888183594
"36850","Camp Hill","AL","Husqvarna","406 N Broadnax St","36853",32.83449935913086,-85.76306915283203
"36854","Valley","AL","minuteKEY","3501 20th Ave","36854",32.8377089,-85.175416
"36854","Valley","AL","Ace Hardware of Valley","3741 20th Ave","36854",32.8332405090332,-85.17642974853516
"36854","Valley","AL","Ace Hardware","4105 20th Ave","36854",32.833763,-85.176674
"36854","Valley","AL","marvin building materials","not_available","36854",32.853363584389676,-85.18836462923917
"36854","Valley","AL","Industrial Service & Supply","6401 25th Ave","36854",32.8067275,-85.1737718
"36856","Fort Mitchell","AL","Maintenance office 5550","not_available","31905",32.35054016113281,-84.98665618896484
"36862","Lafayette","AL","Lafayette True Value","Hwy 50 Byp","36862",32.8827274,-85.404652
"36862","Lafayette","AL","LAFAYETTE TRUE VALUE","HWY 50 BYP","36862",32.886295318603516,-85.37876892089844
"36862","Lafayette","AL","pest products online","8158 Fortson Business Park Blvd","31909",32.87459537089651,-85.31598329544067
"36862","Lafayette","AL","Husqvarna","12 N Lafayette St","36862",32.900367736816406,-85.40087127685547
"36863","Lanett","AL","Tractor Supply Co.","811 South Gilmer Avenue","36863",32.861797566165066,-85.18984110185244
"36867","Phenix City","AL","The Home Depot","3784 US Highway 431 N","36867",32.5074634,-85.0508059
"36867","Phenix City","AL","Tractor Supply Co.","2012 Hwy 280-431 North","36867",32.480064,-85.02936
"36867","Phenix City","AL","Sherwin-Williams Paint Store","1027 280 Byp","36867",32.46680537489274,-85.02820029414676
"36867","Phenix City","AL","Harvey Home And Hardware","2506 Crawford Rd","36867",32.475555419921875,-85.02815246582031
"36867","Phenix City","AL","B.W. Capps & Son Inc.","1210 Broad St","36867",32.470040559418955,-85.0002759081252
"36867","Phenix City","AL","minuteKEY","3700 HWY 280/431 N.","36867",32.5027541,-85.0491094
"36869","Phenix City","AL","Dan's Hardware","not_available","36870",32.4706337664347,-85.09343962325066
"36869","Phenix City","AL","World Electric","1118 Virginia St","31901",32.473209999999995,-84.976851
"36869","Phenix City","AL","W.T. Harvey Lumber","800 15th St","31901",32.472842,-84.98151
"36869","Phenix City","AL","Renovation Station","MLK","31906",32.462988570645905,-84.97699728914938
"36869","Phenix City","AL","carpenter shop","not_available","31901",32.4556577491734,-84.99428512015638
"36869","Phenix City","AL","Capitol Materials Inc","1401 Blanchard Boulevard","31901",32.44950864,-84.97216927
"36869","Phenix City","AL","Husqvarna","3924 US Highway 80 W","36870",32.47100830078125,-85.09354400634766
"36869","Phenix City","AL","Mayer Electric","1125 14th St","31901",32.473083,-84.976299
"36904","Butler","AL","Ace Hardware","231 W Pushmataha St","36904",32.090030670166016,-88.22290802001953
"36904","Butler","AL","Choctaw County Co-Op","not_available","36904",32.090953,-88.234093
"36908","Gilbertown","AL","Ace Hardware","74 Front St","36908",31.877511978149414,-88.32229614257812
"36908","Gilbertown","AL","Husqvarna US","3319 COUNTY ROAD 8","36908",31.821739196777344,-88.31321716308594
"36908","Gilbertown","AL","Ace Hardware","not_available","36908",31.877792,-88.320601
