"zip","city","state","name","address","postalCode","lat","lon"
"63005","Chesterfield","MO","The Home Depot","37 Ellisville Towne Ctre","63011",38.59062320265323,-90.60874074697495
"63005","Chesterfield","MO","Lowe's","290 THF Blvd","63005",38.6658416,-90.6014674
"63005","Chesterfield","MO","The Home Depot","390 Thf Boulevard","63005",38.66587233324687,-90.60576349496841
"63005","Chesterfield","MO","Ace Hardware","not_available","not_available",38.604177865453906,-90.58394788517813
"63005","Chesterfield","MO","Direct Tools Factory Outlet","18521 Outlet Blvd Ste 525","63005",38.677869,-90.662293
"63005","Chesterfield","MO","Ferguson Bath, Kitchen & Lighting Gallery","17895 Chesterfield Airport Rd","63005",38.669740000000004,-90.629899
"63005","Chesterfield","MO","The Workplace","not_available","63011",38.59081526341585,-90.60861886555529
"63005","Chesterfield","MO","minuteKEY","290 T.H.F. BLVD","63005",38.6621044,-90.6212504
"63005","Chesterfield","MO","Henry's Plumbing Supply","17217 Thf Blvd","63005",38.66902160644531,-90.59589385986328
"63005","Chesterfield","MO","Chesterfield Topsoil & Supply","17803 Wild Horse Creek Rd","63005",38.652429,-90.64185
"63005","Chesterfield","MO","Rick's Ace Hardware","15870 Clayton Rd","63011",38.603784000000005,-90.584301
"63005","Chesterfield","MO","John Deere Landscapes","not_available","63026",38.66771090263776,-90.63459624449565
"63005","Chesterfield","MO","Vermeer","not_available","63017",38.67091498697063,-90.66515682722923
"63005","Chesterfield","MO","Fastenal","6248 Goddard Ave","63005",38.66744,-90.634688
"63005","Chesterfield","MO","Sherwin-Williams Paint Store","101 Chesterfield Valley Dr","63005",38.6676,-90.610381
"63005","Chesterfield","MO","Passiglias","1855 Highway 109","63038",38.595628000000005,-90.640376
"63005","Chesterfield","MO","Heartlands","18110 Chesterfield Airport Rd Ste A","63005",38.66883087158203,-90.64186096191406
"63005","Chesterfield","MO","Chesterfield Deck And Fence","620 Spirit Valley East Dr","63005",38.670322999999996,-90.664739
"63010","Arnold","MO","The Home Depot","3865 Vogel Rd","63010",38.41254224985054,-90.3945529460907
"63010","Arnold","MO","Lowe's","920 Arnold Commons Dr","63010",38.43674405,-90.38611594
"63010","Arnold","MO","Core & Main","5454 Baumgartner Rd","63129",38.46307373046875,-90.35536193847656
"63010","Arnold","MO","Northern Tool And Equipment","not_available","63010",38.445830951439326,-90.37637340479624
"63010","Arnold","MO","Maintenance Free Outdoor Solutions","2013 El Lago Dr","63010",38.40478,-90.386741
"63010","Arnold","MO","Sign-A-Rama","6256 Lemay Ferry Rd","63129",38.462249755859375,-90.35780334472656
"63010","Arnold","MO","Sherwin-Williams Paint Store","683 Jeffco Blvd","63010",38.450618743896484,-90.36676025390625
"63010","Arnold","MO","Lou & Sons Hardware","3993 W Outer Rd","63010",38.401396,-90.384216
"63010","Arnold","MO","Houska's Ace Hardware","1520 Jeffco Blvd","63010",38.4330539,-90.377319
"63010","Arnold","MO","Holt Electrical Supplies","not_available","63129",38.460845,-90.34819
"63011","Ballwin","MO","Lowe's","14810 Manchester Road","63011",38.591031,-90.539687
"63011","Ballwin","MO","The Home Depot","13929 Manchester Rd","63011",38.5998406,-90.4877245
"63011","Ballwin","MO","Menards","14161 Manchester Rd","63011",38.59523755005677,-90.49935308064525
"63011","Ballwin","MO","Rick's Ace Hardware","221 Lamp And Lantern Vlg","63017",38.623733,-90.518005
"63011","Ballwin","MO","Benjamin moore paint","not_available","63021",38.588748396483,-90.51608900197641
"63011","Ballwin","MO","Porter Paits","15047","not_available",38.590636253356934,-90.52435576915741
"63011","Ballwin","MO","minuteKEY","14810 Manchester Rd","63011",38.5912971496582,-90.53945922851562
"63011","Ballwin","MO","minuteKEY","201 Highlands Boulevard Dr","63011",38.59564971923828,-90.50669860839844
"63011","Ballwin","MO","Sherwin-Williams Paint Store","13940 Manchester Rd","63011",38.595504999999996,-90.486322
"63011","Ballwin","MO","Sherwin-Williams Paint Store","15539 Manchester Rd","63011",38.593313,-90.56920600000001
"63012","Barnhart","MO","Arrowhead building Supply","Mason Circle","63070",38.29755362346241,-90.39790671446559
"63012","Barnhart","MO","Kohler City Hardwoods","7306 Kohler Dr","63012",38.334964,-90.397003
"63012","Barnhart","MO","Kohler City Hardware","not_available","63012",38.342826,-90.38892
"63019","Crystal City","MO","Sherwin-Williams Paint Store","506 Bailey Rd","63019",38.21860122680664,-90.38597869873047
"63020","De Soto","MO","The Home Depot","1131 W Gannon","63028",38.2114703488511,-90.40177345275879
"63020","De Soto","MO","Lowe's","1111 Bradley Street","63028",38.2100575,-90.4081003
"63020","De Soto","MO","Dep Builders Supply/Dep Heating & Cooling","12561 Hwy 21","63020",38.1637618,-90.5706316
"63020","De Soto","MO","Lawn Care Equipment Company","12470 State Route 21","63020",38.16865,-90.56446
"63020","De Soto","MO","Dep Builders Supply/Dep Heating & Cooling","12561 State Route 21","63020",38.16429138183594,-90.57007598876953
"63020","De Soto","MO","Hoods","not_available","63028",38.209015999430974,-90.40229317946903
"63020","De Soto","MO","mahn and sons heating and cooling","not_available","63020",38.13725009778657,-90.55502883672837
"63020","De Soto","MO","Cotton's Ace Hardware","210 N Main St","63020",38.1404339,-90.55358
"63020","De Soto","MO","Kemper Paints and Stains - Any Color, Any Brand","1160 W Gannon Dr","63028",38.21086120605469,-90.40364837646484
"63021","Ballwin","MO","Valley Park Elevator & Hardware","2 Marshall Rd","63088",38.549257389225026,-90.49357387353729
"63021","Ballwin","MO","Lumber Liquidators, Inc.","958 S Highway Dr","63026",38.54154341540071,-90.4621333417162
"63021","Ballwin","MO","B&R Equipment","not_available","63088",38.55244872507336,-90.47948760333888
"63021","Ballwin","MO","84 Lumber","239 W Outer Rd","63088",38.538754,-90.505144
"63021","Ballwin","MO","American Metals Supply Co.","1195 Horan Dr","63026",38.538977,-90.46785200000001
"63021","Ballwin","MO","Best Air Tech Heating & Cooling","164 Tortuna Dr","63021",38.572571,-90.537851
"63025","Eureka","MO","Sherwin-Williams Paint Store","1747 W 5th St","63025",38.505114,-90.666511
"63025","Eureka","MO","Cotton's  Ace Hardware","225 Thresher Dr","63025",38.4915,-90.629199
"63025","Eureka","MO","Dickey Bub True Value","100 Hilltop Village Center Dr","63025",38.50589829178484,-90.64174005619542
"63025","Eureka","MO","Hoods Discount Home Center","4401 M0-30","63051",38.41523742675781,-90.58197784423828
"63025","Eureka","MO","Big T Rental","2828 High Ridge Blvd","63049",38.46276559309918,-90.53251894767959
"63025","Eureka","MO","minuteKEY","131 Erka Twn Cntr Dr.","63025",38.5025537,-90.6279044
"63025","Eureka","MO","Bonacker Farms Inc","4211 Highway W","63051",38.41933059692383,-90.59686279296875
"63026","Fenton","MO","The Home Depot","10890 Sunset Hills Plaza","63127",38.5528204,-90.4106271
"63026","Fenton","MO","Lowe's","1 Gravois Bluffs Plaza Drive","63026",38.5094554,-90.4465132
"63026","Fenton","MO","Sherwin-Williams Commercial Paint Store","38 Soccer Park Rd","63026",38.544328,-90.436452
"63026","Fenton","MO","Sherwin-Williams Paint Store","31 Gravois Bluffs Plaza Dr","63026",38.508165000000005,-90.447414
"63026","Fenton","MO","Woodworker Express","1693 Fenpark Dr","63026",38.538166,-90.449744
"63026","Fenton","MO","Solvent Systems, Inc.","13118 Maple Dr","63127",38.543577575580265,-90.42575910687445
"63026","Fenton","MO","Aarch Caster And Equipment","314 Axminister Dr","63026",38.53622055053711,-90.44480895996094
"63026","Fenton","MO","Tesson Roofing & Exteriors LLC","656 Axminister Dr","63026",38.536612,-90.45322
"63026","Fenton","MO","Sears","639 Gravois Bluff Boulevard, Suite A","63026",38.5084182,-90.4357139
"63026","Fenton","MO","Metro Electric Supply","305 Gravois Ed.","63026",38.512155,-90.435613
"63026","Fenton","MO","Horton Supply","310 Sun Valley Cir","63026",38.49438785316722,-90.46230546517492
"63026","Fenton","MO","Fenton 24hr Locksmith","1187 Caballo Ct","63026",38.508336,-90.49226800000001
"63026","Fenton","MO","minuteKEY","1 Gravois Bluffs Plaza Dr","63026",38.509524,-90.44641999999999
"63026","Fenton","MO","Erb Equipment","200 Erb Industrial Dr","63026",38.500545501708984,-90.45905303955078
"63028","Festus","MO","Home Depot Kingshighway","not_available","63070",38.26194222215596,-90.40579723906583
"63028","Festus","MO","Fastenal","not_available","63048",38.257366,-90.401382
"63031","Florissant","MO","Handyman True Value Hardware","500 W Washington St","63031",38.79578326813053,-90.33788272640693
"63031","Florissant","MO","American Metals Supply","1617 Park 370 Ct","63042",38.78923666174323,-90.40466992445874
"63031","Florissant","MO","Handyman Hardware","not_available","63033",38.79940411554604,-90.31312957327263
"63031","Florissant","MO","Sherwin-Williams Paint Store","1555 N Highway 67","63031",38.798674,-90.319613
"63031","Florissant","MO","abc Supply Co","not_available","63042",38.781781,-90.384781
"63031","Florissant","MO","Foundation Building Materials","3950 Taussig Road","63044",38.7753267,-90.427915
"63033","Florissant","MO","The Home Depot","13915 New Halls Ferry Rd","63033",38.805027102188305,-90.29875248670578
"63033","Florissant","MO","Handyman True Value Hardware","2635 N Us Hwy 67","63033",38.80623160326914,-90.30510615618302
"63034","Florissant","MO","HOOD'S West Alton","130 Hoods Dr","63386",38.851290999999996,-90.227451
"63037","Gerald","MO","Haase's Hardware","331 S Bernhardt Ave","63037",38.40116882324219,-91.32940673828125
"63037","Gerald","MO","D & D Pest Control, Inc.","5767 Stone Church Rd","63037",38.5276533,-91.3247293
"63039","Gray Summit","MO","Gray Summit Do It Best","2625 Highway 100","63039",38.491426000000004,-90.81543
"63042","Hazelwood","MO","Cardinal Building Materials","3634 Pennridge Dr","63044",38.759462,-90.432523
"63042","Hazelwood","MO","Missouri Drywall Supply","314 James S. McDonnell Boulevard","63042",38.7656296,-90.3739159
"63042","Hazelwood","MO","Ferguson Plumbing Supply","6745 Romiss Ct","63134",38.76152420043945,-90.34262084960938
"63042","Hazelwood","MO","Surveyors Materials, Inc.","not_available","63134",38.76361846923828,-90.34274291992188
"63043","Maryland Heights","MO","Brandt & Sons Ace Hdwe","12634 Dorsett Rd","63043",38.7143999,-90.4555
"63043","Maryland Heights","MO","Frost Supply","2429 Schuetz Rd","63043",38.707528,-90.432879
"63043","Maryland Heights","MO","Sherwin-Williams Paint Store","12462 Natural Bridge Rd","63044",38.755957,-90.425706
"63043","Maryland Heights","MO","Rockler Woodworking & Hardware","11977 Saint Charles Rock Rd","63044",38.748525,-90.420823
"63043","Maryland Heights","MO","airport lock & key","12207 Natural Bridge Rd Ste B","63044",38.756071999999996,-90.418555
"63043","Maryland Heights","MO","Sherwin-Williams Commercial Paint Store","2145 Schuetz Rd","63146",38.699879484095426,-90.43020486831665
"63043","Maryland Heights","MO","Designer Blinds","not_available","63043",38.712332,-90.442369
"63043","Maryland Heights","MO","The Master’s Craft","160 Weldon Pkwy","63043",38.713640000000005,-90.44116
"63043","Maryland Heights","MO","Henry plumbing supply","12005 Saint Charles Rock Rd","63044",38.749107360839844,-90.42267608642578
"63043","Maryland Heights","MO","PPG Paints","2392 Schuetz Rd","63146",38.705876,-90.432488
"63043","Maryland Heights","MO","Genesco Window & Building","2456 Adie Rd","63043",38.706375,-90.425179
"63043","Maryland Heights","MO","Glidden Professional Paint","2488 Old Dorsett Rd","63043",38.717806,-90.445272
"63043","Maryland Heights","MO","Hanneke Hardware","2283 Grissom Dr.","63146",38.70375061035156,-90.43950653076172
"63043","Maryland Heights","MO","Woodcraft","2077 Congressional Dr","63146",38.697489,-90.43895
"63043","Maryland Heights","MO","HD Supply","not_available","63146",38.698154,-90.428481
"63044","Bridgeton","MO","Menards","11140 Saint Charles Rock Rd","63074",38.73369053507168,-90.39650559425354
"63044","Bridgeton","MO","The Home Depot","11215 St Charles Rock Rd","63044",38.740234921492096,-90.39887130260468
"63044","Bridgeton","MO","Branneky True Value Hardware","11403 Saint Charles Rock Rd","63044",38.740823503893445,-90.40409871485284
"63044","Bridgeton","MO","Sherwin-Williams Product Finishes","4207 Earth City Expy","63045",38.77035140991211,-90.46157836914062
"63044","Bridgeton","MO","Kuhlmann Supply Company, Inc.","13836 Parks Steed Dr","63045",38.766321000000005,-90.469897
"63044","Bridgeton","MO","Ward's Tools & Equipment Toy-Hon USA","3329 N Highway 94","63301",38.82263946533203,-90.4730453491211
"63044","Bridgeton","MO","Sherwin-Williams Paint Store","967 Northwest Plz","63074",38.735721588134766,-90.3982162475586
"63044","Bridgeton","MO","Surfaces Direct","10431 Saint Charles Rock Rd","63074",38.72909927368164,-90.38329315185547
"63044","Bridgeton","MO","POWERHOME SOLAR","209 Hughes Ln","63301",38.8126782,-90.4761477
"63044","Bridgeton","MO","ProSource of St. Louis","13501 Shoreline Dr","63045",38.7730396,-90.46246959999999
"63049","High Ridge","MO","Tractor Supply Co.","40 Dillon Plaza Dr","63049",38.4774237445303,-90.52277629870544
"63049","High Ridge","MO","minuteKEY","2700 Ridge Point Dr","63049",38.4622432,-90.5217534
"63049","High Ridge","MO","Arch City Drywall Supply","390 N Valley Dell Dr","63026",38.49622344970703,-90.47970581054688
"63050","Hillsboro","MO","Jhs Specialties","144 7th St","63050",38.23605032098732,-90.56118287163594
"63052","Imperial","MO","Born Electric Inc.","6265 Us Highway 61/67","63052",38.36,-90.37
"63056","Leslie","MO","Unerstall Plumbing Inc.","5530 Highway Aj","63090",38.492191314697266,-91.12832641601562
"63069","Pacific","MO","Orscheln Farm & Home","2246 West Osage Street","63069",38.48356914069198,-90.77058616097118
"63069","Pacific","MO","Orscheln Farm and Home","not_available","63069",38.48447036743164,-90.7589340209961
"63069","Pacific","MO","Pacific Lumber Co","625 S 4th St","63069",38.4765942,-90.7455226
"63077","Saint Clair","MO","R&R Ace","845 N Commercial Ave","63077",38.354351,-90.977639
"63080","Sullivan","MO","Orscheln Farm & Home","not_available","63080",38.219607,-91.16074
"63080","Sullivan","MO","Lowe's","760 Eagles Court","63080",38.2255526,-91.1523666
"63080","Sullivan","MO","Westlake Hardware","Unnamed Rd","65535",38.09501230716705,-91.25306367874146
"63080","Sullivan","MO","Lowes","Oak Grove Village, MO 63080","65441",38.137680020283746,-91.28077904508957
"63080","Sullivan","MO","Meek's Lumber in Bourbon","10875 N Service Rd","65441",38.1821174621582,-91.20675659179688
"63080","Sullivan","MO","Bourbon True Value Family Center","140 W Pine St","65441",38.151789,-91.2487584
"63080","Sullivan","MO","Crider Air HVAC","315 E Vine St","63080",38.21191713755111,-91.15298509597778
"63080","Sullivan","MO","Sully's Ace Hardware","252 S Service Rd E","63080",38.221561431884766,-91.15908813476562
"63084","Union","MO","Hall Brothers Lumber","not_available","63084",38.449995908210916,-91.0106687522503
"63084","Union","MO","Dickey Bub True Value","1 Union Village Shopping Center","63084",38.44116258816011,-90.99231823375928
"63084","Union","MO","Tractor Supply Co.","1650 Denmark Rd","63084",38.430884000000006,-90.96724499999999
"63084","Union","MO","Lindsay Windows Missouri","11 Cedar Court","63084",38.462061,-91.02264265
"63090","Washington","MO","Lowe's","2023 Washington Crossing","63090",38.5373683,-91.0084859
"63090","Washington","MO","Ace Hardware","810 Country Corners","63090",38.540116999999995,-91.006839
"63090","Washington","MO","Bleckman's Machine","not_available","63090",38.561536,-91.014235
"63090","Washington","MO","Hillermann Nursery & Florist","2601 E Fifth Street","63090",38.5367122,-90.9746115
"63090","Washington","MO","Washington Lumber Company","620 Market St","63090",38.555089,-91.012744
"63090","Washington","MO","Sears","1048 Washington Square","63090",38.5360183,-91.0037612
"63090","Washington","MO","Riback","205 E 8th St","63090",38.55292,-91.012819
"63090","Washington","MO","Sherwin-Williams Paint Store","814 Washington Cors","63090",38.539451599121094,-91.00697326660156
"63102","Saint Louis","MO","Fehlig Brothers Lumber","1900-1998 Cole St","63106",38.637510957038224,-90.20550549030304
"63102","Saint Louis","MO","NYP Corp.","1416-1418 N Broadway","63102",38.638599,-90.18549999999999
"63102","Saint Louis","MO","Zamzow","not_available","63147",38.657033,-90.193557
"63102","Saint Louis","MO","Marx Hardware","2501 N 14th St","63106",38.64915466308594,-90.19676208496094
"63103","Saint Louis","MO","Hilti Store","not_available","63103",38.627175,-90.221908
"63103","Saint Louis","MO","Marcone Appliance Parts Center","2300 Clark Ave","63103",38.62793731689453,-90.21533203125
"63103","Saint Louis","MO","Frost Electric Supply","2720 Walnut Pl","63103",38.629947662353516,-90.21806335449219
"63103","Saint Louis","MO","Grainger","2233 Clark Ave","63103",38.62860870361328,-90.21394348144531
"63104","Saint Louis","MO","Production Steel","not_available","63104",38.601908,-90.207234
"63104","Saint Louis","MO","Sherwin-Williams Commercial Paint Store","1608 S Broadway","63104",38.60907400485057,-90.19844055175781
"63104","Saint Louis","MO","Hoods discount home center","Jefferson","63118",38.59469382456392,-90.22485320630139
"63104","Saint Louis","MO","Mirror Warehouse","1810 South Broadway","63104",38.607452392578125,-90.20008850097656
"63104","Saint Louis","MO","Edele & Mertz Hardware","1822 S Broadway","63104",38.60761351997533,-90.20058928875501
"63105","Saint Louis","MO","Sherwin-Williams Paint Store","6717 Clayton Rd","63117",38.634910583496094,-90.31674194335938
"63105","Saint Louis","MO","Integrity Construction Zone","not_available","63130",38.655670166015625,-90.30359649658203
"63108","Saint Louis","MO","New Market Hardware","4064 Laclede Ave","63108",38.63704678897565,-90.2466043370981
"63108","Saint Louis","MO","Gateway Brothers Construction Inc","3923 W Belle Pl","63108",38.64604949951172,-90.23692321777344
"63108","Saint Louis","MO","Sentry Hardware","not_available","63108",38.642536,-90.244565
"63109","Saint Louis","MO","Southside  Hardware","6401 Hampton Ave","63109",38.575107290438616,-90.2946792221977
"63109","Saint Louis","MO","Dipple Plumbing","Hampton","63109",38.579733,-90.282797
"63109","Saint Louis","MO","Arnold Hardware","6809 Gravois Ave","63116",38.57124882180179,-90.28390820299924
"63109","Saint Louis","MO","Woodys","not_available","63123",38.56616830405894,-90.32005724949641
"63109","Saint Louis","MO","PPG Porter Paints","5400 Hampton Ave","63109",38.582028089982316,-90.29286777249699
"63110","Saint Louis","MO","Trane Parts","not_available","63110",38.625987,-90.266003
"63110","Saint Louis","MO","Sherwin-Williams Paint Store","3109 Watson Rd","63139",38.607072830200195,-90.293558
"63110","Saint Louis","MO","Fastenal","2208 S Vandeventer Ave, St Louis, MO 63110","63110",38.614158630371094,-90.26519775390625
"63110","Saint Louis","MO","Cee Kay Supply","5835 Manchester Ave","63110",38.6238702,-90.2855515
"63110","Saint Louis","MO","Pittsburgh Pipe & Supply Corp.","2331 Hampton Ave","63139",38.61415100097656,-90.28809356689453
"63110","Saint Louis","MO","Holt Electrical Supplies","1943 S Vandeventer Ave","63110",38.61766815185547,-90.26331329345703
"63110","Saint Louis","MO","Henry Plumbing Supply Company","1616 S Kingshighway Blvd","63110",38.62084197998047,-90.26599884033203
"63110","Saint Louis","MO","Cardinal Building Materials","4565 McRee Ave","63110",38.62039,-90.26037812232971
"63110","Saint Louis","MO","We Rent It","2616 Brannon Ave","63139",38.61034294176604,-90.27507909857079
"63110","Saint Louis","MO","Cabinets Flooring and More","not_available","63139",38.622684478759766,-90.28964233398438
"63110","Saint Louis","MO","Merlin Stelzer Sales Company, Inc.","4109 Papin St","63110",38.62972185512395,-90.25007950324942
"63110","Saint Louis","MO","Crescent Parts","Manchester","63110",38.62487814912082,-90.27169475622364
"63110","Saint Louis","MO","Nu Way","not_available","63125",38.61829869805687,-90.25496079708581
"63111","Saint Louis","MO","Lowe's","932 Loughborough Ave","63111",38.555273,-90.2645239
"63111","Saint Louis","MO","minuteKEY","932 LOUGHBOROUGH AVENUE","63111",38.5570049,-90.261007
"63111","Saint Louis","MO","Tesson Roofing & Exteriors LLC","616 Blow St","63111",38.55444,-90.2591
"63111","Saint Louis","MO","Superior Industrial Supply","8525 Vulcan St","63111",38.5394713,-90.2639978
"63111","Saint Louis","MO","Rathbone Hardware","7625 S Broadway","63111",38.54695801980572,-90.25773401122179
"63112","Saint Louis","MO","Crescent Plumbing Supply","640 Rosedale Ave","63112",38.65618216,-90.29549799
"63113","Saint Louis","MO","Sherwin-Williams Paint Store","1415 N Kingshighway Blvd","63113",38.66214023614242,-90.2622663974762
"63114","Saint Louis","MO","The Home Depot","8901 Page Avenue","63114",38.688047281273214,-90.35511374473572
"63114","Saint Louis","MO","Biener Hardware","9200 Saint Charles Rock Rd","63114",38.714731335639954,-90.35839676856995
"63114","Saint Louis","MO","Hood's Discount Home Center","Natural Bridge Rd.","not_available",38.718413763771295,-90.32897364748173
"63114","Saint Louis","MO","Overland Hardware","2520 Woodson Rd","63114",38.703691,-90.361379
"63114","Saint Louis","MO","United Granite","3218","63103",38.68917223322574,-90.38874832812121
"63114","Saint Louis","MO","Ango Kernan Rental and Sales","not_available","63114",38.68716886,-90.3612345457077
"63114","Saint Louis","MO","MasterShield of St Louis","1829 Belt Way Dr","63114",38.689194,-90.351216
"63114","Saint Louis","MO","ELJAY LAWN PRODUCTS","7711 Page Ave","63133",38.6804037,-90.3227303
"63114","Saint Louis","MO","Carter Waters","1441 N Warson Rd","63132",38.68752670288086,-90.3962173461914
"63114","Saint Louis","MO","Titan Global Distribution","1100 Corporate Square Dr","63132",38.677467346191406,-90.40036010742188
"63116","Saint Louis","MO","The Home Depot","3202 S Kingshighway Blvd","63139",38.60141923751164,-90.2674001455307
"63116","Saint Louis","MO","Harbor Freight Tools","4610 Chippewa St Ste A","63116",38.59062574693851,-90.27069968705243
"63116","Saint Louis","MO","Plumbers Supply","4170 Carondelet Blvd","63123",38.55870819091797,-90.28299713134766
"63116","Saint Louis","MO","Paint Supply","3504 S Grand Blvd","63118",38.593608,-90.243668
"63116","Saint Louis","MO","Sherwin-Williams Paint Store","3421 S Grand Blvd","63118",38.59532753861496,-90.24366796016693
"63116","Saint Louis","MO","Beaver Tools","4029 Gravois Ave","63116",38.59053421020508,-90.25416564941406
"63118","Saint Louis","MO","paint supply","3504 grand","63116",38.587546335540985,-90.2397093588092
"63119","Saint Louis","MO","Ace Hardware","8740 Manchester Rd","63144",38.61193233176756,-90.34763232620087
"63119","Saint Louis","MO","RSI Kitchen & Bath","9700 Manchester Rd","63119",38.60836018075612,-90.36785970545874
"63119","Saint Louis","MO","Mac Do it Best Hardware","40 E Lockwood Ave","63119",38.592290999999996,-90.35511899999999
"63119","Saint Louis","MO","Signature Plumbing Services St Louis","1453 Lanvale Dr","63119",38.56711,-90.35330400000001
"63119","Saint Louis","MO","Feather Craft Fly Fishing","8307 Manchester Rd","63144",38.61213804760905,-90.34079710592793
"63119","Saint Louis","MO","Sherwin-Williams Paint Store","9466 Manchester Rd","63119",38.608914713521386,-90.36315500736235
"63119","Saint Louis","MO","Kalb Electric","not_available","63143",38.611489,-90.323682
"63119","Saint Louis","MO","Harbor Freight","Watson St","63119",38.56554236,-90.35686053
"63119","Saint Louis","MO","Liese Lumber Co.","319 East Main St.","62222",38.61194444444445,-90.32055555555556
"63119","Saint Louis","MO","Micro-Ovens","7835 Manchester Rd","63143",38.6137729883194,-90.32963812351227
"63119","Saint Louis","MO","Lawn Care Equipment Co.","8605 Manchester Rd","63144",38.61248137170104,-90.3440955528565
"63119","Saint Louis","MO","Paint & Decorating Depot","8041A Watson Road, Yorkshire Shopping Center","63119",38.568629,-90.3410842
"63119","Saint Louis","MO","Brentwood Materials","2950 S Brentwood Blvd","63144",38.608552,-90.349793
"63119","Saint Louis","MO","Fastenal","8410 Manchester Rd","63144",38.611743,-90.34229
"63119","Saint Louis","MO","Lawn Care Equipment Company","8925 Watson Rd","63119",38.563829,-90.3662579
"63122","Saint Louis","MO","Lowe's","1212 South Kirkwood Road","63122",38.561511,-90.4036343
"63122","Saint Louis","MO","Rick's Ace Hardware","11767 Manchester Rd","63131",38.600475,-90.429374
"63122","Saint Louis","MO","Harbor Freight Tools","9901 Watson Rd Ste 133","63126",38.55721463062747,-90.3930664878897
"63122","Saint Louis","MO","minuteKEY","1202 S Kirkwood Rd","63122",38.56256866455078,-90.40673828125
"63122","Saint Louis","MO","Sears","15 Crestwood Plz","63126",38.55960141,-90.37912305
"63122","Saint Louis","MO","REINEKE DECORATING CENTER","12017 Manchester Rd","63131",38.60260359999999,-90.43616039999999
"63122","Saint Louis","MO","Kirkwood Hardware","139 West Jefferson","63122",38.58228385448456,-90.408016
"63122","Saint Louis","MO","Lawrence Fabric & Metal Structures Inc.","3509 Tree Court Industrial Blvd","63122",38.5608739935661,-90.4602697211974
"63122","Saint Louis","MO","PPG Porter Paints","not_available","63131",38.60027226208917,-90.42972692100187
"63122","Saint Louis","MO","Tamko Building Products","425 N Highway Dr","63026",38.543757,-90.445679
"63122","Saint Louis","MO","Sherwin-Williams Paint Store","9864 Watson Rd","63126",38.556400299072266,-90.3919906616211
"63122","Saint Louis","MO","minuteKEY","1212 S Kirkwood Rd","63122",38.56135177612305,-90.40363311767578
"63123","Saint Louis","MO","The Home Depot","7481 S Lindberg Blvd","63125",38.5055427,-90.3219253
"63123","Saint Louis","MO","Cotton's Ace Hardware","4221 Reavis Barracks Rd","63125",38.5206999,-90.2998
"63123","Saint Louis","MO","Cotton's Ace Hardware","835 Lemay Ferry Rd","63125",38.537188,-90.284332
"63123","Saint Louis","MO","Sherwin-Williams Paint Store","2590 Lemay Ferry Rd","63125",38.51919131461681,-90.30581300254343
"63123","Saint Louis","MO","Affton Lawn Equipment","9875 Gravois Rd","63123",38.551327,-90.329552
"63123","Saint Louis","MO","Cotton's Ace Hardware","10042 Gravois Rd","63123",38.55091,-90.335649
"63123","Saint Louis","MO","Art Van PureSleep","5711 South Lindbergh Boulevard","63123",38.52251562,-90.35172979
"63123","Saint Louis","MO","Inventory Sales","9777 Reavis Rd","63123",38.54531478881836,-90.32584381103516
"63123","Saint Louis","MO","Missouri Vacuum","9501 Gravois Rd","63123",38.55333666666667,-90.32191595
"63123","Saint Louis","MO","Sears","250 S County Center Way","63129",38.50624886125483,-90.33336408775553
"63123","Saint Louis","MO","kirkwood materials south","8601 New Hampshire Ave","63123",38.56112363919306,-90.32891489221379
"63124","Saint Louis","MO","Schnarr's Hardware","9800 Clayton Rd","63124",38.63834022033168,-90.38993948594245
"63124","Saint Louis","MO","Shop Where You Live","2320 S Brentwood Blvd","63144",38.6191861,-90.3484392
"63124","Saint Louis","MO","KOHLER Signature Store by Crescent Supply","9929 Clayton Rd","63124",38.63687751,-90.39444783
"63124","Saint Louis","MO","Sherwin-Williams Paint Store","9818 Clayton Rd","63124",38.637804664169266,-90.3906203111115
"63125","Saint Louis","MO","ShedsForLessDirect.com","2821 Westlawn St","63125",38.5032958984375,-90.28876495361328
"63125","Saint Louis","MO","Sears Appliance & Hardware","3160 Telegraph Rd","63125",38.497955322265625,-90.2987060546875
"63126","Saint Louis","MO","Ace Hardware","9065 Watson Rd","63126",38.56217887346447,-90.37198133956315
"63128","Saint Louis","MO","Cotton's Ace Hardware","13246 Tesson Ferry Rd","63128",38.4825799,-90.385499
"63128","Saint Louis","MO","Imco","5414 Lemay Ferry Rd","63129",38.48014450073242,-90.3537826538086
"63129","Saint Louis","MO","Handyman True Value Hardware","5405 Telegraph Rd","63129",38.47702986918552,-90.30510001728977
"63132","Saint Louis","MO","beyers lumber & hardware","8684 Olive Blvd","63132",38.67399389410909,-90.36079428209278
"63133","Saint Louis","MO","St. Louis Hardware Manufacturing Company","1541 Salzman Ave","63133",38.681438,-90.294044
"63135","Saint Louis","MO","Harbor Freight Tools","10815 W Florissant Ave","63136",38.767357593505466,-90.28272463717664
"63135","Saint Louis","MO","Sherwin-Williams Paint Store","10443 W Florissant Ave","63136",38.762996673583984,-90.2808609008789
"63135","Saint Louis","MO","Ferguson Hardware","103 S Florissant Rd","63135",38.742671966552734,-90.30464172363281
"63136","Saint Louis","MO","The Home Depot","10930 New Halls Ferry Rd","63136",38.76991975053736,-90.26253676722263
"63138","Saint Louis","MO","M & R Hardware","12112 Bellefontaine Rd","63138",38.79351806640625,-90.21356201171875
"63138","Saint Louis","MO","Ilmo Products","not_available","62040",38.77030711970136,-90.11938856454077
"63139","Saint Louis","MO","Architectural Accents","7156 Manchester Ave","63143",38.61497116088867,-90.3119888305664
"63141","Saint Louis","MO","Sherwin-Williams Paint Store","11353 Olive Blvd","63141",38.6714499,-90.4318177
"63141","Saint Louis","MO","Milbradt Lawn Equipment","not_available","63141",38.669748,-90.44097
"63143","Saint Louis","MO","Lowe's","2300 Maplewood Commons Drive","63143",38.6185179,-90.3314258
"63143","Saint Louis","MO","minuteKEY","2300 Maplewood Commons Dr","63143",38.61888885498047,-90.33183288574219
"63143","Saint Louis","MO","minuteKEY","1900 Maplewood Commons Dr","63143",38.62120819091797,-90.33143615722656
"63144","Saint Louis","MO","The Home Depot","1603 S Hanley Rd","63144",38.6260365,-90.33617
"63144","Saint Louis","MO","Menards","1700 S Hanley Rd","63144",38.62460729222311,-90.33328449231858
"63144","Saint Louis","MO","Saint Louis Boiler Company","not_available","63144",38.621898,-90.341543
"63144","Saint Louis","MO","Grainger","281 Hanley Industrial Ct","63144",38.619964599609375,-90.33804321289062
"63146","Saint Louis","MO","Hte Technologies","2021 Congressional","63146",38.69604710290767,-90.43900075623876
"63146","Saint Louis","MO","Ferguson Fire & Fabrication","2086 Westport Center Dr","63146",38.69589228343202,-90.42074986194531
"63301","Saint Charles","MO","The Home Depot","3891 Mexico Rd","63303",38.78725,-90.5641431
"63301","Saint Charles","MO","Lowe's","2900 West Clay Street","63301",38.7885581,-90.530678
"63301","Saint Charles","MO","Menards","not_available","63376",38.79369435989632,-90.60512041540824
"63301","Saint Charles","MO","Grasser Electric","60 Boone Hills Dr","63376",38.785188,-90.599248
"63301","Saint Charles","MO","Sears","3 Mid Rivers Mall Dr","63376",38.79737288555809,-90.61466872398846
"63301","Saint Charles","MO","Brewer's True Value Hardware","915 Jungermann Rd","63376",38.772563424635585,-90.58186414722668
"63301","Saint Charles","MO","Art Van PureSleep","2101 East Terra Lane","63366",38.803912,-90.666313
"63301","Saint Charles","MO","Ace Hardware","2020 1st Capitol Dr","63301",38.78438186645508,-90.50306701660156
"63301","Saint Charles","MO","Tool Service Center","not_available","63301",38.786488,-90.512229
"63301","Saint Charles","MO","Chic Lumber Co & Design Center","2625 E Terra Ln","63366",38.803199768066406,-90.65355682373047
"63301","Saint Charles","MO","Harbor Freight Tools","3803 Mexico Rd","63303",38.79054401397401,-90.56248681769002
"63301","Saint Charles","MO","Sherwin-Williams Paint Store","1340 S 5th St","63301",38.7715746,-90.4921688
"63301","Saint Charles","MO","Sears","3 Mid Rivers Mall","63376",38.79721341255008,-90.61462769444273
"63301","Saint Charles","MO","Northern Tool + Equipment","4055 Veterans Memorial Parkway","63376",38.793858,-90.569775
"63303","Saint Charles","MO","Hackmann's Home Center","3030 S Saint Peters Pkwy","63303",38.749927500708004,-90.56596421020551
"63303","Saint Charles","MO","Got Custom Hardwood","184 Harvest Moon Ct","63304",38.742118,-90.5987339
"63303","Saint Charles","MO","Metro Electric","6801 Holder St","63143",38.742002567675684,-90.57636169050993
"63303","Saint Charles","MO","Spotswood Electric","498 S 5th St #284","63301",38.779379916387924,-90.48766851425171
"63303","Saint Charles","MO","Happy's Appliance","not_available","63303",38.7737230472976,-90.50842555664325
"63303","Saint Charles","MO","Milford plumbing supply","1799 Ford Ln","63303",38.764291,-90.525518
"63303","Saint Charles","MO","Farrell-Calhoun Paint","4001 S Cloverleaf Dr","63376",38.791874,-90.569969
"63303","Saint Charles","MO","minuteKEY","2900 W Clay St","63301",38.78866195678711,-90.53022766113281
"63303","Saint Charles","MO","Floor Trader","1185 Veterans Memorial Pkwy","63303",38.77093,-90.503225
"63303","Saint Charles","MO","minuteKEY","2897 Veterans Memorial Pkwy","63303",38.78250503540039,-90.52837371826172
"63303","Saint Charles","MO","Happy's Appliance","1600 Veterans Memorial Pkwy","63303",38.773562,-90.508415
"63303","Saint Charles","MO","ANCE Door & Key Locksmith","1148-1298 S Benton Ave","63301",38.773101568222046,-90.49223363399506
"63303","Saint Charles","MO","Westlake Ace Hardware","1920 Zumbehl Rd","63303",38.779903757592585,-90.52980476925879
"63303","Saint Charles","MO","Denali Paint (Denali Building Supply)","3790 Harvester Rd Ste 2","63303",38.7447409,-90.58035079999999
"63304","Saint Charles","MO","The Home Depot","6190 Mid Rivers Mall Dr","63304",38.74321400874499,-90.6333178281784
"63304","Saint Charles","MO","Sherwin-Williams Paint Store","135 Ofallon Commons Dr","63368",38.76068878173828,-90.70044708251953
"63304","Saint Charles","MO","Daysee","not_available","63366",38.759793326675464,-90.77363246240431
"63304","Saint Charles","MO","Broan","8000 Phoenix Pkwy","63368",38.752906799316406,-90.74230194091797
"63304","Saint Charles","MO","Battery Outfitters","4638 Mid Rivers Mall Dr","63376",38.76002,-90.63624
"63304","Saint Charles","MO","Ferguson Plumbing Supply","76 Hubble Dr","63368",38.72388913816844,-90.72033210171318
"63304","Saint Charles","MO","Sherwin Williams","55 Charlston Square","63304",38.72482766666667,-90.66627316666667
"63304","Saint Charles","MO","U-Pick Hardwood Lumber","80 Triad South Dr","63304",38.74137496948242,-90.62138366699219
"63333","Bellflower","MO","Dale Brower Custom Digging & Pump Service","193 Rock Rd","63333",39.04206466674805,-91.31893920898438
"63334","Bowling Green","MO","Ace Hardware","1555 W Highway 54 Ste 10","63382",39.421903,-91.073029
"63334","Bowling Green","MO","La Crosse Lumber Co.","1014 W Adams St","63334",39.33642,-91.2039
"63334","Bowling Green","MO","Atl Welding Supply","18120 Highway 54","63334",39.38508987426758,-91.13101959228516
"63341","Defiance","MO","Hill Garage Door Co.","18 Griesenauer Court","63368",38.7271298,-90.7288582
"63343","Elsberry","MO","Complete Mobile Home","not_available","63379",39.080948427220626,-90.97293545650645
"63343","Elsberry","MO","Elsberry hardware","214 Broadway St","63343",39.1657381805265,-90.7821750640869
"63348","Foristell","MO","Lowe's","1889 Wentzville Parkway","63385",38.8181263,-90.8803771
"63348","Foristell","MO","Harbor Freight","15362 Veterans Memorial Pkwy","63385",38.807497,-90.879764
"63348","Foristell","MO","CHARLIE'S FARM & HOME TRUE VALUE","1583 W Pearce Blvd","63385",38.809356689453125,-90.88245391845703
"63348","Foristell","MO","minuteKEY","1971 Wentzville Pkwy","63385",38.814389,-90.878218
"63348","Foristell","MO","Turf & Trails Outdoor Equipment","21500 Veterans Memorial Pkwy","63348",38.8147856,-90.950851
"63348","Foristell","MO","Sherwin-Williams Paint Store","15360 Veterans Memorial Pkwy","63385",38.807497,-90.879764
"63348","Foristell","MO","T & N, Inc","815 Highway T","63348",38.78137,-90.96211
"63348","Foristell","MO","Boehmer Bros. Utility Supply","75 Schaper Rd","63348",38.807699,-90.92835600000001
"63353","Louisiana","MO","La Crosse Lumber Co.","123 N Main St","63353",39.45107,-91.04676
"63353","Louisiana","MO","Louisiana Plumbing & Heating","116 N 4th St","63353",39.451165619790594,-91.0493389428029
"63361","Montgomery City","MO","Montgomery True Value Hardware & Home Center","221 N Sturgeon St","63361",38.97793197631836,-91.50586700439453
"63361","Montgomery City","MO","La Crosse Lumber Co.","1300 Gerken Dr","63361",38.9612728,-91.48963669999999
"63361","Montgomery City","MO","Lacrosse Lumberyard","not_available","63363",38.96202408417799,-91.4890997254017
"63362","Moscow Mills","MO","Husqvarna US","730 Highway C","63362",38.94618225097656,-90.92295837402344
"63362","Moscow Mills","MO","Dad's Plumbing & Cabling Service","108 Spring Church Rd","63379",38.996232,-90.89675799999999
"63362","Moscow Mills","MO","SD Metalworks LLC","59 Progress Ct","63362",38.95610809326172,-90.93421936035156
"63362","Moscow Mills","MO","J.C. Inc","not_available","63362",38.952441,-90.931892
"63366","O Fallon","MO","Lowe's","8501 Mexico Road","63376",38.7907485,-90.6943359
"63366","O Fallon","MO","The Home Depot","1525 Hwy K","63366",38.7884887,-90.7018968
"63366","O Fallon","MO","Professional Roofing & Contracting Services","780 Lakeside Plz","63367",38.802833557128906,-90.75518798828125
"63366","O Fallon","MO","Braco Electrical & Contracting","22 S Perry Cir","63366",38.79411315917969,-90.74834442138672
"63366","O Fallon","MO","Habitat For Humanity Restore","186 Mid Rivers Ctr","63376",38.79958155162242,-90.66694185795161
"63366","O Fallon","MO","Mechanical Supply","827 W Terra Ln","63366",38.803109579282,-90.71889904503335
"63366","O Fallon","MO","Schneider True Value Implement","9 Main St","63376",38.80288,-90.627524
"63366","O Fallon","MO","Cee Kay Supply","927 W Terra Ln","63366",38.803387486793724,-90.72354159133985
"63366","O Fallon","MO","minuteKEY","8501 Mexico Rd","63376",38.790808,-90.69448
"63366","O Fallon","MO","Expert Rentals","8126 Veterans Memorial Pkwy","63376",38.801754,-90.67503099999999
"63366","O Fallon","MO","Orion Electric","223 Salt Lick Rd","63376",38.7966,-90.65492
"63366","O Fallon","MO","Husqvarna US","226 S Main St","63366",38.80875778198242,-90.6994400024414
"63366","O Fallon","MO","ABSOLUTE WIRE EDM LLC","1442 HOFF INDUSTRIAL CTR","63366",38.81079864501953,-90.75203704833984
"63366","O Fallon","MO","Sherwin-Williams Paint Store","5721 Suemandy Dr","63376",38.794469783757485,-90.61972947637572
"63366","O Fallon","MO","Arrowhead Building Supply","13 Guenther Blvd","63376",38.808699,-90.641502
"63366","O Fallon","MO","Husqvarna","19859 Highway P","65769",38.847251892089844,-90.78398895263672
"63367","Lake Saint Louis","MO","Lowe's","6302 Ronald Reagan Drive","63367",38.7672627,-90.7858264
"63367","Lake Saint Louis","MO","Sherwin-Williams Paint Store","6449 Ronald Reagan Dr","63367",38.76480031,-90.78497529
"63368","O Fallon","MO","Baker Exteriors","18 Lamplighter Ln","63368",38.748085,-90.69849099999999
"63369","Old Monroe","MO","Old Monroe Lumber Company","not_available","63369",38.934444,-90.75562267726734
"63376","Saint Peters","MO","Tallman Company Mid Rivers","12 Patmos Ct","63376",38.80036998474122,-90.58703899383545
"63377","Silex","MO","Broadhorst Door","2551 N US Highway 61","63379",39.08186340332031,-90.97445678710938
"63379","Troy","MO","Tractor Supply Co.","170 Market Place Dr","63379",38.988513,-90.971775
"63379","Troy","MO","Orscheln","1 Lincoln Ctr","63379",38.985958099365234,-90.97019958496094
"63379","Troy","MO","Hechler Hardware","521 Main St","63379",38.978809999999996,-90.98060799999999
"63379","Troy","MO","River City True Value Hardware","4041 E Highway 47","63389",38.98527,-90.98442
"63382","Vandalia","MO","Ace Hardware","1555 W US Highway 54 Ste 10","63382",39.303672790527344,-91.50393676757812
"63382","Vandalia","MO","Breneman - Ennis Hardware","902 W Hwy 54","63382",39.30733956666667,-91.49573926666666
"63382","Vandalia","MO","La Crosse Lumber Co.","301 N Main St","63382",39.3108178,-91.48894059999999
"63383","Warrenton","MO","H & H Guns","not_available","63383",38.81842940517784,-91.14163901589289
"63383","Warrenton","MO","minuteKEY","500 Warren County Ctr","63383",38.82337951660156,-91.14257049560547
"63385","Wentzville","MO","The Home Depot","1920 Wentzville Pkwy","63385",38.815772,-90.8742794
"63385","Wentzville","MO","Ehll’s Western Auto","201 W Pearce Blvd","63385",38.81186599999999,-90.855063
"63385","Wentzville","MO","Premier Woodworking.","150 Enterprise Dr","63385",38.822693,-90.836015
"63385","Wentzville","MO","Fastenal","not_available","63385",38.824952,-90.844665
"63385","Wentzville","MO","RM Supply","108 Resource Dr","63385",38.815739,-90.83919
"63385","Wentzville","MO","Scott's Power Equipment","320 Luetkenhaus Blvd","63385",38.815113000000004,-90.844819
"63386","West Alton","MO","Lowe's","1619 Homer Adams Pkwy","62002",38.9176463,-90.1686671
"63386","West Alton","MO","The Home Depot","1710 Homer Adams Pkwy","62002",38.9209721148223,-90.16514629125595
"63386","West Alton","MO","Farm & Home Supply","2600 Homer M Adams Pkwy","62002",38.9170875,-90.1466445
"63386","West Alton","MO","minuteKEY","1619 Homer M Adams Pkwy","62002",38.91731643676758,-90.16842651367188
"63386","West Alton","MO","St Peters Hardware & Rental","2502 State St","62002",38.919845430762905,-90.19325058477013
"63386","West Alton","MO","Belle Street Key","not_available","62002",38.894463,-90.18725919
"63386","West Alton","MO","Tractor Supply Co.","3001 Homer Adams Pkwy","62002",38.912569467259125,-90.1401118945807
"63386","West Alton","MO","Alton 24hr Locksmith","2850 Homer M Adams Pkwy #7","62002",38.91571044921875,-90.14314270019531
"63386","West Alton","MO","RP Lumber","not_available","62035",38.922995210684704,-90.17227706036958
"63386","West Alton","MO","Sherwin-Williams Paint Store","4416 W Center Dr","62002",38.924617767333984,-90.1814956665039
"63386","West Alton","MO","Bo's Hardware","1100 Belle St","62002",38.898279566399715,-90.18663722407783
"63386","West Alton","MO","RP Lumber","4428 Industrial Dr","62002",38.926170349121094,-90.18404388427734
"63386","West Alton","MO","Community Seed & Feed Co","300 N Shamrock St","62024",38.883758544921875,-90.1104736328125
"63401","Hannibal","MO","Lowe's","3651 Stardust Drive","63401",39.7211084,-91.3990917
"63401","Hannibal","MO","Sherwin-Williams Paint Store","2951 Tennyson Rd","63401",39.72598648354233,-91.39342904090881
"63401","Hannibal","MO","Sutherlands","4417 McMasters Ave","63401",39.72196960449219,-91.3944320678711
"63401","Hannibal","MO","Tractor Supply Co.","200 Huck Finn Shopping Ctr","63401",39.7231559753418,-91.39485168457031
"63441","Frankford","MO","Husqvarna US","6187 Highway 61","63441",39.50409698486328,-91.31914520263672
"63445","Kahoka","MO","Wood Builders","165 N Johnson St","63445",40.421283,-91.719132
"63456","Monroe City","MO","orshlens","not_available","63456",39.66014258574583,-91.71300368700742
"63456","Monroe City","MO","Husqvarna US","14864 Demoss Rd","63456",39.61708068847656,-91.68277740478516
"63461","Palmyra","MO","Doors-N-More","not_available","62301",39.910674,-91.378999
"63461","Palmyra","MO","Husqvarna US","2425 S 12th St","62305",39.90169906616211,-91.39339447021484
"63461","Palmyra","MO","Ace Hardware","1212 S Main","63461",39.7891809,-91.523274
"63462","Perry","MO","La Crosse Lumber Co.","103 S Madison St","63462",39.430167,-91.672241
"63471","Taylor","MO","Quincy Plumbing & Heating Distributors","8540 Highway 24","63471",39.9286002,-91.4456885
"63501","Kirksville","MO","Westlake Ace Hardware 004","1614 N Green St","63501",40.208235,-92.581376
"63501","Kirksville","MO","Tractor Supply Co.","1700 North Baltimore St","63501",40.20943,-92.580345
"63501","Kirksville","MO","Westlakes","not_available","63501",40.20733566,-92.58058542
"63501","Kirksville","MO","Sherwin-Williams Paint Store","413 N Baltimore St","63501",40.197625904923264,-92.57268905639648
"63501","Kirksville","MO","The Home Depot","3015 N Baltimore St","63501",40.225790122470194,-92.58463561534882
"63530","Atlanta","MO","West Building Center","206 W Main St","63530",39.8986500400517,-92.48142957687378
"63536","Downing","MO","Downing Plumbing and Heating","Downing Plumbing and Heating","11354",40.486371083577296,-92.3678970336914
"63537","Edina","MO","Edina Farm & Home","204 E Reid St","63537",40.16345,-92.17155
"63552","Macon","MO","Fastenal","701 S Missouri St Ste B","63552",39.730187,-92.46531999999999
"63552","Macon","MO","Orschelns Farm And Home","501 E Briggs Dr","63552",39.752689361572266,-92.46611785888672
"63552","Macon","MO","Westlake Ace Hardware 007","1404 N Missouri St","63552",39.7493169,-92.467997
"63552","Macon","MO","Orschlns","not_available","63552",39.75388888888889,-92.46972222222223
"63552","Macon","MO","Airgas","932 Main St","63552",39.73540496826172,-92.46258544921875
"63555","Memphis","MO","Rose DO It Best Hardware","109 S Main St","63555",40.458516,-92.170607
"63565","Unionville","MO","Lockridge Lumber","not_available","63565",40.488255,-93.00867
"63601","Park Hills","MO","R.P. Lumber","1200 E Main St","63601",37.84318402404387,-90.49618833579403
"63601","Park Hills","MO","Ozarc Gas","not_available","63640",37.825993,-90.463046
"63601","Park Hills","MO","Ace Hardware","3412 Rosener Rd","63601",37.85238274880352,-90.48546253999079
"63627","Bloomsdale","MO","County Do It Center","not_available","63627",38.009034,-90.217431
"63628","Bonne Terre","MO","The Family Center Farm & Ranch Store","not_available","63628",37.92224228700711,-90.53775395781727
"63628","Bonne Terre","MO","Bullseye Equipment & Tool Rental","Northwood Drive","63628",38.00047466634063,-90.56506579294825
"63630","Cadet","MO","Potosi Lumber","not_available","63664",37.936737,-90.771123
"63640","Farmington","MO","Lowe's","625 West Karsch Boulevard","63640",37.7907005,-90.4300425
"63640","Farmington","MO","Best Clean Plus","5429 MO-32","63640",37.78001,-90.39048
"63640","Farmington","MO","Grand Rental Station","Karsch Blvd, Farmington, MO 63640","63640",37.78509257357979,-90.41271367519167
"63640","Farmington","MO","Sherwin-Williams Paint Store","121 Vandergriff St","63640",37.789844955824854,-90.42625665664673
"63640","Farmington","MO","minuteKEY","707 Walton Dr","63640",37.789371490478516,-90.43462371826172
"63640","Farmington","MO","Tractor Supply Co.","604 Walmart Dr","63640",37.788599,-90.431948
"63640","Farmington","MO","Husqvarna US","165 Walker Rd","63640",37.77608871459961,-90.44641876220703
"63640","Farmington","MO","Menards","1280 Maple St","63640",37.7860125252054,-90.44180274009705
"63640","Farmington","MO","Grand True Value Rental Party Plus","616 E Karsch Blvd","63640",37.78499,-90.41157
"63640","Farmington","MO","Sears","606 Walmart Drive","63640",37.7889046,-90.4322522
"63640","Farmington","MO","Plummer's Ace Hardware","101 E Liberty St","63640",37.781086,-90.419837
"63664","Potosi","MO","Ramsey Roofing & Construction","10193 Mayo Ln","63664",37.93021011352539,-90.79192352294922
"63664","Potosi","MO","Dickey Bub True Value","708 E High St","63664",37.92959976196289,-90.77647399902344
"63670","Sainte Genevieve","MO","John Deere","Hwy A","5738835703",37.93405635507073,-90.11906426277726
"63670","Sainte Genevieve","MO","Tractor Supply Co.","20 Plaza Dr","63670",37.967275,-90.052036
"63670","Sainte Genevieve","MO","Cotton's Ace Hardware","601 Sainte Genevieve Dr","63670",37.968297,-90.047442
"63670","Sainte Genevieve","MO","County Do-It Center","not_available","63670",37.967482466770456,-90.0547238991457
"63670","Sainte Genevieve","MO","A & K True Value","601 Ste Genevieve Dr","63670",37.96828247,-90.04735113
"63673","Saint Mary","MO","Buchheit","not_available","63775",37.7142644,-89.888463
"63673","Saint Mary","MO","Rozier True Value","2 E Sainte Marie St","63775",37.72613523,-89.86217199
"63673","Saint Mary","MO","Sears","206 Progress St.","63775",37.7298175,-89.885921
"63673","Saint Mary","MO","Husqvarna US","1001 S Kingshighway St","63775",37.72234344482422,-89.8473129272461
"63673","Saint Mary","MO","Orscheln Hardware","801 N Kingshighway St","63775",37.73894574,-89.87182617
"63701","Cape Girardeau","MO","Menards","535 Siemers Dr","63701",37.28834820666917,-89.5772635002957
"63701","Cape Girardeau","MO","Pocahontas Lumber & Ace Hardware","410 W Independence St","63755",37.39302444458008,-89.66919708251953
"63701","Cape Girardeau","MO","Lowe's","3440 Lowes Drive","63701",37.2962932,-89.5828786
"63701","Cape Girardeau","MO","Tractor Supply Co.","501 South Kingshighway","63703",37.294816,-89.55548
"63701","Cape Girardeau","MO","Elias Ace Hardware","1719 N Kings Highway","63701",37.3307,-89.5698
"63701","Cape Girardeau","MO","Best Clean Fireplace Shoppe","760 S. Kingshighway","63703",37.2842362,-89.5556855
"63701","Cape Girardeau","MO","Sears","330 Siemers Dr","63703",37.29581526,-89.57804667
"63701","Cape Girardeau","MO","Cape Portable Buildings","902 S Kingshighway St","63703",37.278608689210415,-89.55784787990115
"63701","Cape Girardeau","MO","Crescent Parts & Equipment","not_available","63780",37.28388043580903,-89.55648586462868
"63701","Cape Girardeau","MO","Cape Janitor Supply","612 S Kingshighway St","63703",37.291931781366735,-89.55460667308292
"63701","Cape Girardeau","MO","Cape Girardeau Winnelson","2281 Walnut St","63703",37.29487991333008,-89.55250549316406
"63701","Cape Girardeau","MO","Sherwin-Williams Paint Store","211 S Kingshighway St","63703",37.30403925216003,-89.55743003251925
"63701","Cape Girardeau","MO","Jaymac Equipment","not_available","63703",37.30145081029107,-89.54957202581113
"63701","Cape Girardeau","MO","minuteKEY","2021 Independence St","63703",37.305594,-89.549193
"63701","Cape Girardeau","MO","Nu Way","not_available","63755",37.351249,-89.610222
"63701","Cape Girardeau","MO","minuteKEY","3439 William St","63701",37.301067,-89.585243
"63701","Cape Girardeau","MO","Southeast Missouri Builders Supply","411 Jefferson Ave","63703",37.296329498291016,-89.52409362792969
"63701","Cape Girardeau","MO","Ken's Ace Hardware","426 E Main St","63755",37.3820959,-89.663308
"63701","Cape Girardeau","MO","Missouri Power Transmission","not_available","63701",37.305884,-89.518148
"63701","Cape Girardeau","MO","Edgewater Glass","324 S Plaza Way","63703",37.30043029785156,-89.54960632324219
"63703","Cape Girardeau","MO","Baker Implement","401 S Kingshighway St","63703",37.297223,-89.55466
"63703","Cape Girardeau","MO","D'lorch Locksmith","Independence","63703",37.304534,-89.531
"63703","Cape Girardeau","MO","Cape Paint And Glass","15 N Middle St","63701",37.30451,-89.52391802565323
"63703","Cape Girardeau","MO","Cape Color World Inc","341 S Kingshighway St","63703",37.2996933,-89.5535088
"63736","Benton","MO","M Kay Supply, LLC","6626 State Highway 77","63736",37.0947109,-89.5506655
"63736","Benton","MO","Atlantic Fasteners","Haywood","63771",37.012549,-89.601471
"63740","Chaffee","MO","Whitakers Ace Hardware","138 W Yoakum Ave","63740",37.18033218383789,-89.65682983398438
"63740","Chaffee","MO","Delta Supply Inc","835 W State St","63744",37.1966653,-89.7320483
"63755","Jackson","MO","Just Horsin Around Saddle and Tack","21367 State Highway 177","63755",37.445888,-89.62792100000001
"63755","Jackson","MO","minuteKEY","3051 E Jackson Blvd","63755",37.36255,-89.634531
"63755","Jackson","MO","Art Van PureSleep","43 S Main St","63703",37.30247483,-89.51900031
"63764","Marble Hill","MO","Peters Supply","not_available","63764",37.298423,-89.979413
"63780","Scott City","MO","Kelso Milling Co","1205 Main St","63780",37.2177937,-89.52219210000001
"63801","Sikeston","MO","Lowe's","1240 S Main Street","63801",36.8608368,-89.5823091
"63801","Sikeston","MO","minuteKEY","1303 S Main St","63801",36.8575389,-89.586055
"63801","Sikeston","MO","Sherwin-Williams Paint Store","1077 E Malone Ave","63801",36.88105217991951,-89.57065522108896
"63801","Sikeston","MO","Ag-mart","2852","63801",36.8954695552505,-89.52621909482623
"63801","Sikeston","MO","Slusher's Farm & Home Center","1035 Main St","63801",36.8676872253418,-89.58087921142578
"63801","Sikeston","MO","Tractor Supply Co.","1100 South Main St Ste 102","63801",36.865533,-89.58004
"63801","Sikeston","MO","Sikeston electric","not_available","63801",36.85307,-89.58261
"63822","Bernie","MO","farmhand supply","522 S Walnut St","63822",36.66245651245117,-89.96771240234375
"63830","Caruthersville","MO","Sherwin-Williams Paint Store","920 Truman Blvd","63830",36.19019150873207,-89.6679961681366
"63834","Charleston","MO","Davis Home Center","803 E Main St","63845",36.786611,-89.382758
"63841","Dexter","MO","Busy B Lumber","202 N One Mile Rd","63841",36.79532241821289,-89.96916961669922
"63841","Dexter","MO","Christian & Dowdy Lumber Co.","1721 MO 114","63841",36.788698812900854,-89.9384902590805
"63841","Dexter","MO","Tuley Farm & Home","1301 MO-114","63841",36.788779,-89.941382
"63845","East Prairie","MO","menatds","Hickman","63845",36.737552642822266,-89.33737182617188
"63857","Kennett","MO","Barton's","530 South Bypass","63857",36.2512693,-90.0518375
"63857","Kennett","MO","Burke True Value Hardware","1207 St Francis St","63857",36.23652,-90.06927
"63857","Kennett","MO","Ace Hardware","1023 Homecrest St","63857",36.247859954833984,-90.06471252441406
"63857","Kennett","MO","Tractor Supply Co.","1780 First St","63857",36.23848342895508,-90.03390502929688
"63857","Kennett","MO","Sears","624 Independence","63857",36.24274,-90.031817
"63863","Malden","MO","Sears","1206 N. Douglas","63863",36.5741627,-89.9700812
"63863","Malden","MO","Barton's","802 North Douglas","63863",36.568181,-89.970244
"63863","Malden","MO","Powell  Supply Inc","2306 N Douglass St","63863",36.59138,-89.96978
"63873","Portageville","MO","Wood's Lumber","724 East 10th Street","not_available",36.43358589268354,-89.69188293027419
"63901","Poplar Bluff","MO","The Home Depot","639 S Westwood Blvd","63901",36.7488098,-90.4130554
"63901","Poplar Bluff","MO","Menards","3105 Oak Grove Rd","63901",36.790059551448486,-90.44608738023715
"63901","Poplar Bluff","MO","Mills","not_available","63901",36.742578,-90.416473
"63901","Poplar Bluff","MO","Meek's Lumber in Poplar Bluff","3051 N Westwood Blvd","63901",36.791969299316406,-90.4365005493164
"63901","Poplar Bluff","MO","Southeast Insulation","1716 S Broadway St","63901",36.74258804321289,-90.39533996582031
"63901","Poplar Bluff","MO","minuteKEY","3001 Oak Grove Rd","63901",36.790130615234375,-90.44070434570312
"63901","Poplar Bluff","MO","Poplar Bluff Winnelson","2840 S 11th St","63901",36.73759078979492,-90.42240905761719
"63901","Poplar Bluff","MO","Sears","720 South Westwood Boulevard","63901",36.7519424,-90.4086512
"63901","Poplar Bluff","MO","Pack's Do-It Center","918 S Westwood Blvd","63901",36.749421068754955,-90.4099386717326
"63901","Poplar Bluff","MO","Sherwin-Williams Paint Store","2321 Eugene Blvd","63901",36.783046732850345,-90.42548418045044
"63901","Poplar Bluff","MO","Habor Freight Tools","2128 N Westwood Blvd","63901",36.778499603271484,-90.42347717285156
"63901","Poplar Bluff","MO","Orscheln Farm & Home","950 N Westwood Blvd","63901",36.76555633544922,-90.41217041015625
"63901","Poplar Bluff","MO","Mills Iron & Supply Co.","1919 S Westwood Blvd","63901",36.74157169,-90.41669589
"63935","Doniphan","MO","Meek's Lumber in Doniphan","301 N Grand Ave","63935",36.6191291809082,-90.82559204101562
"63935","Doniphan","MO","Davis True Value Hardware","238 Hwy St","63935",36.627391,-90.824896
"63937","Ellsinore","MO","Husqvarna US","PO Box 122","63937",36.936153411865234,-90.76615905761719
"63944","Greenville","MO","Henson Farm Supply, Inc.","HC 1 Box 1415","63944",37.063347,-90.484801
"63957","Piedmont","MO","Husqvarna US","118 E Elm St","63957",37.153831481933594,-90.69621276855469
"63960","Puxico","MO","Holloway Lumber Inc.","201 N Highway 51","63960",36.951351165771484,-90.15911865234375
"63965","Van Buren","MO","Craftons- Do It Best","not_available","63965",37.01046403298241,-90.99577579689259
"64012","Belton","MO","Lowe's","225 North Dean Avenue","64083",38.8108844,-94.4904615
"64012","Belton","MO","Menards","800 E Markey Pkwy","64012",38.82110139562374,-94.51833718765634
"64012","Belton","MO","Tractor Supply Co.","8016 171st St","64012",38.814723,-94.498214
"64012","Belton","MO","Sherwin-Williams Paint Store","2007 W Foxwood Dr","64083",38.81229226639398,-94.49488878250122
"64012","Belton","MO","Mid-America Pool Renovation, Inc.","5929 East 154 Terrace","64030",38.8447907,-94.5269745
"64012","Belton","MO","Ace Hardware","North Cass Shpg Ctr","64012",38.81220114771879,-94.50807064928983
"64012","Belton","MO","Energy Pro Windows & Siding","16501 Cornerstone Dr","64012",38.822979,-94.51593
"64012","Belton","MO","Lumax Power Equipment","17131 Bel Ray Pl","64012",38.8116359,-94.49884290000001
"64012","Belton","MO","The Home Depot","1306 E North Avenue","64012",38.8154942,-94.5137809
"64012","Belton","MO","Westlake Ace Hardware","1735 E North Ave","64012",38.813011169433594,-94.50768280029297
"64012","Belton","MO","U.S. Home Filter","200 Cunningham Pkwy","64012",38.811363220214844,-94.50923156738281
"64012","Belton","MO","Rudroff Heating & Air Conditioning","234 Peculiar Dr","64012",38.809714,-94.502938
"64012","Belton","MO","minuteKEY","2015 N Foxwood Dr.","64083",38.810451,-94.495606
"64014","Blue Springs","MO","The Home Depot","905 NE Adams Dairy Pkwy","64014",39.02464330436199,-94.25212740898132
"64014","Blue Springs","MO","Westlake Ace Hardware","1205 N 7 Hwy @ I-70","64015",39.00814514715323,-94.27063839133785
"64014","Blue Springs","MO","Feldman's","not_available","64014",39.01550093506698,-94.27158285593381
"64014","Blue Springs","MO","Sherwin-Williams Paint Store","300 SW State Route 7","64014",39.016049431281274,-94.27185773849486
"64014","Blue Springs","MO","Westlake Ace Hardware 010","1205 N 7 Hwy","64014",39.032214,-94.270786
"64014","Blue Springs","MO","grego's","not_available","64015",39.030975341796875,-94.27448272705078
"64014","Blue Springs","MO","Ace Hardware","1205 NW State Route 7","64014",39.03224182128906,-94.2730484008789
"64014","Blue Springs","MO","Ace Hardware","918 SW State Route 7","64014",39.028275,-94.27186
"64014","Blue Springs","MO","Habitat for Humanity Restore","129","64015",39.032976492391214,-94.27244145393233
"64014","Blue Springs","MO","Knobs & Locks","2420 SW State Route 7","64014",38.993831634521484,-94.27274322509766
"64015","Blue Springs","MO","Menard's","4101 little blue parkway","64057",39.041954139460955,-94.33856691697542
"64015","Blue Springs","MO","Lowe's","19000 East Valley View Parkway","64055",39.0348225,-94.359451
"64015","Blue Springs","MO","Sears","18777 E 39th St S","64057",39.04613784069219,-94.35943097762781
"64015","Blue Springs","MO","Foxware Computer Systems","1021 NE Jib Ct","64064",38.98861611666667,-94.3546265
"64015","Blue Springs","MO","Guier Fence Co.","2501B Northwest Jefferson Street","64015",39.03349138,-94.29209819
"64015","Blue Springs","MO","Spectrum Paint","19321 US 40 Hwy Ste. D","64055",39.029659298720425,-94.35551190804698
"64015","Blue Springs","MO","Holmes Drywall Supply","1200 NE Delta School Road, Lees Summit, Mo","not_available",38.98984147828136,-94.34941057602585
"64016","Buckner","MO","AAA Lawnmower","2632 N Six Mile Church Rd","64058",39.148974,-94.274047
"64016","Buckner","MO","Buckner Surplus","21 Washington Street","64016",39.132287,-94.19986999999999
"64019","Centerview","MO","B-Quip Equipment Rental Inc","82 NW 151st Rd","64093",38.7751768,-93.7737199
"64024","Excelsior Springs","MO","Ace Hardware","157 Crown Hill Rd","64024",39.33943666089164,-94.24874930225833
"64024","Excelsior Springs","MO","Kramers Hardware","1743","64024",39.33628517,-94.2511163
"64024","Excelsior Springs","MO","Sears","1450 Kearney Road","64024",39.339105,-94.24368
"64029","Grain Valley","MO","State Line Door & Lift","1207 SW Graystone Dr","64029",38.9973052647513,-94.2202828593352
"64030","Grandview","MO","True Value","not_available","64147",38.861395653348914,-94.50745870116316
"64030","Grandview","MO","Factory Surplus","14330 South 71 Highway","not_available",38.86483383178711,-94.5291748046875
"64030","Grandview","MO","J&J Screen","1315 Main St","64030",38.88851547241211,-94.52918243408203
"64030","Grandview","MO","Allied Concrete Products, Inc.","12800 2nd St","64030",38.893233,-94.546099
"64030","Grandview","MO","Atlas Copco Rental","12909 2nd St","64030",38.89169670383625,-94.54303041100502
"64030","Grandview","MO","Sherwin-Williams Paint Store","12416 Blue Ridge Ext","64030",38.899413688077736,-94.533403346031
"64030","Grandview","MO","Spectrum Paint","13820 S US Highway 71","64030",38.87776558190874,-94.52550982575004
"64030","Grandview","MO","Midland True Value Hardware","12012 Blue Ridge Extension","64030",38.906371,-94.527625
"64030","Grandview","MO","Berrys Lock Service","not_available","64030",38.90290342277413,-94.52267589054452
"64030","Grandview","MO","Castle Rock Remodeling","13911 Century Ln","64030",38.87081105,-94.5378953
"64030","Grandview","MO","City Electric Supply Grandview","1327 Main St","64030",38.8888406,-94.5290629
"64034","Greenwood","MO","Pleasant Hill True Value","2207 N State Route 7","64080",38.81744457,-94.26444111
"64037","Higginsville","MO","Orscheln's","not_available","64067",39.149038,-93.805059
"64037","Higginsville","MO","Nuts And Bolts - Lexington","750 S Business Hwy 13","64067",39.0952324,-93.7348974
"64037","Higginsville","MO","Lafayette County Truck & Tractor Co.","2810 Highway 13 Blvd","64037",39.066262,-93.732819
"64037","Higginsville","MO","Community Lumber & Ace Hardware","3501 Highway 13","64037",39.072628,-93.716978
"64040","Holden","MO","Erickson Machine and Design","12911 S AL Gossett Rd","64070",38.88043975830078,-94.12003326416016
"64040","Holden","MO","Heiman True Value Farm Supply (Heiman True Value)","201 S Vine St","64040",38.71686158,-93.98705292
"64040","Holden","MO","Mallory Ag, Inc.","1560 SW 500th Rd","64040",38.6975258,-94.0442805
"64040","Holden","MO","Heiman's","201-299 S Vine St","64040",38.71719008,-93.98690054
"64050","Independence","MO","Tractor Supply Co.","2210 South State Rte 291 Hwy","64057",39.07891,-94.380196
"64050","Independence","MO","Sladek Hardware","15805 E US Highway 24","64050",39.1144615017409,-94.38775608816096
"64050","Independence","MO","Westlake Ace Hardware 049","415 E US Highway 24","64050",39.101325,-94.409671
"64050","Independence","MO","Sherwin-Williams Paint Store","517 E US Highway 24","64050",39.1008415222168,-94.4075927734375
"64050","Independence","MO","Roberts Small Engine Repair","not_available","64052",39.08275000572535,-94.43240531033784
"64052","Independence","MO","P&G Hardware","10119 E Truman Rd, Independence, MO 64052","64052",39.09508514404297,-94.4576187133789
"64052","Independence","MO","Lock & Key","11321 E US Hey 40 Ste A","64050",39.048132647924035,-94.44618076400923
"64055","Independence","MO","Lowe's","4201 Sterling Avenue","64133",39.044978,-94.4463215
"64055","Independence","MO","The Home Depot","4210 S Lees Summit Rd","64055",39.04350281777546,-94.39115703105927
"64055","Independence","MO","Sutherlands","13013 E US Highway 40","64055",39.03516103324903,-94.42410370624432
"64055","Independence","MO","Northern Tool + Equipment","4023 S Noland Rd","64055",39.047839480225626,-94.41355963419544
"64055","Independence","MO","minuteKEY","3411 S Noland Rd","64055",39.05815124511719,-94.41389465332031
"64055","Independence","MO","Tuff Shed","1719 S Noland Rd","64055",39.0710969,-94.4136074
"64055","Independence","MO","Zeke's Paint & Design Centers","3629 S Noland Rd","64055",39.054971,-94.414254
"64055","Independence","MO","Harbor Freight Tools","4368 S Noland Rd","64055",39.0405166754361,-94.41745754954673
"64055","Independence","MO","Cornerstone Home Improvements","5056 Blue Ridge Blvd","64133",39.029621,-94.43990600000001
"64055","Independence","MO","Ferguson Plumbing Supply","13907 E 35th St","64055",39.05750795706592,-94.4165033628572
"64055","Independence","MO","United refridgeration","13910 S Noland Ct, Independence, MO 64055","64055",39.055347,-94.416296
"64055","Independence","MO","Fine Flooring & Wholesale Center","not_available","64055",39.04485386888551,-94.41751813279417
"64055","Independence","MO","Nuts And Bolts","3844 S Noland Rd","64055",39.051116,-94.416005
"64055","Independence","MO","Nuts And Bolts","2327 S M-291 Hwy","64057",39.06177399969406,-94.38320709919284
"64055","Independence","MO","minuteKEY","11601 E US Highway 40","64133",39.04533386230469,-94.44353485107422
"64055","Independence","MO","minuteKEY","4000 S Bolger Rd","64055",39.0463591,-94.3666524
"64056","Independence","MO","Worldwide Liquidators","not_available","64057",39.07675552368164,-94.37872314453125
"64060","Kearney","MO","Kearney Lawn and Rental","not_available","64060",39.36782993756578,-94.37645040877928
"64060","Kearney","MO","Porters Building Center Inc","700 E 92 Highway","64060",39.3690679,-94.350931
"64060","Kearney","MO","Midtown Hardware","155 E 45th St","10017",39.36326921180522,-94.360671043396
"64060","Kearney","MO","Fries Lawn And Leisure","100 N Platte Clay Way","64060",39.37201773,-94.36846309
"64060","Kearney","MO","Nuts And Bolts Kearney","252 W 6th St","64060",39.3685188293457,-94.36546325683594
"64060","Kearney","MO","Kramer Hardware","200 W 6th St","64060",39.3684446811676,-94.3646889925003
"64060","Kearney","MO","Shaded Solutions","906 N Ash St","64060",39.3789144,-94.3818294
"64062","Lawson","MO","Morrow Lumber & Sons","not_available","64062",39.439913591136154,-94.21623928910269
"64063","Lees Summit","MO","Harbor Freight","not_available","64063",38.905718,-94.379835
"64063","Lees Summit","MO","Westlake Ace Hardware 061","444 SW Ward Rd","64081",38.9095069,-94.395527
"64063","Lees Summit","MO","Westlake Ace Hardware 034","103 S 291 Highway","64063",38.9172069,-94.362217
"64063","Lees Summit","MO","Fresh Coat of Lee's Summit","705B SE Melody Ln #309","64063",38.9057502746582,-94.36200714111328
"64063","Lees Summit","MO","Spectrum Paint","222 NW Oldham Pkwy","64081",38.91740394585514,-94.40165074046214
"64063","Lees Summit","MO","Tractor Supply Co.","1253 Southeast Oldham Pkwy","64081",38.901071,-94.343899
"64063","Lees Summit","MO","Diamond Vogel Paints","1021 SW Blue Pkwy, Lee's Summit, MO 64063","64063",38.91138625408018,-94.39279738619643
"64063","Lees Summit","MO","Sherwin-Williams Paint Store","729 NE Rice Rd","64086",38.92570990689896,-94.35928157894729
"64064","Lees Summit","MO","City Electric Supply","1120 SE Broadway Dr","64081",38.95475902,-94.36236382
"64064","Lees Summit","MO","City Electric Supply Lee'S Summit","2321 NE Independence Ave Ste A","64064",38.9541623,-94.3613681
"64067","Lexington","MO","Nerds Hardware","1306 S Business Highway 13","64067",39.15871571941125,-93.8809252488572
"64067","Lexington","MO","Ace Hardware","2401 Main St","64067",39.1850409,-93.864379
"64067","Lexington","MO","Nuts And Bolts Lexington","750 State Hwy 13","64067",39.1702306,-93.8765424
"64068","Liberty","MO","Lowe's","1920 North Stewart Road","64068",39.2474506,-94.4512709
"64068","Liberty","MO","The Home Depot","8598 N Church Rd","64157",39.2476358,-94.4573935
"64068","Liberty","MO","Feldman's Farm And Home Center","not_available","64068",39.243154447620135,-94.44459809670488
"64068","Liberty","MO","Sherwin-Williams Paint Store","1179 W Kansas St","64068",39.24369567607988,-94.44107294082642
"64068","Liberty","MO","Spectrum Paint","1908 Plumbers Way","64068",39.25412,-94.453156
"64068","Liberty","MO","City Electric Supply Liberty","2108 Kara Ct Ste A","64068",39.251922,-94.454102
"64068","Liberty","MO","McCray Lumber and Millwork","1100 S Brown St","64068",39.23288345336914,-94.43296813964844
"64068","Liberty","MO","Reeves-Wiedeman","1051 S Brown St, Liberty, MO 64068","64068",39.233333587646484,-94.43229675292969
"64068","Liberty","MO","Frevert True Value Hardware","409 S State Rte 291","64068",39.23989832,-94.43796158
"64068","Liberty","MO","Liberty  Rental  4 U","410 N Church Rd","64068",39.26241992461164,-94.44838113491821
"64068","Liberty","MO","minuteKEY","8301 N Church Rd","64158",39.243133544921875,-94.45968627929688
"64068","Liberty","MO","Sutherlands","901 S. 291 Hwy","64068",39.23617835044342,-94.43400858340149
"64068","Liberty","MO","John Deere Landscapes - Pleasant Valley","8209 Pleasant Valley Rd","64068",39.21611022949219,-94.48042297363281
"64070","Lone Jack","MO","Steve's Repair and Sales","36607 E Casey Rd, Lone Jack, MO 64070","64070",38.85617446899414,-94.1618881225586
"64075","Oak Grove","MO","STG","not_available","64075",39.009639739990234,-94.12824249267578
"64075","Oak Grove","MO","Loveall Plumbing and Rooter Guys","37303 E Jim Owens Rd","64075",39.024452209472656,-94.14529418945312
"64076","Odessa","MO","Odessa Farm & Home","302 N 2nd St","64076",39.00344430631639,-93.95302355289459
"64076","Odessa","MO","Nuts And Bolts Odessa","204 Old Us 40 Hwy","64076",39.00602609,-93.95484958
"64076","Odessa","MO","Nuts And Bolts","204 Old Us 40 Highway","64076",39.00597847977797,-93.95415243349824
"64076","Odessa","MO","Nerds Hardware","2nd street/131 hwy","64076",39.003662,-93.952896
"64078","Peculiar","MO","minuteKEY","1700 N State Route 291","64701",38.66596221923828,-94.36872863769531
"64078","Peculiar","MO","Heritage Tractor","not_available","64701",38.663350060340676,-94.37352896420764
"64079","Platte City","MO","The Home Depot","5000 S 4th Street","66048",39.2696482,-94.9010011
"64079","Platte City","MO","Tractor Supply Co.","1111 North Main St","66043",39.266630325555305,-94.90022308687671
"64079","Platte City","MO","Westlake Ace Hardware 043","3400 S 4th St Ste 4","66048",39.28492403998751,-94.9069152003178
"64079","Platte City","MO","Sherwin-Williams Paint Store","3425 S 4th St","66048",39.28455612420435,-94.90273475646973
"64079","Platte City","MO","Sebus Brothers True Value","405 Main St","64098",39.41048694,-94.90228714
"64079","Platte City","MO","Hull Lumber Do It Center","18165 Mo 45 Hwy North","64098",39.421367,-94.895748
"64079","Platte City","MO","CBT-Certified Backflow Testing","16430 Sexton Rd","64079",39.392366,-94.83663790000001
"64079","Platte City","MO","Jeff's True Value Hardware","2300 Kentucky Ave","64079",39.35272099140019,-94.76872035977577
"64079","Platte City","MO","Beverly Lumber Co.","2519 NW Platte Rd","64150",39.37050371695503,-94.7784756125338
"64079","Platte City","MO","McCann Plumbing & Heating Inc","4500 Brewer Pl","66048",39.273656,-94.895476
"64079","Platte City","MO","Running Horse Ranch And Home","2601 Running Horse Rd","64079",39.350265,-94.7632
"64080","Pleasant Hill","MO","Dinges Hardware","103 N State Route 7","64080",38.78680560897608,-94.26251760547856
"64080","Pleasant Hill","MO","Whistle Redi-Mix","not_available","64080",38.779895,-94.254979
"64080","Pleasant Hill","MO","Sherwin-Williams Paint Store","2007 N Commercial St","64701",38.66261672973633,-94.36634063720703
"64080","Pleasant Hill","MO","Carter Waters","2435 S Jefferson Pkwy, Harrisonville, MO 64701","64701",38.67222213745117,-94.35144805908203
"64081","Lees Summit","MO","The Home Depot","651 SE Oldham Pkwy","64081",38.89919098936777,-94.36128258705139
"64081","Lees Summit","MO","Lowe's","1830 Northwest Chipman Road","64081",38.9298818,-94.4116117
"64081","Lees Summit","MO","Integrity Roofing, Siding, Gutters, & Windows","241 NW Commerce Ct","64086",38.92872618,-94.3873475
"64081","Lees Summit","MO","ProSource of Lee's Summit","1150 SE Century Dr","64081",38.89843,-94.35947
"64081","Lees Summit","MO","Ewing Irrigation","310 NW Capital Dr","64086",38.937017027480415,-94.38849427195261
"64081","Lees Summit","MO","Bledsoe Rentals","1300 NE Douglas St","64086",38.93541694629158,-94.3791097586915
"64081","Lees Summit","MO","Austin Hardware","950 NW Technology Dr","64086",38.93888450266266,-94.40176029833547
"64081","Lees Summit","MO","Royal Door","1301 Sw Jefferson St","64081",38.93814852450064,-94.33024406433105
"64082","Lees Summit","MO","Sherwin-Williams Paint Store","3735 SW Raintree Dr","64082",38.851452,-94.377525
"64085","Richmond","MO","Orschlens Farm","not_available","64085",39.27083934387586,-93.96229964179139
"64089","Smithville","MO","Pack's Hardware","116 N 169 Highway","64089",39.3684284,-94.5826292
"64089","Smithville","MO","Porters Ace Hardware","not_available","64089",39.377388,-94.584816
"64089","Smithville","MO","Major Lumber Company","205 E Meadow St","64089",39.3861158,-94.5788462
"64089","Smithville","MO","Pack's Hardware","116 N 169 Hwy","64089",39.3933634693878,-94.58289
"64093","Warrensburg","MO","Lowe's","912 North College Avenue","64093",38.7776278,-93.738321
"64093","Warrensburg","MO","RSC Equipment Rental","754 E Young Ave","64093",38.772614,-93.714952
"64093","Warrensburg","MO","Sears","703 East Young Street","64093",38.7728001,-93.7188781
"64093","Warrensburg","MO","Sherwin-Williams Paint Store","312 E Young Ave","64093",38.770713806152344,-93.73356628417969
"64093","Warrensburg","MO","City Electric Supply Warrensburg","727 N Charles St Ste E","64093",38.7723846,-93.732521
"64093","Warrensburg","MO","Fastenal","830 E Young Ave","64093",38.773136138916016,-93.71175384521484
"64093","Warrensburg","MO","Economy Lumber","901 N Simpson Dr","64093",38.7764541137312,-93.73468996939931
"64093","Warrensburg","MO","Westlake Ace Hardware 060","328 B E Young Street","64093",38.771011,-93.735517
"64093","Warrensburg","MO","Swisher's","337-399 Cooper Blvd","64093",38.7770298,-93.73597018
"64093","Warrensburg","MO","Integrity Roofing, Siding, Gutters, & Windows","501 North Holden Street","64093",38.76770301,-93.7399073
"64105","Kansas City","MO","Liberty Roofing, Siding, Gutters & Windows","111 W 10th St","64105",39.1019829,-94.58473529999999
"64105","Kansas City","MO","Harry J. Epstein Co.","301 W 8th St","64105",39.10452627438095,-94.58642989397049
"64106","Kansas City","MO","Midland Metal MFG","1219 Lydia Ave","64106",39.098542,-94.565321
"64106","Kansas City","MO","Comfort Parts","1101 Guinotte Ave","64120",39.114348,-94.568954
"64106","Kansas City","MO","General Parts","not_available","64106",39.097787,-94.5696
"64106","Kansas City","MO","Hilti","1510 Walnut St","64108",39.09544372558594,-94.58263397216797
"64106","Kansas City","MO","Bob Mills Heating & Cooling","983 Charlotte St","64106",39.10220757332552,-94.57359552383423
"64108","Kansas City","MO","Schutte Lumber Company","3001 Southwest Blvd","64108",39.073454,-94.604122
"64108","Kansas City","MO","Carter Waters","not_available","64108",39.083101,-94.59214
"64108","Kansas City","MO","Spectrum Paint","1826 Baltimore Ave","64108",39.09109,-94.585045
"64108","Kansas City","MO","Crescent Electric Supply","917 E 19th St","64108",39.089437,-94.572248
"64108","Kansas City","MO","MKS Pipe & Valve Co.","1731 Locust St","64108",39.092045,-94.577443
"64109","Kansas City","MO","Specialty Lumber Solutions","3735 Tracy Ave","64109",39.05989975205571,-94.56962585449219
"64110","Kansas City","MO","Midland  Hardware","4627 Troost Ave","64110",39.042561,-94.572571
"64110","Kansas City","MO","Missouri Turf Paint","1201 E 63rd St","64110",39.012624,-94.573025
"64110","Kansas City","MO","Kansas City Electrical Supply Co","4451 Troost Ave","64110",39.045503000000004,-94.572342
"64111","Kansas City","MO","The Home Depot","111 E Linwood Blvd","64111",39.0667615,-94.5833644
"64111","Kansas City","MO","Westlake Ace Hardware","1000 Westport Rd","64111",39.0500049,-94.598733
"64111","Kansas City","MO","Westlake Ace Hardware","1000 Westport Road","64111",39.051155,-94.59876
"64111","Kansas City","MO","Pinnacle Construction Group","700 W 47th St Ste 210","64112",39.04283142089844,-94.59498596191406
"64111","Kansas City","MO","McQueeny Lock","3150 Terrace St","64111",39.06721115112305,-94.60135650634766
"64111","Kansas City","MO","A To Z Budget Key","3939 Main St","64111",39.055217999999996,-94.585728
"64111","Kansas City","MO","CDJones","3165 Wyandotte St","64111",39.06836700439453,-94.58787536621094
"64111","Kansas City","MO","Sherwin-Williams","4011 Mill St","64111",39.05453,-94.594635
"64111","Kansas City","MO","Charles D. Jones","not_available","64111",39.068195,-94.587451
"64111","Kansas City","MO","Sherwin-Williams Commercial Paint Store","3155 Roanoke Rd","64111",39.06928,-94.604967
"64112","Kansas City","MO","K & A Solutions","430 Nichols Rd","64112",39.04180908203125,-94.59278106689453
"64114","Kansas City","MO","Sutherlands","311 W 72nd St","64114",38.99705768401926,-94.59362799017102
"64114","Kansas City","MO","Sherwin-Williams Paint Store","10117 State Line Rd","64114",38.944069,-94.607382
"64114","Kansas City","MO","Westlake Ace Hardware","1020 W 103rd St","64114",38.94344324478482,-94.6045873502203
"64114","Kansas City","MO","The Plumber's Friend","not_available","64114",38.993709564208984,-94.59244537353516
"64114","Kansas City","MO","Waldo Hardware","126 W 75th St","64114",38.9924396509233,-94.59155549468441
"64114","Kansas City","MO","Habitat For Humanity ReStore","303 W 79th St","64114",38.9847428659154,-94.59340784004706
"64114","Kansas City","MO","Certified water and mold","520 W 103rd St #340","64114",38.941955,-94.597897
"64114","Kansas City","MO","Sherwin-Williams Paint Store","7970 Wornall Rd","64114",38.983646,-94.595203
"64114","Kansas City","MO","Euston Hardware","453 E Red Bridge Road","64131",38.924519,-94.585358
"64116","Kansas City","MO","Lowe's","4811 N Oak Trafficway","64118",39.1831569,-94.5735721
"64116","Kansas City","MO","The Home Depot","4949 Old Pike Rd","64118",39.1847495,-94.582243
"64116","Kansas City","MO","Sears","3632 E Front Street","64120",39.1323477,-94.5373817
"64116","Kansas City","MO","A & N Hardware","1561 Swift Ave","64116",39.137667,-94.577044
"64116","Kansas City","MO","Smith Tools & Fastners","1645 Swift Ave","64116",39.139331,-94.57694599999999
"64116","Kansas City","MO","Pella Windows & Doors","1602 Jasper St","64116",39.138069587522956,-94.57027853355606
"64116","Kansas City","MO","MasterShield of Kansas City","1520 Clay St Ste A7","64116",39.1372,-94.57996729999999
"64116","Kansas City","MO","Spectra Metals","951 a bedford","not_available",39.12926696,-94.56969287
"64116","Kansas City","MO","Fastenal","not_available","64116",39.131329,-94.577429
"64116","Kansas City","MO","Cisco Tools","1807 Macon St","64116",39.1402587890625,-94.56671905517578
"64116","Kansas City","MO","Mts Contracting Inc.","1019 awift ave","not_available",39.12783443927765,-94.57742035388947
"64116","Kansas City","MO","Wagnor","not_available","64150",39.16418149972226,-94.6047187116922
"64116","Kansas City","MO","Blue Lynx","not_available","64120",39.140195073286066,-94.55025644802883
"64116","Kansas City","MO","HD Supply White Cap","1907 Warren Street","64116",39.14197037,-94.54986271
"64116","Kansas City","MO","Sherwin-Williams Commercial Paint Store","1737 MacOn St","64116",39.14000060674631,-94.56693848619956
"64116","Kansas City","MO","Door Link","11 Taney Street","64116",39.137604,-94.555756
"64116","Kansas City","MO","Sutherlands","2201 Armour Rd","64116",39.14544407309633,-94.55685892102726
"64116","Kansas City","MO","Nuts And Bolts","2720 Burlington St","64116",39.14914321899414,-94.5811767578125
"64118","Kansas City","MO","Harbor Freight Tools","395 NW Barry Rd","64155",39.246134532700246,-94.58478313569354
"64118","Kansas City","MO","Nuts And Bolts","7503 N Oak Trfy","64118",39.23031376782666,-94.5758406983718
"64118","Kansas City","MO","Ace Hardware","5945 NE Antioch Rd","64119",39.2015301336447,-94.54770110661767
"64118","Kansas City","MO","Nuts And Bolts Gladstone","7503 N Oak Trafficway","64118",39.23067542270907,-94.57542754693468
"64118","Kansas City","MO","AAA Lawnmower Inc.","not_available","64118",39.232441,-94.575747
"64118","Kansas City","MO","minuteKEY","5261 NE Antioch Rd","64119",39.18976593017578,-94.54685974121094
"64118","Kansas City","MO","Santa Fe Glass - Gladstone","6901 N Oak Trfy","64118",39.22009,-94.575705
"64118","Kansas City","MO","Husqvarna US","7609 N Oak Trfy","64118",39.23255157470703,-94.57536315917969
"64118","Kansas City","MO","minuteKEY","7207 N M1 Hwy","64119",39.22475814819336,-94.5482406616211
"64118","Kansas City","MO","Sherwin-Williams Paint Store","5500 NE Antioch Rd","64119",39.193549094339495,-94.54975605010986
"64119","Kansas City","MO","Westlake Ace Hardware 011","5009 NE Vivion Rd","64119",39.188276,-94.520912
"64119","Kansas City","MO","Beagle's Rental","not_available","64119",39.187604,-94.51960799999999
"64119","Kansas City","MO","Clark's Tool & Equipment","74 E. 69 Highway","64119",39.198085,-94.504763
"64120","Kansas City","MO","Habitat for Humanity Kansas City","4701 Deramus Ave","64120",39.137665000000005,-94.526601
"64120","Kansas City","MO","WoodMaster Drum Sanders","1431 N Topping Ave","64120",39.13351058959961,-94.51342010498047
"64120","Kansas City","MO","Ferguson Fire & Fabrication","6100 Parretta Dr","64120",39.135659999999994,-94.509108
"64120","Kansas City","MO","Matheson","6000 E Front St","64120",39.130608,-94.510957
"64120","Kansas City","MO","Sherwin-Williams Product Finishes","6701 Universal Ave","64120",39.127933559256704,-94.50319759755325
"64125","Kansas City","MO","Westlake Ace Hardware","6201 Independence Ave","64125",39.10428,-94.51037
"64125","Kansas City","MO","Builders Surplus","6801 E Truman Rd","64126",39.092911,-94.502938
"64127","Kansas City","MO","Ace Hardware","1208 Brooklyn Ave","64127",39.0986,-94.556723
"64127","Kansas City","MO","Metal By the Foot","3600 E Truman Rd","64127",39.094947999999995,-94.539502
"64127","Kansas City","MO","DAG Supply","1716 Kansas Ave","64127",39.09161925315857,-94.54879581928253
"64127","Kansas City","MO","Stone Manufacturing","1212 Kansas Ave, Kansas City, MO 64127","64127",39.098290000000006,-94.548556
"64129","Kansas City","MO","Sherwin-Williams Paint Store","8602 E 63rd St","64133",39.010929107666016,-94.48516845703125
"64129","Kansas City","MO","Master Halco Fence Supply","not_available","64129",39.063561925804095,-94.48409281823976
"64129","Kansas City","MO","Darco Equipment Service Co","6519 Stadium Dr","64129",39.057428,-94.507664
"64131","Kansas City","MO","Spectrum Paint","7920 Troost Ave","64131",38.98362,-94.576454
"64131","Kansas City","MO","Jim Heath Locksmith Company","800 E 101st Ter #350","64131",38.9440547,-94.5809021
"64132","Kansas City","MO","Midland Hardware","7107 Prospect Ave","64132",38.997723,-94.556579
"64133","Kansas City","MO","Sutherlands","6709 Blue Ridge Blvd","64133",39.00127370267107,-94.48034441771715
"64133","Kansas City","MO","Westlake Ace Hardware 015","10130 E State Route 350","64138",38.98480449698566,-94.46229263173979
"64133","Kansas City","MO","Smith Brothers Hardware","not_available","64133",39.00852857691706,-94.46625896457772
"64133","Kansas City","MO","raytown lawnmower","6122 Blue Ridge Blvd","64133",39.011357473749655,-94.46165409754084
"64133","Kansas City","MO","Graham Plumbing Supply","not_available","64138",38.98398971557617,-94.46388244628906
"64133","Kansas City","MO","minuteKEY","10300 E State Route 350","64138",38.9865559,-94.4645106
"64133","Kansas City","MO","City Electric Supply Independence","13665 E 42Ndterrace, Suite C","64055",39.04345073811419,-94.41912710666656
"64137","Kansas City","MO","The Home Depot","4707 E Bannister Rd","64137",38.9516079826534,-94.53358232975006
"64137","Kansas City","MO","kids free workshop","not_available","64137",38.95220184326172,-94.53395080566406
"64145","Kansas City","MO","Lowe's","1700 West 133rd Street","64145",38.8878203,-94.604993
"64145","Kansas City","MO","Sherwin-Williams Paint Store","900 W Blue Ridge Blvd","64145",38.891351,-94.6067
"64145","Kansas City","MO","minuteKEY","1701 W 133rd St","64145",38.885154,-94.605503
"64150","Riverside","MO","FORCE America, Inc.","216 NW Parkway Rd","64150",39.171660564874685,-94.62894558906555
"64150","Riverside","MO","Dishonest Don's Fireworks","2854-2970 NW Vivion Rd.","64150",39.17755851154693,-94.61260361726193
"64150","Riverside","MO","As&w wholesale","535 Nw Parkway","64150",39.17014876186416,-94.62814486764601
"64150","Riverside","MO","R H Fastener Supply","4210 NW Riverside St","64150",39.171602,-94.614959
"64151","Kansas City","MO","Glidden","not_available","64151",39.24598141340524,-94.65396262990278
"64152","Kansas City","MO","Westlake Ace Hardware","not_available","64152",39.211327,-94.687591
"64152","Kansas City","MO","Sherwin-Williams Paint Store","8383 N Stoddard Ave","64152",39.246159999999996,-94.663538
"64152","Kansas City","MO","P & G Hardware","6264 Lewis Dr","64152",39.208137,-94.684848
"64154","Kansas City","MO","Menards","8901 N Green Hills Rd","64154",39.25552626990491,-94.62276287137558
"64154","Kansas City","MO","Lowe's","8601 N Boardwalk Avenue","64154",39.2506226,-94.6519824
"64154","Kansas City","MO","The Home Depot","8900 N Skyview Ave","64154",39.25599618816634,-94.65264022350311
"64154","Kansas City","MO","Kwal Paint","not_available","64154",39.248639,-94.632089
"64154","Kansas City","MO","MarBeck Appliance","6208 NW Barry Rd","64154",39.248130798339844,-94.6515884399414
"64155","Kansas City","MO","Locks & Pulls","109 NE 91st St","64155",39.25931,-94.57873599999999
"64155","Kansas City","MO","Zeke's Paint & Design Centers","111 NE 91st St","64155",39.25931,-94.57873599999999
"64424","Bethany","MO","Eckard's","1301 N 25th St","64424",40.2802657848599,-94.0274121892583
"64424","Bethany","MO","Orschelns","not_available","64424",40.26482686201549,-94.01481917848832
"64429","Cameron","MO","Cameron Glass","207 N Walnut St","64429",39.7403185,-94.2361675
"64429","Cameron","MO","Sears","2101 North Walnut","64429",39.761063,-94.235011
"64429","Cameron","MO","Byler Steel","30000 US Highway 69","64689",39.8489315,-94.1807626
"64429","Cameron","MO","minuteKEY","2000 N Walnut St","64429",39.75811004638672,-94.2315673828125
"64429","Cameron","MO","Sutherlands","906 N Walnut St","64429",39.74748290351075,-94.23420405489478
"64438","Darlington","MO","Witherbee Plumbing","298 Witherbee St","01752",40.1281301116258,-94.49744492769241
"64468","Maryville","MO","Sutherlands","1718 S Main St","64468",40.32878763836319,-94.87426551699355
"64468","Maryville","MO","Watkins True Value Hardware & Appliance","1409 S Main St","64468",40.331629803976774,-94.87256864565155
"64468","Maryville","MO","tool shed","not_available","64468",40.32625198500137,-94.87627355160927
"64468","Maryville","MO","K & M Amusements","2206 S Main St, Maryville, MO 64468","64468",40.324623107910156,-94.87478637695312
"64468","Maryville","MO","Sears","1315 South Main Street, Suite A","64468",40.332445,-94.8730524
"64469","Maysville","MO","BAKERS TRUE VALUE HDW","108 W MAIN ST","64469",39.8892822265625,-94.35980224609375
"64482","Rock Port","MO","Burke & Sons Lumber Company","not_available","64482",40.417045946884144,-95.4980932239938
"64485","Savannah","MO","Ware's Home Center","502 W Market St","64485",39.940139,-94.830523
"64485","Savannah","MO","Andrew county lumber","not_available","64485",39.94141110486598,-94.8298247871574
"64485","Savannah","MO","Orscheln Farm & Home","404 E Price Ave","64485",39.939109802246094,-94.82018280029297
"64489","Stanberry","MO","Big 4 Hardware","not_available","64489",40.21413695057759,-94.54206338144273
"64501","Saint Joseph","MO","Porters Building Centers","807 Roseport Road","66024",39.750602,-94.866547
"64501","Saint Joseph","MO","Reeves and Wiedeman","814 S 22nd St","64507",39.76005935668945,-94.83431243896484
"64501","Saint Joseph","MO","St. Joseph Electric Supply Co.","1515 Buchanan Ave","64501",39.77099413808333,-94.8417169533729
"64501","Saint Joseph","MO","Payless Concrete","700 Atchison St","64503",39.740684509277344,-94.85102081298828
"64501","Saint Joseph","MO","Rent-All Equipment","3002 S 6th St","64501",39.73887,-94.85381
"64501","Saint Joseph","MO","St Joseph Electric Supply","not_available","64501",39.77099185566352,-94.84136202327136
"64501","Saint Joseph","MO","Aitchison-Richmond Wholesale Plumbing Supply","502 Sylvanie St","64501",39.76389,-94.853743
"64501","Saint Joseph","MO","Keen Edge Implement","not_available","64507",39.75605300000001,-94.830404
"64503","Saint Joseph","MO","Menards","4320 Commonwealth Dr","64503",39.72088358241713,-94.79118070238604
"64503","Saint Joseph","MO","Westlake Ace Hardware 016","1325 S Belt Hwy","64507",39.7546949,-94.803541
"64503","Saint Joseph","MO","St. Joseph Tractor, Inc.","3525 Pear St","64503",39.734413146972656,-94.80603790283203
"64503","Saint Joseph","MO","minuteKEY","3022 S. Belt Hwy.","64508",39.737073,-94.803726
"64503","Saint Joseph","MO","minuteKEY","4320 Commonwealth Drive","64503",39.721256256103516,-94.7919921875
"64503","Saint Joseph","MO","Vallen","5802 Corporate Drive","64507",39.750125885009766,-94.7594985961914
"64503","Saint Joseph","MO","Tractor Supply Co.","3027 South Belt Hwy","64503",39.737572,-94.800066
"64503","Saint Joseph","MO","Fastenal","3520 Pearson St","64503",39.73295211791992,-94.80621337890625
"64503","Saint Joseph","MO","Sherwin-Williams Paint Store","2101 N Belt Hwy","64506",39.78347497256323,-94.8023595103398
"64505","Saint Joseph","MO","Lowe's","3901 N Belt Highway","64506",39.805433,-94.812134
"64505","Saint Joseph","MO","The Home Depot","5201 N Belt Line Hwy, Bldg C","64506",39.8125515,-94.8119518
"64505","Saint Joseph","MO","Jackson Lawn Equipment","not_available","64505",39.817856171989526,-94.7852728758057
"64601","Chillicothe","MO","Lowes","7893 East Us Highway 36","not_available",39.776180267333984,-93.47792053222656
"64601","Chillicothe","MO","Lowe's","100 West Business 36","64601",39.7745817,-93.543279
"64601","Chillicothe","MO","Westlake Ace Hardware 008","600 S Washington St","64601",39.780022,-93.552902
"64601","Chillicothe","MO","Diamond Vogel","not_available","64601",39.776141,-93.553086
"64628","Brookfield","MO","Orscheln Farm & Home","710 S Main St","64628",39.772972106933594,-93.07003021240234
"64628","Brookfield","MO","Hometown Hardware","not_available","64628",39.77732,-93.058604
"64628","Brookfield","MO","C&W Hardware","110 S Mainstreet Usa","64658",39.7143612244898,-92.9512624489796
"64628","Brookfield","MO","C & W True Value Hardware","110 S Kansas Ave","64658",39.71365818,-92.95167747
"64640","Gallatin","MO","Gallatin Lumber","not_available","64640",39.914484033145534,-93.96248391503524
"64640","Gallatin","MO","Husqvarna US","31756 State Highway Ra","64648",39.99455261230469,-93.80197143554688
"64640","Gallatin","MO","jamesport sales and surplus","not_available","64648",39.986722,-93.814523
"64683","Trenton","MO","Trenton hardware","9th","64683",40.0757586021904,-93.57065484476203
"64683","Trenton","MO","Orscheln","not_available","64683",40.073949967143456,-93.59395755388938
"64683","Trenton","MO","Husqvarna US","131 E 8th St","64683",40.07360076904297,-93.6172866821289
"64701","Harrisonville","MO","Sutherlands","2200 S Commercial St","64701",38.64016182293078,-94.35434276643548
"64701","Harrisonville","MO","Husqvarna US","PO Box 428","64701",38.647056579589844,-94.3399429321289
"64701","Harrisonville","MO","Garden City auto and farm","not_available","64747",38.560999,-94.190841
"64722","Amoret","MO","Slattery Shop","not_available","64723",38.353717,-94.516241
"64724","Appleton City","MO","Heiman True Value","Third & Vernon","64780",38.07118,-94.07982
"64724","Appleton City","MO","Powell's  True Value","409 W 4th St","64724",38.19080352783203,-94.03364562988281
"64730","Butler","MO","Family Center","903 W Fort Scott St","64730",38.25680160522461,-94.34619903564453
"64730","Butler","MO","Corner Hardware","107 W Ohio","64730",38.258494,-94.333774
"64730","Butler","MO","Midwest Lumber & Supply Inc.","1007 N Orange","64730",38.2694091796875,-94.34274291992188
"64735","Clinton","MO","Sherwin-Williams Paint Store","113 S Washington St","64735",38.370412,-93.778175
"64735","Clinton","MO","Ace Hardware","1804 E Ohio St","64735",38.36424255371094,-93.7477035522461
"64735","Clinton","MO","RP Lumber","701 E Gaines Dr","64735",38.388559,-93.764671
"64735","Clinton","MO","Full Line Lumber Center","802 E Ohio","64735",38.36648904,-93.76314735
"64735","Clinton","MO","Quality True Value Farm & Home","109 S Second St","64740",38.2605275510204,-93.7719140816327
"64735","Clinton","MO","Sears","743 E Gaines Dr","64735",38.38882064819336,-93.76277160644531
"64735","Clinton","MO","Sears","743 Gaines Drive","64735",38.388836,-93.762769
"64735","Clinton","MO","L & M Supply, Inc.","114 E Jefferson St","64735",38.368652000000004,-93.775462
"64735","Clinton","MO","Tractor Supply Co®","1722 East Ohio St Ste A","64735",38.363723,-93.748473
"64738","Collins","MO","Husqvarna","23244-16 RR 71 HICKORY CTY RD #3","64738",37.90110778808594,-93.64205169677734
"64744","El Dorado Springs","MO","Meek's Lumber","123 US-54","64744",37.8634876,-94.0246488
"64744","El Dorado Springs","MO","Meek's Lumber in El Dorado Springs","123 W. Highway 54","64744",37.86330098260024,-94.0213394165039
"64759","Lamar","MO","Orscheln Farm & Home","805 W 12th St","64759",37.49213,-94.28711
"64759","Lamar","MO","S & H True Value Hardware","7 Route A","65682",37.4982594,-94.18768736
"64759","Lamar","MO","Webb Electric","not_available","64759",37.492814,-94.269981
"64763","Lowry City","MO","MFA Lowry City","not_available","64763",38.14176023592444,-93.72740681628201
"64772","Nevada","MO","Sutherlands","2101 E Austin Blvd","64772",37.8379481157141,-94.33025923305729
"64772","Nevada","MO","C&L Supply","not_available","64772",37.84723619373888,-94.34523638328419
"64772","Nevada","MO","Husqvarna US","1103 E Austin Blvd","64772",37.8372802734375,-94.34394836425781
"64772","Nevada","MO","Ace Hardware","1002 E Austin Blvd","64772",37.835689544677734,-94.3450698852539
"64772","Nevada","MO","Meek's Lumber in Nevada","2201 E Austin Blvd","64772",37.83762741088867,-94.32704162597656
"64772","Nevada","MO","Sears","1909 E. Austin Blvd.","64772",37.8370489,-94.3327906
"64801","Joplin","MO","The Home Depot","3110 E 20th Street","64801",37.0684377,-94.4752603
"64801","Joplin","MO","Lowe's","2600 S Range Line Rd","64804",37.0613827,-94.479984
"64801","Joplin","MO","Tractor Supply Co.","1316 North Range Line Rd","64801",37.102635,-94.477487
"64801","Joplin","MO","Sears","101 N Range Line Rd","64801",37.09186991,-94.47323767
"64801","Joplin","MO","Pearl Bros True Value Hardware","617 Main St","64801",37.08452,-94.513332
"64801","Joplin","MO","Henkle's Ace Hardware","1201 S Madison St","64870",37.1335559,-94.47503
"64801","Joplin","MO","Atwoods","not_available","64870",37.124960149083066,-94.4739046900891
"64801","Joplin","MO","Contractor Equipment","not_available","64801",37.12819,-94.51143
"64801","Joplin","MO","Shamrock","2404 N Florida Ave","64801",37.11061648611503,-94.48454048099187
"64801","Joplin","MO","Greybar","1705 S Main St, Joplin, MO 64804","64804",37.07292175292969,-94.51371765136719
"64801","Joplin","MO","Joplin Venetian Blind","1525 S Main St","64804",37.074036,-94.513753
"64801","Joplin","MO","Matheson","not_available","64804",37.066491,-94.469139
"64801","Joplin","MO","RW's Tri State Mower and Saw Shop","418 N Stateline Rd","66739",37.07678,-94.61805
"64801","Joplin","MO","Meek's Lumber in Joplin","510 S Range Line Rd","64801",37.097434,-94.478202
"64801","Joplin","MO","minuteKEY","2600 RANGE LINE ROAD","64804",37.0611603,-94.4783026
"64801","Joplin","MO","Sears","101 Rangeline Rd, Northpark Mall","64801",37.09232,-94.470971
"64801","Joplin","MO","Sutherlands","2805","not_available",37.05976867675781,-94.47683715820312
"64801","Joplin","MO","Action Appliance Parts","1627 S Main St","64804",37.07354339419322,-94.51338988122343
"64801","Joplin","MO","Sherwin-Williams Paint Store","632 S Main St","64801",37.08455691233138,-94.51375007629395
"64801","Joplin","MO","Boyd Metals","1027 Byers Ave","64801",37.07945251464844,-94.5181655883789
"64801","Joplin","MO","Spectrum Paint","1221 Illinois Ave","64801",37.07725524902344,-94.50252532958984
"64804","Joplin","MO","Wildcat Materials","4901 South Rangeline Road","64804",37.03482653,-94.4784384
"64804","Joplin","MO","Ramsey's Knives","Trout Farm Rd","64850",36.94458611897425,-94.43897848917443
"64804","Joplin","MO","Sherwin-Williams Paint Store","3340 S Range Line Rd","64804",37.0522346496582,-94.47929382324219
"64804","Joplin","MO","Harbor Freight Tools","825 S Range Line Rd","64801",37.08191870998793,-94.47706132856973
"64831","Anderson","MO","Huston's Pump Service","6962 W State Hwy 76","64831",36.6517001,-94.57195109999999
"64831","Anderson","MO","Anderson Hometown Hardware","not_available","64831",36.64867401123047,-94.44737243652344
"64836","Carthage","MO","Grand True Value Rental","2043 S Garrison Ave","64836",37.1539614285714,-94.3146314285714
"64836","Carthage","MO","Grand Rental Station","Garrison","64836",37.15120505536932,-94.31379998761119
"64836","Carthage","MO","Lowe's","433 West Fir Road","64836",37.1413459,-94.3162841
"64836","Carthage","MO","Metcalf Auto Parts","Central Ave","64836",37.1650189972032,-94.31269192826004
"64836","Carthage","MO","CARTHAGE TRUE VALUE","119 E 3rd St","64836",37.177005767822266,-94.31072235107422
"64836","Carthage","MO","Sherwin-Williams Paint Store","2450 Grand Ave","64836",37.14624994614818,-94.30992364883423
"64836","Carthage","MO","Husqvarna US","2309 Fairlawn Dr","64836",37.149051666259766,-94.3139419555664
"64836","Carthage","MO","Ag Service Center","not_available","64836",37.19319,-94.20015
"64844","Granby","MO","Carthage Pump","324 Kent St","64866",36.86091613769531,-94.1910629272461
"64850","Neosho","MO","Lowe's","1490 Clemon Drive","64850",36.8394268,-94.3891688
"64850","Neosho","MO","irby","12628 E Highway 86","64850",36.882041931152344,-94.41443634033203
"64850","Neosho","MO","Brown Paint","1630 Industrial Dr","64850",36.83671951293945,-94.39143371582031
"64850","Neosho","MO","TH Rogers Lumber","not_available","64850",36.86878207324192,-94.3653828945319
"64850","Neosho","MO","NEOSHO TRUE VALUE HARDWARE","1725 La Questa Dr","64850",36.847633361816406,-94.38505554199219
"64850","Neosho","MO","Meek's Lumber in Neosho","1210 S Neosho Blvd","64850",36.85162353515625,-94.3866195678711
"64856","Pineville","MO","minuteKEY","100 Commercial Ln","64856",36.50747299194336,-94.27827453613281
"64862","Sarcoxie","MO","Sarcoxie Hardware","4119 Blackberry Rd","64862",37.0718879699707,-94.13287353515625
"64862","Sarcoxie","MO","Sarcoxie True Value Hardware","not_available","64862",37.07196,-94.132675
"64865","Seneca","MO","Diamond Computer","1214 Cherokee Ave","64865",36.84188491964512,-94.6093225479126
"65010","Ashland","MO","Sentinel Lumber & Hardware","109 Industrial Dr","65010",38.7772689,-92.249116
"65011","Barnett","MO","Martin Supply LLC","14980 Highway C","65084",38.4478132,-92.7941265
"65013","Belle","MO","Thomas Hardware, LLC","not_available","65013",38.286707,-91.720953
"65017","Brumley","MO","Meek's Lumber in Osage Beach","588 Highway 42","65065",38.14373016357422,-92.59031677246094
"65017","Brumley","MO","Butler Supply","not_available","65047",38.139532553558,-92.58514319155431
"65018","California","MO","Sweets Hardware","not_available","65018",38.63596725463867,-92.55606079101562
"65020","Camdenton","MO","Sunrise True Value Hardware","321 State Road F","65079",38.1454561102903,-92.770447995589
"65020","Camdenton","MO","Wildcat Materials","872 Lower Business Park Rd","65052",38.03579352,-92.69385825
"65020","Camdenton","MO","Airgas","not_available","65020",37.99187469482422,-92.7148208618164
"65020","Camdenton","MO","Ace Hardware","143 N State Highway 7","65020",38.09769058227539,-92.82383728027344
"65020","Camdenton","MO","Herrman Lumber","9181 Missouri 5 Business","65020",38.103359,-92.82207
"65020","Camdenton","MO","Sherwin-Williams Paint Store","5151 Osage Beach Pkwy","65065",38.130640821222784,-92.65186786651611
"65020","Camdenton","MO","Husqvarna US","318 E. US HWY 54","65020",38.01974868774414,-92.77095031738281
"65020","Camdenton","MO","54 Marine","not_available","65065",38.12433149899431,-92.675115474828
"65020","Camdenton","MO","Ezards Ace Hardware","5816 Highway 54 Ste 100","65065",38.113323,-92.686985
"65020","Camdenton","MO","Lake Winsupply","2684 N Business Route 5","65020",38.034084364716335,-92.76953926390381
"65020","Camdenton","MO","Husqvarna","318 E. HWY 54","65020",38.00330352783203,-92.74610137939453
"65026","Eldon","MO","Enloe Alumin","not_available","65026",38.347636,-92.588883
"65034","Fortuna","MO","The Tool Barn Llc","12158 Highway D","65084",38.507695,-92.889481
"65037","Gravois Mills","MO","Porters Building Centers","223 North main","65038",38.20076238092131,-92.83658483491648
"65037","Gravois Mills","MO","minuteKEY","223 N. Main St.","65038",38.20090103149414,-92.83670043945312
"65037","Gravois Mills","MO","Porters Building Centers Inc","223 N Main St","65038",38.2012149,-92.836731
"65041","Hermann","MO","Reliable Plumbing & Septic Inc","1502 S Highway 19","65041",38.6306238,-91.45347269999999
"65041","Hermann","MO","Fentech Co., Inc.","2035 S. Highway, 19","65041",38.5776207,-91.47523319999999
"65041","Hermann","MO","Hermann Lumber","603 Market St","65041",38.702132027101804,-91.43803493828959
"65043","Holts Summit","MO","Capital Machine Co","1101 Industrial Dr","65109",38.583351135253906,-92.19087219238281
"65043","Holts Summit","MO","Graessle's Appliance Sales & Service","2222 E McCarty St","65101",38.557668,-92.13093
"65043","Holts Summit","MO","Jefferson City 24hr Locksmith","308 E High St #409","65101",38.5745849609375,-92.16963195800781
"65043","Holts Summit","MO","Hot Spot Hardware","138 N Summit Dr, Holts Summit, MO 65043","65043",38.655799865722656,-92.11576843261719
"65043","Holts Summit","MO","Precision Machine, Inc.","1703 Christy Dr","65101",38.55775,-92.19213
"65047","Kaiser","MO","Lowe's","950 Highway 42","65065",38.1559673,-92.6017198
"65047","Kaiser","MO","The Home Depot","4030 Osage Beach Pkwy","65065",38.151963956456704,-92.610604763031
"65047","Kaiser","MO","Menards","1015 Barred Owl Ln","65049",38.17935226202313,-92.6111916348041
"65047","Kaiser","MO","Riback","not_available","65049",38.153879,-92.601545
"65047","Kaiser","MO","Sears","3629 Osage Beach Parkway","65065",38.166404724121094,-92.61134338378906
"65047","Kaiser","MO","Direct Tools Factory Outlet","4540 Osage Beach Pkwy Ste N3","65065",38.14373142108414,-92.62843306339478
"65051","Linn","MO","Hometown Building Center","not_available","65051",38.49546432495117,-91.87306213378906
"65054","Loose Creek","MO","Harbor Freight","Missouri blvd","65101",38.48669238611422,-92.00762876295985
"65058","Meta","MO","Husqvarna US","140 Werner Ln","65076",38.361488342285156,-92.1680908203125
"65078","Stover","MO","Paints Plus Stover Mo","not_available","65078",38.442895,-92.982706
"65084","Versailles","MO","Husqvarna US","13359 HWY 52","65084",38.43195724487305,-92.84544372558594
"65101","Jefferson City","MO","Lowe's","3441 Missouri Blvd","65109",38.5802804,-92.244487
"65101","Jefferson City","MO","Menards","810 Stonecreek Dr","65109",38.57773052519734,-92.2196106096542
"65101","Jefferson City","MO","Westlake Ace Hardware 006","2305 Missouri Blvd","65109",38.580259000000005,-92.212028
"65101","Jefferson City","MO","Tractor Supply Co.","3714 Cody Dr","65109",38.52901077270508,-92.22261810302734
"65101","Jefferson City","MO","Scruggs Carpet One Floor & Home","1707 Christy Dr","65101",38.556419372558594,-92.19283294677734
"65101","Jefferson City","MO","Meek's Lumber in Jefferson City","1750 Southridge Dr","65109",38.556602478027344,-92.19830322265625
"65101","Jefferson City","MO","Premier Property","625 Geld St","65109",38.57984,-92.28391
"65101","Jefferson City","MO","Sherwin-Williams Paint Store","2223 Missouri Blvd","65109",38.580081,-92.210714
"65101","Jefferson City","MO","Sears Appliance Repair","2304 MISSOURI BLVD","65109",38.58300018310547,-92.21147918701172
"65101","Jefferson City","MO","minuteKEY","724 W Stadium Blvd","65109",38.58005142211914,-92.21880340576172
"65101","Jefferson City","MO","Rackers Equipment Company","4303 Rt CC","65109",38.521384,-92.232396
"65101","Jefferson City","MO","Fastenal","not_available","65109",38.57837677001953,-92.22637176513672
"65101","Jefferson City","MO","Jefferson City Winsupply","1720 Four Seasons Dr","65101",38.555487,-92.190055
"65101","Jefferson City","MO","Orschlen Farm & Home","3104 S Ten Mile Dr","65109",38.58052969760124,-92.23372047972558
"65101","Jefferson City","MO","Luebbert wood floors","not_available","65101",38.505836128144736,-92.07915774026522
"65201","Columbia","MO","The Home Depot","3215 Clark Lane","65202",38.9656477,-92.2896008
"65201","Columbia","MO","Lowe's","201 Conley Rd","65201",38.9529644,-92.2961692
"65201","Columbia","MO","Westlake Ace Hardware 005","1900 Business Loop 70 E","65201",38.963844,-92.309747
"65201","Columbia","MO","Winnelson","not_available","65201",38.965883,-92.329904
"65201","Columbia","MO","Harbor Freight Tool","276 business loop 70","65203",38.95271539466339,-92.3308991111685
"65201","Columbia","MO","Eagle millwood/ Mid City","1915 Heriford Rd","65202",38.96854019165039,-92.30877685546875
"65201","Columbia","MO","Frost Electric","102 Paris Rd","65201",38.962165,-92.313704
"65201","Columbia","MO","Sherwin-Williams Commercial Paint Store","502 Business Loop 70 W","65203",38.96555124803494,-92.3449432538016
"65201","Columbia","MO","Wildcat Materials","8501 East Trade Center Drive","65201",38.95510639,-92.20777047
"65201","Columbia","MO","Columbia MO Tile","4250 E Broadway","65201",38.93834880794944,-92.27466344833374
"65201","Columbia","MO","Tyree Inc.","2126 Business Loop 70 E.","65201",38.9632108,-92.3051519
"65201","Columbia","MO","Boone County Lumber","1100-1198 Rogers St","65201",38.955739,-92.324187
"65201","Columbia","MO","Harbor Freight Tools","601 Business Loop 70 W #276","65203",38.967493421939395,-92.34652820080204
"65201","Columbia","MO","Tyree Trailer Parts","Bus. Loop 70","65201",38.963476157388094,-92.30498468578696
"65201","Columbia","MO","Sherwin-Williams Paint Store","3709 S Providence Rd","65203",38.909363,-92.33604
"65201","Columbia","MO","Sherwin-Williams Floorcovering Store","505 Orange St","65203",38.96526509274874,-92.34499096870421
"65201","Columbia","MO","Meek's Lumber in Columbia","5551 State Highway 163","65201",38.87068761464819,-92.25801229476929
"65201","Columbia","MO","minuteKEY","415 Conley Rd","65201",38.95507049560547,-92.29612731933594
"65202","Columbia","MO","Westlake Ace Hardware 002","1910 W Worley St","65203",38.9608479,-92.367672
"65202","Columbia","MO","Menards","3340 Vandiver Dr","65202",38.97512631213625,-92.28675112064215
"65202","Columbia","MO","Tractor Supply Co.","4151 Paris Rd","65202",38.991465,-92.285532
"65202","Columbia","MO","Matheson-Linweld","3109 Paris Rd","65202",38.982714,-92.290452
"65202","Columbia","MO","Northwest Self Storage LLC","2901 Interstate 70 Dr NW","65202",38.970819,-92.380675
"65202","Columbia","MO","Columbia Safety","1801 Westfall Dr","65202",38.969831,-92.318734
"65202","Columbia","MO","Philips & Co","not_available","65202",38.974237,-92.308335
"65202","Columbia","MO","Butler Electric & Plumbing Supply","1708 Commerce Ct","65202",38.969544,-92.32822
"65202","Columbia","MO","Crescent Parts & Equipment","1615 Commerce Ct","65202",38.970182,-92.329637
"65203","Columbia","MO","Nike and under armour products","1051 W Route K","65203",38.874169,-92.358391
"65203","Columbia","MO","HardSurfaces Instalations","not_available","65203",38.91036793939791,-92.35506484587442
"65203","Columbia","MO","Slurry Solutions, LLC","2101 W Broadway #164","65203",38.9545225,-92.37213099999997
"65203","Columbia","MO","minuteKEY","3001 W Broadway","65203",38.9570617,-92.3824019
"65233","Boonville","MO","Stanaway Greenhouse & Land Designs","13800 Santa Fe Rd","65233",38.96104049682617,-92.79612731933594
"65240","Centralia","MO","Lacrosse Lumber CO.","not_available","65265",39.20844700036046,-92.13643854940337
"65240","Centralia","MO","La Crosse Lumber Co.","401 W Highway 22","65240",39.219574,-92.138836
"65240","Centralia","MO","RITCHIE & SONS TRUE VALUE","105 W Singleton St","65240",39.21171188354492,-92.13806915283203
"65240","Centralia","MO","Orscheln Farm and Home","not_available","65240",39.21767677310458,-92.12817781411533
"65243","Clark","MO","Shetlers","not_available","65243",39.343584,-92.297029
"65243","Clark","MO","Ritchie & Sons True Value","113 N Ogden St","65284",39.23409143,-92.28066796
"65248","Fayette","MO","La Crosse Lumber Co.","103 Scenic Dr","65254",39.235904693603516,-92.8449935913086
"65248","Fayette","MO","Ace Hardware","600 S Church Street","65248",39.1411018371582,-92.68118286132812
"65251","Fulton","MO","Sutherlands","1220 S Business 54","65251",38.831809997558594,-91.96021270751953
"65251","Fulton","MO","Westlake Ace Hardware 003","206 E 2nd St","65251",38.844338,-91.94593
"65251","Fulton","MO","Tractor Supply Co.","1920 North Bluff St","65251",38.867245,-91.94286
"65251","Fulton","MO","Orscheln Farm & Home","100 Fernandina dr","65251",38.830076733083516,-91.96235162667173
"65251","Fulton","MO","La Crosse Lumber Co.","1909 N Bluff St","65251",38.8670648,-91.9444
"65251","Fulton","MO","Fastenal","not_available","65251",38.831130525548254,-91.96198386454076
"65255","Hallsville","MO","KCG/Rew Materials","4702 E Heller Rd, Columbia, MO 65202","65202",39.02862,-92.264934
"65265","Mexico","MO","La Crosse Lumber Co.","120 E Liberty St","65265",39.1702902,-91.8817959
"65265","Mexico","MO","Sims Welding & Machine Shop","1015 W Liberty St","65265",39.17071235147541,-91.89505577087402
"65265","Mexico","MO","Sears","2988 South Clark","65265",39.145558,-91.889443
"65265","Mexico","MO","Westlake Ace Hardware 009","700 W Jackson St","65265",39.173315,-91.886842
"65265","Mexico","MO","Meek's Lumber in Mexico","2308 E Liberty St","65265",39.16242599487305,-91.84921264648438
"65270","Moberly","MO","Westlake Ace Hardware 001","1919 N Moberly Street","65270",39.444186,-92.424856
"65270","Moberly","MO","Westlake","not_available","65270",39.44296909669562,-92.43173601050104
"65270","Moberly","MO","Lowe's","1800 East Outer Road","65270",39.4432839,-92.4199764
"65270","Moberly","MO","Sutherlands","519 E Highway 24","65270",39.44261370068349,-92.4304378019583
"65270","Moberly","MO","Ace Hardware","Hwy 24 & Bus 63","65270",39.43326741278686,-92.43338657399443
"65274","New Franklin","MO","Home depot","U.S. 40","65274",39.00193786621094,-92.73336029052734
"65281","Salisbury","MO","Husqvarna US","623 WEST 24 HWY","65281",39.43364334106445,-92.79935455322266
"65281","Salisbury","MO","Sanders Decorating and Design","219 S Broadway","65281",39.423452000000005,-92.80169000000001
"65301","Sedalia","MO","Lowe's","3811 West Broadway","65301",38.7112136,-93.276999
"65301","Sedalia","MO","Ace Hardware","1010 Thompson Blvd","65301",38.7034797668457,-93.26651000976562
"65301","Sedalia","MO","Sherwin-Williams Paint Store","1400 S Limit Ave","65301",38.70026350021362,-93.25283825397491
"65301","Sedalia","MO","Menard's","4400 Wisconsin Dr","65301",38.717631258226305,-93.28450875042935
"65301","Sedalia","MO","Edwards FRP Tank & Repair, Inc.","31197 Wingate Rd","65301",38.620330810546875,-93.2458724975586
"65301","Sedalia","MO","Sears","3117 West Broadway","65301",38.706864,-93.267373
"65301","Sedalia","MO","Harbor Freight","1705 W Broadway Blvd","65301",38.7047,-93.24846
"65301","Sedalia","MO","Tractor Supply Co.","3901 West Broadway Blvd","65301",38.71194615,-93.27911968
"65301","Sedalia","MO","Sutherlands","3808 S Limit Ave","65301",38.67758560180664,-93.25257873535156
"65305","Whiteman Air Force Base","MO","Self Help","not_available","65305",38.73662428433383,-93.56763034039726
"65323","Calhoun","MO","Do It Best Hardware","not_available","65360",38.536732,-93.527037
"65324","Climax Springs","MO","Crainshaw Supply","not_available","65324",38.09618378666232,-93.04297665208459
"65324","Climax Springs","MO","Husqvarna","13858 N State Highway 7","65324",38.0962028503418,-93.04277038574219
"65325","Cole Camp","MO","Mora Lumber","not_available","65345",38.52347183227539,-93.21577453613281
"65332","Green Ridge","MO","Mid Missouri Granite","13451 Curtis Rd","65337",38.7055549621582,-93.44349670410156
"65333","Houstonia","MO","BERNARD TRUE VALUE LBR & HDW","201 S Miller St","65351",38.965362548828125,-93.41771697998047
"65336","Knob Noster","MO","Ace Hardware and More","401 N State St","65336",38.768213,-93.556411
"65338","Lincoln","MO","Eichler Lumber","not_available","65355",38.24282602233059,-93.39629943466787
"65338","Lincoln","MO","Husqvarna","1850 COMMERCIAL ST","65355",38.26362228393555,-93.36956024169922
"65340","Marshall","MO","Sherwin-Williams Paint Store","815 W College St","65340",39.10981695656077,-93.20931136608124
"65340","Marshall","MO","La Crosse Lumber Co.","152 W Morgan St","65340",39.119312,-93.1976463
"65340","Marshall","MO","Orscheln Farm & Home","not_available","65340",39.10795218366622,-93.20936245336614
"65340","Marshall","MO","central mo ag services","211 N Lyon Ave","65340",39.122859954833984,-93.20216369628906
"65340","Marshall","MO","Husqvarna US","317 N Jefferson Ave","65340",39.12363052368164,-93.1960678100586
"65360","Windsor","MO","Railside Guttering & Vinyl Siding (Sylvanias Yoder)-Owner {Amish}","1389 NE 1051 (Phone 9:00am-9:30am)","65360",38.555145263671875,-93.56222534179688
"65401","Rolla","MO","Lowe's","2300 North Bishop Avenue","65401",37.9667995,-91.7623619
"65401","Rolla","MO","Perkins Lumber","not_available","65559",37.99743,-91.6129
"65401","Rolla","MO","Menards","not_available","65401",37.945732,-91.796751
"65401","Rolla","MO","Dickey Bub Rolla","1040 Forum Dr","65401",37.9518509620713,-91.7522984774901
"65401","Rolla","MO","Fastenal","2246-2590 N Bishop Ave.","65401",37.965492248535156,-91.7650146484375
"65401","Rolla","MO","minuteKEY","500 S Bishop Ave","65401",37.937606,-91.778605
"65401","Rolla","MO","Miller Glass","412 S Bishop Ave","65401",37.939137727889864,-91.77758574485779
"65401","Rolla","MO","Family Center True Value & V & S","1200 E State Route 72","65401",37.93781661987305,-91.75582885742188
"65401","Rolla","MO","Sherwin-Williams Paint Store","106 N Bishop Ave","65401",37.944620542904126,-91.77693128585814
"65401","Rolla","MO","Husqvarna US","PO Box RR","65402",37.942100524902344,-91.77166748046875
"65401","Rolla","MO","minuteKEY","2300 N Bishop Ave","65401",37.966605,-91.761939
"65401","Rolla","MO","Rolla Farmers Exchange","209","65401",37.949961,-91.769077
"65401","Rolla","MO","Meek's Lumber","200 E 8th St","65401",37.949452,-91.769811
"65438","Birch Tree","MO","Winona Hardware","not_available","65588",37.02357362765648,-91.31904650630607
"65441","Bourbon","MO","Perkins Do It Hardware","not_available","65565",37.965495427428955,-91.35281333432857
"65444","Bucyrus","MO","Houston Do-It Center","1453 S Sam Houston Blvd","65483",37.31158167,-91.96215833
"65444","Bucyrus","MO","Debo's Hardware & Supply","401 S Grand Ave","65483",37.324167,-91.956424
"65444","Bucyrus","MO","TUG","not_available","65483",37.321363,-91.957034
"65444","Bucyrus","MO","THE GLASS DEPOT LLC","421 W STATE ROUTE 17","65483",37.32020568847656,-91.9624252319336
"65444","Bucyrus","MO","Husqvarna","418 S Sam Houston Blvd","65483",37.32468032836914,-91.952880859375
"65452","Crocker","MO","Newcomb Hardware","112 S Commercial St","65452-0268",37.94859,-92.26407
"65453","Cuba","MO","Mid-State lumber","not_available","65453",38.061302000000005,-91.40240899999999
"65459","Dixon","MO","Shirley' Furniture & JR's Hardware","not_available","65582",38.186628,-91.954838
"65459","Dixon","MO","Tri-County True Value","205 W 2nd St","65459",37.99317932,-92.09420013
"65459","Dixon","MO","Country Mart Ace","508 E 5th St","65459",37.9983549,-92.085459
"65459","Dixon","MO","Husqvarna","903 W 4th St","65459",37.99806594848633,-92.10785675048828
"65536","Lebanon","MO","Farmers  Exchange","225 S Jefferson Ave","65536",37.67946655,-92.66303671
"65536","Lebanon","MO","Lowe's Home Center","200-562 Missouri 32","65536",37.669708156087665,-92.66782418364757
"65536","Lebanon","MO","Lowes","not_available","65536",37.66610112951011,-92.64710139619805
"65536","Lebanon","MO","Sherwin-Williams Paint Store","144 Lawson Ave","65536",37.65919303611478,-92.65165328979491
"65536","Lebanon","MO","Sutherlands Lumber","1701 S Jefferson Ave","65536",37.66505813598633,-92.65209197998047
"65536","Lebanon","MO","Meek's Lumber in Lebanon","2041 S Jefferson Ave","65536",37.65864562988281,-92.65010833740234
"65536","Lebanon","MO","Herrman Lumber","1901 S Jefferson Ave","65536",37.66059112548828,-92.6500473022461
"65536","Lebanon","MO","Tractor Supply Co.","1713 Southdale Dr","65536",37.673435,-92.657524
"65536","Lebanon","MO","Lowe's","190 Highway 32","65536",37.6656704,-92.6463466
"65536","Lebanon","MO","Husqvarna","1680 W Elm St","65536",37.655033111572266,-92.66624450683594
"65542","Licking","MO","Friend True Value Lumber","145 W Hwy 32","65542",37.49852857,-91.86199859
"65548","Mountain View","MO","Young's True Value Hardware","417 East St","65548",36.99513195,-91.70138896
"65548","Mountain View","MO","Richards Bros Farm Store","not_available","65548",36.99523303356046,-91.70091892891075
"65548","Mountain View","MO","Husqvarna","510 EAST INDUSTRIAL DRIVE","65548",37.00008773803711,-91.67955017089844
"65548","Mountain View","MO","Husqvarna","1107 E US Highway 60","65548",37.000587463378906,-91.68633270263672
"65556","Richland","MO","Richland Hardware","not_available","65556",37.857017,-92.403274
"65560","Salem","MO","MFA","not_available","65560",37.634858,-91.520163
"65560","Salem","MO","Husqvarna","204 W Scenic Rivers Blvd","65560",37.63624954223633,-91.53758239746094
"65560","Salem","MO","Husqvarna","411 County Road 3210","65560",37.66290283203125,-91.57431030273438
"65560","Salem","MO","Husqvarna","1105 E Scenic Rivers Blvd","65560",37.63459396362305,-91.52323150634766
"65583","Waynesville","MO","Lowe's","120 Carson Boulevard","65584",37.828698,-92.1614032
"65583","Waynesville","MO","Meek's Lumber in St. Robert","103 McKinnon Rd","65584",37.82551193237305,-92.1673583984375
"65583","Waynesville","MO","Husqvarna","1805 Historic 66 W","65583",37.812740325927734,-92.23054504394531
"65584","Saint Robert","MO","U.S. Lock","not_available","65584",37.820838928222656,-92.12948608398438
"65584","Saint Robert","MO","minuteKEY","185 Saint Robert Blvd","65584",37.8250379,-92.1528163
"65604","Ash Grove","MO","The Rosewood Shop","not_available","65604",37.186518,-93.633382
"65604","Ash Grove","MO","Ash Grove True Value","307 Perryman","65604",37.318599,-93.587101
"65605","Aurora","MO","Sutherlands","2031 S Elliott Ave","65605",36.949649810791016,-93.7186508178711
"65605","Aurora","MO","Central Sheet Metal","23 W Olive St","65605",36.975598,-93.721831
"65605","Aurora","MO","Journagan True Value Hardware","1200 E Church St","65605",36.970003,-93.702708
"65605","Aurora","MO","Sears","3100 S Elliot Ave, Suite #104","65605",36.9454306,-93.71902
"65605","Aurora","MO","Schaller Hardwood Lumber Co","612 W Johnathan Dr, Marionville, MO 65705","65705",36.987815856933594,-93.6448745727539
"65606","Alton","MO","True Value Building Supplies","Rt 3 Box 3022 Hwy 160 W","65606",36.69604,-91.39742
"65606","Alton","MO","Husqvarna","RT 72 BOX 2191","65606",36.6942253112793,-91.39930725097656
"65608","Ava","MO","Sears","1101 NW 12th Avenue","65608",36.960038,-92.674415
"65608","Ava","MO","J Brothers True Value Home Center","1115 Springfield Road-","65608",36.9604948,-92.6736025
"65608","Ava","MO","Husqvarna","551 State Hwy W","65608",36.79471206665039,-92.8175277709961
"65610","Billings","MO","Lowe's","1225 US Highway 60 East","65738",37.1316113,-93.4611343
"65610","Billings","MO","Meek's The Builders Choice - Republic","1355 US Highway 60 E","65738",37.1321867,-93.45887959999999
"65610","Billings","MO","minuteKEY","1150 US Highway 60 E","65738",37.12779998779297,-93.45895385742188
"65610","Billings","MO","Husqvarna","5214 Jasmine Rd","65610",36.99399185180664,-93.51094818115234
"65613","Bolivar","MO","Ace Hardware","2300 S Springfield Ave","65613",37.59272766113281,-93.40145874023438
"65613","Bolivar","MO","Quarles Supply","not_available","65613",37.584255,-93.399546
"65613","Bolivar","MO","Rowetons Home Center","100-198 N Springfield Ave","65613",37.614738833333334,-93.41120498333333
"65613","Bolivar","MO","Precision Small Engines Inc","951 E 430th Rd","65613",37.629007,-93.457497
"65613","Bolivar","MO","Meek's Lumber in Bolivar","1912 W Broadway St","65613",37.61203384399414,-93.432373046875
"65613","Bolivar","MO","C&C Farm And Home Supply","3260 S Springfield Ave","65613",37.58400961666667,-93.39779689
"65613","Bolivar","MO","Tractor Supply Co.","1751 South Wommack Ave","65613",37.60176467895508,-93.44065856933594
"65613","Bolivar","MO","Sears","3151 S. Springfield Ave.","65613",37.5849872,-93.4003602
"65616","Branson","MO","Lowe's","165 Mall Road","65672",36.6138746,-93.2289704
"65616","Branson","MO","The Home Depot","1000 Branson Hills Pkwy","65616",36.6736433,-93.2237296
"65616","Branson","MO","Harbor Freight","1495  265 south ste 120","65616",36.663643,-93.24426
"65616","Branson","MO","Direct Tools Factory Outlet","300 Tanger Blvd Ste 301","65616",36.645971,-93.264321
"65616","Branson","MO","minuteKEY","2050 W 76 Country Blvd","65616",36.63933181762695,-93.26000213623047
"65616","Branson","MO","Sherwin-Williams Paint Store","131 Industrial Park Dr","65672",36.610498314445564,-93.22525978088379
"65616","Branson","MO","Tractor Supply Co.","2949 South Business 65","65672",36.61791,-93.228584
"65616","Branson","MO","Arrowhead Building Supply","181 Hollister Pointe Dr","65672",36.61412811279297,-93.22498321533203
"65616","Branson","MO","City Electric Supply Branson Mo","139 Industrial Park Dr Ste A","65672",36.61133424082226,-93.22441781349181
"65616","Branson","MO","Tool Town USA","not_available","65616",36.65904332130304,-93.25460823952673
"65616","Branson","MO","Branson Ace Hardware","190 Cross Creek Blvd","65616",36.642715,-93.18976
"65616","Branson","MO","Meek's The Builders Choice - Branson","155 Stonetree Ln","65616",36.7038023,-93.22285869999999
"65616","Branson","MO","Husqvarna","330 State Highway BB","65672",36.626075744628906,-93.2159652709961
"65619","Brookline","MO","Datema","not_available","65802",37.1660628423492,-93.39523075055509
"65622","Buffalo","MO","Wienert Manufacturing Co - Grab-Em Paint","277 State Highway 64","65685",37.75812911987305,-93.13963317871094
"65622","Buffalo","MO","Baldwin Plumbing","2244-2298 East 330th Road","65663",37.7734316,-93.22230049999999
"65622","Buffalo","MO","Miller Feed Service","689 Redtop Re","65648",37.4716682434082,-93.14533233642578
"65622","Buffalo","MO","Hostetler Feed & Farm Supply","1843 S Ash St","65622",37.59559631347656,-93.12240600585938
"65622","Buffalo","MO","Meek's Lumber in Buffalo","1000 W Dallas St","65622",37.6392822265625,-93.10243225097656
"65622","Buffalo","MO","Husqvarna","12210 Highway 65 S","71286",37.694149017333984,-93.10269927978516
"65625","Cassville","MO","Eagan's Supply","not_available","65772",36.587928,-93.954365
"65625","Cassville","MO","minuteKEY","1401 Old Exeter Rd","65625",36.67704772949219,-93.8896255493164
"65625","Cassville","MO","Michael's Hardware Store","not_available","65625",36.66865158081055,-93.88066864013672
"65625","Cassville","MO","Husqvarna US","10867 Farm Road 2182","65625",36.66830062866211,-93.87677001953125
"65625","Cassville","MO","Lecompte Bldg Center Inc","201 E 7th St","65625",36.6783569,-93.8675
"65625","Cassville","MO","Tractor Supply Co.","1011 Old Exeter Rd","65625",36.676937,-93.88663
"65625","Cassville","MO","Exeter Mill","not_available","65647",36.66994,-93.94851
"65625","Cassville","MO","Sears","99 Hwy 37 S","65625",36.667559,-93.886981
"65634","Cross Timbers","MO","Husqvarna","15825 US Highway 65","65732",37.97996520996094,-93.20524597167969
"65637","Dora","MO","Husqvarna","RT 1 BOX 1960","65637",36.77783966064453,-92.22187042236328
"65640","Dunnegan","MO","Husqvarna US","273 E 410th Rd","65649",37.659271240234375,-93.57875061035156
"65652","Fordland","MO","Design Hardware","211 Endeavor Dr","65742",37.11574935913086,-93.03473663330078
"65653","Forsyth","MO","Trustworthy Hardware","not_available","65653",36.685748,-93.119686
"65653","Forsyth","MO","Forsyth True Value","Highway 160","not_available",36.677879333496094,-93.10313415527344
"65654","Freistatt","MO","Freistatt Farmers Exchange","not_available","65654",37.01927947998047,-93.8978500366211
"65654","Freistatt","MO","Heritage Tractor","524 North Main Street","65654",37.0253266,-93.8979518
"65655","Gainesville","MO","Husqvarna","236 1ST STREET","65655",36.60062026977539,-92.43514251708984
"65656","Galena","MO","True Value Rental","16728 State Hwy 13","65737",36.682685767688156,-93.38532328605652
"65656","Galena","MO","Grand Rental Station","16728 State Highway 13 #1","65737",36.6822997,-93.3848184
"65656","Galena","MO","minuteKEY","18401 STATE HWY 13","65737",36.6999167,-93.3718947
"65656","Galena","MO","meeks","not_available","65737",36.667984572316016,-93.41463317941887
"65656","Galena","MO","Branson West Hardware","16981 State Highway 13","65737",36.6840059,-93.383774
"65656","Galena","MO","Husqvarna","15314 STATE HWY 13","65737",36.66978454589844,-93.4038314819336
"65661","Greenfield","MO","Meek's Lumber in Greenfield","161 S Allison Ave","65661",37.41400146484375,-93.84146118164062
"65662","Grovespring","MO","MFA TRUE VALUE","2135 HIGHWAY M","65662",37.418331146240234,-92.59876251220703
"65662","Grovespring","MO","MFA Agri Services","2135 Highway M","65662",37.400325775146484,-92.6075668334961
"65674","Humansville","MO","Johnson's Pump Service LLC","22870 752 Rd.","65674",37.7753856,-93.6516222
"65674","Humansville","MO","Husqvarna","407 E 350th Rd","65674",37.75645446777344,-93.55517578125
"65682","Lockwood","MO","Lockwood True Value Hardware","729 Main St","65682",37.38632715,-93.95323648
"65686","Kimberling City","MO","Table Rock True Value Hardware","12622 State Hwy 13","65686",36.64036,-93.421
"65686","Kimberling City","MO","Home 'n' Hardware","41 Kimberling Ctr Ln, #A","65686",36.63085174560547,-93.42317199707031
"65689","Cabool","MO","Cabool Home Center","not_available","65689",37.11223809026331,-92.10481339883924
"65689","Cabool","MO","Tractor Supply Co.","915 East Main St","65793",36.98360514557216,-91.95441171316435
"65689","Cabool","MO","The Throne Of Kings","4019 St","65793",36.922935485839844,-91.9287338256836
"65689","Cabool","MO","Husqvarna","107 Highway 181","65689",37.11219024658203,-92.10506439208984
"65689","Cabool","MO","Husqvarna","1123 W Business Highway 60-63","65793",37.00438690185547,-91.97945404052734
"65692","Koshkonong","MO","Cover H A Lbr Yard","798 Front St","65791",36.5255639,-91.537961
"65692","Koshkonong","MO","Forschler True Value","117 S 2nd St","65791",36.52437696,-91.53942826
"65704","Mansfield","MO","Mansfield Home Center","875 W Commercial St","65704",37.11308288574219,-92.59928131103516
"65704","Mansfield","MO","Air Duct Cleaning Forest Hill","113 Mansfield Highway #431","76119",37.0784627368126,-92.56893396377563
"65706","Marshfield","MO","CHC Home Center","360 McNabb Rd","65706",37.3433,-92.93584
"65706","Marshfield","MO","minuteKEY","14740 State Highway 38","65706",37.337947845458984,-92.93986511230469
"65706","Marshfield","MO","Hampton Lawn & Garden","300 S Walnut St","65706",37.336299195362635,-92.89526224136353
"65707","Miller","MO","Hunt's Hardware","205 E Main St","65707",37.21461,-93.83963
"65708","Monett","MO","Lowe's","925 East US Highway 60","65708",36.9114883,-93.8975247
"65708","Monett","MO","Meek's Lumber in Monett","827 Jerome Ln","65708",36.91289305686951,-93.91332149505615
"65708","Monett","MO","minuteKEY","885 E US Highway 60","65708",36.91171646118164,-93.90338897705078
"65708","Monett","MO","Coast. To Coast","Kyler st","65708",36.91268090054443,-93.91445570157937
"65708","Monett","MO","Sherwin-Williams Paint Store","809 E Broadway St","65708",36.92198181152344,-93.91838836669922
"65708","Monett","MO","Fastenal","not_available","65708",36.91459274291992,-93.90013122558594
"65708","Monett","MO","Ace Hardware","2150 E Cleveland St","65708",36.929363,-93.903986
"65708","Monett","MO","Discount Auto Glass","205 1st St","65708",36.92028499417156,-93.92692141219474
"65708","Monett","MO","Husqvarna","210 S HWY 37","65708",36.89801025390625,-93.9261703491211
"65711","Mountain Grove","MO","Husqvarna US","1714 N Main St","65711",37.14453887939453,-92.26171875
"65711","Mountain Grove","MO","Northtown Ace Farm & Home","2302 E 23rd St","65711",37.1313,-92.2633
"65711","Mountain Grove","MO","Meek's Lumber in Mountain Grove","402 E 1st St","65711",37.1287727355957,-92.26004028320312
"65711","Mountain Grove","MO","Hawkins Home And Lawn","not_available","65711",37.144192,-92.261637
"65711","Mountain Grove","MO","Ace Hardware","2302 23rd St","65711",37.1313,-92.2633
"65711","Mountain Grove","MO","Norwood Hardware","not_available","65717",37.107742,-92.416098
"65712","Mount Vernon","MO","Brad's True Value","530 E Mount Vernon Blvd","65712",37.0949592590332,-93.81346130371094
"65712","Mount Vernon","MO","Meek's Lumber in Mt. Vernon","211 S. Spring Park Road","65712",37.10295629476713,-93.82538795471191
"65712","Mount Vernon","MO","minuteKEY","500 W Mount Vernon Blvd","65712",37.09197998046875,-93.82608032226562
"65712","Mount Vernon","MO","Husqvarna","722 W Mount Vernon Blvd","65712",37.09246063232422,-93.82874298095703
"65714","Nixa","MO","Nixa Hardware Farm Supply","510 W Mount Vernon St","65714",37.043296421965486,-93.30471223162269
"65714","Nixa","MO","Tractor Supply Co.","525 West Northview Rd","65714",37.05501990047601,-93.30529639930539
"65714","Nixa","MO","Fastenal","not_available","65714",37.072313,-93.286953
"65714","Nixa","MO","Meek's Lumber","735 N Massey Blvd","65714",37.0542752,-93.3050523
"65714","Nixa","MO","Sherwin-Williams Paint Store","505 W Mount Vernon St","65714",37.04505157470703,-93.30368041992188
"65714","Nixa","MO","Curran Design Center","1613 N State Highway CC","65714",37.07345962524414,-93.29428100585938
"65714","Nixa","MO","Tractor Supply Co","525 Northview Rd","65714",37.05522537231445,-93.30545806884766
"65714","Nixa","MO","Husqvarna","418 N Old Wilderness Rd","65714",37.048885345458984,-93.3040771484375
"65714","Nixa","MO","Foundation Building Materials","2140 North Bristol Lane","65714",37.09192877,-93.30531015
"65721","Ozark","MO","Lowe's","1800 West Marler Lane","65721",37.0025872,-93.2234561
"65721","Ozark","MO","Brickstone Ace Hardware","1791 James River Rd","65721",37.0700999,-93.22793
"65721","Ozark","MO","McMullen Landscape Center","3210 E Evans Rd","65804",37.1033354,-93.231454
"65721","Ozark","MO","Husqvarna","1403 S 3rd St","65721",37.0073127746582,-93.2065658569336
"65742","Rogersville","MO","Menards","500 N Eastgate Ave","65802",37.211092,-93.222669
"65742","Rogersville","MO","Sherwin-Williams Paint Store","3309 E Sunshine St Ste C-D","65804",37.180907744722575,-93.22764365003738
"65742","Rogersville","MO","Meek's The Builder's Choice","3250 E Sunshine St","65804",37.179881,-93.228899
"65742","Rogersville","MO","minuteKEY","3720 E. Sunshine St.","65802",37.17930603027344,-93.21778106689453
"65742","Rogersville","MO","John Deere Refurbishing","4500 E Mustard Way","65803",37.243959999999994,-93.20071
"65742","Rogersville","MO","Bud's","not_available","65804",37.192559,-93.228814
"65742","Rogersville","MO","Do It Best CHC HOME CENTER","500 S Mill St","65742",37.10647964477539,-93.05593872070312
"65742","Rogersville","MO","Southern Materials Company - Springfield","3358 E Division St","65802",37.221677,-93.226649
"65742","Rogersville","MO","Robb's Portable Buildings","7133 State Hwy B","65742",37.20228576660156,-93.04454040527344
"65742","Rogersville","MO","Southern Supply","3216 E Division St","65802",37.222128999999995,-93.22920500000001
"65742","Rogersville","MO","Husqvarna","500 SOUTH MILL","65742",37.10647964477539,-93.05593872070312
"65746","Seymour","MO","Byler's Supply","not_available","65746",37.1300876213293,-92.73393846408194
"65746","Seymour","MO","Husqvarna","455 State Highway C","65746",37.154571533203125,-92.7552719116211
"65747","Shell Knob","MO","Meek's Lumber in Shell Knob","25056 State Highway 39","65747",36.6243147349475,-93.61951201090056
"65753","Sparta","MO","Rural Hardware","not_available","65753",37.00080490112305,-93.08673095703125
"65757","Strafford","MO","Husqvarna US","9776 E. STATE HWY 00","65757",37.279659271240234,-93.10449981689453
"65767","Urbana","MO","Husqvarna","65 &  OAK STREET","65767",37.84456253051758,-93.16582489013672
"65769","Verona","MO","Youngberg Ranch Supply - Papa's House","not_available","65769",36.96221,-93.79691
"65775","West Plains","MO","Horn Plumbing","not_available","65775",36.7321449738947,-91.85589538137751
"65775","West Plains","MO","Sherwin-Williams Paint Store","2100 Independence Sq","65775",36.7435224790216,-91.87020242214203
"65775","West Plains","MO","Meek's Lumber","1505 N Kentucky Ave","65775",36.74458312988281,-91.87613677978516
"65775","West Plains","MO","Sears","1347 Southern Hills","65775",36.716528,-91.87203
"65775","West Plains","MO","Ace Hardware","1401 Mitchell Rd","65775",36.71205520629883,-91.87751770019531
"65775","West Plains","MO","Husqvarna US","4973 US Highway 160","65775",36.68881607055664,-91.89061737060547
"65781","Willard","MO","Willard True Value","658 Hunt Rd","65781",37.2909049987793,-93.40985870361328
"65802","Springfield","MO","Menards","3803 W University St","65807",37.18448888851907,-93.35619285257992
"65802","Springfield","MO","Westlake Ace Hardware 032","2350 S Campbell Ave","65807",37.172049,-93.295387
"65802","Springfield","MO","Home Outlet","1515 West Division","65802",37.226953,-93.310757
"65802","Springfield","MO","Lowe's","1707 West Norton Road","65803",37.2529526,-93.3134309
"65802","Springfield","MO","Race Brothers Farm & Home Supply","2310 W Kearney St","65803",37.240575,-93.321701
"65802","Springfield","MO","Midwest Rug","911 W Sunshine St","65807",37.182887,-93.302036
"65802","Springfield","MO","Sherwin-Williams Commercial Paint Store","535 E Saint Louis St","65806",37.209375,-93.287112
"65802","Springfield","MO","Mfa","1947 e. trafficway","65802",37.211368560791016,-93.25762939453125
"65802","Springfield","MO","minuteKEY","1923 E Kearney St","65803",37.241371154785156,-93.25867462158203
"65802","Springfield","MO","ABC Supply Co.","3011 W. Chestnut Expwy.","65802",37.212730407714844,-93.3389663696289
"65802","Springfield","MO","White Cap (Tool Hospital)","423 N Belcrest Ave, Springfield, MO 65802","65802",37.21122741699219,-93.2348403930664
"65802","Springfield","MO","Scanning Stuff","not_available","65803",37.225479,-93.23611
"65802","Springfield","MO","Sheppard Supply","303 N Waverly Ave","65802",37.210164,-93.262297
"65802","Springfield","MO","WESTERN EXTRALITE","1840 N. Packer Rd.","65803",37.23031997680664,-93.23307037353516
"65802","Springfield","MO","Cedar Creek Lumber Wholesale","Golden Ave","not_available",37.23603067388809,-93.33912533112685
"65802","Springfield","MO","City Electric Supply Springfield Mo","300 E Chestnut St","65806",37.214954921294705,-93.2909103250131
"65802","Springfield","MO","Cowan's Ace Hdw","3310 W College St","65802",37.209,-93.3482
"65802","Springfield","MO","Wildcat Materials","2235 West Catalpa Street","65807",37.194145,-93.323962
"65802","Springfield","MO","Missouri Millwork","1770 N Packer Rd","65803",37.229454,-93.23291
"65803","Springfield","MO","Smc","509 N Washington Ave","65806",37.21283721923828,-93.28649139404297
"65803","Springfield","MO","McGregor Hardware","2915 E Division St","65803",37.22522,-93.236251
"65803","Springfield","MO","Gator Products Inc","1404 N Nias Ave","65802",37.223727,-93.257518
"65803","Springfield","MO","Stone Parts North","1437 N National Ave","65802",37.22459383,-93.27562346666667
"65803","Springfield","MO","PraxAir","1910 E Commercial St, Springfield, MO 65803","65803",37.229802,-93.258386
"65803","Springfield","MO","R.N. Smith","1330 N Nias Ave","65802",37.222738,-93.257607
"65803","Springfield","MO","Jenfab Cleaning Solutions","1435 N Alliance Ave","65802",37.226305464320575,-93.37975870555725
"65803","Springfield","MO","Rathbone Ace Hardware","508 E Commercial St","65803",37.2297,-93.286766
"65804","Springfield","MO","Lowe's","1850 East Primrose","65804",37.1491204,-93.2616271
"65804","Springfield","MO","The Home Depot","2104 E Independence","65804",37.1409422,-93.2550789
"65804","Springfield","MO","Harbor Freight Tools","3909 S Campbell Ave","65807",37.1431778496211,-93.2966755888819
"65804","Springfield","MO","Sherwin-Williams Paint Store","4116 S Campbell Ave","65807",37.13936805725098,-93.295618
"65804","Springfield","MO","Dewalt","not_available","65810",37.131924,-93.295789
"65804","Springfield","MO","Drain Pro Plumbing Co","1942 E Meadowmere St","65804",37.1904373,-93.2577138
"65804","Springfield","MO","Sherwin-Williams Paint Store","3027 S Kimbrough Ave","65807",37.159186,-93.28605400000001
"65804","Springfield","MO","minuteKEY","1850 E Primrose St","65804",37.148834,-93.26110600000001
"65804","Springfield","MO","Sears","2825 S Glenstone Ave","65804",37.1621543,-93.2703352
"65804","Springfield","MO","The Drain Strainer","5159 S Bellhurst Ct","65804",37.1206793,-93.2509048
"65804","Springfield","MO","Maschino's","1715 S Campbell Ave","65807",37.18431565,-93.29554828
"65806","Springfield","MO","Meek's The Builder's Choice","1551 W Mount Vernon St","65802",37.2049049,-93.3116245
"65806","Springfield","MO","PunchList Professionals","722 W Olive St","65806",37.20914,-93.299564
"65806","Springfield","MO","Wholesale Lumber","404 N Jefferson Ave","65806",37.211728,-93.289049
"65806","Springfield","MO","Ballew Saw And Tool","not_available","65806",37.207186,-93.287036
"65807","Springfield","MO","True Value","4121 S Cox Rd","65807",37.139687,-93.32425400000001
"65807","Springfield","MO","Ewing Irrigation","1841 W Sunset St","65807",37.167106,-93.318585
"65807","Springfield","MO","Kelley's Police & Tactical Supply","1324 W Sunshine St","65807",37.182080622267584,-93.30956023454155
"65807","Springfield","MO","Certified water and mold","3902 S Leroy Ct","65807",37.14393997192383,-93.3288345336914
"65807","Springfield","MO","Cfm Dist.","2215-A Sunset","65807",37.167382,-93.322747
"65807","Springfield","MO","Meek's Insulation & Drywall - Springfield","2741 S Scenic Ave","65807",37.1647067,-93.3330678
"65807","Springfield","MO","Destination Outdoors","3335 W Sunshine St","65807",37.183250427246094,-93.34762573242188
"65807","Springfield","MO","Alside Supply Center","1900 W Sunset St","65807",37.16585519047082,-93.31807583401599
"65809","Springfield","MO","Sutherlands","3148 E Chestnut Expy","65802",37.20945703020619,-93.23060973074163
