"zip","city","state","name","address","postalCode","lat","lon"
"80002","Arvada","CO","The Home Depot","5215 Wadsworth Blvd","80002",39.7922976,-105.0825917
"80002","Arvada","CO","Lowe's","5405 Wadsworth Bypass","80002",39.7953972,-105.0806372
"80002","Arvada","CO","Echter's Nursery and Garden Center","5150 Garrison St","80002",39.789741515105426,-105.09980021733874
"80002","Arvada","CO","True Value Hardware","4700 Kipling St","80033",39.7826128571429,-105.10963
"80002","Arvada","CO","Sherwin-Williams Paint Store","5220 Wadsworth Byp","80002",39.79141254,-105.0793865
"80002","Arvada","CO","Camel Water Treatment","6260 W 52nd Ave Ste 101","80002",39.791076,-105.0666665
"80002","Arvada","CO","Kleenatap","8795 Ralston Rd","80002",39.8026831,-105.0952271
"80002","Arvada","CO","CPS Distributors","5601 Gray St Unit B","80002",39.798764,-105.062402
"80002","Arvada","CO","TM Sales","5255 Xenon St","80002",39.791429,-105.141125
"80002","Arvada","CO","electriconnection","not_available","80003",39.803995,-105.070353
"80002","Arvada","CO","swagelok Denver","not_available","not_available",39.78542296847495,-105.10415297421099
"80002","Arvada","CO","George T. Sanders Company - Wheat Ridge","10201 W 49th Ave","80033",39.78597463071412,-105.11274576187132
"80002","Arvada","CO","performance distrubuters","not_available","80002",39.78750228881836,-105.13893127441406
"80002","Arvada","CO","Ace Hardware","9447 W 57th Ave","80002",39.800456,-105.10282600000001
"80002","Arvada","CO","minuteKEY","5405 Wadsworth Byp","80002",39.795440673828125,-105.08012390136719
"80002","Arvada","CO","Metal Supermarkets","11405 W. I-70 Frontage Rd. N","80033",39.784300983183186,-105.12617826461792
"80002","Arvada","CO","American Awning & Patio Co.","4836 Van Gordon St","80033",39.78518,-105.13432
"80002","Arvada","CO","K&H Home Solutions","5805 W 56th Ave","80002",39.79875295,-105.05931344
"80002","Arvada","CO","S&N Lawnmower Shop","7711 Grandview Ave","80002",39.798684,-105.083528
"80002","Arvada","CO","A B M Fabrication & Machining","5880 W 59th Ave","80003",39.8031363,-105.0605519
"80003","Arvada","CO","Lowe's","5600 West 88th Avenue","80031",39.854841,-105.0574033
"80003","Arvada","CO","Harbor Freight Tools","8601 Sheridan Blvd #300","80003",39.85347117861083,-105.05396839031712
"80003","Arvada","CO","Sherwin-Williams Paint Store","7731 Wadsworth Blvd","80003",39.83595,-105.083477
"80003","Arvada","CO","Sheridan Ace Hardware","5017 W 64th Ave","80003",39.8128999,-105.0507
"80003","Arvada","CO","minuteKEY","5600 W 88th Ave","80031",39.854883,-105.057533
"80003","Arvada","CO","Ace Hardware","8100 Wadsworth blvd","80005",39.84414625,-105.08313305
"80003","Arvada","CO","magswitch","8774 Yates Dr, Westminster, CO 80031","80031",39.855682373046875,-105.0504150390625
"80003","Arvada","CO","Ferguson","8175 Sheridan Blvd Unit S","80003",39.844705,-105.054849
"80004","Arvada","CO","Professional Tree & Turf","6945 Indiana Ct #400","80007",39.822843,-105.167286
"80004","Arvada","CO","Drywall Repair & Services","12650 W 64th Ave #E168","80004",39.81105797519315,-105.14055490493774
"80005","Arvada","CO","Standley Shores Ace Hardware","9979 Wadsworth Pkwy Suite 200","80021",39.8774739,-105.09567
"80005","Arvada","CO","Sears","7647 W 88th Avenue","80005",39.85848152174133,-105.08368670940399
"80005","Arvada","CO","ARS Landscape Materials and Supply","9470 Indiana St","80007",39.8686714,-105.1634753
"80005","Arvada","CO","Hepp Sprinklers","11285 W 76th Way","80005",39.837431,-105.125077
"80007","Arvada","CO","Ace Hardware at Westwoods","15530 W 64th Ave Ste G","80007",39.812531,-105.17405
"80007","Arvada","CO","Sherwin-Williams Paint Store","15220 W 64th Ave","80007",39.810561,-105.172577
"80007","Arvada","CO","Old Tyme Lumber","11218 Highway 93","80303",39.90080261230469,-105.2385025024414
"80010","Aurora","CO","Hoffman Heights Ace Hardware","644 Peoria St","80011",39.7265069,-104.8455987
"80010","Aurora","CO","Harbor Freight Tools","13668 E Alameda Ave","80012",39.710811771255045,-104.83045463929993
"80010","Aurora","CO","minuteKEY","10400 E Colfax Ave","80010",39.739166259765625,-104.86763000488281
"80010","Aurora","CO","Summit Gutter Systems","2763 Dayton St","80238",39.7561606122449,-104.875187346939
"80011","Aurora","CO","The Home Depot","14001 E Mississippi Ave","80012",39.698391,-104.8247764
"80011","Aurora","CO","The Home Depot","3475 N Salida Court","80011",39.7625638,-104.7773001
"80011","Aurora","CO","Be the Gift Project","not_available","80011",39.772274,-104.80949
"80011","Aurora","CO","Ferguson Bath, Kitchen & Lighting Gallery","17655 E 25th Dr","80011",39.754174,-104.780454
"80011","Aurora","CO","Ferguson Waterworks","1788 Helena St","80011",39.744634999999995,-104.807766
"80011","Aurora","CO","Sears","14200 E Alameda Ave","80012",39.70930651,-104.82199009
"80011","Aurora","CO","Fastenal","3155 Chambers Rd","80011",39.76221466064453,-104.81075286865234
"80011","Aurora","CO","Sherwin-Williams Paint Store","552 S Chambers Rd","80017",39.706313,-104.808637
"80011","Aurora","CO","Tile For Less","not_available","80012",39.68784954160117,-104.827977
"80011","Aurora","CO","Fireplace and Grill Experts Inc.","30 Potomac St","80011",39.7293651,-104.8281402
"80011","Aurora","CO","Sherwin-Williams Commercial Paint Store","1701 Chambers Rd","80011",39.74437713623047,-104.81057739257812
"80011","Aurora","CO","Reliable Automatic Sprinkler","2256 N Pagosa St #100","80011",39.750666,-104.787513
"80011","Aurora","CO","Rew Materials","3855 Sable Blvd","80011",39.770312,-104.81997700000001
"80011","Aurora","CO","Grofax 4- Aurora Hydroponic & Organic Supply","1702 S Chambers Rd","80017",39.685003,-104.808452
"80012","Aurora","CO","Lowe's","1701 South Havana Street","80012",39.6845512,-104.8676528
"80012","Aurora","CO","Nick's Garden Center & Farm Market","2001 S Chambers Road","80014",39.67938960192216,-104.81064471310737
"80012","Aurora","CO","U-haul","615 S Havana St","80012",39.70523452758789,-104.86691284179688
"80012","Aurora","CO","minuteKEY","1701 S Havana St","80012",39.684706,-104.86801200000001
"80012","Aurora","CO","Denver Small Engine Repair","2157 S Havana St","80014",39.67752,-104.866445
"80012","Aurora","CO","Bell Home Solutions","2150 South Abilene Street","80012",39.677940075786914,-104.8268995730278
"80013","Aurora","CO","Ace Hdw at Buckley Square","17190 E Iliff Ave","80013",39.6731339,-104.7866
"80013","Aurora","CO","Denver Parts Depot","16878 E Napa Dr","80013",39.642799,-104.792651
"80013","Aurora","CO","Appliance Factory Parts","not_available","80013",39.673854,-104.807863
"80014","Aurora","CO","Kwal Paint # 052","3106 S Parker Rd","80014",39.6611442565918,-104.85316467285156
"80014","Aurora","CO","minuteKEY","9400 E HAMPDEN AVE","80231",39.65194320678711,-104.87855529785156
"80014","Aurora","CO","ACSC Locks","15200 E Iliff Ave","80014",39.673653,-104.811201
"80014","Aurora","CO","Sherwin-Williams Paint Store","2832 S Havana St","80014",39.66551978251259,-104.86506976987543
"80015","Aurora","CO","Lowe's","4455 South Buckley Road","80015",39.6360804,-104.7933406
"80015","Aurora","CO","The Home Depot","5600 South Chambers Rd","80015",39.6164356,-104.8116159
"80015","Aurora","CO","Sherwin-Williams Paint Store","17100 E Smoky Hill Rd","80015",39.62489064780556,-104.78958573809257
"80015","Aurora","CO","Garage Storage Solutions","4835 South Malta Way","80015",39.62842169,-104.7443072
"80015","Aurora","CO","Harmonious Handyman","16351 E Radcliff Pl Apt B","80015",39.63821563347804,-104.79783296585083
"80015","Aurora","CO","Prime Landscaping","6105 S Parker Rd Apt 9104","80016",39.60616683959961,-104.81017303466797
"80015","Aurora","CO","minuteKEY","5650 S Chambers Rd","80015",39.6140823,-104.8147284
"80015","Aurora","CO","minuteKEY","4455 S Buckley Rd","80015",39.635539,-104.793486
"80015","Aurora","CO","Grofax Parker","13726 E Quincy Ave","80015",39.637429,-104.827988
"80016","Aurora","CO","Lowe's","24505 E Wheatlands Parkway","80016",39.5977134,-104.7034474
"80016","Aurora","CO","The Home Depot","6000 South Gun Club Road","80016",39.6067959,-104.7158196
"80016","Aurora","CO","Tagawa Gardens","7711 S Parker Rd","80016",39.5765237,-104.7953008
"80016","Aurora","CO","Ace Hardware Saddle Rock","7420 S Gartrell Rd Unit B","80016",39.580196,-104.72322
"80016","Aurora","CO","CED","6999 S Jordan Rd Ste C","80112",39.589698,-104.819624
"80016","Aurora","CO","Rocky Mountain Hardscapes","15350 E Hinsdale Dr","80112",39.582523345947266,-104.81001281738281
"80016","Aurora","CO","Grainger","not_available","80112",39.59442090272036,-104.84487763104401
"80016","Aurora","CO","QED","7000 S Jordan Rd","80112",39.589633,-104.81715
"80016","Aurora","CO","Pioneer Materials West","7271 South Eagle Street","80112",39.58445559,-104.81848017
"80016","Aurora","CO","Fastenal","6999 S Jordan Rd","80112",39.589698,-104.819624
"80016","Aurora","CO","Meridian International Co Ltd Usa","7442 S Tucson Way Ste 120A Ste 120A","80112",39.581757,-104.836949
"80016","Aurora","CO","Tuff Shed","not_available","80016",39.606321,-104.715042
"80016","Aurora","CO","Adams lumber yard","6701-6899 S Dawson Cir","80112",39.59485169274882,-104.81987763142982
"80016","Aurora","CO","Click2ink Denver, LLC","14736 E Easter Ave","80112",39.587634,-104.817929
"80016","Aurora","CO","Sherwin-Williams Paint Store","23850 E Smoky Hill Rd","80016",39.599247,-104.71087299999999
"80016","Aurora","CO","American's Home  Title","13111 E Briarwood Ave","80112",39.593971252441406,-104.83538055419922
"80016","Aurora","CO","minuteKEY","10900 E Briarwood Ave","80112",39.59055,-104.861797
"80016","Aurora","CO","Ewing Irrigation","15579 E Hinsdale Cir","80112",39.582735,-104.80844599999999
"80020","Broomfield","CO","The Home Depot","12171 Sheridan Blvd","80020",39.91686826107964,-105.0575910248129
"80020","Broomfield","CO","Mile High Ace Hardware & Grden","2800 W. 104th Avenue","80234",39.883635,-105.0214293
"80020","Broomfield","CO","Sherwin-Williams Paint Store","5055 W 120th Ave","80020",39.916491,-105.05149899999999
"80020","Broomfield","CO","minuteKEY","500 Summit Blvd","80021",39.9260265,-105.136219
"80020","Broomfield","CO","Colorado Electric Supply Broomfield","2380 W Midway Blvd Ste 2","80020",39.922804446585886,-105.09811833500862
"80020","Broomfield","CO","Renewable Fiber, Inc.","11605 Wadsworth Blvd","80020",39.907427,-105.082194
"80020","Broomfield","CO","Colorado Heating, Air & Gas Fireplace Repair","280 E 1St Ave , #1572","80038",39.91547775268555,-105.06841278076172
"80020","Broomfield","CO","Benjiman Moore","not_available","80234",39.94226649871523,-105.06736606182982
"80020","Broomfield","CO","Stacy Machine and Tooling inc","2685 Industrial Ln","80020",39.9215655,-105.0998106
"80021","Broomfield","CO","The Home Depot","7125 W 88th Ave","80021",39.8582816,-105.0773352
"80021","Broomfield","CO","Murdoch's Ranch & Home Supply","9150 Wadsworth Pkwy","80021",39.86204489310128,-105.08089854770833
"80021","Broomfield","CO","Revive","6501 W 91st Ave","80031",39.861526,-105.068402
"80022","Commerce City","CO","The Home Depot","2440 Buckley Road","80601",39.9511635,-104.7873817
"80022","Commerce City","CO","Ace Hardware of Thornton","3851 E 120th Ave","80233",39.916369,-104.94325
"80022","Commerce City","CO","Ace Hardware at Reunion","15181 East 104th Ave","80022",39.885547,-104.81099
"80022","Commerce City","CO","Commerce City Ace Hardware","6900 Eudora Dr","80022",39.822187,-104.929627
"80022","Commerce City","CO","gulfeagle supply","11060 Leroy Dr","80233",39.897657,-104.962787
"80022","Commerce City","CO","Irby","5055 Lima St","80239",39.789575,-104.857297
"80022","Commerce City","CO","Ferguson Plumbing Supply","3625 E 48th Ave","80216",39.784621,-104.944157
"80022","Commerce City","CO","RIS Insulation Supply","5160 Havana St Unit K","80239",39.791968,-104.865118
"80022","Commerce City","CO","Lowe's Home Improvement","not_available","80640",39.87686,-104.809225
"80022","Commerce City","CO","Falls By Fox","2001 E 58th Ave","80216",39.802433013916016,-104.96422576904297
"80022","Commerce City","CO","VO Heating and Cooling","12168 Hudson Ct","80241",39.917,-104.92225
"80022","Commerce City","CO","FORCE America, Inc.","9652 Hanover Ct W","80640",39.871936,-104.867929
"80022","Commerce City","CO","Atlas Copco Rental","10525 Havana Ct","80601",39.8876554,-104.8690863
"80022","Commerce City","CO","Colorado Electric Supply Stapleton","4955 Peoria St Unit B","80239",39.7880406,-104.8472771
"80022","Commerce City","CO","Doorway Solutions","3333 E 52nd Ave, Denver, CO 80216","80216",39.791900634765625,-104.9481430053711
"80022","Commerce City","CO","H&E Equipment Services","9200 E 96th Ave","80640",39.869848,-104.880824
"80022","Commerce City","CO","Clear Creek Spas","6025 E 76th Ave","80022",39.835533,-104.917256
"80022","Commerce City","CO","Appliance Factory Parts","5050 E 50th Ave, Denver, CO 80216","80216",39.78871338152914,-104.94058223429298
"80022","Commerce City","CO","Vallen","4905 Nome St","80239",39.78630828857422,-104.85315704345703
"80022","Commerce City","CO","Ace Hardware","4830 N Chambers Pl","80239",39.784537,-104.807975
"80022","Commerce City","CO","UE Compression","9461 Willow Ct","80640",39.8676369,-104.8889484
"80022","Commerce City","CO","JM Handyman Services","13995 E 107th Ave","80022",39.891477,-104.824207
"80022","Commerce City","CO","Camping Companies Incorporated","6669 Colorado BLVD build D","80022",39.818946,-104.943013
"80022","Commerce City","CO","Ferguson Plumbing Supply","9780 Dallas St","80640",39.87550189370404,-104.87447692833034
"80023","Broomfield","CO","The Home Depot","16420 Washington Street","80023",39.9943883,-104.974399
"80023","Broomfield","CO","Lowe's","13650 Orchard Parkway","80023",39.9446705,-104.9901125
"80023","Broomfield","CO","Sears","16395 Washington St","80023",39.99316154,-104.98225928
"80023","Broomfield","CO","minuteKEY","13650 Orchard Pkwy","80023",39.94342041015625,-104.99101257324219
"80023","Broomfield","CO","Hidden Doors By Design","4659 Belford Cir","80023",39.9892042,-105.0435208
"80023","Broomfield","CO","QED","1785 W 160th Ave","80023",39.98810577392578,-105.01181030273438
"80026","Lafayette","CO","Tractor Supply Co.","825 North Us Hwy 287","80026",40.006019592285156,-105.10480499267578
"80026","Lafayette","CO","Sherwin-Williams Paint Store","670 N US Highway 287","80026",40.00464630126953,-105.1020736694336
"80026","Lafayette","CO","Benjamin Moore","1335 E South Boulder Rd suite a, Louisville, CO 80027","80027",39.98744,-105.12526
"80026","Lafayette","CO","Juniper Paints","1335 E South Boulder Rd Ste A","80027",39.9873088,-105.1251189
"80026","Lafayette","CO","minuteKEY","745 N US Highway 287","80026",40.00593566894531,-105.10466003417969
"80027","Louisville","CO","Lowe's","1171 W Dillon Rd","80027",39.9633392,-105.1665378
"80027","Louisville","CO","The Home Depot","1200 W Dillon Rd","80027",39.9611193,-105.1692282
"80030","Westminster","CO","Pirtek","not_available","80030",39.833494,-105.016677
"80030","Westminster","CO","minuteKEY","7170 Federal Blvd","80030",39.826560974121094,-105.02350616455078
"80033","Wheat Ridge","CO","Rocky Mountain Battery","44th Ave","80211",39.77680906790127,-105.08581644274231
"80033","Wheat Ridge","CO","Fastenal","not_available","80033",39.77662,-105.109096
"80033","Wheat Ridge","CO","Rocky Mountain Forest Products","11722 West 44th Avenue","80033",39.77742318,-105.13014678
"80033","Wheat Ridge","CO","DBC","12750 W 42nd Ave","80033",39.774374,-105.14174399999999
"80033","Wheat Ridge","CO","Scan Air Filtets","10250 W 44th Ave","80033",39.77767562866211,-105.11222076416016
"80033","Wheat Ridge","CO","Lucas Paint","3520 Youngfield St","80033",39.765446000000004,-105.140006
"80102","Bennett","CO","Tractor Supply Co.","200 West Marketplace Dr","80102",39.741648,-104.43663199999999
"80102","Bennett","CO","Greatwood Lumber & Hdwe","1555 S 1st St","80102",39.73600769042969,-104.4343032836914
"80102","Bennett","CO","Moore Lumber & Ace Hardware Bennett","1555 S 1st Street","80102",39.7379,-104.4331
"80104","Castle Rock","CO","Lowe's","1360 New Beale Street","80108",39.4121304,-104.8762515
"80104","Castle Rock","CO","minuteKEY","133 Sam Walton Ln","80104",39.40627670288086,-104.86091613769531
"80104","Castle Rock","CO","New View Blinds and Shutters of Castle Rock","834 S Perry St","80104",39.361996,-104.860974
"80104","Castle Rock","CO","Amerigas","not_available","80104",39.36667782629119,-104.86187146368665
"80104","Castle Rock","CO","Thomas B. Mansfield Co. TM Service","789 Park St, Castle Rock, CO 80109","80109",39.37041770973772,-104.86400366060934
"80104","Castle Rock","CO","Colorado Electric Supply Castle Rock","1416 Park St Ste A","80109",39.3839058,-104.8664865
"80104","Castle Rock","CO","Sherwin-Williams Paint Store","175 E Plum Creek Pkwy","80104",39.365579,-104.86123700000002
"80104","Castle Rock","CO","Tractor Supply Co.","959 Plum Creek Blvd","80104",39.362201,-104.858465
"80106","Elbert","CO","Ayers Outdoor Power Equipment","12558 Meridian Rd","80106",39.018910999999996,-104.61094
"80106","Elbert","CO","Ayers Outdoor Power Equipment","12558 meridian rd","80106",39.01506192508693,-104.6057585951443
"80107","Elizabeth","CO","True Value Elizabeth","175 W Kiowa Ave","80107",39.36264995,-104.6024177
"80107","Elizabeth","CO","Hershey construction inc","200-298 N Banner St","80107",39.3629755,-104.59680575
"80108","Castle Rock","CO","The Home Depot","333 W Allen Street","80108",39.4149441,-104.8659909
"80110","Englewood","CO","Lowe's","5095 S Santa Fe Drive","80120",39.6257894,-105.013999
"80110","Englewood","CO","The Home Depot","3000 W Belleview Ave","80123",39.6230256,-105.0244932
"80110","Englewood","CO","A & A Tradin'Post Hdwe","4509 S Broadway","80113",39.634639,-104.98807
"80110","Englewood","CO","Plasticare","not_available","80110",39.63969553,-105.00906837
"80110","Englewood","CO","Harbor Freight Tools","705 W Hampden Ave","80110",39.65356268346002,-104.99643584534206
"80110","Englewood","CO","Horizon Supply","4971 S Rip Grand St","80120",39.62618302007359,-105.01090331777365
"80110","Englewood","CO","Robinson Brick","1845 W Dartmouth Ave","80110",39.660877,-105.008407
"80110","Englewood","CO","Leatherneck Precison Machine and Fabrication, LLC","1555 West Thomas Ave","80110",39.632609,-105.005721
"80110","Englewood","CO","Sears","200 W Bellview","80110",39.623059000000005,-104.990804
"80110","Englewood","CO","Ferguson Plumbing Supply","1840 W Oxford Ave","80110",39.640264,-105.00724
"80110","Englewood","CO","minuteKEY","601 Englewood Pkwy","80110",39.655517578125,-104.99478149414062
"80110","Englewood","CO","Five Star Glass and Mirrors","not_available","80223",39.675278000000006,-104.999125
"80110","Englewood","CO","Enchanted Kitchens","3535 South Platte River Drive","80110",39.6531907,-105.0103148
"80110","Englewood","CO","Accu Precision Tool and Gauge","not_available","80120",39.626129,-105.0143
"80110","Englewood","CO","General Air Service & Supply","4901 S Rio Grande St","80120",39.627515,-105.01035900000001
"80110","Englewood","CO","JDI Windows","2698 S Federal Blvd","80219",39.667114,-105.024654
"80110","Englewood","CO","Red Comet Fire Extinguishers","2795 S Raritan St","80110",39.665964,-105.009
"80110","Englewood","CO","Pacific Supply","500 W Wesley Ave","80223",39.67239,-104.993517
"80110","Englewood","CO","White Cap Construction Supply","2880 S Raritan St","80110",39.665048999999996,-105.008255
"80110","Englewood","CO","Accu Precision","3852 S Kalamath St","80110",39.646575,-105.00031200000001
"80110","Englewood","CO","RG Wood Co","2080 W Cornell Ave","80110",39.662249018050765,-105.01210098668598
"80110","Englewood","CO","American Heritage Restoration","3380 S Knox Ct","80110",39.655328,-105.031799
"80111","Englewood","CO","The Home Depot","9401 E Arapahoe Rd","80112",39.5970479,-104.8795313
"80111","Englewood","CO","Lowe's","9100 East Peakview Avenue","80111",39.5978403,-104.883929
"80111","Englewood","CO","The Tile Shop","8527 East Arapahoe Road","80112",39.596034411466434,-104.89260296491514
"80111","Englewood","CO","UD.Tunas Indah","JL.Gumitir no.20 Br.Kertajiwa","80237",39.6439276,-104.8980058
"80112","Englewood","CO","The Home Depot","8477 S Yosemite Ave","80124",39.5623924,-104.884071
"80112","Englewood","CO","The Big Tool Box and Highlands Garden Center","8080 S Holly St","80122",39.571925,-104.922124
"80112","Englewood","CO","Harbor Freight Tools","8575 S Quebec St","80130",39.56192,-104.9059
"80112","Englewood","CO","A Plus Hardwood Floors","6842 S Yosemite St","80112",39.59244473004279,-104.8871397972107
"80112","Englewood","CO","A World Of Tile","5740 County Line Pl","80126",39.564792,-104.921103
"80112","Englewood","CO","Just Left Work Now","not_available","80126",39.56503852344695,-104.91653661267574
"80113","Englewood","CO","South Side Total Power (Toro Dealer)","4204 S Broadway","80113",39.63997,-104.987447
"80113","Englewood","CO","A&A Tradin Post ACE Hardware","5309 S. Broadway","not_available",39.618743,-104.988471
"80113","Englewood","CO","Wired Up Electrical Design","not_available","80113",39.655911,-104.965015
"80120","Littleton","CO","Littleton Ace Hardware","151 West Mineral Ste 100","80120",39.57548,-104.99014
"80120","Littleton","CO","Generations Home Repair","2550 W Main St","80120",39.61344909667969,-105.01786041259766
"80120","Littleton","CO","Sherwin-Williams Paint Store","1500 W Littleton Blvd","80120",39.612018,-105.006055
"80120","Littleton","CO","Liberty Home Products","145 W County Line Rd","80129",39.567541999999996,-104.989402
"80120","Littleton","CO","Littleton Ace Hardware","6905 S Broadway Ste 159","80122",39.591485999999996,-104.989646
"80120","Littleton","CO","Sherwin-Williams Paint Store","8001 S Broadway","80122",39.57107925415039,-104.98967742919922
"80121","Littleton","CO","Ace Hdw Cherry Hills Mrktpl","5910 S University Suite A-17","80121",39.6092999,-104.9598
"80121","Littleton","CO","Sherwin-Williams Paint Store","5150 E Arapahoe Rd","80122",39.59470748901367,-104.92724609375
"80121","Littleton","CO","Tim Gantz Lawn Care","6660 S Broadway","80121",39.596011,-104.987857
"80122","Littleton","CO","Ferguson Plumbing Supply","8146 S Grant Way","80122",39.568585999999996,-104.984226
"80122","Littleton","CO","Better Water Co/Rocky Mtn Water","7502 S Grant St","80122",39.580021,-104.983972
"80123","Littleton","CO","The Home Depot","7990 W Crestline Ave","80123",39.6174707,-105.0860225
"80123","Littleton","CO","Lowe's","5258 South Wadsworth Boulevard","80123",39.6214525,-105.0886067
"80123","Littleton","CO","Columbine Ace Hardware","6720 South Pierce Street","80128",39.5947999,-105.07259
"80123","Littleton","CO","Columbine Computer Services","not_available","80123",39.62071419247091,-105.09064435958862
"80123","Littleton","CO","Flooring America CSI","8555 W Belleview Ave #G18","80123",39.6245321647747,-105.09182453155518
"80123","Littleton","CO","Sears","8501 W Bowles Ave","80123",39.61220619,-105.09377589
"80123","Littleton","CO","LIDC","9966 W Bowles Ave, Littleton, CO 80127","80127",39.60926112096631,-105.10928180924475
"80123","Littleton","CO","Littleton True Value Hardware","4950 S Kipling Pkwy","80127",39.62645684070588,-105.1091415696563
"80123","Littleton","CO","Sherwin-Williams Paint Store","8996 W Bowles Ave","80123",39.60810056,-105.0977471
"80124","Lone Tree","CO","Sherwin-Williams Paint Store","7580 Park Meadows Dr","80124",39.561101,-104.90046399999999
"80125","Littleton","CO","The Home Depot","1200 Mayberry Dr","80129",39.5450628,-105.000865
"80125","Littleton","CO","Ace Hardware Highlands Ranch","9579 S University Blvd Ste 100","80126",39.541629901440835,-104.93918538093567
"80125","Littleton","CO","Fastenal","not_available","80125",39.555739,-105.039006
"80125","Littleton","CO","Sherwin-Williams Paint Store","1265 Sgt Jon Stiles Dr","80129",39.549781799316406,-105.00577545166016
"80125","Littleton","CO","Builders FirstSource Millwork","8037 Midway Dr","80125",39.548416773797584,-105.03709774464369
"80125","Littleton","CO","Kona Contractors","9745 Gatesbury Cir","80126",39.538732,-104.94198
"80125","Littleton","CO","Builders FirstSource","8347 Blakeland Dr","80125",39.559165,-105.044803
"80125","Littleton","CO","Western Sling & Supply","5453 Peterson Rd","80135",39.438764,-104.971567
"80125","Littleton","CO","Silver Crown Landscape Materials","121-85 Dumont Way","80125",39.538002014160156,-105.03781127929688
"80125","Littleton","CO","Ewing Irrigation","9105 Commerce Center Cir","80129",39.550278999999996,-105.03556699999999
"80125","Littleton","CO","Murdoch's Ranch & Home Supply","12154 Dumont Way","80125",39.53894145216989,-105.0370035821358
"80125","Littleton","CO","George T. Sanders Company - Highlands Ranch","8040 W Brandon Dr","80125",39.543396308151095,-105.03723084926604
"80127","Littleton","CO","The Home Depot","4277 S Eldridge Street","80465",39.6357142,-105.1604678
"80127","Littleton","CO","Kipling Ace Hardware","5914 S Kipling Pkwy","80127",39.609678,-105.11034
"80127","Littleton","CO","Harbor Freight Tools","10251 W Bowles Ave Ste A","80127",39.61007852827113,-105.11297126206894
"80127","Littleton","CO","Jared's Nursery Gift & Garden","10500 W Bowles Ave","80127",39.608794,-105.117235
"80127","Littleton","CO","minuteKEY","13420 W Coal Mine Ave","80127",39.6080354,-105.1504084
"80127","Littleton","CO","Sherwin-Williams Paint Store","13134 W Ida Ave","80127",39.61023021353417,-105.14647722244263
"80127","Littleton","CO","Chatfield Ace Hardware","8214 S Kipling Pkwy","80127",39.56830830000001,-105.1102712
"80127","Littleton","CO","Colorado Electric Supply Littleton","7595 Shaffer Pkwy Unit A","80127",39.5786205,-105.1379932
"80127","Littleton","CO","Clark Hardwood Flooring and Refinishing Inc.","7633 S Balsam Ct","80128",39.577459999999995,-105.08965
"80132","Monument","CO","The Home Depot","15888 Jackson Creek Pkwy","80132",39.0637933,-104.8523292
"80132","Monument","CO","Tractor Supply Co.","16760 Leather Chaps Dr","80132",39.065672,-104.84780400000001
"80132","Monument","CO","New View Blinds and Shutters","15954 Jackson Creek Pkwy","80132",39.06488485,-104.85201485
"80132","Monument","CO","Precision Point Manufacturing Inc","505 W Baptist Rd","80921",39.056552,-104.8364134
"80132","Monument","CO","Tri-Lakes Garage Doors","15954 Jackson Creek Pkwy, #B352","80132",39.0654492537313,-104.849225671642
"80134","Parker","CO","The Home Depot","11111 South Parker Road","80134",39.51437727948546,-104.76581275463104
"80134","Parker","CO","Lowe's","10000 South Twenty Mile Road","80134",39.534604,-104.7731755
"80134","Parker","CO","Murdoch's Ranch & Home Supply","9853 S Parker Rd","80134",39.53773123111533,-104.77014600482335
"80134","Parker","CO","Sherwin-Williams Paint Store","10155 S Parker Rd","80134",39.53455555049878,-104.76810067892075
"80134","Parker","CO","Mr. D's Locks And Keys","not_available","80138",39.517205125001304,-104.76349637017157
"80134","Parker","CO","Ace pick-a-part","not_available","80134",39.5185546875,-104.79147338867188
"80134","Parker","CO","Parker Sprinkler","18680 Longs Way","80134",39.52362596,-104.77260238
"80134","Parker","CO","Lowes 1755","10000S TWENTY MILE RD","80134",39.53610442226572,-104.77131973232933
"80134","Parker","CO","Sherwin-Williams Commercial Paint Store","18403 Longs Way","80134",39.52486038208008,-104.77607727050781
"80134","Parker","CO","Champ's Parker Sprinkler Supply","18648 Longs Way #107","80134",39.52361297607422,-104.77281951904297
"80134","Parker","CO","lowes","not_available","80135",39.519615405046125,-104.78867028047297
"80134","Parker","CO","Farlin Anne","1648 S Parker Rd","80134",39.518170074966434,-104.76474523544312
"80134","Parker","CO","Farlin Anne","1648, Parker, Colorado, 80134","80134",39.51752036910836,-104.76507514715193
"80202","Denver","CO","Ace Hardware","1040 15th St","80202",39.746128,-104.99644
"80202","Denver","CO","Secure Data Recovery Services","600 17th St","80202",39.74611757597287,-104.99086618423462
"80202","Denver","CO","SalvageData Recovery Services","1600 Broadway #1600","80202",39.74304878930468,-104.98739004135132
"80204","Denver","CO","Western Interior Supply Ltd.","450 Bryant St","80204",39.722999,-105.017211
"80204","Denver","CO","Bosch Retail","2585 W 8th Ave","80204",39.729663,-105.018281
"80204","Denver","CO","Centennial Wood","2775 W 7th Ave","80204",39.729022,-105.021873
"80204","Denver","CO","HD Supply White Cap","701 Osage St","80204",39.727237,-105.009831
"80204","Denver","CO","QED","1661 W 3rd Ave","80223",39.721359,-105.006675
"80204","Denver","CO","Western Glass Supply","355 Yuma St","80223",39.721571999999995,-105.015524
"80204","Denver","CO","Burke Engineering Company","2500 W 4th Ave","80219",39.721178,-105.016732
"80204","Denver","CO","Unique Glass","2515 W 8th Ave","80204",39.729663,-105.018281
"80204","Denver","CO","Tool & Anchor","1962 W 12th Ave","80204",39.734962,-105.01384499999999
"80204","Denver","CO","Denver Tool Library","555 Santa Fe Dr","80204",39.725247238271415,-104.99924566876989
"80204","Denver","CO","Sherwin-Williams Commercial Paint Store","543 Santa Fe Dr","80204",39.72482711661079,-104.99900668859482
"80204","Denver","CO","Gexpro","425 Quivas St","80204",39.7229643349987,-105.00775965760982
"80204","Denver","CO","Namsan","1145 6th Ave, Denver, Kolorado 80204","80204",39.72577667236328,-105.0024185180664
"80204","Denver","CO","Old Western Paint","not_available","80204",39.730507,-105.01149699999999
"80204","Denver","CO","Crescent Electrical Supply","1780 W 6th Ave, Denver, CO 80204","80204",39.72426223754883,-105.0087890625
"80205","Denver","CO","Body Works By Murray Imports","3001 Walnut St","80205",39.76396942138672,-104.98060607910156
"80205","Denver","CO","USBS","4391 York St","80216",39.77704620361328,-104.95984649658203
"80205","Denver","CO","Reed Mill & Lumber","4510 Wynkoop St","80216",39.779072,-104.96621200000001
"80205","Denver","CO","Denver Hardware","not_available","80205",39.76499057014596,-104.97861432490794
"80205","Denver","CO","Rocky Mountain Hardware","3200 Walnut St","80205",39.76481,-104.97849099999999
"80205","Denver","CO","General Welding","4055 Walnut St","80205",39.772613525390625,-104.96939849853516
"80205","Denver","CO","Do It Yourself","not_available","80216",39.766746,-104.983321
"80205","Denver","CO","Knob Deco LTD","1000 E 18th Ave Apt 108","80218",39.744537353515625,-104.97380065917969
"80205","Denver","CO","Discount Windows & Siding","4321 Broadway Ste 9","80216",39.775923,-104.988327
"80206","Denver","CO","12th Avenue Ace","2640 E 12th Ave","80206",39.735187,-104.95603
"80206","Denver","CO","SolarGlass Window & Door","201 University Boulevard","80206",39.7201,-104.95978
"80206","Denver","CO","Jadon Services","2934 E Colfax Ave","80206",39.74003982543945,-104.95211791992188
"80206","Denver","CO","Kohler Signature Store by Facets of Cherry Creek","3310 E 1st Ave","80206",39.717631,-104.947907
"80206","Denver","CO","Jadon Services","1282 Milwaukee St","80206",39.736651,-104.95137700000001
"80207","Denver","CO","The Home Depot","3870 Quebec Street","80207",39.7703054,-104.901155
"80207","Denver","CO","Mountain States Building Products","5040 E 41st Ave","80216",39.772946,-104.929023
"80207","Denver","CO","minuteKEY","7800 Smith Rd","80207",39.7694995,-104.8972856
"80207","Denver","CO","Aviation industrial supply","3976 Ulster St","80207",39.771791,-104.892978
"80207","Denver","CO","AIS Industrial & Construction Supply (Shelving Division)","8200 E 40th Ave","80207",39.772078,-104.89289699999999
"80209","Denver","CO","Ace Hardware","417 S Broadway","80209",39.70882089760881,-104.9910959603924
"80209","Denver","CO","Recycled Glass Countertops Denver","3600 E Alameda Ave Ste 250","80209",39.711151123046875,-104.94438171386719
"80209","Denver","CO","Harmony Painting","1145 S Broadway Unit 311B","80210",39.6957893371582,-104.98835754394531
"80210","Denver","CO","University Hills Ace Hdw","2500 S Colorado Blvd","80222",39.6717,-104.941
"80210","Denver","CO","Ultimate Hydroponics And Organics","2380 S Broadway","80210",39.673362,-104.987528
"80210","Denver","CO","Rockler Woodworking & Hardware","2553 S Colorado Blvd Unit 108","80222",39.670746,-104.941709
"80211","Denver","CO","Ace Hardware at the Highlands","3758 Osage St","80211",39.7691469,-105.00552
"80211","Denver","CO","Lucas Paint","not_available","80211",39.776309999999995,-105.024299
"80211","Denver","CO","Sierra Glass Co Inc","4640 Pecos St #D","80211",39.780809,-105.0057477
"80211","Denver","CO","Centennial Tap Beer Service","1930 W 41st Ave","80211",39.772635,-105.010516
"80211","Denver","CO","Parks Supply","4600 Pecos St","80211",39.780521,-105.005798
"80211","Denver","CO","Chlorophyll","3801 Mariposa St","80211",39.769816,-105.003197
"80212","Denver","CO","Edgewater Ace Hardware","1719 Sheridan Blvd","80214",39.7471,-105.0534
"80212","Denver","CO","Fireplace Outlet","4745 W 38th Ave","80212",39.769557,-105.048452
"80212","Denver","CO","mile high glass","3800 Quitman St","80212",39.7692756652832,-105.04078674316406
"80212","Denver","CO","Edgewater Glass","2217 Sheridan Blvd","80214",39.749935,-105.053652
"80212","Denver","CO","Compass Glass","not_available","80212",39.771997999999996,-105.044269
"80212","Denver","CO","minuteKEY","5957 W 44th Ave","80212",39.77919387817383,-105.06126403808594
"80214","Denver","CO","The Home Depot","7200 W Colfax Ave","80214",39.73923736397632,-105.0777804851532
"80214","Denver","CO","Sherwin-Williams Paint Store","7105 W Colfax Ave","80214",39.740648,-105.076048
"80214","Denver","CO","Signal 45 Construction","937 Jay Street","80214",39.7326272,-105.0650162
"80214","Denver","CO","minuteKEY","7455 W Colfax Ave","80214",39.7403749,-105.0797003
"80214","Denver","CO","Colorado Home Cooling","1120 Harlan St","80214",39.73524583581898,-105.06236249381078
"80215","Denver","CO","Harbor Freight Tools","10750 W Colfax Ave Ste 150","80215",39.73977948824474,-105.11809931866676
"80215","Denver","CO","Lake Ridge Ace Hardware","2563 Kipling St","80215",39.753987,-105.10984
"80215","Denver","CO","Lowe's","10555 West Colfax Avenue","80215",39.7430505,-105.1156794
"80215","Denver","CO","Tool King","11111 W 6th Ave Unit D","80215",39.7273161066447,-105.12361425050035
"80215","Denver","CO","IMD Electrical Supplies","11111 W 8th Ave Ste D","80215",39.72960662841797,-105.12181091308594
"80215","Denver","CO","Diamond Vogel","1635 Quail St","80215",39.743168,-105.124804
"80215","Denver","CO","Year-Round Equiptment & Parts","not_available","80215",39.726122,-105.11456799999999
"80216","Denver","CO","L. L. Johnson Distributing","4700 Ivy St.","80216",39.7817,-104.92166200000001
"80216","Denver","CO","McMillan Sales Corporation","4801 east 48th Avenue","80216",39.780961,-104.930295
"80216","Denver","CO","Classic Metals","1299 E 58th Ave, Denver, CO 80216","80216",39.80250930786133,-104.97211456298828
"80216","Denver","CO","Power Product Technologies","6200 Washington St #1","80216",39.8091946,-104.9780763
"80216","Denver","CO","Hobart Service","1325 E 58th Ave","80216",39.802215576171875,-104.97132110595703
"80218","Denver","CO","Ninth Avenue Hardware CO","1030 E 9th Ave","80218",39.7304869,-104.97503
"80219","Denver","CO","Colorado Electric Supply Denver Central","2630 W 2nd Ave","80219",39.719783,-105.01964299999999
"80219","Denver","CO","Lowes","400 S Zuni St","80223",39.708415,-105.014049
"80219","Denver","CO","5515 w warren ave Csi","not_available","80219",39.6905517578125,-105.04894256591797
"80220","Denver","CO","City Floral","1440 Kearney St","80220",39.73920496718796,-104.91712649077421
"80220","Denver","CO","Denver True Value Hardware","6420 E Colfax Ave","80220",39.74002096853083,-104.9136765317651
"80220","Denver","CO","Ace on The Fax","7100 E Colfax Ave","80220",39.74002663258668,-104.90520566959592
"80220","Denver","CO","Sherwin-Williams Paint Store","5240 E Colfax Ave","80220",39.739839,-104.92623
"80220","Denver","CO","Power at Hand","5022 E Colfax Ave","80220",39.739927,-104.92844
"80221","Denver","CO","log home maintenance and supply","4920 Fox St Ste A","80216",39.785888,-104.99323999999999
"80221","Denver","CO","Alpine Lumber Company","5800 Pecos St","80221",39.80072915,-105.00280559
"80221","Denver","CO","Empire Staple Co","200 E 56th Ave # 100","80216",39.796116,-104.98505700000001
"80221","Denver","CO","Extra Building Materials","400 W 53rd Pl","80216",39.79446029663086,-104.99160766601562
"80221","Denver","CO","Cordova Bolt, Inc.","5601 Dolly Ave.","90621",39.78650347762981,-104.99353030740969
"80221","Denver","CO","1st Source Servall Appliance Parts - Branch #54","4900 Osage St","80221",39.785668,-105.003827
"80221","Denver","CO","Rk Glass","2510 W 63rd Ct","80221",39.81128692626953,-105.01716613769531
"80221","Denver","CO","Perl-Mack Ace Hardware","7041 Pecos St","80221",39.82554244995117,-105.0072250366211
"80221","Denver","CO","Canyon Materials","4900 Osage St Ste 800","80221",39.7856743,-105.0038256
"80221","Denver","CO","Hooked on Espresso Inc","7100 Broadway #1-G","80221",39.8262687,-104.9852525
"80222","Denver","CO","Cherry Creek Ace Hardware","1417 S Holly St","80222",39.6903829,-104.92334
"80222","Denver","CO","A World of Tile","not_available","80222",39.678816,-104.930107
"80222","Denver","CO","Crossville Studios","5800 East Jewell Avenue","80224",39.68114348,-104.91986744
"80223","Denver","CO","The Home Depot","500 S Santa Fe Dr","80223",39.7068387,-104.9939771
"80223","Denver","CO","Grainger","95 S Tejon St","80223",39.714999770834275,-105.01201273087293
"80223","Denver","CO","dewalt service center","700 W Mississippi Ave, Denver, CO 80223","80223",39.696261,-104.994831
"80223","Denver","CO","AAA Metric","60 Lipan St","80223",39.71786891582074,-105.0014652932539
"80223","Denver","CO","The Showroom at Rampart Supply","1480 W 3rd Ave","80223",39.720605,-105.00653799999999
"80223","Denver","CO","Wazee Crane","2 Santa Fe Dr","80223",39.716893,-104.998268
"80223","Denver","CO","Runge Tool & Supply","1330 S Inca St","80223",39.692485,-104.997707
"80223","Denver","CO","Flink Supply Co","58 S Galapago St","80223",39.715438,-104.99594499999999
"80223","Denver","CO","Rio Grande Co","201 Santa Fe Dr","80223",39.7193823,-104.9985905
"80223","Denver","CO","The Knife Guys","11 Kalamath St","80223",39.716739000000004,-105.000652
"80224","Denver","CO","ibuild","not_available","80231",39.68162155151367,-104.9022216796875
"80224","Denver","CO","Ramirez Roofing","920 S Locust St","80224",39.699899,-104.91378200000001
"80226","Denver","CO","The Home Depot","6701 W Alameda Ave","80226",39.711965430072475,-105.07000422752753
"80226","Denver","CO","minuteKEY","440 Wadsworth Blvd","80226",39.72162628173828,-105.08030700683594
"80227","Denver","CO","The Home Depot","3130 S Sheridan Blvd","80227",39.65446949735861,-105.04954755306244
"80227","Denver","CO","Lock and Key","not_available","80236",39.65644875058614,-105.0488778154886
"80227","Denver","CO","minuteKEY","3125 S Sheridan Blvd","80227",39.655121,-105.054465
"80227","Denver","CO","Sherwin-Williams Paint Store","3224 S Wadsworth Blvd","80227",39.65773528069408,-105.07977074481006
"80228","Denver","CO","The Home Depot","16900 W Colfax Ave","80401",39.7228376,-105.1898082
"80228","Denver","CO","Green Mountain Ace Hardware","12035 W Alameda Pkwy","80228",39.7067869,-105.13623
"80228","Denver","CO","Ace Mechanical Equiptment","15000 W 6th Ave","80401",39.72278594970703,-105.16631317138672
"80229","Denver","CO","The Home Depot","10003 Grant Street","80229",39.8800784982235,-104.98608112335205
"80229","Denver","CO","Harbor Freight Tools","920 E 104th Ave","80233",39.883671,-104.97411899999999
"80229","Denver","CO","Snavely","6777 Downing St","80229",39.81937789916992,-104.9739761352539
"80229","Denver","CO","Surface Prep Superstore","not_available","80229",39.8204136638733,-104.97664604127914
"80229","Denver","CO","Colorado Electric Supply Commerce City","6425 Washington St Unit 9","80229",39.8135294,-104.9786329
"80229","Denver","CO","Lansing Building Products","6200 Washington St","80216",39.81024948,-104.9770452
"80229","Denver","CO","The Deck Superstore","not_available","80022",39.813294709755425,-104.91860681161477
"80229","Denver","CO","Consolidated Parts Inc.","6051 Washington St Unit D","80216",39.814075613432166,-104.98270500886906
"80229","Denver","CO","Younger Bros. Lumber & Hardware","6350 E 72nd Pl","80022",39.828061,-104.913796
"80229","Denver","CO","Discount Drains and Plumbing, LLC","871 Thornton Pkwy","80229",39.8714599609375,-104.97412872314453
"80229","Denver","CO","K&K Surplus","8381 Brighton Rd","80022",39.8485107421875,-104.91902923583984
"80229","Denver","CO","Boise Cascade Building Material","1545 E 66th Ave","80229",39.81676483154297,-104.97154998779297
"80229","Denver","CO","Hillen Corp","7600 Dahlia St","80022",39.83549880981445,-104.930908203125
"80229","Denver","CO","Sears","930 E 104th Ave","80233",39.883666999999996,-104.97355
"80231","Denver","CO","Tamarac Square Ace Hardware","3333 S Tamarac Dr","80231",39.653137,-104.89596
"80231","Denver","CO","Elcar Fence","2215 S. Valentia","80231",39.67639,-104.891653
"80231","Denver","CO","Power Plus","8200 E Pacific Pl Ste 201","80231",39.6792857,-104.8933177
"80232","Denver","CO","Ace Hardware of Jewell Sq","7777 W Jewell Ave #1B","80232",39.6835,-105.0847
"80232","Denver","CO","Front Range Lumber","1741 S Wadsworth Blvd","80232",39.68468,-105.082085
"80233","Denver","CO","Lowe's","261 West 104th Avenue","80234",39.889125,-104.9890656
"80233","Denver","CO","Grofax North Hydroponic Supply","466 Malley Dr","80233",39.90243568720367,-104.98044025145111
"80233","Denver","CO","Sherwin-Williams Paint Store","11450 Cherokee St","80234",39.904388,-104.99085
"80233","Denver","CO","Fastenal","12061 Pennsylvania St","80241",39.916295,-104.982293
"80233","Denver","CO","Sherwin-Williams Paint Store","11455 Washington St","80233",39.90441949114163,-104.9780438054323
"80233","Denver","CO","minuteKEY","10755 Washtington St.","80233",39.8916675,-104.9777652
"80234","Denver","CO","Cost Plus Electric Supply Inc.","405 W 115th Ave","80234",39.90618896484375,-104.99169921875
"80234","Denver","CO","Crystal Clear Pools And Spas","555 W 106th Ave","80234",39.89022496451759,-105.0020847886458
"80234","Denver","CO","minuteKEY","200 W 136th Ave","80234",39.9405983,-104.9904988
"80234","Denver","CO","NORTHSIDE PAINT & DECORATING","12365 Huron St Ste 800","80234",39.9213981628418,-104.99754333496094
"80238","Denver","CO","Rockstar","10525 E 40th Ave #20","80239",39.77358207821588,-104.86501693725586
"80238","Denver","CO","Colorado Specialties","9305 E Northfield Blvd","80238",39.784942,-104.87980800000001
"80238","Denver","CO","Raynor","not_available","80239",39.791259,-104.864341
"80238","Denver","CO","copper state Nut And Bolt Co","4880 Geneva St","80238",39.78574752807617,-104.86829376220703
"80238","Denver","CO","Cobld","4912","80239",39.78636376851795,-104.85605406767718
"80238","Denver","CO","Colorado Party Rentals","5005 Ironton St","80239",39.78803,-104.86385
"80238","Denver","CO","D.E.M.P Distribution","3700 Havana street unit 320","80239",39.77023,-104.86456
"80239","Denver","CO","Sears","12330 E 46th Ave","80239",39.77807,-104.84422
"80239","Denver","CO","HD Supply White Cap","14900 E 39th Ave","80011",39.770329,-104.81459
"80239","Denver","CO","Stone International","14101-14141 E 42nd Ave","80239",39.77609803,-104.844596
"80239","Denver","CO","Grainger","11800-11998 E 49th Ave","80239",39.7857273883386,-104.8491317366523
"80239","Denver","CO","Sherwin-Williams Floorcovering Store","3841 Paris St","80239",39.770516,-104.84899300000001
"80246","Denver","CO","The Home Depot","860 S Colorado Blvd","80246",39.7014048,-104.9384744
"80246","Denver","CO","Sherwin-Williams Paint Store","5225 Leetsdale Dr","80246",39.708509934091296,-104.92665047520384
"80246","Denver","CO","Lowe's","4150 E Mississippi Ave","80246",39.695159912109375,-104.93853759765625
"80249","Denver","CO","Sherwin-Williams Paint Store","4601 Tower Rd","80249",39.78034973144531,-104.77283477783203
"80260","Denver","CO","EZPawn","8490 Pecos St","80260",39.851346911756224,-105.00555530190462
"80301","Boulder","CO","McGuckin Hardware","2525 Arapahoe Ave","80302",40.0156569,-105.26135
"80301","Boulder","CO","Earlâ€™s Saw Shop","3695 Frontier Ave","80301",40.0225854,-105.2466938
"80301","Boulder","CO","The Home Depot","1600 29th Street","80301",40.0160587,-105.2548237
"80301","Boulder","CO","ReSource Yard","6400 Arapahoe Rd","80303",40.013813954482366,-105.20435853195522
"80301","Boulder","CO","Ferguson","1840 55th St","80301",40.01710510253906,-105.22489929199219
"80301","Boulder","CO","Airgas","3200 Bluff","80301",40.027338,-105.25066399999999
"80301","Boulder","CO","Flatirons Kitchen & Bath","3180 Sterling Cir","80301",40.03233337402344,-105.22626495361328
"80301","Boulder","CO","Guiry's Paint Wallpaper & Art Supplies","2404 Pearl St","80302",40.020907,-105.26381699999999
"80301","Boulder","CO","Crossville Studios","5345 Arapahoe Ave","80303",40.0152076,-105.2287142
"80301","Boulder","CO","the pleasure dome","not_available","80301",40.03490038096324,-105.25144857652238
"80301","Boulder","CO","Boulder Light Bulb","2546 Spruce St","80302",40.022455,-105.261451
"80301","Boulder","CO","Kwal Paint","3130 Valmont Rd","80301",40.02896555229294,-105.25197432880475
"80301","Boulder","CO","Colorado Electric Supply Boulder","3245 Prairie Ave","80301",40.022338,-105.25103600000001
"80301","Boulder","CO","Drill Spot, LLC","5777 Central Ave Ste 230","80301",40.0257011,-105.219432
"80301","Boulder","CO","Top Hat Supply","not_available","80302",40.019619,-105.27286299999999
"80301","Boulder","CO","Boulder Fastenal","2125 32nd St","80301",40.022377014160156,-105.25093841552734
"80301","Boulder","CO","Cen Tex Supply Co.","2845 29th St Unit A","80301",40.0285758972168,-105.25666046142578
"80301","Boulder","CO","Rolando Campos","1727 15th St","80302",40.01548767089844,-105.27535247802734
"80301","Boulder","CO","Sherwin-Williams Paint Store","3550 Arapahoe Ave","80303",40.01403,-105.24846000000001
"80302","Boulder","CO","Indian Peaks Ace Hardware","74 Hwy 119 South","80466",39.9604629,-105.50964
"80302","Boulder","CO","minuteKEY","2972 Iris Ave","80301",40.035219,-105.25612
"80303","Boulder","CO","Table Mesa Hardware","691 S Broadway St Unit F","80305",39.97746,-105.24287
"80401","Golden","CO","The Home Depot","1014 El Rancho Road","80439",39.6990213,-105.3270238
"80401","Golden","CO","Sherwin-Williams","17101 S Golden Rd","80401",39.73769760131836,-105.19235229492188
"80401","Golden","CO","Perfection Tool & PC","16250 S Golden Rd","80401",39.73444366455078,-105.18275451660156
"80401","Golden","CO","The Parts Trailer!","not_available","80401",39.737157,-105.186366
"80401","Golden","CO","Ward Hardwood Flooring","29340 Industrial Way #410","80439",39.69670486450195,-105.3337173461914
"80401","Golden","CO","Habitat For Humanity Re-Store","1232 Bergen Pkwy","80439",39.692222595214844,-105.35689544677734
"80401","Golden","CO","Meyer Hardware","1103-1199 Arapahoe St","80401",39.755578,-105.222699
"80403","Golden","CO","Fastenal","701 Pine Ridge Rd","80403",39.778348,-105.232854
"80421","Bailey","CO","Moore Lumber & Ace Hardware","186 Mount Evans Blvd","80470",39.46764,-105.39872
"80421","Bailey","CO","Ace Hardware","5195 County Road 64","80421",39.406131744384766,-105.47929382324219
"80421","Bailey","CO","Hutchison Lumber","not_available","80470",39.467276,-105.39875276666666
"80424","Breckenridge","CO","Breckenridge Building Center","13445 hwy 9","80424",39.528579,-106.046352
"80424","Breckenridge","CO","Dunlap Glass","102 Continental Ct #C13","80424",39.51484298706055,-106.05343627929688
"80424","Breckenridge","CO","Breckenridge Ironworks Inc.","not_available","80424",39.51358413136906,-106.0529934836308
"80424","Breckenridge","CO","LED Specialties","101 W Main St","80443",39.57580416292,-106.10620111227036
"80433","Conifer","CO","Big R Store of Conifer","not_available","80433",39.54430419713785,-105.28712033487021
"80433","Conifer","CO","Aspen Park Hardware Inc.","26572 Barkley Rd","80433",39.536988,-105.30374
"80433","Conifer","CO","Big R","Conifer Rd","80433",39.542631,-105.292387
"80439","Evergreen","CO","Screw It, Glue It, Nail It Hardware Store","not_available","80452",39.74213602980006,-105.51880843469759
"80440","Fairplay","CO","South Park True Value","299 US Hwy. 285","80440",39.2205911,-105.9926838
"80440","Fairplay","CO","Ace Hardware & Lumber","299 Hwy 285","80440",39.22062,-105.99266
"80442","Fraser","CO","Wyle's Paint Store","505 Zerex Street","80442",39.94879913330078,-105.81742858886719
"80442","Fraser","CO","Fraser Valley Ace Hardware","425 Zerex","80442",39.951487,-105.81836
"80443","Frisco","CO","maximum","849 North Summit Blvd","not_available",39.58689880371094,-106.09419250488281
"80443","Frisco","CO","Sherwin-Williams Paint Store","699 Ten Mile Dr","80443",39.585840999999995,-106.092992
"80443","Frisco","CO","minuteKEY","840 Summit Blvd","80443",39.58695602416992,-106.09632110595703
"80443","Frisco","CO","Colorado Electric Supply Frisco","801 Ten Mile Drive, #190","80443",39.58636570164085,-106.09323799610138
"80443","Frisco","CO","Sherwin-Williams Paint Store","745 Ten Mile Dr","80443",39.5855598449707,-106.0931167602539
"80446","Granby","CO","Country Hardware","627 W Agate Ave","80446",40.0850999,-105.9375
"80446","Granby","CO","Sherwin-Williams Paint Store","62543 US Hwy 40","80446",40.07187271118164,-105.92507934570312
"80446","Granby","CO","Ferguson Plumbing Supply","23 Ten Mile Rd Unit 1","80446",40.07745361328125,-105.9326400756836
"80446","Granby","CO","Grand Lake Hardware","not_available","80447",40.25240582676365,-105.82454915866673
"80449","Hartsel","CO","True Value Hardware","HWY 24 N","81211",38.85156711612669,-106.13937998257381
"80449","Hartsel","CO","Tractor Supply Co.","130 Harrison Ave","81211",38.85077092196443,-106.1406619499016
"80449","Hartsel","CO","Timber & Lawn","16760 County Road 306","81211",38.826133,-106.179794
"80449","Hartsel","CO","Buena Vista True Value","29785 Us Hwy 24N","81211",38.84845947,-106.1363938
"80459","Kremmling","CO","Pellet Log Kits","400 S 6th Street","80459",40.055850982666016,-106.38845825195312
"80459","Kremmling","CO","Tri-River Ace Hardware","720 Tyler Avenue","80459",40.0543589,-106.38773
"80461","Leadville","CO","BIGHORN TRUE VALUE HARDWARE","1902 N Poplar St","80461",39.26042556762695,-106.29273986816406
"80480","Walden","CO","Steamboat Ace Hardware","2155 Curve Plz","80487",40.5000369,-106.85793
"80480","Walden","CO","Builders FirstSource","1500 13th St","80487",40.490653277152354,-106.8489396572113
"80480","Walden","CO","Sears","1755 Central Park Drive","80487",40.46055524812213,-106.82212427258492
"80480","Walden","CO","Ferguson Plumbing Supply","2831 Elk River Rd","80487",40.50944,-106.857400833333
"80480","Walden","CO","Ferguson Selection Center","2831 Elk River Rd","80477",40.51033,-106.85757
"80480","Walden","CO","Alpine Lumber","not_available","80487",40.46529078205367,-106.82603335451529
"80480","Walden","CO","Colorado Electric Supply Steamboat Springs","2670 Copper Ridge Cir #6","80487",40.51259808603104,-106.85476809740067
"80480","Walden","CO","Sherwin-Williams Paint Store","385A Anglers Drive","80487",40.466865000000006,-106.82446100000001
"80480","Walden","CO","Timberline Hardware","not_available","80480",40.73413301473136,-106.28165045984699
"80480","Walden","CO","Pioneer Materials West","3022 Elk River Road","80487",40.51263106,-106.85702006
"80497","Silverthorne","CO","Lowe's","201 Buffalo Mountain Dr","80498",39.625351,-106.0743675
"80497","Silverthorne","CO","Sanders True Value Hardware","160 6th St","80498",39.63553054,-106.0773335
"80497","Silverthorne","CO","Pioneer Materials West","346 Brian Avenue","80498",39.6308608,-106.07589851
"80497","Silverthorne","CO","Ferguson Plumbing Supply","519 Adams Ave Unit A-D","80498",39.625513,-106.070518
"80497","Silverthorne","CO","Ace Hardware","1241 Blue River Parkway","80498",39.64406204223633,-106.07933044433594
"80497","Silverthorne","CO","George T. Sanders Company - Silverthorne","191 West 9th Street","80498",39.63960366024789,-106.07868432998657
"80497","Silverthorne","CO","Greer's Appliance","537 Adams Ave","80498",39.6341979,-106.0773875
"80497","Silverthorne","CO","minuteKEY","201 Buffalo Mountain Drive","80498",39.62541580200195,-106.07418060302734
"80498","Silverthorne","CO","Vail Valley Ace Hardware","2111 N Frontage Rd W","81657",39.631732,-106.417399
"80498","Silverthorne","CO","Sherwin-Williams Paint Store","40800 Hwy 6","81658",39.638121,-106.405268
"80501","Longmont","CO","The Home Depot","393 S Hover Road","80501",40.155231,-105.1328292
"80501","Longmont","CO","Lowe's","355 Ken Pratt Boulevard","80501",40.1508524,-105.0987438
"80501","Longmont","CO","Ace Hardware Longmont","1727 Main St","80501",40.1898282,-105.1041519
"80501","Longmont","CO","Harbor Freight Tools","2320 Main St","80501",40.19986343383789,-105.10181427001953
"80501","Longmont","CO","Sherwin-Williams Paint Store","825 Main St","80501",40.173209,-105.102905
"80501","Longmont","CO","Kwal Paint","1197 Ken Pratt Blvd","80501",40.15188821569812,-105.1114118007345
"80501","Longmont","CO","Colorado Materials Inc","1541 Boston Ave","80501",40.158767,-105.12058
"80501","Longmont","CO","Longmont Outdoor Power Equipment","1116 Colorado Ave Unit A","80501",40.15581130981445,-105.11140441894531
"80501","Longmont","CO","Andrew Pargeter & Associates","805 Summer Hawk Dr Apt Q99","80504",40.1740487,-105.0598315
"80501","Longmont","CO","Twin peaks lock and key","not_available","80501",40.184329986572266,-105.1020736694336
"80501","Longmont","CO","Drain-Away","904 Kimbark St","80501",40.174273,-105.10098799999999
"80501","Longmont","CO","Mac Equipment Inc.","715 S Main St","80501",40.151,-105.104075
"80501","Longmont","CO","Colorado Electric Supply Longmont","795 S Sherman St Ste 12","80501",40.15017689966959,-105.11782136441798
"80501","Longmont","CO","Budget Home Supply","780 Boston Ave","80501",40.158266,-105.105675
"80501","Longmont","CO","Murdoch's Ranch & Home Supply","2255 Main St","80501",40.19807286442548,-105.1039056477897
"80503","Longmont","CO","Blue Rhino","7980 Niwot Rd","80503",40.1016072,-105.1666054
"80503","Longmont","CO","Clark's Hardware","4100 Ute Hwy","80540",40.215243,-105.25537
"80504","Longmont","CO","The Home Depot","10858 Jake Jabs Blvd","80504",40.1581817,-104.9688038
"80504","Longmont","CO","Tractor Supply Co.","13778 East I 25 Frontage Road","80504",40.201038,-104.978542
"80504","Longmont","CO","Green Spot Inc","8776 N 107th St","80504",40.133969,-105.10122700000001
"80504","Longmont","CO","Sherwin-Williams Paint Store","6075 Firestone Blvd","80504",40.161163330078125,-104.94061279296875
"80504","Longmont","CO","Ace Hardware of Firestone","8258 Colorado Blvd","80504",40.120502,-104.939631
"80504","Longmont","CO","Builders FirstSource","4058 Camelot Cir","80504",40.21307978007972,-104.97489094734192
"80504","Longmont","CO","Colorado Machine Tool, LLC","13855 Deere Ct","80504",40.203644,-104.971996
"80504","Longmont","CO","Fastenal","not_available","80504",40.202309,-104.971762
"80504","Longmont","CO","minuteKEY","2285 E Ken Pratt Blvd","80504",40.158653259277344,-105.04815673828125
"80504","Longmont","CO","Ferguson Plumbing Supply","1567 Vista View Dr","80504",40.1595724854688,-105.025934082646
"80512","Bellvue","CO","Forks Lumber Company","7800 US Hwy 287","80535",40.67652094910967,-105.1796293258667
"80512","Bellvue","CO","Panhandle Creek Ace Hardware","24 Main Street","80545",40.801667,-105.59008
"80512","Bellvue","CO","Red Feather Ace Hardware","not_available","80545",40.801505,-105.590134
"80513","Berthoud","CO","Pioneer Materials West","188 Gateway Circle","80513",40.33782434,-104.98370887
"80513","Berthoud","CO","Crossroads Home Improvement","1101 Navajo Pl","80513",40.298985,-105.0910824
"80513","Berthoud","CO","Pacific Supply West","189 Gateway Cir","80513",40.33849157949779,-104.98358934056365
"80513","Berthoud","CO","Flow Systems","220 Bunyan Avenue","80513",40.313088,-105.077274
"80513","Berthoud","CO","Berthoud Ace Hardware","525 3rd St","80513",40.3051839,-105.07833
"80513","Berthoud","CO","Colorado Waterjet CO","5186 Longs Peak Rd","80513",40.3408317565918,-104.98294067382812
"80516","Erie","CO","JimShare","5621 S. Broadway Ste 343","75703",40.009116129336384,-105.01876542327881
"80516","Erie","CO","Front Range Tooling Inc","7700 Miller Dr","80504",40.113817,-104.97180800000001
"80516","Erie","CO","H&E Equipment Services","2240 E I25 Frontage Rd","80516",40.0328289,-104.9791593
"80517","Estes Park","CO","Estes True Value / Radio Shack","461 E Wonderview Ave","80517",40.38081095,-105.514739
"80517","Estes Park","CO","Ace Hardware of Estes Park","561 Lone Pine Dr","80517",40.382670000000005,-105.494619
"80521","Fort Collins","CO","Jax Ranch & Home #2","1000 N Hwy 287","80524",40.62742474305499,-105.09393662250659
"80521","Fort Collins","CO","Harbor Freight","not_available","80525",40.566078186035156,-105.07758331298828
"80521","Fort Collins","CO","Laporte Hardware And Variety","3333 Us Highway 287","80535",40.62680033,-105.13854324817657
"80521","Fort Collins","CO","Ace Hardware","215 S College Ave","80524",40.584964326912804,-105.07773843579484
"80521","Fort Collins","CO","Sustainable Designs","1301 N US Highway 287","80524",40.62510751,-105.0992144
"80524","Fort Collins","CO","The Home Depot","4502 John F Kennedy Pkwy","80525",40.52512362734935,-105.06936371326447
"80524","Fort Collins","CO","Lowe's","4227 Corbett Drive","80525",40.527973,-105.028615
"80524","Fort Collins","CO","The Home Depot","1251 E Magnolia Street","80524",40.583319,-105.0542902
"80524","Fort Collins","CO","Harbor Freight Tools","4414 S College Ave Unit A","80525",40.5254922088379,-105.07652130827377
"80524","Fort Collins","CO","Tractor Supply Co.","33 Nortwest Frontage Rd","80524",40.58386193,-105.0031426
"80524","Fort Collins","CO","Joseph's Hardware","2160 W Drake Rd","80526",40.554026889085776,-105.11718141058168
"80524","Fort Collins","CO","Bath Garden Center & Nursery","2000 E Prospect Rd","80525",40.56778252524082,-105.04047426402732
"80524","Fort Collins","CO","Sherwin-Williams Paint Store","4215 Corbett Dr","80525",40.527671999999995,-105.027105
"80524","Fort Collins","CO","Ferguson Selection Center","2321 Donella Ct","80524",40.58573,-105.03366499999998
"80524","Fort Collins","CO","Fort Collins Nursery","2121 E Mulberry St","80524",40.579891570398715,-105.03754674135565
"80524","Fort Collins","CO","Ace Hardware","4104 Jefferson Ave","80549",40.6970224442832,-104.998805522918
"80524","Fort Collins","CO","Diamond Vogel Paint","not_available","80524",40.588785,-105.076521
"80524","Fort Collins","CO","The Book Ranch","730 S College Ave","80524",40.576955,-105.076551
"80524","Fort Collins","CO","minuteKEY","1250 E Magnolia St","80524",40.5862142,-105.0548804
"80524","Fort Collins","CO","Sherwin-Williams Paint Store","2627 S College Ave","80525",40.551583,-105.07808700000001
"80524","Fort Collins","CO","CD Fasteners","512 N Link Ln","80524",40.591858,-105.04964299999999
"80524","Fort Collins","CO","Sears Trostel","1530 Riverside Ave","80524",40.57325,-105.04800300000001
"80524","Fort Collins","CO","Re-source","1501 N College Ave","80524",40.607602225433816,-105.07692780273963
"80525","Fort Collins","CO","Ace Hardware of Fort Collins","1001 E Harmony Rd Unit B","80525",40.5219049,-105.05971
"80525","Fort Collins","CO","Anything Glass and Restoration","209 E Skyway Dr. Unit A","80525",40.50167465209961,-105.07523345947266
"80525","Fort Collins","CO","Q.E.D.","541 W 67th St","80538",40.46158218383789,-105.08374786376953
"80525","Fort Collins","CO","Handsontools","1001 E Harmony Rd","80525",40.521668,-105.059998
"80525","Fort Collins","CO","Sutherlands","2100 E Prospect Rd","80525",40.567699405875715,-105.03876428212251
"80525","Fort Collins","CO","Best Rental","1540 Riverside Ave","80524",40.572456,-105.04642199999999
"80525","Fort Collins","CO","Building Specialties Inc.","1401 Academy Ct","80524",40.569236,-105.042698
"80525","Fort Collins","CO","Lower (Lowes)","4227 Corbett Dr","80525",40.52760314941406,-105.0284194946289
"80525","Fort Collins","CO","Mountain States Electronics","2107 S College Ave","80525",40.559945,-105.077497
"80525","Fort Collins","CO","Ewing Irrigation","900 Smithfield Dr","80524",40.57651642034474,-105.00268399715424
"80526","Fort Collins","CO","Gulley Greenhouse","6029 S Shields St","80526",40.50110453337799,-105.09693306945901
"80526","Fort Collins","CO","Affordable Roofing","3621 Richmond Dr","80526",40.537298,-105.09907700000001
"80526","Fort Collins","CO","Koba Industrial repair","595 West 66th St","80538",40.460211,-105.084814
"80528","Fort Collins","CO","Sherwin-Williams Commercial Paint Store","8101 SW Frontage Rd","80528",40.471557000000004,-104.992823
"80528","Fort Collins","CO","lowes","not_available","80528",40.47785507702623,-105.02853118931174
"80534","Johnstown","CO","Johnstown Ace Hardware","9 S Parish Ave","80534",40.3357,-104.906
"80534","Johnstown","CO","Foundation Building Materials","4754 Marketplace Drive","80534",40.3571264,-104.9793256
"80537","Loveland","CO","Lowe's","1355 Sculptor Drive","80537",40.4053733,-105.0375295
"80537","Loveland","CO","The Home Depot","1100 Nickel Drive","80537",40.40438179539144,-105.06188929124619
"80537","Loveland","CO","All about floors","1410 E Eisenhower Blvd","80537",40.406884000000005,-105.05678600000002
"80537","Loveland","CO","Bloedorn Lumber","1810 W Eisenhower Blvd, Loveland, CO 80537","80537",40.40671920776367,-105.10291290283203
"80537","Loveland","CO","Recreational Electrical","459 Denver Ave","80537",40.396384999999995,-105.048172
"80537","Loveland","CO","minuteKEY","1325 Denver Ave","80537",40.4051783,-105.0464246
"80537","Loveland","CO","G.J. Gardner Homes Loveland","5621 McWhinney Blvd","80538",40.412467,-104.99588700000001
"80537","Loveland","CO","Sherwin-Williams Paint Store","1390 S Cleveland Ave","80537",40.378834000000005,-105.075476
"80537","Loveland","CO","Wood Emporium","not_available","80537",40.397830963134766,-105.07772064208984
"80537","Loveland","CO","Sherwin-Williams Paint Store","2033 W Eisenhower Blvd","80537",40.407610999999996,-105.10588999999999
"80537","Loveland","CO","Horizon Precision Machining Inc","2339 W 8th St","80537",40.403733,-105.10964399999999
"80537","Loveland","CO","Orchards Ace Hardware","269 E 29th St","80538",40.42456,-105.07735
"80538","Loveland","CO","Tractor Supply Co.","5428 North Garfield Ave","80538",40.448784978495006,-105.07628114340702
"80538","Loveland","CO","Ferguson Waterworks","4411 Woods Ave","80538",40.437849,-104.976211
"80550","Windsor","CO","Windsor Ace Hardware","1245 Main St","80550",40.479463,-104.92101
"80550","Windsor","CO","John Brunner & Co","not_available","80550",40.480292,-104.905105
"80550","Windsor","CO","Universal Forest Products","15 E Walnut St","80550",40.476906,-104.89156000000001
"80550","Windsor","CO","Morey's Glass & Metals Inc","124 Main St","80550",40.480076000000004,-104.89842900000001
"80550","Windsor","CO","Minitman Supply Inc.","7350 Greendale Rd","80550",40.437932,-104.966536
"80550","Windsor","CO","Builders FirstSource","6775 Sherman Street","80538",40.43259195044884,-104.97594237327576
"80550","Windsor","CO","Manweiler hardware","518","80550",40.48023,-104.903504
"80601","Brighton","CO","Lowe's","4980 East Bromley Lane","80601",39.9691398,-104.7580528
"80601","Brighton","CO","Agfinity  Inc.","55 W Bromley Ln","80601",39.9722739,-104.82422
"80601","Brighton","CO","Tractor Supply Co.","147 Denver St","80601",39.99479489140573,-104.82139190739862
"80601","Brighton","CO","Sherwin-Williams Paint Store","1555 E Bridge St","80601",39.9877815246582,-104.80258178710938
"80601","Brighton","CO","SPS Landscaping Materials LLC","15980 Elmira St","80602",39.98615264892578,-104.87223052978516
"80601","Brighton","CO","Fastenal","10500 Havana Ct, Brighton, CO 80601","80601",39.88687,-104.867829
"80601","Brighton","CO","minuteKEY","60 W Bromley Ln","80601",39.9696234,-104.8238911
"80601","Brighton","CO","The Hungry Farmer","2350 E Bridge St","80601",39.98559,-104.79311700000001
"80603","Brighton","CO","Ace Hdw of Fort Lupton","201 S Rollie Ave","80621",40.078666999999996,-104.805768
"80603","Brighton","CO","Colorado Electric Supply Brighton Co","736 Baseline Pl Unit B","80603",40.000876156179494,-104.8135507106781
"80603","Brighton","CO","TC Woods, LLC","5406 County Road 23","80621",40.07817840576172,-104.8466796875
"80603","Brighton","CO","George T. Sanders Company - Brighton","726 Baseline Pl","80603",40.00077753219084,-104.81263875961304
"80610","Ault","CO","Alpha One Organic Lawn and Garden Products","39834 Hilltop Cir","80610",40.58002471923828,-104.83277130126953
"80610","Ault","CO","Skyline Sod Inc","16264 Highway 14","80610",40.582358,-104.750308
"80610","Ault","CO","Sunrise Lumber LLC","263 E 1st St","80610",40.582786999999996,-104.729166
"80615","Eaton","CO","Poulsen Ace Hardware Inc","151 S Oak Ave","80615",40.53148,-104.71282
"80615","Eaton","CO","Harsh Outdoors","600 Oak Ave","80615",40.53475,-104.71396
"80620","Evans","CO","The Home Depot","2815 35th Avenue","80634",40.3900607,-104.7379902
"80620","Evans","CO","Cimarron","1461 37th Ave Unit 2","80620",40.369598956910444,-104.70055301997809
"80620","Evans","CO","BDR","not_available","80620",40.383586921114606,-104.69680567550003
"80620","Evans","CO","minuteKEY","3103 S 23rd Ave","80631",40.3861706,-104.7187378
"80620","Evans","CO","McJunkin Red Man","4049 Carson Ave","80620",40.372337371380006,-104.69975570499614
"80620","Evans","CO","Colorado Electric Supply Greeley","2990 W 29th St Unit 4","80631",40.389738,-104.726236
"80620","Evans","CO","WB Supply","3817 Carson Ave","80620",40.37462615966797,-104.70060729980469
"80620","Evans","CO","Fastenal","1104 42nd St","80620",40.370022815754616,-104.69844014431116
"80620","Evans","CO","Sherwin-Williams Paint Store","3230 23rd Ave","80620",40.38314932,-104.7148562
"80620","Evans","CO","Betts Remodeling","4651 Mesa Verde Dr","80634",40.370338439941406,-104.75526428222656
"80620","Evans","CO","A & M Custom Machine","128 30th St","80631",40.38718032836914,-104.67935180664062
"80620","Evans","CO","Tractor Supply Co.","3015 South 23rd Ave","80631",40.388031,-104.717504
"80631","Greeley","CO","Lowe's","2400 47th Avenue","80634",40.3980029,-104.7544995
"80631","Greeley","CO","Ace Hardware of Greeley","3540 W 10th St","80634",40.421193,-104.737306
"80631","Greeley","CO","Harbor Freight Tools","2430 W 10th St","80634",40.42258476215317,-104.7198984146155
"80631","Greeley","CO","Jantz Plumbing & Heating","1115 49th Ave","80634",40.418907,-104.761637
"80631","Greeley","CO","Big R True Value","310 8th St","80631",40.424339294433594,-104.68244934082031
"80631","Greeley","CO","Greeley Electric Repair, Inc.","2509 8th Ave","80631",40.396679,-104.69163
"80631","Greeley","CO","Greeley electric","not_available","80631",40.396637,-104.691644
"80631","Greeley","CO","H&E Equipment Services","1645 1st Ave","80631",40.412411,-104.678294
"80631","Greeley","CO","DXP SuperCenter","2021 1st Ave","80631",40.405351,-104.67896999999999
"80631","Greeley","CO","Higgins Hardware","not_available","80634",40.42281002545185,-104.72511803881886
"80631","Greeley","CO","Warehouse Supply, Inc.","300 N 2nd St","80645",40.3524819,-104.7014365
"80634","Greeley","CO","Sherwin-Williams Paint Store","2904 W 10th St","80634",40.42243385974341,-104.72721988800542
"80634","Greeley","CO","DBC Irrigation Supply","6222 W 10th St","80634",40.42103789094133,-104.78072696534197
"80649","Orchard","CO","Country Do it Best Hardware","218 Main St","80654",40.230011,-104.074292
"80701","Fort Morgan","CO","Sears","17364 US Highway 34","80701",40.2536811,-103.8223266
"80701","Fort Morgan","CO","Bloedorn Lumber","130 State St","80701",40.247925,-103.799152
"80701","Fort Morgan","CO","Diamond Vogel","318 Main St","80701",40.25078194706448,-103.8014030456543
"80701","Fort Morgan","CO","Mr. D'S Ace Home Center","1000 E Platte Ave","80701",40.25343,-103.787772
"80701","Fort Morgan","CO","Murdoch's Ranch & Home Supply","1207 W Platte Ave","80701",40.25523687341326,-103.81668175746626
"80701","Fort Morgan","CO","Sherwin-Williams Paint Store","810 W Platte Ave","80701",40.2532057000872,-103.81272196769713
"80720","Akron","CO","Akron Hardware","170 Main Ave","80720",40.1597895,-103.21244467
"80723","Brush","CO","Mr. D's Ace Hardware","122 Custer St","80723",40.2550239,-103.62732
"80723","Brush","CO","Hardware Hank","not_available","80723",40.255077,-103.63641
"80723","Brush","CO","Hometown Auto & Hardware","1305 Edison St #A","80723",40.255584716796875,-103.6360092163086
"80729","Grover","CO","Grover Market Basket","not_available","80729",40.86357,-104.222543
"80751","Sterling","CO","Ace Hardware","1350 W Main St","80751",40.625362396240234,-103.2315673828125
"80751","Sterling","CO","The Home Depot","1614 W Main St","80751",40.6266899,-103.2387542
"80751","Sterling","CO","Sears","100 Broadway St Ste 5","80751",40.6347534,-103.1996076
"80751","Sterling","CO","Crescent Electric Supply Company","104 California St","80751",40.643326,-103.191824
"80751","Sterling","CO","Logan County Lumber","not_available","80751",40.62089060757638,-103.22908256052743
"80751","Sterling","CO","Mead Lumber & Rental","265 E Chestnut St","80751",40.62368406066569,-103.19919380988554
"80751","Sterling","CO","Sherwin-Williams Paint Store","100 Broadway St","80751",40.634929113599355,-103.20056676864623
"80758","Wray","CO","Quality Farm & Ranch Center","333 Dexter St","80758",40.078769,-102.22181
"80759","Yuma","CO","Yuma Hardware","117 S Main St","80759",40.125135102,-102.7237916327
"80759","Yuma","CO","Tractor Supply Co.","801 East 8th Ave","80759",40.11811096764815,-102.71322816610336
"80802","Arapahoe","CO","Cheyenne Wells Lumber","170 E 2nd S","80810",38.8201711,-102.3464812
"80807","Burlington","CO","Ace Hardware","1298 Martin Ave","80807",39.305987,-102.26646
"80808","Calhan","CO","Cadillac Ranch Trading Co.","1050 5th St","80808",39.03544235229492,-104.30504608154297
"80813","Cripple Creek","CO","Ace Hardware","Teller One Highway","80813",38.7511232609064,-105.192980366363
"80815","Flagler","CO","Flagler Ace Hardware & Building Sp","423 Main Ave","80815",39.295991,-103.06768
"80816","Florissant","CO","Florissant Ace Hardware & Supply","1920 County Road 31","80816",38.946885,-105.29602
"80816","Florissant","CO","Gauley Gear","not_available","80816",38.85409644444614,-105.31221628189087
"80817","Fountain","CO","Lowe's","7710 Fountain Mesa Road","80817",38.7213484,-104.7017948
"80828","Limon","CO","Big R","150 7th St","80828",39.26816940307617,-103.67704772949219
"80828","Limon","CO","Ace Hardware","21761 State Road 40/287","80828",39.268056,-103.70346
"80828","Limon","CO","Hoffman Drug True Value Hardware","900 Main St","80828",39.26332432,-103.6881474
"80828","Limon","CO","Pronghorn Country Ltd","21761 Highway 40/287","80828",39.2633429,-103.66725
"80829","Manitou Springs","CO","benjamin moore city paint","3141 W Colorado","not_available",38.85707610439177,-104.88840625217219
"80831","Peyton","CO","Big R of Falcon","14155 US 24","80831",38.96302364091776,-104.56628631895951
"80831","Peyton","CO","minuteKEY","11550 Meridian Market Vw","80831",38.9391264,-104.6129607
"80831","Peyton","CO","Builders FirstSource","2810 Capital Dr","80939",38.873514,-104.6772
"80831","Peyton","CO","Ewing Irrigation","2705 Capital Dr","80939",38.8719367980957,-104.67449951171875
"80836","Stratton","CO","Ace Hardware","341 - 1st Street","80836",39.304783,-102.60747
"80840","Usaf Academy","CO","minuteKEY","8250 Razorback Rd","80920",38.94976043701172,-104.80017852783203
"80840","Usaf Academy","CO","Ace Hardware at Northgate","13355 Voyager Pkwy","80921",39.026199,-104.814649
"80863","Woodland Park","CO","Tractor Supply Co.","919 Spruce Haven Dr","80863",38.99497490485241,-105.06285379994279
"80863","Woodland Park","CO","Woodland Hardware and Home","100 Saddle Club Ave","80863",38.993649,-105.05378
"80863","Woodland Park","CO","Best Hardware","519 W Hwy 24","not_available",38.992906,-105.058781
"80863","Woodland Park","CO","judds glass co","not_available","80863",38.98504845922669,-105.04894630773778
"80863","Woodland Park","CO","Sherwin-Williams Paint Store","717 Gold Hill Pl S","80863",38.99225,-105.05929099999999
"80903","Colorado Springs","CO","Sherwin-Williams Paint Store","1815 S Nevada Ave","80905",38.80794914164957,-104.82162147760391
"80903","Colorado Springs","CO","Rick's Edge","18 1/2 Swope Ave","80909",38.833814,-104.791803
"80903","Colorado Springs","CO","Fastenal","910 S Nevada Ave","80903",38.821382,-104.822884
"80903","Colorado Springs","CO","Craig's Power Equipment","301 S Wahsatch Ave","80903",38.829338,-104.817755
"80903","Colorado Springs","CO","Gustave A Larson","203 S Wahsatch Ave","80903",38.830678000000006,-104.817785
"80903","Colorado Springs","CO","Automatic Access Inc","606 South Weber Street","80903",38.8251779,-104.8204852
"80903","Colorado Springs","CO","Abc Supply Co","706 S Sierra Madre St","80903",38.824195861816406,-104.83039093017578
"80903","Colorado Springs","CO","First Source Appliance Parts","not_available","80909",38.83973744109318,-104.7936735231004
"80903","Colorado Springs","CO","Dish Network Authorized Retailer","21 CanAm Hwy","80903",38.832495391659684,-104.81995582580566
"80903","Colorado Springs","CO","CJâ€™s Handyman Services","Arapahoe Country","80010",38.833991381883024,-104.82534170150755
"80903","Colorado Springs","CO","CompuVid Solutions Company","1837 S Nevada Ave","80905",38.80794143676758,-104.82212829589844
"80903","Colorado Springs","CO","mountain states pipe and supply","not_available","80903",38.818109,-104.828829
"80904","Colorado Springs","CO","Garden of the Gods Ace Hdw","4201 Centennial Blvd","80907",38.89,-104.8484
"80904","Colorado Springs","CO","Ace Hardware Uintah Gardens","1830 W. Uintah Street","80904",38.8496666,-104.8487306
"80904","Colorado Springs","CO","Remco Equipment","2210 Bott Ave","80904",38.841015000000006,-104.862477
"80904","Colorado Springs","CO","American Lock & Key","Uintah","80904",38.84766756327382,-104.85056674086773
"80904","Colorado Springs","CO","mountain states Filter","2310 Bott Ave, Colorado Springs, CO 80904","80904",38.841888427734375,-104.86410522460938
"80904","Colorado Springs","CO","Springer Woodworking","630 W Vermijo Ave","80905",38.830639,-104.837489
"80905","Colorado Springs","CO","The Home Depot","2250 Southgate Rd","80906",38.7988353,-104.8206328
"80905","Colorado Springs","CO","Rocky Mountain Materials & Asphalt","1910 Rand Ave","80905",38.80274963378906,-104.8023681640625
"80905","Colorado Springs","CO","Foundation Building Materials","1455 Pando Avenue","80905",38.79732486,-104.80010654
"80906","Colorado Springs","CO","Harbor Freight Tools","2835 E Fountain Blvd","80910",38.816696534432346,-104.77859400163554
"80906","Colorado Springs","CO","Kwal Paint","260 S Academy Blvd","80910",38.828601,-104.75890799999999
"80906","Colorado Springs","CO","South Academy Ace Hardware","2730 S. Academy Blvd","80916",38.7928933,-104.7591263
"80907","Colorado Springs","CO","Lowe's","4880 N Nevada Avenue","80918",38.9015255,-104.8198814
"80907","Colorado Springs","CO","Bon Ace Hardware","2300 N Wahsatch Ave","80907",38.865437,-104.81667
"80907","Colorado Springs","CO","Rampart Supply","1801 N Union Blvd.","80909",38.858636,-104.7918679
"80907","Colorado Springs","CO","Crossville Studios","870 Elkton Dr","80907",38.90191778,-104.84237178
"80907","Colorado Springs","CO","Lawn Mower Hospital","not_available","80907",38.865272999999995,-104.81793499999999
"80907","Colorado Springs","CO","Ferguson Plumbing Supply","4875 Northpark Dr","80918",38.901984000000006,-104.82571
"80907","Colorado Springs","CO","ABC Plumbing","707 E Fillmore St","80907",38.87389512839648,-104.8125958442688
"80907","Colorado Springs","CO","Window World","100 Garden of the Gods","not_available",38.896858,-104.822514
"80907","Colorado Springs","CO","The Paint Gallery","3029 N El Paso St","80907",38.876065999999994,-104.812353
"80907","Colorado Springs","CO","Bordner","1120 Elkton Dr Ste G","80907",38.89727915742443,-104.8462528994751
"80907","Colorado Springs","CO","Sherwin-Williams Paint Store","2939 N Hancock Ave","80907",38.8736763,-104.8030472
"80907","Colorado Springs","CO","HD Supply White Cap","4220 Mark Dabling Blvd","80907",38.89262390136719,-104.82662963867188
"80907","Colorado Springs","CO","Shop Tools Inc","1110 Elkton Dr Ste A","80907",38.897599,-104.846366
"80907","Colorado Springs","CO","Exciting Windows! by Window Covering Gallery","802 Garden of the Gods Rd","80907",38.89723587036133,-104.84188079833984
"80907","Colorado Springs","CO","Grainger","610 Popes Bluff Trail, Colorado Springs, CO 80907","80907",38.898790999999996,-104.834767
"80907","Colorado Springs","CO","Emser Tile","not_available","80918",38.898497,-104.828741
"80908","Colorado Springs","CO","The Home Depot","5660 E Woodmen Road","80920",38.9436171,-104.7232664
"80908","Colorado Springs","CO","Lowe's","4252 Royal Pine Drive","80920",38.9708192,-104.7488099
"80908","Colorado Springs","CO","minuteKEY","5550 E Woodmen Rd","80920",38.9426216,-104.7252555
"80908","Colorado Springs","CO","Bill's Tool Rental","Vollmer Rd","not_available",38.95325795102974,-104.69931718351758
"80909","Colorado Springs","CO","Lowe's","701 North Academy Boulevard","80909",38.843214,-104.7551909
"80909","Colorado Springs","CO","Circle Ace Hardware","1225 N Circle Dr","80909",38.8494999,-104.77562
"80909","Colorado Springs","CO","The Home Depot","102 N Academy Rd","80909",38.834303,-104.7598396
"80909","Colorado Springs","CO","Sherwin-Williams Commercial Paint Store","811 N Circle Dr","80909",38.844665,-104.775483
"80909","Colorado Springs","CO","J D Vigil Heating & Air Conditioning Inc","4341 E Platte Ave","80915",38.838417,-104.746662
"80909","Colorado Springs","CO","minuteKEY","701 N Academy Blvd","80909",38.84354019165039,-104.75570678710938
"80909","Colorado Springs","CO","E Z WAY RENTAL CTR","400 N CIRCLE DR","80909",38.838363,-104.77624899999999
"80909","Colorado Springs","CO","minuteKEY","3201 E Platte Ave","80909",38.8375129699707,-104.76969146728516
"80909","Colorado Springs","CO","High Yield Organics","411 Tia Juana St Ste A","80909",38.837881,-104.772858
"80910","Colorado Springs","CO","South Academy Ace Hardware","2730 S Academy Blvd","80916",38.7958509,-104.7577
"80911","Colorado Springs","CO","Mike's Lock And Key","not_available","80911",38.75101,-104.745096
"80915","Colorado Springs","CO","Blazer Electric Supply","6125 Omaha Blvd","80915",38.85285186767578,-104.71290588378906
"80915","Colorado Springs","CO","Colorado Electric Supply Colorado Springs","1491 Tuskegee Pl","80915",38.853948977865905,-104.7146225274264
"80915","Colorado Springs","CO","HVAC","not_available","80915",38.844945,-104.710888
"80915","Colorado Springs","CO","QED","1340 Ford St","80915",38.85157012939453,-104.71233367919922
"80915","Colorado Springs","CO","Don's Garden Shop","6001 E Platte Ave","80915",38.8384392,-104.7149734
"80916","Colorado Springs","CO","Sherwin-Williams Floorcovering Store","1370 N Newport Rd","80916",38.812638,-104.728767
"80917","Colorado Springs","CO","Ace Hardware At Austin Bluffs","3640 Austin Bluffs Pkwy","80918",38.8919105,-104.7587652
"80917","Colorado Springs","CO","Magic Man Services","5570 Del Paz Dr","80918",38.912143,-104.77046700000001
"80917","Colorado Springs","CO","Liberty Home Products","3659 Austin Bluffs Pkwy","80918",38.89015098,-104.75911697
"80918","Colorado Springs","CO","The Home Depot","7120 N Academy Blvd","80920",38.9344081,-104.798884
"80918","Colorado Springs","CO","Sherwin-Williams Paint Store","1724 Dublin Blvd","80918",38.92656450268364,-104.79538679122925
"80918","Colorado Springs","CO","Harbor Freight","7165 N Academy Blvd","80920",38.93550491333008,-104.7961196899414
"80918","Colorado Springs","CO","World Of Tile","6121 N Academy Blvd","80918",38.92137145996094,-104.79027557373047
"80918","Colorado Springs","CO","New View Blinds and Shutters","6946 N Academy, Blvd B322","80918",38.93164319,-104.79787618
"80919","Colorado Springs","CO","The Paint Spot","205 W Rockrimmon Blvd","80919",38.92800521850586,-104.8310546875
"80919","Colorado Springs","CO","Sherwin-Williams Paint Store","1466 Garden Of The Gods Rd","80907",38.897446,-104.85468399999999
"80922","Colorado Springs","CO","Lowe's","2945 New Center Point","80922",38.8739965,-104.7173612
"80922","Colorado Springs","CO","minuteKEY","2945 New Center Pt","80922",38.874625,-104.71738
"80922","Colorado Springs","CO","Sherwin-Williams Commercial Paint Store","6345 Source Center Pt","80923",38.924639,-104.720264
"80922","Colorado Springs","CO","Sherwin-Williams Paint Store","5862 Tutt Blvd","80923",38.915648,-104.718871
"80922","Colorado Springs","CO","Ace Hardware of Stetson Hills","5944 Stetson Hills Boulevard Ste 180","80923",38.913982,-104.716863
"81001","Pueblo","CO","Winair","300 Ilex St","81003",38.258047699928284,-104.60384917
"81001","Pueblo","CO","G4 Paint & Supply","524 N Santa Fe Ave","81003",38.27234,-104.60665300000001
"81001","Pueblo","CO","Rampart Supply, Inc.","320 E 4th St","81003",38.270442,-104.603311
"81001","Pueblo","CO","Fastenal","1275 Gary Ave","81001",38.28017044067383,-104.55538940429688
"81001","Pueblo","CO","The Showroom at Rampart Supply","319 N Santa Fe Ave","81003",38.270449,-104.607407
"81001","Pueblo","CO","ABC Plumbing-Pueblo Location","101 Spring St","81003",38.260903000000006,-104.607249
"81001","Pueblo","CO","Gustavey Larson","210 S Santa Fe Ave","81003",38.265531,-104.606511
"81001","Pueblo","CO","Ferguson Plumbing Supply","175 S Santa Fe Ave","81003",38.266047,-104.607315
"81003","Pueblo","CO","Boral Best Block","not_available","81008",38.295546,-104.608383
"81003","Pueblo","CO","Sherwin-Williams Paint Store","3205 N Elizabeth St","81008",38.302485,-104.615831
"81003","Pueblo","CO","Grand Rental Center Inc","219 N Grand Ave","81003",38.269124,-104.611554
"81003","Pueblo","CO","Cd Jones","220 N Greenwood St","81003",38.26913833618164,-104.6127700805664
"81003","Pueblo","CO","Kwal","3100 N Elizabeth St","81008",38.3013916015625,-104.61397552490234
"81003","Pueblo","CO","Aztec Manufacturing","621 S Union Ave","81004",38.260703,-104.618583
"81003","Pueblo","CO","Wesco","115 S Main St","81003",38.264474,-104.612162
"81003","Pueblo","CO","D & S Paint Center, Inc.","715 West St","81003",38.274074,-104.616463
"81004","Pueblo","CO","Lowe's","2900 West Pueblo Boulevard","81005",38.2190835,-104.6467903
"81004","Pueblo","CO","Greenhorn Valley Ace Hardware","6850 Highway 165","81019",37.9476999,-104.8369
"81004","Pueblo","CO","Ashley True Value Hardware","40 Cambridge Ave","81005",38.24499,-104.646886
"81004","Pueblo","CO","Harbor Freight Tools","1801 S Pueblo Blvd","81005",38.236452,-104.664016
"81004","Pueblo","CO","A+ Outdoor Power Equipment","2109 South Prairie","81005",38.2292656,-104.64378358
"81004","Pueblo","CO","GREENHORN VALLEY TRUE VALUE","6850 HWY 165","81019",37.954010009765625,-104.81531524658203
"81004","Pueblo","CO","Fastened","3010 Granada Blvd","81005",38.216825,-104.646957
"81005","Pueblo","CO","Racine's Locksmithing And Security","239 S Purcell Blvd","81007",38.31985317,-104.7050014
"81005","Pueblo","CO","Metal Mart","not_available","81007",38.33046433921804,-104.72504968648003
"81005","Pueblo","CO","Pueblo West Hardware","222 S McCulloch Blvd","81007",38.323861,-104.742887
"81006","Pueblo","CO","Mesa Hardware","25500 E US Highway 50","81006",38.24480399999999,-104.54001
"81007","Pueblo","CO","The Home Depot","4450 N Freeway Rd","81008",38.3157364,-104.6134098
"81007","Pueblo","CO","Lowe's","1225 W US Highway 50","81008",38.3097364,-104.6236137
"81007","Pueblo","CO","Tractor Supply CoÂ®","5075 North Elizabeth Street","81008",38.32640838623047,-104.61722564697266
"81008","Pueblo","CO","minuteKEY","4200 Dillon Dr","81008",38.31353,-104.609965
"81020","Aguilar","CO","La Veta True Value Hardware & Building Supply","1010 Cherry St","81055",37.500144,-105.012947
"81020","Aguilar","CO","the main event","not_available","81089",37.62206268310547,-104.78242492675781
"81020","Aguilar","CO","Ojo Springs Drilling and Well Service, Inc.","601 S Hendren Ave","81089",37.62381735302776,-104.78269457817078
"81039","Fowler","CO","Manzanola tradind Co.","212 N Park Street","81058",38.10940431498209,-103.86601209640503
"81039","Fowler","CO","Otero True Value","224 S Main","81039",38.130065,-104.024324
"81050","La Junta","CO","Big R","26980 W US Highway 50","81050",37.99538040161133,-103.58424377441406
"81050","La Junta","CO","Ace Hardware","202 San Juan Ave","81050",37.98670196533203,-103.54619598388672
"81050","La Junta","CO","Fastenal","306366 E. Hwy 50","81050",37.98567581176758,-103.51641845703125
"81050","La Junta","CO","Arkansas Valley Lumber & Supply","20363 Hwy. 50","81067",38.04709718,-103.7041234
"81052","Lamar","CO","Lamar Building. Material Supply","224 N Main St","81052",38.091985,-102.618554
"81052","Lamar","CO","Home Store","1006 E. Olive St","81052",38.0875244140625,-102.6067123413086
"81052","Lamar","CO","Big R","not_available","81052",38.08872251765686,-102.60225548023077
"81052","Lamar","CO","Tractor Supply Co.","300 Savage Ave","81052",38.07163,-102.619551
"81054","Las Animas","CO","Hub And Spur Hardware","not_available","81054",38.066731,-103.221066
"81073","Springfield","CO","Everitt Moore Home Center","not_available","81073",37.409698486328125,-102.6164321899414
"81082","Trinidad","CO","Fastenal","2012 Freedom Rd","81082",37.18703079223633,-104.4975814819336
"81082","Trinidad","CO","Sears","2128 Freedom Rd.","81082",37.1887149,-104.4954583
"81101","Alamosa","CO","Tractor Supply Co.","720 Del Sol Dr","81101",37.481633,-105.901928
"81101","Alamosa","CO","Ace Hardware of Alamosa","157 Craft Dr","81101",37.477963,-105.89488999999999
"81101","Alamosa","CO","Sherwin-Williams Paint Store","200 Craft Dr","81101",37.47812762872122,-105.89313983917235
"81101","Alamosa","CO","Sears","239 Walker Rd.","81101",37.47931961429784,-105.8968560397625
"81101","Alamosa","CO","Alamosa Building Supply","1403 Tremont Ave","81101",37.46631369873106,-105.8772284155167
"81101","Alamosa","CO","Fastenal","344 Santa Fe Ave","81101",37.47293472075327,-105.85404357950954
"81101","Alamosa","CO","Ivan's Appliance Repair","625 West Ave","81101",37.465989,-105.874652
"81101","Alamosa","CO","Bervig's True Value","not_available","81101",37.478521859357514,-105.90065128351395
"81101","Alamosa","CO","Sierra Vista Lumber & Steel Company","1301 West Ave","81101",37.45904,-105.87689
"81120","Antonito","CO","La Jara Trading Post","16555 State Highway 136","81140",37.2690089,-105.96307
"81120","Antonito","CO","Skyline Metal","6090 County Road Ff","81140",37.400856018066406,-106.14472198486328
"81122","Bayfield","CO","Lewis True Value Mercantile","311 Bayfield Center Dr","81122",37.2346026,-107.59994636
"81123","Blanca","CO","post Commissary","not_available","81123",37.42342715307217,-105.4321975989797
"81125","Center","CO","Big R","not_available","81125",37.754029,-106.124359
"81130","Creede","CO","Tomkins Hardware And Lumber","127 N Main St","81130",37.853563,-106.927216
"81130","Creede","CO","TOMKINS HARDWARE AND LUMBER","127 NORTH MAIN ST.","81130",37.84169006347656,-106.92544555664062
"81131","Crestone","CO","Big R","not_available","81143",37.884884,-105.784691
"81132","Del Norte","CO","Rainbow True Value","30359 W Us 160","81154",37.62911634,-106.6805007
"81132","Del Norte","CO","South Fork Lumber Company","not_available","81154",37.670004,-106.639764
"81132","Del Norte","CO","AmeriGlide Scranton Wilkes-Barre","1104 Route 315, Plaza 315","18702",37.64816755300793,-106.3937258720398
"81144","Monte Vista","CO","Big R Monte Vista","not_available","81144",37.580116,-106.16054
"81144","Monte Vista","CO","V & V True Value Hardware","148 Adams","81144",37.57987878,-106.14671
"81144","Monte Vista","CO","MVC COUNTRY SUPPLY","1901 East Highway","81144",37.568906857914804,-106.11436610888215
"81147","Pagosa Springs","CO","Terry's Ace Hardware","525 Navajo Trail Dr","81147",37.2524999,-107.081
"81147","Pagosa Springs","CO","Tractor Supply Co.","225 Us Hwy 84","81147",37.26702117919922,-106.99308776855469
"81147","Pagosa Springs","CO","Sherwin-Williams Paint Store","2163 Eagle Dr","81147",37.270279163385204,-107.0453417301178
"81147","Pagosa Springs","CO","Ponderosa Lumber","not_available","81147",37.26875347791201,-107.0530523519343
"81147","Pagosa Springs","CO","Sears","2800 Cornerstone Drive, Unit A1","81147",37.26294,-107.057775
"81201","Salida","CO","Sherwin-Williams Paint Store","101 A W Highway 50","81201",38.52355922166568,-106.0034966468811
"81201","Salida","CO","Sears","1015 E Rainbow Blvd","81201",38.52376801533812,-105.99098145961761
"81201","Salida","CO","Lagree's Market & Hardware","10100 Hwy 50","81242",38.49935,-106.08423
"81201","Salida","CO","Ace Hardware","not_available","81201",38.524266,-105.996276
"81201","Salida","CO","Murdoch's Ranch & Home Supply","201 E Rainbow Blvd","81201",38.522789,-106.001807
"81201","Salida","CO","LAGREE'S  MARKET & HARDWARE","10100 US-50","81242",38.51521301269531,-106.07604217529297
"81201","Salida","CO","SALIDA TRUE VALUE","502 E Rainbow Blvd","81201",38.52451705932617,-105.99606323242188
"81212","Canon City","CO","The Home Depot","141 Mackenzie Ave","81212",38.4460156,-105.1794269
"81212","Canon City","CO","Fontana True Value","1630 E Main St","81212",38.44667561,-105.2243688
"81212","Canon City","CO","True Value Trailers And Power Equipment","635 Shoop Dr","81240",38.43649702,-105.1141126
"81212","Canon City","CO","Florence True Value","950 E Main St","81226",38.3872881958314,-105.102379161417
"81212","Canon City","CO","Sonny's Ace Home Center","3090 E Main St","81212",38.446871,-105.1941
"81212","Canon City","CO","THE Aggregate Source","205 Tunnel Dr","81212",38.4339539,-105.2645246
"81212","Canon City","CO","UPS Canon City","not_available","81240",38.43305206298828,-105.10377502441406
"81212","Canon City","CO","Sears","1700 Rainbow Dr","81212",38.4472099,-105.2228176
"81212","Canon City","CO","Tractor Supply Co.","1919 East Main St","81212",38.44718,-105.21914
"81212","Canon City","CO","Sherwin-Williams Paint Store","1015 Main St","81212",38.444135972643814,-105.23382067680359
"81212","Canon City","CO","Taylor Mechanical HVAC & Refrigeration","236 Star Ranch Rd","81212",38.50309240445927,-105.35875797271727
"81212","Canon City","CO","Carochi Brothers Machine Shop","115 E Front St","81226",38.38903,-105.11708
"81224","Crested Butte","CO","CRESTED BUTTE TRUE VALUE","606 6TH ST","81224",38.867713928222656,-106.9814682006836
"81230","Gunnison","CO","Darnell True Value Hardware","1000 N Main St","81230",38.555896000000004,-106.92521299999999
"81230","Gunnison","CO","Tractor Supply Co.","1125 North Main St","81230",38.556773,-106.927917
"81230","Gunnison","CO","Sears","1000 N. Main Street, Suite 3","81230",38.55587615675951,-106.92515857913321
"81230","Gunnison","CO","Sherwin-Williams Paint Store","821 N Main St","81230",38.55273829474878,-106.92739963531494
"81230","Gunnison","CO","Blue Spruce Building Materials","310 Bluff Street","81235",38.02967834472656,-107.31783294677734
"81230","Gunnison","CO","Fullmers Ace Hardware","820 W Tomichi Ave","81230",38.5447589,-106.93665
"81252","Westcliffe","CO","Valley Ace Hardware","1 Enterprise Dr","81252",38.1297,-105.46374
"81301","Durango","CO","The Home Depot","1301 S Camino Del Rio","81303",37.22445525605133,-107.85964697599411
"81301","Durango","CO","Kroegers Ace Hardware","8 Town Plz","81301",37.274639,-107.88195800000001
"81301","Durango","CO","Tractor Supply Co.","1175 Dominguez Dr","81303",37.228252,-107.864239
"81301","Durango","CO","Durango Winnelson","not_available","81301",37.25058664638999,-107.87252277651083
"81301","Durango","CO","Ferguson Selection Center","76 Sheppard Dr","81303",37.236507,-107.874315
"81301","Durango","CO","Builders FirstSource","602 Sawmill Rd","not_available",37.24610137939453,-107.86978912353516
"81301","Durango","CO","Teds Rental & Sales Inc.","999 College Dr","81301",37.26869,-107.86888
"81301","Durango","CO","Affordable Blinds","863 1/2 Main Avenue","81301",37.273226,-107.881332
"81301","Durango","CO","Trimble True Value","45 Trimble Crossing Dr","81301",37.390524,-107.84529099999999
"81301","Durango","CO","Sherwin-Williams Paint Store","400 S Camino Del Rio","81301",37.250579833984375,-107.87470245361328
"81301","Durango","CO","Sears","800 S Camino del Rio","81301",37.241952,-107.869433
"81301","Durango","CO","Chaparral Materials Inc","190 Girard Street","81303",37.23995573,-107.87618875
"81320","Cahone","CO","Ace Hardware","235 North Main","81324",37.764081,-108.904059
"81321","Cortez","CO","Choice Building Supply","525 N Broadway","81321",37.354206,-108.59013200000001
"81321","Cortez","CO","Builders FirstSource","12028 Hwy 145","81321",37.385844371932556,-108.55461001396178
"81321","Cortez","CO","Slavens True Value Hardware","237 W Main St","81321",37.348263,-108.58870300000001
"81321","Cortez","CO","Sears","1 E. Main Street","81321",37.3483188,-108.5849262
"81321","Cortez","CO","Builders FirstSource Truss & Floor Systems","27151 County Rd M","81323",37.38799257914823,-108.55103731155396
"81401","Montrose","CO","The Home Depot","1401 Ogden Road","81401",38.45233681767285,-107.8683078289032
"81401","Montrose","CO","Harbor Freight","not_available","81401",38.46247863769531,-107.86460876464844
"81401","Montrose","CO","Builders FirstSource","16 W Main St","81401",38.476524353027344,-107.88018798828125
"81401","Montrose","CO","Murdoch's Ranch & Home Supply","2151 S Townsend Ave","81401",38.463421999999994,-107.864593
"81401","Montrose","CO","Sherwin-Williams Paint Store","110 E Main St","81401",38.47756369505652,-107.878897190094
"81401","Montrose","CO","Dahl Plumbing Supply and Kitchen/Bath Showroom","1133 N Townsend Ave","81401",38.487324,-107.888323
"81401","Montrose","CO","Green Works Hydroponics LLC","2731 Commercial Way Unit D","81401",38.4556666,-107.8675367
"81401","Montrose","CO","Brickyard","3672 N Townsend Ave","81401",38.516181,-107.917592
"81401","Montrose","CO","CES-Concrete Equipment-Supply","4170 N Townsend Ava","not_available",38.527042,-107.929907
"81401","Montrose","CO","Inside & Out-Fireplace and Patio","2400 E Main Street L","81401",38.4882002,-107.8482622
"81401","Montrose","CO","Abel's Ace Hardware","22 S Townsend Ave","81401",38.478010999999995,-107.87758000000001
"81401","Montrose","CO","Bruce's Small Engine","3000 Aerotech Pl","81401",38.50942,-107.90965
"81401","Montrose","CO","Downtown Park Av. True Value Hardware","601 E Main St","81401",38.481372,-107.87450700000001
"81401","Montrose","CO","Colorado Electric Supply Montrose","2460 N Townsend Ave","81401",38.503264,-107.903706
"81401","Montrose","CO","Sears","1445 Hawk Parkway","81401",38.4499449,-107.8671338
"81401","Montrose","CO","Ferguson Plumbing Supply","924 Spring Creek Rd Ste A","81403",38.47459,-107.893276
"81413","Cedaredge","CO","Big Johns Ace","200 SW 2nd St","81413",38.899408,-107.92599
"81415","Crawford","CO","Ace Gambles of Hotchkiss","121 E. Bridge Street","81419",38.7988,-107.7205
"81415","Crawford","CO","The Hitching Post Hotel And Farm Store","313 Hwy 92","81415",38.70387649536133,-107.60810852050781
"81416","Delta","CO","Tractor Supply Co.","145 Gunnison River Dr","81416",38.74962,-108.072235
"81416","Delta","CO","Delta Hardware Inc","121 W Gunnison River Dr Unit 121","81416",38.743484,-108.07092
"81416","Delta","CO","Sherwin-Williams Paint Store","1410 Valley View Dr","81416",38.750502206626244,-108.05397033691406
"81419","Hotchkiss","CO","Dependable Lumber","415 Second St","81428",38.86694,-107.59425
"81419","Hotchkiss","CO","Paonia Farm & Home Supply","not_available","81428",38.867555,-107.598094
"81422","Naturita","CO","Ace Hardware","995 Main","81424",38.26149,-108.54594
"81423","Norwood","CO","Ace Hardware Norwood","1635 Grand Avenue","81423",38.13102722167969,-108.2891616821289
"81425","Olathe","CO","Olathe True Value Hardware","321 Main","81425",38.606048,-107.983627
"81427","Ouray","CO","Ouray Hardware & Mercantile","700 Main St","81427",38.02408850289832,-107.6716590212986
"81432","Ridgway","CO","Timberline Ace Hardware","200 E Colorado","81435",37.936654,-107.809696
"81432","Ridgway","CO","Ridgway True Value Hardware","276 S Lena St","81432",38.150596618652344,-107.75602722167969
"81432","Ridgway","CO","Build A Mountain Inc","200 E Colorado Ave","81435",37.936589,-107.809728
"81432","Ridgway","CO","Alpine Lumber Company","140 Society Dr","81435",37.946241,-107.87396899999999
"81433","Silverton","CO","Ze Supply Hardware","not_available","81433",37.808768,-107.667195
"81501","Grand Junction","CO","Lowe's","2525 Rimrock Avenue","81505",39.0779734,-108.5849108
"81501","Grand Junction","CO","Grand Junction True Value","1838 N 12th St","81501",39.083905,-108.55093899999999
"81501","Grand Junction","CO","The Landscape Center","2523 High Country Ct","81501",39.074056,-108.58445400000001
"81501","Grand Junction","CO","Lowes","not_available","81505",39.07843261761239,-108.58461359798288
"81501","Grand Junction","CO","The Filter House","635 Pitkin Ave","81501",39.064026,-108.561897
"81501","Grand Junction","CO","Colorado Electric Supply Grand Junction","1005 Pitkin Ave","81501",39.064008596134066,-108.55559299999999
"81501","Grand Junction","CO","Black Carriage Furniture","2580 North Ave","81501",39.07861518,-108.57572107
"81501","Grand Junction","CO","Peek Performance - LS Machine Shop","2492 Commerce Blvd","81505",39.091237,-108.590801
"81501","Grand Junction","CO","QED","1440 Winters Ave","81501",39.05871676736299,-108.54856967926025
"81501","Grand Junction","CO","Doug Jones Sawmill","not_available","81501",39.056297,-108.548988
"81501","Grand Junction","CO","Hose & Rubber Supply","597 25 Rd","81505",39.09123229980469,-108.58968353271484
"81501","Grand Junction","CO","Ferguson Plumbing Supply","620 S 12th St","81501",39.061732,-108.55169599999999
"81501","Grand Junction","CO","Brickyard","2860 I 70 Business Loop","81501",39.0717951,-108.5227928
"81501","Grand Junction","CO","Sherwin-Williams Paint Store","2801 North Ave","81501",39.077087,-108.533304
"81501","Grand Junction","CO","Builders FirstSource","2773 Riverside Pkwy","81501",39.061707,-108.53854799999999
"81501","Grand Junction","CO","Sherwin-Williams Paint Store","845 North Ave","81501",39.07682,-108.558567
"81501","Grand Junction","CO","Appliance Parts Plus","2509 1/2 Weslo Ave","81505",39.088423999999996,-108.58784399999999
"81501","Grand Junction","CO","Fastenal","2505 Weslo Ave","81505",39.08852767944336,-108.58843231201172
"81501","Grand Junction","CO","Keenan-Dahl Supply","655 N 1st St Unit B","81501",39.073319,-108.571388
"81503","Grand Junction","CO","Orchard Mesa True Value Hardware","2686 Us Hwy 50","81503",39.044483,-108.55493500000001
"81504","Grand Junction","CO","Harbor Freight Tools","3210 I-70 Business Loop","81520",39.089434999999995,-108.458322
"81504","Grand Junction","CO","Peach Tree True Value Hardware","2963 North Ave","81504",39.076744,-108.503161
"81504","Grand Junction","CO","Ace Hardware of Clifton","569 32 Road #4","81504",39.0882,-108.4593
"81504","Grand Junction","CO","Century Equipment Company","549 32 Rd","81520",39.084443,-108.460391
"81504","Grand Junction","CO","Pioneer Materials West","3156 Perkins Drive","81504",39.082049,-108.46756699999999
"81505","Grand Junction","CO","The Home Depot","2436 F Road","81505",39.0955797,-108.6005673
"81505","Grand Junction","CO","Tractor Supply Co.","2449 Hwy 6 And 50","81505",39.087276,-108.599625
"81505","Grand Junction","CO","Sutherlands","2405 F Rd","81505",39.09356,-108.60718100000001
"81505","Grand Junction","CO","HD Supply White Cap","2382 Leland Road","81505",39.09754989,-108.61110866
"81505","Grand Junction","CO","Western Slope Iron & Supply Inc","670 23 Rd","81505",39.102382,-108.625988
"81505","Grand Junction","CO","White Cap Construction Supply","2382 Leland Ave","81505",39.097608,-108.61111499999998
"81505","Grand Junction","CO","Ewing Irrigation","2331 Interstate Ave","81505",39.1122665202898,-108.62087801098824
"81505","Grand Junction","CO","Ace","2158 Colorado 340","81507",39.08774293333333,-108.65257585
"81505","Grand Junction","CO","All Phase Electric Supply","2776 Crossroads Blvd","81506",39.115997314453125,-108.5380859375
"81505","Grand Junction","CO","Delta Rigging & Tools","722 Scarlet Dr","81505",39.108914,-108.63741399999999
"81507","Grand Junction","CO","H & H Hydraulics","912 19 1/2 Rd","81521",39.136497,-108.690336
"81520","Clifton","CO","Co-op Country","205 W 8th St","81526",39.105552,-108.351702
"81520","Clifton","CO","Ace Hardware","205 W Eighth St","81526",39.1064709,-108.35784
"81521","Fruita","CO","Co-op Country","1650 Highway 6 And 50","81521",39.163347,-108.74636
"81521","Fruita","CO","FRUITA TRUE VALUE","1690 Highway 6 and 50","81521",39.160377502441406,-108.74235534667969
"81521","Fruita","CO","Ace Hardware","1650 Highway 6 and 50","81521",39.16324996948242,-108.74698638916016
"81521","Fruita","CO","Wildcat Rentals","1022 Highway 6 and 50","81525",39.223873138427734,-108.8643798828125
"81521","Fruita","CO","Fruita True Value","1690 Hwy 6 & 50","81521",39.22162,-108.8643
"81601","Glenwood Springs","CO","Big John's Ace Hardware","2602 S Glen Ave","81601",39.5262,-107.3207
"81601","Glenwood Springs","CO","Lowe's","215 West Meadows Drive","81601",39.556592,-107.347087
"81601","Glenwood Springs","CO","Ace Hdwe of Carbondale","1011 Highway 133","81623",39.4007829,-107.2199
"81601","Glenwood Springs","CO","Habitat for Humanity","53 Calaway Court","81601",39.46934335,-107.26716604
"81601","Glenwood Springs","CO","Colorado Electric Supply Glenwood Springs","2922 S Glen Ave","81601",39.52181951694171,-107.32082854232789
"81601","Glenwood Springs","CO","Tractor Supply Co.","51027 Hwy 6 And 24 Ste 190","81601",39.563272,-107.36384
"81601","Glenwood Springs","CO","Roaring Fork Valley Coop","0760 Hwy. 133","81623",39.405518,-107.220441
"81601","Glenwood Springs","CO","Ferguson Plumbing Supply","7258 Highway 82","81601",39.46833,-107.263861
"81601","Glenwood Springs","CO","Tools For Living, Inc.","1301 Grand Ave Lowr 5","81601",39.54019,-107.325385
"81601","Glenwood Springs","CO","Sherwin-Williams Paint Store","3228 S Glen Ave","81601",39.517539978027344,-107.31800842285156
"81611","Aspen","CO","Alpine Ace Hardware","300 Puppy Smith St","81611",39.19258,-106.819083
"81611","Aspen","CO","Builders FirstSource","38005 Hwy 82","81611",39.11997928015886,-106.71319842338562
"81611","Aspen","CO","Ajax Supply","016 Kearns Rd #210","81615",39.21143657338837,-106.946140229702
"81611","Aspen","CO","Miners Building True Value","319 E Main St","81611",39.190523,-106.819855
"81611","Aspen","CO","Sherwin-Williams Paint Store","304 Aspen Airport Business Ctr","81611",39.21942481461989,-106.86088621616364
"81620","Avon","CO","The Home Depot","295 Yoder Avenue","81620",39.6264858,-106.4979492
"81620","Avon","CO","american plumbing & heating","680 W Beaver Creek Boulevard","81620",39.63958713628351,-106.53281450271606
"81620","Avon","CO","Colorado Electric Supply Vail","40814 Hwy 6, Unit D&E","81620",39.62181,-106.4780428
"81620","Avon","CO","Rooted Hydroponics and Organics","910 Nottingham Road","81620",39.64042663574219,-106.5389175415039
"81620","Avon","CO","Sherwin-Williams Paint Store","40800 US-6","81658",39.62199100535243,-106.4798730611801
"81620","Avon","CO","Meadow Mountain Plumbing & Heating Service, Inc.","40690 US HWY 6 & 24, Unit F","81620",39.620962119145226,-106.48112297058105
"81624","Collbran","CO","Collbran Supply Inc","203 Main","81624",39.239679,-107.96092
"81625","Craig","CO","Hayden Ace Hardware","111 N 6th St","81639",40.49494171142578,-107.26773071289062
"81625","Craig","CO","M.J.K. Sales And Feed Inc","2315 W 1st St","81625",40.513471,-107.55332
"81625","Craig","CO","B & B Welders Supply","124 W 4th St","81625",40.512233070981864,-107.54881381988525
"81625","Craig","CO","The Copy Shop","99 E 4th St","81625",40.51288962364079,-107.54615306853935
"81625","Craig","CO","Samuelson True Value Hardware","456 Breeze St","81625",40.51334668,-107.5485996
"81625","Craig","CO","MJK Sales & Feed, IN.c","290 Ranney St","81625",40.51012395,-107.5532666
"81631","Eagle","CO","Alpine Lumber Company","111 E Chambers Ave","81631",39.65834426879883,-106.8252944946289
"81631","Eagle","CO","Alpine Builders Hardware","5 Murray Rd Suite C2","81632",39.6502,-106.624
"81631","Eagle","CO","Gypsum Eagle Ace Hardware","220 Cooley Mesa Rd","81637",39.64351272583008,-106.89010620117188
"81631","Eagle","CO","Ferguson Plumbing Supply","745 Lindbergh Dr","81637",39.6447639465332,-106.87262725830078
"81631","Eagle","CO","Pioneer Materials West","455 Lindbergh Drive","81637",39.64398394,-106.87862927
"81631","Eagle","CO","G & S Tool Clinic LLC","916 Chambers Ave Ste A","81631",39.663083,-106.817066
"81631","Eagle","CO","Tool Clinic","916 Chambers Ave","81631",39.6633642911911,-106.81725203990936
"81635","Parachute","CO","2nd Time Around Recycle Outlet","243 East 1st Street","81635",39.453453063964844,-108.05054473876953
"81637","Gypsum","CO","Wylaco Supply Company","605 Bertroch Ln","81637",39.6505126953125,-106.95331573486328
"81637","Gypsum","CO","Valley Lumber","170-200 Airpark Dr","81637",39.6360503,-106.90924192
"81641","Meeker","CO","Samuelson True Value Of Meeker","43900 Highway 13","81641",40.06663731,-107.8644691
"81641","Meeker","CO","Valley Hardware","401 E Market St","81641",40.0315999,-107.9137
"81647","New Castle","CO","Valley Lumber","2495 RCR 13","81650",39.552054,-107.780244
"81647","New Castle","CO","Chelewski Pipe & Supply Inc","97 County Road 227","81650",39.5500349,-107.7008126
"81647","New Castle","CO","Flattop Fencing & Supply","1424 Enterprise Ct","81650",39.525325,-107.765055
"81647","New Castle","CO","Silt Tool Rentals","135 River Frontage Rd","81652",39.544158935546875,-107.66353607177734
"81647","New Castle","CO","Mr. T's Hardware","not_available","81647",39.56808361790393,-107.52615666040144
"81647","New Castle","CO","MR. T'S TRUE VALUE HARDWARE & BUILDING SUPPLY","6300 County Road 335","81647",39.5674934387207,-107.52603149414062
"81647","New Castle","CO","Fastenal","not_available","81650",39.523672999999995,-107.754002
"81648","Rangely","CO","Rangely True Value","105 W Main","81648",40.08745105,-108.8043503
"81648","Rangely","CO","Ace Hardware Rangely","609 Highway 64 W","81648",40.088645935058594,-108.8104248046875
