"zip","city","state","name","address","postalCode","lat","lon"
"66002","Atchison","KS","Thayer Supply Co.","1413 Main St","66002",39.56126,-95.136129
"66002","Atchison","KS","Thayer Supply Co.","309 Commercial St","66002",39.56215286254883,-95.1167984008789
"66002","Atchison","KS","Franklin's Hardware Store","not_available","66002",39.56239483340858,-95.12108110500034
"66002","Atchison","KS","Orscheln","1089-1311 Skyway Hwy","66002",39.556663,-95.12870500000001
"66002","Atchison","KS","Blish Mize","not_available","not_available",39.560008,-95.119693
"66002","Atchison","KS","Husqvarna US","104 E Laramie St","66002",39.56696319580078,-95.1143798828125
"66002","Atchison","KS","Sears","101 N. Fourth St.","66002",39.562007891704084,-95.11816845105386
"66002","Atchison","KS","The Hardware Store","609 Commercial St","66002",39.56220626831055,-95.12097930908203
"66006","Baldwin City","KS","New Era Roofing","not_available","66006",38.782548,-95.185935
"66006","Baldwin City","KS","Arrowhead Hardware","318 6th St","not_available",38.78537226582789,-95.18683473076982
"66012","Bonner Springs","KS","Nuts And Bolts","626 S 130th St","66012",39.0721330894621,-94.88348143352997
"66012","Bonner Springs","KS","minuteKEY","12801 Kansas Ave","66012",39.0858485,-94.8778852
"66013","Bucyrus","KS","Hardware Shack","19880","66085",38.767501,-94.669295
"66018","De Soto","KS","Harding Heating & Air Conditioning","not_available","66018",38.97824,-94.96299
"66024","Elwood","KS","Porters Building Centers","807 Roseport Road","66024",39.750602,-94.866547
"66025","Eudora","KS","Garage Door Repair Irvington","Myrtle Ave","07111",38.98046251940782,-95.09439468383789
"66030","Gardner","KS","Sherwin-Williams Paint Store","235 Stonecreek Dr","66030",38.81449890136719,-94.90574645996094
"66030","Gardner","KS","CMI Gardner","780 E Warren","66030",38.80068,-94.91832
"66030","Gardner","KS","Trails West Ace Hardware","240 N Moonlight Rd","66030",38.81422508630805,-94.9095973596083
"66030","Gardner","KS","Norris Equipment Company","604 E Main St","66030",38.81132,-94.91614
"66032","Garnett","KS","Brummel Farm Service","802 S Oak St, Garnett, KS 66032","66032",38.276859283447266,-95.24211883544922
"66032","Garnett","KS","Miller Hardware","703 N Maple St","66032",38.291337780009094,-95.24984459513603
"66032","Garnett","KS","Garnett Home Center","410 N Maple St","66032",38.2869987487793,-95.24882507324219
"66032","Garnett","KS","Do It Best Hardware Store Garnett","not_available","66032",38.287106,-95.248607
"66033","Greeley","KS","Diversified Supply","21368 Earnest Rd","66072",38.330982,-94.990315
"66040","La Cygne","KS","Husqvarna US","36550 New Lancaster Rd","66071",38.463470458984375,-94.73343658447266
"66043","Lansing","KS","The Home Depot","5000 S 4th Street","66048",39.2696482,-94.9010011
"66043","Lansing","KS","Tractor Supply Co.","1111 North Main St","66043",39.266630325555305,-94.90022308687671
"66043","Lansing","KS","Westlake Ace Hardware 043","3400 S 4th St Ste 4","66048",39.28492403998751,-94.9069152003178
"66043","Lansing","KS","City Electric Supply Leavenworth","910 Eisenhower Rd","66048",39.267707,-94.925879
"66043","Lansing","KS","Sherwin-Williams Paint Store","3425 S 4th St","66048",39.28455612420435,-94.90273475646973
"66043","Lansing","KS","minuteKEY","5000 10th Ave","66048",39.2687839,-94.93055
"66043","Lansing","KS","McCann Plumbing & Heating Inc","4500 Brewer Pl","66048",39.273656,-94.895476
"66044","Lawrence","KS","Westlake Ace Hardware 065","601 Kasold Dr","66049",38.9714999,-95.281199
"66044","Lawrence","KS","Lawrence Habitat for Humanity Restore","708 Connecticut St","66044",38.97052294795697,-95.23233862213708
"66044","Lawrence","KS","Steve Bruce Welding  Fabrication LLC","2046 E 1400 Rd","66044",39.03642654418945,-95.24109649658203
"66044","Lawrence","KS","Capitol Concrete","not_available","66044",39.003789,-95.232812
"66044","Lawrence","KS","Housing Maintenance Storeroom","2303 Bob Billings Pkwy","66049",38.956771,-95.264488
"66046","Lawrence","KS","Menard's","not_available","66046",38.929811236395864,-95.25291851069584
"66046","Lawrence","KS","The Home Depot","1910 W 31st St","66046",38.9298664,-95.2575406
"66046","Lawrence","KS","Westlake Ace Hardware 014","711 W 23rd St","66046",38.9428029,-95.243549
"66046","Lawrence","KS","Tractor Supply Co.","2420 Fairfield St","66046",38.94108739337251,-95.19838540029909
"66046","Lawrence","KS","Superior Electric","2500 W 31st St","66047",38.928834,-95.266014
"66046","Lawrence","KS","Sherwin-Williams Paint Store","2108 W 27th St","66047",38.935131,-95.262264
"66046","Lawrence","KS","Art In Living","821 W 22nd Ter","66046",38.9435,-95.2451
"66046","Lawrence","KS","Spectrum Paint","2540 Iowa St Ste Q","66046",38.93688201904297,-95.25997161865234
"66048","Leavenworth","KS","Sebus Brothers True Value","405 Main St","64098",39.41048694,-94.90228714
"66048","Leavenworth","KS","Gronis Hardware","not_available","66048",39.3120244,-94.9122424
"66048","Leavenworth","KS","Gronis Hardware","517 Cherokee St","66048",39.316971240951354,-94.91594970733044
"66048","Leavenworth","KS","CBT-Certified Backflow Testing","16430 Sexton Rd","64079",39.392366,-94.83663790000001
"66049","Lawrence","KS","Fernando Sepulveda Refacciones Escobedo","Boulevard Benito Juarez #136 colonia residencial escobedo","66050",39.0378871,-95.4463322
"66053","Louisburg","KS","Mossman True Value Lumber","27295 Metcalf Rd","66053",38.6354681563126,-94.676019759519
"66054","Mc Louth","KS","Himpel Lumber","not_available","66086",39.10856544971466,-95.084149
"66061","Olathe","KS","The Home Depot","20025 W 154th Street","66062",38.8487546,-94.8176303
"66061","Olathe","KS","Sutherlands","16665 W 151st St","66062",38.85353088378906,-94.77864074707031
"66061","Olathe","KS","Grass Pad Olathe","425 N Rawhide Dr","66061",38.887429963125655,-94.7908994850248
"66061","Olathe","KS","Tractor Supply Co.","15945 South Us 169 Hwy","66062",38.839574,-94.815291
"66061","Olathe","KS","Westlake Ace Hardware 013","120 N Clairborne Rd","66062",38.883307,-94.789238
"66061","Olathe","KS","Bulger True Value","1185 W Sante Fe","66061",38.8837471317829,-94.8379272868217
"66061","Olathe","KS","Bledsoes Rentals","208 W Dennis Ave","66061",38.869292902435156,-94.82121013238694
"66061","Olathe","KS","Olathe Ace Hardware","873 S Parker","66061",38.869084,-94.834413
"66061","Olathe","KS","Arbor Creek Ace Hardware","16509 W 159th Ter","66062",38.83916091918945,-94.77755737304688
"66061","Olathe","KS","Reddy electric","not_available","66062",38.84468078613281,-94.82452392578125
"66061","Olathe","KS","Sherwin-Williams Paint Store","445 N K 7 Hwy","66061",38.8874626159668,-94.83686828613281
"66061","Olathe","KS","Earth Contact Products","15612 S Keeler Ter","66062",38.84561538696289,-94.81141662597656
"66061","Olathe","KS","Johnson County Siding & Window Co., Inc.","15869 South Mahaffie Street","66062",38.84034729003906,-94.80302429199219
"66061","Olathe","KS","Mulch & More","not_available","66061",38.884557,-94.798007
"66061","Olathe","KS","Ewing Irrigation","1495 E Kansas City Rd","66061",38.89390182495117,-94.79383087158203
"66061","Olathe","KS","Sherwin-Williams Paint Store","1209 E Santa Fe St","66061",38.882395,-94.79925899999999
"66061","Olathe","KS","Surfaces Direct","1900 E Santa Fe St","66062",38.8848991394043,-94.78661346435547
"66061","Olathe","KS","City Electric Supply Olathe","19952 W 162nd St","66062",38.83418598884469,-94.8200597815873
"66061","Olathe","KS","Johnson County Equipment Rental","1530 E Spruce St","66061",38.88671,-94.79338
"66061","Olathe","KS","minuteKEY","395 N K 7 Hwy","66061",38.88601303100586,-94.8379135131836
"66061","Olathe","KS","Sutherlands","1120 E Santa Fe St","66061",38.88428113594406,-94.79913172443732
"66061","Olathe","KS","Spectrum Paint","191 N Parker St","66061",38.882954999999995,-94.83644
"66061","Olathe","KS","AES Lawn Parts","1651 E Kansas City Rd","66061",38.89548840950644,-94.7917573563672
"66062","Olathe","KS","Lowe's","13750 South Blackbob Road","66062",38.8800455,-94.7638261
"66062","Olathe","KS","The Home Depot","11850 S Strang Line Rd","66062",38.91409370800618,-94.7679054737091
"66062","Olathe","KS","Sherwin-Williams Paint Store","13738 W 135th St","66062",38.884291,-94.744943
"66062","Olathe","KS","Nuts and Bolts - 135th","11310 W. 135th","66221",38.88378295,-94.71798671
"66062","Olathe","KS","Crapsers Plumbing","not_available","66210",38.91912841796875,-94.6963882446289
"66064","Osawatomie","KS","Palace Hardware","432 Main Street","66064",38.4995285,-94.9485564
"66066","Oskaloosa","KS","Bittersweet Farms Steel and Aluminum Supply","14501 US 59 Hwy","66066",39.18653869628906,-95.3171615600586
"66067","Ottawa","KS","HomeBase Lumber","2138 S Princeton Circle Dr","66067",38.58081148510477,-95.2692587125166
"66067","Ottawa","KS","CMI - Do It Best","not_available","66067",38.616903,-95.267576
"66067","Ottawa","KS","Construction Materials","113 E 1st St","66067",38.617341,-95.267658
"66067","Ottawa","KS","Fastenal","514 N Main St, Ottawa, KS 66067","66067",38.62345556770896,-95.26796165875402
"66067","Ottawa","KS","Smith Paint Co Inc","1608 S Main St","88203",38.59190204106644,-95.26921033859252
"66067","Ottawa","KS","Sears","220 S Main St","66067",38.6149223462698,-95.26896813376425
"66071","Paola","KS","Family Center Farm and Home","808 Baptiste Dr","66071",38.60364866183894,-94.85545904136158
"66071","Paola","KS","Do It Best Paola Hardware","not_available","66071",38.574049,-94.879268
"66071","Paola","KS","Miami Lumber","1014 N Pearl St","66071",38.584688,-94.873371
"66071","Paola","KS","minuteKEY","310 Hedge Ln","66071",38.6197867,-94.8546767
"66085","Stilwell","KS","Dan's Drywall Tools","6207 W 158th Pl","66223",38.84040451049805,-94.66088104248047
"66086","Tonganoxie","KS","Brothers Market","319 Ridge St","66086",39.115642,-95.075539
"66101","Kansas City","KS","Ferguson Plumbing Supply","203 S 5th St","66101",39.0987384491858,-94.6219707754071
"66102","Kansas City","KS","Lowe's","6920 State Avenue","66102",39.1177962,-94.740521
"66102","Kansas City","KS","minuteKEY","6920 State Ave","66102",39.118072,-94.740299
"66102","Kansas City","KS","Ryan Building Materials, LLC","2073 N 13th St","66104",39.130115999999994,-94.642725
"66102","Kansas City","KS","Chris Mattox Office","6920 State Ave, Kansas City, KS 66102","66102",39.11784744262695,-94.7402572631836
"66102","Kansas City","KS","American Glass Company","3624 State Ave, Kansas City, KS 66102","66102",39.116968,-94.670364
"66103","Kansas City","KS","Strasser True Value Hardware","910 Southwest Blvd","66103",39.06206769811001,-94.62060648726624
"66103","Kansas City","KS","Total Tool","275 Southwest Blvd","66103",39.069552,-94.610339
"66103","Kansas City","KS","KC Hardwoods","14th & Argentine","not_available",39.08023583565788,-94.64886671366288
"66103","Kansas City","KS","Westport Glass & Mirror","625 Southwest Blvd","66103",39.06514626778717,-94.61621371285489
"66103","Kansas City","KS","Beaver Drill And Tool Company","3995 Mission Rd","66103",39.05488,-94.62164200000001
"66103","Kansas City","KS","Power Equipment Supply","not_available","66103",39.056698,-94.631628
"66103","Kansas City","KS","Midwest Industrial Sales","1232 Southwest Blvd","66103",39.058997999999995,-94.625687
"66103","Kansas City","KS","La True Value Hardware","631 Kansas Ave","66105",39.08752624,-94.62451381
"66106","Kansas City","KS","minuteKEY","2300 Metropolitan Ave.","66106",39.07304000854492,-94.65515899658203
"66106","Kansas City","KS","Menards","1301 N 98TH ST","66111",39.08958053588867,-94.73970031738281
"66106","Kansas City","KS","service supply","not_available","66106",39.04478073120117,-94.66332244873047
"66106","Kansas City","KS","Ameripure","2418 Merriam Ln","66106",39.04827880859375,-94.65663146972656
"66106","Kansas City","KS","Sun Lumber","8630 Gibbs Rd","66111",39.057700322815286,-94.78543978344474
"66106","Kansas City","KS","Southern Fastners","3004 S 44th St","66106",39.046793,-94.680239
"66109","Kansas City","KS","Menards","1301 N 98th St","66111",39.11999724247802,-94.80973782177092
"66109","Kansas City","KS","Sherwin-Williams Paint Store","7646 State Ave","66112",39.11770021031634,-94.75773990154266
"66109","Kansas City","KS","Wood Oil","not_available","66109",39.128786593383126,-94.84572138584102
"66109","Kansas City","KS","Dillon Material Company","11201 Leavenworth Rd","66109",39.142545,-94.83912600000001
"66111","Kansas City","KS","Westlake Ace Hardware 033","7523 State Ave","66112",39.11321585219057,-94.75412564308623
"66115","Kansas City","KS","Foundation Building Materials","3411 Brinkerhoff Road","66115",39.15369873,-94.61897602
"66118","Kansas City","KS","Brauer","74 S James St","66118",39.102294,-94.609148
"66118","Kansas City","KS","Kansas City Power Products, Inc","80 S James St","66118",39.102052,-94.608627
"66202","Mission","KS","The Home Depot","5700 Antioch Ave","66202",39.02604349386772,-94.68938863552467
"66202","Mission","KS","City Electric Supply Merriam","5420 Antioch Dr","66202",39.03081396374079,-94.6879248228197
"66202","Mission","KS","Johnson County Building Materials, Inc.","9108 W 57th St","66203",39.024979085450816,-94.6919447150646
"66202","Mission","KS","Wassmer Studios","7400 Johnson Dr","66202",39.022422790527344,-94.6715087890625
"66202","Mission","KS","Sherman Williams Paint","7000 Johnson Dr","66202",39.022605895996094,-94.66608428955078
"66202","Mission","KS","Hartman Hardware","5800 Johnson Dr","66202",39.022417,-94.652901
"66202","Mission","KS","Lowes","State Avenue","not_available",39.02091540701868,-94.65230766626381
"66202","Mission","KS","Mack True Value Hardware","6004 Johnson Dr","66202",39.022430419921875,-94.65520477294922
"66203","Shawnee","KS","Harbor Freight Tools","11219 SHAWNEE MISSION PKW","66203",39.01361380141906,-94.71657847149554
"66203","Shawnee","KS","Sears","6495 Quivira Rd","66216",39.011994,-94.72204
"66203","Shawnee","KS","Hartman Hardware","11018 Johnson Dr","66203",39.023109999999996,-94.714219
"66203","Shawnee","KS","Arrow Rental","11330 Shawnee Mission Pkwy","66203",39.015543,-94.717739
"66203","Shawnee","KS","ProSource of Kansas City West","7240 W Frontage Rd","66203",38.998379,-94.697389
"66203","Shawnee","KS","Clarks Tool & Equipment","6217 Goddard St","66203",39.016284999999996,-94.709357
"66203","Shawnee","KS","The Tile Shop","6400 Nieman Rd","66203",39.013224,-94.715313
"66203","Shawnee","KS","Merriam Hardware","5652 Merriam Dr","66203",39.026171999999995,-94.69445999999999
"66204","Overland Park","KS","The Big White Barn","7615 Grandview Ln","66204",38.99077224731445,-94.69137573242188
"66204","Overland Park","KS","Suburban Flooring & Paint","8001 Santa Fe Dr","66204",38.98351,-94.672104
"66204","Overland Park","KS","Plexible Design, Inc.","7520 W 80th St","66204",38.984116,-94.67331
"66204","Overland Park","KS","Arnolds Parts","8006 Sante Fe","not_available",38.98373362,-94.67281487
"66205","Mission","KS","Lowe's","4960 Roe Boulevard","66205",39.0384759,-94.641958
"66206","Leawood","KS","Ranch Mart Ace Hardware","3801 W 95th St","66206",38.9571929,-94.628341
"66206","Leawood","KS","Neenan Company Showroom","10330 State Line Rd","66206",38.93963272,-94.60942016
"66207","Overland Park","KS","Suburban Lawn & Garden","10501 Roe Ave","66207",38.93766967005494,-94.63899042696873
"66207","Overland Park","KS","Interstate All Battery Center","not_available","66207",38.956289,-94.645901
"66207","Overland Park","KS","Mar-Beck Appliance","9522 Nall","66207",38.95554352190999,-94.65087475062197
"66208","Prairie Village","KS","Westlake Ace Hardware","4049 Somerset Dr","66208",38.980496,-94.633735
"66208","Prairie Village","KS","Euston Hardware","6955 Tomahawk Rd","66208",39.00263452555735,-94.6318526870066
"66208","Prairie Village","KS","Spectrum Paint","3909 Prairie Ln","66208",39.00356103074011,-94.63087677955627
"66209","Leawood","KS","Sherwin-Williams Paint Store","6311 W 119th St","66209",38.911857,-94.660674
"66209","Leawood","KS","minuteKEY","11701 Metcalf Ave","66210",38.914718,-94.663842
"66210","Overland Park","KS","Nuts And Bolts Antioch","11200 Antioch Rd","66210",38.92460147864674,-94.68698336255525
"66210","Overland Park","KS","Westlake Ace Hardware 063","12202 College Blvd","66210",38.92840913389028,-94.72726521848824
"66210","Overland Park","KS","Zenernet","7500 College Blvd, 5th Floor","66210",38.929176914896296,-94.67313230037688
"66210","Overland Park","KS","Disk Doctors","7500 College Blvd","66210",38.92768292735722,-94.67215061187744
"66211","Leawood","KS","Orscheln farm and HOME","not_available","66206",38.927513603170375,-94.62937544835528
"66212","Overland Park","KS","Lowe's","not_available","66212",38.95546605533032,-94.66534503343684
"66212","Overland Park","KS","The Home Depot","9600 Metcalf Ave","66212",38.954022,-94.6695186
"66212","Overland Park","KS","Heartland Habitat For Humanity Restore","9848 W 87th St","66212",38.973206387513315,-94.68723905568542
"66212","Overland Park","KS","Spectrum Paint","10542 W 103rd St","66214",38.94265,-94.702348
"66212","Overland Park","KS","Lowe's","10307 Metcalf Ave","66212",38.940996999999996,-94.66677
"66212","Overland Park","KS","Locks & Pulls Inc.","10333 Metcalf Ave","66212",38.940403,-94.665313
"66212","Overland Park","KS","Tope Plumbing","8225 W 91st Terrace, Overland Park, KS 66212","66212",38.96311977377678,-94.68169578345487
"66212","Overland Park","KS","Sherwin-Williams Paint Store","8900 W 95th St","66212",38.95695079387188,-94.68842048144846
"66212","Overland Park","KS","Lowe's","7001 W 95th St","66212",38.955810596747156,-94.665146421298
"66213","Overland Park","KS","The Home Depot","8000 W 135th St","66223",38.88570905734754,-94.679274559021
"66213","Overland Park","KS","owens lumber","not_available","66213",38.88520431518555,-94.68594360351562
"66213","Overland Park","KS","Spectrum Paint","8728 W 135th St","66221",38.88585,-94.687384
"66214","Overland Park","KS","DeWalt - Porter Cable","9201 Quivira Rd","66215",38.96157455444336,-94.72299194335938
"66214","Overland Park","KS","Barnett","not_available","66214",38.98874202705459,-94.71176644602046
"66214","Overland Park","KS","Midwest Skylight","11640 W 90th St","66214",38.966015999999996,-94.721008
"66214","Overland Park","KS","City Electric Supply","8885 Bond St","66214",38.967331,-94.718537
"66214","Overland Park","KS","Sears","9000 Nieman Rd","66214",38.965427,-94.715078
"66215","Lenexa","KS","Westlake Ace Hardware 045","15225 W 87th Street Pkwy","66219",38.971646,-94.761878
"66215","Lenexa","KS","Eco Lighting Systems Inc.","9868 Pflumm Rd","66215",38.949993,-94.74270899999999
"66215","Lenexa","KS","Prefinish Shol","13700 W 108th St","66215",38.933381,-94.744747
"66215","Lenexa","KS","Kitchens and Baths by Briggs","11009 Strang Line Road","66215",38.92876052856445,-94.75203704833984
"66215","Lenexa","KS","Northern Tool + Equipment","12120 W 95th St","66215",38.959365000000005,-94.72608000000001
"66215","Lenexa","KS","Hornytoadtools","14804 W. 99th","66215",38.94899,-94.757256
"66215","Lenexa","KS","Sherwin-Williams Floorcovering Store","14531 W 101st Ter","66215",38.944025,-94.754968
"66215","Lenexa","KS","Light Bulbs, Etc.","14821 W 99th St","66215",38.948684,-94.757706
"66215","Lenexa","KS","Westlake Ace Hardware","14000 Marshall Dr","66215",38.94447708129883,-94.74552917480469
"66215","Lenexa","KS","City Electric Supply Lenexa","14801 W 99th St","66215",38.94868654567496,-94.75728423372334
"66215","Lenexa","KS","Sherwin-Williams Paint Store","15217 W 87th Street Pkwy","66219",38.97001151086572,-94.76261079311371
"66215","Lenexa","KS","Ferguson HVAC Supply","9851 Lackman Rd","66219",38.9500445333884,-94.7608684924056
"66215","Lenexa","KS","Kansas City Electrical Supply","not_available","66219",38.943046687177926,-94.76154679248131
"66215","Lenexa","KS","reams","not_available","66215",38.947372196991225,-94.75810907830586
"66215","Lenexa","KS","Adamstree Roofing and Construction","9641 Lackman Rd","66219",38.95427322387695,-94.75995635986328
"66215","Lenexa","KS","Ferguson Plumbing Supply","9301 Rosehill Rd","66215",38.960762,-94.731326
"66216","Shawnee","KS","Westlake Ace Hardware 017","12230 W 63rd Street","66216",39.0147049,-94.729438
"66216","Shawnee","KS","Sherwin-Williams Paint Store","13013 Shawnee Mission Pkwy","66216",39.014041999999996,-94.737668
"66216","Shawnee","KS","Nuts And Bolts Shawnee","13229 Shawnee Mission Parkway","66216",39.01342010498047,-94.73944854736328
"66216","Shawnee","KS","Furniture Knowledge","4815 Lynn Ct","66216",39.04039764404297,-94.74510955810547
"66217","Shawnee","KS","Lowe's","16300 West 65th Street","66217",39.0115656,-94.7753871
"66217","Shawnee","KS","The Home Depot","15501 W 67th St","66217",39.0066338,-94.7670243
"66219","Lenexa","KS","Lowdown Hard Ware","S Lennox St","66061",38.918718695640564,-94.79289293289185
"66219","Lenexa","KS","Grainger","14790 W 99th St","66215",38.949723,-94.75813199999999
"66223","Overland Park","KS","Dobbels True Value Hardware","7821 W 151st St","66223",38.852968839629526,-94.67594687814172
"66223","Overland Park","KS","Ppg Paints","not_available","66223",38.855793,-94.679535
"66223","Overland Park","KS","Sherwin-Williams Paint Store","7819 W 151st St","66223",38.852795,-94.67598100000001
"66223","Overland Park","KS","Gerken Rent All","15273 Metcalf Ave","66223",38.850067,-94.667292
"66227","Lenexa","KS","Suburban Lawn & Garden","9160 S K7 Hwy","66227",38.96165084838867,-94.85628509521484
"66404","Baileyville","KS","Heinen True Value Farm Supply","307 Main St","66538",39.84300859,-96.18563324
"66436","Holton","KS","Holton Farm & Home","925 W 6th St","66436",39.465660095214844,-95.7472915649414
"66436","Holton","KS","Tractor Supply Co®","209 Arizona Ave","66436",39.46074108859772,-95.75088880956173
"66441","Junction City","KS","Orscheln","not_available","66441",39.0109708549582,-96.83147010156462
"66441","Junction City","KS","WATERS TRUE VALUE - JUNCTION CITY","129 E 6th St","66441",39.027496337890625,-96.82804870605469
"66441","Junction City","KS","Midwest Ace Hardware & Appliance","602 Caroline Avenue","66441",39.017875,-96.861581
"66441","Junction City","KS","Sherwin-Williams Paint Store","609 W 6th St","66441",39.027968877894864,-96.83996558189392
"66441","Junction City","KS","Star Lumber","2601 Eureka Ter","66503",39.15244883834523,-96.65042669482963
"66441","Junction City","KS","Sears","101 N. Washington Street","66441",39.0232796,-96.8291123
"66441","Junction City","KS","Do It Best Lumber & Decor","201 Grant Ave","66441",39.041788,-96.82747
"66451","Lyndon","KS","Kellerman Lumber Company","not_available","66537",38.702454,-95.688597
"66451","Lyndon","KS","Husqvarna","27337 S 75 HWY","66451",38.571800231933594,-95.69359588623047
"66502","Manhattan","KS","Menards","515 McCall Pl","66502",39.19127327775646,-96.55060827064406
"66502","Manhattan","KS","The Home Depot","605 S Seth Child Rd","66502",39.173583,-96.6013602
"66502","Manhattan","KS","Harbor Freight","626 Tuttle Creek Blvd","66502",39.18468631557584,-96.55665618017463
"66502","Manhattan","KS","Midwest Ace Hardware","800 Tuttle Creek Blvd","66502",39.1866899,-96.559169
"66502","Manhattan","KS","Mead Lumber","Frontage Rd","66502",39.179765,-96.606206
"66502","Manhattan","KS","Waters True Value","409 E Poyntz Ave","66502",39.184953,-96.552543
"66502","Manhattan","KS","Sears","8055 East 24 Hwy, Suite B","66502",39.195100236124446,-96.5284339619713
"66502","Manhattan","KS","Tractor Supply Co.","8110 South Port Rd","66502",39.193361,-96.526436
"66502","Manhattan","KS","Western Extralite","1120 Kretschmer Dr","66502",39.191243,-96.544676
"66502","Manhattan","KS","Ferguson","601 S 11th St","66502",39.173387,-96.572848
"66502","Manhattan","KS","Hard Knocks Small Engine Repair","1701 Fair Ln","66502",39.173908,-96.583498
"66502","Manhattan","KS","Sherwin-Williams Paint Store","320 Tuttle Creek Blvd","66502",39.182103,-96.556591
"66502","Manhattan","KS","Karsmizki Locksmith","not_available","66502",39.175047,-96.580414
"66502","Manhattan","KS","H & H Contracting Inc","2151 Fort Riley Blvd","66502",39.171576,-96.591283
"66502","Manhattan","KS","Waters True Value","338 N Seth Child Rd","66502",39.1831169128418,-96.60936737060547
"66502","Manhattan","KS","Foundation Building Materials","9040 Green Valley Drive","66502",39.19962029,-96.50658672
"66507","Maple Hill","KS","WEHNERS TRUE VALUE","429 Main St","66533",39.137725830078125,-95.95259857177734
"66508","Marysville","KS","Crome Lumber","609 Carolina St","66508",39.843178,-96.649599
"66521","Onaga","KS","Onaga Hardware","319 Leonard Steeet","66521",39.490304,-96.16996
"66521","Onaga","KS","Husqvarna US","PO Box 358","66521",39.49046325683594,-96.20111846923828
"66523","Osage City","KS","Osage Hardware","533 Market St","66523",38.6343,-95.825885
"66523","Osage City","KS","Osage Building Materials","not_available","66523",38.633594,-95.828134
"66534","Sabetha","KS","True Value Hardware","919 Main St","66534",39.90183534,-95.80475092
"66534","Sabetha","KS","Hardware Hank","1106 Main St","66534",39.903645000000004,-95.80405400000001
"66538","Seneca","KS","Suther Building Supply","105 N 1st St","66538",39.83591079711914,-96.05762481689453
"66539","Silver Lake","KS","Roberson Lumber Company","not_available","66539",39.0936,-95.8521
"66547","Wamego","KS","Butler Heating And Air","303 Lincoln St","66547",39.19980347156525,-96.30507946014404
"66547","Wamego","KS","WATERS TRUE VALUE - WAMEGO","1012 Kaw Valley Park Cir","66547",39.208900451660156,-96.31578063964844
"66603","Topeka","KS","Matheson","not_available","66607",39.057111,-95.665634
"66603","Topeka","KS","Husqvarna US","PO Box 916","66601",39.05549621582031,-95.6753921508789
"66603","Topeka","KS","Airgas (gas,welding, & safety products)","not_available","66603",39.059088,-95.66559
"66604","Topeka","KS","Lowe's","1621 Southwest Arvonia Place","66615",39.0375402,-95.7680397
"66604","Topeka","KS","The Home Depot","5900 SW Huntoon St","66604",39.04510768578339,-95.758359968695
"66604","Topeka","KS","Orscheln's Farm & Home","1139 SW Wanamaker Rd","66604",39.04627341117515,-95.76343136714044
"66604","Topeka","KS","Roach True Value Hardware","1321 SW 21st St","66604",39.02932254013032,-95.6951675290773
"66604","Topeka","KS","Nuts And Bolts Topeka","1321 Sw 21st St","66604",39.028996,-95.695171
"66604","Topeka","KS","Sherwin-Williams Paint Store","5930 SW 19th Ter","66604",39.032385,-95.760675
"66604","Topeka","KS","Color Works","4410 SW 21st St","66604",39.029927,-95.730935
"66604","Topeka","KS","Lumber Liquidators Flooring","5907 SW 21st St","66604",39.0287017,-95.7586288
"66605","Topeka","KS","Ace Hardware","2075 SE 29th St","66605",39.01482813926428,-95.64902338540703
"66605","Topeka","KS","minuteKEY","2630 SE California Ave","66605",39.020179748535156,-95.64824676513672
"66605","Topeka","KS","roach hardware","California","not_available",39.030094146728516,-95.66915130615234
"66605","Topeka","KS","Harbor Freight Tools","230 SE 29th St","66605",39.016835,-95.676372
"66605","Topeka","KS","Ferguson","2220 Se Lakewood Blvd","66605",39.027341,-95.674932
"66606","Topeka","KS","minuteKEY","335 SW Macvicar Ave","66606",39.05976867675781,-95.70709228515625
"66607","Topeka","KS","Topeka Vacuum","1417 S Kansas Ave","66612",39.03987407684326,-95.678295
"66608","Topeka","KS","Tractor Supply Co.","710 Hwy 24 East","66608",39.09208077,-95.64777511
"66608","Topeka","KS","Ace Hardware","2050 NW Topeka Blvd","66608",39.08712206192998,-95.66300306037182
"66608","Topeka","KS","Habitat For Humanity Restore","121 NE Gordon St","66608",39.068187,-95.665057
"66608","Topeka","KS","Westlake Ace Hardware","not_available","66608",39.086937,-95.66311
"66608","Topeka","KS","True Value Hdw","230 W Lyman Rd","66608",39.088062,-95.663472
"66608","Topeka","KS","NUTS AND BOLTS - NORTH TOPEKA","230 NW Lyman Rd","66608",39.088077545166016,-95.66349792480469
"66609","Topeka","KS","Tractor Supply Co.","5236 Southwest Topeka Blvd","66609",38.973021,-95.686268
"66609","Topeka","KS","Sherwin-Williams Paints","3401 SW Topeka Blvd","66611",39.00627899169922,-95.68836212158203
"66609","Topeka","KS","Graingers","not_available","66612",39.008175171614646,-95.68395575351279
"66609","Topeka","KS","Sherwin-Williams Paint Store","3373 SW Topeka Blvd","66611",39.00633734776306,-95.688396692276
"66612","Topeka","KS","Plumbing by Carlson, Inc.","1820 SW Van Buren St","66612",39.034754,-95.680012
"66614","Topeka","KS","Menard's","6401 SW 17th St","66615",39.035234519005066,-95.77149964434301
"66614","Topeka","KS","Westlake Ace Hardware 026","5001 SW 29th St","66614",39.014791,-95.738961
"66614","Topeka","KS","Benjamin Moore","2818 SW Gage Blvd","66614",39.015628,-95.72501199999999
"66614","Topeka","KS","Paddock Tool Co Inc","7939 SW 29th St","66614",39.013721000000004,-95.806228
"66617","Topeka","KS","Tarwater Farm & Home Supply","not_available","66617",39.120683,-95.665249
"66618","Topeka","KS","ProBuild","4501 NW US Highway 24","66618",39.08926773071289,-95.73323059082031
"66618","Topeka","KS","Boettcher Supply Co.","not_available","66618",39.079168,-95.723011
"66618","Topeka","KS","Topeka Small Engine Repair","4141 NW 25th St","66618",39.09418,-95.726839
"66618","Topeka","KS","Hydro-Flex Corp","2101 NW Brickyard Rd","66618",39.087001,-95.725652
"66619","Topeka","KS","Premier farm & home","900 SW University Blvd","66619",38.951757,-95.692936
"66701","Fort Scott","KS","Tractor Supply Co.","2420 South Main St","66701",37.810202,-94.706951
"66701","Fort Scott","KS","Heidrick's True Value","1508 S National Ave","66701",37.82382033,-94.70789749
"66701","Fort Scott","KS","Sherwin-Williams Paint Store","301 E Wall St","66701",37.841962,-94.703876
"66701","Fort Scott","KS","Husqvarna US","2355 Locust Rd","66701",37.84220504760742,-94.6757583618164
"66701","Fort Scott","KS","Big Sugar Lumber","1005 S Clark St","66701",37.828194,-94.701192
"66701","Fort Scott","KS","Mayco Ace Hardware","205 Scott Ave","66701",37.839706,-94.705008
"66710","Altoona","KS","Newton Lumber Co","19659 K47 Hwy","66710",37.529168,-95.621696
"66712","Arma","KS","Jim And John's Hardware","not_available","66712",37.5429645589944,-94.71010468011129
"66713","Baxter Springs","KS","Riverton Building Supply","not_available","66770",37.07683181762695,-94.71096801757812
"66713","Baxter Springs","KS","Route 66 True Value","109 E 12th St","66713",37.02366574,-94.73524202
"66720","Chanute","KS","Cleaver Farm & Home","2103 S Sante Fe","66720",37.65976091589789,-95.45303873607327
"66720","Chanute","KS","Sherwin-Williams Paint Store","1429 S Santa Fe Ave","66720",37.66619873046875,-95.45279693603516
"66720","Chanute","KS","Tractor Supply Co.","1601 South Santa Fe Ave","66720",37.664536644352765,-95.45378134306748
"66720","Chanute","KS","Sears","102 East Main Street","66720",37.6820835,-95.4516134
"66720","Chanute","KS","Breiner's Feed and Seed","900 W Main St","66720",37.681879,-95.465158
"66725","Columbus","KS","Columbus True Value","321 E Maple","66725",37.171058,-94.839072
"66736","Fredonia","KS","Fredonia True Value Hardware","700 Madison St","66736",37.5338,-95.82622
"66736","Fredonia","KS","Western Auto","not_available","66757",37.41796,-95.679331
"66739","Galena","KS","RW's Tri State Mower and Saw Shop","418 N Stateline Rd","66739",37.07678,-94.61805
"66739","Galena","KS","Bill's Glass","402 W 7th St","66739",37.075025093990305,-94.64256559092053
"66743","Girard","KS","Heartland Propane","110 Enterprise St","66743",37.5117408,-94.8628664
"66743","Girard","KS","Heidrick's Appliance","107 S Summit Ave","66743",37.5104505,-94.8437594
"66743","Girard","KS","Ace Hardware","615 W Saint John St","66743",37.5137489,-94.851743
"66762","Pittsburg","KS","The Home Depot","3001 N Broadway","66762",37.43816382877405,-94.70765769481659
"66762","Pittsburg","KS","Broadway Lumber","1304 S Broadway St","66762",37.39671710984812,-94.70509443278547
"66762","Pittsburg","KS","Tractor Supply Co.","115 West 28th St","66762",37.43438695942717,-94.70691040740968
"66762","Pittsburg","KS","Ace Hardware","2524 N Broadway St","66762",37.43167776,-94.70400348
"66762","Pittsburg","KS","O'Malley Implement","US 160/US 400/US 69","66762",37.36876378502505,-94.7095288824086
"66762","Pittsburg","KS","Fastenal","122 E 3rd St","66762",37.410572,-94.704057
"66762","Pittsburg","KS","Sherwin-Williams Paint Store","2011 N Broadway St","66762",37.426616997122544,-94.70540696796331
"66762","Pittsburg","KS","Sutherlands Hardware","Frontenac","66763",37.43517687156775,-94.70224606916855
"66762","Pittsburg","KS","General Machinery","510 N Elm St","66762",37.41278839111328,-94.70171356201172
"66762","Pittsburg","KS","TH Rogers","1803 N Broadway St","66762",37.423001,-94.705717
"66762","Pittsburg","KS","Locke Supply - Pittsburg","202 E 29th St","66762",37.43643569946289,-94.70275115966797
"66776","Thayer","KS","Schwartz Supply","not_available","67341",37.383977,-95.491562
"66801","Emporia","KS","Bluestem Farm & Ranch Supply","2611 W Hwy 50","66801",38.405852,-96.213838
"66801","Emporia","KS","Tractor Supply Co.","1318 Industrial Rd","66801",38.41339874267578,-96.21634674072266
"66801","Emporia","KS","Husqvarna US","PO Box 1064","66801",38.409332275390625,-96.18734741210938
"66801","Emporia","KS","Waters True Value","801 W 6th Ave","66801",38.404405,-96.192162
"66801","Emporia","KS","Mark 2","not_available","66801",38.40297993873772,-96.17120002992003
"66801","Emporia","KS","Builders Choice Concrete","1001 W 4th Ave","66801",38.405247,-96.197793
"66801","Emporia","KS","Waters Hardware","2727 W US Highway 50","66801",38.406155,-96.216653
"66801","Emporia","KS","Sutherlands","1700 Industrial Rd","66801",38.418844,-96.216048
"66801","Emporia","KS","Sherwin-Williams Paint Store","1328 W 6th Ave","66801",38.405174957618456,-96.1969223036656
"66801","Emporia","KS","Husqvarna","2026 W 6th Ave","66801",38.405521392822266,-96.20684051513672
"66801","Emporia","KS","Husqvarna","2611 W US Highway 50","66801",38.40570831298828,-96.21363830566406
"66838","Burdick","KS","Husqvarna","102 W OWENS AVE","66838",38.563262939453125,-96.84703063964844
"66839","Burlington","KS","CHRISMAN TRUE VALUE","1125 N 4th St","66839",38.20603561401367,-95.73807525634766
"66845","Cottonwood Falls","KS","Clark Farm & Home Store True Value","4th & Cottonwood","66869",38.3956,-96.5391
"66846","Council Grove","KS","Adams Homestore","203 E Main St","66846",38.66151809692383,-96.48518371582031
"66846","Council Grove","KS","Ace Hardware","415 W Main St","66846",38.660217,-96.493484
"66861","Marion","KS","Ace Hardware","1228 Commercial Dr","66861",38.363501,-97.007983
"66866","Peabody","KS","Peabody Hardware & Lumber","not_available","66866",38.16579,-97.106477
"66901","Concordia","KS","Orscheln Farm & Home","1620 Lincoln Street","66901",39.560954,-97.658608
"66901","Concordia","KS","Sherwin-Williams Paint Store","114 E 6th St","66901",39.571277,-97.65864499999999
"66935","Belleville","KS","Belleville Hometown Lumber","2409 Us 81 Hwy","66935",39.83661,-97.63501
"66935","Belleville","KS","True Value","not_available","66935",39.817203521728516,-97.64378356933594
"66935","Belleville","KS","BELLEVILLE HOMETOWN LUMBER","2409 US 81 HWY","66935",39.81832504272461,-97.6310806274414
"66935","Belleville","KS","Husqvarna","1760 LINCOLN RD","66935",39.855926513671875,-97.62090301513672
"66938","Clyde","KS","Ace Hardware","312 Washington St","66938",39.59089660644531,-97.39752197265625
"66953","Linn","KS","Husqvarna US","301 N Main St","66953",39.68017578125,-97.0856704711914
"66953","Linn","KS","Kuhlman Implement","not_available","66953",39.682000211691886,-97.08608565502551
"66967","Smith Center","KS","Top Shelf Lumber & Hardware True Value","300 S Main St","66967",39.775209999999994,-98.785423
"66967","Smith Center","KS","Center Glass","640 E Highway 36","66967",39.78547286987305,-98.77690887451172
"66967","Smith Center","KS","Husqvarna","815 W Highway 36","66967",39.783851623535156,-98.7957534790039
"66968","Washington","KS","Washington Lumber","not_available","66968",39.818398,-97.049715
"67002","Andover","KS","Westlake Ace Hardware 114","642 N Andover Rd","67002",37.6973089,-97.134414
"67002","Andover","KS","Sherwin-Williams Automotive Finishes","415 E Commerce St","67002",37.704925,-97.131668
"67002","Andover","KS","Andover Rental Center","328 N Andover Rd, Andover, KS 67002","67002",37.691338068920174,-97.13506745304012
"67002","Andover","KS","Sherwin-Williams Paint Store","418 N Andover Rd","67002",37.692678941077524,-97.13492548581999
"67003","Anthony","KS","PrairieLand Partners","501 W Main St","67003",37.15273666381836,-98.0357666015625
"67003","Anthony","KS","Farm & Ranch Hand","9 NW 10 Ave","67003",37.15305709838867,-98.05909729003906
"67005","Arkansas City","KS","Westlake Ace Hardware","2013 N. Summit","67005",37.084541524873316,-97.0416858099284
"67005","Arkansas City","KS","Westlake Ace Hardware 064","2013 N Summit St","67005",37.0563289,-97.039016
"67005","Arkansas City","KS","Sherwin-Williams Paint Store","2010 N Summit St","67005",37.084596,-97.039558
"67005","Arkansas City","KS","Quality Water Service","3122 N Summit St","67005",37.095927,-97.039709
"67010","Augusta","KS","Augusta Ace Home Center","316 W 7th Ave","67010",37.67972946166992,-96.98287200927734
"67010","Augusta","KS","Tractor Supply Co.","10025 Southwest Diamond Rd","67010",37.678705,-97.027368
"67010","Augusta","KS","Augusta Saw And Mower","634 State St","67010",37.67879013867534,-96.97875582561637
"67010","Augusta","KS","Zipper Mowers","411 Osage St","67010",37.675466,-96.976878
"67010","Augusta","KS","Augusta Rental","529 N Walnut St","67010",37.6771776083221,-96.98149937658162
"67013","Belle Plaine","KS","Rothgeb Belle Plaine Lumber","415 N Logan St","67013",37.3930778503418,-97.27632904052734
"67017","Benton","KS","Husqvarna","134 N Main St","67017",37.78972244262695,-97.10765838623047
"67020","Burrton","KS","The Hardware Haven","104 N Kansas St","67543",37.9013671875,-97.78225708007812
"67022","Caldwell","KS","Home Lumber Co.","not_available","67022",37.034264,-97.60672
"67025","Cheney","KS","Robinson's Hardware","N. Main St.","67025",37.63346984332054,-97.7785664715869
"67029","Coldwater","KS","Home Lumber & Supply","107 N New York St","67029",37.270698,-99.326465
"67037","Derby","KS","Lowe's","424 West Patriot Avenue","67037",37.578204,-97.2785144
"67037","Derby","KS","Fastenal","not_available","67037",37.550878000000004,-97.26974399999999
"67037","Derby","KS","JP Service","631 N Buckner St","67037",37.549141,-97.271808
"67037","Derby","KS","Sutherlands","3426 E MacArthur Rd","67216",37.621781,-97.296198
"67037","Derby","KS","Century Instrument Corporation","not_available","67210",37.612384,-97.29121
"67037","Derby","KS","Sherwin-Williams Paint Store","1220 N Rock Rd","67037",37.558112,-97.24371
"67039","Douglass","KS","Douglass Hardware Store","not_available","67039",37.51899,-97.01864
"67042","El Dorado","KS","Sutherlands","2850 W Central Ave","67042",37.818346000000005,-96.89326899999999
"67042","El Dorado","KS","Wolseley Industrial Group","2000 S Haverhill Rd","67042",37.79549,-96.88041
"67042","El Dorado","KS","Sherwin-Williams Paint Store","2420 W Central Ave","67042",37.81850051879883,-96.88327026367188
"67042","El Dorado","KS","Charley's Appliance, Inc.","130 North Main","67042",37.81844230000001,-96.84937719999999
"67042","El Dorado","KS","Morrow Exteriors & Glass","417 N Main St","67042",37.82247849,-96.8524332
"67042","El Dorado","KS","El Dorado Ace Hardware","609 N Main St","67042",37.823811,-96.85078
"67045","Eureka","KS","Home Lumber","not_available","67045",37.820847,-96.292576
"67052","Goddard","KS","Goddard Ace Hardware","19894 W Kellogg Dr","67052",37.6648629,-97.566186
"67052","Goddard","KS","Wilson Appliance","not_available","67052",37.66312789916992,-97.53346252441406
"67054","Greensburg","KS","BTI Greensburg","15479 US-54","67054",37.608394622802734,-99.26815795898438
"67056","Halstead","KS","Troy's True Value","136 N Main St","67056",38.004736,-97.505602
"67059","Haviland","KS","Haviland Hardware","114 N Main St","67059",37.615944,-99.106147
"67060","Haysville","KS","Haysville True Value Hardware","325 N Main","67060",37.5690792,-97.35285059
"67060","Haysville","KS","Husqvarna","7560 S Broadway Ave","67060",37.557456970214844,-97.33385467529297
"67060","Haysville","KS","Husqvarna","7048 S Broadway Ave","67060",37.56632995605469,-97.33334350585938
"67062","Hesston","KS","Hesston True Value","141 N Main St","67062",38.139381408691406,-97.4320068359375
"67063","Hillsboro","KS","Alco","Hwy 56 & Ash Street","67063",38.36184570399796,-97.20667830965938
"67063","Hillsboro","KS","HILLSBORO TRUE VALUE","125 N Main St","67063",38.354286193847656,-97.2049331665039
"67063","Hillsboro","KS","Circle D Corporation","613 N Ash St","67063",38.36105835389013,-97.2064733505249
"67063","Hillsboro","KS","Countryside Feed","101 Santa Fe St","67063",38.36247995123135,-97.18395362527548
"67063","Hillsboro","KS","Husqvarna","603 Orchard Dr","67063",38.35965347290039,-97.21173858642578
"67066","Iuka","KS","BTI Pratt","18 NW 30th St","67124",37.6910589,-98.74071730000001
"67068","Kingman","KS","Husqvarna","735 E D Ave","67068",37.64606857299805,-98.10164642333984
"67068","Kingman","KS","Dixon's True Value","325 N Main St","67068",37.64447959,-98.1132
"67101","Maize","KS","TMC's Ace Hardware","5204 N Maize Rd","67101",37.778194427490234,-97.46249389648438
"67101","Maize","KS","ICW Sales & Services","405 E Albert St","67101",37.777294,-97.463766
"67108","Mount Hope","KS","Schmidt & Sons","12903 E Silver Lake Rd","67108",37.7923,-97.7349
"67109","Mullinville","KS","Kiowa Supply","not_available","67109",37.586082458496094,-99.47600555419922
"67114","Newton","KS","Tractor Supply Co.","715 Southeast 36th St","67114",37.99631118774414,-97.32756042480469
"67114","Newton","KS","Sears","505 N. Poplar","67114",38.047906067695344,-97.34745696948261
"67114","Newton","KS","Sherwin-Williams Paint Store","129 E 6th St","67114",38.048175556318924,-97.3436951637268
"67114","Newton","KS","Orscheln","321 Windward Dr, Newton, KS 67114","67114",38.02143096923828,-97.33978271484375
"67114","Newton","KS","CHISHOLM TRAIL TRUE VALUE HARDWARE","507 SE 36th St","67114",37.99831008911133,-97.33560180664062
"67114","Newton","KS","Graber's Ace Hardware","208 W Broadway St","67114",38.049709,-97.347323
"67118","Norwich","KS","Mainstreet Hardware","301-399 Main St.","67118",37.458271980285645,-97.84997284412384
"67124","Pratt","KS","Skaggs Ace Hardware","107 S Main St","67124",37.6462039,-98.739521
"67124","Pratt","KS","Tractor Supply Co.","1727 East 1st St","67124",37.644443,-98.716979
"67124","Pratt","KS","Mead Lumber","1500 E 1st St","67124",37.64595031738281,-98.7210464477539
"67135","Sedgwick","KS","M&M Repair","410 N Commercial Ave","67135",37.91657257080078,-97.42411804199219
"67135","Sedgwick","KS","Hales Sales & Service","804 SE 125th St","67135",37.913867495923746,-97.33011245727539
"67135","Sedgwick","KS","Husqvarna","11244 N Ridge Rd","67135",37.888099670410156,-97.42655944824219
"67147","Valley Center","KS","Atwoods","not_available","67219",37.79763928439668,-97.33689614001904
"67147","Valley Center","KS","Valley Center True Value (Troy's True Value)","506 S Meridian Ave","67147",37.827382,-97.37105799999999
"67147","Valley Center","KS","PARK CITY TRUE VALUE","6247 N HYDRAULIC ST","67219",37.7972412109375,-97.31803894042969
"67152","Wellington","KS","Mill Creek Lumber","623 E 16th St","67152",37.276023864746094,-97.39148712158203
"67156","Winfield","KS","Sears","110 E 9th Ave","67156",37.240841,-96.996783
"67156","Winfield","KS","Winfield Livestock Auction","not_available","67156",37.2436349319631,-97.03849447307438
"67156","Winfield","KS","Sears","912 Main Street","67156",37.239732,-96.996796
"67202","Wichita","KS","Team Electric Supply Inc.","710 S Washington Ave","67211",37.682977050985336,-97.32894825568167
"67202","Wichita","KS","Aqua Pool Warehouse","not_available","67202",37.694003,-97.328568
"67202","Wichita","KS","Wichita Fastners","115 N Oak St","67203",37.684686,-97.348485
"67202","Wichita","KS","The Yard","725 E Central Ave","67202",37.693202,-97.329504
"67203","Wichita","KS","Westlake Ace Hardware 117","2439 W 13th St N","67203",37.70842330760121,-97.37094114201967
"67203","Wichita","KS","Sutherlands","2263-2273 N Amidon Ave","67204",37.723906,-97.36489
"67203","Wichita","KS","S&D Equipment","not_available","67203",37.68555,-97.389839
"67203","Wichita","KS","Sherwin-Williams Paint Store","4040 W Central Ave","67212",37.695161999999996,-97.390576
"67204","Wichita","KS","AAT","not_available","67204",37.78175,-97.351136
"67204","Wichita","KS","Rental Ranch","1578 W 29th St N","67204",37.73781,-97.36051
"67205","Wichita","KS","Menards","3660 N Maize Rd","67205",37.74888005116805,-97.4614197843168
"67205","Wichita","KS","Lowe's","2626 North Maize Road","67205",37.7307432,-97.4605584
"67205","Wichita","KS","Sherwin-Williams Paint Store","2240 N Tyler Rd","67205",37.72443,-97.443831
"67205","Wichita","KS","Batteries Plus Bulbs","7447 W 21st St N Ste 133","67205",37.722616,-97.42933
"67206","Wichita","KS","Sherwin-Williams Paint Store","832 N Webb Rd","67206",37.69847,-97.225584
"67206","Wichita","KS","Porter Paints","6334 Crestmark St","67208",37.72082941168196,-97.26050504570892
"67206","Wichita","KS","NEITZEL TRUE VALUE FARM&HOME","11208 E Lewis St","67207",37.68141174316406,-97.20752716064453
"67207","Wichita","KS","Lowe's","11959 East Kellogg Drive","67207",37.6771561,-97.198787
"67207","Wichita","KS","Ace Hardware","1230 S Woodlawn Blvd","67218",37.66512131701733,-97.26082563400269
"67207","Wichita","KS","Locke Supply","not_available","67207",37.665439,-97.260716
"67207","Wichita","KS","Husqvarna","1205 S Rock Rd","67207",37.666282653808594,-97.2450180053711
"67208","Wichita","KS","Westlake Ace Hardware 113","6230 E Central Ave","67208",37.69453,-97.263572
"67209","Wichita","KS","The Home Depot","8444 W McCormick Ave","67209",37.67397881056235,-97.43982768333808
"67209","Wichita","KS","Lowe's","333 South Ridge Road","67209",37.6787416,-97.4276995
"67209","Wichita","KS","Tractor Supply Co.","9425 West Kellogg","67209",37.667276169618155,-97.45155190630813
"67209","Wichita","KS","Star Lumber","325 S West St","67213",37.679703,-97.390722
"67209","Wichita","KS","American Fence Co.","2909 S West St","67217",37.642237,-97.389811
"67209","Wichita","KS","Locke Supply","not_available","67213",37.669933,-97.389993
"67209","Wichita","KS","Northern","not_available","67209",37.65770747230309,-97.42465014365341
"67209","Wichita","KS","Hardcore Hardware","W Grant St","67209",37.651535,-97.469814
"67209","Wichita","KS","Northern Tool + Equipment","6610 W Kellogg Dr","67209",37.67477978054203,-97.4191382657938
"67209","Wichita","KS","Emser Tile & Natural Stone","2333 S West St Ste 301","67213",37.65297547651012,-97.39034414291382
"67211","Wichita","KS","Hillside Feed & Seed","1805 S Hillside St","67211",37.660584,-97.29928000000001
"67211","Wichita","KS","Self's Incorporated","not_available","67211",37.656308,-97.32936600000001
"67211","Wichita","KS","Overhead Door Company","333 S Laura St","67211",37.681519,-97.324078
"67211","Wichita","KS","Hupp True Value Hardware","728 E Harry St","67211",37.664712,-97.329223
"67211","Wichita","KS","Phoenix Supply","1826 S Pattie St","67211",37.65958786010742,-97.32195281982422
"67211","Wichita","KS","Madill Carbide","1504 E Waterman St","67211",37.68609069862542,-97.32121291413014
"67211","Wichita","KS","The Tap Of Kansas","620 S Washington St","67211",37.676854999999996,-97.3258
"67212","Wichita","KS","Ace Hardware","8829 W Central Ave","67212",37.69308772234679,-97.44520052883765
"67212","Wichita","KS","Porter Paint","not_available","67212",37.707288,-97.444651
"67213","Wichita","KS","Harbor Freight Tools","2487 S Seneca St","67217",37.64996916904624,-97.35474435977498
"67213","Wichita","KS","M6 Concrete Accessories","1040 S West St","67213",37.669736,-97.38877099999999
"67213","Wichita","KS","Star Lumber","3700 W Irving St","67213",37.67218854210471,-97.38495683663282
"67213","Wichita","KS","Pioneer Materials","1916 Kessler South Street","67213",37.65919445,-97.3851702
"67213","Wichita","KS","Maximum Outdoor Equipment & Service","1002 S West St","67213",37.670947999999996,-97.388533
"67213","Wichita","KS","Foley Rental","1210 S West St","67213",37.668525,-97.388338
"67213","Wichita","KS","Ferguson Plumbing Supply","2222 W Harry St","67213",37.66611347578733,-97.36878310747257
"67213","Wichita","KS","GRAINGER","1920 S West St","67213",37.660241,-97.38844499999999
"67213","Wichita","KS","Valley Feed & Seed Inc","1903 S Meridian Ave","67213",37.660145,-97.371667
"67213","Wichita","KS","Wichita Granite & Cabinetry","1800 S West St","67213",37.6617,-97.388549
"67213","Wichita","KS","Berry Tractor & Equipment Co","930 S West St","67213",37.67237389922954,-97.3884129524231
"67213","Wichita","KS","Husqvarna","1624 S Seneca St","67213",37.66520690917969,-97.35237884521484
"67214","Wichita","KS","Westlake Ace Hardware 055","3110 E Douglas Ave","67214",37.686314,-97.300021
"67214","Wichita","KS","CED","not_available","67214",37.703554,-97.326199
"67214","Wichita","KS","Wichita Pump And Supply","1010 E 14th St N","67214",37.710087332292915,-97.32607442338721
"67214","Wichita","KS","Friesen Tool Co., Inc.","233 N Ohio Ave","67214",37.688589,-97.324148
"67214","Wichita","KS","The Yard Store","715 E 10th St N","67214",37.702449798583984,-97.32974243164062
"67214","Wichita","KS","Sherwin-Williams Commercial Paint Store","1705 N Wabash Ave","67214",37.714283,-97.325725
"67214","Wichita","KS","Lampton Welding Supply","601 N Washington Ave","67214",37.69862446173974,-97.32726085318205
"67214","Wichita","KS","Ferguson Bath, Kitchen & Lighting Gallery","1210 E Douglas Ave","67214",37.68645477294922,-97.323486328125
"67214","Wichita","KS","Spectrum Paint","2310 E Douglas Ave","67214",37.68657684326172,-97.30875396728516
"67214","Wichita","KS","ABC Supply","1321 E 1st St N","67214",37.68782424926758,-97.32220458984375
"67215","Wichita","KS","B & B Lumber","10808 West 39th Street South","67215",37.62241744995117,-97.46499633789062
"67215","Wichita","KS","Integrated Components","2525 S Leonine Rd","67217",37.648546,-97.38266
"67216","Wichita","KS","Probuild Wichita KS","125 W MacArthur Rd, Wichita, KS 67216","67216",37.6214599609375,-97.3372573852539
"67217","Wichita","KS","Westlake Ace Hardware 056","2559 S Seneca St Ste 10","67217",37.64859248080417,-97.35366822790063
"67217","Wichita","KS","Ralph's Custom Cabinetry","not_available","67217",37.587070548813685,-97.34910540665686
"67217","Wichita","KS","Sherwin-Williams Paint Store","901 W 31st St S","67217",37.63578104440569,-97.35054016113281
"67218","Wichita","KS","Ace Hardware","4183 E Harry St","67218",37.664017231808955,-97.288076877594
"67220","Wichita","KS","The Home Depot","3350 N Woodlawn","67220",37.744288002569306,-97.26122572516033
"67220","Wichita","KS","Harbor Frieght","not_available","67220",37.746179,-97.261426
"67220","Wichita","KS","Sherwin-Williams Paint Store","3839 N Woodlawn Blvd","67220",37.75379359989893,-97.26293921470642
"67226","Wichita","KS","Menard's","3250 N Toben St","67226",37.744141883703016,-97.23070116966204
"67226","Wichita","KS","Mo Jack Distributors","3535 N Rock Rd","67226",37.73558367994226,-97.24718917094808
"67226","Wichita","KS","Sears","3535 N Rock Road, Ste #100","67226",37.7476522,-97.2475799
"67226","Wichita","KS","The Workbench","8555 E 32nd St N","67226",37.7424430847168,-97.23770904541016
"67226","Wichita","KS","Oreck","3101 N Rock Rd Ste 165","67226",37.74028618570175,-97.2456144053299
"67226","Wichita","KS","Star Lumber","2721 N. Greenwich","67226",37.731788605402905,-97.20862063190837
"67230","Wichita","KS","Absolute Natural Stone","15550 E Kellogg Dr","67207",37.679812579721094,-97.1601676940918
"67232","Wichita","KS","Yellow Barn","not_available","67232",37.640356,-97.169556
"67301","Independence","KS","Hartley Sheet Metal","106 W 5th St","67337",37.039912,-95.615754
"67301","Independence","KS","Fastenal","1306 W 11th St","67337",37.033478,-95.637104
"67301","Independence","KS","Liebert Bros. Electric Co.","315 W 8th St","67337",37.03581619262695,-95.6203384399414
"67301","Independence","KS","Coffeyville Farm and Feed","1223 W 8th St","67337",37.03589813886586,-95.63610408956139
"67301","Independence","KS","Kansas Lumber","402 Walnut St","67337",37.03994051067403,-95.61571074289365
"67301","Independence","KS","SMC Supply","602 E 8th St","67337",37.036256,-95.607251
"67301","Independence","KS","Coffeyville Ace Hardware","1318 W 8th","67337",37.0349819,-95.639683
"67301","Independence","KS","Isham True Value Hardware","811 Union St","67337",37.03547668457031,-95.61505126953125
"67301","Independence","KS","Husqvarna","202 W 10th St","67337",37.03408432006836,-95.61739349365234
"67301","Independence","KS","Orschelns Farm And Home","not_available","67301",37.2347128253529,-95.7071533613371
"67301","Independence","KS","Sayers Ace Hardware Inc.","314 N Penn Ave","67301",37.226072,-95.706461
"67301","Independence","KS","Sears","300 North Penn","67301",37.22565981922657,-95.70641040802002
"67301","Independence","KS","Sherwin-Williams Paint Store","1802 W Main St","67301",37.223776078970474,-95.72911262512207
"67301","Independence","KS","Newton True Value Hardware","2801 W Main","67301",37.22420883178711,-95.74053192138672
"67301","Independence","KS","Husqvarna","1 1/2 MILES E ON HWY 160","67301",37.2255744934082,-95.7418212890625
"67330","Altamont","KS","Thomas Implement","US Highway 59","67330",37.19446111387543,-95.26774229662745
"67330","Altamont","KS","Altamont Builders Supply","not_available","67330",37.19047927856445,-95.29647827148438
"67333","Caney","KS","Caney Paint And Supply","not_available","67333",37.011694,-95.936311
"67335","Cherryvale","KS","Newtons True Value Hardware","116 W Main St","67335",37.26902389526367,-95.55241394042969
"67336","Chetopa","KS","Bartlett Co-op","not_available","67336",37.03646612575867,-95.10256777912711
"67337","Coffeyville","KS","Sherwin-Williams Paint Store","411 W 11th St","67337",37.032578077200384,-95.62166333198547
"67354","Mound Valley","KS","Mound Valley Co-op","not_available","67354",37.20874,-95.403028
"67356","Oswego","KS","Labette Hardware","723 4th St","67356",37.16744613647461,-95.1084976196289
"67356","Oswego","KS","Trotnic Lumber Supply","not_available","67356",37.168462,-95.109207
"67357","Parsons","KS","Orscheln Farm & Home","211 East Main Street","67357",37.341174,-95.234743
"67357","Parsons","KS","Ace Hardware Inc","200 N 18th St","67357",37.341852,-95.262572
"67357","Parsons","KS","Fastenal","225 Main St","67357",37.341021999999995,-95.235226
"67357","Parsons","KS","Sherwin-Williams Paint Store","2531 Main St","67357",37.340829,-95.275137
"67357","Parsons","KS","Grand True Value Rental Of Parsons","2925 Main St","67357",37.3403668182,-95.2805465909
"67401","Salina","KS","Ace Home Center","321 S Broadway Blvd","67401",38.835703,-97.625012
"67401","Salina","KS","Lowe's","3035 South 9th Street","67401",38.7821739,-97.6093261
"67401","Salina","KS","Menards","not_available","67401",38.794910831896395,-97.61950483758811
"67401","Salina","KS","WATERS TRUE VALUE - SALINA","460 S Ohio St","67401",38.833744049072266,-97.59635162353516
"67401","Salina","KS","Orscheln Farm & Home","360 N Ohio St #57","67401",38.846823,-97.593193
"67401","Salina","KS","Mighty Duct Air System Cleaning","205 S Simpson Rd","67401",38.838086389805135,-97.53941059112549
"67401","Salina","KS","Harbor Freight Tools","1808 S 9th St","67401",38.811607360839844,-97.61394500732422
"67401","Salina","KS","Hometown Outdoor Power","821 N Broadway Blvd","67401",38.85546,-97.614
"67401","Salina","KS","Comfort Heating And Air","720 N Broadway Blvd","67401",38.852833,-97.616722
"67401","Salina","KS","minuteKEY","805 Virginia Ave","67401",38.794465,-97.620336
"67401","Salina","KS","Tractor Supply Co.","3120 Riffel Dr","67401",38.780409999999996,-97.613975
"67401","Salina","KS","Sherwin-Williams Paint Store","2134 Planet Ave","67401",38.80411576922762,-97.61393308639526
"67401","Salina","KS","Husqvarna","820 N 13th St","67401",38.85538101196289,-97.6168212890625
"67410","Abilene","KS","Lumber House True Value","1903 N Buckeye Ave","67410",38.916051,-97.219206
"67410","Abilene","KS","Pioneer Farm and Ranch","427 NE 14th St","67410",38.92993927001953,-97.20755767822266
"67410","Abilene","KS","Husqvarna US","1701 W 1st St","67410",38.91485595703125,-97.24254608154297
"67410","Abilene","KS","RHV Hardware","302 N Buckeye","67410",38.917648726825334,-97.21309653351516
"67420","Beloit","KS","Curt's Home Improvement","3075 US 24 Hwy","67420",39.47747039794922,-98.09998321533203
"67420","Beloit","KS","Husqvarna US","223 N MILL","67420",39.451141357421875,-98.11007690429688
"67420","Beloit","KS","Ackerman True Value Hardware","3147 U.S. Hwy 24","67420",39.48128,-98.11682
"67420","Beloit","KS","Alco","1026 N Independence Ave","67420",39.46974575133035,-98.11545369646957
"67420","Beloit","KS","Solomon Valley Home Center","3128 US 24 Hwy","67420",39.46009826660156,-98.09231567382812
"67420","Beloit","KS","Zachary Ace Hardware","223 W Main St","67420",39.4592069,-98.110026
"67420","Beloit","KS","ACKERMAN TRUE VALUE HDW","3147 US 24 Hwy","67420",39.45621109008789,-98.08827209472656
"67422","Bennington","KS","North Central Steel Company Inc.","1349 Golden Rd","67467",39.057918548583984,-97.67539978027344
"67427","Bushton","KS","Air Duct Cleaning Valencia","23515 Lyons Ave #750","91355",38.46385507813287,-98.32109212875366
"67432","Clay Center","KS","Walls True Value Hardware","423 Lincoln Ave","67432",39.37657,-97.127358
"67432","Clay Center","KS","Gibson's Ace Hardware","728 W Crawford St","67432",39.3805,-97.1216
"67439","Ellsworth","KS","Nemnich True Value","212 N Douglas Ave","67439",38.72969834,-98.23074752
"67439","Ellsworth","KS","Home Lumber","not_available","67439",38.730297,-98.234159
"67456","Lindsborg","KS","Lindsborg Hardware","115 N Main St","67456",38.574059866666666,-97.67594788333334
"67460","Mcpherson","KS","Tractor Supply Co.","1330 North Main St","67460",38.38437787374615,-97.66544982572556
"67460","Mcpherson","KS","Orscheln Farm & Home Office","2204 East Kansas Avenue","67460",38.3691628064841,-97.62587562441585
"67460","Mcpherson","KS","Cyclone Discount","1325 N US Highway 81 Byp","67460",38.382877349853516,-97.68389892578125
"67460","Mcpherson","KS","McPherson True Value Home Center","300 N Centennial Dr","67460",38.37010046,-97.63004369
"67460","Mcpherson","KS","Stanion Wholesale Electric","811 N Hickory St","67460",38.37788,-97.67613
"67460","Mcpherson","KS","Lampton Welding Supply","416 W Kansas Ave","67460",38.36891174316406,-97.67313385009766
"67460","Mcpherson","KS","Jantz Lumber","200 W Euclid St","67460",38.37175750732422,-97.66860961914062
"67460","Mcpherson","KS","Lee Tools & Supply","113 W 1st St","67460",38.376264,-97.667583
"67460","Mcpherson","KS","Sherwin-Williams Paint Store","220 N Main St","67460",38.3713988565014,-97.666656074352
"67460","Mcpherson","KS","Graber's Ace Hardware","319 N Main St","67460",38.37227,-97.667312
"67467","Minneapolis","KS","Hometown True Value Hardware","317 W 2nd St","67467",39.12236,-97.70843449
"67473","Osborne","KS","Ackerman True Value Supply","1119 U.S. Hwy 24","67473",39.45276939,-98.69724755
"67473","Osborne","KS","ACKERMAN TRUE VALUE SUPPLY","1119 W US Highway 24","67473",39.479862213134766,-98.6963882446289
"67501","Hutchinson","KS","Lowe's","1930 East 17th Avenue","67501",38.0737419,-97.890541
"67501","Hutchinson","KS","The Home Depot","1907 E 17th Avenue","67501",38.0679007,-97.893058
"67501","Hutchinson","KS","Westlake Ace Hardware 028","215 S Main St","67501",38.0495009,-97.93213
"67501","Hutchinson","KS","Agri Center","5104 Kansas 96","67501",38.0145708,-97.92596063333333
"67501","Hutchinson","KS","Ebeling Pools","513 S Walnut St","67501",38.04539680480957,-97.93034255504608
"67501","Hutchinson","KS","Sherwin-Williams Paint Store","532 E 30th Ave","67502",38.08710609233232,-97.91975855827332
"67501","Hutchinson","KS","PrairieLand Partners","1800 S Lorraine St","67501",38.031097412109375,-97.90234375
"67501","Hutchinson","KS","Morrison Supply","220 S Washington St","67501",38.04887258570723,-97.93297111988073
"67501","Hutchinson","KS","Yoder Hardware and Lumber","not_available","67543",37.94023519308307,-97.86947892115607
"67501","Hutchinson","KS","Ferguson Plumbing Supply","638 W First St","67501",38.05971077100129,-97.93331124867076
"67501","Hutchinson","KS","color by design","not_available","67502",38.085750579833984,-97.90599060058594
"67501","Hutchinson","KS","Westlake Ace Hardware 027","1304 N Main St","67501",38.067301,-97.932329
"67501","Hutchinson","KS","Star Lumber And Supply","1035 E 30th Ave","67502",38.085655212402344,-97.91034698486328
"67501","Hutchinson","KS","Tractor Supply Co.","1203 North Lorraine St","67501",38.06640071560725,-97.90441476851295
"67501","Hutchinson","KS","CK's Lock & Key","832 W 4th Ave","67501",38.056998,-97.948153
"67501","Hutchinson","KS","Kingman True Value","133 E Ave A","67068",38.05481429,-97.81645638
"67501","Hutchinson","KS","Cheney Door Co.","136 S Lulu St.","67211",38.07191,-97.877033
"67501","Hutchinson","KS","A & A Appliance, Inc.","429 E 3RD","67501",38.0556335,-97.9226977
"67501","Hutchinson","KS","Knightlingers Home Center","316 Spencer St","67501",38.057029,-97.90490600000001
"67501","Hutchinson","KS","Husqvarna","929 E 4th Ave","67501",38.0571403503418,-97.91136932373047
"67501","Hutchinson","KS","Husqvarna","6805 W State Road 61","67501",38.05242919921875,-97.90657043457031
"67516","Bazine","KS","Circle C Country Supply","507 S Lawrence St","67516",38.4503393,-99.6935709
"67523","Burdett","KS","Delaney Implement Co Inc","502 Broadway Ave","67523",38.188917,-99.523513
"67526","Ellinwood","KS","Husqvarna","248 SE 100 Ave","67526",38.35612106323242,-98.5904769897461
"67530","Great Bend","KS","Sutherlands","10th","67530",38.36233575258554,-98.8076575627921
"67530","Great Bend","KS","Ace Hardware","4903 10th St","67530",38.3601921,-98.8007869
"67530","Great Bend","KS","WATERS TRUE VALUE - GREAT BEND","1649 State Road 96","67530",38.3680419921875,-98.80558013916016
"67530","Great Bend","KS","Sears","2515 - 10th Street","67530",38.3609227,-98.77255989999999
"67530","Great Bend","KS","Kansas Brick & Tile","767 N US Highway 281","67544",38.47249221801758,-98.77708435058594
"67530","Great Bend","KS","The Color Clinic","700 Main St, Great Bend, KS 67530","67530",38.35834884643555,-98.76463317871094
"67530","Great Bend","KS","BTI Great Bend","248 SE 10 Ave","67530",38.3604024,-98.76271679999999
"67530","Great Bend","KS","Lawn Ranger","715 S Patton Rd, Great Bend, KS 67530","67530",38.3621311,-98.7985613
"67530","Great Bend","KS","Abbey Carpet & Floor","1500 U.S. 281 Bypass","67530",38.366282,-98.755356
"67530","Great Bend","KS","Sherwin-Williams Paint Store","3112 10th St","67530",38.36214764547886,-98.78113490693968
"67530","Great Bend","KS","Kansas Doors & Exteriors, Inc.","5223 10th St","67530",38.361686226431395,-98.8042347744787
"67530","Great Bend","KS","Husqvarna","1720 Main St","67530",38.36933898925781,-98.76498413085938
"67530","Great Bend","KS","Kansas Siding Supply","1222 10th St, Great Bend, KS 67530","67530",38.36216433722818,-98.75421797773272
"67548","La Crosse","KS","Enslinger's Lumber","not_available","67548",38.53259,-99.310296
"67550","Larned","KS","Doerrs Ace Hardware","602 Broadway St","67550",38.179846999999995,-99.098031
"67552","Lewis","KS","Surelock","507 Sunnyside Dr","67552",37.93505859375,-99.2598876953125
"67554","Lyons","KS","Ace Hardware","1121 W Main St","67554",38.347808,-98.217702
"67554","Lyons","KS","Woydziak Hardware","109 West Ave S","67554",38.347444,-98.20508000000001
"67560","Ness City","KS","BTI Ness City","118 S 7th St","67560",38.45376968383789,-99.89512634277344
"67560","Ness City","KS","Ness City Farm & Feed","821 W Sycamore St","67560",38.45360611666667,-99.91761543333334
"67579","Sterling","KS","Home Lumber & Supply Co.","244 South Broadway Avenues","67579",38.207502000000005,-98.206161
"67601","Hays","KS","The Home Depot","1310 E 41st Street","67601",38.8978461,-99.3123571
"67601","Hays","KS","Ace Hardware","3300 Vine St","67601",38.89332951404227,-99.31585578782024
"67601","Hays","KS","Harbor Freight","not_available","67601",38.890185,-99.316117
"67601","Hays","KS","Tractor Supply Co.","235 West 48th Street","67601",38.907998,-99.320449
"67601","Hays","KS","Heartland Building Center","2510 Centennial","67601",38.883357000000004,-99.315938
"67601","Hays","KS","Ellis County Concrete","1648 230th Ave","67601",38.921260833740234,-99.35370635986328
"67601","Hays","KS","Gottschalk Equipment","2270 E 8th St","67601",38.857818440876464,-99.29563830425442
"67601","Hays","KS","Treo Lumber","not_available","67637",38.93663536219647,-99.55931563258362
"67601","Hays","KS","Grand True Value Rental","1505 Vine St","67601",38.8718832323232,-99.3178997979798
"67601","Hays","KS","Kleerwater Pools & Spas","2010 Vine St","67601",38.877235412597656,-99.31748962402344
"67601","Hays","KS","Sears","2706 Vine St","67601",38.886990000000004,-99.316152
"67601","Hays","KS","Sherwin-Williams Paint Store","2518 Vine St","67601",38.88309922086796,-99.31661009788513
"67601","Hays","KS","Fastenal","1110 E 13th St","67601",38.870484000000005,-99.31486
"67601","Hays","KS","ABC Seamless Siding","1507 E 27th St","67601",38.8854251086648,-99.31081023700825
"67601","Hays","KS","Hamm's True Value","1710 Volga Dr","67601",38.87567,-99.328633
"67601","Hays","KS","S&W Supply","300 E 8th St","67601",38.868953704833984,-99.32805633544922
"67601","Hays","KS","Husqvarna","129 E 11th St","67601",38.871803283691406,-99.32903289794922
"67601","Hays","KS","Dreher's Pools and Spas","1107 E 13th St","67601",38.871286,-99.314864
"67642","Hill City","KS","Do It Best","218 W Main St","67642",39.365446633333335,-99.8451432
"67642","Hill City","KS","Husqvarna","504 W Main St","67642",39.36488723754883,-99.8476791381836
"67654","Norton","KS","Husqvarna US","PO Box 146","67654",39.833740234375,-99.89134979248047
"67654","Norton","KS","Kowpoke Supply","not_available","67654",39.83885066564275,-99.88344163809846
"67661","Phillipsburg","KS","Alco","1401 State St","67661",39.75629198218115,-99.30842427212743
"67661","Phillipsburg","KS","Sawyer Ace Hardware","341 F St","67661",39.7569,-99.323899
"67663","Plainville","KS","True Value Hardware","201 W Mill St","67663",39.234246,-99.299845
"67663","Plainville","KS","Farm Implement  North Side","not_available","67663",39.234721189920364,-99.3048336002225
"67669","Stockton","KS","Heartland Building Center","not_available","67669",39.42724612497028,-99.27478216536147
"67672","Wakeeney","KS","Wheatbelt Distributors","not_available","67672",39.02473831176758,-99.88444519042969
"67672","Wakeeney","KS","TRUE VALUE HARDWARE","217 N Main St","67672",39.02607727050781,-99.8843002319336
"67701","Colby","KS","Beringer Hardware","1923 S Range Ave","67701",39.368889,-101.05263000000001
"67701","Colby","KS","Foley Equipment","1080 S Range Ave","67701",39.382971000000005,-101.05597
"67701","Colby","KS","Sears","1937 South Range Ave, Suite # 1","67701",39.368034,-101.053183
"67701","Colby","KS","Husqvarna","1280 S Country Club Dr","67701",39.37995529174805,-101.03668975830078
"67730","Atwood","KS","Jd Skills","not_available","67730",39.81346975130842,-101.04099592441541
"67730","Atwood","KS","Tlc General Store","104 S 4th St","67730",39.807281494140625,-101.04261779785156
"67730","Atwood","KS","Brown's True Value","411 Main St","67730",39.80758102,-101.0408006
"67735","Goodland","KS","Rasure Lumber","605 Caldwell Ave","67735",39.352925419807434,-101.70731127262115
"67740","Hoxie","KS","BTI Hoxie","1361 W US-24","67740",39.368309020996094,-100.46766662597656
"67748","Oakley","KS","Oakley Farm & Home Center","124 Center","67748",39.12553163,-100.8537927
"67748","Oakley","KS","Husqvarna","118 W 2nd St","67748",39.12594985961914,-100.85354614257812
"67749","Oberlin","KS","Oberlin Farm And Supply","213 S Penn Ave","67749",39.8187840816327,-100.52905244898
"67756","Saint Francis","KS","Owens True Value","113 E Washington St","67756",39.773893,-101.800608
"67758","Sharon Springs","KS","Husqvarna","1385 Kansas 27","67758",38.88381576538086,-101.75189208984375
"67801","Dodge City","KS","Pride Ag Resources Ace Hardware","401 W Trail St","67801",37.74472,-100.02361
"67801","Dodge City","KS","Sears","2601 Central","67801",37.777476,-100.017706
"67801","Dodge City","KS","Fastenal","11140 Kliesen St","67801",37.780540466308594,-100.00750732421875
"67801","Dodge City","KS","Sherwin-Williams Paint Store","110 W Plaza Ave","67801",37.774022177895766,-100.01721382141113
"67801","Dodge City","KS","Mead Lumber - Do It Center","400 W Frontview St","67801",37.78076171875,-100.02143096923828
"67801","Dodge City","KS","Western Supply","206 E Trail St","67801",37.75136947631836,-100.01551055908203
"67801","Dodge City","KS","Water's Hardware","310 W Frontview St","67801",37.7814374,-100.0205779
"67801","Dodge City","KS","Sutherlands","not_available","67801",37.774645,-100.034907
"67801","Dodge City","KS","Bart Baker Services","1204 Minneola Rd","67801",37.73268127441406,-100.0147933959961
"67801","Dodge City","KS","Tractor Supply Co.","2612 Central Ave","67801",37.77833010785869,-100.01561522483826
"67801","Dodge City","KS","Husqvarna","1312 S 2nd Ave","67801",37.72951126098633,-100.01774597167969
"67839","Dighton","KS","Walls True Value Hardware","200 E Long","67839",38.48207,-100.46557
"67846","Garden City","KS","Menards","1110 Lareu Rd","67846",37.97658994183449,-100.83568625815957
"67846","Garden City","KS","D J's Lock & Key LLC","13085 N Scott Rd","67846",38.141732,-100.719287
"67846","Garden City","KS","Sherwin-Williams Paint Store","1512 Taylor Plz E","67846",37.9796257019043,-100.88253784179688
"67846","Garden City","KS","Ace Hardware","1210 Fleming St","67846",37.97771728207654,-100.8516732341428
"67846","Garden City","KS","Fastenal","302 E Fulton St","67846",37.964825,-100.871386
"67846","Garden City","KS","Stanion Electric","1004 E Chestnut St","67846",37.964715999999996,-100.861823
"67846","Garden City","KS","Thermo King","2802 W Jones Ave","67846",37.985979,-100.911236
"67846","Garden City","KS","Naab Electric","2013 W Jones Ave","67846",37.979654,-100.894052
"67846","Garden City","KS","Industrial Manufacturing And Repair Services, Inc.","2805 W Mary St.","67846",37.990296,-100.911418
"67846","Garden City","KS","Pro-Build","1514 E Fulton St","67846",37.96369171142578,-100.85523986816406
"67846","Garden City","KS","The Home Depot","3110 E Kansas Ave","67846",37.984625,-100.8327424
"67846","Garden City","KS","Morrison Supply","2050 W Mary St","67846",37.98882347625797,-100.89485943317408
"67846","Garden City","KS","Husqvarna US","1615 Taylor Plz W","67846",37.98039627075195,-100.88455200195312
"67846","Garden City","KS","Garden True Value","1615 Taylor Plaza W","67846",37.98037565,-100.8842415
"67846","Garden City","KS","C Bar H Farm & Home Supply","3502 N Campus Dr","67846",38.00311279296875,-100.84687042236328
"67846","Garden City","KS","White Star Bobcat","3830 W Jones Ave","67846",37.98863983154297,-100.93174743652344
"67846","Garden City","KS","Tractor Supply Co.","3333 East Mary St","67846",37.989955,-100.833365
"67855","Johnson","KS","Stanton County True Value","704 S Nipp","67855",37.56424667,-101.7521121
"67859","Kismet","KS","Mead Lumber","2000 N Kansas Ave","67901",37.060929,-100.923143
"67859","Kismet","KS","Westlake Ace Hardware","1601 N Kansas Ave","67901",37.05599907412592,-100.92124700546265
"67861","Leoti","KS","Western True Value Hardware","108 S 4th St","67861",38.48142,-101.35837
"67861","Leoti","KS","American Implement","232 E Highway 96","67861",38.4821891784668,-101.34233093261719
"67861","Leoti","KS","Husqvarna","707 S 4th St","67861",38.47447204589844,-101.35786437988281
"67864","Meade","KS","Ace Hardware","923 W Carthage","67864",37.28427505493164,-100.35163116455078
"67871","Scott City","KS","Ace Hardware","1320 S Main St","67871",38.472995000000004,-100.90573
"67871","Scott City","KS","Husqvarna","704 W 5th St","67871",38.48257827758789,-100.91455078125
"67877","Sublette","KS","Teeter Irrigation","1004 W La Lande Ave","67877",37.477500915527344,-100.8614501953125
"67879","Tribune","KS","Dixon Drug","422 Broadway","67879",38.47486,-101.75242
"67880","Ulysses","KS","Ulysses Std Sup & Ace Hardware","502 S Colorado St","67880",37.576326,-101.36346
"67880","Ulysses","KS","Koehn's Country Gardens","2530 N. Rd X","67880",37.61325,-101.10789
"67880","Ulysses","KS","Rick's Lumber Do It Center","not_available","67880",37.576104,-101.380969
"67880","Ulysses","KS","Ulysses Building Supply True Value","332 S Main","67880",37.57813593,-101.35808
"67901","Liberal","KS","Sherwin-Williams Paint Store","523 S Kansas Ave","67901",37.03159098,-100.9220423
"67901","Liberal","KS","Fastenal","832 E Pancake Blvd","67901",37.04177874028393,-100.90208104944138
"67950","Elkhart","KS","Scott Power & Equipment","US-56","67950",37.00010214411766,-101.89276456832884
"67950","Elkhart","KS","American Implement","364 US-56","67950",37.00433482476233,-101.88881635665892
"67950","Elkhart","KS","Elkhart True Value Lumber","850 W State Line Rd","67950",36.99445526061256,-101.90726602994646
"67951","Hugoton","KS","Hi-Plains Lumber","507 S Main St","67951",37.17810821533203,-101.34858703613281
