"zip","city","state","name","address","postalCode","lat","lon"
"59001","Absarokee","MT","Stillwater Lumber And Building Center","66 S Woodard Ave","59001",45.5194733333333,-109.443383333333
"59003","Ashland","MT","Fred's Hardware Hanks","not_available","59003",45.590553,-106.26392
"59007","Bearcreek","MT","truvalue","not_available","59068",45.189863728939685,-109.25269032915394
"59007","Bearcreek","MT","Red Lodge True Value","1 N Oakes Ave","59068",45.187329,-109.248691
"59008","Belfry","MT","Rock Creek Lumber","1002 N. Broadway","59068",45.19704818725586,-109.24583435058594
"59011","Big Timber","MT","Big Timber Ace Hardware","111 Mcleod Street","59011",45.834629,-109.954614
"59018","Clyde Park","MT","CNS Family Hardware","584 5th Ave","11215",45.88333165347149,-110.60468673706055
"59019","Columbus","MT","Columbus Ace Hardware","537 Clough Ave","59019",45.6368,-109.2522
"59030","Gardiner","MT","Mr Locks Locksmith","not_available","59030",45.035103,-110.711165
"59034","Hardin","MT","Hardin","304 N Center Ave","59034",45.7315788269043,-107.60640716552734
"59034","Hardin","MT","Ace Hardware","321 N Center Ave","59034",45.749843,-107.607457
"59036","Harlowton","MT","Ace Hardware","100 Central Ave N","59036",46.436524,-109.832768
"59036","Harlowton","MT","Central Lumber","804 2nd Nw","59036",46.436831,-109.843301
"59038","Hysham","MT","Ace Hardware","224 Elliott Ave","59038",46.293355,-107.234154
"59038","Hysham","MT","Hysham Ace Hardware","224 Elliott","59038",46.2931999,-107.2338
"59041","Joliet","MT","roberts ranch outfitters","not_available","59070",45.35859298706055,-109.16477966308594
"59041","Joliet","MT","Montana Railroad Services Inc","17 Klamert Ln","59041",45.5461112,-108.8442219
"59044","Laurel","MT","Lowe's","2717 King Avenue West","59102",45.7578718,-108.5823314
"59044","Laurel","MT","The Home Depot","2784 King Ave West","59102",45.7533344,-108.5827191
"59044","Laurel","MT","Ferguson Plumbing Supply","1734 Lampman Dr","59102",45.759361267089844,-108.56079864501953
"59044","Laurel","MT","DL Truckload Sales","1033 S 29th St W Ste C","59102",45.75106230000001,-108.586885
"59044","Laurel","MT","King's Ace Hardware","2264 Central Ave","59102",45.769052,-108.57523
"59044","Laurel","MT","A-One Garage Door","6600 Hesper Rd","59106",45.74039388562396,-108.68409633636475
"59044","Laurel","MT","ProSource of Billings","710 Carbon St","59102",45.75646,-108.56443
"59044","Laurel","MT","Billings Paint Center","1904 Grand Ave","59102",45.783835,-108.564494
"59044","Laurel","MT","Laurel Ace Hardware","415 SE 4th St","59044",45.6653919,-108.76578
"59044","Laurel","MT","Ziggy's Building Materials","1760 Monad Rd","59101",45.762379972785304,-108.55996460493158
"59044","Laurel","MT","UE Compression","3205 Hesper Rd Ste B","59102",45.74158,-108.59733
"59044","Laurel","MT","Meadow Green Sales","1411 S 32nd St W","59102",45.7457376,-108.5968041
"59044","Laurel","MT","Sherwin-Williams Commercial Paint Store","2051 Rosebud Dr","59102",45.75867602051741,-108.56816053390503
"59044","Laurel","MT","Midland Implement","not_available","not_available",45.761619567871094,-108.55574798583984
"59044","Laurel","MT","Tractor Supply Co.","400 Southeast 4th St","59044",45.664514,-108.766858
"59047","Livingston","MT","Livingston's Ace Hardware","1106 W Park St Ste 1","59047",45.654759,-110.572824
"59047","Livingston","MT","True Value Superstore","1313 W Park St","59047",45.651489,-110.571288
"59047","Livingston","MT","Do It Best Kenyon Noble lumber hardware","F Street","59047",45.665629700790824,-110.5550990369342
"59072","Roundup","MT","Roundup Hardware","not_available","59072",46.444651,-108.541876
"59101","Billings","MT","Ace Hardware","1551 Zimmerman Trl","59102",45.785885176201774,-108.60009861683838
"59101","Billings","MT","Heights Ace Hardware","1547 Main St","59105",45.826424,-108.469117
"59101","Billings","MT","Tractor Supply Co.","496 Main St","59105",45.807787,-108.474965
"59101","Billings","MT","Harbor Freight","1400 Grand Ave","59102",45.783619941367974,-108.5520250286651
"59101","Billings","MT","Harbor Freight Tools","1400 Grand Ave Ste B","59102",45.7835099995,-108.551763
"59101","Billings","MT","Sylvan Nursery","not_available","59106",45.786844,-108.617982
"59101","Billings","MT","Xander Fasteners, Inc.","1510 Montana Ave","59101",45.78841018676758,-108.4896469116211
"59101","Billings","MT","Billings Hardware","3175 Grand Ave","59102",45.78517058,-108.59441997
"59101","Billings","MT","Kings Ace Hardware","1551 Zimmerman Trail Road","59102",45.78584289550781,-108.59962463378906
"59101","Billings","MT","Floor Craft","609 Conway St","59105",45.8125435,-108.4701475
"59101","Billings","MT","Msub maintenance room","not_available","59102",45.7977294921875,-108.52189636230469
"59101","Billings","MT","Western Water Jet Cutting","1701 4th Ave N","59101",45.79117,-108.4948016
"59101","Billings","MT","Sherwin-Williams Paint Store","929 Grand Ave","59102",45.78439672283607,-108.54002383927482
"59101","Billings","MT","Al's 62nd Repair","3001 62nd St W","59106",45.8002759,-108.67249
"59101","Billings","MT","GTS Interior Supply","2645 Belknap Avenue","59101",45.77037832,-108.49033149
"59101","Billings","MT","Sherwin-Williams Paint Store","2019 Grand Ave","59102",45.784666465890986,-108.5684609413147
"59102","Billings","MT","Edge","120 Moore Ln","59101",45.766929626464844,-108.54303741455078
"59102","Billings","MT","Kings Ace Hardware","4170 State Ave","59101",45.769952,-108.51989
"59102","Billings","MT","Allen's Tool Repair, Inc.","115 5th St W","59101",45.77185,-108.52731
"59102","Billings","MT","Billings Hardware","906 Broadwater Ave","59101",45.776872,-108.538657
"59105","Billings","MT","Lockwood Ace Hardware","678 Johnson Lane","59101",45.810948,-108.41396
"59105","Billings","MT","Builders FirstSource","542 Main St","59105",45.808963,-108.474059
"59105","Billings","MT","H&E Equipment Services","100 Steffes Rd","59101",45.800283,-108.458655
"59201","Wolf Point","MT","Sunrise Home Center","not_available","59255",48.112957534555775,-105.20054711312572
"59201","Wolf Point","MT","Gysler Do-It-Best Hardware","not_available","59201",48.093382,-105.642323
"59201","Wolf Point","MT","Farmers Union Lumber True Value","1012Nd Ave. S","59201",48.09125966,-105.6391762
"59201","Wolf Point","MT","Ace Hardware","329 Cascade St","59201",48.085182102285195,-105.64796153572445
"59212","Bainville","MT","W.B.C Lumber Yard","not_available","59218",48.138958845558086,-104.49612639942826
"59215","Circle","MT","Circle True Value Hardware","222 W Main","59215",47.41759765,-105.5889155
"59230","Glasgow","MT","Zerbe Bros. inc","54324 US Highway 2 E","59230",48.19131088256836,-106.60507202148438
"59230","Glasgow","MT","Ace Hardware","416 2nd Ave S","59230",48.1931969,-106.63491
"59230","Glasgow","MT","All Seasons Home Center","729 2nd Ave S","59230",48.195122,-106.640838
"59230","Glasgow","MT","Saco Dehy Inc & Ag & Home Supply","324 Dehy Rd","59261",48.474735,-107.386949
"59254","Plentywood","MT","Plentywood Hardware","111 S Main St","59254",48.77382278442383,-104.55894470214844
"59263","Scobey","MT","Hometown Hardware","24 Main","59263",48.79315083,-105.4211083
"59270","Sidney","MT","Builders FirstSource","100 14th St SE","59270",47.704016,-104.16426
"59270","Sidney","MT","FARM & HOME TRUE VALUE SUPPLY","809 E Main St","59270",47.71221160888672,-104.147216796875
"59270","Sidney","MT","Tractor Supply Co.","302 East Holly St","59270",47.71836471557617,-104.15126037597656
"59301","Miles City","MT","Builders FirstSource","819 Washington","59301",46.41471938608053,-105.85244735061157
"59301","Miles City","MT","Steadman's Ace Hardware","611 S Haynes Ave","59301",46.402095,-105.824484
"59301","Miles City","MT","Sherwin-Williams Paint Store","320 S Haynes Ave","59301",46.40521881669462,-105.82194328308105
"59301","Miles City","MT","Murdoch's Ranch & Home Supply","620 Meadows Dr","59301",46.4022092019153,-105.82090823433461
"59313","Baker","MT","Baker Ace Hardware","101 Lake City Shopping Center","59313",46.36945,-104.27744
"59323","Colstrip","MT","Taylor's Ace Hardware & Drug","6141 Homestead Blvd","59323",45.880985,-106.63028
"59327","Forsyth","MT","Forsyth Hardware And Home Center","not_available","59327",46.26640701293945,-106.6804428100586
"59330","Glendive","MT","Tractor Supply Co.","2808 West Towne St","59330",47.11921,-104.73278
"59330","Glendive","MT","Builders FirstSource","23 Hwy 16","59330",47.10841000869003,-104.73586589097975
"59330","Glendive","MT","Ranch & Farm Wholesale Supply of Glendive","207 Harmon St","59330",47.10648,-104.72779
"59401","Great Falls","MT","northwest pipe Fittings","not_available","59404",47.520825,-111.305215
"59401","Great Falls","MT","Restore","not_available","59401",47.51407386978036,-111.27292232961607
"59404","Great Falls","MT","The Home Depot","1500 Market Place Dr","59404",47.4814106,-111.3413256
"59404","Great Falls","MT","Builders FirstSource","826 Northwest Bypass (9Th St NW)","59404",47.51493453979492,-111.32564544677734
"59404","Great Falls","MT","Harbor Freight","not_available","59405",47.492063,-111.29087
"59404","Great Falls","MT","Sherwin-Williams Paint Store","125 Northwest Byp","59404",47.516577544884534,-111.31557941436768
"59404","Great Falls","MT","Sun Flex Home Improvements LLC","1720 10th Ave S Ste 417","59405",47.493825,-111.276995
"59404","Great Falls","MT","Ferguson Plumbing Supply","905 River Dr S","59405",47.49524,-111.307112
"59404","Great Falls","MT","Great Falls Ace Hardware","215 NW Bypass","59404",47.5165,-111.3151
"59404","Great Falls","MT","Ace Hardware Great Falls","3527 10th Ave S","59405",47.494393,-111.245832
"59404","Great Falls","MT","Power Pro.","1712 3rd St NW","59404",47.52314,-111.30688
"59404","Great Falls","MT","Sherwin-Williams Paint Store","925 10th Ave S","59405",47.494637,-111.290829
"59410","Augusta","MT","Old West Lumber","not_available","59422",47.798694,-112.17031
"59410","Augusta","MT","Choteau Ace Hardware","406 Main Ave S","59422",47.807125,-112.179769
"59417","Browning","MT","Browning Lumber and Hardware","not_available","59417",48.559593200683594,-113.01516723632812
"59422","Choteau","MT","Fairfield True Value Hardware","601 Central Ave","59436",47.61547088623047,-111.9775619506836
"59425","Conrad","MT","napa auto","not_available","59425",48.18489074707031,-111.94358825683594
"59425","Conrad","MT","Village True Value","600 S Main","59425",48.166141510009766,-111.94969940185547
"59427","Cut Bank","MT","Billman's True Value Hardware","133 W Railroad St","59427",48.63787,-112.333196
"59442","Fort Benton","MT","Big Sandy Supply LLC","78 Montana Ave E","59520",48.17967,-110.109378
"59442","Fort Benton","MT","Lehmans True Value","1420 Front St","59442",47.817420959472656,-110.66796875
"59444","Galata","MT","Toole County","not_available","59444",48.467453,-111.318032
"59457","Lewistown","MT","Lewistown True Value Hardware","301 W Main St","59457",47.06596725,-109.4256517
"59457","Lewistown","MT","Tractor Supply Co.","1814 West Main St","59457",47.066534,-109.425196
"59457","Lewistown","MT","Lewistown Ace Hardware","815 NE Main ST","59457",47.068926,-109.404657
"59457","Lewistown","MT","Blue Sky Building Supply","295 W Frontage Rd","59457",47.05516815185547,-109.45113372802734
"59457","Lewistown","MT","Shiptons Big R","not_available","59457",47.069138,-109.403288
"59474","Shelby","MT","Taylors True Value Farm Store","714 1/2 Roosevelt Hwy","59474",48.509037017822266,-111.86373901367188
"59501","Havre","MT","North 40","not_available","59501",48.554888,-109.736555
"59501","Havre","MT","Builders FirstSource","2225 E 1St St","59501",48.552101135253906,-109.65079498291016
"59501","Havre","MT","Sherwin-Williams Paint Store","109 1st St W","59501",48.5546683428946,-109.68531131744383
"59523","Chinook","MT","Chinook Ace","94 3rd Street","59523",48.5867999,-109.2333
"59523","Chinook","MT","Chinook Ace","94 3rd street","59523",48.592877,-109.23157
"59538","Malta","MT","Bishop Building Supply","not_available","59538",48.359417,-107.869942
"59601","Helena","MT","Lowe's","3291 North Sanders Street","59602",46.6194152,-112.0139236
"59601","Helena","MT","The Home Depot","1801 E Custer Avenue","59602",46.61520779320291,-112.00880599571974
"59601","Helena","MT","Sears","1320 Market St","59602",46.5943486,-111.9979539
"59601","Helena","MT","Builders FirstSource","1000 E Lyndale","59601",46.598362,-112.022438
"59601","Helena","MT","Rock Hand Hardware","2414 N Montana Ave","59601",46.609235,-112.021323
"59601","Helena","MT","Sherwin-Williams Paint Store","1350 Market St","59602",46.61980634152058,-112.01636552810669
"59601","Helena","MT","Sherwin-Williams Paint Store","1700 N Montana Ave","59601",46.601992650017735,-112.02081263065338
"59601","Helena","MT","Danzer's Paint Store","not_available","59601",46.595239,-112.03464
"59601","Helena","MT","Murdoch's Ranch & Home Supply","3050 N Montana Ave","59601",46.61580917720957,-112.02277027086242
"59601","Helena","MT","Platt Electric Supply","760 Colleen St","59601",46.592473,-111.974557
"59602","Helena","MT","Smitty's Fireplace Shop Inc","4373 N Montana Ave","59602",46.63634,-112.02063
"59602","Helena","MT","Precision Small Engines LLC","1055 Flathead Rd","59602",46.666336,-112.024567
"59632","Boulder","MT","Ace Hardware","121 N Main","59632",46.2370357884634,-112.118044859989
"59644","Townsend","MT","Hardware Hank","not_available","59644",46.319501,-111.519586
"59644","Townsend","MT","Town & Ranch True Value","7821 Hwy 287","59644",46.3086442,-111.5145058
"59701","Butte","MT","Butte True Value","1301 Harrison Ave","59701",46.000823974609375,-112.52169036865234
"59701","Butte","MT","Platt Electric Supply","3003 Nevada Ave","59701",45.98299789428711,-112.5255355834961
"59701","Butte","MT","Whiteheadâ€™s Cutlery","not_available","59701",46.01292,-112.533922
"59701","Butte","MT","Murdoch's Ranch & Home Supply","3939 Harrison Ave","59701",45.96102900459607,-112.50954385569918
"59701","Butte","MT","Frank's Paint Store","2420 Harrison Ave","59701",45.98872756958008,-112.50857543945312
"59701","Butte","MT","Sherwin-Williams Paint Store","1920 Harrison Ave","59701",45.9943529069544,-112.51263856887817
"59701","Butte","MT","Sears","3703 Harrison Ave., #G","59701",45.9700354,-112.5095158
"59701","Butte","MT","Ace Hardware","1839 Harrison Ave","59701",45.996011,-112.51423
"59701","Butte","MT","Builders FirstSource","2805 Lexington Ave","59701",45.98256745315173,-112.53001123666763
"59711","Anaconda","MT","Stokes Market True Value","212 Cottonwood St","59711",46.13194274902344,-112.97382354736328
"59711","Anaconda","MT","Ace Hardware","1310 E Commercial Ave","59711",46.127598,-112.93457
"59711","Anaconda","MT","Colbert's Electric, Inc.","100 Howe St","59711",46.15094,-113.01635
"59714","Belgrade","MT","Belgrade Ace Hardware","6280 Jackrabbit Ln","59714",45.76179,-111.183857
"59714","Belgrade","MT","Rocky Mountain Supply","350 Jackrabbit Ln","59714",45.775343975642954,-111.18459963807454
"59714","Belgrade","MT","H&E Equipment Services","343 Floss Flats Rd","59714",45.7558897,-111.1787968
"59714","Belgrade","MT","Blue RIver Glass","34 Red Oak","59714",45.7986975,-111.2157018
"59714","Belgrade","MT","Northwest Pipe Fittings Inc.","360 Floss Flats Rd","59714",45.7551829,-111.17729
"59714","Belgrade","MT","Advanced Water Solutions","708 Ruth Dr","59714",45.791279,-111.182915
"59715","Bozeman","MT","Ace Hardware","8695 Huffine Ln","59718",45.6716332456145,-111.08151407768726
"59715","Bozeman","MT","The Home Depot","1771 North 19th Avenue","59718",45.6976152,-111.0648617
"59715","Bozeman","MT","Kenyon Noble","1243 Oak St","59715",45.69390397440383,-111.0535606152534
"59715","Bozeman","MT","Lowe's","1731 Tschache Lane","59718",45.6981236,-111.0604618
"59715","Bozeman","MT","Owenhouse Ace Hardware","36 E Main St","59715",45.679464,-111.0368
"59715","Bozeman","MT","Sears","2825 W. Main St., Unit 8H","59718",45.67398379896697,-111.07733756303782
"59715","Bozeman","MT","Sherwin-Williams Paint Store","2020 W Babcock St","59718",45.67799343610146,-111.06486797332764
"59715","Bozeman","MT","Sherwin-Williams Paint Store","523 Professional Dr","59718",45.674102,-111.071274
"59715","Bozeman","MT","Simkins-Hallin Lumber","326 N Broadway Ave","59715",45.68283677716339,-111.0249471366898
"59716","Big Sky","MT","Ace Hardware","Lone Mountain Trail","59716",45.268445,-111.28365
"59718","Bozeman","MT","Murdoch's Ranch & Home Supply","822 Jackrabbit Ln","59718",45.683299,-111.184663
"59718","Bozeman","MT","Rocky Mountain Electric, Inc.","101 Village Center Lane","59718",45.6725089,-111.1885711
"59718","Bozeman","MT","Montana Reclaimed Lumber","39 Jays Way","59730",45.584095,-111.19764
"59718","Bozeman","MT","Platt Electric Supply","262 Pronghorn Trl","59718",45.681739807128906,-111.1829833984375
"59718","Bozeman","MT","Ferguson Plumbing Supply","188 Pronghorn Trail","59718",45.675646,-111.183885
"59722","Deer Lodge","MT","Rome Enterprises","506 2nd St","59722",46.396627,-112.73667
"59725","Dillon","MT","Beaverhead True Value","915 N Montana St","59725",45.233360290527344,-112.62129211425781
"59725","Dillon","MT","Ace Hardware","302 N Montana St","59725",45.21991900127603,-112.63447489262578
"59725","Dillon","MT","Ace Hardware","102 South Main","59749",45.422968,-112.173543
"59729","Ennis","MT","Ennis True Value Hardware","6 Sunrise Loop","59729",45.36323547,-111.7326202
"59730","Gallatin Gateway","MT","Ace Hardware - Big Sky","1565 Lone Mountain Trl","59716",45.2632389,-111.25365
"59758","West Yellowstone","MT","Island Park Builders Supply","not_available","83433",44.49846267700195,-111.33495330810547
"59759","Whitehall","MT","Smith Feed and Building Inc","202 Hwy 2 West","59759",45.85798263549805,-112.14940643310547
"59759","Whitehall","MT","Ace Hardware","10 N Main","59759",45.869906,-112.09906
"59801","Missoula","MT","Montana Ace - Eastgate","905 E Broadway St","59802",46.8679739,-113.9828
"59801","Missoula","MT","Ace Hardware","Tremper Shopping Center","59801",46.850241621746484,-114.01790194502716
"59801","Missoula","MT","Montana Ace - Trempers","2301 Brooks St","59801",46.8496239,-114.01663
"59801","Missoula","MT","Howard's Total Vise","2126 Dixon Ave, Suite B","59801",46.8408469,-114.031229
"59801","Missoula","MT","Boyce Lumber & Design Center","1410 S Russell St","59801",46.858776,-114.018028
"59801","Missoula","MT","Rainmaker","2440 McDonald Ave","59801",46.83992004394531,-114.03852844238281
"59801","Missoula","MT","Sherwin-Williams Paint Store","3200 S Reserve St","59801",46.841186964366614,-114.03900861740112
"59801","Missoula","MT","Ferguson Plumbing Supply","3843 Brooks St","59804",46.83632278442383,-114.04193115234375
"59801","Missoula","MT","Sears","407 South Catlin St","59801",46.86757253271105,-114.02288585901266
"59801","Missoula","MT","Roto-Rooter of Missoula","not_available","59808",46.87214764675437,-113.99205923080444
"59801","Missoula","MT","GTS Interior Supply","1835 North Ave W","59801",46.85270847,-114.02567463
"59801","Missoula","MT","Sherwin-Williams Paint Store","1428 S Reserve St","59801",46.85803264152463,-114.03866362028295
"59801","Missoula","MT","Hellgate Tool Repair","2006 North Ave W","59801",46.8526931,-114.0286395
"59801","Missoula","MT","Mission Paint","1605 South Ave W","59801",46.848541259765625,-114.02072143554688
"59801","Missoula","MT","Zombie Tools","not_available","59801",46.871444,-114.027288
"59801","Missoula","MT","Premier Paints","1700 Brooks St","59801",46.8549801,-114.0081691
"59802","Missoula","MT","Murdoch's Ranch & Home Supply","2801 W Broadway St","59808",46.89054489135742,-114.03099060058594
"59802","Missoula","MT","Grizzly Electric","1405 E Broadway St Apt F205","59802",46.86293411254883,-113.96954345703125
"59802","Missoula","MT","Harbor Freight Tools","2230 N Reserve St Ste 320","59808",46.88535544985417,-114.036912879655
"59803","Missoula","MT","Tractor Supply Co.","12150 Hwy 93 South","59847",46.75445821,-114.0809694
"59803","Missoula","MT","Shamrock Construction","6003 Hillview Way","59803",46.815835,-114.03149
"59803","Missoula","MT","Missoula Power Equipment","5275 U.S. 93","59804",46.820856,-114.081682
"59803","Missoula","MT","AAA Construction of Missoula","3376 Trails End Rd","59803",46.783884,-114.043058
"59804","Missoula","MT","The Home Depot","2725 Radio Way","59808",46.8895441,-114.0433812
"59804","Missoula","MT","Lowe's","3100 North Reserve Street","59808",46.8929597,-114.0375921
"59804","Missoula","MT","Grizzly Fence","7186 Interstate Pl","59808",46.936095,-114.096845
"59804","Missoula","MT","CWallA","5450 Momont Rd","59808",46.92289698070303,-114.07923638820648
"59804","Missoula","MT","GTS Interior Supply","4685 Expressway","59808",46.9136302,-114.06306603
"59804","Missoula","MT","Platt Electric Supply","321 Expressway","59808",46.90585708618164,-114.04634857177734
"59826","Condon","MT","Rovero's","3182 Highway 83","59868",47.178189,-113.4831
"59828","Corvallis","MT","Platt Electric Supply","201B Old Corvallis Rd","59840",46.262,-114.15
"59828","Corvallis","MT","Truco Roofing and Foam Insulation","not_available","59875",46.32302907925421,-114.15215328322888
"59828","Corvallis","MT","Empire Landscaping","2259 Meridian Rd","59875",46.4007829,-114.146954
"59828","Corvallis","MT","Dons Home Center","not_available","59828",46.3234659538954,-114.1480546534256
"59829","Darby","MT","Darby Distribution","not_available","59829",46.03006,-114.179601
"59832","Drummond","MT","Hogan's Ranch & Builders Supply","Hwy 1","59837",46.58540358183151,-113.19604404373601
"59833","Florence","MT","Florence Ace Hardware","5524 Old Hwy 93","59833",46.6404,-114.077
"59840","Hamilton","MT","Massa Ace Building Supply","1600 N FIRST ST","59840",46.245722,-114.15562
"59840","Hamilton","MT","Sears","1704 N. First Street, Suite A","59840",46.2691368,-114.1572768
"59840","Hamilton","MT","Don's Home Center","776 US-93 N","59840",46.3018257,-114.1575459
"59840","Hamilton","MT","Evans Ace Hardware","714 N 1st St","59840",46.254183,-114.156021
"59840","Hamilton","MT","Sherwin-Williams Paint Store","101 Pine St","59840",46.25027,-114.15639
"59847","Lolo","MT","Eastside Ace Hardware","4054 Eastside Hwy","59870",46.514,-114.0686
"59860","Polson","MT","Platt Electric Supply","37599 N Commerce Ln","59860",47.66603088378906,-114.11023712158203
"59860","Polson","MT","Sears","214 1ST ST E","59860",47.6938195570083,-114.16225397916787
"59860","Polson","MT","Montana Ace - Polson","50393 US Highway 93","59860",47.6925,-114.1433
"59864","Ronan","MT","Ace Hardware","63597 US Highway 93","59864",47.522926330566406,-114.09791564941406
"59864","Ronan","MT","Ronan True Value Hardware","63540 Us Highway 93","59864",47.5236930847168,-114.09610748291016
"59868","Seeley Lake","MT","Seeley Lake Rent-All","165 Redwood Lane","59868",47.1695037,-113.4759925
"59870","Stevensville","MT","Country Store Stevensville Store #21","3673 Eastside Hwy","59870",46.49135,-114.094144
"59872","Superior","MT","Darlow's Quality Foods","302 River St","59872",47.1934646939,-114.8910904082
"59872","Superior","MT","Superior Color & Lumber","not_available","59872",47.197673,-114.892814
"59873","Thompson Falls","MT","Dougs True Value Hardware","901 Main St","59873",47.5943,-115.34647
"59873","Thompson Falls","MT","Ace Hardware","1704 Main St E","59873",47.587894439697266,-115.31874084472656
"59901","Kalispell","MT","Lowe's","2360 US Highway 93","59901",48.236053959431025,-114.33319888114023
"59901","Kalispell","MT","Lowe's","2360 Highway 93 North","59901",48.236002,-114.333944
"59901","Kalispell","MT","The Home Depot","2455 Highway 93 North","59901",48.2390869,-114.3269704
"59901","Kalispell","MT","Murdoch's Ranch & Home Supply","2330 US Highway 93 S","59901",48.17439712973729,-114.2986925187028
"59901","Kalispell","MT","Montana Ace - Kalispell","130 N Meridian Rd","59901",48.198117,-114.331077
"59901","Kalispell","MT","Sliters'","8050 MT Highway 35","59911",48.076343,-114.07952999999998
"59901","Kalispell","MT","Sherwin-Williams Paint Store","40 Sunrise Creek Dr","59912",48.36214065551758,-114.2422866821289
"59901","Kalispell","MT","Cardinal True Value Hardware","1705 Highway 2","59912",48.37110071865795,-114.20660376548767
"59901","Kalispell","MT","Sherwin-Williams Paint Store","53 1st Avenue East N","59901",48.200207468817865,-114.31068420410156
"59901","Kalispell","MT","Western Building Center","6130 US Highway 93 S","59937",48.38263702392578,-114.33660125732422
"59901","Kalispell","MT","WYE KNOT CARDINAL TRUE VALUE HARDWARE","16 7th Ave W","59901",48.196651458740234,-114.32441711425781
"59901","Kalispell","MT","Hanson's True Value","1795 9th St W","59912",48.371304,-114.206593
"59901","Kalispell","MT","Glacier Steel","not_available","59912",48.334836,-114.158491
"59901","Kalispell","MT","Pedersen and Co Pumping Inc","11 McMannamy Draw","59901",48.240812,-114.41798
"59901","Kalispell","MT","Big Johns","not_available","59901",48.2006429297229,-114.32509102055269
"59901","Kalispell","MT","Fastenal","525 W Idaho St","59901",48.201222,-114.323632
"59901","Kalispell","MT","Fasteners Of Kalispell, MT","421 W Idaho St","59901",48.2014274597168,-114.32154846191406
"59901","Kalispell","MT","Kalispell Communications","2044 US Highway 2 E","59901",48.2177724,-114.2779633
"59901","Kalispell","MT","Sliters'","55 Somers Rd","59932",48.081321716308594,-114.22724914550781
"59901","Kalispell","MT","Nelsons Ace Hardware","6490 US Highway 93 S","59937",48.39239717,-114.3365935
"59901","Kalispell","MT","Cardinal","2148 US Highway 2 E","59901",48.22233963012695,-114.27754211425781
"59911","Bigfork","MT","Sliters","not_available","59911",48.07615068288965,-114.07913446426392
"59912","Columbia Falls","MT","RBM Lumber","PO Box 1105","59912",48.382769,-114.170858
"59917","Eureka","MT","Eureka Hardware Store","793 US-93,","59917",48.89239501953125,-115.05792236328125
"59917","Eureka","MT","Western Building Center","1574 US Highway 93 N","59917",48.906063561433804,-115.05733404048435
"59920","Kila","MT","Ferguson Plumbing Supply","2435 Us Hwy 2 E","59901",48.188435,-114.397228
"59922","Lakeside","MT","Sliters Ace Hardware","106 Stoner Loop","59922",48.016654530935476,-114.22554016113281
"59923","Libby","MT","Sears","520 Mineral Ave.","59923",48.39073309443452,-115.5529994110451
"59923","Libby","MT","Cardinal True Value Hardware","216 Mineral Ave","59923",48.393467,-115.551071
"59923","Libby","MT","Ace Home and Garden Center","507 W 9th St Hwy 2 W","59923",48.389178,-115.56021
"59923","Libby","MT","Western Building Centers","30110 Hwy 2 W","59923",48.4074167195652,-115.59252958281063
"59923","Libby","MT","Northwest Motorsports","400 California Ave","59923",48.392219,-115.553472
"59935","Troy","MT","Kootenai Drug True Value","611 E Missoula","59935",48.4587783,-115.8931619
"59936","West Glacier","MT","Builders FirstSource","41 W Reserve Dr","59901",48.241052493930795,-114.28050398826599
"59936","West Glacier","MT","Platt Electric Supply","2430 US Highway 2 E","59901",48.23377990722656,-114.27698516845703
"59937","Whitefish","MT","Mild Fence Co.","3465 us-93","59901",48.27531051635742,-114.3293228149414
