"zip","city","state","name","address","postalCode","lat","lon"
"70001","Metairie","LA","Sherwin-Williams Paint Store","4427 N I 10 Service Rd W","70006",29.999443703353787,-90.18098218816662
"70001","Metairie","LA","M & L Industries","not_available","70001",29.976279,-90.188062
"70001","Metairie","LA","Fleur De Lis Roofing","2315 Metairie Heights Ave","70001",29.995817184448242,-90.14899444580078
"70001","Metairie","LA","Hollywood Door","1118 Central Ave, Metairie, LA 70001","70001",29.974172592163086,-90.17495727539062
"70001","Metairie","LA","Professional Forklift Inc.","not_available","not_available",29.977245,-90.18379200000001
"70001","Metairie","LA","LCR Plumbing Warehouse","2601 L and a Rd","70001",29.971844,-90.150187
"70001","Metairie","LA","HD Supply White Cap","1008 L and A Road","70001",29.97168847,-90.13739318
"70001","Metairie","LA","Gueydan Lumber","4300 Airline Dr","70001",29.97458,-90.17521500000001
"70001","Metairie","LA","Harry's Ace Hardware","1521 Metairie Rd","70005",29.9863,-90.1413
"70001","Metairie","LA","Ferguson Waterworks","901 S Labarre Rd Ste 206","70001",29.970769,-90.150235
"70001","Metairie","LA","Causeway True Value Hdw","1316 N Causeway Blvd","70001",29.984903000000003,-90.15640400000001
"70001","Metairie","LA","Online RV Store, LLC","4200 S I 10 Service Rd W Ste 134","70001",29.99800363120518,-90.17795652151108
"70001","Metairie","LA","Sequoia Outdoor Supply","4717 Clearview Pkwy","70006",29.976028999999997,-90.182272
"70001","Metairie","LA","Vallen","200 L and a Rd","70001",29.97075,-90.128546
"70001","Metairie","LA","Southland Plumbing Supply","2321 N Arnoult Rd","70001",29.99521992,-90.16061664
"70002","Metairie","LA","Lowe's","3640 Veterans Memorial Blvd","70002",30.0021523,-90.1636041
"70002","Metairie","LA","Plumbparts","2301 Veterans Memorial Blvd","70002",30.003381,-90.14824899999999
"70002","Metairie","LA","Amazing Windows & Doors","not_available","70002",30.013090999999996,-90.16284
"70002","Metairie","LA","Battery World","3500 Severn Ave","70002",30.012814000000002,-90.15956700000001
"70002","Metairie","LA","Doors of Elegance","3100 Kingman Street","70006",30.002108124536125,-90.18022298812866
"70003","Metairie","LA","The Home Depot","2625 Veterans Blvd","70062",30.0038895,-90.2315892
"70003","Metairie","LA","Harbor Freight Tools","6409 Airline Dr","70003",29.977847420017753,-90.20390223973976
"70003","Metairie","LA","Northern Tool + Equipment","6851 Veterans Memorial Boulevard Suite B","70003",30.006210327148438,-90.21693420410156
"70003","Metairie","LA","Helm Paint & Decorating","6820 Veterans Memorial Blvd","70003",30.004369735717773,-90.21591186523438
"70003","Metairie","LA","Sears Parts & Repair Center","6405 Airline Dr","70003",29.978121999999995,-90.203948
"70003","Metairie","LA","Joey's Garage Doors","1301 Lair Ave","70003",29.987632,-90.20401
"70003","Metairie","LA","Bassils Ace Hardware","4419 Transcontinental Dr","70006",30.018093,-90.19854000000001
"70003","Metairie","LA","Sherwin-Williams Paint Store","2500 Airline Dr","70062",29.980206238724794,-90.23637771606445
"70030","Des Allemands","LA","Allen's Ace Hardware","17235 Highway 90 Ste E","70030",29.8529079,-90.448082
"70037","Belle Chasse","LA","Jeanfreaux's Hardware & Supply","8594 Louisiana 23","70037",29.84944011117472,-89.99019286650896
"70037","Belle Chasse","LA","Lowe's","1351 Manhattan Blvd","70058",29.89686,-90.058885
"70037","Belle Chasse","LA","Jeanfreau's Hardware & Supply","8594 La-23","70037",29.8494393812103,-89.9895979672992
"70037","Belle Chasse","LA","Jotun Inc.","9203 Highway 23","70037",29.835094,-90.00046800000001
"70037","Belle Chasse","LA","Lapalco Hardware","not_available","70058",29.874360306511218,-90.05183298444732
"70037","Belle Chasse","LA","Westbank Engraving","2132 Alamo Ave","70058",29.87745,-90.06374
"70037","Belle Chasse","LA","L & B Kitchen And Bath","1408 Manhattan Blvd","70058",29.894115000000003,-90.060772
"70037","Belle Chasse","LA","Sweeping","not_available","70131",29.901512145996094,-89.99903869628906
"70037","Belle Chasse","LA","Ambiance Cabinets & Design","2960 Belle Chasse Hwy Ste 108","70056",29.879633156655242,-90.01957677304745
"70039","Boutte","LA","Sears","12715 HIGHWAY 90, Ste 160B","70070",29.9072984,-90.3635504
"70039","Boutte","LA","minuteKEY","13001 Highway 90","70039",29.905118942260742,-90.37217712402344
"70039","Boutte","LA","Husqvarna","13412 Highway 90","70039",29.90247344970703,-90.3849868774414
"70043","Chalmette","LA","The Home Depot","8601 W Judge Perez Dr","70043",29.9545839,-89.9739412
"70043","Chalmette","LA","Corrugated Industries","not_available","70043",29.96562882984724,-89.9506975269813
"70043","Chalmette","LA","Bywater Ace Hardware","438 E Judge Perez Dr","70043",29.9411999,-89.9607
"70043","Chalmette","LA","Sherwin-Williams Paint Store","300 E Judge Perez Dr","70043",29.941408442937572,-89.96148347854614
"70043","Chalmette","LA","Chalmette Hardware Home Center","223 E Judge Perez Dr","70043",29.94232940673828,-89.96221160888672
"70047","Destrehan","LA","Universal Appliance Repair","96 Linwood Plz #146","07024",29.9743605827393,-90.36754846572876
"70047","Destrehan","LA","Anthony's Ace Hardware","1968 Ormond Blvd","70047",29.9695,-90.376
"70052","Gramercy","LA","Home Hardware Center","not_available","70052",30.045574,-90.69171300000001
"70053","Gretna","LA","The Home Depot","62 Westbank Expy","70053",29.9139002,-90.0470581
"70053","Gretna","LA","Harbor Freight Tools","91 Westbank Expy Ste 340","70053",29.915135329743332,-90.05053826135325
"70053","Gretna","LA","minuteKEY","1901 Tchoupitoulas St","70130",29.925146999999996,-90.070153
"70053","Gretna","LA","King's Marble & Granite","11 5th St","70053",29.92180061340332,-90.05278015136719
"70053","Gretna","LA","Neeb's Hardware","338 Lafayette St","70053",29.91604156597564,-90.06057023156924
"70053","Gretna","LA","Sherwin-Williams Paint Store","1500 Stumpf Blvd","70053",29.912585999999997,-90.04483
"70053","Gretna","LA","Boudreaux's Plumbing, Inc.","Stumpf Blvd","70053",29.9190563680414,-90.04991798745496
"70053","Gretna","LA","Big Orange Box","not_available","70053",29.913751,-90.047421
"70057","Hahnville","LA","Bosco Bros. Industrial Supplies","not_available","70079",30.011747360229492,-90.4079818725586
"70058","Harvey","LA","The Home Depot","4600 Lapalco Blvd","70072",29.8760613,-90.0906266
"70058","Harvey","LA","Big Orange Box","not_available","70072",29.876333901186584,-90.09085589280184
"70058","Harvey","LA","The Paint and Drywall Depot","2042 Woodmere Blvd","70058",29.869921,-90.082066
"70058","Harvey","LA","Sherwin-Williams Commercial Paint Store","1957 Industrial Blvd","70058",29.874226243314574,-90.08231709926879
"70062","Kenner","LA","Paint Gallery The","2109 21st St","70062",29.993502000000003,-90.24088
"70062","Kenner","LA","Automatic Fasteners","not_available","70062",30.002599,-90.271235
"70062","Kenner","LA","Tiger Seal and Supply","2301 Albany St Ste D","70062",29.998920440673828,-90.25678253173828
"70062","Kenner","LA","Airgas","2326 Williams Blvd","70062",29.998984000000004,-90.24058199999999
"70062","Kenner","LA","Motor & Control","2504 Delaware Ave","70062",30.001946999999998,-90.242588
"70062","Kenner","LA","H&E Equipment Services","125 E Airline Dr","70062",29.980928000000002,-90.27169
"70065","Kenner","LA","Sherwin-Williams Paint Store","1912 W Esplanade Ave","70065",30.0201,-90.240591
"70065","Kenner","LA","Stanfords True Value Hardware Center","3637 Williams Blvd","70065",30.022834000000003,-90.239591
"70067","Lafitte","LA","Air Purification New Orleans","PO Box 932","70063",29.67850809103362,-90.09134531021118
"70068","La Place","LA","Fisher's Ace Hardware Inc","504 Hemlock St","70068",30.0694839,-90.496587
"70068","La Place","LA","Sherwin-Williams Paint Store","1324 W Airline Hwy","70068",30.07331085205078,-90.49234008789062
"70068","La Place","LA","The Home Depot","300 W Airline Hwy","70068",30.0695286,-90.4821003
"70068","La Place","LA","minuteKEY","1616 W Airline Hwy","70068",30.0726971,-90.4966303
"70068","La Place","LA","Pat's Power Tools & Central Vacuum Services","975 Cambridge Dr #C","70068",30.07292366027832,-90.48568725585938
"70068","La Place","LA","Capitol Materials Inc","235 Jaubert Lane","70068",30.0544144,-90.45395909999999
"70068","La Place","LA","Tractor Supply Co.","2335 West Airline Hwy","70068",30.07547950744629,-90.51628112792969
"70070","Luling","LA","Louie's River Ridge Ace Hardware","8935 Jefferson Hwy","70123",29.946046000000003,-90.213114
"70070","Luling","LA","Royal Broom And Mop Factory Inc","5717 Plauche Ct","70123",29.944748,-90.186717
"70070","Luling","LA","Carrier","312 Time Saver Ave","70123",29.943357,-90.194987
"70070","Luling","LA","Davis Sales Co., Inc.","5620 Jefferson Hwy","70123",29.944513,-90.184598
"70070","Luling","LA","Cresent Door & Hardware","not_available","70123",29.948704,-90.20024
"70070","Luling","LA","Southern Fastening Systems","104 Laitram","70123",29.94789,-90.17616
"70070","Luling","LA","Donovan Marine","6316 Humphreys St","70123",29.944364821299395,-90.19699215888976
"70070","Luling","LA","Himmel's Architectural Door & Hardware, LLC","5500 Jefferson Hwy","70123",29.946144,-90.18327
"70070","Luling","LA","Ace Fastener","301 Hickory Ave","70123",29.941028,-90.194827
"70070","Luling","LA","Garage Door Repair Elmwood Park","277 Cory Ln","07407",29.93887034990878,-90.21286010742188
"70070","Luling","LA","Seacoast Supply","not_available","70121",29.949269595101995,-90.17292198692333
"70070","Luling","LA","Advanced Plastics","6117 River Rd","70123",29.9377498626709,-90.18785858154297
"70070","Luling","LA","Advanced Building Products","5734 Jefferson Hwy","70123",29.943073502272505,-90.18577890015
"70070","Luling","LA","Seacoast Supply","4961 River Rd","70121",29.948476791381836,-90.17320251464844
"70070","Luling","LA","Harry's Ace","Jefferson Highway","not_available",29.941987887458367,-90.2121912519329
"70070","Luling","LA","Landry Lumber Home Center","400 Sugar House Rd","70070",29.93062,-90.36159
"70072","Marrero","LA","Lowe's","4950 Promenade Boulevard","70072",29.8809054,-90.0968916
"70072","Marrero","LA","Theriot's Outdoor Power Equipment","608 Westwood Dr","70072",29.8951301,-90.1252943
"70072","Marrero","LA","Ullo's Hardware-Dept Store","4701 Westbank Expy Suite 4","70072",29.8952999,-90.096699
"70072","Marrero","LA","minuteKEY","4950 Promenade Blvd","70072",29.880891,-90.095903
"70075","Meraux","LA","Tractor Supply Co.","2505 Archbishop Hannan Blvd","70075",29.9341463102706,-89.9232082346286
"70084","Reserve","LA","Total Supply","677 W 10th St","70084",30.075104758513614,-90.56548698847905
"70086","Saint James","LA","Tractor Supply Co.","2152 Highway 70","70346",30.091845095157623,-90.93908831477165
"70091","Venice","LA","Ellzeys True Value Hardware","42991 Hwy 23","70091",29.27484168,-89.35157061
"70094","Westwego","LA","The Home Depot","5151 Citrus Blvd","70123",29.965358,-90.1866843
"70094","Westwego","LA","Lowe's","121 Jefferson Highway","70121",29.9661201,-90.131204
"70094","Westwego","LA","SCP","5400 Pepsi St","70123",29.950632000000002,-90.18589200000001
"70094","Westwego","LA","Lennox","Time Saver Blvd","70123",29.952009712261315,-90.19177139390904
"70094","Westwego","LA","Grainger","825 Distributors Row","70123",29.954558000000002,-90.18815
"70094","Westwego","LA","Moulding & Millwork Supply","5601 Caterpillar Pt","70123",29.95465087890625,-90.19095611572266
"70094","Westwego","LA","Accardo's Appliance","8640 Oak St","70118",29.950915000000002,-90.13444799999999
"70094","Westwego","LA","Ace Hardware","8324 Oak St","70118",29.948835,-90.131985
"70094","Westwego","LA","Oak Tree Elecric","1200 Edwards Ave","70123",29.957029342651367,-90.1943130493164
"70094","Westwego","LA","Sherwin-Williams Floorcovering Store","5616 Salmen St","70123",29.960948944091797,-90.19329833984375
"70094","Westwego","LA","Drye Supply","4900 Jefferson Hwy","70121",29.95492650148169,-90.18386908149273
"70112","New Orleans","LA","Mary's Ace Hardware","732 N Rampart St","70116",29.960881,-90.067974
"70112","New Orleans","LA","Grainger","601 S Galvez St","70119",29.957007,-90.087956
"70112","New Orleans","LA","Fastenal","1806 Canal St","70112",29.959540000000004,-90.079089
"70112","New Orleans","LA","Fastenal","524 S Claiborne Ave","70112",29.954214096069336,-90.08210754394531
"70112","New Orleans","LA","United Refrigeration","not_available","70112",29.954791398056127,-90.08619605955624
"70113","New Orleans","LA","The Home Depot","1100 S Claiborne Avenue","70125",29.9479065,-90.0852625
"70113","New Orleans","LA","Sherwin-Williams Paint Store","1743 Saint Charles Ave","70130",29.936922999999997,-90.077551
"70114","New Orleans","LA","Sherwin-Williams Paint Store","3634 General Meyer Ave","70114",29.938907538552485,-90.01809954643248
"70115","New Orleans","LA","Harry's Ace Hardware","3535 Magazine Street","70115",29.922225,-90.091541
"70115","New Orleans","LA","Freret Street Hardware","5109 Freret St","70115",29.935156,-90.109728
"70115","New Orleans","LA","Sears","Oakwood Mall","70056",29.921861475702066,-90.07744841731966
"70115","New Orleans","LA","Mr. & Mrs. Smith's Spy Shoppe","not_available","70130",29.925095,-90.079372
"70115","New Orleans","LA","Helm Paint","2801 Magazine St","70115",29.9262,-90.083005
"70115","New Orleans","LA","Clement Hardware","6006 Magazine St","70118",29.922094,-90.121883
"70115","New Orleans","LA","H. Rault Locksmiths","3027 Magazine St","70115",29.924814,-90.08537199999999
"70115","New Orleans","LA","Sherwin-Williams Paint Store","4139 Magazine St","70115",29.921097965395784,-90.09902975070897
"70115","New Orleans","LA","Freret Paint Inc","5104 Freret St","70115",29.934811,-90.109569
"70115","New Orleans","LA","Liberty Lumber","5383 Tchoupitoulas St","70115",29.916752000000002,-90.115414
"70116","New Orleans","LA","United Hardware","735 Elysian Fields Ave","70117",29.96401281401098,-90.05782884615121
"70116","New Orleans","LA","Cloud 9","1257 Kerlerec St","70116",29.968245,-90.064796
"70117","New Orleans","LA","Lowe's","2501 Elysian Fields Avenue","70117",29.9845649,-90.0564681
"70117","New Orleans","LA","Preservation Resource Salvage Center","2801 Marais St","70117",29.969600677490234,-90.047607421875
"70117","New Orleans","LA","St. Claude Community Hardware And Home Improvement","3325 Saint Claude Ave","70117",29.96708788348359,-90.04095196723938
"70117","New Orleans","LA","minuteKEY","2501 Elysian Fields Ave","70117",29.984029999999997,-90.055929
"70117","New Orleans","LA","Paint Pro Depot","Paris Ave","70122",29.986566058454653,-90.0566619371486
"70117","New Orleans","LA","Bourg Lumber","2737 N Peters St","70117",29.962644,-90.050351
"70118","New Orleans","LA","Helm Paint","8180 Earhart Blvd","70118",29.961994171142578,-90.11666870117188
"70118","New Orleans","LA","Sherwin-Williams Paint Store","8135 Earhart Blvd","70118",29.961958000000003,-90.115511
"70118","New Orleans","LA","Pre-Cast Concrete Step Co.","7900 Palm St","70125",29.963196999999997,-90.110155
"70118","New Orleans","LA","Sherwin-Williams Paint Store","734 S Carrollton Ave","70118",29.944646000000002,-90.13368299999999
"70118","New Orleans","LA","Sherwin-Williams Paint Store","5303 Canal Blvd","70124",29.986506,-90.109655
"70118","New Orleans","LA","minuteKEY","121 Jefferson Hwy","70121",29.966131,-90.131443
"70119","New Orleans","LA","Helm Paint & Decorating","5331 Canal Blvd","70124",29.986971999999998,-90.109569
"70119","New Orleans","LA","Gulf Enterprises Inc","4333 Washington Ave","70125",29.95477,-90.101965
"70119","New Orleans","LA","Plastic Supply","2500 George Nick Connor Dr","70119",29.982277000000003,-90.069091
"70119","New Orleans","LA","Carruth Bros. Lumber","600 D'Hemecourt","not_available",29.973615296450614,-90.10268372398268
"70119","New Orleans","LA","Standard Glass & Mirror","1128 S Lopez St","70125",29.957433700561523,-90.10135650634766
"70119","New Orleans","LA","Grand Rental Station","5612 Canal Blvd","70124",29.992446899414062,-90.1097183227539
"70119","New Orleans","LA","Heritage Supply","not_available","70125",29.954278,-90.102565
"70119","New Orleans","LA","Ken Brown & Sons Inc","not_available","70119",29.968401,-90.092712
"70119","New Orleans","LA","Farrell-Calhoun Paint","2900 Elysian Fields Ave Unit C","70122",29.988122239938804,-90.05917412386134
"70119","New Orleans","LA","Hydronic Technology Inc","1500 S Jefferson Davis Pkwy","70125",29.9555,-90.10532
"70119","New Orleans","LA","Strip-Ease Of New Orleans","3301 Lafitte St","70119",29.972793,-90.09010500000001
"70121","New Orleans","LA","New Orleans Equipment Co","1508 Edwards Ave Ste Ll","70123",29.9619,-90.19555
"70122","New Orleans","LA","Mike's Hardware","4233 Elysian Fields Ave","70122",30.0015997839466,-90.05916300599021
"70122","New Orleans","LA","Johnnys True Value Hardware","2001 Mirabeau Ave","70122",30.008257,-90.064423
"70122","New Orleans","LA","H&E Equipment Services","4202 Almonaster Ave","70126",29.999692916870117,-90.03916931152344
"70122","New Orleans","LA","Sherwin-Williams Paint Store","3043 Gentilly Blvd","70122",29.998313,-90.06128100000001
"70122","New Orleans","LA","Rock and Son's Safe and Lock Service","4327 Paris Ave","70122",30.001455307006836,-90.07355499267578
"70122","New Orleans","LA","minuteKEY","4301 Chef Menteur Hwy","70126",30.005353,-90.038634
"70124","New Orleans","LA","Rockery Ace Hardware","7043 Canal Blvd","70124",30.0186899,-90.1062
"70124","New Orleans","LA","Lakeview Paint & Drywall","241 Harrison Avenue","not_available",30.005836894482872,-90.11783559493405
"70124","New Orleans","LA","Sea Chest Marine","7385 W Roadway St","70124",30.02338981628418,-90.11943817138672
"70126","New Orleans","LA","Eddie's Ace Hardware Inc.","4401 Downman Rd","70126",30.014551,-90.020892
"70126","New Orleans","LA","Sherwin-Williams Paint Store","5793 Crowder Blvd","70127",30.02941134210418,-89.99231815338133
"70127","New Orleans","LA","The Home Depot","12300 I-10 Service Rd","70128",30.04714650793626,-89.95532512664795
"70127","New Orleans","LA","Stonehedge Construction","4040 Read Blvd","70127",30.011850357055664,-89.96756744384766
"70127","New Orleans","LA","Bbc True Value Hardware","9885 Chef Menteur Hwy","70127",30.018967,-89.970844
"70127","New Orleans","LA","minuteKEY","6000 Bullard Ave","70128",30.042362,-89.96083
"70127","New Orleans","LA","Dash Lumber","not_available","70127",30.015365999999997,-89.978854
"70127","New Orleans","LA","minuteKEY","5770 Read Blvd","70127",30.03462028503418,-89.97740173339844
"70128","New Orleans","LA","John's Contractor Service LLC","13335CURRAN Road","70128",30.061566999999997,-89.956397
"70130","New Orleans","LA","Sherwin-Williams Paint Store","209 N Peters St","70130",29.952842999999998,-90.065573
"70131","New Orleans","LA","Harry's Ace Hardware","4817 General Meyer Ave","70131",29.931568,-90.0042704
"70301","Thibodaux","LA","Lowe's","614 North Canal","70301",29.811916,-90.8173484
"70301","Thibodaux","LA","Garage Door Repair Whitestone","39-11 Utopia Pkwy","11358",29.742935573680473,-90.56315660476683
"70301","Thibodaux","LA","Grand True Value Rental","1007 St Patrick Hwy","70301",29.8033797959184,-90.8214095918367
"70301","Thibodaux","LA","Benoit Locksmith Inc","not_available","70301",29.798045,-90.840848
"70301","Thibodaux","LA","Sherwin-Williams Paint Store","31 Rienzi Dr","70301",29.805616316763217,-90.81830377727147
"70301","Thibodaux","LA","minuteKEY","410 N Canal Blvd","70301",29.8095137,-90.8183708
"70301","Thibodaux","LA","Sugarland Do It Best","4560 Highway 1","70394",29.704593658447266,-90.56714630126953
"70301","Thibodaux","LA","TRUE VALUE HDW.","1143 Tiger Dr","70301",29.786468505859375,-90.83789825439453
"70301","Thibodaux","LA","Reeco True Value Hardware","1762 Canal Blvd","70301",29.779510498046875,-90.81920623779297
"70301","Thibodaux","LA","Grand True Value Rental","1007 Saint Patrick St","70301",29.8033797959,-90.8214095918
"70301","Thibodaux","LA","minuteKEY","614 N Canal Blvd","70301",29.81209,-90.81750500000001
"70339","Pierre Part","LA","Ace Hardware","3421 Highway 70 S","70339",29.95598030090332,-91.21221160888672
"70341","Belle Rose","LA","Stewie's All Around Drain Clean Out","406 406 LA-1000","70341",30.032339,-91.075096
"70341","Belle Rose","LA","Sagona's Hardware","6188 Highway 1","70391",29.99968719482422,-91.05534362792969
"70342","Berwick","LA","Berwick True Value Hardware","900 Utah St","70342",29.69078,-91.2243
"70344","Chauvin","LA","Chauvin Brothers","5573 Highway 56","70344",29.43467,-90.595951
"70345","Cut Off","LA","Kief Hardware","16230","70345",29.475665,-90.329046
"70345","Cut Off","LA","B & B Hardware & Rental","13222 W Main St","70373",29.566821,-90.37320799999999
"70345","Cut Off","LA","Sears","16230 LA -3235","70345",29.475554497441244,-90.32949902331347
"70345","Cut Off","LA","Renovations Hardware","16815 E Main St","70345",29.464054,-90.310303
"70345","Cut Off","LA","minuteKEY","16759 HWY 3235","70345",29.4709096,-90.3242707
"70346","Donaldsonville","LA","The Home Depot","2740 South Cajun Ave","70737",30.206874973976156,-90.94117641448975
"70346","Donaldsonville","LA","Ace Hardware","301 Railroad Ave","70346",30.104201,-90.988404
"70346","Donaldsonville","LA","Lemans","not_available","70346",30.106606,-90.987148
"70346","Donaldsonville","LA","Tractor Supply Co.","414 West Hwy 30","70737",30.212183,-90.923968
"70346","Donaldsonville","LA","Fastenal","9460 Ashland Rd","70737",30.209289225756006,-90.96182679125187
"70346","Donaldsonville","LA","Atlas Copco Rental","9422 Ashland Rd","70737",30.20821774895997,-90.96170468260425
"70346","Donaldsonville","LA","Blue Rhino","6431 Highway 44","70737",30.1660213470459,-90.92009735107422
"70346","Donaldsonville","LA","ProSource of Gonzales","2325 S Commerce Ave","70737",30.21252,-90.94092
"70346","Donaldsonville","LA","Crawford Electric Supply","36426 Highway 30","70734",30.212142944335938,-90.99446868896484
"70354","Galliano","LA","Rebstock Supply Company","18708","not_available",29.40015,-90.274487
"70354","Galliano","LA","Golden Meadow True Value Hardware","205 N Bayou Dr","70357",29.392980575561523,-90.2693862915039
"70354","Galliano","LA","C&P Distributing","1607 N Bayou Dr","70357",29.40324592590332,-90.27397155761719
"70354","Galliano","LA","Husqvarna","125 W 202nd St","70354",29.417110443115234,-90.28707122802734
"70357","Golden Meadow","LA","K-Mar Supply","654 A O Rappelet Rd","70357",29.123329162597656,-90.19489288330078
"70357","Golden Meadow","LA","Express Supply & Steel","not_available","70357",29.120623,-90.195241
"70358","Grand Isle","LA","Grand Isle Community Center","not_available","70358",29.243628354160215,-89.97695026933539
"70359","Gray","LA","Tractor Supply Co.","3827 West Park Ave","70359",29.683283,-90.78324
"70359","Gray","LA","Surplus Warehouse","3802 West Main","70359",29.683390999999997,-90.78599200000001
"70360","Houma","LA","The Home Depot","1717 Martin L King Blvd","70360",29.6096641,-90.7555664
"70360","Houma","LA","Lowe's","1592 Martin Luther King Blvd","70360",29.6108444,-90.7485994
"70360","Houma","LA","Harbor Freight","2197","70360",29.633350372314453,-90.7627182006836
"70360","Houma","LA","Northern Tool + Equipment","1548 Martin Luther King Blvd.","70360",29.6081258,-90.7474079
"70360","Houma","LA","Sherwin-Williams Paint Store","800 W Tunnel Blvd","70360",29.591313,-90.731088
"70360","Houma","LA","Husqvarna US","1203 Saint Charles St","70360",29.59221076965332,-90.74153137207031
"70360","Houma","LA","Valley Supply Company Of Houma","1000 Barataria Ave","70360",29.590581,-90.726543
"70360","Houma","LA","NUTS AND BOLTS","not_available","70364",29.609987,-90.736439
"70360","Houma","LA","Hydraulics Plus Inc","128 N Hollywood Rd","70364",29.60753,-90.73913
"70360","Houma","LA","Bills Hardware","6270 W Main St","70360",29.624465,-90.752197
"70360","Houma","LA","minuteKEY","1592 Martin Luther King Jr Blvd","70360",29.61096,-90.748234
"70360","Houma","LA","See Ya Security Systems","not_available","70360",29.594337965404645,-90.75421571731566
"70360","Houma","LA","True Value","St Charles","70360",29.589817,-90.744174
"70360","Houma","LA","Evenflo Gutters & Patios","203 Country Boy Ct","70364",29.660752000000002,-90.76122099999999
"70360","Houma","LA","AllStream Services and Rental","1345 Valhi Boulevard","70360",29.589886,-90.7685675
"70360","Houma","LA","Sears Appliance Repair","133 Monarch Dr","70364",29.608947999999998,-90.742398
"70360","Houma","LA","minuteKEY","1633 Martin Luther King Jr Blvd","70360",29.60807228088379,-90.75155639648438
"70360","Houma","LA","Vida Paint Supply","100 Bond St","70360",29.591434000000003,-90.725477
"70360","Houma","LA","Ppg Paints","227 Enterprise Dr","70360",29.614008000000002,-90.751051
"70360","Houma","LA","Grand True Value Rental","600 Barataria Ave","70360",29.5926289,-90.7261588
"70360","Houma","LA","Husqvarna","6462 W Park Ave","70364",29.62150764465332,-90.74871063232422
"70363","Houma","LA","Fastenal","not_available","70363",29.576147,-90.68699699999999
"70363","Houma","LA","Hebert's Marine","2248 Grand Caillou Rd","70363",29.549306,-90.679239
"70363","Houma","LA","minuteKEY","933 Grand Caillou Rd","70363",29.58445930480957,-90.69290161132812
"70363","Houma","LA","The A. F. Davidson Corp.","1410 E Tunnel Blvd","70363",29.586599,-90.70561500000001
"70380","Morgan City","LA","Tractor Supply Co.","773 Highway 90 East","70380",29.680248,-91.275376
"70380","Morgan City","LA","minuteKEY","973 Highway 90 E","70380",29.6814256,-91.2683154
"70380","Morgan City","LA","B&d Feeds","not_available","70380",29.69669,-91.20279
"70380","Morgan City","LA","Shannon Hardware","606 Front St","70380",29.69636630384263,-91.21072769165039
"70380","Morgan City","LA","Aucoin's Hardware","430 Levee Rd","70380",29.6993748,-91.20677
"70380","Morgan City","LA","Sherwin-Williams Paint Store","1310 Victor Ii Blvd","70380",29.699441771698172,-91.19544982910156
"70380","Morgan City","LA","Tiger Island Hardware","7393 Highway 182 E","70380",29.694353103637695,-91.18456268310547
"70390","Napoleonville","LA","Dan Boudreaux's Ace Hardware","4767 Highway 1","70390",29.940035,-91.022828
"70401","Hammond","LA","Lowe's","3007 Highway 190 West","70401",30.502279,-90.4968
"70401","Hammond","LA","Tractor Supply Co.","12512 Hwy 190","70401",30.504036530817693,-90.51727264730451
"70401","Hammond","LA","Sherwin-Williams Paint Store","2435 W Thomas St","70401",30.501712373029257,-90.48859119415283
"70401","Hammond","LA","Harbor Freight","not_available","70401",30.504213,-90.496475
"70401","Hammond","LA","Reeves True Value Hardware","1113 E Thomas St","70401",30.50714776,-90.44855118
"70401","Hammond","LA","Notoco","not_available","70403",30.497672,-90.485832
"70401","Hammond","LA","minuteKEY","3007 HIGHWAY 190 WEST","70401",30.502273559570312,-90.4966812133789
"70401","Hammond","LA","RSI Building Products of Hammond","47152 Conrad E Anderson St","70401",30.538244247436523,-90.41664123535156
"70401","Hammond","LA","HANSA-FLEX USA","122 Lear Dr","70401",30.519125649171272,-90.42622316032714
"70401","Hammond","LA","Husqvarna","18082 Highway 190 E","70401",30.51044273376465,-90.4247817993164
"70403","Hammond","LA","The Home Depot","400 W Minnesota Park Rd","70403",30.4851228,-90.4603877
"70403","Hammond","LA","minuteKEY","1331 Highway 51","70454",30.443641662597656,-90.45407104492188
"70403","Hammond","LA","Circle A Hardware","29187 La-43","70711",30.492975,-90.582608
"70420","Abita Springs","LA","Southland Plumbing Supply","68443 Highway 59 Ste 6","70471",30.426183,-90.040751
"70420","Abita Springs","LA","Backroads Mercantile","Hwy 21","not_available",30.558211758042017,-90.01044023206246
"70420","Abita Springs","LA","J & D Small Engine Repair","70283 Highway 59","70420",30.452903747558594,-90.04093933105469
"70420","Abita Springs","LA","DALCO Kitchens","70343 7th St","70433",30.45498275756836,-90.0615005493164
"70420","Abita Springs","LA","Ewing Irrigation","68710 Highway 59","70471",30.43315225386425,-90.04031344326904
"70420","Abita Springs","LA","Pine Grove Electrical Supply","50 West Ct","70471",30.426464,-90.03754
"70420","Abita Springs","LA","Husqvarna","21459 Highway 36","70420",30.462966918945312,-90.03600311279297
"70422","Amite","LA","Blades & Barrels","1101 W Oak St","70422",30.725984573364258,-90.52586364746094
"70422","Amite","LA","Hometown Ace Hardware Inc","301 NW Central Ave","70422",30.733476,-90.509293
"70422","Amite","LA","Husqvarna US","PO Box 530","70456",30.77597999572754,-90.50843048095703
"70422","Amite","LA","Hometown Farm & Garden","not_available","Louisiana",30.729649,-90.509191
"70422","Amite","LA","Eastside Gararge Inc.","111 E Chestnut St","70422",30.71826341707878,-90.57049512863159
"70422","Amite","LA","Husqvarna","19434 Commerce St","70446",30.637304306030273,-90.39874267578125
"70427","Bogalusa","LA","minuteKEY","401 Ontario Ave","70427",30.793283462524414,-89.86511993408203
"70427","Bogalusa","LA","Sears","412 Avenue B","70427",30.7782944,-89.8651994
"70427","Bogalusa","LA","Tractor Supply Co.","320 Cumberland St","70427",30.790345,-89.862312
"70427","Bogalusa","LA","Husqvarna","63176 Highway 10","70427",30.792587280273438,-89.83229064941406
"70431","Bush","LA","Mid Point Feed And Seed","19744 Hwy 40","70435",30.57897231,-90.07623562
"70433","Covington","LA","Lowe's","1280 North Highway 190","70433",30.4476212,-90.0790568
"70433","Covington","LA","The Home Depot","40 Park Place Dr","70433",30.4413143,-90.0789783
"70433","Covington","LA","Harbor Freight Tools","1000 E Boston St, Unit 41","70433",30.47614288330078,-90.0850830078125
"70433","Covington","LA","Tchefuncte Ace Hardware","408 Covington St","70447",30.408168,-90.159563
"70433","Covington","LA","Tractor Supply Co.","1884 Collins Blvd","70433",30.495753884229757,-90.10151968620191
"70433","Covington","LA","Steve's Ace Hardware","1620 N Highway 190","70433",30.4542119,-90.081529
"70433","Covington","LA","Sherwin-Williams Paint Store","1433 N Highway 190","70433",30.45087957714002,-90.0826495885849
"70433","Covington","LA","minuteKEY","1280 N Highway 190","70433",30.447359999999996,-90.078863
"70433","Covington","LA","Ace Covington 190","Highway 190","70433",30.454759,-90.08169
"70433","Covington","LA","Marsolan Feed & Seed","not_available","70433",30.476517,-90.09662
"70433","Covington","LA","Watertech Corporation","510 E Gibson St","70433",30.4771008,-90.093992
"70433","Covington","LA","Madisonville Hardware & Lumber","407 hwy 22 w","not_available",30.410320480043634,-90.1683299781591
"70433","Covington","LA","Poole Lumber Company","1815 N Columbia St","70433",30.49496078491211,-90.1078872680664
"70433","Covington","LA","Sherwin-Williams Paint Store","70360 Highway 21","70433",30.451560974121094,-90.13587951660156
"70433","Covington","LA","1st Class AC & Heating LLC","71113 Lake Placid Dr","70433",30.4628849029541,-90.16123962402344
"70433","Covington","LA","minuteKEY","880 N Highway 190","70433",30.443297,-90.078678
"70433","Covington","LA","Larry's Hardware","720 N Columbia St","70433",30.480789184570312,-90.09529876708984
"70433","Covington","LA","ProSource of Mandeville","13464 Seymour Meyers Blvd","70433",30.453077,-90.178292
"70433","Covington","LA","H.J. Smith's Sons General Merchants","308 N Columbia St","70433",30.476085,-90.094572
"70433","Covington","LA","Husqvarna","1430 Collins Blvd","70433",30.492563247680664,-90.09500885009766
"70438","Franklinton","LA","Knight's Ace Hardware","1107 Washington St","70438",30.845984,-90.152775
"70438","Franklinton","LA","Tractor Supply Co.","2125 Washington St","70438",30.84733347237718,-90.1342129248111
"70441","Greensburg","LA","Circle A Hardware","1344 Old Highway 10","70441",30.82794952392578,-90.66673278808594
"70443","Independence","LA","Independence Hardware","not_available","70443",30.633776,-90.481339
"70444","Kentwood","LA","Kentwood Hardware & Supply","901 3rd St","70444",30.9360339,-90.508977
"70444","Kentwood","LA","Kentwood Co-Op","not_available","70444",30.923040165571468,-90.52310320400414
"70444","Kentwood","LA","Kentwood True Value","717 Ave G","70444",30.9372492,-90.5188046
"70445","Lacombe","LA","The Home Depot","143 Northshore Blvd","70460",30.306413,-89.825949
"70445","Lacombe","LA","Tractor Supply Co.","2083 Gause Blvd West","70460",30.3008141274969,-89.8186970360594
"70445","Lacombe","LA","Lacombe True Value Hardware","28017 Highway 190","70445",30.313443,-89.942364
"70445","Lacombe","LA","minuteKEY","167 Northshore Blvd","70460",30.3082174,-89.8289172
"70448","Mandeville","LA","Mandeville Ace Hardware & Supplies","2445 Florida St","70448",30.3677959,-90.068955
"70448","Mandeville","LA","Quality Plumbing","833 Carroll St","70448",30.36440400198776,-90.06497797950557
"70448","Mandeville","LA","Helm Paint & Decorating","3659 Highway 190","70471",30.393430709838867,-90.08570098876953
"70448","Mandeville","LA","Sherwin-Williams Paint Store","4250 Highway 22","70471",30.395187377929688,-90.09521484375
"70452","Pearl River","LA","Brewin Septic Tank Service","39207 Pine St","70452",30.375312,-89.755519
"70452","Pearl River","LA","Johnston Supply","536 J F Smith Ave","70460",30.320180892944336,-89.77681732177734
"70452","Pearl River","LA","Husqvarna","39609 Pump Slough Rd","70452",30.37738800048828,-89.74188232421875
"70453","Pine Grove","LA","Deltak Manufacturing, Inc.","not_available","70785",30.64158024891534,-90.79082792836549
"70458","Slidell","LA","Lowe's","39184 Natchez Drive","70461",30.279754,-89.7476641
"70458","Slidell","LA","The Home Depot","874 I-10 Service Road","70461",30.2875252,-89.7466811
"70458","Slidell","LA","Ace Hardware","1037 Robert Blvd","70458",30.290087,-89.77024
"70458","Slidell","LA","Pontchartrain Hardware/Lumber Co","3320 Pontchartrain Dr","70458",30.27,-89.78
"70458","Slidell","LA","Slidell Feed Seed & True Value Hardware","101 W Pennsylvania Ave","70460",30.280500411987305,-89.78240203857422
"70458","Slidell","LA","minuteKEY","3130 Pontchatrain Dr.","70458",30.2607552,-89.7860951
"70458","Slidell","LA","minuteKEY","39142 Natchez Dr","70461",30.27855682373047,-89.74903869628906
"70458","Slidell","LA","minuteKEY","39184 Natchez Dr","70461",30.2798384,-89.7469088
"70458","Slidell","LA","coburns","not_available","70458",30.26590215202412,-89.78620161845423
"70458","Slidell","LA","Mikes True Value Hardware","540 Brownswitch Rd","70458",30.31039512,-89.75430168
"70458","Slidell","LA","Hans' Repair Service Inc","40020 Highway 190 E","70461",30.264951,-89.737864
"70458","Slidell","LA","Jackson Supply","not_available","70460",30.314986085754374,-89.7776108175352
"70458","Slidell","LA","Harbor Freight Tools","1555 Gause Blvd Ste A","70458",30.28266459097958,-89.75520540217858
"70458","Slidell","LA","Sherwin-Williams Paint Store","39201 Natchez Dr","70461",30.281490325927734,-89.74742126464844
"70458","Slidell","LA","minuteKEY","637 Robert Blvd","70458",30.297746658325195,-89.76156616210938
"70461","Slidell","LA","Solar Supply","40167 Highway 190 E","70461",30.26548,-89.733021
"70462","Springfield","LA","Circle A Hardware","31718 La-22","70454",30.4287141984495,-90.5480875400726
"70471","Mandeville","LA","Pittsburgh Paint","2675 N Causeway Blvd","70471",30.403179168701172,-90.08558654785156
"70501","Lafayette","LA","The Home Depot","1700 NE Evangeline Thruway","70501",30.245809730546,-92.01051414012909
"70501","Lafayette","LA","Guidry's Hardware & Supply  Inc.","1818 Jefferson St","70501",30.215341,-92.011036
"70501","Lafayette","LA","The Belt Store","2109 Jefferson St","70501",30.214358,-92.008351
"70501","Lafayette","LA","Gauthiers'","not_available","70507",30.270567,-92.01728
"70501","Lafayette","LA","Habitat for Humanity ReStore","215 E Pinhook Rd","70501",30.216257000000002,-92.008087
"70501","Lafayette","LA","Air Gas","not_available","70501",30.22073722,-92.00113509
"70501","Lafayette","LA","Coburnâ€™s Supply","530 N Pierce St","70501",30.240143,-92.018487
"70501","Lafayette","LA","Hi Tech Tools And Fasteners Inc","204 Paul Dr","70501",30.2442604105546,-91.9980829059213
"70501","Lafayette","LA","Bearing Service & Supply, Inc.","1708 Jefferson Street","70501",30.216027,-92.011822
"70501","Lafayette","LA","Husqvarna","3547 NW Evangeline Trwy","70520",30.26744270324707,-92.0181655883789
"70501","Lafayette","LA","minuteKEY","1229 NE Evangeline Trwy","70501",30.239219665527344,-92.01226806640625
"70501","Lafayette","LA","American Freight (Sears Outlet) - Appliance, Furniture, Mattress","2001 NW Evangeline Thruway, Ste 200","70501",30.2492075,-92.0153024
"70503","Lafayette","LA","Lowe's","3726 Ambassador Caffery","70503",30.1704425,-92.0685195
"70503","Lafayette","LA","The Home Depot","3721 Ambassador Caffery Pkwy","70503",30.173559,-92.0673505
"70503","Lafayette","LA","Doug Ashy Building Materials","1601 Verot School Rd, Lafayette, LA 70508","70508",30.164215000000002,-92.020142
"70503","Lafayette","LA","Sherwin-Williams Paint Store","4307 Johnston St","70503",30.19460269709103,-92.05643892288207
"70503","Lafayette","LA","Harbor Freight Tools","128 Arnould Blvd","70506",30.20325200546531,-92.05381205680654
"70503","Lafayette","LA","minuteKEY","3726 Ambassador Caffery Pkwy","70503",30.170195,-92.06875
"70503","Lafayette","LA","minuteKEY","3142 Ambassador Caffery Pkwy","70506",30.187282,-92.078517
"70503","Lafayette","LA","Surplus Warehouse","2315 West Pinhook Road","70508-3233",30.183355,-92.00646
"70503","Lafayette","LA","Doug Ashy Building Materials","4950 Johnston St","70503",30.18497,-92.068381
"70503","Lafayette","LA","Windows Doors & More","not_available","70506",30.19582,-92.066395
"70503","Lafayette","LA","The Plumbing Warehouse","3201 Ambassador Caffery Pkwy","70506",30.18607072,-92.07456566
"70503","Lafayette","LA","Carter chambers","208 Row One","70508",30.167853000000004,-92.004485
"70503","Lafayette","LA","lowed","not_available","70508",30.15475845336914,-92.0420150756836
"70503","Lafayette","LA","Accent Walls","2429 W Congress St","70506",30.213178634643555,-92.04830169677734
"70503","Lafayette","LA","H2O","841 Vincent Rd","70508",30.130956649780273,-92.05440521240234
"70503","Lafayette","LA","Farrell-Calhoun Paint","4545 Johnston St","70503",30.19034604450143,-92.0614149564314
"70503","Lafayette","LA","Sherwin-Williams Paint Store","215 E Kaliste Saloom Rd","70508",30.192531,-92.011434
"70503","Lafayette","LA","Northern Tool + Equipment","3559 Ambassador Caffery Pkwy","70503",30.1769936,-92.0707308
"70503","Lafayette","LA","Sears Home & Life","4405 Ambassador Caffery","70508",30.159136,-92.047905
"70503","Lafayette","LA","All Seasons","3201-A Kaliste Saloom Rd.","70508",30.147500423238196,-92.05679529921284
"70503","Lafayette","LA","Surplus WareHouse Lafayette","2315 West Pinhook Road","70508",30.1833874,-92.0064694
"70503","Lafayette","LA","Builders Tools And Fasteners","4947 Johnston St, Lafayette, LA 70503","70503",30.183881,-92.068017
"70506","Lafayette","LA","Ralphs Electronics","3112 Cameron St","70506",30.232874,-92.054794
"70506","Lafayette","LA","Guidry Hardware","5611 Cameron St","70583",30.233141999999997,-92.09123000000001
"70506","Lafayette","LA","Johnson Supply","113 Banks Ave","70506",30.230591999999998,-92.060424
"70506","Lafayette","LA","Star Measurement","408 Sunbeam Ln","70583",30.23858898,-92.05664008
"70506","Lafayette","LA","Warrior Fasteners","100-198 S Bud St","70583",30.239049911499023,-92.0616683959961
"70506","Lafayette","LA","Double W Home & Ranch LLC","108 Brumley Ln","70529",30.181974411010742,-92.1295166015625
"70506","Lafayette","LA","Tractor Supply Co","651 I 10 North Frontage Rd","70583",30.249466024531948,-92.11156368255615
"70506","Lafayette","LA","Energy Battery","112 N Pat St","70583",30.240352,-92.057869
"70506","Lafayette","LA","John H Cater","401 Wall St","70506",30.220115000000003,-92.060053
"70506","Lafayette","LA","Guidry's Hardware & Supply  Inc.","5633 Cameron St","70583",30.2456,-92.1003
"70507","Lafayette","LA","Lowe's","120 East Gloria Switch Road","70507",30.29421,-92.02127
"70507","Lafayette","LA","minuteKEY","120 E Gloria Switch Rd","70507",30.294246,-92.021294
"70507","Lafayette","LA","Sherwin-Williams Floorcovering Store","811 W Gloria Switch Rd","70507",30.29668439640761,-92.04665422439575
"70508","Lafayette","LA","Stine","6501 Ambassador Caffery Pkwy","70518",30.137427753596835,-91.98972742455263
"70508","Lafayette","LA","Csi Inc","112 Row One","70508",30.168549,-92.00224200000001
"70508","Lafayette","LA","Coastal Supply Inc","223 Industrial Pkwy","70508",30.187384447404643,-92.0034560015246
"70508","Lafayette","LA","Ewing Irrigation","2411 S College Rd","70508",30.184559999999998,-91.99547
"70508","Lafayette","LA","The Grass & Rock Shoppe","1800 E Milton Ave","70508",30.108669,-92.0383109
"70508","Lafayette","LA","Carter chambers","406-438 Row 1","70508",30.16747364,-92.00361442
"70508","Lafayette","LA","Davids True Value Hardware","3120 W Pinhook Rd","70508",30.169534381442514,-91.99975510952804
"70510","Abbeville","LA","Lowe's","2700 Charity Street","70510",29.9704213,-92.1032822
"70510","Abbeville","LA","Tractor Supply Co.","3410 Veterans Memorial Dr","70510",29.968490600585938,-92.08807373046875
"70510","Abbeville","LA","Brasseux's Hardware","300 S State St","70510",29.9718491,-92.13639300000001
"70510","Abbeville","LA","Abbeville Snapper","1010 Charity St","70510",29.973052441997837,-92.12913182020773
"70510","Abbeville","LA","Stine","2401 Veterans Memorial Dr","70510",29.97808074951172,-92.10803985595703
"70510","Abbeville","LA","Abbeville Hardware","232 S Main St","70510",29.9713569,-92.14047359999999
"70510","Abbeville","LA","minuteKEY","3005 Veterans Memorial Dr","70510",29.972515106201172,-92.09517669677734
"70510","Abbeville","LA","Cajun True Value Hardware","607 E 1st St","70548",29.99651102,-92.27998571
"70510","Abbeville","LA","Appels True Value Hardware","25238 La Highway 333","70510",29.78408189,-92.15970737
"70510","Abbeville","LA","Otto Hebert Lumberyard","13717 St. Elmo Rd.","not_available",29.94715468955438,-92.0057689825018
"70510","Abbeville","LA","Husqvarna","13820 Jude Rd","70533",29.952999114990234,-92.0228500366211
"70512","Arnaudville","LA","Harry Garys Lawn Service","1225B Grand Anse Hwy","70517",30.3488691,-91.81283189999999
"70512","Arnaudville","LA","Gulf South Lumber & Hardware","1602 Court A Bleau","70512",30.397727,-91.923888
"70512","Arnaudville","LA","Gulf South Lumber & Hardware / Ace of Arnaudville","1602 Bayou Courtableau Hwy","70512",30.395958,-91.931998
"70512","Arnaudville","LA","Blue Rhino","1030 Coteau Rodaire Hwy","70512",30.398022,-91.925876
"70517","Breaux Bridge","LA","Tractor Supply Co.","1404 Rees St","70517",30.285572,-91.904912
"70517","Breaux Bridge","LA","Doug Ashy Building Materials","1801 Rees St","70517",30.287415000000003,-91.910647
"70517","Breaux Bridge","LA","minuteKEY","1932 Rees St","70517",30.29308319091797,-91.91085815429688
"70517","Breaux Bridge","LA","Breaux Bridge True Value Hardware","219 S Main St","70517",30.27300857,-91.89847571
"70517","Breaux Bridge","LA","Breaux Bridge Sales & Rentals","522 E Bridge St","70517",30.276452,-91.896313
"70518","Broussard","LA","The Home Depot","213 Saint Nazaire Rd","70518",30.143589,-91.9407415
"70518","Broussard","LA","PSC Supply & Hardware","1014 Albertson Pkwy","70518",30.13921,-91.95351
"70518","Broussard","LA","H&E Equipment Services","5407 Hwy 90 E","70518",30.124905,-91.943318
"70518","Broussard","LA","Gas And Supply","not_available","70518",30.164880696325906,-91.97048615908729
"70518","Broussard","LA","Railside Feed & Supply, LLC","1021 Albertson Pkwy","70518",30.140473999999998,-91.95388100000001
"70518","Broussard","LA","Spartan Industrial Products","3341 U.S. 90","70518",30.165396,-91.974362
"70518","Broussard","LA","Shannon Hardware","101 Nolan Rd","70518",30.164399,-91.973272
"70518","Broussard","LA","Sherwin-Williams Paint Store","1145 Albertson Pkwy","70518",30.141490208160228,-91.95011615753174
"70520","Carencro","LA","Coastal Pipe Of Louisiana","4831 NW Evangeline Trwy","70520",30.36538,-92.04999
"70525","Church Point","LA","Daigle Hardware","110 Plaquemine","70525",30.408255,-92.219085
"70525","Church Point","LA","Blue Rhino","142 East Plaquemine Street","70525",30.4083194732666,-92.21858215332031
"70526","Crowley","LA","Gary Matte Home Center","not_available","70578",30.252456924436142,-92.27653578753598
"70526","Crowley","LA","Lowe's","142 Julia John Drive","70526",30.2326783,-92.3607326
"70526","Crowley","LA","Sherwin-Williams Paint Store","203 W 2nd St","70526",30.210341,-92.372782
"70526","Crowley","LA","Cajun Tie Downs","515 S Avenue E","70526",30.207239151000977,-92.37226867675781
"70526","Crowley","LA","Rayne Ace Hardware","1403 Boulevard","70578",30.2498722076416,-92.2708511352539
"70526","Crowley","LA","Farmers True Value Hardware","221 S Adams Ave","70578",30.234182357788086,-92.26852416992188
"70526","Crowley","LA","Stine","235 Odd Fellows Rd","70526",30.231048583984375,-92.37861633300781
"70526","Crowley","LA","Acadia Scrap & Salvage","206 Standard Mill Rd","70526",30.213306427001953,-92.3590087890625
"70526","Crowley","LA","Inkcarts.com","513 N Parkerson Ave","70526",30.21364974975586,-92.37368774414062
"70526","Crowley","LA","Tractor Supply Co.","204 Odd Fellows Rd","70526",30.229390999999996,-92.379094
"70529","Duson","LA","Double W True Value Hardware","108 Brumley Rd","70529",30.181862,-92.129733
"70529","Duson","LA","Husqvarna","9727 CAMERON ST","70529",30.234668731689453,-92.20538330078125
"70535","Eunice","LA","Smith's Tv Hardware & Everything Rental Center","300 E Laurel Ave","70535",30.495271682739258,-92.41193389892578
"70535","Eunice","LA","Ace Hardware","801 N 8th St","70535",30.501623153686523,-92.42442321777344
"70535","Eunice","LA","minuteKEY","1538 Highway 190","70535",30.4949501,-92.4309457
"70535","Eunice","LA","Sears","340 East Laurel","70535",30.4952247,-92.4116469
"70535","Eunice","LA","Tractor Supply Co.","1559 Hwy 190","70535",30.49585,-92.44674
"70535","Eunice","LA","Sherwin-Williams Paint Store","1550 W Laurel Ave","70535",30.495091050118457,-92.4314734339714
"70538","Franklin","LA","Himel Motor Supply Iberia Inc","1012 Main St","70538",29.796185,-91.501321
"70538","Franklin","LA","Sherwin-Williams Paint Store","1803 Main St","70538",29.80674934387207,-91.50785064697266
"70538","Franklin","LA","Austin's Construction & Repair","558 Prairie Rd N","70538",29.741840362548828,-91.4120864868164
"70538","Franklin","LA","Mark Tool and Rubber Co.","10502 Highway 182","70538",29.76658058166504,-91.46926879882812
"70542","Gueydan","LA","Terry's Feed Lone Star Feed","not_available","70549",30.092494,-92.672532
"70542","Gueydan","LA","COMMERICAL TRUE VALUE HARDWARE","211 1st St","70542",30.022972106933594,-92.51374053955078
"70544","Jeanerette","LA","Williams True Value Hardware","700 Main St","70544",29.9107,-91.66284
"70544","Jeanerette","LA","cheney lumber","439 Milmo St","70544",29.913450241088867,-91.67005157470703
"70546","Jennings","LA","Stine","110 Fred & Ruth Zigler Memorial Dr","70546",30.24173927307129,-92.66307067871094
"70546","Jennings","LA","Sears","1226 Elton Rd","70546",30.232948303222656,-92.66194152832031
"70546","Jennings","LA","Tractor Supply Co.","1333 Elton Rd","70546",30.234549764822795,-92.6641028491714
"70554","Mamou","LA","True Value Hardware","533 6th St","70554",30.63148633,-92.41953
"70555","Maurice","LA","Brasseux's Hardware","9611 Maurice Ave","70555",30.099501,-92.123749
"70560","New Iberia","LA","Lowe's","2816 Highway 14","70560",29.9870071,-91.8545592
"70560","New Iberia","LA","Tractor Supply Co.","808 Hwy 90 East","70560",29.971824645996094,-91.8426742553711
"70560","New Iberia","LA","Bayou Paints","not_available","70560",29.986665,-91.817854
"70560","New Iberia","LA","Husqvarna US","PO Box 9687","70562",29.994150161743164,-91.84764862060547
"70560","New Iberia","LA","minuteKEY","1205 E Admiral Doyle Dr","70560",29.983694076538086,-91.81623077392578
"70560","New Iberia","LA","Sherman's Lock and Key Shop","818 Julia St","70560",29.998688,-91.825786
"70560","New Iberia","LA","RP's Sewer Services","4803 Old La 25","70560",29.976894,-91.891334
"70560","New Iberia","LA","Sherwin-Williams Paint Store","904 S Lewis St","70560",29.98833754091559,-91.81819438934326
"70560","New Iberia","LA","Husqvarna","1502 Center St","70560",29.99091148376465,-91.83394622802734
"70560","New Iberia","LA","Husqvarna","416 S Landry Dr","70560",30.019033432006836,-91.83650207519531
"70560","New Iberia","LA","Husqvarna","1014 Center St","70560",29.99579620361328,-91.82760620117188
"70570","Opelousas","LA","Tractor Supply Co.","241 Acadiana Prep Cir","70570",30.537594,-92.05718
"70570","Opelousas","LA","Lowe's","1130 East Landry Street","70570",30.529802,-92.069423
"70570","Opelousas","LA","Daire's Lawn Mower Service","not_available","70570",30.563411712646484,-92.07331848144531
"70570","Opelousas","LA","Sherwin-Williams Paint Store","6053 I 49 S Service Rd","70570",30.5198753631023,-92.06965684890747
"70570","Opelousas","LA","Husqvarna","433 W South St","70570",30.531261444091797,-92.08839416503906
"70578","Rayne","LA","Doug Ashey Building Supply","300 E Texas Ave","not_available",30.234698,-92.26711
"70582","Saint Martinville","LA","Ace Hardware","331 S Main St","70582",30.1210239,-91.829857
"70583","Scott","LA","Cameron","302 Toledo Dr","70506",30.23113250732422,-92.05916595458984
"70583","Scott","LA","HD Supply White Cap","2606 Cameron St","70506",30.23278171,-92.0465409
"70583","Scott","LA","Page Wire Rope & Slings, Inc.","101 Gallier St","70506",30.22948,-92.05543399999999
"70586","Ville Platte","LA","Chaddrick's Tree Service","1025 Floyd C Rd","70586",30.866369247436523,-92.46420288085938
"70586","Ville Platte","LA","Industrial Service & Supply","1212 W Lincoln Rd","70586",30.70018469,-92.28448551
"70586","Ville Platte","LA","Comercial Distribuidora Canaan","21 Calle 5-95 zona 4","not_available",30.6597765,-92.17471929999999
"70586","Ville Platte","LA","Vidrine's Ace Hardware","320 W Main St","70586",30.687897,-92.272627
"70586","Ville Platte","LA","Boco's Engine Service","208 E Magnolia St","70586",30.686084,-92.271829
"70589","Washington","LA","Husqvarna US","PO Box 168","71358",30.702775955200195,-91.90203094482422
"70589","Washington","LA","Husqvarna","165 W. RAILROAD AVE","71358",30.717575073242188,-91.91259765625
"70592","Youngsville","LA","Husqvarna","1000 Bonin Rd","70508",30.14640235900879,-92.00814056396484
"70601","Lake Charles","LA","BMC Sales & Service","929 Sampson","70669",30.245927897992413,-93.2581342429271
"70601","Lake Charles","LA","Ppg Paints","2002 Prien Lake Rd","70601",30.19781,-93.193504
"70601","Lake Charles","LA","Surplus WareHouse Lake Charles","339 Martin Luther King Blvd","70601",30.2414748,-93.1812608
"70601","Lake Charles","LA","Abc Supply","2137 Oak Park Blvd","70601",30.204349517822266,-93.18988037109375
"70601","Lake Charles","LA","Harlow's","not_available","70601",30.218371,-93.21604
"70601","Lake Charles","LA","Harbor Freight Tools","3250 Gertsner Memorial Dr","70601",30.198999404907227,-93.18045806884766
"70601","Lake Charles","LA","Sherwin-Williams Paint Store","508 E Prien Lake Rd","70601",30.19588238637371,-93.21626901626585
"70601","Lake Charles","LA","American Freight (Sears Outlet) - Appliance, Furniture, Mattress","3230 Gerstner Memorial Drive","70601",30.1996949,-93.1817961
"70601","Lake Charles","LA","Planet Pools","1720 E Prien Lake Rd","70601",30.19982073,-93.24788196
"70601","Lake Charles","LA","Grand True Value Rental","2004 E College St","70607",30.196516036987305,-93.1919937133789
"70601","Lake Charles","LA","Northern Tool + Equipment","3131 Gerstner Memorial Drive","70601",30.2006639,-93.1800933
"70601","Lake Charles","LA","LA-TEX Rubber & Specialties Inc.","828 4th Ave","70601",30.2265221,-93.1931441
"70605","Lake Charles","LA","Stine","4501 Nelson Rd","70605",30.175349379112344,-93.24818152545812
"70605","Lake Charles","LA","Sherwin-Williams Paint Store","1520 W McNeese St","70605",30.17659255239547,-93.2461166381836
"70605","Lake Charles","LA","Solar Supply","not_available","70605",30.19472955749996,-93.21769379319377
"70605","Lake Charles","LA","Grand True Value Rental","487 Hwy 171 N","70607",30.12612436422458,-93.31787109374999
"70605","Lake Charles","LA","Shaw nucular","not_available","70607",30.145859529028154,-93.21377818049982
"70605","Lake Charles","LA","Vac Central","3507 Common St","70607",30.1936408597006,-93.2140627633046
"70607","Lake Charles","LA","The Home Depot","3200 E Prien Lake Rd","70615",30.196934871978293,-93.17063391208649
"70607","Lake Charles","LA","Lowe's","2800 Derek Drive","70607",30.192032,-93.176064
"70607","Lake Charles","LA","Blue Rhino","15013 Highway 44","70737",30.051516,-93.2130467
"70607","Lake Charles","LA","Cutters Outdoor Power Equipment","1701 E McNeese St","70607",30.17654349899837,-93.19648011534423
"70607","Lake Charles","LA","Builders Sav More","1910 E McNeese St","70607",30.17502974,-93.19320761
"70607","Lake Charles","LA","ProSource of Lake Charles","2341 E McNeese St","70607",30.17634,-93.18019
"70611","Lake Charles","LA","Tractor Supply Co.","181 Hwy 171","70611",30.299196,-93.19674
"70611","Lake Charles","LA","Grand True Value Rental","487 N Highway 171","70611",30.3070501123,-93.1950143429
"70611","Lake Charles","LA","minuteKEY","2500 N Martin Luther King Hwy","70601",30.2729711,-93.1825636
"70611","Lake Charles","LA","Sherwin-Williams Paint Store","1290 Sam Houston Jones Pkwy","70611",30.301286697387695,-93.22026062011719
"70611","Lake Charles","LA","minuteKEY","260 Sam Houston Jones Pkwy","70611",30.302419662475586,-93.19931030273438
"70615","Lake Charles","LA","G-G Valve & Supply Inc","225 Bunker Rd","70615",30.237411,-93.163595
"70615","Lake Charles","LA","Louisiana Rents - Lake Charles","503 LA-397","70615",30.2321214,-93.129311
"70615","Lake Charles","LA","Himmel's Commercial Doors & Repairs","3255 E Prien Lake Rd","70615",30.19862,-93.16995
"70615","Lake Charles","LA","Emery Simien Iron Works","3212 Manchester Rd","70647",30.198139190673828,-93.09965515136719
"70631","Cameron","LA","Big Red A/c","150 Bland Dr","77611",30.030965999999996,-93.83355
"70631","Cameron","LA","Fred Millers","not_available","77619",29.941806,-93.922936
"70631","Cameron","LA","Napa Auto Store","4506 Gulfway Dr","77642",29.916032791137695,-93.9186782836914
"70631","Cameron","LA","orange county Building Materials","not_available","77611",30.042930603027344,-93.82501983642578
"70631","Cameron","LA","Sherwin-Williams Commercial Paint Store","2425 Jefferson Dr","77642",29.923249890638687,-93.91613245010376
"70631","Cameron","LA","Drago Hardware","1900 9th Ave","77642",29.909407694745823,-93.92174566090263
"70631","Cameron","LA","S&M Gasket","not_available","77630",30.021986,-93.873495
"70633","Dequincy","LA","Lyons Lumber And Coal","402 E Harrison St","70633",30.449251174926758,-93.43203735351562
"70634","Deridder","LA","Stine","1335 North Pine","70634",30.869165420532227,-93.28545379638672
"70634","Deridder","LA","Sherwin-Williams Paint Store","602 N Pine St","70634",30.854098379192127,-93.28855991363525
"70634","Deridder","LA","Moyers, David","201 Pine Ridge Rd","70634",30.8116397857666,-93.34369659423828
"70634","Deridder","LA","O'Neal's Feeders Supply","not_available","70634",30.835900709424998,-93.28730963471406
"70634","Deridder","LA","Tractor Supply Co.","1050 North Pine St","70634",30.863773345947266,-93.28517150878906
"70634","Deridder","LA","Moses True Value","1007 E 1st St","70634",30.84687,-93.26734
"70634","Deridder","LA","Sears","1339 North Pine","70634",30.871056,-93.285588
"70634","Deridder","LA","minuteKEY","1125 N Pine St","70634",30.8660326,-93.2880625
"70648","Kinder","LA","Husqvarna US","PO Box 277","70648",30.502023696899414,-92.85215759277344
"70648","Kinder","LA","Sonniers Western Auto","1115 Third Ave","70648",30.48562853,-92.84591
"70653","Merryville","LA","Husqvarna US","11827 Highway 190 W","70653",30.75299072265625,-93.55326843261719
"70655","Oberlin","LA","Tractor Supply Co.","733 Hwy 165 South","71463",30.799876,-92.673896
"70661","Starks","LA","burke Hardware","not_available","77614",30.302221298217773,-93.74793243408203
"70663","Sulphur","LA","Lowe's","305 South Cities Service Highway","70663",30.2196038,-93.3241891
"70663","Sulphur","LA","Stine","2950 Ruth St","70665",30.209941864013672,-93.37789154052734
"70663","Sulphur","LA","H&E Equipment Services","2320 Louis Alleman Pkwy","70663",30.247400283813477,-93.35279083251953
"70663","Sulphur","LA","Ferguson Waterworks","1631 Swisco Rd","70665",30.209810256958008,-93.34459686279297
"70663","Sulphur","LA","Atlas Copco Rental","707 E. Napoleon","70663",30.2363413,-93.3697445
"70663","Sulphur","LA","Tractor Supply Co.","340 West Cal Blvd","70665",30.21187531787885,-93.37803506851196
"70663","Sulphur","LA","Delta Rigging & Tools, Inc","1366 Swisco Rd","70665",30.208770751953125,-93.34886169433594
"70663","Sulphur","LA","Sherwin-Williams Paint Store","1816 Ruth St","70663",30.221250183164567,-93.37584972381592
"70663","Sulphur","LA","minuteKEY","525 N Cities Service Hwy","70663",30.233154,-93.326094
"70663","Sulphur","LA","Sonnys Hardware","not_available","70669",30.265362519815177,-93.32506838232813
"70663","Sulphur","LA","Crawford Electric Supply","3451 S Beglis Pkwy","70665",30.20527458190918,-93.35800170898438
"70663","Sulphur","LA","Vallen","2055 Swisco Rd","70665",30.20939064025879,-93.33377838134766
"70663","Sulphur","LA","Home Building True Value Materials","435 E Napoleon St","70663",30.23635,-93.37295
"70663","Sulphur","LA","Sulphur Glass Co","813 E Napoleon St","70663",30.23663,-93.369364
"70663","Sulphur","LA","HD Supply White Cap","3177 Carbide Drive","70665",30.20643476,-93.33319417
"70663","Sulphur","LA","Stine Lumber Co.","1907 Ruth St","70663",30.220155661087908,-93.37685004734911
"70663","Sulphur","LA","Grainger","not_available","70665",30.210344,-93.326139
"70663","Sulphur","LA","Phillip Smith's Ac And Heating Repair.","2409","70663",30.227453713918354,-93.35206934072912
"70706","Denham Springs","LA","Watson Lawn & Outdoor LLC.","34711 Louisiana Hwy 16","70706",30.5712357,-90.95619169999999
"70706","Denham Springs","LA","Watson True Value Hardware","34972 Old La Hwy 16","70706",30.57585906,-90.95599979
"70710","Addis","LA","Addis Hardware","not_available","70710",30.35947190550738,-91.2600136636809
"70714","Baker","LA","Baker Hardware","6655 Lavey Ln","70714",30.575994,-91.12717099999999
"70714","Baker","LA","Husqvarna US","9156 Joor Rd","70818",30.532751083374023,-91.06126403808594
"70714","Baker","LA","minuteKEY","14507 Plank Rd","70714",30.5801744,-91.1312309
"70715","Batchelor","LA","Pointe coupee farmers co-op","not_available","70715",30.842220306396484,-91.66289520263672
"70719","Brusly","LA","Husqvarna","438 N. VAUGHN DR","70719",30.39179229736328,-91.23980712890625
"70722","Clinton","LA","Pat's Home Center","Highway 67","70722",30.853288650512695,-91.00621795654297
"70722","Clinton","LA","RTR Power Equipment","8170 Highway 63","70722",30.8505123,-91.003726
"70722","Clinton","LA","Husqvarna","9731 HWY 67 S","70722",30.834964752197266,-90.99645233154297
"70722","Clinton","LA","Husqvarna US","PO Box 8662","70722",30.843923568725586,-90.95853424072266
"70726","Denham Springs","LA","The Home Depot","2255 Home Depot Dr","70726",30.4600375,-90.9591059
"70726","Denham Springs","LA","Stine","29200 Walker Rd S","70785",30.482652513447324,-90.86165466650932
"70726","Denham Springs","LA","Husqvarna US","8472 Florida Blvd","70726",30.482608795166016,-90.9160385131836
"70726","Denham Springs","LA","minuteKEY","904 S Range Ave","70726",30.4724389,-90.9543663
"70726","Denham Springs","LA","minuteKEY","17858 Airline Hwy.","70769",30.3369872,-90.9882822
"70726","Denham Springs","LA","minuteKEY","25820 LA Highway 16","70726",30.443599700927734,-90.94522857666016
"70726","Denham Springs","LA","Livingston Mower Supply & Home Center","28159 S Satsuma Rd","70754",30.4555009,-90.7975919
"70726","Denham Springs","LA","Nautical Pools, LLC","17085 Sills Dr","70769",30.3175792,-90.9847014
"70726","Denham Springs","LA","Davies Equipment","not_available","70726",30.485653,-90.9568
"70726","Denham Springs","LA","Farrell-Calhoun Paint","1116 Florida Blvd.","70726",30.473827351608417,-90.9620693043405
"70726","Denham Springs","LA","Sherwin-Williams Paint Store","1344 S Range Ave","70726",30.46824836730957,-90.95596313476562
"70726","Denham Springs","LA","minuteKEY","28270 Walker Rd S","70785",30.4766203,-90.8597537
"70726","Denham Springs","LA","minuteKEY","40567 Highway 42","70769",30.323497772216797,-90.92125701904297
"70726","Denham Springs","LA","GALVEZ TRUE VALUE HARDWARE","41049 Highway 42","70769",30.324844360351562,-90.92058563232422
"70726","Denham Springs","LA","Ascension Furniture","38501 Louisiana 42","70769",30.3202055,-90.9596866
"70726","Denham Springs","LA","Tractor Supply Co.","246 Florida Ave Southeast","70726",30.482033808921116,-90.9531899704555
"70726","Denham Springs","LA","Husqvarna","18215 LA HWY# 16","70726",30.334951400756836,-90.84361267089844
"70734","Geismar","LA","Hutchs Ace Hardware","38011 Highway 621","70737",30.268810272216797,-90.97167205810547
"70734","Geismar","LA","Wolseley Industrial Group","36100 Highway 30","70734",30.21892738342285,-91.00279998779297
"70734","Geismar","LA","Vallen","5265 Gateway Dr","70734",30.231687545776367,-91.0239028930664
"70734","Geismar","LA","HD Supply White Cap","5348 Gateway Drive","70734",30.23214869,-91.02227982
"70734","Geismar","LA","Blue Rhino","12513 Highway 73","70734",30.253969,-90.990149
"70737","Gonzales","LA","Lowe's","12484 Airline Highway","70737",30.2508892,-90.9226642
"70737","Gonzales","LA","Harbor Freight Tools","12537 Airline Hwy","70737",30.251238,-90.92611
"70737","Gonzales","LA","minuteKEY","308 N Airline Hwy","70737",30.2353487,-90.9089326
"70737","Gonzales","LA","Delaunes Do It Center","Hwy 431","70774",30.254511578226083,-90.87032262544251
"70737","Gonzales","LA","Gonzales True Value Hrdw","504 S Burnside Ave","70737",30.229316,-90.920395
"70737","Gonzales","LA","Rollin' Homes Parts & Services","not_available","70737",30.246629,-90.918587
"70737","Gonzales","LA","Purpera & sons","Airline hwy","70737",30.22895,-90.90399
"70737","Gonzales","LA","Old Time Farm Supply, Inc.","13218 Hwy 44","70737",30.260656,-90.920688
"70737","Gonzales","LA","Direct Tools Factory Outlet","2210 Tanger Blvd Ste 199","70737",30.21504020690918,-90.95206451416016
"70737","Gonzales","LA","Diversified Materials-Consulting","16052 Airline Hwy","70769",30.298703827887707,-90.9682559967041
"70737","Gonzales","LA","Pella Windows and Doors","15470 Airline Hwy","70769",30.292568,-90.962416
"70737","Gonzales","LA","Sherwin-Williams Paint Store","11139A Airline Hwy","70737",30.22805461252513,-90.90366840362549
"70737","Gonzales","LA","Acme Refrigeration of Gonzales","1921 S Philippe Ave","70737",30.217628,-90.930051
"70737","Gonzales","LA","Purpera and Sons Lumber Co, INC","559 S Airline Hwy","70737",30.228331,-90.904767
"70739","Greenwell Springs","LA","minuteKEY","10200 Sullivan Rd","70818",30.5418094,-91.0252012
"70739","Greenwell Springs","LA","Sherwin-Williams Paint Store","14395 Greenwell Springs Rd","70739",30.513690999999998,-91.029275
"70739","Greenwell Springs","LA","PriceCo Supply","15151 Greenwell Springs Rd","70739",30.517736434936523,-91.02096557617188
"70744","Holden","LA","Livingston True Value And Farm Supply","14116 Florida Blvd","70754",30.503063,-90.7404
"70744","Holden","LA","Valery Watts Furniture Co","13060 Florida Blvd","70754",30.5032308,-90.7393386
"70748","Jackson","LA","minuteKEY","5801 Main St","70791",30.651176,-91.142199
"70748","Jackson","LA","Tri-Parish Co-Op","not_available","70777",30.721912,-91.14292
"70748","Jackson","LA","The Felicianas' Store","2012 LA-10","70748",30.8369385,-91.2122106
"70748","Jackson","LA","Feliciana Pro Home","2012 Highway 10","70748",30.836929321289062,-91.2121353149414
"70748","Jackson","LA","Rouses Ace Hardware #60","2300 Church St","70791",30.6527999,-91.1794
"70754","Livingston","LA","ASAP Portable Welding","not_available","70754",30.47279248306301,-90.76661825180054
"70759","Morganza","LA","COW TOWN FEED & SUPPLY","2442 Morganza Hwy","70760",30.70478630065918,-91.47438049316406
"70759","Morganza","LA","Husqvarna","1620 HOSPITAL RD","70760",30.69538688659668,-91.47235870361328
"70760","New Roads","LA","Tractor Supply Co.","2050 False River Dr Ste A","70760",30.685174,-91.459659
"70760","New Roads","LA","minuteKEY","460 Hospital Rd","70760",30.688310623168945,-91.4654312133789
"70764","Plaquemine","LA","St. Gabriel Hardware","2045 Highway 30","70776",30.28491899172375,-91.11185073852539
"70764","Plaquemine","LA","Bayou Road Ace Hardware","58005 Bayou Rd","70764",30.2918939,-91.237408
"70764","Plaquemine","LA","Sherwin-Williams Paint Store","23710 Eden St","70764",30.287494531663544,-91.23351573944092
"70764","Plaquemine","LA","Tractor Supply Co.","58485 Belleview Rd","70764",30.273224,-91.235634
"70764","Plaquemine","LA","White Castle True Value Hardware","32705 Hwy 1 S","70788",30.17185,-91.14525
"70769","Prairieville","LA","Sherwin-Williams Commercial Paint Store","16585 Airline Hwy","70769",30.31179207,-90.97827941
"70769","Prairieville","LA","Power Tool Specialties","37009 Lirocchi Park","70769",30.279010772705078,-90.98802947998047
"70769","Prairieville","LA","Sherwin-Williams Paint Store","16186 Airline Hwy","70769",30.302709579467773,-90.97099304199219
"70769","Prairieville","LA","Himmel's Commercial Doors & Repairs","16491 Airline Hwy","70769",30.309754,-90.976725
"70774","Saint Amant","LA","Husqvarna","9563 AIRLINE HWY","70778",30.195438385009766,-90.86185455322266
"70791","Zachary","LA","The Home Depot","6600 Main Street","70791",30.6478805,-91.1337141
"70791","Zachary","LA","Sherwin-Williams Paint Store","20012 Old Scenic Hwy","70791",30.649271999999996,-91.192413
"70791","Zachary","LA","Thurston Watts","not_available","70791",30.647322999999997,-91.14952
"70791","Zachary","LA","Tractor Supply Co.","10011 Main St","70791",30.649174,-91.10122
"70802","Baton Rouge","LA","Acadian True Value Hardware","1733 N Acadian Thruway W","70802",30.463876000000003,-91.156483
"70802","Baton Rouge","LA","Assured Flooring","not_available","70808",30.415246,-91.144695
"70802","Baton Rouge","LA","minuteKEY","3132 College Dr","70808",30.4206967,-91.1430156
"70802","Baton Rouge","LA","State Lumber","2646 Highland Rd","70802",30.423374,-91.179392
"70802","Baton Rouge","LA","Ferguson Waterworks","2056 Sorrel Ave","70802",30.465433,-91.180325
"70802","Baton Rouge","LA","True Value Hardware","2882 Government St","70806",30.443801,-91.159228
"70802","Baton Rouge","LA","Sherwin-Williams Paint Store","4469 Perkins Rd","70808",30.41727623004658,-91.14381793963682
"70802","Baton Rouge","LA","Camcorp Industrial ltd","Spanish town road","70802",30.4549322,-91.1774018
"70802","Baton Rouge","LA","Power Tool Specialties","1675 Choctaw Dr","70805",30.470259000000002,-91.172597
"70802","Baton Rouge","LA","BR Mattress Outlet","4065 Florida Blvd","70806",30.4513455,-91.1485559
"70802","Baton Rouge","LA","Wilson Warehouse","444 Chippewa St","70805",30.47002,-91.186548
"70805","Baton Rouge","LA","Industrial Screw And Supply Co.","4535 Choctaw Dr","70805",30.470846999999996,-91.14406899999999
"70805","Baton Rouge","LA","Farrell-Calhoun Paint","7522 S Choctaw Dr","70806",30.470623,-91.11282299999999
"70805","Baton Rouge","LA","Capitol Welders Supply Co","5111 Choctaw Dr","70805",30.471481,-91.13883299999999
"70805","Baton Rouge","LA","Brookstown Hardware","not_available","70805",30.494906,-91.134703
"70805","Baton Rouge","LA","Sherwin-Williams Paint Store","5613 Plank Rd","70805",30.500843,-91.153047
"70806","Baton Rouge","LA","Ed Price Lumber","not_available","70815",30.46872028624229,-91.10638911381075
"70806","Baton Rouge","LA","The Home Depot","8181 Airline Highway","70815",30.4640186,-91.1007502
"70806","Baton Rouge","LA","Lowe's","9460 Cortana Place","70815",30.4620888,-91.0939815
"70806","Baton Rouge","LA","Goodwood Hardware & Outdoors","7539 Jefferson Hwy","70806",30.4328019,-91.1095708
"70806","Baton Rouge","LA","Crawford Electric Supply","8536 S Choctaw Dr","70815",30.470955902539647,-91.09856662257972
"70806","Baton Rouge","LA","Freeman Products","8443 Tom Dr","70815",30.468477000000004,-91.099104
"70806","Baton Rouge","LA","Cajun Hose & Fittings","7973 Commerce Ave","70815",30.4677499,-91.1008768
"70806","Baton Rouge","LA","Newman Construction Supply","519 N Foster Dr","70806",30.4531969,-91.139122
"70806","Baton Rouge","LA","Irby","7984 Commerce Ave","70815",30.466767965651925,-91.10121309757233
"70806","Baton Rouge","LA","Clegg's Nursery Donmoor Ave","274 N Donmoor Ave","70806",30.4528010012441,-91.1183811969508
"70806","Baton Rouge","LA","Tool Shed","1856 Wooddale Ct","70806",30.466311,-91.111774
"70806","Baton Rouge","LA","minuteKEY","9350 Cortana Pl","70815",30.46198081970215,-91.09099578857422
"70806","Baton Rouge","LA","Sherwin-Williams","7471 Tom Dr","70806",30.463110999999998,-91.112861
"70806","Baton Rouge","LA","Sherwin-Williams Paint Store","7447 Jefferson Hwy","70806",30.43416976928711,-91.1116943359375
"70806","Baton Rouge","LA","minuteKEY","9460 Cortana Pl","70815",30.46202850341797,-91.09396362304688
"70807","Baton Rouge","LA","Acadian True Value Hardware","7350 Scenic Hwy","70807",30.51519714,-91.17588429
"70808","Baton Rouge","LA","Louisiana Nursery","not_available","70810",30.387088160035955,-91.10450324421224
"70808","Baton Rouge","LA","Highland Hardware & Garden","7460 Highland Rd","70808",30.377118,-91.138038
"70808","Baton Rouge","LA","Harrison Paint, Inc.","4823 Perkins Rd","70808",30.414775,-91.13864699999999
"70809","Baton Rouge","LA","Lowe's","10303 South Mall Drive","70809",30.3761596,-91.0653166
"70809","Baton Rouge","LA","The Home Depot","10300 Coursey Blvd","70816",30.4160317,-91.0660565
"70809","Baton Rouge","LA","The Home Depot","18139 Highland Rd","70810",30.350597050885277,-91.02862147617998
"70809","Baton Rouge","LA","Sears","6501 Bluebonnet Blvd","70836",30.38973462,-91.0884291
"70809","Baton Rouge","LA","Harbor Freight Tools","1821 S Sherwood Forest Blvd","70816",30.435468599723187,-91.05662401262241
"70809","Baton Rouge","LA","Ed's Shenandoah Hardware","5715 Jones Creek Rd","70817",30.401797,-91.016426
"70809","Baton Rouge","LA","Acme Refrigeration Of Baton Rouge","11345 Pennywood Ave","70809",30.392219,-91.054711
"70809","Baton Rouge","LA","Jobsite Supplies, Inc.","4417 S Jeffrey Dr","70816",30.41080093383789,-91.0623779296875
"70809","Baton Rouge","LA","Capitol Materials Inc","10049 Reiger Road","70809",30.3842008,-91.0646573
"70809","Baton Rouge","LA","Ewing Irrigation","11638 Cloverland Ave","70809",30.390648053220207,-91.05167001485825
"70809","Baton Rouge","LA","American Key & Lock Co.","5712 South Sherwood Forest Blvd","70816",30.404434000000002,-91.05231500000001
"70809","Baton Rouge","LA","Sherwin-Williams Paint Store","5807 Siegen Ln","70809",30.396155,-91.056772
"70809","Baton Rouge","LA","Farrell-Calhoun Paint","12718 Perkins Rd","70810",30.368449365714955,-91.07628667031935
"70809","Baton Rouge","LA","Chenevert Hardware","13301-13499 Louisiana 427","70810",30.367160166666668,-91.07037026666667
"70809","Baton Rouge","LA","The Plumbing Warehouse - Baton Rouge","6232 Siegen Ln","70809",30.39351388,-91.06038235
"70809","Baton Rouge","LA","South Central Pools","7115 Exchequer Dr","70809",30.376295000000002,-91.050037
"70809","Baton Rouge","LA","H&E Equipment Services","7502 Pecue Ln","70809",30.382283,-91.042112
"70809","Baton Rouge","LA","H&E Equipment Services Headquarters","7500 Pecue Ln","70809",30.383599,-91.041759
"70809","Baton Rouge","LA","Harrison Paint","6030 Jones Creek Rd","70817",30.398352000000003,-91.017961
"70810","Baton Rouge","LA","Fastenal","11931 Industriplex Blvd","70809",30.385053999999997,-91.048739
"70810","Baton Rouge","LA","Advanced Handyman","14080 Tiger Bend Rd","70817",30.391023999999998,-91.02678399999999
"70810","Baton Rouge","LA","Blue Rhino","6576 Jones Creek Rd","70817",30.392562866210938,-91.01983642578125
"70810","Baton Rouge","LA","Contractor supply","not_available","70809",30.366031646728516,-91.02745056152344
"70810","Baton Rouge","LA","Davis Sales: Decorative Hardware And Accessories","Perkins Rd. @ Siegen Ln","not_available",30.36775,-91.076344
"70810","Baton Rouge","LA","Sherwin-Williams Floorcovering Store","6547 Pecue Ln","70817",30.391875,-91.04057
"70810","Baton Rouge","LA","minuteKEY","10550 Burbank Dr","70810",30.35678482055664,-91.10993194580078
"70810","Baton Rouge","LA","Sherwin-Williams Paint Store","10090 Bluebonnet Blvd","70810",30.354232788085938,-91.11184692382812
"70814","Baton Rouge","LA","Chenevert True Value Hardware #3","2989 Monterrey Dr","70814",30.475891999999998,-91.084188
"70814","Baton Rouge","LA","Louisiana Tool Repair","10227 Mammoth Ave","70814",30.477056,-91.073573
"70814","Baton Rouge","LA","Thermacon Manufacturing","2824 Fellsway Dr","70814",30.474539,-91.085615
"70814","Baton Rouge","LA","Betz Sheetmetal","10276 S Choctaw Dr","70815",30.471756,-91.07024100000001
"70814","Baton Rouge","LA","Baker Distributing","2642 Meeker Dr","70814",30.473142,-91.077381
"70814","Baton Rouge","LA","Clegg's Nursery - Greenwell Springs","10645 Greenwell Springs Rd","70814",30.49356,-91.06504
"70815","Baton Rouge","LA","Surplus WareHouse Baton Rouge","12152 Florida Blvd","70815",30.4591909,-91.0464444
"70815","Baton Rouge","LA","Sherwin-Williams Paint Store","10910 Florida Blvd","70815",30.457465000000003,-91.063099
"70816","Baton Rouge","LA","Lowe's","1777 Millerville Road","70816",30.4435823,-91.0228949
"70816","Baton Rouge","LA","B & B Faucet Repair","not_available","70819",30.463431,-91.025855
"70816","Baton Rouge","LA","CLEGG'S NURSERY - SIEGEN LANE","5696 Siegen Ln","70809",30.39910125732422,-91.05653381347656
"70816","Baton Rouge","LA","Advanced Fleet Specialities","15600 Florida Blvd","70819",30.465435,-91.013414
"70817","Baton Rouge","LA","BR Mattress Outlet","18181 Jefferson Highway","70817",30.3563303,-90.9925611
"70817","Baton Rouge","LA","Sherwin-Williams Paint Store","5740 Jones Creek Rd","70817",30.40182472,-91.01747721
"70817","Baton Rouge","LA","Poly Drip Irrigation","13799 Airline Hwy","70817",30.370387,-91.028686
"70817","Baton Rouge","LA","Blue Rhino","10051 Gulf Hwy","70607",30.3926193,-91.0183954
"70819","Baton Rouge","LA","Naylor's Hardware and Garden Center","14441 Old Hammond Hwy","70816",30.451411,-91.026323
"70819","Baton Rouge","LA","Robinson Fence","17486 Florida","70819",30.467102,-90.995012
"70819","Baton Rouge","LA","Peststop","not_available","70816",30.457212619231314,-91.00860891654179
"71006","Benton","LA","Tubbs Hardware","6100 Highway 3","71006",32.6619758605957,-93.74736022949219
"71016","Castor","LA","The General Store","not_available","71016",32.25321960449219,-93.16529083251953
"71019","Coushatta","LA","CBS Home Express  LLC","5075 Cut Off Rd","71019",32.02063751220703,-93.3348388671875
"71030","Gloster","LA","Desoto Town & Country","2379 Hwy 171","71078",32.241126969697,-93.8254693939394
"71032","Grand Cane","LA","Ivey Lumber","not_available","71052",32.03741835253113,-93.7020156865558
"71032","Grand Cane","LA","Tractor Supply Co.","225 Lake Rd","71052",32.04146,-93.6943
"71037","Haughton","LA","Ivey Lumber Company","1820 U.S. 80","71037",32.554500579833984,-93.60840606689453
"71038","Haynesville","LA","Bill Bauer True Value Hardware","1842 Main St","71038",32.96096420288086,-93.13995361328125
"71040","Homer","LA","Sears","914 West Main","71040",32.8053315,-93.0549906
"71040","Homer","LA","Husqvarna","1957 Highway 146","71040",32.74580764770508,-93.0022964477539
"71047","Keithville","LA","Tractor Supply Co.","9620 Mansfield Rd","71118",32.386217,-93.818832
"71055","Minden","LA","Tractor Supply Co.","1090 Homer Rd","71055",32.622170000000004,-93.255584
"71055","Minden","LA","A/C SERVICES OF MINDEN","5170 Highway 528","71055",32.599237114191055,-93.36048401892185
"71055","Minden","LA","Hol-Mont Sales","1040 Highway 531","71055",32.60087,-93.25128
"71055","Minden","LA","Sherwin-Williams Paint Store","1146 Homer Rd","71055",32.622170000000004,-93.255584
"71055","Minden","LA","southern pipe","300 Dixie","71055",32.614205174409285,-93.2822927255904
"71055","Minden","LA","Ace Hardware","807 Homer Rd","71055",32.62258,-93.265312
"71055","Minden","LA","Howard Lumber and Supply","not_available","71055",32.610672568176554,-93.28890670178545
"71060","Mooringsport","LA","Oil City Supply","110 Furman St, Oil City, LA 71061","71061",32.74369812011719,-93.9716796875
"71071","Sarepta","LA","Tractor Supply Co.","1795 3rd St Southeast","71075",32.985049,-93.458562
"71075","Springhill","LA","Sears","522 South Main","71075",32.99675100000001,-93.46152831779096
"71075","Springhill","LA","Nelson's","not_available","71075",33.001289,-93.460498
"71101","Shreveport","LA","Spell Bros. Lumber Company","not_available","71111",32.518892,-93.723056
"71101","Shreveport","LA","4B Construction Group, LLC","976 Jordan St","71101",32.49856185913086,-93.75174713134766
"71103","Shreveport","LA","Cowtown Materials","2601 Samford Avenue","71103",32.48694888,-93.75627537
"71103","Shreveport","LA","Dealers Truck Equipment Co., Inc.","2460 Midway St","71108",32.47103691101074,-93.77586364746094
"71105","Shreveport","LA","Lowe's","7301 Youree Drive","71105",32.4406192,-93.7147479
"71105","Shreveport","LA","Appliance Outlet","1101-1199 E Kings Hwy","71105",32.43833928122016,-93.71441476169875
"71105","Shreveport","LA","Sears Parts & Repair Center","7460 Youree Dr","71105",32.43690490722656,-93.7176513671875
"71105","Shreveport","LA","Barksdale Hardware","3216 Barksdale Blvd","71112",32.493734,-93.688716
"71105","Shreveport","LA","minuteKEY","7301 Youree Dr","71105",32.440731048583984,-93.71448516845703
"71105","Shreveport","LA","Sherwin-Williams Paint Store","1811 E 70th St","71105",32.443123917873045,-93.71208071708679
"71105","Shreveport","LA","Oreck","Bayou Walk","71106",32.443771009762116,-93.72181497770431
"71106","Shreveport","LA","The Home Depot","110 E Bert Kouns Ind Lp","71106",32.3998491,-93.7489986
"71106","Shreveport","LA","Baker Distributing Company","523 W 67th St","71106",32.44431414899319,-93.76714057138852
"71106","Shreveport","LA","Harbor Freight Tools","341 Bert Kouns Industrial Loop","71106",32.397097949289545,-93.75816741947945
"71106","Shreveport","LA","Custom-Bilt","6000 Union Ave","71108",32.4525833700513,-93.77210386000918
"71106","Shreveport","LA","RSC Equipment Rental","not_available","71106",32.424671,-93.757551
"71106","Shreveport","LA","King Hardware and Fancy","4834 Line Ave","71106",32.45667796440612,-93.74724764999199
"71106","Shreveport","LA","Morrison Supply HVAC Division","6101 Courtesy Ln","71108",32.451471,-93.776894
"71106","Shreveport","LA","Commercial Power Equipment of Shreveport","750 Bert Kouns Industrial Loop","71118",32.402886,-93.777903
"71106","Shreveport","LA","Ewing Irrigation","234 Lynbrook Blvd","71106",32.422707118221076,-93.75990763307982
"71106","Shreveport","LA","Sherwin-Williams Paint Store","305 Bert Kouns Industrial Loop","71106",32.397768,-93.757773
"71106","Shreveport","LA","The Plumbing Warehouse","235 Lynbrook Blvd","71106",32.42169038,-93.75941563
"71107","Shreveport","LA","Tractor Supply Co.","2151 Autoplex Dr","71111",32.561137,-93.730492
"71107","Shreveport","LA","irby","1211 Airport Dr","71107",32.532018,-93.752413
"71107","Shreveport","LA","LaDanCo, LLC","1012 Hawn Ave","71107",32.531131,-93.75416
"71107","Shreveport","LA","Atlas Copco Rental","1023 Hawn Avenue","71107",32.530573,-93.754506
"71107","Shreveport","LA","John Howe Scored & Stained Concrete","1006 N Lane Dr","71107",32.592026000000004,-93.826673
"71107","Shreveport","LA","Bearing Service & Supply, Inc.","1327 North Market St","71107",32.532872999999995,-93.767332
"71108","Shreveport","LA","Sutherlands","2705 W 70th St","71108",32.440797399472636,-93.78289732194827
"71108","Shreveport","LA","appliance parts co.","5520 Jewella Ave","71109",32.458638,-93.797659
"71108","Shreveport","LA","Ferguson Waterworks","5058 Jefferson Paige Rd","71109",32.47184,-93.829863
"71108","Shreveport","LA","Sherwin-Williams Commercial Paint Store","3204 W 70th St","71108",32.442268,-93.788892
"71108","Shreveport","LA","Aluminum Awning & Jalousie Co","4101 Greenwood Rd, Shreveport, LA 71109","71109",32.470493,-93.81135
"71109","Shreveport","LA","Grainger","not_available","71109",32.45726776123047,-93.83084869384766
"71110","Barksdale Afb","LA","floor king's","4207 Lark St","71112",32.477301,-93.672381
"71110","Barksdale Afb","LA","Parkway Hardware","4314 Parkway","71112",32.473856,-93.671929
"71110","Barksdale Afb","LA","Ponder Power Equipment","3402 Industrial Dr","71112",32.523314,-93.688156
"71110","Barksdale Afb","LA","Louisiana Rents - Bossier City","5410 Kennon Ln","71112",32.528905,-93.656651
"71110","Barksdale Afb","LA","H&E Equipment Services","5908 Industrial Dr Ext","71112",32.532519,-93.653354
"71110","Barksdale Afb","LA","Quality Cleaning Equipment & Supply","1003 Jeter St","71111",32.531755,-93.681253
"71110","Barksdale Afb","LA","Precision Mechanical Services","3910 Industrial Cir","71112",32.529303,-93.649914
"71111","Bossier City","LA","The Home Depot","2800 Airline Dr","71111",32.5539364,-93.7083692
"71111","Bossier City","LA","Lowe's","2360 Airline Drive","71111",32.5458087,-93.7069197
"71111","Bossier City","LA","Industrial Solutions","4101 Drive","71111",32.551267,-93.688726
"71111","Bossier City","LA","Tubb's Hardware","600 Benton Road","71111",32.52390741251395,-93.71708410235746
"71111","Bossier City","LA","Bbbdhhsh","1267 Dudley lane","71112",32.51151695828398,-93.6994206905365
"71111","Bossier City","LA","Tubbs Hardware & Rental","615 Benton Rd","71111",32.524157,-93.717185
"71111","Bossier City","LA","Bbvbbvb","1266 Dudley lane","71112",32.50996078347734,-93.69878768920898
"71111","Bossier City","LA","Wax sad","1269 Dudley lane","71112",32.5114536261142,-93.69946360588074
"71111","Bossier City","LA","minuteKEY","5700 Shed Rd","71111",32.560020446777344,-93.64766693115234
"71111","Bossier City","LA","H&E Equipment Services","3775 Old Shed Rd","71111",32.5404503,-93.689053
"71111","Bossier City","LA","Bjsjdj","1263 Dudley lane","71112",32.51171600195566,-93.69895935058594
"71111","Bossier City","LA","Hardware","1261 Dudley Ln","71112",32.513088,-93.699619
"71111","Bossier City","LA","minuteKEY","2360 Airline Dr","71111",32.54628372192383,-93.70690155029297
"71112","Bossier City","LA","Ellis Home & Garden","1150 Airline Dr","71112",32.50581028530703,-93.69631098644925
"71112","Bossier City","LA","Henson's Lighting","1609 Jimmie Davis Hwy","71112",32.459617614746094,-93.67064666748047
"71112","Bossier City","LA","Sherwin-Williams Paint Store","2108 Airline Dr","71111",32.533723,-93.70574
"71118","Shreveport","LA","Discount Building Supply","8989 Mansfield Rd","71118",32.410884,-93.793947
"71118","Shreveport","LA","minuteKEY","2710 Alkay Dr","71118",32.41007614135742,-93.80067443847656
"71118","Shreveport","LA","Sears","9356 S. Mansfield Rd., Suite 200","71118",32.3984919,-93.8088526
"71118","Shreveport","LA","Lowe's","2710 Alkay Drive","71118",32.4100232,-93.8003299
"71118","Shreveport","LA","Home Outlet","2706 Mackey Lane","71118",32.412743,-93.799209
"71119","Shreveport","LA","Lanford Hardware","6239 Greenwood Rd","71119",32.451405,-93.867906
"71119","Shreveport","LA","Garrison's Home & Garden Showplace","6905 Greenwood Rd","71119",32.452883,-93.886054
"71129","Shreveport","LA","The Home Depot","6900 Pines Road","71129",32.4436019,-93.8646833
"71129","Shreveport","LA","Im Movin In.","not_available","71129",32.44359279325846,-93.86408124043533
"71201","Monroe","LA","Ram Rent-All, Inc.","3117 Concordia Ave","71201",32.524318,-92.084632
"71201","Monroe","LA","Surplus Warehouse Monroe","2010 Louisville Avenue","71201",32.5182489,-92.1029759
"71201","Monroe","LA","Sherwin-Williams Paint Store","2310 Sterlington Rd","71203",32.545024,-92.076658
"71201","Monroe","LA","Tyner Petrus True Value -3","3000 Breard St","71201",32.52352,-92.08816
"71201","Monroe","LA","irby","703 Stella St","71291",32.500256,-92.134341
"71201","Monroe","LA","Tyner-Petrus True Value Hardware","101 Mill St","71291",32.503707,-92.126545
"71201","Monroe","LA","Tool Town","704 N 7th St","71291",32.50273895263672,-92.13480377197266
"71201","Monroe","LA","Sterlington Ace Hardware","9092 Highway 165 N","71280",32.52396,-92.081368
"71201","Monroe","LA","Bob Moss Carpet One Floor & Home","610 Louisville Ave","71201",32.510833740234375,-92.11671447753906
"71201","Monroe","LA","3B Outdoor Equipment","2528 Ferrand St","71201",32.5327618,-92.0811677
"71201","Monroe","LA","Taylor Rental Center","2102 Forsythe Ave","71201",32.532563,-92.111156
"71201","Monroe","LA","minuteKEY","1840 McKeen Pl","71201",32.527000427246094,-92.1136703491211
"71201","Monroe","LA","Home Outlet","2010 Louisville Avenue","71201-6121",32.518467,-92.103181
"71202","Monroe","LA","Lowe's","4750 Frontage Road","71202",32.4930393,-92.0598497
"71202","Monroe","LA","The Home Depot","3750 Millhaven Rd","71203",32.5005497,-92.0725286
"71202","Monroe","LA","Ace Hardware","711 Winnsboro Rd","71202",32.4827999,-92.0982
"71203","Monroe","LA","Lakeshore Ace Hardware","8015 Desiard St","71203",32.5266,-92.040999
"71203","Monroe","LA","minuteKEY","4430 Desiard St","71203",32.525367736816406,-92.06669616699219
"71220","Bastrop","LA","Tractor Supply Co.","2310 East Madison Ave","71220",32.77541,-91.884026
"71220","Bastrop","LA","Bastrop Feed & Seed","not_available","71220",32.780575384403214,-91.91269319945785
"71220","Bastrop","LA","Sherwin-Williams Paint Store","1526 E Madison Ave","71220",32.7800407409668,-91.89720153808594
"71226","Chatham","LA","Lynn Plumbing and Heating","262 Chatham St","01902",32.36283518311721,-92.554771900177
"71232","Delhi","LA","Maxwell True Value Hardware & Lumber","484 Highway 80","71232",32.45948028564453,-91.50751495361328
"71241","Farmerville","LA","Read's Lumber & Hardware","206 Bernice Hwy","71241",32.78147888183594,-92.40670776367188
"71245","Grambling","LA","Ruston Brick","not_available","71270",32.54109534074084,-92.68664899904893
"71251","Jonesboro","LA","Husqvarna","2612 Highway 4","71251",32.22895812988281,-92.73017883300781
"71254","Lake Providence","LA","Husqvarna US","12210 Highway 65 S","71286",32.70262145996094,-91.18061065673828
"71254","Lake Providence","LA","Husqvarna","704 W Main St","71263",32.859920501708984,-91.39703369140625
"71269","Rayville","LA","Sanders","not_available","71269",32.479558,-91.77502
"71269","Rayville","LA","Tractor Supply Co.","181 Grimshaw St","71269",32.45893334569456,-91.7616849868678
"71269","Rayville","LA","Lowes","Frontage Rd","not_available",32.45702516666667,-91.75852488333334
"71269","Rayville","LA","Delta Small Engine","806 Rosa St","71269",32.47888946533203,-91.75981903076172
"71270","Ruston","LA","Tractor Supply Co.","2507 North Service Rd East","71270",32.54156,-92.60561
"71270","Ruston","LA","Lowe's","809 Morrison Drive","71270",32.5459785,-92.6272735
"71270","Ruston","LA","Sherwin-Williams Paint Store","1502 Farmerville Hwy","71270",32.53748391052974,-92.61861383914948
"71270","Ruston","LA","Ruston Vacuum","1007 E Georgia Ave","71270",32.53396987915039,-92.62445068359375
"71280","Sterlington","LA","Bordelon's Septic Tank Service","524 Mount Ararat Rd","71280",32.7003589,-92.11660719999999
"71282","Tallulah","LA","Mid-South Lumber & Supply","4925 Hwy 61 S","39180",32.257968,-90.916598
"71282","Tallulah","LA","Rexel","520","39180",32.345337,-90.884829
"71282","Tallulah","LA","Home Hardware Center","27 Crothers Dr","71282",32.3905115,-91.1829619
"71291","West Monroe","LA","Tractor Supply Co.","201 Mane St","71292",32.50735,-92.17327
"71291","West Monroe","LA","Home and Ranch Hardware","not_available","71291",32.5142707824707,-92.25141143798828
"71291","West Monroe","LA","Ewing Irrigation","402 Downing Pines Rd","71292",32.50161473333241,-92.16590568424635
"71291","West Monroe","LA","Tippen's Specialty Millwork","not_available","71292",32.505243010859715,-92.15923802948156
"71291","West Monroe","LA","Southern Pipe & Supply","109 S Pavilion Cir","71292",32.50129247031369,-92.17525029113578
"71291","West Monroe","LA","minuteKEY","2400 Cypress St","71291",32.51883316040039,-92.1449966430664
"71291","West Monroe","LA","minuteKEY","5251 Cypress Street","71291",32.51494216918945,-92.18931579589844
"71291","West Monroe","LA","Home & Ranch Hardware","5459 Cypress St","71291",32.515268,-92.19382
"71291","West Monroe","LA","Baker Distributing","2920 Cypress St","71291",32.51826477050781,-92.15003204345703
"71291","West Monroe","LA","P&M Hardware","4547 Cypress St","71291",32.51382131444811,-92.17599893715578
"71291","West Monroe","LA","Sherwin-Williams Paint Store","2805 Cypress St","71291",32.51785659790039,-92.14607238769531
"71291","West Monroe","LA","Husqvarna","511 Mane St","71292",32.5072021484375,-92.18252563476562
"71292","West Monroe","LA","Husqvarna","2125 New Natchitoches Rd","71292",32.49399948120117,-92.20374298095703
"71295","Winnsboro","LA","Kiper's Hardware","not_available","71378",31.983157,-91.653798
"71295","Winnsboro","LA","kiper hardward","not_available","71295",32.15654526795096,-91.71443318711147
"71295","Winnsboro","LA","Tractor Supply Co.","3282 Front St","71295",32.17995834350586,-91.72644805908203
"71301","Alexandria","LA","Harbor Freight Tools","1804 MacArthur Dr Ste 530","71301",31.278139000000003,-92.47425600000001
"71301","Alexandria","LA","The Home Depot","5000 Masonic Dr","71301",31.269770716613163,-92.47187554836273
"71301","Alexandria","LA","Tractor Supply Co.","3162 North Macarthur Dr","71303",31.306927,-92.481262
"71301","Alexandria","LA","Harbor Freight","not_available","71303",31.27763221270929,-92.47686792568688
"71301","Alexandria","LA","Fastenal","832 Dallas Ave","71302",31.28304246604213,-92.44534286469452
"71301","Alexandria","LA","Granite Tile & Marble","3912 Duhon Ln","71302",31.266577,-92.44368
"71301","Alexandria","LA","Lowe's","3201 Industrial Street","71301",31.274686,-92.454842
"71301","Alexandria","LA","Norandex","2550 N Bolton Ave","71303",31.325153350830078,-92.47877502441406
"71301","Alexandria","LA","Sherwin-Williams Paint Store","1102 MacArthur Dr","71303",31.290497875502577,-92.4774733185768
"71301","Alexandria","LA","Stine Lumber","130 Wheelock St","71301",31.311687469482422,-92.45488739013672
"71301","Alexandria","LA","CenLa Bolts & Supply, LLC","4849 Empire Dr","71301",31.265978266453413,-92.45485895473078
"71301","Alexandria","LA","John Ward Hardware","1415 Metro Dr","71301",31.279596,-92.479307
"71301","Alexandria","LA","The Rental Company","not_available","71301",31.28161132335663,-92.44619607925415
"71301","Alexandria","LA","RSI Building Products","3624 Lee St","71302",31.275666333333334,-92.44645771666667
"71301","Alexandria","LA","minuteKEY","812 Belleau Wood Blvd","71303",31.271081924438477,-92.48592376708984
"71302","Alexandria","LA","H&E Equipment Services","5732 S MacArthur Dr","71302",31.2484249,-92.43628269999999
"71302","Alexandria","LA","Jamie's Small Engine Repair","132 Snowden Ln","71346",31.15376091003418,-92.41004943847656
"71303","Alexandria","LA","minuteKEY","6225 Coliseum Blvd","71303",31.292545318603516,-92.51387023925781
"71303","Alexandria","LA","Home Outlet","5614 Coliseum","71303",31.296302,-92.507148
"71322","Bunkie","LA","Scott's Ace Hardware Inc","1193 Highway 29 E","71322",30.9506,-92.163799
"71334","Ferriday","LA","Stine","108 Highway 61 S","39120",31.518402726841117,-91.38864168482577
"71334","Ferriday","LA","Budget Build Home Center","2204 Ee Wallace Blvd N","71334",31.653417662869703,-91.55176393233319
"71334","Ferriday","LA","Sears","31 South Sergeant Prentiss Dr., #3","39120",31.524172,-91.388138
"71334","Ferriday","LA","Home Hardware Center","not_available","71334",31.63064760715437,-91.5554782444475
"71334","Ferriday","LA","Sherwin-Williams Paint Store","706 Main St","39120",31.557748,-91.400351
"71334","Ferriday","LA","Concordia Lumber & Supply","1720 Carter St","71373",31.572092056274414,-91.44824981689453
"71334","Ferriday","LA","Budget Build Home Center","2204 E E. Wallace Blvd","71334",31.6527698,-91.55104469
"71334","Ferriday","LA","Elliot Electric","6 S Hickory St","71373",31.567550659179688,-91.4303970336914
"71334","Ferriday","LA","Husqvarna","5003 Highway 84 W","71373",31.58271026611328,-91.49019622802734
"71340","Harrisonburg","LA","Husqvarna US","2115 Fourth St","71343",31.6274356842041,-91.8370361328125
"71342","Jena","LA","Family Hardware Inc.","849 Pine Street","71342",31.681177,-92.1277
"71342","Jena","LA","Tractor Supply Co.","356 Airport Dr","71342",31.682348251342773,-92.13813781738281
"71342","Jena","LA","Husqvarna","849 PINE ST","71342",31.68062400817871,-92.12855529785156
"71342","Jena","LA","Husqvarna","130 MANNON LANE","71342",31.686241149902344,-92.09973907470703
"71350","Mansura","LA","Tractor Supply Co.","7686 Hwy 1","71350",31.083321,-92.056574
"71350","Mansura","LA","Sears","168 Golden Rod Rd","71350",31.097443690245264,-92.06315165385604
"71350","Mansura","LA","Couvillions Ace Hdwe","7749 Highway 1","71350",31.082761,-92.05517
"71351","Marksville","LA","Vic's A/C & Refrigeration LLC","233 Clemile Dauzat Rd","71351",31.112205505371094,-92.14155578613281
"71360","Pineville","LA","Sherwin-Williams Paint Store","516 Main St","71360",31.319124,-92.43695500000001
"71360","Pineville","LA","American Ace Hardware","4323 Monroe Hwy","71405",31.378629684448242,-92.40721130371094
"71360","Pineville","LA","Barsco","1210 Duncan, Pineville, LA 71360","71360",31.384769439697266,-92.34335327148438
"71360","Pineville","LA","Lowe's","3200 Monroe Highway","71360",31.3590918,-92.413595
"71360","Pineville","LA","minuteKEY","3636 Monroe Hwy","71360",31.366989135742188,-92.4071273803711
"71360","Pineville","LA","Chuck's Ace Hardware","110 Edgewood Dr","71360",31.333482,-92.398936
"71369","Simmesport","LA","Husqvarna US","937 Highway 1183","71369",30.97223663330078,-91.85035705566406
"71403","Anacoco","LA","Lowe's","2200 Mcrae Street","71446",31.1218886,-93.2745354
"71403","Anacoco","LA","Mid State Electricial Suppy","not_available","71446",31.07241,-93.273293
"71403","Anacoco","LA","Sherwin-Williams Paint Store","307 N 5th St","71446",31.145286560058594,-93.26348876953125
"71403","Anacoco","LA","Tractor Supply Co.","1111 Boone St Ste 2","71446",31.120943069458008,-93.27056121826172
"71417","Colfax","LA","Grant Hardware","612 Main St","71417",31.518259048461914,-92.70812225341797
"71429","Florien","LA","Husqvarna US","PO Box 970","71449",31.537878036499023,-93.52720642089844
"71449","Many","LA","Tractor Supply Co.","155 San Antonio Ave Ste A","71449",31.56744956970215,-93.49140930175781
"71449","Many","LA","Sears","206 Elizabeth St.","71449",31.5658233,-93.4867546
"71449","Many","LA","Husqvarna","245 Highway 171 Byp","71449",31.57216453552246,-93.48938751220703
"71449","Many","LA","Toledo Town Hardware and Supply","12802 Texas Hwy","71449",31.495437622070312,-93.66915893554688
"71457","Natchitoches","LA","Tractor Supply Co.","345 South Dr","71457",31.743222999999997,-93.080337
"71457","Natchitoches","LA","Home Hardware Center","not_available","71457",31.755118416945898,-93.08229785819277
"71457","Natchitoches","LA","Stine","5690 Highway 1 Byp","71457",31.757339512704828,-93.10748640389406
"71457","Natchitoches","LA","Sears","4278 University Parkway","71457",31.7453556,-93.1237502
"71457","Natchitoches","LA","Sherwin-Williams Paint Store","310 South Dr","71457",31.744646,-93.082266
"71457","Natchitoches","LA","A-1 Key & Lock","808 1/2 Keyser Ave","71457",31.753269,-93.069675
"71483","Winnfield","LA","Tractor Supply Co.","1805 West Court St","71483",31.933687210083008,-92.65361022949219
"71483","Winnfield","LA","Premier Ace Hardware","5949  US Highway 167 N","71483",31.9163,-92.620199
"71483","Winnfield","LA","Floors By Design","5775 U.S. 167","71483",31.953815460205078,-92.65325164794922
"71483","Winnfield","LA","Louisiana Cat - Winnfield","5869 Highway 167 North","71483",31.9261425,-92.6492812
"71483","Winnfield","LA","Ace Hardware","5949 Highway 167 N","71483",31.95332908630371,-92.65325927734375
