"zip","city","state","name","address","postalCode","lat","lon"
"48009","Birmingham","MI","Meadowbrook Urgent Care P.C.","33722 Woodward Ave","48009",42.537039,-83.2041781
"48009","Birmingham","MI","Birmingham Urgent Care","200 Elm St Ste 100","48009",42.546157,-83.209125
"48009","Birmingham","MI","William Beaumont Hospital 9 North Room 9633","not_available","48073",42.53312475173571,-83.22532443062951
"48009","Birmingham","MI","SJMO Urgent Care Birmingham","2110 E Maple Rd","48009",42.54705810546875,-83.1944351196289
"48009","Birmingham","MI","Endometriosis Centers of America, L.L.C.","555 S Old Woodward Ave Ste 700","48009",42.5432160547795,-83.21053504943848
"48009","Birmingham","MI","St. Joesph Urgent Care Clinic","not_available","not_available",42.54707714065283,-83.19462618151555
"48021","Eastpointe","MI","Digital Foot Lab","21020 Kelly Road","48021",42.45283,-82.93779
"48021","Eastpointe","MI","Health One Medical Center","21501 Kelly Rd","48021",42.456893,-82.935333
"48025","Franklin","MI","Cambridge South Healthcare Center","18200 W 13 Mile Rd","48025",42.517503999999995,-83.224953
"48025","Franklin","MI","Ascension Providence Hospital Oakland Family Medicine","30055 Northwestern Hwy","48334",42.5059748,-83.3214022
"48025","Franklin","MI","Craig Singer MD Dermatology","31000 Telegraph Rd Ste 260","48025",42.515899658203125,-83.28482818603516
"48025","Franklin","MI","Trillamed LLC","30100 Telegraph Rd","48025",42.50914,-83.28409
"48025","Franklin","MI","MyHealth Urgent Care Southfield","29984 Telegraph Rd.  Southfield, MI 48034","48034",42.50796127319336,-83.284423828125
"48025","Franklin","MI","Southfield Pediatric Physicians, PC","31500 Telegraph Rd Ste 105","48025",42.519141999999995,-83.284853
"48026","Fraser","MI","Henry Ford Macomb Urgent Care - Fraser","15717 15 Mile Rd","48035",42.553841646092046,-82.96465158462524
"48026","Fraser","MI","MedPointe Urgent Care Walk In Clinic","31290 Groesbeck Hwy","48026",42.5259687,-82.943691
"48026","Fraser","MI","Hfhs","not_available","48026",42.55176804982717,-82.96321714426662
"48030","Hazel Park","MI","Hazel Park Urgent Care","not_available","48030",42.461244,-83.10226
"48033","Southfield","MI","Straith Hospital","not_available","48034",42.464284055030994,-83.2614281756613
"48033","Southfield","MI","Henry Ford Medical Center - Southfield","22777 W 11 Mile Rd","48033",42.486599982425005,-83.2675697082243
"48033","Southfield","MI","Lahser Hills Care Center","25300 Lahser Rd","48033",42.475404,-83.25984
"48033","Southfield","MI","Get & Stay Healthy 4Life (Get And Stay Healthy 4Life)","25267 Telegraph Rd Suite 102","48033",42.47321880000001,-83.2851372
"48033","Southfield","MI","Woodland Urgent Care","22341 W 8 Mile Rd","48219",42.44228598734821,-83.26313719313943
"48033","Southfield","MI","Daniel Park, MD - Spine Surgeon","26025 Lahser Rd 2nd floor","48033",42.47944641113281,-83.26201629638672
"48033","Southfield","MI","West Oaks Senior Care Nh","not_available","48219",42.44282062664063,-83.26427389979179
"48033","Southfield","MI","HF Cottage","not_available","48230",42.47664614953388,-83.25991772197887
"48034","Southfield","MI","AmazingLift (Amazing Lift)","29200 Northwestern Hwy, Suite 105","48034",42.5036905,-83.3110418
"48034","Southfield","MI","Saint Joseph Mercy Oakland Surgery Lounge","not_available","48302",42.492487881103486,-83.30393112399626
"48034","Southfield","MI","Providence Hospital E.R","not_available","48227",42.500122135099225,-83.29909968641456
"48035","Clinton Township","MI","Hfhs PT","not_available","48036",42.568599700927734,-82.95089721679688
"48035","Clinton Township","MI","St. Joseph's Medical center","not_available","48035",42.561017,-82.964214
"48036","Clinton Township","MI","Martha T. Berry Medical Care Facility","43533 Elizabeth St","48043",42.61506478040808,-82.88966183932101
"48036","Clinton Township","MI","Henry Ford Macomb Hospital","15855 19 Mile Rd","48038",42.61450608253142,-82.96069695612434
"48036","Clinton Township","MI","McLaren Macomb","1000 Harrington St","48043",42.58749470032415,-82.89697267878708
"48036","Clinton Township","MI","Children's Hospital Stilson Center","42700 Garfield Rd","48038",42.61077753519237,-82.95219811544465
"48036","Clinton Township","MI","Henry Ford Macomb Hospital - Mt. Clemens","215 North Ave","48043",42.606506,-82.882324
"48036","Clinton Township","MI","Mclaren Macomb Diagnostic Center","not_available","48043",42.58677,-82.896126
"48036","Clinton Township","MI","Beaumont Urgent Care","not_available","48044",42.62935,-82.963953
"48036","Clinton Township","MI","Henry Ford Labor & Delivery","not_available","48038",42.61526885199382,-82.9610487381395
"48036","Clinton Township","MI","MPC URGENT CARE","15959 Hall Rd Ste 104","48044",42.62907651550012,-82.96396144929857
"48036","Clinton Township","MI","Clinton Urgent Care Walk-in Clinic - Clinton Twp, MI","37150 S Gratiot Ave","48036",42.57115567,-82.88984333
"48036","Clinton Township","MI","Henry Ford ICU","not_available","48203",42.61407069708039,-82.961222003222
"48036","Clinton Township","MI","Great Lakes Animal Hospital","40140 Hayes Rd","48038",42.59121210000001,-82.9709694
"48036","Clinton Township","MI","Breast Center","1000 Harrington Blvd","not_available",42.58786978313892,-82.89781355786997
"48036","Clinton Township","MI","Wellness Physical Medicine Center: Dr. Mark J. Brennan, MD","43650 Garfield Rd.","48038",42.6174347,-82.9525923
"48036","Clinton Township","MI","Northeast Macomb Medical Urgent Care","43900 Garfield Rd Ste 121","48038",42.619602,-82.952404
"48038","Clinton Township","MI","Lakeside Urgent Care","44472 Hayes Rd","48038",42.623098,-82.972517
"48038","Clinton Township","MI","St  Josephs Hospital","23125 Clinton River","48038",42.58760080273719,-82.89756129525897
"48040","Marysville","MI","Children's Healthcare","601-639 Michigan Ave","48040",42.920552730484644,-82.4788901492591
"48042","Macomb","MI","Ascension St. John Hospital at 23 Mile - Emergency Room","17700 23 Mile Rd","48044",42.67016253585977,-82.94447084245967
"48042","Macomb","MI","Summit Urgent Care","21844 23 Mile Rd","48042",42.6731069,-82.8967976
"48042","Macomb","MI","Ascension Michigan Urgent Care at 23 Mile","17900 23 Mile Rd","48044",42.67018109,-82.94466021
"48042","Macomb","MI","St. John Providence Diagnostic Services","46591 Romeo Plank Rd","48044",42.640010833740234,-82.93649291992188
"48042","Macomb","MI","St. John's Urgent Care/Emergency","48044 Romeo Plank Rd, Macomb, MI 48044","48044",42.67034456939245,-82.94559461028149
"48045","Harrison Township","MI","St. Johns Urgent Care","not_available","48045",42.571551061219644,-82.85299570616526
"48045","Harrison Township","MI","Ascension St. John Hospital Health Center at Crocker","25990 Crocker Blvd","48045",42.57136917114258,-82.85089874267578
"48045","Harrison Township","MI","The Hosptial","Edsel Ford Fwy","48045",42.61232951,-82.85455909
"48047","New Baltimore","MI","Henryford east","not_available","48047",42.67737334993252,-82.76730887075159
"48047","New Baltimore","MI","Henry Ford Macomb Urgent Care - Chesterfield","30795 23 Mile Rd","48047",42.67633285468157,-82.80599892139435
"48047","New Baltimore","MI","HOH","35001-35099 23 Mile Rd","48047",42.676954002767765,-82.75586552484597
"48047","New Baltimore","MI","Chesterfield Urgent Care Walk-In Clinic - Chesterfield MI","51160 Gratiot Ave","48051",42.6756462,-82.83168549999999
"48047","New Baltimore","MI","Hittin' The Bowlski","Pheasant","48047",42.658585754395745,-82.80083779088145
"48047","New Baltimore","MI","concenta Urgent Care","50110 Gratiot Ave","48051",42.667938232421875,-82.837646484375
"48047","New Baltimore","MI","Eastman & Vempati, MD, PC","30795 23 Mile Rd Ste 202","48047",42.67634366261423,-82.80608746032715
"48054","East China","MI","Ascension River District Hospital","4100 River Rd","48054",42.785597,-82.479944
"48054","East China","MI","in front of river district smoking","not_available","48054",42.78585433959961,-82.47990417480469
"48054","East China","MI","St. Clair Urgent Care","955 Fred W Moore Hwy","48079",42.81718826293945,-82.49547576904297
"48059","Fort Gratiot","MI","Lakeshore Surgical Center","4190 24th Ave","48059",43.029258728027344,-82.45509338378906
"48059","Fort Gratiot","MI","MedExpress Urgent Care","3550 Pine Grove Ave.","48060",43.01531176624092,-82.44884584848478
"48060","Port Huron","MI","Lake Huron Medical Center","2601 Electric Ave","48060",42.9560162,-82.4334047
"48060","Port Huron","MI","McLaren Port Huron","1221 Pine Grove Ave","48060",42.9868732453241,-82.4293706144012
"48060","Port Huron","MI","port huron hospital wismer recovery","not_available","48060",42.98630905151367,-82.43006896972656
"48060","Port Huron","MI","Port Huron Hospital Pain Clinic","not_available","48059",42.98790080761461,-82.48981430440237
"48060","Port Huron","MI","Children's Healthcare","1321 Stone St","48060",42.988384,-82.431368
"48060","Port Huron","MI","Hope Surgical Services","1216 Washington Ave","48060",42.988211,-82.43234
"48060","Port Huron","MI","Tri-Hospital EMS","309 Grand River Ave","48060",42.977661,-82.422671
"48062","Richmond","MI","Team Rehab (Shelby Macomb Medical Mall)","50505 Schoenherr Rd","48315",42.81415230824836,-82.76033145184151
"48062","Richmond","MI","Medilodge of Richmond","34901 Division Rd","48062",42.810171999999994,-82.766447
"48065","Romeo","MI","Henry Ford Macomb Urgent Care - Bruce Township","80650 Van Dyke Rd","48065",42.886922999999996,-83.03923
"48066","Roseville","MI","Eastside Endoscopy Center","28953 Little Mack Ave","48081",42.5085563659668,-82.90874481201172
"48066","Roseville","MI","Roseville Urgent Care","not_available","48066",42.525844480653085,-82.9079791798918
"48066","Roseville","MI","Ascension St. John Hospital Blue Water Pain Specialists","21000 E 12 Mile Rd","48081",42.5090304,-82.90535729999999
"48066","Roseville","MI","Benjamin Osowa, MD","20952 E 12 Mile Rd","48081",42.50910949707031,-82.90689086914062
"48066","Roseville","MI","Shores Urgent Care","28001 Harper Ave","48081",42.483335392686264,-82.90778242185314
"48066","Roseville","MI","William Beaumont Hospital Wound Treatment Center","3601 W 13 Mile Rd","48073",42.512555220162184,-82.94553180222431
"48066","Roseville","MI","Ascension Medical Group Eastside Surgical Associates","29000 Little Mack Ave","48081",42.50932693481445,-82.90760803222656
"48066","Roseville","MI","Macomb Center Endoscopy Center","18000 Twelve Mile Rd","48066",42.5096775,-82.9348212
"48066","Roseville","MI","Ascension Medical Group Eastside Cardiovascular Medicine","25195 Kelly Rd","48066",42.4817198,-82.9277183
"48067","Royal Oak","MI","Campbell Urgent Care","1010 N Campbell Rd Ste 3","48067",42.4989000309869,-83.1243097217819
"48067","Royal Oak","MI","MedPost Urgent Care","2140 Twelve Mile Rd","48067",42.50396011225087,-83.1194850803331
"48067","Royal Oak","MI","MedPost Urgent Care","not_available","48067",42.504006,-83.11893
"48071","Madison Heights","MI","Ascension Medical Group Weight Loss Program","27483 Dequindre Rd #204","48071",42.494836,-83.08677800000001
"48071","Madison Heights","MI","Occ Health","not_available","48071",42.493781,-83.085834
"48071","Madison Heights","MI","Pharmacy - Ascension Michigan Pharmacy, Madison Heights","27351 Dequindre Rd","48071",42.493892669677734,-83.08692169189453
"48071","Madison Heights","MI","Oakland MRI Center","not_available","48092",42.494252,-83.087064
"48071","Madison Heights","MI","DMC Urgent Care","13 Mile","48071",42.518094745304495,-83.12009118234987
"48071","Madison Heights","MI","Cambridge East Healthcare Center","31155 Dequindre Rd","48071",42.52163314819336,-83.08717346191406
"48071","Madison Heights","MI","St. John Oakland","not_available","48091",42.48918821132359,-83.087343344802
"48071","Madison Heights","MI","Room 1071 DMC","Stevenson Highway","48071",42.50927336466343,-83.12331940757996
"48071","Madison Heights","MI","Oakland Professional Building","411 W 13 Mile Rd","48071",42.519692,-83.110309
"48071","Madison Heights","MI","DMC Surgery Hospital","30671 Stephenson Hwy","48071",42.517879486083984,-83.12026977539062
"48071","Madison Heights","MI","Ascension Michigan Urgent Care at Dequindre","27483 Dequindre Rd","48071",42.49472427368164,-83.08660125732422
"48072","Berkley","MI","Berkley Urgent Care","3270 Greenfield Rd","48072",42.50175,-83.20246
"48072","Berkley","MI","Beaumont Emergency","1601-1799 W 12 Mile Rd","48073",42.50818657977592,-83.19339669398148
"48073","Royal Oak","MI","Beaumont Medical Office Building","3535 W 13 Mile Rd","48073",42.51578877338715,-83.190997838974
"48073","Royal Oak","MI","Beaumont Urgent Care - Woodward Corners","30955 Woodward Ave Ste 705","48073",42.516652,-83.185509
"48073","Royal Oak","MI","Royal Urgentcare","4080 Crooks Rd","48073",42.525245666503906,-83.1645736694336
"48075","Southfield","MI","Southfield City Urgent Care","23832 Southfield Rd","48075",42.46583,-83.21992
"48075","Southfield","MI","Emergency Care - Providence-Providence Park Hospital, Southfield","16001 W 9 Mile Rd","48075",42.45807645448594,-83.2052249688101
"48075","Southfield","MI","Providence Park Southfield Hospital Emergency Room","not_available","48075",42.458149,-83.204404
"48075","Southfield","MI","Michigan Kidney Acess Center","Greenfield","not_available",42.482222533157106,-83.20313778269515
"48075","Southfield","MI","Omni Medical","22250 Providence Dr Ste 202","48075",42.456283426012895,-83.20653319358826
"48075","Southfield","MI","Ascension Medical Group Maternal Fetal Medicine - Southfield","22255 Greenfield Rd","48075",42.4561796,-83.2019895
"48075","Southfield","MI","Ascension Providence Hospital Center for Wound and Hyperbaric Medicine, Southfield","22250 Providence Dr","48075",42.4564081,-83.20583959999999
"48075","Southfield","MI","Team One","Fun","48075",42.45704291781459,-83.2058850003613
"48076","Southfield","MI","Healthy Urgent Care","29169 Southfield Rd","48076",42.503440000000005,-83.224118
"48076","Southfield","MI","St. Marie's Hospice","18211 W 12 Mile Rd Ste 2SE","48076",42.502140999999995,-83.224672
"48076","Southfield","MI","Rapid Respiratory Services, Llc","21540 W 11 Mile Rd","48076",42.487538,-83.25715799999999
"48076","Southfield","MI","Ciena Healthcare Management, Inc.","4000 Town Ctr Ste 700","48075",42.47935485839844,-83.24557495117188
"48080","Saint Clair Shores","MI","Henry Ford Urgent Care","not_available","48080",42.475066871696995,-82.88960927826335
"48082","Saint Clair Shores","MI","Henry Ford Macomb","not_available","48082",42.51203368174383,-82.90130834787955
"48083","Troy","MI","Beaumont Urgent Care","not_available","48083",42.563112,-83.107091
"48083","Troy","MI","Children's Hospital Of Troy","Big Beaver Rd.","not_available",42.56326841867032,-83.151538407437
"48083","Troy","MI","Stop Feet Pain Fast – Podiatrist in Troy, MI","230 W Maple Rd #101","48084",42.54942,-83.14991
"48083","Troy","MI","Facial Pain and Sleep Center, PLC","3144 John R Road","48083",42.5656672,-83.1077175
"48083","Troy","MI","HFH Troy Dialysis","Livernois","48083",42.5530743598938,-83.14660727977753
"48083","Troy","MI","St John Pediatric Urgent Care","not_available","48310",42.5445528351524,-83.08745
"48083","Troy","MI","Maplecrest Urgent Care","35450 Dequindre Rd","48310",42.553444,-83.08737099999999
"48083","Troy","MI","Concerta Urgent Care","1601-2083 Van Courtland Dr","48083",42.54902566176922,-83.13494047243054
"48083","Troy","MI","LifeTime Dermatology","230 W Maple Rd Ste 200","48084",42.5489645,-83.1504994
"48084","Troy","MI","MyHealth Urgent Care Troy","1500 W Big Beaver Rd # 104104","48084",42.562726,-83.169295
"48084","Troy","MI","Troy Neuropathy Center, PLLC","1767 W Big Beaver Rd","48084",42.560890197753906,-83.17289733886719
"48084","Troy","MI","Urgent Care","not_available","48154",42.537864,-83.184327
"48084","Troy","MI","Seniors Plus Case Management Mentoring and Development Corporation","900 Wilshire Dr","48084",42.56634870239872,-83.16445469856262
"48084","Troy","MI","Beaumont Pediatric Rehabilitation","4949 Coolidge Hwy","48073",42.536056,-83.184495
"48085","Troy","MI","Beaumont Hospital","44201 Dequindre Rd","48085",42.6178476,-83.0926064
"48085","Troy","MI","Heartland Health Care Center - Oakland","925 W South Blvd","48085",42.62223625347968,-83.14873369061965
"48085","Troy","MI","Beaumont 3 West","not_available","48085",42.61852602316686,-83.09289795132275
"48085","Troy","MI","Beaumont - Dr K Breast Specialist & Surgeon Suite 612","44199 Dequindre Rd Ste 612","48085",42.61833572387695,-83.09297943115234
"48085","Troy","MI","William Beaumont Heart And Vascular","43585 Dequindre","48314",42.61877755404627,-83.09251019218445
"48085","Troy","MI","Room 5536","not_available","48098",42.605589,-83.14993
"48085","Troy","MI","Beaumont Hospital Pediatric's Floor","Dequindre Rd","48092",42.61879328590693,-83.09318517222763
"48088","Warren","MI","Main Reg","not_available","48088",42.523049,-82.997965
"48088","Warren","MI","Sterling medical urgent care","14 Mile","not_available",42.53813254031435,-82.99002496004202
"48089","Warren","MI","Henry Ford Bi-County","25491-25837 Schoenherr Rd","48089",42.48029057315202,-82.98849740781053
"48089","Warren","MI","Beaumont Royal Oak ER","not_available","48089",42.46370339697125,-82.98836214469159
"48089","Warren","MI","Henry Ford Rehabilitation – Warren","13251 E 10 Mile Rd Ste 400","48089",42.479344,-82.99016999999999
"48089","Warren","MI","Hoover Urgent Care of Warren","26000 Hoover Rd","48089",42.485341999999996,-83.005678
"48089","Warren","MI","Warren Woods Health and Rehabilitation Center","11525 E 10 Mile Rd","48089",42.478415000000005,-83.00774799999999
"48091","Warren","MI","Southeast Michigan Surgical Hospital","21230 Require","48091",42.45175777,-83.08165101
"48091","Warren","MI","Southeast Michigan Surgical Hospital","21230 Dequindre Rd","48091",42.451661,-83.081581
"48092","Warren","MI","Beaumont Hospital","13 & Woodward","not_available",42.510784133770244,-83.07733862631366
"48092","Warren","MI","Stop Feet Pain Fast - Podiatrist in Warren, MI","3272 Twelve Mile Rd","48092",42.50505,-83.07246
"48092","Warren","MI","Behavioral Center of Michigan","12 Mile Rd","not_available",42.50483649272787,-83.06662609342037
"48092","Warren","MI","Universal Urgent Care","not_available","48093",42.535311,-83.062859
"48093","Warren","MI","SJMOH-MC Emergency Room","11800 E 12 Mile Rd","48093",42.50554052981545,-83.00548942789403
"48093","Warren","MI","Doctors Urgent Care Walk-In Clinic Warren","30736 Hoover Rd","48093",42.5201789,-83.0063244
"48093","Warren","MI","Hip & Knee Replacement Center - Ascension Macomb-Oakland Hospital, Warren","11800 Twelve Mile Rd","48093",42.5057713,-83.0048137
"48093","Warren","MI","Ascension Medical Group MGA OB/Gyn","11012 E 13 Mile Rd","48093",42.52087863,-83.01744076
"48093","Warren","MI","St John Webber Cancer Center","1800 E 12 Mile Rd","48093",42.505815083858415,-83.0043238208796
"48093","Warren","MI","Ascension Macomb-Oakland Hospital Genetic Testing","11885 E 12 Mile Rd","48093",42.50751,-83.00411
"48093","Warren","MI","St John Macomb Hospital Surgical Waiting Room","12 mile","48093",42.5066845,-83.0271044
"48094","Washington","MI","st. johns emergency","not_available","48094",42.71979904174805,-83.0423583984375
"48095","Washington","MI","Henry Ford Urgent Care","not_available","48065",42.77199357272674,-83.01380012560445
"48095","Washington","MI","Orchard View Medical Complex","not_available","48095",42.771518,-83.01360799999999
"48095","Washington","MI","Village Health Family And Urgent Care","12150 30 Mile Rd","48095",42.771518,-83.01360799999999
"48098","Troy","MI","Doc Now Urgent Care","4600 Investment Dr #170","48098",42.589209000000004,-83.170339
"48101","Allen Park","MI","Beaumont Dearborn Hospital","18101 Oakwood Blvd","48124",42.2901468,-83.2140457
"48101","Allen Park","MI","Oakwood Radiology","not_available","48124",42.290278,-83.213919
"48101","Allen Park","MI","Henry Ford Wyandotte Radiology","not_available","48192",42.24070673173902,-83.21599461958085
"48101","Allen Park","MI","Henry Ford Hospital West  Bloomfield","not_available","48195",42.22725259704286,-83.21792972434751
"48101","Allen Park","MI","Oakwood - EEG","not_available","48120",42.29065099750256,-83.21420590383755
"48101","Allen Park","MI","Health One Urgent Care","dix","48147",42.239554283333334,-83.19516395
"48101","Allen Park","MI","Oakwood Hospital ISU","Oakwood Blvd","48101",42.290833445955045,-83.21491520291788
"48101","Allen Park","MI","Oakwood Hospital Surgical Recovery Unit","Oakwood Blvd.","not_available",42.27905636883785,-83.21613060180152
"48101","Allen Park","MI","Outpatient Surgry Waitin Room","Oakwood Blvd, Dearborn, MI 48124","48124",42.29094146184713,-83.21393393104283
"48103","Ann Arbor","MI","4C","not_available","48105",42.26426525248205,-83.74444895487976
"48103","Ann Arbor","MI","regency at bluffs park","not_available","48103",42.297825,-83.74878100000001
"48103","Ann Arbor","MI","Green Tree Pediatrics: Ann Arbor","760 W Eisenhower Pkwy suite 208","48103",42.2445617,-83.754103
"48103","Ann Arbor","MI","Advance Urgent Care & Walk-In Clinic","1785 W Stadium Blvd Ste 102","48103",42.26634,-83.77024399999999
"48103","Ann Arbor","MI","Baby Factory","not_available","48104",42.28138888888889,-83.74722222222222
"48103","Ann Arbor","MI","IHA Urgent Care WestArbor","4350 Jackson Rd Ste 230","48103",42.28626337734793,-83.81590533862305
"48103","Ann Arbor","MI","Saint Joseph Urgent Care","501 N Maple Rd, Ann Arbor, MI 48103","48103",42.28620349619777,-83.7810511675887
"48104","Ann Arbor","MI","University of Michigan Hospitals","1500 E Medical Center Dr","48109",42.2842472501734,-83.73022514768294
"48104","Ann Arbor","MI","C.S. Mott Children's Hospital & Von Voigtlander Women's Hospital","1540 E Hospital Dr","48109",42.282012274845805,-83.72828987614082
"48104","Ann Arbor","MI","University Of Michigan Von Voigtlander Womens Hospital","not_available","48109",42.28193064145317,-83.7281148396275
"48104","Ann Arbor","MI","University of Michigan Kellogg Eye Center","1000 Wall St","48105",42.288315395340334,-83.73707741260958
"48104","Ann Arbor","MI","Washtenaw Urgent Care","3280 Washtenaw Ave","48104",42.25578689575195,-83.69522857666016
"48104","Ann Arbor","MI","University Of Michigan UH South","E Hospital Drive","48109",42.282722,-83.728938
"48104","Ann Arbor","MI","University of Michigan - Transplant Center","E Medical Center Dr, Ann Arbor, MI 48109","48109",42.28337166793149,-83.72674419532737
"48104","Ann Arbor","MI","Ann Arbor Urgent Care","1000 E Stadium Blvd","48104",42.26094066254927,-83.73661383361419
"48105","Ann Arbor","MI","St. Joseph Mercy Hospital","5301 McAuley Dr","48197",42.26448324300907,-83.65410268306732
"48105","Ann Arbor","MI","IHA Urgent Care @ EMU","1065 N Huron River Dr","48197",42.255177,-83.6254941
"48105","Ann Arbor","MI","Room 212 in 2 East","St. Joseph Mercy","48197",42.262666,-83.656854
"48105","Ann Arbor","MI","Room 713","not_available","48197",42.266111,-83.654214
"48108","Ann Arbor","MI","St. Joe Labor","4403 Hunt Club Dr","48197",42.22392272949219,-83.66483306884766
"48108","Ann Arbor","MI","Compassionate In Home Care","4822 Bridle Run Apt 2D","48197",42.218441009521484,-83.66647338867188
"48108","Ann Arbor","MI","Midwest Travelers Health Services","4870 W Clark Rd Ste 204","48197",42.2590558868995,-83.66406010624065
"48108","Ann Arbor","MI","NeuMoDx™","1250 Eisenhower Pl","48108",42.24159240722656,-83.73064422607422
"48111","Belleville","MI","Incognito RDD, LLC","not_available","48111",42.215907,-83.486687
"48111","Belleville","MI","Break Time -OT","not_available","48174",42.22412,-83.420351
"48111","Belleville","MI","Urgent Care","45601 S Interstate 94 Service Dr","48111",42.216967,-83.487445
"48111","Belleville","MI","Van Buren Urgent Care Center","11650 Belleville Rd Ste 101","48111",42.21615273049109,-83.48685207020829
"48114","Brighton","MI","St. Joseph Mercy Hospital","7575 Grand River Rd Ste 210","48114",42.567905,-83.8024687
"48114","Brighton","MI","Woodland Health Centers","not_available","48114",42.56780063964685,-83.80297929487384
"48114","Brighton","MI","Advance Urgent Care","not_available","48116",42.540808,-83.796685
"48114","Brighton","MI","IHA Urgent Care EastBrighton","5505 S Old US 23 Ste 200","48116",42.52225916966721,-83.75917001637384
"48114","Brighton","MI","Hartland Urgent Care","11166 Highland Rd","48353",42.633533,-83.736152
"48114","Brighton","MI","Michigan Urgent Care - Brighton","2300 Genoa Business Park Dr","48114",42.569026,-83.80631
"48114","Brighton","MI","Brighton OB GYN","8641 W Grand River Ave","48116",42.539852142333984,-83.78523254394531
"48114","Brighton","MI","Advance urgent","11554 M-59","48114",42.633240579113384,-83.75003997469658
"48114","Brighton","MI","St. Luke's Hometown Healthcare","9912 E Grand River Ave Ste 1000","48116",42.521240234375,-83.76367950439453
"48116","Brighton","MI","Primary Care Plus Urgent Care","10020 Professional Centre Dr, Suite 120","48139",42.45668353357624,-83.80808503935901
"48117","Carleton","MI","ProMedica Physicians Family Medicine - Carleton","111 Medical Center Dr","48117",42.05584716796875,-83.37909698486328
"48118","Chelsea","MI","Saint Johns Mercy Hospital","not_available","48118",42.311035,-84.016701
"48118","Chelsea","MI","Chelsea Community Hospital","775 S Main St","48118",42.3103350884211,-84.01699278102946
"48118","Chelsea","MI","Green Tree Pediatrics: Chelsea","13699 E Old US Hwy 12","48118",42.3008847379408,-84.00011801719666
"48120","Dearborn","MI","Premier Medicine Urgent Care","10306 Dix","48120",42.303433,-83.146029
"48120","Dearborn","MI","Home care of michigan","1633 Fairlane Cir","48101",42.295484895033276,-83.1989161260429
"48120","Dearborn","MI","Basha MRI","Roemer","not_available",42.31838,-83.18324799999999
"48120","Dearborn","MI","Beaumont Hospital Orthopedics Wayne State Physicians Group","18100 Oakwood Blvd Ste 300","48124",42.29340362548828,-83.21172332763672
"48124","Dearborn","MI","Henry Ford Medical Center - Fairlane","19401 Hubbard Dr","48126",42.31881614820415,-83.227957564871
"48124","Dearborn","MI","First Choice Urgent Care","23455 Michigan Ave","48124",42.30141,-83.26385
"48124","Dearborn","MI","Henry Ford Hospital Wide Open MRI.","19315-19703 Hubbard Dr","48126",42.32013188201358,-83.22746842394412
"48124","Dearborn","MI","Henry Ford Fairlane Dialysis","3-65 Town Center Dr","48126",42.31997030030749,-83.22765827178955
"48124","Dearborn","MI","1st Choice Urgent Care","not_available","48127",42.32727414662803,-83.2705058333648
"48125","Dearborn Heights","MI","Annapolis Hospital Labor & Delivery","not_available","48125",42.27354049682617,-83.23893737792969
"48125","Dearborn Heights","MI","Akler Eye Center","2841 Monroe St","48124",42.29156498,-83.25036333
"48125","Dearborn Heights","MI","West Village OB/GYN","22074 Michigan Ave","48124",42.30601,-83.24559
"48125","Dearborn Heights","MI","Kozlow Eye Center","23874 Kean St Ste 130","48124",42.2993583,-83.2696426
"48125","Dearborn Heights","MI","Dearborn Pediatric & Adolescent Medical Center","2547 Monroe St","48124",42.293902,-83.248535
"48126","Dearborn","MI","Advanced Urgent Care","13510 Michigan Ave","48126",42.3225944,-83.1750132
"48126","Dearborn","MI","Dearborn Urgent Care","4700 Schaefer Rd","48126",42.32255935668945,-83.175537109375
"48126","Dearborn","MI","Detroit Medical Center Lab","6450 Maple St","48126",42.33784103393555,-83.17850494384766
"48126","Dearborn","MI","Henry ford Urgent Care","not_available","48126",42.32860721987018,-83.22621864134034
"48127","Dearborn Heights","MI","Epic Urgent Care","25150 Ford Rd Ste 110","48127",42.32701873779297,-83.28450775146484
"48127","Dearborn Heights","MI","Urgent Care","telegraph","48127",42.3398154,-83.2749775
"48127","Dearborn Heights","MI","Priority One Urgent Care Center: Dourra Hadi A MD","27144 Joy Rd","48239",42.355746999999994,-83.310331
"48131","Dundee","MI","Dundee Urgent Care","100 Powell Dr","48131",41.95800175,-83.6755277
"48131","Dundee","MI","ProMedica Physicians Internal Medicine - Dundee","100 Powell Dr Ste 2","48131",41.958005,-83.675536
"48134","Flat Rock","MI","Henry Ford Health Center - Brownstown","23050 West Rd","48183",42.13942593755382,-83.25836784171447
"48134","Flat Rock","MI","henry ford ER","W Rd, Woodhaven, MI 48183","48183",42.1393912540415,-83.25712668700984
"48135","Garden City","MI","Garden City Hospital","6245 Inkster Rd","48135",42.33217989662733,-83.31419118255893
"48135","Garden City","MI","Urgent Care 1","6200 Middlebelt Rd","48135",42.330871,-83.330472
"48135","Garden City","MI","1East","not_available","48135",42.332503,-83.314844
"48135","Garden City","MI","Promt Urgent Care","not_available","48185",42.330356,-83.370268
"48135","Garden City","MI","OccMed Connect","31450 Ford Rd","48135",42.325414,-83.351345
"48135","Garden City","MI","Garden City Hospital 2nd floor","6425 Inkster Rd","48135",42.33243303312144,-83.31358768944257
"48135","Garden City","MI","Urgent Care Garden City Medical","Middlebelt","48135",42.31999094,-83.3329646971231
"48135","Garden City","MI","Garden City Health & Education Center","6701 Harrison St","48135",42.33549118041992,-83.32288360595703
"48135","Garden City","MI","Garden City Urgent Care Walk-In Clinic","28505 Ford Rd","48135",42.3254494,-83.3228434
"48138","Grosse Ile","MI","Urgent Care","12813 Spruce St","48195",42.192861,-83.18105
"48138","Grosse Ile","MI","oakwood after hours urgent care","211 Eureka Rd","48192",42.199193,-83.152384
"48138","Grosse Ile","MI","Wyandotte Optical - Dr. Dan Stein","3101 Biddle Ave","48192",42.2019555,-83.1494014
"48138","Grosse Ile","MI","Michigan Urgent Care And Occupational Health Wyandotte","375 Eureka Rd","48192",42.199602,-83.154324
"48138","Grosse Ile","MI","Grosse Ile Urgent Care","8930 Macomb St","48138",42.130963,-83.156514
"48138","Grosse Ile","MI","Downriver Urgent Care","15830 Fort St","48195",42.192686,-83.180731
"48141","Inkster","MI","Western Wayne Family Health Center","2500 Hamlin Dr","48141",42.29178853459817,-83.31330017782237
"48144","Lambertville","MI","Aspen Urgent Care","not_available","48144",41.75230026245117,-83.62638092041016
"48146","Lincoln Park","MI","Vibra Hospital","26400 Outer Dr","48146",42.25658567370114,-83.16385715635586
"48146","Lincoln Park","MI","Pergatory","26526-26540 W Outer Dr","48146",42.25598349,-83.16280837
"48146","Lincoln Park","MI","Post 68","not_available","48146",42.22098563175767,-83.19409847259521
"48150","Livonia","MI","Healthy Urgent Care","29531 Plymouth Rd Livonia MI 48180","not_available",42.367393493652344,-83.33599090576172
"48150","Livonia","MI","Charach Cancer Treatment Center","1 William Carls Dr","48382",42.37099390219474,-83.38413213135465
"48150","Livonia","MI","Concentra Urgent Care","28196 Schoolcraft Rd","48150",42.384275970515915,-83.32233427357818
"48150","Livonia","MI","MedPost Urgent Care","11502 Middlebelt Rd","48150",42.36859244,-83.33177298
"48152","Livonia","MI","Arden Courts of Livonia","32500 7 Mile Rd","48152",42.42704401,-83.36813207
"48152","Livonia","MI","U of M Center for Specialty Care","19900 Haggerty Rd","48152",42.43285427401708,-83.43257801899178
"48152","Livonia","MI","IHA Urgent Care @ Schoolcraft College","39201 7 Mile Rd Rm 140-B","48152",42.4238461,-83.4322515
"48152","Livonia","MI","Robert Grodman, DO","37799 Professional Center Dr","48154",42.41149647354383,-83.41788589954376
"48152","Livonia","MI","Ascension Michigan at Work - Livonia","37595 7 Mile Rd","48152",42.424041748046875,-83.41568756103516
"48152","Livonia","MI","Livonia Family Medicine","37650 Professional Center Dr","48154",42.409758000000004,-83.414904
"48152","Livonia","MI","Premier Medicine Urgent Care","Middlebelt","48152",42.43767282101725,-83.33622714673301
"48152","Livonia","MI","Rehabilitation Physicians, PC","19850 Middlebelt Road","48152",42.4340652,-83.3355152
"48152","Livonia","MI","urgent care","37308 6 Mile","not_available",42.411178,-83.412815
"48152","Livonia","MI","Providence Urgent Care","Seven Mile","48152",42.42399612741631,-83.41623135960958
"48152","Livonia","MI","St. Joe's Urgent Care","39201 7 Mile Rd","48152",42.423918,-83.431888
"48152","Livonia","MI","Premier Medicine Urgent Care","Farmington Road","48152",42.42,-83.3743
"48152","Livonia","MI","Nurses Office","not_available","48152",42.434306,-83.358067
"48152","Livonia","MI","Premier Medicine Urgent Care","20290 Middlebelt Rd","48152",42.437748108007725,-83.33512710000002
"48152","Livonia","MI","Eye Clinic of Livonia PC","37650 Professional Center Drive","48154",42.4097462,-83.4147376
"48152","Livonia","MI","Beaumont Urgent Care","19760 Haggerty Road","48152",42.431221,-83.432712
"48154","Livonia","MI","St. Mary Mercy Hospital","36475 5 Mile Rd","48154",42.39438034595252,-83.40404024658446
"48154","Livonia","MI","Lakes Urgent Care","36622 5 Mile Rd","48154",42.39748,-83.404511
"48159","Maybee","MI","Starting Line Ambulance","not_available","48159",42.031444360085196,-83.61387685720747
"48161","Monroe","MI","Mercy Memorial Hospital","718 N Macomb St","48162",41.92430874349594,-83.38807829748328
"48161","Monroe","MI","MedExpress Urgent Care","1261 North Telegraph Road","48162",41.938649,-83.4069294
"48161","Monroe","MI","Macomb Pharmacy","not_available","48162",41.92539596557617,-83.38771057128906
"48161","Monroe","MI","Mercy Memorial Hospital - Surgical Services","730 N Macomb St","48162",41.923522236512824,-83.38779919533769
"48161","Monroe","MI","Mercy Memorial Emergency Room","Promedica Monroe Reginal Hospital Emergency Room","48162",41.92429081147041,-83.38905106092291
"48161","Monroe","MI","Monroe Urgent care","337 Stewart Rd","48162",41.93562829653118,-83.39254371073235
"48161","Monroe","MI","Mercy Memorial Outpatient","Stewart Rd.","48162",41.923296,-83.390714
"48161","Monroe","MI","Monroe Community Ambulance","not_available","48161",41.915521964585174,-83.42287865405984
"48165","New Hudson","MI","Healthy Urgent Care","not_available","48178",42.5141422768239,-83.61525939620981
"48167","Northville","MI","Hawthorn Center","18471 Haggerty Rd","48168",42.420155,-83.43536800000001
"48167","Northville","MI","St joseph urgent care","not_available","48167",42.44887493644127,-83.42495351072307
"48168","Northville","MI","Northville Urgent Care","47311 Five Mile Rd","48170",42.39354705810547,-83.50896453857422
"48168","Northville","MI","Urgent Carw","not_available","48170",42.393570266666664,-83.50874523333333
"48170","Plymouth","MI","Saint Joseph Mercy Hospital Health Systems","990 W Ann Arbor Trl","48170",42.37052489603057,-83.47118429979675
"48170","Plymouth","MI","Beaumont Canton Hospital Emergency Room","not_available","48187",42.337419,-83.487213
"48170","Plymouth","MI","Stephen A Card DDS","45270 Joy Rd","48170",42.35179901123047,-83.487548828125
"48170","Plymouth","MI","Douglas A. Callow, DDS, PC","9357 General Dr","48170",42.357444,-83.45827
"48170","Plymouth","MI","Plymouth Urgent Care","41424 Ann Arbor Rd E","48170",42.3591952,-83.4500908
"48170","Plymouth","MI","Dmc Urgent Care","N Lilley Rd","48170",42.35757350921631,-83.45907390117645
"48170","Plymouth","MI","Beaumont Urgent Care - Canton","6549 N Canton Center Rd","48187",42.330294,-83.488745
"48170","Plymouth","MI","Beaumont Emergency Center - Canton","7300 N Canton Center Rd","48187",42.337351242654385,-83.4871749564314
"48170","Plymouth","MI","Doctors Urgent Care Walk-In Clinic Plymouth","1498 S Sheldon Rd","48170",42.3588641,-83.480329
"48174","Romulus","MI","Taylor Urgent Care Walk-in Clinic - Taylor MI","23234 Ecorse Rd","48180",42.256199,-83.260648
"48174","Romulus","MI","Vibra Hospital of Southeastern Michigan - Taylor Campus","10000 Telegraph Road","48180",42.23516524,-83.27634032
"48174","Romulus","MI","Novi Urgent care","Grand river avenue","48375",42.20617,-83.36051
"48174","Romulus","MI","ER @ Oakwood Hospital","Somewhere","48186",42.26659393310547,-83.3667984008789
"48174","Romulus","MI","Concentra Urgent Care","29750 Ecorse Rd","48174",42.25356301837881,-83.33277639770675
"48174","Romulus","MI","Hope Urgent Care","9340 Wayne Rd Ste 200","48174",42.235664,-83.386904
"48174","Romulus","MI","Lancet Occupation Health","Menton Street","not_available",42.2258625,-83.3996957
"48174","Romulus","MI","Urgent Care 1","9870 Telegraph Rd","48180",42.23415916682563,-83.27021220302531
"48174","Romulus","MI","south shore hosptial","not_available","48180",42.202880859375,-83.2896957397461
"48176","Saline","MI","Advance Urgent Care & Walk-in Clinic","Suite 140, N. Industrial","48176",42.175894,-83.75836600000001
"48176","Saline","MI","St. Joseph Mercy Hospital","400 W Russell St","48176",42.16652064931914,-83.79017158495438
"48176","Saline","MI","St. Joseph Radiology","not_available","48176",42.16662,-83.79034
"48178","South Lyon","MI","Urgent Care","22312 Pontiac Trl","48178",42.445212,-83.648838
"48178","South Lyon","MI","Advance Urgent Care","22200 Pontiac Trl","48178",42.44490432739258,-83.64737701416016
"48178","South Lyon","MI","IHA Urgent Care South Lyon","23200 Pontiac Trl","48178",42.4523956,-83.6500545
"48178","South Lyon","MI","The Devotion House Adult Foster Care","10638 Rushton Rd","48178",42.448915,-83.6959172
"48182","Temperance","MI","Bedford Urgent Care","not_available","48182",41.760827,-83.567459
"48183","Trenton","MI","Beaumont Hospital, Trenton","5450 Fort St","48183",42.116816020524276,-83.21361422538757
"48183","Trenton","MI","Beaumont Southshore Imaging Center","not_available","48183",42.11651,-83.21398
"48183","Trenton","MI","ANLAM Mobile MD","20078 King Road","48183",42.155182,-83.22709250000001
"48183","Trenton","MI","The River Urgent Care","3645 West Rd","48183",42.141209878732965,-83.22284072738363
"48183","Trenton","MI","YaTro M.D. Urgent Care","21090 Allen Rd","48183",42.154227,-83.22765790000001
"48184","Wayne","MI","Oakwood Annapolis Hospital","33155 Annapolis St","48184",42.272984,-83.3646875
"48184","Wayne","MI","oakwood annaplis labor n delivery room 215","Annapplis","48184",42.274694738656045,-83.36166612582407
"48184","Wayne","MI","Maple Manor","not_available","48184",42.27920826815725,-83.36149667615908
"48184","Wayne","MI","Oakwood annapolis surgical center","Annapolis","48184",42.274829510378076,-83.364009094141
"48184","Wayne","MI","Wayne Urgent Care","34815 W Michigan Ave","48184",42.2816276550293,-83.38162231445312
"48184","Wayne","MI","Wayne Geriatrics - Dr. Ayman Daoud, M.D.","4020 Venoy Rd Ste 500","48184",42.27857,-83.364019
"48185","Westland","MI","Premier Urgent Care","35115 Warren Rd","48185",42.338558197021484,-83.38638305664062
"48185","Westland","MI","Westland Prompt Care - Urgent Care","6095 N Wayne Rd","48185",42.32897186279297,-83.38816833496094
"48185","Westland","MI","Burman & Zuckerbrod Ophthalmology Associates","7992 N Wayne Rd","48185",42.3460374,-83.3844817
"48186","Westland","MI","Rite Med Urgent-Care","not_available","48186",42.304527282714844,-83.38827514648438
"48186","Westland","MI","Advanced Urgent Care","827 S Wayne Rd","48186",42.30454635620117,-83.38739013671875
"48186","Westland","MI","Walter Reuther Psychiatric Hospital","30901 Palmer Rd","48186",42.294382,-83.345897
"48187","Canton","MI","Medpost Urgent Care","43767 Ford Rd","48187",42.321861267089844,-83.47300720214844
"48187","Canton","MI","Canton Urgent Care","42464 Cherry Hill Rd","48187",42.30821228027344,-83.45858001708984
"48187","Canton","MI","Canton Urgent Care Walk-in Clinic - Canton MI","43033 Ford Rd","48187",42.322137,-83.465186
"48187","Canton","MI","Premier Medicine Primary & Urgent Care","5958 N Canton Center Rd Ste 200","48187",42.32564926147461,-83.48688507080078
"48187","Canton","MI","Western Wayne Urgent Care/Michigan Urgent Care And Occupational Health Canton","2050 N Haggerty Rd Ste 140","48187",42.320617,-83.448277
"48188","Canton","MI","MI Express Care Urgent Care","44237 Michigan Ave","48188",42.27460749999999,-83.4754473
"48188","Canton","MI","Choice Urgent Care","not_available","48188",42.278466256472846,-83.45135771752538
"48188","Canton","MI","U Of M General Medicine Clinic","1500 E Medical Center Dr Spc 5376","48109",42.295008120789134,-83.43412273413179
"48188","Canton","MI","St. Joseph Urgent Care","Canton Center Rd.","48188",42.2940521273397,-83.48822228834939
"48188","Canton","MI","Urgent Care","41750 Michigan Ave","48188",42.278569,-83.45143900000001
"48189","Whitmore Lake","MI","Regency at Whitmore Lake","8633 Main St","48189",42.40910149088852,-83.76238940773722
"48189","Whitmore Lake","MI","Social work office","not_available","48189",42.409348041571036,-83.76142272930602
"48192","Wyandotte","MI","Wyandotte Urgent Care Clinic","1768 Ford Ave","48192",42.214096999999995,-83.173941
"48192","Wyandotte","MI","Henry Ford Wyandotte Hospital","2333 Biddle Ave","48192",42.20986155649093,-83.14756466195807
"48192","Wyandotte","MI","Select Specialty Hospital","2333 Biddle Ave Fl 8","48192",42.209999084472656,-83.14712524414062
"48192","Wyandotte","MI","Henery Ford Hospital","87 Mulberry St","48192",42.21054458618164,-83.14942169189453
"48192","Wyandotte","MI","Henry Ford Wyandotte 5 th floor","Biddle Ave, Wyandotte, MI 48192","48192",42.21063051023714,-83.14757518324255
"48195","Southgate","MI","Urgent Care Southgate","14523 Northline Rd","48195",42.213196999999994,-83.201011
"48195","Southgate","MI","Dix-Eureka Medical-Urgent Care","14797 Dix Toledo Rd","48195",42.2017956,-83.2071369
"48195","Southgate","MI","FirstLight Home Care of Southgate","16578 Silverado Dr","48195",42.187228999999995,-83.221665
"48195","Southgate","MI","Downriver Urgent Care","Fort street","48195",42.204237731686824,-83.19318741719127
"48197","Ypsilanti","MI","Nephrology Associates Ann Arbor","5333 McAuley Dr","48197",42.26396560668945,-83.65193939208984
"48197","Ypsilanti","MI","Ellen Thompson Women's Health Center","5320 Elliott Dr","48197",42.265276,-83.653413
"48198","Ypsilanti","MI","Ypsilanti Urgent Care Walk-in Clinic-Ypsilanti MI","301 W Michigan Ave Ste 100","48197",42.240648,-83.61646
"48198","Ypsilanti","MI","Michigan Brain And Spine","5315 Elliot Drive","48197",42.262806,-83.653554
"48198","Ypsilanti","MI","Women's Health Center","5320 Elliott Dr Rm 203","48197",42.26316221269253,-83.65332754030439
"48198","Ypsilanti","MI","Team 1 St. Joe's ER","5301 Mcaully Dr.","48106",42.263079872825415,-83.6549813693197
"48201","Detroit","MI","DMC Medical Center","14541-15099 Michigan 1","48203",42.35333426879887,-83.0552222131335
"48201","Detroit","MI","Children's Hospital of Michigan","3901 Beaubien St","48201",42.351503460301274,-83.05475234985352
"48201","Detroit","MI","Detroit Receiving Hospital","4201 Saint Antoine St","48201",42.35375698954008,-83.05416221717867
"48201","Detroit","MI","Barbara Ann Karmanos Cancer Institute","4100 John R St","48201",42.35280952137488,-83.05662513664775
"48201","Detroit","MI","Harper University Hospital","not_available","48201",42.35182495098092,-83.05645093389532
"48201","Detroit","MI","John D. Dingell VA Medical Center","4646 John R St","48201",42.35656404079471,-83.05959397111417
"48201","Detroit","MI","Parking Structure @ Harper Hospital","3990 John R St","48201",42.351103678787986,-83.0574766561175
"48201","Detroit","MI","Hutzel Women's Hospital","3980 John R St","48201",42.35156178184107,-83.05671267583236
"48201","Detroit","MI","DMC Guest Housing","3737 Beaubien St","48201",42.350242614746094,-83.05384826660156
"48202","Detroit","MI","Henry Ford Hospital","2799 W Grand Blvd","48202",42.36746468764743,-83.08495367121657
"48202","Detroit","MI","Henry Ford Hospital Transplant Clinic","not_available","48202",42.367752,-83.08565
"48202","Detroit","MI","Henry Ford Health System 1 Ford Place","1 Ford Pl","48202",42.36389501899853,-83.07531548578976
"48202","Detroit","MI","Make-A-Wish Foundation of Michigan","4707 Saint Antoine St","48201",42.35767,-83.056524
"48202","Detroit","MI","Meyer L Prentis Cancer Center","110 E Warren Ave","48201",42.357009999999995,-83.062066
"48202","Detroit","MI","Henry Ford Contact Center","3031 W Grand Blvd","48202",42.37003744421452,-83.07622223782813
"48205","Detroit","MI","StoneCrest Center","15000 Gratiot Ave","48205",42.4436488,-82.9713162
"48205","Detroit","MI","BCA Stonecrest","not_available","48205",42.443238555437766,-82.97137087126595
"48207","Detroit","MI","Huztel Nursery","not_available","48226",42.33667755126953,-83.04541015625
"48207","Detroit","MI","detroit medical group","6400 Graitot","48234",42.36694984576041,-83.01046865489056
"48207","Detroit","MI","Children's Hospital Special Services","not_available","48207",42.35295992487394,-83.05195051190532
"48207","Detroit","MI","St. Clemenes Psychiatric Hospital","3734-3762 E Larned St","48207",42.34264433383942,-83.0144065618515
"48207","Detroit","MI","Childrens Hospital of Michigan, Detroit Medical Center, Department of Adolescent Medicine, Horizons Project","3127 E Canfield St","48207",42.363865999999994,-83.032589
"48207","Detroit","MI","Henry Ford Walk-In Clinic - Capitol Park","45 W. Grand River, Main Floor","48226",42.333596774810076,-83.04944749932474
"48209","Detroit","MI","Vernor Urgent Care","3456 W Vernor Hwy","48216",42.3241506,-83.0866123
"48211","Detroit","MI","Hamtramck Medical Urgent Care","9740 Conant St","48212",42.399679306970725,-83.05077601535973
"48211","Detroit","MI","Dunbar Hospital","580 Frederick Douglass Ave","48202",42.361663818359375,-83.05872344970703
"48213","Detroit","MI","Samaritian Urgent Care","5575 Conner St","48213",42.39143,-82.98218
"48216","Detroit","MI","United Community Hospital","Creepy","not_available",42.329612,-83.081641
"48220","Ferndale","MI","ferndale urgent care","641 W 9 Mile Rd","48220",42.46013641357422,-83.14281463623047
"48220","Ferndale","MI","Kingswood Hospital","20700-20998 Mendota Ave","48220",42.44588511848161,-83.16662996093845
"48220","Ferndale","MI","Henry Ford Kingswood Hospital","10300 W 8 Mile Rd","48220",42.447357177734375,-83.16533660888672
"48221","Detroit","MI","Sherwood Urgent Care","20176 Livernois Ave","48221",42.442632,-83.14153
"48221","Detroit","MI","Healthy Starts Inc","19004 Oak Dr","48221",42.431084999999996,-83.138304
"48224","Detroit","MI","Cracchiolo Inpatient Rehabilitation Center","22101 Moross Rd","48236",42.41984505,-82.91437041
"48224","Detroit","MI","4 North","not_available","48236",42.42027775423457,-82.9149704289569
"48224","Detroit","MI","Beaumont Breast Care Center Groose Point","628 Cadieux Rd","48230",42.388272,-82.916724
"48224","Detroit","MI","St. John Same Day Surgery","not_available","48224",42.407588,-82.916466
"48224","Detroit","MI","Ascension St. John Hospital Health Center at Kercheval","17141 Kercheval Ave","48230",42.39097,-82.914904
"48224","Detroit","MI","Ascension St. John Hospital Audiology Services - The Holley Institute","22151 Moross Rd","48236",42.419945,-82.91487
"48224","Detroit","MI","Bayne Optical","16841 Kercheval Place","48230",42.3892908,-82.9177595
"48228","Detroit","MI","Fairlane Nursing Center","15750 Joy Rd","48228",42.358973976641906,-83.20059637386554
"48230","Grosse Pointe","MI","Beaumont Grosse Pointe Hospital Emergency Room","468 Cadieux Rd","48230",42.384616401389074,-82.91501180435748
"48230","Grosse Pointe","MI","Cottage Hospital","159 Kercheval Ave","48236",42.39661215579893,-82.90247498885117
"48234","Detroit","MI","Conner Creek Urgent Care","4777 Conner","48234",42.44286567191336,-83.01960749996836
"48234","Detroit","MI","Triumph Hospital","20158-20200 Conner St","48234",42.442271000000005,-83.01991
"48234","Detroit","MI","St. John's Connor Creek Village","not_available","48234",42.44132314043341,-83.0203630694612
"48235","Detroit","MI","DMC Sinai-Grace Hospital","6071 W Outer Dr","48235",42.41971668780549,-83.18209066040129
"48235","Detroit","MI","Henry Ford North West Dialysis","not_available","48235",42.429186,-83.213544
"48235","Detroit","MI","Psychiatric Ward","6 Mile","48235",42.41945916553786,-83.18713379444213
"48235","Detroit","MI","Burman & Zuckerbrod Ophthalmology Associates","14400 W McNichols Rd","48235",42.4167372,-83.1874451
"48236","Grosse Pointe","MI","Ascension St. John Hospital Valve Clinic","22201 Moross Rd","48236",42.42022188781726,-82.91385129465444
"48236","Grosse Pointe","MI","MedPost Urgent Care","20599 Mack Ave","48236",42.4423,-82.907675
"48236","Grosse Pointe","MI","Valade Healing Arts Center","19229 Mack Ave","48236",42.419666,-82.911197
"48236","Grosse Pointe","MI","Select Specialty Hospital","Moross Ave","48236",42.419569489150284,-82.91371862605202
"48237","Oak Park","MI","Oak Park Urgent Care","24661 Coolidge Hwy","48237",42.472713,-83.182916
"48237","Oak Park","MI","Post 61","not_available","48237",42.48618107384285,-83.2015213443491
"48237","Oak Park","MI","Specialty Surgical Center 22000 Greenfield Rd.","22000 Greenfield Rd","48237",42.457217,-83.20064
"48237","Oak Park","MI","Beaumont Hospital 9 North","3601 W 13ml Rd","48093",42.47916655028749,-83.19495578485844
"48238","Detroit","MI","newcenter","not_available","48238",42.408042907714844,-83.153564453125
"48239","Redford","MI","Best Urgent Care Walk-in Clinic - Redford, MI","14671 Telegraph Rd","48239",42.3946358,-83.2777352
"48239","Redford","MI","Beaumont Urgent Care - Redford","15540 Beech Daly Rd","48239",42.40311318228329,-83.2956308126449
"48239","Redford","MI","Redford Urgent Care","23405 Plymouth Rd","48239",42.371154,-83.268334
"48239","Redford","MI","Redford Township Fire Station","Beech Daly","48239",42.36725997924805,-83.29530334472656
"48240","Redford","MI","MedCare Urgent Care","26611 W 7 Mile Rd","48240",42.42772,-83.30711333
"48240","Redford","MI","The Nut House.","not_available","48168",42.419685404935535,-83.31029762163986
"48301","Bloomfield Hills","MI","Preferred Care at Home of Oakland County","6632 Telegraph Rd #115","48301",42.54261016845703,-83.28518676757812
"48301","Bloomfield Hills","MI","Beaumont Urgent Care","not_available","48301",42.54375,-83.284303
"48302","Bloomfield Hills","MI","St. Joseph Mercy Oakland Hospital","44405 Woodward Ave","48341",42.6142543,-83.2760239
"48302","Bloomfield Hills","MI","Telegraph Urgent Care","2510 S Telegraph Rd","48302",42.60260772705078,-83.29044342041016
"48302","Bloomfield Hills","MI","Healing Hands Urgent Care","2157 Orchard Lake Rd","48320",42.612545000000004,-83.326523
"48302","Bloomfield Hills","MI","Central supply","not_available","48341",42.6143913269043,-83.27657318115234
"48302","Bloomfield Hills","MI","Echo","3rd Floor","48341",42.61304886032681,-83.27540734254355
"48302","Bloomfield Hills","MI","MedPost Urgent Care of Bloomfield Township","2274 S Telegraph Rd","48304",42.60545781,-83.29636644
"48302","Bloomfield Hills","MI","Kingswood Urgent Care","43141 Woodward Ave","48302",42.605540000000005,-83.267751
"48302","Bloomfield Hills","MI","Bloomfield Heart Center PLLC","44555 Woodward Ave Suite #403","48341",42.6148273,-83.2761742
"48304","Bloomfield Hills","MI","Serenity Pediatrics","71 E Long Lake Rd","48304",42.584482,-83.243037
"48307","Rochester","MI","Crittenton Hospital","1101 W University Dr","48307",42.68078317347394,-83.14928770139808
"48307","Rochester","MI","MedPost Urgent Care","3035 S Rochester Rd","48307",42.63542400000001,-83.13123499999999
"48307","Rochester","MI","Timothy Keeler, PA-C","1268 Walton Blvd","48307",42.6816523,-83.15269169999999
"48307","Rochester","MI","Michigan Orhopaedic Spine Surgeons","1555 South Blvd E Ste 310","48307",42.624593198416854,-83.09987029723673
"48307","Rochester","MI","Crittenton Radiology","1011 W University Dr","48307",42.681026458740234,-83.14720916748047
"48307","Rochester","MI","Crittenton Hospital 7th Floor","not_available","48307",42.680331,-83.148635
"48307","Rochester","MI","Crittenton Hospital Medical Center","1101 West University Dr","48307",42.68010080005963,-83.14989566802979
"48307","Rochester","MI","Rochester Eye Care P","1282 Walton Blvd","48307",42.683096,-83.15169200000001
"48307","Rochester","MI","Rochester Ascension Providence Rochester Hospital Rochester Academic Family Medicine","1135 W University Dr","48307",42.67928,-83.15028
"48307","Rochester","MI","Rochester Urgent Care","215 E Auburn Rd","48307",42.636968,-83.125922
"48307","Rochester","MI","RMC Urgent Care","543 N Main St Ste 211","48307",42.683306,-83.13444399999999
"48307","Rochester","MI","Auburn Animal Hospital","1619 E Auburn Rd","48307",42.637639,-83.09999300000001
"48307","Rochester","MI","Ascension Providence Rochester Hospital - Rochester Wellness and Primary Care","1135 W. University Drive","48307",42.67928029999999,-83.15027719999999
"48307","Rochester","MI","Rochester Medpointe Urgent Care Walk In Clinic","150 S Main St","48307",42.6779466,-83.1330998
"48307","Rochester","MI","Amh - 426","1260 Walton Blvd","48307",42.68319320678711,-83.15129852294922
"48307","Rochester","MI","Crittenton Surgical Waiting Room","Walton","48307",42.67932642856482,-83.14940237992398
"48307","Rochester","MI","Animal Emergency Center","265 E 2nd St","48307",42.67861790755468,-83.1314830182782
"48309","Rochester","MI","Rochester Urgent Care","not_available","48309",42.680063,-83.191397
"48309","Rochester","MI","Prosperity Health Integrative Health & Wellness Center","2950 Crooks Rd","48309",42.636260986328125,-83.1718978881836
"48309","Rochester","MI","Rochester Hills Urgent Care Walk-In Clinic-Rochester Hills, MI","2915 Walton Blvd","48309",42.67992667,-83.1915225
"48310","Sterling Heights","MI","Henry Ford Medical Center - Sterling Heights Emergency Department","3500 15 Mile Rd","48310",42.54923120995497,-83.0727767944336
"48312","Sterling Heights","MI","Medpost Urgent Care","not_available","48312",42.563672,-83.029837
"48312","Sterling Heights","MI","Henry Ford Macomb Hospital Emergency","19 Mile Rd.","48313",42.56711492177484,-82.98797814339142
"48312","Sterling Heights","MI","Sterling Heights Urgent Care","37771 Schoenherr Rd Ste 102","48312",42.567988,-82.989148
"48313","Sterling Heights","MI","Evangeline Nursing Home","14500 Shoreline Drive","not_available",42.61867105397012,-82.97646755659117
"48313","Sterling Heights","MI","Henry Ford Macomb","not_available","48313",42.62742528451497,-82.9716380777858
"48313","Sterling Heights","MI","Utica Surgery Center Suite 100","11051 Hall Rd Ste 100","48317",42.626305,-83.021589
"48313","Sterling Heights","MI","Beaumont Hodpital Car.","Dequindre","48310",42.61475181734538,-83.04584185216228
"48313","Sterling Heights","MI","Concentra Urgent Care","not_available","48051",42.61028463132929,-82.97210004316604
"48313","Sterling Heights","MI","Doctors Urgent Care Walk-in Clinic - Sterling Heights","43722 Schoenherr Rd","48313",42.6159448,-82.99093549999999
"48313","Sterling Heights","MI","Stone Dermatology","14460 Lakeside Cir Ste 100","48313",42.6197914,-82.9835038
"48314","Sterling Heights","MI","Awal Bross Hospital","Galaxy","not_available",42.618272,-83.0761741
"48315","Utica","MI","Ascension Stonebridge Orthopedic Urgent Care","13350 24 Mile Rd","48315",42.68437576293945,-82.99775695800781
"48315","Utica","MI","Cardiology Associates of Michigan","4014 River Rd","48054",42.66400631414487,-82.98644587397574
"48315","Utica","MI","Hearing Care Center","49050 Schoenherr Rd Ste 200","48315",42.656124114990234,-82.99331665039062
"48315","Utica","MI","Healthy Urgent Care","45030 Northpointe Blvd","48315",42.629226,-82.99874100000001
"48315","Utica","MI","Ascension Macomb-Oakland Hospital Physical Therapy, Lakeside","45660 Schoenherr Rd","48315",42.63159942626953,-82.99239349365234
"48317","Utica","MI","Will Mar Nursing Home","7700 McClellan St","48317",42.628353118896484,-83.0351791381836
"48317","Utica","MI","Utica Shelby Urgent Care","45569 Van Dyke Ave Ste 3","48317",42.631029,-83.032913
"48317","Utica","MI","Shelby Urgent Care","46961 Van Dyke Ave, Shelby Township","48317",42.640282,-83.03322159999999
"48317","Utica","MI","Troy Beaumont - Surgical Intensive Care Unit","44193 Dequindre Rd","48085",42.618476,-83.093284
"48320","Keego Harbor","MI","Allen's Naturally","2861 Orchard Lake Rd Ste B","48320",42.6065284,-83.3408869
"48320","Keego Harbor","MI","Keego harbor urgent care","not_available","48320",42.60959390020226,-83.33849274187459
"48322","West Bloomfield","MI","Henry Ford West Bloomfield Hospital","6777 W Maple Rd","48322",42.53862279365235,-83.40671702883685
"48322","West Bloomfield","MI","Henry Ford West Bloomfield Hospital Emergency Room","not_available","48322",42.538555203292326,-83.40822761938243
"48322","West Bloomfield","MI","Henry Ford West Bloomfield Breast Care Center","W. 15 mile","48322",42.538939118385315,-83.40716779232025
"48322","West Bloomfield","MI","Lakes Urgent Care","2300 Haggerty Rd","48323",42.55637522653451,-83.43782672155773
"48322","West Bloomfield","MI","Dr. Christopher Cooke","6525 W Maple Rd #101e","48323",42.5411687,-83.40188909999999
"48322","West Bloomfield","MI","Healthy Urgent Care","7125 Orchard Lake Rd","48322",42.532868,-83.359127
"48322","West Bloomfield","MI","Henry Ford Hospital Orthopedics West Bloomfield","Hospital","48382",42.53920002404414,-83.40605603252803
"48322","West Bloomfield","MI","Henry Ford West Blmfld Hospital ER Room 8","not_available","48331",42.539844476874755,-83.40768009558423
"48322","West Bloomfield","MI","Lakes Urgent Care","2300 Haggerty Road, Suite 1010","48323",42.5569372,-83.4377384
"48322","West Bloomfield","MI","Henry Ford West Bloomfield","not_available","48390",42.54094101019341,-83.43807880214928
"48323","West Bloomfield","MI","Dr. Steven Kin, D.O. Center For Ear, Nose, & Throat PC","2300 Haggerty Rd, Suite 2130","48323",42.5569372,-83.4377384
"48326","Auburn Hills","MI","McLaren Oakland Hospital","50 N Perry St","48342",42.6381986345247,-83.29112431496871
"48326","Auburn Hills","MI","Doctors' Hospital Of Michigan","461 W Huron St","48341",42.63544405778974,-83.30943590941934
"48326","Auburn Hills","MI","Havenwyck Hospital","1525 University Dr","48326",42.6613918175993,-83.24857512572208
"48326","Auburn Hills","MI","Havenwyck","not_available","48340",42.675997,-83.254511
"48326","Auburn Hills","MI","7060 McLaren Hospital","not_available","48342",42.63814162161998,-83.29111788015727
"48326","Auburn Hills","MI","Crittenton Medical Plaza Auburn Hills","2251 N Squirrel Rd","48326",42.676089000000005,-83.221977
"48326","Auburn Hills","MI","Common Ground Crisis Resource Center","461 W Huron St Ste 100","48341",42.634559631347656,-83.30947875976562
"48326","Auburn Hills","MI","Siegel Dermatology","1095 West Huron St","48328",42.634788,-83.3330557
"48327","Waterford","MI","St. Joseph Mercy Oakland Urgent Care","4400 Highland Rd.","48328",42.66119405527803,-83.39073060874475
"48327","Waterford","MI","DHM-Waterford Ambulatory Care Center","1305 N Oakland Blvd","48327",42.656878999999996,-83.43338
"48327","Waterford","MI","Urgent Care","not_available","48327",42.656499776751474,-83.43330438635812
"48327","Waterford","MI","Urgent care","North oakland blvd","48327",42.655344338979766,-83.43209508887222
"48327","Waterford","MI","Waterford Urgent Care","5800 Highland Rd","48327",42.66034,-83.40172
"48328","Waterford","MI","Michael S. Ventura, DO","4400 Highland Rd","48328",42.65548120054385,-83.37357404752844
"48329","Waterford","MI","Quality Urgent Care","4764 Dixie Hwy","48329",42.68841,-83.38253
"48331","Farmington","MI","Community EMS Dispatch","27555 Farmington Rd","48334",42.49665451049805,-83.3799057006836
"48334","Farmington","MI","Always Best Care Senior Services","29226 Orchard Lake Rd Ste 100","48334",42.512176513671875,-83.35829162597656
"48334","Farmington","MI","Beaumont Royal Oak Hospital Nuclear Medicine","Woodward Ave, MI","48073",42.521274201865026,-83.35891602922948
"48334","Farmington","MI","Michelle Hardaway M.D. - Michigan Plastic Surgeon","27920 Orchard Lake Rd","48334",42.5007326,-83.3579428
"48334","Farmington","MI","urgent care of farmington hills","30000 Orchard Lake Rd","48334",42.517247,-83.359116
"48334","Farmington","MI","Dr. Tayfur Ayalp, M.D.","28499 Orchard Lake Road","48334",42.50456237792969,-83.35978698730469
"48334","Farmington","MI","Elite Podiatry","32910 W 13 Mile Rd Ste C300","48334",42.5136476,-83.3769626
"48334","Farmington","MI","Dr. Christopher Cooke (Christopher Cooke, MD)","1 William Carls Dr, Suite 120","48382",42.504058837890625,-83.35794830322266
"48336","Farmington","MI","Botsford Hospital","28050 Grand River Ave","48336",42.444175,-83.3247885
"48336","Farmington","MI","Botsford Hospital Cath Lab","not_available","48336",42.44673892280541,-83.3246473504085
"48336","Farmington","MI","Daniel P McCall DO","28080 Grand River Ave Suite 207","48336",42.4468264,-83.3239842
"48336","Farmington","MI","Cardiovascular Clinical Associates, P.C.","28080 Grand River Ave","48336",42.446477,-83.32445
"48336","Farmington","MI","BMC Urgent Care","23900 Orchard Lake Rd","48336",42.468143,-83.356133
"48346","Clarkston","MI","Independence Urgent Care","7192 N Main St","48346",42.74328,-83.418408
"48346","Clarkston","MI","Pine Knob Urgent Care","not_available","48346",42.730697,-83.379005
"48346","Clarkston","MI","McLaren Surgery Center","5701 Bow Pointe Dr","48346",42.72786,-83.377082
"48346","Clarkston","MI","POH Medical Center - Clarkston","5625 Water Tower Pl","48346",42.72540283203125,-83.43345642089844
"48346","Clarkston","MI","POH /GENESYS Urgent Care","Dixie Hwy.","48346",42.72530247426935,-83.43287175239502
"48346","Clarkston","MI","McLaren Clarkston Emergency Room","5701 Bow Pointe Dr Ste 120","48346",42.727949592712456,-83.37645375702064
"48348","Clarkston","MI","Springfield Urgent Care","9749 Dixie Hwy Ste B","48348",42.7573111,-83.48181629999999
"48356","Highland","MI","Springfield Urgent Care","2116 South Milford Road","48357",42.62034149999999,-83.6160791
"48360","Lake Orion","MI","Orion-Oxford Urgent Care","1455 S Lapeer Rd","48360",42.760394,-83.2428
"48360","Lake Orion","MI","SJMG Urgent Care Lake Orion","1375 S Lapeer Rd Ste 106","48360",42.76185823079393,-83.24181979564585
"48360","Lake Orion","MI","Lake Orion Urgent Care","not_available","48360",42.761873,-83.241775
"48371","Oxford","MI","McLaren Oxford","385 N Lapeer Rd","48371",42.83015775913888,-83.27007650575463
"48371","Oxford","MI","Oxford Urgent Care","72 S Washington St","48371",42.822390999999996,-83.262261
"48374","Novi","MI","Emergency Care - Providence-Providence Park Hospital, Novi","47601 Grand River Ave","48374",42.48732230511164,-83.51872053956447
"48374","Novi","MI","Providence Park ER","not_available","48374",42.486653173793464,-83.51932613627864
"48374","Novi","MI","Pediatric Lipid Clinic - Ascension Providence Hospital","26850 Providence Pkwy","48374",42.4866498,-83.52207659999999
"48374","Novi","MI","File room - HR office","not_available","48393",42.48773866068854,-83.51796054227204
"48375","Novi","MI","Novi Urgent Care","43601 Grand River Ave","48375",42.479909,-83.476327
"48375","Novi","MI","Urgent Care","40000 Grand River Ave","48375",42.473968505859375,-83.4407730102539
"48375","Novi","MI","PrimeCare Urgent Care","39555 W 10 Mile Rd #301","48375",42.46754680684657,-83.4378963801756
"48377","Novi","MI","Rehabilitation Physicians, PC","28455 Haggerty Road Suite 200","48377",42.5018926,-83.4383185
"48377","Novi","MI","Urgent Care of Novi","44000 W 12 Mile Rd","48377",42.496198,-83.482049
"48377","Novi","MI","Post 43","not_available","48375",42.49079154693607,-83.47766241746243
"48377","Novi","MI","Dr. Nisha Chellam - Holistic Icon","39525 14 Mile Rd Ste 203","48377",42.5265346,-83.4401007
"48377","Novi","MI","Novi Dermatology","44000 W 12 Mile Rd 103","48377",42.496145,-83.482108
"48377","Novi","MI","Southfield Pediatric Physicians, PC","39525 14 Mile Rd Ste 200A","48377",42.5262701,-83.4400932
"48380","Milford","MI","Oakland Internal Medicine","1435 North Milford Rd","48381",42.6038703918457,-83.61177825927734
"48380","Milford","MI","Mott Hospital Nest 4","not_available","48381",42.573002,-83.619675
"48381","Milford","MI","Urgent Care of Milford PLLC","600 Highland Ave","48381",42.59319319999999,-83.60439889999999
"48381","Milford","MI","Milford urgent care","Union st","48381",42.591117,-83.598861
"48382","Commerce Township","MI","HVSH CardioPulmonary Dept","1 Williams Carls Drive","not_available",42.577556,-83.492844
"48382","Commerce Township","MI","Commerce Urgent Care Walk-in Clinic - Commerce MI","2900 Union Lake Rd Ste 110","48382",42.5942211,-83.4465973
"48382","Commerce Township","MI","The PT Lounge Yo!","not_available","48382",42.59260058719243,-83.49781728752394
"48382","Commerce Township","MI","William Beaumont Hospital","not_available","48084",42.6056877581348,-83.4907664156397
"48383","White Lake","MI","St Joseph Urgent Care","not_available","48386",42.64906680186564,-83.4988535016821
"48413","Bad Axe","MI","Huron Medica Center Accounting","not_available","48413",43.803013,-83.031853
"48413","Bad Axe","MI","Hmc Xray","North van Dyke","48413",43.803215,-83.031512
"48413","Bad Axe","MI","Huron Medical Center","1100 S Van Dyke Rd","48413",43.8031628,-83.0319928
"48415","Birch Run","MI","Ascension Medical Group Birch Run Urgent Care","9900 Birch Run Rd","48415",43.24956512451172,-83.75677490234375
"48415","Birch Run","MI","St. Mary's of Michigan Frankenmuth Family Physicians","1027 W Genesee St","48734",43.33517837524414,-83.75486755371094
"48420","Clio","MI","Clio Urgent Care","4272 W Vienna Rd","48420",43.17805099487305,-83.76420593261719
"48420","Clio","MI","Red Cross FAST Trailer","not_available","48420",43.17685317993164,-83.72655487060547
"48420","Clio","MI","Freddie's","10092 North Dort Highway","48420",43.1511762,-83.6936702
"48423","Davison","MI","Convenient Urgent Care Davison","612 N State Rd","48423",43.03517150878906,-83.5176773071289
"48423","Davison","MI","Hope Urgent Care","9171 Lapeer Rd Ste 100","48423",43.013161,-83.531296
"48423","Davison","MI","Touchtacular","208 N Main St #1","48423",43.0311142,-83.5165367
"48429","Durand","MI","Hurley Urgent Care-Durand","8759 Monroe Rd","48429",42.922080993652344,-83.99150085449219
"48430","Fenton","MI","Stat Ems post 11","not_available","48430",42.80544812498081,-83.73430811174808
"48430","Fenton","MI","MMR Station 92","not_available","48451",42.809784,-83.747106
"48430","Fenton","MI","Hometown Urgent Care","3220 W Silver Lake Rd, Fenton Township, MI 48430","48430",42.805327602512804,-83.73389310591591
"48433","Flushing","MI","Stat EMS post 38","not_available","48433",43.05836486816406,-83.79039001464844
"48433","Flushing","MI","Convenient Urgent Care","6020 W Pierson Rd","48433",43.060728999999995,-83.793315
"48433","Flushing","MI","Fostrian Court Assisted Living","640 Sunnyside Dr","48433",43.073105,-83.824264
"48439","Grand Blanc","MI","Genesys Hospital","1 Genesys Pkwy","48439",42.89259951018865,-83.64229218840448
"48439","Grand Blanc","MI","Genesys Emergency Room","not_available","48439",42.891650876705334,-83.64173404490339
"48439","Grand Blanc","MI","Hillside Center For Behavioral Services","8435 Holly Rd","48439",42.905447698370935,-83.6271585590915
"48439","Grand Blanc","MI","Genesys Diabetes Learning Center","not_available","48442",42.90654925150839,-83.64910649550967
"48439","Grand Blanc","MI","Genesys Orthotics & Prosthetics","4646","not_available",42.892396,-83.64239
"48439","Grand Blanc","MI","Reverence Home Health & Hospice","5445 Ali Dr","48439",42.94635772705078,-83.67894744873047
"48439","Grand Blanc","MI","Lifetime Urgent Care Pllc","2469 W Hill Rd","48507",42.94314956665039,-83.73007202148438
"48441","Harbor Beach","MI","Harbor Beach Community Hospital","210 S 1st St","48441",43.84277383853881,-82.65250865111167
"48442","Holly","MI","Holly Convalescent Center","313 Sherwood St","48442",42.795014,-83.635109
"48442","Holly","MI","Genesys Material Management","1000 Health Park Blvd","48439",42.8884391784668,-83.64037322998047
"48446","Lapeer","MI","Lapeer Regional Medical Center","1375 N Main St","48446",43.06343277742795,-83.32036052154375
"48446","Lapeer","MI","ProMed Station 4","West Genesee Ave","48446",43.050219,-83.326694
"48446","Lapeer","MI","Lapeer Family And Urgent Care","1794 N Lapeer Rd Ste D","48446",43.0780975,-83.3110468
"48446","Lapeer","MI","Lapeer Regional Medical Cntr","700 S Main St","48446",43.042877197265625,-83.32208251953125
"48453","Marlette","MI","Marlette Regional Hospital","2770 Main Street","48453",43.33335989436702,-83.08113063805139
"48462","Ortonville","MI","M15 Urgent Care","not_available","48462",42.856693267822266,-83.45445251464844
"48471","Sandusky","MI","McKenzie Health System","120 Delaware St","48471",43.42329784610571,-82.83241937787885
"48473","Swartz Creek","MI","West Flint Animal Hospital","1500 S Elms Rd","48532",43.001607184605746,-83.81256484222236
"48473","Swartz Creek","MI","Genesee Urgent Care","not_available","48532",42.994791,-83.771795
"48473","Swartz Creek","MI","Hurley Family Rehabilitation Center","1125 S Linden Rd","48532",43.01382211,-83.77186271
"48473","Swartz Creek","MI","McLaren SIM MAN Lab","Ballenger Hwy","48503",43.01365011200229,-83.73307864891082
"48473","Swartz Creek","MI","McLaren Regional Medical Center","401 S Ballenger Hwy","48532",43.01383111639113,-83.7332693143555
"48473","Swartz Creek","MI","Robert M Soderstrom PC","5131 West Bristol Rd Suite A","48507",42.973341999999995,-83.776732
"48473","Swartz Creek","MI","Karmonos Cancer Institute","4100 Beecher Rd","48532",43.015021000000004,-83.735885
"48473","Swartz Creek","MI","AMD Urgent Care SC","7070 Miller Rd Ste A","48473",42.96424865722656,-83.81459045410156
"48473","Swartz Creek","MI","Kindred at Home","4458 Oak Bridge Dr","48532",42.99406239,-83.76987611
"48473","Swartz Creek","MI","Mclaren Partial Day Treatment Facility","4448 Oakbridge Dr","48532",42.994044,-83.770935
"48502","Flint","MI","Hurley Cancer center","not_available","48502",43.02085970860913,-83.69422651850934
"48503","Flint","MI","Hurley Medical Center","1 Patrick Street","48503",43.02181597,-83.70511413
"48503","Flint","MI","ProMed Station 2","not_available","48506",43.03628458778837,-83.66487546600897
"48503","Flint","MI","Flushing Road Urgent Care","1301 Flushing Rd","48504",43.019073,-83.71086700000001
"48503","Flint","MI","Hurley CDU","not_available","48503",43.02165603637695,-83.70528411865234
"48503","Flint","MI","Hurley Emergency Center","not_available","48529",43.02130990167938,-83.7042026263723
"48503","Flint","MI","Hope Network Insight","eldon baker","48519",42.99257102,-83.6564449
"48601","Saginaw","MI","Covenant HARRISON","1447 N Harrison St","48602",43.42849291042355,-83.95582146429608
"48601","Saginaw","MI","Covenant Hospital ER","800 Cooper Ave","48602",43.429945134408605,-83.95428314621454
"48601","Saginaw","MI","Covenant Cooper","900 N. Michigan","48607",43.42993342180811,-83.95282545656514
"48601","Saginaw","MI","Covenant Hospital - Labor & Delivery","Harrison St","not_available",43.42943463918333,-83.95701997088764
"48601","Saginaw","MI","Covenant Cooper Physical Therapy","not_available","48602",43.429741,-83.952854
"48601","Saginaw","MI","Aleda E. Lutz VA Medical Center","1500 Weiss St","48602",43.444321827157836,-83.9621703655713
"48601","Saginaw","MI","St. Mary's of Michigan","800 South Washington Ave","48601",43.424173941879275,-83.93861891312207
"48601","Saginaw","MI","Covenant Outpatient Pharmacy","900 Cooper Ave","48602",43.43019104003906,-83.95388793945312
"48601","Saginaw","MI","St. Marys ACC","not_available","48604",43.473118,-83.965909
"48601","Saginaw","MI","Healthsource","3340 Hospital Rd","48603",43.45481411778954,-84.05087284457126
"48601","Saginaw","MI","Luther Manor","3161 Davenport Ave","48602",43.437018,-83.985653
"48601","Saginaw","MI","Matrix Surgery Center","not_available","48603",43.47139945523701,-83.9622016174592
"48601","Saginaw","MI","St. Mary's of Michigan - Specialty Rehabilitation","4677 Towne Centre Rd","48604",43.475162506103516,-83.96466064453125
"48601","Saginaw","MI","covensnt sleep center","515 N Michigan Ave","48602",43.42062759399414,-83.96031188964844
"48601","Saginaw","MI","St. Mary's - Towne Center Emergency","4599 Towne Centre Rd","48604",43.4733492333228,-83.96520291828018
"48601","Saginaw","MI","Ascension St. Mary's Hospital Seton Cancer Institute - Saginaw","800 S Washington Ave","48601",43.42511,-83.93915
"48602","Saginaw","MI","Covenent Hospital","800 Cooper Ave Ste 9","48602",43.43067169189453,-83.95323944091797
"48602","Saginaw","MI","Covenant Occupational Health","600 Irving Ave","48602",43.432204999999996,-83.95156800000001
"48603","Saginaw","MI","Neumann Mercy Inn","not_available","48609",43.43976965,-84.07343505
"48603","Saginaw","MI","med express","State St, Saginaw, MI","48603",43.43736519901303,-84.02523869049224
"48603","Saginaw","MI","Michigan Spine Center","4901 Towne Centre Rd","48604",43.47868728637695,-83.96422576904297
"48603","Saginaw","MI","St. Mary's of Michigan - Orthopedics","4701 Towne Centre Rd","48604",43.47559356689453,-83.96527099609375
"48603","Saginaw","MI","Medical Arts 1 Buidling","4705 Towne Centre Rd","48604",43.471944444444446,-83.95694444444445
"48604","Saginaw","MI","its a girl","2770 Freeland Rd","48604",43.52383040136821,-83.96820545196533
"48604","Saginaw","MI","St. Mary's of Michigan Guardian Angel Respite Care","7540 Davis Rd","48604",43.515750885009766,-83.95533752441406
"48607","Saginaw","MI","Guardian Angel Howard Street","801 Howard St","48601",43.424468994140625,-83.9366226196289
"48609","Saginaw","MI","Gratiot Road Rehabilitation","5810 Gratiot Rd","48638",43.415916442871094,-84.02963256835938
"48616","Chesaning","MI","Animal Care Clinic","Main Street","48616",43.18328,-84.10697
"48617","Clare","MI","MidMichigan Medical Center - Clare","not_available","48617",43.8211054835061,-84.76923151752075
"48623","Freeland","MI","hurley medical center","not_available","48623",43.50929260253906,-84.10455822944641
"48624","Gladwin","MI","Mid michigan medical center-Gladwin","Quarter st","48624",43.975635388572115,-84.4941816174692
"48624","Gladwin","MI","Gladwin Pines","not_available","48624",43.9771614200075,-84.49404939320486
"48629","Houghton Lake","MI","Traverse Heart & Vascular - Prudenville","2585 W Houghton Lake Dr","48651",44.29822540283203,-84.69066619873047
"48634","Linwood","MI","dmc childrens hospital","19 N 11 Mile Rd, Garfield, MI 48634","48634",43.74030303955078,-84.10739135742188
"48640","Midland","MI","MidMichigan Medical Center-Midland","4000 Wellness Dr","48670",43.63527751692284,-84.26039383282523
"48640","Midland","MI","MidMichigan Fifth Floor - Penthouse Suites","not_available","48640",43.63532875058595,-84.26087211591933
"48640","Midland","MI","Pro-Health Urgent Care","111 E Wackerly St","48642",43.655330657958984,-84.22637939453125
"48640","Midland","MI","Campus Ridge- Dr. Dhars Office","orchard Dr.","48642",43.63751370922491,-84.25983840247105
"48640","Midland","MI","MidMichigan Medical Center - EMS building","4601 Wellness Dr","48640",43.63964080810547,-84.26213073730469
"48640","Midland","MI","RediMed - Midland","4615 Eastman Ave","48640",43.64027,-84.24766
"48640","Midland","MI","MidMichigan Urgent Care - Midland","3009 N Saginaw Rd","48640",43.640561428162826,-84.2635750228959
"48640","Midland","MI","TIMOTHY KEELER","111 E Wackerly St Ste D","48642",43.65526819999999,-84.2263564
"48640","Midland","MI","New Hope Urgent Care of Midland","728 W Wackerly St Ste 101","48640",43.65517367830535,-84.23580408096313
"48640","Midland","MI","Michigan Blood Donation Center","4005 Orchard Dr","48670",43.63551712036133,-84.25779724121094
"48640","Midland","MI","Great Lakes Bay Dental","555 W Wackerly St Ste 3700","48640",43.6543051,-84.2337918
"48640","Midland","MI","Yonick Plastic Surgery","900 West Wackerly Street","48640",43.65538024902344,-84.2373046875
"48650","Pinconning","MI","St. Mary's of Michigan Pinconning Medical Center","204 W 3rd St","48650",43.85570526123047,-83.96271514892578
"48653","Roscommon","MI","Roscommon Community Health Center","234 Lake St","48653",44.49212265970121,-84.59611773512734
"48653","Roscommon","MI","Crawford MMR South Station","not_available","49738",44.554943040432434,-84.71100118239868
"48658","Standish","MI","St. Mary's of Michigan","not_available","48658",43.98199328726661,-83.96918928679197
"48658","Standish","MI","St. Mary's of Michigan Standish Hospital Walk-in/After Hours Care","805 West Cedar St","48658",43.98220443725586,-83.9689712524414
"48658","Standish","MI","Emergency - Ascension Standish Hospital","805 W Cedar St","48658",43.98220443725586,-83.9689712524414
"48661","West Branch","MI","West Branch Regional Medical Center","not_available","48661",44.26383472845661,-84.24432876510956
"48661","West Branch","MI","Heartland Hospice Serving Northern Michigan","564 Progress St","48661",44.26936634,-84.24311565
"48706","Bay City","MI","McLaren- Bay Region","1900 Columbus Ave","48708",43.58758199277961,-83.86840629188322
"48706","Bay City","MI","Mclaren Outpatient Lab","not_available","48708",43.587775,-83.868465
"48706","Bay City","MI","McLaren ER","1900 Columbus","not_available",43.586878811719515,-83.86792489345662
"48706","Bay City","MI","patient care services","not_available","48706",43.58006051,-83.90673038
"48706","Bay City","MI","RediMed - Bay City","4175 N Euclid Ave","48706",43.61865,-83.91425
"48706","Bay City","MI","McLaren Medical Building","4 Columbus Ave","48708",43.588972,-83.892613
"48706","Bay City","MI","Covenant Med Express","Wilder/two milr","48706",43.60386727,-83.88407908
"48706","Bay City","MI","Bay City Dental Center | Bay City, MI","1601 Marquette Avenue","48706",43.6176945,-83.8720551
"48708","Bay City","MI","RediMed - Essexville","1458 W Center Rd","48732",43.59535839999999,-83.835163
"48720","Bay Port","MI","Scheurer EMS","172 N Caseville Rd","48755",43.834259033203125,-83.2785415649414
"48720","Bay Port","MI","Scheurer Hospital","170 N Caseville Rd","48755",43.834503173828125,-83.27835845947266
"48723","Caro","MI","tuscola county medical care facility","1285 Cleaver Rd, Caro, MI 48723","48723",43.503501110836076,-83.38868593599251
"48723","Caro","MI","Caro Community Hospital","401 N Hooper St","48723",43.49297981408235,-83.40793560727448
"48723","Caro","MI","Caro Center","2000 Chambers Rd","48723",43.45155715942383,-83.44331359863281
"48726","Cass City","MI","Hills And Dales General Hospital","4675 Hill St","48726",43.60428237915039,-83.1824722290039
"48726","Cass City","MI","Urgent Care","not_available","48726",43.60409621768086,-83.18072900271737
"48726","Cass City","MI","Hills & Dales After Hours Clinic","4672 Hill St","48726",43.604401,-83.181198
"48730","East Tawas","MI","St Joseph's Hospital","Hemlock","48763",44.27523075647085,-83.51022262536168
"48730","East Tawas","MI","Ascension St. Joseph Hospital","200 E M 55","48763",44.275287,-83.509659
"48730","East Tawas","MI","Bone & Joint Center","110 Beech St","48763",44.27525,-83.50648
"48730","East Tawas","MI","Emergency Care - St. Joseph Health System","200 Hemlock Rd","48764",44.2753275,-83.5094783
"48730","East Tawas","MI","Ascension St. Joseph Hospital Huron Shores Walk -In Clinic","325 Michigan 55","48763",44.27486038208008,-83.5067367553711
"48734","Frankenmuth","MI","Covenant Med Express","not_available","48734",43.34600794488347,-83.73908566668268
"48746","Millington","MI","Hurley","not_available","48768",43.3261513710022,-83.52161228656769
"48750","Oscoda","MI","Urgent Care","not_available","48750",44.453038,-83.330287
"48801","Alma","MI","MidMichigan Medical Center - Gratiot","300 E Warwick Dr","48801",43.391025911945995,-84.66342620587656
"48801","Alma","MI","Sacred Heart Mercy Health Care Center","2025 W Cheesman Rd","48801",43.400341,-84.647354
"48801","Alma","MI","Physical therapy","300 E Warwick Dr, Alma, MI 48801","48801",43.39125061035156,-84.6626205444336
"48801","Alma","MI","Gratiot Urgent Care","321 E Warwick Dr","48801",43.392112,-84.660958
"48809","Belding","MI","Belding Family Eyecare","936 W State St","48809",43.089210510253906,-85.24244689941406
"48811","Carson City","MI","Sparrow Carson Hospital Emergency Room","406 E Elm St","48811",43.17569351196289,-84.84282684326172
"48813","Charlotte","MI","Sparrow Eaton Hospital","321 E Harris St","48813",42.565544,-84.832199
"48813","Charlotte","MI","Eaton Rapids Medical Center","1500 S Main St","48827",42.49558950150036,-84.65885640775747
"48813","Charlotte","MI","ERMC Radiology Department","1500 S Main St, Eaton Rapids, MI 48827","48827",42.49525451660156,-84.65849304199219
"48813","Charlotte","MI","HGB Heart Station","not_available","48813",42.56572981125844,-84.83178664688914
"48813","Charlotte","MI","charlotte medical center urgent care","Meijer Dr.","48813",42.55434606269439,-84.81710295627065
"48817","Corunna","MI","Memorial Urgent Care","239 N State Rd","48867",43.001338958740234,-84.11973571777344
"48820","Dewitt","MI","Sparrow Fast Care","not_available","48820",42.828705,-84.53749
"48823","East Lansing","MI","Lansing Urgent Care - Bath/Haslett","16945 Marsh Rd","48840",42.77064605572741,-84.41251848710249
"48823","East Lansing","MI","Lansing Urgent Care","2289 W Grand River Ave","48864",42.722744,-84.43423336441803
"48823","East Lansing","MI","Lansing Urgent Care","505 N Clippert St","48912",42.73874107508974,-84.50878666956007
"48823","East Lansing","MI","Sparrow Urgent Care East Lansing","2682 E Grand River Ave","48823",42.726282669323936,-84.44957803593316
"48823","East Lansing","MI","Home Instead Senior Care East Lansing MI","1760 E Grand River Ave","48823",42.728005581214475,-84.45794463157654
"48823","East Lansing","MI","Red Cedar Surgery Center","not_available","48840",42.746249,-84.42746
"48823","East Lansing","MI","Central Urgent Care of East Lansing","911 E Grand River Ave Ofc 101","48823",42.73228719999999,-84.4719311
"48823","East Lansing","MI","Sparrow Okemos Urgent Care","2248 Mount Hope Rd","48864",42.712456992248654,-84.43201606022339
"48823","East Lansing","MI","Sparrow Hospital","not_available","48823",42.746188373723115,-84.46471060431767
"48823","East Lansing","MI","MSU Olin Health Center","E Circle Dr","48824",42.733336149912674,-84.47924581845074
"48823","East Lansing","MI","Breakthrough Counseling Christina Mitcham, LMSW PLLC","1749 Hamilton Rd Ste 203 # Ste","48864",42.7168386,-84.4125383
"48829","Edmore","MI","Station 1","not_available","48829",43.40732955932617,-85.03095245361328
"48836","Fowlerville","MI","Uniform outlet","not_available","48855",42.62215434384365,-83.99627754441985
"48836","Fowlerville","MI","Providence Park Hospital","beck road","not_available",42.600765,-83.99320243333334
"48836","Fowlerville","MI","Livingston County Emergency Services","1911 Tooley Rd","48855",42.62754821777344,-83.97466278076172
"48837","Grand Ledge","MI","Ready Care Grand Ledge","644 Migaldi Ln #300","48917",42.740204,-84.678254
"48837","Grand Ledge","MI","Sparrow Urgent Care Grand Ledge","1015 Charlevoix Dr","48837",42.74235,-84.73196
"48837","Grand Ledge","MI","Sparrow ER","not_available","48912",42.750990017292104,-84.70998050781957
"48838","Greenville","MI","Spectrum Health United Hospital","615 S Bower St","48838",43.1748107,-85.2692195
"48838","Greenville","MI","post 1168","Grosvenor","48838",43.16427425028451,-85.27471025985476
"48838","Greenville","MI","station 5","not_available","48838",43.19244390112471,-85.25222299189647
"48842","Holt","MI","Emergency - Ascension Borgess Hospital","1521 Gull Rd","49048",42.63821693648386,-84.55826863646507
"48843","Howell","MI","RediCare Urgent Care","4185 E Grand River Ave","48843",42.58652114868164,-83.87145233154297
"48843","Howell","MI","St. Joseph Mercy Livingston Hospital","620 Byron Rd","48843",42.615241534115064,-83.94076579837609
"48843","Howell","MI","Howell Recreational Hospital Center","not_available","48843",42.61668,-83.954831
"48843","Howell","MI","Ascension Michigan Urgent Care at S. Latson","1225 S Latson Rd","48843",42.58270263671875,-83.87320709228516
"48843","Howell","MI","Positive Steps","5840 Sterling Dr #130","48843",42.5692253112793,-83.83797454833984
"48843","Howell","MI","Advanced Urgent Care & Walk In Clinic","1255 E Grand River Ave","48843",42.601966857910156,-83.9155044555664
"48843","Howell","MI","IHA Urgent Care Howell","202 W Highland Rd","48843",42.623133272673755,-83.93031647301638
"48846","Ionia","MI","Sparrow Ionia Hospital","3565 S State Road","48846",42.935901,-85.067901
"48846","Ionia","MI","Sparrow Ionia Hospital Emergency Room","3565 S State Rd","48846",42.93582,-85.06786
"48846","Ionia","MI","Sparrow Ionia Hospital","550 E Washington St","48846",42.98513360735459,-85.05048675458147
"48847","Ithaca","MI","Mmr  3","not_available","48847",43.292002120907576,-84.60881329057074
"48848","Laingsburg","MI","Dr. Rainbolt's Custom Care","not_available","48848",42.85305,-84.339805
"48850","Lakeview","MI","Spectrum Health Kelsey Hospital","418 Washington St","48850",43.4412899,-85.278864
"48854","Mason","MI","Lansing Urgent Care - Mason","132 S Cedar St Ste 3","48854",42.581658284039094,-84.45376043143193
"48854","Mason","MI","redi care","not_available","48911",42.676856994628906,-84.57294464111328
"48854","Mason","MI","MLK Urgent Care","5500-5510 S Martin Luther King Jr Blvd","48911",42.677395,-84.5729773
"48854","Mason","MI","Mason Urgent Care","Columbia Road","48854",42.581385696608926,-84.42815565533644
"48854","Mason","MI","Southside Urgent Care","5525 S Martin Luther King Jr Blvd","48911",42.67679432340922,-84.57304823464878
"48854","Mason","MI","Sparrow Urgent Care Mason","800 E Columbia St","48854",42.58132,-84.42802
"48858","Mount Pleasant","MI","BioLife Plasma Services","4279 E. Bluegrass Road","48858",43.57591741225487,-84.76171401657489
"48858","Mount Pleasant","MI","Urgent Care Express","E Bellows St","48858",43.59332546569703,-84.74921924092634
"48858","Mount Pleasant","MI","Central Michigan Hospital","not_available","48858",43.5990826645137,-84.76031394228916
"48858","Mount Pleasant","MI","Central Michigan Community Hospital","1221 South Dr","48858",43.59923708921718,-84.76058141495717
"48858","Mount Pleasant","MI","Urgent Care","S. Mission","not_available",43.608741,-84.76714275
"48858","Mount Pleasant","MI","Isabella County Medical Care Facility","Brown","48858",43.600065633668876,-84.76102523608014
"48864","Okemos","MI","Senior Helpers","3681 Okemos Road","48864",42.68798307106019,-84.43316393005944
"48864","Okemos","MI","Sparrow Regional Laboratories","2199 Jolly Rd #120","48864",42.6824836730957,-84.42975616455078
"48867","Owosso","MI","Memorial Healthcare","826 W King St","48867",43.00550012225156,-84.18045638385114
"48867","Owosso","MI","Owosso Hospital","not_available","48867",43.005423702216106,-84.18200128658634
"48867","Owosso","MI","OMG Urgent Care","200 Health Park Dr","48867",43.01858000874068,-84.1748857498169
"48867","Owosso","MI","HDI Shiawassee","1975 W M 21","48867",42.99686050415039,-84.20352172851562
"48872","Perry","MI","Crittinton Hospital","not_available","48872",42.8381609916687,-84.23164129257202
"48872","Perry","MI","Perry Urgent Care","3337 Britton Rd","48872",42.83375514773745,-84.22411903738976
"48872","Perry","MI","Perry Urgent Care","Lansing","48933",42.833788875974165,-84.22573078297626
"48875","Portland","MI","Country Living Senior Care","7884 Emery Road","48875",42.8405976,-84.91573609999999
"48879","Saint Johns","MI","Clinton Memorial Hospital","805 S Oakland St","48879",42.99280640755154,-84.55537088877637
"48879","Saint Johns","MI","Cedar Creek Hospital","101 W Townsend Rd","48879",42.984674,-84.558662
"48879","Saint Johns","MI","Clinton Area Ambulance Service","1001 S Oakland St","48879",42.99210646426493,-84.55546449603551
"48884","Sheridan","MI","Sheridan Community Hospital","301 N Main St","48884",43.216,-85.074202
"48884","Sheridan","MI","station 6","not_available","48884",43.215833378793114,-85.07429619556805
"48906","Lansing","MI","Sparrow Regional Laboratories","6254 W Saginaw Hwy","48917",42.741583159112274,-84.64017853964408
"48906","Lansing","MI","Lansing Urgent Care","not_available","48917",42.741493,-84.61298
"48906","Lansing","MI","Delta Medical Care","6101-6199 Worthmore Ave","48917",42.74150019,-84.63734686374664
"48906","Lansing","MI","St Lawrence Geriatric Psych Unit","Sparrow Health Systems","not_available",42.735694717434136,-84.5689740693242
"48906","Lansing","MI","Crownquest Inc.","314 N Walnut St #2","48933",42.736517,-84.55662099999999
"48906","Lansing","MI","Sparrow Health System - St. Lawrence Campus","1210 W Saginaw St","48915",42.741615422386516,-84.57029521552948
"48906","Lansing","MI","Sparrow St Lawrence Hospital Emergency Room","West Saginaw Street","48915",42.74164084878769,-84.57033321564774
"48906","Lansing","MI","St. Lawrence Hospital","not_available","48915",42.741558772064565,-84.56913266222925
"48906","Lansing","MI","Sparrow Behavioral health","1210 W Saginaw St, Lansing, MI 48915","48915",42.74144744873047,-84.57035064697266
"48906","Lansing","MI","Sparrow Hospital Peds Floor","1215 E Michigan Ave","48912",42.74893728917347,-84.54944336660719
"48906","Lansing","MI","Neurogenx Inc.","314 N Walnut St Ste 2A","48933",42.73650360107422,-84.55651092529297
"48906","Lansing","MI","Sparrow St. Lawrence Hospital","Oakland","48912",42.736273767789775,-84.51783854463689
"48910","Lansing","MI","McLaren Greater Lansing","401 W Greenlawn Ave","48910",42.70359227068119,-84.55503508661268
"48910","Lansing","MI","Ingham Regional Orthopedic Hospital","2727 S Pennsylvania Ave","48910",42.7035682879425,-84.53525737667859
"48910","Lansing","MI","Ingham Breslin Cancer Center","not_available","48910",42.70288676102998,-84.5543816679581
"48910","Lansing","MI","Fountain of Wellness LLC","1617 S Pennsylvania Ave","48910",42.7144381,-84.5378431
"48910","Lansing","MI","Ingham Hospital","3839 Palmer St","48910",42.69255828857422,-84.5579833984375
"48912","Lansing","MI","Sparrow Hospital-Tansport Dept.","1216 W Michigan Ave","48915",42.73393929963458,-84.5346502039961
"48917","Lansing","MI","Delta Organics","610 S Waverly Rd Suite B","48917",42.7277946472168,-84.60321044921875
"48933","Lansing","MI","Michigan Health And Hospital","not_available","48933",42.733695905043504,-84.55307676902655
"49001","Kalamazoo","MI","Bronson Methodist Hospital","601 John St","49007",42.284423539479505,-85.58070446910965
"49001","Kalamazoo","MI","Bronson Outpatient Testing And Lab","601 John St Fl 2","49007",42.28557896305041,-85.57985065996286
"49001","Kalamazoo","MI","Bronson Methodist Hospital Emergency Department and Level I Trauma Center","601 John St. 1st Floor","49007",42.285514831543,-85.5804214477539
"49001","Kalamazoo","MI","Dr. Fabi","not_available","49007",42.2903907,-85.5793143
"49001","Kalamazoo","MI","West Pavilion Concierge Services","not_available","49001",42.288828008820204,-85.58002021662362
"49001","Kalamazoo","MI","Reverence Home Health & Hospice : Borgess","348 N Burdick St","49007",42.2943229675293,-85.5828857421875
"49001","Kalamazoo","MI","Bronson Inpatient Testing","not_available","49048",42.29315533228879,-85.56914741005961
"49001","Kalamazoo","MI","Pride Care International Headquarters","5088 Meredith St","49002",42.2437858581543,-85.53656768798828
"49002","Portage","MI","ERMC Radiology","not_available","49024",42.20064926147461,-85.5928955078125
"49002","Portage","MI","New London Family Medical Center","not_available","54961",42.20531,-85.607023
"49002","Portage","MI","Advanas Foot & Ankle Specialists","1508 W Centre Ave","49024",42.2011449,-85.6068262
"49002","Portage","MI","Hometown Urgent Care","245 W Centre Ave","49024",42.200699,-85.591297
"49002","Portage","MI","Hometown Urgent Care","5142 S Westnedge Ave","49002",42.24259948730469,-85.58989715576172
"49004","Kalamazoo","MI","North Pro","1717 Shaffer St","49048",42.307510871640275,-85.55857395161294
"49004","Kalamazoo","MI","Hometown urgent care","not_available","49004",42.3230094909668,-85.5534439086914
"49004","Kalamazoo","MI","Borgess Urgent Care Waiting Room","Borgess","49048",42.307740243642066,-85.56075514943004
"49006","Kalamazoo","MI","Kalamazoo Regional Psychiatric Hospital (KRPH)","1312 Oakland Dr","49008",42.278743743896484,-85.60330963134766
"49006","Kalamazoo","MI","Ascension Michigan Physical Therapy at South 11th Street","2490 S 11th St","49009",42.265689849853516,-85.65898895263672
"49008","Kalamazoo","MI","Borgess Spine P.T.","3025 Gull Rd, Kalamazoo Township, MI 49048","49048",42.257781456285024,-85.5898008409855
"49009","Kalamazoo","MI","Bronson Outpatient Rehabilitation","6789 Elm Valley Drive","not_available",42.23509979248047,-85.68254852294922
"49009","Kalamazoo","MI","Hilda's Rehab Clinic","6238 Hampton St","49024",42.22600662357126,-85.61058481216743
"49010","Allegan","MI","Allegan General Surgery","551 Linn St","49010",42.51970546891396,-85.85611271163941
"49010","Allegan","MI","Borgess Heart Center for Excellence- Allegan","551 Jenner Dr","49010",42.5214556,-85.85798919999999
"49010","Allegan","MI","Allegan General Hospital","555 Linn St","49010",42.519624236651325,-85.85638812175202
"49012","Augusta","MI","VA PTSD clinic","5500 Armstrong Rd","49037",42.34326934814453,-85.29147338867188
"49012","Augusta","MI","Fort custer medical","not_available","49012",42.33390314618308,-85.28963267331227
"49014","Battle Creek","MI","Infusion Department","300 North Ave","49017",42.33099987749709,-85.17909353246928
"49014","Battle Creek","MI","Bronson Health Sleep Center","5161 B Dr. S","49015",42.232505798339844,-85.19558715820312
"49014","Battle Creek","MI","Bronson Battle Creek Hospital","300 North Ave.","49017",42.331111907959,-85.1781768798828
"49014","Battle Creek","MI","Pre-Admission Screening","not_available","49017",42.331009259299805,-85.1790783492661
"49014","Battle Creek","MI","Bronson Urgent Care","680 Columbia Ave W","49015",42.29895782470703,-85.21228790283203
"49014","Battle Creek","MI","Beckley Road Urgent Care","5352 Beckley Rd","49015",42.260694659599636,-85.19171748951503
"49014","Battle Creek","MI","MASH Unit - 6142","not_available","49015",42.30492954734295,-85.20682121639379
"49014","Battle Creek","MI","Bronson Orthopedics","in Bronson Battle Creek","49017",42.33041955429715,-85.1803587847399
"49014","Battle Creek","MI","Open MRI & CT","5253 Beckley Rd","49015",42.26063,-85.19138378333334
"49014","Battle Creek","MI","Southwest Regional Rehabilitation Center","393 Roosevelt Ave E","49017",42.33970511335609,-85.17537165243064
"49014","Battle Creek","MI","Bronson Battle Creek MRI Dept.","363 Fremont St","49017",42.33098964569578,-85.17908341033431
"49014","Battle Creek","MI","Good Samaritan Hospice House","not_available","49014",42.25218784495707,-85.18979159216113
"49022","Benton Harbor","MI","Lakeland Medical Center, St. Joseph","1234 Napier Ave","49085",42.08909612146826,-86.47895715308778
"49022","Benton Harbor","MI","Lakeland Pavilllion","not_available","49085",42.088,-86.479164
"49022","Benton Harbor","MI","U-Med Center","67892 M 152","49047",42.08689880371094,-86.20423126220703
"49022","Benton Harbor","MI","Lakeland Hospital, Watervliet","400 Medical Park Dr","49098",42.18509916526887,-86.25006110771409
"49022","Benton Harbor","MI","Nickerson Animal Health Center","921 Nickerson Ave","49022",42.07469521,-86.43596974
"49022","Benton Harbor","MI","Urgent Care Clinic","1850 Pipestone Rd","49022",42.08471407,-86.42009828
"49022","Benton Harbor","MI","MedExpress Urgent Care","1803 M 139","49022",42.085627,-86.436087
"49030","Burr Oak","MI","Sturgis Hospital","916 Myrtle St","49091",41.79462208191661,-85.40744172993202
"49030","Burr Oak","MI","Advanas Foot & Ankle Specialists Of Sturgis","102 S Lakeview St","49091",41.8,-85.40851
"49031","Cassopolis","MI","Cass County Medical Fac.","not_available","49112",41.88725184662112,-86.02623432239547
"49031","Cassopolis","MI","Borgess-Lee Memorial Hospital","420 W High St","49047",41.98361908273262,-86.11509661018727
"49031","Cassopolis","MI","Borgess-Lee Bone & Joint","420 West High St","49047",41.9832518,-86.1150593
"49031","Cassopolis","MI","East Shore Animal Hospital","26285 E Shore Dr","49112",41.79817329999999,-86.07442480000002
"49031","Cassopolis","MI","saint joseph regional medical center nuclear med","not_available","49120",41.80649948120117,-86.138427734375
"49034","Climax","MI","West Campus","1800 35 Street","49053",42.27238006871264,-85.42969627676734
"49036","Coldwater","MI","Ascension Medical Group Borgess Occupational Health","not_available","49036",41.938885,-84.97046
"49036","Coldwater","MI","Advanas Foot & Ankle Specialists Of Coldwater","300 E Chicago St","49036",41.938621520996094,-84.98921966552734
"49036","Coldwater","MI","ProMedica Coldwater Regional Hospital","274 E Chicago St","49036",41.937721981516205,-84.98924732208252
"49038","Coloma","MI","Forest Beach AFC Home Inc","8021 Forest Beach Rd","49098",42.20080126620032,-86.2638384103775
"49046","Delton","MI","Borgess Medical Commons Lab and Diagnostics","11320 S M 43 Hwy Ste 2","49046",42.48772048950195,-85.40960693359375
"49057","Hartford","MI","Vanburen County Health Dept.","57356-57980 County Road 681","49057",42.209315,-86.10891979
"49058","Hastings","MI","Spectrum Health Pennock Hospital","1009 W Green St","49058",42.6446848,-85.3027511
"49058","Hastings","MI","Hospice with heart","357 Indian Hills Drive","49058",42.66838836669922,-85.2947998046875
"49058","Hastings","MI","Hastings walk in clinic","not_available","49058",42.64778801091925,-85.30131922675555
"49058","Hastings","MI","Spectrum Health Pennock Urgent Care","1108 W State St","49058",42.64786072119652,-85.30136072709465
"49065","Lawton","MI","BNRC Community Room","99 Walker St","49065",42.166770935058594,-85.85501098632812
"49065","Lawton","MI","Advanas Foot & Ankle Specialists Of Paw Paw","451 Health Pkwy","49079",42.20305,-85.89988
"49065","Lawton","MI","Bronson Nursing and Rehab","not_available","49009",42.16640291668464,-85.85522363536133
"49068","Marshall","MI","Oaklawn Hospital","200 N Madison St","49068",42.27372500000001,-84.95694668220904
"49068","Marshall","MI","Oaklawn Home Medical Equipment","200 N Madison St, Oaklawn Hospital","49068",42.27364353880181,-84.95702418473547
"49068","Marshall","MI","Borgess Neurology","215 E Mansion St","49068",42.26866,-84.96743
"49068","Marshall","MI","Radiology","Oaklawn Hospital","49068",42.273895238685256,-84.95702996850014
"49078","Otsego","MI","Borgess Pipp Hospital","411 Naomi St","49080",42.44686908594684,-85.65381464748582
"49078","Otsego","MI","Pipp Annex - Physical Therapy","not_available","49080",42.446546,-85.653646
"49079","Paw Paw","MI","Bronson Lakeview ER","408 Hazen St","49079",42.2212631013979,-85.89674690635717
"49079","Paw Paw","MI","Bronson Lakeview Pharmacy","not_available","49079",42.22137,-85.896408
"49079","Paw Paw","MI","Bronson LakeView Hospital Emergency Department and Level IV Trauma Center","408 Hazen St.","49097",42.2212677001953,-85.8969802856445
"49079","Paw Paw","MI","Van Buren Emergency Medical Services (VBEMS)","39338 W. Red Arrow Highway","49079",42.2128448486328,-85.9282073974609
"49083","Richland","MI","Relaxation & Purification Center","8881 Gull Rd","49083",42.3753349,-85.45761619999999
"49085","Saint Joseph","MI","Center for Outpatient Services","3900 Hollywood Rd","49085",42.047858819699584,-86.45856412297668
"49090","South Haven","MI","South Haven Health System - South Haven Community Hospital","955 S Bailey Ave","49090",42.39134412365973,-86.26277517004928
"49090","South Haven","MI","Bronson South Haven Hospital","955 S. Bailey Ave.","49090",42.3912200927734,-86.2630157470703
"49093","Three Rivers","MI","Three Rivers Health Services","701 S Health Parkway","49093",41.93510593458272,-85.6479515552195
"49093","Three Rivers","MI","hypochondriac","not_available","49093",41.946266174316406,-85.63932800292969
"49093","Three Rivers","MI","Heartland Health Care Center-Three Rivers","517 S Erie St","49093",41.936415999999994,-85.645528
"49097","Vicksburg","MI","Bronson Vicksburg Hospital","13326 The Boulevard North","49097",42.1262384958927,-85.54072016153074
"49103","Berrien Springs","MI","Kavieng General Hospital","4429 International Ct Apt 9","49103",41.96160888671875,-86.35150146484375
"49120","Niles","MI","Lakeland Hospital, Niles","31 N Saint Joseph Ave","49120",41.82794968820593,-86.2608622813699
"49120","Niles","MI","Westwood of Niles","1211 State Line Rd","49120",41.7616249673516,-86.24744595013176
"49201","Jackson","MI","Henry Ford Allegiance Health","205 N East Ave","49201",42.2504333998109,-84.3927925264818
"49201","Jackson","MI","Henry Ford Allegiance Specialty Hospital","110 N Elm Ave","49202",42.25161252989246,-84.38567177049678
"49201","Jackson","MI","MedExpress Urgent Care","1325 North West Avenue","49202",42.265009159757916,-84.42302211189599
"49201","Jackson","MI","Allegiance Health 4SW","not_available","49201",42.250478073366295,-84.39274121290927
"49201","Jackson","MI","Blake Woods Surgery Center","2775 Blake Rd","49201",42.27467727661133,-84.37275695800781
"49201","Jackson","MI","7 North-West","Michigan Ave","49201",42.25058831077521,-84.3930644876693
"49201","Jackson","MI","Allegiance Pre-Op","not_available","49203",42.25059837691137,-84.39275660698573
"49201","Jackson","MI","Henry Ford Allegiance Wound Care Center","2200 Springport Rd","49202",42.277117688847525,-84.4400703907013
"49201","Jackson","MI","Allegiance Health Diagnostic Lab","East Ave","49201",42.24997413134587,-84.39383418233163
"49201","Jackson","MI","Henry Ford Allegiance Walk-In Clinic - Townsend","400 Hinckley Blvd Ste 100","49203",42.198759569706326,-84.4039508709102
"49201","Jackson","MI","Usman S Khokhar, MD","309 Page Ave","49201",42.24783778651847,-84.38943743727577
"49201","Jackson","MI","Faith Haven Rehab Center","Michigan Ave","not_available",42.25261303819412,-84.51408503606626
"49201","Jackson","MI","Duane Waters Health Center","3857 Cooper St","49201",42.298282623291016,-84.38801574707031
"49202","Jackson","MI","East Jackson Memorial","345 N Dettman Rd","49202",42.259769439697266,-84.36192321777344
"49203","Jackson","MI","Allegiance Family Health- Dr. Ferguson","3333 Spring Arbor Rd Ste 100","49203",42.225135803222656,-84.45437622070312
"49221","Adrian","MI","ProMedica Physicians Jobst Vascular - Adrian","818 Riverside Ave","49221",41.91419001463113,-84.04929399490356
"49221","Adrian","MI","Bixby Lab","not_available","49221",41.91386423777601,-84.04881879553935
"49221","Adrian","MI","Adrian Urgent Care","715 N Main St","49221",41.905279,-84.032725
"49221","Adrian","MI","ProMedica Home Medical Equipment - Adrian","223 E. US 223	Suite B","49221",41.87489752472818,-84.0422773361206
"49229","Britton","MI","ProMedica Physicians Jobst Vascular - Tecumseh","500 E Pottawatamie St","49286",42.00286052397134,-83.93855094909668
"49230","Brooklyn","MI","Henry Ford Allegiance Family Medicine - Brooklyn","153 Wamplers Lake Rd","49230",42.09792107754813,-84.24608734503636
"49230","Brooklyn","MI","IHA Urgent Care Brooklyn","212 S Main St Ste A","49230",42.101363859452235,-84.24844412577764
"49242","Hillsdale","MI","Hillsdale Community Health Center","168 S Howell St","49242",41.91134615439573,-84.63274965522544
"49242","Hillsdale","MI","The Pediatric Place Of Hillsdale","39 North St","49242",41.9227342,-84.6329106
"49247","Hudson","MI","ProMedica Physicians Family Medicine - Hudson","331 W Main St","49247",41.86228407088987,-84.35999649187579
"49251","Leslie","MI","Henry Ford Allegiance Family Medicine - Leslie","130 N Sherman St","49251",42.45265153759181,-84.4398162107359
"49301","Ada","MI","Cascade Immediate Care Center","6460 28th St SE","49546",42.91275865198728,-85.5088562094947
"49304","Baldwin","MI","Chuck Yadmark, MD","19335 Merriman Rd","48152",43.8503744993026,-85.84066629409789
"49306","Belmont","MI","Autism Asperger Associates of Michigan LLC","7027 10 Mile Rd NE","49341",43.116992794891026,-85.49721479415894
"49307","Big Rapids","MI","Spectrum Health-Big Rapids Hospital","605 Oak St","49307",43.693905,-85.47493399999999
"49307","Big Rapids","MI","Big Rapids Hospital","not_available","49307",43.69332147644692,-85.47444820404053
"49315","Byron Center","MI","Pine Rest: Van Andel Center","300 68th St SE","49548",42.83439393206792,-85.65733934841569
"49315","Byron Center","MI","Spectrum Health Urgent Care","not_available","49548",42.838758450894886,-85.66304317414732
"49315","Byron Center","MI","Mercy Health Southwest ER","2373 64th St SW","49315",42.8503445293284,-85.72089307114462
"49315","Byron Center","MI","Spectrum Health West Pavilion","4375 Canal Ave.","49418",42.8545862520661,-85.7633828243676
"49315","Byron Center","MI","Spectrum Health - Urgent Care","6105 Wilson Ave SW #104","49418",42.85437246035428,-85.7636547012557
"49316","Caledonia","MI","Horizons Developmental Resource Center","3120 68th St SE","49316",42.84055,-85.586883
"49321","Comstock Park","MI","Urgent Care","Alpine Ave","49321",43.07319571573429,-85.68813534079011
"49323","Dorr","MI","Med Center","not_available","49323",42.72514111444143,-85.78935561734434
"49329","Howard City","MI","station 11","not_available","49329",43.42523193359375,-85.47557830810547
"49337","Newaygo","MI","AIRS","1 State Rd","49337",43.419775,-85.79989499999999
"49341","Rockford","MI","Rockford Family Eyecare","2745 10 Mile Rd NE","49341",43.117521999999994,-85.60253900000001
"49404","Coopersville","MI","North Ottawa Community Hospital","not_available","49404",43.05419147014618,-85.93104064464569
"49411","Free Soil","MI","Cancer Center","E Beyer Rd","49411",44.064103196401874,-86.27924761734903
"49412","Fremont","MI","Spectrum Health Gerber Memorial","212 S Sullivan Ave","49412",43.4640199,-85.9504402
"49412","Fremont","MI","Aeromed Helipad","600 Lake Dr","49412",43.460798,-85.957182
"49417","Grand Haven","MI","North Ottawa Community Hospital","1309 Sheldon Rd","49417",43.050146756047646,-86.22885377893178
"49417","Grand Haven","MI","Urgent care center","1091 S Beacon Blvd","49417",43.0506962658582,-86.22110779925785
"49417","Grand Haven","MI","Noch","Taylor","not_available",43.044630180737826,-86.21396616282325
"49418","Grandville","MI","Musculoskeletal center","not_available","49428",42.909867320295554,-85.80135413631328
"49418","Grandville","MI","BioLife Plasma Services","6331 Kenowa Ave SW","49418",42.884017035968846,-85.78312054101912
"49418","Grandville","MI","west michigan heart center","not_available","49315",42.89097350792766,-85.7819289755529
"49418","Grandville","MI","MedExpress Urgent Care","345 Baldwin St","49428",42.907467,-85.790263
"49423","Holland","MI","Holland Hospital","602 Michigan Ave","49423",42.775225498203625,-86.11399262142471
"49423","Holland","MI","Holland Hospital Radiology","not_available","49423",42.77527,-86.114633
"49424","Holland","MI","Med 1","383 Garden Ave","49424",42.80911636352539,-86.07731628417969
"49424","Holland","MI","prime care","not_available","49424",42.82726128085239,-86.08597718502624
"49424","Holland","MI","Holland Hospital Urgent Care","3235 N Wellness Dr","49424",42.82735306935178,-86.08752820925827
"49431","Ludington","MI","Spectrum of Ludington","1 Atkinson Dr","49431",43.9593366,-86.4292255
"49431","Ludington","MI","Emergency room","not_available","49431",43.94116527962748,-86.41641482356789
"49441","Muskegon","MI","Mercy Health Partners","1500 E Sherman Blvd","49444",43.20652089768997,-86.20817184448242
"49441","Muskegon","MI","Hackley ER","1700 Clinton St","49442",43.22338303454516,-86.24227725937176
"49441","Muskegon","MI","Port City Pediatrics PLC","1455 Farr Rd","49444",43.1392919,-86.208824
"49441","Muskegon","MI","MedExpress Urgent Care","2558 Henry St","49441",43.2060449,-86.2626757
"49441","Muskegon","MI","Hackley at the Lakes Urgent Care","not_available","49444",43.13562127719644,-86.20899159838791
"49441","Muskegon","MI","Mary Free Bed","2513 Roberts St","49444",43.20660400390625,-86.21575164794922
"49441","Muskegon","MI","Great Lakes Specialty Hospital","not_available","49441",43.22206901443206,-86.24262853363359
"49442","Muskegon","MI","Mercy Health General Campus","1700 Oak Ave","49442",43.23872347029338,-86.20322511609136
"49445","Muskegon","MI","Northside Veterinary Hospital","1416 West Giles Road","49445",43.2784908,-86.2785047
"49464","Zeeland","MI","Zeeland Hospital ER","8333 Felch St","49464",42.821301,-85.987554
"49503","Grand Rapids","MI","Blodgett Hospital","1840 Wealthy St SE","49506",42.95351229374025,-85.62347774520748
"49503","Grand Rapids","MI","Mercy Health Saint Mary's Campus","200 Jefferson Ave SE","49503",42.957754954073216,-85.6621723786968
"49503","Grand Rapids","MI","Spectrum Health Butterworth Hospital","100 Michigan St NE","49503",42.9701261,-85.6650471
"49503","Grand Rapids","MI","Mary Free Bed Rehabilitation Hospital","235 Wealthy St SE","49503",42.956726206193416,-85.66175666257375
"49503","Grand Rapids","MI","Lemmen-Holton Cancer Pavilion","145 Michigan St NE","49503",42.97076544056819,-85.66481623287002
"49503","Grand Rapids","MI","Spectrum Health Emergency Department","Barkley ave","49525",42.97044842449993,-85.66546099900451
"49503","Grand Rapids","MI","Richard J Lacks Sr Cancer Center","250 Cherry St SE","49503",42.959241363628415,-85.6623101234436
"49503","Grand Rapids","MI","St. Mary's 7s","not_available","49503",42.96055818458542,-85.65930368300356
"49503","Grand Rapids","MI","Spectrum Health Healthier Communities Programa Puente","75 Sheldon Blvd SE","49503",42.96094836194288,-85.66696218887427
"49503","Grand Rapids","MI","Michigan Medical Building","221 Michigan St NE","49503",42.97052764892578,-85.66365814208984
"49503","Grand Rapids","MI","Special Care Hospital - 6th Floor","750 Fuller Ave NE","49503",42.976280984780544,-85.63800558805023
"49503","Grand Rapids","MI","Cognitive and Therapeutic Comprehensive Home Health Care in Michigan","800 Monroe Ave NW Ste 102","49503",42.97698974609375,-85.67190551757812
"49504","Grand Rapids","MI","Spectrum Health Urgent Care","Alpine Ave NW","49321",43.007595682434655,-85.68807016248437
"49504","Grand Rapids","MI","Spectrum Health Alpine Center","2332 Alpine Ave NW","49544",43.005659966842536,-85.68812631237236
"49505","Grand Rapids","MI","MedExpress Urgent Care","3100 Plainfield Ave NE","49505",43.017976945482886,-85.63908755779272
"49505","Grand Rapids","MI","Mercy Health Urgent Care at East Beltline","1471 E Beltline Ave NE","49525",42.98923779238983,-85.59199068277638
"49505","Grand Rapids","MI","VA Medical Center","not_available","49505",42.98711013793945,-85.66314697265625
"49505","Grand Rapids","MI","Spectrum Health","Bradford","49525",42.976158142089844,-85.59795379638672
"49506","Grand Rapids","MI","Gold Coast Doulas, LLC","1430 Robinson Road Southeast","49506",42.95665169999999,-85.6341776
"49506","Grand Rapids","MI","Blodgett 1D- ACE","not_available","49506",42.961883,-85.621951
"49508","Grand Rapids","MI","afc Urgent Care","1300-1360 28th Street Southeast","49508",42.9126,-85.62962
"49508","Grand Rapids","MI","Continuing Care Center","4140 Kalamazoo Ave SE","49508",42.888627,-85.623746
"49508","Grand Rapids","MI","AFC Urgent Care Grand Rapids","1740 28th St SE","49508",42.912207077810336,-85.62367108380411
"49508","Grand Rapids","MI","SHNRS- HOMEWARDS NORTH","4122 Kalamazoo Ave SE","49508",42.888336181640625,-85.62557220458984
"49508","Grand Rapids","MI","Becky Rushing skin care","3388 Shingleton Road","49508",42.869233524598734,-85.63206151127815
"49508","Grand Rapids","MI","Concentra","436 44th St SE Ste A","49548",42.88349974856059,-85.6539899110794
"49509","Wyoming","MI","MedExpress Urgent Care","740 28th St SW","49509",42.912673,-85.684066
"49512","Grand Rapids","MI","BioLife Plasma Services","2670 East Paris Ave SE","49546",42.91495206770102,-85.56764291590922
"49512","Grand Rapids","MI","Answer Health On Demand","4100 Embassy Dr SE Ste 150","49546",42.91643,-85.56684469999999
"49512","Grand Rapids","MI","Spectrum Health Urgent Care","3350 Broadmoor Ave SE","49512",42.902563693872196,-85.57939447137912
"49519","Wyoming","MI","Metro Health Hospital","5900 Byron Center Ave SW","49519",42.85781212971065,-85.7181106254404
"49519","Wyoming","MI","Metro Hospital Emergency Room","5900 Byron Center Ave SW","49509",42.85698136025807,-85.71771383285522
"49525","Grand Rapids","MI","Heartland Health Care Center-Greenview","1700 Leonard St NE","49505",42.98285527,-85.62697483
"49534","Grand Rapids","MI","Walker Surgical Center","3300 Walker Vw NW","49544",43.024434,-85.72465199999999
"49544","Grand Rapids","MI","BioLife Plasma Services","540 Center Dr NW","49544",43.01790876745671,-85.68161657673133
"49544","Grand Rapids","MI","Concentra","933 3 Mile Rd NW","49544",43.014991760253906,-85.6922378540039
"49546","Grand Rapids","MI","Spectrum health sleep center","4100 Lake Dr SE","49546",42.940059661865234,-85.56731414794922
"49546","Grand Rapids","MI","Breakroom","not_available","49546",42.92146184082968,-85.58173836018764
"49546","Grand Rapids","MI","Grand Rapids Men's Health Group","1000 East Paris Ave SE #246","49546",42.944453,-85.569412
"49601","Cadillac","MI","Munson Healthcare Cadillac Hospital","400 Hobart St","49601",44.24564528841669,-85.38984354638566
"49601","Cadillac","MI","Borgess at Woodbridge Hills - Mammography","7901 Angling Rd","49024",44.17949562890414,-85.41577219963074
"49601","Cadillac","MI","Ferah Dalaly, MD","17900 23 Mile Rd Ste 303","48044",44.2492108208115,-85.51771759986877
"49601","Cadillac","MI","Cadillac OB/GYN","7985 S Mackinaw Trl","49601",44.223243713378906,-85.40216064453125
"49601","Cadillac","MI","Kaiser Permanente Neurology","Cadillac Location","not_available",44.251953125,-85.40116119384766
"49601","Cadillac","MI","Munson Healthcare Urgent Care - Cadillac","302 Hobart St","49601",44.24615203596388,-85.39117097854614
"49601","Cadillac","MI","St. John Macomb - Macomb Recreation Center","20699 Macomb Dr","48042",44.24644408761678,-85.51810383796692
"49601","Cadillac","MI","Pat Freeman, DO","37650 Professional Center Dr Ste 1010A","48154",44.33714041183448,-85.4799199104309
"49601","Cadillac","MI","Karen Wessendorf, NP","1241 W Broadway St","49093",44.322220858679046,-85.54480791091919
"49601","Cadillac","MI","Traverse Heart & Vascular - Cadillac","704 Oak St Ste 200","49601",44.24647903442383,-85.39151763916016
"49601","Cadillac","MI","Salwan Anton, DO","37799 Professional Center Dr Ste 105","48154",44.251378004248714,-85.51488518714905
"49601","Cadillac","MI","Providence Farmington Hills","27970 Orchard Lake Rd","48334",44.208542119653494,-85.47714114189147
"49601","Cadillac","MI","Genesys Wound and Hyperbaric Center","600 Health Park Blvd","48439",44.231386166917375,-85.52963197231293
"49601","Cadillac","MI","Munson Healthcare Home Medical Equipment - Cadillac","610 S Mitchell St","49601",44.24589157104492,-85.39652252197266
"49601","Cadillac","MI","Cadillac Rehabilitation Services","704 Oak St Ste 100","49601",44.246459458716224,-85.39170920870674
"49614","Bear Lake","MI","Bear Lake Outpatient Services","8225 Lake St","49614",44.42678873508762,-86.13503515742194
"49616","Benzonia","MI","Munson Outpatient Services - Benzonia","6227 Frankfort Hwy","49616",44.62899398803711,-86.11273193359375
"49621","Cedar","MI","Suite 329 Birch","not_available","49621",44.874766,-85.730961
"49629","Elk Rapids","MI","Munson Outpatient Services - Elk Rapids","115 Bridge St","49629",44.89742795902719,-85.41118204615486
"49630","Empire","MI","Empire Family Care","9975 W Ottawa Ave","49630",44.814265687308534,-86.05726718924416
"49631","Evart","MI","SpringHill Camps NewFro Infirmary","not_available","49631",43.92717361450195,-85.28144836425781
"49631","Evart","MI","Via Christi Mercy Convenient Care","2711 S Rouse St","66762",43.973094027178966,-85.26648312807082
"49635","Frankfort","MI","Paul Oliver Memorial Hospital","224 Park Ave","49635",44.63682629403349,-86.24281525611877
"49635","Frankfort","MI","Betsie Hosick Health & Fitness Center","102 Airport Rd","49635",44.63178253173828,-86.20819854736328
"49637","Grawn","MI","Munson Outpatient Services - Chums Corner","4025 Chums Village Dr","49685",44.67782235005919,-85.65741956255806
"49643","Interlochen","MI","Munson Outpatient Services - Interlochen","1975 Stirling Dr","49643",44.658014155365315,-85.82175850890053
"49646","Kalkaska","MI","Kalkaska Memorial Health Center","419 S Coral St","49646",44.73103193503962,-85.18413412527917
"49649","Kingsley","MI","Mary Free Bed at Munson Medical Center - Kingsley","2291 E M 113","49649",44.58530044555664,-85.52963256835938
"49657","Mc Bain","MI","McBain Primary Care","100 N Roland St","49657",44.19205522368641,-85.21029353141785
"49660","Manistee","MI","Manistee Hospital - Outpatient Services","1465 E Parkdale Ave","49660",44.27162680646884,-86.2726056577958
"49660","Manistee","MI","Manistee Occupational Medicine","1391 E Parkdale Ave","49660",44.27101135253906,-86.2757797241211
"49660","Manistee","MI","Manistee General Surgery","1345 E Parkdale Ave Fl 2","49660",44.271270751953125,-86.27677917480469
"49660","Manistee","MI","Manistee County Medical Care Facility","1505 E Parkdale Ave","49660",44.27156066894531,-86.27262115478516
"49660","Manistee","MI","Manistee OB/GYN","1293 E Parkdale Ave","49660",44.27113001831789,-86.2775409223832
"49660","Manistee","MI","Manistee Dermatology","315 Oakgrove St","49660",44.26676373487537,-86.30449175856484
"49660","Manistee","MI","Manistee Community Health Center","1345 E Parkdale Ave","49660",44.271300309523255,-86.27659142039192
"49660","Manistee","MI","Manistee Wellness Center","2198 US Highway 31 S","49660",44.21804168621288,-86.30909442988923
"49660","Manistee","MI","Wellston Outpatient Services","14477 Caberfae Hwy. (M-55)","49689",44.228309631347656,-86.01199340820312
"49660","Manistee","MI","Manistee Wound & Hyperbaric Center","1293 E Parkdale Ave Fl 2","49660",44.27127456665039,-86.27738952636719
"49660","Manistee","MI","Manistee Primary Care","1400 E Parkdale Ave","49660",44.27235412597656,-86.27566528320312
"49663","Manton","MI","Brateman Medical Center","40015 Grand River Ave","48375",44.45390191501626,-85.43731033802032
"49663","Manton","MI","Munson Outpatient Services - Manton","115 E 7th St","49663",44.4039421081543,-85.39643859863281
"49664","Maple City","MI","Maple Valley Nursing","1086 W Burdickville Rd","49664",44.854366302490234,-85.87843322753906
"49677","Reed City","MI","Spectrum Health Reed City Hospital","300 N Patterson Rd","49677",43.87824481091254,-85.52119374275208
"49682","Suttons Bay","MI","Munson Outpatient Services - Suttons Bay","93 W Fourth St Ste B","49682",44.96891403198242,-85.65031433105469
"49682","Suttons Bay","MI","Bay Shore Pharmacy","93 W Fourth St Ste A","49682",44.96891403198242,-85.65031433105469
"49684","Traverse City","MI","Munson Medical Center","1105 Sixth St","49684",44.76107324746726,-85.64240063367218
"49684","Traverse City","MI","Copper Ridge Surgery Center","4100 Park Forest Dr","49684",44.74608808600672,-85.65366983501008
"49684","Traverse City","MI","Thomas Judd Care Center","5041 N Royal Dr Ste 1","49684",44.76050567626953,-85.65243530273438
"49684","Traverse City","MI","Michelin Gynecologic Oncology & Gynecologic Surgery","217 S Madison St","49684",44.762542724609375,-85.64205169677734
"49684","Traverse City","MI","Mary Free Bed at Munson Medical Center - Long Lake","5191 Rosewood Dr","49685",44.74538196402846,-85.67921161826234
"49684","Traverse City","MI","William & Leni Carls Hearing Clinic","1221 Sixth St Ste 103","49684",44.76125717163086,-85.64405059814453
"49684","Traverse City","MI","Sixth Street Drugs","1020 Sixth St","49684",44.76191261379728,-85.64083278200997
"49684","Traverse City","MI","Smith Family Breast Health Center","4100 Park Forest Dr Ste 203","49684",44.74604797363281,-85.65360260009766
"49684","Traverse City","MI","Munson Family Practice Center","1400 Medical Campus Dr","49684",44.75893394152573,-85.64918518153718
"49684","Traverse City","MI","Bay Area Urology","3922 Cedar Run Rd","49684",44.76035092485716,-85.65314412138832
"49684","Traverse City","MI","Behavioral Health Services","420 Brook St.","49684",44.760189056396484,-85.64592742919922
"49684","Traverse City","MI","Munson Healthcare Home Medical Equipment - Traverse City | Oxygen Cylinder Pick-up/Exchange Only","3816 W Front St","49684",44.761173248291016,-85.65028381347656
"49684","Traverse City","MI","Munson Healthcare Home Medical Equipment - Traverse City","921 W Front St","49684",44.763702392578125,-85.63912963867188
"49684","Traverse City","MI","Endocrinology & Metabolism","1221 Sixth St Ste 208","49684",44.76125717163086,-85.64405059814453
"49684","Traverse City","MI","Infectious Disease Consultants","1221 Sixth St Ste 206","49684",44.761260986328125,-85.64420318603516
"49684","Traverse City","MI","Traverse General Surgery & Trauma Care","1221 Sixth St Ste 300","49684",44.76125717163086,-85.64405059814453
"49684","Traverse City","MI","Munson Manor Hospitality House","1220 Medical Campus Dr","49684",44.75947189331055,-85.64360809326172
"49684","Traverse City","MI","Cardiothoracic Surgeons of Grand Traverse","1221 Sixth St","49684",44.761451721191406,-85.6439437866211
"49684","Traverse City","MI","The Caregiver's Nurse","2450 W Long Lake Rd","49685",44.72378921508789,-85.77642059326172
"49684","Traverse City","MI","Advanced Wound Center","5085 Anna Dr Ste C","49684",44.760501861572266,-85.65918731689453
"49686","Traverse City","MI","Munson Community Health Center","not_available","49686",44.75675026778744,-85.5774412862764
"49686","Traverse City","MI","Healthy Weight Center","550 Munson Ave","49686",44.756263732910156,-85.5775375366211
"49686","Traverse City","MI","Munson Sleep Disorders Center","550 Munson Ave Ste 201","49686",44.756263732910156,-85.5775375366211
"49686","Traverse City","MI","Bayside Docs Urgent Care","401 Munson Ave","49686",44.761558,-85.583331
"49686","Traverse City","MI","Mary Free Bed Rehabilitation Physicians","550 Munson Ave. (Inside Munson Community Health Center)","49686",44.756263732910156,-85.5775375366211
"49706","Alanson","MI","NORTHERN CAIRN LLC","9910 Wildwood","49706",45.36309177743236,-84.68635082244873
"49707","Alpena","MI","Alpena Regional Medical Center","1501 W Chisholm St","49707",45.0774753923619,-83.44940158118077
"49707","Alpena","MI","Emergency room at alpena hospital","not_available","49707",45.05762561728463,-83.45198778732248
"49709","Atlanta","MI","OMH Medical Group - Lewiston","3040 Bourn St","49756",44.8848080378237,-84.29907381556404
"49712","Boyne City","MI","Charlevoix Behavioral Health - Boyne City","223 N Park St","49712",45.21698760986328,-85.0134048461914
"49712","Boyne City","MI","Boyne Rehab Center","197 State St","49712",45.21642730708768,-85.01345783482975
"49720","Charlevoix","MI","Charlevoix Hospital","14700 Lake Shore Dr","49720",45.3150191101252,-85.27454120604796
"49720","Charlevoix","MI","Charlevoix Behavioral Health","14695 Park Ave Ste B","49720",45.31386184692383,-85.27500915527344
"49720","Charlevoix","MI","Charlevoix Wellness Workshop","411 Bridge St","49720",45.31566619873047,-85.25911712646484
"49720","Charlevoix","MI","Charlevoix Primary Care / Family Medicine","14705 W Upright St","49720",45.31327819824219,-85.27490234375
"49720","Charlevoix","MI","Charlevoix Primary Care","14734 Park Ave","49720",45.3135871887207,-85.27438354492188
"49720","Charlevoix","MI","Charlevoix Surgeons","14695 Park Ave Ste A","49720",45.31386184692383,-85.27500915527344
"49720","Charlevoix","MI","Northern Michigan Urology","14695 Park Ave","49720",45.31386184692383,-85.27500915527344
"49720","Charlevoix","MI","Room 5","not_available","49720",45.314042,-85.275027
"49720","Charlevoix","MI","Charlevoix Physician's Clinic","14709 W Upright St","49720",45.31341583472658,-85.27563214302063
"49721","Cheboygan","MI","Cheboygan Memorial Hospital","not_available","49721",45.63163716731168,-84.4821278188465
"49721","Cheboygan","MI","Rivertown Medical Clinic","920 S Huron St","49721",45.62808609008789,-84.48445892333984
"49721","Cheboygan","MI","Northern Michigan Urology","125 N Main St","49721",45.64385986328125,-84.47779846191406
"49724","Dafter","MI","Northern Urgent Care & Family Practice","not_available","49788",46.266298,-84.467236
"49727","East Jordan","MI","Jordan Valley Rehab Center","100 Main St","49727",45.15460558232697,-85.12716829798592
"49730","Elmira","MI","OMH Medical Group - Elmira","2572 North US-131","49730",45.06315727879273,-84.85381007238175
"49735","Gaylord","MI","Munson Healthcare Home Medical Equipment - Gaylord","309 W North St","49735",45.0330810546875,-84.67803955078125
"49735","Gaylord","MI","Otsego Memorial Hospital - Outpatient Services","825 N Center Ave","49735",45.03523413201692,-84.67544138453377
"49735","Gaylord","MI","OMH Medical Group - Orthopedic Surgery","2147 Professional Dr","49735",44.999125959422514,-84.67136979124916
"49735","Gaylord","MI","Northern Michigan Urology","930 N Center Ave","49735",45.038883209228516,-84.6728515625
"49735","Gaylord","MI","OMH Professional Medical Building","829 N Center Ave","49735",45.03583908081055,-84.67668914794922
"49735","Gaylord","MI","OMH Medical Group - Internal Medicine","829 N Center Ave Ste 140","49735",45.03583908081055,-84.67668914794922
"49735","Gaylord","MI","OMH Walk-In Clinic","1996 Walden Dr","49735",45.00456146355223,-84.67344403266905
"49735","Gaylord","MI","OMH Medical Group - Pediatrics","829 N Center Ave Ste 130","49735",45.03601883941856,-84.6739912033081
"49735","Gaylord","MI","OMH Medical Group - Obstetrics & Gynecology","829 N Center Ave Ste 200","49735",45.03583908081055,-84.67668914794922
"49735","Gaylord","MI","OMH Cancer & Infusion Center","701 N Otsego Ave","49735",45.0349235534668,-84.67762756347656
"49735","Gaylord","MI","Traverse Heart & Vascular - Gaylord","617 N Court Ave","49735",45.03432083129883,-84.6761703491211
"49735","Gaylord","MI","OMH Medical Group - General Surgery","829 N Center Ave Ste 120","49735",45.03583908081055,-84.67668914794922
"49735","Gaylord","MI","OMH Medical Group - Family Practice","829 N Center Ave Ste 210","49735",45.03583908081055,-84.67668914794922
"49735","Gaylord","MI","OMH Medical Group - Urology","829 N Center Ave Ste 260","49735",45.03610855575952,-84.67389106772316
"49738","Grayling","MI","Grayling Hospital - Outpatient Services","1100 E Michigan Ave","49738",44.66761007187968,-84.7077941896714
"49738","Grayling","MI","Traverse Heart & Vascular - Grayling","1107 E Michigan Ave","49738",44.66823959350586,-84.70823669433594
"49738","Grayling","MI","Grayling Community Health Center","1250 E Michigan Ave","49738",44.66972351074219,-84.70723724365234
"49738","Grayling","MI","Mercy Hospital","1100-1104 E Michigan Ave","49738",44.668112781120584,-84.70670490288128
"49738","Grayling","MI","AuSable Urology","809 E Michigan Ave","49738",44.6657762235184,-84.7093570236757
"49738","Grayling","MI","Ausable Urgent Care","N Down River Rd.","49738",44.67052986584431,-84.70725059509277
"49738","Grayling","MI","Milltown Primary Care","1200 W North Down River Rd","49738",44.670562744140625,-84.70982360839844
"49738","Grayling","MI","Grayling Surgical Services","1010 W North Down River Rd","49738",44.670326232910156,-84.71282958984375
"49749","Indian River","MI","Traverse Heart & Vascular - Indian River","3696 S Straits Hwy","49749",45.408714294433594,-84.61383056640625
"49749","Indian River","MI","OMH Medical Group - Indian River","3860 S Straits Hwy","49749",45.40642989164085,-84.61524188540352
"49770","Petoskey","MI","McLaren Northern Michigan","416 Connable Ave","49770",45.37275,-84.97075
"49770","Petoskey","MI","Northern Michigan Urology","405 Division Rd., Ste. 2","49770",45.37613890440884,-84.92665886922623
"49770","Petoskey","MI","Petoskey Urgent Care","Anderson Road","49770",45.351675899895724,-84.96880612336099
"49770","Petoskey","MI","Lockwood Hospital","820 Arlington Ave","49770",45.380069732666016,-84.94337463378906
"49779","Rogers City","MI","Northern Michigan Urology","573 N Bradley Hwy","49779",45.422889709472656,-83.8347396850586
"49779","Rogers City","MI","Tendercare","not_available","49779",45.422529973080835,-83.83513055875233
"49781","Saint Ignace","MI","Sault Tribe Hospital","Alpine","49781",45.890579816148644,-84.7287724790412
"49781","Saint Ignace","MI","Mackinaw Straits Health System","1140 N State St","49781",45.89064192832927,-84.72940824856772
"49782","Beaver Island","MI","Beaver Island Rehabilitation Center","37304 Kings Hwy","49782",45.73650385474307,-85.52510976791382
"49783","Sault Sainte Marie","MI","War Memorial Hospital","500 Osborn Blvd","49783",46.4980756,-84.35007259999999
"49783","Sault Sainte Marie","MI","Northern Michigan Urology","550 Osborn Blvd Ste 2600","49783",46.4976692199707,-84.34989166259766
"49801","Iron Mountain","MI","Dickinson Health Care System","not_available","49801",45.809305164503144,-88.04559790235773
"49801","Iron Mountain","MI","Dickinson County Memorial Hospital","1721 S Stephenson Ave","49801",45.81008944211809,-88.04397743519313
"49801","Iron Mountain","MI","Veteran's Hospital","325 E H St","49801",45.81041717529297,-88.06155395507812
"49801","Iron Mountain","MI","VA Medical Center","622-624 E I St","49801",45.81145338233721,-88.06088479584805
"49801","Iron Mountain","MI","Shared Imaging MRI","325 H Street","49801",45.81041,-88.06054
"49801","Iron Mountain","MI","marquette medical clinic kingsford","800 East Blvd","49802",45.8018798828125,-88.0770492553711
"49807","Bark River","MI","OSF HealthCare St. Francis Hospital & Medical Group - Walk-In Clinic","3409 Ludington St","49829",45.741988,-87.096601
"49807","Bark River","MI","OSF HealthCare St. Francis Hospital & Medical Group","3401 Ludington St","49829",45.7422981262207,-87.0966567993164
"49829","Escanaba","MI","St. Francis Hospital","not_available","49837",45.8381372,-87.04676966666666
"49849","Ishpeming","MI","UP Health System - Bell Hospital","901 Lakeshore Dr","49849",46.50489234528928,-87.6846848041925
"49854","Manistique","MI","Schoolcraft Memorial Homecare & Hospice","115 N Lake Street","49854",45.9583881,-86.2415259
"49854","Manistique","MI","Schoolcraft Memorial Hospital Emergency Room","7870 U.S. 2","49854",45.9466777,-86.2761068
"49854","Manistique","MI","Schoolcraft Memorial Hospital","7870W US Hwy 2","49854",45.9464565103617,-86.27625392941123
"49855","Marquette","MI","UPHS","not_available","49855",46.543879,-87.408205
"49855","Marquette","MI","Ryan Dick-Perez","850 W Baraga Ave","49855",46.54363599270587,-87.40806324643108
"49855","Marquette","MI","BioLife Plasma Services","175 Hawley Street","49855",46.57049939049785,-87.39465851659625
"49855","Marquette","MI","Brain And Spine","580 W College Ave","49855",46.554728,-87.400457
"49855","Marquette","MI","MEDI-PART, INC","205 West Terrace Street","49855",46.4947234,-87.35512469999999
"49855","Marquette","MI","Superior Walk-In Center","2382 US Highway 41 W","49855",46.55012130737305,-87.43962860107422
"49855","Marquette","MI","superior walk in center","1414 W Fair Ave, Marquette Township, MI 49855","49855",46.55795020522385,-87.41826673970066
"49862","Munising","MI","Munising Memorial Hospital","not_available","49862",46.425239000000005,-86.625117
"49868","Newberry","MI","Helen Newberry Joy Hospital","502 W Harrie St","49868",46.353278,-85.51555
"49870","Norway","MI","Michael E. Zevitz MD PLLC","415 W US Highway 2","49870",45.7884635925293,-87.91716766357422
"49887","Stephenson","MI","Roubals","not_available","49887",45.420074,-87.598363
"49908","Baraga","MI","Baraga County Memorial Hospital","not_available","49946",46.76467021,-88.44704307
"49911","Bessemer","MI","Aspirus Grandview Hospital","n10565 Grandview Lane","49938",46.48072498,-90.106609
"49911","Bessemer","MI","Ski Patrol Room @ Blackjack Ski Resort","not_available","49911",46.50486373901367,-89.99774932861328
"49913","Calumet","MI","Aspirus Keweenaw Hospital","205 Osceola Street","49913",47.2389105,-88.4434608
"49913","Calumet","MI","Shared Diagnostics","500 Campus Dr","49930",47.141148,-88.58589
"49920","Crystal Falls","MI","Iron County Medical Care Facility","not_available","49920",46.0933456798938,-88.37456335289399
"49930","Hancock","MI","UP Health System - Portage Express Care","921 W Sharon Ave","49931",47.1127128,-88.586174
"49935","Iron River","MI","Iron River Care Center","not_available","49935",46.10028176804456,-88.62643840197954
"49938","Ironwood","MI","Gogebic Medical Care Facility","402 North St","49968",46.464908599853516,-89.9700698852539
"49953","Ontonagon","MI","Aspirus Ontonagon Hospital and Clinic","601 S 7th St","49953",46.86586157825703,-89.30140256881714
